{"amenity/atm/halykbank-89b827":{"name":"Halyk Bank","locationSet":{"include":["ge","kg","kz","ru","tj","uz"]},"geometry":["point","vertex"],"matchScore":2,"terms":["«қазақстан халық банкі» ақ","halyk bank","ао «народный банк казахстана»","казкоммерцбанк","народный банк","халык банк","халық банкі"],"fields":["name","brand","{amenity/atm}"],"tags":{"amenity":"atm","brand:wikidata":"Q1046186"},"addTags":{"amenity":"atm","brand":"Halyk Bank","brand:wikidata":"Q1046186","name:en":"Halyk Bank","name:kk":"Халық Банкі","name:ru":"Халык банк","official_name:kk":"«Қазақстан Халық Банкі» АҚ","official_name:ru":"АО «Народный Банк Казахстана»","old_name":"Народный банк","operator":"Halyk Bank","operator:wikidata":"Q1046186"}},"amenity/atm/hamkorbank-184f05":{"name":"Hamkorbank","locationSet":{"include":["uz"]},"geometry":["point","vertex"],"matchScore":2,"terms":["hamkorbank"],"fields":["name","brand","{amenity/atm}"],"tags":{"amenity":"atm","brand:wikidata":"Q12166841"},"addTags":{"amenity":"atm","brand":"Hamkorbank","brand:wikidata":"Q12166841","operator":"Hamkorbank","operator:wikidata":"Q12166841"}},"amenity/atm/db7b15-184f05":{"name":"Ipak Yoʻli banki","locationSet":{"include":["uz"]},"geometry":["point","vertex"],"matchScore":2,"terms":["ipak yo'li banki","ipak yoʻli banki"],"fields":["name","brand","{amenity/atm}"],"tags":{"amenity":"atm","brand:wikidata":"Q25534044"},"addTags":{"amenity":"atm","brand":"Ipak Yoʻli banki","brand:wikidata":"Q25534044","operator":"Ipak Yoʻli banki","operator:wikidata":"Q25534044"}},"amenity/atm/7e41fb-184f05":{"name":"Oʻzsanoatqurilishbank","locationSet":{"include":["uz"]},"geometry":["point","vertex"],"matchScore":2,"terms":["oʻzsanoatqurilishbank","ozsanoatqurilishbank","sqb"],"fields":["name","brand","{amenity/atm}"],"tags":{"amenity":"atm","brand:wikidata":"Q125490175"},"addTags":{"amenity":"atm","brand":"Oʻzsanoatqurilishbank","brand:short":"SQB","brand:wikidata":"Q125490175","operator":"Oʻzsanoatqurilishbank","operator:wikidata":"Q125490175"}},"amenity/atm/xalqbank-184f05":{"name":"Xalq banki","locationSet":{"include":["uz"]},"geometry":["point","vertex"],"matchScore":2,"terms":["xalq bank","xalq banki"],"fields":["name","brand","{amenity/atm}"],"tags":{"amenity":"atm","brand:wikidata":"Q25524065"},"addTags":{"amenity":"atm","brand":"Xalq banki","brand:en":"Xalq bank","brand:uz":"Xalq banki","brand:wikidata":"Q25524065","name:en":"Xalq bank","name:uz":"Xalq banki","operator":"Xalq banki","operator:wikidata":"Q25524065"}},"amenity/bank/halykbank-93fd52":{"name":"Halyk Bank","locationSet":{"include":["ge","kg","kz","ru","tj","uz"]},"geometry":["point","area"],"matchScore":2,"terms":["«қазақстан халық банкі» ақ","halyk bank","ао «народный банк казахстана»","казкоммерцбанк","народный банк","халык банк","халық банкі"],"tags":{"amenity":"bank","brand:wikidata":"Q1046186"},"addTags":{"amenity":"bank","brand":"Halyk Bank","brand:wikidata":"Q1046186","name":"Halyk Bank","name:en":"Halyk Bank","name:kk":"Халық Банкі","name:ru":"Халык банк","official_name:kk":"«Қазақстан Халық Банкі» АҚ","official_name:ru":"АО «Народный Банк Казахстана»","old_name":"Народный банк"}},"amenity/bank/hamkorbank-99790d":{"name":"Hamkorbank","locationSet":{"include":["uz"]},"geometry":["point","area"],"matchScore":2,"terms":["hamkorbank"],"tags":{"amenity":"bank","brand:wikidata":"Q12166841"},"addTags":{"amenity":"bank","brand":"Hamkorbank","brand:wikidata":"Q12166841","name":"Hamkorbank"}},"amenity/bank/db7b15-99790d":{"name":"Ipak Yoʻli banki","locationSet":{"include":["uz"]},"geometry":["point","area"],"matchScore":2,"terms":["ipak yo'li banki","ipak yoʻli banki"],"tags":{"amenity":"bank","brand:wikidata":"Q25534044"},"addTags":{"amenity":"bank","brand":"Ipak Yoʻli banki","brand:wikidata":"Q25534044","name":"Ipak Yoʻli banki"}},"amenity/bank/7e41fb-99790d":{"name":"Oʻzsanoatqurilishbank","locationSet":{"include":["uz"]},"geometry":["point","area"],"matchScore":2,"terms":["oʻzsanoatqurilishbank","ozsanoatqurilishbank","sqb"],"tags":{"amenity":"bank","brand:wikidata":"Q125490175"},"addTags":{"amenity":"bank","brand":"Oʻzsanoatqurilishbank","brand:short":"SQB","brand:wikidata":"Q125490175","name":"Oʻzsanoatqurilishbank"}},"amenity/bank/xalqbanki-99790d":{"name":"Xalq banki","locationSet":{"include":["uz"]},"geometry":["point","area"],"matchScore":2,"terms":["xalq bank","xalq banki"],"tags":{"amenity":"bank","brand:wikidata":"Q25524065"},"addTags":{"amenity":"bank","brand":"Xalq banki","brand:en":"Xalq bank","brand:uz":"Xalq banki","brand:wikidata":"Q25524065","name":"Xalq banki","name:en":"Xalq bank","name:uz":"Xalq banki"}},"amenity/ice_cream/fd1d7e-3c9560":{"name":"33 пингвина","locationSet":{"include":["by","kg","kz","ru","uz"]},"geometry":["point","area"],"matchScore":2,"terms":["33 пингвина"],"tags":{"amenity":"ice_cream","brand:wikidata":"Q110147993"},"addTags":{"amenity":"ice_cream","brand":"33 пингвина","brand:wikidata":"Q110147993","name":"33 пингвина"}},"amenity/payment_terminal/paynet-a0f381":{"name":"Paynet","locationSet":{"include":["uz"]},"geometry":["point"],"matchScore":2,"terms":["paynet"],"tags":{"amenity":"payment_terminal","brand:wikidata":"Q65284105"},"addTags":{"amenity":"payment_terminal","brand":"Paynet","brand:wikidata":"Q65284105","name":"Paynet"}},"shop/bakery/paul-652955":{"name":"Paul","locationSet":{"include":["ae","az","be","bh","by","ci","cy","cz","eg","es","fr","ga","gb","ge","gr","id","in","jo","jp","kw","kz","lb","lu","ma","mu","my","om","pa","ph","pl","pt","qa","ro","ru","sa","sg","th","tn","tw","ua","us","uz","vn","za"]},"geometry":["point","area"],"matchScore":2,"terms":["paul"],"tags":{"brand:wikidata":"Q3370417","shop":"bakery"},"addTags":{"brand":"Paul","brand:wikidata":"Q3370417","name":"Paul","shop":"bakery"}},"shop/mobile_phone/svyaznoy-fee8f4":{"name":"Связной","locationSet":{"include":["by","ru","uz"]},"geometry":["point","area"],"matchScore":2,"terms":["svyaznoy","связной"],"tags":{"brand:wikidata":"Q65371","shop":"mobile_phone"},"addTags":{"brand":"Связной","brand:en":"Svyaznoy","brand:ru":"Связной","brand:wikidata":"Q65371","name":"Связной","name:en":"Svyaznoy","name:ru":"Связной","shop":"mobile_phone"}},"shop/outpost/wildberries-f8825b":{"name":"Wildberries","locationSet":{"include":["am","by","kg","kz","ru","uz"]},"geometry":["point","area"],"matchScore":2,"terms":["wildberries"],"tags":{"brand:wikidata":"Q24933714","shop":"outpost"},"addTags":{"brand":"Wildberries","brand:wikidata":"Q24933714","name":"Wildberries","shop":"outpost"}},"shop/shoes/drkong-2bd793":{"name":"Dr. Kong","locationSet":{"include":["az","bn","bu","cn","es","id","mn","my","ph","sg","th","uz"]},"geometry":["point","area"],"matchScore":2,"terms":["dr. kong","江博士"],"tags":{"brand:wikidata":"Q116547631","shop":"shoes"},"addTags":{"brand":"Dr. Kong","brand:wikidata":"Q116547631","name":"Dr. Kong","name:en":"Dr. Kong","shop":"shoes"}},"shop/supermarket/korzinka-c068bf":{"name":"Korzinka","locationSet":{"include":["uz"]},"geometry":["point","area"],"matchScore":2,"terms":["korzinka"],"tags":{"brand:wikidata":"Q110120894","shop":"supermarket"},"addTags":{"brand":"Korzinka","brand:wikidata":"Q110120894","name":"Korzinka","shop":"supermarket"}},"tourism/hotel/lottehotel-304b57":{"name":"Lotte Hotel","locationSet":{"include":["jp","kr","mm","ru","us","uz","vn"]},"geometry":["point","area"],"matchScore":2,"terms":["lotte","lotte hotels & resorts"],"fields":["name","brand","{tourism/hotel}"],"tags":{"brand:wikidata":"Q326720","tourism":"hotel"},"addTags":{"brand":"Lotte Hotels & Resorts","brand:wikidata":"Q326720","name":"Lotte Hotel","short_name":"Lotte","tourism":"hotel"}},"amenity/post_box/uzpost-f090a1":{"name":"UzPost","locationSet":{"include":["uz"]},"geometry":["point","vertex"],"matchScore":2,"terms":["oʻzbekiston pochtasi","ozbekiston pochtasi","ozbеkiston pochtasi aj","uzpost"],"tags":{"amenity":"post_box","operator:wikidata":"Q105227651"},"addTags":{"amenity":"post_box","operator":"UzPost","operator:wikidata":"Q105227651"}},"amenity/post_office/uzpost-9811e4":{"name":"UzPost","locationSet":{"include":["uz"]},"geometry":["point","area"],"matchScore":2,"terms":["oʻzbekiston pochtasi","ozbekiston pochtasi","ozbеkiston pochtasi aj","uzpost"],"fields":["name","operator","{amenity/post_office}"],"tags":{"amenity":"post_office","operator:wikidata":"Q105227651"},"addTags":{"amenity":"post_office","operator":"UzPost","operator:wikidata":"Q105227651"}},"power/line/99723a-1301e2":{"name":"Oʻzbekenergo","locationSet":{"include":["uz"]},"geometry":["line"],"matchScore":2,"terms":["oʻzbekenergo","ozbekenergo","uzbekenergo"],"tags":{"operator:wikidata":"Q4469715","power":"line"},"addTags":{"operator":"Oʻzbekenergo","operator:wikidata":"Q4469715","power":"line"}},"power/minor_line/99723a-47c44f":{"name":"Oʻzbekenergo","locationSet":{"include":["uz"]},"geometry":["line"],"matchScore":2,"terms":["oʻzbekenergo","ozbekenergo","uzbekenergo"],"tags":{"operator:wikidata":"Q4469715","power":"minor_line"},"addTags":{"operator":"Oʻzbekenergo","operator:wikidata":"Q4469715","power":"minor_line"}},"power/pole/99723a-8d481d":{"name":"Oʻzbekenergo","locationSet":{"include":["uz"]},"geometry":["point","vertex"],"matchScore":2,"terms":["oʻzbekenergo","ozbekenergo","uzbekenergo"],"tags":{"operator:wikidata":"Q4469715","power":"pole"},"addTags":{"operator":"Oʻzbekenergo","operator:wikidata":"Q4469715","power":"pole"}},"power/tower/99723a-566258":{"name":"Oʻzbekenergo","locationSet":{"include":["uz"]},"geometry":["point","vertex"],"matchScore":2,"terms":["oʻzbekenergo","ozbekenergo","uzbekenergo"],"tags":{"operator:wikidata":"Q4469715","power":"tower"},"addTags":{"operator":"Oʻzbekenergo","operator:wikidata":"Q4469715","power":"tower"}}}