{"amenity/atm/baccredomatic-9c7dd6":{"name":"BAC Credomatic","locationSet":{"include":["cr","gt","hn","ni","pa","sv"]},"geometry":["point","vertex"],"matchScore":2,"terms":["bac","bac credomatic"],"fields":["name","brand","{amenity/atm}"],"tags":{"amenity":"atm","brand:wikidata":"Q5715556"},"addTags":{"amenity":"atm","brand":"BAC Credomatic","brand:wikidata":"Q5715556","operator":"BAC Credomatic","operator:wikidata":"Q5715556"}},"amenity/atm/bancoazteca-6e6832":{"name":"Banco Azteca","locationSet":{"include":["gt","hn","mx","pa","pe","sv"]},"geometry":["point","vertex"],"matchScore":2,"terms":["banco azteca"],"fields":["name","brand","{amenity/atm}"],"tags":{"amenity":"atm","brand:wikidata":"Q4854076"},"addTags":{"amenity":"atm","brand":"Banco Azteca","brand:wikidata":"Q4854076","operator":"Banco Azteca","operator:wikidata":"Q4854076"}},"amenity/atm/bwbank-a6d133":{"name":"Banco General","locationSet":{"include":["cr","pa"]},"geometry":["point","vertex"],"matchScore":2,"terms":["bw-bank"],"fields":["name","brand","{amenity/atm}"],"tags":{"amenity":"atm","brand:wikidata":"Q27618271"},"addTags":{"amenity":"atm","brand":"BW-Bank","brand:wikidata":"Q27618271","operator":"BW-Bank","operator:wikidata":"Q27618271"}},"amenity/atm/banconacionaldecostarica-a6d133":{"name":"Banco Nacional","locationSet":{"include":["cr","pa"]},"geometry":["point","vertex"],"matchScore":2,"terms":["banco nacional de costa rica","bncr"],"fields":["name","brand","{amenity/atm}"],"tags":{"amenity":"atm","brand:wikidata":"Q2917708"},"addTags":{"amenity":"atm","brand":"Banco Nacional de Costa Rica","brand:wikidata":"Q2917708","official_name":"Banco Nacional de Costa Rica","operator":"Banco Nacional de Costa Rica","operator:wikidata":"Q2917708","short_name":"BNCR"}},"amenity/atm/davivienda-ad7b0d":{"name":"Davivienda","locationSet":{"include":["co","cr","hn","pa","sv"]},"geometry":["point","vertex"],"matchScore":2,"terms":["banco davivienda","davivienda"],"fields":["name","brand","{amenity/atm}"],"tags":{"amenity":"atm","brand:wikidata":"Q5242054"},"addTags":{"amenity":"atm","brand":"Davivienda","brand:wikidata":"Q5242054","operator":"Davivienda","operator:wikidata":"Q5242054"}},"amenity/atm/ficohsa-3c5276":{"name":"Ficohsa","locationSet":{"include":["es","gt","hn","ni","pa","us"]},"geometry":["point","vertex"],"matchScore":2,"terms":["banco ficohsa","ficohsa"],"fields":["name","brand","{amenity/atm}"],"tags":{"amenity":"atm","brand:wikidata":"Q5886178"},"addTags":{"amenity":"atm","brand":"Ficohsa","brand:wikidata":"Q5886178","operator":"Ficohsa","operator:wikidata":"Q5886178"}},"amenity/bank/baccredomatic-a7c666":{"name":"BAC Credomatic","locationSet":{"include":["cr","gt","hn","ni","pa","sv"]},"geometry":["point","area"],"matchScore":2,"terms":["bac","bac credomatic"],"tags":{"amenity":"bank","brand:wikidata":"Q5715556"},"addTags":{"amenity":"bank","brand":"BAC Credomatic","brand:wikidata":"Q5715556","name":"BAC Credomatic"}},"amenity/bank/bancoazteca-a695fe":{"name":"Banco Azteca","locationSet":{"include":["gt","hn","mx","pa","pe","sv"]},"geometry":["point","area"],"matchScore":2,"terms":["banco azteca"],"tags":{"amenity":"bank","brand:wikidata":"Q4854076"},"addTags":{"amenity":"bank","brand":"Banco Azteca","brand:wikidata":"Q4854076","name":"Banco Azteca"}},"amenity/bank/bancogeneral-865fd1":{"name":"Banco General","locationSet":{"include":["cr","pa"]},"geometry":["point","area"],"matchScore":2,"terms":["bw-bank"],"tags":{"amenity":"bank","brand:wikidata":"Q27618271"},"addTags":{"amenity":"bank","brand":"BW-Bank","brand:wikidata":"Q27618271","name":"Banco General"}},"amenity/bank/banconacional-865fd1":{"name":"Banco Nacional","locationSet":{"include":["cr","pa"]},"geometry":["point","area"],"matchScore":2,"terms":["banco nacional de costa rica","bncr"],"tags":{"amenity":"bank","brand:wikidata":"Q2917708"},"addTags":{"amenity":"bank","brand":"Banco Nacional de Costa Rica","brand:wikidata":"Q2917708","name":"Banco Nacional","official_name":"Banco Nacional de Costa Rica","short_name":"BNCR"}},"amenity/bank/davivienda-0357a0":{"name":"Davivienda","locationSet":{"include":["co","cr","hn","pa","sv"]},"geometry":["point","area"],"matchScore":2,"terms":["banco davivienda","davivienda"],"tags":{"amenity":"bank","brand:wikidata":"Q5242054"},"addTags":{"amenity":"bank","brand":"Davivienda","brand:wikidata":"Q5242054","name":"Davivienda"}},"amenity/bank/ficohsa-47ab19":{"name":"Ficohsa","locationSet":{"include":["es","gt","hn","ni","pa","us"]},"geometry":["point","area"],"matchScore":2,"terms":["banco ficohsa","ficohsa"],"tags":{"amenity":"bank","brand:wikidata":"Q5886178"},"addTags":{"amenity":"bank","brand":"Ficohsa","brand:wikidata":"Q5886178","name":"Ficohsa"}},"amenity/casino/codere-3dfd07":{"name":"Codere","locationSet":{"include":["ar","co","es","it","mx","pa","uy"]},"geometry":["point","area"],"matchScore":2,"terms":["codere"],"tags":{"amenity":"casino","brand:wikidata":"Q2918415"},"addTags":{"amenity":"casino","brand":"Codere","brand:wikidata":"Q2918415","name":"Codere"}},"amenity/cinema/caribbeancinemas-77ba3f":{"name":"Caribbean Cinemas","locationSet":{"include":["ag","do","fr","gy","kn","lc","nl","pa","tt","us"]},"geometry":["point","area"],"matchScore":2,"terms":["caribbean cinemas"],"fields":["name","brand","{amenity/cinema}"],"tags":{"amenity":"cinema","brand:wikidata":"Q5039364"},"addTags":{"amenity":"cinema","brand":"Caribbean Cinemas","brand:wikidata":"Q5039364","name":"Caribbean Cinemas"}},"amenity/fast_food/woktowalk-f5ada9":{"name":"Wok to Walk","locationSet":{"include":["ae","bg","co","cy","ec","ee","es","fx","gb","il","in","it","lt","lv","ma","mt","mx","nl","om","pa","pt","qa","sa","us"]},"geometry":["point","area"],"matchScore":2,"terms":["wok to walk"],"tags":{"amenity":"fast_food","brand:wikidata":"Q4020634"},"addTags":{"amenity":"fast_food","brand":"Wok to Walk","brand:wikidata":"Q4020634","cuisine":"asian","name":"Wok to Walk","takeaway":"yes"}},"amenity/fuel/delta-1fbae0":{"name":"Delta (Panama & Costa Rica)","locationSet":{"include":["cr","pa"]},"geometry":["point","area"],"matchScore":2,"terms":["delta"],"fields":["name","brand","{amenity/fuel}"],"tags":{"amenity":"fuel","brand:wikidata":"Q62274638"},"addTags":{"amenity":"fuel","brand":"Delta","brand:wikidata":"Q62274638","name":"Delta"}},"amenity/fuel/terpel-23f925":{"name":"Terpel","locationSet":{"include":["cl","co","do","ec","mx","pa"]},"geometry":["point","area"],"matchScore":2,"terms":["terpel"],"fields":["name","brand","{amenity/fuel}"],"tags":{"amenity":"fuel","brand:wikidata":"Q7703003"},"addTags":{"amenity":"fuel","brand":"Terpel","brand:wikidata":"Q7703003","name":"Terpel"}},"amenity/ice_cream/smooy-bac155":{"name":"smöoy","locationSet":{"include":["ao","ci","cn","dz","ec","es","fr","gb","gn","it","ma","pa","pe","pt","re","sa"]},"geometry":["point","area"],"matchScore":2,"terms":["smöoy","softy cream"],"tags":{"amenity":"ice_cream","brand:wikidata":"Q21573945"},"addTags":{"amenity":"ice_cream","brand":"smöoy","brand:wikidata":"Q21573945","name":"smöoy","official_name":"Softy Cream"}},"amenity/language_school/els-89568f":{"name":"ELS","locationSet":{"include":["ca","in","my","pa","sa","tr","us","vn"]},"geometry":["point","area"],"matchScore":2,"terms":["els","els language centers"],"fields":["name","brand","{amenity/language_school}"],"tags":{"amenity":"language_school","brand:wikidata":"Q5323325"},"addTags":{"amenity":"language_school","brand":"ELS","brand:en":"ELS","brand:wikidata":"Q5323325","language:en":"main","name":"ELS","name:en":"ELS","official_name":"ELS Language Centers","official_name:en":"ELS Language Centers"}},"amenity/restaurant/japanese/benihana-bbd124":{"name":"Benihana","locationSet":{"include":["aw","br","ca","pa","sv","us"]},"geometry":["point","area"],"matchScore":2,"terms":["benihana","benihana of tokyo"],"reference":{"key":"cuisine","value":"japanese"},"tags":{"amenity":"restaurant","brand:wikidata":"Q4887996","cuisine":"japanese;teppanyaki;steak"},"addTags":{"amenity":"restaurant","brand":"Benihana","brand:wikidata":"Q4887996","cuisine":"japanese;teppanyaki;steak","name":"Benihana"}},"amenity/restaurant/crepesandwaffles-7b5290":{"name":"Crepes & Waffles","locationSet":{"include":["br","cl","co","ec","es","mx","pa","pe","ve"]},"geometry":["point","area"],"matchScore":2,"terms":["crepes & waffles"],"tags":{"amenity":"restaurant","brand:wikidata":"Q5184238"},"addTags":{"alt_name":"Crepes & Waffles","amenity":"restaurant","brand":"Crepes & Waffles","brand:wikidata":"Q5184238","cuisine":"crepe;ice_cream","name":"Crepes & Waffles"}},"emergency/ambulance_station/cruzrojapanamena-8f239b":{"name":"Cruz Roja Panameña","locationSet":{"include":["pa"]},"geometry":["point","area"],"matchScore":2,"terms":["crp","cruz roja","cruz roja panameña"],"fields":["name","brand","{emergency/ambulance_station}"],"tags":{"brand:wikidata":"Q97183264","emergency":"ambulance_station"},"addTags":{"brand":"Cruz Roja Panameña","brand:wikidata":"Q97183264","emergency":"ambulance_station","name":"Cruz Roja Panameña"}},"office/insurance/axa-2e7672":{"name":"AXA","locationSet":{"include":["ae","ar","au","be","bh","bm","br","ca","ch","ci","cl","cm","cn","co","cz","de","dk","dz","eg","es","fi","fr","ga","gb","gr","hk","id","ie","in","it","jp","kr","lb","lu","ma","mu","mx","my","ng","nl","no","om","pa","pe","ph","pl","pt","qa","sa","se","sg","sk","sn","th","tr","tw","us"]},"geometry":["point","area"],"matchScore":2,"terms":["axa"],"fields":["name","brand","{office/insurance}"],"tags":{"brand:wikidata":"Q160054","office":"insurance"},"addTags":{"brand":"AXA","brand:wikidata":"Q160054","name":"AXA","office":"insurance"}},"shop/bakery/paul-652955":{"name":"Paul","locationSet":{"include":["ae","az","be","bh","by","ci","cy","cz","eg","es","fr","ga","gb","ge","gr","id","in","jo","jp","kw","kz","lb","lu","ma","mu","my","om","pa","ph","pl","pt","qa","ro","ru","sa","sg","th","tn","tw","ua","us","uz","vn","za"]},"geometry":["point","area"],"matchScore":2,"terms":["paul"],"tags":{"brand:wikidata":"Q3370417","shop":"bakery"},"addTags":{"brand":"Paul","brand:wikidata":"Q3370417","name":"Paul","shop":"bakery"}},"shop/car/karma-40d0fc":{"name":"Karma","locationSet":{"include":["be","ca","cn","ec","es","fr","il","is","nl","pa","se","us"]},"geometry":["point","area"],"matchScore":2,"terms":["karma automotive"],"fields":["name","brand","{shop/car}"],"tags":{"brand:wikidata":"Q22671741","shop":"car"},"addTags":{"brand":"Karma Automotive","brand:wikidata":"Q22671741","name":"Karma","shop":"car"}},"shop/clothes/express-e10c9b":{"name":"Express","locationSet":{"include":["cr","gt","mx","pa","pr","sv","us"]},"geometry":["point","area"],"matchScore":2,"terms":["express"],"tags":{"brand:wikidata":"Q1384784","shop":"clothes"},"addTags":{"brand":"Express","brand:wikidata":"Q1384784","name":"Express","shop":"clothes"}},"shop/clothes/expressmen-e10c9b":{"name":"Express Men","locationSet":{"include":["cr","gt","mx","pa","pr","sv","us"]},"geometry":["point","area"],"matchScore":2,"terms":["express"],"tags":{"brand:wikidata":"Q1384784","shop":"clothes"},"addTags":{"brand":"Express","brand:wikidata":"Q1384784","name":"Express Men","shop":"clothes"}},"shop/department_store/elektra-95a469":{"name":"Elektra","locationSet":{"include":["gt","hn","mx","pa","pe","sv"]},"geometry":["point","area"],"matchScore":2,"terms":["elektra"],"tags":{"brand:wikidata":"Q1142753","shop":"department_store"},"addTags":{"brand":"Elektra","brand:wikidata":"Q1142753","name":"Elektra","shop":"department_store"}},"shop/electronics/elektra-10d776":{"name":"Elektra","locationSet":{"include":["gt","hn","pa","pe","sv"]},"geometry":["point","area"],"matchScore":2,"terms":["elektra"],"tags":{"brand:wikidata":"Q1142753","shop":"electronics"},"addTags":{"brand":"Elektra","brand:wikidata":"Q1142753","name":"Elektra","shop":"electronics"}},"shop/hairdresser/marcoaldany-d15f75":{"name":"Marco Aldany","locationSet":{"include":["es","hn","in","ma","mx","pa","pe","pl"]},"geometry":["point","area"],"matchScore":2,"terms":["marco aldany"],"tags":{"brand:wikidata":"Q112095114","shop":"hairdresser"},"addTags":{"brand":"Marco Aldany","brand:wikidata":"Q112095114","name":"Marco Aldany","shop":"hairdresser"}},"shop/hearing_aids/gaes-681898":{"name":"GAES","locationSet":{"include":["ar","cl","co","ec","es","mx","pa"]},"geometry":["point","area"],"matchScore":2,"terms":["gaes"],"tags":{"brand:wikidata":"Q98492565","shop":"hearing_aids"},"addTags":{"brand":"GAES","brand:wikidata":"Q98492565","name":"GAES","shop":"hearing_aids"}},"shop/mobile_phone/claro-1c9651":{"name":"Claro","locationSet":{"include":["ar","br","cl","co","cr","do","ec","gt","hn","ni","pa","pe","pr","py","sv","uy"]},"geometry":["point","area"],"matchScore":2,"terms":["claro"],"tags":{"brand:wikidata":"Q1770208","shop":"mobile_phone"},"addTags":{"brand":"Claro","brand:wikidata":"Q1770208","name":"Claro","shop":"mobile_phone"}},"shop/mobile_phone/movistar-de0f48":{"name":"Movistar","locationSet":{"include":["ar","cl","co","cr","ec","es","gt","mx","ni","pa","pe","sv","uy","ve"]},"geometry":["point","area"],"matchScore":2,"terms":["movistar"],"tags":{"brand:wikidata":"Q967735","shop":"mobile_phone"},"addTags":{"brand":"Movistar","brand:wikidata":"Q967735","name":"Movistar","shop":"mobile_phone"}},"shop/trade/fastenal-e4a373":{"name":"Fastenal","locationSet":{"include":["ca","pa","us"]},"geometry":["point","area"],"matchScore":2,"terms":["fastenal"],"tags":{"brand:wikidata":"Q3067119","shop":"trade"},"addTags":{"brand":"Fastenal","brand:wikidata":"Q3067119","name":"Fastenal","shop":"trade"}},"shop/travel_agency/viajeselcorteingles-d900b5":{"name":"Viajes El Corte Inglés","locationSet":{"include":["ar","cl","co","do","ec","es","fr","it","mx","pa","pe","pt","uy"]},"geometry":["point","area"],"matchScore":2,"terms":["viajes el corte inglés"],"tags":{"brand:wikidata":"Q115268048","shop":"travel_agency"},"addTags":{"brand":"Viajes El Corte Inglés","brand:wikidata":"Q115268048","name":"Viajes El Corte Inglés","shop":"travel_agency"}},"tourism/hotel/marriottexecutiveapartments-b2f419":{"name":"Marriott Executive Apartments","locationSet":{"include":["ae","be","bh","br","cn","et","gb","hu","id","in","kr","kz","pa","sa","th","za"]},"geometry":["point","area"],"matchScore":2,"terms":["marriott executive apartments"],"fields":["name","brand","{tourism/hotel}"],"tags":{"brand:wikidata":"Q72636824","tourism":"hotel"},"addTags":{"brand":"Marriott Executive Apartments","brand:wikidata":"Q72636824","name":"Marriott Executive Apartments","tourism":"hotel"}},"tourism/hotel/waldorfastoria-665f74":{"name":"Waldorf Astoria","locationSet":{"include":["ae","au","cn","de","eg","fx","gb","il","it","kw","mv","mx","nl","pa","sa","th","us"]},"geometry":["point","area"],"matchScore":2,"terms":["waldorf astoria"],"fields":["name","brand","{tourism/hotel}"],"tags":{"brand:wikidata":"Q3239392","tourism":"hotel"},"addTags":{"brand":"Waldorf Astoria","brand:wikidata":"Q3239392","name":"Waldorf Astoria","tourism":"hotel"}},"amenity/police/policianacionaldepanama-8db086":{"name":"Policía Nacional de Panama","locationSet":{"include":["pa"]},"geometry":["point","area"],"matchScore":2,"terms":["policía nacional de panama"],"tags":{"amenity":"police","operator:wikidata":"Q9061402"},"addTags":{"amenity":"police","operator":"Policía Nacional de Panama","operator:wikidata":"Q9061402"}},"amenity/telephone/claro-6490cd":{"name":"Claro","locationSet":{"include":["ai","ag","aw","bs","bb","bq","vg","ky","cu","cw","dm","do","gd","gp","ht","jm","mq","ms","pr","bl","kn","lc","mf","vc","sx","tt","tc","vi","bz","cr","sv","gt","hn","mx","ni","pa","ar","bo","bv","br","cl","co","ec","fk","gf","gy","py","pe","gs","sr","uy","ve"]},"geometry":["point","vertex"],"matchScore":2,"terms":["claro"],"fields":["name","operator","{amenity/telephone}"],"tags":{"amenity":"telephone","operator:wikidata":"Q1770208"},"addTags":{"amenity":"telephone","operator":"Claro","operator:wikidata":"Q1770208"}},"office/energy_supplier/naturgy-e15d8a":{"name":"Naturgy","locationSet":{"include":["ar","au","be","br","cl","cn","cr","de","do","dz","eg","es","fr","gb","ie","in","jm","jo","jp","lu","ma","mx","nl","om","pa","pe","pk","pr","pt","sg"]},"geometry":["point","area"],"matchScore":2,"terms":["naturgy"],"tags":{"office":"energy_supplier","operator:wikidata":"Q474690"},"addTags":{"name":"Naturgy","office":"energy_supplier","operator":"Naturgy","operator:wikidata":"Q474690"}}}