{"advertising/totem/everfuel-b750b3":{"name":"Everfuel","locationSet":{"include":["de","dk","nl","no"]},"geometry":["point","line"],"matchScore":2,"terms":["everfuel"],"tags":{"advertising":"totem","brand:wikidata":"Q114905024"},"addTags":{"advertising":"totem","brand":"Everfuel","brand:wikidata":"Q114905024","fuel:LH2":"yes"}},"advertising/totem/preem-a1e918":{"name":"Preem","locationSet":{"include":["dk","no","pl","se"]},"geometry":["point","line"],"matchScore":2,"terms":["preem"],"tags":{"advertising":"totem","brand:wikidata":"Q598835"},"addTags":{"advertising":"totem","brand":"Preem","brand:wikidata":"Q598835"}},"advertising/totem/tankpool24-836245":{"name":"tankpool24","locationSet":{"include":["by","bg","cz","hu","pl","md","ro","ru","sk","ua","ax","gg","je","cq","dk","ee","fo","fi","is","ie","im","lv","lt","no","sj","se","gb","al","ad","ba","hr","gi","gr","va","it","mt","me","mk","pt","sm","rs","si","es","xk","at","be","fr","de","li","lu","mc","nl","ch"]},"geometry":["point","line"],"matchScore":2,"terms":["tankpool24"],"tags":{"advertising":"totem","brand:wikidata":"Q126895471"},"addTags":{"advertising":"totem","brand":"tankpool24","brand:wikidata":"Q126895471"}},"advertising/totem/unox-38cbf4":{"name":"Uno-X","locationSet":{"include":["dk","no"]},"geometry":["point","line"],"matchScore":2,"terms":["uno-x"],"tags":{"advertising":"totem","brand:wikidata":"Q3362746"},"addTags":{"advertising":"totem","brand":"Uno-X","brand:wikidata":"Q3362746"}},"advertising/totem/yx-38cbf4":{"name":"YX","locationSet":{"include":["dk","no"]},"geometry":["point","line"],"matchScore":2,"terms":["yx","yx energi"],"tags":{"advertising":"totem","brand:wikidata":"Q4580519"},"addTags":{"advertising":"totem","brand":"YX","brand:wikidata":"Q4580519"}},"amenity/atm/bnpparibas-c2c2cf":{"name":"BNP Paribas","locationSet":{"include":["ae","af","ar","at","bf","bh","br","ca","ch","ci","cl","co","cz","de","dk","dz","es","fi","fr","gb","gf","gp","hu","ie","il","it","kw","ma","ml","mq","mx","nl","no","pe","pt","qa","re","ro","ru","sa","se","sk","sn","tn","tr","tw","us"]},"geometry":["point","vertex"],"matchScore":2,"terms":["bnp paribas"],"fields":["name","brand","{amenity/atm}"],"tags":{"amenity":"atm","brand:wikidata":"Q499707"},"addTags":{"amenity":"atm","brand":"BNP Paribas","brand:wikidata":"Q499707","operator":"BNP Paribas","operator:wikidata":"Q499707"}},"amenity/atm/danskebank-a2bade":{"name":"Danske Bank","locationSet":{"include":["dk","fi","gb","lt","no","se"]},"geometry":["point","vertex"],"matchScore":2,"terms":["danske bank"],"fields":["name","brand","{amenity/atm}"],"tags":{"amenity":"atm","brand:wikidata":"Q1636974"},"addTags":{"amenity":"atm","brand":"Danske Bank","brand:wikidata":"Q1636974","operator":"Danske Bank","operator:wikidata":"Q1636974"}},"amenity/atm/dnb-3693fd":{"name":"DNB","locationSet":{"include":["dk","lu","no","se"]},"geometry":["point","vertex"],"matchScore":2,"terms":["dnb"],"fields":["name","brand","{amenity/atm}"],"tags":{"amenity":"atm","brand:wikidata":"Q80788"},"addTags":{"amenity":"atm","brand":"DNB","brand:wikidata":"Q80788","operator":"DNB","operator:wikidata":"Q80788"}},"amenity/atm/handelsbanken-6789c7":{"name":"Handelsbanken","locationSet":{"include":["dk","fi","gb","no","se"]},"geometry":["point","vertex"],"matchScore":2,"terms":["handelsbanken"],"fields":["name","brand","{amenity/atm}"],"tags":{"amenity":"atm","brand:wikidata":"Q1421630"},"addTags":{"amenity":"atm","brand":"Handelsbanken","brand:wikidata":"Q1421630","operator":"Handelsbanken","operator:wikidata":"Q1421630"}},"amenity/atm/nordea-b6011c":{"name":"Nordea","locationSet":{"include":["dk","ee","fi","gb","lt","no","se","us"]},"geometry":["point","vertex"],"matchScore":2,"terms":["nordea"],"fields":["name","brand","{amenity/atm}"],"tags":{"amenity":"atm","brand:wikidata":"Q1123823"},"addTags":{"amenity":"atm","brand":"Nordea","brand:wikidata":"Q1123823","operator":"Nordea","operator:wikidata":"Q1123823"}},"amenity/bank/bnpparibas-e8666a":{"name":"BNP Paribas","locationSet":{"include":["ae","af","ar","at","bf","bh","br","ca","ch","ci","cl","co","cz","de","dk","dz","es","fi","fr","gb","gf","gp","hu","ie","il","it","kw","ma","ml","mq","mx","nl","no","pe","pt","qa","re","ro","ru","sa","se","sk","sn","tn","tr","tw","us"]},"geometry":["point","area"],"matchScore":2,"terms":["bnp paribas"],"tags":{"amenity":"bank","brand:wikidata":"Q499707"},"addTags":{"amenity":"bank","brand":"BNP Paribas","brand:wikidata":"Q499707","name":"BNP Paribas"}},"amenity/bank/danskebank-c75d31":{"name":"Danske Bank","locationSet":{"include":["dk","fi","gb","lt","no","se"]},"geometry":["point","area"],"matchScore":2,"terms":["danske bank"],"tags":{"amenity":"bank","brand:wikidata":"Q1636974"},"addTags":{"amenity":"bank","brand":"Danske Bank","brand:wikidata":"Q1636974","name":"Danske Bank"}},"amenity/bank/dnb-825b55":{"name":"DNB","locationSet":{"include":["dk","lu","no","se"]},"geometry":["point","area"],"matchScore":2,"terms":["dnb"],"tags":{"amenity":"bank","brand:wikidata":"Q80788"},"addTags":{"amenity":"bank","brand":"DNB","brand:wikidata":"Q80788"}},"amenity/bank/handelsbanken-1834eb":{"name":"Handelsbanken","locationSet":{"include":["dk","fi","gb","no","se"]},"geometry":["point","area"],"matchScore":2,"terms":["handelsbanken"],"fields":["name","brand","{amenity/bank}"],"tags":{"amenity":"bank","brand:wikidata":"Q1421630"},"addTags":{"amenity":"bank","brand":"Handelsbanken","brand:wikidata":"Q1421630","name":"Handelsbanken"}},"amenity/bank/nordea-5e8542":{"name":"Nordea","locationSet":{"include":["dk","ee","fi","gb","lt","no","se","us"]},"geometry":["point","area"],"matchScore":2,"terms":["nordea"],"fields":["name","brand","{amenity/bank}"],"tags":{"amenity":"bank","brand:wikidata":"Q1123823"},"addTags":{"amenity":"bank","brand":"Nordea","brand:wikidata":"Q1123823","name":"Nordea"}},"amenity/bicycle_rental/bergenbysykkel-e79826":{"name":"Bergen Bysykkel","locationSet":{"include":["no"]},"geometry":["point","vertex","area"],"matchScore":2,"terms":["bergen bysykkel","urban infrastructure partner as"],"fields":["name","brand","{amenity/bicycle_rental}"],"tags":{"amenity":"bicycle_rental","brand:wikidata":"Q109288835"},"addTags":{"amenity":"bicycle_rental","brand":"Bergen Bysykkel","brand:wikidata":"Q109288835","network":"Bergen Bysykkel","network:wikidata":"Q109288835","operator":"Urban Infrastructure Partner AS"}},"amenity/bicycle_rental/oslobysykkel-e79826":{"name":"Bysykkel (Oslo)","locationSet":{"include":["no"]},"geometry":["point","vertex","area"],"matchScore":2,"terms":["bysykkel oslo","oslo bysykkel","uip oslo bysykkel as"],"fields":["name","brand","{amenity/bicycle_rental}"],"tags":{"amenity":"bicycle_rental","brand:wikidata":"Q7107010"},"addTags":{"amenity":"bicycle_rental","brand":"Oslo Bysykkel","brand:wikidata":"Q7107010","network":"Oslo Bysykkel","network:wikidata":"Q7107010","operator":"UIP Oslo Bysykkel AS"}},"amenity/bicycle_rental/donkeyrepublic-c32b83":{"name":"Donkey Republic","locationSet":{"include":["by","bg","cz","hu","pl","md","ro","ru","sk","ua","ax","gg","je","cq","dk","ee","fo","fi","is","ie","im","lv","lt","no","sj","se","gb","al","ad","ba","hr","gi","gr","va","it","mt","me","mk","pt","sm","rs","si","es","xk","at","be","fr","de","li","lu","mc","nl","ch"]},"geometry":["point","vertex","area"],"matchScore":2,"terms":["donkey republic"],"fields":["name","brand","{amenity/bicycle_rental}"],"tags":{"amenity":"bicycle_rental","brand:wikidata":"Q63753939"},"addTags":{"amenity":"bicycle_rental","brand":"Donkey Republic","brand:wikidata":"Q63753939","name":"Donkey Republic","operator":"Donkey Republic"}},"amenity/cafe/coffee_shop/espressohouse-99eace":{"name":"Espresso House","locationSet":{"include":["de","dk","fi","no","se"]},"geometry":["point","area"],"matchScore":2,"terms":["espresso house"],"fields":["name","brand","{amenity/cafe/coffee_shop}"],"reference":{"key":"cuisine","value":"coffee_shop"},"tags":{"amenity":"cafe","brand:wikidata":"Q10489162","cuisine":"coffee_shop"},"addTags":{"amenity":"cafe","brand":"Espresso House","brand:wikidata":"Q10489162","cuisine":"coffee_shop","name":"Espresso House","takeaway":"yes"}},"amenity/cafe/coffee_shop/waynescoffee-460348":{"name":"Wayne's Coffee","locationSet":{"include":["fi","no","se"]},"geometry":["point","area"],"matchScore":2,"terms":["wayne's coffee"],"fields":["name","brand","{amenity/cafe/coffee_shop}"],"reference":{"key":"cuisine","value":"coffee_shop"},"tags":{"amenity":"cafe","brand:wikidata":"Q2637272","cuisine":"coffee_shop"},"addTags":{"amenity":"cafe","brand":"Wayne's Coffee","brand:wikidata":"Q2637272","cuisine":"coffee_shop","name":"Wayne's Coffee","takeaway":"yes"}},"amenity/car_rental/europcar-95cde7":{"name":"Europcar (Scandinavia)","locationSet":{"include":["dk","fi","no","se"]},"geometry":["point","area"],"matchScore":2,"terms":["europcar"],"fields":["name","brand","{amenity/car_rental}"],"tags":{"amenity":"car_rental","brand:wikidata":"Q1376256"},"addTags":{"amenity":"car_rental","brand":"Europcar","brand:wikidata":"Q1376256","name":"Europcar"}},"amenity/charging_station/eviny-054d0f":{"name":"Eviny","locationSet":{"include":["no"]},"geometry":["point","vertex","area"],"matchScore":2,"terms":["bkk","bkk nett as for hordaland fylkeskommune","eviny","sunnfjord energi"],"fields":["name","brand","{amenity/charging_station}"],"tags":{"amenity":"charging_station","brand:wikidata":"Q4891601"},"addTags":{"amenity":"charging_station","brand":"Eviny","brand:wikidata":"Q4891601","name":"Eviny"}},"amenity/charging_station/ionity-b625d6":{"name":"Ionity","locationSet":{"include":["by","bg","cz","hu","pl","md","ro","ru","sk","ua","ax","gg","je","cq","dk","ee","fo","fi","is","ie","im","lv","lt","no","sj","se","gb","al","ad","ba","hr","gi","gr","va","it","mt","me","mk","pt","sm","rs","si","es","xk","at","be","fr","de","li","lu","mc","nl","ch"]},"geometry":["point","vertex","area"],"matchScore":2,"terms":["ionity","ionity gmbh"],"fields":["name","brand","{amenity/charging_station}"],"tags":{"amenity":"charging_station","brand:wikidata":"Q42717773"},"addTags":{"amenity":"charging_station","brand":"Ionity","brand:wikidata":"Q42717773"}},"amenity/charging_station/kople-054d0f":{"name":"Kople","locationSet":{"include":["no"]},"geometry":["point","vertex","area"],"matchScore":2,"terms":["kople"],"fields":["name","brand","{amenity/charging_station}"],"tags":{"amenity":"charging_station","brand:wikidata":"Q126708777"},"addTags":{"amenity":"charging_station","brand":"Kople","brand:wikidata":"Q126708777"}},"amenity/charging_station/mer-36d5f6":{"name":"Mer","locationSet":{"include":["at","de","gb","no","se"]},"geometry":["point","vertex","area"],"matchScore":2,"terms":["bee","bee charging solutions","eemobility","eemobility gmbh","grønn kontakt","mer","mer germany gmbh"],"fields":["name","brand","{amenity/charging_station}"],"tags":{"amenity":"charging_station","brand:wikidata":"Q100821564"},"addTags":{"amenity":"charging_station","brand":"Mer","brand:wikidata":"Q100821564","name":"Mer"}},"amenity/charging_station/recharge-12f14e":{"name":"Recharge","locationSet":{"include":["dk","fi","no","se"]},"geometry":["point","vertex","area"],"matchScore":2,"terms":["fortum","fortum charge & drive","recharge","recharge charge & drive"],"fields":["name","brand","{amenity/charging_station}"],"tags":{"amenity":"charging_station","brand:wikidata":"Q126540050"},"addTags":{"amenity":"charging_station","brand":"Recharge","brand:wikidata":"Q126540050","name":"Recharge","operator":"Recharge"}},"amenity/charging_station/teslasupercharger-054d0f":{"name":"Tesla Supercharger (Norge)","locationSet":{"include":["no"]},"geometry":["point","vertex","area"],"matchScore":2,"terms":["tesla","tesla motors"],"fields":["name","brand","{amenity/charging_station}"],"tags":{"amenity":"charging_station","brand:wikidata":"Q478214"},"addTags":{"amenity":"charging_station","brand":"Tesla","brand:wikidata":"Q478214","name":"Tesla Supercharger"}},"amenity/fast_food/sandwich/bigbite-86f814":{"name":"Big Bite","locationSet":{"include":["no"]},"geometry":["point","area"],"matchScore":2,"terms":["big bite"],"reference":{"key":"cuisine","value":"sandwich"},"tags":{"amenity":"fast_food","brand:wikidata":"Q11960977","cuisine":"sandwich"},"addTags":{"amenity":"fast_food","brand":"Big Bite","brand:wikidata":"Q11960977","cuisine":"sandwich","takeaway":"yes"}},"amenity/fast_food/chicken/dixychicken-d5291b":{"name":"Dixy Chicken","locationSet":{"include":["bn","gb","in","no","nz","pk","sa","sy","us"]},"geometry":["point","area"],"matchScore":2,"terms":["dixy chicken"],"reference":{"key":"cuisine","value":"chicken"},"tags":{"amenity":"fast_food","brand:wikidata":"Q5285003","cuisine":"chicken"},"addTags":{"amenity":"fast_food","brand":"Dixy Chicken","brand:wikidata":"Q5285003","cuisine":"chicken","diet:halal":"yes","name":"Dixy Chicken","takeaway":"yes"}},"amenity/fast_food/burger/max-829f63":{"name":"Max","locationSet":{"include":["dk","no","pl","se"]},"geometry":["point","area"],"matchScore":2,"terms":["max"],"reference":{"key":"cuisine","value":"burger"},"tags":{"amenity":"fast_food","brand:wikidata":"Q1912172","cuisine":"burger"},"addTags":{"amenity":"fast_food","brand":"Max","brand:wikidata":"Q1912172","cuisine":"burger","name":"Max","takeaway":"yes"}},"amenity/fast_food/burger/mcdonalds-86f814":{"name":"McDonald's (Norge)","locationSet":{"include":["no"]},"geometry":["point","area"],"matchScore":2,"terms":["mcdonald's"],"fields":["name","brand","{amenity/fast_food/burger}"],"reference":{"key":"cuisine","value":"burger"},"tags":{"amenity":"fast_food","brand:wikidata":"Q38076","cuisine":"burger"},"addTags":{"amenity":"fast_food","brand":"McDonald's","brand:wikidata":"Q38076","cuisine":"burger","name":"McDonald's","takeaway":"yes"}},"amenity/fast_food/pizza/pizzabakeren-4d7dcd":{"name":"Pizzabakeren","locationSet":{"include":["dk","no","se"]},"geometry":["point","area"],"matchScore":2,"terms":["pizzabakeren"],"fields":["name","brand","{amenity/fast_food/pizza}"],"reference":{"key":"cuisine","value":"pizza"},"tags":{"amenity":"fast_food","brand:wikidata":"Q11995777","cuisine":"pizza"},"addTags":{"amenity":"fast_food","brand":"Pizzabakeren","brand:wikidata":"Q11995777","cuisine":"pizza","name":"Pizzabakeren","takeaway":"yes"}},"amenity/fast_food/sandwich/uppercrust-fb0467":{"name":"Upper Crust","locationSet":{"include":["dk","eg","es","fi","gb","ie","no","se"]},"geometry":["point","area"],"matchScore":2,"terms":["upper crust"],"reference":{"key":"cuisine","value":"sandwich"},"tags":{"amenity":"fast_food","brand:wikidata":"Q7898585","cuisine":"sandwich"},"addTags":{"amenity":"fast_food","brand":"Upper Crust","brand:wikidata":"Q7898585","cuisine":"sandwich","name":"Upper Crust","takeaway":"yes"}},"amenity/fuel/everfuel-06f3d9":{"name":"Everfuel","locationSet":{"include":["de","dk","nl","no"]},"geometry":["point","area"],"matchScore":2,"terms":["everfuel"],"fields":["name","brand","{amenity/fuel}"],"tags":{"amenity":"fuel","brand:wikidata":"Q114905024"},"addTags":{"amenity":"fuel","brand":"Everfuel","brand:wikidata":"Q114905024","fuel:LH2":"yes","name":"Everfuel"}},"amenity/fuel/preem-906b06":{"name":"Preem","locationSet":{"include":["dk","no","pl","se"]},"geometry":["point","area"],"matchScore":2,"terms":["preem"],"fields":["name","brand","{amenity/fuel}"],"tags":{"amenity":"fuel","brand:wikidata":"Q598835"},"addTags":{"amenity":"fuel","brand":"Preem","brand:wikidata":"Q598835","name":"Preem"}},"amenity/fuel/tankpool24-0c8e6e":{"name":"tankpool24","locationSet":{"include":["by","bg","cz","hu","pl","md","ro","ru","sk","ua","ax","gg","je","cq","dk","ee","fo","fi","is","ie","im","lv","lt","no","sj","se","gb","al","ad","ba","hr","gi","gr","va","it","mt","me","mk","pt","sm","rs","si","es","xk","at","be","fr","de","li","lu","mc","nl","ch"]},"geometry":["point","area"],"matchScore":2,"terms":["tankpool24"],"fields":["name","brand","{amenity/fuel}"],"tags":{"amenity":"fuel","brand:wikidata":"Q126895471"},"addTags":{"amenity":"fuel","brand":"tankpool24","brand:wikidata":"Q126895471","name":"tankpool24"}},"amenity/fuel/unox-9449e0":{"name":"Uno-X","locationSet":{"include":["dk","no"]},"geometry":["point","area"],"matchScore":2,"terms":["uno-x"],"fields":["name","brand","{amenity/fuel}"],"tags":{"amenity":"fuel","brand:wikidata":"Q3362746"},"addTags":{"amenity":"fuel","brand":"Uno-X","brand:wikidata":"Q3362746","name":"Uno-X"}},"amenity/fuel/yx-9449e0":{"name":"YX","locationSet":{"include":["dk","no"]},"geometry":["point","area"],"matchScore":2,"terms":["yx","yx energi"],"fields":["name","brand","{amenity/fuel}"],"tags":{"amenity":"fuel","brand:wikidata":"Q4580519"},"addTags":{"amenity":"fuel","brand":"YX","brand:wikidata":"Q4580519","name":"YX"}},"amenity/parcel_locker/instabox-f97fed":{"name":"Instabox","locationSet":{"include":["de","dk","nl","no","se"]},"geometry":["point","vertex","area"],"matchScore":2,"terms":["instabox"],"fields":["name","brand","{amenity/parcel_locker}"],"reference":{"key":"amenity","value":"parcel_locker"},"tags":{"amenity":"parcel_locker","brand:wikidata":"Q109923726"},"addTags":{"amenity":"parcel_locker","brand":"Instabox","brand:wikidata":"Q109923726","name":"Instabox","parcel_mail_in":"returns_only","parcel_pickup":"yes"}},"amenity/parcel_locker/zbox-5a86e9":{"name":"Packeta","locationSet":{"include":["by","bg","cz","hu","pl","md","ro","ru","sk","ua","ax","gg","je","cq","dk","ee","fo","fi","is","ie","im","lv","lt","no","sj","se","gb","al","ad","ba","hr","gi","gr","va","it","mt","me","mk","pt","sm","rs","si","es","xk","at","be","fr","de","li","lu","mc","nl","ch"]},"geometry":["point","vertex","area"],"matchScore":2,"terms":["packeta"],"fields":["name","brand","{amenity/parcel_locker}"],"reference":{"key":"amenity","value":"parcel_locker"},"tags":{"amenity":"parcel_locker","brand:wikidata":"Q67809905"},"addTags":{"amenity":"parcel_locker","brand":"Packeta","brand:wikidata":"Q67809905","name":"Z-Box"}},"amenity/pharmacy/apotek1-bfbf58":{"name":"Apotek 1","locationSet":{"include":["no"]},"geometry":["point","area"],"matchScore":2,"terms":["apotek 1"],"fields":["name","brand","{amenity/pharmacy}"],"reference":{"key":"amenity","value":"pharmacy"},"tags":{"amenity":"pharmacy","brand:wikidata":"Q4581428"},"addTags":{"amenity":"pharmacy","brand":"Apotek 1","brand:wikidata":"Q4581428","healthcare":"pharmacy"}},"amenity/pharmacy/boots-3d082e":{"name":"Boots","locationSet":{"include":["gb","ie","no","th"]},"geometry":["point","area"],"matchScore":2,"terms":["boots","boots apotek","boots pharmacy","boots uk"],"reference":{"key":"amenity","value":"pharmacy"},"tags":{"amenity":"pharmacy","brand:wikidata":"Q6123139"},"addTags":{"amenity":"pharmacy","brand":"Boots","brand:wikidata":"Q6123139","healthcare":"pharmacy","name":"Boots"}},"amenity/pharmacy/dittapotek-bfbf58":{"name":"Ditt Apotek","locationSet":{"include":["no"]},"geometry":["point","area"],"matchScore":2,"terms":["ditt apotek"],"fields":["name","brand","{amenity/pharmacy}"],"reference":{"key":"amenity","value":"pharmacy"},"tags":{"amenity":"pharmacy","brand:wikidata":"Q5283710"},"addTags":{"amenity":"pharmacy","brand":"Ditt Apotek","brand:wikidata":"Q5283710","healthcare":"pharmacy","name":"Ditt Apotek"}},"amenity/pharmacy/vitusapotek-bfbf58":{"name":"Vitusapotek","locationSet":{"include":["no"]},"geometry":["point","area"],"matchScore":2,"terms":["vitusapotek"],"fields":["name","brand","{amenity/pharmacy}"],"reference":{"key":"amenity","value":"pharmacy"},"tags":{"amenity":"pharmacy","brand:wikidata":"Q17047215"},"addTags":{"amenity":"pharmacy","brand":"Vitusapotek","brand:wikidata":"Q17047215","healthcare":"pharmacy","name":"Vitusapotek"}},"amenity/post_office/posten-0526a8":{"name":"Posten (Norge)","locationSet":{"include":["no"]},"geometry":["point","area"],"matchScore":2,"terms":["posten"],"fields":["name","brand","{amenity/post_office}"],"tags":{"amenity":"post_office","brand:wikidata":"Q1815701"},"addTags":{"amenity":"post_office","brand":"Posten","brand:wikidata":"Q1815701"}},"amenity/pub/brewdog-f93a3c":{"name":"BrewDog","locationSet":{"include":["au","be","de","es","fr","gb","it","kr","no","se","us"]},"geometry":["point","area"],"matchScore":2,"terms":["brewdog"],"fields":["name","brand","{amenity/pub}"],"tags":{"amenity":"pub","brand:wikidata":"Q911367"},"addTags":{"amenity":"pub","brand":"BrewDog","brand:wikidata":"Q911367","name":"BrewDog"}},"amenity/public_bookcase/lesekiosk-1271c4":{"name":"Lesekiosk (Foreningen !les)","locationSet":{"include":["no"]},"geometry":["point","area"],"matchScore":2,"terms":["lesekiosk (foreningen !les)"],"tags":{"amenity":"public_bookcase","brand:wikidata":"Q11008642"},"addTags":{"amenity":"public_bookcase","brand":"Lesekiosk (Foreningen !les)","brand:wikidata":"Q11008642","name":"Lesekiosk"}},"amenity/restaurant/pizza/egon-0a0782":{"name":"Egon","locationSet":{"include":["no"]},"geometry":["point","area"],"matchScore":2,"terms":["egon"],"fields":["name","brand","{amenity/restaurant/pizza}"],"reference":{"key":"cuisine","value":"pizza"},"tags":{"amenity":"restaurant","brand:wikidata":"Q1298438","cuisine":"pizza;burger;meat;pasta"},"addTags":{"amenity":"restaurant","brand":"Egon","brand:wikidata":"Q1298438","cuisine":"pizza;burger;meat;pasta","takeaway":"yes"}},"amenity/restaurant/pizza/peppespizza-0a0782":{"name":"Peppes Pizza","locationSet":{"include":["no"]},"geometry":["point","area"],"matchScore":2,"terms":["peppes pizza"],"fields":["name","brand","{amenity/restaurant/pizza}"],"reference":{"key":"cuisine","value":"pizza"},"tags":{"amenity":"restaurant","brand:wikidata":"Q911973","cuisine":"pizza"},"addTags":{"amenity":"restaurant","brand":"Peppes Pizza","brand:wikidata":"Q911973","cuisine":"pizza","takeaway":"yes"}},"amenity/social_centre/ahepahall-30ca27":{"name":"AHEPA Hall","locationSet":{"include":["by","bg","cz","hu","pl","md","ro","ru","sk","ua","ax","gg","je","cq","dk","ee","fo","fi","is","ie","im","lv","lt","no","sj","se","gb","al","ad","ba","hr","gi","gr","va","it","mt","me","mk","pt","sm","rs","si","es","xk","at","be","fr","de","li","lu","mc","nl","ch","au","ca","cy","us"],"exclude":["ru"]},"geometry":["point","area"],"matchScore":2,"terms":["ahepa","american hellenic educational progressive association","the order of ahepa"],"fields":["name","brand","{amenity/social_centre}"],"tags":{"amenity":"social_centre","brand:wikidata":"Q4743973"},"addTags":{"amenity":"social_centre","brand":"AHEPA","brand:wikidata":"Q4743973","name":"AHEPA Hall"}},"amenity/vending_machine/bicycle_tube/continental-123edb":{"name":"Continental","locationSet":{"include":["by","bg","cz","hu","pl","md","ro","ru","sk","ua","ax","gg","je","cq","dk","ee","fo","fi","is","ie","im","lv","lt","no","sj","se","gb","al","ad","ba","hr","gi","gr","va","it","mt","me","mk","pt","sm","rs","si","es","xk","at","be","fr","de","li","lu","mc","nl","ch"]},"geometry":["point","vertex"],"matchScore":2,"terms":["continental"],"reference":{"key":"vending","value":"bicycle_tube"},"tags":{"amenity":"vending_machine","brand:wikidata":"Q64739247","vending":"bicycle_tube"},"addTags":{"amenity":"vending_machine","brand":"Continental","brand:wikidata":"Q64739247","vending":"bicycle_tube"}},"amenity/vending_machine/bicycle_tube/schwalbe-123edb":{"name":"Schwalbe","locationSet":{"include":["by","bg","cz","hu","pl","md","ro","ru","sk","ua","ax","gg","je","cq","dk","ee","fo","fi","is","ie","im","lv","lt","no","sj","se","gb","al","ad","ba","hr","gi","gr","va","it","mt","me","mk","pt","sm","rs","si","es","xk","at","be","fr","de","li","lu","mc","nl","ch"]},"geometry":["point","vertex"],"matchScore":2,"terms":["schwalbe"],"reference":{"key":"vending","value":"bicycle_tube"},"tags":{"amenity":"vending_machine","brand:wikidata":"Q1312213","vending":"bicycle_tube"},"addTags":{"amenity":"vending_machine","brand":"Schwalbe","brand:wikidata":"Q1312213","vending":"bicycle_tube"}},"amenity/vending_machine/drinks/selecta-ed4d31":{"name":"Selecta","locationSet":{"include":["at","be","ch","de","dk","es","fi","fr","gb","ie","it","li","lu","nl","no","se"]},"geometry":["point","vertex"],"matchScore":2,"terms":["selecta"],"reference":{"key":"vending","value":"drinks"},"tags":{"amenity":"vending_machine","brand:wikidata":"Q472153","vending":"drinks;sweets"},"addTags":{"amenity":"vending_machine","brand":"Selecta","brand:wikidata":"Q472153","vending":"drinks;sweets"}},"amenity/veterinary/anicura-acf389":{"name":"AniCura","locationSet":{"include":["at","be","ch","de","dk","es","fr","it","nl","no","pl","pt","se"]},"geometry":["point","area"],"matchScore":2,"terms":["anicura"],"tags":{"amenity":"veterinary","brand:wikidata":"Q110299350"},"addTags":{"amenity":"veterinary","brand":"AniCura","brand:wikidata":"Q110299350","name":"AniCura"}},"club/scout/norgeskfukkfumspeidere-964e52":{"name":"Norges KFUK-KFUM-speidere","locationSet":{"include":["no"]},"geometry":["point","area"],"matchScore":2,"terms":["norges kfuk-kfum-speidere"],"fields":["name","brand","{club/scout}"],"tags":{"brand:wikidata":"Q8046067","club":"scout"},"addTags":{"brand":"Norges KFUK-KFUM-speidere","brand:wikidata":"Q8046067","club":"scout"}},"club/scout/norgesspeiderforbund-964e52":{"name":"Norges speiderforbund","locationSet":{"include":["no"]},"geometry":["point","area"],"matchScore":2,"terms":["norges speiderforbund"],"fields":["name","brand","{club/scout}"],"tags":{"brand:wikidata":"Q1769346","club":"scout"},"addTags":{"brand":"Norges speiderforbund","brand:wikidata":"Q1769346","club":"scout"}},"leisure/fitness_centre/barrys-1b6d66":{"name":"Barry's","locationSet":{"include":["ae","au","ca","de","dk","es","fr","gb","it","mx","no","qa","se","sg","us"]},"geometry":["point","area"],"matchScore":2,"terms":["barry's"],"tags":{"brand:wikidata":"Q96373178","leisure":"fitness_centre"},"addTags":{"brand":"Barry's","brand:wikidata":"Q96373178","leisure":"fitness_centre","name":"Barry's"}},"leisure/fitness_centre/fitinn-48d938":{"name":"FITINN","locationSet":{"include":["by","bg","cz","hu","pl","md","ro","ru","sk","ua","ax","gg","je","cq","dk","ee","fo","fi","is","ie","im","lv","lt","no","sj","se","gb","al","ad","ba","hr","gi","gr","va","it","mt","me","mk","pt","sm","rs","si","es","xk","at","be","fr","de","li","lu","mc","nl","ch"]},"geometry":["point","area"],"matchScore":2,"terms":["fitinn"],"tags":{"brand:wikidata":"Q1245564","leisure":"fitness_centre"},"addTags":{"brand":"FITINN","brand:wikidata":"Q1245564","leisure":"fitness_centre","name":"FITINN"}},"leisure/fitness_centre/holmesplace-901199":{"name":"Holmes Place","locationSet":{"include":["by","bg","cz","hu","pl","md","ro","ru","sk","ua","ax","gg","je","cq","dk","ee","fo","fi","is","ie","im","lv","lt","no","sj","se","gb","al","ad","ba","hr","gi","gr","va","it","mt","me","mk","pt","sm","rs","si","es","xk","at","be","fr","de","li","lu","mc","nl","ch","il"]},"geometry":["point","area"],"matchScore":2,"terms":["holmes place"],"tags":{"brand:wikidata":"Q15815819","leisure":"fitness_centre"},"addTags":{"brand":"Holmes Place","brand:wikidata":"Q15815819","leisure":"fitness_centre","name":"Holmes Place"}},"leisure/fitness_centre/sats-44c5d4":{"name":"Sats","locationSet":{"include":["dk","fi","no","se"]},"geometry":["point","area"],"matchScore":2,"terms":["sats"],"fields":["name","brand","{leisure/fitness_centre}"],"tags":{"brand:wikidata":"Q4411496","leisure":"fitness_centre"},"addTags":{"brand":"Sats","brand:wikidata":"Q4411496","leisure":"fitness_centre","name":"Sats"}},"leisure/trampoline_park/skyzone-746047":{"name":"Sky Zone","locationSet":{"include":["ae","ca","co","gb","gt","in","mx","no","om","pk","sa","us"]},"geometry":["point","area"],"matchScore":2,"terms":["sky zone"],"tags":{"brand:wikidata":"Q7537557","leisure":"trampoline_park"},"addTags":{"brand":"Sky Zone","brand:wikidata":"Q7537557","leisure":"trampoline_park","name":"Sky Zone"}},"man_made/charge_point/eviny-a1beea":{"name":"Eviny","locationSet":{"include":["no"]},"geometry":["point"],"matchScore":2,"terms":["bkk","bkk nett as for hordaland fylkeskommune","eviny","sunnfjord energi"],"fields":["name","brand","{man_made/charge_point}"],"tags":{"brand:wikidata":"Q4891601","man_made":"charge_point"},"addTags":{"brand":"Eviny","brand:wikidata":"Q4891601","man_made":"charge_point"}},"man_made/charge_point/ionity-97d83d":{"name":"Ionity","locationSet":{"include":["by","bg","cz","hu","pl","md","ro","ru","sk","ua","ax","gg","je","cq","dk","ee","fo","fi","is","ie","im","lv","lt","no","sj","se","gb","al","ad","ba","hr","gi","gr","va","it","mt","me","mk","pt","sm","rs","si","es","xk","at","be","fr","de","li","lu","mc","nl","ch"]},"geometry":["point"],"matchScore":2,"terms":["ionity","ionity gmbh"],"fields":["name","brand","{man_made/charge_point}"],"tags":{"brand:wikidata":"Q42717773","man_made":"charge_point"},"addTags":{"brand":"Ionity","brand:wikidata":"Q42717773","man_made":"charge_point"}},"man_made/charge_point/kople-a1beea":{"name":"Kople","locationSet":{"include":["no"]},"geometry":["point"],"matchScore":2,"terms":["kople"],"fields":["name","brand","{man_made/charge_point}"],"tags":{"brand:wikidata":"Q126708777","man_made":"charge_point"},"addTags":{"brand":"Kople","brand:wikidata":"Q126708777","man_made":"charge_point"}},"man_made/charge_point/mer-8d56aa":{"name":"Mer","locationSet":{"include":["at","de","gb","no","se"]},"geometry":["point"],"matchScore":2,"terms":["bee","bee charging solutions","eemobility","eemobility gmbh","grønn kontakt","mer","mer germany gmbh"],"fields":["name","brand","{man_made/charge_point}"],"tags":{"brand:wikidata":"Q100821564","man_made":"charge_point"},"addTags":{"brand":"Mer","brand:wikidata":"Q100821564","man_made":"charge_point"}},"man_made/charge_point/recharge-f239e1":{"name":"Recharge","locationSet":{"include":["dk","fi","no","se"]},"geometry":["point"],"matchScore":2,"terms":["fortum","fortum charge & drive","recharge","recharge charge & drive"],"fields":["name","brand","{man_made/charge_point}"],"tags":{"brand:wikidata":"Q126540050","man_made":"charge_point"},"addTags":{"brand":"Recharge","brand:wikidata":"Q126540050","man_made":"charge_point","operator":"Recharge"}},"man_made/charge_point/tesla-a1beea":{"name":"Tesla Supercharger (Norge)","locationSet":{"include":["no"]},"geometry":["point"],"matchScore":2,"terms":["tesla","tesla motors"],"fields":["name","brand","{man_made/charge_point}"],"tags":{"brand:wikidata":"Q478214","man_made":"charge_point"},"addTags":{"brand":"Tesla","brand:wikidata":"Q478214","man_made":"charge_point"}},"office/consulting/ecovis-10b2fd":{"name":"Ecovis International","locationSet":{"include":["by","bg","cz","hu","pl","md","ro","ru","sk","ua","ax","gg","je","cq","dk","ee","fo","fi","is","ie","im","lv","lt","no","sj","se","gb","al","ad","ba","hr","gi","gr","va","it","mt","me","mk","pt","sm","rs","si","es","xk","at","be","fr","de","li","lu","mc","nl","ch","tr"]},"geometry":["point","area"],"matchScore":2,"terms":["ecovis international"],"tags":{"brand:wikidata":"Q65509562","office":"consulting"},"addTags":{"brand":"Ecovis International","brand:wikidata":"Q65509562","name":"Ecovis","office":"consulting"}},"office/coworking/spaces-ffd6f1":{"name":"Spaces (Scandinavia)","locationSet":{"include":["dk","fi","no","se"]},"geometry":["point","area"],"matchScore":2,"terms":["spaces"],"fields":["name","brand","{office/coworking}"],"tags":{"brand:wikidata":"Q87629680","office":"coworking"},"addTags":{"brand":"Spaces","brand:wikidata":"Q87629680","name":"Spaces","office":"coworking"}},"office/employment_agency/randstad-f7dc26":{"name":"Randstad","locationSet":{"include":["ad","at","au","be","ca","ch","cn","cz","de","dk","es","fr","gb","gr","hk","hu","ie","in","it","jp","lu","mc","mx","my","nl","no","nz","pl","pt","ro","se","sg","sy","tk","us"]},"geometry":["point","area"],"matchScore":2,"terms":["randstad"],"tags":{"brand:wikidata":"Q267840","office":"employment_agency"},"addTags":{"brand":"Randstad","brand:wikidata":"Q267840","name":"Randstad","office":"employment_agency"}},"office/estate_agent/vonpollrealestate-c99072":{"name":"von Poll Real Estate","locationSet":{"include":["by","bg","cz","hu","pl","md","ro","ru","sk","ua","ax","gg","je","cq","dk","ee","fo","fi","is","ie","im","lv","lt","no","sj","se","gb","al","ad","ba","hr","gi","gr","va","it","mt","me","mk","pt","sm","rs","si","es","xk","at","be","fr","de","li","lu","mc","nl","ch"],"exclude":["at","de"]},"geometry":["point","area"],"matchScore":2,"terms":["von poll immobilien","von poll real estate","vonpoll","vonpoll commercial"],"tags":{"brand:wikidata":"Q96026696","office":"estate_agent"},"addTags":{"brand":"von Poll Real Estate","brand:wikidata":"Q96026696","name":"von Poll Real Estate","office":"estate_agent"}},"office/financial_advisor/swisslifeselect-1e9d61":{"name":"Swiss Life Select","locationSet":{"include":["ch","de","fr","gb","it","lu","no"]},"geometry":["point","area"],"matchScore":2,"terms":["swiss life select"],"tags":{"brand:wikidata":"Q300213","office":"financial_advisor"},"addTags":{"brand":"Swiss Life Select","brand:wikidata":"Q300213","name":"Swiss Life Select","office":"financial_advisor"}},"office/insurance/allianz-332499":{"name":"Allianz","locationSet":{"include":["ae","ar","at","au","be","bg","bh","bm","bn","br","ca","cg","ch","ci","cm","cn","co","cy","cz","de","dk","ee","eg","es","fi","fr","gb","gf","gg","gh","gp","gr","hk","hr","hu","id","ie","in","is","it","ja","ke","kr","kw","la","li","lk","lt","lu","lv","ma","mg","mx","my","ng","nl","no","nz","om","ph","pk","pl","pt","qa","ro","ru","sa","se","sg","si","sk","sn","th","tr","tw","ua","us","za"]},"geometry":["point","area"],"matchScore":2,"terms":["allianz","allianz versicherung"],"fields":["name","brand","{office/insurance}"],"tags":{"brand:wikidata":"Q487292","office":"insurance"},"addTags":{"brand":"Allianz","brand:wikidata":"Q487292","name":"Allianz","office":"insurance"}},"office/insurance/axa-2e7672":{"name":"AXA","locationSet":{"include":["ae","ar","au","be","bh","bm","br","ca","ch","ci","cl","cm","cn","co","cz","de","dk","dz","eg","es","fi","fr","ga","gb","gr","hk","id","ie","in","it","jp","kr","lb","lu","ma","mu","mx","my","ng","nl","no","om","pa","pe","ph","pl","pt","qa","sa","se","sg","sk","sn","th","tr","tw","us"]},"geometry":["point","area"],"matchScore":2,"terms":["axa"],"fields":["name","brand","{office/insurance}"],"tags":{"brand:wikidata":"Q160054","office":"insurance"},"addTags":{"brand":"AXA","brand:wikidata":"Q160054","name":"AXA","office":"insurance"}},"office/insurance/nn-336e34":{"name":"NN","locationSet":{"include":["by","bg","cz","hu","pl","md","ro","ru","sk","ua","ax","gg","je","cq","dk","ee","fo","fi","is","ie","im","lv","lt","no","sj","se","gb","al","ad","ba","hr","gi","gr","va","it","mt","me","mk","pt","sm","rs","si","es","xk","at","be","fr","de","li","lu","mc","nl","ch"]},"geometry":["point","area"],"matchScore":2,"terms":["nationale-nederlanden","nn"],"fields":["name","brand","{office/insurance}"],"tags":{"brand:wikidata":"Q1834291","office":"insurance"},"addTags":{"brand":"NN","brand:wikidata":"Q1834291","name":"NN","office":"insurance","official_name":"Nationale-Nederlanden"}},"office/insurance/zurich-2d6c95":{"name":"Zurich","locationSet":{"include":["ae","at","au","be","bh","br","ca","ch","cl","cn","co","de","ec","es","fi","fr","gb","hk","id","ie","it","ja","kw","lb","li","lu","mx","my","nl","no","nz","om","pt","qa","se","sg","sk","tr","us"]},"geometry":["point","area"],"matchScore":2,"terms":["zurich"],"fields":["name","brand","{office/insurance}"],"tags":{"brand:wikidata":"Q230426","office":"insurance"},"addTags":{"brand":"Zurich","brand:wikidata":"Q230426","name":"Zurich","office":"insurance"}},"shop/agrarian/felleskjopet-461c53":{"name":"Felleskjøpet","locationSet":{"include":["no"]},"geometry":["point","area"],"matchScore":2,"terms":["felleskjøpet"],"fields":["name","brand","{shop/agrarian}"],"tags":{"brand:wikidata":"Q5442461","shop":"agrarian"},"addTags":{"brand":"Felleskjøpet","brand:wikidata":"Q5442461","name":"Felleskjøpet","shop":"agrarian"}},"shop/alcohol/vinmonopolet-af24f5":{"name":"Vinmonopolet","locationSet":{"include":["no"]},"geometry":["point","area"],"matchScore":2,"terms":["vinmonopolet"],"fields":["name","brand","{shop/alcohol}"],"tags":{"brand:wikidata":"Q1740534","shop":"alcohol"},"addTags":{"brand":"Vinmonopolet","brand:wikidata":"Q1740534","name":"Vinmonopolet","shop":"alcohol"}},"shop/baby_goods/suavinex-f3fd61":{"name":"Suavinex","locationSet":{"include":["ae","al","ao","au","be","ch","cl","cn","co","cr","cy","cz","do","dz","ec","es","fr","ge","gq","gr","hk","il","iq","ir","it","kr","lb","lu","me","mt","mx","my","nl","no","pa","pl","pt","ro","rs","ru","sa","sg","sk","tr","uy","vn"]},"geometry":["point","area"],"matchScore":2,"terms":["suavinex"],"tags":{"brand:wikidata":"Q122258837","shop":"baby_goods"},"addTags":{"brand":"Suavinex","brand:wikidata":"Q122258837","name":"Suavinex","shop":"baby_goods"}},"shop/books/ark-ed60d1":{"name":"Ark bokhandel","locationSet":{"include":["no"]},"geometry":["point","area"],"matchScore":2,"terms":["ark bokhandel"],"fields":["name","brand","{shop/books}"],"tags":{"brand:wikidata":"Q11958706","shop":"books"},"addTags":{"brand":"Ark bokhandel","brand:wikidata":"Q11958706","name":"Ark","shop":"books"}},"shop/books/norli-ed60d1":{"name":"Norli","locationSet":{"include":["no"]},"geometry":["point","area"],"matchScore":2,"terms":["norli"],"fields":["name","brand","{shop/books}"],"tags":{"brand:wikidata":"Q1999199","shop":"books"},"addTags":{"brand":"Norli","brand:wikidata":"Q1999199","name":"Norli","shop":"books"}},"shop/car/polestar-adf3f2":{"name":"Polestar","locationSet":{"include":["be","ca","cn","de","gb","nl","no","se","us"]},"geometry":["point","area"],"matchScore":2,"terms":["polestar","polestar racing"],"fields":["name","brand","{shop/car}"],"tags":{"brand:wikidata":"Q4047174","shop":"car"},"addTags":{"brand":"Polestar","brand:wikidata":"Q4047174","name":"Polestar","shop":"car"}},"shop/car/smart-b77732":{"name":"Smart","locationSet":{"include":["by","bg","cz","hu","pl","md","ro","ru","sk","ua","ax","gg","je","cq","dk","ee","fo","fi","is","ie","im","lv","lt","no","sj","se","gb","al","ad","ba","hr","gi","gr","va","it","mt","me","mk","pt","sm","rs","si","es","xk","at","be","fr","de","li","lu","mc","nl","ch","cn"]},"geometry":["point","area"],"matchScore":2,"terms":["smart"],"fields":["name","brand","{shop/car}"],"tags":{"brand:wikidata":"Q156490","shop":"car"},"addTags":{"brand":"Smart","brand:wikidata":"Q156490","name":"Smart","shop":"car"}},"shop/car_parts/bilxtra-ccf30a":{"name":"BilXtra","locationSet":{"include":["no"]},"geometry":["point","area"],"matchScore":2,"terms":["bilxtra"],"fields":["name","brand","{shop/car_parts}"],"tags":{"brand:wikidata":"Q127920622","shop":"car_parts"},"addTags":{"brand":"BilXtra","brand:wikidata":"Q127920622","shop":"car_parts"}},"shop/car_parts/thansen-c9a26e":{"name":"thansen","locationSet":{"include":["dk","no","se"]},"geometry":["point","area"],"matchScore":2,"terms":["t. hansen","thansen"],"fields":["name","brand","{shop/car_parts}"],"tags":{"brand:wikidata":"Q12338957","shop":"car_parts"},"addTags":{"alt_name":"T. Hansen","brand":"thansen","brand:wikidata":"Q12338957","name":"thansen","shop":"car_parts"}},"shop/car_repair/mekonomen-7de64b":{"name":"Mekonomen","locationSet":{"include":["dk","no","se"]},"geometry":["point","area"],"matchScore":2,"terms":["mekonomen"],"fields":["name","brand","{shop/car_repair}"],"tags":{"brand:wikidata":"Q10580079","shop":"car_repair"},"addTags":{"brand":"Mekonomen","brand:wikidata":"Q10580079","name":"Mekonomen","shop":"car_repair"}},"shop/car_repair/polestar-16efa0":{"name":"Polestar","locationSet":{"include":["be","ca","cn","de","gb","nl","no","se","us"]},"geometry":["point","area"],"matchScore":2,"terms":["polestar","polestar racing"],"fields":["name","brand","{shop/car_repair}"],"tags":{"brand:wikidata":"Q4047174","shop":"car_repair"},"addTags":{"brand":"Polestar","brand:wikidata":"Q4047174","name":"Polestar","shop":"car_repair"}},"shop/car_repair/smart-102ff2":{"name":"Smart","locationSet":{"include":["by","bg","cz","hu","pl","md","ro","ru","sk","ua","ax","gg","je","cq","dk","ee","fo","fi","is","ie","im","lv","lt","no","sj","se","gb","al","ad","ba","hr","gi","gr","va","it","mt","me","mk","pt","sm","rs","si","es","xk","at","be","fr","de","li","lu","mc","nl","ch","cn"]},"geometry":["point","area"],"matchScore":2,"terms":["smart"],"fields":["name","brand","{shop/car_repair}"],"tags":{"brand:wikidata":"Q156490","shop":"car_repair"},"addTags":{"brand":"Smart","brand:wikidata":"Q156490","name":"Smart","shop":"car_repair"}},"shop/chemist/normal-57f5e2":{"name":"Normal","locationSet":{"include":["dk","es","fi","fx","nl","no","pt","se"]},"geometry":["point","area"],"matchScore":2,"terms":["normal"],"tags":{"brand:wikidata":"Q19562429","shop":"chemist"},"addTags":{"brand":"Normal","brand:wikidata":"Q19562429","name":"Normal","shop":"chemist"}},"shop/clothes/carlings-89d713":{"name":"Carlings","locationSet":{"include":["at","fi","no","se"]},"geometry":["point","area"],"matchScore":2,"terms":["carlings"],"fields":["name","brand","{shop/clothes}"],"tags":{"brand:wikidata":"Q10443115","shop":"clothes"},"addTags":{"brand":"Carlings","brand:wikidata":"Q10443115","name":"Carlings","shop":"clothes"}},"shop/clothes/cubus-a91a7f":{"name":"Cubus","locationSet":{"include":["fi","no","se"]},"geometry":["point","area"],"matchScore":2,"terms":["cubus"],"fields":["name","brand","{shop/clothes}"],"tags":{"brand:wikidata":"Q3439593","shop":"clothes"},"addTags":{"brand":"Cubus","brand:wikidata":"Q3439593","name":"Cubus","shop":"clothes"}},"shop/clothes/dressmann-89d713":{"name":"Dressmann","locationSet":{"include":["at","fi","no","se"]},"geometry":["point","area"],"matchScore":2,"terms":["dressmann"],"fields":["name","brand","{shop/clothes}"],"tags":{"brand:wikidata":"Q3357081","shop":"clothes"},"addTags":{"brand":"Dressmann","brand:wikidata":"Q3357081","clothes":"men","name":"Dressmann","shop":"clothes"}},"shop/clothes/kappahl-c962e5":{"name":"KappAhl","locationSet":{"include":["fi","no","pl","se"]},"geometry":["point","area"],"matchScore":2,"terms":["kappahl"],"fields":["name","brand","{shop/clothes}"],"tags":{"brand:wikidata":"Q4349016","shop":"clothes"},"addTags":{"brand":"KappAhl","brand:wikidata":"Q4349016","name":"KappAhl","shop":"clothes"}},"shop/clothes/lager157-268f20":{"name":"Lager 157","locationSet":{"include":["dk","fi","no","se"]},"geometry":["point","area"],"matchScore":2,"terms":["lager 157"],"tags":{"brand:wikidata":"Q10553200","shop":"clothes"},"addTags":{"brand":"Lager 157","brand:wikidata":"Q10553200","name":"Lager 157","shop":"clothes"}},"shop/clothes/lindex-d7f5c5":{"name":"Lindex","locationSet":{"include":["cz","ee","fi","no","se","sk"]},"geometry":["point","area"],"matchScore":2,"terms":["lindex"],"fields":["name","brand","{shop/clothes}"],"tags":{"brand:wikidata":"Q1786717","shop":"clothes"},"addTags":{"brand":"Lindex","brand:wikidata":"Q1786717","name":"Lindex","shop":"clothes"}},"shop/clothes/maje-ab7b56":{"name":"Maje","locationSet":{"include":["by","bg","cz","hu","pl","md","ro","ru","sk","ua","ax","gg","je","cq","dk","ee","fo","fi","is","ie","im","lv","lt","no","sj","se","gb","al","ad","ba","hr","gi","gr","va","it","mt","me","mk","pt","sm","rs","si","es","xk","at","be","fr","de","li","lu","mc","nl","ch","cn","sg","tw","us"]},"geometry":["point","area"],"matchScore":2,"terms":["maje"],"tags":{"brand:wikidata":"Q3280458","shop":"clothes"},"addTags":{"brand":"Maje","brand:wikidata":"Q3280458","clothes":"women","name":"Maje","shop":"clothes"}},"shop/clothes/nudiejeans-085abf":{"name":"Nudie Jeans","locationSet":{"include":["au","de","es","gb","id","jp","nl","no","nz","se","th","us"]},"geometry":["point","area"],"matchScore":2,"terms":["nudie jeans"],"tags":{"brand:wikidata":"Q2436187","shop":"clothes"},"addTags":{"brand":"Nudie Jeans","brand:wikidata":"Q2436187","name":"Nudie Jeans","shop":"clothes"}},"shop/clothes/soliver-fb408e":{"name":"s.Oliver","locationSet":{"include":["by","bg","cz","hu","pl","md","ro","ru","sk","ua","ax","gg","je","cq","dk","ee","fo","fi","is","ie","im","lv","lt","no","sj","se","gb","al","ad","ba","hr","gi","gr","va","it","mt","me","mk","pt","sm","rs","si","es","xk","at","be","fr","de","li","lu","mc","nl","ch","cn","in"]},"geometry":["point","area"],"matchScore":2,"terms":["s.oliver"],"tags":{"brand:wikidata":"Q265056","shop":"clothes"},"addTags":{"brand":"s.Oliver","brand:wikidata":"Q265056","name":"s.Oliver","shop":"clothes"}},"shop/clothes/samsoesamsoe-5e0a04":{"name":"Samsøe Samsøe","locationSet":{"include":["be","de","dk","lu","nl","no","se"]},"geometry":["point","area"],"matchScore":2,"terms":["samsøe samsøe","samsoe&samsoe"],"tags":{"brand:wikidata":"Q12334460","shop":"clothes"},"addTags":{"brand":"Samsøe Samsøe","brand:wikidata":"Q12334460","name":"Samsøe Samsøe","shop":"clothes"}},"shop/clothes/volt-e9779b":{"name":"Volt","locationSet":{"include":["no","se"]},"geometry":["point","area"],"matchScore":2,"terms":["volt","volt fashion"],"tags":{"brand:wikidata":"Q123246235","shop":"clothes"},"addTags":{"brand":"Volt","brand:wikidata":"Q123246235","name":"Volt","shop":"clothes"}},"shop/clothes/weekday-b5590c":{"name":"Weekday","locationSet":{"include":["by","bg","cz","hu","pl","md","ro","ru","sk","ua","ax","gg","je","cq","dk","ee","fo","fi","is","ie","im","lv","lt","no","sj","se","gb","al","ad","ba","hr","gi","gr","va","it","mt","me","mk","pt","sm","rs","si","es","xk","at","be","fr","de","li","lu","mc","nl","ch"]},"geometry":["point","area"],"matchScore":2,"terms":["weekday"],"tags":{"brand:wikidata":"Q10719514","shop":"clothes"},"addTags":{"brand":"Weekday","brand:wikidata":"Q10719514","name":"Weekday","shop":"clothes"}},"shop/clothes/zizzi-ef6c41":{"name":"Zizzi","locationSet":{"include":["dk","fi","nl","no","se"]},"geometry":["point","area"],"matchScore":2,"terms":["zizzi"],"tags":{"brand:wikidata":"Q122921301","shop":"clothes"},"addTags":{"brand":"Zizzi","brand:wikidata":"Q122921301","name":"Zizzi","shop":"clothes"}},"shop/convenience/7eleven-2da37b":{"name":"7-Eleven (Norge)","locationSet":{"include":["no"]},"geometry":["point","area"],"matchScore":2,"terms":["7-11","7-eleven","seven eleven"],"fields":["name","brand","{shop/convenience}"],"tags":{"brand:wikidata":"Q259340","shop":"convenience"},"addTags":{"brand":"7-Eleven","brand:wikidata":"Q259340","name":"7-Eleven","shop":"convenience"}},"shop/convenience/spar-2da37b":{"name":"Spar (Norge)","locationSet":{"include":["no"]},"geometry":["point","area"],"matchScore":2,"terms":["spar"],"fields":["name","brand","{shop/convenience}"],"tags":{"brand:wikidata":"Q610492","shop":"convenience"},"addTags":{"brand":"Spar","brand:wikidata":"Q610492","name":"Spar","shop":"convenience"}},"shop/convenience/sparexpress-2da37b":{"name":"Spar Express (Norge)","locationSet":{"include":["no"]},"geometry":["point","area"],"matchScore":2,"terms":["spar"],"fields":["name","brand","{shop/convenience}"],"tags":{"brand:wikidata":"Q610492","shop":"convenience"},"addTags":{"brand":"Spar","brand:wikidata":"Q610492","name":"Spar Express","shop":"convenience"}},"shop/convenience/viva-856fe1":{"name":"Viva","locationSet":{"include":["by","bg","cz","hu","pl","md","ro","ru","sk","ua","ax","gg","je","cq","dk","ee","fo","fi","is","ie","im","lv","lt","no","sj","se","gb","al","ad","ba","hr","gi","gr","va","it","mt","me","mk","pt","sm","rs","si","es","xk","at","be","fr","de","li","lu","mc","nl","ch"]},"geometry":["point","area"],"matchScore":2,"terms":["viva"],"tags":{"brand:wikidata":"Q168238","shop":"convenience"},"addTags":{"brand":"Viva","brand:wikidata":"Q168238","name":"Viva","shop":"convenience"}},"shop/doityourself/bauhaus-6847b5":{"name":"Bauhaus","locationSet":{"include":["at","bg","ch","cz","de","dk","ee","es","fi","hr","hu","is","lu","nl","no","se","si","sk","tr"]},"geometry":["point","area"],"matchScore":2,"terms":["bauhaus"],"tags":{"brand:wikidata":"Q672043","shop":"doityourself"},"addTags":{"brand":"Bauhaus","brand:wikidata":"Q672043","name":"Bauhaus","shop":"doityourself"}},"shop/doityourself/biltema-acccd4":{"name":"Biltema","locationSet":{"include":["dk","fi","no","se"]},"geometry":["point","area"],"matchScore":2,"terms":["biltema"],"fields":["name","brand","{shop/doityourself}"],"tags":{"brand:wikidata":"Q3355552","shop":"doityourself"},"addTags":{"brand":"Biltema","brand:wikidata":"Q3355552","name":"Biltema","shop":"doityourself"}},"shop/doityourself/clasohlson-baf621":{"name":"Clas Ohlson","locationSet":{"include":["fi","no","se"]},"geometry":["point","area"],"matchScore":2,"terms":["clas ohlson"],"fields":["name","brand","{shop/doityourself}"],"tags":{"brand:wikidata":"Q3356220","shop":"doityourself"},"addTags":{"brand":"Clas Ohlson","brand:wikidata":"Q3356220","name":"Clas Ohlson","shop":"doityourself"}},"shop/doityourself/coopbyggmix-1b58cb":{"name":"Coop Byggmix","locationSet":{"include":["no"]},"geometry":["point","area"],"matchScore":2,"terms":["coop byggmix"],"fields":["name","brand","{shop/doityourself}"],"tags":{"brand:wikidata":"Q12714075","shop":"doityourself"},"addTags":{"brand":"Coop Byggmix","brand:wikidata":"Q12714075","name":"Coop Byggmix","shop":"doityourself"}},"shop/doityourself/jula-2478eb":{"name":"Jula","locationSet":{"include":["no","pl","se"]},"geometry":["point","area"],"matchScore":2,"terms":["jula"],"fields":["name","brand","{shop/doityourself}"],"tags":{"brand:wikidata":"Q10541151","shop":"doityourself"},"addTags":{"brand":"Jula","brand:wikidata":"Q10541151","name":"Jula","shop":"doityourself"}},"shop/doityourself/obsbygg-1b58cb":{"name":"Obs Bygg","locationSet":{"include":["no"]},"geometry":["point","area"],"matchScore":2,"terms":["obs bygg"],"fields":["name","brand","{shop/doityourself}"],"tags":{"brand:wikidata":"Q5167707","shop":"doityourself"},"addTags":{"brand":"Obs Bygg","brand:wikidata":"Q5167707","shop":"doityourself"}},"shop/electrical/rexel-091354":{"name":"Rexel","locationSet":{"include":["at","au","be","ca","ch","cn","de","es","fi","fr","gb","ie","in","it","lu","me","nl","no","nz","pt","se","si","us"]},"geometry":["point","area"],"matchScore":2,"terms":["rexel"],"tags":{"brand:wikidata":"Q962489","shop":"electrical"},"addTags":{"brand":"Rexel","brand:wikidata":"Q962489","name":"Rexel","shop":"electrical"}},"shop/electronics/capielectronics-cec7c5":{"name":"Capi Electronics","locationSet":{"include":["ae","at","be","ch","de","dk","es","fi","it","nl","no","qa","za"]},"geometry":["point","area"],"matchScore":2,"terms":["capi"],"tags":{"brand:wikidata":"Q123846871","shop":"electronics"},"addTags":{"brand":"Capi","brand:wikidata":"Q123846871","name":"Capi Electronics","shop":"electronics"}},"shop/electronics/elkjop-5875d7":{"name":"Elkjøp","locationSet":{"include":["no"]},"geometry":["point","area"],"matchScore":2,"terms":["elkjøp"],"tags":{"brand:wikidata":"Q1771628","shop":"electronics"},"addTags":{"brand":"Elkjøp","brand:wikidata":"Q1771628","shop":"electronics"}},"shop/electronics/elon-4786d4":{"name":"Elon","locationSet":{"include":["no","se"]},"geometry":["point","area"],"matchScore":2,"terms":["elon"],"tags":{"brand:wikidata":"Q10478830","shop":"electronics"},"addTags":{"brand":"Elon","brand:wikidata":"Q10478830","name":"Elon","shop":"electronics"}},"shop/electronics/kjellandcompany-4786d4":{"name":"Kjell & Company","locationSet":{"include":["no","se"]},"geometry":["point","area"],"matchScore":2,"terms":["kjell & company","kjell och company"],"tags":{"brand:wikidata":"Q6419332","shop":"electronics"},"addTags":{"brand":"Kjell & Company","brand:wikidata":"Q6419332","name":"Kjell & Company","shop":"electronics"}},"shop/electronics/power-9765c4":{"name":"Power","locationSet":{"include":["dk","fi","no","se"]},"geometry":["point","area"],"matchScore":2,"terms":["power"],"tags":{"brand:wikidata":"Q20857751","shop":"electronics"},"addTags":{"brand":"Power","brand:wikidata":"Q20857751","name":"Power","shop":"electronics"}},"shop/electronics/teknikmagasinet-bae196":{"name":"Teknikmagasinet","locationSet":{"include":["fi","no","se"]},"geometry":["point","area"],"matchScore":2,"terms":["teknikmagasinet"],"tags":{"brand:wikidata":"Q3357520","shop":"electronics"},"addTags":{"brand":"Teknikmagasinet","brand:wikidata":"Q3357520","name":"Teknikmagasinet","shop":"electronics"}},"shop/fashion_accessories/mulberry-e1f087":{"name":"Mulberry","locationSet":{"include":["ae","au","ca","ch","cn","de","dk","fi","gb","ie","jp","kr","my","nl","no","se","sg","th","us"]},"geometry":["point","area"],"matchScore":2,"terms":["mulberry"],"tags":{"brand:wikidata":"Q3866987","shop":"fashion_accessories"},"addTags":{"brand":"Mulberry","brand:wikidata":"Q3866987","name":"Mulberry","shop":"fashion_accessories"}},"shop/florist/interflora-6ef878":{"name":"Interflora","locationSet":{"include":["fr","gb","no","se"]},"geometry":["point","area"],"matchScore":2,"terms":["interflora"],"tags":{"brand:wikidata":"Q692179","shop":"florist"},"addTags":{"brand":"Interflora","brand:wikidata":"Q692179","name":"Interflora","shop":"florist"}},"shop/florist/mestergronn-3ef364":{"name":"Mester grønn","locationSet":{"include":["no"]},"geometry":["point","area"],"matchScore":2,"terms":["mester grønn"],"fields":["name","brand","{shop/florist}"],"tags":{"brand:wikidata":"Q19381396","shop":"florist"},"addTags":{"brand":"Mester grønn","brand:wikidata":"Q19381396","name":"Mester grønn","shop":"florist"}},"shop/furniture/bohus-dccdff":{"name":"Bohus","locationSet":{"include":["no","se"]},"geometry":["point","area"],"matchScore":2,"terms":["bohus"],"fields":["name","brand","{shop/furniture}"],"tags":{"brand:wikidata":"Q13630057","shop":"furniture"},"addTags":{"brand":"Bohus","brand:wikidata":"Q13630057","name":"Bohus","shop":"furniture"}},"shop/furniture/bolia-a18722":{"name":"Bolia","locationSet":{"include":["by","bg","cz","hu","pl","md","ro","ru","sk","ua","ax","gg","je","cq","dk","ee","fo","fi","is","ie","im","lv","lt","no","sj","se","gb","al","ad","ba","hr","gi","gr","va","it","mt","me","mk","pt","sm","rs","si","es","xk","at","be","fr","de","li","lu","mc","nl","ch"]},"geometry":["point","area"],"matchScore":2,"terms":["bolia"],"tags":{"brand:wikidata":"Q11961809","shop":"furniture"},"addTags":{"brand":"Bolia","brand:wikidata":"Q11961809","name":"Bolia","shop":"furniture"}},"shop/furniture/fagmobler-c1bd40":{"name":"Fagmøbler","locationSet":{"include":["no"]},"geometry":["point","area"],"matchScore":2,"terms":["fagmøbler"],"fields":["name","brand","{shop/furniture}"],"tags":{"brand:wikidata":"Q119088754","shop":"furniture"},"addTags":{"brand":"Fagmøbler","brand:wikidata":"Q119088754","shop":"furniture"}},"shop/furniture/habitat-4d9d78":{"name":"Habitat (non-UK)","locationSet":{"include":["be","de","es","gr","is","lu","no","pt","tr"]},"geometry":["point","area"],"matchScore":2,"terms":["habitat"],"tags":{"brand:wikidata":"Q689059","shop":"furniture"},"addTags":{"brand":"Habitat","brand:wikidata":"Q689059","name":"Habitat","shop":"furniture"}},"shop/furniture/ikea-3c70a1":{"name":"IKEA (Scandinavia)","locationSet":{"include":["dk","fi","no","se"]},"geometry":["point","area"],"matchScore":2,"terms":["ikea"],"fields":["name","brand","{shop/furniture}"],"tags":{"brand:wikidata":"Q54078","shop":"furniture"},"addTags":{"brand":"IKEA","brand:wikidata":"Q54078","name":"IKEA","shop":"furniture"}},"shop/furniture/jysk-c1bd40":{"name":"Jysk (Norge)","locationSet":{"include":["no"]},"geometry":["point","area"],"matchScore":2,"terms":["jysk"],"fields":["name","brand","{shop/furniture}"],"tags":{"brand:wikidata":"Q138913","shop":"furniture"},"addTags":{"brand":"Jysk","brand:wikidata":"Q138913","name":"Jysk","shop":"furniture"}},"shop/furniture/mobelringen-c1bd40":{"name":"Møbelringen","locationSet":{"include":["no"]},"geometry":["point","area"],"matchScore":2,"terms":["møbelringen"],"fields":["name","brand","{shop/furniture}"],"tags":{"brand:wikidata":"Q11990436","shop":"furniture"},"addTags":{"brand":"Møbelringen","brand:wikidata":"Q11990436","shop":"furniture"}},"shop/furniture/momax-a18722":{"name":"Mömax","locationSet":{"include":["by","bg","cz","hu","pl","md","ro","ru","sk","ua","ax","gg","je","cq","dk","ee","fo","fi","is","ie","im","lv","lt","no","sj","se","gb","al","ad","ba","hr","gi","gr","va","it","mt","me","mk","pt","sm","rs","si","es","xk","at","be","fr","de","li","lu","mc","nl","ch"]},"geometry":["point","area"],"matchScore":2,"terms":["mömax"],"tags":{"brand:wikidata":"Q56388481","shop":"furniture"},"addTags":{"brand":"Mömax","brand:wikidata":"Q56388481","name":"Mömax","shop":"furniture"}},"shop/furniture/skeidar-c1bd40":{"name":"Skeidar","locationSet":{"include":["no"]},"geometry":["point","area"],"matchScore":2,"terms":["skeidar"],"fields":["name","brand","{shop/furniture}"],"tags":{"brand:wikidata":"Q12000916","shop":"furniture"},"addTags":{"brand":"Skeidar","brand:wikidata":"Q12000916","shop":"furniture"}},"shop/furniture/xxxlutz-5acc6e":{"name":"XXXLutz","locationSet":{"include":["by","bg","cz","hu","pl","md","ro","ru","sk","ua","ax","gg","je","cq","dk","ee","fo","fi","is","ie","im","lv","lt","no","sj","se","gb","al","ad","ba","hr","gi","gr","va","it","mt","me","mk","pt","sm","rs","si","es","xk","at","be","fr","de","li","lu","mc","nl","ch"],"exclude":["bg"]},"geometry":["point","area"],"matchScore":2,"terms":["xxxlutz"],"tags":{"brand:wikidata":"Q70339467","shop":"furniture"},"addTags":{"brand":"XXXLutz","brand:wikidata":"Q70339467","name":"XXXLutz","shop":"furniture"}},"shop/garden_centre/plantasjen-664184":{"name":"Plantasjen","locationSet":{"include":["no"]},"geometry":["point","area"],"matchScore":2,"terms":["plantasjen"],"fields":["name","brand","{shop/garden_centre}"],"tags":{"brand:wikidata":"Q10632989","shop":"garden_centre"},"addTags":{"brand":"Plantasjen","brand:wikidata":"Q10632989","shop":"garden_centre"}},"shop/general/europris-fd026c":{"name":"Europris","locationSet":{"include":["no"]},"geometry":["point","area"],"matchScore":2,"terms":["europris","eurorpris"],"fields":["name","brand","{shop/general}"],"tags":{"brand:wikidata":"Q17770215","shop":"general"},"addTags":{"brand":"Europris","brand:wikidata":"Q17770215","shop":"general"}},"shop/hairdresser/cutters-5effd8":{"name":"Cutters","locationSet":{"include":["fi","no","se"]},"geometry":["point","area"],"matchScore":2,"terms":["cutters"],"fields":["name","brand","{shop/hairdresser}"],"tags":{"brand:wikidata":"Q106940660","shop":"hairdresser"},"addTags":{"brand":"Cutters","brand:wikidata":"Q106940660","name":"Cutters","shop":"hairdresser"}},"shop/hardware/jernia-8a3989":{"name":"Jernia","locationSet":{"include":["no"]},"geometry":["point","area"],"matchScore":2,"terms":["jernia"],"fields":["name","brand","{shop/hardware}"],"tags":{"brand:wikidata":"Q19376254","shop":"hardware"},"addTags":{"brand":"Jernia","brand:wikidata":"Q19376254","shop":"hardware"}},"shop/houseware/kitchn-789341":{"name":"Kitch'n","locationSet":{"include":["no"]},"geometry":["point","area"],"matchScore":2,"terms":["kitch'n"],"tags":{"brand:wikidata":"Q11980795","shop":"houseware"},"addTags":{"brand":"Kitch'n","brand:wikidata":"Q11980795","shop":"houseware"}},"shop/houseware/lagerhaus-8b5f66":{"name":"Lagerhaus (Scandinavia)","locationSet":{"include":["no","se"]},"geometry":["point","area"],"matchScore":2,"terms":["lagerhaus"],"tags":{"brand:wikidata":"Q10553211","shop":"houseware"},"addTags":{"brand":"Lagerhaus","brand:wikidata":"Q10553211","name":"Lagerhaus","shop":"houseware"}},"shop/interior_decoration/feel-d55252":{"name":"Feel","locationSet":{"include":["no"]},"geometry":["point","area"],"matchScore":2,"terms":["feel"],"tags":{"brand:wikidata":"Q127920019","shop":"interior_decoration"},"addTags":{"brand":"Feel","brand:wikidata":"Q127920019","shop":"interior_decoration"}},"shop/interior_decoration/kidinterior-d55252":{"name":"Kid interiør","locationSet":{"include":["no"]},"geometry":["point","area"],"matchScore":2,"terms":["kid interiør"],"fields":["name","brand","{shop/interior_decoration}"],"tags":{"brand:wikidata":"Q109628199","shop":"interior_decoration"},"addTags":{"brand":"Kid interiør","brand:wikidata":"Q109628199","name":"Kid interiør","shop":"interior_decoration"}},"shop/interior_decoration/kremmerhuset-d55252":{"name":"Kremmerhuset","locationSet":{"include":["no"]},"geometry":["point","area"],"matchScore":2,"terms":["kremmerhuset"],"tags":{"brand:wikidata":"Q127921048","shop":"interior_decoration"},"addTags":{"brand":"Kremmerhuset","brand:wikidata":"Q127921048","shop":"interior_decoration"}},"shop/jewelry/glitter-f0ae67":{"name":"Glitter","locationSet":{"include":["dk","fi","no","se"]},"geometry":["point","area"],"matchScore":2,"terms":["glitter"],"tags":{"brand:wikidata":"Q10505535","shop":"jewelry"},"addTags":{"brand":"Glitter","brand:wikidata":"Q10505535","name":"Glitter","shop":"jewelry"}},"shop/kiosk/narvesen-a42ea8":{"name":"Narvesen","locationSet":{"include":["lt","lv","no"]},"geometry":["point","area"],"matchScore":2,"terms":["narvesen"],"tags":{"brand:wikidata":"Q6514414","shop":"kiosk"},"addTags":{"brand":"Narvesen","brand:wikidata":"Q6514414","name":"Narvesen","shop":"kiosk"}},"shop/mobile_phone/telenorbutikken-c74974":{"name":"Telenorbutikken","locationSet":{"include":["no"]},"geometry":["point","area"],"matchScore":2,"terms":["telenorbutikken"],"fields":["name","brand","{shop/mobile_phone}"],"tags":{"brand:wikidata":"Q845632","shop":"mobile_phone"},"addTags":{"brand":"Telenorbutikken","brand:wikidata":"Q845632","shop":"mobile_phone"}},"shop/mobile_phone/telia-856553":{"name":"Telia","locationSet":{"include":["dk","fi","lt","no","se"]},"geometry":["point","area"],"matchScore":2,"terms":["telia"],"fields":["name","brand","{shop/mobile_phone}"],"tags":{"brand:wikidata":"Q862303","shop":"mobile_phone"},"addTags":{"brand":"Telia","brand:wikidata":"Q862303","name":"Telia","shop":"mobile_phone"}},"shop/optician/synsam-aec081":{"name":"Synsam","locationSet":{"include":["fi","no","se"]},"geometry":["point","area"],"matchScore":2,"terms":["synsam"],"fields":["name","brand","{shop/optician}"],"tags":{"brand:wikidata":"Q12004589","shop":"optician"},"addTags":{"brand":"Synsam","brand:wikidata":"Q12004589","name":"Synsam","shop":"optician"}},"shop/paint/fargerike-e1be75":{"name":"Fargerike","locationSet":{"include":["no"]},"geometry":["point","area"],"matchScore":2,"terms":["fargerike"],"tags":{"brand:wikidata":"Q56487613","shop":"paint"},"addTags":{"brand":"Fargerike","brand:wikidata":"Q56487613","shop":"paint"}},"shop/shoes/dinsko-5ed905":{"name":"Din sko","locationSet":{"include":["no","se"]},"geometry":["point","area"],"matchScore":2,"terms":["din sko"],"fields":["name","brand","{shop/shoes}"],"tags":{"brand:wikidata":"Q10472869","shop":"shoes"},"addTags":{"brand":"Din sko","brand:wikidata":"Q10472869","name":"Din sko","shop":"shoes"}},"shop/shoes/dna-465569":{"name":"dna","locationSet":{"include":["no"]},"geometry":["point","area"],"matchScore":2,"terms":["dna"],"tags":{"brand:wikidata":"Q127921792","shop":"shoes"},"addTags":{"brand":"dna","brand:wikidata":"Q127921792","shop":"shoes"}},"shop/shoes/eurosko-5ed905":{"name":"Eurosko","locationSet":{"include":["no","se"]},"geometry":["point","area"],"matchScore":2,"terms":["eurosko"],"fields":["name","brand","{shop/shoes}"],"tags":{"brand:wikidata":"Q11968121","shop":"shoes"},"addTags":{"brand":"Eurosko","brand:wikidata":"Q11968121","name":"Eurosko","shop":"shoes"}},"shop/shoes/lillevinkelsko-465569":{"name":"Lille Vinkel Sko","locationSet":{"include":["no"]},"geometry":["point","area"],"matchScore":2,"terms":["lille vinkel sko"],"tags":{"brand:wikidata":"Q127922785","shop":"shoes"},"addTags":{"brand":"Lille Vinkel Sko","brand:wikidata":"Q127922785","shop":"shoes"}},"shop/shoes/mani-465569":{"name":"Mani","locationSet":{"include":["no"]},"geometry":["point","area"],"matchScore":2,"terms":["mani","skomani"],"tags":{"brand:wikidata":"Q127922507","shop":"shoes"},"addTags":{"brand":"Mani","brand:wikidata":"Q127922507","shop":"shoes"}},"shop/shoes/shoeday-465569":{"name":"Shoeday","locationSet":{"include":["no"]},"geometry":["point","area"],"matchScore":2,"terms":["shoeday"],"tags":{"brand:wikidata":"Q127922126","shop":"shoes"},"addTags":{"brand":"Shoeday","brand:wikidata":"Q127922126","shop":"shoes"}},"shop/shoes/skoringen-452c0a":{"name":"Skoringen","locationSet":{"include":["dk","no"]},"geometry":["point","area"],"matchScore":2,"terms":["skoringen"],"fields":["name","brand","{shop/shoes}"],"tags":{"brand:wikidata":"Q12001172","shop":"shoes"},"addTags":{"brand":"Skoringen","brand:wikidata":"Q12001172","name":"Skoringen","shop":"shoes"}},"shop/sports/intersport-6faf2d":{"name":"Intersport (Norge)","locationSet":{"include":["no"]},"geometry":["point","area"],"matchScore":2,"terms":["intersport"],"fields":["name","brand","{shop/sports}"],"tags":{"brand:wikidata":"Q666888","shop":"sports"},"addTags":{"brand":"Intersport","brand:wikidata":"Q666888","name":"Intersport","shop":"sports"}},"shop/sports/sport1-6faf2d":{"name":"Sport 1","locationSet":{"include":["no"]},"geometry":["point","area"],"matchScore":2,"terms":["sport 1"],"tags":{"brand:wikidata":"Q127916200","shop":"sports"},"addTags":{"brand":"Sport 1","brand:wikidata":"Q127916200","shop":"sports"}},"shop/sports/sportoutlet-6faf2d":{"name":"Sport Outlet","locationSet":{"include":["no"]},"geometry":["point","area"],"matchScore":2,"terms":["sport outlet"],"tags":{"brand:wikidata":"Q62729243","shop":"sports"},"addTags":{"brand":"Sport Outlet","brand:wikidata":"Q62729243","shop":"sports"}},"shop/sports/xxl-ea59d5":{"name":"XXL","locationSet":{"include":["fi","no","se"]},"geometry":["point","area"],"matchScore":2,"terms":["xxl"],"fields":["name","brand","{shop/sports}"],"tags":{"brand:wikidata":"Q12010840","shop":"sports"},"addTags":{"brand":"XXL","brand:wikidata":"Q12010840","name":"XXL","shop":"sports"}},"shop/supermarket/bunnpris-ed9dd5":{"name":"Bunnpris","locationSet":{"include":["no"]},"geometry":["point","area"],"matchScore":2,"terms":["bunnpris"],"fields":["name","brand","{shop/supermarket}"],"tags":{"brand:wikidata":"Q1774634","shop":"supermarket"},"addTags":{"brand":"Bunnpris","brand:wikidata":"Q1774634","name":"Bunnpris","shop":"supermarket"}},"shop/supermarket/coopmarked-ed9dd5":{"name":"Coop Marked","locationSet":{"include":["no"]},"geometry":["point","area"],"matchScore":2,"terms":["coop marked"],"fields":["name","brand","{shop/supermarket}"],"tags":{"brand:wikidata":"Q5167703","shop":"supermarket"},"addTags":{"brand":"Coop Marked","brand:wikidata":"Q5167703","shop":"supermarket"}},"shop/supermarket/coopmega-ed9dd5":{"name":"Coop Mega","locationSet":{"include":["no"]},"geometry":["point","area"],"matchScore":2,"terms":["coop mega"],"fields":["name","brand","{shop/supermarket}"],"tags":{"brand:wikidata":"Q4581010","shop":"supermarket"},"addTags":{"brand":"Coop Mega","brand:wikidata":"Q4581010","name":"Coop Mega","shop":"supermarket"}},"shop/supermarket/coopprix-ed9dd5":{"name":"Coop Prix","locationSet":{"include":["no"]},"geometry":["point","area"],"matchScore":2,"terms":["coop prix"],"fields":["name","brand","{shop/supermarket}"],"tags":{"brand:wikidata":"Q5167705","shop":"supermarket"},"addTags":{"brand":"Coop Prix","brand:wikidata":"Q5167705","name":"Coop Prix","shop":"supermarket"}},"shop/supermarket/eurospar-4b5e11":{"name":"Eurospar","locationSet":{"include":["by","bg","cz","hu","pl","md","ro","ru","sk","ua","ax","gg","je","cq","dk","ee","fo","fi","is","ie","im","lv","lt","no","sj","se","gb","al","ad","ba","hr","gi","gr","va","it","mt","me","mk","pt","sm","rs","si","es","xk","at","be","fr","de","li","lu","mc","nl","ch"]},"geometry":["point","area"],"matchScore":2,"terms":["eurospar"],"tags":{"brand:wikidata":"Q12309283","shop":"supermarket"},"addTags":{"brand":"Eurospar","brand:wikidata":"Q12309283","name":"Eurospar","shop":"supermarket"}},"shop/supermarket/extra-ed9dd5":{"name":"Extra","locationSet":{"include":["no"]},"geometry":["point","area"],"matchScore":2,"terms":["coop extra","extra"],"fields":["name","brand","{shop/supermarket}"],"tags":{"brand:wikidata":"Q11964085","shop":"supermarket"},"addTags":{"brand":"Extra","brand:wikidata":"Q11964085","name":"Extra","shop":"supermarket"}},"shop/supermarket/joker-ed9dd5":{"name":"Joker","locationSet":{"include":["no"]},"geometry":["point","area"],"matchScore":2,"terms":["joker"],"fields":["name","brand","{shop/supermarket}"],"tags":{"brand:wikidata":"Q716328","shop":"supermarket"},"addTags":{"brand":"Joker","brand:wikidata":"Q716328","name":"Joker","shop":"supermarket"}},"shop/supermarket/kiwi-ed9dd5":{"name":"Kiwi","locationSet":{"include":["no"]},"geometry":["point","area"],"matchScore":2,"terms":["kiwi"],"fields":["name","brand","{shop/supermarket}"],"tags":{"brand:wikidata":"Q1613639","shop":"supermarket"},"addTags":{"brand":"Kiwi","brand:wikidata":"Q1613639","name":"Kiwi","shop":"supermarket"}},"shop/supermarket/matkroken-ed9dd5":{"name":"Matkroken","locationSet":{"include":["no"]},"geometry":["point","area"],"matchScore":2,"terms":["matkroken"],"fields":["name","brand","{shop/supermarket}"],"tags":{"brand:wikidata":"Q11988679","shop":"supermarket"},"addTags":{"brand":"Matkroken","brand:wikidata":"Q11988679","shop":"supermarket"}},"shop/supermarket/maxiicastormarknad-e39865":{"name":"Maxi ICA Stormarknad","locationSet":{"include":["no","se"]},"geometry":["point","area"],"matchScore":2,"terms":["ica maxi","maxi ica stormarknad"],"fields":["name","brand","{shop/supermarket}"],"tags":{"brand:wikidata":"Q1663776","shop":"supermarket"},"addTags":{"brand":"Maxi ICA Stormarknad","brand:wikidata":"Q1663776","name":"Maxi ICA Stormarknad","shop":"supermarket","short_name":"ICA Maxi"}},"shop/supermarket/meny-2b56aa":{"name":"Meny","locationSet":{"include":["dk","no"]},"geometry":["point","area"],"matchScore":2,"terms":["meny"],"fields":["name","brand","{shop/supermarket}"],"tags":{"brand:wikidata":"Q10581720","shop":"supermarket"},"addTags":{"brand":"Meny","brand:wikidata":"Q10581720","name":"Meny","shop":"supermarket"}},"shop/supermarket/naerbutikken-ed9dd5":{"name":"Nærbutikken","locationSet":{"include":["no"]},"geometry":["point","area"],"matchScore":2,"terms":["nærbutikken"],"fields":["name","brand","{shop/supermarket}"],"tags":{"brand:wikidata":"Q108810007","shop":"supermarket"},"addTags":{"brand":"Nærbutikken","brand:wikidata":"Q108810007","shop":"supermarket"}},"shop/supermarket/rema1000-2b56aa":{"name":"Rema 1000","locationSet":{"include":["dk","no"]},"geometry":["point","area"],"matchScore":2,"terms":["rema 1000"],"fields":["name","brand","{shop/supermarket}"],"tags":{"brand:wikidata":"Q28459","shop":"supermarket"},"addTags":{"brand":"Rema 1000","brand:wikidata":"Q28459","name":"Rema 1000","shop":"supermarket"}},"shop/supermarket/spar-ed9dd5":{"name":"Spar (Norge)","locationSet":{"include":["no"]},"geometry":["point","area"],"matchScore":2,"terms":["spar"],"fields":["name","brand","{shop/supermarket}"],"tags":{"brand:wikidata":"Q610492","shop":"supermarket"},"addTags":{"brand":"Spar","brand:wikidata":"Q610492","name":"Spar","shop":"supermarket"}},"shop/tattoo/veantattoo-eea007":{"name":"VeAn Tattoo","locationSet":{"include":["by","bg","cz","hu","pl","md","ro","ru","sk","ua","ax","gg","je","cq","dk","ee","fo","fi","is","ie","im","lv","lt","no","sj","se","gb","al","ad","ba","hr","gi","gr","va","it","mt","me","mk","pt","sm","rs","si","es","xk","at","be","fr","de","li","lu","mc","nl","ch"]},"geometry":["point","area"],"matchScore":2,"terms":["vean tattoo"],"tags":{"brand:wikidata":"Q116871240","shop":"tattoo"},"addTags":{"brand":"VeAn Tattoo","brand:wikidata":"Q116871240","name":"VeAn Tattoo","shop":"tattoo"}},"shop/tea/palaisdesthes-9d2342":{"name":"Palais des Thés","locationSet":{"include":["be","fr","ge","il","lu","no","ru"]},"geometry":["point","area"],"matchScore":2,"terms":["palais des thés"],"tags":{"brand:wikidata":"Q3225161","shop":"tea"},"addTags":{"brand":"Palais des Thés","brand:wikidata":"Q3225161","name":"Palais des Thés","shop":"tea"}},"shop/ticket/ticketmaster-9f0b74":{"name":"Ticketmaster","locationSet":{"include":["ae","at","au","be","ca","ch","cy","cz","de","dk","es","fi","fr","gb","gr","ie","it","mx","nl","no","nz","pl","se","sg","tr","tw","za"]},"geometry":["point","area"],"matchScore":2,"terms":["live nation","ticketmaster"],"fields":["name","brand","{shop/ticket}"],"tags":{"brand:wikidata":"Q2609162","shop":"ticket"},"addTags":{"brand":"Ticketmaster","brand:wikidata":"Q2609162","name":"Ticketmaster","shop":"ticket"}},"shop/tool_hire/loxam-33fef8":{"name":"Loxam","locationSet":{"include":["ae","be","bh","br","ch","co","cz","de","dk","ee","es","fi","fr","gb","ie","it","kw","lt","lu","lv","ma","nl","no","om","pl","pt","qa","sa","se","sk"]},"geometry":["point","area"],"matchScore":2,"terms":["loxam"],"tags":{"brand:wikidata":"Q3264407","shop":"tool_hire"},"addTags":{"brand":"Loxam","brand:wikidata":"Q3264407","name":"Loxam","shop":"tool_hire"}},"shop/toys/extraleker-77c96c":{"name":"Extra Leker","locationSet":{"include":["no","se"]},"geometry":["point","area"],"matchScore":2,"terms":["extra leker"],"tags":{"brand:wikidata":"Q127918100","shop":"toys"},"addTags":{"brand":"Extra Leker","brand:wikidata":"Q127918100","shop":"toys"}},"shop/toys/lekia-77c96c":{"name":"Lekia","locationSet":{"include":["no","se"]},"geometry":["point","area"],"matchScore":2,"terms":["lekia"],"tags":{"brand:wikidata":"Q56303274","shop":"toys"},"addTags":{"brand":"Lekia","brand:wikidata":"Q56303274","name":"Lekia","shop":"toys"}},"shop/trade/byggern-db4f61":{"name":"Bygger'n","locationSet":{"include":["no"]},"geometry":["point","area"],"matchScore":2,"terms":["bygger'n"],"fields":["name","brand","{shop/trade}"],"tags":{"brand:wikidata":"Q11962715","shop":"trade"},"addTags":{"brand":"Bygger'n","brand:wikidata":"Q11962715","shop":"trade"}},"shop/trade/byggmakker-db4f61":{"name":"Byggmakker","locationSet":{"include":["no"]},"geometry":["point","area"],"matchScore":2,"terms":["byggmakker"],"fields":["name","brand","{shop/trade}"],"tags":{"brand:wikidata":"Q56404324","shop":"trade"},"addTags":{"brand":"Byggmakker","brand:wikidata":"Q56404324","shop":"trade"}},"shop/trade/byggtorget-db4f61":{"name":"Byggtorget","locationSet":{"include":["no"]},"geometry":["point","area"],"matchScore":2,"terms":["byggtorget"],"fields":["name","brand","{shop/trade}"],"tags":{"brand:wikidata":"Q11962722","shop":"trade"},"addTags":{"brand":"Byggtorget","brand:wikidata":"Q11962722","shop":"trade"}},"shop/trade/maxbo-db4f61":{"name":"Maxbo","locationSet":{"include":["no"]},"geometry":["point","area"],"matchScore":2,"terms":["maxbo"],"fields":["name","brand","{shop/trade}"],"tags":{"brand:wikidata":"Q11988771","shop":"trade"},"addTags":{"brand":"Maxbo","brand:wikidata":"Q11988771","name":"Maxbo","shop":"trade"}},"shop/trade/monter-db4f61":{"name":"Montér","locationSet":{"include":["no"]},"geometry":["point","area"],"matchScore":2,"terms":["montér"],"fields":["name","brand","{shop/trade}"],"tags":{"brand:wikidata":"Q11989912","shop":"trade"},"addTags":{"brand":"Montér","brand:wikidata":"Q11989912","shop":"trade","trade":"building_supplies"}},"shop/trade/xlbygg-14590b":{"name":"XL-Bygg","locationSet":{"include":["no","se"]},"geometry":["point","area"],"matchScore":2,"terms":["xl-bygg"],"fields":["name","brand","{shop/trade}"],"tags":{"brand:wikidata":"Q10720798","shop":"trade"},"addTags":{"brand":"XL-Bygg","brand:wikidata":"Q10720798","shop":"trade","trade":"building_supplies"}},"shop/tyres/dekkmann-3a2f39":{"name":"Dekkmann","locationSet":{"include":["no"]},"geometry":["point","area"],"matchScore":2,"terms":["dekkmann"],"fields":["name","brand","{shop/tyres}"],"tags":{"brand:wikidata":"Q110958736","shop":"tyres"},"addTags":{"brand":"Dekkmann","brand:wikidata":"Q110958736","name":"Dekkmann","shop":"tyres"}},"shop/tyres/superdekk-8efefa":{"name":"Super Dekk","locationSet":{"include":["dk","no","se"]},"geometry":["point","area"],"matchScore":2,"terms":["super dekk","super dekk service","super service dekk"],"fields":["name","brand","{shop/tyres}"],"tags":{"brand:wikidata":"Q120765135","shop":"tyres"},"addTags":{"brand":"Super Dekk","brand:wikidata":"Q120765135","name":"Super Dekk","shop":"tyres"}},"shop/variety_store/flyingtigercopenhagen-55ef00":{"name":"Flying Tiger Copenhagen","locationSet":{"include":["at","be","ch","cy","cz","de","dk","ee","es","fi","fr","gb","gr","hu","ie","il","is","it","jp","kr","lt","lv","mt","nl","no","pl","pt","se","sk"]},"geometry":["point","area"],"matchScore":2,"terms":["flying tiger","flying tiger copenhagen","tgr","tiger"],"tags":{"brand:wikidata":"Q2786319","shop":"variety_store"},"addTags":{"brand":"Flying Tiger Copenhagen","brand:wikidata":"Q2786319","name":"Flying Tiger Copenhagen","shop":"variety_store","short_name":"Flying Tiger"}},"shop/variety_store/nille-1dc1f6":{"name":"Nille","locationSet":{"include":["no"]},"geometry":["point","area"],"matchScore":2,"terms":["nille"],"fields":["name","brand","{shop/variety_store}"],"tags":{"brand:wikidata":"Q11991429","shop":"variety_store"},"addTags":{"brand":"Nille","brand:wikidata":"Q11991429","name":"Nille","shop":"variety_store"}},"shop/wholesale/gigaboks-2d84b8":{"name":"Gigaboks","locationSet":{"include":["no"]},"geometry":["point","area"],"matchScore":2,"terms":["gigaboks","norgesgruppen"],"fields":["name","brand","{shop/wholesale}"],"tags":{"brand:wikidata":"Q125455876","shop":"wholesale"},"addTags":{"brand":"Gigaboks","brand:wikidata":"Q125455876","name":"Gigaboks","operator":"NorgesGruppen","shop":"wholesale"}},"tourism/hotel/bandbhotel-fc8c2c":{"name":"B&B Hotel","locationSet":{"include":["by","bg","cz","hu","pl","md","ro","ru","sk","ua","ax","gg","je","cq","dk","ee","fo","fi","is","ie","im","lv","lt","no","sj","se","gb","al","ad","ba","hr","gi","gr","va","it","mt","me","mk","pt","sm","rs","si","es","xk","at","be","fr","de","li","lu","mc","nl","ch","br"]},"geometry":["point","area"],"matchScore":2,"terms":["b&b hotels"],"fields":["name","brand","{tourism/hotel}"],"tags":{"brand:wikidata":"Q794939","tourism":"hotel"},"addTags":{"brand":"B&B Hotels","brand:wikidata":"Q794939","name":"B&B Hotel","tourism":"hotel"}},"tourism/hotel/clarion-f371eb":{"name":"Clarion","locationSet":{"include":["dk","fi","no","se","us"]},"geometry":["point","area"],"matchScore":2,"terms":["clarion"],"fields":["name","brand","{tourism/hotel}"],"tags":{"brand:wikidata":"Q10454567","tourism":"hotel"},"addTags":{"brand":"Clarion","brand:wikidata":"Q10454567","name":"Clarion","tourism":"hotel"}},"tourism/hotel/firsthotels-ed076a":{"name":"First Hotels","locationSet":{"include":["dk","no","se"]},"geometry":["point","area"],"matchScore":2,"terms":["first hotels"],"fields":["name","brand","{tourism/hotel}"],"tags":{"brand:wikidata":"Q11969007","tourism":"hotel"},"addTags":{"brand":"First Hotels","brand:wikidata":"Q11969007","tourism":"hotel"}},"tourism/hotel/greet-046fe6":{"name":"greet","locationSet":{"include":["by","bg","cz","hu","pl","md","ro","ru","sk","ua","ax","gg","je","cq","dk","ee","fo","fi","is","ie","im","lv","lt","no","sj","se","gb","al","ad","ba","hr","gi","gr","va","it","mt","me","mk","pt","sm","rs","si","es","xk","at","be","fr","de","li","lu","mc","nl","ch"]},"geometry":["point","area"],"matchScore":2,"terms":["greet"],"fields":["name","brand","{tourism/hotel}"],"tags":{"brand:wikidata":"Q115489066","tourism":"hotel"},"addTags":{"brand":"greet","brand:wikidata":"Q115489066","name":"Greet","tourism":"hotel"}},"tourism/hotel/motelone-1fc1b4":{"name":"Motel One","locationSet":{"include":["by","bg","cz","hu","pl","md","ro","ru","sk","ua","ax","gg","je","cq","dk","ee","fo","fi","is","ie","im","lv","lt","no","sj","se","gb","al","ad","ba","hr","gi","gr","va","it","mt","me","mk","pt","sm","rs","si","es","xk","at","be","fr","de","li","lu","mc","nl","ch","us-ny"]},"geometry":["point","area"],"matchScore":2,"terms":["motel one"],"fields":["name","brand","{tourism/hotel}"],"tags":{"brand:wikidata":"Q391080","tourism":"hotel"},"addTags":{"brand":"Motel One","brand:wikidata":"Q391080","name":"Motel One","tourism":"hotel"}},"tourism/hotel/scandichotels-f8f452":{"name":"Scandic Hotels","locationSet":{"include":["de","dk","fi","no","pl","se"]},"geometry":["point","area"],"matchScore":2,"terms":["scandic hotels"],"fields":["name","brand","{tourism/hotel}"],"tags":{"brand:wikidata":"Q129391","tourism":"hotel"},"addTags":{"brand":"Scandic Hotels","brand:wikidata":"Q129391","name":"Scandic Hotels","tourism":"hotel"}},"amenity/charging_station/aimopark-c6312f":{"name":"Aimo Park","locationSet":{"include":["fi","no","se"]},"geometry":["point","vertex","area"],"matchScore":2,"terms":["aimo park"],"fields":["name","operator","{amenity/charging_station}"],"tags":{"amenity":"charging_station","operator:wikidata":"Q126728228"},"addTags":{"amenity":"charging_station","operator":"Aimo Park","operator:wikidata":"Q126728228"}},"amenity/charging_station/coop-476d58":{"name":"Coop Norge","locationSet":{"include":["no"]},"geometry":["point","vertex","area"],"matchScore":2,"terms":["coop"],"fields":["name","operator","{amenity/charging_station}"],"tags":{"amenity":"charging_station","operator:wikidata":"Q1618373"},"addTags":{"amenity":"charging_station","operator":"Coop","operator:wikidata":"Q1618373"}},"amenity/charging_station/eon-7f623e":{"name":"E.ON","locationSet":{"include":["by","bg","cz","hu","pl","md","ro","ru","sk","ua","ax","gg","je","cq","dk","ee","fo","fi","is","ie","im","lv","lt","no","sj","se","gb","al","ad","ba","hr","gi","gr","va","it","mt","me","mk","pt","sm","rs","si","es","xk","at","be","fr","de","li","lu","mc","nl","ch"]},"geometry":["point","vertex","area"],"matchScore":2,"terms":["e-on drive","e.on"],"fields":["name","operator","{amenity/charging_station}"],"tags":{"amenity":"charging_station","operator:wikidata":"Q270223"},"addTags":{"amenity":"charging_station","operator":"E.ON","operator:wikidata":"Q270223"}},"amenity/charging_station/evbox-7f623e":{"name":"EVBox","locationSet":{"include":["by","bg","cz","hu","pl","md","ro","ru","sk","ua","ax","gg","je","cq","dk","ee","fo","fi","is","ie","im","lv","lt","no","sj","se","gb","al","ad","ba","hr","gi","gr","va","it","mt","me","mk","pt","sm","rs","si","es","xk","at","be","fr","de","li","lu","mc","nl","ch"]},"geometry":["point","vertex","area"],"matchScore":2,"terms":["evbox"],"fields":["name","operator","{amenity/charging_station}"],"tags":{"amenity":"charging_station","operator:wikidata":"Q28406392"},"addTags":{"amenity":"charging_station","operator":"EVBox","operator:wikidata":"Q28406392"}},"amenity/charging_station/qpark-7f623e":{"name":"Q-Park","locationSet":{"include":["by","bg","cz","hu","pl","md","ro","ru","sk","ua","ax","gg","je","cq","dk","ee","fo","fi","is","ie","im","lv","lt","no","sj","se","gb","al","ad","ba","hr","gi","gr","va","it","mt","me","mk","pt","sm","rs","si","es","xk","at","be","fr","de","li","lu","mc","nl","ch"]},"geometry":["point","vertex","area"],"matchScore":2,"terms":["q-park"],"fields":["name","operator","{amenity/charging_station}"],"tags":{"amenity":"charging_station","operator:wikidata":"Q1127798"},"addTags":{"amenity":"charging_station","operator":"Q-Park","operator:wikidata":"Q1127798"}},"amenity/charging_station/ringerikskraftas-476d58":{"name":"Ringeriks-kraft AS","locationSet":{"include":["no"]},"geometry":["point","vertex","area"],"matchScore":2,"terms":["ringeriks-kraft as"],"fields":["name","operator","{amenity/charging_station}"],"tags":{"amenity":"charging_station","operator:wikidata":"Q11997886"},"addTags":{"amenity":"charging_station","operator":"Ringeriks-kraft AS","operator:wikidata":"Q11997886"}},"amenity/clinic/capio-5b16c3":{"name":"Capio","locationSet":{"include":["dk","fx","no","se"]},"geometry":["point","area"],"matchScore":2,"terms":["capio"],"fields":["name","operator","{amenity/clinic}"],"reference":{"key":"amenity","value":"clinic"},"tags":{"amenity":"clinic","operator:wikidata":"Q498606"},"addTags":{"amenity":"clinic","healthcare":"clinic","operator":"Capio","operator:wikidata":"Q498606"}},"amenity/fire_station/saltenbranniks-ac32fd":{"name":"Salten Brann IKS","locationSet":{"include":["no"]},"geometry":["point","area"],"matchScore":2,"terms":["salten brann iks"],"tags":{"amenity":"fire_station","operator:wikidata":"Q28718965"},"addTags":{"amenity":"fire_station","operator":"Salten Brann IKS","operator:wikidata":"Q28718965"}},"amenity/hospital/capio-ee5a4b":{"name":"Capio","locationSet":{"include":["de","dk","fx","no","se"]},"geometry":["area","point"],"matchScore":2,"terms":["capio"],"fields":["name","operator","{amenity/hospital}"],"reference":{"key":"amenity","value":"hospital"},"tags":{"amenity":"hospital","operator:wikidata":"Q498606"},"addTags":{"amenity":"hospital","healthcare":"hospital","operator":"Capio","operator:wikidata":"Q498606"}},"amenity/kindergarten/oslokommune-04f073":{"name":"Oslo kommune","locationSet":{"include":["no"]},"geometry":["area","point"],"matchScore":2,"terms":["oslo kommune"],"tags":{"amenity":"kindergarten","operator:wikidata":"Q5245991"},"addTags":{"amenity":"kindergarten","operator":"Oslo kommune","operator:type":"public","operator:wikidata":"Q5245991"}},"amenity/library/ntnuuniversitetsbiblioteket-fd94f8":{"name":"NTNU Universitetsbiblioteket","locationSet":{"include":["no"]},"geometry":["point","area"],"matchScore":2,"terms":["ntnu universitetsbiblioteket"],"tags":{"amenity":"library","operator:wikidata":"Q11990765"},"addTags":{"amenity":"library","operator":"NTNU Universitetsbiblioteket","operator:type":"university","operator:wikidata":"Q11990765"}},"amenity/parking/apcoaparking-e752ad":{"name":"Apcoa Parking","locationSet":{"include":["at","be","ch","de","dk","gb","ie","it","nl","no","pl","se"]},"geometry":["area","point","vertex"],"matchScore":2,"terms":["apcoa","apcoa parking"],"fields":["name","operator","{amenity/parking}"],"tags":{"amenity":"parking","operator:wikidata":"Q296108"},"addTags":{"amenity":"parking","operator":"APCOA Parking","operator:wikidata":"Q296108"}},"amenity/post_box/posten-d3fd2e":{"name":"Posten (Norge)","locationSet":{"include":["no"]},"geometry":["point","vertex"],"matchScore":2,"terms":["posten"],"tags":{"amenity":"post_box","operator:wikidata":"Q1815701"},"addTags":{"amenity":"post_box","brand":"Posten","brand:wikidata":"Q1815701","operator":"Posten","operator:wikidata":"Q1815701"}},"amenity/recycling/bir-3e1966":{"name":"BIR","locationSet":{"include":["no"]},"geometry":["point","area"],"matchScore":2,"terms":["bir"],"tags":{"amenity":"recycling","operator:wikidata":"Q130251212"},"addTags":{"amenity":"recycling","operator":"BIR","operator:wikidata":"Q130251212"}},"amenity/recycling/kirkensbymisjon-3e1966":{"name":"Kirkens Bymisjon","locationSet":{"include":["no"]},"geometry":["point","area"],"matchScore":2,"terms":["kirkens bymisjon"],"tags":{"amenity":"recycling","operator:wikidata":"Q4591239"},"addTags":{"amenity":"recycling","operator":"Kirkens Bymisjon","operator:wikidata":"Q4591239"}},"amenity/recycling/norgesrodekors-3e1966":{"name":"Norges Røde Kors","locationSet":{"include":["no"]},"geometry":["point","area"],"matchScore":2,"terms":["norges røde kors","røde kors"],"tags":{"amenity":"recycling","operator:wikidata":"Q927391"},"addTags":{"amenity":"recycling","operator":"Norges Røde Kors","operator:wikidata":"Q927391"}},"amenity/recycling/ragnsellsas-ef3a0e":{"name":"Ragn-Sells AS","locationSet":{"include":["ee","no","se"]},"geometry":["point","area"],"matchScore":2,"terms":["ragn-sells as"],"tags":{"amenity":"recycling","operator:wikidata":"Q10648557"},"addTags":{"amenity":"recycling","operator":"Ragn-Sells AS","operator:wikidata":"Q10648557"}},"amenity/recycling/remondis-222d99":{"name":"REMONDIS","locationSet":{"include":["by","bg","cz","hu","pl","md","ro","ru","sk","ua","ax","gg","je","cq","dk","ee","fo","fi","is","ie","im","lv","lt","no","sj","se","gb","al","ad","ba","hr","gi","gr","va","it","mt","me","mk","pt","sm","rs","si","es","xk","at","be","fr","de","li","lu","mc","nl","ch"]},"geometry":["point","area"],"matchScore":2,"terms":["remondis"],"tags":{"amenity":"recycling","operator:wikidata":"Q884975"},"addTags":{"amenity":"recycling","operator":"REMONDIS","operator:wikidata":"Q884975"}},"amenity/school/agderfylkeskommune-ee5f1f":{"name":"Agder fylkeskommune","locationSet":{"include":["no"]},"geometry":["area","point"],"matchScore":2,"terms":["agder fylkeskommune"],"tags":{"amenity":"school","operator:wikidata":"Q100707270"},"addTags":{"amenity":"school","operator":"Agder fylkeskommune","operator:wikidata":"Q100707270"}},"amenity/school/akershusfylkeskommune-ee5f1f":{"name":"Akershus fylkeskommune","locationSet":{"include":["no"]},"geometry":["area","point"],"matchScore":2,"terms":["akershus fylkeskommune"],"tags":{"amenity":"school","operator:wikidata":"Q4700650"},"addTags":{"amenity":"school","operator":"Akershus fylkeskommune","operator:wikidata":"Q4700650"}},"amenity/school/altakommune-ee5f1f":{"name":"Alta kommune","locationSet":{"include":["no"]},"geometry":["area","point"],"matchScore":2,"terms":["alta kommune"],"tags":{"amenity":"school","operator:wikidata":"Q6535"},"addTags":{"amenity":"school","operator":"Alta kommune","operator:type":"public","operator:wikidata":"Q6535"}},"amenity/school/alverkommune-ee5f1f":{"name":"Alver kommune","locationSet":{"include":["no"]},"geometry":["area","point"],"matchScore":2,"terms":["alver kommune"],"tags":{"amenity":"school","operator:wikidata":"Q56404228"},"addTags":{"amenity":"school","operator":"Alver kommune","operator:type":"public","operator:wikidata":"Q56404228"}},"amenity/school/arendalkommune-ee5f1f":{"name":"Arendal kommune","locationSet":{"include":["no"]},"geometry":["area","point"],"matchScore":2,"terms":["arendal kommune"],"tags":{"amenity":"school","operator:wikidata":"Q57919"},"addTags":{"amenity":"school","operator":"Arendal kommune","operator:type":"public","operator:wikidata":"Q57919"}},"amenity/school/askerkommune-ee5f1f":{"name":"Asker kommune","locationSet":{"include":["no"]},"geometry":["area","point"],"matchScore":2,"terms":["asker kommune"],"tags":{"amenity":"school","operator:wikidata":"Q80593157"},"addTags":{"amenity":"school","operator":"Asker kommune","operator:type":"public","operator:wikidata":"Q80593157"}},"amenity/school/askoykommune-ee5f1f":{"name":"Askøy kommune","locationSet":{"include":["no"]},"geometry":["area","point"],"matchScore":2,"terms":["askøy kommune"],"tags":{"amenity":"school","operator:wikidata":"Q215374"},"addTags":{"amenity":"school","operator":"Askøy kommune","operator:type":"public","operator:wikidata":"Q215374"}},"amenity/school/hammerfestkommune-ee5f1f":{"name":"Hammerfest kommune","locationSet":{"include":["no"]},"geometry":["area","point"],"matchScore":2,"terms":["hammerfest kommune"],"tags":{"amenity":"school","operator:wikidata":"Q107351"},"addTags":{"amenity":"school","operator":"Hammerfest kommune","operator:wikidata":"Q107351"}},"amenity/school/melhuskommune-ee5f1f":{"name":"Melhus kommune","locationSet":{"include":["no"]},"geometry":["area","point"],"matchScore":2,"terms":["melhus kommune"],"tags":{"amenity":"school","operator:wikidata":"Q488762"},"addTags":{"amenity":"school","operator":"Melhus kommune","operator:type":"public","operator:wikidata":"Q488762"}},"amenity/school/moldekommune-ee5f1f":{"name":"Molde kommune","locationSet":{"include":["no"]},"geometry":["area","point"],"matchScore":2,"terms":["molde kommune"],"tags":{"amenity":"school","operator:wikidata":"Q104095"},"addTags":{"amenity":"school","operator":"Molde kommune","operator:type":"public","operator:wikidata":"Q104095"}},"amenity/school/moreogromsdalfylkeskommune-ee5f1f":{"name":"Møre og Romsdal fylkeskommune","locationSet":{"include":["no"]},"geometry":["area","point"],"matchScore":2,"terms":["møre og romsdal fylkeskommune"],"tags":{"amenity":"school","operator:wikidata":"Q6950397"},"addTags":{"amenity":"school","operator":"Møre og Romsdal fylkeskommune","operator:type":"public","operator:wikidata":"Q6950397"}},"amenity/school/mosskommune-ee5f1f":{"name":"Moss kommune","locationSet":{"include":["no"]},"geometry":["area","point"],"matchScore":2,"terms":["moss kommune"],"tags":{"amenity":"school","operator:wikidata":"Q109021"},"addTags":{"amenity":"school","operator":"Moss kommune","operator:type":"public","operator:wikidata":"Q109021"}},"amenity/school/namsoskommune-ee5f1f":{"name":"Namsos kommune","locationSet":{"include":["no"]},"geometry":["area","point"],"matchScore":2,"terms":["namsos kommune"],"tags":{"amenity":"school","operator:wikidata":"Q111039"},"addTags":{"amenity":"school","operator":"Namsos kommune","operator:type":"public","operator:wikidata":"Q111039"}},"amenity/school/nordlandfylkeskommune-ee5f1f":{"name":"Nordland fylkeskommune","locationSet":{"include":["no"]},"geometry":["area","point"],"matchScore":2,"terms":["nordland fylkeskommune"],"tags":{"amenity":"school","operator:wikidata":"Q7050827"},"addTags":{"amenity":"school","operator":"Nordland fylkeskommune","operator:type":"public","operator:wikidata":"Q7050827"}},"amenity/school/nordrefollokommune-ee5f1f":{"name":"Nordre Follo kommune","locationSet":{"include":["no"]},"geometry":["area","point"],"matchScore":2,"terms":["nordre follo kommune"],"tags":{"amenity":"school","operator:wikidata":"Q45303406"},"addTags":{"amenity":"school","operator":"Nordre Follo kommune","operator:type":"public","operator:wikidata":"Q45303406"}},"amenity/school/orklandkommune-ee5f1f":{"name":"Orkland kommune","locationSet":{"include":["no"]},"geometry":["area","point"],"matchScore":2,"terms":["orkland kommune"],"tags":{"amenity":"school","operator:wikidata":"Q41030999"},"addTags":{"amenity":"school","operator":"Orkland kommune","operator:wikidata":"Q41030999"}},"amenity/school/oslokommune-ee5f1f":{"name":"Oslo kommune","locationSet":{"include":["no"]},"geometry":["area","point"],"matchScore":2,"terms":["oslo kommune"],"tags":{"amenity":"school","operator:wikidata":"Q5245991"},"addTags":{"amenity":"school","operator":"Oslo kommune","operator:type":"public","operator:wikidata":"Q5245991"}},"amenity/school/oygardenkommune-ee5f1f":{"name":"Øygarden kommune","locationSet":{"include":["no"]},"geometry":["area","point"],"matchScore":2,"terms":["øygarden kommune"],"tags":{"amenity":"school","operator:wikidata":"Q63644915"},"addTags":{"amenity":"school","operator":"Øygarden kommune","operator:type":"public","operator:wikidata":"Q63644915"}},"emergency/redningsselskapet-47607c":{"name":"Redningsselskapet","locationSet":{"include":["no"]},"geometry":["point","vertex","area"],"matchScore":2,"terms":["norwegian society for sea rescue","nssr","redningsselskapet","rs"],"tags":{"emergency":"water_rescue","operator:wikidata":"Q1462950"},"addTags":{"emergency":"water_rescue","operator":"Redningsselskapet","operator:en":"Norwegian Society for Sea Rescue","operator:no":"Redningsselskapet","operator:wikidata":"Q1462950"}},"leisure/nature_reserve/drammenkommune-0c6879":{"name":"Drammen kommune","locationSet":{"include":["no"]},"geometry":["area","point"],"matchScore":2,"terms":["drammen kommune"],"tags":{"leisure":"nature_reserve","operator:wikidata":"Q26525"},"addTags":{"leisure":"nature_reserve","operator":"Drammen kommune","operator:wikidata":"Q26525"}},"leisure/park/drammenkommune-5cc6e8":{"name":"Drammen kommune","locationSet":{"include":["no"]},"geometry":["area","point"],"matchScore":2,"terms":["drammen kommune"],"tags":{"leisure":"park","operator:wikidata":"Q26525"},"addTags":{"leisure":"park","operator":"Drammen kommune","operator:wikidata":"Q26525"}},"man_made/charge_point/aimopark-f2d071":{"name":"Aimo Park","locationSet":{"include":["fi","no","se"]},"geometry":["point"],"matchScore":2,"terms":["aimo park"],"fields":["name","operator","{man_made/charge_point}"],"tags":{"man_made":"charge_point","operator:wikidata":"Q126728228"},"addTags":{"man_made":"charge_point","operator":"Aimo Park","operator:wikidata":"Q126728228"}},"man_made/charge_point/coop-0916f2":{"name":"Coop Norge","locationSet":{"include":["no"]},"geometry":["point"],"matchScore":2,"terms":["coop"],"fields":["name","operator","{man_made/charge_point}"],"tags":{"man_made":"charge_point","operator:wikidata":"Q1618373"},"addTags":{"man_made":"charge_point","operator":"Coop","operator:wikidata":"Q1618373"}},"man_made/charge_point/eon-22bfb3":{"name":"E.ON","locationSet":{"include":["by","bg","cz","hu","pl","md","ro","ru","sk","ua","ax","gg","je","cq","dk","ee","fo","fi","is","ie","im","lv","lt","no","sj","se","gb","al","ad","ba","hr","gi","gr","va","it","mt","me","mk","pt","sm","rs","si","es","xk","at","be","fr","de","li","lu","mc","nl","ch"]},"geometry":["point"],"matchScore":2,"terms":["e-on drive","e.on"],"fields":["name","operator","{man_made/charge_point}"],"tags":{"man_made":"charge_point","operator:wikidata":"Q270223"},"addTags":{"man_made":"charge_point","operator":"E.ON","operator:wikidata":"Q270223"}},"man_made/charge_point/evbox-22bfb3":{"name":"EVBox","locationSet":{"include":["by","bg","cz","hu","pl","md","ro","ru","sk","ua","ax","gg","je","cq","dk","ee","fo","fi","is","ie","im","lv","lt","no","sj","se","gb","al","ad","ba","hr","gi","gr","va","it","mt","me","mk","pt","sm","rs","si","es","xk","at","be","fr","de","li","lu","mc","nl","ch"]},"geometry":["point"],"matchScore":2,"terms":["evbox"],"fields":["name","operator","{man_made/charge_point}"],"tags":{"man_made":"charge_point","operator:wikidata":"Q28406392"},"addTags":{"man_made":"charge_point","operator":"EVBox","operator:wikidata":"Q28406392"}},"man_made/charge_point/qpark-22bfb3":{"name":"Q-Park","locationSet":{"include":["by","bg","cz","hu","pl","md","ro","ru","sk","ua","ax","gg","je","cq","dk","ee","fo","fi","is","ie","im","lv","lt","no","sj","se","gb","al","ad","ba","hr","gi","gr","va","it","mt","me","mk","pt","sm","rs","si","es","xk","at","be","fr","de","li","lu","mc","nl","ch"]},"geometry":["point"],"matchScore":2,"terms":["q-park"],"fields":["name","operator","{man_made/charge_point}"],"tags":{"man_made":"charge_point","operator:wikidata":"Q1127798"},"addTags":{"man_made":"charge_point","operator":"Q-Park","operator:wikidata":"Q1127798"}},"man_made/charge_point/ringerikskraftas-0916f2":{"name":"Ringeriks-kraft AS","locationSet":{"include":["no"]},"geometry":["point"],"matchScore":2,"terms":["ringeriks-kraft as"],"fields":["name","operator","{man_made/charge_point}"],"tags":{"man_made":"charge_point","operator:wikidata":"Q11997886"},"addTags":{"man_made":"charge_point","operator":"Ringeriks-kraft AS","operator:wikidata":"Q11997886"}},"man_made/monitoring_station/kystverket-8246c4":{"name":"Kystverket","locationSet":{"include":["no"]},"geometry":["point","vertex","area"],"matchScore":2,"terms":["kystverket"],"fields":["name","operator","{man_made/monitoring_station}"],"tags":{"man_made":"monitoring_station","operator:wikidata":"Q6515314"},"addTags":{"man_made":"monitoring_station","operator":"Kystverket","operator:wikidata":"Q6515314"}},"man_made/monitoring_station/statensvegvesen-8246c4":{"name":"Statens vegvesen","locationSet":{"include":["no"]},"geometry":["point","vertex","area"],"matchScore":2,"terms":["statens vegvesen"],"fields":["name","operator","{man_made/monitoring_station}"],"tags":{"man_made":"monitoring_station","operator:wikidata":"Q1468793"},"addTags":{"man_made":"monitoring_station","operator":"Statens vegvesen","operator:wikidata":"Q1468793"}},"man_made/pipeline/dalkia-55fc32":{"name":"Dalkia","locationSet":{"include":["by","bg","cz","hu","pl","md","ro","ru","sk","ua","ax","gg","je","cq","dk","ee","fo","fi","is","ie","im","lv","lt","no","sj","se","gb","al","ad","ba","hr","gi","gr","va","it","mt","me","mk","pt","sm","rs","si","es","xk","at","be","fr","de","li","lu","mc","nl","ch"]},"geometry":["line"],"matchScore":2,"terms":["dalkia"],"tags":{"man_made":"pipeline","operator:wikidata":"Q3012420"},"addTags":{"man_made":"pipeline","operator":"Dalkia","operator:wikidata":"Q3012420"}},"man_made/pipeline/rwe-55fc32":{"name":"RWE","locationSet":{"include":["by","bg","cz","hu","pl","md","ro","ru","sk","ua","ax","gg","je","cq","dk","ee","fo","fi","is","ie","im","lv","lt","no","sj","se","gb","al","ad","ba","hr","gi","gr","va","it","mt","me","mk","pt","sm","rs","si","es","xk","at","be","fr","de","li","lu","mc","nl","ch"]},"geometry":["line"],"matchScore":2,"terms":["rwe"],"tags":{"man_made":"pipeline","operator:wikidata":"Q138133"},"addTags":{"man_made":"pipeline","operator":"RWE","operator:wikidata":"Q138133"}},"man_made/pipeline/uniper-55fc32":{"name":"Uniper","locationSet":{"include":["by","bg","cz","hu","pl","md","ro","ru","sk","ua","ax","gg","je","cq","dk","ee","fo","fi","is","ie","im","lv","lt","no","sj","se","gb","al","ad","ba","hr","gi","gr","va","it","mt","me","mk","pt","sm","rs","si","es","xk","at","be","fr","de","li","lu","mc","nl","ch"]},"geometry":["line"],"matchScore":2,"terms":["uniper"],"tags":{"man_made":"pipeline","operator:wikidata":"Q19839259"},"addTags":{"man_made":"pipeline","operator":"Uniper","operator:wikidata":"Q19839259"}},"pipeline/substation/dalkia-706135":{"name":"Dalkia","locationSet":{"include":["by","bg","cz","hu","pl","md","ro","ru","sk","ua","ax","gg","je","cq","dk","ee","fo","fi","is","ie","im","lv","lt","no","sj","se","gb","al","ad","ba","hr","gi","gr","va","it","mt","me","mk","pt","sm","rs","si","es","xk","at","be","fr","de","li","lu","mc","nl","ch"]},"geometry":["area","point"],"matchScore":2,"terms":["dalkia"],"tags":{"operator:wikidata":"Q3012420","pipeline":"substation"},"addTags":{"operator":"Dalkia","operator:wikidata":"Q3012420","pipeline":"substation"}},"pipeline/substation/rwe-706135":{"name":"RWE","locationSet":{"include":["by","bg","cz","hu","pl","md","ro","ru","sk","ua","ax","gg","je","cq","dk","ee","fo","fi","is","ie","im","lv","lt","no","sj","se","gb","al","ad","ba","hr","gi","gr","va","it","mt","me","mk","pt","sm","rs","si","es","xk","at","be","fr","de","li","lu","mc","nl","ch"]},"geometry":["area","point"],"matchScore":2,"terms":["rwe"],"tags":{"operator:wikidata":"Q138133","pipeline":"substation"},"addTags":{"operator":"RWE","operator:wikidata":"Q138133","pipeline":"substation"}},"pipeline/substation/uniper-706135":{"name":"Uniper","locationSet":{"include":["by","bg","cz","hu","pl","md","ro","ru","sk","ua","ax","gg","je","cq","dk","ee","fo","fi","is","ie","im","lv","lt","no","sj","se","gb","al","ad","ba","hr","gi","gr","va","it","mt","me","mk","pt","sm","rs","si","es","xk","at","be","fr","de","li","lu","mc","nl","ch"]},"geometry":["area","point"],"matchScore":2,"terms":["uniper"],"tags":{"operator:wikidata":"Q19839259","pipeline":"substation"},"addTags":{"operator":"Uniper","operator:wikidata":"Q19839259","pipeline":"substation"}},"power/catenary_mast/sporveien-5ea77b":{"name":"Sporveien","locationSet":{"include":["no"]},"geometry":["point","vertex"],"matchScore":2,"terms":["sporveien","sporveien as"],"tags":{"operator:wikidata":"Q4579562","power":"catenary_mast"},"addTags":{"operator":"Sporveien","operator:wikidata":"Q4579562","power":"catenary_mast"}},"power/generator/evinyfornybar-dd42ec":{"name":"Eviny Fornybar","locationSet":{"include":["no"]},"geometry":["point","vertex","area"],"matchScore":2,"terms":["bkk","bkk produksjon","eviny","eviny fornybar"],"tags":{"operator:wikidata":"Q76206398","power":"generator"},"addTags":{"operator":"Eviny Fornybar","operator:wikidata":"Q76206398","power":"generator"}},"power/generator/innogy-16c9d0":{"name":"Innogy","locationSet":{"include":["by","bg","cz","hu","pl","md","ro","ru","sk","ua","ax","gg","je","cq","dk","ee","fo","fi","is","ie","im","lv","lt","no","sj","se","gb","al","ad","ba","hr","gi","gr","va","it","mt","me","mk","pt","sm","rs","si","es","xk","at","be","fr","de","li","lu","mc","nl","ch"]},"geometry":["point","vertex","area"],"matchScore":2,"terms":["innogy"],"tags":{"operator:wikidata":"Q2124721","power":"generator"},"addTags":{"operator":"Innogy","operator:wikidata":"Q2124721","power":"generator"}},"power/generator/rwe-16c9d0":{"name":"RWE","locationSet":{"include":["by","bg","cz","hu","pl","md","ro","ru","sk","ua","ax","gg","je","cq","dk","ee","fo","fi","is","ie","im","lv","lt","no","sj","se","gb","al","ad","ba","hr","gi","gr","va","it","mt","me","mk","pt","sm","rs","si","es","xk","at","be","fr","de","li","lu","mc","nl","ch"]},"geometry":["point","vertex","area"],"matchScore":2,"terms":["rwe"],"tags":{"operator:wikidata":"Q138133","power":"generator"},"addTags":{"operator":"RWE","operator:wikidata":"Q138133","power":"generator"}},"power/generator/statkraft-16c9d0":{"name":"Statkraft","locationSet":{"include":["by","bg","cz","hu","pl","md","ro","ru","sk","ua","ax","gg","je","cq","dk","ee","fo","fi","is","ie","im","lv","lt","no","sj","se","gb","al","ad","ba","hr","gi","gr","va","it","mt","me","mk","pt","sm","rs","si","es","xk","at","be","fr","de","li","lu","mc","nl","ch"]},"geometry":["point","vertex","area"],"matchScore":2,"terms":["statkraft"],"tags":{"operator:wikidata":"Q1681145","power":"generator"},"addTags":{"operator":"Statkraft","operator:wikidata":"Q1681145","power":"generator"}},"power/generator/uniper-16c9d0":{"name":"Uniper","locationSet":{"include":["by","bg","cz","hu","pl","md","ro","ru","sk","ua","ax","gg","je","cq","dk","ee","fo","fi","is","ie","im","lv","lt","no","sj","se","gb","al","ad","ba","hr","gi","gr","va","it","mt","me","mk","pt","sm","rs","si","es","xk","at","be","fr","de","li","lu","mc","nl","ch"]},"geometry":["point","vertex","area"],"matchScore":2,"terms":["uniper"],"tags":{"operator:wikidata":"Q19839259","power":"generator"},"addTags":{"operator":"Uniper","operator:wikidata":"Q19839259","power":"generator"}},"power/generator/vattenfall-c18b00":{"name":"Vattenfall","locationSet":{"include":["by","bg","cz","hu","pl","md","ro","ru","sk","ua","ax","gg","je","cq","dk","ee","fo","fi","is","ie","im","lv","lt","no","sj","se","gb","al","ad","ba","hr","gi","gr","va","it","mt","me","mk","pt","sm","rs","si","es","xk","at","be","fr","de","li","lu","mc","nl","ch"],"exclude":["de","gb","nl"]},"geometry":["point","vertex","area"],"matchScore":2,"terms":["vattenfall","vattenfall ab"],"tags":{"operator:wikidata":"Q157675","power":"generator"},"addTags":{"operator":"Vattenfall","operator:wikidata":"Q157675","power":"generator"}},"power/generator/wpo-16c9d0":{"name":"WPO","locationSet":{"include":["by","bg","cz","hu","pl","md","ro","ru","sk","ua","ax","gg","je","cq","dk","ee","fo","fi","is","ie","im","lv","lt","no","sj","se","gb","al","ad","ba","hr","gi","gr","va","it","mt","me","mk","pt","sm","rs","si","es","xk","at","be","fr","de","li","lu","mc","nl","ch"]},"geometry":["point","vertex","area"],"matchScore":2,"terms":["wpo"],"tags":{"operator:wikidata":"Q64755627","power":"generator"},"addTags":{"operator":"WPO","operator:wikidata":"Q64755627","power":"generator"}},"power/line/aenergivannkraft-e0b869":{"name":"Å Energi Vannkraft","locationSet":{"include":["no"]},"geometry":["line"],"matchScore":2,"terms":["å energi vannkraft"],"tags":{"operator:wikidata":"Q75704087","power":"line"},"addTags":{"operator":"Å Energi Vannkraft","operator:wikidata":"Q75704087","power":"line"}},"power/line/agderenergi-e0b869":{"name":"Agder Energi","locationSet":{"include":["no"]},"geometry":["line"],"matchScore":2,"terms":["agder energi","agder energi nett"],"tags":{"operator:wikidata":"Q4355084","power":"line"},"addTags":{"operator":"Agder Energi","operator:wikidata":"Q4355084","power":"line"}},"power/line/alut-e0b869":{"name":"Alut","locationSet":{"include":["no"]},"geometry":["line"],"matchScore":2,"terms":["alut"],"tags":{"operator:wikidata":"Q117864611","power":"line"},"addTags":{"operator":"Alut","operator:wikidata":"Q117864611","power":"line"}},"power/line/arva-e0b869":{"name":"Arva","locationSet":{"include":["no"]},"geometry":["line"],"matchScore":2,"terms":["arva"],"tags":{"operator:wikidata":"Q116294389","power":"line"},"addTags":{"operator":"Arva","operator:wikidata":"Q116294389","power":"line"}},"power/line/bkk-e0b869":{"name":"BKK","locationSet":{"include":["no"]},"geometry":["line"],"matchScore":2,"terms":["bkk","bkk nett"],"tags":{"operator:wikidata":"Q11959918","power":"line"},"addTags":{"operator":"BKK","operator:wikidata":"Q11959918","power":"line"}},"power/line/elvia-e0b869":{"name":"Elvia","locationSet":{"include":["no"]},"geometry":["line"],"matchScore":2,"terms":["edsiva nett","elvia"],"tags":{"operator:wikidata":"Q83983999","power":"line"},"addTags":{"operator":"Elvia","operator:wikidata":"Q83983999","power":"line"}},"power/line/evinyfornybar-e0b869":{"name":"Eviny Fornybar","locationSet":{"include":["no"]},"geometry":["line"],"matchScore":2,"terms":["eviny","eviny fornybar"],"tags":{"operator:wikidata":"Q76206398","power":"line"},"addTags":{"operator":"Eviny Fornybar","operator:wikidata":"Q76206398","power":"line"}},"power/line/fagne-e0b869":{"name":"Fagne","locationSet":{"include":["no"]},"geometry":["line"],"matchScore":2,"terms":["fagne"],"tags":{"operator:wikidata":"Q110952027","power":"line"},"addTags":{"operator":"Fagne","operator:wikidata":"Q110952027","power":"line"}},"power/line/fjellnett-e0b869":{"name":"Fjellnett","locationSet":{"include":["no"]},"geometry":["line"],"matchScore":2,"terms":["fjellnett"],"tags":{"operator:wikidata":"Q117836195","power":"line"},"addTags":{"operator":"Fjellnett","operator:wikidata":"Q117836195","power":"line"}},"power/line/glitrenett-e0b869":{"name":"Glitre Nett","locationSet":{"include":["no"]},"geometry":["line"],"matchScore":2,"terms":["glitre energi","glitre energi nett","glitre nett"],"tags":{"operator:wikidata":"Q117833205","power":"line"},"addTags":{"operator":"Glitre Nett","operator:wikidata":"Q117833205","power":"line"}},"power/line/hafslundecovannkraft-e0b869":{"name":"Hafslund E-CO Vannkraft","locationSet":{"include":["no"]},"geometry":["line"],"matchScore":2,"terms":["hafslund e-co vannkraft"],"tags":{"operator:wikidata":"Q5321386","power":"line"},"addTags":{"operator":"Hafslund E-CO Vannkraft","operator:wikidata":"Q5321386","power":"line"}},"power/line/haugalandkraftnett-e0b869":{"name":"Haugaland Kraft Nett","locationSet":{"include":["no"]},"geometry":["line"],"matchScore":2,"terms":["haugaland kraft nett"],"tags":{"operator:wikidata":"Q11974449","power":"line"},"addTags":{"operator":"Haugaland Kraft Nett","operator:wikidata":"Q11974449","power":"line"}},"power/line/hydroenergi-e0b869":{"name":"Hydro Energi","locationSet":{"include":["no"]},"geometry":["line"],"matchScore":2,"terms":["hydro energi"],"tags":{"operator:wikidata":"Q34176274","power":"line"},"addTags":{"operator":"Hydro Energi","operator:wikidata":"Q34176274","power":"line"}},"power/line/lede-e0b869":{"name":"Lede","locationSet":{"include":["no"]},"geometry":["line"],"matchScore":2,"terms":["lede","skagerak nett"],"tags":{"operator:wikidata":"Q110603581","power":"line"},"addTags":{"operator":"Lede","operator:wikidata":"Q110603581","power":"line"}},"power/line/linja-e0b869":{"name":"Linja","locationSet":{"include":["no"]},"geometry":["line"],"matchScore":2,"terms":["linja","mørenett"],"tags":{"operator:wikidata":"Q25424841","power":"line"},"addTags":{"operator":"Linja","operator:wikidata":"Q25424841","power":"line"}},"power/line/lyse-e0b869":{"name":"Lyse","locationSet":{"include":["no"]},"geometry":["line"],"matchScore":2,"terms":["lyse","lyse elnett"],"tags":{"operator:wikidata":"Q4584147","power":"line"},"addTags":{"operator":"Lyse","operator:wikidata":"Q4584147","power":"line"}},"power/line/midtnett-e0b869":{"name":"Midtnett","locationSet":{"include":["no"]},"geometry":["line"],"matchScore":2,"terms":["midtnett"],"tags":{"operator:wikidata":"Q117840038","power":"line"},"addTags":{"operator":"Midtnett","operator:wikidata":"Q117840038","power":"line"}},"power/line/noranett-e0b869":{"name":"Noranett","locationSet":{"include":["no"]},"geometry":["line"],"matchScore":2,"terms":["hålogaland kraft nett","noranett"],"tags":{"operator:wikidata":"Q117454648","power":"line"},"addTags":{"operator":"Noranett","operator:wikidata":"Q117454648","power":"line"}},"power/line/nordlandsnett-e0b869":{"name":"Nordlandsnett","locationSet":{"include":["no"]},"geometry":["line"],"matchScore":2,"terms":["nordlandsnett"],"tags":{"operator:wikidata":"Q4937054","power":"line"},"addTags":{"operator":"Nordlandsnett","operator:wikidata":"Q4937054","power":"line"}},"power/line/nordmoreenergiverk-e0b869":{"name":"Nordmøre Energiverk","locationSet":{"include":["no"]},"geometry":["line"],"matchScore":2,"terms":["nordmøre energiverk"],"tags":{"operator:wikidata":"Q7050849","power":"line"},"addTags":{"operator":"Nordmøre Energiverk","operator:wikidata":"Q7050849","power":"line"}},"power/line/ntenett-e0b869":{"name":"NTE Nett","locationSet":{"include":["no"]},"geometry":["line"],"matchScore":2,"terms":["nte nett"],"tags":{"operator:wikidata":"Q7050523","power":"line"},"addTags":{"operator":"NTE Nett","operator:wikidata":"Q7050523","power":"line"}},"power/line/rwe-87b138":{"name":"RWE","locationSet":{"include":["by","bg","cz","hu","pl","md","ro","ru","sk","ua","ax","gg","je","cq","dk","ee","fo","fi","is","ie","im","lv","lt","no","sj","se","gb","al","ad","ba","hr","gi","gr","va","it","mt","me","mk","pt","sm","rs","si","es","xk","at","be","fr","de","li","lu","mc","nl","ch"]},"geometry":["line"],"matchScore":2,"terms":["rwe","rwe ag"],"tags":{"operator:wikidata":"Q138133","power":"line"},"addTags":{"operator":"RWE","operator:wikidata":"Q138133","power":"line"}},"power/line/sognogfjordaneenergi-e0b869":{"name":"Sogn og Fjordane Energi","locationSet":{"include":["no"]},"geometry":["line"],"matchScore":2,"terms":["sfe","sogn og fjordane energi"],"tags":{"operator:wikidata":"Q7554529","power":"line"},"addTags":{"operator":"Sogn og Fjordane Energi","operator:short":"SFE","operator:wikidata":"Q7554529","power":"line"}},"power/line/statkraft-87b138":{"name":"Statkraft","locationSet":{"include":["by","bg","cz","hu","pl","md","ro","ru","sk","ua","ax","gg","je","cq","dk","ee","fo","fi","is","ie","im","lv","lt","no","sj","se","gb","al","ad","ba","hr","gi","gr","va","it","mt","me","mk","pt","sm","rs","si","es","xk","at","be","fr","de","li","lu","mc","nl","ch"]},"geometry":["line"],"matchScore":2,"terms":["statkraft"],"tags":{"operator:wikidata":"Q1681145","power":"line"},"addTags":{"operator":"Statkraft","operator:wikidata":"Q1681145","power":"line"}},"power/line/statnett-e0b869":{"name":"Statnett","locationSet":{"include":["no"]},"geometry":["line"],"matchScore":2,"terms":["statnett"],"tags":{"operator:wikidata":"Q602621","power":"line"},"addTags":{"operator":"Statnett","operator:wikidata":"Q602621","power":"line"}},"power/line/sygnir-e0b869":{"name":"Sygnir","locationSet":{"include":["no"]},"geometry":["line"],"matchScore":2,"terms":["sygnir"],"tags":{"operator:wikidata":"Q117831717","power":"line"},"addTags":{"operator":"Sygnir","operator:wikidata":"Q117831717","power":"line"}},"power/line/tensiotn-e0b869":{"name":"Tensio TN","locationSet":{"include":["no"]},"geometry":["line"],"matchScore":2,"terms":["tensio tn"],"tags":{"operator:wikidata":"Q111605441","power":"line"},"addTags":{"operator":"Tensio TN","operator:wikidata":"Q111605441","power":"line"}},"power/line/tensiots-e0b869":{"name":"Tensio TS","locationSet":{"include":["no"]},"geometry":["line"],"matchScore":2,"terms":["tensio ts"],"tags":{"operator:wikidata":"Q19393420","power":"line"},"addTags":{"operator":"Tensio TS","operator:wikidata":"Q19393420","power":"line"}},"power/line/vattenfall-ccd735":{"name":"Vattenfall","locationSet":{"include":["by","bg","cz","hu","pl","md","ro","ru","sk","ua","ax","gg","je","cq","dk","ee","fo","fi","is","ie","im","lv","lt","no","sj","se","gb","al","ad","ba","hr","gi","gr","va","it","mt","me","mk","pt","sm","rs","si","es","xk","at","be","fr","de","li","lu","mc","nl","ch"],"exclude":["de"]},"geometry":["line"],"matchScore":2,"terms":["vattenfall"],"tags":{"operator:wikidata":"Q157675","power":"line"},"addTags":{"operator":"Vattenfall","operator:wikidata":"Q157675","power":"line"}},"power/line/vesttelemarkkraftlag-e0b869":{"name":"Vest-Telemark Kraftlag","locationSet":{"include":["no"]},"geometry":["line"],"matchScore":2,"terms":["vest-telemark kraftlag"],"tags":{"operator:wikidata":"Q115858158","power":"line"},"addTags":{"operator":"Vest-Telemark Kraftlag","operator:wikidata":"Q115858158","power":"line"}},"power/line/vevig-e0b869":{"name":"Vevig","locationSet":{"include":["no"]},"geometry":["line"],"matchScore":2,"terms":["vevig"],"tags":{"operator:wikidata":"Q117841623","power":"line"},"addTags":{"operator":"Vevig","operator:wikidata":"Q117841623","power":"line"}},"power/minor_line/aenergivannkraft-5b4abc":{"name":"Å Energi Vannkraft","locationSet":{"include":["no"]},"geometry":["line"],"matchScore":2,"terms":["å energi vannkraft"],"tags":{"operator:wikidata":"Q75704087","power":"minor_line"},"addTags":{"operator":"Å Energi Vannkraft","operator:wikidata":"Q75704087","power":"minor_line"}},"power/minor_line/agderenergi-5b4abc":{"name":"Agder Energi","locationSet":{"include":["no"]},"geometry":["line"],"matchScore":2,"terms":["agder energi","agder energi nett"],"tags":{"operator:wikidata":"Q4355084","power":"minor_line"},"addTags":{"operator":"Agder Energi","operator:wikidata":"Q4355084","power":"minor_line"}},"power/minor_line/alut-5b4abc":{"name":"Alut","locationSet":{"include":["no"]},"geometry":["line"],"matchScore":2,"terms":["alut"],"tags":{"operator:wikidata":"Q117864611","power":"minor_line"},"addTags":{"operator":"Alut","operator:wikidata":"Q117864611","power":"minor_line"}},"power/minor_line/arva-5b4abc":{"name":"Arva","locationSet":{"include":["no"]},"geometry":["line"],"matchScore":2,"terms":["arva"],"tags":{"operator:wikidata":"Q116294389","power":"minor_line"},"addTags":{"operator":"Arva","operator:wikidata":"Q116294389","power":"minor_line"}},"power/minor_line/bkk-5b4abc":{"name":"BKK","locationSet":{"include":["no"]},"geometry":["line"],"matchScore":2,"terms":["bkk","bkk nett"],"tags":{"operator:wikidata":"Q11959918","power":"minor_line"},"addTags":{"operator":"BKK","operator:wikidata":"Q11959918","power":"minor_line"}},"power/minor_line/elvia-5b4abc":{"name":"Elvia","locationSet":{"include":["no"]},"geometry":["line"],"matchScore":2,"terms":["edsiva nett","elvia"],"tags":{"operator:wikidata":"Q83983999","power":"minor_line"},"addTags":{"operator":"Elvia","operator:wikidata":"Q83983999","power":"minor_line"}},"power/minor_line/evinyfornybar-5b4abc":{"name":"Eviny Fornybar","locationSet":{"include":["no"]},"geometry":["line"],"matchScore":2,"terms":["eviny","eviny fornybar"],"tags":{"operator:wikidata":"Q76206398","power":"minor_line"},"addTags":{"operator":"Eviny Fornybar","operator:wikidata":"Q76206398","power":"minor_line"}},"power/minor_line/fagne-5b4abc":{"name":"Fagne","locationSet":{"include":["no"]},"geometry":["line"],"matchScore":2,"terms":["fagne"],"tags":{"operator:wikidata":"Q110952027","power":"minor_line"},"addTags":{"operator":"Fagne","operator:wikidata":"Q110952027","power":"minor_line"}},"power/minor_line/fjellnett-5b4abc":{"name":"Fjellnett","locationSet":{"include":["no"]},"geometry":["line"],"matchScore":2,"terms":["fjellnett"],"tags":{"operator:wikidata":"Q117836195","power":"minor_line"},"addTags":{"operator":"Fjellnett","operator:wikidata":"Q117836195","power":"minor_line"}},"power/minor_line/glitrenett-5b4abc":{"name":"Glitre Nett","locationSet":{"include":["no"]},"geometry":["line"],"matchScore":2,"terms":["glitre energi","glitre energi nett","glitre nett"],"tags":{"operator:wikidata":"Q117833205","power":"minor_line"},"addTags":{"operator":"Glitre Nett","operator:wikidata":"Q117833205","power":"minor_line"}},"power/minor_line/hafslundecovannkraft-5b4abc":{"name":"Hafslund E-CO Vannkraft","locationSet":{"include":["no"]},"geometry":["line"],"matchScore":2,"terms":["hafslund e-co vannkraft"],"tags":{"operator:wikidata":"Q5321386","power":"minor_line"},"addTags":{"operator":"Hafslund E-CO Vannkraft","operator:wikidata":"Q5321386","power":"minor_line"}},"power/minor_line/haugalandkraftnett-5b4abc":{"name":"Haugaland Kraft Nett","locationSet":{"include":["no"]},"geometry":["line"],"matchScore":2,"terms":["haugaland kraft nett"],"tags":{"operator:wikidata":"Q11974449","power":"minor_line"},"addTags":{"operator":"Haugaland Kraft Nett","operator:wikidata":"Q11974449","power":"minor_line"}},"power/minor_line/hydroenergi-5b4abc":{"name":"Hydro Energi","locationSet":{"include":["no"]},"geometry":["line"],"matchScore":2,"terms":["hydro energi"],"tags":{"operator:wikidata":"Q34176274","power":"minor_line"},"addTags":{"operator":"Hydro Energi","operator:wikidata":"Q34176274","power":"minor_line"}},"power/minor_line/lede-5b4abc":{"name":"Lede","locationSet":{"include":["no"]},"geometry":["line"],"matchScore":2,"terms":["lede","skagerak nett"],"tags":{"operator:wikidata":"Q110603581","power":"minor_line"},"addTags":{"operator":"Lede","operator:wikidata":"Q110603581","power":"minor_line"}},"power/minor_line/linja-5b4abc":{"name":"Linja","locationSet":{"include":["no"]},"geometry":["line"],"matchScore":2,"terms":["linja","mørenett"],"tags":{"operator:wikidata":"Q25424841","power":"minor_line"},"addTags":{"operator":"Linja","operator:wikidata":"Q25424841","power":"minor_line"}},"power/minor_line/lyse-5b4abc":{"name":"Lyse","locationSet":{"include":["no"]},"geometry":["line"],"matchScore":2,"terms":["lyse","lyse elnett"],"tags":{"operator:wikidata":"Q4584147","power":"minor_line"},"addTags":{"operator":"Lyse","operator:wikidata":"Q4584147","power":"minor_line"}},"power/minor_line/midtnett-5b4abc":{"name":"Midtnett","locationSet":{"include":["no"]},"geometry":["line"],"matchScore":2,"terms":["midtnett"],"tags":{"operator:wikidata":"Q117840038","power":"minor_line"},"addTags":{"operator":"Midtnett","operator:wikidata":"Q117840038","power":"minor_line"}},"power/minor_line/noranett-5b4abc":{"name":"Noranett","locationSet":{"include":["no"]},"geometry":["line"],"matchScore":2,"terms":["hålogaland kraft nett","noranett"],"tags":{"operator:wikidata":"Q117454648","power":"minor_line"},"addTags":{"operator":"Noranett","operator:wikidata":"Q117454648","power":"minor_line"}},"power/minor_line/nordlandsnett-5b4abc":{"name":"Nordlandsnett","locationSet":{"include":["no"]},"geometry":["line"],"matchScore":2,"terms":["nordlandsnett"],"tags":{"operator:wikidata":"Q4937054","power":"minor_line"},"addTags":{"operator":"Nordlandsnett","operator:wikidata":"Q4937054","power":"minor_line"}},"power/minor_line/nordmoreenergiverk-5b4abc":{"name":"Nordmøre Energiverk","locationSet":{"include":["no"]},"geometry":["line"],"matchScore":2,"terms":["nordmøre energiverk"],"tags":{"operator:wikidata":"Q7050849","power":"minor_line"},"addTags":{"operator":"Nordmøre Energiverk","operator:wikidata":"Q7050849","power":"minor_line"}},"power/minor_line/ntenett-5b4abc":{"name":"NTE Nett","locationSet":{"include":["no"]},"geometry":["line"],"matchScore":2,"terms":["nte nett"],"tags":{"operator:wikidata":"Q7050523","power":"minor_line"},"addTags":{"operator":"NTE Nett","operator:wikidata":"Q7050523","power":"minor_line"}},"power/minor_line/rwe-7feb9d":{"name":"RWE","locationSet":{"include":["by","bg","cz","hu","pl","md","ro","ru","sk","ua","ax","gg","je","cq","dk","ee","fo","fi","is","ie","im","lv","lt","no","sj","se","gb","al","ad","ba","hr","gi","gr","va","it","mt","me","mk","pt","sm","rs","si","es","xk","at","be","fr","de","li","lu","mc","nl","ch"]},"geometry":["line"],"matchScore":2,"terms":["rwe","rwe ag"],"tags":{"operator:wikidata":"Q138133","power":"minor_line"},"addTags":{"operator":"RWE","operator:wikidata":"Q138133","power":"minor_line"}},"power/minor_line/sognogfjordaneenergi-5b4abc":{"name":"Sogn og Fjordane Energi","locationSet":{"include":["no"]},"geometry":["line"],"matchScore":2,"terms":["sfe","sogn og fjordane energi"],"tags":{"operator:wikidata":"Q7554529","power":"minor_line"},"addTags":{"operator":"Sogn og Fjordane Energi","operator:short":"SFE","operator:wikidata":"Q7554529","power":"minor_line"}},"power/minor_line/statkraft-7feb9d":{"name":"Statkraft","locationSet":{"include":["by","bg","cz","hu","pl","md","ro","ru","sk","ua","ax","gg","je","cq","dk","ee","fo","fi","is","ie","im","lv","lt","no","sj","se","gb","al","ad","ba","hr","gi","gr","va","it","mt","me","mk","pt","sm","rs","si","es","xk","at","be","fr","de","li","lu","mc","nl","ch"]},"geometry":["line"],"matchScore":2,"terms":["statkraft"],"tags":{"operator:wikidata":"Q1681145","power":"minor_line"},"addTags":{"operator":"Statkraft","operator:wikidata":"Q1681145","power":"minor_line"}},"power/minor_line/statnett-5b4abc":{"name":"Statnett","locationSet":{"include":["no"]},"geometry":["line"],"matchScore":2,"terms":["statnett"],"tags":{"operator:wikidata":"Q602621","power":"minor_line"},"addTags":{"operator":"Statnett","operator:wikidata":"Q602621","power":"minor_line"}},"power/minor_line/sygnir-5b4abc":{"name":"Sygnir","locationSet":{"include":["no"]},"geometry":["line"],"matchScore":2,"terms":["sygnir"],"tags":{"operator:wikidata":"Q117831717","power":"minor_line"},"addTags":{"operator":"Sygnir","operator:wikidata":"Q117831717","power":"minor_line"}},"power/minor_line/tensiotn-5b4abc":{"name":"Tensio TN","locationSet":{"include":["no"]},"geometry":["line"],"matchScore":2,"terms":["tensio tn"],"tags":{"operator:wikidata":"Q111605441","power":"minor_line"},"addTags":{"operator":"Tensio TN","operator:wikidata":"Q111605441","power":"minor_line"}},"power/minor_line/tensiots-5b4abc":{"name":"Tensio TS","locationSet":{"include":["no"]},"geometry":["line"],"matchScore":2,"terms":["tensio ts"],"tags":{"operator:wikidata":"Q19393420","power":"minor_line"},"addTags":{"operator":"Tensio TS","operator:wikidata":"Q19393420","power":"minor_line"}},"power/minor_line/vattenfall-5b0667":{"name":"Vattenfall","locationSet":{"include":["by","bg","cz","hu","pl","md","ro","ru","sk","ua","ax","gg","je","cq","dk","ee","fo","fi","is","ie","im","lv","lt","no","sj","se","gb","al","ad","ba","hr","gi","gr","va","it","mt","me","mk","pt","sm","rs","si","es","xk","at","be","fr","de","li","lu","mc","nl","ch"],"exclude":["de"]},"geometry":["line"],"matchScore":2,"terms":["vattenfall"],"tags":{"operator:wikidata":"Q157675","power":"minor_line"},"addTags":{"operator":"Vattenfall","operator:wikidata":"Q157675","power":"minor_line"}},"power/minor_line/vesttelemarkkraftlag-5b4abc":{"name":"Vest-Telemark Kraftlag","locationSet":{"include":["no"]},"geometry":["line"],"matchScore":2,"terms":["vest-telemark kraftlag"],"tags":{"operator:wikidata":"Q115858158","power":"minor_line"},"addTags":{"operator":"Vest-Telemark Kraftlag","operator:wikidata":"Q115858158","power":"minor_line"}},"power/minor_line/vevig-5b4abc":{"name":"Vevig","locationSet":{"include":["no"]},"geometry":["line"],"matchScore":2,"terms":["vevig"],"tags":{"operator:wikidata":"Q117841623","power":"minor_line"},"addTags":{"operator":"Vevig","operator:wikidata":"Q117841623","power":"minor_line"}},"power/plant/aenergivannkraft-44cc7f":{"name":"Å Energi Vannkraft","locationSet":{"include":["no"]},"geometry":["area"],"matchScore":2,"terms":["å energi vannkraft"],"tags":{"operator:wikidata":"Q75704087","power":"plant"},"addTags":{"operator":"Å Energi Vannkraft","operator:wikidata":"Q75704087","power":"plant"}},"power/plant/agderenergi-44cc7f":{"name":"Agder Energi","locationSet":{"include":["no"]},"geometry":["area"],"matchScore":2,"terms":["agder energi"],"tags":{"operator:wikidata":"Q4355084","power":"plant"},"addTags":{"operator":"Agder Energi","operator:wikidata":"Q4355084","power":"plant"}},"power/plant/dalkia-fadf07":{"name":"Dalkia","locationSet":{"include":["by","bg","cz","hu","pl","md","ro","ru","sk","ua","ax","gg","je","cq","dk","ee","fo","fi","is","ie","im","lv","lt","no","sj","se","gb","al","ad","ba","hr","gi","gr","va","it","mt","me","mk","pt","sm","rs","si","es","xk","at","be","fr","de","li","lu","mc","nl","ch"]},"geometry":["area"],"matchScore":2,"terms":["dalkia"],"tags":{"operator:wikidata":"Q3012420","power":"plant"},"addTags":{"operator":"Dalkia","operator:wikidata":"Q3012420","power":"plant"}},"power/plant/evinyfornybar-44cc7f":{"name":"Eviny Fornybar","locationSet":{"include":["no"]},"geometry":["area"],"matchScore":2,"terms":["bkk","bkk produksjon","eviny","eviny fornybar"],"tags":{"operator:wikidata":"Q76206398","power":"plant"},"addTags":{"operator":"Eviny Fornybar","operator:wikidata":"Q76206398","power":"plant"}},"power/plant/glitreenergi-44cc7f":{"name":"Glitre Energi","locationSet":{"include":["no"]},"geometry":["area"],"matchScore":2,"terms":["glitre energi"],"searchable":false,"tags":{"operator:wikidata":"Q5376857","power":"plant"},"addTags":{"operator":"Glitre Energi","operator:wikidata":"Q5376857","power":"plant"}},"power/plant/hafslundecovannkraft-44cc7f":{"name":"Hafslund E-CO Vannkraft","locationSet":{"include":["no"]},"geometry":["area"],"matchScore":2,"terms":["hafslund e-co vannkraft"],"tags":{"operator:wikidata":"Q5321386","power":"plant"},"addTags":{"operator":"Hafslund E-CO Vannkraft","operator:wikidata":"Q5321386","power":"plant"}},"power/plant/helgelandkraftvannkraft-44cc7f":{"name":"Helgeland Kraft Vannkraft","locationSet":{"include":["no"]},"geometry":["area"],"matchScore":2,"terms":["helgeland kraft vannkraft"],"tags":{"operator:wikidata":"Q76168952","power":"plant"},"addTags":{"operator":"Helgeland Kraft Vannkraft","operator:wikidata":"Q76168952","power":"plant"}},"power/plant/hydroenergi-44cc7f":{"name":"Hydro Energi","locationSet":{"include":["no"]},"geometry":["area"],"matchScore":2,"terms":["hydro energi"],"tags":{"operator:wikidata":"Q34176274","power":"plant"},"addTags":{"operator":"Hydro Energi","operator:wikidata":"Q34176274","power":"plant"}},"power/plant/nordkraftenergidrift-44cc7f":{"name":"Nordkraft Energidrift","locationSet":{"include":["no"]},"geometry":["area"],"matchScore":2,"terms":["nordkraft energidrift"],"tags":{"operator:wikidata":"Q106603236","power":"plant"},"addTags":{"operator":"Nordkraft Energidrift","operator:wikidata":"Q106603236","power":"plant"}},"power/plant/nteenergi-44cc7f":{"name":"NTE Energi","locationSet":{"include":["no"]},"geometry":["area"],"matchScore":2,"terms":["nte energi"],"tags":{"operator:wikidata":"Q7050523","power":"plant"},"addTags":{"operator":"NTE Energi","operator:wikidata":"Q7050523","power":"plant"}},"power/plant/rwe-fadf07":{"name":"RWE","locationSet":{"include":["by","bg","cz","hu","pl","md","ro","ru","sk","ua","ax","gg","je","cq","dk","ee","fo","fi","is","ie","im","lv","lt","no","sj","se","gb","al","ad","ba","hr","gi","gr","va","it","mt","me","mk","pt","sm","rs","si","es","xk","at","be","fr","de","li","lu","mc","nl","ch"]},"geometry":["area"],"matchScore":2,"terms":["rwe"],"tags":{"operator:wikidata":"Q138133","power":"plant"},"addTags":{"operator":"RWE","operator:wikidata":"Q138133","power":"plant"}},"power/plant/saltenkraftsambandproduksjon-7f89ba":{"name":"Salten Kraftsamband Produksjon","locationSet":{"include":["no","se"]},"geometry":["area"],"matchScore":2,"terms":["salten kraftsamband produksjon"],"tags":{"operator:wikidata":"Q7406074","power":"plant"},"addTags":{"operator":"Salten Kraftsamband Produksjon","operator:wikidata":"Q7406074","power":"plant"}},"power/plant/skagerakkraft-44cc7f":{"name":"Skagerak Kraft","locationSet":{"include":["no"]},"geometry":["area"],"matchScore":2,"terms":["skagerak kraft"],"tags":{"operator:wikidata":"Q12000809","power":"plant"},"addTags":{"operator":"Skagerak Kraft","operator:wikidata":"Q12000809","power":"plant"}},"power/plant/smakraft-44cc7f":{"name":"Småkraft","locationSet":{"include":["no"]},"geometry":["area"],"matchScore":2,"terms":["småkraft"],"tags":{"operator:wikidata":"Q19389391","power":"plant"},"addTags":{"operator":"Småkraft","operator:wikidata":"Q19389391","power":"plant"}},"power/plant/sognogfjordaneenergi-44cc7f":{"name":"Sogn og Fjordane Energi","locationSet":{"include":["no"]},"geometry":["area"],"matchScore":2,"terms":["sfe","sogn og fjordane energi"],"tags":{"operator:wikidata":"Q7554529","power":"plant"},"addTags":{"operator":"Sogn og Fjordane Energi","operator:short":"SFE","operator:wikidata":"Q7554529","power":"plant"}},"power/plant/statkraft-fadf07":{"name":"Statkraft","locationSet":{"include":["by","bg","cz","hu","pl","md","ro","ru","sk","ua","ax","gg","je","cq","dk","ee","fo","fi","is","ie","im","lv","lt","no","sj","se","gb","al","ad","ba","hr","gi","gr","va","it","mt","me","mk","pt","sm","rs","si","es","xk","at","be","fr","de","li","lu","mc","nl","ch"]},"geometry":["area"],"matchScore":2,"terms":["statkraft"],"tags":{"operator:wikidata":"Q1681145","power":"plant"},"addTags":{"operator":"Statkraft","operator:wikidata":"Q1681145","power":"plant"}},"power/plant/tromskraftproduksjon-44cc7f":{"name":"Troms Kraft Produksjon","locationSet":{"include":["no"]},"geometry":["area"],"matchScore":2,"terms":["troms kraft produksjon"],"tags":{"operator:wikidata":"Q81360352","power":"plant"},"addTags":{"operator":"Troms Kraft Produksjon","operator:wikidata":"Q81360352","power":"plant"}},"power/plant/uniper-fadf07":{"name":"Uniper","locationSet":{"include":["by","bg","cz","hu","pl","md","ro","ru","sk","ua","ax","gg","je","cq","dk","ee","fo","fi","is","ie","im","lv","lt","no","sj","se","gb","al","ad","ba","hr","gi","gr","va","it","mt","me","mk","pt","sm","rs","si","es","xk","at","be","fr","de","li","lu","mc","nl","ch"]},"geometry":["area"],"matchScore":2,"terms":["uniper"],"tags":{"operator:wikidata":"Q19839259","power":"plant"},"addTags":{"operator":"Uniper","operator:wikidata":"Q19839259","power":"plant"}},"power/plant/vattenfall-0e7ff4":{"name":"Vattenfall","locationSet":{"include":["by","bg","cz","hu","pl","md","ro","ru","sk","ua","ax","gg","je","cq","dk","ee","fo","fi","is","ie","im","lv","lt","no","sj","se","gb","al","ad","ba","hr","gi","gr","va","it","mt","me","mk","pt","sm","rs","si","es","xk","at","be","fr","de","li","lu","mc","nl","ch"],"exclude":["de"]},"geometry":["area"],"matchScore":2,"terms":["vattenfall","vattenfall ab"],"tags":{"operator:wikidata":"Q157675","power":"plant"},"addTags":{"operator":"Vattenfall","operator:wikidata":"Q157675","power":"plant"}},"power/pole/aenergivannkraft-05f310":{"name":"Å Energi Vannkraft","locationSet":{"include":["no"]},"geometry":["point","vertex"],"matchScore":2,"terms":["å energi vannkraft"],"tags":{"operator:wikidata":"Q75704087","power":"pole"},"addTags":{"operator":"Å Energi Vannkraft","operator:wikidata":"Q75704087","power":"pole"}},"power/pole/agderenergi-05f310":{"name":"Agder Energi","locationSet":{"include":["no"]},"geometry":["point","vertex"],"matchScore":2,"terms":["agder energi","agder energi nett"],"tags":{"operator:wikidata":"Q4355084","power":"pole"},"addTags":{"operator":"Agder Energi","operator:wikidata":"Q4355084","power":"pole"}},"power/pole/alut-05f310":{"name":"Alut","locationSet":{"include":["no"]},"geometry":["point","vertex"],"matchScore":2,"terms":["alut"],"tags":{"operator:wikidata":"Q117864611","power":"pole"},"addTags":{"operator":"Alut","operator:wikidata":"Q117864611","power":"pole"}},"power/pole/arva-05f310":{"name":"Arva","locationSet":{"include":["no"]},"geometry":["point","vertex"],"matchScore":2,"terms":["arva"],"tags":{"operator:wikidata":"Q116294389","power":"pole"},"addTags":{"operator":"Arva","operator:wikidata":"Q116294389","power":"pole"}},"power/pole/bkk-05f310":{"name":"BKK","locationSet":{"include":["no"]},"geometry":["point","vertex"],"matchScore":2,"terms":["bkk","bkk nett"],"tags":{"operator:wikidata":"Q11959918","power":"pole"},"addTags":{"operator":"BKK","operator:wikidata":"Q11959918","power":"pole"}},"power/pole/elvia-05f310":{"name":"Elvia","locationSet":{"include":["no"]},"geometry":["point","vertex"],"matchScore":2,"terms":["edsiva nett","elvia"],"tags":{"operator:wikidata":"Q83983999","power":"pole"},"addTags":{"operator":"Elvia","operator:wikidata":"Q83983999","power":"pole"}},"power/pole/evinyfornybar-05f310":{"name":"Eviny Fornybar","locationSet":{"include":["no"]},"geometry":["point","vertex"],"matchScore":2,"terms":["eviny","eviny fornybar"],"tags":{"operator:wikidata":"Q76206398","power":"pole"},"addTags":{"operator":"Eviny Fornybar","operator:wikidata":"Q76206398","power":"pole"}},"power/pole/fagne-05f310":{"name":"Fagne","locationSet":{"include":["no"]},"geometry":["point","vertex"],"matchScore":2,"terms":["fagne"],"tags":{"operator:wikidata":"Q110952027","power":"pole"},"addTags":{"operator":"Fagne","operator:wikidata":"Q110952027","power":"pole"}},"power/pole/fjellnett-05f310":{"name":"Fjellnett","locationSet":{"include":["no"]},"geometry":["point","vertex"],"matchScore":2,"terms":["fjellnett"],"tags":{"operator:wikidata":"Q117836195","power":"pole"},"addTags":{"operator":"Fjellnett","operator:wikidata":"Q117836195","power":"pole"}},"power/pole/glitrenett-05f310":{"name":"Glitre Nett","locationSet":{"include":["no"]},"geometry":["point","vertex"],"matchScore":2,"terms":["glitre energi","glitre energi nett","glitre nett"],"tags":{"operator:wikidata":"Q117833205","power":"pole"},"addTags":{"operator":"Glitre Nett","operator:wikidata":"Q117833205","power":"pole"}},"power/pole/hafslundecovannkraft-05f310":{"name":"Hafslund E-CO Vannkraft","locationSet":{"include":["no"]},"geometry":["point","vertex"],"matchScore":2,"terms":["hafslund e-co vannkraft"],"tags":{"operator:wikidata":"Q5321386","power":"pole"},"addTags":{"operator":"Hafslund E-CO Vannkraft","operator:wikidata":"Q5321386","power":"pole"}},"power/pole/haugalandkraftnett-05f310":{"name":"Haugaland Kraft Nett","locationSet":{"include":["no"]},"geometry":["point","vertex"],"matchScore":2,"terms":["haugaland kraft nett"],"tags":{"operator:wikidata":"Q11974449","power":"pole"},"addTags":{"operator":"Haugaland Kraft Nett","operator:wikidata":"Q11974449","power":"pole"}},"power/pole/hydroenergi-05f310":{"name":"Hydro Energi","locationSet":{"include":["no"]},"geometry":["point","vertex"],"matchScore":2,"terms":["hydro energi"],"tags":{"operator:wikidata":"Q34176274","power":"pole"},"addTags":{"operator":"Hydro Energi","operator:wikidata":"Q34176274","power":"pole"}},"power/pole/lede-05f310":{"name":"Lede","locationSet":{"include":["no"]},"geometry":["point","vertex"],"matchScore":2,"terms":["lede","skagerak nett"],"tags":{"operator:wikidata":"Q110603581","power":"pole"},"addTags":{"operator":"Lede","operator:wikidata":"Q110603581","power":"pole"}},"power/pole/linja-05f310":{"name":"Linja","locationSet":{"include":["no"]},"geometry":["point","vertex"],"matchScore":2,"terms":["linja","mørenett"],"tags":{"operator:wikidata":"Q25424841","power":"pole"},"addTags":{"operator":"Linja","operator:wikidata":"Q25424841","power":"pole"}},"power/pole/lyse-05f310":{"name":"Lyse","locationSet":{"include":["no"]},"geometry":["point","vertex"],"matchScore":2,"terms":["lyse","lyse elnett"],"tags":{"operator:wikidata":"Q4584147","power":"pole"},"addTags":{"operator":"Lyse","operator:wikidata":"Q4584147","power":"pole"}},"power/pole/midtnett-05f310":{"name":"Midtnett","locationSet":{"include":["no"]},"geometry":["point","vertex"],"matchScore":2,"terms":["midtnett"],"tags":{"operator:wikidata":"Q117840038","power":"pole"},"addTags":{"operator":"Midtnett","operator:wikidata":"Q117840038","power":"pole"}},"power/pole/noranett-05f310":{"name":"Noranett","locationSet":{"include":["no"]},"geometry":["point","vertex"],"matchScore":2,"terms":["hålogaland kraft nett","noranett"],"tags":{"operator:wikidata":"Q117454648","power":"pole"},"addTags":{"operator":"Noranett","operator:wikidata":"Q117454648","power":"pole"}},"power/pole/nordlandsnett-05f310":{"name":"Nordlandsnett","locationSet":{"include":["no"]},"geometry":["point","vertex"],"matchScore":2,"terms":["nordlandsnett"],"tags":{"operator:wikidata":"Q4937054","power":"pole"},"addTags":{"operator":"Nordlandsnett","operator:wikidata":"Q4937054","power":"pole"}},"power/pole/nordmoreenergiverk-05f310":{"name":"Nordmøre Energiverk","locationSet":{"include":["no"]},"geometry":["point","vertex"],"matchScore":2,"terms":["nordmøre energiverk"],"tags":{"operator:wikidata":"Q7050849","power":"pole"},"addTags":{"operator":"Nordmøre Energiverk","operator:wikidata":"Q7050849","power":"pole"}},"power/pole/ntenett-05f310":{"name":"NTE Nett","locationSet":{"include":["no"]},"geometry":["point","vertex"],"matchScore":2,"terms":["nte nett"],"tags":{"operator:wikidata":"Q7050523","power":"pole"},"addTags":{"operator":"NTE Nett","operator:wikidata":"Q7050523","power":"pole"}},"power/pole/rwe-46b867":{"name":"RWE","locationSet":{"include":["by","bg","cz","hu","pl","md","ro","ru","sk","ua","ax","gg","je","cq","dk","ee","fo","fi","is","ie","im","lv","lt","no","sj","se","gb","al","ad","ba","hr","gi","gr","va","it","mt","me","mk","pt","sm","rs","si","es","xk","at","be","fr","de","li","lu","mc","nl","ch"]},"geometry":["point","vertex"],"matchScore":2,"terms":["rwe","rwe ag"],"tags":{"operator:wikidata":"Q138133","power":"pole"},"addTags":{"operator":"RWE","operator:wikidata":"Q138133","power":"pole"}},"power/pole/sognogfjordaneenergi-05f310":{"name":"Sogn og Fjordane Energi","locationSet":{"include":["no"]},"geometry":["point","vertex"],"matchScore":2,"terms":["sfe","sogn og fjordane energi"],"tags":{"operator:wikidata":"Q7554529","power":"pole"},"addTags":{"operator":"Sogn og Fjordane Energi","operator:short":"SFE","operator:wikidata":"Q7554529","power":"pole"}},"power/pole/statkraft-46b867":{"name":"Statkraft","locationSet":{"include":["by","bg","cz","hu","pl","md","ro","ru","sk","ua","ax","gg","je","cq","dk","ee","fo","fi","is","ie","im","lv","lt","no","sj","se","gb","al","ad","ba","hr","gi","gr","va","it","mt","me","mk","pt","sm","rs","si","es","xk","at","be","fr","de","li","lu","mc","nl","ch"]},"geometry":["point","vertex"],"matchScore":2,"terms":["statkraft"],"tags":{"operator:wikidata":"Q1681145","power":"pole"},"addTags":{"operator":"Statkraft","operator:wikidata":"Q1681145","power":"pole"}},"power/pole/statnett-05f310":{"name":"Statnett","locationSet":{"include":["no"]},"geometry":["point","vertex"],"matchScore":2,"terms":["statnett"],"tags":{"operator:wikidata":"Q602621","power":"pole"},"addTags":{"operator":"Statnett","operator:wikidata":"Q602621","power":"pole"}},"power/pole/sygnir-05f310":{"name":"Sygnir","locationSet":{"include":["no"]},"geometry":["point","vertex"],"matchScore":2,"terms":["sygnir"],"tags":{"operator:wikidata":"Q117831717","power":"pole"},"addTags":{"operator":"Sygnir","operator:wikidata":"Q117831717","power":"pole"}},"power/pole/tensiotn-05f310":{"name":"Tensio TN","locationSet":{"include":["no"]},"geometry":["point","vertex"],"matchScore":2,"terms":["tensio tn"],"tags":{"operator:wikidata":"Q111605441","power":"pole"},"addTags":{"operator":"Tensio TN","operator:wikidata":"Q111605441","power":"pole"}},"power/pole/tensiots-05f310":{"name":"Tensio TS","locationSet":{"include":["no"]},"geometry":["point","vertex"],"matchScore":2,"terms":["tensio ts"],"tags":{"operator:wikidata":"Q19393420","power":"pole"},"addTags":{"operator":"Tensio TS","operator:wikidata":"Q19393420","power":"pole"}},"power/pole/vattenfall-6444bc":{"name":"Vattenfall","locationSet":{"include":["by","bg","cz","hu","pl","md","ro","ru","sk","ua","ax","gg","je","cq","dk","ee","fo","fi","is","ie","im","lv","lt","no","sj","se","gb","al","ad","ba","hr","gi","gr","va","it","mt","me","mk","pt","sm","rs","si","es","xk","at","be","fr","de","li","lu","mc","nl","ch"],"exclude":["de"]},"geometry":["point","vertex"],"matchScore":2,"terms":["vattenfall"],"tags":{"operator:wikidata":"Q157675","power":"pole"},"addTags":{"operator":"Vattenfall","operator:wikidata":"Q157675","power":"pole"}},"power/pole/vesttelemarkkraftlag-05f310":{"name":"Vest-Telemark Kraftlag","locationSet":{"include":["no"]},"geometry":["point","vertex"],"matchScore":2,"terms":["vest-telemark kraftlag"],"tags":{"operator:wikidata":"Q115858158","power":"pole"},"addTags":{"operator":"Vest-Telemark Kraftlag","operator:wikidata":"Q115858158","power":"pole"}},"power/pole/vevig-05f310":{"name":"Vevig","locationSet":{"include":["no"]},"geometry":["point","vertex"],"matchScore":2,"terms":["vevig"],"tags":{"operator:wikidata":"Q117841623","power":"pole"},"addTags":{"operator":"Vevig","operator:wikidata":"Q117841623","power":"pole"}},"power/substation/agderenergi-ba6ae8":{"name":"Agder Energi","locationSet":{"include":["no"]},"geometry":["area","point"],"matchScore":2,"terms":["agder energi","agder energi nett"],"tags":{"operator:wikidata":"Q4355084","power":"substation"},"addTags":{"operator":"Agder Energi","operator:wikidata":"Q4355084","power":"substation"}},"power/substation/alut-ba6ae8":{"name":"Alut","locationSet":{"include":["no"]},"geometry":["area","point"],"matchScore":2,"terms":["alut"],"tags":{"operator:wikidata":"Q117864611","power":"substation"},"addTags":{"operator":"Alut","operator:wikidata":"Q117864611","power":"substation"}},"power/substation/arva-ba6ae8":{"name":"Arva","locationSet":{"include":["no"]},"geometry":["area","point"],"matchScore":2,"terms":["arva","troms kraft nett"],"tags":{"operator:wikidata":"Q116294389","power":"substation"},"addTags":{"operator":"Arva","operator:wikidata":"Q116294389","power":"substation"}},"power/substation/banenor-ba6ae8":{"name":"Bane NOR","locationSet":{"include":["no"]},"geometry":["area","point"],"matchScore":2,"terms":["bane nor"],"tags":{"operator:wikidata":"Q23979144","power":"substation"},"addTags":{"operator":"Bane NOR","operator:wikidata":"Q23979144","power":"substation"}},"power/substation/bkk-ba6ae8":{"name":"BKK","locationSet":{"include":["no"]},"geometry":["area","point"],"matchScore":2,"terms":["bkk","bkk nett"],"tags":{"operator:wikidata":"Q11959918","power":"substation"},"addTags":{"operator":"BKK","operator:wikidata":"Q11959918","power":"substation"}},"power/substation/elvia-ba6ae8":{"name":"Elvia","locationSet":{"include":["no"]},"geometry":["area","point"],"matchScore":2,"terms":["elvia"],"tags":{"operator:wikidata":"Q83983999","power":"substation"},"addTags":{"operator":"Elvia","operator:wikidata":"Q83983999","power":"substation"}},"power/substation/fagne-ba6ae8":{"name":"Fagne","locationSet":{"include":["no"]},"geometry":["area","point"],"matchScore":2,"terms":["fagne"],"tags":{"operator:wikidata":"Q110952027","power":"substation"},"addTags":{"operator":"Fagne","operator:wikidata":"Q110952027","power":"substation"}},"power/substation/fjellnett-ba6ae8":{"name":"Fjellnett","locationSet":{"include":["no"]},"geometry":["area","point"],"matchScore":2,"terms":["fjellnett"],"tags":{"operator:wikidata":"Q117836195","power":"substation"},"addTags":{"operator":"Fjellnett","operator:wikidata":"Q117836195","power":"substation"}},"power/substation/glitreenergi-ba6ae8":{"name":"Glitre Energi","locationSet":{"include":["no"]},"geometry":["area","point"],"matchScore":2,"terms":["glitre energi"],"searchable":false,"tags":{"operator:wikidata":"Q5376857","power":"substation"},"addTags":{"operator":"Glitre Energi","operator:wikidata":"Q5376857","power":"substation"}},"power/substation/glitrenett-ba6ae8":{"name":"Glitre Nett","locationSet":{"include":["no"]},"geometry":["area","point"],"matchScore":2,"terms":["glitre nett"],"tags":{"operator:wikidata":"Q117833205","power":"substation"},"addTags":{"operator":"Glitre Nett","operator:wikidata":"Q117833205","power":"substation"}},"power/substation/haugalandkraftnett-ba6ae8":{"name":"Haugaland Kraft Nett","locationSet":{"include":["no"]},"geometry":["area","point"],"matchScore":2,"terms":["haugaland kraft nett"],"tags":{"operator:wikidata":"Q11974449","power":"substation"},"addTags":{"operator":"Haugaland Kraft Nett","operator:wikidata":"Q11974449","power":"substation"}},"power/substation/innogy-57e02d":{"name":"Innogy","locationSet":{"include":["by","bg","cz","hu","pl","md","ro","ru","sk","ua","ax","gg","je","cq","dk","ee","fo","fi","is","ie","im","lv","lt","no","sj","se","gb","al","ad","ba","hr","gi","gr","va","it","mt","me","mk","pt","sm","rs","si","es","xk","at","be","fr","de","li","lu","mc","nl","ch"]},"geometry":["area","point"],"matchScore":2,"terms":["innogy"],"tags":{"operator:wikidata":"Q2124721","power":"substation"},"addTags":{"operator":"Innogy","operator:wikidata":"Q2124721","power":"substation"}},"power/substation/lede-ba6ae8":{"name":"Lede","locationSet":{"include":["no"]},"geometry":["area","point"],"matchScore":2,"terms":["lede","skagerak nett"],"tags":{"operator:wikidata":"Q110603581","power":"substation"},"addTags":{"operator":"Lede","operator:wikidata":"Q110603581","power":"substation"}},"power/substation/linja-ba6ae8":{"name":"Linja","locationSet":{"include":["no"]},"geometry":["area","point"],"matchScore":2,"terms":["linja","mørenett"],"tags":{"operator:wikidata":"Q25424841","power":"substation"},"addTags":{"operator":"Linja","operator:wikidata":"Q25424841","power":"substation"}},"power/substation/lyse-ba6ae8":{"name":"Lyse","locationSet":{"include":["no"]},"geometry":["area","point"],"matchScore":2,"terms":["lyse","lyse elnett"],"tags":{"operator:wikidata":"Q4584147","power":"substation"},"addTags":{"operator":"Lyse","operator:wikidata":"Q4584147","power":"substation"}},"power/substation/midtnett-ba6ae8":{"name":"Midtnett","locationSet":{"include":["no"]},"geometry":["area","point"],"matchScore":2,"terms":["midtnett"],"tags":{"operator:wikidata":"Q117840038","power":"substation"},"addTags":{"operator":"Midtnett","operator:wikidata":"Q117840038","power":"substation"}},"power/substation/neasas-ba6ae8":{"name":"NEAS AS","locationSet":{"include":["no"]},"geometry":["area","point"],"matchScore":2,"terms":["neas as","nordmøre energiverk"],"tags":{"operator:wikidata":"Q7050849","power":"substation"},"addTags":{"operator":"NEAS AS","operator:wikidata":"Q7050849","power":"substation"}},"power/substation/noranett-ba6ae8":{"name":"Noranett","locationSet":{"include":["no"]},"geometry":["area","point"],"matchScore":2,"terms":["hålogaland kraft nett","noranett"],"tags":{"operator:wikidata":"Q117454648","power":"substation"},"addTags":{"operator":"Noranett","operator:wikidata":"Q117454648","power":"substation"}},"power/substation/nordkraftnett-ba6ae8":{"name":"Nordkraft Nett","locationSet":{"include":["no"]},"geometry":["area","point"],"matchScore":2,"terms":["nordkraft nett"],"tags":{"operator:wikidata":"Q6966507","power":"substation"},"addTags":{"operator":"Nordkraft Nett","operator:wikidata":"Q6966507","power":"substation"}},"power/substation/nordkynkraftlag-ba6ae8":{"name":"Nordkyn Kraftlag","locationSet":{"include":["no"]},"geometry":["area","point"],"matchScore":2,"terms":["nordkyn kraftlag"],"searchable":false,"tags":{"operator:wikidata":"Q90859310","power":"substation"},"addTags":{"operator":"Nordkyn Kraftlag","operator:wikidata":"Q90859310","power":"substation"}},"power/substation/nordlandsnett-ba6ae8":{"name":"Nordlandsnett","locationSet":{"include":["no"]},"geometry":["area","point"],"matchScore":2,"terms":["nordlandsnett"],"tags":{"operator:wikidata":"Q4937054","power":"substation"},"addTags":{"operator":"Nordlandsnett","operator:wikidata":"Q4937054","power":"substation"}},"power/substation/ntenett-ba6ae8":{"name":"NTE Nett","locationSet":{"include":["no"]},"geometry":["area","point"],"matchScore":2,"terms":["nte nett"],"tags":{"operator:wikidata":"Q7050523","power":"substation"},"addTags":{"operator":"NTE Nett","operator:wikidata":"Q7050523","power":"substation"}},"power/substation/repvagkraftlag-ba6ae8":{"name":"Repvåg Kraftlag","locationSet":{"include":["no"]},"geometry":["area","point"],"matchScore":2,"terms":["repvåg kraftlag"],"searchable":false,"tags":{"operator:wikidata":"Q81318652","power":"substation"},"addTags":{"operator":"Repvåg Kraftlag","operator:wikidata":"Q81318652","power":"substation"}},"power/substation/rwe-57e02d":{"name":"RWE","locationSet":{"include":["by","bg","cz","hu","pl","md","ro","ru","sk","ua","ax","gg","je","cq","dk","ee","fo","fi","is","ie","im","lv","lt","no","sj","se","gb","al","ad","ba","hr","gi","gr","va","it","mt","me","mk","pt","sm","rs","si","es","xk","at","be","fr","de","li","lu","mc","nl","ch"]},"geometry":["area","point"],"matchScore":2,"terms":["rwe","rwe ag"],"tags":{"operator:wikidata":"Q138133","power":"substation"},"addTags":{"operator":"RWE","operator:wikidata":"Q138133","power":"substation"}},"power/substation/sognogfjordaneenergi-ba6ae8":{"name":"Sogn og Fjordane Energi","locationSet":{"include":["no"]},"geometry":["area","point"],"matchScore":2,"terms":["sfe","sogn og fjordane energi"],"tags":{"operator:wikidata":"Q7554529","power":"substation"},"addTags":{"operator":"Sogn og Fjordane Energi","operator:short":"SFE","operator:wikidata":"Q7554529","power":"substation"}},"power/substation/statkraft-57e02d":{"name":"Statkraft","locationSet":{"include":["by","bg","cz","hu","pl","md","ro","ru","sk","ua","ax","gg","je","cq","dk","ee","fo","fi","is","ie","im","lv","lt","no","sj","se","gb","al","ad","ba","hr","gi","gr","va","it","mt","me","mk","pt","sm","rs","si","es","xk","at","be","fr","de","li","lu","mc","nl","ch"]},"geometry":["area","point"],"matchScore":2,"terms":["statkraft"],"tags":{"operator:wikidata":"Q1681145","power":"substation"},"addTags":{"operator":"Statkraft","operator:wikidata":"Q1681145","power":"substation"}},"power/substation/statnett-ba6ae8":{"name":"Statnett","locationSet":{"include":["no"]},"geometry":["area","point"],"matchScore":2,"terms":["statnett"],"tags":{"operator:wikidata":"Q602621","power":"substation"},"addTags":{"operator":"Statnett","operator:wikidata":"Q602621","power":"substation"}},"power/substation/sygnir-ba6ae8":{"name":"Sygnir","locationSet":{"include":["no"]},"geometry":["area","point"],"matchScore":2,"terms":["sygnir"],"tags":{"operator:wikidata":"Q117831717","power":"substation"},"addTags":{"operator":"Sygnir","operator:wikidata":"Q117831717","power":"substation"}},"power/substation/tensiotn-ba6ae8":{"name":"Tensio TN","locationSet":{"include":["no"]},"geometry":["area","point"],"matchScore":2,"terms":["tensio tn"],"tags":{"operator:wikidata":"Q111605441","power":"substation"},"addTags":{"operator":"Tensio TN","operator:wikidata":"Q111605441","power":"substation"}},"power/substation/tensiots-ba6ae8":{"name":"Tensio TS","locationSet":{"include":["no"]},"geometry":["area","point"],"matchScore":2,"terms":["tensio ts"],"tags":{"operator:wikidata":"Q19393420","power":"substation"},"addTags":{"operator":"Tensio TS","operator:wikidata":"Q19393420","power":"substation"}},"power/substation/varangerkraft-ba6ae8":{"name":"Varanger Kraft","locationSet":{"include":["no"]},"geometry":["area","point"],"matchScore":2,"terms":["varanger kraft"],"tags":{"operator:wikidata":"Q7915448","power":"substation"},"addTags":{"operator":"Varanger Kraft","operator:wikidata":"Q7915448","power":"substation"}},"power/substation/vattenfall-7bf6b3":{"name":"Vattenfall","locationSet":{"include":["by","bg","cz","hu","pl","md","ro","ru","sk","ua","ax","gg","je","cq","dk","ee","fo","fi","is","ie","im","lv","lt","no","sj","se","gb","al","ad","ba","hr","gi","gr","va","it","mt","me","mk","pt","sm","rs","si","es","xk","at","be","fr","de","li","lu","mc","nl","ch"],"exclude":["de"]},"geometry":["area","point"],"matchScore":2,"terms":["vattenfall"],"tags":{"operator:wikidata":"Q157675","power":"substation"},"addTags":{"operator":"Vattenfall","operator:wikidata":"Q157675","power":"substation"}},"power/substation/vevig-ba6ae8":{"name":"Vevig","locationSet":{"include":["no"]},"geometry":["area","point"],"matchScore":2,"terms":["vevig"],"tags":{"operator:wikidata":"Q117841623","power":"substation"},"addTags":{"operator":"Vevig","operator:wikidata":"Q117841623","power":"substation"}},"power/substation/vossenergi-ba6ae8":{"name":"Voss Energi","locationSet":{"include":["no"]},"geometry":["area","point"],"matchScore":2,"terms":["voss energi"],"tags":{"operator:wikidata":"Q78155094","power":"substation"},"addTags":{"operator":"Voss Energi","operator:wikidata":"Q78155094","power":"substation"}},"power/tower/aenergivannkraft-c20ae5":{"name":"Å Energi Vannkraft","locationSet":{"include":["no"]},"geometry":["point","vertex"],"matchScore":2,"terms":["å energi vannkraft"],"tags":{"operator:wikidata":"Q75704087","power":"tower"},"addTags":{"operator":"Å Energi Vannkraft","operator:wikidata":"Q75704087","power":"tower"}},"power/tower/agderenergi-c20ae5":{"name":"Agder Energi","locationSet":{"include":["no"]},"geometry":["point","vertex"],"matchScore":2,"terms":["agder energi","agder energi nett"],"tags":{"operator:wikidata":"Q4355084","power":"tower"},"addTags":{"operator":"Agder Energi","operator:wikidata":"Q4355084","power":"tower"}},"power/tower/alut-c20ae5":{"name":"Alut","locationSet":{"include":["no"]},"geometry":["point","vertex"],"matchScore":2,"terms":["alut"],"tags":{"operator:wikidata":"Q117864611","power":"tower"},"addTags":{"operator":"Alut","operator:wikidata":"Q117864611","power":"tower"}},"power/tower/arva-c20ae5":{"name":"Arva","locationSet":{"include":["no"]},"geometry":["point","vertex"],"matchScore":2,"terms":["arva"],"tags":{"operator:wikidata":"Q116294389","power":"tower"},"addTags":{"operator":"Arva","operator:wikidata":"Q116294389","power":"tower"}},"power/tower/bkk-c20ae5":{"name":"BKK","locationSet":{"include":["no"]},"geometry":["point","vertex"],"matchScore":2,"terms":["bkk","bkk nett"],"tags":{"operator:wikidata":"Q11959918","power":"tower"},"addTags":{"operator":"BKK","operator:wikidata":"Q11959918","power":"tower"}},"power/tower/elvia-c20ae5":{"name":"Elvia","locationSet":{"include":["no"]},"geometry":["point","vertex"],"matchScore":2,"terms":["edsiva nett","elvia"],"tags":{"operator:wikidata":"Q83983999","power":"tower"},"addTags":{"operator":"Elvia","operator:wikidata":"Q83983999","power":"tower"}},"power/tower/evinyfornybar-c20ae5":{"name":"Eviny Fornybar","locationSet":{"include":["no"]},"geometry":["point","vertex"],"matchScore":2,"terms":["eviny","eviny fornybar"],"tags":{"operator:wikidata":"Q76206398","power":"tower"},"addTags":{"operator":"Eviny Fornybar","operator:wikidata":"Q76206398","power":"tower"}},"power/tower/fagne-c20ae5":{"name":"Fagne","locationSet":{"include":["no"]},"geometry":["point","vertex"],"matchScore":2,"terms":["fagne"],"tags":{"operator:wikidata":"Q110952027","power":"tower"},"addTags":{"operator":"Fagne","operator:wikidata":"Q110952027","power":"tower"}},"power/tower/fjellnett-c20ae5":{"name":"Fjellnett","locationSet":{"include":["no"]},"geometry":["point","vertex"],"matchScore":2,"terms":["fjellnett"],"tags":{"operator:wikidata":"Q117836195","power":"tower"},"addTags":{"operator":"Fjellnett","operator:wikidata":"Q117836195","power":"tower"}},"power/tower/glitrenett-c20ae5":{"name":"Glitre Nett","locationSet":{"include":["no"]},"geometry":["point","vertex"],"matchScore":2,"terms":["glitre energi","glitre energi nett","glitre nett"],"tags":{"operator:wikidata":"Q117833205","power":"tower"},"addTags":{"operator":"Glitre Nett","operator:wikidata":"Q117833205","power":"tower"}},"power/tower/hafslundecovannkraft-c20ae5":{"name":"Hafslund E-CO Vannkraft","locationSet":{"include":["no"]},"geometry":["point","vertex"],"matchScore":2,"terms":["hafslund e-co vannkraft"],"tags":{"operator:wikidata":"Q5321386","power":"tower"},"addTags":{"operator":"Hafslund E-CO Vannkraft","operator:wikidata":"Q5321386","power":"tower"}},"power/tower/haugalandkraftnett-c20ae5":{"name":"Haugaland Kraft Nett","locationSet":{"include":["no"]},"geometry":["point","vertex"],"matchScore":2,"terms":["haugaland kraft nett"],"tags":{"operator:wikidata":"Q11974449","power":"tower"},"addTags":{"operator":"Haugaland Kraft Nett","operator:wikidata":"Q11974449","power":"tower"}},"power/tower/hydroenergi-c20ae5":{"name":"Hydro Energi","locationSet":{"include":["no"]},"geometry":["point","vertex"],"matchScore":2,"terms":["hydro energi"],"tags":{"operator:wikidata":"Q34176274","power":"tower"},"addTags":{"operator":"Hydro Energi","operator:wikidata":"Q34176274","power":"tower"}},"power/tower/lede-c20ae5":{"name":"Lede","locationSet":{"include":["no"]},"geometry":["point","vertex"],"matchScore":2,"terms":["lede","skagerak nett"],"tags":{"operator:wikidata":"Q110603581","power":"tower"},"addTags":{"operator":"Lede","operator:wikidata":"Q110603581","power":"tower"}},"power/tower/linja-c20ae5":{"name":"Linja","locationSet":{"include":["no"]},"geometry":["point","vertex"],"matchScore":2,"terms":["linja","mørenett"],"tags":{"operator:wikidata":"Q25424841","power":"tower"},"addTags":{"operator":"Linja","operator:wikidata":"Q25424841","power":"tower"}},"power/tower/lyse-c20ae5":{"name":"Lyse","locationSet":{"include":["no"]},"geometry":["point","vertex"],"matchScore":2,"terms":["lyse","lyse elnett"],"tags":{"operator:wikidata":"Q4584147","power":"tower"},"addTags":{"operator":"Lyse","operator:wikidata":"Q4584147","power":"tower"}},"power/tower/midtnett-c20ae5":{"name":"Midtnett","locationSet":{"include":["no"]},"geometry":["point","vertex"],"matchScore":2,"terms":["midtnett"],"tags":{"operator:wikidata":"Q117840038","power":"tower"},"addTags":{"operator":"Midtnett","operator:wikidata":"Q117840038","power":"tower"}},"power/tower/noranett-c20ae5":{"name":"Noranett","locationSet":{"include":["no"]},"geometry":["point","vertex"],"matchScore":2,"terms":["hålogaland kraft nett","noranett"],"tags":{"operator:wikidata":"Q117454648","power":"tower"},"addTags":{"operator":"Noranett","operator:wikidata":"Q117454648","power":"tower"}},"power/tower/nordlandsnett-c20ae5":{"name":"Nordlandsnett","locationSet":{"include":["no"]},"geometry":["point","vertex"],"matchScore":2,"terms":["nordlandsnett"],"tags":{"operator:wikidata":"Q4937054","power":"tower"},"addTags":{"operator":"Nordlandsnett","operator:wikidata":"Q4937054","power":"tower"}},"power/tower/nordmoreenergiverk-c20ae5":{"name":"Nordmøre Energiverk","locationSet":{"include":["no"]},"geometry":["point","vertex"],"matchScore":2,"terms":["nordmøre energiverk"],"tags":{"operator:wikidata":"Q7050849","power":"tower"},"addTags":{"operator":"Nordmøre Energiverk","operator:wikidata":"Q7050849","power":"tower"}},"power/tower/ntenett-c20ae5":{"name":"NTE Nett","locationSet":{"include":["no"]},"geometry":["point","vertex"],"matchScore":2,"terms":["nte nett"],"tags":{"operator:wikidata":"Q7050523","power":"tower"},"addTags":{"operator":"NTE Nett","operator:wikidata":"Q7050523","power":"tower"}},"power/tower/rwe-df4479":{"name":"RWE","locationSet":{"include":["by","bg","cz","hu","pl","md","ro","ru","sk","ua","ax","gg","je","cq","dk","ee","fo","fi","is","ie","im","lv","lt","no","sj","se","gb","al","ad","ba","hr","gi","gr","va","it","mt","me","mk","pt","sm","rs","si","es","xk","at","be","fr","de","li","lu","mc","nl","ch"]},"geometry":["point","vertex"],"matchScore":2,"terms":["rwe","rwe ag"],"tags":{"operator:wikidata":"Q138133","power":"tower"},"addTags":{"operator":"RWE","operator:wikidata":"Q138133","power":"tower"}},"power/tower/sognogfjordaneenergi-c20ae5":{"name":"Sogn og Fjordane Energi","locationSet":{"include":["no"]},"geometry":["point","vertex"],"matchScore":2,"terms":["sfe","sogn og fjordane energi"],"tags":{"operator:wikidata":"Q7554529","power":"tower"},"addTags":{"operator":"Sogn og Fjordane Energi","operator:short":"SFE","operator:wikidata":"Q7554529","power":"tower"}},"power/tower/statkraft-df4479":{"name":"Statkraft","locationSet":{"include":["by","bg","cz","hu","pl","md","ro","ru","sk","ua","ax","gg","je","cq","dk","ee","fo","fi","is","ie","im","lv","lt","no","sj","se","gb","al","ad","ba","hr","gi","gr","va","it","mt","me","mk","pt","sm","rs","si","es","xk","at","be","fr","de","li","lu","mc","nl","ch"]},"geometry":["point","vertex"],"matchScore":2,"terms":["statkraft"],"tags":{"operator:wikidata":"Q1681145","power":"tower"},"addTags":{"operator":"Statkraft","operator:wikidata":"Q1681145","power":"tower"}},"power/tower/statnett-c20ae5":{"name":"Statnett","locationSet":{"include":["no"]},"geometry":["point","vertex"],"matchScore":2,"terms":["statnett"],"tags":{"operator:wikidata":"Q602621","power":"tower"},"addTags":{"operator":"Statnett","operator:wikidata":"Q602621","power":"tower"}},"power/tower/sygnir-c20ae5":{"name":"Sygnir","locationSet":{"include":["no"]},"geometry":["point","vertex"],"matchScore":2,"terms":["sygnir"],"tags":{"operator:wikidata":"Q117831717","power":"tower"},"addTags":{"operator":"Sygnir","operator:wikidata":"Q117831717","power":"tower"}},"power/tower/tensiotn-c20ae5":{"name":"Tensio TN","locationSet":{"include":["no"]},"geometry":["point","vertex"],"matchScore":2,"terms":["tensio tn"],"tags":{"operator:wikidata":"Q111605441","power":"tower"},"addTags":{"operator":"Tensio TN","operator:wikidata":"Q111605441","power":"tower"}},"power/tower/tensiots-c20ae5":{"name":"Tensio TS","locationSet":{"include":["no"]},"geometry":["point","vertex"],"matchScore":2,"terms":["tensio ts"],"tags":{"operator:wikidata":"Q19393420","power":"tower"},"addTags":{"operator":"Tensio TS","operator:wikidata":"Q19393420","power":"tower"}},"power/tower/vattenfall-892a1b":{"name":"Vattenfall","locationSet":{"include":["by","bg","cz","hu","pl","md","ro","ru","sk","ua","ax","gg","je","cq","dk","ee","fo","fi","is","ie","im","lv","lt","no","sj","se","gb","al","ad","ba","hr","gi","gr","va","it","mt","me","mk","pt","sm","rs","si","es","xk","at","be","fr","de","li","lu","mc","nl","ch"],"exclude":["de"]},"geometry":["point","vertex"],"matchScore":2,"terms":["vattenfall"],"tags":{"operator:wikidata":"Q157675","power":"tower"},"addTags":{"operator":"Vattenfall","operator:wikidata":"Q157675","power":"tower"}},"power/tower/vesttelemarkkraftlag-c20ae5":{"name":"Vest-Telemark Kraftlag","locationSet":{"include":["no"]},"geometry":["point","vertex"],"matchScore":2,"terms":["vest-telemark kraftlag"],"tags":{"operator:wikidata":"Q115858158","power":"tower"},"addTags":{"operator":"Vest-Telemark Kraftlag","operator:wikidata":"Q115858158","power":"tower"}},"power/tower/vevig-c20ae5":{"name":"Vevig","locationSet":{"include":["no"]},"geometry":["point","vertex"],"matchScore":2,"terms":["vevig"],"tags":{"operator:wikidata":"Q117841623","power":"tower"},"addTags":{"operator":"Vevig","operator:wikidata":"Q117841623","power":"tower"}},"power/transformer/agderenergi-7fe9fe":{"name":"Agder Energi","locationSet":{"include":["no"]},"geometry":["point","vertex"],"matchScore":2,"terms":["agder energi","agder energi nett"],"tags":{"operator:wikidata":"Q4355084","power":"transformer"},"addTags":{"operator":"Agder Energi","operator:wikidata":"Q4355084","power":"transformer"}},"power/transformer/alut-7fe9fe":{"name":"Alut","locationSet":{"include":["no"]},"geometry":["point","vertex"],"matchScore":2,"terms":["alut"],"tags":{"operator:wikidata":"Q117864611","power":"transformer"},"addTags":{"operator":"Alut","operator:wikidata":"Q117864611","power":"transformer"}},"power/transformer/arva-7fe9fe":{"name":"Arva","locationSet":{"include":["no"]},"geometry":["point","vertex"],"matchScore":2,"terms":["arva","troms kraft nett"],"tags":{"operator:wikidata":"Q116294389","power":"transformer"},"addTags":{"operator":"Arva","operator:wikidata":"Q116294389","power":"transformer"}},"power/transformer/banenor-7fe9fe":{"name":"Bane NOR","locationSet":{"include":["no"]},"geometry":["point","vertex"],"matchScore":2,"terms":["bane nor"],"tags":{"operator:wikidata":"Q23979144","power":"transformer"},"addTags":{"operator":"Bane NOR","operator:wikidata":"Q23979144","power":"transformer"}},"power/transformer/bkk-7fe9fe":{"name":"BKK","locationSet":{"include":["no"]},"geometry":["point","vertex"],"matchScore":2,"terms":["bkk","bkk nett"],"tags":{"operator:wikidata":"Q11959918","power":"transformer"},"addTags":{"operator":"BKK","operator:wikidata":"Q11959918","power":"transformer"}},"power/transformer/elvia-7fe9fe":{"name":"Elvia","locationSet":{"include":["no"]},"geometry":["point","vertex"],"matchScore":2,"terms":["elvia"],"tags":{"operator:wikidata":"Q83983999","power":"transformer"},"addTags":{"operator":"Elvia","operator:wikidata":"Q83983999","power":"transformer"}},"power/transformer/fagne-7fe9fe":{"name":"Fagne","locationSet":{"include":["no"]},"geometry":["point","vertex"],"matchScore":2,"terms":["fagne"],"tags":{"operator:wikidata":"Q110952027","power":"transformer"},"addTags":{"operator":"Fagne","operator:wikidata":"Q110952027","power":"transformer"}},"power/transformer/fjellnett-7fe9fe":{"name":"Fjellnett","locationSet":{"include":["no"]},"geometry":["point","vertex"],"matchScore":2,"terms":["fjellnett"],"tags":{"operator:wikidata":"Q117836195","power":"transformer"},"addTags":{"operator":"Fjellnett","operator:wikidata":"Q117836195","power":"transformer"}},"power/transformer/glitreenergi-7fe9fe":{"name":"Glitre Energi","locationSet":{"include":["no"]},"geometry":["point","vertex"],"matchScore":2,"terms":["glitre energi"],"searchable":false,"tags":{"operator:wikidata":"Q5376857","power":"transformer"},"addTags":{"operator":"Glitre Energi","operator:wikidata":"Q5376857","power":"transformer"}},"power/transformer/glitrenett-7fe9fe":{"name":"Glitre Nett","locationSet":{"include":["no"]},"geometry":["point","vertex"],"matchScore":2,"terms":["glitre nett"],"tags":{"operator:wikidata":"Q117833205","power":"transformer"},"addTags":{"operator":"Glitre Nett","operator:wikidata":"Q117833205","power":"transformer"}},"power/transformer/haugalandkraftnett-7fe9fe":{"name":"Haugaland Kraft Nett","locationSet":{"include":["no"]},"geometry":["point","vertex"],"matchScore":2,"terms":["haugaland kraft nett"],"tags":{"operator:wikidata":"Q11974449","power":"transformer"},"addTags":{"operator":"Haugaland Kraft Nett","operator:wikidata":"Q11974449","power":"transformer"}},"power/transformer/innogy-8c57c6":{"name":"Innogy","locationSet":{"include":["by","bg","cz","hu","pl","md","ro","ru","sk","ua","ax","gg","je","cq","dk","ee","fo","fi","is","ie","im","lv","lt","no","sj","se","gb","al","ad","ba","hr","gi","gr","va","it","mt","me","mk","pt","sm","rs","si","es","xk","at","be","fr","de","li","lu","mc","nl","ch"]},"geometry":["point","vertex"],"matchScore":2,"terms":["innogy"],"tags":{"operator:wikidata":"Q2124721","power":"transformer"},"addTags":{"operator":"Innogy","operator:wikidata":"Q2124721","power":"transformer"}},"power/transformer/lede-7fe9fe":{"name":"Lede","locationSet":{"include":["no"]},"geometry":["point","vertex"],"matchScore":2,"terms":["lede","skagerak nett"],"tags":{"operator:wikidata":"Q110603581","power":"transformer"},"addTags":{"operator":"Lede","operator:wikidata":"Q110603581","power":"transformer"}},"power/transformer/linja-7fe9fe":{"name":"Linja","locationSet":{"include":["no"]},"geometry":["point","vertex"],"matchScore":2,"terms":["linja","mørenett"],"tags":{"operator:wikidata":"Q25424841","power":"transformer"},"addTags":{"operator":"Linja","operator:wikidata":"Q25424841","power":"transformer"}},"power/transformer/lyse-7fe9fe":{"name":"Lyse","locationSet":{"include":["no"]},"geometry":["point","vertex"],"matchScore":2,"terms":["lyse","lyse elnett"],"tags":{"operator:wikidata":"Q4584147","power":"transformer"},"addTags":{"operator":"Lyse","operator:wikidata":"Q4584147","power":"transformer"}},"power/transformer/midtnett-7fe9fe":{"name":"Midtnett","locationSet":{"include":["no"]},"geometry":["point","vertex"],"matchScore":2,"terms":["midtnett"],"tags":{"operator:wikidata":"Q117840038","power":"transformer"},"addTags":{"operator":"Midtnett","operator:wikidata":"Q117840038","power":"transformer"}},"power/transformer/neasas-7fe9fe":{"name":"NEAS AS","locationSet":{"include":["no"]},"geometry":["point","vertex"],"matchScore":2,"terms":["neas as","nordmøre energiverk"],"tags":{"operator:wikidata":"Q7050849","power":"transformer"},"addTags":{"operator":"NEAS AS","operator:wikidata":"Q7050849","power":"transformer"}},"power/transformer/noranett-7fe9fe":{"name":"Noranett","locationSet":{"include":["no"]},"geometry":["point","vertex"],"matchScore":2,"terms":["hålogaland kraft nett","noranett"],"tags":{"operator:wikidata":"Q117454648","power":"transformer"},"addTags":{"operator":"Noranett","operator:wikidata":"Q117454648","power":"transformer"}},"power/transformer/nordkraftnett-7fe9fe":{"name":"Nordkraft Nett","locationSet":{"include":["no"]},"geometry":["point","vertex"],"matchScore":2,"terms":["nordkraft nett"],"tags":{"operator:wikidata":"Q6966507","power":"transformer"},"addTags":{"operator":"Nordkraft Nett","operator:wikidata":"Q6966507","power":"transformer"}},"power/transformer/nordkynkraftlag-7fe9fe":{"name":"Nordkyn Kraftlag","locationSet":{"include":["no"]},"geometry":["point","vertex"],"matchScore":2,"terms":["nordkyn kraftlag"],"searchable":false,"tags":{"operator:wikidata":"Q90859310","power":"transformer"},"addTags":{"operator":"Nordkyn Kraftlag","operator:wikidata":"Q90859310","power":"transformer"}},"power/transformer/nordlandsnett-7fe9fe":{"name":"Nordlandsnett","locationSet":{"include":["no"]},"geometry":["point","vertex"],"matchScore":2,"terms":["nordlandsnett"],"tags":{"operator:wikidata":"Q4937054","power":"transformer"},"addTags":{"operator":"Nordlandsnett","operator:wikidata":"Q4937054","power":"transformer"}},"power/transformer/ntenett-7fe9fe":{"name":"NTE Nett","locationSet":{"include":["no"]},"geometry":["point","vertex"],"matchScore":2,"terms":["nte nett"],"tags":{"operator:wikidata":"Q7050523","power":"transformer"},"addTags":{"operator":"NTE Nett","operator:wikidata":"Q7050523","power":"transformer"}},"power/transformer/repvagkraftlag-7fe9fe":{"name":"Repvåg Kraftlag","locationSet":{"include":["no"]},"geometry":["point","vertex"],"matchScore":2,"terms":["repvåg kraftlag"],"searchable":false,"tags":{"operator:wikidata":"Q81318652","power":"transformer"},"addTags":{"operator":"Repvåg Kraftlag","operator:wikidata":"Q81318652","power":"transformer"}},"power/transformer/rwe-8c57c6":{"name":"RWE","locationSet":{"include":["by","bg","cz","hu","pl","md","ro","ru","sk","ua","ax","gg","je","cq","dk","ee","fo","fi","is","ie","im","lv","lt","no","sj","se","gb","al","ad","ba","hr","gi","gr","va","it","mt","me","mk","pt","sm","rs","si","es","xk","at","be","fr","de","li","lu","mc","nl","ch"]},"geometry":["point","vertex"],"matchScore":2,"terms":["rwe","rwe ag"],"tags":{"operator:wikidata":"Q138133","power":"transformer"},"addTags":{"operator":"RWE","operator:wikidata":"Q138133","power":"transformer"}},"power/transformer/sognogfjordaneenergi-7fe9fe":{"name":"Sogn og Fjordane Energi","locationSet":{"include":["no"]},"geometry":["point","vertex"],"matchScore":2,"terms":["sfe","sogn og fjordane energi"],"tags":{"operator:wikidata":"Q7554529","power":"transformer"},"addTags":{"operator":"Sogn og Fjordane Energi","operator:short":"SFE","operator:wikidata":"Q7554529","power":"transformer"}},"power/transformer/statkraft-8c57c6":{"name":"Statkraft","locationSet":{"include":["by","bg","cz","hu","pl","md","ro","ru","sk","ua","ax","gg","je","cq","dk","ee","fo","fi","is","ie","im","lv","lt","no","sj","se","gb","al","ad","ba","hr","gi","gr","va","it","mt","me","mk","pt","sm","rs","si","es","xk","at","be","fr","de","li","lu","mc","nl","ch"]},"geometry":["point","vertex"],"matchScore":2,"terms":["statkraft"],"tags":{"operator:wikidata":"Q1681145","power":"transformer"},"addTags":{"operator":"Statkraft","operator:wikidata":"Q1681145","power":"transformer"}},"power/transformer/statnett-7fe9fe":{"name":"Statnett","locationSet":{"include":["no"]},"geometry":["point","vertex"],"matchScore":2,"terms":["statnett"],"tags":{"operator:wikidata":"Q602621","power":"transformer"},"addTags":{"operator":"Statnett","operator:wikidata":"Q602621","power":"transformer"}},"power/transformer/sygnir-7fe9fe":{"name":"Sygnir","locationSet":{"include":["no"]},"geometry":["point","vertex"],"matchScore":2,"terms":["sygnir"],"tags":{"operator:wikidata":"Q117831717","power":"transformer"},"addTags":{"operator":"Sygnir","operator:wikidata":"Q117831717","power":"transformer"}},"power/transformer/tensiotn-7fe9fe":{"name":"Tensio TN","locationSet":{"include":["no"]},"geometry":["point","vertex"],"matchScore":2,"terms":["tensio tn"],"tags":{"operator:wikidata":"Q111605441","power":"transformer"},"addTags":{"operator":"Tensio TN","operator:wikidata":"Q111605441","power":"transformer"}},"power/transformer/tensiots-7fe9fe":{"name":"Tensio TS","locationSet":{"include":["no"]},"geometry":["point","vertex"],"matchScore":2,"terms":["tensio ts"],"tags":{"operator:wikidata":"Q19393420","power":"transformer"},"addTags":{"operator":"Tensio TS","operator:wikidata":"Q19393420","power":"transformer"}},"power/transformer/varangerkraft-7fe9fe":{"name":"Varanger Kraft","locationSet":{"include":["no"]},"geometry":["point","vertex"],"matchScore":2,"terms":["varanger kraft"],"tags":{"operator:wikidata":"Q7915448","power":"transformer"},"addTags":{"operator":"Varanger Kraft","operator:wikidata":"Q7915448","power":"transformer"}},"power/transformer/vattenfall-3c123b":{"name":"Vattenfall","locationSet":{"include":["by","bg","cz","hu","pl","md","ro","ru","sk","ua","ax","gg","je","cq","dk","ee","fo","fi","is","ie","im","lv","lt","no","sj","se","gb","al","ad","ba","hr","gi","gr","va","it","mt","me","mk","pt","sm","rs","si","es","xk","at","be","fr","de","li","lu","mc","nl","ch"],"exclude":["de"]},"geometry":["point","vertex"],"matchScore":2,"terms":["vattenfall"],"tags":{"operator:wikidata":"Q157675","power":"transformer"},"addTags":{"operator":"Vattenfall","operator:wikidata":"Q157675","power":"transformer"}},"power/transformer/vevig-7fe9fe":{"name":"Vevig","locationSet":{"include":["no"]},"geometry":["point","vertex"],"matchScore":2,"terms":["vevig"],"tags":{"operator:wikidata":"Q117841623","power":"transformer"},"addTags":{"operator":"Vevig","operator:wikidata":"Q117841623","power":"transformer"}},"power/transformer/vossenergi-7fe9fe":{"name":"Voss Energi","locationSet":{"include":["no"]},"geometry":["point","vertex"],"matchScore":2,"terms":["voss energi"],"tags":{"operator:wikidata":"Q78155094","power":"transformer"},"addTags":{"operator":"Voss Energi","operator:wikidata":"Q78155094","power":"transformer"}},"type/route/power/rwe-baa9ad":{"name":"RWE","locationSet":{"include":["by","bg","cz","hu","pl","md","ro","ru","sk","ua","ax","gg","je","cq","dk","ee","fo","fi","is","ie","im","lv","lt","no","sj","se","gb","al","ad","ba","hr","gi","gr","va","it","mt","me","mk","pt","sm","rs","si","es","xk","at","be","fr","de","li","lu","mc","nl","ch"]},"geometry":["relation"],"matchScore":2,"terms":["rwe"],"reference":{"key":"route","value":"power"},"tags":{"operator:wikidata":"Q138133","route":"power","type":"route"},"addTags":{"operator":"RWE","operator:wikidata":"Q138133","route":"power","type":"route"}},"telecom/exchange/interoute-58ec5d":{"name":"Interoute","locationSet":{"include":["by","bg","cz","hu","pl","md","ro","ru","sk","ua","ax","gg","je","cq","dk","ee","fo","fi","is","ie","im","lv","lt","no","sj","se","gb","al","ad","ba","hr","gi","gr","va","it","mt","me","mk","pt","sm","rs","si","es","xk","at","be","fr","de","li","lu","mc","nl","ch"]},"geometry":["point","area"],"matchScore":2,"terms":["interoute"],"fields":["name","operator","{telecom/exchange}"],"tags":{"operator:wikidata":"Q1668090","telecom":"exchange"},"addTags":{"operator":"Interoute","operator:wikidata":"Q1668090","telecom":"exchange"}},"public_transport/station_ferry/ruter-800b48":{"name":"Ruter","locationSet":{"include":["no"]},"geometry":["vertex","point","area"],"matchScore":2,"terms":["ruter"],"reference":{"key":"amenity","value":"ferry_terminal"},"tags":{"ferry":"yes","network:wikidata":"Q750292","public_transport":"station"},"addTags":{"amenity":"ferry_terminal","ferry":"yes","network":"Ruter","network:wikidata":"Q750292","public_transport":"station"}},"public_transport/platform/bus_point/atb-1a4909":{"name":"AtB","locationSet":{"include":["no"]},"geometry":["point","vertex"],"matchScore":2,"terms":["atb"],"reference":{"key":"public_transport","value":"platform"},"tags":{"bus":"yes","network:wikidata":"Q11686899","public_transport":"platform"},"addTags":{"bus":"yes","highway":"bus_stop","network":"AtB","network:wikidata":"Q11686899","public_transport":"platform"}},"public_transport/platform/bus_point/brakar-1a4909":{"name":"Brakar","locationSet":{"include":["no"]},"geometry":["point","vertex"],"matchScore":2,"terms":["brakar"],"reference":{"key":"public_transport","value":"platform"},"tags":{"bus":"yes","network:wikidata":"Q17522158","public_transport":"platform"},"addTags":{"bus":"yes","highway":"bus_stop","network":"Brakar","network:wikidata":"Q17522158","public_transport":"platform"}},"public_transport/platform/bus_point/flixbus-f5b4b3":{"name":"Flixbus","locationSet":{"include":["by","bg","cz","hu","pl","md","ro","ru","sk","ua","ax","gg","je","cq","dk","ee","fo","fi","is","ie","im","lv","lt","no","sj","se","gb","al","ad","ba","hr","gi","gr","va","it","mt","me","mk","pt","sm","rs","si","es","xk","at","be","fr","de","li","lu","mc","nl","ch","br","ca","us"]},"geometry":["point","vertex"],"matchScore":2,"terms":["flixbus"],"reference":{"key":"public_transport","value":"platform"},"tags":{"bus":"yes","network:wikidata":"Q15712258","public_transport":"platform"},"addTags":{"bus":"yes","highway":"bus_stop","network":"Flixbus","network:wikidata":"Q15712258","public_transport":"platform"}},"public_transport/platform/bus_point/framekspress-1a4909":{"name":"FRAM Ekspress","locationSet":{"include":["no"]},"geometry":["point","vertex"],"matchScore":2,"terms":["fram ekspress"],"reference":{"key":"public_transport","value":"platform"},"tags":{"bus":"yes","network:wikidata":"Q37946807","public_transport":"platform"},"addTags":{"bus":"yes","highway":"bus_stop","network":"FRAM Ekspress","network:wikidata":"Q37946807","public_transport":"platform"}},"public_transport/platform/bus_point/kolumbus-1a4909":{"name":"Kolumbus","locationSet":{"include":["no"]},"geometry":["point","vertex"],"matchScore":2,"terms":["kolumbus"],"reference":{"key":"public_transport","value":"platform"},"tags":{"bus":"yes","network:wikidata":"Q6427938","public_transport":"platform"},"addTags":{"bus":"yes","highway":"bus_stop","network":"Kolumbus","network:wikidata":"Q6427938","public_transport":"platform"}},"public_transport/platform/bus_point/ostfoldkollektivtrafikk-1a4909":{"name":"Østfold kollektivtrafikk","locationSet":{"include":["no"]},"geometry":["point","vertex"],"matchScore":2,"terms":["østfold kollektivtrafikk"],"reference":{"key":"public_transport","value":"platform"},"tags":{"bus":"yes","network:wikidata":"Q8079265","public_transport":"platform"},"addTags":{"bus":"yes","highway":"bus_stop","network":"Østfold kollektivtrafikk","network:wikidata":"Q8079265","public_transport":"platform"}},"public_transport/platform/bus_point/ruter-1a4909":{"name":"Ruter","locationSet":{"include":["no"]},"geometry":["point","vertex"],"matchScore":2,"terms":["ruter"],"reference":{"key":"public_transport","value":"platform"},"tags":{"bus":"yes","network:wikidata":"Q750292","public_transport":"platform"},"addTags":{"bus":"yes","highway":"bus_stop","network":"Ruter","network:wikidata":"Q750292","public_transport":"platform"}},"public_transport/platform/bus_point/skyss-1a4909":{"name":"Skyss","locationSet":{"include":["no"]},"geometry":["point","vertex"],"matchScore":2,"terms":["skyss"],"reference":{"key":"public_transport","value":"platform"},"tags":{"bus":"yes","network:wikidata":"Q4568733","public_transport":"platform"},"addTags":{"bus":"yes","highway":"bus_stop","network":"Skyss","network:wikidata":"Q4568733","public_transport":"platform"}},"public_transport/platform/bus_point/vybus-f615fc":{"name":"Vy Bus","locationSet":{"include":["no","se"]},"geometry":["point","vertex"],"matchScore":2,"terms":["nettbuss","vy","vy bus","vy buss"],"reference":{"key":"public_transport","value":"platform"},"tags":{"bus":"yes","network:wikidata":"Q7000460","public_transport":"platform"},"addTags":{"bus":"yes","highway":"bus_stop","network":"Vy Bus","network:no":"Vy Buss","network:wikidata":"Q7000460","operator":"Vy","operator:wikidata":"Q83825","public_transport":"platform"}},"public_transport/station_subway/ruter-22512c":{"name":"Ruter","locationSet":{"include":["no"]},"geometry":["point","vertex","area"],"matchScore":2,"terms":["ruter","sporveien t-banen"],"reference":{"key":"station","value":"subway"},"tags":{"network:wikidata":"Q750292","public_transport":"station","subway":"yes"},"addTags":{"network":"Ruter","network:wikidata":"Q750292","operator":"Sporveien T-banen","operator:wikidata":"Q7107051","public_transport":"station","railway":"station","station":"subway","subway":"yes"}},"railway/station/eurocity-170b77":{"name":"EuroCity","locationSet":{"include":["by","bg","cz","hu","pl","md","ro","ru","sk","ua","ax","gg","je","cq","dk","ee","fo","fi","is","ie","im","lv","lt","no","sj","se","gb","al","ad","ba","hr","gi","gr","va","it","mt","me","mk","pt","sm","rs","si","es","xk","at","be","fr","de","li","lu","mc","nl","ch"]},"geometry":["point","vertex","area"],"matchScore":2,"terms":["eurocity"],"tags":{"network:wikidata":"Q753050","railway":"station"},"addTags":{"network":"EuroCity","network:wikidata":"Q753050","public_transport":"station","railway":"station","train":"yes"}},"railway/station/euronight-170b77":{"name":"EuroNight","locationSet":{"include":["by","bg","cz","hu","pl","md","ro","ru","sk","ua","ax","gg","je","cq","dk","ee","fo","fi","is","ie","im","lv","lt","no","sj","se","gb","al","ad","ba","hr","gi","gr","va","it","mt","me","mk","pt","sm","rs","si","es","xk","at","be","fr","de","li","lu","mc","nl","ch"]},"geometry":["point","vertex","area"],"matchScore":2,"terms":["euronight"],"tags":{"network:wikidata":"Q257307","railway":"station"},"addTags":{"network":"EuroNight","network:wikidata":"Q257307","public_transport":"station","railway":"station","train":"yes"}},"railway/station/norrtag-d74859":{"name":"Norrtåg","locationSet":{"include":["fi","no","se"]},"geometry":["point","vertex","area"],"matchScore":2,"terms":["norrtåg","vy tåg"],"tags":{"network:wikidata":"Q10602972","railway":"station"},"addTags":{"network":"Norrtåg","network:wikidata":"Q10602972","operator":"Vy Tåg","operator:wikidata":"Q1503354","public_transport":"station","railway":"station","train":"yes"}},"railway/tram_stop/ruter-c40805":{"name":"Ruter","locationSet":{"include":["no"]},"geometry":["vertex"],"matchScore":2,"terms":["ruter","sporveien trikken"],"tags":{"network:wikidata":"Q750292","railway":"tram_stop"},"addTags":{"network":"Ruter","network:wikidata":"Q750292","operator":"Sporveien Trikken","operator:wikidata":"Q287668","railway":"tram_stop"}},"type/route/bus/atb-b52e0f":{"name":"AtB","locationSet":{"include":["no"]},"geometry":["relation"],"matchScore":2,"terms":["atb"],"reference":{"key":"route","value":"bus"},"tags":{"network:wikidata":"Q11686899","route":"bus","type":"route"},"addTags":{"network":"AtB","network:wikidata":"Q11686899","route":"bus","type":"route"}},"type/route/bus/brakar-b52e0f":{"name":"Brakar","locationSet":{"include":["no"]},"geometry":["relation"],"matchScore":2,"terms":["brakar"],"reference":{"key":"route","value":"bus"},"tags":{"network:wikidata":"Q17522158","route":"bus","type":"route"},"addTags":{"network":"Brakar","network:wikidata":"Q17522158","route":"bus","type":"route"}},"type/route/bus/flixbus-8cc9ca":{"name":"Flixbus","locationSet":{"include":["by","bg","cz","hu","pl","md","ro","ru","sk","ua","ax","gg","je","cq","dk","ee","fo","fi","is","ie","im","lv","lt","no","sj","se","gb","al","ad","ba","hr","gi","gr","va","it","mt","me","mk","pt","sm","rs","si","es","xk","at","be","fr","de","li","lu","mc","nl","ch","br","ca","us"]},"geometry":["relation"],"matchScore":2,"terms":["flixbus"],"reference":{"key":"route","value":"bus"},"tags":{"network:wikidata":"Q15712258","route":"bus","type":"route"},"addTags":{"network":"Flixbus","network:wikidata":"Q15712258","route":"bus","type":"route"}},"type/route/bus/framekspress-b52e0f":{"name":"FRAM Ekspress","locationSet":{"include":["no"]},"geometry":["relation"],"matchScore":2,"terms":["fram ekspress"],"reference":{"key":"route","value":"bus"},"tags":{"network:wikidata":"Q37946807","route":"bus","type":"route"},"addTags":{"network":"FRAM Ekspress","network:wikidata":"Q37946807","route":"bus","type":"route"}},"type/route/bus/kolumbus-b52e0f":{"name":"Kolumbus","locationSet":{"include":["no"]},"geometry":["relation"],"matchScore":2,"terms":["kolumbus"],"reference":{"key":"route","value":"bus"},"tags":{"network:wikidata":"Q6427938","route":"bus","type":"route"},"addTags":{"network":"Kolumbus","network:wikidata":"Q6427938","route":"bus","type":"route"}},"type/route/bus/ostfoldkollektivtrafikk-b52e0f":{"name":"Østfold kollektivtrafikk","locationSet":{"include":["no"]},"geometry":["relation"],"matchScore":2,"terms":["østfold kollektivtrafikk"],"reference":{"key":"route","value":"bus"},"tags":{"network:wikidata":"Q8079265","route":"bus","type":"route"},"addTags":{"network":"Østfold kollektivtrafikk","network:wikidata":"Q8079265","route":"bus","type":"route"}},"type/route/bus/ruter-b52e0f":{"name":"Ruter","locationSet":{"include":["no"]},"geometry":["relation"],"matchScore":2,"terms":["ruter"],"reference":{"key":"route","value":"bus"},"tags":{"network:wikidata":"Q750292","route":"bus","type":"route"},"addTags":{"network":"Ruter","network:wikidata":"Q750292","route":"bus","type":"route"}},"type/route/bus/skyss-b52e0f":{"name":"Skyss","locationSet":{"include":["no"]},"geometry":["relation"],"matchScore":2,"terms":["skyss"],"reference":{"key":"route","value":"bus"},"tags":{"network:wikidata":"Q4568733","route":"bus","type":"route"},"addTags":{"network":"Skyss","network:wikidata":"Q4568733","route":"bus","type":"route"}},"type/route/bus/vybus-bb165c":{"name":"Vy Bus","locationSet":{"include":["no","se"]},"geometry":["relation"],"matchScore":2,"terms":["nettbuss","vy","vy bus","vy buss"],"reference":{"key":"route","value":"bus"},"tags":{"network:wikidata":"Q7000460","route":"bus","type":"route"},"addTags":{"network":"Vy Bus","network:no":"Vy Buss","network:wikidata":"Q7000460","operator":"Vy","operator:wikidata":"Q83825","route":"bus","type":"route"}},"type/route/ferry/ruter-b92c8c":{"name":"Ruter","locationSet":{"include":["no"]},"geometry":["relation"],"matchScore":2,"terms":["ruter"],"reference":{"key":"route","value":"ferry"},"tags":{"network:wikidata":"Q750292","route":"ferry","type":"route"},"addTags":{"network":"Ruter","network:wikidata":"Q750292","route":"ferry","type":"route"}},"route/ferry/ruter-b92c8c":{"name":"Ruter","locationSet":{"include":["no"]},"geometry":["line"],"matchScore":2,"terms":["ruter"],"tags":{"network:wikidata":"Q750292","route":"ferry"},"addTags":{"network":"Ruter","network:wikidata":"Q750292","route":"ferry"}},"type/route/subway/ruter-ef49cb":{"name":"Ruter","locationSet":{"include":["no"]},"geometry":["relation"],"matchScore":2,"terms":["ruter","sporveien t-banen"],"reference":{"key":"route","value":"subway"},"tags":{"network:wikidata":"Q750292","route":"subway","type":"route"},"addTags":{"network":"Ruter","network:wikidata":"Q750292","operator":"Sporveien T-banen","operator:wikidata":"Q7107051","route":"subway","type":"route"}},"type/route/train/eurocity-6b9d23":{"name":"EuroCity","locationSet":{"include":["by","bg","cz","hu","pl","md","ro","ru","sk","ua","ax","gg","je","cq","dk","ee","fo","fi","is","ie","im","lv","lt","no","sj","se","gb","al","ad","ba","hr","gi","gr","va","it","mt","me","mk","pt","sm","rs","si","es","xk","at","be","fr","de","li","lu","mc","nl","ch"]},"geometry":["relation"],"matchScore":2,"terms":["eurocity"],"reference":{"key":"route","value":"train"},"tags":{"network:wikidata":"Q753050","route":"train","type":"route"},"addTags":{"network":"EuroCity","network:wikidata":"Q753050","route":"train","type":"route"}},"type/route/train/euronight-6b9d23":{"name":"EuroNight","locationSet":{"include":["by","bg","cz","hu","pl","md","ro","ru","sk","ua","ax","gg","je","cq","dk","ee","fo","fi","is","ie","im","lv","lt","no","sj","se","gb","al","ad","ba","hr","gi","gr","va","it","mt","me","mk","pt","sm","rs","si","es","xk","at","be","fr","de","li","lu","mc","nl","ch"]},"geometry":["relation"],"matchScore":2,"terms":["euronight"],"reference":{"key":"route","value":"train"},"tags":{"network:wikidata":"Q257307","route":"train","type":"route"},"addTags":{"network":"EuroNight","network:wikidata":"Q257307","route":"train","type":"route"}},"type/route/train/norrtag-2dcd18":{"name":"Norrtåg","locationSet":{"include":["fi","no","se"]},"geometry":["relation"],"matchScore":2,"terms":["norrtåg","vy tåg"],"reference":{"key":"route","value":"train"},"tags":{"network:wikidata":"Q10602972","route":"train","type":"route"},"addTags":{"network":"Norrtåg","network:wikidata":"Q10602972","operator":"Vy Tåg","operator:wikidata":"Q1503354","route":"train","type":"route"}},"type/route/tram/ruter-a74636":{"name":"Ruter","locationSet":{"include":["no"]},"geometry":["relation"],"matchScore":2,"terms":["ruter","sporveien trikken"],"reference":{"key":"route","value":"tram"},"tags":{"network:wikidata":"Q750292","route":"tram","type":"route"},"addTags":{"network":"Ruter","network:wikidata":"Q750292","operator":"Sporveien Trikken","operator:wikidata":"Q287668","route":"tram","type":"route"}}}