{"amenity/atm/bancodelaustro-67d8b6":{"name":"Banco del Austro","locationSet":{"include":["ec"]},"geometry":["point","vertex"],"matchScore":2,"terms":["banco del austro"],"fields":["name","brand","{amenity/atm}"],"tags":{"amenity":"atm","brand:wikidata":"Q62122344"},"addTags":{"amenity":"atm","brand":"Banco del Austro","brand:wikidata":"Q62122344","operator":"Banco del Austro","operator:wikidata":"Q62122344"}},"amenity/atm/bancointernacional-67d8b6":{"name":"Banco Internacional (Ecuador)","locationSet":{"include":["ec"]},"geometry":["point","vertex"],"matchScore":2,"terms":["banco internacional"],"fields":["name","brand","{amenity/atm}"],"tags":{"amenity":"atm","brand:wikidata":"Q806187"},"addTags":{"amenity":"atm","brand":"Banco Internacional","brand:wikidata":"Q806187","operator":"Banco Internacional","operator:wikidata":"Q806187"}},"amenity/atm/bancopichincha-89e930":{"name":"Banco Pichincha","locationSet":{"include":["co","ec","pe"]},"geometry":["point","vertex"],"matchScore":2,"terms":["banco pichincha"],"fields":["name","brand","{amenity/atm}"],"tags":{"amenity":"atm","brand:wikidata":"Q4854135"},"addTags":{"amenity":"atm","brand":"Banco Pichincha","brand:wikidata":"Q4854135","operator":"Banco Pichincha","operator:wikidata":"Q4854135"}},"amenity/atm/produbanco-67d8b6":{"name":"Produbanco","locationSet":{"include":["ec"]},"geometry":["point","vertex"],"matchScore":2,"terms":["banco de la producción","produbanco"],"fields":["name","brand","{amenity/atm}"],"tags":{"amenity":"atm","brand:wikidata":"Q7247678"},"addTags":{"amenity":"atm","brand":"Produbanco","brand:wikidata":"Q7247678","operator":"Produbanco","operator:wikidata":"Q7247678"}},"amenity/bank/bancodelaustro-01e191":{"name":"Banco del Austro","locationSet":{"include":["ec"]},"geometry":["point","area"],"matchScore":2,"terms":["banco del austro"],"tags":{"amenity":"bank","brand:wikidata":"Q62122344"},"addTags":{"amenity":"bank","brand":"Banco del Austro","brand:wikidata":"Q62122344","name":"Banco del Austro"}},"amenity/bank/bancointernacional-01e191":{"name":"Banco Internacional (Ecuador)","locationSet":{"include":["ec"]},"geometry":["point","area"],"matchScore":2,"terms":["banco internacional"],"tags":{"amenity":"bank","brand:wikidata":"Q806187"},"addTags":{"amenity":"bank","brand":"Banco Internacional","brand:wikidata":"Q806187","name":"Banco Internacional"}},"amenity/bank/bancopichincha-6de7b0":{"name":"Banco Pichincha","locationSet":{"include":["co","ec","pe"]},"geometry":["point","area"],"matchScore":2,"terms":["banco pichincha"],"tags":{"amenity":"bank","brand:wikidata":"Q4854135"},"addTags":{"amenity":"bank","brand":"Banco Pichincha","brand:wikidata":"Q4854135","name":"Banco Pichincha"}},"amenity/bank/produbanco-01e191":{"name":"Produbanco","locationSet":{"include":["ec"]},"geometry":["point","area"],"matchScore":2,"terms":["banco de la producción","produbanco"],"tags":{"amenity":"bank","brand:wikidata":"Q7247678"},"addTags":{"amenity":"bank","brand":"Produbanco","brand:wikidata":"Q7247678","name":"Produbanco"}},"amenity/bicycle_rental/biciquito-3e9425":{"name":"BiciQuito","locationSet":{"include":["ec"]},"geometry":["point","vertex","area"],"matchScore":2,"terms":["biciquito"],"fields":["name","brand","{amenity/bicycle_rental}"],"tags":{"amenity":"bicycle_rental","brand:wikidata":"Q16489709"},"addTags":{"amenity":"bicycle_rental","brand":"BiciQuito","brand:wikidata":"Q16489709","network":"BiciQuito","network:wikidata":"Q16489709"}},"amenity/fast_food/acaiconcept-989340":{"name":"Açaí Concept","locationSet":{"include":["ar","br","ca","ch","cl","ec","fr","pt","us"]},"geometry":["point","area"],"matchScore":2,"terms":["açaí concept"],"tags":{"amenity":"fast_food","brand:wikidata":"Q110138105"},"addTags":{"amenity":"fast_food","brand":"Açaí Concept","brand:wikidata":"Q110138105","cuisine":"açaí","name":"Açaí Concept","takeaway":"yes"}},"amenity/fast_food/woktowalk-f5ada9":{"name":"Wok to Walk","locationSet":{"include":["ae","bg","co","cy","ec","ee","es","fx","gb","il","in","it","lt","lv","ma","mt","mx","nl","om","pa","pt","qa","sa","us"]},"geometry":["point","area"],"matchScore":2,"terms":["wok to walk"],"tags":{"amenity":"fast_food","brand:wikidata":"Q4020634"},"addTags":{"amenity":"fast_food","brand":"Wok to Walk","brand:wikidata":"Q4020634","cuisine":"asian","name":"Wok to Walk","takeaway":"yes"}},"amenity/fuel/petroecuador-07d016":{"name":"Petroecuador","locationSet":{"include":["ec"]},"geometry":["point","area"],"matchScore":2,"terms":["petroecuador"],"fields":["name","brand","{amenity/fuel}"],"tags":{"amenity":"fuel","brand:wikidata":"Q1812822"},"addTags":{"amenity":"fuel","brand":"Petroecuador","brand:wikidata":"Q1812822","name":"Petroecuador"}},"amenity/fuel/primax-07d016":{"name":"Primax (Ecuador)","locationSet":{"include":["ec"]},"geometry":["point","area"],"matchScore":2,"terms":["primax"],"fields":["name","brand","{amenity/fuel}"],"tags":{"amenity":"fuel","brand:wikidata":"Q62332857"},"addTags":{"amenity":"fuel","brand":"Primax","brand:wikidata":"Q62332857","name":"Primax"}},"amenity/fuel/terpel-23f925":{"name":"Terpel","locationSet":{"include":["cl","co","do","ec","mx","pa"]},"geometry":["point","area"],"matchScore":2,"terms":["terpel"],"fields":["name","brand","{amenity/fuel}"],"tags":{"amenity":"fuel","brand:wikidata":"Q7703003"},"addTags":{"amenity":"fuel","brand":"Terpel","brand:wikidata":"Q7703003","name":"Terpel"}},"amenity/ice_cream/frozen_yogurt/llaollao-dd9462":{"name":"Llaollao","locationSet":{"include":["au","ch","cl","co","ec","es","fr","gt","hr","id","iq","kw","ma","my","ph","pt","sa","sg","si","sv","us","vn"]},"geometry":["point","area"],"matchScore":2,"terms":["llaollao"],"reference":{"key":"cuisine","value":"frozen_yogurt"},"tags":{"amenity":"ice_cream","brand:wikidata":"Q12163048","cuisine":"frozen_yogurt"},"addTags":{"amenity":"ice_cream","brand":"Llaollao","brand:wikidata":"Q12163048","cuisine":"frozen_yogurt","name":"Llaollao"}},"amenity/ice_cream/smooy-bac155":{"name":"smöoy","locationSet":{"include":["ao","ci","cn","dz","ec","es","fr","gb","gn","it","ma","pa","pe","pt","re","sa"]},"geometry":["point","area"],"matchScore":2,"terms":["smöoy","softy cream"],"tags":{"amenity":"ice_cream","brand:wikidata":"Q21573945"},"addTags":{"amenity":"ice_cream","brand":"smöoy","brand:wikidata":"Q21573945","name":"smöoy","official_name":"Softy Cream"}},"amenity/pharmacy/cruzazul-235c18":{"name":"Cruz Azul","locationSet":{"include":["ec"]},"geometry":["point","area"],"matchScore":2,"terms":["cruz azul","farmacias cruz azul"],"reference":{"key":"amenity","value":"pharmacy"},"tags":{"amenity":"pharmacy","brand:wikidata":"Q62108219"},"addTags":{"amenity":"pharmacy","brand":"Cruz Azul","brand:wikidata":"Q62108219","healthcare":"pharmacy","name":"Cruz Azul"}},"amenity/pharmacy/farmaciaseconomicas-235c18":{"name":"Farmacias Económicas (Ecuador)","locationSet":{"include":["ec"]},"geometry":["point","area"],"matchScore":2,"terms":["farmacias económicas"],"reference":{"key":"amenity","value":"pharmacy"},"tags":{"amenity":"pharmacy","brand:wikidata":"Q62108380"},"addTags":{"amenity":"pharmacy","brand":"Farmacias Económicas","brand:wikidata":"Q62108380","healthcare":"pharmacy","name":"Farmacias Económicas"}},"amenity/pharmacy/fybeca-235c18":{"name":"Fybeca","locationSet":{"include":["ec"]},"geometry":["point","area"],"matchScore":2,"terms":["fybeca"],"reference":{"key":"amenity","value":"pharmacy"},"tags":{"amenity":"pharmacy","brand:wikidata":"Q62564822"},"addTags":{"amenity":"pharmacy","brand":"Fybeca","brand:wikidata":"Q62564822","healthcare":"pharmacy","name":"Fybeca"}},"amenity/pharmacy/sanasana-235c18":{"name":"Sana Sana","locationSet":{"include":["ec"]},"geometry":["point","area"],"matchScore":2,"terms":["farmacias sana sana","sana sana"],"reference":{"key":"amenity","value":"pharmacy"},"tags":{"amenity":"pharmacy","brand:wikidata":"Q62564499"},"addTags":{"amenity":"pharmacy","brand":"Sana Sana","brand:wikidata":"Q62564499","healthcare":"pharmacy","name":"Sana Sana"}},"amenity/restaurant/crepesandwaffles-7b5290":{"name":"Crepes & Waffles","locationSet":{"include":["br","cl","co","ec","es","mx","pa","pe","ve"]},"geometry":["point","area"],"matchScore":2,"terms":["crepes & waffles"],"tags":{"amenity":"restaurant","brand:wikidata":"Q5184238"},"addTags":{"alt_name":"Crepes & Waffles","amenity":"restaurant","brand":"Crepes & Waffles","brand:wikidata":"Q5184238","cuisine":"crepe;ice_cream","name":"Crepes & Waffles"}},"office/insurance/zurich-2d6c95":{"name":"Zurich","locationSet":{"include":["ae","at","au","be","bh","br","ca","ch","cl","cn","co","de","ec","es","fi","fr","gb","hk","id","ie","it","ja","kw","lb","li","lu","mx","my","nl","no","nz","om","pt","qa","se","sg","sk","tr","us"]},"geometry":["point","area"],"matchScore":2,"terms":["zurich"],"fields":["name","brand","{office/insurance}"],"tags":{"brand:wikidata":"Q230426","office":"insurance"},"addTags":{"brand":"Zurich","brand:wikidata":"Q230426","name":"Zurich","office":"insurance"}},"shop/car/karma-40d0fc":{"name":"Karma","locationSet":{"include":["be","ca","cn","ec","es","fr","il","is","nl","pa","se","us"]},"geometry":["point","area"],"matchScore":2,"terms":["karma automotive"],"fields":["name","brand","{shop/car}"],"tags":{"brand:wikidata":"Q22671741","shop":"car"},"addTags":{"brand":"Karma Automotive","brand:wikidata":"Q22671741","name":"Karma","shop":"car"}},"shop/hearing_aids/gaes-681898":{"name":"GAES","locationSet":{"include":["ar","cl","co","ec","es","mx","pa"]},"geometry":["point","area"],"matchScore":2,"terms":["gaes"],"tags":{"brand:wikidata":"Q98492565","shop":"hearing_aids"},"addTags":{"brand":"GAES","brand:wikidata":"Q98492565","name":"GAES","shop":"hearing_aids"}},"shop/mobile_phone/claro-1c9651":{"name":"Claro","locationSet":{"include":["ar","br","cl","co","cr","do","ec","gt","hn","ni","pa","pe","pr","py","sv","uy"]},"geometry":["point","area"],"matchScore":2,"terms":["claro"],"tags":{"brand:wikidata":"Q1770208","shop":"mobile_phone"},"addTags":{"brand":"Claro","brand:wikidata":"Q1770208","name":"Claro","shop":"mobile_phone"}},"shop/mobile_phone/movistar-de0f48":{"name":"Movistar","locationSet":{"include":["ar","cl","co","cr","ec","es","gt","mx","ni","pa","pe","sv","uy","ve"]},"geometry":["point","area"],"matchScore":2,"terms":["movistar"],"tags":{"brand:wikidata":"Q967735","shop":"mobile_phone"},"addTags":{"brand":"Movistar","brand:wikidata":"Q967735","name":"Movistar","shop":"mobile_phone"}},"shop/sports/marathonsports-ce6e12":{"name":"Marathon Sports (Ecuador)","locationSet":{"include":["bo","ec","pe"]},"geometry":["point","area"],"matchScore":2,"terms":["marathon sports"],"tags":{"brand:wikidata":"Q3027516","shop":"sports"},"addTags":{"brand":"Marathon Sports","brand:wikidata":"Q3027516","name":"Marathon Sports","shop":"sports"}},"shop/travel_agency/viajeselcorteingles-d900b5":{"name":"Viajes El Corte Inglés","locationSet":{"include":["ar","cl","co","do","ec","es","fr","it","mx","pa","pe","pt","uy"]},"geometry":["point","area"],"matchScore":2,"terms":["viajes el corte inglés"],"tags":{"brand:wikidata":"Q115268048","shop":"travel_agency"},"addTags":{"brand":"Viajes El Corte Inglés","brand:wikidata":"Q115268048","name":"Viajes El Corte Inglés","shop":"travel_agency"}},"tourism/hotel/nhcollectionhotels-f05c75":{"name":"NH Collection Hotels","locationSet":{"include":["ad","ar","at","be","cl","co","cu","cz","de","dk","ec","es","fr","hu","it","mx","nl","pt","qa","us-ny"]},"geometry":["point","area"],"matchScore":2,"terms":["nh collection hotels"],"fields":["name","brand","{tourism/hotel}"],"tags":{"brand:wikidata":"Q1604631","tourism":"hotel"},"addTags":{"brand":"NH Collection Hotels","brand:wikidata":"Q1604631","name":"NH Collection Hotels","tourism":"hotel"}},"tourism/hotel/sonesta-690134":{"name":"Sonesta","locationSet":{"include":["ca","cl","co","ec","eg","pe","sx","us"]},"geometry":["point","area"],"matchScore":2,"terms":["sonesta","sonesta hotel"],"fields":["name","brand","{tourism/hotel}"],"tags":{"brand:wikidata":"Q81003878","tourism":"hotel"},"addTags":{"alt_name":"Sonesta Hotel","brand":"Sonesta","brand:wikidata":"Q81003878","name":"Sonesta","tourism":"hotel"}},"amenity/hospital/institutoecuatorianodeseguridadsocial-92bc1d":{"name":"Instituto Ecuatoriano de Seguridad Social","locationSet":{"include":["ec"]},"geometry":["area","point"],"matchScore":2,"terms":["iess","instituto ecuatoriano de seguridad social"],"fields":["name","operator","{amenity/hospital}"],"reference":{"key":"amenity","value":"hospital"},"tags":{"amenity":"hospital","operator:wikidata":"Q5917290"},"addTags":{"amenity":"hospital","healthcare":"hospital","operator":"Instituto Ecuatoriano de Seguridad Social","operator:short":"IESS","operator:wikidata":"Q5917290"}},"amenity/hospital/ministeriodesaludpublica-92bc1d":{"name":"Ministerio de Salud Pública (Ecuador)","locationSet":{"include":["ec"]},"geometry":["area","point"],"matchScore":2,"terms":["ministerio de salud","ministerio de salud pública","msp"],"fields":["name","operator","{amenity/hospital}"],"reference":{"key":"amenity","value":"hospital"},"tags":{"amenity":"hospital","operator:wikidata":"Q22984534"},"addTags":{"amenity":"hospital","healthcare":"hospital","operator":"Ministerio de Salud Pública","operator:short":"MSP","operator:wikidata":"Q22984534"}},"amenity/police/policianacionaldelecuador-210a6b":{"name":"Policía Nacional del Ecuador","locationSet":{"include":["ec"]},"geometry":["point","area"],"matchScore":2,"terms":["ministerio de interior","ministerio del interior","policía ecuatoriana","policía nacional (ecuador)","policía nacional de ecuador","policía nacional del ecuador","policía nacional ecuatoriana"],"tags":{"amenity":"police","operator:wikidata":"Q6974984"},"addTags":{"amenity":"police","operator":"Policía Nacional del Ecuador","operator:wikidata":"Q6974984"}},"amenity/telephone/claro-6490cd":{"name":"Claro","locationSet":{"include":["ai","ag","aw","bs","bb","bq","vg","ky","cu","cw","dm","do","gd","gp","ht","jm","mq","ms","pr","bl","kn","lc","mf","vc","sx","tt","tc","vi","bz","cr","sv","gt","hn","mx","ni","pa","ar","bo","bv","br","cl","co","ec","fk","gf","gy","py","pe","gs","sr","uy","ve"]},"geometry":["point","vertex"],"matchScore":2,"terms":["claro"],"fields":["name","operator","{amenity/telephone}"],"tags":{"amenity":"telephone","operator:wikidata":"Q1770208"},"addTags":{"amenity":"telephone","operator":"Claro","operator:wikidata":"Q1770208"}},"power/line/celectranselectric-28a19b":{"name":"CELEC-Transelectric","locationSet":{"include":["ec"]},"geometry":["line"],"matchScore":2,"terms":["celec","celec-transelectric"],"tags":{"operator:wikidata":"Q5486529","power":"line"},"addTags":{"operator":"CELEC-Transelectric","operator:wikidata":"Q5486529","power":"line"}},"power/minor_line/celectranselectric-b76169":{"name":"CELEC-Transelectric","locationSet":{"include":["ec"]},"geometry":["line"],"matchScore":2,"terms":["celec","celec-transelectric"],"tags":{"operator:wikidata":"Q5486529","power":"minor_line"},"addTags":{"operator":"CELEC-Transelectric","operator:wikidata":"Q5486529","power":"minor_line"}},"power/pole/celectranselectric-814e3b":{"name":"CELEC-Transelectric","locationSet":{"include":["ec"]},"geometry":["point","vertex"],"matchScore":2,"terms":["celec","celec-transelectric"],"tags":{"operator:wikidata":"Q5486529","power":"pole"},"addTags":{"operator":"CELEC-Transelectric","operator:wikidata":"Q5486529","power":"pole"}},"power/substation/celectranselectric-b68855":{"name":"CELEC-Transelectric","locationSet":{"include":["ec"]},"geometry":["area","point"],"matchScore":2,"terms":["celec","celec-transelectric"],"tags":{"operator:wikidata":"Q5486529","power":"substation"},"addTags":{"operator":"CELEC-Transelectric","operator:wikidata":"Q5486529","power":"substation"}},"power/substation/eeambato-b68855":{"name":"E.E. Ambato","locationSet":{"include":["ec"]},"geometry":["area","point"],"matchScore":2,"terms":["e.e. ambato"],"tags":{"operator:wikidata":"Q5374436","power":"substation"},"addTags":{"operator":"E.E. Ambato","operator:wikidata":"Q5374436","power":"substation"}},"power/substation/eecentrosur-b68855":{"name":"E.E. Centro Sur","locationSet":{"include":["ec"]},"geometry":["area","point"],"matchScore":2,"terms":["e.e. centro sur"],"tags":{"operator:wikidata":"Q5374436","power":"substation"},"addTags":{"operator":"E.E. Centro Sur","operator:wikidata":"Q5374436","power":"substation"}},"power/substation/eecotopaxi-b68855":{"name":"E.E. Cotopaxi","locationSet":{"include":["ec"]},"geometry":["area","point"],"matchScore":2,"terms":["e.e. cotopaxi"],"tags":{"operator:wikidata":"Q5374436","power":"substation"},"addTags":{"operator":"E.E. Cotopaxi","operator:wikidata":"Q5374436","power":"substation"}},"power/substation/eenorte-b68855":{"name":"E.E. Norte","locationSet":{"include":["ec"]},"geometry":["area","point"],"matchScore":2,"terms":["e.e. norte"],"tags":{"operator:wikidata":"Q5374436","power":"substation"},"addTags":{"operator":"E.E. Norte","operator:wikidata":"Q5374436","power":"substation"}},"power/substation/eequito-b68855":{"name":"E.E. Quito","locationSet":{"include":["ec"]},"geometry":["area","point"],"matchScore":2,"terms":["e.e. quito"],"tags":{"operator:wikidata":"Q5374436","power":"substation"},"addTags":{"operator":"E.E. Quito","operator:wikidata":"Q5374436","power":"substation"}},"power/substation/petroamazonas-b68855":{"name":"Petroamazonas","locationSet":{"include":["ec"]},"geometry":["area","point"],"matchScore":2,"terms":["petroamazonas"],"tags":{"operator:wikidata":"Q16618501","power":"substation"},"addTags":{"operator":"Petroamazonas","operator:wikidata":"Q16618501","power":"substation"}},"power/tower/celectranselectric-4fcedf":{"name":"CELEC-Transelectric","locationSet":{"include":["ec"]},"geometry":["point","vertex"],"matchScore":2,"terms":["celec","celec-transelectric"],"tags":{"operator:wikidata":"Q5486529","power":"tower"},"addTags":{"operator":"CELEC-Transelectric","operator:wikidata":"Q5486529","power":"tower"}},"power/transformer/celectranselectric-0772ca":{"name":"CELEC-Transelectric","locationSet":{"include":["ec"]},"geometry":["point","vertex"],"matchScore":2,"terms":["celec","celec-transelectric"],"tags":{"operator:wikidata":"Q5486529","power":"transformer"},"addTags":{"operator":"CELEC-Transelectric","operator:wikidata":"Q5486529","power":"transformer"}},"power/transformer/eeambato-0772ca":{"name":"E.E. Ambato","locationSet":{"include":["ec"]},"geometry":["point","vertex"],"matchScore":2,"terms":["e.e. ambato"],"tags":{"operator:wikidata":"Q5374436","power":"transformer"},"addTags":{"operator":"E.E. Ambato","operator:wikidata":"Q5374436","power":"transformer"}},"power/transformer/eecentrosur-0772ca":{"name":"E.E. Centro Sur","locationSet":{"include":["ec"]},"geometry":["point","vertex"],"matchScore":2,"terms":["e.e. centro sur"],"tags":{"operator:wikidata":"Q5374436","power":"transformer"},"addTags":{"operator":"E.E. Centro Sur","operator:wikidata":"Q5374436","power":"transformer"}},"power/transformer/eecotopaxi-0772ca":{"name":"E.E. Cotopaxi","locationSet":{"include":["ec"]},"geometry":["point","vertex"],"matchScore":2,"terms":["e.e. cotopaxi"],"tags":{"operator:wikidata":"Q5374436","power":"transformer"},"addTags":{"operator":"E.E. Cotopaxi","operator:wikidata":"Q5374436","power":"transformer"}},"power/transformer/eenorte-0772ca":{"name":"E.E. Norte","locationSet":{"include":["ec"]},"geometry":["point","vertex"],"matchScore":2,"terms":["e.e. norte"],"tags":{"operator:wikidata":"Q5374436","power":"transformer"},"addTags":{"operator":"E.E. Norte","operator:wikidata":"Q5374436","power":"transformer"}},"power/transformer/eequito-0772ca":{"name":"E.E. Quito","locationSet":{"include":["ec"]},"geometry":["point","vertex"],"matchScore":2,"terms":["e.e. quito"],"tags":{"operator:wikidata":"Q5374436","power":"transformer"},"addTags":{"operator":"E.E. Quito","operator:wikidata":"Q5374436","power":"transformer"}},"power/transformer/petroamazonas-0772ca":{"name":"Petroamazonas","locationSet":{"include":["ec"]},"geometry":["point","vertex"],"matchScore":2,"terms":["petroamazonas"],"tags":{"operator:wikidata":"Q16618501","power":"transformer"},"addTags":{"operator":"Petroamazonas","operator:wikidata":"Q16618501","power":"transformer"}},"public_transport/platform/bus_point/metrobusq-341cbd":{"name":"Metrobus-Q","locationSet":{"include":["ec"]},"geometry":["point","vertex"],"matchScore":2,"terms":["metrobus-q"],"reference":{"key":"public_transport","value":"platform"},"tags":{"bus":"yes","network:wikidata":"Q6012030","public_transport":"platform"},"addTags":{"bus":"yes","highway":"bus_stop","network":"Metrobus-Q","network:wikidata":"Q6012030","public_transport":"platform"}},"public_transport/platform/bus_point/metrovia-341cbd":{"name":"Metrovía","locationSet":{"include":["ec"]},"geometry":["point","vertex"],"matchScore":2,"terms":["metrovía"],"reference":{"key":"public_transport","value":"platform"},"tags":{"bus":"yes","network:wikidata":"Q6825392","public_transport":"platform"},"addTags":{"bus":"yes","highway":"bus_stop","network":"Metrovía","network:wikidata":"Q6825392","public_transport":"platform"}},"type/route/bus/metrobusq-0ee99a":{"name":"Metrobus-Q","locationSet":{"include":["ec"]},"geometry":["relation"],"matchScore":2,"terms":["metrobus-q"],"reference":{"key":"route","value":"bus"},"tags":{"network:wikidata":"Q6012030","route":"bus","type":"route"},"addTags":{"network":"Metrobus-Q","network:wikidata":"Q6012030","route":"bus","type":"route"}},"type/route/bus/metrovia-0ee99a":{"name":"Metrovía","locationSet":{"include":["ec"]},"geometry":["relation"],"matchScore":2,"terms":["metrovía"],"reference":{"key":"route","value":"bus"},"tags":{"network:wikidata":"Q6825392","route":"bus","type":"route"},"addTags":{"network":"Metrovía","network:wikidata":"Q6825392","route":"bus","type":"route"}}}