{"advertising/totem/auchan-9efa8b":{"name":"Auchan","locationSet":{"include":["al","ad","ba","hr","gi","gr","va","it","mt","me","mk","pt","sm","rs","si","es","xk","by","bg","cz","hu","pl","md","ro","ru","sk","ua","at","be","fr","de","li","lu","mc","nl","ch"]},"geometry":["point","line"],"matchScore":2,"terms":["auchan"],"tags":{"advertising":"totem","brand:wikidata":"Q758603"},"addTags":{"advertising":"totem","brand":"Auchan","brand:wikidata":"Q758603"}},"advertising/totem/tankpool24-836245":{"name":"tankpool24","locationSet":{"include":["by","bg","cz","hu","pl","md","ro","ru","sk","ua","ax","gg","je","cq","dk","ee","fo","fi","is","ie","im","lv","lt","no","sj","se","gb","al","ad","ba","hr","gi","gr","va","it","mt","me","mk","pt","sm","rs","si","es","xk","at","be","fr","de","li","lu","mc","nl","ch"]},"geometry":["point","line"],"matchScore":2,"terms":["tankpool24"],"tags":{"advertising":"totem","brand:wikidata":"Q126895471"},"addTags":{"advertising":"totem","brand":"tankpool24","brand:wikidata":"Q126895471"}},"amenity/bicycle_rental/donkeyrepublic-c32b83":{"name":"Donkey Republic","locationSet":{"include":["by","bg","cz","hu","pl","md","ro","ru","sk","ua","ax","gg","je","cq","dk","ee","fo","fi","is","ie","im","lv","lt","no","sj","se","gb","al","ad","ba","hr","gi","gr","va","it","mt","me","mk","pt","sm","rs","si","es","xk","at","be","fr","de","li","lu","mc","nl","ch"]},"geometry":["point","vertex","area"],"matchScore":2,"terms":["donkey republic"],"fields":["name","brand","{amenity/bicycle_rental}"],"tags":{"amenity":"bicycle_rental","brand:wikidata":"Q63753939"},"addTags":{"amenity":"bicycle_rental","brand":"Donkey Republic","brand:wikidata":"Q63753939","name":"Donkey Republic","operator":"Donkey Republic"}},"amenity/charging_station/ionity-b625d6":{"name":"Ionity","locationSet":{"include":["by","bg","cz","hu","pl","md","ro","ru","sk","ua","ax","gg","je","cq","dk","ee","fo","fi","is","ie","im","lv","lt","no","sj","se","gb","al","ad","ba","hr","gi","gr","va","it","mt","me","mk","pt","sm","rs","si","es","xk","at","be","fr","de","li","lu","mc","nl","ch"]},"geometry":["point","vertex","area"],"matchScore":2,"terms":["ionity","ionity gmbh"],"fields":["name","brand","{amenity/charging_station}"],"tags":{"amenity":"charging_station","brand:wikidata":"Q42717773"},"addTags":{"amenity":"charging_station","brand":"Ionity","brand:wikidata":"Q42717773"}},"amenity/fast_food/pitaya-9eb450":{"name":"Pitaya","locationSet":{"include":["ad","ae","es","fx","gb","it","tn"]},"geometry":["point","area"],"matchScore":2,"terms":["pitaya"],"tags":{"amenity":"fast_food","brand:wikidata":"Q114970230"},"addTags":{"amenity":"fast_food","brand":"Pitaya","brand:wikidata":"Q114970230","cuisine":"thai","delivery":"yes","name":"Pitaya","takeaway":"yes"}},"amenity/fuel/auchan-fcb99f":{"name":"Auchan","locationSet":{"include":["al","ad","ba","hr","gi","gr","va","it","mt","me","mk","pt","sm","rs","si","es","xk","by","bg","cz","hu","pl","md","ro","ru","sk","ua","at","be","fr","de","li","lu","mc","nl","ch"]},"geometry":["point","area"],"matchScore":2,"terms":["auchan"],"fields":["name","brand","{amenity/fuel}"],"tags":{"amenity":"fuel","brand:wikidata":"Q758603"},"addTags":{"amenity":"fuel","brand":"Auchan","brand:wikidata":"Q758603","name":"Auchan"}},"amenity/fuel/tankpool24-0c8e6e":{"name":"tankpool24","locationSet":{"include":["by","bg","cz","hu","pl","md","ro","ru","sk","ua","ax","gg","je","cq","dk","ee","fo","fi","is","ie","im","lv","lt","no","sj","se","gb","al","ad","ba","hr","gi","gr","va","it","mt","me","mk","pt","sm","rs","si","es","xk","at","be","fr","de","li","lu","mc","nl","ch"]},"geometry":["point","area"],"matchScore":2,"terms":["tankpool24"],"fields":["name","brand","{amenity/fuel}"],"tags":{"amenity":"fuel","brand:wikidata":"Q126895471"},"addTags":{"amenity":"fuel","brand":"tankpool24","brand:wikidata":"Q126895471","name":"tankpool24"}},"amenity/ice_cream/jijonenca-f20d3f":{"name":"Jijonenca","locationSet":{"include":["ad","es"]},"geometry":["point","area"],"matchScore":2,"terms":["heladería jijonenca","jijonenca","la jijonenca","la xixonenca","xixonenca"],"tags":{"amenity":"ice_cream","brand:wikidata":"Q109332228"},"addTags":{"amenity":"ice_cream","brand":"Jijonenca","brand:wikidata":"Q109332228","name":"Jijonenca"}},"amenity/parcel_locker/zbox-5a86e9":{"name":"Packeta","locationSet":{"include":["by","bg","cz","hu","pl","md","ro","ru","sk","ua","ax","gg","je","cq","dk","ee","fo","fi","is","ie","im","lv","lt","no","sj","se","gb","al","ad","ba","hr","gi","gr","va","it","mt","me","mk","pt","sm","rs","si","es","xk","at","be","fr","de","li","lu","mc","nl","ch"]},"geometry":["point","vertex","area"],"matchScore":2,"terms":["packeta"],"fields":["name","brand","{amenity/parcel_locker}"],"reference":{"key":"amenity","value":"parcel_locker"},"tags":{"amenity":"parcel_locker","brand:wikidata":"Q67809905"},"addTags":{"amenity":"parcel_locker","brand":"Packeta","brand:wikidata":"Q67809905","name":"Z-Box"}},"amenity/social_centre/ahepahall-30ca27":{"name":"AHEPA Hall","locationSet":{"include":["by","bg","cz","hu","pl","md","ro","ru","sk","ua","ax","gg","je","cq","dk","ee","fo","fi","is","ie","im","lv","lt","no","sj","se","gb","al","ad","ba","hr","gi","gr","va","it","mt","me","mk","pt","sm","rs","si","es","xk","at","be","fr","de","li","lu","mc","nl","ch","au","ca","cy","us"],"exclude":["ru"]},"geometry":["point","area"],"matchScore":2,"terms":["ahepa","american hellenic educational progressive association","the order of ahepa"],"fields":["name","brand","{amenity/social_centre}"],"tags":{"amenity":"social_centre","brand:wikidata":"Q4743973"},"addTags":{"amenity":"social_centre","brand":"AHEPA","brand:wikidata":"Q4743973","name":"AHEPA Hall"}},"amenity/vending_machine/bicycle_tube/continental-123edb":{"name":"Continental","locationSet":{"include":["by","bg","cz","hu","pl","md","ro","ru","sk","ua","ax","gg","je","cq","dk","ee","fo","fi","is","ie","im","lv","lt","no","sj","se","gb","al","ad","ba","hr","gi","gr","va","it","mt","me","mk","pt","sm","rs","si","es","xk","at","be","fr","de","li","lu","mc","nl","ch"]},"geometry":["point","vertex"],"matchScore":2,"terms":["continental"],"reference":{"key":"vending","value":"bicycle_tube"},"tags":{"amenity":"vending_machine","brand:wikidata":"Q64739247","vending":"bicycle_tube"},"addTags":{"amenity":"vending_machine","brand":"Continental","brand:wikidata":"Q64739247","vending":"bicycle_tube"}},"amenity/vending_machine/bicycle_tube/schwalbe-123edb":{"name":"Schwalbe","locationSet":{"include":["by","bg","cz","hu","pl","md","ro","ru","sk","ua","ax","gg","je","cq","dk","ee","fo","fi","is","ie","im","lv","lt","no","sj","se","gb","al","ad","ba","hr","gi","gr","va","it","mt","me","mk","pt","sm","rs","si","es","xk","at","be","fr","de","li","lu","mc","nl","ch"]},"geometry":["point","vertex"],"matchScore":2,"terms":["schwalbe"],"reference":{"key":"vending","value":"bicycle_tube"},"tags":{"amenity":"vending_machine","brand:wikidata":"Q1312213","vending":"bicycle_tube"},"addTags":{"amenity":"vending_machine","brand":"Schwalbe","brand:wikidata":"Q1312213","vending":"bicycle_tube"}},"leisure/fitness_centre/fitinn-48d938":{"name":"FITINN","locationSet":{"include":["by","bg","cz","hu","pl","md","ro","ru","sk","ua","ax","gg","je","cq","dk","ee","fo","fi","is","ie","im","lv","lt","no","sj","se","gb","al","ad","ba","hr","gi","gr","va","it","mt","me","mk","pt","sm","rs","si","es","xk","at","be","fr","de","li","lu","mc","nl","ch"]},"geometry":["point","area"],"matchScore":2,"terms":["fitinn"],"tags":{"brand:wikidata":"Q1245564","leisure":"fitness_centre"},"addTags":{"brand":"FITINN","brand:wikidata":"Q1245564","leisure":"fitness_centre","name":"FITINN"}},"leisure/fitness_centre/holmesplace-901199":{"name":"Holmes Place","locationSet":{"include":["by","bg","cz","hu","pl","md","ro","ru","sk","ua","ax","gg","je","cq","dk","ee","fo","fi","is","ie","im","lv","lt","no","sj","se","gb","al","ad","ba","hr","gi","gr","va","it","mt","me","mk","pt","sm","rs","si","es","xk","at","be","fr","de","li","lu","mc","nl","ch","il"]},"geometry":["point","area"],"matchScore":2,"terms":["holmes place"],"tags":{"brand:wikidata":"Q15815819","leisure":"fitness_centre"},"addTags":{"brand":"Holmes Place","brand:wikidata":"Q15815819","leisure":"fitness_centre","name":"Holmes Place"}},"man_made/charge_point/ionity-97d83d":{"name":"Ionity","locationSet":{"include":["by","bg","cz","hu","pl","md","ro","ru","sk","ua","ax","gg","je","cq","dk","ee","fo","fi","is","ie","im","lv","lt","no","sj","se","gb","al","ad","ba","hr","gi","gr","va","it","mt","me","mk","pt","sm","rs","si","es","xk","at","be","fr","de","li","lu","mc","nl","ch"]},"geometry":["point"],"matchScore":2,"terms":["ionity","ionity gmbh"],"fields":["name","brand","{man_made/charge_point}"],"tags":{"brand:wikidata":"Q42717773","man_made":"charge_point"},"addTags":{"brand":"Ionity","brand:wikidata":"Q42717773","man_made":"charge_point"}},"office/consulting/ecovis-10b2fd":{"name":"Ecovis International","locationSet":{"include":["by","bg","cz","hu","pl","md","ro","ru","sk","ua","ax","gg","je","cq","dk","ee","fo","fi","is","ie","im","lv","lt","no","sj","se","gb","al","ad","ba","hr","gi","gr","va","it","mt","me","mk","pt","sm","rs","si","es","xk","at","be","fr","de","li","lu","mc","nl","ch","tr"]},"geometry":["point","area"],"matchScore":2,"terms":["ecovis international"],"tags":{"brand:wikidata":"Q65509562","office":"consulting"},"addTags":{"brand":"Ecovis International","brand:wikidata":"Q65509562","name":"Ecovis","office":"consulting"}},"office/employment_agency/randstad-f7dc26":{"name":"Randstad","locationSet":{"include":["ad","at","au","be","ca","ch","cn","cz","de","dk","es","fr","gb","gr","hk","hu","ie","in","it","jp","lu","mc","mx","my","nl","no","nz","pl","pt","ro","se","sg","sy","tk","us"]},"geometry":["point","area"],"matchScore":2,"terms":["randstad"],"tags":{"brand:wikidata":"Q267840","office":"employment_agency"},"addTags":{"brand":"Randstad","brand:wikidata":"Q267840","name":"Randstad","office":"employment_agency"}},"office/estate_agent/vonpollrealestate-c99072":{"name":"von Poll Real Estate","locationSet":{"include":["by","bg","cz","hu","pl","md","ro","ru","sk","ua","ax","gg","je","cq","dk","ee","fo","fi","is","ie","im","lv","lt","no","sj","se","gb","al","ad","ba","hr","gi","gr","va","it","mt","me","mk","pt","sm","rs","si","es","xk","at","be","fr","de","li","lu","mc","nl","ch"],"exclude":["at","de"]},"geometry":["point","area"],"matchScore":2,"terms":["von poll immobilien","von poll real estate","vonpoll","vonpoll commercial"],"tags":{"brand:wikidata":"Q96026696","office":"estate_agent"},"addTags":{"brand":"von Poll Real Estate","brand:wikidata":"Q96026696","name":"von Poll Real Estate","office":"estate_agent"}},"office/insurance/nn-336e34":{"name":"NN","locationSet":{"include":["by","bg","cz","hu","pl","md","ro","ru","sk","ua","ax","gg","je","cq","dk","ee","fo","fi","is","ie","im","lv","lt","no","sj","se","gb","al","ad","ba","hr","gi","gr","va","it","mt","me","mk","pt","sm","rs","si","es","xk","at","be","fr","de","li","lu","mc","nl","ch"]},"geometry":["point","area"],"matchScore":2,"terms":["nationale-nederlanden","nn"],"fields":["name","brand","{office/insurance}"],"tags":{"brand:wikidata":"Q1834291","office":"insurance"},"addTags":{"brand":"NN","brand:wikidata":"Q1834291","name":"NN","office":"insurance","official_name":"Nationale-Nederlanden"}},"shop/bakery/santagloria-61d4aa":{"name":"Santagloria","locationSet":{"include":["ad","es"]},"geometry":["point","area"],"matchScore":2,"terms":["santagloria"],"tags":{"brand:wikidata":"Q54606497","shop":"bakery"},"addTags":{"amenity":"cafe","brand":"Santagloria","brand:wikidata":"Q54606497","name":"Santagloria","shop":"bakery"}},"shop/car/smart-b77732":{"name":"Smart","locationSet":{"include":["by","bg","cz","hu","pl","md","ro","ru","sk","ua","ax","gg","je","cq","dk","ee","fo","fi","is","ie","im","lv","lt","no","sj","se","gb","al","ad","ba","hr","gi","gr","va","it","mt","me","mk","pt","sm","rs","si","es","xk","at","be","fr","de","li","lu","mc","nl","ch","cn"]},"geometry":["point","area"],"matchScore":2,"terms":["smart"],"fields":["name","brand","{shop/car}"],"tags":{"brand:wikidata":"Q156490","shop":"car"},"addTags":{"brand":"Smart","brand:wikidata":"Q156490","name":"Smart","shop":"car"}},"shop/car_repair/smart-102ff2":{"name":"Smart","locationSet":{"include":["by","bg","cz","hu","pl","md","ro","ru","sk","ua","ax","gg","je","cq","dk","ee","fo","fi","is","ie","im","lv","lt","no","sj","se","gb","al","ad","ba","hr","gi","gr","va","it","mt","me","mk","pt","sm","rs","si","es","xk","at","be","fr","de","li","lu","mc","nl","ch","cn"]},"geometry":["point","area"],"matchScore":2,"terms":["smart"],"fields":["name","brand","{shop/car_repair}"],"tags":{"brand:wikidata":"Q156490","shop":"car_repair"},"addTags":{"brand":"Smart","brand:wikidata":"Q156490","name":"Smart","shop":"car_repair"}},"shop/clothes/classicallblacks-b391de":{"name":"Classic All Blacks","locationSet":{"include":["ad","be","fr"]},"geometry":["point","area"],"matchScore":2,"terms":["classic all blacks"],"tags":{"brand:wikidata":"Q102047517","shop":"clothes"},"addTags":{"brand":"Classic All Blacks","brand:wikidata":"Q102047517","name":"Classic All Blacks","shop":"clothes"}},"shop/clothes/maje-ab7b56":{"name":"Maje","locationSet":{"include":["by","bg","cz","hu","pl","md","ro","ru","sk","ua","ax","gg","je","cq","dk","ee","fo","fi","is","ie","im","lv","lt","no","sj","se","gb","al","ad","ba","hr","gi","gr","va","it","mt","me","mk","pt","sm","rs","si","es","xk","at","be","fr","de","li","lu","mc","nl","ch","cn","sg","tw","us"]},"geometry":["point","area"],"matchScore":2,"terms":["maje"],"tags":{"brand:wikidata":"Q3280458","shop":"clothes"},"addTags":{"brand":"Maje","brand:wikidata":"Q3280458","clothes":"women","name":"Maje","shop":"clothes"}},"shop/clothes/soliver-fb408e":{"name":"s.Oliver","locationSet":{"include":["by","bg","cz","hu","pl","md","ro","ru","sk","ua","ax","gg","je","cq","dk","ee","fo","fi","is","ie","im","lv","lt","no","sj","se","gb","al","ad","ba","hr","gi","gr","va","it","mt","me","mk","pt","sm","rs","si","es","xk","at","be","fr","de","li","lu","mc","nl","ch","cn","in"]},"geometry":["point","area"],"matchScore":2,"terms":["s.oliver"],"tags":{"brand:wikidata":"Q265056","shop":"clothes"},"addTags":{"brand":"s.Oliver","brand:wikidata":"Q265056","name":"s.Oliver","shop":"clothes"}},"shop/clothes/weekday-b5590c":{"name":"Weekday","locationSet":{"include":["by","bg","cz","hu","pl","md","ro","ru","sk","ua","ax","gg","je","cq","dk","ee","fo","fi","is","ie","im","lv","lt","no","sj","se","gb","al","ad","ba","hr","gi","gr","va","it","mt","me","mk","pt","sm","rs","si","es","xk","at","be","fr","de","li","lu","mc","nl","ch"]},"geometry":["point","area"],"matchScore":2,"terms":["weekday"],"tags":{"brand:wikidata":"Q10719514","shop":"clothes"},"addTags":{"brand":"Weekday","brand:wikidata":"Q10719514","name":"Weekday","shop":"clothes"}},"shop/convenience/viva-856fe1":{"name":"Viva","locationSet":{"include":["by","bg","cz","hu","pl","md","ro","ru","sk","ua","ax","gg","je","cq","dk","ee","fo","fi","is","ie","im","lv","lt","no","sj","se","gb","al","ad","ba","hr","gi","gr","va","it","mt","me","mk","pt","sm","rs","si","es","xk","at","be","fr","de","li","lu","mc","nl","ch"]},"geometry":["point","area"],"matchScore":2,"terms":["viva"],"tags":{"brand:wikidata":"Q168238","shop":"convenience"},"addTags":{"brand":"Viva","brand:wikidata":"Q168238","name":"Viva","shop":"convenience"}},"shop/cosmetics/primor-16394a":{"name":"Primor","locationSet":{"include":["ad","es","pt"]},"geometry":["point","area"],"matchScore":2,"terms":["primor"],"tags":{"brand:wikidata":"Q101113141","shop":"cosmetics"},"addTags":{"brand":"Primor","brand:wikidata":"Q101113141","name":"Primor","shop":"cosmetics"}},"shop/department_store/printemps-b3d693":{"name":"Printemps","locationSet":{"include":["ad","cn","fr","jp","sa"]},"geometry":["point","area"],"matchScore":2,"terms":["printemps"],"tags":{"brand:wikidata":"Q1535260","shop":"department_store"},"addTags":{"brand":"Printemps","brand:wikidata":"Q1535260","name":"Printemps","shop":"department_store"}},"shop/electronics/fnac-8dde8e":{"name":"Fnac","locationSet":{"include":["ad","be","ch","es","fr","mc","pt"]},"geometry":["point","area"],"matchScore":2,"terms":["fnac"],"tags":{"brand:wikidata":"Q676585","shop":"electronics"},"addTags":{"brand":"Fnac","brand:wikidata":"Q676585","name":"Fnac","shop":"electronics"}},"shop/furniture/bolia-a18722":{"name":"Bolia","locationSet":{"include":["by","bg","cz","hu","pl","md","ro","ru","sk","ua","ax","gg","je","cq","dk","ee","fo","fi","is","ie","im","lv","lt","no","sj","se","gb","al","ad","ba","hr","gi","gr","va","it","mt","me","mk","pt","sm","rs","si","es","xk","at","be","fr","de","li","lu","mc","nl","ch"]},"geometry":["point","area"],"matchScore":2,"terms":["bolia"],"tags":{"brand:wikidata":"Q11961809","shop":"furniture"},"addTags":{"brand":"Bolia","brand:wikidata":"Q11961809","name":"Bolia","shop":"furniture"}},"shop/furniture/momax-a18722":{"name":"Mömax","locationSet":{"include":["by","bg","cz","hu","pl","md","ro","ru","sk","ua","ax","gg","je","cq","dk","ee","fo","fi","is","ie","im","lv","lt","no","sj","se","gb","al","ad","ba","hr","gi","gr","va","it","mt","me","mk","pt","sm","rs","si","es","xk","at","be","fr","de","li","lu","mc","nl","ch"]},"geometry":["point","area"],"matchScore":2,"terms":["mömax"],"tags":{"brand:wikidata":"Q56388481","shop":"furniture"},"addTags":{"brand":"Mömax","brand:wikidata":"Q56388481","name":"Mömax","shop":"furniture"}},"shop/furniture/xxxlutz-5acc6e":{"name":"XXXLutz","locationSet":{"include":["by","bg","cz","hu","pl","md","ro","ru","sk","ua","ax","gg","je","cq","dk","ee","fo","fi","is","ie","im","lv","lt","no","sj","se","gb","al","ad","ba","hr","gi","gr","va","it","mt","me","mk","pt","sm","rs","si","es","xk","at","be","fr","de","li","lu","mc","nl","ch"],"exclude":["bg"]},"geometry":["point","area"],"matchScore":2,"terms":["xxxlutz"],"tags":{"brand:wikidata":"Q70339467","shop":"furniture"},"addTags":{"brand":"XXXLutz","brand:wikidata":"Q70339467","name":"XXXLutz","shop":"furniture"}},"shop/gift/natura-8abdd6":{"name":"Natura","locationSet":{"include":["ad","es","it","pt"]},"geometry":["point","area"],"matchScore":2,"terms":["natura"],"tags":{"brand:wikidata":"Q123564924","shop":"gift"},"addTags":{"brand":"Natura","brand:wikidata":"Q123564924","name":"Natura","shop":"gift"}},"shop/perfumery/douglas-4ed3c9":{"name":"Douglas","locationSet":{"include":["ad","at","be","bg","ch","cz","de","ee","es","hr","hu","it","lt","lv","nl","pl","pt","ro","si","sk"]},"geometry":["point","area"],"matchScore":2,"terms":["douglas"],"tags":{"brand:wikidata":"Q2052213","shop":"perfumery"},"addTags":{"brand":"Douglas","brand:wikidata":"Q2052213","name":"Douglas","shop":"perfumery"}},"shop/perfumery/equivalenza-59ad61":{"name":"Equivalenza","locationSet":{"include":["ad","ao","at","be","ca","cv","de","do","es","fr","gb","gr","gt","ie","it","mx","mz","nl","pe","pt","ro","tn"]},"geometry":["point","area"],"matchScore":2,"terms":["equivalenza"],"tags":{"brand:wikidata":"Q104649798","shop":"perfumery"},"addTags":{"brand":"Equivalenza","brand:wikidata":"Q104649798","name":"Equivalenza","shop":"perfumery"}},"shop/stationery/carlin-fac120":{"name":"Carlin","locationSet":{"include":["ad","es","fr","gq","mx","pt"]},"geometry":["point","area"],"matchScore":2,"terms":["carlin"],"tags":{"brand:wikidata":"Q99762985","shop":"stationery"},"addTags":{"brand":"Carlin","brand:wikidata":"Q99762985","name":"Carlin","shop":"stationery"}},"shop/supermarket/bonarea-774072":{"name":"BonÀrea","locationSet":{"include":["ad","es"]},"geometry":["point","area"],"matchScore":2,"terms":["bonàrea"],"tags":{"brand:wikidata":"Q11924743","shop":"supermarket"},"addTags":{"brand":"BonÀrea","brand:wikidata":"Q11924743","name":"BonÀrea","shop":"supermarket"}},"shop/supermarket/caprabo-774072":{"name":"Caprabo","locationSet":{"include":["ad","es"]},"geometry":["point","area"],"matchScore":2,"terms":["caprabo"],"tags":{"brand:wikidata":"Q1980781","shop":"supermarket"},"addTags":{"brand":"Caprabo","brand:wikidata":"Q1980781","name":"Caprabo","shop":"supermarket"}},"shop/supermarket/eurospar-4b5e11":{"name":"Eurospar","locationSet":{"include":["by","bg","cz","hu","pl","md","ro","ru","sk","ua","ax","gg","je","cq","dk","ee","fo","fi","is","ie","im","lv","lt","no","sj","se","gb","al","ad","ba","hr","gi","gr","va","it","mt","me","mk","pt","sm","rs","si","es","xk","at","be","fr","de","li","lu","mc","nl","ch"]},"geometry":["point","area"],"matchScore":2,"terms":["eurospar"],"tags":{"brand:wikidata":"Q12309283","shop":"supermarket"},"addTags":{"brand":"Eurospar","brand:wikidata":"Q12309283","name":"Eurospar","shop":"supermarket"}},"shop/supermarket/monoprix-2a24ce":{"name":"Monoprix (France)","locationSet":{"include":["ad","fr"]},"geometry":["point","area"],"matchScore":2,"terms":["monoprix"],"tags":{"brand:wikidata":"Q3321241","shop":"supermarket"},"addTags":{"brand":"Monoprix","brand:wikidata":"Q3321241","name":"Monoprix","shop":"supermarket"}},"shop/supermarket/plusfresc-774072":{"name":"Plusfresc","locationSet":{"include":["ad","es"]},"geometry":["point","area"],"matchScore":2,"terms":["plusfresc"],"tags":{"brand:wikidata":"Q111373081","shop":"supermarket"},"addTags":{"brand":"Plusfresc","brand:wikidata":"Q111373081","name":"Plusfresc","shop":"supermarket"}},"shop/tattoo/veantattoo-eea007":{"name":"VeAn Tattoo","locationSet":{"include":["by","bg","cz","hu","pl","md","ro","ru","sk","ua","ax","gg","je","cq","dk","ee","fo","fi","is","ie","im","lv","lt","no","sj","se","gb","al","ad","ba","hr","gi","gr","va","it","mt","me","mk","pt","sm","rs","si","es","xk","at","be","fr","de","li","lu","mc","nl","ch"]},"geometry":["point","area"],"matchScore":2,"terms":["vean tattoo"],"tags":{"brand:wikidata":"Q116871240","shop":"tattoo"},"addTags":{"brand":"VeAn Tattoo","brand:wikidata":"Q116871240","name":"VeAn Tattoo","shop":"tattoo"}},"shop/toys/joueclub-913d0c":{"name":"JouéClub","locationSet":{"include":["ad","fr","it","lb","ma","qa"]},"geometry":["point","area"],"matchScore":2,"terms":["jouéclub"],"tags":{"brand:wikidata":"Q3187152","shop":"toys"},"addTags":{"brand":"JouéClub","brand:wikidata":"Q3187152","name":"JouéClub","shop":"toys"}},"tourism/hotel/bandbhotel-fc8c2c":{"name":"B&B Hotel","locationSet":{"include":["by","bg","cz","hu","pl","md","ro","ru","sk","ua","ax","gg","je","cq","dk","ee","fo","fi","is","ie","im","lv","lt","no","sj","se","gb","al","ad","ba","hr","gi","gr","va","it","mt","me","mk","pt","sm","rs","si","es","xk","at","be","fr","de","li","lu","mc","nl","ch","br"]},"geometry":["point","area"],"matchScore":2,"terms":["b&b hotels"],"fields":["name","brand","{tourism/hotel}"],"tags":{"brand:wikidata":"Q794939","tourism":"hotel"},"addTags":{"brand":"B&B Hotels","brand:wikidata":"Q794939","name":"B&B Hotel","tourism":"hotel"}},"tourism/hotel/eurostars-4dcf5e":{"name":"Eurostars","locationSet":{"include":["ad","at","bg","co","cz","de","es","hu","it","me","mx","pt","si","us"]},"geometry":["point","area"],"matchScore":2,"terms":["eurostars hotel company","eurostars hotels"],"fields":["name","brand","{tourism/hotel}"],"tags":{"brand:wikidata":"Q8846494","tourism":"hotel"},"addTags":{"brand":"Eurostars Hotel Company","brand:wikidata":"Q8846494","name":"Eurostars","tourism":"hotel"}},"tourism/hotel/exe-312633":{"name":"Exe Hotels","locationSet":{"include":["ad","ar","at","co","cz","es","fr","hu","it","mx","pa","pt","si"]},"geometry":["point","area"],"matchScore":2,"terms":["exe hotels"],"fields":["name","brand","{tourism/hotel}"],"tags":{"brand:wikidata":"Q30880716","tourism":"hotel"},"addTags":{"brand":"Exe Hotels","brand:wikidata":"Q30880716","name":"Exe","tourism":"hotel"}},"tourism/hotel/greet-046fe6":{"name":"greet","locationSet":{"include":["by","bg","cz","hu","pl","md","ro","ru","sk","ua","ax","gg","je","cq","dk","ee","fo","fi","is","ie","im","lv","lt","no","sj","se","gb","al","ad","ba","hr","gi","gr","va","it","mt","me","mk","pt","sm","rs","si","es","xk","at","be","fr","de","li","lu","mc","nl","ch"]},"geometry":["point","area"],"matchScore":2,"terms":["greet"],"fields":["name","brand","{tourism/hotel}"],"tags":{"brand:wikidata":"Q115489066","tourism":"hotel"},"addTags":{"brand":"greet","brand:wikidata":"Q115489066","name":"Greet","tourism":"hotel"}},"tourism/hotel/logishotels-a67635":{"name":"Logis Hotels","locationSet":{"include":["ad","be","ca","de","es","fr","it","lu"]},"geometry":["point","area"],"matchScore":2,"terms":["logis","logis hotels"],"fields":["name","brand","{tourism/hotel}"],"tags":{"brand:wikidata":"Q125959917","tourism":"hotel"},"addTags":{"brand":"Logis Hotels","brand:wikidata":"Q125959917","name":"Logis Hotels","tourism":"hotel"}},"tourism/hotel/motelone-1fc1b4":{"name":"Motel One","locationSet":{"include":["by","bg","cz","hu","pl","md","ro","ru","sk","ua","ax","gg","je","cq","dk","ee","fo","fi","is","ie","im","lv","lt","no","sj","se","gb","al","ad","ba","hr","gi","gr","va","it","mt","me","mk","pt","sm","rs","si","es","xk","at","be","fr","de","li","lu","mc","nl","ch","us-ny"]},"geometry":["point","area"],"matchScore":2,"terms":["motel one"],"fields":["name","brand","{tourism/hotel}"],"tags":{"brand:wikidata":"Q391080","tourism":"hotel"},"addTags":{"brand":"Motel One","brand:wikidata":"Q391080","name":"Motel One","tourism":"hotel"}},"tourism/hotel/nhcollectionhotels-f05c75":{"name":"NH Collection Hotels","locationSet":{"include":["ad","ar","at","be","cl","co","cu","cz","de","dk","ec","es","fr","hu","it","mx","nl","pt","qa","us-ny"]},"geometry":["point","area"],"matchScore":2,"terms":["nh collection hotels"],"fields":["name","brand","{tourism/hotel}"],"tags":{"brand:wikidata":"Q1604631","tourism":"hotel"},"addTags":{"brand":"NH Collection Hotels","brand:wikidata":"Q1604631","name":"NH Collection Hotels","tourism":"hotel"}},"tourism/hotel/nhhotel-e9b4fb":{"name":"NH Hotels","locationSet":{"include":["ad","ar","at","be","br","ch","cl","co","cu","cz","de","es","fr","hu","it","lu","mx","nl","pl","pt"]},"geometry":["point","area"],"matchScore":2,"terms":["nh hotels"],"fields":["name","brand","{tourism/hotel}"],"tags":{"brand:wikidata":"Q1604631","tourism":"hotel"},"addTags":{"brand":"NH Hotels","brand:wikidata":"Q1604631","name":"NH Hotel","tourism":"hotel"}},"amenity/charging_station/eon-7f623e":{"name":"E.ON","locationSet":{"include":["by","bg","cz","hu","pl","md","ro","ru","sk","ua","ax","gg","je","cq","dk","ee","fo","fi","is","ie","im","lv","lt","no","sj","se","gb","al","ad","ba","hr","gi","gr","va","it","mt","me","mk","pt","sm","rs","si","es","xk","at","be","fr","de","li","lu","mc","nl","ch"]},"geometry":["point","vertex","area"],"matchScore":2,"terms":["e-on drive","e.on"],"fields":["name","operator","{amenity/charging_station}"],"tags":{"amenity":"charging_station","operator:wikidata":"Q270223"},"addTags":{"amenity":"charging_station","operator":"E.ON","operator:wikidata":"Q270223"}},"amenity/charging_station/evbox-7f623e":{"name":"EVBox","locationSet":{"include":["by","bg","cz","hu","pl","md","ro","ru","sk","ua","ax","gg","je","cq","dk","ee","fo","fi","is","ie","im","lv","lt","no","sj","se","gb","al","ad","ba","hr","gi","gr","va","it","mt","me","mk","pt","sm","rs","si","es","xk","at","be","fr","de","li","lu","mc","nl","ch"]},"geometry":["point","vertex","area"],"matchScore":2,"terms":["evbox"],"fields":["name","operator","{amenity/charging_station}"],"tags":{"amenity":"charging_station","operator:wikidata":"Q28406392"},"addTags":{"amenity":"charging_station","operator":"EVBox","operator:wikidata":"Q28406392"}},"amenity/charging_station/qpark-7f623e":{"name":"Q-Park","locationSet":{"include":["by","bg","cz","hu","pl","md","ro","ru","sk","ua","ax","gg","je","cq","dk","ee","fo","fi","is","ie","im","lv","lt","no","sj","se","gb","al","ad","ba","hr","gi","gr","va","it","mt","me","mk","pt","sm","rs","si","es","xk","at","be","fr","de","li","lu","mc","nl","ch"]},"geometry":["point","vertex","area"],"matchScore":2,"terms":["q-park"],"fields":["name","operator","{amenity/charging_station}"],"tags":{"amenity":"charging_station","operator:wikidata":"Q1127798"},"addTags":{"amenity":"charging_station","operator":"Q-Park","operator:wikidata":"Q1127798"}},"amenity/post_box/mrw-f1512b":{"name":"MRW","locationSet":{"include":["ad","es","gi","pt","ve"]},"geometry":["point","vertex"],"matchScore":2,"terms":["mrw"],"tags":{"amenity":"post_box","operator:wikidata":"Q23767821"},"addTags":{"amenity":"post_box","operator":"MRW","operator:wikidata":"Q23767821"}},"amenity/post_depot/mrw-71d94f":{"name":"MRW","locationSet":{"include":["ad","es","gi","pt","ve"]},"geometry":["point","area"],"matchScore":2,"terms":["mrw"],"fields":["name","operator","{amenity/post_depot}"],"tags":{"amenity":"post_depot","operator:wikidata":"Q23767821"},"addTags":{"amenity":"post_depot","operator":"MRW","operator:wikidata":"Q23767821"}},"amenity/post_office/mrw-0a445b":{"name":"MRW","locationSet":{"include":["ad","es","gi","pt","ve"]},"geometry":["point","area"],"matchScore":2,"terms":["mrw"],"fields":["name","operator","{amenity/post_office}"],"tags":{"amenity":"post_office","operator:wikidata":"Q23767821"},"addTags":{"amenity":"post_office","operator":"MRW","operator:wikidata":"Q23767821"}},"amenity/recycling/remondis-222d99":{"name":"REMONDIS","locationSet":{"include":["by","bg","cz","hu","pl","md","ro","ru","sk","ua","ax","gg","je","cq","dk","ee","fo","fi","is","ie","im","lv","lt","no","sj","se","gb","al","ad","ba","hr","gi","gr","va","it","mt","me","mk","pt","sm","rs","si","es","xk","at","be","fr","de","li","lu","mc","nl","ch"]},"geometry":["point","area"],"matchScore":2,"terms":["remondis"],"tags":{"amenity":"recycling","operator:wikidata":"Q884975"},"addTags":{"amenity":"recycling","operator":"REMONDIS","operator:wikidata":"Q884975"}},"man_made/charge_point/eon-22bfb3":{"name":"E.ON","locationSet":{"include":["by","bg","cz","hu","pl","md","ro","ru","sk","ua","ax","gg","je","cq","dk","ee","fo","fi","is","ie","im","lv","lt","no","sj","se","gb","al","ad","ba","hr","gi","gr","va","it","mt","me","mk","pt","sm","rs","si","es","xk","at","be","fr","de","li","lu","mc","nl","ch"]},"geometry":["point"],"matchScore":2,"terms":["e-on drive","e.on"],"fields":["name","operator","{man_made/charge_point}"],"tags":{"man_made":"charge_point","operator:wikidata":"Q270223"},"addTags":{"man_made":"charge_point","operator":"E.ON","operator:wikidata":"Q270223"}},"man_made/charge_point/evbox-22bfb3":{"name":"EVBox","locationSet":{"include":["by","bg","cz","hu","pl","md","ro","ru","sk","ua","ax","gg","je","cq","dk","ee","fo","fi","is","ie","im","lv","lt","no","sj","se","gb","al","ad","ba","hr","gi","gr","va","it","mt","me","mk","pt","sm","rs","si","es","xk","at","be","fr","de","li","lu","mc","nl","ch"]},"geometry":["point"],"matchScore":2,"terms":["evbox"],"fields":["name","operator","{man_made/charge_point}"],"tags":{"man_made":"charge_point","operator:wikidata":"Q28406392"},"addTags":{"man_made":"charge_point","operator":"EVBox","operator:wikidata":"Q28406392"}},"man_made/charge_point/qpark-22bfb3":{"name":"Q-Park","locationSet":{"include":["by","bg","cz","hu","pl","md","ro","ru","sk","ua","ax","gg","je","cq","dk","ee","fo","fi","is","ie","im","lv","lt","no","sj","se","gb","al","ad","ba","hr","gi","gr","va","it","mt","me","mk","pt","sm","rs","si","es","xk","at","be","fr","de","li","lu","mc","nl","ch"]},"geometry":["point"],"matchScore":2,"terms":["q-park"],"fields":["name","operator","{man_made/charge_point}"],"tags":{"man_made":"charge_point","operator:wikidata":"Q1127798"},"addTags":{"man_made":"charge_point","operator":"Q-Park","operator:wikidata":"Q1127798"}},"man_made/pipeline/dalkia-55fc32":{"name":"Dalkia","locationSet":{"include":["by","bg","cz","hu","pl","md","ro","ru","sk","ua","ax","gg","je","cq","dk","ee","fo","fi","is","ie","im","lv","lt","no","sj","se","gb","al","ad","ba","hr","gi","gr","va","it","mt","me","mk","pt","sm","rs","si","es","xk","at","be","fr","de","li","lu","mc","nl","ch"]},"geometry":["line"],"matchScore":2,"terms":["dalkia"],"tags":{"man_made":"pipeline","operator:wikidata":"Q3012420"},"addTags":{"man_made":"pipeline","operator":"Dalkia","operator:wikidata":"Q3012420"}},"man_made/pipeline/rwe-55fc32":{"name":"RWE","locationSet":{"include":["by","bg","cz","hu","pl","md","ro","ru","sk","ua","ax","gg","je","cq","dk","ee","fo","fi","is","ie","im","lv","lt","no","sj","se","gb","al","ad","ba","hr","gi","gr","va","it","mt","me","mk","pt","sm","rs","si","es","xk","at","be","fr","de","li","lu","mc","nl","ch"]},"geometry":["line"],"matchScore":2,"terms":["rwe"],"tags":{"man_made":"pipeline","operator:wikidata":"Q138133"},"addTags":{"man_made":"pipeline","operator":"RWE","operator:wikidata":"Q138133"}},"man_made/pipeline/uniper-55fc32":{"name":"Uniper","locationSet":{"include":["by","bg","cz","hu","pl","md","ro","ru","sk","ua","ax","gg","je","cq","dk","ee","fo","fi","is","ie","im","lv","lt","no","sj","se","gb","al","ad","ba","hr","gi","gr","va","it","mt","me","mk","pt","sm","rs","si","es","xk","at","be","fr","de","li","lu","mc","nl","ch"]},"geometry":["line"],"matchScore":2,"terms":["uniper"],"tags":{"man_made":"pipeline","operator:wikidata":"Q19839259"},"addTags":{"man_made":"pipeline","operator":"Uniper","operator:wikidata":"Q19839259"}},"pipeline/substation/dalkia-706135":{"name":"Dalkia","locationSet":{"include":["by","bg","cz","hu","pl","md","ro","ru","sk","ua","ax","gg","je","cq","dk","ee","fo","fi","is","ie","im","lv","lt","no","sj","se","gb","al","ad","ba","hr","gi","gr","va","it","mt","me","mk","pt","sm","rs","si","es","xk","at","be","fr","de","li","lu","mc","nl","ch"]},"geometry":["area","point"],"matchScore":2,"terms":["dalkia"],"tags":{"operator:wikidata":"Q3012420","pipeline":"substation"},"addTags":{"operator":"Dalkia","operator:wikidata":"Q3012420","pipeline":"substation"}},"pipeline/substation/rwe-706135":{"name":"RWE","locationSet":{"include":["by","bg","cz","hu","pl","md","ro","ru","sk","ua","ax","gg","je","cq","dk","ee","fo","fi","is","ie","im","lv","lt","no","sj","se","gb","al","ad","ba","hr","gi","gr","va","it","mt","me","mk","pt","sm","rs","si","es","xk","at","be","fr","de","li","lu","mc","nl","ch"]},"geometry":["area","point"],"matchScore":2,"terms":["rwe"],"tags":{"operator:wikidata":"Q138133","pipeline":"substation"},"addTags":{"operator":"RWE","operator:wikidata":"Q138133","pipeline":"substation"}},"pipeline/substation/uniper-706135":{"name":"Uniper","locationSet":{"include":["by","bg","cz","hu","pl","md","ro","ru","sk","ua","ax","gg","je","cq","dk","ee","fo","fi","is","ie","im","lv","lt","no","sj","se","gb","al","ad","ba","hr","gi","gr","va","it","mt","me","mk","pt","sm","rs","si","es","xk","at","be","fr","de","li","lu","mc","nl","ch"]},"geometry":["area","point"],"matchScore":2,"terms":["uniper"],"tags":{"operator:wikidata":"Q19839259","pipeline":"substation"},"addTags":{"operator":"Uniper","operator:wikidata":"Q19839259","pipeline":"substation"}},"power/generator/innogy-16c9d0":{"name":"Innogy","locationSet":{"include":["by","bg","cz","hu","pl","md","ro","ru","sk","ua","ax","gg","je","cq","dk","ee","fo","fi","is","ie","im","lv","lt","no","sj","se","gb","al","ad","ba","hr","gi","gr","va","it","mt","me","mk","pt","sm","rs","si","es","xk","at","be","fr","de","li","lu","mc","nl","ch"]},"geometry":["point","vertex","area"],"matchScore":2,"terms":["innogy"],"tags":{"operator:wikidata":"Q2124721","power":"generator"},"addTags":{"operator":"Innogy","operator:wikidata":"Q2124721","power":"generator"}},"power/generator/rwe-16c9d0":{"name":"RWE","locationSet":{"include":["by","bg","cz","hu","pl","md","ro","ru","sk","ua","ax","gg","je","cq","dk","ee","fo","fi","is","ie","im","lv","lt","no","sj","se","gb","al","ad","ba","hr","gi","gr","va","it","mt","me","mk","pt","sm","rs","si","es","xk","at","be","fr","de","li","lu","mc","nl","ch"]},"geometry":["point","vertex","area"],"matchScore":2,"terms":["rwe"],"tags":{"operator:wikidata":"Q138133","power":"generator"},"addTags":{"operator":"RWE","operator:wikidata":"Q138133","power":"generator"}},"power/generator/statkraft-16c9d0":{"name":"Statkraft","locationSet":{"include":["by","bg","cz","hu","pl","md","ro","ru","sk","ua","ax","gg","je","cq","dk","ee","fo","fi","is","ie","im","lv","lt","no","sj","se","gb","al","ad","ba","hr","gi","gr","va","it","mt","me","mk","pt","sm","rs","si","es","xk","at","be","fr","de","li","lu","mc","nl","ch"]},"geometry":["point","vertex","area"],"matchScore":2,"terms":["statkraft"],"tags":{"operator:wikidata":"Q1681145","power":"generator"},"addTags":{"operator":"Statkraft","operator:wikidata":"Q1681145","power":"generator"}},"power/generator/uniper-16c9d0":{"name":"Uniper","locationSet":{"include":["by","bg","cz","hu","pl","md","ro","ru","sk","ua","ax","gg","je","cq","dk","ee","fo","fi","is","ie","im","lv","lt","no","sj","se","gb","al","ad","ba","hr","gi","gr","va","it","mt","me","mk","pt","sm","rs","si","es","xk","at","be","fr","de","li","lu","mc","nl","ch"]},"geometry":["point","vertex","area"],"matchScore":2,"terms":["uniper"],"tags":{"operator:wikidata":"Q19839259","power":"generator"},"addTags":{"operator":"Uniper","operator:wikidata":"Q19839259","power":"generator"}},"power/generator/vattenfall-c18b00":{"name":"Vattenfall","locationSet":{"include":["by","bg","cz","hu","pl","md","ro","ru","sk","ua","ax","gg","je","cq","dk","ee","fo","fi","is","ie","im","lv","lt","no","sj","se","gb","al","ad","ba","hr","gi","gr","va","it","mt","me","mk","pt","sm","rs","si","es","xk","at","be","fr","de","li","lu","mc","nl","ch"],"exclude":["de","gb","nl"]},"geometry":["point","vertex","area"],"matchScore":2,"terms":["vattenfall","vattenfall ab"],"tags":{"operator:wikidata":"Q157675","power":"generator"},"addTags":{"operator":"Vattenfall","operator:wikidata":"Q157675","power":"generator"}},"power/generator/wpo-16c9d0":{"name":"WPO","locationSet":{"include":["by","bg","cz","hu","pl","md","ro","ru","sk","ua","ax","gg","je","cq","dk","ee","fo","fi","is","ie","im","lv","lt","no","sj","se","gb","al","ad","ba","hr","gi","gr","va","it","mt","me","mk","pt","sm","rs","si","es","xk","at","be","fr","de","li","lu","mc","nl","ch"]},"geometry":["point","vertex","area"],"matchScore":2,"terms":["wpo"],"tags":{"operator:wikidata":"Q64755627","power":"generator"},"addTags":{"operator":"WPO","operator:wikidata":"Q64755627","power":"generator"}},"power/line/rwe-87b138":{"name":"RWE","locationSet":{"include":["by","bg","cz","hu","pl","md","ro","ru","sk","ua","ax","gg","je","cq","dk","ee","fo","fi","is","ie","im","lv","lt","no","sj","se","gb","al","ad","ba","hr","gi","gr","va","it","mt","me","mk","pt","sm","rs","si","es","xk","at","be","fr","de","li","lu","mc","nl","ch"]},"geometry":["line"],"matchScore":2,"terms":["rwe","rwe ag"],"tags":{"operator:wikidata":"Q138133","power":"line"},"addTags":{"operator":"RWE","operator:wikidata":"Q138133","power":"line"}},"power/line/statkraft-87b138":{"name":"Statkraft","locationSet":{"include":["by","bg","cz","hu","pl","md","ro","ru","sk","ua","ax","gg","je","cq","dk","ee","fo","fi","is","ie","im","lv","lt","no","sj","se","gb","al","ad","ba","hr","gi","gr","va","it","mt","me","mk","pt","sm","rs","si","es","xk","at","be","fr","de","li","lu","mc","nl","ch"]},"geometry":["line"],"matchScore":2,"terms":["statkraft"],"tags":{"operator:wikidata":"Q1681145","power":"line"},"addTags":{"operator":"Statkraft","operator:wikidata":"Q1681145","power":"line"}},"power/line/vattenfall-ccd735":{"name":"Vattenfall","locationSet":{"include":["by","bg","cz","hu","pl","md","ro","ru","sk","ua","ax","gg","je","cq","dk","ee","fo","fi","is","ie","im","lv","lt","no","sj","se","gb","al","ad","ba","hr","gi","gr","va","it","mt","me","mk","pt","sm","rs","si","es","xk","at","be","fr","de","li","lu","mc","nl","ch"],"exclude":["de"]},"geometry":["line"],"matchScore":2,"terms":["vattenfall"],"tags":{"operator:wikidata":"Q157675","power":"line"},"addTags":{"operator":"Vattenfall","operator:wikidata":"Q157675","power":"line"}},"power/minor_line/rwe-7feb9d":{"name":"RWE","locationSet":{"include":["by","bg","cz","hu","pl","md","ro","ru","sk","ua","ax","gg","je","cq","dk","ee","fo","fi","is","ie","im","lv","lt","no","sj","se","gb","al","ad","ba","hr","gi","gr","va","it","mt","me","mk","pt","sm","rs","si","es","xk","at","be","fr","de","li","lu","mc","nl","ch"]},"geometry":["line"],"matchScore":2,"terms":["rwe","rwe ag"],"tags":{"operator:wikidata":"Q138133","power":"minor_line"},"addTags":{"operator":"RWE","operator:wikidata":"Q138133","power":"minor_line"}},"power/minor_line/statkraft-7feb9d":{"name":"Statkraft","locationSet":{"include":["by","bg","cz","hu","pl","md","ro","ru","sk","ua","ax","gg","je","cq","dk","ee","fo","fi","is","ie","im","lv","lt","no","sj","se","gb","al","ad","ba","hr","gi","gr","va","it","mt","me","mk","pt","sm","rs","si","es","xk","at","be","fr","de","li","lu","mc","nl","ch"]},"geometry":["line"],"matchScore":2,"terms":["statkraft"],"tags":{"operator:wikidata":"Q1681145","power":"minor_line"},"addTags":{"operator":"Statkraft","operator:wikidata":"Q1681145","power":"minor_line"}},"power/minor_line/vattenfall-5b0667":{"name":"Vattenfall","locationSet":{"include":["by","bg","cz","hu","pl","md","ro","ru","sk","ua","ax","gg","je","cq","dk","ee","fo","fi","is","ie","im","lv","lt","no","sj","se","gb","al","ad","ba","hr","gi","gr","va","it","mt","me","mk","pt","sm","rs","si","es","xk","at","be","fr","de","li","lu","mc","nl","ch"],"exclude":["de"]},"geometry":["line"],"matchScore":2,"terms":["vattenfall"],"tags":{"operator:wikidata":"Q157675","power":"minor_line"},"addTags":{"operator":"Vattenfall","operator:wikidata":"Q157675","power":"minor_line"}},"power/plant/dalkia-fadf07":{"name":"Dalkia","locationSet":{"include":["by","bg","cz","hu","pl","md","ro","ru","sk","ua","ax","gg","je","cq","dk","ee","fo","fi","is","ie","im","lv","lt","no","sj","se","gb","al","ad","ba","hr","gi","gr","va","it","mt","me","mk","pt","sm","rs","si","es","xk","at","be","fr","de","li","lu","mc","nl","ch"]},"geometry":["area"],"matchScore":2,"terms":["dalkia"],"tags":{"operator:wikidata":"Q3012420","power":"plant"},"addTags":{"operator":"Dalkia","operator:wikidata":"Q3012420","power":"plant"}},"power/plant/rwe-fadf07":{"name":"RWE","locationSet":{"include":["by","bg","cz","hu","pl","md","ro","ru","sk","ua","ax","gg","je","cq","dk","ee","fo","fi","is","ie","im","lv","lt","no","sj","se","gb","al","ad","ba","hr","gi","gr","va","it","mt","me","mk","pt","sm","rs","si","es","xk","at","be","fr","de","li","lu","mc","nl","ch"]},"geometry":["area"],"matchScore":2,"terms":["rwe"],"tags":{"operator:wikidata":"Q138133","power":"plant"},"addTags":{"operator":"RWE","operator:wikidata":"Q138133","power":"plant"}},"power/plant/statkraft-fadf07":{"name":"Statkraft","locationSet":{"include":["by","bg","cz","hu","pl","md","ro","ru","sk","ua","ax","gg","je","cq","dk","ee","fo","fi","is","ie","im","lv","lt","no","sj","se","gb","al","ad","ba","hr","gi","gr","va","it","mt","me","mk","pt","sm","rs","si","es","xk","at","be","fr","de","li","lu","mc","nl","ch"]},"geometry":["area"],"matchScore":2,"terms":["statkraft"],"tags":{"operator:wikidata":"Q1681145","power":"plant"},"addTags":{"operator":"Statkraft","operator:wikidata":"Q1681145","power":"plant"}},"power/plant/uniper-fadf07":{"name":"Uniper","locationSet":{"include":["by","bg","cz","hu","pl","md","ro","ru","sk","ua","ax","gg","je","cq","dk","ee","fo","fi","is","ie","im","lv","lt","no","sj","se","gb","al","ad","ba","hr","gi","gr","va","it","mt","me","mk","pt","sm","rs","si","es","xk","at","be","fr","de","li","lu","mc","nl","ch"]},"geometry":["area"],"matchScore":2,"terms":["uniper"],"tags":{"operator:wikidata":"Q19839259","power":"plant"},"addTags":{"operator":"Uniper","operator:wikidata":"Q19839259","power":"plant"}},"power/plant/vattenfall-0e7ff4":{"name":"Vattenfall","locationSet":{"include":["by","bg","cz","hu","pl","md","ro","ru","sk","ua","ax","gg","je","cq","dk","ee","fo","fi","is","ie","im","lv","lt","no","sj","se","gb","al","ad","ba","hr","gi","gr","va","it","mt","me","mk","pt","sm","rs","si","es","xk","at","be","fr","de","li","lu","mc","nl","ch"],"exclude":["de"]},"geometry":["area"],"matchScore":2,"terms":["vattenfall","vattenfall ab"],"tags":{"operator:wikidata":"Q157675","power":"plant"},"addTags":{"operator":"Vattenfall","operator:wikidata":"Q157675","power":"plant"}},"power/pole/rwe-46b867":{"name":"RWE","locationSet":{"include":["by","bg","cz","hu","pl","md","ro","ru","sk","ua","ax","gg","je","cq","dk","ee","fo","fi","is","ie","im","lv","lt","no","sj","se","gb","al","ad","ba","hr","gi","gr","va","it","mt","me","mk","pt","sm","rs","si","es","xk","at","be","fr","de","li","lu","mc","nl","ch"]},"geometry":["point","vertex"],"matchScore":2,"terms":["rwe","rwe ag"],"tags":{"operator:wikidata":"Q138133","power":"pole"},"addTags":{"operator":"RWE","operator:wikidata":"Q138133","power":"pole"}},"power/pole/statkraft-46b867":{"name":"Statkraft","locationSet":{"include":["by","bg","cz","hu","pl","md","ro","ru","sk","ua","ax","gg","je","cq","dk","ee","fo","fi","is","ie","im","lv","lt","no","sj","se","gb","al","ad","ba","hr","gi","gr","va","it","mt","me","mk","pt","sm","rs","si","es","xk","at","be","fr","de","li","lu","mc","nl","ch"]},"geometry":["point","vertex"],"matchScore":2,"terms":["statkraft"],"tags":{"operator:wikidata":"Q1681145","power":"pole"},"addTags":{"operator":"Statkraft","operator:wikidata":"Q1681145","power":"pole"}},"power/pole/vattenfall-6444bc":{"name":"Vattenfall","locationSet":{"include":["by","bg","cz","hu","pl","md","ro","ru","sk","ua","ax","gg","je","cq","dk","ee","fo","fi","is","ie","im","lv","lt","no","sj","se","gb","al","ad","ba","hr","gi","gr","va","it","mt","me","mk","pt","sm","rs","si","es","xk","at","be","fr","de","li","lu","mc","nl","ch"],"exclude":["de"]},"geometry":["point","vertex"],"matchScore":2,"terms":["vattenfall"],"tags":{"operator:wikidata":"Q157675","power":"pole"},"addTags":{"operator":"Vattenfall","operator:wikidata":"Q157675","power":"pole"}},"power/substation/innogy-57e02d":{"name":"Innogy","locationSet":{"include":["by","bg","cz","hu","pl","md","ro","ru","sk","ua","ax","gg","je","cq","dk","ee","fo","fi","is","ie","im","lv","lt","no","sj","se","gb","al","ad","ba","hr","gi","gr","va","it","mt","me","mk","pt","sm","rs","si","es","xk","at","be","fr","de","li","lu","mc","nl","ch"]},"geometry":["area","point"],"matchScore":2,"terms":["innogy"],"tags":{"operator:wikidata":"Q2124721","power":"substation"},"addTags":{"operator":"Innogy","operator:wikidata":"Q2124721","power":"substation"}},"power/substation/rwe-57e02d":{"name":"RWE","locationSet":{"include":["by","bg","cz","hu","pl","md","ro","ru","sk","ua","ax","gg","je","cq","dk","ee","fo","fi","is","ie","im","lv","lt","no","sj","se","gb","al","ad","ba","hr","gi","gr","va","it","mt","me","mk","pt","sm","rs","si","es","xk","at","be","fr","de","li","lu","mc","nl","ch"]},"geometry":["area","point"],"matchScore":2,"terms":["rwe","rwe ag"],"tags":{"operator:wikidata":"Q138133","power":"substation"},"addTags":{"operator":"RWE","operator:wikidata":"Q138133","power":"substation"}},"power/substation/statkraft-57e02d":{"name":"Statkraft","locationSet":{"include":["by","bg","cz","hu","pl","md","ro","ru","sk","ua","ax","gg","je","cq","dk","ee","fo","fi","is","ie","im","lv","lt","no","sj","se","gb","al","ad","ba","hr","gi","gr","va","it","mt","me","mk","pt","sm","rs","si","es","xk","at","be","fr","de","li","lu","mc","nl","ch"]},"geometry":["area","point"],"matchScore":2,"terms":["statkraft"],"tags":{"operator:wikidata":"Q1681145","power":"substation"},"addTags":{"operator":"Statkraft","operator:wikidata":"Q1681145","power":"substation"}},"power/substation/vattenfall-7bf6b3":{"name":"Vattenfall","locationSet":{"include":["by","bg","cz","hu","pl","md","ro","ru","sk","ua","ax","gg","je","cq","dk","ee","fo","fi","is","ie","im","lv","lt","no","sj","se","gb","al","ad","ba","hr","gi","gr","va","it","mt","me","mk","pt","sm","rs","si","es","xk","at","be","fr","de","li","lu","mc","nl","ch"],"exclude":["de"]},"geometry":["area","point"],"matchScore":2,"terms":["vattenfall"],"tags":{"operator:wikidata":"Q157675","power":"substation"},"addTags":{"operator":"Vattenfall","operator:wikidata":"Q157675","power":"substation"}},"power/tower/rwe-df4479":{"name":"RWE","locationSet":{"include":["by","bg","cz","hu","pl","md","ro","ru","sk","ua","ax","gg","je","cq","dk","ee","fo","fi","is","ie","im","lv","lt","no","sj","se","gb","al","ad","ba","hr","gi","gr","va","it","mt","me","mk","pt","sm","rs","si","es","xk","at","be","fr","de","li","lu","mc","nl","ch"]},"geometry":["point","vertex"],"matchScore":2,"terms":["rwe","rwe ag"],"tags":{"operator:wikidata":"Q138133","power":"tower"},"addTags":{"operator":"RWE","operator:wikidata":"Q138133","power":"tower"}},"power/tower/statkraft-df4479":{"name":"Statkraft","locationSet":{"include":["by","bg","cz","hu","pl","md","ro","ru","sk","ua","ax","gg","je","cq","dk","ee","fo","fi","is","ie","im","lv","lt","no","sj","se","gb","al","ad","ba","hr","gi","gr","va","it","mt","me","mk","pt","sm","rs","si","es","xk","at","be","fr","de","li","lu","mc","nl","ch"]},"geometry":["point","vertex"],"matchScore":2,"terms":["statkraft"],"tags":{"operator:wikidata":"Q1681145","power":"tower"},"addTags":{"operator":"Statkraft","operator:wikidata":"Q1681145","power":"tower"}},"power/tower/vattenfall-892a1b":{"name":"Vattenfall","locationSet":{"include":["by","bg","cz","hu","pl","md","ro","ru","sk","ua","ax","gg","je","cq","dk","ee","fo","fi","is","ie","im","lv","lt","no","sj","se","gb","al","ad","ba","hr","gi","gr","va","it","mt","me","mk","pt","sm","rs","si","es","xk","at","be","fr","de","li","lu","mc","nl","ch"],"exclude":["de"]},"geometry":["point","vertex"],"matchScore":2,"terms":["vattenfall"],"tags":{"operator:wikidata":"Q157675","power":"tower"},"addTags":{"operator":"Vattenfall","operator:wikidata":"Q157675","power":"tower"}},"power/transformer/innogy-8c57c6":{"name":"Innogy","locationSet":{"include":["by","bg","cz","hu","pl","md","ro","ru","sk","ua","ax","gg","je","cq","dk","ee","fo","fi","is","ie","im","lv","lt","no","sj","se","gb","al","ad","ba","hr","gi","gr","va","it","mt","me","mk","pt","sm","rs","si","es","xk","at","be","fr","de","li","lu","mc","nl","ch"]},"geometry":["point","vertex"],"matchScore":2,"terms":["innogy"],"tags":{"operator:wikidata":"Q2124721","power":"transformer"},"addTags":{"operator":"Innogy","operator:wikidata":"Q2124721","power":"transformer"}},"power/transformer/rwe-8c57c6":{"name":"RWE","locationSet":{"include":["by","bg","cz","hu","pl","md","ro","ru","sk","ua","ax","gg","je","cq","dk","ee","fo","fi","is","ie","im","lv","lt","no","sj","se","gb","al","ad","ba","hr","gi","gr","va","it","mt","me","mk","pt","sm","rs","si","es","xk","at","be","fr","de","li","lu","mc","nl","ch"]},"geometry":["point","vertex"],"matchScore":2,"terms":["rwe","rwe ag"],"tags":{"operator:wikidata":"Q138133","power":"transformer"},"addTags":{"operator":"RWE","operator:wikidata":"Q138133","power":"transformer"}},"power/transformer/statkraft-8c57c6":{"name":"Statkraft","locationSet":{"include":["by","bg","cz","hu","pl","md","ro","ru","sk","ua","ax","gg","je","cq","dk","ee","fo","fi","is","ie","im","lv","lt","no","sj","se","gb","al","ad","ba","hr","gi","gr","va","it","mt","me","mk","pt","sm","rs","si","es","xk","at","be","fr","de","li","lu","mc","nl","ch"]},"geometry":["point","vertex"],"matchScore":2,"terms":["statkraft"],"tags":{"operator:wikidata":"Q1681145","power":"transformer"},"addTags":{"operator":"Statkraft","operator:wikidata":"Q1681145","power":"transformer"}},"power/transformer/vattenfall-3c123b":{"name":"Vattenfall","locationSet":{"include":["by","bg","cz","hu","pl","md","ro","ru","sk","ua","ax","gg","je","cq","dk","ee","fo","fi","is","ie","im","lv","lt","no","sj","se","gb","al","ad","ba","hr","gi","gr","va","it","mt","me","mk","pt","sm","rs","si","es","xk","at","be","fr","de","li","lu","mc","nl","ch"],"exclude":["de"]},"geometry":["point","vertex"],"matchScore":2,"terms":["vattenfall"],"tags":{"operator:wikidata":"Q157675","power":"transformer"},"addTags":{"operator":"Vattenfall","operator:wikidata":"Q157675","power":"transformer"}},"type/route/power/rwe-baa9ad":{"name":"RWE","locationSet":{"include":["by","bg","cz","hu","pl","md","ro","ru","sk","ua","ax","gg","je","cq","dk","ee","fo","fi","is","ie","im","lv","lt","no","sj","se","gb","al","ad","ba","hr","gi","gr","va","it","mt","me","mk","pt","sm","rs","si","es","xk","at","be","fr","de","li","lu","mc","nl","ch"]},"geometry":["relation"],"matchScore":2,"terms":["rwe"],"reference":{"key":"route","value":"power"},"tags":{"operator:wikidata":"Q138133","route":"power","type":"route"},"addTags":{"operator":"RWE","operator:wikidata":"Q138133","route":"power","type":"route"}},"telecom/exchange/interoute-58ec5d":{"name":"Interoute","locationSet":{"include":["by","bg","cz","hu","pl","md","ro","ru","sk","ua","ax","gg","je","cq","dk","ee","fo","fi","is","ie","im","lv","lt","no","sj","se","gb","al","ad","ba","hr","gi","gr","va","it","mt","me","mk","pt","sm","rs","si","es","xk","at","be","fr","de","li","lu","mc","nl","ch"]},"geometry":["point","area"],"matchScore":2,"terms":["interoute"],"fields":["name","operator","{telecom/exchange}"],"tags":{"operator:wikidata":"Q1668090","telecom":"exchange"},"addTags":{"operator":"Interoute","operator:wikidata":"Q1668090","telecom":"exchange"}},"public_transport/platform/bus_point/flixbus-f5b4b3":{"name":"Flixbus","locationSet":{"include":["by","bg","cz","hu","pl","md","ro","ru","sk","ua","ax","gg","je","cq","dk","ee","fo","fi","is","ie","im","lv","lt","no","sj","se","gb","al","ad","ba","hr","gi","gr","va","it","mt","me","mk","pt","sm","rs","si","es","xk","at","be","fr","de","li","lu","mc","nl","ch","br","ca","us"]},"geometry":["point","vertex"],"matchScore":2,"terms":["flixbus"],"reference":{"key":"public_transport","value":"platform"},"tags":{"bus":"yes","network:wikidata":"Q15712258","public_transport":"platform"},"addTags":{"bus":"yes","highway":"bus_stop","network":"Flixbus","network:wikidata":"Q15712258","public_transport":"platform"}},"railway/station/eurocity-170b77":{"name":"EuroCity","locationSet":{"include":["by","bg","cz","hu","pl","md","ro","ru","sk","ua","ax","gg","je","cq","dk","ee","fo","fi","is","ie","im","lv","lt","no","sj","se","gb","al","ad","ba","hr","gi","gr","va","it","mt","me","mk","pt","sm","rs","si","es","xk","at","be","fr","de","li","lu","mc","nl","ch"]},"geometry":["point","vertex","area"],"matchScore":2,"terms":["eurocity"],"tags":{"network:wikidata":"Q753050","railway":"station"},"addTags":{"network":"EuroCity","network:wikidata":"Q753050","public_transport":"station","railway":"station","train":"yes"}},"railway/station/euronight-170b77":{"name":"EuroNight","locationSet":{"include":["by","bg","cz","hu","pl","md","ro","ru","sk","ua","ax","gg","je","cq","dk","ee","fo","fi","is","ie","im","lv","lt","no","sj","se","gb","al","ad","ba","hr","gi","gr","va","it","mt","me","mk","pt","sm","rs","si","es","xk","at","be","fr","de","li","lu","mc","nl","ch"]},"geometry":["point","vertex","area"],"matchScore":2,"terms":["euronight"],"tags":{"network:wikidata":"Q257307","railway":"station"},"addTags":{"network":"EuroNight","network:wikidata":"Q257307","public_transport":"station","railway":"station","train":"yes"}},"type/route/bus/flixbus-8cc9ca":{"name":"Flixbus","locationSet":{"include":["by","bg","cz","hu","pl","md","ro","ru","sk","ua","ax","gg","je","cq","dk","ee","fo","fi","is","ie","im","lv","lt","no","sj","se","gb","al","ad","ba","hr","gi","gr","va","it","mt","me","mk","pt","sm","rs","si","es","xk","at","be","fr","de","li","lu","mc","nl","ch","br","ca","us"]},"geometry":["relation"],"matchScore":2,"terms":["flixbus"],"reference":{"key":"route","value":"bus"},"tags":{"network:wikidata":"Q15712258","route":"bus","type":"route"},"addTags":{"network":"Flixbus","network:wikidata":"Q15712258","route":"bus","type":"route"}},"type/route/train/eurocity-6b9d23":{"name":"EuroCity","locationSet":{"include":["by","bg","cz","hu","pl","md","ro","ru","sk","ua","ax","gg","je","cq","dk","ee","fo","fi","is","ie","im","lv","lt","no","sj","se","gb","al","ad","ba","hr","gi","gr","va","it","mt","me","mk","pt","sm","rs","si","es","xk","at","be","fr","de","li","lu","mc","nl","ch"]},"geometry":["relation"],"matchScore":2,"terms":["eurocity"],"reference":{"key":"route","value":"train"},"tags":{"network:wikidata":"Q753050","route":"train","type":"route"},"addTags":{"network":"EuroCity","network:wikidata":"Q753050","route":"train","type":"route"}},"type/route/train/euronight-6b9d23":{"name":"EuroNight","locationSet":{"include":["by","bg","cz","hu","pl","md","ro","ru","sk","ua","ax","gg","je","cq","dk","ee","fo","fi","is","ie","im","lv","lt","no","sj","se","gb","al","ad","ba","hr","gi","gr","va","it","mt","me","mk","pt","sm","rs","si","es","xk","at","be","fr","de","li","lu","mc","nl","ch"]},"geometry":["relation"],"matchScore":2,"terms":["euronight"],"reference":{"key":"route","value":"train"},"tags":{"network:wikidata":"Q257307","route":"train","type":"route"},"addTags":{"network":"EuroNight","network:wikidata":"Q257307","route":"train","type":"route"}}}