{"advertising/totem/oilibya-11febf":{"name":"Oilibya","locationSet":{"include":["dz","eg","ly","ma","sd","tn","eh","io","bi","km","dj","er","et","tf","ke","mg","mw","mu","yt","mz","re","rw","sc","so","ss","ug","tz","zm","zw","ao","cm","cf","td","cg","cd","gq","ga","st","bw","sz","ls","na","za","bj","bf","cv","ci","gm","gh","gn","gw","lr","ml","mr","ne","ng","sn","sl","tg","sh","bd"]},"geometry":["point","line"],"matchScore":2,"terms":["oilibia","oilibiya","oilibya","oillibia","oilliby","oillibya","oillybia","oilybia","olibya","olybia","أويليبيا"],"tags":{"advertising":"totem","brand:wikidata":"Q7081491"},"addTags":{"advertising":"totem","brand":"Oilibya","brand:wikidata":"Q7081491","name:ar":"أويليبيا","name:en":"Oilibya"}},"amenity/atm/accessbank-351787":{"name":"Access Bank","locationSet":{"include":["cd","gb","gm","mz","rw","sl","zm"]},"geometry":["point","vertex"],"matchScore":2,"terms":["access bank","diamond bank"],"fields":["name","brand","{amenity/atm}"],"tags":{"amenity":"atm","brand:wikidata":"Q4672418"},"addTags":{"amenity":"atm","brand":"Access Bank","brand:wikidata":"Q4672418","operator":"Access Bank","operator:wikidata":"Q4672418"}},"amenity/atm/bci-36ddf9":{"name":"BCI (Mozambique)","locationSet":{"include":["mz"]},"geometry":["point","vertex"],"matchScore":2,"terms":["banco comercial e de investimentos","bci"],"fields":["name","brand","{amenity/atm}"],"tags":{"amenity":"atm","brand:wikidata":"Q9645132"},"addTags":{"amenity":"atm","brand":"BCI","brand:wikidata":"Q9645132","official_name":"Banco Comercial e de Investimentos","operator":"BCI","operator:wikidata":"Q9645132"}},"amenity/atm/fnb-2eaa9a":{"name":"FNB (South Africa)","locationSet":{"include":["bw","mz","na","za","zm"]},"geometry":["point","vertex"],"matchScore":2,"terms":["first national bank","fnb"],"fields":["name","brand","{amenity/atm}"],"tags":{"amenity":"atm","brand:wikidata":"Q3072956"},"addTags":{"amenity":"atm","brand":"FNB","brand:wikidata":"Q3072956","official_name":"First National Bank","operator":"FNB","operator:wikidata":"Q3072956"}},"amenity/atm/stanbicbank-71787f":{"name":"Stanbic Bank","locationSet":{"include":["dz","eg","ly","ma","sd","tn","eh","io","bi","km","dj","er","et","tf","ke","mg","mw","mu","yt","mz","re","rw","sc","so","ss","ug","tz","zm","zw","ao","cm","cf","td","cg","cd","gq","ga","st","bw","sz","ls","na","za","bj","bf","cv","ci","gm","gh","gn","gw","lr","ml","mr","ne","ng","sn","sl","tg","sh"],"exclude":["gh"]},"geometry":["point","vertex"],"matchScore":2,"terms":["stanbic bank"],"fields":["name","brand","{amenity/atm}"],"tags":{"amenity":"atm","brand:wikidata":"Q7597999"},"addTags":{"amenity":"atm","brand":"Stanbic Bank","brand:wikidata":"Q7597999","operator":"Stanbic Bank","operator:wikidata":"Q7597999"}},"amenity/atm/uba-69edd8":{"name":"UBA","locationSet":{"include":["bf","bj","cd","cg","ci","cm","fr","ga","gb","gh","gn","ke","lr","ml","mz","ng","sl","sn","td","tz","ug","us","zm"]},"geometry":["point","vertex"],"matchScore":2,"terms":["uba","united bank for africa"],"fields":["name","brand","{amenity/atm}"],"tags":{"amenity":"atm","brand:wikidata":"Q513457"},"addTags":{"amenity":"atm","brand":"UBA","brand:wikidata":"Q513457","official_name":"United Bank for Africa","operator":"UBA","operator:wikidata":"Q513457"}},"amenity/bank/accessbank-193d4e":{"name":"Access Bank","locationSet":{"include":["cd","gb","gm","mz","rw","sl","zm"]},"geometry":["point","area"],"matchScore":2,"terms":["access bank","diamond bank"],"tags":{"amenity":"bank","brand:wikidata":"Q4672418"},"addTags":{"amenity":"bank","brand":"Access Bank","brand:wikidata":"Q4672418","name":"Access Bank"}},"amenity/bank/bci-1f1dae":{"name":"BCI (Mozambique)","locationSet":{"include":["mz"]},"geometry":["point","area"],"matchScore":2,"terms":["banco comercial e de investimentos","bci"],"tags":{"amenity":"bank","brand:wikidata":"Q9645132"},"addTags":{"amenity":"bank","brand":"BCI","brand:wikidata":"Q9645132","name":"BCI","official_name":"Banco Comercial e de Investimentos"}},"amenity/bank/fnb-154feb":{"name":"FNB (South Africa)","locationSet":{"include":["bw","mz","na","za","zm"]},"geometry":["point","area"],"matchScore":2,"terms":["first national bank","fnb"],"tags":{"amenity":"bank","brand:wikidata":"Q3072956"},"addTags":{"amenity":"bank","brand":"FNB","brand:wikidata":"Q3072956","name":"FNB","official_name":"First National Bank"}},"amenity/bank/stanbicbank-b79c2d":{"name":"Stanbic Bank","locationSet":{"include":["dz","eg","ly","ma","sd","tn","eh","io","bi","km","dj","er","et","tf","ke","mg","mw","mu","yt","mz","re","rw","sc","so","ss","ug","tz","zm","zw","ao","cm","cf","td","cg","cd","gq","ga","st","bw","sz","ls","na","za","bj","bf","cv","ci","gm","gh","gn","gw","lr","ml","mr","ne","ng","sn","sl","tg","sh"],"exclude":["gh"]},"geometry":["point","area"],"matchScore":2,"terms":["stanbic bank"],"tags":{"amenity":"bank","brand:wikidata":"Q7597999"},"addTags":{"amenity":"bank","brand":"Stanbic Bank","brand:wikidata":"Q7597999","name":"Stanbic Bank"}},"amenity/bank/uba-95540f":{"name":"UBA","locationSet":{"include":["bf","bj","cd","cg","ci","cm","fr","ga","gb","gh","gn","ke","lr","ml","mz","ng","sl","sn","td","tz","ug","us","zm"]},"geometry":["point","area"],"matchScore":2,"terms":["uba","united bank for africa"],"tags":{"amenity":"bank","brand:wikidata":"Q513457"},"addTags":{"amenity":"bank","brand":"UBA","brand:wikidata":"Q513457","name":"UBA","official_name":"United Bank for Africa"}},"amenity/cinema/numetro-06ed22":{"name":"Nu Metro Cinemas","locationSet":{"include":["mz","za","zm"]},"geometry":["point","area"],"matchScore":2,"terms":["nu metro cinemas"],"fields":["name","brand","{amenity/cinema}"],"tags":{"amenity":"cinema","brand:wikidata":"Q7067740"},"addTags":{"amenity":"cinema","brand":"Nu Metro Cinemas","brand:wikidata":"Q7067740","name":"Nu Metro"}},"amenity/fast_food/pizza/debonairspizza-10dad6":{"name":"Debonairs Pizza","locationSet":{"include":["ae","bw","ke","ls","mu","mw","mz","na","ng","sd","ss","sz","za","zm"]},"geometry":["point","area"],"matchScore":2,"terms":["debonairs","debonairs pizza"],"reference":{"key":"cuisine","value":"pizza"},"tags":{"amenity":"fast_food","brand:wikidata":"Q65079407","cuisine":"pizza"},"addTags":{"amenity":"fast_food","brand":"Debonairs Pizza","brand:wikidata":"Q65079407","cuisine":"pizza","name":"Debonairs Pizza","takeaway":"yes"}},"amenity/fuel/oilibya-5288c9":{"name":"Oilibya","locationSet":{"include":["dz","eg","ly","ma","sd","tn","eh","io","bi","km","dj","er","et","tf","ke","mg","mw","mu","yt","mz","re","rw","sc","so","ss","ug","tz","zm","zw","ao","cm","cf","td","cg","cd","gq","ga","st","bw","sz","ls","na","za","bj","bf","cv","ci","gm","gh","gn","gw","lr","ml","mr","ne","ng","sn","sl","tg","sh","bd"]},"geometry":["point","area"],"matchScore":2,"terms":["oilibia","oilibiya","oilibya","oillibia","oilliby","oillibya","oillybia","oilybia","olibya","olybia","أويليبيا"],"fields":["name","brand","{amenity/fuel}"],"tags":{"amenity":"fuel","brand:wikidata":"Q7081491"},"addTags":{"amenity":"fuel","brand":"Oilibya","brand:wikidata":"Q7081491","name":"Oilibya","name:ar":"أويليبيا","name:en":"Oilibya"}},"amenity/restaurant/maxis-2bd789":{"name":"Maxi's","locationSet":{"include":["mz","sz","za"]},"geometry":["point","area"],"matchScore":2,"terms":["maxi's"],"tags":{"amenity":"restaurant","brand:wikidata":"Q116619188"},"addTags":{"amenity":"restaurant","brand":"Maxi's","brand:wikidata":"Q116619188","cuisine":"breakfast;grill","name":"Maxi's"}},"office/estate_agent/pamgoldingproperties-80530e":{"name":"Pam Golding Properties","locationSet":{"include":["bw","ke","mz","na","sz","za","zm","zw"]},"geometry":["point","area"],"matchScore":2,"terms":["pam golding properties"],"tags":{"brand:wikidata":"Q65051429","office":"estate_agent"},"addTags":{"brand":"Pam Golding Properties","brand:wikidata":"Q65051429","name":"Pam Golding Properties","office":"estate_agent"}},"shop/alcohol/liquorshopshoprite-af1a8e":{"name":"LiquorShop Shoprite","locationSet":{"include":["ls","mz","na","za"]},"geometry":["point","area"],"matchScore":2,"terms":["liquorshop","liquorshop shoprite","shoprite liquorshop"],"tags":{"brand:wikidata":"Q1857639","shop":"alcohol"},"addTags":{"brand":"LiquorShop Shoprite","brand:wikidata":"Q1857639","name":"LiquorShop Shoprite","shop":"alcohol"}},"shop/clothes/pep-f0ab19":{"name":"PEP","locationSet":{"include":["ao","bw","ls","mw","mz","na","sz","za","zm"]},"geometry":["point","area"],"matchScore":2,"terms":["pep"],"tags":{"brand:wikidata":"Q7166182","shop":"clothes"},"addTags":{"brand":"PEP","brand:wikidata":"Q7166182","name":"PEP","shop":"clothes"}},"shop/clothes/studio88-40af4d":{"name":"Studio 88","locationSet":{"include":["bw","ls","mz","na","sz","za","zm"]},"geometry":["point","area"],"matchScore":2,"terms":["studio 88"],"tags":{"brand:wikidata":"Q116498145","shop":"clothes"},"addTags":{"brand":"Studio 88","brand:wikidata":"Q116498145","name":"Studio 88","shop":"clothes"}},"shop/cosmetics/signaturecosmeticsandfragrances-28fda4":{"name":"Signature Cosmetics & Fragrances","locationSet":{"include":["bw","mz","na","za"]},"geometry":["point","area"],"matchScore":2,"terms":["signature cosmetics & fragrances"],"tags":{"brand:wikidata":"Q116894514","shop":"cosmetics"},"addTags":{"brand":"Signature Cosmetics & Fragrances","brand:wikidata":"Q116894514","name":"Signature Cosmetics & Fragrances","shop":"cosmetics"}},"shop/doityourself/buildit-aadd8a":{"name":"Build it","locationSet":{"include":["ls","mz","na","sz","za"]},"geometry":["point","area"],"matchScore":2,"terms":["build it"],"tags":{"brand:wikidata":"Q116755810","shop":"doityourself"},"addTags":{"brand":"Build it","brand:wikidata":"Q116755810","name":"Build it","shop":"doityourself"}},"shop/doityourself/buildersexpress-a9941a":{"name":"Builders Express","locationSet":{"include":["bw","ke","mz","za","zm"]},"geometry":["point","area"],"matchScore":2,"terms":["builders express"],"tags":{"brand:wikidata":"Q116819137","shop":"doityourself"},"addTags":{"brand":"Builders Express","brand:wikidata":"Q116819137","name":"Builders Express","shop":"doityourself"}},"shop/doityourself/builderssuperstore-a9941a":{"name":"Builders Superstore","locationSet":{"include":["bw","ke","mz","za","zm"]},"geometry":["point","area"],"matchScore":2,"terms":["builders superstore"],"tags":{"brand:wikidata":"Q116819137","shop":"doityourself"},"addTags":{"brand":"Builders Superstore","brand:wikidata":"Q116819137","name":"Builders Superstore","shop":"doityourself"}},"shop/doityourself/builderswarehouse-a9941a":{"name":"Builders Warehouse","locationSet":{"include":["bw","ke","mz","za","zm"]},"geometry":["point","area"],"matchScore":2,"terms":["builders warehouse"],"tags":{"brand:wikidata":"Q116819137","shop":"doityourself"},"addTags":{"brand":"Builders Warehouse","brand:wikidata":"Q116819137","name":"Builders Warehouse","shop":"doityourself"}},"shop/furniture/chateaudax-c96b56":{"name":"Chateau d'Ax","locationSet":{"include":["ao","be","ca","ch","cn","de","es","fx","gp","hk","hr","it","ma","mq","mt","mu","mz","pt","re","sg","si","tn","tw","us","vn"]},"geometry":["point","area"],"matchScore":2,"terms":["chateau d'ax"],"tags":{"brand:wikidata":"Q100249791","shop":"furniture"},"addTags":{"brand":"Chateau d'Ax","brand:wikidata":"Q100249791","name":"Chateau d'Ax","shop":"furniture"}},"shop/furniture/okfurniture-e98456":{"name":"OK Furniture","locationSet":{"include":["ao","bw","ls","mz","na","sz","za","zm"]},"geometry":["point","area"],"matchScore":2,"terms":["ok furniture"],"tags":{"brand:wikidata":"Q116474866","shop":"furniture"},"addTags":{"brand":"OK Furniture","brand:wikidata":"Q116474866","name":"OK Furniture","shop":"furniture"}},"shop/houseware/home-dd60e2":{"name":"@home","locationSet":{"include":["bw","gh","mz","na","za"]},"geometry":["point","area"],"matchScore":2,"terms":["@home"],"tags":{"brand:wikidata":"Q116429887","shop":"houseware"},"addTags":{"brand":"@home","brand:wikidata":"Q116429887","name":"@home","shop":"houseware"}},"shop/houseware/homelivingspace-dd60e2":{"name":"@Home Livingspace","locationSet":{"include":["bw","gh","mz","na","za"]},"geometry":["point","area"],"matchScore":2,"terms":["@home livingspace"],"tags":{"brand:wikidata":"Q117406343","shop":"houseware"},"addTags":{"brand":"@Home Livingspace","brand:wikidata":"Q117406343","name":"@Home Livingspace","shop":"houseware"}},"shop/mobile_phone/airtel-62d34e":{"name":"Airtel","locationSet":{"include":["io","bi","km","dj","er","et","tf","ke","mg","mw","mu","yt","mz","re","rw","sc","so","ss","ug","tz","zm","zw","ao","cm","cf","td","cg","cd","gq","ga","st","bw","sz","ls","na","za","bj","bf","cv","ci","gm","gh","gn","gw","lr","ml","mr","ne","ng","sn","sl","tg","sh","in"]},"geometry":["point","area"],"matchScore":2,"terms":["airtel"],"tags":{"brand:wikidata":"Q854867","shop":"mobile_phone"},"addTags":{"brand":"Airtel","brand:wikidata":"Q854867","name":"Airtel","shop":"mobile_phone"}},"shop/mobile_phone/vodacom-4ee583":{"name":"Vodacom (Moçambique)","locationSet":{"include":["mz"]},"geometry":["point","area"],"matchScore":2,"terms":["vodacom moçambique","vodacom shop","vodashop"],"tags":{"brand:wikidata":"Q130477552","shop":"mobile_phone"},"addTags":{"brand":"Vodacom Moçambique","brand:wikidata":"Q130477552","name":"Vodacom","shop":"mobile_phone"}},"shop/perfumery/equivalenza-59ad61":{"name":"Equivalenza","locationSet":{"include":["ad","ao","at","be","ca","cv","de","do","es","fr","gb","gr","gt","ie","it","mx","mz","nl","pe","pt","ro","tn"]},"geometry":["point","area"],"matchScore":2,"terms":["equivalenza"],"tags":{"brand:wikidata":"Q104649798","shop":"perfumery"},"addTags":{"brand":"Equivalenza","brand:wikidata":"Q104649798","name":"Equivalenza","shop":"perfumery"}},"shop/perfumery/oboticario-40d28a":{"name":"O Boticário","locationSet":{"include":["ao","br","co","jp","mz","pt","py","sa","us","ve"]},"geometry":["point","area"],"matchScore":2,"terms":["o boticário"],"tags":{"brand:wikidata":"Q7073219","shop":"perfumery"},"addTags":{"brand":"O Boticário","brand:wikidata":"Q7073219","name":"O Boticário","shop":"perfumery"}},"shop/supermarket/game-910aca":{"name":"Game","locationSet":{"include":["io","bi","km","dj","er","et","tf","ke","mg","mw","mu","yt","mz","re","rw","sc","so","ss","ug","tz","zm","zw","ao","cm","cf","td","cg","cd","gq","ga","st","bw","sz","ls","na","za","bj","bf","cv","ci","gm","gh","gn","gw","lr","ml","mr","ne","ng","sn","sl","tg","sh"]},"geometry":["point","area"],"matchScore":2,"terms":["game"],"tags":{"brand:wikidata":"Q126811048","shop":"supermarket"},"addTags":{"brand":"Game","brand:wikidata":"Q126811048","name":"Game","shop":"supermarket"}},"shop/supermarket/shoprite-502f12":{"name":"Shoprite (Africa)","locationSet":{"include":["ao","bw","cd","gh","ls","mg","mu","mw","mz","na","sz","ug","za","zm"]},"geometry":["point","area"],"matchScore":2,"terms":["shoprite"],"tags":{"brand:wikidata":"Q1857639","shop":"supermarket"},"addTags":{"brand":"Shoprite","brand:wikidata":"Q1857639","name":"Shoprite","shop":"supermarket"}},"shop/supermarket/usave-1d4ed7":{"name":"Usave","locationSet":{"include":["ao","bw","ls","mw","mz","na","sz","za"]},"geometry":["point","area"],"matchScore":2,"terms":["usave"],"tags":{"brand:wikidata":"Q115696368","shop":"supermarket"},"addTags":{"brand":"Usave","brand:wikidata":"Q115696368","name":"Usave","shop":"supermarket"}},"shop/trade/builderstradedepot-c685bf":{"name":"Builders Trade Depot","locationSet":{"include":["bw","ke","mz","za","zm"]},"geometry":["point","area"],"matchScore":2,"terms":["builders"],"tags":{"brand:wikidata":"Q116819137","shop":"trade"},"addTags":{"brand":"Builders","brand:wikidata":"Q116819137","name":"Builders Trade Depot","shop":"trade","trade":"building_supplies"}},"tourism/hotel/anantara-e8534c":{"name":"Anantara","locationSet":{"include":["ae","br","cn","es","fr","hu","id","ie","it","kh","mu","mv","my","mz","nl","om","pt","qa","sc","th","tn","vn","zm"]},"geometry":["point","area"],"matchScore":2,"terms":["anantara"],"fields":["name","brand","{tourism/hotel}"],"tags":{"brand:wikidata":"Q112671781","tourism":"hotel"},"addTags":{"brand":"Anantara","brand:wikidata":"Q112671781","name":"Anantara","tourism":"hotel"}},"tourism/hotel/avanihotelsandresorts-e9c192":{"name":"AVANI","locationSet":{"include":["ae","au","bw","id","kh","kr","la","lk","ls","my","mz","na","nz","om","pt","sc","th","vn","zm"]},"geometry":["point","area"],"matchScore":2,"terms":["avani hotels & resorts"],"fields":["name","brand","{tourism/hotel}"],"tags":{"brand:wikidata":"Q48989823","tourism":"hotel"},"addTags":{"brand":"Avani Hotels & Resorts","brand:wikidata":"Q48989823","name":"Avani Hotels & Resorts","tourism":"hotel"}},"tourism/hotel/southernsun-891f5c":{"name":"Southern Sun","locationSet":{"include":["ae","mz","za","zm"]},"geometry":["point","area"],"matchScore":2,"terms":["southern sun"],"fields":["name","brand","{tourism/hotel}"],"tags":{"brand:wikidata":"Q7570526","tourism":"hotel"},"addTags":{"brand":"Southern Sun","brand:wikidata":"Q7570526","name":"Southern Sun","tourism":"hotel"}},"amenity/hospital/lenmed-56725c":{"name":"Lenmed","locationSet":{"include":["bw","mz","za"]},"geometry":["area","point"],"matchScore":2,"terms":["lenmed"],"fields":["name","operator","{amenity/hospital}"],"reference":{"key":"amenity","value":"hospital"},"tags":{"amenity":"hospital","operator:wikidata":"Q116712300"},"addTags":{"amenity":"hospital","healthcare":"hospital","operator":"Lenmed","operator:type":"private","operator:wikidata":"Q116712300"}},"leisure/nature_reserve/municipiodemaputo-8f4719":{"name":"Município de Maputo","locationSet":{"include":["mz"]},"geometry":["area","point"],"matchScore":2,"terms":["município de maputo"],"tags":{"leisure":"nature_reserve","operator:wikidata":"Q3889"},"addTags":{"leisure":"nature_reserve","operator":"Município de Maputo","operator:type":"government","operator:wikidata":"Q3889"}},"leisure/park/municipiodemaputo-840c65":{"name":"Município de Maputo","locationSet":{"include":["mz"]},"geometry":["area","point"],"matchScore":2,"terms":["município de maputo"],"tags":{"leisure":"park","operator:wikidata":"Q3889"},"addTags":{"leisure":"park","operator":"Município de Maputo","operator:type":"government","operator:wikidata":"Q3889"}},"leisure/pitch/municipiodemaputo-fe1461":{"name":"Município de Maputo","locationSet":{"include":["mz"]},"geometry":["area","point"],"matchScore":2,"terms":["município de maputo"],"tags":{"leisure":"pitch","operator:wikidata":"Q3889"},"addTags":{"leisure":"pitch","operator":"Município de Maputo","operator:wikidata":"Q3889"}},"man_made/mast/communication/vodacommocambique-031a1f":{"name":"Vodacom (Moçambique)","locationSet":{"include":["mz"]},"geometry":["point","vertex"],"matchScore":2,"terms":["vodacom","vodacom moçambique"],"reference":{"key":"tower:type","value":"communication"},"tags":{"man_made":"mast","operator:wikidata":"Q130477552","tower:type":"communication"},"addTags":{"man_made":"mast","operator":"Vodacom Moçambique","operator:wikidata":"Q130477552","tower:type":"communication"}},"man_made/tower/communication/vodacommocambique-25a58e":{"name":"Vodacom (Moçambique)","locationSet":{"include":["mz"]},"geometry":["point","vertex","area"],"matchScore":2,"terms":["vodacom","vodacom moçambique"],"reference":{"key":"tower:type","value":"communication"},"tags":{"man_made":"tower","operator:wikidata":"Q130477552","tower:type":"communication"},"addTags":{"man_made":"tower","operator":"Vodacom Moçambique","operator:wikidata":"Q130477552","tower:type":"communication"}},"power/line/electricidadedemocambique-8757c0":{"name":"Electricidade de Moçambique","locationSet":{"include":["mz"]},"geometry":["line"],"matchScore":2,"terms":["edm","electricidade de moçambique"],"tags":{"operator:wikidata":"Q5357771","power":"line"},"addTags":{"operator":"Electricidade de Moçambique","operator:short":"EDM","operator:wikidata":"Q5357771","power":"line"}},"power/minor_line/electricidadedemocambique-06127e":{"name":"Electricidade de Moçambique","locationSet":{"include":["mz"]},"geometry":["line"],"matchScore":2,"terms":["edm","electricidade de moçambique"],"tags":{"operator:wikidata":"Q5357771","power":"minor_line"},"addTags":{"operator":"Electricidade de Moçambique","operator:short":"EDM","operator:wikidata":"Q5357771","power":"minor_line"}},"power/pole/electricidadedemocambique-c787cd":{"name":"Electricidade de Moçambique","locationSet":{"include":["mz"]},"geometry":["point","vertex"],"matchScore":2,"terms":["edm","electricidade de moçambique"],"tags":{"operator:wikidata":"Q5357771","power":"pole"},"addTags":{"operator":"Electricidade de Moçambique","operator:short":"EDM","operator:wikidata":"Q5357771","power":"pole"}},"power/tower/electricidadedemocambique-b9e2af":{"name":"Electricidade de Moçambique","locationSet":{"include":["mz"]},"geometry":["point","vertex"],"matchScore":2,"terms":["edm","electricidade de moçambique"],"tags":{"operator:wikidata":"Q5357771","power":"tower"},"addTags":{"operator":"Electricidade de Moçambique","operator:short":"EDM","operator:wikidata":"Q5357771","power":"tower"}}}