{"advertising/totem/cefco-d016fa":{"name":"CEFCO","locationSet":{"include":["us-al","us-fl","us-la","us-ms","us-tx"]},"geometry":["point","line"],"matchScore":2,"terms":["cefco"],"tags":{"advertising":"totem","brand:wikidata":"Q110209230"},"addTags":{"advertising":"totem","brand":"CEFCO","brand:wikidata":"Q110209230"}},"amenity/atm/cadencebank-4b4e36":{"name":"Cadence Bank","locationSet":{"include":["us-al","us-ar","us-fl","us-ga","us-il","us-la","us-ms","us-tn","us-tx"]},"geometry":["point","vertex"],"matchScore":2,"terms":["bankcorpsouth","bankcorpsouth bank","cadence bank"],"fields":["name","brand","{amenity/atm}"],"tags":{"amenity":"atm","brand:wikidata":"Q4854138"},"addTags":{"amenity":"atm","brand":"Cadence Bank","brand:wikidata":"Q4854138","operator":"Cadence Bank","operator:wikidata":"Q4854138"}},"amenity/atm/hancockwhitney-cfedfe":{"name":"Hancock Whitney","locationSet":{"include":["us-al","us-la","us-ms","us-tx"]},"geometry":["point","vertex"],"matchScore":2,"terms":["hancock whitney"],"fields":["name","brand","{amenity/atm}"],"tags":{"amenity":"atm","brand:wikidata":"Q5647025"},"addTags":{"amenity":"atm","brand":"Hancock Whitney","brand:wikidata":"Q5647025","operator":"Hancock Whitney","operator:wikidata":"Q5647025"}},"amenity/atm/pinnaclebank-849a40":{"name":"Pinnacle Bank (US Southeast)","locationSet":{"include":["us-al","us-ga","us-nc","us-sc","us-tn","us-wv"]},"geometry":["point","vertex"],"matchScore":2,"terms":["pinnacle bank","pinnacle financial partners"],"fields":["name","brand","{amenity/atm}"],"tags":{"amenity":"atm","brand:wikidata":"Q7196294"},"addTags":{"amenity":"atm","brand":"Pinnacle Bank","brand:wikidata":"Q7196294","official_name":"Pinnacle Financial Partners","operator":"Pinnacle Bank","operator:wikidata":"Q7196294"}},"amenity/bank/cadencebank-e05e09":{"name":"Cadence Bank","locationSet":{"include":["us-al","us-ar","us-fl","us-ga","us-il","us-la","us-ms","us-tn","us-tx"]},"geometry":["point","area"],"matchScore":2,"terms":["bankcorpsouth","bankcorpsouth bank","cadence bank"],"tags":{"amenity":"bank","brand:wikidata":"Q4854138"},"addTags":{"amenity":"bank","brand":"Cadence Bank","brand:wikidata":"Q4854138","name":"Cadence Bank"}},"amenity/bank/hancockwhitney-78aa9a":{"name":"Hancock Whitney","locationSet":{"include":["us-al","us-la","us-ms","us-tx"]},"geometry":["point","area"],"matchScore":2,"terms":["hancock whitney"],"tags":{"amenity":"bank","brand:wikidata":"Q5647025"},"addTags":{"amenity":"bank","brand":"Hancock Whitney","brand:wikidata":"Q5647025","name":"Hancock Whitney"}},"amenity/bank/pinnaclebank-1187bc":{"name":"Pinnacle Bank (US Southeast)","locationSet":{"include":["us-al","us-ga","us-nc","us-sc","us-tn","us-wv"]},"geometry":["point","area"],"matchScore":2,"terms":["pinnacle bank","pinnacle financial partners"],"tags":{"amenity":"bank","brand:wikidata":"Q7196294"},"addTags":{"amenity":"bank","brand":"Pinnacle Bank","brand:wikidata":"Q7196294","name":"Pinnacle Bank","official_name":"Pinnacle Financial Partners"}},"amenity/fuel/cefco-7de6f8":{"name":"CEFCO","locationSet":{"include":["us-al","us-fl","us-la","us-ms","us-tx"]},"geometry":["point","area"],"matchScore":2,"terms":["cefco"],"fields":["name","brand","{amenity/fuel}"],"tags":{"amenity":"fuel","brand:wikidata":"Q110209230"},"addTags":{"amenity":"fuel","brand":"CEFCO","brand:wikidata":"Q110209230","name":"CEFCO"}},"amenity/ice_cream/jenissplendidicecreams-53b2e0":{"name":"Jeni's Splendid Ice Cream","locationSet":{"include":["us-al","us-ca","us-dc","us-fl","us-ga","us-il","us-mo","us-nc","us-oh","us-pa","us-sc","us-tn","us-tx"]},"geometry":["point","area"],"matchScore":2,"terms":["jeni's","jeni's splendid ice creams"],"tags":{"amenity":"ice_cream","brand:wikidata":"Q16851196"},"addTags":{"amenity":"ice_cream","brand":"Jeni's Splendid Ice Creams","brand:wikidata":"Q16851196","name":"Jeni's Splendid Ice Creams","short_name":"Jeni's"}},"amenity/restaurant/maplestreetbiscuitcompany-d344e2":{"name":"Maple Street Biscuit Company","locationSet":{"include":["us-al","us-fl","us-ga","us-ky","us-nc","us-sc","us-tn","us-tx","us-va"]},"geometry":["point","area"],"matchScore":2,"terms":["maple street biscuit company"],"tags":{"amenity":"restaurant","brand:wikidata":"Q97104481"},"addTags":{"amenity":"restaurant","brand":"Maple Street Biscuit Company","brand:wikidata":"Q97104481","cuisine":"breakfast","name":"Maple Street Biscuit Company"}},"leisure/sports_centre/xgolf-8a88af":{"name":"X Golf","locationSet":{"include":["us-al","us-co","us-ga","us-il","us-in","us-ks","us-ma","us-me","us-mi","us-mn","us-mo","us-nd","us-ne","us-ny","us-oh","us-or","us-pa","us-ri","us-sc","us-sd","us-ut","us-va","us-wa","us-wi"]},"geometry":["point","area"],"matchScore":2,"terms":["x golf"],"fields":["name","brand","{leisure/sports_centre}"],"tags":{"brand:wikidata":"Q111585369","leisure":"sports_centre"},"addTags":{"brand":"X Golf","brand:wikidata":"Q111585369","indoor":"yes","leisure":"sports_centre","name":"X Golf","sport":"golf"}},"shop/convenience/cefco-abc9e1":{"name":"CEFCO","locationSet":{"include":["us-al","us-fl","us-la","us-ms","us-tx"]},"geometry":["point","area"],"matchScore":2,"terms":["cefco"],"tags":{"brand:wikidata":"Q110209230","shop":"convenience"},"addTags":{"amenity":"fuel","brand":"CEFCO","brand:wikidata":"Q110209230","name":"CEFCO","shop":"convenience"}},"shop/money_lender/1stheritagecredit-453289":{"name":"1st Heritage Credit","locationSet":{"include":["us-al","us-la","us-ms","us-sc","us-tn"]},"geometry":["point","area"],"matchScore":2,"terms":["1st heritage credit"],"tags":{"brand:wikidata":"Q121084523","shop":"money_lender"},"addTags":{"brand":"1st Heritage Credit","brand:wikidata":"Q121084523","name":"1st Heritage Credit","shop":"money_lender"}},"shop/pastry/mrsfields-e944b6":{"name":"Mrs. Fields","locationSet":{"include":["au","ph","us-ak","us-al","us-az","us-ca","us-co","us-de","us-fl","us-ga","us-hi","us-id","us-il","us-in","us-ks","us-la","us-ma","us-md","us-me","us-mi","us-mo","us-ms","us-nc","us-nj","us-nv","us-ny","us-oh","us-ok","us-pa","us-tx","us-ut","us-wi"]},"geometry":["point","area"],"matchScore":2,"terms":["mrs. fields"],"tags":{"brand:wikidata":"Q3866841","shop":"pastry"},"addTags":{"brand":"Mrs. Fields","brand:wikidata":"Q3866841","name":"Mrs. Fields","shop":"pastry"}},"shop/storage_rental/metroselfstorage-5b962b":{"name":"Metro Self Storage","locationSet":{"include":["us-al","us-ct","us-fl","us-ga","us-il","us-mn","us-nj","us-ny","us-pa","us-tn","us-tx","us-wi"]},"geometry":["point","area"],"matchScore":2,"terms":["metro self storage"],"tags":{"brand:wikidata":"Q114515454","shop":"storage_rental"},"addTags":{"brand":"Metro Self Storage","brand:wikidata":"Q114515454","name":"Metro Self Storage","shop":"storage_rental"}},"shop/supermarket/unitedgroceryoutlet-aecdaf":{"name":"United Grocery Outlet","locationSet":{"include":["us-al","us-ga","us-ky","us-nc","us-tn","us-va"]},"geometry":["point","area"],"matchScore":2,"terms":["united grocery outlet"],"tags":{"brand:wikidata":"Q23074318","shop":"supermarket"},"addTags":{"brand":"United Grocery Outlet","brand:wikidata":"Q23074318","name":"United Grocery Outlet","shop":"supermarket"}},"shop/trade/thompsoncat-386127":{"name":"Thompson CAT (Thompson Tractor)","locationSet":{"include":["us-al","us-fl"]},"geometry":["point","area"],"matchScore":2,"terms":["thompson cat"],"tags":{"brand:wikidata":"Q115486339","shop":"trade"},"addTags":{"brand":"Thompson CAT","brand:wikidata":"Q115486339","name":"Thompson CAT","shop":"trade","trade":"construction_equipment"}},"amenity/library/birminghampubliclibrary-8c84f7":{"name":"Birmingham Public Library","locationSet":{"include":["us-al"]},"geometry":["point","area"],"matchScore":2,"terms":["birmingham public library","bpl"],"tags":{"amenity":"library","operator:wikidata":"Q69469461"},"addTags":{"amenity":"library","operator":"Birmingham Public Library","operator:short":"BPL","operator:type":"public","operator:wikidata":"Q69469461"}},"amenity/prison/alabamadepartmentofcorrections-d7c9d5":{"name":"Alabama Department of Corrections","locationSet":{"include":["us-al"]},"geometry":["area","point"],"matchScore":2,"terms":["adoc","alabama department of corrections"],"fields":["name","operator","{amenity/prison}"],"tags":{"amenity":"prison","operator:wikidata":"Q4705244"},"addTags":{"amenity":"prison","operator":"Alabama Department of Corrections","operator:wikidata":"Q4705244"}},"amenity/school/cherokeecountyschools-cc53cf":{"name":"Cherokee County Schools (Alabama)","locationSet":{"include":["us-al"]},"geometry":["area","point"],"matchScore":2,"terms":["cherokee county schools"],"tags":{"amenity":"school","operator:wikidata":"Q5092141"},"addTags":{"amenity":"school","operator":"Cherokee County Schools","operator:type":"public","operator:wikidata":"Q5092141"}},"amenity/school/dothancityschools-cc53cf":{"name":"Dothan City Schools","locationSet":{"include":["us-al"]},"geometry":["area","point"],"matchScore":2,"terms":["dcs","dothan city schools"],"tags":{"amenity":"school","operator:wikidata":"Q5299432"},"addTags":{"amenity":"school","operator":"Dothan City Schools","operator:short":"DCS","operator:type":"public","operator:wikidata":"Q5299432"}},"amenity/school/houstoncountyboardofeducation-cc53cf":{"name":"Houston County Board of Education (Alabama)","locationSet":{"include":["us-al"]},"geometry":["area","point"],"matchScore":2,"terms":["houston county board of education","houston county schools"],"tags":{"amenity":"school","operator:wikidata":"Q16800752"},"addTags":{"amenity":"school","operator":"Houston County Board of Education","operator:type":"public","operator:wikidata":"Q16800752"}},"amenity/school/huntsvillecityschools-cc53cf":{"name":"Huntsville City Schools","locationSet":{"include":["us-al"]},"geometry":["area","point"],"matchScore":2,"terms":["hcs","huntsville city schools"],"tags":{"amenity":"school","operator:wikidata":"Q5945856"},"addTags":{"amenity":"school","operator":"Huntsville City Schools","operator:short":"HCS","operator:type":"public","operator:wikidata":"Q5945856"}},"amenity/school/montgomerypublicschools-cc53cf":{"name":"Montgomery Public Schools","locationSet":{"include":["us-al"]},"geometry":["area","point"],"matchScore":2,"terms":["montgomery public schools","mps"],"tags":{"amenity":"school","operator:wikidata":"Q6905784"},"addTags":{"amenity":"school","operator":"Montgomery Public Schools","operator:short":"MPS","operator:type":"public","operator:wikidata":"Q6905784"}},"amenity/school/pickenscountyschooldistrict-cc53cf":{"name":"Pickens County School District","locationSet":{"include":["us-al"]},"geometry":["area","point"],"matchScore":2,"terms":["pcsd","pickens county school district"],"tags":{"amenity":"school","operator:wikidata":"Q7190783"},"addTags":{"amenity":"school","operator":"Pickens County School District","operator:short":"PCSD","operator:type":"public","operator:wikidata":"Q7190783"}},"emergency/phone/auburnuniversity-b53a22":{"name":"Auburn University","locationSet":{"include":["us-al"]},"geometry":["point","vertex"],"matchScore":2,"terms":["auburn university"],"tags":{"emergency":"phone","operator:wikidata":"Q540672"},"addTags":{"emergency":"phone","operator":"Auburn University","operator:wikidata":"Q540672"}},"leisure/nature_reserve/alabamastateparks-e4aae0":{"name":"Alabama State Parks","locationSet":{"include":["us-al"]},"geometry":["area","point"],"matchScore":2,"terms":["alabama state parks"],"tags":{"leisure":"nature_reserve","operator:wikidata":"Q109328474"},"addTags":{"leisure":"nature_reserve","operator":"Alabama State Parks","operator:type":"public","operator:wikidata":"Q109328474"}},"leisure/nature_reserve/birminghamparkandrecreationboard-e4aae0":{"name":"Birmingham Park and Recreation","locationSet":{"include":["us-al"]},"geometry":["area","point"],"matchScore":2,"terms":["birmingham park and recreation board","birmingham parks and recreation board"],"tags":{"leisure":"nature_reserve","operator:wikidata":"Q110062982"},"addTags":{"leisure":"nature_reserve","operator":"Birmingham Park and Recreation Board","operator:type":"public","operator:wikidata":"Q110062982"}},"leisure/park/alabamastateparks-aefb27":{"name":"Alabama State Parks","locationSet":{"include":["us-al"]},"geometry":["area","point"],"matchScore":2,"terms":["alabama state parks"],"tags":{"leisure":"park","operator:wikidata":"Q109328474"},"addTags":{"leisure":"park","operator":"Alabama State Parks","operator:type":"public","operator:wikidata":"Q109328474"}},"leisure/park/birminghamparkandrecreationboard-aefb27":{"name":"Birmingham Park and Recreation","locationSet":{"include":["us-al"]},"geometry":["area","point"],"matchScore":2,"terms":["birmingham park and recreation board","birmingham parks and recreation board"],"tags":{"leisure":"park","operator:wikidata":"Q110062982"},"addTags":{"leisure":"park","operator":"Birmingham Park and Recreation Board","operator:type":"public","operator:wikidata":"Q110062982"}},"power/line/alabamapower-ed245e":{"name":"Alabama Power","locationSet":{"include":["us-al"]},"geometry":["line"],"matchScore":2,"terms":["alabama power","alabama power company"],"tags":{"operator:wikidata":"Q4705296","power":"line"},"addTags":{"operator":"Alabama Power","operator:wikidata":"Q4705296","power":"line"}},"power/line/unitedstatessteelcorp-ed245e":{"name":"United States Steel Corp","locationSet":{"include":["us-al"]},"geometry":["line"],"matchScore":2,"terms":["united states steel corp"],"tags":{"operator:wikidata":"Q72539","power":"line"},"addTags":{"operator":"United States Steel Corp","operator:wikidata":"Q72539","power":"line"}},"power/minor_line/alabamapower-07573a":{"name":"Alabama Power","locationSet":{"include":["us-al"]},"geometry":["line"],"matchScore":2,"terms":["alabama power","alabama power company"],"tags":{"operator:wikidata":"Q4705296","power":"minor_line"},"addTags":{"operator":"Alabama Power","operator:wikidata":"Q4705296","power":"minor_line"}},"power/minor_line/unitedstatessteelcorp-07573a":{"name":"United States Steel Corp","locationSet":{"include":["us-al"]},"geometry":["line"],"matchScore":2,"terms":["united states steel corp"],"tags":{"operator:wikidata":"Q72539","power":"minor_line"},"addTags":{"operator":"United States Steel Corp","operator:wikidata":"Q72539","power":"minor_line"}},"power/plant/alabamapower-035181":{"name":"Alabama Power","locationSet":{"include":["us-al"]},"geometry":["area"],"matchScore":2,"terms":["alabama power","alabama power co","alabama power company"],"tags":{"operator:wikidata":"Q4705296","power":"plant"},"addTags":{"operator":"Alabama Power","operator:wikidata":"Q4705296","power":"plant"}},"power/pole/alabamapower-58f3ef":{"name":"Alabama Power","locationSet":{"include":["us-al"]},"geometry":["point","vertex"],"matchScore":2,"terms":["alabama power","alabama power company"],"tags":{"operator:wikidata":"Q4705296","power":"pole"},"addTags":{"operator":"Alabama Power","operator:wikidata":"Q4705296","power":"pole"}},"power/pole/unitedstatessteelcorp-58f3ef":{"name":"United States Steel Corp","locationSet":{"include":["us-al"]},"geometry":["point","vertex"],"matchScore":2,"terms":["united states steel corp"],"tags":{"operator:wikidata":"Q72539","power":"pole"},"addTags":{"operator":"United States Steel Corp","operator:wikidata":"Q72539","power":"pole"}},"power/substation/alabamapower-569b0d":{"name":"Alabama Power","locationSet":{"include":["us-al"]},"geometry":["area","point"],"matchScore":2,"terms":["alabama power","alabama power company"],"tags":{"operator:wikidata":"Q4705296","power":"substation"},"addTags":{"operator":"Alabama Power","operator:wikidata":"Q4705296","power":"substation"}},"power/substation/unitedstatessteelcorp-569b0d":{"name":"United States Steel Corp","locationSet":{"include":["us-al"]},"geometry":["area","point"],"matchScore":2,"terms":["united states steel corp"],"tags":{"operator:wikidata":"Q72539","power":"substation"},"addTags":{"operator":"United States Steel Corp","operator:wikidata":"Q72539","power":"substation"}},"power/tower/alabamapower-9f0401":{"name":"Alabama Power","locationSet":{"include":["us-al"]},"geometry":["point","vertex"],"matchScore":2,"terms":["alabama power","alabama power company"],"tags":{"operator:wikidata":"Q4705296","power":"tower"},"addTags":{"operator":"Alabama Power","operator:wikidata":"Q4705296","power":"tower"}},"power/tower/unitedstatessteelcorp-9f0401":{"name":"United States Steel Corp","locationSet":{"include":["us-al"]},"geometry":["point","vertex"],"matchScore":2,"terms":["united states steel corp"],"tags":{"operator:wikidata":"Q72539","power":"tower"},"addTags":{"operator":"United States Steel Corp","operator:wikidata":"Q72539","power":"tower"}},"power/transformer/alabamapower-a5723a":{"name":"Alabama Power","locationSet":{"include":["us-al"]},"geometry":["point","vertex"],"matchScore":2,"terms":["alabama power","alabama power company"],"tags":{"operator:wikidata":"Q4705296","power":"transformer"},"addTags":{"operator":"Alabama Power","operator:wikidata":"Q4705296","power":"transformer"}},"power/transformer/unitedstatessteelcorp-a5723a":{"name":"United States Steel Corp","locationSet":{"include":["us-al"]},"geometry":["point","vertex"],"matchScore":2,"terms":["united states steel corp"],"tags":{"operator:wikidata":"Q72539","power":"transformer"},"addTags":{"operator":"United States Steel Corp","operator:wikidata":"Q72539","power":"transformer"}},"public_transport/platform/bus_point/montgomeryareatransitsystem-627e3d":{"name":"Montgomery Area Transit System","locationSet":{"include":["us-al"]},"geometry":["point","vertex"],"matchScore":2,"terms":["montgomery area transit system"],"reference":{"key":"public_transport","value":"platform"},"tags":{"bus":"yes","network:wikidata":"Q6905645","public_transport":"platform"},"addTags":{"bus":"yes","highway":"bus_stop","network":"Montgomery Area Transit System","network:wikidata":"Q6905645","public_transport":"platform"}},"public_transport/platform/bus_point/orbit-627e3d":{"name":"Orbit","locationSet":{"include":["us-al"]},"geometry":["point","vertex"],"matchScore":2,"terms":["al_huntsville","huntsville transit","orbit"],"reference":{"key":"public_transport","value":"platform"},"tags":{"bus":"yes","network:wikidata":"Q5945894","public_transport":"platform"},"addTags":{"bus":"yes","highway":"bus_stop","network":"Orbit","network:wikidata":"Q5945894","operator":"Huntsville Transit","public_transport":"platform"}},"type/route/bus/montgomeryareatransitsystem-45e3ef":{"name":"Montgomery Area Transit System","locationSet":{"include":["us-al"]},"geometry":["relation"],"matchScore":2,"terms":["montgomery area transit system"],"reference":{"key":"route","value":"bus"},"tags":{"network:wikidata":"Q6905645","route":"bus","type":"route"},"addTags":{"network":"Montgomery Area Transit System","network:wikidata":"Q6905645","route":"bus","type":"route"}},"type/route/bus/orbit-45e3ef":{"name":"Orbit","locationSet":{"include":["us-al"]},"geometry":["relation"],"matchScore":2,"terms":["al_huntsville","huntsville transit","orbit"],"reference":{"key":"route","value":"bus"},"tags":{"network:wikidata":"Q5945894","route":"bus","type":"route"},"addTags":{"network":"Orbit","network:wikidata":"Q5945894","operator":"Huntsville Transit","route":"bus","type":"route"}}}