{"amenity/atm/citynationalbank-97e06e":{"name":"City National Bank (California)","locationSet":{"include":["us-ca","us-dc","us-de","us-fl","us-ga","us-ma","us-mn","us-nv","us-ny","us-tn","us-va"]},"geometry":["point","vertex"],"matchScore":2,"terms":["city national bank"],"tags":{"amenity":"atm","brand:wikidata":"Q5123314"},"addTags":{"amenity":"atm","brand":"City National Bank","brand:wikidata":"Q5123314","brand:wikipedia":"en:City National Bank (California)","name":"City National Bank","operator":"City National Bank","operator:wikidata":"Q5123314","operator:wikipedia":"en:City National Bank (California)"}},"amenity/atm/pinnaclebank-849a40":{"name":"Pinnacle Bank (US Southeast)","locationSet":{"include":["us-al","us-ga","us-nc","us-sc","us-tn","us-wv"]},"geometry":["point","vertex"],"matchScore":2,"terms":["pinnacle bank","pinnacle financial partners"],"tags":{"amenity":"atm","brand:wikidata":"Q7196294"},"addTags":{"amenity":"atm","brand":"Pinnacle Bank","brand:wikidata":"Q7196294","brand:wikipedia":"en:Pinnacle Financial Partners","name":"Pinnacle Bank","official_name":"Pinnacle Financial Partners","operator":"Pinnacle Bank","operator:wikidata":"Q7196294","operator:wikipedia":"en:Pinnacle Financial Partners"}},"amenity/bank/citynationalbank-0b143b":{"name":"City National Bank (California)","locationSet":{"include":["us-ca","us-dc","us-de","us-fl","us-ga","us-ma","us-mn","us-nv","us-ny","us-tn","us-va"]},"geometry":["point","area"],"matchScore":2,"terms":["city national bank"],"tags":{"amenity":"bank","brand:wikidata":"Q5123314"},"addTags":{"amenity":"bank","brand":"City National Bank","brand:wikidata":"Q5123314","brand:wikipedia":"en:City National Bank (California)","name":"City National Bank"}},"amenity/bank/pinnaclebank-1187bc":{"name":"Pinnacle Bank (US Southeast)","locationSet":{"include":["us-al","us-ga","us-nc","us-sc","us-tn","us-wv"]},"geometry":["point","area"],"matchScore":2,"terms":["pinnacle bank","pinnacle financial partners"],"tags":{"amenity":"bank","brand:wikidata":"Q7196294"},"addTags":{"amenity":"bank","brand":"Pinnacle Bank","brand:wikidata":"Q7196294","brand:wikipedia":"en:Pinnacle Financial Partners","name":"Pinnacle Bank","official_name":"Pinnacle Financial Partners"}},"amenity/clinic/gohealthurgentcare-610c16":{"name":"Novant-GoHealth Urgent Care","locationSet":{"include":["us-ga","us-nc","us-sc","us-va"]},"geometry":["point","area"],"matchScore":2,"terms":["gohealth urgent care","novant health"],"reference":{"key":"amenity","value":"clinic"},"tags":{"amenity":"clinic","brand:wikidata":"Q110282081"},"addTags":{"amenity":"clinic","brand":"GoHealth Urgent Care","brand:wikidata":"Q110282081","healthcare":"clinic","operator":"Novant Health","operator:wikidata":"Q14956815","operator:wikipedia":"en:Novant Health"}},"amenity/fast_food/alohapokeco-6b3f2b":{"name":"Aloha Pok Co","locationSet":{"include":["us-dc","us-fl","us-ga","us-il","us-mn","us-tx","us-wi"]},"geometry":["point","area"],"matchScore":2,"terms":["aloha pok co"],"tags":{"amenity":"fast_food","brand:wikidata":"Q111231031"},"addTags":{"amenity":"fast_food","brand":"Aloha Pok Co","brand:wikidata":"Q111231031","cuisine":"poke","name":"Aloha Pok Co","takeaway":"yes"}},"amenity/fast_food/chicken/haroldschickenshack-f76ba8":{"name":"Harold's Chicken Shack","locationSet":{"include":["us-az","us-ca","us-ga","us-il","us-in","us-mo","us-nv"]},"geometry":["point","area"],"matchScore":2,"terms":["harold's","harold's chicken","harold's chicken shack","the fried chicken king"],"reference":{"key":"cuisine","value":"chicken"},"tags":{"amenity":"fast_food","brand:wikidata":"Q5659832","cuisine":"chicken"},"addTags":{"amenity":"fast_food","brand":"Harold's Chicken Shack","brand:wikidata":"Q5659832","brand:wikipedia":"en:Harold's Chicken Shack","cuisine":"chicken","name":"Harold's Chicken Shack","takeaway":"yes"}},"amenity/fast_food/sandwich/mendocinofarms-c19f86":{"name":"Mendocino Farms","locationSet":{"include":["us-ca","us-ga","us-tx"]},"geometry":["point","area"],"matchScore":2,"terms":["mendocino farms"],"reference":{"key":"cuisine","value":"sandwich"},"tags":{"amenity":"fast_food","brand:wikidata":"Q110671982","cuisine":"sandwich"},"addTags":{"amenity":"fast_food","brand":"Mendocino Farms","brand:wikidata":"Q110671982","cuisine":"sandwich","name":"Mendocino Farms","takeaway":"yes"}},"amenity/fuel/friendlyexpress-e7c562":{"name":"Friendly Express","locationSet":{"include":["us-ga"]},"geometry":["point","area"],"matchScore":2,"terms":["friendly express"],"fields":["name","brand","{amenity/fuel}"],"tags":{"amenity":"fuel","brand:wikidata":"Q110300768"},"addTags":{"amenity":"fuel","brand":"Friendly Express","brand:wikidata":"Q110300768","name":"Friendly Express"}},"amenity/ice_cream/jenissplendidicecreams-53b2e0":{"name":"Jeni's Splendid Ice Cream","locationSet":{"include":["us-al","us-ca","us-dc","us-fl","us-ga","us-il","us-mo","us-nc","us-oh","us-pa","us-sc","us-tn","us-tx"]},"geometry":["point","area"],"matchScore":2,"terms":["jeni's","jeni's splendid ice creams"],"tags":{"amenity":"ice_cream","brand:wikidata":"Q16851196"},"addTags":{"amenity":"ice_cream","brand":"Jeni's Splendid Ice Creams","brand:wikidata":"Q16851196","brand:wikipedia":"en:Jeni's Splendid Ice Creams","name":"Jeni's Splendid Ice Creams","short_name":"Jeni's"}},"amenity/restaurant/american/lazydog-f4f1ab":{"name":"Lazy Dog","locationSet":{"include":["us-ca","us-co","us-fl","us-ga","us-il","us-nv","us-tx","us-va"]},"geometry":["point","area"],"matchScore":2,"terms":["lazy dog"],"reference":{"key":"cuisine","value":"american"},"tags":{"amenity":"restaurant","brand:wikidata":"Q111304278","cuisine":"american"},"addTags":{"amenity":"restaurant","brand":"Lazy Dog","brand:wikidata":"Q111304278","cuisine":"american","name":"Lazy Dog"}},"amenity/restaurant/snooze-62450c":{"name":"Snooze","locationSet":{"include":["us-az","us-ca","us-co","us-ga","us-ks","us-mo","us-nc","us-tn","us-tx"]},"geometry":["point","area"],"matchScore":2,"terms":["snooze"],"tags":{"amenity":"restaurant","brand:wikidata":"Q111304345"},"addTags":{"amenity":"restaurant","brand":"Snooze","brand:wikidata":"Q111304345","cuisine":"breakfast","name":"Snooze"}},"shop/department_store/bealls-834cda":{"name":"Bealls (Florida-based)","locationSet":{"include":["us-az","us-fl","us-ga"]},"geometry":["point","area"],"matchScore":2,"terms":["bealls"],"tags":{"brand:wikidata":"Q4876153","shop":"department_store"},"addTags":{"brand":"Bealls","brand:wikidata":"Q4876153","brand:wikipedia":"en:Bealls (Florida)","name":"Bealls","shop":"department_store"}},"shop/hairdresser/imagestudios-0d42d5":{"name":"Image Studios","locationSet":{"include":["us-ca","us-co","us-fl","us-ga","us-ky","us-mo","us-nc","us-nj","us-nv","us-ny","us-oh","us-or","us-sc","us-tn","us-tx","us-ut"]},"geometry":["point","area"],"matchScore":2,"terms":["image studios"],"tags":{"brand:wikidata":"Q110998819","shop":"hairdresser"},"addTags":{"brand":"Image Studios","brand:wikidata":"Q110998819","name":"Image Studios","shop":"hairdresser"}},"amenity/charging_station/georgiapower-c1e164":{"name":"Georgia Power","locationSet":{"include":["us-ga"]},"geometry":["point","area"],"matchScore":2,"terms":["georgia power"],"fields":["name","operator","{amenity/charging_station}"],"tags":{"amenity":"charging_station","operator:wikidata":"Q5547666"},"addTags":{"amenity":"charging_station","operator":"Georgia Power","operator:wikidata":"Q5547666","operator:wikipedia":"en:Georgia Power"}},"amenity/library/cobbcountypubliclibrarysystem-3f6d55":{"name":"Cobb County Public Library System","locationSet":{"include":["us-ga"]},"geometry":["point","area"],"matchScore":2,"terms":["ccpls","cobb county public library system"],"tags":{"amenity":"library","operator:wikidata":"Q14686609"},"addTags":{"amenity":"library","operator":"Cobb County Public Library System","operator:short":"CCPLS","operator:type":"public","operator:wikidata":"Q14686609","operator:wikipedia":"en:Cobb County Public Library System"}},"amenity/prison/georgiadepartmentofcorrections-c92cb0":{"name":"Georgia Department of Corrections","locationSet":{"include":["us-ga"]},"geometry":["area","point"],"matchScore":2,"terms":["gdc","georgia department of corrections"],"fields":["name","operator","{amenity/prison}"],"tags":{"amenity":"prison","operator:wikidata":"Q15571815"},"addTags":{"amenity":"prison","operator":"Georgia Department of Corrections","operator:wikidata":"Q15571815","operator:wikipedia":"en:Georgia Department of Corrections"}},"amenity/school/cherokeecountyschooldistrict-159679":{"name":"Cherokee County School District","locationSet":{"include":["us-ga"]},"geometry":["area","point"],"matchScore":2,"terms":["ccsd","cherokee county school district"],"tags":{"amenity":"school","operator:wikidata":"Q5092140"},"addTags":{"amenity":"school","operator":"Cherokee County School District","operator:short":"CCSD","operator:type":"public","operator:wikidata":"Q5092140","operator:wikipedia":"en:Cherokee County School District (Georgia)"}},"amenity/school/cobbcountyschooldistrict-159679":{"name":"Cobb County School District","locationSet":{"include":["us-ga"]},"geometry":["area","point"],"matchScore":2,"terms":["ccsd","cobb county school district"],"tags":{"amenity":"school","operator:wikidata":"Q5138757"},"addTags":{"amenity":"school","operator":"Cobb County School District","operator:short":"CCSD","operator:type":"public","operator:wikidata":"Q5138757","operator:wikipedia":"en:Cobb County School District"}},"amenity/school/douglascountyschooldistrict-159679":{"name":"Douglas County School District (Georgia)","locationSet":{"include":["us-ga"]},"geometry":["area","point"],"matchScore":2,"terms":["dcsd","douglas county school district"],"tags":{"amenity":"school","operator:wikidata":"Q5301376"},"addTags":{"amenity":"school","operator":"Douglas County School District","operator:short":"DCSD","operator:type":"public","operator:wikidata":"Q5301376","operator:wikipedia":"en:Douglas County School District"}},"amenity/school/lamarcountyschooldistrict-159679":{"name":"Lamar County School District (Georgia)","locationSet":{"include":["us-ga"]},"geometry":["area","point"],"matchScore":2,"terms":["lamar county school district","lcsd"],"tags":{"amenity":"school","operator:wikidata":"Q6480853"},"addTags":{"amenity":"school","operator":"Lamar County School District","operator:short":"LCSD","operator:type":"public","operator:wikidata":"Q6480853","operator:wikipedia":"en:Lamar County School District (Georgia)"}},"leisure/nature_reserve/georgiastateparksandhistoricsites-62554d":{"name":"Georgia State Parks & Historic Sites","locationSet":{"include":["us-ga"]},"geometry":["area","point"],"matchScore":2,"terms":["georgia state parks & historic sites"],"tags":{"leisure":"nature_reserve","operator:wikidata":"Q72926688"},"addTags":{"leisure":"nature_reserve","operator":"Georgia State Parks & Historic Sites","operator:type":"public","operator:wikidata":"Q72926688"}},"leisure/nature_reserve/mariettaparksandrecreation-62554d":{"name":"Marietta Parks & Recreation","locationSet":{"include":["us-ga"]},"geometry":["area","point"],"matchScore":2,"terms":["city of marietta parks & recreation","marietta parks & recreation"],"tags":{"leisure":"nature_reserve","operator:wikidata":"Q110063769"},"addTags":{"leisure":"nature_reserve","operator":"Marietta Parks & Recreation","operator:type":"public","operator:wikidata":"Q110063769"}},"leisure/park/georgiastateparksandhistoricsites-c2abce":{"name":"Georgia State Parks & Historic Sites","locationSet":{"include":["us-ga"]},"geometry":["area","point"],"matchScore":2,"terms":["georgia state parks & historic sites"],"tags":{"leisure":"park","operator:wikidata":"Q72926688"},"addTags":{"leisure":"park","operator":"Georgia State Parks & Historic Sites","operator:type":"public","operator:wikidata":"Q72926688"}},"leisure/park/mariettaparksandrecreation-c2abce":{"name":"Marietta Parks & Recreation","locationSet":{"include":["us-ga"]},"geometry":["area","point"],"matchScore":2,"terms":["city of marietta parks & recreation","marietta parks & recreation"],"tags":{"leisure":"park","operator:wikidata":"Q110063769"},"addTags":{"leisure":"park","operator":"Marietta Parks & Recreation","operator:type":"public","operator:wikidata":"Q110063769"}},"power/generator/georgiapower-42ce66":{"name":"Georgia Power","locationSet":{"include":["us-ga"]},"geometry":["point","vertex","area"],"matchScore":2,"terms":["georgia power"],"tags":{"operator:wikidata":"Q5547666","power":"generator"},"addTags":{"operator":"Georgia Power","operator:wikidata":"Q5547666","operator:wikipedia":"en:Georgia Power","power":"generator"}},"power/line/georgiapower-6dfce0":{"name":"Georgia Power","locationSet":{"include":["us-ga"]},"geometry":["line"],"matchScore":2,"terms":["georgia power"],"tags":{"operator:wikidata":"Q5547666","power":"line"},"addTags":{"operator":"Georgia Power","operator:wikidata":"Q5547666","operator:wikipedia":"en:Georgia Power","power":"line"}},"power/minor_line/georgiapower-39b74b":{"name":"Georgia Power","locationSet":{"include":["us-ga"]},"geometry":["line"],"matchScore":2,"terms":["georgia power"],"tags":{"operator:wikidata":"Q5547666","power":"minor_line"},"addTags":{"operator":"Georgia Power","operator:wikidata":"Q5547666","operator:wikipedia":"en:Georgia Power","power":"minor_line"}},"power/pole/georgiapower-ace97b":{"name":"Georgia Power","locationSet":{"include":["us-ga"]},"geometry":["point","vertex"],"matchScore":2,"terms":["georgia power"],"tags":{"operator:wikidata":"Q5547666","power":"pole"},"addTags":{"operator":"Georgia Power","operator:wikidata":"Q5547666","operator:wikipedia":"en:Georgia Power","power":"pole"}},"power/substation/georgiapower-2fdc13":{"name":"Georgia Power","locationSet":{"include":["us-ga"]},"geometry":["area","point"],"matchScore":2,"terms":["georgia power"],"tags":{"operator:wikidata":"Q5547666","power":"substation"},"addTags":{"operator":"Georgia Power","operator:wikidata":"Q5547666","operator:wikipedia":"en:Georgia Power","power":"substation"}},"power/tower/georgiapower-796748":{"name":"Georgia Power","locationSet":{"include":["us-ga"]},"geometry":["point","vertex"],"matchScore":2,"terms":["georgia power"],"tags":{"operator:wikidata":"Q5547666","power":"tower"},"addTags":{"operator":"Georgia Power","operator:wikidata":"Q5547666","operator:wikipedia":"en:Georgia Power","power":"tower"}},"power/transformer/georgiapower-54d59e":{"name":"Georgia Power","locationSet":{"include":["us-ga"]},"geometry":["point","vertex"],"matchScore":2,"terms":["georgia power"],"tags":{"operator:wikidata":"Q5547666","power":"transformer"},"addTags":{"operator":"Georgia Power","operator:wikidata":"Q5547666","operator:wikipedia":"en:Georgia Power","power":"transformer"}},"public_transport/platform/bus_point/xpress-f49215":{"name":"Xpress","locationSet":{"include":["us-ga"]},"geometry":["point","vertex"],"matchScore":2,"terms":["georgia regional transportation authority","grta","xpress"],"reference":{"key":"public_transport","value":"platform"},"tags":{"bus":"yes","network:wikidata":"Q5514501","public_transport":"platform"},"addTags":{"bus":"yes","highway":"bus_stop","network":"Xpress","network:wikidata":"Q5514501","network:wikipedia":"en:GRTA Xpress","operator":"Georgia Regional Transportation Authority","operator:short":"GRTA","public_transport":"platform"}},"type/route/bus/xpress-3a89de":{"name":"Xpress","locationSet":{"include":["us-ga"]},"geometry":["relation"],"matchScore":2,"terms":["georgia regional transportation authority","grta","xpress"],"reference":{"key":"route","value":"bus"},"tags":{"network:wikidata":"Q5514501","route":"bus","type":"route"},"addTags":{"network":"Xpress","network:wikidata":"Q5514501","network:wikipedia":"en:GRTA Xpress","operator":"Georgia Regional Transportation Authority","operator:short":"GRTA","route":"bus","type":"route"}}}