{"advertising/totem/sol-688308":{"name":"Sol","locationSet":{"include":["ai","ag","aw","bs","bb","bq","vg","ky","cu","cw","dm","do","gd","gp","ht","jm","mq","ms","pr","bl","kn","lc","mf","vc","sx","tt","tc","vi","gf","gy","sr"]},"geometry":["point","line"],"matchScore":2,"terms":["sol"],"tags":{"advertising":"totem","brand:wikidata":"Q99939344"},"addTags":{"advertising":"totem","brand":"Sol","brand:wikidata":"Q99939344"}},"advertising/totem/terpel-6bcba4":{"name":"Terpel","locationSet":{"include":["cl","co","do","ec","mx","pa"]},"geometry":["point","line"],"matchScore":2,"terms":["terpel"],"tags":{"advertising":"totem","brand:wikidata":"Q7703003"},"addTags":{"advertising":"totem","brand":"Terpel","brand:wikidata":"Q7703003"}},"amenity/car_rental/usave-c212fd":{"name":"U-Save","locationSet":{"include":["cr","do","jm","mt","mx","nl","ro","us"]},"geometry":["point","area"],"matchScore":2,"terms":["u-save","u-save car & truck rental"],"tags":{"amenity":"car_rental","brand:wikidata":"Q123005345"},"addTags":{"amenity":"car_rental","brand":"U-Save","brand:wikidata":"Q123005345","name":"U-Save","official_name":"U-Save Car & Truck Rental"}},"amenity/cinema/caribbeancinemas-77ba3f":{"name":"Caribbean Cinemas","locationSet":{"include":["ag","do","fr","gy","kn","lc","nl","pa","tt","us"]},"geometry":["point","area"],"matchScore":2,"terms":["caribbean cinemas"],"fields":["name","brand","{amenity/cinema}"],"tags":{"amenity":"cinema","brand:wikidata":"Q5039364"},"addTags":{"amenity":"cinema","brand":"Caribbean Cinemas","brand:wikidata":"Q5039364","name":"Caribbean Cinemas"}},"amenity/fuel/sol-6e9b5c":{"name":"Sol","locationSet":{"include":["ai","ag","aw","bs","bb","bq","vg","ky","cu","cw","dm","do","gd","gp","ht","jm","mq","ms","pr","bl","kn","lc","mf","vc","sx","tt","tc","vi","gf","gy","sr"]},"geometry":["point","area"],"matchScore":2,"terms":["sol"],"fields":["name","brand","{amenity/fuel}"],"tags":{"amenity":"fuel","brand:wikidata":"Q99939344"},"addTags":{"amenity":"fuel","brand":"Sol","brand:wikidata":"Q99939344","name":"Sol"}},"amenity/fuel/terpel-23f925":{"name":"Terpel","locationSet":{"include":["cl","co","do","ec","mx","pa"]},"geometry":["point","area"],"matchScore":2,"terms":["terpel"],"fields":["name","brand","{amenity/fuel}"],"tags":{"amenity":"fuel","brand:wikidata":"Q7703003"},"addTags":{"amenity":"fuel","brand":"Terpel","brand:wikidata":"Q7703003","name":"Terpel"}},"amenity/restaurant/japanese/udon-faebb3":{"name":"UDON","locationSet":{"include":["do","es","it","pr","us"]},"geometry":["point","area"],"matchScore":2,"terms":["udon"],"reference":{"key":"cuisine","value":"japanese"},"tags":{"amenity":"restaurant","brand:wikidata":"Q115679798","cuisine":"japanese"},"addTags":{"amenity":"restaurant","brand":"UDON","brand:wikidata":"Q115679798","cuisine":"japanese","name":"UDON"}},"emergency/ambulance_station/cruzrojadominicana-0c9972":{"name":"Cruz Roja Dominicana","locationSet":{"include":["do"]},"geometry":["point","area"],"matchScore":2,"terms":["crd","cruz roja","cruz roja dominicana"],"fields":["name","brand","{emergency/ambulance_station}"],"tags":{"brand:wikidata":"Q56289825","emergency":"ambulance_station"},"addTags":{"brand":"Cruz Roja Dominicana","brand:wikidata":"Q56289825","emergency":"ambulance_station","name":"Cruz Roja Dominicana"}},"leisure/fitness_centre/smartfit-cd44e6":{"name":"Smart Fit","locationSet":{"include":["br","cl","co","do","mx","pe"]},"geometry":["point","area"],"matchScore":2,"terms":["smart fit"],"tags":{"brand:wikidata":"Q30930959","leisure":"fitness_centre"},"addTags":{"brand":"Smart Fit","brand:wikidata":"Q30930959","leisure":"fitness_centre","name":"Smart Fit"}},"leisure/sports_centre/karting/k1speed-fb63c7":{"name":"K1 Speed","locationSet":{"include":["ca","cn","do","fx","it","kr","kw","mx","us"]},"geometry":["area","point"],"matchScore":2,"terms":["k1 speed"],"fields":["name","brand","{leisure/sports_centre/karting}"],"reference":{"key":"sport","value":"karting"},"tags":{"brand:wikidata":"Q105615897","leisure":"sports_centre","sport":"karting"},"addTags":{"brand":"K1 Speed","brand:wikidata":"Q105615897","leisure":"sports_centre","name":"K1 Speed","sport":"karting"}},"shop/baby_goods/suavinex-f3fd61":{"name":"Suavinex","locationSet":{"include":["ae","al","ao","au","be","ch","cl","cn","co","cr","cy","cz","do","dz","ec","es","fr","ge","gq","gr","hk","il","iq","ir","it","kr","lb","lu","me","mt","mx","my","nl","no","pa","pl","pt","ro","rs","ru","sa","sg","sk","tr","uy","vn"]},"geometry":["point","area"],"matchScore":2,"terms":["suavinex"],"tags":{"brand:wikidata":"Q122258837","shop":"baby_goods"},"addTags":{"brand":"Suavinex","brand:wikidata":"Q122258837","name":"Suavinex","shop":"baby_goods"}},"shop/electronics/steren-21e489":{"name":"Steren","locationSet":{"include":["co","cr","do","gt","mx"]},"geometry":["point","area"],"matchScore":2,"terms":["steren"],"tags":{"brand:wikidata":"Q5829102","shop":"electronics"},"addTags":{"brand":"Steren","brand:wikidata":"Q5829102","name":"Steren","shop":"electronics"}},"shop/mobile_phone/claro-1c9651":{"name":"Claro","locationSet":{"include":["ar","br","cl","co","cr","do","ec","gt","hn","ni","pa","pe","pr","py","sv","uy"]},"geometry":["point","area"],"matchScore":2,"terms":["claro","claro brasil"],"tags":{"brand:wikidata":"Q1770208","shop":"mobile_phone"},"addTags":{"brand":"Claro","brand:wikidata":"Q1770208","name":"Claro","shop":"mobile_phone"}},"shop/perfumery/equivalenza-59ad61":{"name":"Equivalenza","locationSet":{"include":["ad","ao","at","be","ca","cv","de","do","es","fr","gb","gr","gt","ie","it","mx","mz","nl","pe","pt","ro","tn"]},"geometry":["point","area"],"matchScore":2,"terms":["equivalenza"],"tags":{"brand:wikidata":"Q104649798","shop":"perfumery"},"addTags":{"brand":"Equivalenza","brand:wikidata":"Q104649798","name":"Equivalenza","shop":"perfumery"}},"shop/travel_agency/viajeselcorteingles-d900b5":{"name":"Viajes El Corte Inglés","locationSet":{"include":["ar","cl","co","do","ec","es","fr","it","mx","pa","pe","pt","uy"]},"geometry":["point","area"],"matchScore":2,"terms":["viajes el corte inglés"],"tags":{"brand:wikidata":"Q115268048","shop":"travel_agency"},"addTags":{"brand":"Viajes El Corte Inglés","brand:wikidata":"Q115268048","name":"Viajes El Corte Inglés","shop":"travel_agency"}},"shop/window_blind/hunterdouglasgallery-5ccc57":{"name":"Hunter Douglas Gallery","locationSet":{"include":["ca","do","us"]},"geometry":["point","area"],"matchScore":2,"terms":["hunter douglas"],"fields":["name","brand","{shop/window_blind}"],"tags":{"brand:wikidata":"Q2101764","shop":"window_blind"},"addTags":{"brand":"Hunter Douglas","brand:wikidata":"Q2101764","name":"Hunter Douglas Gallery","shop":"window_blind"}},"tourism/hotel/barcelohotelsandresorts-302c40":{"name":"Barceló","locationSet":{"include":["ae","aw","bg","cr","cu","cz","de","do","eg","es","gr","gt","hu","it","ma","mv","mx","ni","om","pt","sv","tn","tr","us"]},"geometry":["point","area"],"matchScore":2,"terms":["barceló hotels & resorts"],"fields":["name","brand","{tourism/hotel}"],"tags":{"brand:wikidata":"Q15148996","tourism":"hotel"},"addTags":{"brand":"Barceló Hotels & Resorts","brand:wikidata":"Q15148996","name":"Barceló Hotels & Resorts","tourism":"hotel"}},"tourism/hotel/embassysuites-7ef1cc":{"name":"Embassy Suites","locationSet":{"include":["aw","ca","co","do","pr","qa","us"]},"geometry":["point","area"],"matchScore":2,"terms":["embassy suites","embassy suites by hilton"],"fields":["name","brand","{tourism/hotel}"],"tags":{"brand:wikidata":"Q5369524","tourism":"hotel"},"addTags":{"brand":"Embassy Suites","brand:wikidata":"Q5369524","name":"Embassy Suites","official_name":"Embassy Suites by Hilton","tourism":"hotel"}},"tourism/hotel/homewoodsuites-a1b516":{"name":"Homewood Suites","locationSet":{"include":["ca","do","mx","us"]},"geometry":["point","area"],"matchScore":2,"terms":["homewood suites","homewood suites by hilton"],"fields":["name","brand","{tourism/hotel}"],"tags":{"brand:wikidata":"Q5890701","tourism":"hotel"},"addTags":{"brand":"Homewood Suites","brand:wikidata":"Q5890701","name":"Homewood Suites","official_name":"Homewood Suites by Hilton","tourism":"hotel"}},"tourism/hotel/iberostarhotelsandresorts-e0d9de":{"name":"Iberostar Hotels & Resorts","locationSet":{"include":["br","cv","do","es","gr","jm","ma","me","mx","pe","pt","tn","us"]},"geometry":["point","area"],"matchScore":2,"terms":["iberostar","iberostar hotels & resorts"],"fields":["name","brand","{tourism/hotel}"],"tags":{"brand:wikidata":"Q2035939","tourism":"hotel"},"addTags":{"brand":"Iberostar Hotels & Resorts","brand:wikidata":"Q2035939","tourism":"hotel"}},"tourism/hotel/occidental-e4b4d8":{"name":"Occidental","locationSet":{"include":["ae","cr","cu","cz","do","es","it","mx","tn","tr"]},"geometry":["point","area"],"matchScore":2,"terms":["occidental"],"fields":["name","brand","{tourism/hotel}"],"tags":{"brand:wikidata":"Q15148996","tourism":"hotel"},"addTags":{"brand":"Occidental","brand:wikidata":"Q15148996","name":"Occidental","tourism":"hotel"}},"tourism/hotel/royalhideaway-1a48d0":{"name":"Royal Hideaway","locationSet":{"include":["ae","do","es","id","mx"]},"geometry":["point","area"],"matchScore":2,"terms":["royal hideaway"],"fields":["name","brand","{tourism/hotel}"],"tags":{"brand:wikidata":"Q15148996","tourism":"hotel"},"addTags":{"brand":"Royal Hideaway","brand:wikidata":"Q15148996","name":"Royal Hideaway","tourism":"hotel"}},"amenity/hospital/ministeriodesaludpublicayasistenciasocial-d139a9":{"name":"Ministerio de Salud Pública y Asistencia Social (República Dominicana)","locationSet":{"include":["do"]},"geometry":["area","point"],"matchScore":2,"terms":["ministerio de salud","ministerio de salud pública","ministerio de salud pública y asistencia social","msp"],"fields":["name","operator","{amenity/hospital}"],"reference":{"key":"amenity","value":"hospital"},"tags":{"amenity":"hospital","operator:wikidata":"Q90746249"},"addTags":{"amenity":"hospital","healthcare":"hospital","operator":"Ministerio de Salud Pública y Asistencia Social","operator:short":"MSP","operator:wikidata":"Q90746249"}},"amenity/school/ministeriodeeducacion-9a8af5":{"name":"Ministerio de Educación (Dominican Republic)","locationSet":{"include":["do"]},"geometry":["area","point"],"matchScore":2,"terms":["minerd","ministerio de educación"],"tags":{"amenity":"school","operator:wikidata":"Q6017274"},"addTags":{"amenity":"school","operator":"Ministerio de Educación","operator:short":"MINERD","operator:type":"public","operator:wikidata":"Q6017274"}},"amenity/telephone/claro-6490cd":{"name":"Claro","locationSet":{"include":["ai","ag","aw","bs","bb","bq","vg","ky","cu","cw","dm","do","gd","gp","ht","jm","mq","ms","pr","bl","kn","lc","mf","vc","sx","tt","tc","vi","bz","cr","sv","gt","hn","mx","ni","pa","ar","bo","bv","br","cl","co","ec","fk","gf","gy","py","pe","gs","sr","uy","ve"]},"geometry":["point","vertex"],"matchScore":2,"terms":["claro"],"fields":["name","operator","{amenity/telephone}"],"tags":{"amenity":"telephone","operator:wikidata":"Q1770208"},"addTags":{"amenity":"telephone","operator":"Claro","operator:wikidata":"Q1770208"}},"man_made/pipeline/valero-761061":{"name":"Valero","locationSet":{"include":["ai","ag","aw","bs","bb","bq","vg","ky","cu","cw","dm","do","gd","gp","ht","jm","mq","ms","pr","bl","kn","lc","mf","vc","sx","tt","tc","vi","ca","mx","us"]},"geometry":["line"],"matchScore":2,"terms":["valero"],"tags":{"man_made":"pipeline","operator:wikidata":"Q1283291"},"addTags":{"man_made":"pipeline","operator":"Valero","operator:wikidata":"Q1283291"}},"office/energy_supplier/naturgy-e15d8a":{"name":"Naturgy","locationSet":{"include":["ar","au","be","br","cl","cn","cr","de","do","dz","eg","es","fr","gb","ie","in","jm","jo","jp","lu","ma","mx","nl","om","pa","pe","pk","pr","pt","sg"]},"geometry":["point","area"],"matchScore":2,"terms":["naturgy"],"tags":{"office":"energy_supplier","operator:wikidata":"Q474690"},"addTags":{"name":"Naturgy","office":"energy_supplier","operator":"Naturgy","operator:wikidata":"Q474690"}},"pipeline/substation/valero-011eb6":{"name":"Valero","locationSet":{"include":["ai","ag","aw","bs","bb","bq","vg","ky","cu","cw","dm","do","gd","gp","ht","jm","mq","ms","pr","bl","kn","lc","mf","vc","sx","tt","tc","vi","ca","mx","us"]},"geometry":["area","point"],"matchScore":2,"terms":["valero"],"tags":{"operator:wikidata":"Q1283291","pipeline":"substation"},"addTags":{"operator":"Valero","operator:wikidata":"Q1283291","pipeline":"substation"}},"power/generator/valero-f2eccb":{"name":"Valero","locationSet":{"include":["ai","ag","aw","bs","bb","bq","vg","ky","cu","cw","dm","do","gd","gp","ht","jm","mq","ms","pr","bl","kn","lc","mf","vc","sx","tt","tc","vi","ca","mx","us"]},"geometry":["point","vertex","area"],"matchScore":2,"terms":["valero"],"tags":{"operator:wikidata":"Q1283291","power":"generator"},"addTags":{"operator":"Valero","operator:wikidata":"Q1283291","power":"generator"}},"power/line/cdeee-5cfbc0":{"name":"CDEEE","locationSet":{"include":["do"]},"geometry":["line"],"matchScore":2,"terms":["cdeee"],"tags":{"operator:wikidata":"Q20014247","power":"line"},"addTags":{"operator":"CDEEE","operator:wikidata":"Q20014247","power":"line"}},"power/minor_line/cdeee-6f048b":{"name":"CDEEE","locationSet":{"include":["do"]},"geometry":["line"],"matchScore":2,"terms":["cdeee"],"tags":{"operator:wikidata":"Q20014247","power":"minor_line"},"addTags":{"operator":"CDEEE","operator:wikidata":"Q20014247","power":"minor_line"}},"power/plant/egehaina-20d3cf":{"name":"EGE Haina","locationSet":{"include":["do"]},"geometry":["area"],"matchScore":2,"terms":["ege haina"],"tags":{"operator:wikidata":"Q15993838","power":"plant"},"addTags":{"operator":"EGE Haina","operator:wikidata":"Q15993838","power":"plant"}},"power/pole/cdeee-1128d3":{"name":"CDEEE","locationSet":{"include":["do"]},"geometry":["point","vertex"],"matchScore":2,"terms":["cdeee"],"tags":{"operator:wikidata":"Q20014247","power":"pole"},"addTags":{"operator":"CDEEE","operator:wikidata":"Q20014247","power":"pole"}},"power/substation/cdeee-e52dba":{"name":"CDEEE","locationSet":{"include":["do"]},"geometry":["area","point"],"matchScore":2,"terms":["cdeee"],"tags":{"operator:wikidata":"Q20014247","power":"substation"},"addTags":{"operator":"CDEEE","operator:wikidata":"Q20014247","power":"substation"}},"power/tower/cdeee-6cbcd4":{"name":"CDEEE","locationSet":{"include":["do"]},"geometry":["point","vertex"],"matchScore":2,"terms":["cdeee"],"tags":{"operator:wikidata":"Q20014247","power":"tower"},"addTags":{"operator":"CDEEE","operator:wikidata":"Q20014247","power":"tower"}},"power/transformer/cdeee-0e05aa":{"name":"CDEEE","locationSet":{"include":["do"]},"geometry":["point","vertex"],"matchScore":2,"terms":["cdeee"],"tags":{"operator:wikidata":"Q20014247","power":"transformer"},"addTags":{"operator":"CDEEE","operator:wikidata":"Q20014247","power":"transformer"}}}