{"amenity/atm/seb-7527a2":{"name":"SEB","locationSet":{"include":["de","ee","lt","lv","se"]},"geometry":["point","vertex"],"matchScore":2,"terms":["seb"],"tags":{"amenity":"atm","brand:wikidata":"Q975655"},"addTags":{"amenity":"atm","brand":"SEB","brand:wikidata":"Q975655","brand:wikipedia":"en:SEB Group","name":"SEB","operator":"SEB","operator:wikidata":"Q975655","operator:wikipedia":"en:SEB Group"}},"amenity/atm/swedbank-ab2e60":{"name":"Swedbank","locationSet":{"include":["ee","lt","lv","se"]},"geometry":["point","vertex"],"matchScore":2,"terms":["swedbank"],"tags":{"amenity":"atm","brand:wikidata":"Q1145493"},"addTags":{"amenity":"atm","brand":"Swedbank","brand:wikidata":"Q1145493","brand:wikipedia":"en:Swedbank","name":"Swedbank","operator":"Swedbank","operator:wikidata":"Q1145493","operator:wikipedia":"en:Swedbank"}},"amenity/bank/seb-e3cf16":{"name":"SEB","locationSet":{"include":["de","ee","lt","lv","se"]},"geometry":["point","area"],"matchScore":2,"terms":["seb"],"tags":{"amenity":"bank","brand:wikidata":"Q975655"},"addTags":{"amenity":"bank","brand":"SEB","brand:wikidata":"Q975655","brand:wikipedia":"en:SEB Group","name":"SEB"}},"amenity/bank/swedbank-2cd0b2":{"name":"Swedbank","locationSet":{"include":["ee","lt","lv","se"]},"geometry":["point","area"],"matchScore":2,"terms":["swedbank"],"tags":{"amenity":"bank","brand:wikidata":"Q1145493"},"addTags":{"amenity":"bank","brand":"Swedbank","brand:wikidata":"Q1145493","brand:wikipedia":"en:Swedbank","name":"Swedbank"}},"amenity/fuel/alexela-00a67a":{"name":"Alexela","locationSet":{"include":["ee"]},"geometry":["point","area"],"matchScore":2,"terms":["alexela"],"fields":["name","brand","{amenity/fuel}"],"tags":{"amenity":"fuel","brand:wikidata":"Q20529782"},"addTags":{"amenity":"fuel","brand":"Alexela","brand:wikidata":"Q20529782","brand:wikipedia":"et:Alexela Oil","name":"Alexela"}},"amenity/fuel/olerex-00a67a":{"name":"Olerex","locationSet":{"include":["ee"]},"geometry":["point","area"],"matchScore":2,"terms":["olerex"],"fields":["name","brand","{amenity/fuel}"],"tags":{"amenity":"fuel","brand:wikidata":"Q16931205"},"addTags":{"amenity":"fuel","brand":"Olerex","brand:wikidata":"Q16931205","brand:wikipedia":"et:AS Olerex","name":"Olerex"}},"amenity/fuel/statoil-442e61":{"name":"Statoil","locationSet":{"include":["dk","ee","ie","pl","ru","se"]},"geometry":["point","area"],"matchScore":2,"terms":["statoil"],"fields":["name","brand","{amenity/fuel}"],"tags":{"amenity":"fuel","brand:wikidata":"Q1776022"},"addTags":{"amenity":"fuel","brand":"Statoil","brand:wikidata":"Q1776022","brand:wikipedia":"en:Equinor","name":"Statoil"}},"amenity/pharmacy/benu-1cd44c":{"name":"Benu","locationSet":{"include":["ch","cz","ee","hu","lt","lv","me","nl","rs","sk"]},"geometry":["point","area"],"matchScore":2,"terms":["benu","benu aptieka","benu vaistinė"],"reference":{"key":"amenity","value":"pharmacy"},"tags":{"amenity":"pharmacy","brand:wikidata":"Q62562792"},"addTags":{"amenity":"pharmacy","brand":"Benu","brand:wikidata":"Q62562792","healthcare":"pharmacy","name":"Benu"}},"amenity/vending_machine/continental-123edb":{"name":"Continental","locationSet":{"include":["by","bg","cz","hu","pl","md","ro","ru","sk","ua","ax","gg","je","cq","dk","ee","fo","fi","is","ie","im","lv","lt","no","sj","se","gb","al","ad","ba","hr","gi","gr","va","it","mt","me","mk","pt","sm","rs","si","es","xk","at","be","fr","de","li","lu","mc","nl","ch"]},"geometry":["point","vertex"],"matchScore":2,"terms":["continental"],"tags":{"amenity":"vending_machine","brand:wikidata":"Q64739247"},"addTags":{"amenity":"vending_machine","brand":"Continental","brand:wikidata":"Q64739247","brand:wikipedia":"de:Continental Reifen GmbH","name":"Continental","vending":"bicycle_tube"}},"amenity/vending_machine/schwalbe-123edb":{"name":"Schwalbe","locationSet":{"include":["by","bg","cz","hu","pl","md","ro","ru","sk","ua","ax","gg","je","cq","dk","ee","fo","fi","is","ie","im","lv","lt","no","sj","se","gb","al","ad","ba","hr","gi","gr","va","it","mt","me","mk","pt","sm","rs","si","es","xk","at","be","fr","de","li","lu","mc","nl","ch"]},"geometry":["point","vertex"],"matchScore":2,"terms":["schwalbe"],"tags":{"amenity":"vending_machine","brand:wikidata":"Q1312213"},"addTags":{"amenity":"vending_machine","brand":"Schwalbe","brand:wikidata":"Q1312213","brand:wikipedia":"de:Ralf Bohle GmbH","name":"Schwalbe","vending":"bicycle_tube"}},"office/estate_agent/vonpollrealestate-c99072":{"name":"von Poll Real Estate","locationSet":{"include":["by","bg","cz","hu","pl","md","ro","ru","sk","ua","ax","gg","je","cq","dk","ee","fo","fi","is","ie","im","lv","lt","no","sj","se","gb","al","ad","ba","hr","gi","gr","va","it","mt","me","mk","pt","sm","rs","si","es","xk","at","be","fr","de","li","lu","mc","nl","ch"],"exclude":["at","de"]},"geometry":["point","area"],"matchScore":2,"terms":["von poll immobilien","von poll real estate","vonpoll","vonpoll commercial"],"tags":{"brand:wikidata":"Q96026696","office":"estate_agent"},"addTags":{"brand":"von Poll Real Estate","brand:wikidata":"Q96026696","brand:wikipedia":"de:Von Poll Immobilien","name":"von Poll Real Estate","office":"estate_agent"}},"shop/car/smart-f30ed8":{"name":"Smart","locationSet":{"include":["by","bg","cz","hu","pl","md","ro","ru","sk","ua","ax","gg","je","cq","dk","ee","fo","fi","is","ie","im","lv","lt","no","sj","se","gb","al","ad","ba","hr","gi","gr","va","it","mt","me","mk","pt","sm","rs","si","es","xk","at","be","fr","de","li","lu","mc","nl","ch"]},"geometry":["point","area"],"matchScore":2,"terms":["smart"],"fields":["name","brand","{shop/car}"],"tags":{"brand:wikidata":"Q156490","shop":"car"},"addTags":{"brand":"Smart","brand:wikidata":"Q156490","brand:wikipedia":"en:Smart (marque)","name":"Smart","shop":"car"}},"shop/chemist/drogas-1a360a":{"name":"Drogas","locationSet":{"include":["ee","lt","lv"]},"geometry":["point","area"],"matchScore":2,"terms":["drogas"],"tags":{"brand:wikidata":"Q15806753","shop":"chemist"},"addTags":{"brand":"Drogas","brand:wikidata":"Q15806753","brand:wikipedia":"de:Drogas","name":"Drogas","shop":"chemist"}},"shop/clothes/campdavid-0a34da":{"name":"Camp David","locationSet":{"include":["at","de","ee","sk"]},"geometry":["point","area"],"matchScore":2,"terms":["camp david"],"tags":{"brand:wikidata":"Q50540636","shop":"clothes"},"addTags":{"brand":"Camp David","brand:wikidata":"Q50540636","brand:wikipedia":"en:Camp David (fashion)","name":"Camp David","shop":"clothes"}},"shop/clothes/coccodrillo-571709":{"name":"Coccodrillo","locationSet":{"include":["at","bg","by","cz","de","ee","fi","hu","lt","lv","me","pl","ro","rs","ru","sk","ua"]},"geometry":["point","area"],"matchScore":2,"terms":["coccodrillo"],"tags":{"brand:wikidata":"Q9195224","shop":"clothes"},"addTags":{"brand":"Coccodrillo","brand:wikidata":"Q9195224","brand:wikipedia":"pl:Coccodrillo","clothes":"children","name":"Coccodrillo","shop":"clothes"}},"shop/clothes/cropp-613e37":{"name":"Cropp","locationSet":{"include":["ba","bg","cz","ee","fi","hr","hu","kz","lt","lv","ro","rs","ru","si","sk","ua"]},"geometry":["point","area"],"matchScore":2,"terms":["cropp"],"tags":{"brand:wikidata":"Q9196793","shop":"clothes"},"addTags":{"brand":"Cropp","brand:wikidata":"Q9196793","brand:wikipedia":"pl:Cropp","name":"Cropp","shop":"clothes"}},"shop/clothes/lindex-d7f5c5":{"name":"Lindex","locationSet":{"include":["cz","ee","fi","no","se","sk"]},"geometry":["point","area"],"matchScore":2,"terms":["lindex"],"fields":["name","brand","{shop/clothes}"],"tags":{"brand:wikidata":"Q1786717","shop":"clothes"},"addTags":{"brand":"Lindex","brand:wikidata":"Q1786717","brand:wikipedia":"en:Lindex","name":"Lindex","shop":"clothes"}},"shop/clothes/maje-99ba8f":{"name":"Maje","locationSet":{"include":["by","bg","cz","hu","pl","md","ro","ru","sk","ua","ax","gg","je","cq","dk","ee","fo","fi","is","ie","im","lv","lt","no","sj","se","gb","al","ad","ba","hr","gi","gr","va","it","mt","me","mk","pt","sm","rs","si","es","xk","at","be","fr","de","li","lu","mc","nl","ch","cn","hk","sg","tw","uk","us"]},"geometry":["point","area"],"matchScore":2,"terms":["maje"],"tags":{"brand:wikidata":"Q3280458","shop":"clothes"},"addTags":{"brand":"Maje","brand:wikidata":"Q3280458","brand:wikipedia":"fr:Maje","clothes":"women","name":"Maje","shop":"clothes"}},"shop/clothes/maxetmoi-c7a41d":{"name":"Max et Moi","locationSet":{"include":["ch","ee","es","fr","ru"]},"geometry":["point","area"],"matchScore":2,"terms":["max et moi"],"tags":{"brand:wikidata":"Q104717564","shop":"clothes"},"addTags":{"brand":"Max et Moi","brand:wikidata":"Q104717564","clothes":"women","name":"Max et Moi","shop":"clothes"}},"shop/clothes/pepco-98e975":{"name":"Pepco","locationSet":{"include":["bg","cz","ee","hr","hu","it","lt","lv","pl","ro","rs","si","sk"]},"geometry":["point","area"],"matchScore":2,"terms":["pepco"],"tags":{"brand:wikidata":"Q11815580","shop":"clothes"},"addTags":{"brand":"Pepco","brand:wikidata":"Q11815580","brand:wikipedia":"pl:Pepco","name":"Pepco","shop":"clothes"}},"shop/convenience/viva-856fe1":{"name":"Viva","locationSet":{"include":["by","bg","cz","hu","pl","md","ro","ru","sk","ua","ax","gg","je","cq","dk","ee","fo","fi","is","ie","im","lv","lt","no","sj","se","gb","al","ad","ba","hr","gi","gr","va","it","mt","me","mk","pt","sm","rs","si","es","xk","at","be","fr","de","li","lu","mc","nl","ch"]},"geometry":["point","area"],"matchScore":2,"terms":["viva"],"tags":{"brand:wikidata":"Q168238","shop":"convenience"},"addTags":{"brand":"Viva","brand:wikidata":"Q168238","brand:wikipedia":"en:OMV","name":"Viva","shop":"convenience"}},"shop/doityourself/bauhaus-6847b5":{"name":"Bauhaus","locationSet":{"include":["at","bg","ch","cz","de","dk","ee","es","fi","hr","hu","is","lu","nl","no","se","si","sk","tr"]},"geometry":["point","area"],"matchScore":2,"terms":["bauhaus"],"tags":{"brand:wikidata":"Q672043","shop":"doityourself"},"addTags":{"brand":"Bauhaus","brand:wikidata":"Q672043","brand:wikipedia":"en:Bauhaus (company)","name":"Bauhaus","shop":"doityourself"}},"shop/furniture/momax-a18722":{"name":"Mömax","locationSet":{"include":["by","bg","cz","hu","pl","md","ro","ru","sk","ua","ax","gg","je","cq","dk","ee","fo","fi","is","ie","im","lv","lt","no","sj","se","gb","al","ad","ba","hr","gi","gr","va","it","mt","me","mk","pt","sm","rs","si","es","xk","at","be","fr","de","li","lu","mc","nl","ch"]},"geometry":["point","area"],"matchScore":2,"terms":["mömax"],"tags":{"brand:wikidata":"Q56388481","shop":"furniture"},"addTags":{"brand":"Mömax","brand:wikidata":"Q56388481","brand:wikipedia":"hu:Mömax (nemzetközi cég)","name":"Mömax","shop":"furniture"}},"shop/furniture/xxxlutz-5acc6e":{"name":"XXXLutz","locationSet":{"include":["by","bg","cz","hu","pl","md","ro","ru","sk","ua","ax","gg","je","cq","dk","ee","fo","fi","is","ie","im","lv","lt","no","sj","se","gb","al","ad","ba","hr","gi","gr","va","it","mt","me","mk","pt","sm","rs","si","es","xk","at","be","fr","de","li","lu","mc","nl","ch"],"exclude":["bg"]},"geometry":["point","area"],"matchScore":2,"terms":["xxxlutz"],"tags":{"brand:wikidata":"Q70339467","shop":"furniture"},"addTags":{"brand":"XXXLutz","brand:wikidata":"Q70339467","brand:wikipedia":"de:XXXLutz","name":"XXXLutz","shop":"furniture"}},"shop/interior_decoration/hemtex-056dae":{"name":"Hemtex","locationSet":{"include":["ee","fi","se"]},"geometry":["point","area"],"matchScore":2,"terms":["hemtex"],"tags":{"brand:wikidata":"Q10521868","shop":"interior_decoration"},"addTags":{"brand":"Hemtex","brand:wikidata":"Q10521868","brand:wikipedia":"sv:Hemtex","name":"Hemtex","shop":"interior_decoration"}},"shop/kitchen/ixina-d089d8":{"name":"Ixina","locationSet":{"include":["ae","au","be","bf","bh","bj","ca","ci","cm","cn","cz","dz","ee","eg","fr","gh","hr","ke","kw","lu","ly","ma","mu","nl","pl","qa","ro","ru","sa","se","sn","tg","th","tn","vn"]},"geometry":["point","area"],"matchScore":2,"terms":["ixina"],"tags":{"brand:wikidata":"Q3156424","shop":"kitchen"},"addTags":{"brand":"Ixina","brand:wikidata":"Q3156424","brand:wikipedia":"fr:Ixina","name":"Ixina","shop":"kitchen"}},"shop/supermarket/coop-e21b3b":{"name":"Coop Eesti","locationSet":{"include":["ee"]},"geometry":["point","area"],"matchScore":2,"terms":["coop eesti"],"tags":{"brand:wikidata":"Q12361460","shop":"supermarket"},"addTags":{"brand":"Coop Eesti","brand:wikidata":"Q12361460","brand:wikipedia":"ee:Coop Eesti","name":"Coop","shop":"supermarket"}},"shop/supermarket/eurospar-4b5e11":{"name":"Eurospar","locationSet":{"include":["by","bg","cz","hu","pl","md","ro","ru","sk","ua","ax","gg","je","cq","dk","ee","fo","fi","is","ie","im","lv","lt","no","sj","se","gb","al","ad","ba","hr","gi","gr","va","it","mt","me","mk","pt","sm","rs","si","es","xk","at","be","fr","de","li","lu","mc","nl","ch"]},"geometry":["point","area"],"matchScore":2,"terms":["eurospar"],"tags":{"brand:wikidata":"Q12309283","shop":"supermarket"},"addTags":{"brand":"Eurospar","brand:wikidata":"Q12309283","brand:wikipedia":"da:Eurospar","name":"Eurospar","shop":"supermarket"}},"shop/supermarket/halpahalli-c9c76a":{"name":"HalpaHalli","locationSet":{"include":["ee","fi","ru"]},"geometry":["point","area"],"matchScore":2,"terms":["halpahalli"],"tags":{"brand:wikidata":"Q11861256","shop":"supermarket"},"addTags":{"brand":"HalpaHalli","brand:wikidata":"Q11861256","brand:wikipedia":"fi:Halpa-Halli","name":"HalpaHalli","shop":"supermarket"}},"shop/supermarket/maximax-45f6bc":{"name":"Maxima X","locationSet":{"include":["ee","lt","lv"]},"geometry":["point","area"],"matchScore":2,"terms":["maxima x"],"tags":{"brand:wikidata":"Q1881222","shop":"supermarket"},"addTags":{"brand":"Maxima X","brand:wikidata":"Q1881222","brand:wikipedia":"en:Maxima Group","name":"Maxima X","shop":"supermarket"}},"shop/supermarket/maximaxx-48a198":{"name":"Maxima XX","locationSet":{"include":["ee","lt","lv","pl"]},"geometry":["point","area"],"matchScore":2,"terms":["maxima xx"],"tags":{"brand:wikidata":"Q1881222","shop":"supermarket"},"addTags":{"brand":"Maxima XX","brand:wikidata":"Q1881222","brand:wikipedia":"en:Maxima Group","name":"Maxima XX","shop":"supermarket"}},"shop/supermarket/maximaxxx-48a198":{"name":"Maxima XXX","locationSet":{"include":["ee","lt","lv","pl"]},"geometry":["point","area"],"matchScore":2,"terms":["maxima","maxima xxx"],"tags":{"brand:wikidata":"Q1881222","shop":"supermarket"},"addTags":{"brand":"Maxima XXX","brand:wikidata":"Q1881222","brand:wikipedia":"en:Maxima Group","name":"Maxima XXX","shop":"supermarket"}},"shop/supermarket/prisma-c9c76a":{"name":"Prisma","locationSet":{"include":["ee","fi","ru"]},"geometry":["point","area"],"matchScore":2,"terms":["prisma"],"tags":{"brand:wikidata":"Q12047031","shop":"supermarket"},"addTags":{"brand":"Prisma","brand:wikidata":"Q12047031","brand:wikipedia":"fi:Prisma (kauppaketju)","name":"Prisma","shop":"supermarket"}},"shop/supermarket/rimi-45f6bc":{"name":"Rimi","locationSet":{"include":["ee","lt","lv"]},"geometry":["point","area"],"matchScore":2,"terms":["rimi"],"tags":{"brand:wikidata":"Q3741108","shop":"supermarket"},"addTags":{"brand":"Rimi","brand:wikidata":"Q3741108","brand:wikipedia":"en:Rimi Baltic","name":"Rimi","shop":"supermarket"}},"shop/supermarket/selver-e21b3b":{"name":"Selver","locationSet":{"include":["ee"]},"geometry":["point","area"],"matchScore":2,"terms":["selver"],"tags":{"brand:wikidata":"Q3771177","shop":"supermarket"},"addTags":{"brand":"Selver","brand:wikidata":"Q3771177","brand:wikipedia":"en:Selver","name":"Selver","shop":"supermarket"}},"shop/tool_hire/loxam-33fef8":{"name":"Loxam","locationSet":{"include":["ae","be","bh","br","ch","co","cz","de","dk","ee","es","fi","fr","gb","ie","it","kw","lt","lu","lv","ma","nl","no","om","pl","pt","qa","sa","se","sk"]},"geometry":["point","area"],"matchScore":2,"terms":["loxam"],"tags":{"brand:wikidata":"Q3264407","shop":"tool_hire"},"addTags":{"brand":"Loxam","brand:wikidata":"Q3264407","brand:wikipedia":"fr:Loxam","name":"Loxam","shop":"tool_hire"}},"shop/variety_store/flyingtigercopenhagen-37d726":{"name":"Flying Tiger Copenhagen","locationSet":{"include":["at","be","ch","cy","cz","de","dk","ee","es","fi","fr","gb","gr","hu","ie","is","it","jp","kr","lt","lv","mt","nl","no","pl","pt","se","sk"]},"geometry":["point","area"],"matchScore":2,"terms":["flying tiger","flying tiger copenhagen","tgr","tiger"],"tags":{"brand:wikidata":"Q2786319","shop":"variety_store"},"addTags":{"brand":"Flying Tiger Copenhagen","brand:wikidata":"Q2786319","brand:wikipedia":"en:Flying Tiger Copenhagen","name":"Flying Tiger Copenhagen","shop":"variety_store","short_name":"Flying Tiger"}},"tourism/hotel/bandbhotel-fc8c2c":{"name":"B&B Hotel","locationSet":{"include":["by","bg","cz","hu","pl","md","ro","ru","sk","ua","ax","gg","je","cq","dk","ee","fo","fi","is","ie","im","lv","lt","no","sj","se","gb","al","ad","ba","hr","gi","gr","va","it","mt","me","mk","pt","sm","rs","si","es","xk","at","be","fr","de","li","lu","mc","nl","ch","br"]},"geometry":["point","area"],"matchScore":2,"terms":["b&b hotels"],"fields":["name","brand","{tourism/hotel}"],"tags":{"brand:wikidata":"Q794939","tourism":"hotel"},"addTags":{"brand":"B&B Hotels","brand:wikidata":"Q794939","brand:wikipedia":"en:B&B Hotels","name":"B&B Hotel","tourism":"hotel"}},"tourism/hotel/motelone-046fe6":{"name":"Motel One","locationSet":{"include":["by","bg","cz","hu","pl","md","ro","ru","sk","ua","ax","gg","je","cq","dk","ee","fo","fi","is","ie","im","lv","lt","no","sj","se","gb","al","ad","ba","hr","gi","gr","va","it","mt","me","mk","pt","sm","rs","si","es","xk","at","be","fr","de","li","lu","mc","nl","ch"]},"geometry":["point","area"],"matchScore":2,"terms":["motel one"],"fields":["name","brand","{tourism/hotel}"],"tags":{"brand:wikidata":"Q391080","tourism":"hotel"},"addTags":{"brand":"Motel One","brand:wikidata":"Q391080","brand:wikipedia":"en:Motel One","name":"Motel One","tourism":"hotel"}},"amenity/charging_station/eon-7f623e":{"name":"E.ON","locationSet":{"include":["by","bg","cz","hu","pl","md","ro","ru","sk","ua","ax","gg","je","cq","dk","ee","fo","fi","is","ie","im","lv","lt","no","sj","se","gb","al","ad","ba","hr","gi","gr","va","it","mt","me","mk","pt","sm","rs","si","es","xk","at","be","fr","de","li","lu","mc","nl","ch"]},"geometry":["point","area"],"matchScore":2,"terms":["e-on drive","e.on"],"fields":["name","operator","{amenity/charging_station}"],"tags":{"amenity":"charging_station","operator:wikidata":"Q270223"},"addTags":{"amenity":"charging_station","operator":"E.ON","operator:wikidata":"Q270223","operator:wikipedia":"de:E.ON"}},"amenity/charging_station/evbox-7f623e":{"name":"EVBOX","locationSet":{"include":["by","bg","cz","hu","pl","md","ro","ru","sk","ua","ax","gg","je","cq","dk","ee","fo","fi","is","ie","im","lv","lt","no","sj","se","gb","al","ad","ba","hr","gi","gr","va","it","mt","me","mk","pt","sm","rs","si","es","xk","at","be","fr","de","li","lu","mc","nl","ch"]},"geometry":["point","area"],"matchScore":2,"terms":["evbox"],"fields":["name","operator","{amenity/charging_station}"],"tags":{"amenity":"charging_station","operator:wikidata":"Q28406392"},"addTags":{"amenity":"charging_station","operator":"EVBOX","operator:wikidata":"Q28406392","operator:wikipedia":"en:EVBox"}},"amenity/charging_station/ionity-7f623e":{"name":"Ionity","locationSet":{"include":["by","bg","cz","hu","pl","md","ro","ru","sk","ua","ax","gg","je","cq","dk","ee","fo","fi","is","ie","im","lv","lt","no","sj","se","gb","al","ad","ba","hr","gi","gr","va","it","mt","me","mk","pt","sm","rs","si","es","xk","at","be","fr","de","li","lu","mc","nl","ch"]},"geometry":["point","area"],"matchScore":2,"terms":["ionity","ionity gmbh"],"fields":["name","operator","{amenity/charging_station}"],"tags":{"amenity":"charging_station","operator:wikidata":"Q42717773"},"addTags":{"amenity":"charging_station","operator":"Ionity","operator:wikidata":"Q42717773","operator:wikipedia":"en:IONITY"}},"amenity/charging_station/qpark-7f623e":{"name":"Q-Park","locationSet":{"include":["by","bg","cz","hu","pl","md","ro","ru","sk","ua","ax","gg","je","cq","dk","ee","fo","fi","is","ie","im","lv","lt","no","sj","se","gb","al","ad","ba","hr","gi","gr","va","it","mt","me","mk","pt","sm","rs","si","es","xk","at","be","fr","de","li","lu","mc","nl","ch"]},"geometry":["point","area"],"matchScore":2,"terms":["q-park"],"fields":["name","operator","{amenity/charging_station}"],"tags":{"amenity":"charging_station","operator:wikidata":"Q1127798"},"addTags":{"amenity":"charging_station","operator":"Q-Park","operator:wikidata":"Q1127798","operator:wikipedia":"en:Q-Park"}},"amenity/fire_station/paasteamet-26aa01":{"name":"Päästeamet","locationSet":{"include":["ee"]},"geometry":["point","area"],"matchScore":2,"terms":["päästeamet"],"tags":{"amenity":"fire_station","operator:wikidata":"Q5401628"},"addTags":{"amenity":"fire_station","operator":"Päästeamet","operator:wikidata":"Q5401628","operator:wikipedia":"et:Päästeamet"}},"amenity/post_box/eestipost-f66fc9":{"name":"Eesti Post","locationSet":{"include":["ee"]},"geometry":["point","vertex"],"matchScore":2,"terms":["eesti post"],"tags":{"amenity":"post_box","operator:wikidata":"Q282457"},"addTags":{"amenity":"post_box","operator":"Eesti Post","operator:wikidata":"Q282457","operator:wikipedia":"et:Eesti Post"}},"amenity/post_box/omniva-f66fc9":{"name":"Omniva","locationSet":{"include":["ee"]},"geometry":["point","vertex"],"matchScore":2,"terms":["omniva"],"tags":{"amenity":"post_box","operator:wikidata":"Q282457"},"addTags":{"amenity":"post_box","operator":"Omniva","operator:wikidata":"Q282457","operator:wikipedia":"en:Omniva"}},"amenity/post_office/eestipost-df7ea1":{"name":"Eesti Post","locationSet":{"include":["ee"]},"geometry":["point","area"],"matchScore":2,"terms":["eesti post"],"fields":["name","operator","{amenity/post_office}"],"tags":{"amenity":"post_office","operator:wikidata":"Q282457"},"addTags":{"amenity":"post_office","operator":"Eesti Post","operator:wikidata":"Q282457","operator:wikipedia":"et:Eesti Post"}},"amenity/post_office/omniva-df7ea1":{"name":"Omniva","locationSet":{"include":["ee"]},"geometry":["point","area"],"matchScore":2,"terms":["omniva"],"fields":["name","operator","{amenity/post_office}"],"tags":{"amenity":"post_office","operator:wikidata":"Q282457"},"addTags":{"amenity":"post_office","operator":"Omniva","operator:wikidata":"Q282457","operator:wikipedia":"en:Omniva"}},"power/generator/eestienergia-7050ae":{"name":"Eesti Energia","locationSet":{"include":["ee"]},"geometry":["point","vertex","area"],"matchScore":2,"terms":["eesti energia"],"tags":{"operator:wikidata":"Q1295560","power":"generator"},"addTags":{"operator":"Eesti Energia","operator:wikidata":"Q1295560","operator:wikipedia":"en:Eesti Energia","power":"generator"}},"power/generator/innogy-16c9d0":{"name":"Innogy","locationSet":{"include":["by","bg","cz","hu","pl","md","ro","ru","sk","ua","ax","gg","je","cq","dk","ee","fo","fi","is","ie","im","lv","lt","no","sj","se","gb","al","ad","ba","hr","gi","gr","va","it","mt","me","mk","pt","sm","rs","si","es","xk","at","be","fr","de","li","lu","mc","nl","ch"]},"geometry":["point","vertex","area"],"matchScore":2,"terms":["innogy"],"tags":{"operator:wikidata":"Q2124721","power":"generator"},"addTags":{"operator":"Innogy","operator:wikidata":"Q2124721","operator:wikipedia":"en:Innogy","power":"generator"}},"power/generator/rwe-16c9d0":{"name":"RWE","locationSet":{"include":["by","bg","cz","hu","pl","md","ro","ru","sk","ua","ax","gg","je","cq","dk","ee","fo","fi","is","ie","im","lv","lt","no","sj","se","gb","al","ad","ba","hr","gi","gr","va","it","mt","me","mk","pt","sm","rs","si","es","xk","at","be","fr","de","li","lu","mc","nl","ch"]},"geometry":["point","vertex","area"],"matchScore":2,"terms":["rwe"],"tags":{"operator:wikidata":"Q138133","power":"generator"},"addTags":{"operator":"RWE","operator:wikidata":"Q138133","operator:wikipedia":"en:RWE","power":"generator"}},"power/generator/statkraft-16c9d0":{"name":"Statkraft","locationSet":{"include":["by","bg","cz","hu","pl","md","ro","ru","sk","ua","ax","gg","je","cq","dk","ee","fo","fi","is","ie","im","lv","lt","no","sj","se","gb","al","ad","ba","hr","gi","gr","va","it","mt","me","mk","pt","sm","rs","si","es","xk","at","be","fr","de","li","lu","mc","nl","ch"]},"geometry":["point","vertex","area"],"matchScore":2,"terms":["statkraft"],"tags":{"operator:wikidata":"Q1681145","power":"generator"},"addTags":{"operator":"Statkraft","operator:wikidata":"Q1681145","operator:wikipedia":"en:Statkraft","power":"generator"}},"power/generator/uniper-16c9d0":{"name":"Uniper","locationSet":{"include":["by","bg","cz","hu","pl","md","ro","ru","sk","ua","ax","gg","je","cq","dk","ee","fo","fi","is","ie","im","lv","lt","no","sj","se","gb","al","ad","ba","hr","gi","gr","va","it","mt","me","mk","pt","sm","rs","si","es","xk","at","be","fr","de","li","lu","mc","nl","ch"]},"geometry":["point","vertex","area"],"matchScore":2,"terms":["uniper"],"tags":{"operator:wikidata":"Q19839259","power":"generator"},"addTags":{"operator":"Uniper","operator:wikidata":"Q19839259","operator:wikipedia":"en:Uniper","power":"generator"}},"power/line/elektrilevi-d57d1a":{"name":"Elektrilevi","locationSet":{"include":["ee"]},"geometry":["line"],"matchScore":2,"terms":["elektrilevi"],"tags":{"operator:wikidata":"Q97286256","power":"line"},"addTags":{"operator":"Elektrilevi","operator:wikidata":"Q97286256","operator:wikipedia":"et:Elektrilevi","power":"line"}},"power/minor_line/elektrilevi-9b4ddf":{"name":"Elektrilevi","locationSet":{"include":["ee"]},"geometry":["line"],"matchScore":2,"terms":["elektrilevi"],"tags":{"operator:wikidata":"Q97286256","power":"minor_line"},"addTags":{"operator":"Elektrilevi","operator:wikidata":"Q97286256","operator:wikipedia":"et:Elektrilevi","power":"minor_line"}},"power/pole/elektrilevi-c438ae":{"name":"Elektrilevi","locationSet":{"include":["ee"]},"geometry":["point","vertex"],"matchScore":2,"terms":["elektrilevi"],"tags":{"operator:wikidata":"Q97286256","power":"pole"},"addTags":{"operator":"Elektrilevi","operator:wikidata":"Q97286256","operator:wikipedia":"et:Elektrilevi","power":"pole"}},"power/substation/elektrilevi-6bba64":{"name":"Elektrilevi","locationSet":{"include":["ee"]},"geometry":["area","point"],"matchScore":2,"terms":["elektrilevi"],"tags":{"operator:wikidata":"Q97286256","power":"substation"},"addTags":{"operator":"Elektrilevi","operator:wikidata":"Q97286256","operator:wikipedia":"et:Elektrilevi","power":"substation"}},"power/tower/elektrilevi-3741d9":{"name":"Elektrilevi","locationSet":{"include":["ee"]},"geometry":["point","vertex"],"matchScore":2,"terms":["elektrilevi"],"tags":{"operator:wikidata":"Q97286256","power":"tower"},"addTags":{"operator":"Elektrilevi","operator:wikidata":"Q97286256","operator:wikipedia":"et:Elektrilevi","power":"tower"}},"power/transformer/elektrilevi-8b8dca":{"name":"Elektrilevi","locationSet":{"include":["ee"]},"geometry":["point","vertex"],"matchScore":2,"terms":["elektrilevi"],"tags":{"operator:wikidata":"Q97286256","power":"transformer"},"addTags":{"operator":"Elektrilevi","operator:wikidata":"Q97286256","operator:wikipedia":"et:Elektrilevi","power":"transformer"}},"type/route/power/elektrilevi-f7b360":{"name":"Elektrilevi","locationSet":{"include":["ee"]},"geometry":["relation"],"matchScore":2,"terms":["elektrilevi"],"reference":{"key":"route","value":"power"},"tags":{"operator:wikidata":"Q97286256","route":"power","type":"route"},"addTags":{"operator":"Elektrilevi","operator:wikidata":"Q97286256","operator:wikipedia":"et:Elektrilevi","route":"power","type":"route"}},"type/route/train/eurocity-6b9d23":{"name":"EuroCity","locationSet":{"include":["by","bg","cz","hu","pl","md","ro","ru","sk","ua","ax","gg","je","cq","dk","ee","fo","fi","is","ie","im","lv","lt","no","sj","se","gb","al","ad","ba","hr","gi","gr","va","it","mt","me","mk","pt","sm","rs","si","es","xk","at","be","fr","de","li","lu","mc","nl","ch"]},"geometry":["relation"],"matchScore":2,"terms":["eurocity"],"reference":{"key":"route","value":"train"},"tags":{"network:wikidata":"Q753050","route":"train","type":"route"},"addTags":{"network":"EuroCity","network:wikidata":"Q753050","network:wikipedia":"en:EuroCity","route":"train","type":"route"}},"type/route/train/euronight-6b9d23":{"name":"EuroNight","locationSet":{"include":["by","bg","cz","hu","pl","md","ro","ru","sk","ua","ax","gg","je","cq","dk","ee","fo","fi","is","ie","im","lv","lt","no","sj","se","gb","al","ad","ba","hr","gi","gr","va","it","mt","me","mk","pt","sm","rs","si","es","xk","at","be","fr","de","li","lu","mc","nl","ch"]},"geometry":["relation"],"matchScore":2,"terms":["euronight"],"reference":{"key":"route","value":"train"},"tags":{"network:wikidata":"Q257307","route":"train","type":"route"},"addTags":{"network":"EuroNight","network:wikidata":"Q257307","network:wikipedia":"en:EuroNight","route":"train","type":"route"}}}