{"amenity/atm/cadencebank-4b4e36":{"name":"Cadence Bank","locationSet":{"include":["us-al","us-ar","us-fl","us-ga","us-il","us-la","us-ms","us-tn","us-tx"]},"geometry":["point","vertex"],"matchScore":2,"terms":["bankcorpsouth","bankcorpsouth bank","cadence bank"],"fields":["name","brand","{amenity/atm}"],"tags":{"amenity":"atm","brand:wikidata":"Q4854138"},"addTags":{"amenity":"atm","brand":"Cadence Bank","brand:wikidata":"Q4854138","operator":"Cadence Bank","operator:wikidata":"Q4854138"}},"amenity/atm/centralbank-5249e2":{"name":"Central Bank","locationSet":{"include":["us-fl","us-il","us-ks","us-mo","us-nc","us-ok","us-tn"]},"geometry":["point","vertex"],"matchScore":2,"terms":["central bank"],"fields":["name","brand","{amenity/atm}"],"tags":{"amenity":"atm","brand:wikidata":"Q113482320"},"addTags":{"amenity":"atm","brand":"Central Bank","brand:wikidata":"Q113482320","operator":"Central Bank","operator:wikidata":"Q113482320"}},"amenity/atm/citynationalbank-97e06e":{"name":"City National Bank (California)","locationSet":{"include":["us-ca","us-dc","us-de","us-fl","us-ga","us-ma","us-mn","us-nv","us-ny","us-tn","us-va"]},"geometry":["point","vertex"],"matchScore":2,"terms":["city national bank"],"fields":["name","brand","{amenity/atm}"],"tags":{"amenity":"atm","brand:wikidata":"Q5123314"},"addTags":{"amenity":"atm","brand":"City National Bank","brand:wikidata":"Q5123314","operator":"City National Bank","operator:wikidata":"Q5123314"}},"amenity/atm/pinnaclebank-849a40":{"name":"Pinnacle Bank (US Southeast)","locationSet":{"include":["us-al","us-ga","us-nc","us-sc","us-tn","us-wv"]},"geometry":["point","vertex"],"matchScore":2,"terms":["pinnacle bank","pinnacle financial partners"],"fields":["name","brand","{amenity/atm}"],"tags":{"amenity":"atm","brand:wikidata":"Q7196294"},"addTags":{"amenity":"atm","brand":"Pinnacle Bank","brand:wikidata":"Q7196294","official_name":"Pinnacle Financial Partners","operator":"Pinnacle Bank","operator:wikidata":"Q7196294"}},"amenity/atm/republicbank-10254d":{"name":"Republic Bank (Kentucky)","locationSet":{"include":["us-fl","us-in","us-ky","us-oh","us-tn"]},"geometry":["point","vertex"],"matchScore":2,"terms":["republic bank","republic bank & trust company"],"fields":["name","brand","{amenity/atm}"],"tags":{"amenity":"atm","brand:wikidata":"Q7314387"},"addTags":{"amenity":"atm","brand":"Republic Bank","brand:wikidata":"Q7314387","official_name":"Republic Bank & Trust Company","operator":"Republic Bank","operator:wikidata":"Q7314387"}},"amenity/bank/cadencebank-e05e09":{"name":"Cadence Bank","locationSet":{"include":["us-al","us-ar","us-fl","us-ga","us-il","us-la","us-ms","us-tn","us-tx"]},"geometry":["point","area"],"matchScore":2,"terms":["bankcorpsouth","bankcorpsouth bank","cadence bank"],"tags":{"amenity":"bank","brand:wikidata":"Q4854138"},"addTags":{"amenity":"bank","brand":"Cadence Bank","brand:wikidata":"Q4854138","name":"Cadence Bank"}},"amenity/bank/centralbank-43524a":{"name":"Central Bank","locationSet":{"include":["us-fl","us-il","us-ks","us-mo","us-nc","us-ok","us-tn"]},"geometry":["point","area"],"matchScore":2,"terms":["central bank"],"tags":{"amenity":"bank","brand:wikidata":"Q113482320"},"addTags":{"amenity":"bank","brand":"Central Bank","brand:wikidata":"Q113482320","name":"Central Bank"}},"amenity/bank/citynationalbank-0b143b":{"name":"City National Bank (California)","locationSet":{"include":["us-ca","us-dc","us-de","us-fl","us-ga","us-ma","us-mn","us-nv","us-ny","us-tn","us-va"]},"geometry":["point","area"],"matchScore":2,"terms":["city national bank"],"tags":{"amenity":"bank","brand:wikidata":"Q5123314"},"addTags":{"amenity":"bank","brand":"City National Bank","brand:wikidata":"Q5123314","name":"City National Bank"}},"amenity/bank/pinnaclebank-1187bc":{"name":"Pinnacle Bank (US Southeast)","locationSet":{"include":["us-al","us-ga","us-nc","us-sc","us-tn","us-wv"]},"geometry":["point","area"],"matchScore":2,"terms":["pinnacle bank","pinnacle financial partners"],"tags":{"amenity":"bank","brand:wikidata":"Q7196294"},"addTags":{"amenity":"bank","brand":"Pinnacle Bank","brand:wikidata":"Q7196294","name":"Pinnacle Bank","official_name":"Pinnacle Financial Partners"}},"amenity/bank/republicbank-6552d3":{"name":"Republic Bank (Kentucky)","locationSet":{"include":["us-fl","us-in","us-ky","us-oh","us-tn"]},"geometry":["point","area"],"matchScore":2,"terms":["republic bank","republic bank & trust company"],"tags":{"amenity":"bank","brand:wikidata":"Q7314387"},"addTags":{"amenity":"bank","brand":"Republic Bank","brand:wikidata":"Q7314387","name":"Republic Bank","official_name":"Republic Bank & Trust Company"}},"amenity/clinic/veinclinicsofamerica-12a747":{"name":"Vein Clinics of America","locationSet":{"include":["us-ct","us-ga","us-il","us-in","us-ks","us-md","us-mn","us-mo","us-nc","us-oh","us-tn","us-tx","us-va","us-wi"]},"geometry":["point","area"],"matchScore":2,"terms":["vein clinics of america"],"reference":{"key":"amenity","value":"clinic"},"tags":{"amenity":"clinic","brand:wikidata":"Q113712355"},"addTags":{"amenity":"clinic","brand":"Vein Clinics of America","brand:wikidata":"Q113712355","healthcare":"clinic"}},"amenity/dentist/dentalworks-f3d61f":{"name":"DentalWorks","locationSet":{"include":["us-az","us-co","us-il","us-in","us-ky","us-mi","us-nc","us-oh","us-pa","us-sc","us-tn","us-tx","us-wi"]},"geometry":["point","area"],"matchScore":2,"terms":["dentalworks"],"reference":{"key":"amenity","value":"dentist"},"tags":{"amenity":"dentist","brand:wikidata":"Q113712187"},"addTags":{"amenity":"dentist","brand":"DentalWorks","brand:wikidata":"Q113712187","healthcare":"dentist","name":"DentalWorks"}},"amenity/fast_food/pokebros-eebea8":{"name":"Poke Bros.","locationSet":{"include":["us-de","us-fl","us-il","us-in","us-ky","us-nc","us-nj","us-ny","us-oh","us-pa","us-ri","us-sc","us-tn"]},"geometry":["point","area"],"matchScore":2,"terms":["poke bros."],"tags":{"amenity":"fast_food","brand:wikidata":"Q113640421"},"addTags":{"amenity":"fast_food","brand":"Poke Bros.","brand:wikidata":"Q113640421","cuisine":"poke","name":"Poke Bros.","takeaway":"yes"}},"amenity/fuel/inglesgasexpress-b3451c":{"name":"Ingles Gas Express","locationSet":{"include":["us-ga","us-nc","us-sc","us-tn"]},"geometry":["point","area"],"matchScore":2,"terms":["ingles gas express"],"fields":["name","brand","{amenity/fuel}"],"tags":{"amenity":"fuel","brand:wikidata":"Q6032595"},"addTags":{"amenity":"fuel","brand":"Ingles Gas Express","brand:wikidata":"Q6032595","name":"Ingles Gas Express"}},"amenity/ice_cream/jenissplendidicecreams-53b2e0":{"name":"Jeni's Splendid Ice Cream","locationSet":{"include":["us-al","us-ca","us-dc","us-fl","us-ga","us-il","us-mo","us-nc","us-oh","us-pa","us-sc","us-tn","us-tx"]},"geometry":["point","area"],"matchScore":2,"terms":["jeni's","jeni's splendid ice creams"],"tags":{"amenity":"ice_cream","brand:wikidata":"Q16851196"},"addTags":{"amenity":"ice_cream","brand":"Jeni's Splendid Ice Creams","brand:wikidata":"Q16851196","name":"Jeni's Splendid Ice Creams","short_name":"Jeni's"}},"amenity/restaurant/seafood/joescrabshack-c6bbaa":{"name":"Joe's Crab Shack","locationSet":{"include":["us-az","us-ca","us-co","us-fl","us-ga","us-ky","us-la","us-mo","us-nc","us-nj","us-pa","us-sc","us-tn","us-tx","us-ut","us-va"]},"geometry":["point","area"],"matchScore":2,"terms":["joe's crab shack"],"reference":{"key":"cuisine","value":"seafood"},"tags":{"amenity":"restaurant","brand:wikidata":"Q6208210","cuisine":"seafood"},"addTags":{"amenity":"restaurant","brand":"Joe's Crab Shack","brand:wikidata":"Q6208210","cuisine":"seafood","name":"Joe's Crab Shack"}},"amenity/restaurant/italian/maggianoslittleitaly-acf8ec":{"name":"Maggiano's Little Italy","locationSet":{"include":["us-az","us-ca","us-co","us-dc","us-fl","us-ga","us-il","us-in","us-ks","us-ma","us-md","us-mi","us-mo","us-nc","us-nj","us-nv","us-ny","us-oh","us-pa","us-tn","us-tx","us-va","us-wa","us-wi"]},"geometry":["point","area"],"matchScore":2,"terms":["maggiano's little italy"],"reference":{"key":"cuisine","value":"italian"},"tags":{"amenity":"restaurant","brand:wikidata":"Q6730149","cuisine":"italian"},"addTags":{"amenity":"restaurant","brand":"Maggiano's Little Italy","brand:wikidata":"Q6730149","cuisine":"italian","name":"Maggiano's Little Italy"}},"amenity/restaurant/maplestreetbiscuitcompany-d344e2":{"name":"Maple Street Biscuit Company","locationSet":{"include":["us-al","us-fl","us-ga","us-ky","us-nc","us-sc","us-tn","us-tx","us-va"]},"geometry":["point","area"],"matchScore":2,"terms":["maple street biscuit company"],"tags":{"amenity":"restaurant","brand:wikidata":"Q97104481"},"addTags":{"amenity":"restaurant","brand":"Maple Street Biscuit Company","brand:wikidata":"Q97104481","cuisine":"breakfast","name":"Maple Street Biscuit Company"}},"amenity/restaurant/snooze-62450c":{"name":"Snooze","locationSet":{"include":["us-az","us-ca","us-co","us-ga","us-ks","us-mo","us-nc","us-tn","us-tx"]},"geometry":["point","area"],"matchScore":2,"terms":["snooze","snooze, an a.m. eatery"],"tags":{"amenity":"restaurant","brand:wikidata":"Q111304345"},"addTags":{"amenity":"restaurant","brand":"Snooze","brand:wikidata":"Q111304345","cuisine":"breakfast","name":"Snooze","official_name":"Snooze, an A.M. Eatery"}},"shop/hairdresser/imagestudios-0d42d5":{"name":"Image Studios","locationSet":{"include":["us-ca","us-co","us-fl","us-ga","us-ky","us-mo","us-nc","us-nj","us-nv","us-ny","us-oh","us-or","us-sc","us-tn","us-tx","us-ut"]},"geometry":["point","area"],"matchScore":2,"terms":["image studios"],"tags":{"brand:wikidata":"Q110998819","shop":"hairdresser"},"addTags":{"brand":"Image Studios","brand:wikidata":"Q110998819","name":"Image Studios","shop":"hairdresser"}},"shop/storage_rental/metroselfstorage-5b962b":{"name":"Metro Self Storage","locationSet":{"include":["us-al","us-ct","us-fl","us-ga","us-il","us-mn","us-nj","us-ny","us-pa","us-tn","us-tx","us-wi"]},"geometry":["point","area"],"matchScore":2,"terms":["metro self storage"],"tags":{"brand:wikidata":"Q114515454","shop":"storage_rental"},"addTags":{"brand":"Metro Self Storage","brand:wikidata":"Q114515454","name":"Metro Self Storage","shop":"storage_rental"}},"shop/supermarket/unitedgroceryoutlet-aecdaf":{"name":"United Grocery Outlet","locationSet":{"include":["us-al","us-ga","us-ky","us-nc","us-tn","us-va"]},"geometry":["point","area"],"matchScore":2,"terms":["united grocery outlet"],"tags":{"brand:wikidata":"Q23074318","shop":"supermarket"},"addTags":{"brand":"United Grocery Outlet","brand:wikidata":"Q23074318","name":"United Grocery Outlet","shop":"supermarket"}},"shop/trade/thompsoncat-82599d":{"name":"Thompson CAT (Thompson Machinery)","locationSet":{"include":["us-mi","us-tn"]},"geometry":["point","area"],"matchScore":2,"terms":["thompson cat"],"tags":{"brand:wikidata":"Q115486334","shop":"trade"},"addTags":{"brand":"Thompson CAT","brand:wikidata":"Q115486334","name":"Thompson CAT","shop":"trade","trade":"construction_equipment"}},"amenity/hospital/covenanthealth-1c8a55":{"name":"Covenant Health (Tennessee)","locationSet":{"include":["us-tn"]},"geometry":["area","point"],"matchScore":2,"terms":["covenant health"],"fields":["name","operator","{amenity/hospital}"],"reference":{"key":"amenity","value":"hospital"},"tags":{"amenity":"hospital","operator:wikidata":"Q16919678"},"addTags":{"amenity":"hospital","healthcare":"hospital","operator":"Covenant Health","operator:wikidata":"Q16919678"}},"amenity/prison/tennesseedepartmentofcorrection-438112":{"name":"Tennessee Department of Correction","locationSet":{"include":["us-tn"]},"geometry":["area","point"],"matchScore":2,"terms":["tennessee department of correction"],"fields":["name","operator","{amenity/prison}"],"tags":{"amenity":"prison","operator:wikidata":"Q7700061"},"addTags":{"amenity":"prison","operator":"Tennessee Department of Correction","operator:wikidata":"Q7700061"}},"amenity/school/clarksvillemontgomerycountyschoolsystem-3799fa":{"name":"Clarksville-Montgomery County School System","locationSet":{"include":["us-tn"]},"geometry":["area","point"],"matchScore":2,"terms":["clarksville-montgomery county school system"],"tags":{"amenity":"school","operator:wikidata":"Q5127683"},"addTags":{"amenity":"school","operator":"Clarksville-Montgomery County School System","operator:type":"public","operator:wikidata":"Q5127683"}},"amenity/school/jeffersoncountypublicschools-3799fa":{"name":"Jefferson County Public Schools (Tennessee)","locationSet":{"include":["us-tn"]},"geometry":["area","point"],"matchScore":2,"terms":["jcps","jefferson county public schools"],"tags":{"amenity":"school","operator:wikidata":"Q6175440"},"addTags":{"amenity":"school","operator":"Jefferson County Public Schools","operator:short":"JCPS","operator:type":"public","operator:wikidata":"Q6175440"}},"amenity/school/unioncountypublicschools-3799fa":{"name":"Union County Public Schools (Tennessee)","locationSet":{"include":["us-tn"]},"geometry":["area","point"],"matchScore":2,"terms":["ucps","union county public schools"],"tags":{"amenity":"school","operator:wikidata":"Q111337679"},"addTags":{"amenity":"school","operator":"Union County Public Schools","operator:short":"UCPS","operator:type":"public","operator:wikidata":"Q111337679"}},"leisure/nature_reserve/cityofknoxville-6118d7":{"name":"City of Knoxville (Tennessee)","locationSet":{"include":["us-tn"]},"geometry":["area","point"],"matchScore":2,"terms":["city of knoxville"],"tags":{"leisure":"nature_reserve","operator:wikidata":"Q185582"},"addTags":{"leisure":"nature_reserve","operator":"City of Knoxville","operator:type":"public","operator:wikidata":"Q185582"}},"leisure/nature_reserve/tennesseestateparks-6118d7":{"name":"Tennessee State Parks","locationSet":{"include":["us-tn"]},"geometry":["area","point"],"matchScore":2,"terms":["tennessee state parks"],"tags":{"leisure":"nature_reserve","operator:wikidata":"Q109328450"},"addTags":{"leisure":"nature_reserve","operator":"Tennessee State Parks","operator:type":"public","operator:wikidata":"Q109328450"}},"leisure/park/cityofknoxville-742928":{"name":"City of Knoxville (Tennessee)","locationSet":{"include":["us-tn"]},"geometry":["area","point"],"matchScore":2,"terms":["city of knoxville"],"tags":{"leisure":"park","operator:wikidata":"Q185582"},"addTags":{"leisure":"park","operator":"City of Knoxville","operator:type":"public","operator:wikidata":"Q185582"}},"leisure/park/tennesseestateparks-742928":{"name":"Tennessee State Parks","locationSet":{"include":["us-tn"]},"geometry":["area","point"],"matchScore":2,"terms":["tennessee state parks"],"tags":{"leisure":"park","operator:wikidata":"Q109328450"},"addTags":{"leisure":"park","operator":"Tennessee State Parks","operator:type":"public","operator:wikidata":"Q109328450"}},"power/line/appalachianpower-33137a":{"name":"APCO","locationSet":{"include":["us-tn","us-va","us-wv"]},"geometry":["line"],"matchScore":2,"terms":["apco","appalachian power","appalachian power company"],"tags":{"operator:wikidata":"Q109013941","power":"line"},"addTags":{"operator":"Appalachian Power","operator:short":"APCO","operator:wikidata":"Q109013941","power":"line"}},"power/minor_line/appalachianpower-a249c6":{"name":"APCO","locationSet":{"include":["us-tn","us-va","us-wv"]},"geometry":["line"],"matchScore":2,"terms":["apco","appalachian power","appalachian power company"],"tags":{"operator:wikidata":"Q109013941","power":"minor_line"},"addTags":{"operator":"Appalachian Power","operator:short":"APCO","operator:wikidata":"Q109013941","power":"minor_line"}},"power/pole/appalachianpower-a9fd36":{"name":"APCO","locationSet":{"include":["us-tn","us-va","us-wv"]},"geometry":["point","vertex"],"matchScore":2,"terms":["apco","appalachian power","appalachian power company"],"tags":{"operator:wikidata":"Q109013941","power":"pole"},"addTags":{"operator":"Appalachian Power","operator:short":"APCO","operator:wikidata":"Q109013941","power":"pole"}},"power/substation/appalachianpower-0f82b9":{"name":"APCO","locationSet":{"include":["us-tn","us-va","us-wv"]},"geometry":["area","point"],"matchScore":2,"terms":["apco","appalachian power","appalachian power company"],"tags":{"operator:wikidata":"Q109013941","power":"substation"},"addTags":{"operator":"Appalachian Power","operator:short":"APCO","operator:wikidata":"Q109013941","power":"substation"}},"power/tower/appalachianpower-ea1744":{"name":"APCO","locationSet":{"include":["us-tn","us-va","us-wv"]},"geometry":["point","vertex"],"matchScore":2,"terms":["apco","appalachian power","appalachian power company"],"tags":{"operator:wikidata":"Q109013941","power":"tower"},"addTags":{"operator":"Appalachian Power","operator:short":"APCO","operator:wikidata":"Q109013941","power":"tower"}},"power/transformer/appalachianpower-9aaa69":{"name":"APCO","locationSet":{"include":["us-tn","us-va","us-wv"]},"geometry":["point","vertex"],"matchScore":2,"terms":["apco","appalachian power","appalachian power company"],"tags":{"operator:wikidata":"Q109013941","power":"transformer"},"addTags":{"operator":"Appalachian Power","operator:short":"APCO","operator:wikidata":"Q109013941","power":"transformer"}},"public_transport/platform/bus_point/carta-4d934e":{"name":"CARTA (Tennessee)","locationSet":{"include":["us-tn"]},"geometry":["point","vertex"],"matchScore":2,"terms":["carta","chattanooga area regional transportation authority"],"reference":{"key":"public_transport","value":"platform"},"tags":{"bus":"yes","network:wikidata":"Q5087866","public_transport":"platform"},"addTags":{"bus":"yes","highway":"bus_stop","network":"CARTA","network:wikidata":"Q5087866","operator":"Chattanooga Area Regional Transportation Authority","public_transport":"platform"}},"public_transport/platform/bus_point/mata-4d934e":{"name":"MATA","locationSet":{"include":["us-tn"]},"geometry":["point","vertex"],"matchScore":2,"terms":["mata"],"reference":{"key":"public_transport","value":"platform"},"tags":{"bus":"yes","network:wikidata":"Q12061679","public_transport":"platform"},"addTags":{"bus":"yes","highway":"bus_stop","network":"MATA","network:wikidata":"Q12061679","public_transport":"platform"}},"public_transport/platform/bus_point/wego-4d934e":{"name":"WeGo","locationSet":{"include":["us-tn"]},"geometry":["point","vertex"],"matchScore":2,"terms":["wego"],"reference":{"key":"public_transport","value":"platform"},"tags":{"bus":"yes","network:wikidata":"Q6966980","public_transport":"platform"},"addTags":{"bus":"yes","highway":"bus_stop","network":"WeGo","network:wikidata":"Q6966980","public_transport":"platform"}},"type/route/bus/carta-ae7ebe":{"name":"CARTA (Tennessee)","locationSet":{"include":["us-tn"]},"geometry":["relation"],"matchScore":2,"terms":["carta","chattanooga area regional transportation authority"],"reference":{"key":"route","value":"bus"},"tags":{"network:wikidata":"Q5087866","route":"bus","type":"route"},"addTags":{"network":"CARTA","network:wikidata":"Q5087866","operator":"Chattanooga Area Regional Transportation Authority","route":"bus","type":"route"}},"type/route/bus/mata-ae7ebe":{"name":"MATA","locationSet":{"include":["us-tn"]},"geometry":["relation"],"matchScore":2,"terms":["mata"],"reference":{"key":"route","value":"bus"},"tags":{"network:wikidata":"Q12061679","route":"bus","type":"route"},"addTags":{"network":"MATA","network:wikidata":"Q12061679","route":"bus","type":"route"}},"type/route/bus/wego-ae7ebe":{"name":"WeGo","locationSet":{"include":["us-tn"]},"geometry":["relation"],"matchScore":2,"terms":["wego"],"reference":{"key":"route","value":"bus"},"tags":{"network:wikidata":"Q6966980","route":"bus","type":"route"},"addTags":{"network":"WeGo","network:wikidata":"Q6966980","route":"bus","type":"route"}}}