{"amenity/atm/allianz-e5108a":{"name":"Allianz","locationSet":{"include":["bg"]},"geometry":["point","vertex"],"matchScore":2,"terms":["allianz","алианц"],"tags":{"amenity":"atm","brand:wikidata":"Q487292"},"addTags":{"amenity":"atm","brand":"Allianz","brand:wikidata":"Q487292","name":"Allianz","name:bg":"Алианц","operator":"Allianz","operator:wikidata":"Q487292"}},"amenity/atm/fibank-e5108a":{"name":"Fibank","locationSet":{"include":["bg"]},"geometry":["point","vertex"],"matchScore":2,"terms":["fibank","пиб","първа инвестиционна банка"],"tags":{"amenity":"atm","brand:wikidata":"Q3367065"},"addTags":{"amenity":"atm","brand":"Първа инвестиционна банка","brand:bg":"Първа инвестиционна банка","brand:en":"Fibank","brand:wikidata":"Q3367065","name":"Първа инвестиционна банка","name:bg":"Първа инвестиционна банка","name:en":"Fibank","operator":"Първа инвестиционна банка","operator:wikidata":"Q3367065","short_name:bg":"ПИБ"}},"amenity/atm/kbcbank-e5108a":{"name":"KBC Bank (България)","locationSet":{"include":["bg"]},"geometry":["point","vertex"],"matchScore":2,"terms":["kbc bank","raiffeisen","raiffeisenbank","кей би си банк","райфайзен","райфайзенбанк"],"tags":{"amenity":"atm","brand:wikidata":"Q7283808"},"addTags":{"amenity":"atm","brand":"KBC Bank","brand:bg":"Кей Би Си Банк","brand:en":"KBC Bank","brand:wikidata":"Q7283808","name":"KBC Bank","name:bg":"Кей Би Си Банк","name:en":"KBC Bank","operator":"KBC Bank","operator:wikidata":"Q7283808"}},"amenity/atm/tbibank-e5108a":{"name":"TBI Bank","locationSet":{"include":["bg"]},"geometry":["point","vertex"],"matchScore":2,"terms":["tbi","tbi bank"],"tags":{"amenity":"atm","brand:wikidata":"Q30632901"},"addTags":{"amenity":"atm","brand":"TBI Bank","brand:wikidata":"Q30632901","name":"TBI Bank","operator":"TBI Bank","operator:wikidata":"Q30632901"}},"amenity/atm/dskbank-e5108a":{"name":"Банка ДСК","locationSet":{"include":["bg"]},"geometry":["point","vertex"],"matchScore":2,"terms":["dsk","dsk bank","société générale","societe generale експресбанк","банка дск","дск","експресбанк"],"tags":{"amenity":"atm","brand:wikidata":"Q5206146"},"addTags":{"amenity":"atm","brand":"Банка ДСК","brand:bg":"Банка ДСК","brand:en":"DSK Bank","brand:wikidata":"Q5206146","name":"Банка ДСК","name:bg":"Банка ДСК","name:en":"DSK Bank","operator":"Банка ДСК","operator:wikidata":"Q5206146"}},"amenity/atm/bacb-e5108a":{"name":"Българо-американска кредитна банка","locationSet":{"include":["bg"]},"geometry":["point","vertex"],"matchScore":2,"terms":["bacb","bulgarian-american credit bank","бакб","българо-американска кредитна банка"],"tags":{"amenity":"atm","brand:wikidata":"Q108851955"},"addTags":{"amenity":"atm","brand":"БАКБ","brand:wikidata":"Q108851955","full_name":"Българо-американска кредитна банка","full_name:en":"Bulgarian-American Credit Bank","name":"БАКБ","name:en":"BACB","operator":"БАКБ","operator:wikidata":"Q108851955"}},"amenity/atm/investbank-e5108a":{"name":"Инвестбанк","locationSet":{"include":["bg"]},"geometry":["point","vertex"],"matchScore":2,"terms":["ibank","investbank","инвестбанк"],"tags":{"amenity":"atm","brand:wikidata":"Q110583516"},"addTags":{"alt_name:en":"ibank","amenity":"atm","brand":"Инвестбанк","brand:wikidata":"Q110583516","name":"Инвестбанк","name:bg":"Инвестбанк","name:en":"Investbank","operator":"Инвестбанк","operator:wikidata":"Q110583516"}},"amenity/atm/unitedbulgarianbank-e5108a":{"name":"Обединена Българска Банка","locationSet":{"include":["bg"]},"geometry":["point","vertex"],"matchScore":2,"terms":["ubb","united bulgarian bank","обб","обединена българска банка"],"tags":{"amenity":"atm","brand:wikidata":"Q7887555"},"addTags":{"amenity":"atm","brand":"Обединена Българска Банка","brand:en":"United Bulgarian Bank","brand:wikidata":"Q7887555","name":"Обединена Българска Банка","name:en":"United Bulgarian Bank","operator":"Обединена Българска Банка","operator:wikidata":"Q7887555","short_name:bg":"ОББ","short_name:en":"UBB"}},"amenity/atm/municipalbank-e5108a":{"name":"Общинска банка","locationSet":{"include":["bg"]},"geometry":["point","vertex"],"matchScore":2,"terms":["municipal bank","общинска банка"],"tags":{"amenity":"atm","brand:wikidata":"Q12289109"},"addTags":{"amenity":"atm","brand":"Общинска банка","brand:bg":"Общинска банка","brand:en":"Municipal Bank","brand:wikidata":"Q12289109","name":"Общинска банка","name:bg":"Общинска банка","name:en":"Municipal Bank","operator":"Общинска банка","operator:wikidata":"Q12289109"}},"amenity/atm/postbank-e5108a":{"name":"Пощенска банка","locationSet":{"include":["bg"]},"geometry":["point","vertex"],"matchScore":2,"terms":["postbank","пощенска банка"],"tags":{"amenity":"atm","brand:wikidata":"Q7234083"},"addTags":{"amenity":"atm","brand":"Пощенска банка","brand:wikidata":"Q7234083","name":"Пощенска банка","name:en":"Postbank","operator":"Пощенска банка","operator:wikidata":"Q7234083"}},"amenity/atm/procreditbank-e5108a":{"name":"ПроКредит Банк","locationSet":{"include":["bg"]},"geometry":["point","vertex"],"matchScore":2,"terms":["procredit","procredit bank","прокредит","прокредит банк"],"tags":{"amenity":"atm","brand:wikidata":"Q17325753"},"addTags":{"amenity":"atm","brand":"ПроКредит Банк","brand:bg":"ПроКредит Банк","brand:en":"ProCredit Bank","brand:wikidata":"Q17325753","name":"ПроКредит Банк","name:bg":"ПроКредит Банк","name:en":"ProCredit Bank","operator":"ПроКредит Банк","operator:wikidata":"Q17325753"}},"amenity/atm/unicreditbulbank-e5108a":{"name":"УниКредит Булбанк","locationSet":{"include":["bg"]},"geometry":["point","vertex"],"matchScore":2,"terms":["unicredit bulbank","булбанк","уникредит","уникредит булбанк"],"tags":{"amenity":"atm","brand:wikidata":"Q7884635"},"addTags":{"amenity":"atm","brand":"УниКредит Булбанк","brand:wikidata":"Q7884635","name":"УниКредит Булбанк","name:en":"UniCredit Bulbank","operator":"УниКредит Булбанк","operator:wikidata":"Q7884635"}},"amenity/atm/centralcooperativebank-e5108a":{"name":"Централна Кооперативна Банка","locationSet":{"include":["bg"]},"geometry":["point","vertex"],"matchScore":2,"terms":["ccbank","central cooperative bank","централна кооперативна банка","цкб"],"tags":{"amenity":"atm","brand:wikidata":"Q2944755"},"addTags":{"amenity":"atm","brand":"Централна Кооперативна Банка","brand:bg":"Централна Кооперативна Банка","brand:en":"Central Cooperative Bank","brand:wikidata":"Q2944755","name":"Централна Кооперативна Банка","name:bg":"Централна Кооперативна Банка","name:en":"Central Cooperative Bank","operator":"Централна Кооперативна Банка","operator:wikidata":"Q2944755","short_name:bg":"ЦКБ","short_name:en":"CCBank"}},"amenity/bank/allianz-126296":{"name":"Allianz","locationSet":{"include":["bg"]},"geometry":["point","area"],"matchScore":2,"terms":["allianz","алианц"],"tags":{"amenity":"bank","brand:wikidata":"Q487292"},"addTags":{"amenity":"bank","brand":"Allianz","brand:wikidata":"Q487292","name":"Allianz","name:bg":"Алианц"}},"amenity/bank/fibank-126296":{"name":"Fibank","locationSet":{"include":["bg"]},"geometry":["point","area"],"matchScore":2,"terms":["fibank","пиб","първа инвестиционна банка"],"tags":{"amenity":"bank","brand:wikidata":"Q3367065"},"addTags":{"amenity":"bank","brand":"Първа инвестиционна банка","brand:bg":"Първа инвестиционна банка","brand:en":"Fibank","brand:wikidata":"Q3367065","name":"Първа инвестиционна банка","name:bg":"Първа инвестиционна банка","name:en":"Fibank","short_name:bg":"ПИБ"}},"amenity/bank/kbcbank-126296":{"name":"KBC Bank (България)","locationSet":{"include":["bg"]},"geometry":["point","area"],"matchScore":2,"terms":["kbc bank","raiffeisen","raiffeisenbank","кей би си банк","райфайзен","райфайзенбанк"],"tags":{"amenity":"bank","brand:wikidata":"Q7283808"},"addTags":{"amenity":"bank","brand":"KBC Bank","brand:bg":"Кей Би Си Банк","brand:en":"KBC Bank","brand:wikidata":"Q7283808","name":"KBC Bank","name:bg":"Кей Би Си Банк","name:en":"KBC Bank"}},"amenity/bank/tbibank-126296":{"name":"TBI Bank","locationSet":{"include":["bg"]},"geometry":["point","area"],"matchScore":2,"terms":["tbi","tbi bank"],"tags":{"amenity":"bank","brand:wikidata":"Q30632901"},"addTags":{"amenity":"bank","brand":"TBI Bank","brand:wikidata":"Q30632901","name":"TBI Bank"}},"amenity/bank/dskbank-126296":{"name":"Банка ДСК","locationSet":{"include":["bg"]},"geometry":["point","area"],"matchScore":2,"terms":["dsk","dsk bank","société générale","societe generale експресбанк","банка дск","дск","експресбанк"],"tags":{"amenity":"bank","brand:wikidata":"Q5206146"},"addTags":{"amenity":"bank","brand":"Банка ДСК","brand:bg":"Банка ДСК","brand:en":"DSK Bank","brand:wikidata":"Q5206146","name":"Банка ДСК","name:bg":"Банка ДСК","name:en":"DSK Bank"}},"amenity/bank/bacb-126296":{"name":"Българо-американска кредитна банка","locationSet":{"include":["bg"]},"geometry":["point","area"],"matchScore":2,"terms":["bacb","bulgarian-american credit bank","бакб","българо-американска кредитна банка"],"tags":{"amenity":"bank","brand:wikidata":"Q108851955"},"addTags":{"amenity":"bank","brand":"БАКБ","brand:wikidata":"Q108851955","full_name":"Българо-американска кредитна банка","full_name:en":"Bulgarian-American Credit Bank","name":"БАКБ","name:en":"BACB"}},"amenity/bank/investbank-126296":{"name":"Инвестбанк","locationSet":{"include":["bg"]},"geometry":["point","area"],"matchScore":2,"terms":["ibank","investbank","инвестбанк"],"tags":{"amenity":"bank","brand:wikidata":"Q110583516"},"addTags":{"alt_name:en":"ibank","amenity":"bank","brand":"Инвестбанк","brand:wikidata":"Q110583516","name":"Инвестбанк","name:bg":"Инвестбанк","name:en":"Investbank"}},"amenity/bank/unitedbulgarianbank-126296":{"name":"Обединена Българска Банка","locationSet":{"include":["bg"]},"geometry":["point","area"],"matchScore":2,"terms":["ubb","united bulgarian bank","обб","обединена българска банка"],"tags":{"amenity":"bank","brand:wikidata":"Q7887555"},"addTags":{"amenity":"bank","brand":"Обединена Българска Банка","brand:en":"United Bulgarian Bank","brand:wikidata":"Q7887555","name":"Обединена Българска Банка","name:en":"United Bulgarian Bank","short_name:bg":"ОББ","short_name:en":"UBB"}},"amenity/bank/municipalbank-126296":{"name":"Общинска банка","locationSet":{"include":["bg"]},"geometry":["point","area"],"matchScore":2,"terms":["municipal bank","общинска банка"],"tags":{"amenity":"bank","brand:wikidata":"Q12289109"},"addTags":{"amenity":"bank","brand":"Общинска банка","brand:bg":"Общинска банка","brand:en":"Municipal Bank","brand:wikidata":"Q12289109","name":"Общинска банка","name:bg":"Общинска банка","name:en":"Municipal Bank"}},"amenity/bank/postbank-126296":{"name":"Пощенска банка","locationSet":{"include":["bg"]},"geometry":["point","area"],"matchScore":2,"terms":["postbank","пощенска банка"],"tags":{"amenity":"bank","brand:wikidata":"Q7234083"},"addTags":{"amenity":"bank","brand":"Пощенска банка","brand:wikidata":"Q7234083","name":"Пощенска банка","name:en":"Postbank"}},"amenity/bank/procreditbank-126296":{"name":"ПроКредит Банк","locationSet":{"include":["bg"]},"geometry":["point","area"],"matchScore":2,"terms":["procredit","procredit bank","прокредит","прокредит банк"],"tags":{"amenity":"bank","brand:wikidata":"Q17325753"},"addTags":{"amenity":"bank","brand":"ПроКредит Банк","brand:bg":"ПроКредит Банк","brand:en":"ProCredit Bank","brand:wikidata":"Q17325753","name":"ПроКредит Банк","name:bg":"ПроКредит Банк","name:en":"ProCredit Bank"}},"amenity/bank/unicreditbulbank-126296":{"name":"УниКредит Булбанк","locationSet":{"include":["bg"]},"geometry":["point","area"],"matchScore":2,"terms":["unicredit bulbank","булбанк","уникредит","уникредит булбанк"],"tags":{"amenity":"bank","brand:wikidata":"Q7884635"},"addTags":{"amenity":"bank","brand":"УниКредит Булбанк","brand:wikidata":"Q7884635","name":"УниКредит Булбанк","name:en":"UniCredit Bulbank"}},"amenity/bank/centralcooperativebank-126296":{"name":"Централна Кооперативна Банка","locationSet":{"include":["bg"]},"geometry":["point","area"],"matchScore":2,"terms":["ccbank","central cooperative bank","централна кооперативна банка","цкб"],"tags":{"amenity":"bank","brand:wikidata":"Q2944755"},"addTags":{"amenity":"bank","brand":"Централна Кооперативна Банка","brand:bg":"Централна Кооперативна Банка","brand:en":"Central Cooperative Bank","brand:wikidata":"Q2944755","name":"Централна Кооперативна Банка","name:bg":"Централна Кооперативна Банка","name:en":"Central Cooperative Bank","short_name:bg":"ЦКБ","short_name:en":"CCBank"}},"amenity/charging_station/ionity-b625d6":{"name":"Ionity","locationSet":{"include":["by","bg","cz","hu","pl","md","ro","ru","sk","ua","ax","gg","je","cq","dk","ee","fo","fi","is","ie","im","lv","lt","no","sj","se","gb","al","ad","ba","hr","gi","gr","va","it","mt","me","mk","pt","sm","rs","si","es","xk","at","be","fr","de","li","lu","mc","nl","ch"]},"geometry":["point","area"],"matchScore":2,"terms":["ionity","ionity gmbh"],"fields":["name","brand","{amenity/charging_station}"],"tags":{"amenity":"charging_station","brand:wikidata":"Q42717773"},"addTags":{"amenity":"charging_station","brand":"Ionity","brand:wikidata":"Q42717773"}},"amenity/cinema/cinemacity-2b5fb2":{"name":"Cinema City","locationSet":{"include":["bg","cz","hu","pl","ro","sk"]},"geometry":["point","area"],"matchScore":2,"terms":["cinema city"],"fields":["name","brand","{amenity/cinema}"],"tags":{"amenity":"cinema","brand:wikidata":"Q543651"},"addTags":{"amenity":"cinema","brand":"Cinema City","brand:wikidata":"Q543651","name":"Cinema City"}},"amenity/fuel/as24-3463db":{"name":"AS 24","locationSet":{"include":["at","be","bg","cz","de","dk","es","fr","gb","ge","gr","hr","hu","ie","it","lt","lu","mk","nl","pl","pt","ro","rs","se","si","sk","ua"]},"geometry":["point","area"],"matchScore":2,"terms":["as 24"],"fields":["name","brand","{amenity/fuel}"],"tags":{"amenity":"fuel","brand:wikidata":"Q2819394"},"addTags":{"amenity":"fuel","brand":"AS 24","brand:wikidata":"Q2819394","hgv":"only","name":"AS 24"}},"amenity/fuel/auchan-fcb99f":{"name":"Auchan","locationSet":{"include":["al","ad","ba","hr","gi","gr","va","it","mt","me","mk","pt","sm","rs","si","es","xk","by","bg","cz","hu","pl","md","ro","ru","sk","ua","at","be","fr","de","li","lu","mc","nl","ch"]},"geometry":["point","area"],"matchScore":2,"terms":["auchan"],"fields":["name","brand","{amenity/fuel}"],"tags":{"amenity":"fuel","brand:wikidata":"Q758603"},"addTags":{"amenity":"fuel","brand":"Auchan","brand:wikidata":"Q758603","name":"Auchan"}},"amenity/fuel/avia-e0aaf8":{"name":"Avia","locationSet":{"include":["at","be","bg","ch","cz","de","es","fr","hu","it","nl","pl","pt","rs","ua"]},"geometry":["point","area"],"matchScore":2,"terms":["avia","station avia"],"fields":["name","brand","{amenity/fuel}"],"tags":{"amenity":"fuel","brand:wikidata":"Q300147"},"addTags":{"amenity":"fuel","brand":"Avia","brand:wikidata":"Q300147","name":"Avia"}},"amenity/fuel/eko-b450da":{"name":"EKO (България)","locationSet":{"include":["bg"]},"geometry":["point","area"],"matchScore":2,"terms":["eko","q903198","εκο","еко"],"fields":["name","brand","{amenity/fuel}"],"tags":{"amenity":"fuel","brand:wikidata":"Q111603199"},"addTags":{"amenity":"fuel","brand":"EKO","brand:wikidata":"Q111603199","name":"EKO","name:bg":"ЕКО"}},"amenity/fuel/igas-b450da":{"name":"iGas","locationSet":{"include":["bg"]},"geometry":["point","area"],"matchScore":2,"terms":["igas"],"fields":["name","brand","{amenity/fuel}"],"tags":{"amenity":"fuel","brand:wikidata":"Q111763117"},"addTags":{"amenity":"fuel","brand":"iGas","brand:wikidata":"Q111763117","name":"iGas"}},"amenity/fuel/insaoil-b450da":{"name":"InsaOil","locationSet":{"include":["bg"]},"geometry":["point","area"],"matchScore":2,"terms":["insa oil","insaoil","инса ойл"],"fields":["name","brand","{amenity/fuel}"],"tags":{"amenity":"fuel","brand:wikidata":"Q110644700"},"addTags":{"alt_name":"Insa Oil","amenity":"fuel","brand":"InsaOil","brand:wikidata":"Q110644700","name":"InsaOil","name:bg":"Инса ойл","name:en":"InsaOil"}},"amenity/fuel/sng-b450da":{"name":"SNG","locationSet":{"include":["bg"]},"geometry":["point","area"],"matchScore":2,"terms":["sng","синергон петролеум"],"fields":["name","brand","{amenity/fuel}"],"tags":{"amenity":"fuel","brand:wikidata":"Q113679324"},"addTags":{"amenity":"fuel","brand":"SNG","brand:wikidata":"Q113679324","name":"SNG","name:bg":"Синергон Петролеум"}},"amenity/fuel/vmpetroleum-b450da":{"name":"VM Petroleum","locationSet":{"include":["bg"]},"geometry":["point","area"],"matchScore":2,"terms":["vm petroleum"],"fields":["name","brand","{amenity/fuel}"],"tags":{"amenity":"fuel","brand:wikidata":"Q111763294"},"addTags":{"amenity":"fuel","brand":"VM Petroleum","brand:wikidata":"Q111763294","name":"VM Petroleum"}},"amenity/fuel/benita-b450da":{"name":"Бенита","locationSet":{"include":["bg"]},"geometry":["point","area"],"matchScore":2,"terms":["benita","бенита"],"fields":["name","brand","{amenity/fuel}"],"tags":{"amenity":"fuel","brand:wikidata":"Q111762601"},"addTags":{"amenity":"fuel","brand":"Бенита","brand:wikidata":"Q111762601","name":"Бенита","name:bg":"Бенита","name:en":"Benita"}},"amenity/fuel/1ee978-b450da":{"name":"Круиз","locationSet":{"include":["bg"]},"geometry":["point","area"],"matchScore":2,"terms":["круиз"],"fields":["name","brand","{amenity/fuel}"],"tags":{"amenity":"fuel","brand:wikidata":"Q113433516"},"addTags":{"amenity":"fuel","brand":"Круиз","brand:wikidata":"Q113433516","name":"Круиз"}},"amenity/fuel/lukoil-b450da":{"name":"Лукойл (България)","locationSet":{"include":["bg"]},"geometry":["point","area"],"matchScore":2,"terms":["lukoil","лукоил","лукойл"],"fields":["name","brand","{amenity/fuel}"],"tags":{"amenity":"fuel","brand:wikidata":"Q329347"},"addTags":{"amenity":"fuel","brand":"Лукойл","brand:bg":"Лукойл","brand:en":"Lukoil","brand:wikidata":"Q329347","name":"Лукойл","name:bg":"Лукойл","name:en":"Lukoil"}},"amenity/fuel/637ba4-7131c1":{"name":"ОМВ","locationSet":{"include":["bg","rs"]},"geometry":["point","area"],"matchScore":2,"terms":["омв"],"fields":["name","brand","{amenity/fuel}"],"tags":{"amenity":"fuel","brand:wikidata":"Q168238"},"addTags":{"amenity":"fuel","brand":"ОМВ","brand:wikidata":"Q168238","name":"ОМВ"}},"amenity/fuel/petrol-b450da":{"name":"Петрол","locationSet":{"include":["bg"]},"geometry":["point","area"],"matchScore":2,"terms":["petrol","петрол"],"fields":["name","brand","{amenity/fuel}"],"tags":{"amenity":"fuel","brand:wikidata":"Q24315"},"addTags":{"amenity":"fuel","brand":"Петрол","brand:en":"Petrol","brand:wikidata":"Q24315","name":"Петрол","name:en":"Petrol"}},"amenity/fuel/rompetrol-b450da":{"name":"Ромпетрол","locationSet":{"include":["bg"]},"geometry":["point","area"],"matchScore":2,"terms":["rompetrol","ромпетрол"],"fields":["name","brand","{amenity/fuel}"],"tags":{"amenity":"fuel","brand:wikidata":"Q1788862"},"addTags":{"amenity":"fuel","brand":"Rompetrol","brand:wikidata":"Q1788862","name":"Rompetrol","name:bg":"Ромпетрол"}},"amenity/parcel_locker/zbox-5a86e9":{"name":"Packeta","locationSet":{"include":["by","bg","cz","hu","pl","md","ro","ru","sk","ua","ax","gg","je","cq","dk","ee","fo","fi","is","ie","im","lv","lt","no","sj","se","gb","al","ad","ba","hr","gi","gr","va","it","mt","me","mk","pt","sm","rs","si","es","xk","at","be","fr","de","li","lu","mc","nl","ch"]},"geometry":["point","vertex","area"],"matchScore":2,"terms":["packeta"],"fields":["name","brand","{amenity/parcel_locker}"],"reference":{"key":"amenity","value":"parcel_locker"},"tags":{"amenity":"parcel_locker","brand:wikidata":"Q67809905"},"addTags":{"amenity":"parcel_locker","brand":"Packeta","brand:wikidata":"Q67809905","name":"Z-Box"}},"amenity/parcel_locker/speedy-8234c4":{"name":"Speedy","locationSet":{"include":["bg"]},"geometry":["point","vertex","area"],"matchScore":2,"terms":["speedy"],"reference":{"key":"amenity","value":"parcel_locker"},"tags":{"amenity":"parcel_locker","brand:wikidata":"Q541030"},"addTags":{"amenity":"parcel_locker","brand":"Speedy","brand:wikidata":"Q541030","name":"Speedy","parcel_mail_in":"yes"}},"amenity/parcel_locker/econt-8234c4":{"name":"Еконтомат","locationSet":{"include":["bg"]},"geometry":["point","vertex","area"],"matchScore":2,"terms":["econt","econtomat","еконт","еконтомат"],"fields":["name","brand","{amenity/parcel_locker}"],"reference":{"key":"amenity","value":"parcel_locker"},"tags":{"amenity":"parcel_locker","brand:wikidata":"Q12279603"},"addTags":{"alt_name":"Еконтомат","alt_name:bg":"Еконтомат","alt_name:en":"Econtomat","amenity":"parcel_locker","brand":"Еконт","brand:wikidata":"Q12279603","name":"Еконт","name:bg":"Еконт","name:en":"Econt","parcel_mail_in":"yes"}},"amenity/payment_centre/easypay-56e7b3":{"name":"EasyPay","locationSet":{"include":["bg"]},"geometry":["point","area"],"matchScore":2,"terms":["easy pay","easypay","изипей"],"tags":{"amenity":"payment_centre","brand:wikidata":"Q110583289"},"addTags":{"alt_name":"Easy Pay","amenity":"payment_centre","brand":"EasyPay","brand:wikidata":"Q110583289","name":"EasyPay"}},"amenity/payment_centre/fastpay-56e7b3":{"name":"FastPay","locationSet":{"include":["bg"]},"geometry":["point","area"],"matchScore":2,"terms":["fast pay","fastpay","фаст пей","фастпей"],"tags":{"amenity":"payment_centre","brand:wikidata":"Q110583280"},"addTags":{"alt_name":"Fast Pay","alt_name:bg":"Фаст пей","amenity":"payment_centre","brand":"FastPay","brand:wikidata":"Q110583280","name":"FastPay","name:bg":"Фастпей"}},"amenity/pharmacy/sopharmacy-768624":{"name":"SOpharmacy","locationSet":{"include":["bg"]},"geometry":["point","area"],"matchScore":2,"terms":["ceiba","sanita","sopharmacy","санита","сейба","цейба"],"reference":{"key":"amenity","value":"pharmacy"},"tags":{"amenity":"pharmacy","brand:wikidata":"Q108852081"},"addTags":{"amenity":"pharmacy","brand":"SOpharmacy","brand:wikidata":"Q108852081","healthcare":"pharmacy","name":"SOpharmacy"}},"amenity/pharmacy/mareshki-768624":{"name":"Марешки","locationSet":{"include":["bg"]},"geometry":["point","area"],"matchScore":2,"terms":["mareshki","марешки"],"reference":{"key":"amenity","value":"pharmacy"},"tags":{"amenity":"pharmacy","brand:wikidata":"Q108852051"},"addTags":{"amenity":"pharmacy","brand":"Марешки","brand:wikidata":"Q108852051","healthcare":"pharmacy","name":"Марешки","name:en":"Mareshki"}},"amenity/pharmacy/medeya-768624":{"name":"Медея (България)","locationSet":{"include":["bg"]},"geometry":["point","area"],"matchScore":2,"terms":["medeya","медея"],"reference":{"key":"amenity","value":"pharmacy"},"tags":{"amenity":"pharmacy","brand:wikidata":"Q108852067"},"addTags":{"amenity":"pharmacy","brand":"Медея","brand:wikidata":"Q108852067","healthcare":"pharmacy","name":"Медея","name:en":"Medeya"}},"amenity/pharmacy/remedium-768624":{"name":"Ремедиум","locationSet":{"include":["bg"]},"geometry":["point","area"],"matchScore":2,"terms":["remedium","ремедиум"],"reference":{"key":"amenity","value":"pharmacy"},"tags":{"amenity":"pharmacy","brand:wikidata":"Q108852057"},"addTags":{"amenity":"pharmacy","brand":"Ремедиум","brand:wikidata":"Q108852057","healthcare":"pharmacy","name":"Ремедиум","name:en":"Remedium"}},"amenity/pharmacy/feniks-768624":{"name":"Феникс","locationSet":{"include":["bg"]},"geometry":["point","area"],"matchScore":2,"terms":["feniks","феникс"],"reference":{"key":"amenity","value":"pharmacy"},"tags":{"amenity":"pharmacy","brand:wikidata":"Q108852116"},"addTags":{"amenity":"pharmacy","brand":"Феникс","brand:wikidata":"Q108852116","healthcare":"pharmacy","name":"Феникс","name:en":"Feniks"}},"amenity/pharmacy/framar-768624":{"name":"Фрамар","locationSet":{"include":["bg"]},"geometry":["point","area"],"matchScore":2,"terms":["framar","фрамар"],"reference":{"key":"amenity","value":"pharmacy"},"tags":{"amenity":"pharmacy","brand:wikidata":"Q108852095"},"addTags":{"amenity":"pharmacy","brand":"Фрамар","brand:wikidata":"Q108852095","healthcare":"pharmacy","name":"Фрамар","name:en":"Framar"}},"amenity/post_office/speedy-628448":{"name":"Speedy","locationSet":{"include":["bg"]},"geometry":["point","area"],"matchScore":2,"terms":["dpd","speedy"],"fields":["name","brand","{amenity/post_office}"],"tags":{"amenity":"post_office","brand:wikidata":"Q541030"},"addTags":{"alt_name":"Speedy","amenity":"post_office","brand":"Speedy","brand:wikidata":"Q541030","operator":"DPD","operator:wikidata":"Q541030"}},"amenity/restaurant/happybarandgrill-76698e":{"name":"Happy Bar & Grill","locationSet":{"include":["bg"]},"geometry":["point","area"],"matchScore":2,"terms":["happy bar & grill"],"tags":{"amenity":"restaurant","brand:wikidata":"Q112056203"},"addTags":{"amenity":"restaurant","brand":"Happy Bar & Grill","brand:wikidata":"Q112056203","cuisine":"international","name":"Happy Bar & Grill"}},"amenity/school/maplebear-89c128":{"name":"Maple Bear","locationSet":{"include":["ae","al","ar","au","bd","bg","br","ca","cn","gt","hk","hr","in","ke","kr","lk","ma","mx","my","np","om","pe","ph","py","ro","rs","sg","th","tk","ua","us","vn"]},"geometry":["area","point"],"matchScore":2,"terms":["maple bear"],"fields":["name","brand","{amenity/school}"],"tags":{"amenity":"school","brand:wikidata":"Q10324823"},"addTags":{"amenity":"school","brand":"Maple Bear","brand:wikidata":"Q10324823","name":"Maple Bear","operator:type":"private"}},"amenity/vending_machine/bicycle_tube/continental-123edb":{"name":"Continental","locationSet":{"include":["by","bg","cz","hu","pl","md","ro","ru","sk","ua","ax","gg","je","cq","dk","ee","fo","fi","is","ie","im","lv","lt","no","sj","se","gb","al","ad","ba","hr","gi","gr","va","it","mt","me","mk","pt","sm","rs","si","es","xk","at","be","fr","de","li","lu","mc","nl","ch"]},"geometry":["point","vertex"],"matchScore":2,"terms":["continental"],"reference":{"key":"vending","value":"bicycle_tube"},"tags":{"amenity":"vending_machine","brand:wikidata":"Q64739247","vending":"bicycle_tube"},"addTags":{"amenity":"vending_machine","brand":"Continental","brand:wikidata":"Q64739247","name":"Continental","vending":"bicycle_tube"}},"amenity/vending_machine/bicycle_tube/schwalbe-123edb":{"name":"Schwalbe","locationSet":{"include":["by","bg","cz","hu","pl","md","ro","ru","sk","ua","ax","gg","je","cq","dk","ee","fo","fi","is","ie","im","lv","lt","no","sj","se","gb","al","ad","ba","hr","gi","gr","va","it","mt","me","mk","pt","sm","rs","si","es","xk","at","be","fr","de","li","lu","mc","nl","ch"]},"geometry":["point","vertex"],"matchScore":2,"terms":["schwalbe"],"reference":{"key":"vending","value":"bicycle_tube"},"tags":{"amenity":"vending_machine","brand:wikidata":"Q1312213","vending":"bicycle_tube"},"addTags":{"amenity":"vending_machine","brand":"Schwalbe","brand:wikidata":"Q1312213","name":"Schwalbe","vending":"bicycle_tube"}},"healthcare/laboratory/bodimed-59f78c":{"name":"Bodimed","locationSet":{"include":["bg"]},"geometry":["point","area"],"matchScore":2,"terms":["bodimed","synevo","бодимед"],"tags":{"brand:wikidata":"Q110583446","healthcare":"laboratory"},"addTags":{"brand":"Synevo","brand:wikidata":"Q110583446","healthcare":"laboratory","name":"Bodimed","name:bg":"Бодимед","name:en":"Bodimed"}},"healthcare/laboratory/cibalab-59f78c":{"name":"Cibalab","locationSet":{"include":["bg"]},"geometry":["point","area"],"matchScore":2,"terms":["cibalab","цибалаб"],"tags":{"brand:wikidata":"Q110583364","healthcare":"laboratory"},"addTags":{"brand":"Cibalab","brand:wikidata":"Q110583364","healthcare":"laboratory","name":"Cibalab","name:bg":"Цибалаб","name:en":"Cibalab"}},"healthcare/laboratory/ramus-59f78c":{"name":"Рамус","locationSet":{"include":["bg"]},"geometry":["point","area"],"matchScore":2,"terms":["ramus","рамус"],"tags":{"brand:wikidata":"Q110583347","healthcare":"laboratory"},"addTags":{"brand":"Рамус","brand:wikidata":"Q110583347","healthcare":"laboratory","name":"Рамус","name:bg":"Рамус","name:en":"Ramus"}},"healthcare/laboratory/synevo-59f78c":{"name":"Синево (България)","locationSet":{"include":["bg"]},"geometry":["point","area"],"matchScore":2,"terms":["synevo","синево"],"tags":{"brand:wikidata":"Q110583425","healthcare":"laboratory"},"addTags":{"brand":"Synevo","brand:wikidata":"Q110583425","healthcare":"laboratory","name":"Synevo","name:bg":"Синево","name:en":"Synevo"}},"leisure/fitness_centre/holmesplace-901199":{"name":"Holmes Place","locationSet":{"include":["by","bg","cz","hu","pl","md","ro","ru","sk","ua","ax","gg","je","cq","dk","ee","fo","fi","is","ie","im","lv","lt","no","sj","se","gb","al","ad","ba","hr","gi","gr","va","it","mt","me","mk","pt","sm","rs","si","es","xk","at","be","fr","de","li","lu","mc","nl","ch","il"]},"geometry":["point","area"],"matchScore":2,"terms":["holmes place"],"tags":{"brand:wikidata":"Q15815819","leisure":"fitness_centre"},"addTags":{"brand":"Holmes Place","brand:wikidata":"Q15815819","leisure":"fitness_centre","name":"Holmes Place"}},"office/estate_agent/vonpollrealestate-c99072":{"name":"von Poll Real Estate","locationSet":{"include":["by","bg","cz","hu","pl","md","ro","ru","sk","ua","ax","gg","je","cq","dk","ee","fo","fi","is","ie","im","lv","lt","no","sj","se","gb","al","ad","ba","hr","gi","gr","va","it","mt","me","mk","pt","sm","rs","si","es","xk","at","be","fr","de","li","lu","mc","nl","ch"],"exclude":["at","de"]},"geometry":["point","area"],"matchScore":2,"terms":["von poll immobilien","von poll real estate","vonpoll","vonpoll commercial"],"tags":{"brand:wikidata":"Q96026696","office":"estate_agent"},"addTags":{"brand":"von Poll Real Estate","brand:wikidata":"Q96026696","name":"von Poll Real Estate","office":"estate_agent"}},"office/insurance/iandgbrokers-ef0911":{"name":"I&G Brokers","locationSet":{"include":["bg"]},"geometry":["point","area"],"matchScore":2,"terms":["i&g brokers"],"fields":["name","brand","{office/insurance}"],"tags":{"brand:wikidata":"Q110399829","office":"insurance"},"addTags":{"brand":"I&G Brokers","brand:wikidata":"Q110399829","name":"I&G Brokers","office":"insurance"}},"office/insurance/sdibroker-ef0911":{"name":"SDI Broker","locationSet":{"include":["bg"]},"geometry":["point","area"],"matchScore":2,"terms":["sdi","sdi broker"],"fields":["name","brand","{office/insurance}"],"tags":{"brand:wikidata":"Q110399790","office":"insurance"},"addTags":{"brand":"SDI Broker","brand:wikidata":"Q110399790","name":"SDI Broker","office":"insurance"}},"shop/alcohol/alcoholandtabakoff-059946":{"name":"Alcohol & Tabakoff","locationSet":{"include":["bg"]},"geometry":["point","area"],"matchScore":2,"terms":["alcohol & tabakoff"],"tags":{"brand:wikidata":"Q111364479","shop":"alcohol"},"addTags":{"brand":"Alcohol & Tabakoff","brand:wikidata":"Q111364479","name":"Alcohol & Tabakoff","shop":"alcohol"}},"shop/alcohol/avanti-059946":{"name":"Аванти","locationSet":{"include":["bg"]},"geometry":["point","area"],"matchScore":2,"terms":["avanti","аванти"],"tags":{"brand:wikidata":"Q111364476","shop":"alcohol"},"addTags":{"brand":"Аванти","brand:wikidata":"Q111364476","name":"Аванти","name:en":"Avanti","shop":"alcohol"}},"shop/bakery/fornetti-0c6f37":{"name":"Fornetti","locationSet":{"include":["bg","cz","hr","hu","md","pl","ro","sk","ua"]},"geometry":["point","area"],"matchScore":2,"terms":["fornetti"],"tags":{"brand:wikidata":"Q1003020","shop":"bakery"},"addTags":{"brand":"Fornetti","brand:wikidata":"Q1003020","name":"Fornetti","shop":"bakery"}},"shop/car/smart-f30ed8":{"name":"Smart","locationSet":{"include":["by","bg","cz","hu","pl","md","ro","ru","sk","ua","ax","gg","je","cq","dk","ee","fo","fi","is","ie","im","lv","lt","no","sj","se","gb","al","ad","ba","hr","gi","gr","va","it","mt","me","mk","pt","sm","rs","si","es","xk","at","be","fr","de","li","lu","mc","nl","ch"]},"geometry":["point","area"],"matchScore":2,"terms":["smart"],"fields":["name","brand","{shop/car}"],"tags":{"brand:wikidata":"Q156490","shop":"car"},"addTags":{"brand":"Smart","brand:wikidata":"Q156490","name":"Smart","shop":"car"}},"shop/car_repair/premio-354273":{"name":"Premio","locationSet":{"include":["be","bg","ch","cz","de","hu","nl","pl","ro","ru","sk"]},"geometry":["point","area"],"matchScore":2,"terms":["premio"],"fields":["name","brand","{shop/car_repair}"],"tags":{"brand:wikidata":"Q100895958","shop":"car_repair"},"addTags":{"brand":"Premio","brand:wikidata":"Q100895958","name":"Premio","shop":"car_repair"}},"shop/chemist/dm-64e7ae":{"name":"dm","locationSet":{"include":["at","ba","bg","cz","de","hr","hu","it","mk","ro","rs","si","sk"]},"geometry":["point","area"],"matchScore":2,"terms":["dm","dm drogerie markt"],"tags":{"brand:wikidata":"Q266572","shop":"chemist"},"addTags":{"brand":"dm","brand:wikidata":"Q266572","name":"dm","shop":"chemist"}},"shop/chemist/lilly-22ddb5":{"name":"Лили Дрогерия (България)","locationSet":{"include":["bg"]},"geometry":["point","area"],"matchScore":2,"terms":["lilly","лили"],"tags":{"brand:wikidata":"Q111764460","shop":"chemist"},"addTags":{"brand":"Lilly","brand:wikidata":"Q111764460","name":"Lilly","name:bg":"Лили","shop":"chemist"}},"shop/chocolate/jeffdebruges-d57ca4":{"name":"Jeff de Bruges","locationSet":{"include":["at","bg","ca","cz","de","ee","es","fr","gb","it","jo","lu","ma","om","pf","sa","sk","sn","tn"]},"geometry":["point","area"],"matchScore":2,"terms":["jeff de bruges"],"tags":{"brand:wikidata":"Q3176626","shop":"chocolate"},"addTags":{"brand":"Jeff de Bruges","brand:wikidata":"Q3176626","name":"Jeff de Bruges","shop":"chocolate"}},"shop/clothes/awgmodecenter-b44380":{"name":"AWG-Modecenter","locationSet":{"include":["bg","de"]},"geometry":["point","area"],"matchScore":2,"terms":["awg","awg-modecenter"],"tags":{"brand:wikidata":"Q300220","shop":"clothes"},"addTags":{"brand":"AWG-Modecenter","brand:wikidata":"Q300220","name":"AWG-Modecenter","shop":"clothes","short_name":"AWG"}},"shop/clothes/coccodrillo-571709":{"name":"Coccodrillo","locationSet":{"include":["at","bg","by","cz","de","ee","fi","hu","lt","lv","me","pl","ro","rs","ru","sk","ua"]},"geometry":["point","area"],"matchScore":2,"terms":["coccodrillo"],"tags":{"brand:wikidata":"Q9195224","shop":"clothes"},"addTags":{"brand":"Coccodrillo","brand:wikidata":"Q9195224","clothes":"children","name":"Coccodrillo","shop":"clothes"}},"shop/clothes/cropp-613e37":{"name":"Cropp","locationSet":{"include":["ba","bg","cz","ee","fi","hr","hu","kz","lt","lv","ro","rs","ru","si","sk","ua"]},"geometry":["point","area"],"matchScore":2,"terms":["cropp"],"tags":{"brand:wikidata":"Q9196793","shop":"clothes"},"addTags":{"brand":"Cropp","brand:wikidata":"Q9196793","name":"Cropp","shop":"clothes"}},"shop/clothes/house-f09482":{"name":"House","locationSet":{"include":["ba","bg","cz","ee","fi","hr","hu","kz","lt","lv","pl","ro","rs","ru","si","sk","ua"]},"geometry":["point","area"],"matchScore":2,"terms":["house"],"tags":{"brand:wikidata":"Q9294202","shop":"clothes"},"addTags":{"brand":"House","brand:wikidata":"Q9294202","name":"House","shop":"clothes"}},"shop/clothes/maje-99ba8f":{"name":"Maje","locationSet":{"include":["by","bg","cz","hu","pl","md","ro","ru","sk","ua","ax","gg","je","cq","dk","ee","fo","fi","is","ie","im","lv","lt","no","sj","se","gb","al","ad","ba","hr","gi","gr","va","it","mt","me","mk","pt","sm","rs","si","es","xk","at","be","fr","de","li","lu","mc","nl","ch","cn","hk","sg","tw","uk","us"]},"geometry":["point","area"],"matchScore":2,"terms":["maje"],"tags":{"brand:wikidata":"Q3280458","shop":"clothes"},"addTags":{"brand":"Maje","brand:wikidata":"Q3280458","clothes":"women","name":"Maje","shop":"clothes"}},"shop/clothes/mohito-710e25":{"name":"Mohito","locationSet":{"include":["ba","bg","cz","ee","fi","hu","kz","lt","lv","pl","ro","rs","ru","si","sk","ua"]},"geometry":["point","area"],"matchScore":2,"terms":["mohito"],"tags":{"brand:wikidata":"Q107410616","shop":"clothes"},"addTags":{"brand":"Mohito","brand:wikidata":"Q107410616","clothes":"women","name":"Mohito","shop":"clothes"}},"shop/clothes/pepco-98e975":{"name":"Pepco","locationSet":{"include":["bg","cz","ee","hr","hu","it","lt","lv","pl","ro","rs","si","sk"]},"geometry":["point","area"],"matchScore":2,"terms":["pepco"],"tags":{"brand:wikidata":"Q11815580","shop":"clothes"},"addTags":{"brand":"Pepco","brand:wikidata":"Q11815580","name":"Pepco","shop":"clothes"}},"shop/convenience/avia-3fdfc9":{"name":"Avia","locationSet":{"include":["at","be","bg","ch","cz","de","es","fr","hu","it","nl","pl","pt","rs","ua"]},"geometry":["point","area"],"matchScore":2,"terms":["avia"],"tags":{"brand:wikidata":"Q300147","shop":"convenience"},"addTags":{"brand":"Avia","brand:wikidata":"Q300147","name":"Avia","shop":"convenience"}},"shop/convenience/cba-a1e3fb":{"name":"CBA","locationSet":{"include":["bg","hu","ro","sk"]},"geometry":["point","area"],"matchScore":2,"terms":["cba"],"tags":{"brand:wikidata":"Q779845","shop":"convenience"},"addTags":{"brand":"CBA","brand:wikidata":"Q779845","name":"CBA","shop":"convenience"}},"shop/convenience/viva-856fe1":{"name":"Viva","locationSet":{"include":["by","bg","cz","hu","pl","md","ro","ru","sk","ua","ax","gg","je","cq","dk","ee","fo","fi","is","ie","im","lv","lt","no","sj","se","gb","al","ad","ba","hr","gi","gr","va","it","mt","me","mk","pt","sm","rs","si","es","xk","at","be","fr","de","li","lu","mc","nl","ch"]},"geometry":["point","area"],"matchScore":2,"terms":["viva"],"tags":{"brand:wikidata":"Q168238","shop":"convenience"},"addTags":{"brand":"Viva","brand:wikidata":"Q168238","name":"Viva","shop":"convenience"}},"shop/doityourself/bauhaus-6847b5":{"name":"Bauhaus","locationSet":{"include":["at","bg","ch","cz","de","dk","ee","es","fi","hr","hu","is","lu","nl","no","se","si","sk","tr"]},"geometry":["point","area"],"matchScore":2,"terms":["bauhaus"],"tags":{"brand:wikidata":"Q672043","shop":"doityourself"},"addTags":{"brand":"Bauhaus","brand:wikidata":"Q672043","name":"Bauhaus","shop":"doityourself"}},"shop/doityourself/mrbricolage-6499aa":{"name":"Mr. Bricolage","locationSet":{"include":["bg"]},"geometry":["point","area"],"matchScore":2,"terms":["mr. bricolage","мосю бриколаж"],"tags":{"brand:wikidata":"Q3141657","shop":"doityourself"},"addTags":{"brand":"Mr. Bricolage","brand:bg":"Мосю Бриколаж","brand:en":"Mr. Bricolage","brand:wikidata":"Q3141657","name":"Mr. Bricolage","name:bg":"Мосю Бриколаж","name:en":"Mr. Bricolage","shop":"doityourself"}},"shop/doityourself/praktiker-573a37":{"name":"Praktiker","locationSet":{"include":["bg","gr","hu","ro","tr"]},"geometry":["point","area"],"matchScore":2,"terms":["praktiker"],"searchable":false,"tags":{"brand:wikidata":"Q680214","shop":"doityourself"},"addTags":{"brand":"Praktiker","brand:wikidata":"Q680214","name":"Praktiker","shop":"doityourself"}},"shop/doityourself/praktis-6499aa":{"name":"Практис","locationSet":{"include":["bg"]},"geometry":["point","area"],"matchScore":2,"terms":["praktis","практис"],"tags":{"brand:wikidata":"Q110399429","shop":"doityourself"},"addTags":{"brand":"Praktis","brand:bg":"Практис","brand:en":"Praktis","brand:wikidata":"Q110399429","name":"Praktis","name:bg":"Практис","name:en":"Praktis","shop":"doityourself"}},"shop/electronics/techmart-47dfb8":{"name":"Techmart","locationSet":{"include":["bg"]},"geometry":["point","area"],"matchScore":2,"terms":["techmart","техмарт"],"tags":{"brand:wikidata":"Q111648425","shop":"electronics"},"addTags":{"brand":"Техмарт","brand:bg":"Техмарт","brand:en":"Techmart","brand:wikidata":"Q111648425","name":"Техмарт","name:bg":"Техмарт","name:en":"Techmart","shop":"electronics"}},"shop/electronics/zora-47dfb8":{"name":"Зора","locationSet":{"include":["bg"]},"geometry":["point","area"],"matchScore":2,"terms":["zora","зора"],"tags":{"brand:wikidata":"Q111648360","shop":"electronics"},"addTags":{"brand":"Зора","brand:bg":"Зора","brand:en":"Zora","brand:wikidata":"Q111648360","name":"Зора","name:bg":"Зора","name:en":"Zora","shop":"electronics"}},"shop/electronics/technomarket-47dfb8":{"name":"Техномаркет","locationSet":{"include":["bg"]},"geometry":["point","area"],"matchScore":2,"terms":["technomarket","техномаркет"],"tags":{"brand:wikidata":"Q7692633","shop":"electronics"},"addTags":{"brand":"Техномаркет","brand:bg":"Техномаркет","brand:en":"Technomarket","brand:wikidata":"Q7692633","name":"Техномаркет","name:bg":"Техномаркет","name:en":"Technomarket","shop":"electronics"}},"shop/electronics/technopolis-47dfb8":{"name":"Технополис","locationSet":{"include":["bg"]},"geometry":["point","area"],"matchScore":2,"terms":["technopolis","технополис"],"tags":{"brand:wikidata":"Q110399326","shop":"electronics"},"addTags":{"brand":"Технополис","brand:bg":"Технополис","brand:en":"Technopolis","brand:wikidata":"Q110399326","name":"Технополис","name:bg":"Технополис","name:en":"Technopolis","shop":"electronics"}},"shop/furniture/aikoxxxl-685932":{"name":"Aiko XXXL","locationSet":{"include":["bg"]},"geometry":["point","area"],"matchScore":2,"terms":["aiko","aiko xxxl"],"tags":{"brand:wikidata":"Q110614670","shop":"furniture"},"addTags":{"brand":"Aiko XXXL","brand:wikidata":"Q110614670","name":"Aiko XXXL","shop":"furniture"}},"shop/furniture/momax-a18722":{"name":"Mömax","locationSet":{"include":["by","bg","cz","hu","pl","md","ro","ru","sk","ua","ax","gg","je","cq","dk","ee","fo","fi","is","ie","im","lv","lt","no","sj","se","gb","al","ad","ba","hr","gi","gr","va","it","mt","me","mk","pt","sm","rs","si","es","xk","at","be","fr","de","li","lu","mc","nl","ch"]},"geometry":["point","area"],"matchScore":2,"terms":["mömax"],"tags":{"brand:wikidata":"Q56388481","shop":"furniture"},"addTags":{"brand":"Mömax","brand:wikidata":"Q56388481","name":"Mömax","shop":"furniture"}},"shop/furniture/xxxlutz-5acc6e":{"name":"XXXLutz","locationSet":{"include":["by","bg","cz","hu","pl","md","ro","ru","sk","ua","ax","gg","je","cq","dk","ee","fo","fi","is","ie","im","lv","lt","no","sj","se","gb","al","ad","ba","hr","gi","gr","va","it","mt","me","mk","pt","sm","rs","si","es","xk","at","be","fr","de","li","lu","mc","nl","ch"],"exclude":["bg"]},"geometry":["point","area"],"matchScore":2,"terms":["xxxlutz"],"tags":{"brand:wikidata":"Q70339467","shop":"furniture"},"addTags":{"brand":"XXXLutz","brand:wikidata":"Q70339467","name":"XXXLutz","shop":"furniture"}},"shop/hardware/praktiker-fc9b00":{"name":"Praktiker","locationSet":{"include":["bg"]},"geometry":["point","area"],"matchScore":2,"terms":["praktiker","практикер"],"tags":{"brand:wikidata":"Q110399491","shop":"hardware"},"addTags":{"brand":"Praktiker","brand:bg":"Практикер","brand:en":"Praktiker","brand:wikidata":"Q110399491","name":"Praktiker","name:bg":"Практикер","name:en":"Praktiker","shop":"hardware"}},"shop/houseware/englishhome-d9337a":{"name":"English Home","locationSet":{"include":["bg","ro","tr"]},"geometry":["point","area"],"matchScore":2,"terms":["english home"],"tags":{"brand:wikidata":"Q106803513","shop":"houseware"},"addTags":{"brand":"English Home","brand:wikidata":"Q106803513","name":"English Home","shop":"houseware"}},"shop/lottery/7eb15c-a2fbf5":{"name":"Спорт Тото","locationSet":{"include":["bg"]},"geometry":["point","area"],"matchScore":2,"terms":["бст","български спортен тотализатор","спорт тото"],"tags":{"brand:wikidata":"Q12274327","shop":"lottery"},"addTags":{"brand":"Спорт Тото","brand:wikidata":"Q12274327","name":"Спорт Тото","shop":"lottery"}},"shop/money_lender/easycredit-937eaf":{"name":"EasyCredit","locationSet":{"include":["bg"]},"geometry":["point","area"],"matchScore":2,"terms":["easycredit","изи кредит"],"tags":{"brand:wikidata":"Q111762111","shop":"money_lender"},"addTags":{"brand":"EasyCredit","brand:wikidata":"Q111762111","name":"EasyCredit","shop":"money_lender"}},"shop/rois-f85d29":{"name":"Rois","locationSet":{"include":["bg"]},"geometry":["point","area"],"matchScore":2,"terms":["rois","ройс"],"tags":{"brand:wikidata":"Q110399902","shop":"nuts"},"addTags":{"brand":"Rois","brand:wikidata":"Q110399902","name":"Rois","name:bg":"Ройс","name:en":"Rois","shop":"nuts"}},"shop/pastry/skyline-5d47b0":{"name":"Skyline","locationSet":{"include":["bg"]},"geometry":["point","area"],"matchScore":2,"terms":["skyline"],"tags":{"brand:wikidata":"Q110399888","shop":"pastry"},"addTags":{"brand":"Skyline","brand:wikidata":"Q110399888","name":"Skyline","shop":"pastry"}},"shop/pastry/nedelya-5d47b0":{"name":"Неделя","locationSet":{"include":["bg"]},"geometry":["point","area"],"matchScore":2,"terms":["nedelya","неделя"],"tags":{"brand:wikidata":"Q110399879","shop":"pastry"},"addTags":{"brand":"Неделя","brand:bg":"Неделя","brand:en":"Nedelya","brand:wikidata":"Q110399879","name":"Неделя","name:bg":"Неделя","name:en":"Nedelya","shop":"pastry"}},"shop/pastry/24f442-5d47b0":{"name":"Пчела","locationSet":{"include":["bg"]},"geometry":["point","area"],"matchScore":2,"terms":["пчела"],"tags":{"brand:wikidata":"Q110399875","shop":"pastry"},"addTags":{"brand":"Пчела","brand:bg":"Пчела","brand:wikidata":"Q110399875","name":"Пчела","name:bg":"Пчела","shop":"pastry"}},"shop/sports/decathlon-82be21":{"name":"Декатлон","locationSet":{"include":["bg","ru","ua"]},"geometry":["point","area"],"matchScore":2,"terms":["decathlon","декатлон"],"tags":{"brand:wikidata":"Q509349","shop":"sports"},"addTags":{"brand":"Декатлон","brand:en":"Decathlon","brand:ru":"Декатлон","brand:wikidata":"Q509349","name":"Декатлон","name:en":"Decathlon","name:ru":"Декатлон","shop":"sports"}},"shop/supermarket/auchan-925d9b":{"name":"Auchan","locationSet":{"include":["al","ad","ba","hr","gi","gr","va","it","mt","me","mk","pt","sm","rs","si","es","xk","by","bg","cz","hu","pl","md","ro","ru","sk","ua","at","be","fr","de","li","lu","mc","nl","ch","cn"],"exclude":["ru"]},"geometry":["point","area"],"matchScore":2,"terms":["auchan"],"tags":{"brand:wikidata":"Q758603","shop":"supermarket"},"addTags":{"brand":"Auchan","brand:wikidata":"Q758603","name":"Auchan","shop":"supermarket"}},"shop/supermarket/billa-260f39":{"name":"Billa","locationSet":{"include":["by","bg","cz","hu","pl","md","ro","ru","sk","ua","at"]},"geometry":["point","area"],"matchScore":2,"terms":["billa"],"tags":{"brand:wikidata":"Q537781","shop":"supermarket"},"addTags":{"brand":"Billa","brand:wikidata":"Q537781","name":"Billa","shop":"supermarket"}},"shop/supermarket/cba-ce4f93":{"name":"CBA","locationSet":{"include":["bg","hu","ro","sk"]},"geometry":["point","area"],"matchScore":2,"terms":["cba"],"tags":{"brand:wikidata":"Q779845","shop":"supermarket"},"addTags":{"brand":"CBA","brand:wikidata":"Q779845","name":"CBA","shop":"supermarket"}},"shop/supermarket/eurospar-4b5e11":{"name":"Eurospar","locationSet":{"include":["by","bg","cz","hu","pl","md","ro","ru","sk","ua","ax","gg","je","cq","dk","ee","fo","fi","is","ie","im","lv","lt","no","sj","se","gb","al","ad","ba","hr","gi","gr","va","it","mt","me","mk","pt","sm","rs","si","es","xk","at","be","fr","de","li","lu","mc","nl","ch"]},"geometry":["point","area"],"matchScore":2,"terms":["eurospar"],"tags":{"brand:wikidata":"Q12309283","shop":"supermarket"},"addTags":{"brand":"Eurospar","brand:wikidata":"Q12309283","name":"Eurospar","shop":"supermarket"}},"shop/supermarket/kaufland-c3ebf9":{"name":"Kaufland","locationSet":{"include":["bg","cz","de","hr","pl","ro","sk"]},"geometry":["point","area"],"matchScore":2,"terms":["kaufland"],"tags":{"brand:wikidata":"Q685967","shop":"supermarket"},"addTags":{"brand":"Kaufland","brand:wikidata":"Q685967","name":"Kaufland","shop":"supermarket"}},"shop/supermarket/mixmarkt-56b425":{"name":"Mix Markt (България)","locationSet":{"include":["bg"]},"geometry":["point","area"],"matchScore":2,"terms":["mix markt","микс маркт"],"tags":{"brand:wikidata":"Q327854","shop":"supermarket"},"addTags":{"brand":"Mix Markt","brand:wikidata":"Q327854","name":"Mix Markt","name:bg":"Микс Маркт","shop":"supermarket"}},"shop/supermarket/bulmag-56b425":{"name":"Булмаг","locationSet":{"include":["bg"]},"geometry":["point","area"],"matchScore":2,"terms":["bulmag","булмаг"],"tags":{"brand:wikidata":"Q66133376","shop":"supermarket"},"addTags":{"brand":"Булмаг","brand:en":"BulMag","brand:wikidata":"Q66133376","name":"Булмаг","name:en":"BulMag","shop":"supermarket"}},"shop/supermarket/lidl-56b425":{"name":"Лидл (България)","locationSet":{"include":["bg"]},"geometry":["point","area"],"matchScore":2,"terms":["lidl","лидл"],"tags":{"brand:wikidata":"Q108169047","shop":"supermarket"},"addTags":{"brand":"Lidl","brand:wikidata":"Q108169047","name":"Lidl","name:bg":"Лидл","shop":"supermarket"}},"shop/supermarket/tmarket-56b425":{"name":"Т-Маркет","locationSet":{"include":["bg"]},"geometry":["point","area"],"matchScore":2,"terms":["t-market","т-маркет"],"tags":{"brand:wikidata":"Q64033983","shop":"supermarket"},"addTags":{"brand":"Т-Маркет","brand:wikidata":"Q64033983","name":"Т-Маркет","name:en":"T-Market","shop":"supermarket"}},"shop/supermarket/b9a0c5-56b425":{"name":"Фантастико","locationSet":{"include":["bg"]},"geometry":["point","area"],"matchScore":2,"terms":["фантастико"],"tags":{"brand:wikidata":"Q61140834","shop":"supermarket"},"addTags":{"brand":"Фантастико","brand:wikidata":"Q61140834","name":"Фантастико","shop":"supermarket"}},"shop/telecommunication/a1-5ceaa9":{"name":"A1 България","locationSet":{"include":["bg"]},"geometry":["point","area"],"matchScore":2,"terms":["a1","mtel","а1","мтел"],"tags":{"brand:wikidata":"Q1941592","shop":"telecommunication"},"addTags":{"brand":"A1","brand:wikidata":"Q1941592","name":"A1","name:bg":"А1","shop":"telecommunication"}},"shop/telecommunication/vivacom-5ceaa9":{"name":"Vivacom","locationSet":{"include":["bg"]},"geometry":["point","area"],"matchScore":2,"terms":["vivacom","бтк","виваком","вивател"],"tags":{"brand:wikidata":"Q7937522","shop":"telecommunication"},"addTags":{"brand":"Vivacom","brand:bg":"Виваком","brand:en":"Vivacom","brand:wikidata":"Q7937522","name":"Vivacom","name:bg":"Виваком","name:en":"Vivacom","shop":"telecommunication"}},"shop/telecommunication/yettel-5ceaa9":{"name":"Yettel Bulgaria","locationSet":{"include":["bg"]},"geometry":["point","area"],"matchScore":2,"terms":["globul","telenor","yettel","yettel (bulgaria)","глобул","теленор"],"tags":{"brand:wikidata":"Q14915070","shop":"telecommunication"},"addTags":{"brand":"Yettel","brand:wikidata":"Q14915070","name":"Yettel","shop":"telecommunication"}},"shop/telecommunication/bulsatcom-5ceaa9":{"name":"Булсатком","locationSet":{"include":["bg"]},"geometry":["point","area"],"matchScore":2,"terms":["bulsatcom","булсатком"],"tags":{"brand:wikidata":"Q12270598","shop":"telecommunication"},"addTags":{"brand":"Булсатком","brand:wikidata":"Q12270598","name":"Булсатком","name:bg":"Булсатком","name:en":"Bulsatcom","shop":"telecommunication"}},"shop/ticket/sofiaurbanmobilitycenter-14de12":{"name":"Център за градска мобилност","locationSet":{"include":["bg"]},"geometry":["point","area"],"matchScore":2,"terms":["sofia urban mobility center","sumc","скгт","цгм","център за градска мобилност"],"tags":{"brand:wikidata":"Q7553668","shop":"ticket"},"addTags":{"brand":"Център за градска мобилност","brand:wikidata":"Q7553668","operator":"Център за градска мобилност","operator:bg":"Център за градска мобилност","operator:en":"Sofia Urban Mobility Center","shop":"ticket","short_name":"ЦГМ","short_name:bg":"ЦГМ","short_name:en":"SUMC"}},"shop/toys/jumbo-643931":{"name":"Jumbo (Bulgaria)","locationSet":{"include":["bg"]},"geometry":["point","area"],"matchScore":2,"terms":["jumbo","джъмбо"],"tags":{"brand:wikidata":"Q3562323","shop":"toys"},"addTags":{"brand":"Jumbo","brand:wikidata":"Q3562323","name":"Jumbo","name:bg":"Джъмбо","shop":"toys"}},"tourism/hotel/bandbhotel-fc8c2c":{"name":"B&B Hotel","locationSet":{"include":["by","bg","cz","hu","pl","md","ro","ru","sk","ua","ax","gg","je","cq","dk","ee","fo","fi","is","ie","im","lv","lt","no","sj","se","gb","al","ad","ba","hr","gi","gr","va","it","mt","me","mk","pt","sm","rs","si","es","xk","at","be","fr","de","li","lu","mc","nl","ch","br"]},"geometry":["point","area"],"matchScore":2,"terms":["b&b hotels"],"fields":["name","brand","{tourism/hotel}"],"tags":{"brand:wikidata":"Q794939","tourism":"hotel"},"addTags":{"brand":"B&B Hotels","brand:wikidata":"Q794939","name":"B&B Hotel","tourism":"hotel"}},"tourism/hotel/motelone-046fe6":{"name":"Motel One","locationSet":{"include":["by","bg","cz","hu","pl","md","ro","ru","sk","ua","ax","gg","je","cq","dk","ee","fo","fi","is","ie","im","lv","lt","no","sj","se","gb","al","ad","ba","hr","gi","gr","va","it","mt","me","mk","pt","sm","rs","si","es","xk","at","be","fr","de","li","lu","mc","nl","ch"]},"geometry":["point","area"],"matchScore":2,"terms":["motel one"],"fields":["name","brand","{tourism/hotel}"],"tags":{"brand:wikidata":"Q391080","tourism":"hotel"},"addTags":{"brand":"Motel One","brand:wikidata":"Q391080","name":"Motel One","tourism":"hotel"}},"amenity/charging_station/eon-7f623e":{"name":"E.ON","locationSet":{"include":["by","bg","cz","hu","pl","md","ro","ru","sk","ua","ax","gg","je","cq","dk","ee","fo","fi","is","ie","im","lv","lt","no","sj","se","gb","al","ad","ba","hr","gi","gr","va","it","mt","me","mk","pt","sm","rs","si","es","xk","at","be","fr","de","li","lu","mc","nl","ch"]},"geometry":["point","area"],"matchScore":2,"terms":["e-on drive","e.on"],"fields":["name","operator","{amenity/charging_station}"],"tags":{"amenity":"charging_station","operator:wikidata":"Q270223"},"addTags":{"amenity":"charging_station","operator":"E.ON","operator:wikidata":"Q270223"}},"amenity/charging_station/evbox-7f623e":{"name":"EVBox","locationSet":{"include":["by","bg","cz","hu","pl","md","ro","ru","sk","ua","ax","gg","je","cq","dk","ee","fo","fi","is","ie","im","lv","lt","no","sj","se","gb","al","ad","ba","hr","gi","gr","va","it","mt","me","mk","pt","sm","rs","si","es","xk","at","be","fr","de","li","lu","mc","nl","ch"]},"geometry":["point","area"],"matchScore":2,"terms":["evbox"],"fields":["name","operator","{amenity/charging_station}"],"tags":{"amenity":"charging_station","operator:wikidata":"Q28406392"},"addTags":{"amenity":"charging_station","operator":"EVBox","operator:wikidata":"Q28406392"}},"amenity/charging_station/qpark-7f623e":{"name":"Q-Park","locationSet":{"include":["by","bg","cz","hu","pl","md","ro","ru","sk","ua","ax","gg","je","cq","dk","ee","fo","fi","is","ie","im","lv","lt","no","sj","se","gb","al","ad","ba","hr","gi","gr","va","it","mt","me","mk","pt","sm","rs","si","es","xk","at","be","fr","de","li","lu","mc","nl","ch"]},"geometry":["point","area"],"matchScore":2,"terms":["q-park"],"fields":["name","operator","{amenity/charging_station}"],"tags":{"amenity":"charging_station","operator:wikidata":"Q1127798"},"addTags":{"amenity":"charging_station","operator":"Q-Park","operator:wikidata":"Q1127798"}},"amenity/fire_station/8bb510-1d8548":{"name":"Министерство на вътрешните работи","locationSet":{"include":["bg"]},"geometry":["point","area"],"matchScore":2,"terms":["мвр","министерство на вътрешните работи"],"tags":{"amenity":"fire_station","operator:wikidata":"Q2594388"},"addTags":{"amenity":"fire_station","operator":"Министерство на вътрешните работи","operator:wikidata":"Q2594388"}},"amenity/hospital/acibadem-007b1e":{"name":"Acıbadem","locationSet":{"include":["bg","de","mk","nl","tr"]},"geometry":["area","point"],"matchScore":2,"terms":["acıbadem"],"fields":["name","operator","{amenity/hospital}"],"reference":{"key":"amenity","value":"hospital"},"tags":{"amenity":"hospital","operator:wikidata":"Q19610384"},"addTags":{"amenity":"hospital","healthcare":"hospital","operator":"Acıbadem","operator:wikidata":"Q19610384"}},"amenity/police/8bb510-7ca227":{"name":"Министерство на вътрешните работи","locationSet":{"include":["bg"]},"geometry":["point","area"],"matchScore":2,"terms":["мвр","министерство на вътрешните работи"],"tags":{"amenity":"police","operator:wikidata":"Q2594388"},"addTags":{"amenity":"police","operator":"Министерство на вътрешните работи","operator:wikidata":"Q2594388"}},"amenity/post_box/speedy-0e5c7d":{"name":"Speedy","locationSet":{"include":["bg"]},"geometry":["point","vertex"],"matchScore":2,"terms":["speedy"],"tags":{"amenity":"post_box","operator:wikidata":"Q541030"},"addTags":{"alt_name":"Speedy","amenity":"post_box","brand":"Speedy","brand:wikidata":"Q541030","operator":"Speedy","operator:wikidata":"Q541030"}},"amenity/post_box/6d0749-0e5c7d":{"name":"Български пощи","locationSet":{"include":["bg"]},"geometry":["point","vertex"],"matchScore":2,"terms":["български пощи","български пощи еад"],"tags":{"amenity":"post_box","operator:wikidata":"Q2880826"},"addTags":{"amenity":"post_box","operator":"Български пощи","operator:wikidata":"Q2880826"}},"amenity/post_box/27c606-0e5c7d":{"name":"Еконт","locationSet":{"include":["bg"]},"geometry":["point","vertex"],"matchScore":2,"terms":["econt","ekont","еконт","еконт експрес еоод"],"tags":{"amenity":"post_box","operator:wikidata":"Q12279603"},"addTags":{"amenity":"post_box","operator":"Еконт Експрес ЕООД","operator:wikidata":"Q12279603"}},"amenity/post_office/6d0749-03f0fb":{"name":"Български пощи","locationSet":{"include":["bg"]},"geometry":["point","area"],"matchScore":2,"terms":["български пощи","български пощи еад"],"fields":["name","operator","{amenity/post_office}"],"tags":{"amenity":"post_office","operator:wikidata":"Q2880826"},"addTags":{"amenity":"post_office","operator":"Български пощи","operator:wikidata":"Q2880826"}},"amenity/post_office/27c606-03f0fb":{"name":"Еконт","locationSet":{"include":["bg"]},"geometry":["point","area"],"matchScore":2,"terms":["econt","ekont","еконт","еконт експрес еоод"],"fields":["name","operator","{amenity/post_office}"],"tags":{"amenity":"post_office","operator:wikidata":"Q12279603"},"addTags":{"amenity":"post_office","operator":"Еконт Експрес ЕООД","operator:wikidata":"Q12279603"}},"amenity/townhall/ef66ae-a72f79":{"name":"Община Варна","locationSet":{"include":["bg"]},"geometry":["point","area"],"matchScore":2,"terms":["община варна"],"tags":{"amenity":"townhall","operator:wikidata":"Q748965"},"addTags":{"amenity":"townhall","operator":"Община Варна","operator:wikidata":"Q748965"}},"amenity/townhall/4d455f-a72f79":{"name":"Община Пловдив","locationSet":{"include":["bg"]},"geometry":["point","area"],"matchScore":2,"terms":["община пловдив"],"tags":{"amenity":"townhall","operator:wikidata":"Q4365146"},"addTags":{"amenity":"townhall","operator":"Община Пловдив","operator:wikidata":"Q4365146"}},"amenity/townhall/4c66bf-a72f79":{"name":"Столична община","locationSet":{"include":["bg"]},"geometry":["point","area"],"matchScore":2,"terms":["столична община"],"tags":{"amenity":"townhall","operator:wikidata":"Q4442915"},"addTags":{"amenity":"townhall","operator":"Столична община","operator:wikidata":"Q4442915"}},"landuse/industrial/95ddf9-4a2e40":{"name":"Метрополитен ЕАД","locationSet":{"include":["bg"]},"geometry":["area"],"matchScore":2,"terms":["метрополитен еад"],"tags":{"landuse":"industrial","operator:wikidata":"Q112957870"},"addTags":{"industrial":"depot","landuse":"industrial","operator":"Метрополитен ЕАД","operator:wikidata":"Q112957870"}},"landuse/industrial/3dcb14-4a2e40":{"name":"Столичен автотранспорт ЕАД","locationSet":{"include":["bg"]},"geometry":["area"],"matchScore":2,"terms":["столичен автотранспорт еад"],"tags":{"landuse":"industrial","operator:wikidata":"Q112957887"},"addTags":{"industrial":"depot","landuse":"industrial","operator":"Столичен автотранспорт ЕАД","operator:wikidata":"Q112957887"}},"landuse/industrial/1a7f26-4a2e40":{"name":"Столичен електротранспорт ЕАД","locationSet":{"include":["bg"]},"geometry":["area"],"matchScore":2,"terms":["столичен електротранспорт еад"],"tags":{"landuse":"industrial","operator:wikidata":"Q112263409"},"addTags":{"industrial":"depot","landuse":"industrial","operator":"Столичен електротранспорт ЕАД","operator:wikidata":"Q112263409"}},"man_made/wastewater_plant/b7d6cd-bcdd97":{"name":"ВиК Благоевград","locationSet":{"include":["bg"]},"geometry":["point","area"],"matchScore":2,"terms":["вик благоевград"],"tags":{"man_made":"wastewater_plant","operator:wikidata":"Q113588831"},"addTags":{"man_made":"wastewater_plant","operator":"ВиК Благоевград","operator:wikidata":"Q113588831"}},"man_made/wastewater_plant/04e09c-bcdd97":{"name":"ВиК Бургас","locationSet":{"include":["bg"]},"geometry":["point","area"],"matchScore":2,"terms":["вик бургас"],"tags":{"man_made":"wastewater_plant","operator:wikidata":"Q113588987"},"addTags":{"man_made":"wastewater_plant","operator":"ВиК Бургас","operator:wikidata":"Q113588987"}},"man_made/wastewater_plant/7efdd8-bcdd97":{"name":"ВиК Варна","locationSet":{"include":["bg"]},"geometry":["point","area"],"matchScore":2,"terms":["вик варна"],"tags":{"man_made":"wastewater_plant","operator:wikidata":"Q113588992"},"addTags":{"man_made":"wastewater_plant","operator":"ВиК Варна","operator:wikidata":"Q113588992"}},"man_made/wastewater_plant/8ff433-bcdd97":{"name":"ВиК Видин","locationSet":{"include":["bg"]},"geometry":["point","area"],"matchScore":2,"terms":["вик видин"],"tags":{"man_made":"wastewater_plant","operator:wikidata":"Q113588721"},"addTags":{"man_made":"wastewater_plant","operator":"ВиК Видин","operator:wikidata":"Q113588721"}},"man_made/wastewater_plant/bd05a8-bcdd97":{"name":"ВиК Враца","locationSet":{"include":["bg"]},"geometry":["point","area"],"matchScore":2,"terms":["вик враца"],"tags":{"man_made":"wastewater_plant","operator:wikidata":"Q113588748"},"addTags":{"man_made":"wastewater_plant","operator":"ВиК Враца","operator:wikidata":"Q113588748"}},"man_made/wastewater_plant/c2d9d3-bcdd97":{"name":"ВиК Габрово","locationSet":{"include":["bg"]},"geometry":["point","area"],"matchScore":2,"terms":["вик габрово"],"tags":{"man_made":"wastewater_plant","operator:wikidata":"Q113588824"},"addTags":{"man_made":"wastewater_plant","operator":"ВиК Габрово","operator:wikidata":"Q113588824"}},"man_made/wastewater_plant/fca690-bcdd97":{"name":"ВиК Добрич","locationSet":{"include":["bg"]},"geometry":["point","area"],"matchScore":2,"terms":["вик добрич"],"tags":{"man_made":"wastewater_plant","operator:wikidata":"Q113588994"},"addTags":{"man_made":"wastewater_plant","operator":"ВиК Добрич","operator:wikidata":"Q113588994"}},"man_made/wastewater_plant/c2f01b-bcdd97":{"name":"ВиК Йовковци (Велико Търново)","locationSet":{"include":["bg"]},"geometry":["point","area"],"matchScore":2,"terms":["вик йовковци"],"tags":{"man_made":"wastewater_plant","operator:wikidata":"Q113611510"},"addTags":{"man_made":"wastewater_plant","operator":"ВиК Йовковци","operator:wikidata":"Q113611510"}},"man_made/wastewater_plant/92d36e-bcdd97":{"name":"ВиК Кърджали","locationSet":{"include":["bg"]},"geometry":["point","area"],"matchScore":2,"terms":["вик кърджали"],"tags":{"man_made":"wastewater_plant","operator:wikidata":"Q113588980"},"addTags":{"man_made":"wastewater_plant","operator":"ВиК Кърджали","operator:wikidata":"Q113588980"}},"man_made/wastewater_plant/7620d6-bcdd97":{"name":"ВиК Ловеч","locationSet":{"include":["bg"]},"geometry":["point","area"],"matchScore":2,"terms":["вик ловеч"],"tags":{"man_made":"wastewater_plant","operator:wikidata":"Q113588800"},"addTags":{"man_made":"wastewater_plant","operator":"ВиК Ловеч","operator:wikidata":"Q113588800"}},"man_made/wastewater_plant/ea2fe0-bcdd97":{"name":"ВиК Монтана","locationSet":{"include":["bg"]},"geometry":["point","area"],"matchScore":2,"terms":["вик монтана"],"tags":{"man_made":"wastewater_plant","operator:wikidata":"Q113588745"},"addTags":{"man_made":"wastewater_plant","operator":"ВиК Монтана","operator:wikidata":"Q113588745"}},"man_made/wastewater_plant/13156c-bcdd97":{"name":"ВиК Пазарджик","locationSet":{"include":["bg"]},"geometry":["point","area"],"matchScore":2,"terms":["вик пазарджик"],"tags":{"man_made":"wastewater_plant","operator:wikidata":"Q113588836"},"addTags":{"man_made":"wastewater_plant","operator":"ВиК Пазарджик","operator:wikidata":"Q113588836"}},"man_made/wastewater_plant/960625-bcdd97":{"name":"ВиК Перник","locationSet":{"include":["bg"]},"geometry":["point","area"],"matchScore":2,"terms":["вик перник"],"tags":{"man_made":"wastewater_plant","operator:wikidata":"Q113588978"},"addTags":{"man_made":"wastewater_plant","operator":"ВиК Перник","operator:wikidata":"Q113588978"}},"man_made/wastewater_plant/0736fe-bcdd97":{"name":"ВиК Плевен","locationSet":{"include":["bg"]},"geometry":["point","area"],"matchScore":2,"terms":["вик плевен"],"tags":{"man_made":"wastewater_plant","operator:wikidata":"Q113588761"},"addTags":{"man_made":"wastewater_plant","operator":"ВиК Плевен","operator:wikidata":"Q113588761"}},"man_made/wastewater_plant/d609e6-bcdd97":{"name":"ВиК Пловдив","locationSet":{"include":["bg"]},"geometry":["point","area"],"matchScore":2,"terms":["вик пловдив"],"tags":{"man_made":"wastewater_plant","operator:wikidata":"Q113588952"},"addTags":{"man_made":"wastewater_plant","operator":"ВиК Пловдив","operator:wikidata":"Q113588952"}},"man_made/wastewater_plant/28b8e9-bcdd97":{"name":"ВиК Разград","locationSet":{"include":["bg"]},"geometry":["point","area"],"matchScore":2,"terms":["вик разград"],"tags":{"man_made":"wastewater_plant","operator:wikidata":"Q113588990"},"addTags":{"man_made":"wastewater_plant","operator":"ВиК Разград","operator:wikidata":"Q113588990"}},"man_made/wastewater_plant/0ae57d-bcdd97":{"name":"ВиК Русе","locationSet":{"include":["bg"]},"geometry":["point","area"],"matchScore":2,"terms":["вик русе"],"tags":{"man_made":"wastewater_plant","operator:wikidata":"Q113611512"},"addTags":{"man_made":"wastewater_plant","operator":"ВиК Русе","operator:wikidata":"Q113611512"}},"man_made/wastewater_plant/1f80e1-bcdd97":{"name":"ВиК Сливен","locationSet":{"include":["bg"]},"geometry":["point","area"],"matchScore":2,"terms":["вик сливен"],"tags":{"man_made":"wastewater_plant","operator:wikidata":"Q113588985"},"addTags":{"man_made":"wastewater_plant","operator":"ВиК Сливен","operator:wikidata":"Q113588985"}},"man_made/wastewater_plant/909eab-bcdd97":{"name":"ВиК Смолян","locationSet":{"include":["bg"]},"geometry":["point","area"],"matchScore":2,"terms":["вик смолян"],"tags":{"man_made":"wastewater_plant","operator:wikidata":"Q113588934"},"addTags":{"man_made":"wastewater_plant","operator":"ВиК Смолян","operator:wikidata":"Q113588934"}},"man_made/wastewater_plant/423877-bcdd97":{"name":"ВиК София област","locationSet":{"include":["bg"]},"geometry":["point","area"],"matchScore":2,"terms":["вик софия област"],"tags":{"man_made":"wastewater_plant","operator:wikidata":"Q113588713"},"addTags":{"man_made":"wastewater_plant","operator":"ВиК София област","operator:wikidata":"Q113588713"}},"man_made/wastewater_plant/f8ff0f-bcdd97":{"name":"ВиК Стара Загора","locationSet":{"include":["bg"]},"geometry":["point","area"],"matchScore":2,"terms":["вик стара загора"],"tags":{"man_made":"wastewater_plant","operator:wikidata":"Q113588955"},"addTags":{"man_made":"wastewater_plant","operator":"ВиК Стара Загора","operator:wikidata":"Q113588955"}},"man_made/wastewater_plant/f5e9ca-bcdd97":{"name":"ВиК Търговище","locationSet":{"include":["bg"]},"geometry":["point","area"],"matchScore":2,"terms":["вик търговище"],"tags":{"man_made":"wastewater_plant","operator:wikidata":"Q113588988"},"addTags":{"man_made":"wastewater_plant","operator":"ВиК Търговище","operator:wikidata":"Q113588988"}},"man_made/wastewater_plant/1ed3c2-bcdd97":{"name":"ВиК Хасково","locationSet":{"include":["bg"]},"geometry":["point","area"],"matchScore":2,"terms":["вик хасково"],"tags":{"man_made":"wastewater_plant","operator:wikidata":"Q113588961"},"addTags":{"man_made":"wastewater_plant","operator":"ВиК Хасково","operator:wikidata":"Q113588961"}},"man_made/wastewater_plant/2be4ff-bcdd97":{"name":"ВиК Шумен","locationSet":{"include":["bg"]},"geometry":["point","area"],"matchScore":2,"terms":["вик шумен"],"tags":{"man_made":"wastewater_plant","operator:wikidata":"Q113588991"},"addTags":{"man_made":"wastewater_plant","operator":"ВиК Шумен","operator:wikidata":"Q113588991"}},"man_made/wastewater_plant/460ece-bcdd97":{"name":"ВиК Ямбол","locationSet":{"include":["bg"]},"geometry":["point","area"],"matchScore":2,"terms":["вик ямбол"],"tags":{"man_made":"wastewater_plant","operator:wikidata":"Q113588986"},"addTags":{"man_made":"wastewater_plant","operator":"ВиК Ямбол","operator:wikidata":"Q113588986"}},"man_made/wastewater_plant/bcb696-bcdd97":{"name":"Кюстендилска вода","locationSet":{"include":["bg"]},"geometry":["point","area"],"matchScore":2,"terms":["кюстендилска вода"],"tags":{"man_made":"wastewater_plant","operator:wikidata":"Q113588828"},"addTags":{"man_made":"wastewater_plant","operator":"Кюстендилска вода","operator:wikidata":"Q113588828"}},"man_made/wastewater_plant/938062-bcdd97":{"name":"Софийска вода","locationSet":{"include":["bg"]},"geometry":["point","area"],"matchScore":2,"terms":["софийска вода"],"tags":{"man_made":"wastewater_plant","operator:wikidata":"Q113588707"},"addTags":{"man_made":"wastewater_plant","operator":"Софийска вода","operator:wikidata":"Q113588707"}},"man_made/water_tower/b7d6cd-067baf":{"name":"ВиК Благоевград","locationSet":{"include":["bg"]},"geometry":["area","point"],"matchScore":2,"terms":["вик благоевград"],"tags":{"man_made":"water_tower","operator:wikidata":"Q113588831"},"addTags":{"man_made":"water_tower","operator":"ВиК Благоевград","operator:wikidata":"Q113588831"}},"man_made/water_tower/04e09c-067baf":{"name":"ВиК Бургас","locationSet":{"include":["bg"]},"geometry":["area","point"],"matchScore":2,"terms":["вик бургас"],"tags":{"man_made":"water_tower","operator:wikidata":"Q113588987"},"addTags":{"man_made":"water_tower","operator":"ВиК Бургас","operator:wikidata":"Q113588987"}},"man_made/water_tower/7efdd8-067baf":{"name":"ВиК Варна","locationSet":{"include":["bg"]},"geometry":["area","point"],"matchScore":2,"terms":["вик варна"],"tags":{"man_made":"water_tower","operator:wikidata":"Q113588992"},"addTags":{"man_made":"water_tower","operator":"ВиК Варна","operator:wikidata":"Q113588992"}},"man_made/water_tower/8ff433-067baf":{"name":"ВиК Видин","locationSet":{"include":["bg"]},"geometry":["area","point"],"matchScore":2,"terms":["вик видин"],"tags":{"man_made":"water_tower","operator:wikidata":"Q113588721"},"addTags":{"man_made":"water_tower","operator":"ВиК Видин","operator:wikidata":"Q113588721"}},"man_made/water_tower/bd05a8-067baf":{"name":"ВиК Враца","locationSet":{"include":["bg"]},"geometry":["area","point"],"matchScore":2,"terms":["вик враца"],"tags":{"man_made":"water_tower","operator:wikidata":"Q113588748"},"addTags":{"man_made":"water_tower","operator":"ВиК Враца","operator:wikidata":"Q113588748"}},"man_made/water_tower/c2d9d3-067baf":{"name":"ВиК Габрово","locationSet":{"include":["bg"]},"geometry":["area","point"],"matchScore":2,"terms":["вик габрово"],"tags":{"man_made":"water_tower","operator:wikidata":"Q113588824"},"addTags":{"man_made":"water_tower","operator":"ВиК Габрово","operator:wikidata":"Q113588824"}},"man_made/water_tower/fca690-067baf":{"name":"ВиК Добрич","locationSet":{"include":["bg"]},"geometry":["area","point"],"matchScore":2,"terms":["вик добрич"],"tags":{"man_made":"water_tower","operator:wikidata":"Q113588994"},"addTags":{"man_made":"water_tower","operator":"ВиК Добрич","operator:wikidata":"Q113588994"}},"man_made/water_tower/92d36e-067baf":{"name":"ВиК Кърджали","locationSet":{"include":["bg"]},"geometry":["area","point"],"matchScore":2,"terms":["вик кърджали"],"tags":{"man_made":"water_tower","operator:wikidata":"Q113588980"},"addTags":{"man_made":"water_tower","operator":"ВиК Кърджали","operator:wikidata":"Q113588980"}},"man_made/water_tower/7620d6-067baf":{"name":"ВиК Ловеч","locationSet":{"include":["bg"]},"geometry":["area","point"],"matchScore":2,"terms":["вик ловеч"],"tags":{"man_made":"water_tower","operator:wikidata":"Q113588800"},"addTags":{"man_made":"water_tower","operator":"ВиК Ловеч","operator:wikidata":"Q113588800"}},"man_made/water_tower/ea2fe0-067baf":{"name":"ВиК Монтана","locationSet":{"include":["bg"]},"geometry":["area","point"],"matchScore":2,"terms":["вик монтана"],"tags":{"man_made":"water_tower","operator:wikidata":"Q113588745"},"addTags":{"man_made":"water_tower","operator":"ВиК Монтана","operator:wikidata":"Q113588745"}},"man_made/water_tower/13156c-067baf":{"name":"ВиК Пазарджик","locationSet":{"include":["bg"]},"geometry":["area","point"],"matchScore":2,"terms":["вик пазарджик"],"tags":{"man_made":"water_tower","operator:wikidata":"Q113588836"},"addTags":{"man_made":"water_tower","operator":"ВиК Пазарджик","operator:wikidata":"Q113588836"}},"man_made/water_tower/960625-067baf":{"name":"ВиК Перник","locationSet":{"include":["bg"]},"geometry":["area","point"],"matchScore":2,"terms":["вик перник"],"tags":{"man_made":"water_tower","operator:wikidata":"Q113588978"},"addTags":{"man_made":"water_tower","operator":"ВиК Перник","operator:wikidata":"Q113588978"}},"man_made/water_tower/0736fe-067baf":{"name":"ВиК Плевен","locationSet":{"include":["bg"]},"geometry":["area","point"],"matchScore":2,"terms":["вик плевен"],"tags":{"man_made":"water_tower","operator:wikidata":"Q113588761"},"addTags":{"man_made":"water_tower","operator":"ВиК Плевен","operator:wikidata":"Q113588761"}},"man_made/water_tower/d609e6-067baf":{"name":"ВиК Пловдив","locationSet":{"include":["bg"]},"geometry":["area","point"],"matchScore":2,"terms":["вик пловдив"],"tags":{"man_made":"water_tower","operator:wikidata":"Q113588952"},"addTags":{"man_made":"water_tower","operator":"ВиК Пловдив","operator:wikidata":"Q113588952"}},"man_made/water_tower/28b8e9-067baf":{"name":"ВиК Разград","locationSet":{"include":["bg"]},"geometry":["area","point"],"matchScore":2,"terms":["вик разград"],"tags":{"man_made":"water_tower","operator:wikidata":"Q113588990"},"addTags":{"man_made":"water_tower","operator":"ВиК Разград","operator:wikidata":"Q113588990"}},"man_made/water_tower/1f80e1-067baf":{"name":"ВиК Сливен","locationSet":{"include":["bg"]},"geometry":["area","point"],"matchScore":2,"terms":["вик сливен"],"tags":{"man_made":"water_tower","operator:wikidata":"Q113588985"},"addTags":{"man_made":"water_tower","operator":"ВиК Сливен","operator:wikidata":"Q113588985"}},"man_made/water_tower/909eab-067baf":{"name":"ВиК Смолян","locationSet":{"include":["bg"]},"geometry":["area","point"],"matchScore":2,"terms":["вик смолян"],"tags":{"man_made":"water_tower","operator:wikidata":"Q113588934"},"addTags":{"man_made":"water_tower","operator":"ВиК Смолян","operator:wikidata":"Q113588934"}},"man_made/water_tower/423877-067baf":{"name":"ВиК София област","locationSet":{"include":["bg"]},"geometry":["area","point"],"matchScore":2,"terms":["вик софия област"],"tags":{"man_made":"water_tower","operator:wikidata":"Q113588713"},"addTags":{"man_made":"water_tower","operator":"ВиК София област","operator:wikidata":"Q113588713"}},"man_made/water_tower/f8ff0f-067baf":{"name":"ВиК Стара Загора","locationSet":{"include":["bg"]},"geometry":["area","point"],"matchScore":2,"terms":["вик стара загора"],"tags":{"man_made":"water_tower","operator:wikidata":"Q113588955"},"addTags":{"man_made":"water_tower","operator":"ВиК Стара Загора","operator:wikidata":"Q113588955"}},"man_made/water_tower/f5e9ca-067baf":{"name":"ВиК Търговище","locationSet":{"include":["bg"]},"geometry":["area","point"],"matchScore":2,"terms":["вик търговище"],"tags":{"man_made":"water_tower","operator:wikidata":"Q113588988"},"addTags":{"man_made":"water_tower","operator":"ВиК Търговище","operator:wikidata":"Q113588988"}},"man_made/water_tower/1ed3c2-067baf":{"name":"ВиК Хасково","locationSet":{"include":["bg"]},"geometry":["area","point"],"matchScore":2,"terms":["вик хасково"],"tags":{"man_made":"water_tower","operator:wikidata":"Q113588961"},"addTags":{"man_made":"water_tower","operator":"ВиК Хасково","operator:wikidata":"Q113588961"}},"man_made/water_tower/2be4ff-067baf":{"name":"ВиК Шумен","locationSet":{"include":["bg"]},"geometry":["area","point"],"matchScore":2,"terms":["вик шумен"],"tags":{"man_made":"water_tower","operator:wikidata":"Q113588991"},"addTags":{"man_made":"water_tower","operator":"ВиК Шумен","operator:wikidata":"Q113588991"}},"man_made/water_tower/460ece-067baf":{"name":"ВиК Ямбол","locationSet":{"include":["bg"]},"geometry":["area","point"],"matchScore":2,"terms":["вик ямбол"],"tags":{"man_made":"water_tower","operator:wikidata":"Q113588986"},"addTags":{"man_made":"water_tower","operator":"ВиК Ямбол","operator:wikidata":"Q113588986"}},"man_made/water_tower/bcb696-067baf":{"name":"Кюстендилска вода","locationSet":{"include":["bg"]},"geometry":["area","point"],"matchScore":2,"terms":["кюстендилска вода"],"tags":{"man_made":"water_tower","operator:wikidata":"Q113588828"},"addTags":{"man_made":"water_tower","operator":"Кюстендилска вода","operator:wikidata":"Q113588828"}},"man_made/water_tower/938062-067baf":{"name":"Софийска вода","locationSet":{"include":["bg"]},"geometry":["area","point"],"matchScore":2,"terms":["софийска вода"],"tags":{"man_made":"water_tower","operator:wikidata":"Q113588707"},"addTags":{"man_made":"water_tower","operator":"Софийска вода","operator:wikidata":"Q113588707"}},"man_made/water_works/b7d6cd-a924a3":{"name":"ВиК Благоевград","locationSet":{"include":["bg"]},"geometry":["point","area"],"matchScore":2,"terms":["вик благоевград"],"tags":{"man_made":"water_works","operator:wikidata":"Q113588831"},"addTags":{"man_made":"water_works","operator":"ВиК Благоевград","operator:wikidata":"Q113588831"}},"man_made/water_works/04e09c-a924a3":{"name":"ВиК Бургас","locationSet":{"include":["bg"]},"geometry":["point","area"],"matchScore":2,"terms":["вик бургас"],"tags":{"man_made":"water_works","operator:wikidata":"Q113588987"},"addTags":{"man_made":"water_works","operator":"ВиК Бургас","operator:wikidata":"Q113588987"}},"man_made/water_works/7efdd8-a924a3":{"name":"ВиК Варна","locationSet":{"include":["bg"]},"geometry":["point","area"],"matchScore":2,"terms":["вик варна"],"tags":{"man_made":"water_works","operator:wikidata":"Q113588992"},"addTags":{"man_made":"water_works","operator":"ВиК Варна","operator:wikidata":"Q113588992"}},"man_made/water_works/8ff433-a924a3":{"name":"ВиК Видин","locationSet":{"include":["bg"]},"geometry":["point","area"],"matchScore":2,"terms":["вик видин"],"tags":{"man_made":"water_works","operator:wikidata":"Q113588721"},"addTags":{"man_made":"water_works","operator":"ВиК Видин","operator:wikidata":"Q113588721"}},"man_made/water_works/bd05a8-a924a3":{"name":"ВиК Враца","locationSet":{"include":["bg"]},"geometry":["point","area"],"matchScore":2,"terms":["вик враца"],"tags":{"man_made":"water_works","operator:wikidata":"Q113588748"},"addTags":{"man_made":"water_works","operator":"ВиК Враца","operator:wikidata":"Q113588748"}},"man_made/water_works/c2d9d3-a924a3":{"name":"ВиК Габрово","locationSet":{"include":["bg"]},"geometry":["point","area"],"matchScore":2,"terms":["вик габрово"],"tags":{"man_made":"water_works","operator:wikidata":"Q113588824"},"addTags":{"man_made":"water_works","operator":"ВиК Габрово","operator:wikidata":"Q113588824"}},"man_made/water_works/fca690-a924a3":{"name":"ВиК Добрич","locationSet":{"include":["bg"]},"geometry":["point","area"],"matchScore":2,"terms":["вик добрич"],"tags":{"man_made":"water_works","operator:wikidata":"Q113588994"},"addTags":{"man_made":"water_works","operator":"ВиК Добрич","operator:wikidata":"Q113588994"}},"man_made/water_works/92d36e-a924a3":{"name":"ВиК Кърджали","locationSet":{"include":["bg"]},"geometry":["point","area"],"matchScore":2,"terms":["вик кърджали"],"tags":{"man_made":"water_works","operator:wikidata":"Q113588980"},"addTags":{"man_made":"water_works","operator":"ВиК Кърджали","operator:wikidata":"Q113588980"}},"man_made/water_works/7620d6-a924a3":{"name":"ВиК Ловеч","locationSet":{"include":["bg"]},"geometry":["point","area"],"matchScore":2,"terms":["вик ловеч"],"tags":{"man_made":"water_works","operator:wikidata":"Q113588800"},"addTags":{"man_made":"water_works","operator":"ВиК Ловеч","operator:wikidata":"Q113588800"}},"man_made/water_works/ea2fe0-a924a3":{"name":"ВиК Монтана","locationSet":{"include":["bg"]},"geometry":["point","area"],"matchScore":2,"terms":["вик монтана"],"tags":{"man_made":"water_works","operator:wikidata":"Q113588745"},"addTags":{"man_made":"water_works","operator":"ВиК Монтана","operator:wikidata":"Q113588745"}},"man_made/water_works/13156c-a924a3":{"name":"ВиК Пазарджик","locationSet":{"include":["bg"]},"geometry":["point","area"],"matchScore":2,"terms":["вик пазарджик"],"tags":{"man_made":"water_works","operator:wikidata":"Q113588836"},"addTags":{"man_made":"water_works","operator":"ВиК Пазарджик","operator:wikidata":"Q113588836"}},"man_made/water_works/960625-a924a3":{"name":"ВиК Перник","locationSet":{"include":["bg"]},"geometry":["point","area"],"matchScore":2,"terms":["вик перник"],"tags":{"man_made":"water_works","operator:wikidata":"Q113588978"},"addTags":{"man_made":"water_works","operator":"ВиК Перник","operator:wikidata":"Q113588978"}},"man_made/water_works/0736fe-a924a3":{"name":"ВиК Плевен","locationSet":{"include":["bg"]},"geometry":["point","area"],"matchScore":2,"terms":["вик плевен"],"tags":{"man_made":"water_works","operator:wikidata":"Q113588761"},"addTags":{"man_made":"water_works","operator":"ВиК Плевен","operator:wikidata":"Q113588761"}},"man_made/water_works/d609e6-a924a3":{"name":"ВиК Пловдив","locationSet":{"include":["bg"]},"geometry":["point","area"],"matchScore":2,"terms":["вик пловдив"],"tags":{"man_made":"water_works","operator:wikidata":"Q113588952"},"addTags":{"man_made":"water_works","operator":"ВиК Пловдив","operator:wikidata":"Q113588952"}},"man_made/water_works/28b8e9-a924a3":{"name":"ВиК Разград","locationSet":{"include":["bg"]},"geometry":["point","area"],"matchScore":2,"terms":["вик разград"],"tags":{"man_made":"water_works","operator:wikidata":"Q113588990"},"addTags":{"man_made":"water_works","operator":"ВиК Разград","operator:wikidata":"Q113588990"}},"man_made/water_works/1f80e1-a924a3":{"name":"ВиК Сливен","locationSet":{"include":["bg"]},"geometry":["point","area"],"matchScore":2,"terms":["вик сливен"],"tags":{"man_made":"water_works","operator:wikidata":"Q113588985"},"addTags":{"man_made":"water_works","operator":"ВиК Сливен","operator:wikidata":"Q113588985"}},"man_made/water_works/909eab-a924a3":{"name":"ВиК Смолян","locationSet":{"include":["bg"]},"geometry":["point","area"],"matchScore":2,"terms":["вик смолян"],"tags":{"man_made":"water_works","operator:wikidata":"Q113588934"},"addTags":{"man_made":"water_works","operator":"ВиК Смолян","operator:wikidata":"Q113588934"}},"man_made/water_works/423877-a924a3":{"name":"ВиК София област","locationSet":{"include":["bg"]},"geometry":["point","area"],"matchScore":2,"terms":["вик софия област"],"tags":{"man_made":"water_works","operator:wikidata":"Q113588713"},"addTags":{"man_made":"water_works","operator":"ВиК София област","operator:wikidata":"Q113588713"}},"man_made/water_works/f8ff0f-a924a3":{"name":"ВиК Стара Загора","locationSet":{"include":["bg"]},"geometry":["point","area"],"matchScore":2,"terms":["вик стара загора"],"tags":{"man_made":"water_works","operator:wikidata":"Q113588955"},"addTags":{"man_made":"water_works","operator":"ВиК Стара Загора","operator:wikidata":"Q113588955"}},"man_made/water_works/f5e9ca-a924a3":{"name":"ВиК Търговище","locationSet":{"include":["bg"]},"geometry":["point","area"],"matchScore":2,"terms":["вик търговище"],"tags":{"man_made":"water_works","operator:wikidata":"Q113588988"},"addTags":{"man_made":"water_works","operator":"ВиК Търговище","operator:wikidata":"Q113588988"}},"man_made/water_works/1ed3c2-a924a3":{"name":"ВиК Хасково","locationSet":{"include":["bg"]},"geometry":["point","area"],"matchScore":2,"terms":["вик хасково"],"tags":{"man_made":"water_works","operator:wikidata":"Q113588961"},"addTags":{"man_made":"water_works","operator":"ВиК Хасково","operator:wikidata":"Q113588961"}},"man_made/water_works/2be4ff-a924a3":{"name":"ВиК Шумен","locationSet":{"include":["bg"]},"geometry":["point","area"],"matchScore":2,"terms":["вик шумен"],"tags":{"man_made":"water_works","operator:wikidata":"Q113588991"},"addTags":{"man_made":"water_works","operator":"ВиК Шумен","operator:wikidata":"Q113588991"}},"man_made/water_works/460ece-a924a3":{"name":"ВиК Ямбол","locationSet":{"include":["bg"]},"geometry":["point","area"],"matchScore":2,"terms":["вик ямбол"],"tags":{"man_made":"water_works","operator:wikidata":"Q113588986"},"addTags":{"man_made":"water_works","operator":"ВиК Ямбол","operator:wikidata":"Q113588986"}},"man_made/water_works/bcb696-a924a3":{"name":"Кюстендилска вода","locationSet":{"include":["bg"]},"geometry":["point","area"],"matchScore":2,"terms":["кюстендилска вода"],"tags":{"man_made":"water_works","operator:wikidata":"Q113588828"},"addTags":{"man_made":"water_works","operator":"Кюстендилска вода","operator:wikidata":"Q113588828"}},"man_made/water_works/938062-a924a3":{"name":"Софийска вода","locationSet":{"include":["bg"]},"geometry":["point","area"],"matchScore":2,"terms":["софийска вода"],"tags":{"man_made":"water_works","operator:wikidata":"Q113588707"},"addTags":{"man_made":"water_works","operator":"Софийска вода","operator:wikidata":"Q113588707"}},"office/government/register_office/30f803-8d3c9a":{"name":"Агенция по вписванията","locationSet":{"include":["bg"]},"geometry":["point","area"],"matchScore":2,"terms":["агенция по вписванията"],"fields":["name","operator","{office/government/register_office}"],"reference":{"key":"government","value":"register_office"},"tags":{"government":"register_office","office":"government","operator:wikidata":"Q101218804"},"addTags":{"government":"register_office","office":"government","operator":"Агенция по вписванията","operator:wikidata":"Q101218804"}},"office/government/ca337a-8d3c9a":{"name":"Агенция по геодезия, картография и кадастър","locationSet":{"include":["bg"]},"geometry":["point","area"],"matchScore":2,"terms":["агенция по геодезия, картография и кадастър","агкк"],"fields":["name","operator","{office/government}"],"tags":{"office":"government","operator:wikidata":"Q20498487"},"addTags":{"government":"cadastre","office":"government","operator":"Агенция по геодезия, картография и кадастър","operator:wikidata":"Q20498487"}},"office/government/ff615c-8d3c9a":{"name":"Агенция по заетостта","locationSet":{"include":["bg"]},"geometry":["point","area"],"matchScore":2,"terms":["агенция по заетостта","аз"],"fields":["name","operator","{office/government}"],"tags":{"office":"government","operator:wikidata":"Q12271139"},"addTags":{"government":"employment_agency","office":"government","operator":"Агенция по заетостта","operator:wikidata":"Q12271139"}},"office/government/d21924-8d3c9a":{"name":"Изпълнителна агенция \"Автомобилна администрация\"","locationSet":{"include":["bg"]},"geometry":["point","area"],"matchScore":2,"terms":["даи","иааа","изпълнителна агенция \"автомобилна администрация\""],"fields":["name","operator","{office/government}"],"tags":{"office":"government","operator:wikidata":"Q112581933"},"addTags":{"office":"government","operator":"Изпълнителна агенция \"Автомобилна администрация\"","operator:wikidata":"Q112581933"}},"office/government/c2eee5-8d3c9a":{"name":"Министертво на здравеопазването","locationSet":{"include":["bg"]},"geometry":["point","area"],"matchScore":2,"terms":["мз","министертво на здравеопазването"],"fields":["name","operator","{office/government}"],"tags":{"office":"government","operator:wikidata":"Q12286820"},"addTags":{"office":"government","operator":"Министертво на здравеопазването","operator:wikidata":"Q12286820"}},"office/government/144fef-8d3c9a":{"name":"Министертво на образованието и науката","locationSet":{"include":["bg"]},"geometry":["point","area"],"matchScore":2,"terms":["министертво на образованието и науката","мон","монм"],"fields":["name","operator","{office/government}"],"tags":{"office":"government","operator:wikidata":"Q3396672"},"addTags":{"office":"government","operator":"Министертво на образованието и науката","operator:wikidata":"Q3396672"}},"office/government/6e9305-8d3c9a":{"name":"Национален осигурителен институт","locationSet":{"include":["bg"]},"geometry":["point","area"],"matchScore":2,"terms":["национален осигурителен институт","нои"],"fields":["name","operator","{office/government}"],"tags":{"office":"government","operator:wikidata":"Q12287856"},"addTags":{"office":"government","operator":"Национален осигурителен институт","operator:wikidata":"Q12287856"}},"office/government/tax/24960f-8d3c9a":{"name":"Национална агенция за приходите","locationSet":{"include":["bg"]},"geometry":["point","area"],"matchScore":2,"terms":["нап","национална агенция за приходите"],"fields":["name","operator","{office/government/tax}"],"reference":{"key":"government","value":"tax"},"tags":{"government":"tax","office":"government","operator:wikidata":"Q12287903"},"addTags":{"government":"tax","office":"government","operator":"Национална агенция за приходите","operator:wikidata":"Q12287903"}},"office/government/57670d-8d3c9a":{"name":"Национална здравно-осигурителна каса","locationSet":{"include":["bg"]},"geometry":["point","area"],"matchScore":2,"terms":["национална здравно-осигурителна каса","нзок","рзок"],"fields":["name","operator","{office/government}"],"tags":{"office":"government","operator:wikidata":"Q12287913"},"addTags":{"office":"government","operator":"Национална здравно-осигурителна каса","operator:wikidata":"Q12287913"}},"office/water_utility/b7d6cd-2a765c":{"name":"ВиК Благоевград","locationSet":{"include":["bg"]},"geometry":["point","area"],"matchScore":2,"terms":["вик благоевград"],"tags":{"office":"water_utility","operator:wikidata":"Q113588831"},"addTags":{"name":"ВиК Благоевград","office":"water_utility","operator":"ВиК Благоевград","operator:wikidata":"Q113588831"}},"office/water_utility/04e09c-2a765c":{"name":"ВиК Бургас","locationSet":{"include":["bg"]},"geometry":["point","area"],"matchScore":2,"terms":["вик бургас"],"tags":{"office":"water_utility","operator:wikidata":"Q113588987"},"addTags":{"name":"ВиК Бургас","office":"water_utility","operator":"ВиК Бургас","operator:wikidata":"Q113588987"}},"office/water_utility/7efdd8-2a765c":{"name":"ВиК Варна","locationSet":{"include":["bg"]},"geometry":["point","area"],"matchScore":2,"terms":["вик варна"],"tags":{"office":"water_utility","operator:wikidata":"Q113588992"},"addTags":{"name":"ВиК Варна","office":"water_utility","operator":"ВиК Варна","operator:wikidata":"Q113588992"}},"office/water_utility/8ff433-2a765c":{"name":"ВиК Видин","locationSet":{"include":["bg"]},"geometry":["point","area"],"matchScore":2,"terms":["вик видин"],"tags":{"office":"water_utility","operator:wikidata":"Q113588721"},"addTags":{"name":"ВиК Видин","office":"water_utility","operator":"ВиК Видин","operator:wikidata":"Q113588721"}},"office/water_utility/bd05a8-2a765c":{"name":"ВиК Враца","locationSet":{"include":["bg"]},"geometry":["point","area"],"matchScore":2,"terms":["вик враца"],"tags":{"office":"water_utility","operator:wikidata":"Q113588748"},"addTags":{"name":"ВиК Враца","office":"water_utility","operator":"ВиК Враца","operator:wikidata":"Q113588748"}},"office/water_utility/c2d9d3-2a765c":{"name":"ВиК Габрово","locationSet":{"include":["bg"]},"geometry":["point","area"],"matchScore":2,"terms":["вик габрово"],"tags":{"office":"water_utility","operator:wikidata":"Q113588824"},"addTags":{"name":"ВиК Габрово","office":"water_utility","operator":"ВиК Габрово","operator:wikidata":"Q113588824"}},"office/water_utility/fca690-2a765c":{"name":"ВиК Добрич","locationSet":{"include":["bg"]},"geometry":["point","area"],"matchScore":2,"terms":["вик добрич"],"tags":{"office":"water_utility","operator:wikidata":"Q113588994"},"addTags":{"name":"ВиК Добрич","office":"water_utility","operator":"ВиК Добрич","operator:wikidata":"Q113588994"}},"office/water_utility/92d36e-2a765c":{"name":"ВиК Кърджали","locationSet":{"include":["bg"]},"geometry":["point","area"],"matchScore":2,"terms":["вик кърджали"],"tags":{"office":"water_utility","operator:wikidata":"Q113588980"},"addTags":{"name":"ВиК Кърджали","office":"water_utility","operator":"ВиК Кърджали","operator:wikidata":"Q113588980"}},"office/water_utility/7620d6-2a765c":{"name":"ВиК Ловеч","locationSet":{"include":["bg"]},"geometry":["point","area"],"matchScore":2,"terms":["вик ловеч"],"tags":{"office":"water_utility","operator:wikidata":"Q113588800"},"addTags":{"name":"ВиК Ловеч","office":"water_utility","operator":"ВиК Ловеч","operator:wikidata":"Q113588800"}},"office/water_utility/ea2fe0-2a765c":{"name":"ВиК Монтана","locationSet":{"include":["bg"]},"geometry":["point","area"],"matchScore":2,"terms":["вик монтана"],"tags":{"office":"water_utility","operator:wikidata":"Q113588745"},"addTags":{"name":"ВиК Монтана","office":"water_utility","operator":"ВиК Монтана","operator:wikidata":"Q113588745"}},"office/water_utility/13156c-2a765c":{"name":"ВиК Пазарджик","locationSet":{"include":["bg"]},"geometry":["point","area"],"matchScore":2,"terms":["вик пазарджик"],"tags":{"office":"water_utility","operator:wikidata":"Q113588836"},"addTags":{"name":"ВиК Пазарджик","office":"water_utility","operator":"ВиК Пазарджик","operator:wikidata":"Q113588836"}},"office/water_utility/960625-2a765c":{"name":"ВиК Перник","locationSet":{"include":["bg"]},"geometry":["point","area"],"matchScore":2,"terms":["вик перник"],"tags":{"office":"water_utility","operator:wikidata":"Q113588978"},"addTags":{"name":"ВиК Перник","office":"water_utility","operator":"ВиК Перник","operator:wikidata":"Q113588978"}},"office/water_utility/0736fe-2a765c":{"name":"ВиК Плевен","locationSet":{"include":["bg"]},"geometry":["point","area"],"matchScore":2,"terms":["вик плевен"],"tags":{"office":"water_utility","operator:wikidata":"Q113588761"},"addTags":{"name":"ВиК Плевен","office":"water_utility","operator":"ВиК Плевен","operator:wikidata":"Q113588761"}},"office/water_utility/d609e6-2a765c":{"name":"ВиК Пловдив","locationSet":{"include":["bg"]},"geometry":["point","area"],"matchScore":2,"terms":["вик пловдив"],"tags":{"office":"water_utility","operator:wikidata":"Q113588952"},"addTags":{"name":"ВиК Пловдив","office":"water_utility","operator":"ВиК Пловдив","operator:wikidata":"Q113588952"}},"office/water_utility/28b8e9-2a765c":{"name":"ВиК Разград","locationSet":{"include":["bg"]},"geometry":["point","area"],"matchScore":2,"terms":["вик разград"],"tags":{"office":"water_utility","operator:wikidata":"Q113588990"},"addTags":{"name":"ВиК Разград","office":"water_utility","operator":"ВиК Разград","operator:wikidata":"Q113588990"}},"office/water_utility/1f80e1-2a765c":{"name":"ВиК Сливен","locationSet":{"include":["bg"]},"geometry":["point","area"],"matchScore":2,"terms":["вик сливен"],"tags":{"office":"water_utility","operator:wikidata":"Q113588985"},"addTags":{"name":"ВиК Сливен","office":"water_utility","operator":"ВиК Сливен","operator:wikidata":"Q113588985"}},"office/water_utility/909eab-2a765c":{"name":"ВиК Смолян","locationSet":{"include":["bg"]},"geometry":["point","area"],"matchScore":2,"terms":["вик смолян"],"tags":{"office":"water_utility","operator:wikidata":"Q113588934"},"addTags":{"name":"ВиК Смолян","office":"water_utility","operator":"ВиК Смолян","operator:wikidata":"Q113588934"}},"office/water_utility/423877-2a765c":{"name":"ВиК София област","locationSet":{"include":["bg"]},"geometry":["point","area"],"matchScore":2,"terms":["вик софия област"],"tags":{"office":"water_utility","operator:wikidata":"Q113588713"},"addTags":{"name":"ВиК София област","office":"water_utility","operator":"ВиК София област","operator:wikidata":"Q113588713"}},"office/water_utility/f8ff0f-2a765c":{"name":"ВиК Стара Загора","locationSet":{"include":["bg"]},"geometry":["point","area"],"matchScore":2,"terms":["вик стара загора"],"tags":{"office":"water_utility","operator:wikidata":"Q113588955"},"addTags":{"name":"ВиК Стара Загора","office":"water_utility","operator":"ВиК Стара Загора","operator:wikidata":"Q113588955"}},"office/water_utility/f5e9ca-2a765c":{"name":"ВиК Търговище","locationSet":{"include":["bg"]},"geometry":["point","area"],"matchScore":2,"terms":["вик търговище"],"tags":{"office":"water_utility","operator:wikidata":"Q113588988"},"addTags":{"name":"ВиК Търговище","office":"water_utility","operator":"ВиК Търговище","operator:wikidata":"Q113588988"}},"office/water_utility/1ed3c2-2a765c":{"name":"ВиК Хасково","locationSet":{"include":["bg"]},"geometry":["point","area"],"matchScore":2,"terms":["вик хасково"],"tags":{"office":"water_utility","operator:wikidata":"Q113588961"},"addTags":{"name":"ВиК Хасково","office":"water_utility","operator":"ВиК Хасково","operator:wikidata":"Q113588961"}},"office/water_utility/2be4ff-2a765c":{"name":"ВиК Шумен","locationSet":{"include":["bg"]},"geometry":["point","area"],"matchScore":2,"terms":["вик шумен"],"tags":{"office":"water_utility","operator:wikidata":"Q113588991"},"addTags":{"name":"ВиК Шумен","office":"water_utility","operator":"ВиК Шумен","operator:wikidata":"Q113588991"}},"office/water_utility/460ece-2a765c":{"name":"ВиК Ямбол","locationSet":{"include":["bg"]},"geometry":["point","area"],"matchScore":2,"terms":["вик ямбол"],"tags":{"office":"water_utility","operator:wikidata":"Q113588986"},"addTags":{"name":"ВиК Ямбол","office":"water_utility","operator":"ВиК Ямбол","operator:wikidata":"Q113588986"}},"office/water_utility/bcb696-2a765c":{"name":"Кюстендилска вода","locationSet":{"include":["bg"]},"geometry":["point","area"],"matchScore":2,"terms":["кюстендилска вода"],"tags":{"office":"water_utility","operator:wikidata":"Q113588828"},"addTags":{"name":"Кюстендилска вода","office":"water_utility","operator":"Кюстендилска вода","operator:wikidata":"Q113588828"}},"office/water_utility/938062-2a765c":{"name":"Софийска вода","locationSet":{"include":["bg"]},"geometry":["point","area"],"matchScore":2,"terms":["софийска вода"],"tags":{"office":"water_utility","operator:wikidata":"Q113588707"},"addTags":{"name":"Софийска вода","office":"water_utility","operator":"Софийска вода","operator:wikidata":"Q113588707"}},"power/generator/evn-87ac22":{"name":"EVN (Bulgaria)","locationSet":{"include":["bg"]},"geometry":["point","vertex","area"],"matchScore":2,"terms":["evn","evn naturkraft"],"tags":{"operator:wikidata":"Q20498243","power":"generator"},"addTags":{"operator":"EVN","operator:wikidata":"Q20498243","power":"generator"}},"power/generator/innogy-16c9d0":{"name":"Innogy","locationSet":{"include":["by","bg","cz","hu","pl","md","ro","ru","sk","ua","ax","gg","je","cq","dk","ee","fo","fi","is","ie","im","lv","lt","no","sj","se","gb","al","ad","ba","hr","gi","gr","va","it","mt","me","mk","pt","sm","rs","si","es","xk","at","be","fr","de","li","lu","mc","nl","ch"]},"geometry":["point","vertex","area"],"matchScore":2,"terms":["innogy"],"tags":{"operator:wikidata":"Q2124721","power":"generator"},"addTags":{"operator":"Innogy","operator:wikidata":"Q2124721","power":"generator"}},"power/generator/rwe-16c9d0":{"name":"RWE","locationSet":{"include":["by","bg","cz","hu","pl","md","ro","ru","sk","ua","ax","gg","je","cq","dk","ee","fo","fi","is","ie","im","lv","lt","no","sj","se","gb","al","ad","ba","hr","gi","gr","va","it","mt","me","mk","pt","sm","rs","si","es","xk","at","be","fr","de","li","lu","mc","nl","ch"]},"geometry":["point","vertex","area"],"matchScore":2,"terms":["rwe"],"tags":{"operator:wikidata":"Q138133","power":"generator"},"addTags":{"operator":"RWE","operator:wikidata":"Q138133","power":"generator"}},"power/generator/statkraft-16c9d0":{"name":"Statkraft","locationSet":{"include":["by","bg","cz","hu","pl","md","ro","ru","sk","ua","ax","gg","je","cq","dk","ee","fo","fi","is","ie","im","lv","lt","no","sj","se","gb","al","ad","ba","hr","gi","gr","va","it","mt","me","mk","pt","sm","rs","si","es","xk","at","be","fr","de","li","lu","mc","nl","ch"]},"geometry":["point","vertex","area"],"matchScore":2,"terms":["statkraft"],"tags":{"operator:wikidata":"Q1681145","power":"generator"},"addTags":{"operator":"Statkraft","operator:wikidata":"Q1681145","power":"generator"}},"power/generator/uniper-16c9d0":{"name":"Uniper","locationSet":{"include":["by","bg","cz","hu","pl","md","ro","ru","sk","ua","ax","gg","je","cq","dk","ee","fo","fi","is","ie","im","lv","lt","no","sj","se","gb","al","ad","ba","hr","gi","gr","va","it","mt","me","mk","pt","sm","rs","si","es","xk","at","be","fr","de","li","lu","mc","nl","ch"]},"geometry":["point","vertex","area"],"matchScore":2,"terms":["uniper"],"tags":{"operator:wikidata":"Q19839259","power":"generator"},"addTags":{"operator":"Uniper","operator:wikidata":"Q19839259","power":"generator"}},"power/generator/wpo-16c9d0":{"name":"WPO","locationSet":{"include":["by","bg","cz","hu","pl","md","ro","ru","sk","ua","ax","gg","je","cq","dk","ee","fo","fi","is","ie","im","lv","lt","no","sj","se","gb","al","ad","ba","hr","gi","gr","va","it","mt","me","mk","pt","sm","rs","si","es","xk","at","be","fr","de","li","lu","mc","nl","ch"]},"geometry":["point","vertex","area"],"matchScore":2,"terms":["wpo"],"tags":{"operator:wikidata":"Q64755627","power":"generator"},"addTags":{"operator":"WPO","operator:wikidata":"Q64755627","power":"generator"}},"power/line/d6c8f4-9f81c6":{"name":"Електроразпределение Юг","locationSet":{"include":["bg"]},"geometry":["line"],"matchScore":2,"terms":["evn","евн","електроразпределение юг"],"tags":{"operator:wikidata":"Q113610915","power":"line"},"addTags":{"operator":"Електроразпределение Юг","operator:wikidata":"Q113610915","power":"line"}},"power/line/acf1d3-9f81c6":{"name":"ЕРМ Запад","locationSet":{"include":["bg"]},"geometry":["line"],"matchScore":2,"terms":["cez","ерм запад","чез","чез разпределение"],"tags":{"operator:wikidata":"Q104831094","power":"line"},"addTags":{"operator":"ЕРМ Запад","operator:wikidata":"Q104831094","power":"line"}},"power/line/74cdb5-9f81c6":{"name":"ЕРП Север","locationSet":{"include":["bg"]},"geometry":["line"],"matchScore":2,"terms":["energo-pro","енерго-про","ерп север"],"tags":{"operator:wikidata":"Q113610665","power":"line"},"addTags":{"operator":"ЕРП Север","operator:wikidata":"Q113610665","power":"line"}},"power/minor_line/d6c8f4-2f8a32":{"name":"Електроразпределение Юг","locationSet":{"include":["bg"]},"geometry":["line"],"matchScore":2,"terms":["evn","евн","електроразпределение юг"],"tags":{"operator:wikidata":"Q113610915","power":"minor_line"},"addTags":{"operator":"Електроразпределение Юг","operator:wikidata":"Q113610915","power":"minor_line"}},"power/minor_line/acf1d3-2f8a32":{"name":"ЕРМ Запад","locationSet":{"include":["bg"]},"geometry":["line"],"matchScore":2,"terms":["cez","ерм запад","чез","чез разпределение"],"tags":{"operator:wikidata":"Q104831094","power":"minor_line"},"addTags":{"operator":"ЕРМ Запад","operator:wikidata":"Q104831094","power":"minor_line"}},"power/minor_line/74cdb5-2f8a32":{"name":"ЕРП Север","locationSet":{"include":["bg"]},"geometry":["line"],"matchScore":2,"terms":["energo-pro","енерго-про","ерп север"],"tags":{"operator:wikidata":"Q113610665","power":"minor_line"},"addTags":{"operator":"ЕРП Север","operator:wikidata":"Q113610665","power":"minor_line"}},"power/plant/energopro-8a4876":{"name":"Energo-Pro","locationSet":{"include":["bg","cz","ge","si","tr"]},"geometry":["area"],"matchScore":2,"terms":["energo-pro"],"tags":{"operator:wikidata":"Q11878927","power":"plant"},"addTags":{"operator":"Energo-Pro","operator:wikidata":"Q11878927","power":"plant"}},"power/plant/c9ec9c-becb55":{"name":"EVN Топлофикция (Пловдив)","locationSet":{"include":["bg"]},"geometry":["area"],"matchScore":2,"terms":["evn топлофикция"],"tags":{"operator:wikidata":"Q113611221","power":"plant"},"addTags":{"operator":"EVN Топлофикция","operator:wikidata":"Q113611221","power":"plant"}},"power/plant/5538b9-becb55":{"name":"Веолия Енерджи Варна","locationSet":{"include":["bg"]},"geometry":["area"],"matchScore":2,"terms":["веолия енерджи варна","топлофикация варна"],"tags":{"operator:wikidata":"Q113611256","power":"plant"},"addTags":{"operator":"Веолия Енерджи Варна","operator:wikidata":"Q113611256","power":"plant"}},"power/plant/3b87db-becb55":{"name":"НЕК ЕАД","locationSet":{"include":["bg"]},"geometry":["area"],"matchScore":2,"terms":["нек еад"],"tags":{"operator:wikidata":"Q12287911","power":"plant"},"addTags":{"operator":"НЕК ЕАД","operator:wikidata":"Q12287911","power":"plant"}},"power/plant/dac849-becb55":{"name":"Топлофикация Бургас","locationSet":{"include":["bg"]},"geometry":["area"],"matchScore":2,"terms":["топлофикация бургас"],"tags":{"operator:wikidata":"Q113611230","power":"plant"},"addTags":{"operator":"Топлофикация Бургас","operator:wikidata":"Q113611230","power":"plant"}},"power/plant/e23d2f-becb55":{"name":"Топлофикация Враца","locationSet":{"include":["bg"]},"geometry":["area"],"matchScore":2,"terms":["топлофикация враца"],"tags":{"operator:wikidata":"Q113611296","power":"plant"},"addTags":{"operator":"Топлофикация Враца","operator:wikidata":"Q113611296","power":"plant"}},"power/plant/71a366-becb55":{"name":"Топлофикация Перник","locationSet":{"include":["bg"]},"geometry":["area"],"matchScore":2,"terms":["топлофикация перник"],"tags":{"operator:wikidata":"Q113611306","power":"plant"},"addTags":{"operator":"Топлофикация Перник","operator:wikidata":"Q113611306","power":"plant"}},"power/plant/2cd3dd-becb55":{"name":"Топлофикация Плевен","locationSet":{"include":["bg"]},"geometry":["area"],"matchScore":2,"terms":["топлофикация плевен"],"tags":{"operator:wikidata":"Q113611303","power":"plant"},"addTags":{"operator":"Топлофикация Плевен","operator:wikidata":"Q113611303","power":"plant"}},"power/plant/520b86-becb55":{"name":"Топлофикация Русе","locationSet":{"include":["bg"]},"geometry":["area"],"matchScore":2,"terms":["топлофикация русе"],"tags":{"operator:wikidata":"Q113611300","power":"plant"},"addTags":{"operator":"Топлофикация Русе","operator:wikidata":"Q113611300","power":"plant"}},"power/plant/b92d89-becb55":{"name":"Топлофикация Сливен","locationSet":{"include":["bg"]},"geometry":["area"],"matchScore":2,"terms":["топлофикация сливен"],"tags":{"operator:wikidata":"Q113611307","power":"plant"},"addTags":{"operator":"Топлофикация Сливен","operator:wikidata":"Q113611307","power":"plant"}},"power/plant/d08e33-becb55":{"name":"Топлофикация София","locationSet":{"include":["bg"]},"geometry":["area"],"matchScore":2,"terms":["топлофикация софия"],"tags":{"operator:wikidata":"Q61116364","power":"plant"},"addTags":{"operator":"Топлофикация София","operator:wikidata":"Q61116364","power":"plant"}},"power/pole/d6c8f4-a22000":{"name":"Електроразпределение Юг","locationSet":{"include":["bg"]},"geometry":["point","vertex"],"matchScore":2,"terms":["evn","евн","електроразпределение юг"],"tags":{"operator:wikidata":"Q113610915","power":"pole"},"addTags":{"operator":"Електроразпределение Юг","operator:wikidata":"Q113610915","power":"pole"}},"power/pole/acf1d3-a22000":{"name":"ЕРМ Запад","locationSet":{"include":["bg"]},"geometry":["point","vertex"],"matchScore":2,"terms":["cez","ерм запад","чез","чез разпределение"],"tags":{"operator:wikidata":"Q104831094","power":"pole"},"addTags":{"operator":"ЕРМ Запад","operator:wikidata":"Q104831094","power":"pole"}},"power/pole/74cdb5-a22000":{"name":"ЕРП Север","locationSet":{"include":["bg"]},"geometry":["point","vertex"],"matchScore":2,"terms":["energo-pro","енерго-про","ерп север"],"tags":{"operator:wikidata":"Q113610665","power":"pole"},"addTags":{"operator":"ЕРП Север","operator:wikidata":"Q113610665","power":"pole"}},"power/substation/87d60e-250fb8":{"name":"Електроенергиен системен оператор","locationSet":{"include":["bg"]},"geometry":["area","point"],"matchScore":2,"terms":["електроенергиен системен оператор"],"tags":{"operator:wikidata":"Q12279650","power":"substation"},"addTags":{"operator":"Електроенергиен системен оператор","operator:wikidata":"Q12279650","power":"substation"}},"power/substation/afbfca-250fb8":{"name":"НКЖИ","locationSet":{"include":["bg"]},"geometry":["area","point"],"matchScore":2,"terms":["дп нкжи","национална компания железопътна инфраструктура","нкжи"],"tags":{"operator:wikidata":"Q6975183","power":"substation"},"addTags":{"operator":"НКЖИ","operator:wikidata":"Q6975183","power":"substation"}},"power/substation/1a7f26-250fb8":{"name":"Столичен електротранспорт ЕАД","locationSet":{"include":["bg"]},"geometry":["area","point"],"matchScore":2,"terms":["столичен електротранспорт еад"],"tags":{"operator:wikidata":"Q112263409","power":"substation"},"addTags":{"operator":"Столичен електротранспорт ЕАД","operator:wikidata":"Q112263409","power":"substation"}},"power/tower/d6c8f4-1b7bdf":{"name":"Електроразпределение Юг","locationSet":{"include":["bg"]},"geometry":["point","vertex"],"matchScore":2,"terms":["evn","евн","електроразпределение юг"],"tags":{"operator:wikidata":"Q113610915","power":"tower"},"addTags":{"operator":"Електроразпределение Юг","operator:wikidata":"Q113610915","power":"tower"}},"power/tower/acf1d3-1b7bdf":{"name":"ЕРМ Запад","locationSet":{"include":["bg"]},"geometry":["point","vertex"],"matchScore":2,"terms":["cez","ерм запад","чез","чез разпределение"],"tags":{"operator:wikidata":"Q104831094","power":"tower"},"addTags":{"operator":"ЕРМ Запад","operator:wikidata":"Q104831094","power":"tower"}},"power/tower/74cdb5-1b7bdf":{"name":"ЕРП Север","locationSet":{"include":["bg"]},"geometry":["point","vertex"],"matchScore":2,"terms":["energo-pro","енерго-про","ерп север"],"tags":{"operator:wikidata":"Q113610665","power":"tower"},"addTags":{"operator":"ЕРП Север","operator:wikidata":"Q113610665","power":"tower"}},"power/transformer/87d60e-82b16b":{"name":"Електроенергиен системен оператор","locationSet":{"include":["bg"]},"geometry":["point","vertex"],"matchScore":2,"terms":["електроенергиен системен оператор"],"tags":{"operator:wikidata":"Q12279650","power":"transformer"},"addTags":{"operator":"Електроенергиен системен оператор","operator:wikidata":"Q12279650","power":"transformer"}},"power/transformer/afbfca-82b16b":{"name":"НКЖИ","locationSet":{"include":["bg"]},"geometry":["point","vertex"],"matchScore":2,"terms":["дп нкжи","национална компания железопътна инфраструктура","нкжи"],"tags":{"operator:wikidata":"Q6975183","power":"transformer"},"addTags":{"operator":"НКЖИ","operator:wikidata":"Q6975183","power":"transformer"}},"power/transformer/1a7f26-82b16b":{"name":"Столичен електротранспорт ЕАД","locationSet":{"include":["bg"]},"geometry":["point","vertex"],"matchScore":2,"terms":["столичен електротранспорт еад"],"tags":{"operator:wikidata":"Q112263409","power":"transformer"},"addTags":{"operator":"Столичен електротранспорт ЕАД","operator:wikidata":"Q112263409","power":"transformer"}},"type/route/railway/afbfca-ce52f6":{"name":"НКЖИ","locationSet":{"include":["bg"]},"geometry":["relation"],"matchScore":2,"terms":["дп нкжи","национална компания железопътна инфраструктура","нкжи"],"reference":{"key":"route","value":"railway"},"tags":{"operator:wikidata":"Q6975183","route":"railway","type":"route"},"addTags":{"operator":"НКЖИ","operator:wikidata":"Q6975183","route":"railway","type":"route"}},"telecom/exchange/interoute-58ec5d":{"name":"Interoute","locationSet":{"include":["by","bg","cz","hu","pl","md","ro","ru","sk","ua","ax","gg","je","cq","dk","ee","fo","fi","is","ie","im","lv","lt","no","sj","se","gb","al","ad","ba","hr","gi","gr","va","it","mt","me","mk","pt","sm","rs","si","es","xk","at","be","fr","de","li","lu","mc","nl","ch"]},"geometry":["point","area"],"matchScore":2,"terms":["interoute"],"fields":["name","operator","{telecom/exchange}"],"tags":{"operator:wikidata":"Q1668090","telecom":"exchange"},"addTags":{"operator":"Interoute","operator:wikidata":"Q1668090","telecom":"exchange"}},"public_transport/platform/bus_point/2055e9-bac764":{"name":"Софийски градски транпорт","locationSet":{"include":["bg"]},"geometry":["point","vertex"],"matchScore":2,"terms":["софийски градски транпорт","столичен автотранспорт еад"],"reference":{"key":"public_transport","value":"platform"},"tags":{"bus":"yes","network:wikidata":"Q7257712","public_transport":"platform"},"addTags":{"bus":"yes","highway":"bus_stop","network":"Софийски градски транпорт","network:wikidata":"Q7257712","operator":"Столичен автотранспорт ЕАД","operator:wikidata":"Q112957887","public_transport":"platform"}},"type/route/bus/2055e9-61eaf0":{"name":"Софийски градски транпорт","locationSet":{"include":["bg"]},"geometry":["relation"],"matchScore":2,"terms":["софийски градски транпорт","столичен автотранспорт еад"],"reference":{"key":"route","value":"bus"},"tags":{"network:wikidata":"Q7257712","route":"bus","type":"route"},"addTags":{"network":"Софийски градски транпорт","network:wikidata":"Q7257712","operator":"Столичен автотранспорт ЕАД","operator:wikidata":"Q112957887","route":"bus","type":"route"}},"type/route/subway/f77c90-df143a":{"name":"Софийско метро","locationSet":{"include":["bg"]},"geometry":["relation"],"matchScore":2,"terms":["метрополитен еад","софийско метро"],"reference":{"key":"route","value":"subway"},"tags":{"network:wikidata":"Q234707","route":"subway","type":"route"},"addTags":{"network":"Софийско метро","network:wikidata":"Q234707","operator":"Метрополитен ЕАД","operator:wikidata":"Q112957870","route":"subway","type":"route"}},"type/route/train/eurocity-6b9d23":{"name":"EuroCity","locationSet":{"include":["by","bg","cz","hu","pl","md","ro","ru","sk","ua","ax","gg","je","cq","dk","ee","fo","fi","is","ie","im","lv","lt","no","sj","se","gb","al","ad","ba","hr","gi","gr","va","it","mt","me","mk","pt","sm","rs","si","es","xk","at","be","fr","de","li","lu","mc","nl","ch"]},"geometry":["relation"],"matchScore":2,"terms":["eurocity"],"reference":{"key":"route","value":"train"},"tags":{"network:wikidata":"Q753050","route":"train","type":"route"},"addTags":{"network":"EuroCity","network:wikidata":"Q753050","route":"train","type":"route"}},"type/route/train/euronight-6b9d23":{"name":"EuroNight","locationSet":{"include":["by","bg","cz","hu","pl","md","ro","ru","sk","ua","ax","gg","je","cq","dk","ee","fo","fi","is","ie","im","lv","lt","no","sj","se","gb","al","ad","ba","hr","gi","gr","va","it","mt","me","mk","pt","sm","rs","si","es","xk","at","be","fr","de","li","lu","mc","nl","ch"]},"geometry":["relation"],"matchScore":2,"terms":["euronight"],"reference":{"key":"route","value":"train"},"tags":{"network:wikidata":"Q257307","route":"train","type":"route"},"addTags":{"network":"EuroNight","network:wikidata":"Q257307","route":"train","type":"route"}},"type/route/tram/2055e9-89bdb2":{"name":"Софийски градски транпорт","locationSet":{"include":["bg"]},"geometry":["relation"],"matchScore":2,"terms":["софийски градски транпорт","столичен електротранспорт еад"],"reference":{"key":"route","value":"tram"},"tags":{"network:wikidata":"Q2119886","route":"tram","type":"route"},"addTags":{"network":"Софийски градски транпорт","network:wikidata":"Q2119886","operator":"Столичен електротранспорт ЕАД","operator:wikidata":"Q112263409","route":"tram","type":"route"}},"type/route/trolleybus/2055e9-9965d5":{"name":"Софийски градски транпорт","locationSet":{"include":["bg"]},"geometry":["relation"],"matchScore":2,"terms":["софийски градски транпорт","столичен електротранспорт еад"],"reference":{"key":"route","value":"trolleybus"},"tags":{"network:wikidata":"Q2561683","route":"trolleybus","type":"route"},"addTags":{"network":"Софийски градски транпорт","network:wikidata":"Q2561683","operator":"Столичен електротранспорт ЕАД","operator:wikidata":"Q112263409","route":"trolleybus","type":"route"}}}