{"amenity/atm/baccredomatic-9c7dd6":{"name":"BAC Credomatic","locationSet":{"include":["cr","gt","hn","ni","pa","sv"]},"geometry":["point","vertex"],"matchScore":2,"terms":["bac","bac credomatic"],"fields":["name","brand","{amenity/atm}"],"tags":{"amenity":"atm","brand:wikidata":"Q5715556"},"addTags":{"amenity":"atm","brand":"BAC Credomatic","brand:wikidata":"Q5715556","operator":"BAC Credomatic","operator:wikidata":"Q5715556"}},"amenity/atm/bancoazteca-6e6832":{"name":"Banco Azteca","locationSet":{"include":["gt","hn","mx","pa","pe","sv"]},"geometry":["point","vertex"],"matchScore":2,"terms":["banco azteca"],"fields":["name","brand","{amenity/atm}"],"tags":{"amenity":"atm","brand:wikidata":"Q4854076"},"addTags":{"amenity":"atm","brand":"Banco Azteca","brand:wikidata":"Q4854076","operator":"Banco Azteca","operator:wikidata":"Q4854076"}},"amenity/atm/bancodedesarrollobanrural-40d5b9":{"name":"Banco de Desarrollo Banrural","locationSet":{"include":["gt"]},"geometry":["point","vertex"],"matchScore":2,"terms":["banco de desarrollo banrural"],"fields":["name","brand","{amenity/atm}"],"tags":{"amenity":"atm","brand:wikidata":"Q5719130"},"addTags":{"amenity":"atm","brand":"Banco de Desarrollo Banrural","brand:wikidata":"Q5719130","operator":"Banco de Desarrollo Banrural","operator:wikidata":"Q5719130"}},"amenity/atm/bancogandtcontinental-1466f5":{"name":"Banco G&T Continental","locationSet":{"include":["gt","sv"]},"geometry":["point","vertex"],"matchScore":2,"terms":["banco g&t continental"],"fields":["name","brand","{amenity/atm}"],"tags":{"amenity":"atm","brand:wikidata":"Q5717949"},"addTags":{"amenity":"atm","brand":"Banco G&T Continental","brand:wikidata":"Q5717949","operator":"Banco G&T Continental","operator:wikidata":"Q5717949"}},"amenity/atm/banrural-33bba5":{"name":"Banrural","locationSet":{"include":["gt","hn"]},"geometry":["point","vertex"],"matchScore":2,"terms":["banrural"],"fields":["name","brand","{amenity/atm}"],"tags":{"amenity":"atm","brand:wikidata":"Q5719130"},"addTags":{"amenity":"atm","brand":"Banrural","brand:wikidata":"Q5719130","operator":"Banrural","operator:wikidata":"Q5719130"}},"amenity/atm/ficohsa-3c5276":{"name":"Ficohsa","locationSet":{"include":["es","gt","hn","ni","pa","us"]},"geometry":["point","vertex"],"matchScore":2,"terms":["banco ficohsa","ficohsa"],"fields":["name","brand","{amenity/atm}"],"tags":{"amenity":"atm","brand:wikidata":"Q5886178"},"addTags":{"amenity":"atm","brand":"Ficohsa","brand:wikidata":"Q5886178","operator":"Ficohsa","operator:wikidata":"Q5886178"}},"amenity/bank/baccredomatic-a7c666":{"name":"BAC Credomatic","locationSet":{"include":["cr","gt","hn","ni","pa","sv"]},"geometry":["point","area"],"matchScore":2,"terms":["bac","bac credomatic"],"tags":{"amenity":"bank","brand:wikidata":"Q5715556"},"addTags":{"amenity":"bank","brand":"BAC Credomatic","brand:wikidata":"Q5715556","name":"BAC Credomatic"}},"amenity/bank/bancoazteca-a695fe":{"name":"Banco Azteca","locationSet":{"include":["gt","hn","mx","pa","pe","sv"]},"geometry":["point","area"],"matchScore":2,"terms":["banco azteca"],"tags":{"amenity":"bank","brand:wikidata":"Q4854076"},"addTags":{"amenity":"bank","brand":"Banco Azteca","brand:wikidata":"Q4854076","name":"Banco Azteca"}},"amenity/bank/bancodedesarrollobanrural-2713d7":{"name":"Banco de Desarrollo Banrural","locationSet":{"include":["gt"]},"geometry":["point","area"],"matchScore":2,"terms":["banco de desarrollo banrural"],"tags":{"amenity":"bank","brand:wikidata":"Q5719130"},"addTags":{"amenity":"bank","brand":"Banco de Desarrollo Banrural","brand:wikidata":"Q5719130","name":"Banco de Desarrollo Banrural"}},"amenity/bank/bancogandtcontinental-4ca2cd":{"name":"Banco G&T Continental","locationSet":{"include":["gt","sv"]},"geometry":["point","area"],"matchScore":2,"terms":["banco g&t continental"],"tags":{"amenity":"bank","brand:wikidata":"Q5717949"},"addTags":{"amenity":"bank","brand":"Banco G&T Continental","brand:wikidata":"Q5717949","name":"Banco G&T Continental"}},"amenity/bank/banrural-e6a553":{"name":"Banrural","locationSet":{"include":["gt","hn"]},"geometry":["point","area"],"matchScore":2,"terms":["banrural"],"tags":{"amenity":"bank","brand:wikidata":"Q5719130"},"addTags":{"amenity":"bank","brand":"Banrural","brand:wikidata":"Q5719130","name":"Banrural"}},"amenity/bank/ficohsa-47ab19":{"name":"Ficohsa","locationSet":{"include":["es","gt","hn","ni","pa","us"]},"geometry":["point","area"],"matchScore":2,"terms":["banco ficohsa","ficohsa"],"tags":{"amenity":"bank","brand:wikidata":"Q5886178"},"addTags":{"amenity":"bank","brand":"Ficohsa","brand:wikidata":"Q5886178","name":"Ficohsa"}},"amenity/fast_food/chicken/pinulito-41b0d1":{"name":"Pinulito","locationSet":{"include":["gt"]},"geometry":["point","area"],"matchScore":2,"terms":["pinulito"],"reference":{"key":"cuisine","value":"chicken"},"tags":{"amenity":"fast_food","brand:wikidata":"Q62273613","cuisine":"chicken"},"addTags":{"amenity":"fast_food","brand":"Pinulito","brand:wikidata":"Q62273613","cuisine":"chicken","name":"Pinulito","takeaway":"yes"}},"amenity/fast_food/chicken/pollogranjero-41b0d1":{"name":"Pollo Granjero (Guatemala)","locationSet":{"include":["gt"]},"geometry":["point","area"],"matchScore":2,"terms":["pollo granjero"],"reference":{"key":"cuisine","value":"chicken"},"tags":{"amenity":"fast_food","brand:wikidata":"Q62273652","cuisine":"chicken"},"addTags":{"amenity":"fast_food","brand":"Pollo Granjero","brand:wikidata":"Q62273652","cuisine":"chicken","name":"Pollo Granjero","takeaway":"yes"}},"amenity/fast_food/sandwich/whichwich-536de9":{"name":"Which Wich?","locationSet":{"include":["ae","gb","gt","mx","om","qa","sa","us"]},"geometry":["point","area"],"matchScore":2,"terms":["which wich?"],"reference":{"key":"cuisine","value":"sandwich"},"tags":{"amenity":"fast_food","brand:wikidata":"Q7993556","cuisine":"sandwich"},"addTags":{"amenity":"fast_food","brand":"Which Wich?","brand:wikidata":"Q7993556","cuisine":"sandwich","name":"Which Wich?","takeaway":"yes"}},"amenity/fuel/uno-24faf9":{"name":"Uno","locationSet":{"include":["bz","cr","gt","hn","ni","sv"]},"geometry":["point","area"],"matchScore":2,"terms":["uno"],"fields":["name","brand","{amenity/fuel}"],"tags":{"amenity":"fuel","brand:wikidata":"Q62535574"},"addTags":{"amenity":"fuel","brand":"Uno","brand:wikidata":"Q62535574","name":"Uno"}},"amenity/ice_cream/llaollao-dd9462":{"name":"Llaollao","locationSet":{"include":["au","ch","cl","co","ec","es","fr","gt","hr","id","iq","kw","ma","my","ph","pt","sa","sg","si","sv","us","vn"]},"geometry":["point","area"],"matchScore":2,"terms":["llaollao"],"tags":{"amenity":"ice_cream","brand:wikidata":"Q12163048"},"addTags":{"amenity":"ice_cream","brand":"Llaollao","brand:wikidata":"Q12163048","cuisine":"frozen_yogurt","name":"Llaollao"}},"amenity/pharmacy/farmaciasdeldrsimi-369474":{"name":"Farmacias del Dr. Simi","locationSet":{"include":["cl","gt"]},"geometry":["point","area"],"matchScore":2,"terms":["farmacias del dr. simi"],"reference":{"key":"amenity","value":"pharmacy"},"tags":{"amenity":"pharmacy","brand:wikidata":"Q62564610"},"addTags":{"amenity":"pharmacy","brand":"Farmacias del Dr. Simi","brand:wikidata":"Q62564610","healthcare":"pharmacy","name":"Farmacias del Dr. Simi"}},"amenity/school/maplebear-101006":{"name":"Maple Bear","locationSet":{"include":["ae","al","ar","au","bd","bg","br","ca","gt","hk","hr","in","ke","kr","lk","ma","mx","my","np","om","pe","ph","py","ro","rs","sg","th","tk","ua","us","vn"]},"geometry":["area","point"],"matchScore":2,"terms":["maple bear"],"fields":["name","brand","{amenity/school}"],"tags":{"amenity":"school","brand:wikidata":"Q10324823"},"addTags":{"amenity":"school","brand":"Maple Bear","brand:wikidata":"Q10324823","name":"Maple Bear","operator:type":"private"}},"emergency/ambulance_station/cruzrojaguatemalteca-9e6bb6":{"name":"Cruz Roja Guatemalteca","locationSet":{"include":["gt"]},"geometry":["point","area"],"matchScore":2,"terms":["crg","cruz roja","cruz roja guatemalteca"],"fields":["name","brand","{emergency/ambulance_station}"],"tags":{"brand:wikidata":"Q86755554","emergency":"ambulance_station"},"addTags":{"brand":"Cruz Roja Guatemalteca","brand:wikidata":"Q86755554","emergency":"ambulance_station","name":"Cruz Roja Guatemalteca"}},"leisure/trampoline_park/skyzone-746047":{"name":"Sky Zone","locationSet":{"include":["ae","ca","co","gb","gt","in","mx","no","om","pk","sa","us"]},"geometry":["point","area"],"matchScore":2,"terms":["sky zone"],"tags":{"brand:wikidata":"Q7537557","leisure":"trampoline_park"},"addTags":{"brand":"Sky Zone","brand:wikidata":"Q7537557","leisure":"trampoline_park","name":"Sky Zone"}},"shop/clothes/express-e10c9b":{"name":"Express","locationSet":{"include":["cr","gt","mx","pa","pr","sv","us"]},"geometry":["point","area"],"matchScore":2,"terms":["express"],"tags":{"brand:wikidata":"Q1384784","shop":"clothes"},"addTags":{"brand":"Express","brand:wikidata":"Q1384784","name":"Express","shop":"clothes"}},"shop/clothes/expressmen-e10c9b":{"name":"Express Men","locationSet":{"include":["cr","gt","mx","pa","pr","sv","us"]},"geometry":["point","area"],"matchScore":2,"terms":["express"],"tags":{"brand:wikidata":"Q1384784","shop":"clothes"},"addTags":{"brand":"Express","brand:wikidata":"Q1384784","name":"Express Men","shop":"clothes"}},"shop/cosmetics/merlenorman-f96c07":{"name":"Merle Norman Cosmetics","locationSet":{"include":["ae","bh","ca","gt","hk","tw","us"]},"geometry":["point","area"],"matchScore":2,"terms":["merle norman cosmetic studio","merle norman cosmetics"],"tags":{"brand:wikidata":"Q104844059","shop":"cosmetics"},"addTags":{"brand":"Merle Norman Cosmetics","brand:wikidata":"Q104844059","full_name":"Merle Norman Cosmetic Studio","name":"Merle Norman","shop":"cosmetics"}},"shop/department_store/elektra-95a469":{"name":"Elektra","locationSet":{"include":["gt","hn","mx","pa","pe","sv"]},"geometry":["point","area"],"matchScore":2,"terms":["elektra"],"tags":{"brand:wikidata":"Q1142753","shop":"department_store"},"addTags":{"brand":"Elektra","brand:wikidata":"Q1142753","name":"Elektra","shop":"department_store"}},"shop/electronics/elektra-10d776":{"name":"Elektra","locationSet":{"include":["gt","hn","pa","pe","sv"]},"geometry":["point","area"],"matchScore":2,"terms":["elektra"],"tags":{"brand:wikidata":"Q1142753","shop":"electronics"},"addTags":{"brand":"Elektra","brand:wikidata":"Q1142753","name":"Elektra","shop":"electronics"}},"shop/electronics/steren-21e489":{"name":"Steren","locationSet":{"include":["co","cr","do","gt","mx"]},"geometry":["point","area"],"matchScore":2,"terms":["steren"],"tags":{"brand:wikidata":"Q5829102","shop":"electronics"},"addTags":{"brand":"Steren","brand:wikidata":"Q5829102","name":"Steren","shop":"electronics"}},"shop/mobile_phone/claro-1c9651":{"name":"Claro","locationSet":{"include":["ar","br","cl","co","cr","do","ec","gt","hn","ni","pa","pe","pr","py","sv","uy"]},"geometry":["point","area"],"matchScore":2,"terms":["claro"],"tags":{"brand:wikidata":"Q1770208","shop":"mobile_phone"},"addTags":{"brand":"Claro","brand:wikidata":"Q1770208","name":"Claro","shop":"mobile_phone"}},"shop/mobile_phone/movistar-acd455":{"name":"Movistar","locationSet":{"include":["ar","cl","co","cr","ec","gt","mx","ni","pa","pe","sv","uy","ve"]},"geometry":["point","area"],"matchScore":2,"terms":["movistar"],"tags":{"brand:wikidata":"Q967735","shop":"mobile_phone"},"addTags":{"brand":"Movistar","brand:wikidata":"Q967735","name":"Movistar","shop":"mobile_phone"}},"shop/paint/comex-d8e74b":{"name":"Comex","locationSet":{"include":["bz","cr","gt","hn","mx","ni","sv"]},"geometry":["point","area"],"matchScore":2,"terms":["comex"],"tags":{"brand:wikidata":"Q5151654","shop":"paint"},"addTags":{"brand":"Comex","brand:wikidata":"Q5151654","name":"Comex","shop":"paint"}},"shop/perfumery/equivalenza-59ad61":{"name":"Equivalenza","locationSet":{"include":["ad","ao","at","be","ca","cv","de","do","es","fr","gr","gt","ie","it","mx","mz","nl","pe","pt","ro","tn","uk"]},"geometry":["point","area"],"matchScore":2,"terms":["equivalenza"],"tags":{"brand:wikidata":"Q104649798","shop":"perfumery"},"addTags":{"brand":"Equivalenza","brand:wikidata":"Q104649798","name":"Equivalenza","shop":"perfumery"}},"shop/supermarket/despensafamiliar-4ef027":{"name":"Despensa Familiar","locationSet":{"include":["gt","hn","sv"]},"geometry":["point","area"],"matchScore":2,"terms":["despensa familiar"],"tags":{"brand:wikidata":"Q61994849","shop":"supermarket"},"addTags":{"brand":"Despensa Familiar","brand:wikidata":"Q61994849","name":"Despensa Familiar","shop":"supermarket"}},"amenity/hospital/ministeriodesalud-0cfb3e":{"name":"Ministerio de Salud Pública y Asistencia Social (Guatemala)","locationSet":{"include":["gt"]},"geometry":["area","point"],"matchScore":2,"terms":["ministerio de salud","ministerio de salud pública","mspas"],"fields":["name","operator","{amenity/hospital}"],"reference":{"key":"amenity","value":"hospital"},"tags":{"amenity":"hospital","operator:wikidata":"Q6017425"},"addTags":{"amenity":"hospital","healthcare":"hospital","operator":"Ministerio de Salud","operator:short":"MSPAS","operator:wikidata":"Q6017425"}},"amenity/telephone/claro-6490cd":{"name":"Claro","locationSet":{"include":["ai","ag","aw","bs","bb","bq","vg","ky","cu","cw","dm","do","gd","gp","ht","jm","mq","ms","pr","bl","kn","lc","mf","vc","sx","tt","tc","vi","bz","cr","sv","gt","hn","mx","ni","pa","ar","bo","bv","br","cl","co","ec","fk","gf","gy","py","pe","gs","sr","uy","ve"]},"geometry":["point","vertex"],"matchScore":2,"terms":["claro"],"fields":["name","operator","{amenity/telephone}"],"tags":{"amenity":"telephone","operator:wikidata":"Q1770208"},"addTags":{"amenity":"telephone","operator":"Claro","operator:wikidata":"Q1770208"}},"public_transport/platform/bus_point/transmetro-3c08cf":{"name":"Transmetro (Guatemala)","locationSet":{"include":["gt"]},"geometry":["point","vertex"],"matchScore":2,"terms":["transmetro"],"reference":{"key":"public_transport","value":"platform"},"tags":{"bus":"yes","network:wikidata":"Q5402088","public_transport":"platform"},"addTags":{"bus":"yes","highway":"bus_stop","network":"Transmetro","network:wikidata":"Q5402088","public_transport":"platform"}},"public_transport/platform/bus_point/transurbano-3c08cf":{"name":"Transurbano","locationSet":{"include":["gt"]},"geometry":["point","vertex"],"matchScore":2,"terms":["transurbano"],"reference":{"key":"public_transport","value":"platform"},"tags":{"bus":"yes","network:wikidata":"Q6151791","public_transport":"platform"},"addTags":{"bus":"yes","highway":"bus_stop","network":"Transurbano","network:wikidata":"Q6151791","public_transport":"platform"}},"type/route/bus/transmetro-f4d82a":{"name":"Transmetro (Guatemala)","locationSet":{"include":["gt"]},"geometry":["relation"],"matchScore":2,"terms":["transmetro"],"reference":{"key":"route","value":"bus"},"tags":{"network:wikidata":"Q5402088","route":"bus","type":"route"},"addTags":{"network":"Transmetro","network:wikidata":"Q5402088","route":"bus","type":"route"}},"type/route/bus/transurbano-f4d82a":{"name":"Transurbano","locationSet":{"include":["gt"]},"geometry":["relation"],"matchScore":2,"terms":["transurbano"],"reference":{"key":"route","value":"bus"},"tags":{"network:wikidata":"Q6151791","route":"bus","type":"route"},"addTags":{"network":"Transurbano","network:wikidata":"Q6151791","route":"bus","type":"route"}}}