{"amenity/atm/columbiabank-f7c6e0":{"name":"Columbia Bank (Pacific Northwest)","locationSet":{"include":["us-id","us-or","us-wa"]},"geometry":["point","vertex"],"matchScore":2,"terms":["columbia bank"],"fields":["name","brand","{amenity/atm}"],"tags":{"amenity":"atm","brand:wikidata":"Q62084089"},"addTags":{"amenity":"atm","brand":"Columbia Bank","brand:wikidata":"Q62084089","operator":"Columbia Bank","operator:wikidata":"Q62084089"}},"amenity/atm/homestreetbank-9527f3":{"name":"HomeStreet Bank","locationSet":{"include":["us-ca","us-hi","us-id","us-or","us-ut","us-wa"]},"geometry":["point","vertex"],"matchScore":2,"terms":["homestreet bank"],"fields":["name","brand","{amenity/atm}"],"tags":{"amenity":"atm","brand:wikidata":"Q60762481"},"addTags":{"amenity":"atm","brand":"HomeStreet Bank","brand:wikidata":"Q60762481","operator":"HomeStreet Bank","operator:wikidata":"Q60762481"}},"amenity/atm/horizoncreditunion-e9287c":{"name":"Horizon Credit Union","locationSet":{"include":["us-id","us-mt","us-or","us-wa"]},"geometry":["point","vertex"],"matchScore":2,"terms":["horizon credit union"],"fields":["name","brand","{amenity/atm}"],"tags":{"amenity":"atm","brand:wikidata":"Q115677986"},"addTags":{"amenity":"atm","brand":"Horizon Credit Union","brand:wikidata":"Q115677986","operator":"Horizon Credit Union","operator:wikidata":"Q115677986"}},"amenity/atm/roguecreditunion-2c2e8a":{"name":"Rogue Credit Union","locationSet":{"include":["us-id","us-or"]},"geometry":["point","vertex"],"matchScore":2,"terms":["rogue credit union","rogue federal credit union"],"fields":["name","brand","{amenity/atm}"],"tags":{"amenity":"atm","brand:wikidata":"Q23926666"},"addTags":{"amenity":"atm","brand":"Rogue Credit Union","brand:wikidata":"Q23926666","operator":"Rogue Credit Union","operator:wikidata":"Q23926666"}},"amenity/bank/columbiabank-c20fa5":{"name":"Columbia Bank (Pacific Northwest)","locationSet":{"include":["us-id","us-or","us-wa"]},"geometry":["point","area"],"matchScore":2,"terms":["columbia bank"],"tags":{"amenity":"bank","brand:wikidata":"Q62084089"},"addTags":{"amenity":"bank","brand":"Columbia Bank","brand:wikidata":"Q62084089","name":"Columbia Bank"}},"amenity/bank/homestreetbank-80e3ed":{"name":"HomeStreet Bank","locationSet":{"include":["us-ca","us-hi","us-id","us-or","us-ut","us-wa"]},"geometry":["point","area"],"matchScore":2,"terms":["homestreet bank"],"tags":{"amenity":"bank","brand:wikidata":"Q60762481"},"addTags":{"amenity":"bank","brand":"HomeStreet Bank","brand:wikidata":"Q60762481","name":"HomeStreet Bank"}},"amenity/bank/horizoncreditunion-420495":{"name":"Horizon Credit Union","locationSet":{"include":["us-id","us-mt","us-or","us-wa"]},"geometry":["point","area"],"matchScore":2,"terms":["horizon credit union"],"tags":{"amenity":"bank","brand:wikidata":"Q115677986"},"addTags":{"amenity":"bank","brand":"Horizon Credit Union","brand:wikidata":"Q115677986","name":"Horizon Credit Union"}},"amenity/bank/roguecreditunion-05b4aa":{"name":"Rogue Credit Union","locationSet":{"include":["us-id","us-or"]},"geometry":["point","area"],"matchScore":2,"terms":["rogue credit union","rogue federal credit union"],"tags":{"amenity":"bank","brand:wikidata":"Q23926666"},"addTags":{"amenity":"bank","brand":"Rogue Credit Union","brand:wikidata":"Q23926666","name":"Rogue Credit Union"}},"amenity/dentist/willamettedentalgroup-cbc6dc":{"name":"Willamette Dental Group","locationSet":{"include":["us-id","us-or","us-wa"]},"geometry":["point","area"],"matchScore":2,"terms":["willamette dental group"],"reference":{"key":"amenity","value":"dentist"},"tags":{"amenity":"dentist","brand:wikidata":"Q110124509"},"addTags":{"amenity":"dentist","brand":"Willamette Dental Group","brand:wikidata":"Q110124509","healthcare":"dentist","name":"Willamette Dental Group"}},"amenity/fast_food/cafeyumm-647c80":{"name":"Café Yumm!","locationSet":{"include":["us-id","us-or","us-wa"]},"geometry":["point","area"],"matchScore":2,"terms":["café yumm!"],"tags":{"amenity":"fast_food","brand:wikidata":"Q48816450"},"addTags":{"amenity":"fast_food","brand":"Café Yumm!","brand:wikidata":"Q48816450","cuisine":"american","name":"Café Yumm!","takeaway":"yes"}},"amenity/fast_food/donut/duckdonuts-6333a9":{"name":"Duck Donuts","locationSet":{"include":["ca-on","eg","sa","us-ar","us-az","us-ca","us-co","us-fl","us-ga","us-id","us-il","us-ks","us-ky","us-md","us-mi","us-mn","us-mo","us-nc","us-nj","us-ny","us-oh","us-pa","us-sc","us-tn","us-tx","us-ut","us-va"]},"geometry":["point","area"],"matchScore":2,"terms":["duck donuts","duck doughnuts"],"reference":{"key":"cuisine","value":"donut"},"tags":{"amenity":"fast_food","brand:wikidata":"Q54958282","cuisine":"donut"},"addTags":{"amenity":"fast_food","brand":"Duck Donuts","brand:wikidata":"Q54958282","cuisine":"donut","name":"Duck Donuts","takeaway":"yes"}},"shop/gift/atticsalt-ae6503":{"name":"Attic Salt","locationSet":{"include":["us-az","us-ca","us-co","us-id","us-il","us-in","us-ks","us-la","us-mo","us-ne","us-nv","us-ok","us-or","us-tx","us-ut","us-wa"]},"geometry":["point","area"],"matchScore":2,"terms":["attic salt"],"tags":{"brand:wikidata":"Q108409773","shop":"gift"},"addTags":{"brand":"Attic Salt","brand:wikidata":"Q108409773","name":"Attic Salt","shop":"gift"}},"shop/paint/millerpaint-c4c85f":{"name":"Miller Paint","locationSet":{"include":["us-id","us-or","us-wa"]},"geometry":["point","area"],"matchScore":2,"terms":["miller paint"],"tags":{"brand:wikidata":"Q110543288","shop":"paint"},"addTags":{"brand":"Miller Paint","brand:wikidata":"Q110543288","name":"Miller Paint","shop":"paint"}},"shop/pastry/mrsfields-e944b6":{"name":"Mrs. Fields","locationSet":{"include":["au","ph","us-ak","us-al","us-az","us-ca","us-co","us-de","us-fl","us-ga","us-hi","us-id","us-il","us-in","us-ks","us-la","us-ma","us-md","us-me","us-mi","us-mo","us-ms","us-nc","us-nj","us-nv","us-ny","us-oh","us-ok","us-pa","us-tx","us-ut","us-wi"]},"geometry":["point","area"],"matchScore":2,"terms":["mrs. fields"],"tags":{"brand:wikidata":"Q3866841","shop":"pastry"},"addTags":{"brand":"Mrs. Fields","brand:wikidata":"Q3866841","name":"Mrs. Fields","shop":"pastry"}},"shop/storage_rental/northwestselfstorage-6af07e":{"name":"Northwest Self Storage","locationSet":{"include":["us-id","us-or","us-wa"]},"geometry":["point","area"],"matchScore":2,"terms":["northwest self storage","nw self storage"],"tags":{"brand:wikidata":"Q108576211","shop":"storage_rental"},"addTags":{"brand":"Northwest Self Storage","brand:wikidata":"Q108576211","name":"Northwest Self Storage","shop":"storage_rental"}},"shop/supermarket/rosauers-e2c16a":{"name":"Rosauers","locationSet":{"include":["us-id","us-mt","us-or","us-wa"]},"geometry":["point","area"],"matchScore":2,"terms":["rosauers"],"tags":{"brand:wikidata":"Q7367458","shop":"supermarket"},"addTags":{"brand":"Rosauers","brand:wikidata":"Q7367458","name":"Rosauers","shop":"supermarket"}},"shop/trade/americanroofingsupply-930674":{"name":"American Roofing Supply","locationSet":{"include":["us-az","us-co","us-id","us-il","us-in","us-mn","us-nd","us-ne","us-sd","us-wi"]},"geometry":["point","area"],"matchScore":2,"terms":["american roofing supply"],"tags":{"brand:wikidata":"Q114515313","shop":"trade"},"addTags":{"brand":"American Roofing Supply","brand:wikidata":"Q114515313","name":"American Roofing Supply","shop":"trade","trade":"roofing"}},"shop/trade/westernstatescat-8cb1bb":{"name":"Western States CAT","locationSet":{"include":["us-id","us-mt","us-or","us-wa","us-wy"]},"geometry":["point","area"],"matchScore":2,"terms":["western states cat"],"tags":{"brand:wikidata":"Q109615463","shop":"trade"},"addTags":{"brand":"Western States CAT","brand:wikidata":"Q109615463","name":"Western States CAT","shop":"trade","trade":"construction_equipment"}},"amenity/clinic/saltzerhealth-802e45":{"name":"Saltzer Health","locationSet":{"include":["us-id"]},"geometry":["point","area"],"matchScore":2,"terms":["saltzer health"],"fields":["name","operator","{amenity/clinic}"],"reference":{"key":"amenity","value":"clinic"},"tags":{"amenity":"clinic","operator:wikidata":"Q110744466"},"addTags":{"amenity":"clinic","healthcare":"clinic","operator":"Saltzer Health","operator:wikidata":"Q110744466"}},"amenity/fire_station/cityofboise-46f1bf":{"name":"City of Boise","locationSet":{"include":["us-id"]},"geometry":["point","area"],"matchScore":2,"terms":["city of boise"],"tags":{"amenity":"fire_station","operator:wikidata":"Q35775"},"addTags":{"amenity":"fire_station","operator":"City of Boise","operator:wikidata":"Q35775"}},"amenity/police/idahostatepolice-b19a53":{"name":"Idaho State Police","locationSet":{"include":["us-id"]},"geometry":["point","area"],"matchScore":2,"terms":["idaho state police","isp"],"tags":{"amenity":"police","operator:wikidata":"Q5987459"},"addTags":{"amenity":"police","operator":"Idaho State Police","operator:short":"ISP","operator:wikidata":"Q5987459"}},"amenity/prison/idahodepartmentofcorrection-e64a58":{"name":"IDOC","locationSet":{"include":["us-id"]},"geometry":["area","point"],"matchScore":2,"terms":["idaho department of correction","idoc"],"fields":["name","operator","{amenity/prison}"],"tags":{"amenity":"prison","operator:wikidata":"Q5987349"},"addTags":{"amenity":"prison","operator":"Idaho Department of Correction","operator:wikidata":"Q5987349"}},"amenity/school/boiseschooldistrict-d7611a":{"name":"Boise School District","locationSet":{"include":["us-id"]},"geometry":["area","point"],"matchScore":2,"terms":["boise school district"],"tags":{"amenity":"school","operator:wikidata":"Q4938460"},"addTags":{"amenity":"school","operator":"Boise School District","operator:type":"public","operator:wikidata":"Q4938460"}},"amenity/school/bonnevillejointschooldistrict-d7611a":{"name":"Bonneville Joint School District No. 93","locationSet":{"include":["us-id"]},"geometry":["area","point"],"matchScore":2,"terms":["bonneville joint school district","d93"],"tags":{"amenity":"school","operator:wikidata":"Q28449536"},"addTags":{"amenity":"school","operator":"Bonneville Joint School District","operator:short":"D93","operator:type":"public","operator:wikidata":"Q28449536"}},"amenity/school/coeurdalenepublicschools-d7611a":{"name":"Coeur d'Alene Public Schools","locationSet":{"include":["us-id"]},"geometry":["area","point"],"matchScore":2,"terms":["cda schools","coeur d'alene public schools","coeur d'alene school district","school district 271"],"tags":{"amenity":"school","operator:wikidata":"Q30637416"},"addTags":{"amenity":"school","operator":"Coeur d'Alene Public Schools","operator:short":"CDA Schools","operator:type":"public","operator:wikidata":"Q30637416"}},"amenity/school/idahofallsschooldistrict-d7611a":{"name":"Idaho Falls School District 91","locationSet":{"include":["us-id"]},"geometry":["area","point"],"matchScore":2,"terms":["d91","idaho falls school district"],"tags":{"amenity":"school","operator:wikidata":"Q28448210"},"addTags":{"amenity":"school","operator":"Idaho Falls School District","operator:short":"D91","operator:type":"public","operator:wikidata":"Q28448210"}},"amenity/school/jeffersonjointschooldistrict251-d7611a":{"name":"Jefferson School District 251","locationSet":{"include":["us-id"]},"geometry":["area","point"],"matchScore":2,"terms":["jefferson joint school district 251"],"tags":{"amenity":"school","operator:wikidata":"Q106920213"},"addTags":{"amenity":"school","operator":"Jefferson Joint School District 251","operator:type":"public","operator:wikidata":"Q106920213"}},"amenity/school/madisonschooldistrict321-d7611a":{"name":"Madison School District 321","locationSet":{"include":["us-id"]},"geometry":["area","point"],"matchScore":2,"terms":["madison school district 321","msd"],"tags":{"amenity":"school","operator:wikidata":"Q96391397"},"addTags":{"amenity":"school","operator":"Madison School District 321","operator:short":"MSD","operator:type":"public","operator:wikidata":"Q96391397"}},"amenity/school/pocatellochubbuckschooldistrict25-d7611a":{"name":"Pocatello/Chubbuck School District 25","locationSet":{"include":["us-id"]},"geometry":["area","point"],"matchScore":2,"terms":["pcsd25","pocatello/chubbuck school district 25"],"tags":{"amenity":"school","operator:wikidata":"Q7206294"},"addTags":{"amenity":"school","operator":"Pocatello/Chubbuck School District 25","operator:short":"PCSD25","operator:type":"public","operator:wikidata":"Q7206294"}},"amenity/school/vallivueschooldistrict-d7611a":{"name":"Vallivue School District #139","locationSet":{"include":["us-id"]},"geometry":["area","point"],"matchScore":2,"terms":["vallivue school district","vsd"],"tags":{"amenity":"school","operator:wikidata":"Q7912438"},"addTags":{"amenity":"school","operator":"Vallivue School District","operator:short":"VSD","operator:type":"public","operator:wikidata":"Q7912438"}},"amenity/school/westadaschooldistrict-d7611a":{"name":"West Ada School District","locationSet":{"include":["us-id"]},"geometry":["area","point"],"matchScore":2,"terms":["west ada school district"],"tags":{"amenity":"school","operator:wikidata":"Q17107971"},"addTags":{"amenity":"school","operator":"West Ada School District","operator:type":"public","operator:wikidata":"Q17107971"}},"leisure/nature_reserve/cityofboise-53eecf":{"name":"City of Boise","locationSet":{"include":["us-id"]},"geometry":["area","point"],"matchScore":2,"terms":["boise parks and recreation","city of boise"],"tags":{"leisure":"nature_reserve","operator:wikidata":"Q35775"},"addTags":{"leisure":"nature_reserve","operator":"City of Boise","operator:type":"public","operator:wikidata":"Q35775"}},"leisure/nature_reserve/cityofcaldwell-53eecf":{"name":"City of Caldwell (Idaho)","locationSet":{"include":["us-id"]},"geometry":["area","point"],"matchScore":2,"terms":["city of caldwell"],"tags":{"leisure":"nature_reserve","operator:wikidata":"Q849592"},"addTags":{"leisure":"nature_reserve","operator":"City of Caldwell","operator:type":"public","operator:wikidata":"Q849592"}},"leisure/nature_reserve/cityofcoeurdalene-53eecf":{"name":"City of Coeur d'Alene","locationSet":{"include":["us-id"]},"geometry":["area","point"],"matchScore":2,"terms":["city of coeur d'alene"],"tags":{"leisure":"nature_reserve","operator:wikidata":"Q499681"},"addTags":{"leisure":"nature_reserve","operator":"City of Coeur d'Alene","operator:type":"public","operator:wikidata":"Q499681"}},"leisure/nature_reserve/cityofidahofalls-53eecf":{"name":"City of Idaho Falls","locationSet":{"include":["us-id"]},"geometry":["area","point"],"matchScore":2,"terms":["city of idaho falls"],"tags":{"leisure":"nature_reserve","operator:wikidata":"Q496360"},"addTags":{"leisure":"nature_reserve","operator":"City of Idaho Falls","operator:type":"public","operator:wikidata":"Q496360"}},"leisure/nature_reserve/cityoflewiston-53eecf":{"name":"City of Lewiston","locationSet":{"include":["us-id"]},"geometry":["area","point"],"matchScore":2,"terms":["city of lewiston"],"tags":{"leisure":"nature_reserve","operator:wikidata":"Q505539"},"addTags":{"leisure":"nature_reserve","operator":"City of Lewiston","operator:type":"public","operator:wikidata":"Q505539"}},"leisure/nature_reserve/cityofmeridian-53eecf":{"name":"City of Meridian","locationSet":{"include":["us-id"]},"geometry":["area","point"],"matchScore":2,"terms":["city of meridian"],"tags":{"leisure":"nature_reserve","operator:wikidata":"Q1085274"},"addTags":{"leisure":"nature_reserve","operator":"City of Meridian","operator:type":"public","operator:wikidata":"Q1085274"}},"leisure/nature_reserve/cityofnampa-53eecf":{"name":"City of Nampa","locationSet":{"include":["us-id"]},"geometry":["area","point"],"matchScore":2,"terms":["city of nampa"],"tags":{"leisure":"nature_reserve","operator:wikidata":"Q622633"},"addTags":{"leisure":"nature_reserve","operator":"City of Nampa","operator:type":"public","operator:wikidata":"Q622633"}},"leisure/nature_reserve/cityofpocatello-53eecf":{"name":"City of Pocatello","locationSet":{"include":["us-id"]},"geometry":["area","point"],"matchScore":2,"terms":["city of pocatello"],"tags":{"leisure":"nature_reserve","operator:wikidata":"Q320729"},"addTags":{"leisure":"nature_reserve","operator":"City of Pocatello","operator:type":"public","operator:wikidata":"Q320729"}},"leisure/nature_reserve/cityoftwinfalls-53eecf":{"name":"City of Twin Falls","locationSet":{"include":["us-id"]},"geometry":["area","point"],"matchScore":2,"terms":["city of twin falls"],"tags":{"leisure":"nature_reserve","operator:wikidata":"Q548384"},"addTags":{"leisure":"nature_reserve","operator":"City of Twin Falls","operator:type":"public","operator:wikidata":"Q548384"}},"leisure/nature_reserve/idahodepartmentofparksandrecreation-53eecf":{"name":"Idaho State Parks & Recreation","locationSet":{"include":["us-id"]},"geometry":["area","point"],"matchScore":2,"terms":["idaho department of parks and recreation","idaho state parks","idpr"],"tags":{"leisure":"nature_reserve","operator:wikidata":"Q30258114"},"addTags":{"leisure":"nature_reserve","operator":"Idaho Department of Parks and Recreation","operator:short":"IDPR","operator:type":"public","operator:wikidata":"Q30258114"}},"leisure/park/cityofboise-e3f3ca":{"name":"City of Boise","locationSet":{"include":["us-id"]},"geometry":["area","point"],"matchScore":2,"terms":["boise parks and recreation","city of boise"],"tags":{"leisure":"park","operator:wikidata":"Q35775"},"addTags":{"leisure":"park","operator":"City of Boise","operator:type":"public","operator:wikidata":"Q35775"}},"leisure/park/cityofcaldwell-e3f3ca":{"name":"City of Caldwell (Idaho)","locationSet":{"include":["us-id"]},"geometry":["area","point"],"matchScore":2,"terms":["city of caldwell"],"tags":{"leisure":"park","operator:wikidata":"Q849592"},"addTags":{"leisure":"park","operator":"City of Caldwell","operator:type":"public","operator:wikidata":"Q849592"}},"leisure/park/cityofcoeurdalene-e3f3ca":{"name":"City of Coeur d'Alene","locationSet":{"include":["us-id"]},"geometry":["area","point"],"matchScore":2,"terms":["city of coeur d'alene"],"tags":{"leisure":"park","operator:wikidata":"Q499681"},"addTags":{"leisure":"park","operator":"City of Coeur d'Alene","operator:type":"public","operator:wikidata":"Q499681"}},"leisure/park/cityofidahofalls-e3f3ca":{"name":"City of Idaho Falls","locationSet":{"include":["us-id"]},"geometry":["area","point"],"matchScore":2,"terms":["city of idaho falls"],"tags":{"leisure":"park","operator:wikidata":"Q496360"},"addTags":{"leisure":"park","operator":"City of Idaho Falls","operator:type":"public","operator:wikidata":"Q496360"}},"leisure/park/cityoflewiston-e3f3ca":{"name":"City of Lewiston","locationSet":{"include":["us-id"]},"geometry":["area","point"],"matchScore":2,"terms":["city of lewiston"],"tags":{"leisure":"park","operator:wikidata":"Q505539"},"addTags":{"leisure":"park","operator":"City of Lewiston","operator:type":"public","operator:wikidata":"Q505539"}},"leisure/park/cityofmeridian-e3f3ca":{"name":"City of Meridian","locationSet":{"include":["us-id"]},"geometry":["area","point"],"matchScore":2,"terms":["city of meridian"],"tags":{"leisure":"park","operator:wikidata":"Q1085274"},"addTags":{"leisure":"park","operator":"City of Meridian","operator:type":"public","operator:wikidata":"Q1085274"}},"leisure/park/cityofnampa-e3f3ca":{"name":"City of Nampa","locationSet":{"include":["us-id"]},"geometry":["area","point"],"matchScore":2,"terms":["city of nampa"],"tags":{"leisure":"park","operator:wikidata":"Q622633"},"addTags":{"leisure":"park","operator":"City of Nampa","operator:type":"public","operator:wikidata":"Q622633"}},"leisure/park/cityofpocatello-e3f3ca":{"name":"City of Pocatello","locationSet":{"include":["us-id"]},"geometry":["area","point"],"matchScore":2,"terms":["city of pocatello"],"tags":{"leisure":"park","operator:wikidata":"Q320729"},"addTags":{"leisure":"park","operator":"City of Pocatello","operator:type":"public","operator:wikidata":"Q320729"}},"leisure/park/cityoftwinfalls-e3f3ca":{"name":"City of Twin Falls","locationSet":{"include":["us-id"]},"geometry":["area","point"],"matchScore":2,"terms":["city of twin falls"],"tags":{"leisure":"park","operator:wikidata":"Q548384"},"addTags":{"leisure":"park","operator":"City of Twin Falls","operator:type":"public","operator:wikidata":"Q548384"}},"leisure/park/idahodepartmentofparksandrecreation-e3f3ca":{"name":"Idaho State Parks & Recreation","locationSet":{"include":["us-id"]},"geometry":["area","point"],"matchScore":2,"terms":["idaho department of parks and recreation","idaho state parks","idpr"],"tags":{"leisure":"park","operator:wikidata":"Q30258114"},"addTags":{"leisure":"park","operator":"Idaho Department of Parks and Recreation","operator:short":"IDPR","operator:type":"public","operator:wikidata":"Q30258114"}},"power/line/rockymountainpower-5acb27":{"name":"Rocky Mountain Power","locationSet":{"include":["us-id","us-ut","us-wy"]},"geometry":["line"],"matchScore":2,"terms":["rocky mountain power"],"tags":{"operator:wikidata":"Q2045479","power":"line"},"addTags":{"operator":"Rocky Mountain Power","operator:wikidata":"Q2045479","power":"line"}},"power/minor_line/rockymountainpower-900587":{"name":"Rocky Mountain Power","locationSet":{"include":["us-id","us-ut","us-wy"]},"geometry":["line"],"matchScore":2,"terms":["rocky mountain power"],"tags":{"operator:wikidata":"Q2045479","power":"minor_line"},"addTags":{"operator":"Rocky Mountain Power","operator:wikidata":"Q2045479","power":"minor_line"}},"power/pole/rockymountainpower-3a4568":{"name":"Rocky Mountain Power","locationSet":{"include":["us-id","us-ut","us-wy"]},"geometry":["point","vertex"],"matchScore":2,"terms":["rocky mountain power"],"tags":{"operator:wikidata":"Q2045479","power":"pole"},"addTags":{"operator":"Rocky Mountain Power","operator:wikidata":"Q2045479","power":"pole"}},"power/substation/idahopower-b8015b":{"name":"Idaho Power","locationSet":{"include":["us-id"]},"geometry":["area","point"],"matchScore":2,"terms":["idaho power"],"tags":{"operator:wikidata":"Q3147780","power":"substation"},"addTags":{"operator":"Idaho Power","operator:wikidata":"Q3147780","power":"substation"}},"power/substation/rockymountainpower-d898d7":{"name":"Rocky Mountain Power","locationSet":{"include":["us-id","us-ut","us-wy"]},"geometry":["area","point"],"matchScore":2,"terms":["rocky mountain power"],"tags":{"operator:wikidata":"Q2045479","power":"substation"},"addTags":{"operator":"Rocky Mountain Power","operator:wikidata":"Q2045479","power":"substation"}},"power/tower/rockymountainpower-abd620":{"name":"Rocky Mountain Power","locationSet":{"include":["us-id","us-ut","us-wy"]},"geometry":["point","vertex"],"matchScore":2,"terms":["rocky mountain power"],"tags":{"operator:wikidata":"Q2045479","power":"tower"},"addTags":{"operator":"Rocky Mountain Power","operator:wikidata":"Q2045479","power":"tower"}},"power/transformer/idahopower-9f7ba3":{"name":"Idaho Power","locationSet":{"include":["us-id"]},"geometry":["point","vertex"],"matchScore":2,"terms":["idaho power"],"tags":{"operator:wikidata":"Q3147780","power":"transformer"},"addTags":{"operator":"Idaho Power","operator:wikidata":"Q3147780","power":"transformer"}},"power/transformer/rockymountainpower-b2dffe":{"name":"Rocky Mountain Power","locationSet":{"include":["us-id","us-ut","us-wy"]},"geometry":["point","vertex"],"matchScore":2,"terms":["rocky mountain power"],"tags":{"operator:wikidata":"Q2045479","power":"transformer"},"addTags":{"operator":"Rocky Mountain Power","operator:wikidata":"Q2045479","power":"transformer"}},"shop/charity/eastersealsgoodwillnorthernrockymountain-72b5ff":{"name":"Easterseals-Goodwill","locationSet":{"include":["us-id","us-mt","us-ut"]},"geometry":["point","area"],"matchScore":2,"terms":["easterseals-goodwill northern rocky mountain","goodwill"],"tags":{"operator:wikidata":"Q114923320","shop":"charity"},"addTags":{"brand":"Goodwill","brand:wikidata":"Q5583655","name":"Goodwill","operator":"Easterseals-Goodwill Northern Rocky Mountain","operator:wikidata":"Q114923320","shop":"charity"}},"shop/charity/goodwillindustriesoftheinlandnorthwest-b786a5":{"name":"Goodwill Industries of the Inland Northwest","locationSet":{"include":["us-id","us-wa"]},"geometry":["point","area"],"matchScore":2,"terms":["goodwill","goodwill industries of the inland northwest"],"tags":{"operator:wikidata":"Q114921936","shop":"charity"},"addTags":{"brand":"Goodwill","brand:wikidata":"Q5583655","name":"Goodwill","operator":"Goodwill Industries of the Inland Northwest","operator:wikidata":"Q114921936","shop":"charity"}},"telecom/exchange/ziplyfiber-a4e28f":{"name":"Ziply Fiber","locationSet":{"include":["us-id","us-mt","us-or","us-wa"]},"geometry":["point","area"],"matchScore":2,"terms":["frontier","ziply fiber"],"fields":["name","operator","{telecom/exchange}"],"tags":{"operator:wikidata":"Q5505968","telecom":"exchange"},"addTags":{"name":"Ziply Fiber","operator":"Ziply Fiber","operator:wikidata":"Q5505968","telecom":"exchange"}},"public_transport/platform/bus_point/citylink-2e819e":{"name":"Citylink (Idaho)","locationSet":{"include":["us-id"]},"geometry":["point","vertex"],"matchScore":2,"terms":["citylink"],"reference":{"key":"public_transport","value":"platform"},"tags":{"bus":"yes","network:wikidata":"Q22058969","public_transport":"platform"},"addTags":{"bus":"yes","highway":"bus_stop","network":"Citylink","network:wikidata":"Q22058969","public_transport":"platform"}},"type/route/bus/citylink-26f57c":{"name":"Citylink (Idaho)","locationSet":{"include":["us-id"]},"geometry":["relation"],"matchScore":2,"terms":["citylink"],"reference":{"key":"route","value":"bus"},"tags":{"network:wikidata":"Q22058969","route":"bus","type":"route"},"addTags":{"network":"Citylink","network:wikidata":"Q22058969","route":"bus","type":"route"}}}