{"advertising/totem/123-175913":{"name":"1-2-3","locationSet":{"include":["dk","pl"]},"geometry":["point","line"],"matchScore":2,"terms":["1-2-3"],"tags":{"advertising":"totem","brand:wikidata":"Q4545742"},"addTags":{"advertising":"totem","brand":"1-2-3","brand:wikidata":"Q4545742"}},"advertising/totem/as24-e95b1e":{"name":"AS 24","locationSet":{"include":["at","be","bg","cz","de","dk","es","fr","gb","ge","gr","hr","hu","ie","it","lt","lu","mk","nl","pl","pt","ro","rs","se","si","sk","ua"]},"geometry":["point","line"],"matchScore":2,"terms":["as 24"],"tags":{"advertising":"totem","brand:wikidata":"Q2819394"},"addTags":{"advertising":"totem","brand":"AS 24","brand:wikidata":"Q2819394","hgv":"only"}},"advertising/totem/everfuel-b750b3":{"name":"Everfuel","locationSet":{"include":["de","dk","nl","no"]},"geometry":["point","line"],"matchScore":2,"terms":["everfuel"],"tags":{"advertising":"totem","brand:wikidata":"Q114905024"},"addTags":{"advertising":"totem","brand":"Everfuel","brand:wikidata":"Q114905024","fuel:LH2":"yes"}},"advertising/totem/f24-25e254":{"name":"F24","locationSet":{"include":["dk"]},"geometry":["point","line"],"matchScore":2,"terms":["f24"],"tags":{"advertising":"totem","brand:wikidata":"Q12310853"},"addTags":{"advertising":"totem","brand":"F24","brand:wikidata":"Q12310853"}},"advertising/totem/ingo-09da86":{"name":"Ingo","locationSet":{"include":["dk","se"]},"geometry":["point","line"],"matchScore":2,"terms":["ingo"],"tags":{"advertising":"totem","brand:wikidata":"Q17048617"},"addTags":{"advertising":"totem","brand":"Ingo","brand:wikidata":"Q17048617"}},"advertising/totem/ok-25e254":{"name":"OK","locationSet":{"include":["dk"]},"geometry":["point","line"],"matchScore":2,"terms":["ok"],"tags":{"advertising":"totem","brand:wikidata":"Q12329785"},"addTags":{"advertising":"totem","brand":"OK","brand:wikidata":"Q12329785"}},"advertising/totem/preem-a1e918":{"name":"Preem","locationSet":{"include":["dk","no","pl","se"]},"geometry":["point","line"],"matchScore":2,"terms":["preem"],"tags":{"advertising":"totem","brand:wikidata":"Q598835"},"addTags":{"advertising":"totem","brand":"Preem","brand:wikidata":"Q598835"}},"advertising/totem/q8-aa562b":{"name":"Q8","locationSet":{"include":["be","dk","es","it","lu","nl","pt"]},"geometry":["point","line"],"matchScore":2,"terms":["q8","q8italia"],"tags":{"advertising":"totem","brand:wikidata":"Q4119207"},"addTags":{"advertising":"totem","brand":"Q8","brand:wikidata":"Q4119207"}},"advertising/totem/statoil-352456":{"name":"Statoil","locationSet":{"include":["dk","ee","ie","pl","ru","se"]},"geometry":["point","line"],"matchScore":2,"terms":["statoil"],"tags":{"advertising":"totem","brand:wikidata":"Q1776022"},"addTags":{"advertising":"totem","brand":"Statoil","brand:wikidata":"Q1776022"}},"advertising/totem/unox-38cbf4":{"name":"Uno-X","locationSet":{"include":["dk","no"]},"geometry":["point","line"],"matchScore":2,"terms":["uno-x"],"tags":{"advertising":"totem","brand:wikidata":"Q3362746"},"addTags":{"advertising":"totem","brand":"Uno-X","brand:wikidata":"Q3362746"}},"advertising/totem/yx-38cbf4":{"name":"YX","locationSet":{"include":["dk","no"]},"geometry":["point","line"],"matchScore":2,"terms":["yx","yx energi"],"tags":{"advertising":"totem","brand:wikidata":"Q4580519"},"addTags":{"advertising":"totem","brand":"YX","brand:wikidata":"Q4580519"}},"amenity/atm/bnpparibas-c2c2cf":{"name":"BNP Paribas","locationSet":{"include":["ae","af","ar","at","bf","bh","br","ca","ch","ci","cl","co","cz","de","dk","dz","es","fi","fr","gb","gf","gp","hu","ie","il","it","kw","ma","ml","mq","mx","nl","no","pe","pt","qa","re","ro","ru","sa","se","sk","sn","tn","tr","tw","us"]},"geometry":["point","vertex"],"matchScore":2,"terms":["bnp paribas"],"fields":["name","brand","{amenity/atm}"],"tags":{"amenity":"atm","brand:wikidata":"Q499707"},"addTags":{"amenity":"atm","brand":"BNP Paribas","brand:wikidata":"Q499707","operator":"BNP Paribas","operator:wikidata":"Q499707"}},"amenity/atm/danskebank-a2bade":{"name":"Danske Bank","locationSet":{"include":["dk","fi","gb","lt","no","se"]},"geometry":["point","vertex"],"matchScore":2,"terms":["danske bank"],"fields":["name","brand","{amenity/atm}"],"tags":{"amenity":"atm","brand:wikidata":"Q1636974"},"addTags":{"amenity":"atm","brand":"Danske Bank","brand:wikidata":"Q1636974","operator":"Danske Bank","operator:wikidata":"Q1636974"}},"amenity/atm/dnb-3693fd":{"name":"DNB","locationSet":{"include":["dk","lu","no","se"]},"geometry":["point","vertex"],"matchScore":2,"terms":["dnb"],"fields":["name","brand","{amenity/atm}"],"tags":{"amenity":"atm","brand:wikidata":"Q80788"},"addTags":{"amenity":"atm","brand":"DNB","brand:wikidata":"Q80788","operator":"DNB","operator:wikidata":"Q80788"}},"amenity/atm/handelsbanken-6789c7":{"name":"Handelsbanken","locationSet":{"include":["dk","fi","gb","no","se"]},"geometry":["point","vertex"],"matchScore":2,"terms":["handelsbanken"],"fields":["name","brand","{amenity/atm}"],"tags":{"amenity":"atm","brand:wikidata":"Q1421630"},"addTags":{"amenity":"atm","brand":"Handelsbanken","brand:wikidata":"Q1421630","operator":"Handelsbanken","operator:wikidata":"Q1421630"}},"amenity/atm/jyskebank-198cfd":{"name":"Jyske Bank","locationSet":{"include":["dk"]},"geometry":["point","vertex"],"matchScore":2,"terms":["jyske bank"],"fields":["name","brand","{amenity/atm}"],"tags":{"amenity":"atm","brand:wikidata":"Q136672"},"addTags":{"amenity":"atm","brand":"Jyske Bank","brand:wikidata":"Q136672","operator":"Jyske Bank","operator:wikidata":"Q136672"}},"amenity/atm/nordea-b6011c":{"name":"Nordea","locationSet":{"include":["dk","ee","fi","gb","lt","no","se","us"]},"geometry":["point","vertex"],"matchScore":2,"terms":["nordea"],"fields":["name","brand","{amenity/atm}"],"tags":{"amenity":"atm","brand:wikidata":"Q1123823"},"addTags":{"amenity":"atm","brand":"Nordea","brand:wikidata":"Q1123823","operator":"Nordea","operator:wikidata":"Q1123823"}},"amenity/atm/sydbank-ea875f":{"name":"Sydbank","locationSet":{"include":["de","dk","se"]},"geometry":["point","vertex"],"matchScore":2,"terms":["sydbank"],"fields":["name","brand","{amenity/atm}"],"tags":{"amenity":"atm","brand:wikidata":"Q825159"},"addTags":{"amenity":"atm","brand":"Sydbank","brand:wikidata":"Q825159","operator":"Sydbank","operator:wikidata":"Q825159"}},"amenity/bank/bnpparibas-e8666a":{"name":"BNP Paribas","locationSet":{"include":["ae","af","ar","at","bf","bh","br","ca","ch","ci","cl","co","cz","de","dk","dz","es","fi","fr","gb","gf","gp","hu","ie","il","it","kw","ma","ml","mq","mx","nl","no","pe","pt","qa","re","ro","ru","sa","se","sk","sn","tn","tr","tw","us"]},"geometry":["point","area"],"matchScore":2,"terms":["bnp paribas"],"tags":{"amenity":"bank","brand:wikidata":"Q499707"},"addTags":{"amenity":"bank","brand":"BNP Paribas","brand:wikidata":"Q499707","name":"BNP Paribas"}},"amenity/bank/danskebank-c75d31":{"name":"Danske Bank","locationSet":{"include":["dk","fi","gb","lt","no","se"]},"geometry":["point","area"],"matchScore":2,"terms":["danske bank"],"tags":{"amenity":"bank","brand:wikidata":"Q1636974"},"addTags":{"amenity":"bank","brand":"Danske Bank","brand:wikidata":"Q1636974","name":"Danske Bank"}},"amenity/bank/dnb-825b55":{"name":"DNB","locationSet":{"include":["dk","lu","no","se"]},"geometry":["point","area"],"matchScore":2,"terms":["dnb"],"tags":{"amenity":"bank","brand:wikidata":"Q80788"},"addTags":{"amenity":"bank","brand":"DNB","brand:wikidata":"Q80788"}},"amenity/bank/handelsbanken-1834eb":{"name":"Handelsbanken","locationSet":{"include":["dk","fi","gb","no","se"]},"geometry":["point","area"],"matchScore":2,"terms":["handelsbanken"],"fields":["name","brand","{amenity/bank}"],"tags":{"amenity":"bank","brand:wikidata":"Q1421630"},"addTags":{"amenity":"bank","brand":"Handelsbanken","brand:wikidata":"Q1421630","name":"Handelsbanken"}},"amenity/bank/jyskebank-cc27e5":{"name":"Jyske Bank","locationSet":{"include":["dk"]},"geometry":["point","area"],"matchScore":2,"terms":["jyske bank"],"tags":{"amenity":"bank","brand:wikidata":"Q136672"},"addTags":{"amenity":"bank","brand":"Jyske Bank","brand:wikidata":"Q136672","name":"Jyske Bank"}},"amenity/bank/nordea-5e8542":{"name":"Nordea","locationSet":{"include":["dk","ee","fi","gb","lt","no","se","us"]},"geometry":["point","area"],"matchScore":2,"terms":["nordea"],"fields":["name","brand","{amenity/bank}"],"tags":{"amenity":"bank","brand:wikidata":"Q1123823"},"addTags":{"amenity":"bank","brand":"Nordea","brand:wikidata":"Q1123823","name":"Nordea"}},"amenity/bank/sydbank-9eeba7":{"name":"Sydbank","locationSet":{"include":["de","dk","se"]},"geometry":["point","area"],"matchScore":2,"terms":["sydbank"],"tags":{"amenity":"bank","brand:wikidata":"Q825159"},"addTags":{"amenity":"bank","brand":"Sydbank","brand:wikidata":"Q825159","name":"Sydbank"}},"amenity/bicycle_rental/arhuskommune-e198ac":{"name":"Århus Kommune","locationSet":{"include":["dk"]},"geometry":["point","vertex","area"],"matchScore":2,"terms":["århus kommune"],"fields":["name","brand","{amenity/bicycle_rental}"],"tags":{"amenity":"bicycle_rental","brand:wikidata":"Q240262"},"addTags":{"amenity":"bicycle_rental","brand":"Århus Kommune","brand:wikidata":"Q240262","name":"Århus Kommune","operator":"Århus Kommune","operator:wikidata":"Q240262"}},"amenity/bicycle_rental/bycyklen-e198ac":{"name":"Bycyklen","locationSet":{"include":["dk"]},"geometry":["point","vertex","area"],"matchScore":2,"terms":["bycyklen"],"fields":["name","brand","{amenity/bicycle_rental}"],"tags":{"amenity":"bicycle_rental","brand:wikidata":"Q28225772"},"addTags":{"amenity":"bicycle_rental","brand":"Bycyklen","brand:wikidata":"Q28225772","network":"Bycyklen","network:wikidata":"Q28225772","operator":"Bycyklen"}},"amenity/bicycle_rental/donkeyrepublic-c32b83":{"name":"Donkey Republic","locationSet":{"include":["by","bg","cz","hu","pl","md","ro","ru","sk","ua","ax","gg","je","cq","dk","ee","fo","fi","is","ie","im","lv","lt","no","sj","se","gb","al","ad","ba","hr","gi","gr","va","it","mt","me","mk","pt","sm","rs","si","es","xk","at","be","fr","de","li","lu","mc","nl","ch"]},"geometry":["point","vertex","area"],"matchScore":2,"terms":["donkey republic"],"fields":["name","brand","{amenity/bicycle_rental}"],"tags":{"amenity":"bicycle_rental","brand:wikidata":"Q63753939"},"addTags":{"amenity":"bicycle_rental","brand":"Donkey Republic","brand:wikidata":"Q63753939","name":"Donkey Republic","operator":"Donkey Republic"}},"amenity/bicycle_rental/swapfiets-76ee17":{"name":"Swapfiets","locationSet":{"include":["at","be","de","dk","es","fr","gb","it","nl"]},"geometry":["point","vertex","area"],"matchScore":2,"terms":["swapfiets"],"fields":["name","brand","{amenity/bicycle_rental}"],"tags":{"amenity":"bicycle_rental","brand:wikidata":"Q62104374"},"addTags":{"amenity":"bicycle_rental","brand":"Swapfiets","brand:wikidata":"Q62104374","name":"Swapfiets","network":"Swapfiets","network:wikidata":"Q62104374","operator":"Swapfiets","operator:wikidata":"Q62104374"}},"amenity/cafe/coffee_shop/espressohouse-99eace":{"name":"Espresso House","locationSet":{"include":["de","dk","fi","no","se"]},"geometry":["point","area"],"matchScore":2,"terms":["espresso house"],"fields":["name","brand","{amenity/cafe/coffee_shop}"],"reference":{"key":"cuisine","value":"coffee_shop"},"tags":{"amenity":"cafe","brand:wikidata":"Q10489162","cuisine":"coffee_shop"},"addTags":{"amenity":"cafe","brand":"Espresso House","brand:wikidata":"Q10489162","cuisine":"coffee_shop","name":"Espresso House","takeaway":"yes"}},"amenity/car_rental/europcar-95cde7":{"name":"Europcar (Scandinavia)","locationSet":{"include":["dk","fi","no","se"]},"geometry":["point","area"],"matchScore":2,"terms":["europcar"],"fields":["name","brand","{amenity/car_rental}"],"tags":{"amenity":"car_rental","brand:wikidata":"Q1376256"},"addTags":{"amenity":"car_rental","brand":"Europcar","brand:wikidata":"Q1376256","name":"Europcar"}},"amenity/car_wash/as24-d24fa4":{"name":"AS 24","locationSet":{"include":["at","be","bg","cz","de","dk","es","fr","gb","ge","gr","hr","hu","ie","it","lt","lu","mk","nl","pl","pt","ro","rs","se","si","sk","ua"]},"geometry":["point","area"],"matchScore":2,"terms":["as 24"],"tags":{"amenity":"car_wash","brand:wikidata":"Q2819394"},"addTags":{"amenity":"car_wash","brand":"AS 24","brand:wikidata":"Q2819394","name":"AS 24"}},"amenity/charging_station/ionity-b625d6":{"name":"Ionity","locationSet":{"include":["by","bg","cz","hu","pl","md","ro","ru","sk","ua","ax","gg","je","cq","dk","ee","fo","fi","is","ie","im","lv","lt","no","sj","se","gb","al","ad","ba","hr","gi","gr","va","it","mt","me","mk","pt","sm","rs","si","es","xk","at","be","fr","de","li","lu","mc","nl","ch"]},"geometry":["point","vertex","area"],"matchScore":2,"terms":["ionity","ionity gmbh"],"fields":["name","brand","{amenity/charging_station}"],"tags":{"amenity":"charging_station","brand:wikidata":"Q42717773"},"addTags":{"amenity":"charging_station","brand":"Ionity","brand:wikidata":"Q42717773"}},"amenity/cinema/cinemaxx-49be64":{"name":"Cinemaxx (Europe)","locationSet":{"include":["de","dk"]},"geometry":["point","area"],"matchScore":2,"terms":["cinemaxx"],"fields":["name","brand","{amenity/cinema}"],"tags":{"amenity":"cinema","brand:wikidata":"Q881860"},"addTags":{"amenity":"cinema","brand":"Cinemaxx","brand:wikidata":"Q881860","name":"Cinemaxx"}},"amenity/fast_food/burger/max-829f63":{"name":"Max","locationSet":{"include":["dk","no","pl","se"]},"geometry":["point","area"],"matchScore":2,"terms":["max"],"reference":{"key":"cuisine","value":"burger"},"tags":{"amenity":"fast_food","brand:wikidata":"Q1912172","cuisine":"burger"},"addTags":{"amenity":"fast_food","brand":"Max","brand:wikidata":"Q1912172","cuisine":"burger","name":"Max","takeaway":"yes"}},"amenity/fast_food/oakberryacaibowls-5bb50d":{"name":"Oakberry Açaí bowls","locationSet":{"include":["ae","at","au","be","bh","br","ca","ch","cl","co","cy","de","dk","ec","ee","es","fr","gb","gr","hr","ie","il","it","mt","mx","nl","pe","pl","pt","py","qa","ro","sa","si","th","us"]},"geometry":["point","area"],"matchScore":2,"terms":["oakberry açaí bowls"],"tags":{"amenity":"fast_food","brand:wikidata":"Q104870840"},"addTags":{"amenity":"fast_food","brand":"Oakberry Açaí bowls","brand:wikidata":"Q104870840","cuisine":"açaí","name":"Oakberry Açaí bowls","takeaway":"yes"}},"amenity/fast_food/pizza/pizzabakeren-4d7dcd":{"name":"Pizzabakeren","locationSet":{"include":["dk","no","se"]},"geometry":["point","area"],"matchScore":2,"terms":["pizzabakeren"],"fields":["name","brand","{amenity/fast_food/pizza}"],"reference":{"key":"cuisine","value":"pizza"},"tags":{"amenity":"fast_food","brand:wikidata":"Q11995777","cuisine":"pizza"},"addTags":{"amenity":"fast_food","brand":"Pizzabakeren","brand:wikidata":"Q11995777","cuisine":"pizza","name":"Pizzabakeren","takeaway":"yes"}},"amenity/fast_food/sandwich/pretamanger-4f61b1":{"name":"Pret A Manger","locationSet":{"include":["ae","cn","de","dk","es","fr","gb","hk","ie","in","nl","pt","sg","us"]},"geometry":["point","area"],"matchScore":2,"terms":["pret","pret a manger","veggie pret"],"reference":{"key":"cuisine","value":"sandwich"},"tags":{"amenity":"fast_food","brand:wikidata":"Q2109109","cuisine":"sandwich"},"addTags":{"amenity":"fast_food","brand":"Pret A Manger","brand:wikidata":"Q2109109","cuisine":"sandwich","name":"Pret A Manger","short_name":"Pret","takeaway":"yes"}},"amenity/fast_food/burger/tommisburgerjoint-db46fe":{"name":"Tommi's Burger Joint","locationSet":{"include":["de","dk","gb","is"]},"geometry":["point","area"],"matchScore":2,"terms":["tommi's burger joint"],"reference":{"key":"cuisine","value":"burger"},"tags":{"amenity":"fast_food","brand:wikidata":"Q126741276","cuisine":"burger"},"addTags":{"amenity":"fast_food","brand":"Tommi's Burger Joint","brand:wikidata":"Q126741276","cuisine":"burger","name":"Tommi's Burger Joint","takeaway":"yes"}},"amenity/fast_food/sandwich/uppercrust-167d3f":{"name":"Upper Crust","locationSet":{"include":["de","dk","eg","es","fi","gb","ie","no","se"]},"geometry":["point","area"],"matchScore":2,"terms":["upper crust"],"reference":{"key":"cuisine","value":"sandwich"},"tags":{"amenity":"fast_food","brand:wikidata":"Q7898585","cuisine":"sandwich"},"addTags":{"amenity":"fast_food","brand":"Upper Crust","brand:wikidata":"Q7898585","cuisine":"sandwich","name":"Upper Crust","takeaway":"yes"}},"amenity/fuel/123-67b972":{"name":"1-2-3","locationSet":{"include":["dk","pl"]},"geometry":["point","area"],"matchScore":2,"terms":["1-2-3"],"fields":["name","brand","{amenity/fuel}"],"tags":{"amenity":"fuel","brand:wikidata":"Q4545742"},"addTags":{"amenity":"fuel","brand":"1-2-3","brand:wikidata":"Q4545742","name":"1-2-3"}},"amenity/fuel/as24-3463db":{"name":"AS 24","locationSet":{"include":["at","be","bg","cz","de","dk","es","fr","gb","ge","gr","hr","hu","ie","it","lt","lu","mk","nl","pl","pt","ro","rs","se","si","sk","ua"]},"geometry":["point","area"],"matchScore":2,"terms":["as 24"],"fields":["name","brand","{amenity/fuel}"],"tags":{"amenity":"fuel","brand:wikidata":"Q2819394"},"addTags":{"amenity":"fuel","brand":"AS 24","brand:wikidata":"Q2819394","hgv":"only","name":"AS 24"}},"amenity/fuel/everfuel-06f3d9":{"name":"Everfuel","locationSet":{"include":["de","dk","nl","no"]},"geometry":["point","area"],"matchScore":2,"terms":["everfuel"],"fields":["name","brand","{amenity/fuel}"],"tags":{"amenity":"fuel","brand:wikidata":"Q114905024"},"addTags":{"amenity":"fuel","brand":"Everfuel","brand:wikidata":"Q114905024","fuel:LH2":"yes","name":"Everfuel"}},"amenity/fuel/f24-0b8509":{"name":"F24","locationSet":{"include":["dk"]},"geometry":["point","area"],"matchScore":2,"terms":["f24"],"fields":["name","brand","{amenity/fuel}"],"tags":{"amenity":"fuel","brand:wikidata":"Q12310853"},"addTags":{"amenity":"fuel","brand":"F24","brand:wikidata":"Q12310853","name":"F24"}},"amenity/fuel/ingo-eef03e":{"name":"Ingo","locationSet":{"include":["dk","se"]},"geometry":["point","area"],"matchScore":2,"terms":["ingo"],"fields":["name","brand","{amenity/fuel}"],"tags":{"amenity":"fuel","brand:wikidata":"Q17048617"},"addTags":{"amenity":"fuel","brand":"Ingo","brand:wikidata":"Q17048617","name":"Ingo"}},"amenity/fuel/ok-0b8509":{"name":"OK","locationSet":{"include":["dk"]},"geometry":["point","area"],"matchScore":2,"terms":["ok"],"fields":["name","brand","{amenity/fuel}"],"tags":{"amenity":"fuel","brand:wikidata":"Q12329785"},"addTags":{"amenity":"fuel","brand":"OK","brand:wikidata":"Q12329785","name":"OK"}},"amenity/fuel/preem-906b06":{"name":"Preem","locationSet":{"include":["dk","no","pl","se"]},"geometry":["point","area"],"matchScore":2,"terms":["preem"],"fields":["name","brand","{amenity/fuel}"],"tags":{"amenity":"fuel","brand:wikidata":"Q598835"},"addTags":{"amenity":"fuel","brand":"Preem","brand:wikidata":"Q598835","name":"Preem"}},"amenity/fuel/q8-7bb553":{"name":"Q8","locationSet":{"include":["be","dk","es","it","lu","nl","pt"]},"geometry":["point","area"],"matchScore":2,"terms":["q8","q8italia"],"fields":["name","brand","{amenity/fuel}"],"tags":{"amenity":"fuel","brand:wikidata":"Q4119207"},"addTags":{"amenity":"fuel","brand":"Q8","brand:wikidata":"Q4119207","name":"Q8"}},"amenity/fuel/statoil-442e61":{"name":"Statoil","locationSet":{"include":["dk","ee","ie","pl","ru","se"]},"geometry":["point","area"],"matchScore":2,"terms":["statoil"],"fields":["name","brand","{amenity/fuel}"],"tags":{"amenity":"fuel","brand:wikidata":"Q1776022"},"addTags":{"amenity":"fuel","brand":"Statoil","brand:wikidata":"Q1776022","name":"Statoil"}},"amenity/fuel/unox-9449e0":{"name":"Uno-X","locationSet":{"include":["dk","no"]},"geometry":["point","area"],"matchScore":2,"terms":["uno-x"],"fields":["name","brand","{amenity/fuel}"],"tags":{"amenity":"fuel","brand:wikidata":"Q3362746"},"addTags":{"amenity":"fuel","brand":"Uno-X","brand:wikidata":"Q3362746","name":"Uno-X"}},"amenity/fuel/yx-9449e0":{"name":"YX","locationSet":{"include":["dk","no"]},"geometry":["point","area"],"matchScore":2,"terms":["yx","yx energi"],"fields":["name","brand","{amenity/fuel}"],"tags":{"amenity":"fuel","brand:wikidata":"Q4580519"},"addTags":{"amenity":"fuel","brand":"YX","brand:wikidata":"Q4580519","name":"YX"}},"amenity/parcel_locker/budbee-8c9d85":{"name":"Budbee","locationSet":{"include":["be","dk","fi","nl","se"]},"geometry":["point","vertex","area"],"matchScore":2,"terms":["budbee"],"fields":["name","brand","{amenity/parcel_locker}"],"reference":{"key":"amenity","value":"parcel_locker"},"tags":{"amenity":"parcel_locker","brand:wikidata":"Q123582538"},"addTags":{"amenity":"parcel_locker","brand":"Budbee","brand:wikidata":"Q123582538","name":"Budbee","parcel_mail_in":"returns_only","parcel_pickup":"yes"}},"amenity/parcel_locker/instabox-f97fed":{"name":"Instabox","locationSet":{"include":["de","dk","nl","no","se"]},"geometry":["point","vertex","area"],"matchScore":2,"terms":["instabox"],"fields":["name","brand","{amenity/parcel_locker}"],"reference":{"key":"amenity","value":"parcel_locker"},"tags":{"amenity":"parcel_locker","brand:wikidata":"Q109923726"},"addTags":{"amenity":"parcel_locker","brand":"Instabox","brand:wikidata":"Q109923726","name":"Instabox","parcel_mail_in":"returns_only","parcel_pickup":"yes"}},"amenity/parcel_locker/zbox-5a86e9":{"name":"Packeta","locationSet":{"include":["by","bg","cz","hu","pl","md","ro","ru","sk","ua","ax","gg","je","cq","dk","ee","fo","fi","is","ie","im","lv","lt","no","sj","se","gb","al","ad","ba","hr","gi","gr","va","it","mt","me","mk","pt","sm","rs","si","es","xk","at","be","fr","de","li","lu","mc","nl","ch"]},"geometry":["point","vertex","area"],"matchScore":2,"terms":["packeta"],"fields":["name","brand","{amenity/parcel_locker}"],"reference":{"key":"amenity","value":"parcel_locker"},"tags":{"amenity":"parcel_locker","brand:wikidata":"Q67809905"},"addTags":{"amenity":"parcel_locker","brand":"Packeta","brand:wikidata":"Q67809905","name":"Z-Box"}},"amenity/parcel_locker/pakkeboksen-484cac":{"name":"Pakkeboksen","locationSet":{"include":["dk"]},"geometry":["point","vertex","area"],"matchScore":2,"terms":["pakkeboksen","postnord danmark"],"fields":["name","brand","{amenity/parcel_locker}"],"reference":{"key":"amenity","value":"parcel_locker"},"tags":{"amenity":"parcel_locker","brand:wikidata":"Q12309164"},"addTags":{"amenity":"parcel_locker","brand":"Pakkeboksen","brand:wikidata":"Q12309164","name":"Pakkeboksen","operator":"PostNord Danmark","operator:wikidata":"Q1334647","parcel_mail_in":"yes"}},"amenity/social_centre/ahepahall-30ca27":{"name":"AHEPA Hall","locationSet":{"include":["by","bg","cz","hu","pl","md","ro","ru","sk","ua","ax","gg","je","cq","dk","ee","fo","fi","is","ie","im","lv","lt","no","sj","se","gb","al","ad","ba","hr","gi","gr","va","it","mt","me","mk","pt","sm","rs","si","es","xk","at","be","fr","de","li","lu","mc","nl","ch","au","ca","cy","us"],"exclude":["ru"]},"geometry":["point","area"],"matchScore":2,"terms":["ahepa","american hellenic educational progressive association","the order of ahepa"],"fields":["name","brand","{amenity/social_centre}"],"tags":{"amenity":"social_centre","brand:wikidata":"Q4743973"},"addTags":{"amenity":"social_centre","brand":"AHEPA","brand:wikidata":"Q4743973","name":"AHEPA Hall"}},"amenity/vehicle_inspection/applusbilsyn-d8b9f3":{"name":"Applus Bilsyn","locationSet":{"include":["dk"]},"geometry":["point","area"],"matchScore":2,"terms":["applus bilsyn"],"tags":{"amenity":"vehicle_inspection","brand:wikidata":"Q5412861"},"addTags":{"amenity":"vehicle_inspection","brand":"Applus Bilsyn","brand:wikidata":"Q5412861","name":"Applus Bilsyn"}},"amenity/vehicle_inspection/dekra-5e3362":{"name":"Dekra","locationSet":{"include":["de","dk","fr"]},"geometry":["point","area"],"matchScore":2,"terms":["dekra"],"tags":{"amenity":"vehicle_inspection","brand:wikidata":"Q383711"},"addTags":{"amenity":"vehicle_inspection","brand":"DEKRA","brand:wikidata":"Q383711","name":"DEKRA"}},"amenity/vehicle_inspection/fdmbilsyn-d8b9f3":{"name":"FDM Bilsyn","locationSet":{"include":["dk"]},"geometry":["point","area"],"matchScore":2,"terms":["fdm bilsyn"],"tags":{"amenity":"vehicle_inspection","brand:wikidata":"Q5440784"},"addTags":{"amenity":"vehicle_inspection","brand":"FDM Bilsyn","brand:wikidata":"Q5440784","name":"FDM Bilsyn"}},"amenity/vending_machine/bicycle_tube/continental-123edb":{"name":"Continental","locationSet":{"include":["by","bg","cz","hu","pl","md","ro","ru","sk","ua","ax","gg","je","cq","dk","ee","fo","fi","is","ie","im","lv","lt","no","sj","se","gb","al","ad","ba","hr","gi","gr","va","it","mt","me","mk","pt","sm","rs","si","es","xk","at","be","fr","de","li","lu","mc","nl","ch"]},"geometry":["point","vertex"],"matchScore":2,"terms":["continental"],"reference":{"key":"vending","value":"bicycle_tube"},"tags":{"amenity":"vending_machine","brand:wikidata":"Q64739247","vending":"bicycle_tube"},"addTags":{"amenity":"vending_machine","brand":"Continental","brand:wikidata":"Q64739247","vending":"bicycle_tube"}},"amenity/vending_machine/excrement_bags/dogstation-15a18a":{"name":"Dog-Station","locationSet":{"include":["at","de","dk"]},"geometry":["point","vertex"],"matchScore":2,"terms":["dog-station"],"reference":{"key":"vending","value":"excrement_bags"},"tags":{"amenity":"vending_machine","brand:wikidata":"Q63720061","vending":"excrement_bags"},"addTags":{"amenity":"vending_machine","brand":"Dog-Station","brand:wikidata":"Q63720061","name":"Dog-Station","vending":"excrement_bags"}},"amenity/vending_machine/bicycle_tube/schwalbe-123edb":{"name":"Schwalbe","locationSet":{"include":["by","bg","cz","hu","pl","md","ro","ru","sk","ua","ax","gg","je","cq","dk","ee","fo","fi","is","ie","im","lv","lt","no","sj","se","gb","al","ad","ba","hr","gi","gr","va","it","mt","me","mk","pt","sm","rs","si","es","xk","at","be","fr","de","li","lu","mc","nl","ch"]},"geometry":["point","vertex"],"matchScore":2,"terms":["schwalbe"],"reference":{"key":"vending","value":"bicycle_tube"},"tags":{"amenity":"vending_machine","brand:wikidata":"Q1312213","vending":"bicycle_tube"},"addTags":{"amenity":"vending_machine","brand":"Schwalbe","brand:wikidata":"Q1312213","vending":"bicycle_tube"}},"amenity/vending_machine/selecta-ed4d31":{"name":"Selecta","locationSet":{"include":["at","be","ch","de","dk","es","fi","fr","gb","ie","it","li","lu","nl","no","se"]},"geometry":["point","vertex"],"matchScore":2,"terms":["selecta"],"tags":{"amenity":"vending_machine","brand:wikidata":"Q472153"},"addTags":{"amenity":"vending_machine","brand":"Selecta","brand:wikidata":"Q472153"}},"amenity/veterinary/anicura-acf389":{"name":"AniCura","locationSet":{"include":["at","be","ch","de","dk","es","fr","it","nl","no","pl","pt","se"]},"geometry":["point","area"],"matchScore":2,"terms":["anicura"],"tags":{"amenity":"veterinary","brand:wikidata":"Q110299350"},"addTags":{"amenity":"veterinary","brand":"AniCura","brand:wikidata":"Q110299350","name":"AniCura"}},"leisure/fitness_centre/barrys-1b6d66":{"name":"Barry's","locationSet":{"include":["ae","au","ca","de","dk","es","fr","gb","it","mx","no","qa","se","sg","us"]},"geometry":["point","area"],"matchScore":2,"terms":["barry's"],"tags":{"brand:wikidata":"Q96373178","leisure":"fitness_centre"},"addTags":{"brand":"Barry's","brand:wikidata":"Q96373178","leisure":"fitness_centre","name":"Barry's"}},"leisure/fitness_centre/fitinn-48d938":{"name":"FITINN","locationSet":{"include":["by","bg","cz","hu","pl","md","ro","ru","sk","ua","ax","gg","je","cq","dk","ee","fo","fi","is","ie","im","lv","lt","no","sj","se","gb","al","ad","ba","hr","gi","gr","va","it","mt","me","mk","pt","sm","rs","si","es","xk","at","be","fr","de","li","lu","mc","nl","ch"]},"geometry":["point","area"],"matchScore":2,"terms":["fitinn"],"tags":{"brand:wikidata":"Q1245564","leisure":"fitness_centre"},"addTags":{"brand":"FITINN","brand:wikidata":"Q1245564","leisure":"fitness_centre","name":"FITINN"}},"leisure/fitness_centre/holmesplace-901199":{"name":"Holmes Place","locationSet":{"include":["by","bg","cz","hu","pl","md","ro","ru","sk","ua","ax","gg","je","cq","dk","ee","fo","fi","is","ie","im","lv","lt","no","sj","se","gb","al","ad","ba","hr","gi","gr","va","it","mt","me","mk","pt","sm","rs","si","es","xk","at","be","fr","de","li","lu","mc","nl","ch","il"]},"geometry":["point","area"],"matchScore":2,"terms":["holmes place"],"tags":{"brand:wikidata":"Q15815819","leisure":"fitness_centre"},"addTags":{"brand":"Holmes Place","brand:wikidata":"Q15815819","leisure":"fitness_centre","name":"Holmes Place"}},"leisure/fitness_centre/loopfitness-a32a51":{"name":"LOOP Fitness","locationSet":{"include":["dk"]},"geometry":["point","area"],"matchScore":2,"terms":["loop fitness"],"tags":{"brand:wikidata":"Q18647221","leisure":"fitness_centre"},"addTags":{"brand":"LOOP Fitness","brand:wikidata":"Q18647221","leisure":"fitness_centre","name":"LOOP Fitness"}},"leisure/fitness_centre/puregym-a32a51":{"name":"PureGym Danmark","locationSet":{"include":["dk"]},"geometry":["point","area"],"matchScore":2,"terms":["fitness world","fw","puregym"],"tags":{"brand:wikidata":"Q12311466","leisure":"fitness_centre"},"addTags":{"brand":"PureGym","brand:wikidata":"Q12311466","leisure":"fitness_centre","name":"PureGym"}},"leisure/fitness_centre/sats-44c5d4":{"name":"Sats","locationSet":{"include":["dk","fi","no","se"]},"geometry":["point","area"],"matchScore":2,"terms":["sats"],"fields":["name","brand","{leisure/fitness_centre}"],"tags":{"brand:wikidata":"Q4411496","leisure":"fitness_centre"},"addTags":{"brand":"Sats","brand:wikidata":"Q4411496","leisure":"fitness_centre","name":"Sats"}},"man_made/charge_point/ionity-97d83d":{"name":"Ionity","locationSet":{"include":["by","bg","cz","hu","pl","md","ro","ru","sk","ua","ax","gg","je","cq","dk","ee","fo","fi","is","ie","im","lv","lt","no","sj","se","gb","al","ad","ba","hr","gi","gr","va","it","mt","me","mk","pt","sm","rs","si","es","xk","at","be","fr","de","li","lu","mc","nl","ch"]},"geometry":["point"],"matchScore":2,"terms":["ionity","ionity gmbh"],"fields":["name","brand","{man_made/charge_point}"],"tags":{"brand:wikidata":"Q42717773","man_made":"charge_point"},"addTags":{"brand":"Ionity","brand:wikidata":"Q42717773","man_made":"charge_point"}},"office/consulting/ecovis-10b2fd":{"name":"Ecovis International","locationSet":{"include":["by","bg","cz","hu","pl","md","ro","ru","sk","ua","ax","gg","je","cq","dk","ee","fo","fi","is","ie","im","lv","lt","no","sj","se","gb","al","ad","ba","hr","gi","gr","va","it","mt","me","mk","pt","sm","rs","si","es","xk","at","be","fr","de","li","lu","mc","nl","ch","tr"]},"geometry":["point","area"],"matchScore":2,"terms":["ecovis international"],"tags":{"brand:wikidata":"Q65509562","office":"consulting"},"addTags":{"brand":"Ecovis International","brand:wikidata":"Q65509562","name":"Ecovis","office":"consulting"}},"office/coworking/spaces-ffd6f1":{"name":"Spaces (Scandinavia)","locationSet":{"include":["dk","fi","no","se"]},"geometry":["point","area"],"matchScore":2,"terms":["spaces"],"fields":["name","brand","{office/coworking}"],"tags":{"brand:wikidata":"Q87629680","office":"coworking"},"addTags":{"brand":"Spaces","brand:wikidata":"Q87629680","name":"Spaces","office":"coworking"}},"office/employment_agency/randstad-f7dc26":{"name":"Randstad","locationSet":{"include":["ad","at","au","be","ca","ch","cn","cz","de","dk","es","fr","gb","gr","hk","hu","ie","in","it","jp","lu","mc","mx","my","nl","no","nz","pl","pt","ro","se","sg","sy","tk","us"]},"geometry":["point","area"],"matchScore":2,"terms":["randstad"],"tags":{"brand:wikidata":"Q267840","office":"employment_agency"},"addTags":{"brand":"Randstad","brand:wikidata":"Q267840","name":"Randstad","office":"employment_agency"}},"office/estate_agent/vonpollrealestate-c99072":{"name":"von Poll Real Estate","locationSet":{"include":["by","bg","cz","hu","pl","md","ro","ru","sk","ua","ax","gg","je","cq","dk","ee","fo","fi","is","ie","im","lv","lt","no","sj","se","gb","al","ad","ba","hr","gi","gr","va","it","mt","me","mk","pt","sm","rs","si","es","xk","at","be","fr","de","li","lu","mc","nl","ch"],"exclude":["at","de"]},"geometry":["point","area"],"matchScore":2,"terms":["von poll immobilien","von poll real estate","vonpoll","vonpoll commercial"],"tags":{"brand:wikidata":"Q96026696","office":"estate_agent"},"addTags":{"brand":"von Poll Real Estate","brand:wikidata":"Q96026696","name":"von Poll Real Estate","office":"estate_agent"}},"office/insurance/allianz-332499":{"name":"Allianz","locationSet":{"include":["ae","ar","at","au","be","bg","bh","bm","bn","br","ca","cg","ch","ci","cm","cn","co","cy","cz","de","dk","ee","eg","es","fi","fr","gb","gf","gg","gh","gp","gr","hk","hr","hu","id","ie","in","is","it","ja","ke","kr","kw","la","li","lk","lt","lu","lv","ma","mg","mx","my","ng","nl","no","nz","om","ph","pk","pl","pt","qa","ro","ru","sa","se","sg","si","sk","sn","th","tr","tw","ua","us","za"]},"geometry":["point","area"],"matchScore":2,"terms":["allianz","allianz versicherung"],"fields":["name","brand","{office/insurance}"],"tags":{"brand:wikidata":"Q487292","office":"insurance"},"addTags":{"brand":"Allianz","brand:wikidata":"Q487292","name":"Allianz","office":"insurance"}},"office/insurance/axa-2e7672":{"name":"AXA","locationSet":{"include":["ae","ar","au","be","bh","bm","br","ca","ch","ci","cl","cm","cn","co","cz","de","dk","dz","eg","es","fi","fr","ga","gb","gr","hk","id","ie","in","it","jp","kr","lb","lu","ma","mu","mx","my","ng","nl","no","om","pa","pe","ph","pl","pt","qa","sa","se","sg","sk","sn","th","tr","tw","us"]},"geometry":["point","area"],"matchScore":2,"terms":["axa"],"fields":["name","brand","{office/insurance}"],"tags":{"brand:wikidata":"Q160054","office":"insurance"},"addTags":{"brand":"AXA","brand:wikidata":"Q160054","name":"AXA","office":"insurance"}},"office/insurance/ergo-38191f":{"name":"Ergo","locationSet":{"include":["at","be","ch","cn","cz","de","dk","ee","es","fr","gb","gr","hu","in","it","kr","lt","lu","lv","nl","pl","se","sg","th"]},"geometry":["point","area"],"matchScore":2,"terms":["ergo","ergo direkt","ergo direktversicherung","ergo versicherung"],"fields":["name","brand","{office/insurance}"],"tags":{"brand:wikidata":"Q541909","office":"insurance"},"addTags":{"brand":"Ergo","brand:wikidata":"Q541909","name":"Ergo","office":"insurance"}},"office/insurance/nn-336e34":{"name":"NN","locationSet":{"include":["by","bg","cz","hu","pl","md","ro","ru","sk","ua","ax","gg","je","cq","dk","ee","fo","fi","is","ie","im","lv","lt","no","sj","se","gb","al","ad","ba","hr","gi","gr","va","it","mt","me","mk","pt","sm","rs","si","es","xk","at","be","fr","de","li","lu","mc","nl","ch"]},"geometry":["point","area"],"matchScore":2,"terms":["nationale-nederlanden","nn"],"fields":["name","brand","{office/insurance}"],"tags":{"brand:wikidata":"Q1834291","office":"insurance"},"addTags":{"brand":"NN","brand:wikidata":"Q1834291","name":"NN","office":"insurance","official_name":"Nationale-Nederlanden"}},"shop/bakery/lagkagehuset-378006":{"name":"Lagkagehuset","locationSet":{"include":["dk"]},"geometry":["point","area"],"matchScore":2,"terms":["lagkagehuset"],"tags":{"brand:wikidata":"Q12323572","shop":"bakery"},"addTags":{"brand":"Lagkagehuset","brand:wikidata":"Q12323572","name":"Lagkagehuset","shop":"bakery"}},"shop/bicycle/fribikeshop-ff17d0":{"name":"Fri BikeShop","locationSet":{"include":["dk"]},"geometry":["point","area"],"matchScore":2,"terms":["fri bikeshop"],"tags":{"brand:wikidata":"Q26721030","shop":"bicycle"},"addTags":{"brand":"Fri BikeShop","brand:wikidata":"Q26721030","name":"Fri BikeShop","shop":"bicycle"}},"shop/books/bogandide-d03d88":{"name":"Bog & ide","locationSet":{"include":["dk"]},"geometry":["point","area"],"matchScore":2,"terms":["bog & idé"],"tags":{"brand:wikidata":"Q12303981","shop":"books"},"addTags":{"brand":"Bog & idé","brand:wikidata":"Q12303981","name":"Bog & idé","shop":"books"}},"shop/butcher/fotexslagter-4aef2d":{"name":"føtex Slagter","locationSet":{"include":["dk"]},"geometry":["point","area"],"matchScore":2,"terms":["føtex slagter"],"tags":{"brand:wikidata":"Q1480395","shop":"butcher"},"addTags":{"brand":"føtex Slagter","brand:wikidata":"Q1480395","name":"føtex Slagter","shop":"butcher"}},"shop/butcher/superbrugsenslagter-4aef2d":{"name":"SuperBrugsen Slagter","locationSet":{"include":["dk"]},"geometry":["point","area"],"matchScore":2,"terms":["superbrugsen slagter"],"tags":{"brand:wikidata":"Q12337746","shop":"butcher"},"addTags":{"brand":"SuperBrugsen Slagter","brand:wikidata":"Q12337746","name":"SuperBrugsen Slagter","shop":"butcher"}},"shop/car/smart-b77732":{"name":"Smart","locationSet":{"include":["by","bg","cz","hu","pl","md","ro","ru","sk","ua","ax","gg","je","cq","dk","ee","fo","fi","is","ie","im","lv","lt","no","sj","se","gb","al","ad","ba","hr","gi","gr","va","it","mt","me","mk","pt","sm","rs","si","es","xk","at","be","fr","de","li","lu","mc","nl","ch","cn"]},"geometry":["point","area"],"matchScore":2,"terms":["smart"],"fields":["name","brand","{shop/car}"],"tags":{"brand:wikidata":"Q156490","shop":"car"},"addTags":{"brand":"Smart","brand:wikidata":"Q156490","name":"Smart","shop":"car"}},"shop/car_parts/ftz-29e157":{"name":"FTZ","locationSet":{"include":["dk","fo"]},"geometry":["point","area"],"matchScore":2,"terms":["ftz"],"tags":{"brand:wikidata":"Q120058589","shop":"car_parts"},"addTags":{"brand":"FTZ","brand:wikidata":"Q120058589","name":"FTZ","ref:DK:cvr":"73648718","shop":"car_parts"}},"shop/car_parts/thansen-c9a26e":{"name":"thansen","locationSet":{"include":["dk","no","se"]},"geometry":["point","area"],"matchScore":2,"terms":["t. hansen","thansen"],"fields":["name","brand","{shop/car_parts}"],"tags":{"brand:wikidata":"Q12338957","shop":"car_parts"},"addTags":{"alt_name":"T. Hansen","brand":"thansen","brand:wikidata":"Q12338957","name":"thansen","shop":"car_parts"}},"shop/car_repair/automester-25491b":{"name":"Automester","locationSet":{"include":["dk"]},"geometry":["point","area"],"matchScore":2,"terms":["automester"],"fields":["name","brand","{shop/car_repair}"],"tags":{"brand:wikidata":"Q110510044","shop":"car_repair"},"addTags":{"brand":"Automester","brand:wikidata":"Q110510044","name":"Automester","shop":"car_repair"}},"shop/car_repair/autopartner-25491b":{"name":"AutoPartner","locationSet":{"include":["dk"]},"geometry":["point","area"],"matchScore":2,"terms":["autopartner"],"fields":["name","brand","{shop/car_repair}"],"tags":{"brand:wikidata":"Q110510294","shop":"car_repair"},"addTags":{"brand":"AutoPartner","brand:wikidata":"Q110510294","name":"AutoPartner","shop":"car_repair"}},"shop/car_repair/carpeople-25491b":{"name":"CarPeople","locationSet":{"include":["dk"]},"geometry":["point","area"],"matchScore":2,"terms":["carpeople"],"fields":["name","brand","{shop/car_repair}"],"tags":{"brand:wikidata":"Q110510349","shop":"car_repair"},"addTags":{"brand":"CarPeople","brand:wikidata":"Q110510349","name":"CarPeople","shop":"car_repair"}},"shop/car_repair/dinbilpartner-25491b":{"name":"Din Bilpartner","locationSet":{"include":["dk"]},"geometry":["point","area"],"matchScore":2,"terms":["din bilpartner"],"fields":["name","brand","{shop/car_repair}"],"tags":{"brand:wikidata":"Q110510457","shop":"car_repair"},"addTags":{"brand":"Din Bilpartner","brand:wikidata":"Q110510457","name":"Din Bilpartner","shop":"car_repair"}},"shop/car_repair/hellaservicepartner-25491b":{"name":"Hella Service Partner","locationSet":{"include":["dk"]},"geometry":["point","area"],"matchScore":2,"terms":["hella service partner"],"fields":["name","brand","{shop/car_repair}"],"tags":{"brand:wikidata":"Q110510535","shop":"car_repair"},"addTags":{"brand":"Hella Service Partner","brand:wikidata":"Q110510535","name":"Hella Service Partner","shop":"car_repair"}},"shop/car_repair/mekonomen-7de64b":{"name":"Mekonomen","locationSet":{"include":["dk","no","se"]},"geometry":["point","area"],"matchScore":2,"terms":["mekonomen"],"fields":["name","brand","{shop/car_repair}"],"tags":{"brand:wikidata":"Q10580079","shop":"car_repair"},"addTags":{"brand":"Mekonomen","brand:wikidata":"Q10580079","name":"Mekonomen","shop":"car_repair"}},"shop/car_repair/quickpoint-25491b":{"name":"Quickpoint","locationSet":{"include":["dk"]},"geometry":["point","area"],"matchScore":2,"terms":["quickpoint"],"fields":["name","brand","{shop/car_repair}"],"tags":{"brand:wikidata":"Q110510602","shop":"car_repair"},"addTags":{"brand":"Quickpoint","brand:wikidata":"Q110510602","name":"Quickpoint","shop":"car_repair"}},"shop/car_repair/superdaekservice-25491b":{"name":"Super Dæk Service","locationSet":{"include":["dk"]},"geometry":["point","area"],"matchScore":2,"terms":["super dæk service"],"fields":["name","brand","{shop/car_repair}"],"tags":{"brand:wikidata":"Q110510630","shop":"car_repair"},"addTags":{"brand":"Super Dæk Service","brand:wikidata":"Q110510630","name":"Super Dæk Service","shop":"car_repair"}},"shop/car_repair/teknicar-25491b":{"name":"Teknicar","locationSet":{"include":["dk"]},"geometry":["point","area"],"matchScore":2,"terms":["teknicar"],"fields":["name","brand","{shop/car_repair}"],"tags":{"brand:wikidata":"Q110510682","shop":"car_repair"},"addTags":{"brand":"Teknicar","brand:wikidata":"Q110510682","name":"Teknicar","shop":"car_repair"}},"shop/car_repair/smart-102ff2":{"name":"Smart","locationSet":{"include":["by","bg","cz","hu","pl","md","ro","ru","sk","ua","ax","gg","je","cq","dk","ee","fo","fi","is","ie","im","lv","lt","no","sj","se","gb","al","ad","ba","hr","gi","gr","va","it","mt","me","mk","pt","sm","rs","si","es","xk","at","be","fr","de","li","lu","mc","nl","ch","cn"]},"geometry":["point","area"],"matchScore":2,"terms":["smart"],"fields":["name","brand","{shop/car_repair}"],"tags":{"brand:wikidata":"Q156490","shop":"car_repair"},"addTags":{"brand":"Smart","brand:wikidata":"Q156490","name":"Smart","shop":"car_repair"}},"shop/charity/danskrodekorsgenbrug-40689c":{"name":"Dansk Røde Kors Genbrug","locationSet":{"include":["dk"]},"geometry":["point","area"],"matchScore":2,"terms":["dansk røde kors genbrug","genbrug","røde kors"],"tags":{"brand:wikidata":"Q12307527","shop":"charity"},"addTags":{"brand":"Dansk Røde Kors Genbrug","brand:wikidata":"Q12307527","name":"Dansk Røde Kors Genbrug","second_hand":"only","shop":"charity"}},"shop/charity/frelsenshaergenbrug-40689c":{"name":"Frelsens Hær Genbrug","locationSet":{"include":["dk"]},"geometry":["point","area"],"matchScore":2,"terms":["frelleren","frelsens hær genbrug","genbrug"],"tags":{"brand:wikidata":"Q188307","shop":"charity"},"addTags":{"brand":"Frelsens Hær Genbrug","brand:wikidata":"Q188307","name":"Frelsens Hær Genbrug","ref:DK:cvr":"43417312","second_hand":"only","shop":"charity"}},"shop/charity/kirkenskorshaergenbrug-40689c":{"name":"Kirkens Korshær Genbrug","locationSet":{"include":["dk"]},"geometry":["point","area"],"matchScore":2,"terms":["kirkens korshær genbrug"],"tags":{"brand:wikidata":"Q12321915","shop":"charity"},"addTags":{"brand":"Kirkens Korshær Genbrug","brand:wikidata":"Q12321915","name":"Kirkens Korshær Genbrug","shop":"charity"}},"shop/chemist/matas-9eec7a":{"name":"Matas","locationSet":{"include":["dk"]},"geometry":["point","area"],"matchScore":2,"terms":["matas"],"tags":{"brand:wikidata":"Q6786143","shop":"chemist"},"addTags":{"brand":"Matas","brand:wikidata":"Q6786143","name":"Matas","shop":"chemist"}},"shop/chemist/normal-57f5e2":{"name":"Normal","locationSet":{"include":["dk","es","fi","fx","nl","no","pt","se"]},"geometry":["point","area"],"matchScore":2,"terms":["normal"],"tags":{"brand:wikidata":"Q19562429","shop":"chemist"},"addTags":{"brand":"Normal","brand:wikidata":"Q19562429","name":"Normal","shop":"chemist"}},"shop/clothes/handmkids-2ecfc2":{"name":"H&M Kids","locationSet":{"include":["de","dk","gb"]},"geometry":["point","area"],"matchScore":2,"terms":["h&m"],"tags":{"brand:wikidata":"Q188326","shop":"clothes"},"addTags":{"brand":"H&M","brand:wikidata":"Q188326","clothes":"children","name":"H&M Kids","shop":"clothes"}},"shop/clothes/underwear/hunkemoller-4950a4":{"name":"Hunkemöller","locationSet":{"include":["at","be","de","dk","es","lu","nl"]},"geometry":["point","area"],"matchScore":2,"terms":["hunkemöller"],"reference":{"key":"clothes","value":"underwear"},"tags":{"brand:wikidata":"Q2604175","clothes":"underwear","shop":"clothes"},"addTags":{"brand":"Hunkemöller","brand:wikidata":"Q2604175","clothes":"underwear","name":"Hunkemöller","shop":"clothes"}},"shop/clothes/lager157-268f20":{"name":"Lager 157","locationSet":{"include":["dk","fi","no","se"]},"geometry":["point","area"],"matchScore":2,"terms":["lager 157"],"tags":{"brand:wikidata":"Q10553200","shop":"clothes"},"addTags":{"brand":"Lager 157","brand:wikidata":"Q10553200","name":"Lager 157","shop":"clothes"}},"shop/clothes/maje-ab7b56":{"name":"Maje","locationSet":{"include":["by","bg","cz","hu","pl","md","ro","ru","sk","ua","ax","gg","je","cq","dk","ee","fo","fi","is","ie","im","lv","lt","no","sj","se","gb","al","ad","ba","hr","gi","gr","va","it","mt","me","mk","pt","sm","rs","si","es","xk","at","be","fr","de","li","lu","mc","nl","ch","cn","sg","tw","us"]},"geometry":["point","area"],"matchScore":2,"terms":["maje"],"tags":{"brand:wikidata":"Q3280458","shop":"clothes"},"addTags":{"brand":"Maje","brand:wikidata":"Q3280458","clothes":"women","name":"Maje","shop":"clothes"}},"shop/clothes/soliver-fb408e":{"name":"s.Oliver","locationSet":{"include":["by","bg","cz","hu","pl","md","ro","ru","sk","ua","ax","gg","je","cq","dk","ee","fo","fi","is","ie","im","lv","lt","no","sj","se","gb","al","ad","ba","hr","gi","gr","va","it","mt","me","mk","pt","sm","rs","si","es","xk","at","be","fr","de","li","lu","mc","nl","ch","cn","in"]},"geometry":["point","area"],"matchScore":2,"terms":["s.oliver"],"tags":{"brand:wikidata":"Q265056","shop":"clothes"},"addTags":{"brand":"s.Oliver","brand:wikidata":"Q265056","name":"s.Oliver","shop":"clothes"}},"shop/clothes/samsoesamsoe-5e0a04":{"name":"Samsøe Samsøe","locationSet":{"include":["be","de","dk","lu","nl","no","se"]},"geometry":["point","area"],"matchScore":2,"terms":["samsøe samsøe","samsoe&samsoe"],"tags":{"brand:wikidata":"Q12334460","shop":"clothes"},"addTags":{"brand":"Samsøe Samsøe","brand:wikidata":"Q12334460","name":"Samsøe Samsøe","shop":"clothes"}},"shop/clothes/streetone-1c3d1b":{"name":"Street One","locationSet":{"include":["at","be","ch","de","dk","nl"]},"geometry":["point","area"],"matchScore":2,"terms":["street one"],"tags":{"brand:wikidata":"Q61997265","shop":"clothes"},"addTags":{"brand":"Street One","brand:wikidata":"Q61997265","name":"Street One","shop":"clothes"}},"shop/clothes/weekday-b5590c":{"name":"Weekday","locationSet":{"include":["by","bg","cz","hu","pl","md","ro","ru","sk","ua","ax","gg","je","cq","dk","ee","fo","fi","is","ie","im","lv","lt","no","sj","se","gb","al","ad","ba","hr","gi","gr","va","it","mt","me","mk","pt","sm","rs","si","es","xk","at","be","fr","de","li","lu","mc","nl","ch"]},"geometry":["point","area"],"matchScore":2,"terms":["weekday"],"tags":{"brand:wikidata":"Q10719514","shop":"clothes"},"addTags":{"brand":"Weekday","brand:wikidata":"Q10719514","name":"Weekday","shop":"clothes"}},"shop/clothes/whitestuff-98a4ed":{"name":"White Stuff","locationSet":{"include":["de","dk","gb","gg"]},"geometry":["point","area"],"matchScore":2,"terms":["white stuff"],"tags":{"brand:wikidata":"Q7995442","shop":"clothes"},"addTags":{"brand":"White Stuff","brand:wikidata":"Q7995442","name":"White Stuff","shop":"clothes"}},"shop/clothes/zizzi-ef6c41":{"name":"Zizzi","locationSet":{"include":["dk","fi","nl","no","se"]},"geometry":["point","area"],"matchScore":2,"terms":["zizzi"],"tags":{"brand:wikidata":"Q122921301","shop":"clothes"},"addTags":{"brand":"Zizzi","brand:wikidata":"Q122921301","name":"Zizzi","shop":"clothes"}},"shop/convenience/viva-856fe1":{"name":"Viva","locationSet":{"include":["by","bg","cz","hu","pl","md","ro","ru","sk","ua","ax","gg","je","cq","dk","ee","fo","fi","is","ie","im","lv","lt","no","sj","se","gb","al","ad","ba","hr","gi","gr","va","it","mt","me","mk","pt","sm","rs","si","es","xk","at","be","fr","de","li","lu","mc","nl","ch"]},"geometry":["point","area"],"matchScore":2,"terms":["viva"],"tags":{"brand:wikidata":"Q168238","shop":"convenience"},"addTags":{"brand":"Viva","brand:wikidata":"Q168238","name":"Viva","shop":"convenience"}},"shop/cosmetics/bareminerals-fdc7bb":{"name":"bareMinerals","locationSet":{"include":["au","ca","dk","gb","ie","us"]},"geometry":["point","area"],"matchScore":2,"terms":["bareminerals"],"tags":{"brand:wikidata":"Q66740659","shop":"cosmetics"},"addTags":{"brand":"bareMinerals","brand:wikidata":"Q66740659","name":"bareMinerals","shop":"cosmetics"}},"shop/craft/boesner-1cc9f4":{"name":"Boesner","locationSet":{"include":["at","ch","de","dk","fr","se"]},"geometry":["point","area"],"matchScore":2,"terms":["boesner"],"tags":{"brand:wikidata":"Q890317","shop":"craft"},"addTags":{"brand":"Boesner","brand:wikidata":"Q890317","name":"Boesner","shop":"craft"}},"shop/deli/fotexdelikatesse-dcd577":{"name":"føtex Delikatesse","locationSet":{"include":["dk"]},"geometry":["point","area"],"matchScore":2,"terms":["føtex delikatesse"],"tags":{"brand:wikidata":"Q1480395","shop":"deli"},"addTags":{"brand":"føtex Delikatesse","brand:wikidata":"Q1480395","name":"føtex Delikatesse","shop":"deli"}},"shop/deli/vomfass-a3c745":{"name":"vomFASS","locationSet":{"include":["at","be","br","ca","ch","cz","de","dk","es","fr","gb","hk","hr","hu","il","it","jp","lv","mx","my","ph","sg","th","us"]},"geometry":["point","area"],"matchScore":2,"terms":["vomfass"],"tags":{"brand:wikidata":"Q2533008","shop":"deli"},"addTags":{"brand":"vomFASS","brand:wikidata":"Q2533008","name":"vomFASS","shop":"deli"}},"shop/doityourself/bauhaus-6847b5":{"name":"Bauhaus","locationSet":{"include":["at","bg","ch","cz","de","dk","ee","es","fi","hr","hu","is","lu","nl","no","se","si","sk","tr"]},"geometry":["point","area"],"matchScore":2,"terms":["bauhaus"],"tags":{"brand:wikidata":"Q672043","shop":"doityourself"},"addTags":{"brand":"Bauhaus","brand:wikidata":"Q672043","name":"Bauhaus","shop":"doityourself"}},"shop/doityourself/biltema-acccd4":{"name":"Biltema","locationSet":{"include":["dk","fi","no","se"]},"geometry":["point","area"],"matchScore":2,"terms":["biltema"],"fields":["name","brand","{shop/doityourself}"],"tags":{"brand:wikidata":"Q3355552","shop":"doityourself"},"addTags":{"brand":"Biltema","brand:wikidata":"Q3355552","name":"Biltema","shop":"doityourself"}},"shop/doityourself/haraldnyborg-27539e":{"name":"Harald Nyborg","locationSet":{"include":["dk"]},"geometry":["point","area"],"matchScore":2,"terms":["harald nyborg"],"tags":{"brand:wikidata":"Q12315668","shop":"doityourself"},"addTags":{"brand":"Harald Nyborg","brand:wikidata":"Q12315668","name":"Harald Nyborg","shop":"doityourself"}},"shop/doityourself/jemandfix-27539e":{"name":"jem & fix","locationSet":{"include":["dk"]},"geometry":["point","area"],"matchScore":2,"terms":["jem & fix","jem fix"],"tags":{"brand:wikidata":"Q12319200","shop":"doityourself"},"addTags":{"brand":"jem & fix","brand:wikidata":"Q12319200","name":"jem & fix","shop":"doityourself"}},"shop/doors/adlo-46a8ae":{"name":"ADLO","locationSet":{"include":["at","ch","cz","de","dk","sk"]},"geometry":["point","area"],"matchScore":2,"terms":["adlo"],"tags":{"brand:wikidata":"Q116862985","shop":"doors"},"addTags":{"brand":"ADLO","brand:wikidata":"Q116862985","name":"ADLO","shop":"doors"}},"shop/electronics/capielectronics-cec7c5":{"name":"Capi Electronics","locationSet":{"include":["ae","at","be","ch","de","dk","es","fi","it","nl","no","qa","za"]},"geometry":["point","area"],"matchScore":2,"terms":["capi"],"tags":{"brand:wikidata":"Q123846871","shop":"electronics"},"addTags":{"brand":"Capi","brand:wikidata":"Q123846871","name":"Capi Electronics","shop":"electronics"}},"shop/electronics/elgiganten-540210":{"name":"Elgiganten","locationSet":{"include":["dk","se"]},"geometry":["point","area"],"matchScore":2,"terms":["elgiganten"],"tags":{"brand:wikidata":"Q17050121","shop":"electronics"},"addTags":{"brand":"Elgiganten","brand:wikidata":"Q17050121","name":"Elgiganten","shop":"electronics"}},"shop/electronics/power-9765c4":{"name":"Power","locationSet":{"include":["dk","fi","no","se"]},"geometry":["point","area"],"matchScore":2,"terms":["power"],"tags":{"brand:wikidata":"Q20857751","shop":"electronics"},"addTags":{"brand":"Power","brand:wikidata":"Q20857751","name":"Power","shop":"electronics"}},"shop/fashion_accessories/mulberry-e1f087":{"name":"Mulberry","locationSet":{"include":["ae","au","ca","ch","cn","de","dk","fi","gb","ie","jp","kr","my","nl","no","se","sg","th","us"]},"geometry":["point","area"],"matchScore":2,"terms":["mulberry"],"tags":{"brand:wikidata":"Q3866987","shop":"fashion_accessories"},"addTags":{"brand":"Mulberry","brand:wikidata":"Q3866987","name":"Mulberry","shop":"fashion_accessories"}},"shop/furniture/bolia-a18722":{"name":"Bolia","locationSet":{"include":["by","bg","cz","hu","pl","md","ro","ru","sk","ua","ax","gg","je","cq","dk","ee","fo","fi","is","ie","im","lv","lt","no","sj","se","gb","al","ad","ba","hr","gi","gr","va","it","mt","me","mk","pt","sm","rs","si","es","xk","at","be","fr","de","li","lu","mc","nl","ch"]},"geometry":["point","area"],"matchScore":2,"terms":["bolia"],"tags":{"brand:wikidata":"Q11961809","shop":"furniture"},"addTags":{"brand":"Bolia","brand:wikidata":"Q11961809","name":"Bolia","shop":"furniture"}},"shop/furniture/ikea-3c70a1":{"name":"IKEA (Scandinavia)","locationSet":{"include":["dk","fi","no","se"]},"geometry":["point","area"],"matchScore":2,"terms":["ikea"],"fields":["name","brand","{shop/furniture}"],"tags":{"brand:wikidata":"Q54078","shop":"furniture"},"addTags":{"brand":"IKEA","brand:wikidata":"Q54078","name":"IKEA","shop":"furniture"}},"shop/furniture/momax-a18722":{"name":"Mömax","locationSet":{"include":["by","bg","cz","hu","pl","md","ro","ru","sk","ua","ax","gg","je","cq","dk","ee","fo","fi","is","ie","im","lv","lt","no","sj","se","gb","al","ad","ba","hr","gi","gr","va","it","mt","me","mk","pt","sm","rs","si","es","xk","at","be","fr","de","li","lu","mc","nl","ch"]},"geometry":["point","area"],"matchScore":2,"terms":["mömax"],"tags":{"brand:wikidata":"Q56388481","shop":"furniture"},"addTags":{"brand":"Mömax","brand:wikidata":"Q56388481","name":"Mömax","shop":"furniture"}},"shop/furniture/xxxlutz-5acc6e":{"name":"XXXLutz","locationSet":{"include":["by","bg","cz","hu","pl","md","ro","ru","sk","ua","ax","gg","je","cq","dk","ee","fo","fi","is","ie","im","lv","lt","no","sj","se","gb","al","ad","ba","hr","gi","gr","va","it","mt","me","mk","pt","sm","rs","si","es","xk","at","be","fr","de","li","lu","mc","nl","ch"],"exclude":["bg"]},"geometry":["point","area"],"matchScore":2,"terms":["xxxlutz"],"tags":{"brand:wikidata":"Q70339467","shop":"furniture"},"addTags":{"brand":"XXXLutz","brand:wikidata":"Q70339467","name":"XXXLutz","shop":"furniture"}},"shop/houseware/imerco-12dd8a":{"name":"Imerco","locationSet":{"include":["dk"]},"geometry":["point","area"],"matchScore":2,"terms":["imerco"],"tags":{"brand:wikidata":"Q12318163","shop":"houseware"},"addTags":{"brand":"Imerco","brand:wikidata":"Q12318163","name":"Imerco","shop":"houseware"}},"shop/jewelry/glitter-f0ae67":{"name":"Glitter","locationSet":{"include":["dk","fi","no","se"]},"geometry":["point","area"],"matchScore":2,"terms":["glitter"],"tags":{"brand:wikidata":"Q10505535","shop":"jewelry"},"addTags":{"brand":"Glitter","brand:wikidata":"Q10505535","name":"Glitter","shop":"jewelry"}},"shop/jewelry/valmano-634c4f":{"name":"Valmano","locationSet":{"include":["at","be","dk","fr","it","nl","se"]},"geometry":["point","area"],"matchScore":2,"terms":["valmano"],"tags":{"brand:wikidata":"Q116151710","shop":"jewelry"},"addTags":{"brand":"Valmano","brand:wikidata":"Q116151710","name":"Valmano","shop":"jewelry"}},"shop/mobile_phone/telenor-77edfc":{"name":"Telenor Denmark","locationSet":{"include":["dk"]},"geometry":["point","area"],"matchScore":2,"terms":["telenor"],"searchable":false,"tags":{"brand:wikidata":"Q1796954","shop":"mobile_phone"},"addTags":{"brand":"Telenor","brand:wikidata":"Q1796954","name":"Telenor","shop":"mobile_phone"}},"shop/mobile_phone/telia-856553":{"name":"Telia","locationSet":{"include":["dk","fi","lt","no","se"]},"geometry":["point","area"],"matchScore":2,"terms":["telia"],"fields":["name","brand","{shop/mobile_phone}"],"tags":{"brand:wikidata":"Q862303","shop":"mobile_phone"},"addTags":{"brand":"Telia","brand:wikidata":"Q862303","name":"Telia","shop":"mobile_phone"}},"shop/optician/aceandtate-b2ee21":{"name":"Ace & Tate","locationSet":{"include":["at","be","ch","de","dk","es","gb","ie","nl","se"]},"geometry":["point","area"],"matchScore":2,"terms":["ace & tate"],"fields":["name","brand","{shop/optician}"],"tags":{"brand:wikidata":"Q110516413","shop":"optician"},"addTags":{"brand":"Ace & Tate","brand:wikidata":"Q110516413","name":"Ace & Tate","shop":"optician"}},"shop/pet/maxizoo-3e2920":{"name":"Maxi Zoo","locationSet":{"include":["be","ch","dk","fr","ie","it","pl"]},"geometry":["point","area"],"matchScore":2,"terms":["maxi zoo"],"tags":{"brand:wikidata":"Q108403242","shop":"pet"},"addTags":{"brand":"Maxi Zoo","brand:wikidata":"Q108403242","name":"Maxi Zoo","shop":"pet"}},"shop/shoes/lloyd-928d17":{"name":"Lloyd","locationSet":{"include":["at","be","cz","de","dk","nl"]},"geometry":["point","area"],"matchScore":2,"terms":["lloyd"],"tags":{"brand:wikidata":"Q1866944","shop":"shoes"},"addTags":{"brand":"Lloyd","brand:wikidata":"Q1866944","name":"Lloyd","shop":"shoes"}},"shop/shoes/omoda-14cd03":{"name":"Omoda","locationSet":{"include":["at","be","de","dk","nl"]},"geometry":["point","area"],"matchScore":2,"terms":["omoda"],"tags":{"brand:wikidata":"Q64139027","shop":"shoes"},"addTags":{"brand":"Omoda","brand:wikidata":"Q64139027","name":"Omoda","shop":"shoes"}},"shop/shoes/skoringen-452c0a":{"name":"Skoringen","locationSet":{"include":["dk","no"]},"geometry":["point","area"],"matchScore":2,"terms":["skoringen"],"fields":["name","brand","{shop/shoes}"],"tags":{"brand:wikidata":"Q12001172","shop":"shoes"},"addTags":{"brand":"Skoringen","brand:wikidata":"Q12001172","name":"Skoringen","shop":"shoes"}},"shop/sports/rapha-e13309":{"name":"Rapha","locationSet":{"include":["au","de","dk","es","gb","hk","jp","kr","nl","tw","us"]},"geometry":["point","area"],"matchScore":2,"terms":["rapha","ラファ"],"tags":{"brand:wikidata":"Q7293931","shop":"sports"},"addTags":{"brand":"Rapha","brand:en":"Rapha","brand:ja":"ラファ","brand:wikidata":"Q7293931","name":"Rapha","name:en":"Rapha","name:ja":"ラファ","shop":"sports","sport":"cycling"}},"shop/sports/sporttiedje-b06acf":{"name":"Sport-Tiedje","locationSet":{"include":["at","be","ch","de","dk","fr","gb","nl","pl"]},"geometry":["point","area"],"matchScore":2,"terms":["sport-tiedje"],"tags":{"brand:wikidata":"Q15848204","shop":"sports"},"addTags":{"brand":"Sport-Tiedje","brand:wikidata":"Q15848204","name":"Sport-Tiedje","shop":"sports"}},"shop/sports/sportmaster-2dd6d1":{"name":"Sportmaster","locationSet":{"include":["dk"]},"geometry":["point","area"],"matchScore":2,"terms":["sportmaster"],"tags":{"brand:wikidata":"Q61062124","shop":"sports"},"addTags":{"brand":"Sportmaster","brand:wikidata":"Q61062124","name":"Sportmaster","shop":"sports"}},"shop/sports/stadium-32e81d":{"name":"Stadium","locationSet":{"include":["de","dk","fi","se"]},"geometry":["point","area"],"matchScore":2,"terms":["stadium","stadium sports store"],"tags":{"brand:wikidata":"Q4993863","shop":"sports"},"addTags":{"brand":"Stadium","brand:wikidata":"Q4993863","name":"Stadium","shop":"sports"}},"shop/storage_rental/shurgardselfstorage-8ba52e":{"name":"Shurgard Self-Storage","locationSet":{"include":["be","de","dk","fr","gb","nl","se"]},"geometry":["point","area"],"matchScore":2,"terms":["shurgard","shurgard storage centers"],"tags":{"brand:wikidata":"Q3482670","shop":"storage_rental"},"addTags":{"brand":"Shurgard","brand:wikidata":"Q3482670","name":"Shurgard Self-Storage","shop":"storage_rental"}},"shop/supermarket/365discount-072052":{"name":"365discount","locationSet":{"include":["dk"]},"geometry":["point","area"],"matchScore":2,"terms":["365discount","coop 365","coop 365discount"],"tags":{"brand:wikidata":"Q104671354","shop":"supermarket"},"addTags":{"brand":"365discount","brand:wikidata":"Q104671354","name":"365discount","shop":"supermarket"}},"shop/supermarket/abclavpris-072052":{"name":"ABC Lavpris","locationSet":{"include":["dk"]},"geometry":["point","area"],"matchScore":2,"terms":["abc lavpris"],"tags":{"brand:wikidata":"Q12300077","shop":"supermarket"},"addTags":{"brand":"ABC Lavpris","brand:wikidata":"Q12300077","name":"ABC Lavpris","shop":"supermarket"}},"shop/supermarket/aldi-be20c9":{"name":"ALDI (ALDI Nord group)","locationSet":{"include":["be","dk","es","fr","lu","nl","pl","pt"]},"geometry":["point","area"],"matchScore":2,"terms":["aldi","aldi france","aldi nord"],"tags":{"brand:wikidata":"Q41171373","shop":"supermarket"},"addTags":{"brand":"ALDI","brand:wikidata":"Q41171373","name":"ALDI","shop":"supermarket"}},"shop/supermarket/bilka-072052":{"name":"Bilka","locationSet":{"include":["dk"]},"geometry":["point","area"],"matchScore":2,"terms":["bilka"],"tags":{"brand:wikidata":"Q861880","shop":"supermarket"},"addTags":{"brand":"Bilka","brand:wikidata":"Q861880","name":"Bilka","shop":"supermarket"}},"shop/supermarket/daglibrugsen-072052":{"name":"Dagli'Brugsen","locationSet":{"include":["dk"]},"geometry":["point","area"],"matchScore":2,"terms":["dagli'brugsen","dagligbrugsen"],"tags":{"brand:wikidata":"Q12307017","shop":"supermarket"},"addTags":{"brand":"Dagli'Brugsen","brand:wikidata":"Q12307017","name":"Dagli'Brugsen","shop":"supermarket"}},"shop/supermarket/eurospar-4b5e11":{"name":"Eurospar","locationSet":{"include":["by","bg","cz","hu","pl","md","ro","ru","sk","ua","ax","gg","je","cq","dk","ee","fo","fi","is","ie","im","lv","lt","no","sj","se","gb","al","ad","ba","hr","gi","gr","va","it","mt","me","mk","pt","sm","rs","si","es","xk","at","be","fr","de","li","lu","mc","nl","ch"]},"geometry":["point","area"],"matchScore":2,"terms":["eurospar"],"tags":{"brand:wikidata":"Q12309283","shop":"supermarket"},"addTags":{"brand":"Eurospar","brand:wikidata":"Q12309283","name":"Eurospar","shop":"supermarket"}},"shop/supermarket/fotex-072052":{"name":"Føtex","locationSet":{"include":["dk"]},"geometry":["point","area"],"matchScore":2,"terms":["foetex","føtex"],"tags":{"brand:wikidata":"Q1480395","shop":"supermarket"},"addTags":{"brand":"Føtex","brand:wikidata":"Q1480395","name":"Føtex","shop":"supermarket"}},"shop/supermarket/irma-072052":{"name":"Irma","locationSet":{"include":["dk"]},"geometry":["point","area"],"matchScore":2,"terms":["irma"],"tags":{"brand:wikidata":"Q797150","shop":"supermarket"},"addTags":{"brand":"Irma","brand:wikidata":"Q797150","name":"Irma","shop":"supermarket"}},"shop/supermarket/kvickly-072052":{"name":"Kvickly","locationSet":{"include":["dk"]},"geometry":["point","area"],"matchScore":2,"terms":["kvickly"],"tags":{"brand:wikidata":"Q7061148","shop":"supermarket"},"addTags":{"brand":"Kvickly","brand:wikidata":"Q7061148","name":"Kvickly","shop":"supermarket"}},"shop/supermarket/lovbjerg-072052":{"name":"Løvbjerg","locationSet":{"include":["dk"]},"geometry":["point","area"],"matchScore":2,"terms":["loevbjerg","løvbjerg"],"tags":{"brand:wikidata":"Q12325422","shop":"supermarket"},"addTags":{"brand":"Løvbjerg","brand:wikidata":"Q12325422","name":"Løvbjerg","shop":"supermarket"}},"shop/supermarket/meny-2b56aa":{"name":"Meny","locationSet":{"include":["dk","no"]},"geometry":["point","area"],"matchScore":2,"terms":["meny"],"fields":["name","brand","{shop/supermarket}"],"tags":{"brand:wikidata":"Q10581720","shop":"supermarket"},"addTags":{"brand":"Meny","brand:wikidata":"Q10581720","name":"Meny","shop":"supermarket"}},"shop/supermarket/minkobmand-072052":{"name":"Min Købmand","locationSet":{"include":["dk"]},"geometry":["point","area"],"matchScore":2,"terms":["min købmand","min koebmand"],"tags":{"brand:wikidata":"Q104310815","shop":"supermarket"},"addTags":{"brand":"Min Købmand","brand:wikidata":"Q104310815","name":"Min Købmand","shop":"supermarket"}},"shop/supermarket/netto-bc67ba":{"name":"Netto (Salling)","locationSet":{"include":["de","dk","pl"]},"geometry":["point","area"],"matchScore":2,"terms":["netto","netto polska"],"tags":{"brand:wikidata":"Q552652","shop":"supermarket"},"addTags":{"brand":"Netto","brand:wikidata":"Q552652","name":"Netto","shop":"supermarket"}},"shop/supermarket/rema1000-2b56aa":{"name":"Rema 1000","locationSet":{"include":["dk","no"]},"geometry":["point","area"],"matchScore":2,"terms":["rema 1000"],"fields":["name","brand","{shop/supermarket}"],"tags":{"brand:wikidata":"Q28459","shop":"supermarket"},"addTags":{"brand":"Rema 1000","brand:wikidata":"Q28459","name":"Rema 1000","shop":"supermarket"}},"shop/supermarket/superbrugsen-072052":{"name":"SuperBrugsen","locationSet":{"include":["dk"]},"geometry":["point","area"],"matchScore":2,"terms":["superbrugsen"],"tags":{"brand:wikidata":"Q12337746","shop":"supermarket"},"addTags":{"brand":"SuperBrugsen","brand:wikidata":"Q12337746","name":"SuperBrugsen","shop":"supermarket"}},"shop/tattoo/veantattoo-eea007":{"name":"VeAn Tattoo","locationSet":{"include":["by","bg","cz","hu","pl","md","ro","ru","sk","ua","ax","gg","je","cq","dk","ee","fo","fi","is","ie","im","lv","lt","no","sj","se","gb","al","ad","ba","hr","gi","gr","va","it","mt","me","mk","pt","sm","rs","si","es","xk","at","be","fr","de","li","lu","mc","nl","ch"]},"geometry":["point","area"],"matchScore":2,"terms":["vean tattoo"],"tags":{"brand:wikidata":"Q116871240","shop":"tattoo"},"addTags":{"brand":"VeAn Tattoo","brand:wikidata":"Q116871240","name":"VeAn Tattoo","shop":"tattoo"}},"shop/ticket/ticketmaster-9f0b74":{"name":"Ticketmaster","locationSet":{"include":["ae","at","au","be","ca","ch","cy","cz","de","dk","es","fi","fr","gb","gr","ie","it","mx","nl","no","nz","pl","se","sg","tr","tw","za"]},"geometry":["point","area"],"matchScore":2,"terms":["live nation","ticketmaster"],"fields":["name","brand","{shop/ticket}"],"tags":{"brand:wikidata":"Q2609162","shop":"ticket"},"addTags":{"brand":"Ticketmaster","brand:wikidata":"Q2609162","name":"Ticketmaster","shop":"ticket"}},"shop/tool_hire/loxam-33fef8":{"name":"Loxam","locationSet":{"include":["ae","be","bh","br","ch","co","cz","de","dk","ee","es","fi","fr","gb","ie","it","kw","lt","lu","lv","ma","nl","no","om","pl","pt","qa","sa","se","sk"]},"geometry":["point","area"],"matchScore":2,"terms":["loxam"],"tags":{"brand:wikidata":"Q3264407","shop":"tool_hire"},"addTags":{"brand":"Loxam","brand:wikidata":"Q3264407","name":"Loxam","shop":"tool_hire"}},"shop/tyres/superdekk-8efefa":{"name":"Super Dekk","locationSet":{"include":["dk","no","se"]},"geometry":["point","area"],"matchScore":2,"terms":["super dekk","super dekk service","super service dekk"],"fields":["name","brand","{shop/tyres}"],"tags":{"brand:wikidata":"Q120765135","shop":"tyres"},"addTags":{"brand":"Super Dekk","brand:wikidata":"Q120765135","name":"Super Dekk","shop":"tyres"}},"shop/variety_store/flyingtigercopenhagen-55ef00":{"name":"Flying Tiger Copenhagen","locationSet":{"include":["at","be","ch","cy","cz","de","dk","ee","es","fi","fr","gb","gr","hu","ie","il","is","it","jp","kr","lt","lv","mt","nl","no","pl","pt","se","sk"]},"geometry":["point","area"],"matchScore":2,"terms":["flying tiger","flying tiger copenhagen","tgr","tiger"],"tags":{"brand:wikidata":"Q2786319","shop":"variety_store"},"addTags":{"brand":"Flying Tiger Copenhagen","brand:wikidata":"Q2786319","name":"Flying Tiger Copenhagen","shop":"variety_store","short_name":"Flying Tiger"}},"tourism/hostel/aando-a930a5":{"name":"A&O","locationSet":{"include":["at","cz","de","dk","gb","hu","it","nl","pl"]},"geometry":["point","area"],"matchScore":2,"terms":["a&o"],"fields":["name","brand","{tourism/hostel}"],"tags":{"brand:wikidata":"Q15890910","tourism":"hostel"},"addTags":{"brand":"A&O","brand:wikidata":"Q15890910","name":"A&O","tourism":"hostel"}},"tourism/hotel/aando-7ebc01":{"name":"A&O","locationSet":{"include":["at","cz","de","dk","gb","hu","it","nl","pl"]},"geometry":["point","area"],"matchScore":2,"terms":["a&o"],"fields":["name","brand","{tourism/hotel}"],"tags":{"brand:wikidata":"Q15890910","tourism":"hotel"},"addTags":{"brand":"A&O","brand:wikidata":"Q15890910","name":"A&O","tourism":"hotel"}},"tourism/hotel/adinaapartmenthotel-a6b67a":{"name":"Adina Hotels","locationSet":{"include":["at","au","ch","de","dk","hu","nz","sg"]},"geometry":["point","area"],"matchScore":2,"terms":["adina","adina hotels"],"fields":["name","brand","{tourism/hotel}"],"tags":{"brand:wikidata":"Q50406079","tourism":"hotel"},"addTags":{"brand":"Adina Hotels","brand:wikidata":"Q50406079","name":"Adina Apartment Hotel","tourism":"hotel"}},"tourism/hotel/bandbhotel-fc8c2c":{"name":"B&B Hotel","locationSet":{"include":["by","bg","cz","hu","pl","md","ro","ru","sk","ua","ax","gg","je","cq","dk","ee","fo","fi","is","ie","im","lv","lt","no","sj","se","gb","al","ad","ba","hr","gi","gr","va","it","mt","me","mk","pt","sm","rs","si","es","xk","at","be","fr","de","li","lu","mc","nl","ch","br"]},"geometry":["point","area"],"matchScore":2,"terms":["b&b hotels"],"fields":["name","brand","{tourism/hotel}"],"tags":{"brand:wikidata":"Q794939","tourism":"hotel"},"addTags":{"brand":"B&B Hotels","brand:wikidata":"Q794939","name":"B&B Hotel","tourism":"hotel"}},"tourism/hotel/citizenm-b4d29c":{"name":"citizenM","locationSet":{"include":["ch","dk","fr","gb","it","my","nl","tw","us"]},"geometry":["point","area"],"matchScore":2,"terms":["citizenm"],"fields":["name","brand","{tourism/hotel}"],"tags":{"brand:wikidata":"Q5122531","tourism":"hotel"},"addTags":{"brand":"citizenM","brand:wikidata":"Q5122531","name":"citizenM","tourism":"hotel"}},"tourism/hotel/clarion-f371eb":{"name":"Clarion","locationSet":{"include":["dk","fi","no","se","us"]},"geometry":["point","area"],"matchScore":2,"terms":["clarion"],"fields":["name","brand","{tourism/hotel}"],"tags":{"brand:wikidata":"Q10454567","tourism":"hotel"},"addTags":{"brand":"Clarion","brand:wikidata":"Q10454567","name":"Clarion","tourism":"hotel"}},"tourism/hotel/firsthotels-ed076a":{"name":"First Hotels","locationSet":{"include":["dk","no","se"]},"geometry":["point","area"],"matchScore":2,"terms":["first hotels"],"fields":["name","brand","{tourism/hotel}"],"tags":{"brand:wikidata":"Q11969007","tourism":"hotel"},"addTags":{"brand":"First Hotels","brand:wikidata":"Q11969007","tourism":"hotel"}},"tourism/hotel/greet-046fe6":{"name":"greet","locationSet":{"include":["by","bg","cz","hu","pl","md","ro","ru","sk","ua","ax","gg","je","cq","dk","ee","fo","fi","is","ie","im","lv","lt","no","sj","se","gb","al","ad","ba","hr","gi","gr","va","it","mt","me","mk","pt","sm","rs","si","es","xk","at","be","fr","de","li","lu","mc","nl","ch"]},"geometry":["point","area"],"matchScore":2,"terms":["greet"],"fields":["name","brand","{tourism/hotel}"],"tags":{"brand:wikidata":"Q115489066","tourism":"hotel"},"addTags":{"brand":"greet","brand:wikidata":"Q115489066","name":"Greet","tourism":"hotel"}},"tourism/hotel/motelone-1fc1b4":{"name":"Motel One","locationSet":{"include":["by","bg","cz","hu","pl","md","ro","ru","sk","ua","ax","gg","je","cq","dk","ee","fo","fi","is","ie","im","lv","lt","no","sj","se","gb","al","ad","ba","hr","gi","gr","va","it","mt","me","mk","pt","sm","rs","si","es","xk","at","be","fr","de","li","lu","mc","nl","ch","us-ny"]},"geometry":["point","area"],"matchScore":2,"terms":["motel one"],"fields":["name","brand","{tourism/hotel}"],"tags":{"brand:wikidata":"Q391080","tourism":"hotel"},"addTags":{"brand":"Motel One","brand:wikidata":"Q391080","name":"Motel One","tourism":"hotel"}},"tourism/hotel/nhcollectionhotels-f05c75":{"name":"NH Collection Hotels","locationSet":{"include":["ad","ar","at","be","cl","co","cu","cz","de","dk","ec","es","fr","hu","it","mx","nl","pt","qa","us-ny"]},"geometry":["point","area"],"matchScore":2,"terms":["nh collection hotels"],"fields":["name","brand","{tourism/hotel}"],"tags":{"brand:wikidata":"Q1604631","tourism":"hotel"},"addTags":{"brand":"NH Collection Hotels","brand:wikidata":"Q1604631","name":"NH Collection Hotels","tourism":"hotel"}},"tourism/hotel/scandichotels-f8f452":{"name":"Scandic Hotels","locationSet":{"include":["de","dk","fi","no","pl","se"]},"geometry":["point","area"],"matchScore":2,"terms":["scandic hotels"],"fields":["name","brand","{tourism/hotel}"],"tags":{"brand:wikidata":"Q129391","tourism":"hotel"},"addTags":{"brand":"Scandic Hotels","brand:wikidata":"Q129391","name":"Scandic Hotels","tourism":"hotel"}},"tourism/hotel/zleephotels-d726c7":{"name":"Zleep Hotel","locationSet":{"include":["ch","cz","de","dk","es","se"]},"geometry":["point","area"],"matchScore":2,"terms":["zleep hotels"],"fields":["name","brand","{tourism/hotel}"],"tags":{"brand:wikidata":"Q16325118","tourism":"hotel"},"addTags":{"brand":"Zleep Hotels","brand:wikidata":"Q16325118","name":"Zleep Hotels","tourism":"hotel"}},"tourism/theme_park/legoland-744610":{"name":"LEGOLAND","locationSet":{"include":["ae","de","dk","gb","jp","kr","my","us"]},"geometry":["point","area"],"matchScore":2,"terms":["legoland","merlin entertainments"],"fields":["name","brand","{tourism/theme_park}"],"tags":{"brand:wikidata":"Q253302","tourism":"theme_park"},"addTags":{"brand":"LEGOLAND","brand:wikidata":"Q253302","name":"LEGOLAND","operator":"Merlin Entertainments","operator:wikidata":"Q573278","tourism":"theme_park"}},"amenity/car_sharing/sharenow-663d52":{"name":"Share Now","locationSet":{"include":["at","de","dk","fx","it","nl"]},"geometry":["point","area"],"matchScore":2,"terms":["share now"],"tags":{"amenity":"car_sharing","operator:wikidata":"Q62021602"},"addTags":{"amenity":"car_sharing","operator":"Share Now","operator:wikidata":"Q62021602"}},"amenity/charging_station/daemobil-ff4fbd":{"name":"da emobil","locationSet":{"include":["at","ch","de","dk","fr","gb","hu","ie","it"]},"geometry":["point","vertex","area"],"matchScore":2,"terms":["da emobil"],"fields":["name","operator","{amenity/charging_station}"],"tags":{"amenity":"charging_station","operator:wikidata":"Q114946167"},"addTags":{"amenity":"charging_station","operator":"da emobil","operator:wikidata":"Q114946167"}},"amenity/charging_station/eon-7f623e":{"name":"E.ON","locationSet":{"include":["by","bg","cz","hu","pl","md","ro","ru","sk","ua","ax","gg","je","cq","dk","ee","fo","fi","is","ie","im","lv","lt","no","sj","se","gb","al","ad","ba","hr","gi","gr","va","it","mt","me","mk","pt","sm","rs","si","es","xk","at","be","fr","de","li","lu","mc","nl","ch"]},"geometry":["point","vertex","area"],"matchScore":2,"terms":["e-on drive","e.on"],"fields":["name","operator","{amenity/charging_station}"],"tags":{"amenity":"charging_station","operator:wikidata":"Q270223"},"addTags":{"amenity":"charging_station","operator":"E.ON","operator:wikidata":"Q270223"}},"amenity/charging_station/ee4mobileeg-0c60c5":{"name":"eE4mobile eG","locationSet":{"include":["de","dk"]},"geometry":["point","vertex","area"],"matchScore":2,"terms":["ee4mobile eg"],"fields":["name","operator","{amenity/charging_station}"],"tags":{"amenity":"charging_station","operator:wikidata":"Q74642561"},"addTags":{"amenity":"charging_station","operator":"eE4mobile eG","operator:wikidata":"Q74642561"}},"amenity/charging_station/evbox-7f623e":{"name":"EVBox","locationSet":{"include":["by","bg","cz","hu","pl","md","ro","ru","sk","ua","ax","gg","je","cq","dk","ee","fo","fi","is","ie","im","lv","lt","no","sj","se","gb","al","ad","ba","hr","gi","gr","va","it","mt","me","mk","pt","sm","rs","si","es","xk","at","be","fr","de","li","lu","mc","nl","ch"]},"geometry":["point","vertex","area"],"matchScore":2,"terms":["evbox"],"fields":["name","operator","{amenity/charging_station}"],"tags":{"amenity":"charging_station","operator:wikidata":"Q28406392"},"addTags":{"amenity":"charging_station","operator":"EVBox","operator:wikidata":"Q28406392"}},"amenity/charging_station/norlys-7d9e8e":{"name":"Norlys","locationSet":{"include":["dk"]},"geometry":["point","vertex","area"],"matchScore":2,"terms":["norlys"],"fields":["name","operator","{amenity/charging_station}"],"tags":{"amenity":"charging_station","operator:wikidata":"Q113466110"},"addTags":{"amenity":"charging_station","operator":"Norlys","operator:wikidata":"Q113466110"}},"amenity/charging_station/qpark-7f623e":{"name":"Q-Park","locationSet":{"include":["by","bg","cz","hu","pl","md","ro","ru","sk","ua","ax","gg","je","cq","dk","ee","fo","fi","is","ie","im","lv","lt","no","sj","se","gb","al","ad","ba","hr","gi","gr","va","it","mt","me","mk","pt","sm","rs","si","es","xk","at","be","fr","de","li","lu","mc","nl","ch"]},"geometry":["point","vertex","area"],"matchScore":2,"terms":["q-park"],"fields":["name","operator","{amenity/charging_station}"],"tags":{"amenity":"charging_station","operator:wikidata":"Q1127798"},"addTags":{"amenity":"charging_station","operator":"Q-Park","operator:wikidata":"Q1127798"}},"amenity/clinic/capio-5b16c3":{"name":"Capio","locationSet":{"include":["dk","fx","no","se"]},"geometry":["point","area"],"matchScore":2,"terms":["capio"],"fields":["name","operator","{amenity/clinic}"],"reference":{"key":"amenity","value":"clinic"},"tags":{"amenity":"clinic","operator:wikidata":"Q498606"},"addTags":{"amenity":"clinic","healthcare":"clinic","operator":"Capio","operator:wikidata":"Q498606"}},"amenity/hospital/capio-ee5a4b":{"name":"Capio","locationSet":{"include":["de","dk","fx","no","se"]},"geometry":["area","point"],"matchScore":2,"terms":["capio"],"fields":["name","operator","{amenity/hospital}"],"reference":{"key":"amenity","value":"hospital"},"tags":{"amenity":"hospital","operator:wikidata":"Q498606"},"addTags":{"amenity":"hospital","healthcare":"hospital","operator":"Capio","operator:wikidata":"Q498606"}},"amenity/parking/apcoaparking-e752ad":{"name":"Apcoa Parking","locationSet":{"include":["at","be","ch","de","dk","gb","ie","it","nl","no","pl","se"]},"geometry":["area","point","vertex"],"matchScore":2,"terms":["apcoa","apcoa parking"],"fields":["name","operator","{amenity/parking}"],"tags":{"amenity":"parking","operator:wikidata":"Q296108"},"addTags":{"amenity":"parking","operator":"APCOA Parking","operator:wikidata":"Q296108"}},"amenity/parking/qpark-99dc74":{"name":"Q-Park","locationSet":{"include":["be","de","dk","fr","gb","ie","nl"]},"geometry":["area","point","vertex"],"matchScore":2,"terms":["q-park"],"fields":["name","operator","{amenity/parking}"],"tags":{"amenity":"parking","operator:wikidata":"Q1127798"},"addTags":{"amenity":"parking","brand":"Q-Park","brand:wikidata":"Q1127798","fee":"yes","operator":"Q-Park","operator:wikidata":"Q1127798"}},"amenity/post_box/postdanmark-8e57c0":{"name":"Post Danmark","locationSet":{"include":["dk"]},"geometry":["point","vertex"],"matchScore":2,"terms":["post danmark"],"tags":{"amenity":"post_box","operator:wikidata":"Q1334647"},"addTags":{"amenity":"post_box","operator":"Post Danmark","operator:wikidata":"Q1334647"}},"amenity/post_box/postnord-90fe7c":{"name":"PostNord","locationSet":{"include":["dk","se"]},"geometry":["point","vertex"],"matchScore":2,"terms":["postnord","postnord ab"],"tags":{"amenity":"post_box","operator:wikidata":"Q3181430"},"addTags":{"amenity":"post_box","operator":"PostNord","operator:wikidata":"Q3181430"}},"amenity/post_office/postdanmark-6dc1f9":{"name":"Post Danmark","locationSet":{"include":["dk"]},"geometry":["point","area"],"matchScore":2,"terms":["post danmark"],"fields":["name","operator","{amenity/post_office}"],"tags":{"amenity":"post_office","operator:wikidata":"Q1334647"},"addTags":{"amenity":"post_office","operator":"Post Danmark","operator:wikidata":"Q1334647"}},"amenity/post_office/postnord-85beed":{"name":"PostNord","locationSet":{"include":["dk","se"]},"geometry":["point","area"],"matchScore":2,"terms":["postnord","postnord ab"],"fields":["name","operator","{amenity/post_office}"],"tags":{"amenity":"post_office","operator:wikidata":"Q3181430"},"addTags":{"amenity":"post_office","operator":"PostNord","operator:wikidata":"Q3181430"}},"amenity/recycling/danskrodekors-67373b":{"name":"Dansk Røde Kors","locationSet":{"include":["dk"]},"geometry":["point","area"],"matchScore":2,"terms":["dansk røde kors","røde kors"],"tags":{"amenity":"recycling","operator:wikidata":"Q12307527"},"addTags":{"amenity":"recycling","operator":"Dansk Røde Kors","operator:wikidata":"Q12307527"}},"amenity/recycling/remondis-222d99":{"name":"REMONDIS","locationSet":{"include":["by","bg","cz","hu","pl","md","ro","ru","sk","ua","ax","gg","je","cq","dk","ee","fo","fi","is","ie","im","lv","lt","no","sj","se","gb","al","ad","ba","hr","gi","gr","va","it","mt","me","mk","pt","sm","rs","si","es","xk","at","be","fr","de","li","lu","mc","nl","ch"]},"geometry":["point","area"],"matchScore":2,"terms":["remondis"],"tags":{"amenity":"recycling","operator:wikidata":"Q884975"},"addTags":{"amenity":"recycling","operator":"REMONDIS","operator:wikidata":"Q884975"}},"amenity/social_facility/kirkenskorshaer-18f4fe":{"name":"Kirkens Korshær","locationSet":{"include":["dk"]},"geometry":["point","area"],"matchScore":2,"terms":["kirkens korshær"],"tags":{"amenity":"social_facility","operator:wikidata":"Q12321915"},"addTags":{"amenity":"social_facility","operator":"Kirkens Korshær","operator:wikidata":"Q12321915"}},"man_made/charge_point/daemobil-319d1e":{"name":"da emobil","locationSet":{"include":["at","ch","de","dk","fr","gb","hu","ie","it"]},"geometry":["point"],"matchScore":2,"terms":["da emobil"],"fields":["name","operator","{man_made/charge_point}"],"tags":{"man_made":"charge_point","operator:wikidata":"Q114946167"},"addTags":{"man_made":"charge_point","operator":"da emobil","operator:wikidata":"Q114946167"}},"man_made/charge_point/eon-22bfb3":{"name":"E.ON","locationSet":{"include":["by","bg","cz","hu","pl","md","ro","ru","sk","ua","ax","gg","je","cq","dk","ee","fo","fi","is","ie","im","lv","lt","no","sj","se","gb","al","ad","ba","hr","gi","gr","va","it","mt","me","mk","pt","sm","rs","si","es","xk","at","be","fr","de","li","lu","mc","nl","ch"]},"geometry":["point"],"matchScore":2,"terms":["e-on drive","e.on"],"fields":["name","operator","{man_made/charge_point}"],"tags":{"man_made":"charge_point","operator:wikidata":"Q270223"},"addTags":{"man_made":"charge_point","operator":"E.ON","operator:wikidata":"Q270223"}},"man_made/charge_point/ee4mobileeg-8cbe12":{"name":"eE4mobile eG","locationSet":{"include":["de","dk"]},"geometry":["point"],"matchScore":2,"terms":["ee4mobile eg"],"fields":["name","operator","{man_made/charge_point}"],"tags":{"man_made":"charge_point","operator:wikidata":"Q74642561"},"addTags":{"man_made":"charge_point","operator":"eE4mobile eG","operator:wikidata":"Q74642561"}},"man_made/charge_point/evbox-22bfb3":{"name":"EVBox","locationSet":{"include":["by","bg","cz","hu","pl","md","ro","ru","sk","ua","ax","gg","je","cq","dk","ee","fo","fi","is","ie","im","lv","lt","no","sj","se","gb","al","ad","ba","hr","gi","gr","va","it","mt","me","mk","pt","sm","rs","si","es","xk","at","be","fr","de","li","lu","mc","nl","ch"]},"geometry":["point"],"matchScore":2,"terms":["evbox"],"fields":["name","operator","{man_made/charge_point}"],"tags":{"man_made":"charge_point","operator:wikidata":"Q28406392"},"addTags":{"man_made":"charge_point","operator":"EVBox","operator:wikidata":"Q28406392"}},"man_made/charge_point/norlys-b5d24c":{"name":"Norlys","locationSet":{"include":["dk"]},"geometry":["point"],"matchScore":2,"terms":["norlys"],"fields":["name","operator","{man_made/charge_point}"],"tags":{"man_made":"charge_point","operator:wikidata":"Q113466110"},"addTags":{"man_made":"charge_point","operator":"Norlys","operator:wikidata":"Q113466110"}},"man_made/charge_point/qpark-22bfb3":{"name":"Q-Park","locationSet":{"include":["by","bg","cz","hu","pl","md","ro","ru","sk","ua","ax","gg","je","cq","dk","ee","fo","fi","is","ie","im","lv","lt","no","sj","se","gb","al","ad","ba","hr","gi","gr","va","it","mt","me","mk","pt","sm","rs","si","es","xk","at","be","fr","de","li","lu","mc","nl","ch"]},"geometry":["point"],"matchScore":2,"terms":["q-park"],"fields":["name","operator","{man_made/charge_point}"],"tags":{"man_made":"charge_point","operator:wikidata":"Q1127798"},"addTags":{"man_made":"charge_point","operator":"Q-Park","operator:wikidata":"Q1127798"}},"man_made/surveillance/aldi-8fc224":{"name":"ALDI (ALDI Nord group)","locationSet":{"include":["be","dk","es","fr","lu","nl","pl","pt"]},"geometry":["point","vertex"],"matchScore":2,"terms":["aldi","aldi france","aldi nord"],"tags":{"man_made":"surveillance","operator:wikidata":"Q41171373"},"addTags":{"man_made":"surveillance","operator":"ALDI","operator:wikidata":"Q41171373"}},"power/catenary_mast/banedanmark-4800c7":{"name":"Banedanmark","locationSet":{"include":["dk"]},"geometry":["point","vertex"],"matchScore":2,"terms":["banedanmark"],"tags":{"operator:wikidata":"Q806420","power":"catenary_mast"},"addTags":{"operator":"Banedanmark","operator:wikidata":"Q806420","power":"catenary_mast"}},"power/generator/aldi-0f3159":{"name":"ALDI (ALDI Nord group)","locationSet":{"include":["be","dk","es","fr","lu","nl","pl","pt"]},"geometry":["point","vertex","area"],"matchScore":2,"terms":["aldi","aldi france","aldi nord"],"tags":{"operator:wikidata":"Q41171373","power":"generator"},"addTags":{"operator":"ALDI","operator:wikidata":"Q41171373","power":"generator"}},"power/generator/innogy-16c9d0":{"name":"Innogy","locationSet":{"include":["by","bg","cz","hu","pl","md","ro","ru","sk","ua","ax","gg","je","cq","dk","ee","fo","fi","is","ie","im","lv","lt","no","sj","se","gb","al","ad","ba","hr","gi","gr","va","it","mt","me","mk","pt","sm","rs","si","es","xk","at","be","fr","de","li","lu","mc","nl","ch"]},"geometry":["point","vertex","area"],"matchScore":2,"terms":["innogy"],"tags":{"operator:wikidata":"Q2124721","power":"generator"},"addTags":{"operator":"Innogy","operator:wikidata":"Q2124721","power":"generator"}},"power/generator/rwe-16c9d0":{"name":"RWE","locationSet":{"include":["by","bg","cz","hu","pl","md","ro","ru","sk","ua","ax","gg","je","cq","dk","ee","fo","fi","is","ie","im","lv","lt","no","sj","se","gb","al","ad","ba","hr","gi","gr","va","it","mt","me","mk","pt","sm","rs","si","es","xk","at","be","fr","de","li","lu","mc","nl","ch"]},"geometry":["point","vertex","area"],"matchScore":2,"terms":["rwe"],"tags":{"operator:wikidata":"Q138133","power":"generator"},"addTags":{"operator":"RWE","operator:wikidata":"Q138133","power":"generator"}},"power/generator/statkraft-16c9d0":{"name":"Statkraft","locationSet":{"include":["by","bg","cz","hu","pl","md","ro","ru","sk","ua","ax","gg","je","cq","dk","ee","fo","fi","is","ie","im","lv","lt","no","sj","se","gb","al","ad","ba","hr","gi","gr","va","it","mt","me","mk","pt","sm","rs","si","es","xk","at","be","fr","de","li","lu","mc","nl","ch"]},"geometry":["point","vertex","area"],"matchScore":2,"terms":["statkraft"],"tags":{"operator:wikidata":"Q1681145","power":"generator"},"addTags":{"operator":"Statkraft","operator:wikidata":"Q1681145","power":"generator"}},"power/generator/uniper-16c9d0":{"name":"Uniper","locationSet":{"include":["by","bg","cz","hu","pl","md","ro","ru","sk","ua","ax","gg","je","cq","dk","ee","fo","fi","is","ie","im","lv","lt","no","sj","se","gb","al","ad","ba","hr","gi","gr","va","it","mt","me","mk","pt","sm","rs","si","es","xk","at","be","fr","de","li","lu","mc","nl","ch"]},"geometry":["point","vertex","area"],"matchScore":2,"terms":["uniper"],"tags":{"operator:wikidata":"Q19839259","power":"generator"},"addTags":{"operator":"Uniper","operator:wikidata":"Q19839259","power":"generator"}},"power/generator/wpo-16c9d0":{"name":"WPO","locationSet":{"include":["by","bg","cz","hu","pl","md","ro","ru","sk","ua","ax","gg","je","cq","dk","ee","fo","fi","is","ie","im","lv","lt","no","sj","se","gb","al","ad","ba","hr","gi","gr","va","it","mt","me","mk","pt","sm","rs","si","es","xk","at","be","fr","de","li","lu","mc","nl","ch"]},"geometry":["point","vertex","area"],"matchScore":2,"terms":["wpo"],"tags":{"operator:wikidata":"Q64755627","power":"generator"},"addTags":{"operator":"WPO","operator:wikidata":"Q64755627","power":"generator"}},"power/line/energinet-b29599":{"name":"Energinet","locationSet":{"include":["dk"]},"geometry":["line"],"matchScore":2,"terms":["energinet","energinet.dk"],"tags":{"operator:wikidata":"Q1341529","power":"line"},"addTags":{"operator":"Energinet","operator:wikidata":"Q1341529","power":"line"}},"power/minor_line/energinet-dd0e35":{"name":"Energinet","locationSet":{"include":["dk"]},"geometry":["line"],"matchScore":2,"terms":["energinet","energinet.dk"],"tags":{"operator:wikidata":"Q1341529","power":"minor_line"},"addTags":{"operator":"Energinet","operator:wikidata":"Q1341529","power":"minor_line"}},"power/plant/orsted-67f0f6":{"name":"Ørsted","locationSet":{"include":["de","dk","gb","nl","se","us"]},"geometry":["area"],"matchScore":2,"terms":["ørsted"],"tags":{"operator:wikidata":"Q1241260","power":"plant"},"addTags":{"operator":"Ørsted","operator:wikidata":"Q1241260","power":"plant"}},"power/plant/vattenfall-482654":{"name":"Vattenfall","locationSet":{"include":["dk","fi","gb","nl","pl","se"]},"geometry":["area"],"matchScore":2,"terms":["vattenfall","vattenfall ab"],"tags":{"operator:wikidata":"Q157675","power":"plant"},"addTags":{"operator":"Vattenfall","operator:wikidata":"Q157675","power":"plant"}},"power/pole/energinet-677094":{"name":"Energinet","locationSet":{"include":["dk"]},"geometry":["point","vertex"],"matchScore":2,"terms":["energinet","energinet.dk"],"tags":{"operator:wikidata":"Q1341529","power":"pole"},"addTags":{"operator":"Energinet","operator:wikidata":"Q1341529","power":"pole"}},"power/substation/banedanmark-3aeb55":{"name":"Banedanmark","locationSet":{"include":["dk"]},"geometry":["area","point"],"matchScore":2,"terms":["banedanmark"],"tags":{"operator:wikidata":"Q806420","power":"substation"},"addTags":{"operator":"Banedanmark","operator:wikidata":"Q806420","power":"substation"}},"power/substation/energimidt-3aeb55":{"name":"EnergiMidt","locationSet":{"include":["dk"]},"geometry":["area","point"],"matchScore":2,"terms":["energimidt"],"tags":{"operator:wikidata":"Q12310093","power":"substation"},"addTags":{"operator":"EnergiMidt","operator:wikidata":"Q12310093","power":"substation"}},"power/substation/energinet-3aeb55":{"name":"Energinet","locationSet":{"include":["dk"]},"geometry":["area","point"],"matchScore":2,"terms":["energinet","energinet.dk"],"tags":{"operator:wikidata":"Q1341529","power":"substation"},"addTags":{"operator":"Energinet","operator:wikidata":"Q1341529","power":"substation"}},"power/substation/europeanenergy-3aeb55":{"name":"European Energy","locationSet":{"include":["dk"]},"geometry":["area","point"],"matchScore":2,"terms":["european energy"],"tags":{"operator:wikidata":"Q66325802","power":"substation"},"addTags":{"operator":"European Energy","operator:wikidata":"Q66325802","power":"substation"}},"power/substation/verdo-3aeb55":{"name":"Verdo","locationSet":{"include":["dk"]},"geometry":["area","point"],"matchScore":2,"terms":["verdo"],"tags":{"operator:wikidata":"Q12343812","power":"substation"},"addTags":{"operator":"Verdo","operator:wikidata":"Q12343812","power":"substation"}},"power/tower/energinet-8ed41d":{"name":"Energinet","locationSet":{"include":["dk"]},"geometry":["point","vertex"],"matchScore":2,"terms":["energinet","energinet.dk"],"tags":{"operator:wikidata":"Q1341529","power":"tower"},"addTags":{"operator":"Energinet","operator:wikidata":"Q1341529","power":"tower"}},"power/transformer/banedanmark-694f23":{"name":"Banedanmark","locationSet":{"include":["dk"]},"geometry":["point","vertex"],"matchScore":2,"terms":["banedanmark"],"tags":{"operator:wikidata":"Q806420","power":"transformer"},"addTags":{"operator":"Banedanmark","operator:wikidata":"Q806420","power":"transformer"}},"power/transformer/energimidt-694f23":{"name":"EnergiMidt","locationSet":{"include":["dk"]},"geometry":["point","vertex"],"matchScore":2,"terms":["energimidt"],"tags":{"operator:wikidata":"Q12310093","power":"transformer"},"addTags":{"operator":"EnergiMidt","operator:wikidata":"Q12310093","power":"transformer"}},"power/transformer/energinet-694f23":{"name":"Energinet","locationSet":{"include":["dk"]},"geometry":["point","vertex"],"matchScore":2,"terms":["energinet","energinet.dk"],"tags":{"operator:wikidata":"Q1341529","power":"transformer"},"addTags":{"operator":"Energinet","operator:wikidata":"Q1341529","power":"transformer"}},"power/transformer/europeanenergy-694f23":{"name":"European Energy","locationSet":{"include":["dk"]},"geometry":["point","vertex"],"matchScore":2,"terms":["european energy"],"tags":{"operator:wikidata":"Q66325802","power":"transformer"},"addTags":{"operator":"European Energy","operator:wikidata":"Q66325802","power":"transformer"}},"power/transformer/verdo-694f23":{"name":"Verdo","locationSet":{"include":["dk"]},"geometry":["point","vertex"],"matchScore":2,"terms":["verdo"],"tags":{"operator:wikidata":"Q12343812","power":"transformer"},"addTags":{"operator":"Verdo","operator:wikidata":"Q12343812","power":"transformer"}},"type/route/power/energinet-0da34c":{"name":"Energinet","locationSet":{"include":["dk"]},"geometry":["relation"],"matchScore":2,"terms":["energinet","energinet.dk"],"reference":{"key":"route","value":"power"},"tags":{"operator:wikidata":"Q1341529","route":"power","type":"route"},"addTags":{"operator":"Energinet","operator:wikidata":"Q1341529","route":"power","type":"route"}},"type/route/railway/banedanmark-8a3339":{"name":"Banedanmark","locationSet":{"include":["dk"]},"geometry":["relation"],"matchScore":2,"terms":["banedanmark"],"reference":{"key":"route","value":"railway"},"tags":{"operator:wikidata":"Q806420","route":"railway","type":"route"},"addTags":{"operator":"Banedanmark","operator:wikidata":"Q806420","route":"railway","type":"route"}},"telecom/exchange/interoute-58ec5d":{"name":"Interoute","locationSet":{"include":["by","bg","cz","hu","pl","md","ro","ru","sk","ua","ax","gg","je","cq","dk","ee","fo","fi","is","ie","im","lv","lt","no","sj","se","gb","al","ad","ba","hr","gi","gr","va","it","mt","me","mk","pt","sm","rs","si","es","xk","at","be","fr","de","li","lu","mc","nl","ch"]},"geometry":["point","area"],"matchScore":2,"terms":["interoute"],"fields":["name","operator","{telecom/exchange}"],"tags":{"operator:wikidata":"Q1668090","telecom":"exchange"},"addTags":{"operator":"Interoute","operator:wikidata":"Q1668090","telecom":"exchange"}},"telecom/exchange/tdcnet-1044e2":{"name":"TDC NET","locationSet":{"include":["dk"]},"geometry":["point","area"],"matchScore":2,"terms":["tdc net"],"fields":["name","operator","{telecom/exchange}"],"tags":{"operator:wikidata":"Q110892227","telecom":"exchange"},"addTags":{"operator":"TDC NET","operator:wikidata":"Q110892227","telecom":"exchange"}},"public_transport/platform/bus_point/bat-4ddcc2":{"name":"BAT (Bornholm)","locationSet":{"include":["dk"]},"geometry":["point","vertex"],"matchScore":2,"terms":["bat"],"reference":{"key":"public_transport","value":"platform"},"tags":{"bus":"yes","network:wikidata":"Q97577976","public_transport":"platform"},"addTags":{"bus":"yes","highway":"bus_stop","network":"BAT","network:wikidata":"Q97577976","public_transport":"platform"}},"public_transport/platform/bus_point/flixbus-f5b4b3":{"name":"Flixbus","locationSet":{"include":["by","bg","cz","hu","pl","md","ro","ru","sk","ua","ax","gg","je","cq","dk","ee","fo","fi","is","ie","im","lv","lt","no","sj","se","gb","al","ad","ba","hr","gi","gr","va","it","mt","me","mk","pt","sm","rs","si","es","xk","at","be","fr","de","li","lu","mc","nl","ch","br","ca","us"]},"geometry":["point","vertex"],"matchScore":2,"terms":["flixbus"],"reference":{"key":"public_transport","value":"platform"},"tags":{"bus":"yes","network:wikidata":"Q15712258","public_transport":"platform"},"addTags":{"bus":"yes","highway":"bus_stop","network":"Flixbus","network:wikidata":"Q15712258","public_transport":"platform"}},"public_transport/platform/bus_point/fynbus-4ddcc2":{"name":"FynBus","locationSet":{"include":["dk"]},"geometry":["point","vertex"],"matchScore":2,"terms":["fynbus"],"reference":{"key":"public_transport","value":"platform"},"tags":{"bus":"yes","network:wikidata":"Q12313224","public_transport":"platform"},"addTags":{"bus":"yes","highway":"bus_stop","network":"FynBus","network:wikidata":"Q12313224","public_transport":"platform"}},"public_transport/platform/bus_point/midttrafik-4ddcc2":{"name":"Midttrafik","locationSet":{"include":["dk"]},"geometry":["point","vertex"],"matchScore":2,"terms":["midttrafik"],"reference":{"key":"public_transport","value":"platform"},"tags":{"bus":"yes","network:wikidata":"Q12327094","public_transport":"platform"},"addTags":{"bus":"yes","highway":"bus_stop","network":"Midttrafik","network:wikidata":"Q12327094","public_transport":"platform"}},"public_transport/platform/bus_point/movia-4ddcc2":{"name":"Movia","locationSet":{"include":["dk"]},"geometry":["point","vertex"],"matchScore":2,"terms":["movia"],"reference":{"key":"public_transport","value":"platform"},"tags":{"bus":"yes","network:wikidata":"Q3359392","public_transport":"platform"},"addTags":{"bus":"yes","highway":"bus_stop","network":"Movia","network:wikidata":"Q3359392","public_transport":"platform"}},"public_transport/platform/bus_point/nordjyllandstrafikselskab-4ddcc2":{"name":"Nordjyllands Trafikselskab","locationSet":{"include":["dk"]},"geometry":["point","vertex"],"matchScore":2,"terms":["nordjyllands trafikselskab"],"reference":{"key":"public_transport","value":"platform"},"tags":{"bus":"yes","network:wikidata":"Q3246599","public_transport":"platform"},"addTags":{"bus":"yes","highway":"bus_stop","network":"Nordjyllands Trafikselskab","network:wikidata":"Q3246599","public_transport":"platform"}},"public_transport/platform/bus_point/sydtrafik-4ddcc2":{"name":"Sydtrafik","locationSet":{"include":["dk"]},"geometry":["point","vertex"],"matchScore":2,"terms":["sydtrafik"],"reference":{"key":"public_transport","value":"platform"},"tags":{"bus":"yes","network:wikidata":"Q12338112","public_transport":"platform"},"addTags":{"bus":"yes","highway":"bus_stop","network":"Sydtrafik","network:wikidata":"Q12338112","public_transport":"platform"}},"railway/station/eurocity-170b77":{"name":"EuroCity","locationSet":{"include":["by","bg","cz","hu","pl","md","ro","ru","sk","ua","ax","gg","je","cq","dk","ee","fo","fi","is","ie","im","lv","lt","no","sj","se","gb","al","ad","ba","hr","gi","gr","va","it","mt","me","mk","pt","sm","rs","si","es","xk","at","be","fr","de","li","lu","mc","nl","ch"]},"geometry":["point","vertex","area"],"matchScore":2,"terms":["eurocity"],"tags":{"network:wikidata":"Q753050","railway":"station"},"addTags":{"network":"EuroCity","network:wikidata":"Q753050","public_transport":"station","railway":"station","train":"yes"}},"railway/station/euronight-170b77":{"name":"EuroNight","locationSet":{"include":["by","bg","cz","hu","pl","md","ro","ru","sk","ua","ax","gg","je","cq","dk","ee","fo","fi","is","ie","im","lv","lt","no","sj","se","gb","al","ad","ba","hr","gi","gr","va","it","mt","me","mk","pt","sm","rs","si","es","xk","at","be","fr","de","li","lu","mc","nl","ch"]},"geometry":["point","vertex","area"],"matchScore":2,"terms":["euronight"],"tags":{"network:wikidata":"Q257307","railway":"station"},"addTags":{"network":"EuroNight","network:wikidata":"Q257307","public_transport":"station","railway":"station","train":"yes"}},"railway/station/nahverkehrsverbundschleswigholstein-27b355":{"name":"Nahverkehrsverbund Schleswig-Holstein","locationSet":{"include":["de","dk"]},"geometry":["point","vertex","area"],"matchScore":2,"terms":["nah.sh","nahverkehrsverbund schleswig-holstein"],"tags":{"network:wikidata":"Q15825147","railway":"station"},"addTags":{"network":"Nahverkehrsverbund Schleswig-Holstein","network:short":"NAH.SH","network:wikidata":"Q15825147","public_transport":"station","railway":"station","train":"yes"}},"type/route/bus/bat-8dce25":{"name":"BAT (Bornholm)","locationSet":{"include":["dk"]},"geometry":["relation"],"matchScore":2,"terms":["bat"],"reference":{"key":"route","value":"bus"},"tags":{"network:wikidata":"Q97577976","route":"bus","type":"route"},"addTags":{"network":"BAT","network:wikidata":"Q97577976","route":"bus","type":"route"}},"type/route/bus/flixbus-8cc9ca":{"name":"Flixbus","locationSet":{"include":["by","bg","cz","hu","pl","md","ro","ru","sk","ua","ax","gg","je","cq","dk","ee","fo","fi","is","ie","im","lv","lt","no","sj","se","gb","al","ad","ba","hr","gi","gr","va","it","mt","me","mk","pt","sm","rs","si","es","xk","at","be","fr","de","li","lu","mc","nl","ch","br","ca","us"]},"geometry":["relation"],"matchScore":2,"terms":["flixbus"],"reference":{"key":"route","value":"bus"},"tags":{"network:wikidata":"Q15712258","route":"bus","type":"route"},"addTags":{"network":"Flixbus","network:wikidata":"Q15712258","route":"bus","type":"route"}},"type/route/bus/fynbus-8dce25":{"name":"FynBus","locationSet":{"include":["dk"]},"geometry":["relation"],"matchScore":2,"terms":["fynbus"],"reference":{"key":"route","value":"bus"},"tags":{"network:wikidata":"Q12313224","route":"bus","type":"route"},"addTags":{"network":"FynBus","network:wikidata":"Q12313224","route":"bus","type":"route"}},"type/route/bus/midttrafik-8dce25":{"name":"Midttrafik","locationSet":{"include":["dk"]},"geometry":["relation"],"matchScore":2,"terms":["midttrafik"],"reference":{"key":"route","value":"bus"},"tags":{"network:wikidata":"Q12327094","route":"bus","type":"route"},"addTags":{"network":"Midttrafik","network:wikidata":"Q12327094","route":"bus","type":"route"}},"type/route/bus/movia-8dce25":{"name":"Movia","locationSet":{"include":["dk"]},"geometry":["relation"],"matchScore":2,"terms":["movia"],"reference":{"key":"route","value":"bus"},"tags":{"network:wikidata":"Q3359392","route":"bus","type":"route"},"addTags":{"network":"Movia","network:wikidata":"Q3359392","route":"bus","type":"route"}},"type/route/bus/nordjyllandstrafikselskab-8dce25":{"name":"Nordjyllands Trafikselskab","locationSet":{"include":["dk"]},"geometry":["relation"],"matchScore":2,"terms":["nordjyllands trafikselskab"],"reference":{"key":"route","value":"bus"},"tags":{"network:wikidata":"Q3246599","route":"bus","type":"route"},"addTags":{"network":"Nordjyllands Trafikselskab","network:wikidata":"Q3246599","route":"bus","type":"route"}},"type/route/bus/sydtrafik-8dce25":{"name":"Sydtrafik","locationSet":{"include":["dk"]},"geometry":["relation"],"matchScore":2,"terms":["sydtrafik"],"reference":{"key":"route","value":"bus"},"tags":{"network:wikidata":"Q12338112","route":"bus","type":"route"},"addTags":{"network":"Sydtrafik","network:wikidata":"Q12338112","route":"bus","type":"route"}},"type/route/train/eurocity-6b9d23":{"name":"EuroCity","locationSet":{"include":["by","bg","cz","hu","pl","md","ro","ru","sk","ua","ax","gg","je","cq","dk","ee","fo","fi","is","ie","im","lv","lt","no","sj","se","gb","al","ad","ba","hr","gi","gr","va","it","mt","me","mk","pt","sm","rs","si","es","xk","at","be","fr","de","li","lu","mc","nl","ch"]},"geometry":["relation"],"matchScore":2,"terms":["eurocity"],"reference":{"key":"route","value":"train"},"tags":{"network:wikidata":"Q753050","route":"train","type":"route"},"addTags":{"network":"EuroCity","network:wikidata":"Q753050","route":"train","type":"route"}},"type/route/train/euronight-6b9d23":{"name":"EuroNight","locationSet":{"include":["by","bg","cz","hu","pl","md","ro","ru","sk","ua","ax","gg","je","cq","dk","ee","fo","fi","is","ie","im","lv","lt","no","sj","se","gb","al","ad","ba","hr","gi","gr","va","it","mt","me","mk","pt","sm","rs","si","es","xk","at","be","fr","de","li","lu","mc","nl","ch"]},"geometry":["relation"],"matchScore":2,"terms":["euronight"],"reference":{"key":"route","value":"train"},"tags":{"network:wikidata":"Q257307","route":"train","type":"route"},"addTags":{"network":"EuroNight","network:wikidata":"Q257307","route":"train","type":"route"}},"type/route/train/nahverkehrsverbundschleswigholstein-d50f2c":{"name":"Nahverkehrsverbund Schleswig-Holstein","locationSet":{"include":["de","dk"]},"geometry":["relation"],"matchScore":2,"terms":["nah.sh","nahverkehrsverbund schleswig-holstein"],"reference":{"key":"route","value":"train"},"tags":{"network:wikidata":"Q15825147","route":"train","type":"route"},"addTags":{"network":"Nahverkehrsverbund Schleswig-Holstein","network:short":"NAH.SH","network:wikidata":"Q15825147","route":"train","type":"route"}}}