{"amenity/atm/bni-d4d2b6":{"name":"BNI","locationSet":{"include":["au","ca","gb","hk","id","jp","kr","mm","sg","us"]},"geometry":["point","vertex"],"matchScore":2,"terms":["bank bni","bank negara indonesia","bni"],"fields":["name","brand","{amenity/atm}"],"tags":{"amenity":"atm","brand:wikidata":"Q2882611"},"addTags":{"amenity":"atm","brand":"BNI","brand:wikidata":"Q2882611","official_name":"Bank Negara Indonesia","operator":"BNI","operator:wikidata":"Q2882611"}},"amenity/atm/kbzbank-4d84db":{"name":"KBZ Bank","locationSet":{"include":["mm"]},"geometry":["point","vertex"],"matchScore":2,"terms":["kbz bank"],"fields":["name","brand","{amenity/atm}"],"tags":{"amenity":"atm","brand:wikidata":"Q6360949"},"addTags":{"amenity":"atm","brand":"KBZ Bank","brand:wikidata":"Q6360949","operator":"KBZ Bank","operator:wikidata":"Q6360949"}},"amenity/atm/uob-441a96":{"name":"UOB","locationSet":{"include":["au","bn","ca","cn","gb","hk","id","in","jp","kr","mm","my","ph","sg","th","us","vn"]},"geometry":["point","vertex"],"matchScore":2,"terms":["united overseas bank","uob","大华银行"],"fields":["name","brand","{amenity/atm}"],"tags":{"amenity":"atm","brand:wikidata":"Q2064074"},"addTags":{"amenity":"atm","brand":"UOB","brand:wikidata":"Q2064074","brand:zh":"大华银行","name:zh":"大华银行","operator":"UOB","operator:wikidata":"Q2064074"}},"amenity/bank/bni-27dfb6":{"name":"BNI","locationSet":{"include":["au","ca","gb","hk","id","jp","kr","mm","sg","us"]},"geometry":["point","area"],"matchScore":2,"terms":["bank bni","bank negara indonesia","bni"],"tags":{"amenity":"bank","brand:wikidata":"Q2882611"},"addTags":{"amenity":"bank","brand":"BNI","brand:wikidata":"Q2882611","name":"BNI","official_name":"Bank Negara Indonesia"}},"amenity/bank/kbzbank-ac4544":{"name":"KBZ Bank","locationSet":{"include":["mm"]},"geometry":["point","area"],"matchScore":2,"terms":["kbz bank"],"tags":{"amenity":"bank","brand:wikidata":"Q6360949"},"addTags":{"amenity":"bank","brand":"KBZ Bank","brand:wikidata":"Q6360949","name":"KBZ Bank"}},"amenity/bank/uob-dadccc":{"name":"UOB","locationSet":{"include":["au","bn","ca","cn","gb","hk","id","in","jp","kr","mm","my","ph","sg","th","us","vn"]},"geometry":["point","area"],"matchScore":2,"terms":["united overseas bank","uob","大华银行"],"tags":{"amenity":"bank","brand:wikidata":"Q2064074"},"addTags":{"amenity":"bank","brand":"UOB","brand:wikidata":"Q2064074","brand:zh":"大华银行","name":"UOB","name:zh":"大华银行"}},"amenity/cafe/bubble_tea/gongcha-17742a":{"name":"Gong Cha (worldwide)","locationSet":{"include":["au","bn","ca","mm","my","nz","ph","sg","us"]},"geometry":["point","area"],"matchScore":2,"terms":["gong cha","貢茶"],"reference":{"key":"cuisine","value":"bubble_tea"},"tags":{"amenity":"cafe","brand:wikidata":"Q5581670","cuisine":"bubble_tea"},"addTags":{"amenity":"cafe","brand":"Gong Cha","brand:wikidata":"Q5581670","brand:zh":"貢茶","cuisine":"bubble_tea","int_name":"Gong Cha","name":"Gong Cha","name:zh":"貢茶","takeaway":"yes"}},"amenity/fast_food/secretrecipe-541408":{"name":"Secret Recipe","locationSet":{"include":["bd","bn","cn","id","kh","mm","mv","my","sg","th"]},"geometry":["point","area"],"matchScore":2,"terms":["secret recipe"],"tags":{"amenity":"fast_food","brand:wikidata":"Q7444079"},"addTags":{"amenity":"fast_food","brand":"Secret Recipe","brand:wikidata":"Q7444079","cuisine":"cake;malaysian","name":"Secret Recipe","takeaway":"yes"}},"amenity/fast_food/pizza/thepizzacompany-abbb1f":{"name":"The Pizza Company","locationSet":{"include":["ae","bh","cn","jo","kh","la","mm","my","sa","th","vn"]},"geometry":["point","area"],"matchScore":2,"terms":["pizza company","the pizza company"],"reference":{"key":"cuisine","value":"pizza"},"tags":{"amenity":"fast_food","brand:wikidata":"Q2413520","cuisine":"pizza"},"addTags":{"alt_name":"Pizza Company","amenity":"fast_food","brand":"The Pizza Company","brand:wikidata":"Q2413520","cuisine":"pizza","name":"The Pizza Company","takeaway":"yes"}},"amenity/ice_cream/yogurtland-4111ef":{"name":"Yogurtland","locationSet":{"include":["ae","au","bh","kw","mm","qa","sa","sg","th","us","ve"]},"geometry":["point","area"],"matchScore":2,"terms":["yogurtland"],"tags":{"amenity":"ice_cream","brand:wikidata":"Q8054428"},"addTags":{"amenity":"ice_cream","brand":"Yogurtland","brand:wikidata":"Q8054428","cuisine":"frozen_yogurt","name":"Yogurtland","takeaway":"yes"}},"shop/department_store/parkson-6dcedc":{"name":"Parkson","locationSet":{"include":["id","la","mm","my","vn"]},"geometry":["point","area"],"matchScore":2,"terms":["parkson","百盛"],"tags":{"brand:wikidata":"Q835145","shop":"department_store"},"addTags":{"brand":"Parkson","brand:en":"Parkson","brand:wikidata":"Q835145","brand:zh":"百盛","name":"Parkson","name:en":"Parkson","name:zh":"百盛","shop":"department_store"}},"tourism/hotel/lottehotel-304b57":{"name":"Lotte Hotel","locationSet":{"include":["jp","kr","mm","ru","us","uz","vn"]},"geometry":["point","area"],"matchScore":2,"terms":["lotte","lotte hotels & resorts"],"fields":["name","brand","{tourism/hotel}"],"tags":{"brand:wikidata":"Q326720","tourism":"hotel"},"addTags":{"brand":"Lotte Hotels & Resorts","brand:wikidata":"Q326720","name":"Lotte Hotel","short_name":"Lotte","tourism":"hotel"}},"amenity/hospital/ministryofhealthandsports-5a3b20":{"name":"Ministry of Health and Sports (Myanmar)","locationSet":{"include":["mm"]},"geometry":["area","point"],"matchScore":2,"terms":["ministry of health","ministry of health and sports","moh","mohs"],"fields":["name","operator","{amenity/hospital}"],"reference":{"key":"amenity","value":"hospital"},"tags":{"amenity":"hospital","operator:wikidata":"Q28954031"},"addTags":{"amenity":"hospital","healthcare":"hospital","operator":"Ministry of Health and Sports","operator:wikidata":"Q28954031"}},"public_transport/platform/bus_point/yrta-70a655":{"name":"YRTA","locationSet":{"include":["mm"]},"geometry":["point","vertex"],"matchScore":2,"terms":["yrta"],"reference":{"key":"public_transport","value":"platform"},"tags":{"bus":"yes","network:wikidata":"Q28457070","public_transport":"platform"},"addTags":{"bus":"yes","highway":"bus_stop","network":"YRTA","network:wikidata":"Q28457070","public_transport":"platform"}},"type/route/bus/yrta-ccbac0":{"name":"YRTA","locationSet":{"include":["mm"]},"geometry":["relation"],"matchScore":2,"terms":["yrta"],"reference":{"key":"route","value":"bus"},"tags":{"network:wikidata":"Q28457070","route":"bus","type":"route"},"addTags":{"network":"YRTA","network:wikidata":"Q28457070","route":"bus","type":"route"}},"type/route/light_rail/mr-78d62a":{"name":"MR","locationSet":{"include":["mm"]},"geometry":["relation"],"matchScore":2,"terms":["mr"],"reference":{"key":"route","value":"light_rail"},"tags":{"network:wikidata":"Q1298110","route":"light_rail","type":"route"},"addTags":{"network":"MR","network:wikidata":"Q1298110","route":"light_rail","type":"route"}}}