{"amenity/atm/republicbank-6b5972":{"name":"Republic Bank (Eastern Caribbean)","locationSet":{"include":["bb","gd","gy","tt"]},"geometry":["point","vertex"],"matchScore":2,"terms":["republic bank"],"tags":{"amenity":"atm","brand:wikidata":"Q7314386"},"addTags":{"amenity":"atm","brand":"Republic Bank","brand:wikidata":"Q7314386","name":"Republic Bank","operator":"Republic Bank","operator:wikidata":"Q7314386"}},"amenity/bank/republicbank-1e52aa":{"name":"Republic Bank (Eastern Caribbean)","locationSet":{"include":["bb","gd","gy","tt"]},"geometry":["point","area"],"matchScore":2,"terms":["republic bank"],"tags":{"amenity":"bank","brand:wikidata":"Q7314386"},"addTags":{"amenity":"bank","brand":"Republic Bank","brand:wikidata":"Q7314386","name":"Republic Bank"}},"amenity/cinema/caribbeancinemas-77ba3f":{"name":"Caribbean Cinemas","locationSet":{"include":["ag","do","fr","gy","kn","lc","nl","pa","tt","us"]},"geometry":["point","area"],"matchScore":2,"terms":["caribbean cinemas"],"fields":["name","brand","{amenity/cinema}"],"tags":{"amenity":"cinema","brand:wikidata":"Q5039364"},"addTags":{"amenity":"cinema","brand":"Caribbean Cinemas","brand:wikidata":"Q5039364","name":"Caribbean Cinemas"}}}