{"advertising/totem/engen-be6bfd":{"name":"Engen","locationSet":{"include":["dz","eg","ly","ma","sd","tn","eh","io","bi","km","dj","er","et","tf","ke","mg","mw","mu","yt","mz","re","rw","sc","so","ss","ug","tz","zm","zw","ao","cm","cf","td","cg","cd","gq","ga","st","bw","sz","ls","na","za","bj","bf","cv","ci","gm","gh","gn","gw","lr","ml","mr","ne","ng","sn","sl","tg","sh"]},"geometry":["point","line"],"matchScore":2,"terms":["engen","engen petroleum"],"tags":{"advertising":"totem","brand:wikidata":"Q3054251"},"addTags":{"advertising":"totem","brand":"Engen","brand:wikidata":"Q3054251"}},"amenity/atm/attijariwafabank-e568eb":{"name":"Attijariwafa Bank (التجاري وفا بنك)","locationSet":{"include":["ae","be","bf","bj","ca","cd","cg","ch","ci","cm","eg","es","fr","ga","gb","it","ma","mr","nl","sa","sn","tg","tn"]},"geometry":["point","vertex"],"matchScore":2,"terms":["attijariwafa bank","attijariwafa bank التجاري وفا بنك","التجاري وفا بنك"],"fields":["name","brand","{amenity/atm}"],"tags":{"amenity":"atm","brand:wikidata":"Q758052"},"addTags":{"amenity":"atm","brand":"Attijariwafa Bank","brand:ar":"التجاري وفا بنك","brand:en":"Attijariwafa Bank","brand:wikidata":"Q758052","name:ar":"التجاري وفا بنك","name:en":"Attijariwafa Bank","operator":"Attijariwafa Bank","operator:wikidata":"Q758052"}},"amenity/atm/bankofafrica-daf274":{"name":"Bank of Africa","locationSet":{"include":["bf","bi","bj","cd","ci","dj","et","fr","ke","mg","ml","ne","rw","sn","tg","tz","ug"]},"geometry":["point","vertex"],"matchScore":2,"terms":["bank of africa","boa"],"fields":["name","brand","{amenity/atm}"],"tags":{"amenity":"atm","brand:wikidata":"Q2882627"},"addTags":{"amenity":"atm","brand":"Bank of Africa","brand:wikidata":"Q2882627","operator":"Bank of Africa","operator:wikidata":"Q2882627","short_name":"BOA"}},"amenity/atm/banqueatlantique-d61c57":{"name":"Banque Atlantique","locationSet":{"include":["bf","bj","ci","cm","ml","ne","sn","tg"]},"geometry":["point","vertex"],"matchScore":2,"terms":["banque atlantique"],"fields":["name","brand","{amenity/atm}"],"tags":{"amenity":"atm","brand:wikidata":"Q2882890"},"addTags":{"amenity":"atm","brand":"Banque Atlantique","brand:wikidata":"Q2882890","operator":"Banque Atlantique","operator:wikidata":"Q2882890"}},"amenity/atm/bicici-b783ed":{"name":"Bicici","locationSet":{"include":["ci"]},"geometry":["point","vertex"],"matchScore":2,"terms":["agence bicici","bicici"],"fields":["name","brand","{amenity/atm}"],"tags":{"amenity":"atm","brand:wikidata":"Q1667302"},"addTags":{"amenity":"atm","brand":"Bicici","brand:wikidata":"Q1667302","operator":"Bicici","operator:wikidata":"Q1667302"}},"amenity/atm/bnpparibas-c2c2cf":{"name":"BNP Paribas","locationSet":{"include":["ae","af","ar","at","bf","bh","br","ca","ch","ci","cl","co","cz","de","dk","dz","es","fi","fr","gb","gf","gp","hu","ie","il","it","kw","ma","ml","mq","mx","nl","no","pe","pt","qa","re","ro","ru","sa","se","sk","sn","tn","tr","tw","us"]},"geometry":["point","vertex"],"matchScore":2,"terms":["bnp paribas"],"fields":["name","brand","{amenity/atm}"],"tags":{"amenity":"atm","brand:wikidata":"Q499707"},"addTags":{"amenity":"atm","brand":"BNP Paribas","brand:wikidata":"Q499707","operator":"BNP Paribas","operator:wikidata":"Q499707"}},"amenity/atm/gtbank-55d972":{"name":"GT Bank","locationSet":{"include":["ci","gb","gh","gm","ke","lr","ng","rw","tz","ug"]},"geometry":["point","vertex"],"matchScore":2,"terms":["gt bank","guaranty trust bank"],"fields":["name","brand","{amenity/atm}"],"tags":{"amenity":"atm","brand:wikidata":"Q579747"},"addTags":{"amenity":"atm","brand":"GT Bank","brand:wikidata":"Q579747","official_name":"Guaranty Trust Bank","operator":"GT Bank","operator:wikidata":"Q579747"}},"amenity/atm/societegeneralecotedivoire-b783ed":{"name":"Société générale Côte d\u2019Ivoire","locationSet":{"include":["ci"]},"geometry":["point","vertex"],"matchScore":2,"terms":["agence sgbci","sgbci","société générale","société générale côte d\u2019ivoire"],"fields":["name","brand","{amenity/atm}"],"tags":{"amenity":"atm","brand:wikidata":"Q3488360"},"addTags":{"amenity":"atm","brand":"Société générale Côte d\u2019Ivoire","brand:wikidata":"Q3488360","name:fr":"Société générale Côte d\u2019Ivoire","old_name":"SGBCI","operator":"Société générale Côte d\u2019Ivoire","operator:wikidata":"Q3488360"}},"amenity/atm/uba-69edd8":{"name":"UBA","locationSet":{"include":["bf","bj","cd","cg","ci","cm","fr","ga","gb","gh","gn","ke","lr","ml","mz","ng","sl","sn","td","tz","ug","us","zm"]},"geometry":["point","vertex"],"matchScore":2,"terms":["uba","united bank for africa"],"fields":["name","brand","{amenity/atm}"],"tags":{"amenity":"atm","brand:wikidata":"Q513457"},"addTags":{"amenity":"atm","brand":"UBA","brand:wikidata":"Q513457","official_name":"United Bank for Africa","operator":"UBA","operator:wikidata":"Q513457"}},"amenity/bank/attijariwafabank-c1cae6":{"name":"Attijariwafa Bank (التجاري وفا بنك)","locationSet":{"include":["ae","be","bf","bj","ca","cd","cg","ch","ci","cm","eg","es","fr","ga","gb","it","ma","mr","nl","sa","sn","tg","tn"]},"geometry":["point","area"],"matchScore":2,"terms":["attijariwafa bank","attijariwafa bank التجاري وفا بنك","التجاري وفا بنك"],"tags":{"amenity":"bank","brand:wikidata":"Q758052"},"addTags":{"amenity":"bank","brand":"Attijariwafa Bank","brand:ar":"التجاري وفا بنك","brand:en":"Attijariwafa Bank","brand:wikidata":"Q758052","name:ar":"التجاري وفا بنك","name:en":"Attijariwafa Bank"}},"amenity/bank/bankofafrica-dae5c5":{"name":"Bank of Africa","locationSet":{"include":["bf","bi","bj","cd","ci","dj","et","fr","ke","mg","ml","ne","rw","sn","tg","tz","ug"]},"geometry":["point","area"],"matchScore":2,"terms":["bank of africa","boa"],"tags":{"amenity":"bank","brand:wikidata":"Q2882627"},"addTags":{"amenity":"bank","brand":"Bank of Africa","brand:wikidata":"Q2882627","name":"Bank of Africa","short_name":"BOA"}},"amenity/bank/banqueatlantique-dc0023":{"name":"Banque Atlantique","locationSet":{"include":["bf","bj","ci","cm","ml","ne","sn","tg"]},"geometry":["point","area"],"matchScore":2,"terms":["banque atlantique"],"tags":{"amenity":"bank","brand:wikidata":"Q2882890"},"addTags":{"amenity":"bank","brand":"Banque Atlantique","brand:wikidata":"Q2882890","name":"Banque Atlantique"}},"amenity/bank/bicici-720a42":{"name":"Bicici","locationSet":{"include":["ci"]},"geometry":["point","area"],"matchScore":2,"terms":["agence bicici","bicici"],"tags":{"amenity":"bank","brand:wikidata":"Q1667302"},"addTags":{"amenity":"bank","brand":"Bicici","brand:wikidata":"Q1667302","name":"Bicici"}},"amenity/bank/bnpparibas-e8666a":{"name":"BNP Paribas","locationSet":{"include":["ae","af","ar","at","bf","bh","br","ca","ch","ci","cl","co","cz","de","dk","dz","es","fi","fr","gb","gf","gp","hu","ie","il","it","kw","ma","ml","mq","mx","nl","no","pe","pt","qa","re","ro","ru","sa","se","sk","sn","tn","tr","tw","us"]},"geometry":["point","area"],"matchScore":2,"terms":["bnp paribas"],"tags":{"amenity":"bank","brand:wikidata":"Q499707"},"addTags":{"amenity":"bank","brand":"BNP Paribas","brand:wikidata":"Q499707","name":"BNP Paribas"}},"amenity/bank/gtbank-b3c39a":{"name":"GT Bank","locationSet":{"include":["ci","gb","gh","gm","ke","lr","ng","rw","tz","ug"]},"geometry":["point","area"],"matchScore":2,"terms":["gt bank","guaranty trust bank"],"tags":{"amenity":"bank","brand:wikidata":"Q579747"},"addTags":{"amenity":"bank","brand":"GT Bank","brand:wikidata":"Q579747","name":"GT Bank","official_name":"Guaranty Trust Bank"}},"amenity/bank/societegeneralecotedivoire-720a42":{"name":"Société générale Côte d\u2019Ivoire","locationSet":{"include":["ci"]},"geometry":["point","area"],"matchScore":2,"terms":["agence sgbci","sgbci","société générale","société générale côte d\u2019ivoire"],"tags":{"amenity":"bank","brand:wikidata":"Q3488360"},"addTags":{"amenity":"bank","brand":"Société générale Côte d\u2019Ivoire","brand:wikidata":"Q3488360","name":"Société générale Côte d\u2019Ivoire","name:fr":"Société générale Côte d\u2019Ivoire","old_name":"SGBCI"}},"amenity/bank/uba-95540f":{"name":"UBA","locationSet":{"include":["bf","bj","cd","cg","ci","cm","fr","ga","gb","gh","gn","ke","lr","ml","mz","ng","sl","sn","td","tz","ug","us","zm"]},"geometry":["point","area"],"matchScore":2,"terms":["uba","united bank for africa"],"tags":{"amenity":"bank","brand:wikidata":"Q513457"},"addTags":{"amenity":"bank","brand":"UBA","brand:wikidata":"Q513457","name":"UBA","official_name":"United Bank for Africa"}},"amenity/fuel/engen-b7f522":{"name":"Engen","locationSet":{"include":["dz","eg","ly","ma","sd","tn","eh","io","bi","km","dj","er","et","tf","ke","mg","mw","mu","yt","mz","re","rw","sc","so","ss","ug","tz","zm","zw","ao","cm","cf","td","cg","cd","gq","ga","st","bw","sz","ls","na","za","bj","bf","cv","ci","gm","gh","gn","gw","lr","ml","mr","ne","ng","sn","sl","tg","sh"]},"geometry":["point","area"],"matchScore":2,"terms":["engen","engen petroleum"],"fields":["name","brand","{amenity/fuel}"],"tags":{"amenity":"fuel","brand:wikidata":"Q3054251"},"addTags":{"amenity":"fuel","brand":"Engen","brand:wikidata":"Q3054251","name":"Engen"}},"amenity/ice_cream/smooy-bac155":{"name":"smöoy","locationSet":{"include":["ao","ci","cn","dz","ec","es","fr","gb","gn","it","ma","pa","pe","pt","re","sa"]},"geometry":["point","area"],"matchScore":2,"terms":["smöoy","softy cream"],"tags":{"amenity":"ice_cream","brand:wikidata":"Q21573945"},"addTags":{"amenity":"ice_cream","brand":"smöoy","brand:wikidata":"Q21573945","name":"smöoy","official_name":"Softy Cream"}},"office/insurance/allianz-332499":{"name":"Allianz","locationSet":{"include":["ae","ar","at","au","be","bg","bh","bm","bn","br","ca","cg","ch","ci","cm","cn","co","cy","cz","de","dk","ee","eg","es","fi","fr","gb","gf","gg","gh","gp","gr","hk","hr","hu","id","ie","in","is","it","ja","ke","kr","kw","la","li","lk","lt","lu","lv","ma","mg","mx","my","ng","nl","no","nz","om","ph","pk","pl","pt","qa","ro","ru","sa","se","sg","si","sk","sn","th","tr","tw","ua","us","za"]},"geometry":["point","area"],"matchScore":2,"terms":["allianz","allianz versicherung"],"fields":["name","brand","{office/insurance}"],"tags":{"brand:wikidata":"Q487292","office":"insurance"},"addTags":{"brand":"Allianz","brand:wikidata":"Q487292","name":"Allianz","office":"insurance"}},"office/insurance/axa-2e7672":{"name":"AXA","locationSet":{"include":["ae","ar","au","be","bh","bm","br","ca","ch","ci","cl","cm","cn","co","cz","de","dk","dz","eg","es","fi","fr","ga","gb","gr","hk","id","ie","in","it","jp","kr","lb","lu","ma","mu","mx","my","ng","nl","no","om","pa","pe","ph","pl","pt","qa","sa","se","sg","sk","sn","th","tr","tw","us"]},"geometry":["point","area"],"matchScore":2,"terms":["axa"],"fields":["name","brand","{office/insurance}"],"tags":{"brand:wikidata":"Q160054","office":"insurance"},"addTags":{"brand":"AXA","brand:wikidata":"Q160054","name":"AXA","office":"insurance"}},"shop/bakery/paul-652955":{"name":"Paul","locationSet":{"include":["ae","az","be","bh","by","ci","cy","cz","eg","es","fr","ga","gb","ge","gr","id","in","jo","jp","kw","kz","lb","lu","ma","mu","my","om","pa","ph","pl","pt","qa","ro","ru","sa","sg","th","tn","tw","ua","us","uz","vn","za"]},"geometry":["point","area"],"matchScore":2,"terms":["paul"],"tags":{"brand:wikidata":"Q3370417","shop":"bakery"},"addTags":{"brand":"Paul","brand:wikidata":"Q3370417","name":"Paul","shop":"bakery"}},"shop/butcher/coqivoire-40403c":{"name":"Coqivoire","locationSet":{"include":["ci"]},"geometry":["point","area"],"matchScore":2,"terms":["coqivoire"],"tags":{"brand:wikidata":"Q60183284","shop":"butcher"},"addTags":{"brand":"Coqivoire","brand:wikidata":"Q60183284","butcher":"poultry","name":"Coqivoire","shop":"butcher"}},"shop/butcher/foani-40403c":{"name":"Foani","locationSet":{"include":["ci"]},"geometry":["point","area"],"matchScore":2,"terms":["foani"],"tags":{"brand:wikidata":"Q60183335","shop":"butcher"},"addTags":{"brand":"Foani","brand:wikidata":"Q60183335","butcher":"poultry","name":"Foani","shop":"butcher"}},"shop/kitchen/ixina-d089d8":{"name":"Ixina","locationSet":{"include":["ae","au","be","bf","bh","bj","ca","ci","cm","cn","cz","dz","ee","eg","fr","gh","hr","ke","kw","lu","ly","ma","mu","nl","pl","qa","ro","ru","sa","se","sn","tg","th","tn","vn"]},"geometry":["point","area"],"matchScore":2,"terms":["ixina"],"tags":{"brand:wikidata":"Q3156424","shop":"kitchen"},"addTags":{"brand":"Ixina","brand:wikidata":"Q3156424","name":"Ixina","shop":"kitchen"}},"shop/mobile_phone/airtel-62d34e":{"name":"Airtel","locationSet":{"include":["io","bi","km","dj","er","et","tf","ke","mg","mw","mu","yt","mz","re","rw","sc","so","ss","ug","tz","zm","zw","ao","cm","cf","td","cg","cd","gq","ga","st","bw","sz","ls","na","za","bj","bf","cv","ci","gm","gh","gn","gw","lr","ml","mr","ne","ng","sn","sl","tg","sh","in"]},"geometry":["point","area"],"matchScore":2,"terms":["airtel"],"tags":{"brand:wikidata":"Q854867","shop":"mobile_phone"},"addTags":{"brand":"Airtel","brand:wikidata":"Q854867","name":"Airtel","shop":"mobile_phone"}},"shop/mobile_phone/moov-6ab8a4":{"name":"Moov","locationSet":{"include":["ci","tg"]},"geometry":["point","area"],"matchScore":2,"terms":["agence moov","moov"],"tags":{"brand:wikidata":"Q3323637","shop":"mobile_phone"},"addTags":{"brand":"Moov","brand:wikidata":"Q3323637","name":"Moov","shop":"mobile_phone"}},"shop/mobile_phone/mtn-fe03c5":{"name":"MTN","locationSet":{"include":["af","bj","bw","cg","ci","cm","gn","gw","ir","lr","ni","rw","sd","ss","sy","ug","ye","za","zm"]},"geometry":["point","area"],"matchScore":2,"terms":["agence mtn","mtn"],"tags":{"brand:wikidata":"Q1813361","shop":"mobile_phone"},"addTags":{"brand":"MTN","brand:wikidata":"Q1813361","name":"MTN","shop":"mobile_phone"}},"shop/shoes/courir-1cd077":{"name":"Courir","locationSet":{"include":["be","ci","es","fx","lu","ma","pt","qa"]},"geometry":["point","area"],"matchScore":2,"terms":["courir"],"tags":{"brand:wikidata":"Q3001258","shop":"shoes"},"addTags":{"brand":"Courir","brand:wikidata":"Q3001258","name":"Courir","shop":"shoes"}},"shop/supermarket/auchan-05ddc8":{"name":"Auchan","locationSet":{"include":["ci","cn","fr","hu","lu","mr","pl","pt","ro","sn"]},"geometry":["point","area"],"matchScore":2,"terms":["auchan"],"tags":{"brand:wikidata":"Q758603","shop":"supermarket"},"addTags":{"brand":"Auchan","brand:wikidata":"Q758603","name":"Auchan","shop":"supermarket"}},"shop/toys/lagranderecre-61c030":{"name":"La Grande Récré","locationSet":{"include":["be","ci","es","fr","ma"]},"geometry":["point","area"],"matchScore":2,"terms":["la grande récré"],"tags":{"brand:wikidata":"Q3209556","shop":"toys"},"addTags":{"brand":"La Grande Récré","brand:wikidata":"Q3209556","name":"La Grande Récré","shop":"toys"}},"amenity/hospital/ministeredelasante-13a2fa":{"name":"Ministère de la Santé (Côte d'Ivoire)","locationSet":{"include":["ci"]},"geometry":["area","point"],"matchScore":2,"terms":["ministère de la santé"],"fields":["name","operator","{amenity/hospital}"],"reference":{"key":"amenity","value":"hospital"},"tags":{"amenity":"hospital","operator:wikidata":"Q25203092"},"addTags":{"amenity":"hospital","healthcare":"hospital","operator":"Ministère de la Santé","operator:wikidata":"Q25203092"}},"man_made/mast/communication/mtn-a5a5e8":{"name":"MTN","locationSet":{"include":["af","bj","bw","cg","ci","cm","gn","gw","ir","lr","ni","rw","sd","ss","sy","ug","ye","za","zm"]},"geometry":["point","vertex"],"matchScore":2,"terms":["agence mtn","mtn"],"reference":{"key":"tower:type","value":"communication"},"tags":{"man_made":"mast","operator:wikidata":"Q1813361","tower:type":"communication"},"addTags":{"man_made":"mast","operator":"MTN","operator:wikidata":"Q1813361","tower:type":"communication"}},"man_made/tower/communication/mtn-a1bc20":{"name":"MTN","locationSet":{"include":["af","bj","bw","cg","ci","cm","gn","gw","ir","lr","ni","rw","sd","ss","sy","ug","ye","za","zm"]},"geometry":["point","vertex","area"],"matchScore":2,"terms":["agence mtn","mtn"],"reference":{"key":"tower:type","value":"communication"},"tags":{"man_made":"tower","operator:wikidata":"Q1813361","tower:type":"communication"},"addTags":{"man_made":"tower","operator":"MTN","operator:wikidata":"Q1813361","tower:type":"communication"}},"power/line/compagnieivoriennedelectricite-736c80":{"name":"Compagnie Ivorienne d'Électricite","locationSet":{"include":["ci"]},"geometry":["line"],"matchScore":2,"terms":["cie","compagnie ivorienne d'électricite"],"tags":{"operator:wikidata":"Q2989790","power":"line"},"addTags":{"operator":"Compagnie Ivorienne d'Électricite","operator:short":"CIE","operator:wikidata":"Q2989790","power":"line"}},"power/line/transcoclsg-7bc8e3":{"name":"Transco CLSG","locationSet":{"include":["ci","gq","lr","sl"]},"geometry":["line"],"matchScore":2,"terms":["transco clsg"],"tags":{"operator:wikidata":"Q117846302","power":"line"},"addTags":{"operator":"Transco CLSG","operator:wikidata":"Q117846302","power":"line"}},"power/minor_line/compagnieivoriennedelectricite-b34e16":{"name":"Compagnie Ivorienne d'Électricite","locationSet":{"include":["ci"]},"geometry":["line"],"matchScore":2,"terms":["cie","compagnie ivorienne d'électricite"],"tags":{"operator:wikidata":"Q2989790","power":"minor_line"},"addTags":{"operator":"Compagnie Ivorienne d'Électricite","operator:short":"CIE","operator:wikidata":"Q2989790","power":"minor_line"}},"power/minor_line/transcoclsg-003d60":{"name":"Transco CLSG","locationSet":{"include":["ci","gq","lr","sl"]},"geometry":["line"],"matchScore":2,"terms":["transco clsg"],"tags":{"operator:wikidata":"Q117846302","power":"minor_line"},"addTags":{"operator":"Transco CLSG","operator:wikidata":"Q117846302","power":"minor_line"}},"power/pole/compagnieivoriennedelectricite-2908e9":{"name":"Compagnie Ivorienne d'Électricite","locationSet":{"include":["ci"]},"geometry":["point","vertex"],"matchScore":2,"terms":["cie","compagnie ivorienne d'électricite"],"tags":{"operator:wikidata":"Q2989790","power":"pole"},"addTags":{"operator":"Compagnie Ivorienne d'Électricite","operator:short":"CIE","operator:wikidata":"Q2989790","power":"pole"}},"power/pole/transcoclsg-021179":{"name":"Transco CLSG","locationSet":{"include":["ci","gq","lr","sl"]},"geometry":["point","vertex"],"matchScore":2,"terms":["transco clsg"],"tags":{"operator:wikidata":"Q117846302","power":"pole"},"addTags":{"operator":"Transco CLSG","operator:wikidata":"Q117846302","power":"pole"}},"power/substation/compagnieivoriennedelectricite-3596dd":{"name":"Compagnie Ivorienne d'Électricite","locationSet":{"include":["ci"]},"geometry":["area","point"],"matchScore":2,"terms":["cie","compagnie iviorienne d'electricite","compagnie ivorienne d'électricite"],"tags":{"operator:wikidata":"Q2989790","power":"substation"},"addTags":{"operator":"Compagnie Ivorienne d'Électricite","operator:short":"CIE","operator:wikidata":"Q2989790","power":"substation"}},"power/substation/transcoclsg-0c56bc":{"name":"Transco CLSG","locationSet":{"include":["ci","gq","lr","sl"]},"geometry":["area","point"],"matchScore":2,"terms":["transco clsg"],"tags":{"operator:wikidata":"Q117846302","power":"substation"},"addTags":{"operator":"Transco CLSG","operator:wikidata":"Q117846302","power":"substation","substation":"transmission"}},"power/tower/compagnieivoriennedelectricite-257b6d":{"name":"Compagnie Ivorienne d'Électricite","locationSet":{"include":["ci"]},"geometry":["point","vertex"],"matchScore":2,"terms":["cie","compagnie ivorienne d'électricite"],"tags":{"operator:wikidata":"Q2989790","power":"tower"},"addTags":{"operator":"Compagnie Ivorienne d'Électricite","operator:short":"CIE","operator:wikidata":"Q2989790","power":"tower"}},"power/tower/transcoclsg-3a27d6":{"name":"Transco CLSG","locationSet":{"include":["ci","gq","lr","sl"]},"geometry":["point","vertex"],"matchScore":2,"terms":["transco clsg"],"tags":{"operator:wikidata":"Q117846302","power":"tower"},"addTags":{"operator":"Transco CLSG","operator:wikidata":"Q117846302","power":"tower"}},"power/transformer/compagnieivoriennedelectricite-51278a":{"name":"Compagnie Ivorienne d'Électricite","locationSet":{"include":["ci"]},"geometry":["point","vertex"],"matchScore":2,"terms":["cie","compagnie iviorienne d'electricite","compagnie ivorienne d'électricite"],"tags":{"operator:wikidata":"Q2989790","power":"transformer"},"addTags":{"operator":"Compagnie Ivorienne d'Électricite","operator:short":"CIE","operator:wikidata":"Q2989790","power":"transformer"}},"power/transformer/transcoclsg-d94b06":{"name":"Transco CLSG","locationSet":{"include":["ci","gq","lr","sl"]},"geometry":["point","vertex"],"matchScore":2,"terms":["transco clsg"],"tags":{"operator:wikidata":"Q117846302","power":"transformer"},"addTags":{"operator":"Transco CLSG","operator:wikidata":"Q117846302","power":"transformer","substation":"transmission"}}}