{"advertising/totem/gomart-746494":{"name":"GoMart","locationSet":{"include":["us-ky","us-oh","us-va","us-wv"]},"geometry":["point","line"],"matchScore":2,"terms":["gomart"],"tags":{"advertising":"totem","brand:wikidata":"Q5574575"},"addTags":{"advertising":"totem","brand":"GoMart","brand:wikidata":"Q5574575"}},"advertising/totem/sheetz-e7b9d2":{"name":"Sheetz","locationSet":{"include":["us-md","us-mi","us-nc","us-oh","us-pa","us-va","us-wv"]},"geometry":["point","line"],"matchScore":2,"terms":["sheetz"],"tags":{"advertising":"totem","brand:wikidata":"Q7492551"},"addTags":{"advertising":"totem","brand":"Sheetz","brand:wikidata":"Q7492551"}},"amenity/atm/citynationalbank-12b850":{"name":"City National Bank (West Virginia)","locationSet":{"include":["us-ky","us-oh","us-va","us-wv"]},"geometry":["point","vertex"],"matchScore":2,"terms":["city national bank"],"fields":["name","brand","{amenity/atm}"],"tags":{"amenity":"atm","brand:wikidata":"Q90937436"},"addTags":{"amenity":"atm","brand":"City National Bank","brand:wikidata":"Q90937436","operator":"City National Bank","operator:wikidata":"Q90937436"}},"amenity/atm/firstnationalbank-571c0f":{"name":"First National Bank (US)","locationSet":{"include":["us-dc","us-md","us-nc","us-oh","us-pa","us-sc","us-va","us-wv"]},"geometry":["point","vertex"],"matchScore":2,"terms":["first national bank","fnb"],"fields":["name","brand","{amenity/atm}"],"tags":{"amenity":"atm","brand:wikidata":"Q5426765"},"addTags":{"amenity":"atm","brand":"First National Bank","brand:wikidata":"Q5426765","operator":"First National Bank","operator:wikidata":"Q5426765"}},"amenity/atm/pinnaclebank-849a40":{"name":"Pinnacle Bank (US Southeast)","locationSet":{"include":["us-al","us-ga","us-nc","us-sc","us-tn","us-wv"]},"geometry":["point","vertex"],"matchScore":2,"terms":["pinnacle bank","pinnacle financial partners"],"fields":["name","brand","{amenity/atm}"],"tags":{"amenity":"atm","brand:wikidata":"Q7196294"},"addTags":{"amenity":"atm","brand":"Pinnacle Bank","brand:wikidata":"Q7196294","official_name":"Pinnacle Financial Partners","operator":"Pinnacle Bank","operator:wikidata":"Q7196294"}},"amenity/atm/unitedbank-b1562d":{"name":"United Bank (West Virginia)","locationSet":{"include":["us-dc","us-md","us-nc","us-pa","us-sc","us-va","us-wv"]},"geometry":["point","vertex"],"matchScore":2,"terms":["united bank"],"fields":["name","brand","{amenity/atm}"],"tags":{"amenity":"atm","brand:wikidata":"Q16920636"},"addTags":{"amenity":"atm","brand":"United Bank","brand:wikidata":"Q16920636","operator":"United Bank","operator:wikidata":"Q16920636"}},"amenity/bank/citynationalbank-3abc7d":{"name":"City National Bank (West Virginia)","locationSet":{"include":["us-ky","us-oh","us-va","us-wv"]},"geometry":["point","area"],"matchScore":2,"terms":["city national bank"],"tags":{"amenity":"bank","brand:wikidata":"Q90937436"},"addTags":{"amenity":"bank","brand":"City National Bank","brand:wikidata":"Q90937436","name":"City National Bank"}},"amenity/bank/firstnationalbank-fdc31a":{"name":"First National Bank (US)","locationSet":{"include":["us-dc","us-md","us-nc","us-oh","us-pa","us-sc","us-va","us-wv"]},"geometry":["point","area"],"matchScore":2,"terms":["first national bank","fnb"],"tags":{"amenity":"bank","brand:wikidata":"Q5426765"},"addTags":{"amenity":"bank","brand":"First National Bank","brand:wikidata":"Q5426765","name":"First National Bank"}},"amenity/bank/pinnaclebank-1187bc":{"name":"Pinnacle Bank (US Southeast)","locationSet":{"include":["us-al","us-ga","us-nc","us-sc","us-tn","us-wv"]},"geometry":["point","area"],"matchScore":2,"terms":["pinnacle bank","pinnacle financial partners"],"tags":{"amenity":"bank","brand:wikidata":"Q7196294"},"addTags":{"amenity":"bank","brand":"Pinnacle Bank","brand:wikidata":"Q7196294","name":"Pinnacle Bank","official_name":"Pinnacle Financial Partners"}},"amenity/bank/unitedbank-d6a32a":{"name":"United Bank (West Virginia)","locationSet":{"include":["us-dc","us-md","us-nc","us-pa","us-sc","us-va","us-wv"]},"geometry":["point","area"],"matchScore":2,"terms":["united bank"],"tags":{"amenity":"bank","brand:wikidata":"Q16920636"},"addTags":{"amenity":"bank","brand":"United Bank","brand:wikidata":"Q16920636","name":"United Bank"}},"amenity/fuel/gomart-8a82f2":{"name":"GoMart","locationSet":{"include":["us-ky","us-oh","us-va","us-wv"]},"geometry":["point","area"],"matchScore":2,"terms":["gomart"],"fields":["name","brand","{amenity/fuel}"],"tags":{"amenity":"fuel","brand:wikidata":"Q5574575"},"addTags":{"amenity":"fuel","brand":"GoMart","brand:wikidata":"Q5574575","name":"GoMart"}},"amenity/fuel/sheetz-8ea4ad":{"name":"Sheetz","locationSet":{"include":["us-md","us-mi","us-nc","us-oh","us-pa","us-va","us-wv"]},"geometry":["point","area"],"matchScore":2,"terms":["sheetz"],"fields":["name","brand","{amenity/fuel}"],"tags":{"amenity":"fuel","brand:wikidata":"Q7492551"},"addTags":{"amenity":"fuel","brand":"Sheetz","brand:wikidata":"Q7492551","name":"Sheetz"}},"amenity/payment_terminal/westvirginiadmvnow-80179e":{"name":"West Virginia DMV Now","locationSet":{"include":["us-wv"]},"geometry":["point"],"matchScore":2,"terms":["west virginia division of motor vehicles","west virginia dmv now"],"tags":{"amenity":"payment_terminal","brand:wikidata":"Q115417174"},"addTags":{"amenity":"payment_terminal","brand":"West Virginia DMV Now","brand:wikidata":"Q115417174","name":"West Virginia DMV Now","operator":"West Virginia Division of Motor Vehicles","operator:wikidata":"Q115417228"}},"shop/cannabis/cannabist-c9b3a7":{"name":"Cannabist","locationSet":{"include":["us-az","us-ca","us-fl","us-il","us-ma","us-mo","us-nj","us-ny","us-ut","us-va","us-wv"]},"geometry":["point","area"],"matchScore":2,"terms":["cannabist"],"tags":{"brand:wikidata":"Q114896590","shop":"cannabis"},"addTags":{"brand":"Cannabist","brand:wikidata":"Q114896590","name":"Cannabist","shop":"cannabis"}},"shop/convenience/duchess-439b0d":{"name":"Duchess","locationSet":{"include":["us-oh","us-wv"]},"geometry":["point","area"],"matchScore":2,"terms":["duchess"],"tags":{"brand:wikidata":"Q111698565","shop":"convenience"},"addTags":{"brand":"Duchess","brand:wikidata":"Q111698565","name":"Duchess","shop":"convenience"}},"shop/convenience/gomart-07a9fd":{"name":"GoMart","locationSet":{"include":["us-ky","us-oh","us-va","us-wv"]},"geometry":["point","area"],"matchScore":2,"terms":["gomart"],"tags":{"brand:wikidata":"Q5574575","shop":"convenience"},"addTags":{"brand":"GoMart","brand:wikidata":"Q5574575","name":"GoMart","shop":"convenience"}},"shop/convenience/sheetz-be9dbe":{"name":"Sheetz","locationSet":{"include":["us-md","us-mi","us-nc","us-oh","us-pa","us-va","us-wv"]},"geometry":["point","area"],"matchScore":2,"terms":["sheetz"],"tags":{"brand:wikidata":"Q7492551","shop":"convenience"},"addTags":{"brand":"Sheetz","brand:wikidata":"Q7492551","name":"Sheetz","shop":"convenience"}},"shop/supermarket/gianteagle-dca8d8":{"name":"Giant Eagle","locationSet":{"include":["us-in","us-md","us-oh","us-pa","us-wv"]},"geometry":["point","area"],"matchScore":2,"terms":["giant eagle","giant eagle supermarket"],"tags":{"brand:wikidata":"Q1522721","shop":"supermarket"},"addTags":{"brand":"Giant Eagle","brand:wikidata":"Q1522721","name":"Giant Eagle","shop":"supermarket"}},"amenity/school/jeffersoncountypublicschools-da05eb":{"name":"Jefferson County Public Schools (West Virginia)","locationSet":{"include":["us-wv"]},"geometry":["area","point"],"matchScore":2,"terms":["jcps","jefferson county public schools"],"tags":{"amenity":"school","operator:wikidata":"Q6175441"},"addTags":{"amenity":"school","operator":"Jefferson County Public Schools","operator:short":"JCPS","operator:type":"public","operator:wikidata":"Q6175441"}},"leisure/nature_reserve/westvirginiadivisionofnaturalresources-89af7f":{"name":"West Virginia DNR","locationSet":{"include":["us-wv"]},"geometry":["area","point"],"matchScore":2,"terms":["west virginia division of natural resources","west virginia dnr","wv division of natural resources"],"tags":{"leisure":"nature_reserve","operator:wikidata":"Q7986847"},"addTags":{"leisure":"nature_reserve","operator":"West Virginia Division of Natural Resources","operator:short":"West Virginia DNR","operator:type":"public","operator:wikidata":"Q7986847"}},"leisure/park/westvirginiadivisionofnaturalresources-0e9e9f":{"name":"West Virginia DNR","locationSet":{"include":["us-wv"]},"geometry":["area","point"],"matchScore":2,"terms":["west virginia division of natural resources","west virginia dnr","wv division of natural resources"],"tags":{"leisure":"park","operator:wikidata":"Q7986847"},"addTags":{"leisure":"park","operator":"West Virginia Division of Natural Resources","operator:short":"West Virginia DNR","operator:type":"public","operator:wikidata":"Q7986847"}},"man_made/pipeline/mplx-0d2314":{"name":"MPLX","locationSet":{"include":["us-wv"]},"geometry":["line"],"matchScore":2,"terms":["mplx","mplx lp"],"tags":{"man_made":"pipeline","operator:wikidata":"Q105965677"},"addTags":{"man_made":"pipeline","operator":"MPLX","operator:wikidata":"Q105965677"}},"pipeline/substation/mplx-154416":{"name":"MPLX","locationSet":{"include":["us-wv"]},"geometry":["area","point"],"matchScore":2,"terms":["mplx","mplx lp"],"tags":{"operator:wikidata":"Q105965677","pipeline":"substation"},"addTags":{"operator":"MPLX","operator:wikidata":"Q105965677","pipeline":"substation"}},"power/generator/virginiaelectricandpowercompany-a84d3b":{"name":"Virginia Electric & Power Company","locationSet":{"include":["us-md","us-nc","us-va","us-wv"]},"geometry":["point","vertex","area"],"matchScore":2,"terms":["virginia electric & power company"],"searchable":false,"tags":{"operator:wikidata":"Q117834539","power":"generator"},"addTags":{"operator":"Virginia Electric & Power Company","operator:wikidata":"Q117834539","power":"generator"}},"power/line/appalachianpowercompany-33137a":{"name":"Appalachian Power","locationSet":{"include":["us-tn","us-va","us-wv"]},"geometry":["line"],"matchScore":2,"terms":["apco","appalachian power","appalachian power company","kingsport power company"],"tags":{"operator:wikidata":"Q109013941","power":"line"},"addTags":{"operator":"Appalachian Power Company","operator:wikidata":"Q109013941","power":"line"}},"power/line/monpower-349cef":{"name":"Mon Power","locationSet":{"include":["us-oh","us-wv"]},"geometry":["line"],"matchScore":2,"terms":["mon power","monongahela power company"],"tags":{"operator:wikidata":"Q130233107","power":"line"},"addTags":{"operator":"Mon Power","operator:wikidata":"Q130233107","power":"line"}},"power/line/virginiaelectricandpowercompany-a36c89":{"name":"Virginia Electric & Power Company","locationSet":{"include":["us-md","us-nc","us-va","us-wv"]},"geometry":["line"],"matchScore":2,"terms":["virginia electric & power company"],"searchable":false,"tags":{"operator:wikidata":"Q117834539","power":"line"},"addTags":{"operator":"Virginia Electric & Power Company","operator:wikidata":"Q117834539","power":"line"}},"power/minor_line/appalachianpowercompany-a249c6":{"name":"Appalachian Power","locationSet":{"include":["us-tn","us-va","us-wv"]},"geometry":["line"],"matchScore":2,"terms":["apco","appalachian power","appalachian power company","kingsport power company"],"tags":{"operator:wikidata":"Q109013941","power":"minor_line"},"addTags":{"operator":"Appalachian Power Company","operator:wikidata":"Q109013941","power":"minor_line"}},"power/minor_line/monpower-703893":{"name":"Mon Power","locationSet":{"include":["us-oh","us-wv"]},"geometry":["line"],"matchScore":2,"terms":["mon power","monongahela power company"],"tags":{"operator:wikidata":"Q130233107","power":"minor_line"},"addTags":{"operator":"Mon Power","operator:wikidata":"Q130233107","power":"minor_line"}},"power/minor_line/virginiaelectricandpowercompany-59e99d":{"name":"Virginia Electric & Power Company","locationSet":{"include":["us-md","us-nc","us-va","us-wv"]},"geometry":["line"],"matchScore":2,"terms":["virginia electric & power company"],"searchable":false,"tags":{"operator:wikidata":"Q117834539","power":"minor_line"},"addTags":{"operator":"Virginia Electric & Power Company","operator:wikidata":"Q117834539","power":"minor_line"}},"power/plant/virginiaelectricandpowercompany-87b9b7":{"name":"Virginia Electric & Power Company","locationSet":{"include":["us-md","us-nc","us-va","us-wv"]},"geometry":["area"],"matchScore":2,"terms":["virginia electric & power co","virginia electric & power company"],"searchable":false,"tags":{"operator:wikidata":"Q117834539","power":"plant"},"addTags":{"operator":"Virginia Electric & Power Company","operator:wikidata":"Q117834539","power":"plant"}},"power/pole/appalachianpowercompany-a9fd36":{"name":"Appalachian Power","locationSet":{"include":["us-tn","us-va","us-wv"]},"geometry":["point","vertex"],"matchScore":2,"terms":["apco","appalachian power","appalachian power company","kingsport power company"],"tags":{"operator:wikidata":"Q109013941","power":"pole"},"addTags":{"operator":"Appalachian Power Company","operator:wikidata":"Q109013941","power":"pole"}},"power/pole/monpower-646cd0":{"name":"Mon Power","locationSet":{"include":["us-oh","us-wv"]},"geometry":["point","vertex"],"matchScore":2,"terms":["mon power","monongahela power company"],"tags":{"operator:wikidata":"Q130233107","power":"pole"},"addTags":{"operator":"Mon Power","operator:wikidata":"Q130233107","power":"pole"}},"power/pole/virginiaelectricandpowercompany-7ce060":{"name":"Virginia Electric & Power Company","locationSet":{"include":["us-md","us-nc","us-va","us-wv"]},"geometry":["point","vertex"],"matchScore":2,"terms":["virginia electric & power company"],"searchable":false,"tags":{"operator:wikidata":"Q117834539","power":"pole"},"addTags":{"operator":"Virginia Electric & Power Company","operator:wikidata":"Q117834539","power":"pole"}},"power/substation/appalachianpowercompany-0f82b9":{"name":"Appalachian Power","locationSet":{"include":["us-tn","us-va","us-wv"]},"geometry":["area","point"],"matchScore":2,"terms":["apco","appalachian power","appalachian power company","kingsport power company"],"tags":{"operator:wikidata":"Q109013941","power":"substation"},"addTags":{"operator":"Appalachian Power Company","operator:wikidata":"Q109013941","power":"substation"}},"power/substation/monpower-0ffdee":{"name":"Mon Power","locationSet":{"include":["us-oh","us-wv"]},"geometry":["area","point"],"matchScore":2,"terms":["mon power","monongahela power company"],"tags":{"operator:wikidata":"Q130233107","power":"substation"},"addTags":{"operator":"Mon Power","operator:wikidata":"Q130233107","power":"substation"}},"power/substation/virginiaelectricandpowercompany-73adb4":{"name":"Virginia Electric & Power Company","locationSet":{"include":["us-md","us-nc","us-va","us-wv"]},"geometry":["area","point"],"matchScore":2,"terms":["virginia electric & power company"],"searchable":false,"tags":{"operator:wikidata":"Q117834539","power":"substation"},"addTags":{"operator":"Virginia Electric & Power Company","operator:wikidata":"Q117834539","power":"substation"}},"power/tower/appalachianpowercompany-ea1744":{"name":"Appalachian Power","locationSet":{"include":["us-tn","us-va","us-wv"]},"geometry":["point","vertex"],"matchScore":2,"terms":["apco","appalachian power","appalachian power company","kingsport power company"],"tags":{"operator:wikidata":"Q109013941","power":"tower"},"addTags":{"operator":"Appalachian Power Company","operator:wikidata":"Q109013941","power":"tower"}},"power/tower/monpower-d1056a":{"name":"Mon Power","locationSet":{"include":["us-oh","us-wv"]},"geometry":["point","vertex"],"matchScore":2,"terms":["mon power","monongahela power company"],"tags":{"operator:wikidata":"Q130233107","power":"tower"},"addTags":{"operator":"Mon Power","operator:wikidata":"Q130233107","power":"tower"}},"power/tower/virginiaelectricandpowercompany-037e19":{"name":"Virginia Electric & Power Company","locationSet":{"include":["us-md","us-nc","us-va","us-wv"]},"geometry":["point","vertex"],"matchScore":2,"terms":["virginia electric & power company"],"searchable":false,"tags":{"operator:wikidata":"Q117834539","power":"tower"},"addTags":{"operator":"Virginia Electric & Power Company","operator:wikidata":"Q117834539","power":"tower"}},"power/transformer/appalachianpowercompany-9aaa69":{"name":"Appalachian Power","locationSet":{"include":["us-tn","us-va","us-wv"]},"geometry":["point","vertex"],"matchScore":2,"terms":["apco","appalachian power","appalachian power company","kingsport power company"],"tags":{"operator:wikidata":"Q109013941","power":"transformer"},"addTags":{"operator":"Appalachian Power Company","operator:wikidata":"Q109013941","power":"transformer"}},"power/transformer/monpower-1cd21e":{"name":"Mon Power","locationSet":{"include":["us-oh","us-wv"]},"geometry":["point","vertex"],"matchScore":2,"terms":["mon power","monongahela power company"],"tags":{"operator:wikidata":"Q130233107","power":"transformer"},"addTags":{"operator":"Mon Power","operator:wikidata":"Q130233107","power":"transformer"}},"power/transformer/virginiaelectricandpowercompany-1d1ce8":{"name":"Virginia Electric & Power Company","locationSet":{"include":["us-md","us-nc","us-va","us-wv"]},"geometry":["point","vertex"],"matchScore":2,"terms":["virginia electric & power company"],"searchable":false,"tags":{"operator:wikidata":"Q117834539","power":"transformer"},"addTags":{"operator":"Virginia Electric & Power Company","operator:wikidata":"Q117834539","power":"transformer"}},"shop/charity/goodwillindustriesofgreaterclevelandandeastcentralohio-e44058":{"name":"Goodwill Industries of Greater Cleveland & East Central Ohio","locationSet":{"include":["us-oh","us-wv"]},"geometry":["point","area"],"matchScore":2,"terms":["goodwill","goodwill industries of greater cleveland & east central ohio"],"tags":{"operator:wikidata":"Q126849523","shop":"charity"},"addTags":{"brand":"Goodwill","brand:wikidata":"Q5583655","name":"Goodwill","operator":"Goodwill Industries of Greater Cleveland & East Central Ohio","operator:wikidata":"Q126849523","shop":"charity"}},"shop/charity/goodwillindustriesofkyowvaarea-70702e":{"name":"Goodwill Industries of KYOWVA Area","locationSet":{"include":["us-ky","us-wv"]},"geometry":["point","area"],"matchScore":2,"terms":["goodwill","goodwill industries of kyowva area"],"tags":{"operator:wikidata":"Q126850683","shop":"charity"},"addTags":{"brand":"Goodwill","brand:wikidata":"Q5583655","name":"Goodwill","operator":"Goodwill Industries of KYOWVA Area","operator:wikidata":"Q126850683","shop":"charity"}},"shop/charity/goodwillindustriesofthekanawhavalley-1772e0":{"name":"Goodwill Industries of the Kanawha Valley","locationSet":{"include":["us-wv"]},"geometry":["point","area"],"matchScore":2,"terms":["goodwill","goodwill industries of the kanawha valley"],"tags":{"operator:wikidata":"Q126897947","shop":"charity"},"addTags":{"brand":"Goodwill","brand:wikidata":"Q5583655","name":"Goodwill","operator":"Goodwill Industries of the Kanawha Valley","operator:wikidata":"Q126897947","shop":"charity"}},"shop/charity/goodwillindustriesofzanesville-e44058":{"name":"Goodwill Industries of Zanesville","locationSet":{"include":["us-oh","us-wv"]},"geometry":["point","area"],"matchScore":2,"terms":["goodwill","goodwill industries of zanesville"],"tags":{"operator:wikidata":"Q126898111","shop":"charity"},"addTags":{"brand":"Goodwill","brand:wikidata":"Q5583655","name":"Goodwill","operator":"Goodwill Industries of Zanesville","operator:wikidata":"Q126898111","shop":"charity"}},"shop/charity/goodwillofnorthcentralwestvirginia-1772e0":{"name":"Goodwill of North Central West Virginia","locationSet":{"include":["us-wv"]},"geometry":["point","area"],"matchScore":2,"terms":["goodwill","goodwill of north central west virginia"],"tags":{"operator:wikidata":"Q126898673","shop":"charity"},"addTags":{"brand":"Goodwill","brand:wikidata":"Q5583655","name":"Goodwill","operator":"Goodwill of North Central West Virginia","operator:wikidata":"Q126898673","shop":"charity"}},"shop/charity/horizongoodwillindustries-fa25da":{"name":"Horizon Goodwill Industries","locationSet":{"include":["us-md","us-pa","us-va","us-wv"]},"geometry":["point","area"],"matchScore":2,"terms":["goodwill","horizon goodwill industries"],"tags":{"operator:wikidata":"Q126898859","shop":"charity"},"addTags":{"brand":"Goodwill","brand:wikidata":"Q5583655","name":"Goodwill","operator":"Horizon Goodwill Industries","operator:wikidata":"Q126898859","shop":"charity"}},"public_transport/platform/bus_point/krt-7606c5":{"name":"KRT","locationSet":{"include":["us-wv"]},"geometry":["point","vertex"],"matchScore":2,"terms":["krt"],"reference":{"key":"public_transport","value":"platform"},"tags":{"bus":"yes","network:wikidata":"Q6360825","public_transport":"platform"},"addTags":{"bus":"yes","highway":"bus_stop","network":"KRT","network:wikidata":"Q6360825","public_transport":"platform"}},"type/route/bus/krt-1f9cec":{"name":"KRT","locationSet":{"include":["us-wv"]},"geometry":["relation"],"matchScore":2,"terms":["krt"],"reference":{"key":"route","value":"bus"},"tags":{"network:wikidata":"Q6360825","route":"bus","type":"route"},"addTags":{"network":"KRT","network:wikidata":"Q6360825","route":"bus","type":"route"}}}