{"advertising/totem/eko-c39779":{"name":"EKO (Serbia)","locationSet":{"include":["sr"]},"geometry":["point","line"],"matchScore":2,"terms":["eko","q903198","εκο","еко"],"tags":{"advertising":"totem","brand:wikidata":"Q111604683"},"addTags":{"advertising":"totem","brand":"EKO","brand:wikidata":"Q111604683"}},"advertising/totem/sol-688308":{"name":"Sol","locationSet":{"include":["ai","ag","aw","bs","bb","bq","vg","ky","cu","cw","dm","do","gd","gp","ht","jm","mq","ms","pr","bl","kn","lc","mf","vc","sx","tt","tc","vi","gf","gy","sr"]},"geometry":["point","line"],"matchScore":2,"terms":["sol"],"tags":{"advertising":"totem","brand:wikidata":"Q99939344"},"addTags":{"advertising":"totem","brand":"Sol","brand:wikidata":"Q99939344"}},"amenity/fuel/eko-f2605e":{"name":"EKO (Serbia)","locationSet":{"include":["sr"]},"geometry":["point","area"],"matchScore":2,"terms":["eko","q903198","εκο","еко"],"fields":["name","brand","{amenity/fuel}"],"tags":{"amenity":"fuel","brand:wikidata":"Q111604683"},"addTags":{"amenity":"fuel","brand":"EKO","brand:wikidata":"Q111604683","name":"EKO"}},"amenity/fuel/sol-6e9b5c":{"name":"Sol","locationSet":{"include":["ai","ag","aw","bs","bb","bq","vg","ky","cu","cw","dm","do","gd","gp","ht","jm","mq","ms","pr","bl","kn","lc","mf","vc","sx","tt","tc","vi","gf","gy","sr"]},"geometry":["point","area"],"matchScore":2,"terms":["sol"],"fields":["name","brand","{amenity/fuel}"],"tags":{"amenity":"fuel","brand:wikidata":"Q99939344"},"addTags":{"amenity":"fuel","brand":"Sol","brand:wikidata":"Q99939344","name":"Sol"}},"amenity/restaurant/pizza/chuckecheese-826402":{"name":"Chuck E. Cheese","locationSet":{"include":["ae","bh","ca","ch","co","gt","hn","mx","pa","pe","qa","sa","sr","sv","tt","us"]},"geometry":["point","area"],"matchScore":2,"terms":["chuck e. cheese","chuck e. cheese's"],"reference":{"key":"cuisine","value":"pizza"},"tags":{"amenity":"restaurant","brand:wikidata":"Q2438391","cuisine":"pizza"},"addTags":{"amenity":"restaurant","brand":"Chuck E. Cheese","brand:wikidata":"Q2438391","cuisine":"pizza","leisure":"amusement_arcade","name":"Chuck E. Cheese"}},"amenity/clinic/medischezending-903c7c":{"name":"Medische Zending","locationSet":{"include":["sr"]},"geometry":["point","area"],"matchScore":2,"terms":["medische zending","medische zending primary health care suriname","mzphcs;mz"],"fields":["name","operator","{amenity/clinic}"],"reference":{"key":"amenity","value":"clinic"},"tags":{"amenity":"clinic","operator:wikidata":"Q25230853"},"addTags":{"amenity":"clinic","healthcare":"clinic","operator":"Medische Zending","operator:official":"Medische Zending Primary Health Care Suriname","operator:short":"MZPHCS;MZ","operator:type":"public","operator:wikidata":"Q25230853"}},"amenity/telephone/claro-6490cd":{"name":"Claro","locationSet":{"include":["ai","ag","aw","bs","bb","bq","vg","ky","cu","cw","dm","do","gd","gp","ht","jm","mq","ms","pr","bl","kn","lc","mf","vc","sx","tt","tc","vi","bz","cr","sv","gt","hn","mx","ni","pa","ar","bo","bv","br","cl","co","ec","fk","gf","gy","py","pe","gs","sr","uy","ve"]},"geometry":["point","vertex"],"matchScore":2,"terms":["claro"],"fields":["name","operator","{amenity/telephone}"],"tags":{"amenity":"telephone","operator:wikidata":"Q1770208"},"addTags":{"amenity":"telephone","operator":"Claro","operator:wikidata":"Q1770208"}}}