{"amenity/atm/bni-d4d2b6":{"name":"BNI","locationSet":{"include":["au","ca","gb","hk","id","jp","kr","mm","sg","us"]},"geometry":["point","vertex"],"matchScore":2,"terms":["bank bni","bank negara indonesia","bni"],"fields":["name","brand","{amenity/atm}"],"tags":{"amenity":"atm","brand:wikidata":"Q2882611"},"addTags":{"amenity":"atm","brand":"BNI","brand:wikidata":"Q2882611","official_name":"Bank Negara Indonesia","operator":"BNI","operator:wikidata":"Q2882611"}},"amenity/atm/industrialbankofkorea-cfe76c":{"name":"IBK기업은행","locationSet":{"include":["kr"]},"geometry":["point","vertex"],"matchScore":2,"terms":["ibk기업은행","industrial bank of korea","기업은행","중소기업은행"],"fields":["name","brand","{amenity/atm}"],"tags":{"amenity":"atm","brand:wikidata":"Q483855"},"addTags":{"amenity":"atm","brand":"IBK기업은행","brand:en":"Industrial Bank of Korea","brand:ko":"IBK기업은행","brand:wikidata":"Q483855","name:en":"Industrial Bank of Korea","name:ko":"IBK기업은행","operator":"IBK기업은행","operator:wikidata":"Q483855"}},"amenity/atm/kbkookminbank-cfe76c":{"name":"KB국민은행","locationSet":{"include":["kr"]},"geometry":["point","vertex"],"matchScore":2,"terms":["kb kookmin bank","kb국민은행","국민은행"],"fields":["name","brand","{amenity/atm}"],"tags":{"amenity":"atm","brand:wikidata":"Q496606"},"addTags":{"amenity":"atm","brand":"KB국민은행","brand:en":"KB Kookmin Bank","brand:ko":"KB국민은행","brand:wikidata":"Q496606","name:en":"KB Kookmin Bank","name:ko":"KB국민은행","operator":"KB국민은행","operator:wikidata":"Q496606"}},"amenity/atm/219d89-cfe76c":{"name":"MG새마을금고","locationSet":{"include":["kr"]},"geometry":["point","vertex"],"matchScore":2,"terms":["mg새마을금고","새마을금고","새마을금고중앙회"],"fields":["name","brand","{amenity/atm}"],"tags":{"amenity":"atm","brand:wikidata":"Q12600614"},"addTags":{"amenity":"atm","brand":"MG새마을금고","brand:ko":"MG새마을금고","brand:wikidata":"Q12600614","name:ko":"MG새마을금고","operator":"MG새마을금고","operator:wikidata":"Q12600614"}},"amenity/atm/nhbank-cfe76c":{"name":"NH농협은행","locationSet":{"include":["kr"]},"geometry":["point","vertex"],"matchScore":2,"terms":["nh bank","nh농협은행","농협은행","농협중앙회"],"fields":["name","brand","{amenity/atm}"],"tags":{"amenity":"atm","brand:wikidata":"Q15283673"},"addTags":{"amenity":"atm","brand":"NH농협은행","brand:en":"NH Bank","brand:ko":"NH농협은행","brand:wikidata":"Q15283673","name:en":"NH Bank","name:ko":"NH농협은행","operator":"NH농협은행","operator:wikidata":"Q15283673"}},"amenity/atm/2a04be-cfe76c":{"name":"SC제일은행","locationSet":{"include":["kr"]},"geometry":["point","vertex"],"matchScore":2,"terms":["sc제일은행","스탠다드차타드은행","제일은행"],"fields":["name","brand","{amenity/atm}"],"tags":{"amenity":"atm","brand:wikidata":"Q625531"},"addTags":{"amenity":"atm","brand":"SC제일은행","brand:ko":"SC제일은행","brand:wikidata":"Q625531","name:ko":"SC제일은행","operator":"SC제일은행","operator:wikidata":"Q625531"}},"amenity/atm/uob-441a96":{"name":"UOB","locationSet":{"include":["au","bn","ca","cn","gb","hk","id","in","jp","kr","mm","my","ph","sg","th","us","vn"]},"geometry":["point","vertex"],"matchScore":2,"terms":["united overseas bank","uob","大华银行"],"fields":["name","brand","{amenity/atm}"],"tags":{"amenity":"atm","brand:wikidata":"Q2064074"},"addTags":{"amenity":"atm","brand":"UOB","brand:wikidata":"Q2064074","brand:zh":"大华银行","name:zh":"大华银行","operator":"UOB","operator:wikidata":"Q2064074"}},"amenity/atm/nonghyupbank-cfe76c":{"name":"농협","locationSet":{"include":["kr"]},"geometry":["point","vertex"],"matchScore":2,"terms":["nh","nh bank","nonghyup bank","농협"],"fields":["name","brand","{amenity/atm}"],"tags":{"amenity":"atm","brand:wikidata":"Q15283673"},"addTags":{"amenity":"atm","brand":"농협","brand:ko":"농협","brand:wikidata":"Q15283673","name:en":"Nonghyup Bank","name:ko":"농협","name:ko-Latn":"Nonghyeop","operator":"농협","operator:wikidata":"Q15283673"}},"amenity/atm/shinhanbank-cfe76c":{"name":"신한은행","locationSet":{"include":["kr"]},"geometry":["point","vertex"],"matchScore":2,"terms":["shinhan bank","신한은행"],"fields":["name","brand","{amenity/atm}"],"tags":{"amenity":"atm","brand:wikidata":"Q487230"},"addTags":{"amenity":"atm","brand":"신한은행","brand:en":"Shinhan Bank","brand:ko":"신한은행","brand:wikidata":"Q487230","name:en":"Shinhan Bank","name:ko":"신한은행","operator":"신한은행","operator:wikidata":"Q487230"}},"amenity/atm/wooribank-cfe76c":{"name":"우리은행","locationSet":{"include":["kr"]},"geometry":["point","vertex"],"matchScore":2,"terms":["woori bank","우리은행"],"fields":["name","brand","{amenity/atm}"],"tags":{"amenity":"atm","brand:wikidata":"Q494369"},"addTags":{"amenity":"atm","brand":"우리은행","brand:en":"Woori Bank","brand:ko":"우리은행","brand:wikidata":"Q494369","name:en":"Woori Bank","name:ko":"우리은행","operator":"우리은행","operator:wikidata":"Q494369"}},"amenity/atm/kebhanabank-cfe76c":{"name":"하나은행","locationSet":{"include":["kr"]},"geometry":["point","vertex"],"matchScore":2,"terms":["keb hana bank","keb하나은행","하나은행"],"fields":["name","brand","{amenity/atm}"],"tags":{"amenity":"atm","brand:wikidata":"Q484047"},"addTags":{"amenity":"atm","brand":"하나은행","brand:en":"KEB Hana Bank","brand:ko":"하나은행","brand:wikidata":"Q484047","name:en":"KEB Hana Bank","name:ko":"하나은행","operator":"하나은행","operator:wikidata":"Q484047"}},"amenity/bank/bni-27dfb6":{"name":"BNI","locationSet":{"include":["au","ca","gb","hk","id","jp","kr","mm","sg","us"]},"geometry":["point","area"],"matchScore":2,"terms":["bank bni","bank negara indonesia","bni"],"tags":{"amenity":"bank","brand:wikidata":"Q2882611"},"addTags":{"amenity":"bank","brand":"BNI","brand:wikidata":"Q2882611","name":"BNI","official_name":"Bank Negara Indonesia"}},"amenity/bank/industrialbankofkorea-10d607":{"name":"IBK기업은행","locationSet":{"include":["kr"]},"geometry":["point","area"],"matchScore":2,"terms":["ibk기업은행","industrial bank of korea","기업은행","중소기업은행"],"tags":{"amenity":"bank","brand:wikidata":"Q483855"},"addTags":{"amenity":"bank","brand":"IBK기업은행","brand:en":"Industrial Bank of Korea","brand:ko":"IBK기업은행","brand:wikidata":"Q483855","name":"IBK기업은행","name:en":"Industrial Bank of Korea","name:ko":"IBK기업은행"}},"amenity/bank/kbkookminbank-10d607":{"name":"KB국민은행","locationSet":{"include":["kr"]},"geometry":["point","area"],"matchScore":2,"terms":["kb kookmin bank","kb국민은행","국민은행"],"tags":{"amenity":"bank","brand:wikidata":"Q496606"},"addTags":{"amenity":"bank","brand":"KB국민은행","brand:en":"KB Kookmin Bank","brand:ko":"KB국민은행","brand:wikidata":"Q496606","name":"KB국민은행","name:en":"KB Kookmin Bank","name:ko":"KB국민은행"}},"amenity/bank/219d89-10d607":{"name":"MG새마을금고","locationSet":{"include":["kr"]},"geometry":["point","area"],"matchScore":2,"terms":["mg새마을금고","새마을금고","새마을금고중앙회"],"tags":{"amenity":"bank","brand:wikidata":"Q12600614"},"addTags":{"amenity":"bank","brand":"MG새마을금고","brand:ko":"MG새마을금고","brand:wikidata":"Q12600614","name":"MG새마을금고","name:ko":"MG새마을금고"}},"amenity/bank/nhbank-10d607":{"name":"NH농협은행","locationSet":{"include":["kr"]},"geometry":["point","area"],"matchScore":2,"terms":["nh bank","nh농협은행","농협은행","농협중앙회"],"tags":{"amenity":"bank","brand:wikidata":"Q15283673"},"addTags":{"amenity":"bank","brand":"NH농협은행","brand:en":"NH Bank","brand:ko":"NH농협은행","brand:wikidata":"Q15283673","name":"NH농협은행","name:en":"NH Bank","name:ko":"NH농협은행"}},"amenity/bank/2a04be-10d607":{"name":"SC제일은행","locationSet":{"include":["kr"]},"geometry":["point","area"],"matchScore":2,"terms":["sc제일은행","스탠다드차타드은행","제일은행"],"tags":{"amenity":"bank","brand:wikidata":"Q625531"},"addTags":{"amenity":"bank","brand":"SC제일은행","brand:ko":"SC제일은행","brand:wikidata":"Q625531","name":"SC제일은행","name:ko":"SC제일은행"}},"amenity/bank/uob-dadccc":{"name":"UOB","locationSet":{"include":["au","bn","ca","cn","gb","hk","id","in","jp","kr","mm","my","ph","sg","th","us","vn"]},"geometry":["point","area"],"matchScore":2,"terms":["united overseas bank","uob","大华银行"],"tags":{"amenity":"bank","brand:wikidata":"Q2064074"},"addTags":{"amenity":"bank","brand":"UOB","brand:wikidata":"Q2064074","brand:zh":"大华银行","name":"UOB","name:zh":"大华银行"}},"amenity/bank/nonghyupbank-10d607":{"name":"농협","locationSet":{"include":["kr"]},"geometry":["point","area"],"matchScore":2,"terms":["nh","nh bank","nonghyup bank","농협"],"tags":{"amenity":"bank","brand:wikidata":"Q15283673"},"addTags":{"amenity":"bank","brand":"농협","brand:ko":"농협","brand:wikidata":"Q15283673","name":"농협","name:en":"Nonghyup Bank","name:ko":"농협","name:ko-Latn":"Nonghyeop"}},"amenity/bank/shinhanbank-10d607":{"name":"신한은행","locationSet":{"include":["kr"]},"geometry":["point","area"],"matchScore":2,"terms":["shinhan bank","신한은행"],"tags":{"amenity":"bank","brand:wikidata":"Q487230"},"addTags":{"amenity":"bank","brand":"신한은행","brand:en":"Shinhan Bank","brand:ko":"신한은행","brand:wikidata":"Q487230","name":"신한은행","name:en":"Shinhan Bank","name:ko":"신한은행"}},"amenity/bank/wooribank-10d607":{"name":"우리은행","locationSet":{"include":["kr"]},"geometry":["point","area"],"matchScore":2,"terms":["woori bank","우리은행"],"tags":{"amenity":"bank","brand:wikidata":"Q494369"},"addTags":{"amenity":"bank","brand":"우리은행","brand:en":"Woori Bank","brand:ko":"우리은행","brand:wikidata":"Q494369","name":"우리은행","name:en":"Woori Bank","name:ko":"우리은행"}},"amenity/bank/kebhanabank-10d607":{"name":"하나은행","locationSet":{"include":["kr"]},"geometry":["point","area"],"matchScore":2,"terms":["keb hana bank","keb하나은행","하나은행"],"tags":{"amenity":"bank","brand:wikidata":"Q484047"},"addTags":{"amenity":"bank","brand":"하나은행","brand:en":"KEB Hana Bank","brand:ko":"하나은행","brand:wikidata":"Q484047","name":"하나은행","name:en":"KEB Hana Bank","name:ko":"하나은행"}},"amenity/cafe/coffee_shop/bluebottlecoffee-7856c0":{"name":"Blue Bottle Coffee","locationSet":{"include":["jp","kr","us"]},"geometry":["point","area"],"matchScore":2,"terms":["blue bottle coffee"],"reference":{"key":"cuisine","value":"coffee_shop"},"tags":{"amenity":"cafe","brand:wikidata":"Q4928917","cuisine":"coffee_shop"},"addTags":{"amenity":"cafe","brand":"Blue Bottle Coffee","brand:wikidata":"Q4928917","cuisine":"coffee_shop","name":"Blue Bottle Coffee","takeaway":"yes"}},"amenity/cafe/coffee_shop/congcaphe-6f4c59":{"name":"Cộng Cà Phê","locationSet":{"include":["kr","vn"]},"geometry":["point","area"],"matchScore":2,"terms":["cong","cộng cà phê"],"reference":{"key":"cuisine","value":"coffee_shop"},"tags":{"amenity":"cafe","brand:wikidata":"Q63864181","cuisine":"coffee_shop;vietnamese"},"addTags":{"amenity":"cafe","brand":"Cộng Cà Phê","brand:wikidata":"Q63864181","cuisine":"coffee_shop;vietnamese","name":"Cộng Cà Phê","name:vi":"Cộng Cà Phê","takeaway":"yes"}},"amenity/cafe/coffee_shop/thebarn-72cbb9":{"name":"The Barn","locationSet":{"include":["ae","de","kr"]},"geometry":["point","area"],"matchScore":2,"terms":["the barn"],"reference":{"key":"cuisine","value":"coffee_shop"},"tags":{"amenity":"cafe","brand:wikidata":"Q110545264","cuisine":"coffee_shop"},"addTags":{"amenity":"cafe","brand":"The Barn","brand:wikidata":"Q110545264","cuisine":"coffee_shop","name":"The Barn","takeaway":"yes"}},"amenity/cafe/coffee_shop/tomntoms-16c022":{"name":"Tom N Toms","locationSet":{"include":["au","ch","hk","kr","mn","mo","my","ph","sg","th","us"]},"geometry":["point","area"],"matchScore":2,"terms":["tom n toms","탐앤탐스"],"reference":{"key":"cuisine","value":"coffee_shop"},"tags":{"amenity":"cafe","brand:wikidata":"Q18142418","cuisine":"coffee_shop;pretzel;smoothie;tea;bread"},"addTags":{"amenity":"cafe","brand":"Tom N Toms","brand:en":"Tom N Toms","brand:ko":"탐앤탐스","brand:wikidata":"Q18142418","cuisine":"coffee_shop;pretzel;smoothie;tea;bread","name":"Tom N Toms","takeaway":"yes"}},"amenity/cafe/bubble_tea/gongcha-77c68b":{"name":"공차","locationSet":{"include":["kr"]},"geometry":["point","area"],"matchScore":2,"terms":["gong cha","공차","貢茶"],"reference":{"key":"cuisine","value":"bubble_tea"},"tags":{"amenity":"cafe","brand:wikidata":"Q5581670","cuisine":"bubble_tea"},"addTags":{"amenity":"cafe","brand":"공차","brand:en":"Gong Cha","brand:ko":"공차","brand:wikidata":"Q5581670","brand:zh":"貢茶","cuisine":"bubble_tea","name":"공차","name:en":"Gong Cha","name:ko":"공차","name:zh":"貢茶","takeaway":"yes"}},"amenity/cafe/coffee_shop/starbucks-77c68b":{"name":"스타벅스","locationSet":{"include":["kr"]},"geometry":["point","area"],"matchScore":2,"terms":["starbucks","스타벅스"],"reference":{"key":"cuisine","value":"coffee_shop"},"tags":{"amenity":"cafe","brand:wikidata":"Q37158","cuisine":"coffee_shop"},"addTags":{"amenity":"cafe","brand":"스타벅스","brand:en":"Starbucks","brand:ko":"스타벅스","brand:wikidata":"Q37158","cuisine":"coffee_shop","name":"스타벅스","name:en":"Starbucks","name:ko":"스타벅스","takeaway":"yes"}},"amenity/cafe/coffee_shop/ediyacoffee-77c68b":{"name":"이디야커피","locationSet":{"include":["kr"]},"geometry":["point","area"],"matchScore":2,"terms":["ediya coffee","이디야커피"],"reference":{"key":"cuisine","value":"coffee_shop"},"tags":{"amenity":"cafe","brand:wikidata":"Q12611298","cuisine":"coffee_shop"},"addTags":{"amenity":"cafe","brand":"이디야커피","brand:en":"Ediya Coffee","brand:ko":"이디야커피","brand:wikidata":"Q12611298","cuisine":"coffee_shop","name":"이디야커피","name:en":"Ediya Coffee","name:ko":"이디야커피","takeaway":"yes"}},"amenity/cafe/coffee_shop/caffebene-77c68b":{"name":"카페베네","locationSet":{"include":["kr"]},"geometry":["point","area"],"matchScore":2,"terms":["caffé bene","카페베네"],"reference":{"key":"cuisine","value":"coffee_shop"},"tags":{"amenity":"cafe","brand:wikidata":"Q5017149","cuisine":"coffee_shop"},"addTags":{"amenity":"cafe","brand":"카페베네","brand:en":"Caffé Bene","brand:ko":"카페베네","brand:wikidata":"Q5017149","cuisine":"coffee_shop","name":"카페베네","name:en":"Caffé Bene","name:ko":"카페베네","takeaway":"yes"}},"amenity/cafe/coffee_shop/atwosomeplace-77c68b":{"name":"투썸플레이스","locationSet":{"include":["kr"]},"geometry":["point","area"],"matchScore":2,"terms":["a twosome place","투썸플레이스"],"reference":{"key":"cuisine","value":"coffee_shop"},"tags":{"amenity":"cafe","brand:wikidata":"Q12621301","cuisine":"coffee_shop"},"addTags":{"amenity":"cafe","brand":"투썸플레이스","brand:en":"A Twosome Place","brand:ko":"투썸플레이스","brand:wikidata":"Q12621301","cuisine":"coffee_shop","name":"투썸플레이스","name:en":"A Twosome Place","name:ko":"투썸플레이스","takeaway":"yes"}},"amenity/cinema/cgvcinema-c6663f":{"name":"CJ CGV","locationSet":{"include":["kr"]},"geometry":["point","area"],"matchScore":2,"terms":["cgv","cgv cinema","씨제이 씨지브이)㈜"],"fields":["name","brand","{amenity/cinema}"],"tags":{"amenity":"cinema","brand:wikidata":"Q5012261"},"addTags":{"amenity":"cinema","brand":"씨제이 씨지브이)㈜","brand:en":"CGV Cinema","brand:ko":"씨제이 씨지브이)㈜","brand:wikidata":"Q5012261","name":"씨제이 씨지브이)㈜","name:en":"CGV Cinema","name:ko":"씨제이 씨지브이)㈜"}},"amenity/fast_food/hot_dog/costcofoodcourt-2909a2":{"name":"Costco Food Court","locationSet":{"include":["au","ca","jp","kr","mx","tw","uk","us"]},"geometry":["point","area"],"matchScore":2,"terms":["costco"],"reference":{"key":"cuisine","value":"hot_dog"},"tags":{"amenity":"fast_food","brand:wikidata":"Q715583","cuisine":"hot_dog;pizza;sandwich"},"addTags":{"amenity":"fast_food","brand":"Costco","brand:wikidata":"Q715583","cuisine":"hot_dog;pizza;sandwich","name":"Costco Food Court","takeaway":"yes"}},"amenity/fast_food/burger/eggslut-26c4d5":{"name":"Eggslut","locationSet":{"include":["gb","jp","kr","kw","us"]},"geometry":["point","area"],"matchScore":2,"terms":["eggslut"],"reference":{"key":"cuisine","value":"burger"},"tags":{"amenity":"fast_food","brand:wikidata":"Q17239262","cuisine":"burger"},"addTags":{"amenity":"fast_food","brand":"Eggslut","brand:wikidata":"Q17239262","cuisine":"burger","name":"Eggslut","takeaway":"yes"}},"amenity/fast_food/pizza/hell-6fb486":{"name":"Hell Pizza","locationSet":{"include":["ca","ie","in","kr","nz","uk"]},"geometry":["point","area"],"matchScore":2,"terms":["hell pizza"],"reference":{"key":"cuisine","value":"pizza"},"tags":{"amenity":"fast_food","brand:wikidata":"Q1602607","cuisine":"pizza"},"addTags":{"amenity":"fast_food","brand":"Hell Pizza","brand:wikidata":"Q1602607","cuisine":"pizza","name":"Hell","takeaway":"yes"}},"amenity/fast_food/pizza/mrpizza-c56583":{"name":"Mr. Pizza","locationSet":{"include":["kr"]},"geometry":["point","area"],"matchScore":2,"terms":["mr. pizza","미스터피자"],"reference":{"key":"cuisine","value":"pizza"},"tags":{"amenity":"fast_food","brand:wikidata":"Q5361801","cuisine":"pizza"},"addTags":{"amenity":"fast_food","brand":"Mr. Pizza","brand:wikidata":"Q5361801","cuisine":"pizza","name:en":"Mr. Pizza","name:ko":"미스터피자","takeaway":"yes"}},"amenity/fast_food/burger/lotteria-c56583":{"name":"롯데리아","locationSet":{"include":["kr"]},"geometry":["point","area"],"matchScore":2,"terms":["lotteria","롯데리아"],"reference":{"key":"cuisine","value":"burger"},"tags":{"amenity":"fast_food","brand:wikidata":"Q249525","cuisine":"burger"},"addTags":{"amenity":"fast_food","brand":"롯데리아","brand:en":"Lotteria","brand:ko":"롯데리아","brand:wikidata":"Q249525","cuisine":"burger","name":"롯데리아","name:en":"Lotteria","name:ko":"롯데리아","takeaway":"yes"}},"amenity/fast_food/burger/e7198e-c56583":{"name":"맘스터치","locationSet":{"include":["kr"]},"geometry":["point","area"],"matchScore":2,"terms":["맘스터치"],"reference":{"key":"cuisine","value":"burger"},"tags":{"amenity":"fast_food","brand:wikidata":"Q23044856","cuisine":"burger"},"addTags":{"amenity":"fast_food","brand":"맘스터치","brand:ko":"맘스터치","brand:wikidata":"Q23044856","cuisine":"burger","name":"맘스터치","name:ko":"맘스터치","takeaway":"yes"}},"amenity/fast_food/burger/mcdonalds-c56583":{"name":"맥도날드","locationSet":{"include":["kr"]},"geometry":["point","area"],"matchScore":2,"terms":["mcdonald's","맥도날드"],"reference":{"key":"cuisine","value":"burger"},"tags":{"amenity":"fast_food","brand:wikidata":"Q38076","cuisine":"burger"},"addTags":{"amenity":"fast_food","brand":"맥도날드","brand:en":"McDonald's","brand:ko":"맥도날드","brand:wikidata":"Q38076","cuisine":"burger","name":"맥도날드","name:en":"McDonald's","name:ko":"맥도날드","takeaway":"yes"}},"amenity/fuel/caltex-5153a3":{"name":"Caltex","locationSet":{"include":["ae","au","eg","hk","id","kh","kr","lk","my","ph","pk","sa","sg","th","vn","za"]},"geometry":["point","area"],"matchScore":2,"terms":["caltex"],"fields":["name","brand","{amenity/fuel}"],"tags":{"amenity":"fuel","brand:wikidata":"Q277470"},"addTags":{"amenity":"fuel","brand":"Caltex","brand:wikidata":"Q277470","name":"Caltex"}},"amenity/language_school/shaneenglishschool-f8b177":{"name":"Shane English School","locationSet":{"include":["dz","gb","hk","id","kr","pl","th","vn"]},"geometry":["point","area"],"matchScore":2,"terms":["shane english school","シェーン英会話"],"fields":["name","brand","{amenity/language_school}"],"tags":{"amenity":"language_school","brand:wikidata":"Q17054332"},"addTags":{"amenity":"language_school","brand":"Shane English School","brand:en":"Shane English School","brand:ja":"シェーン英会話","brand:ja-Latn":"Shēn Eikaiwa","brand:wikidata":"Q17054332","language:en":"main","name":"Shane English School","name:en":"Shane English School","name:ja":"シェーン英会話","name:ja-Latn":"Shēn Eikaiwa"}},"amenity/pub/brewdog-f93a3c":{"name":"BrewDog","locationSet":{"include":["au","be","de","es","fr","gb","it","kr","no","se","us"]},"geometry":["point","area"],"matchScore":2,"terms":["brewdog"],"fields":["name","brand","{amenity/pub}"],"tags":{"amenity":"pub","brand:wikidata":"Q911367"},"addTags":{"amenity":"pub","brand":"BrewDog","brand:wikidata":"Q911367","name":"BrewDog"}},"amenity/restaurant/sushi/bonchonchicken-b76b63":{"name":"Bonchon Chicken","locationSet":{"include":["bh","kh","kr","kw","my","ph","sg","th","us"]},"geometry":["point","area"],"matchScore":2,"terms":["bonchon","bonchon chicken","bonchon fried chicken"],"reference":{"key":"cuisine","value":"sushi"},"tags":{"amenity":"restaurant","brand:wikidata":"Q4941248","cuisine":"chicken;korean;sushi"},"addTags":{"amenity":"restaurant","brand":"Bonchon Chicken","brand:wikidata":"Q4941248","cuisine":"chicken;korean;sushi","name":"Bonchon Chicken"}},"amenity/restaurant/japanese/cocoichibanya-365649":{"name":"CoCo Ichibanya","locationSet":{"include":["cn","hk","id","in","kr","ph","sg","th","tw","uk","us","vn"]},"geometry":["point","area"],"matchScore":2,"terms":["coco ichibanya","coco壱番屋"],"reference":{"key":"cuisine","value":"japanese"},"tags":{"amenity":"restaurant","brand:wikidata":"Q5986105","cuisine":"japanese"},"addTags":{"amenity":"restaurant","brand":"CoCo Ichibanya","brand:en":"CoCo Ichibanya","brand:ja":"CoCo壱番屋","brand:wikidata":"Q5986105","cuisine":"japanese","name":"CoCo Ichibanya","name:en":"CoCo Ichibanya","name:ja":"CoCo壱番屋","takeaway":"yes"}},"amenity/restaurant/dintaifung-4a64f1":{"name":"Din Tai Fung","locationSet":{"include":["ae","au","gb","id","jp","kr","mo","my","ph","sg","th","us"]},"geometry":["point","area"],"matchScore":2,"terms":["din tai fung","鼎泰豐"],"tags":{"amenity":"restaurant","brand:wikidata":"Q699142"},"addTags":{"amenity":"restaurant","brand":"Din Tai Fung","brand:en":"Din Tai Fung","brand:wikidata":"Q699142","brand:zh":"鼎泰豐","cuisine":"taiwanese","name":"Din Tai Fung","name:en":"Din Tai Fung","name:zh":"鼎泰豐"}},"amenity/restaurant/vietnamese/phohoa-13c988":{"name":"Phở Hòa","locationSet":{"include":["ca","id","kr","ms","ph","us"]},"geometry":["point","area"],"matchScore":2,"terms":["pho hoa","phở hoà","phở hòa"],"reference":{"key":"cuisine","value":"vietnamese"},"tags":{"amenity":"restaurant","brand:wikidata":"Q55629932","cuisine":"vietnamese;noodle"},"addTags":{"alt_name":"Phở Hoà","alt_name:en":"Pho Hoa","alt_name:vi":"Phở Hoà","amenity":"restaurant","brand":"Phở Hòa","brand:wikidata":"Q55629932","cuisine":"vietnamese;noodle","name":"Phở Hòa","name:vi":"Phở Hòa"}},"amenity/restaurant/theoriginalpancakehouse-832bb4":{"name":"The Original Pancake House","locationSet":{"include":["jp","kr","us"]},"geometry":["point","area"],"matchScore":2,"terms":["original pancake house","the original pancake house"],"tags":{"amenity":"restaurant","brand:wikidata":"Q7755384"},"addTags":{"amenity":"restaurant","brand":"The Original Pancake House","brand:wikidata":"Q7755384","cuisine":"breakfast;pancake","name":"The Original Pancake House"}},"amenity/restaurant/vips-5f8110":{"name":"빕스","locationSet":{"include":["kr"]},"geometry":["point","area"],"matchScore":2,"terms":["vips","빕스"],"tags":{"amenity":"restaurant","brand:wikidata":"Q12599540"},"addTags":{"amenity":"restaurant","brand":"빕스","brand:en":"Vips","brand:ko":"빕스","brand:wikidata":"Q12599540","cuisine":"salad;steak_house","name":"빕스","name:en":"Vips","name:ko":"빕스"}},"amenity/restaurant/chinese/yangguofuspicyhotpot-c61f2f":{"name":"杨国福麻辣烫","locationSet":{"include":["au","ca","cn","jp","kr","sg"]},"geometry":["point","area"],"matchScore":2,"terms":["yangguofu spicy hot pot","杨国福麻辣烫"],"reference":{"key":"cuisine","value":"chinese"},"tags":{"amenity":"restaurant","brand:wikidata":"Q108210209","cuisine":"chinese;malatang"},"addTags":{"amenity":"restaurant","brand":"杨国福麻辣烫","brand:en":"Yangguofu Spicy Hot Pot","brand:wikidata":"Q108210209","brand:zh":"杨国福麻辣烫","cuisine":"chinese;malatang","name":"杨国福麻辣烫","name:en":"Yangguofu Spicy Hot Pot","name:zh":"杨国福麻辣烫"}},"amenity/school/maplebear-101006":{"name":"Maple Bear","locationSet":{"include":["ae","al","ar","au","bd","bg","br","ca","gt","hk","hr","in","ke","kr","lk","ma","mx","my","np","om","pe","ph","py","ro","rs","sg","th","tk","ua","us","vn"]},"geometry":["area","point"],"matchScore":2,"terms":["maple bear"],"fields":["name","brand","{amenity/school}"],"tags":{"amenity":"school","brand:wikidata":"Q10324823"},"addTags":{"amenity":"school","brand":"Maple Bear","brand:wikidata":"Q10324823","name":"Maple Bear","operator:type":"private"}},"amenity/social_centre/vfwpost-8be9ec":{"name":"VFW Post","locationSet":{"include":["de","jp","kr","ph","th","us"]},"geometry":["point","area"],"matchScore":2,"terms":["veterans of foreign wars of the united states","vfw","vfw post"],"fields":["name","brand","{amenity/social_centre}"],"tags":{"amenity":"social_centre","brand:wikidata":"Q3556413"},"addTags":{"amenity":"social_centre","brand":"Veterans of Foreign Wars of the United States","brand:wikidata":"Q3556413","name":"VFW Post","name:en":"VFW Post","official_name":"Veterans of Foreign Wars of the United States","short_name":"VFW","social_centre:for":"veterans"}},"leisure/sports_centre/k1speed-fb63c7":{"name":"K1 Speed","locationSet":{"include":["ca","cn","do","fx","it","kr","kw","mx","us"]},"geometry":["point","area"],"matchScore":2,"terms":["k1 speed"],"fields":["name","brand","{leisure/sports_centre}"],"tags":{"brand:wikidata":"Q105615897","leisure":"sports_centre"},"addTags":{"brand":"K1 Speed","brand:wikidata":"Q105615897","leisure":"sports_centre","name":"K1 Speed","sport":"karting"}},"office/insurance/allianz-332499":{"name":"Allianz","locationSet":{"include":["ae","ar","at","au","be","bg","bh","bm","bn","br","ca","cg","ch","ci","cm","cn","co","cy","cz","de","dk","ee","eg","es","fi","fr","gb","gf","gg","gh","gp","gr","hk","hr","hu","id","ie","in","is","it","ja","ke","kr","kw","la","li","lk","lt","lu","lv","ma","mg","mx","my","ng","nl","no","nz","om","ph","pk","pl","pt","qa","ro","ru","sa","se","sg","si","sk","sn","th","tr","tw","ua","us","za"]},"geometry":["point","area"],"matchScore":2,"terms":["allianz"],"fields":["name","brand","{office/insurance}"],"tags":{"brand:wikidata":"Q487292","office":"insurance"},"addTags":{"brand":"Allianz","brand:wikidata":"Q487292","name":"Allianz","office":"insurance"}},"office/insurance/axa-2e7672":{"name":"AXA","locationSet":{"include":["ae","ar","au","be","bh","bm","br","ca","ch","ci","cl","cm","cn","co","cz","de","dk","dz","eg","es","fi","fr","ga","gb","gr","hk","id","ie","in","it","jp","kr","lb","lu","ma","mu","mx","my","ng","nl","no","om","pa","pe","ph","pl","pt","qa","sa","se","sg","sk","sn","th","tr","tw","us"]},"geometry":["point","area"],"matchScore":2,"terms":["axa"],"fields":["name","brand","{office/insurance}"],"tags":{"brand:wikidata":"Q160054","office":"insurance"},"addTags":{"brand":"AXA","brand:wikidata":"Q160054","name":"AXA","office":"insurance"}},"office/insurance/ergo-38191f":{"name":"Ergo","locationSet":{"include":["at","be","ch","cn","cz","de","dk","ee","es","fr","gb","gr","hu","in","it","kr","lt","lu","lv","nl","pl","se","sg","th"]},"geometry":["point","area"],"matchScore":2,"terms":["ergo","ergo direkt","ergo direktversicherung","ergo versicherung"],"fields":["name","brand","{office/insurance}"],"tags":{"brand:wikidata":"Q541909","office":"insurance"},"addTags":{"brand":"Ergo","brand:wikidata":"Q541909","name":"Ergo","office":"insurance"}},"shop/bakery/touslesjours-e38a76":{"name":"뚜레쥬르","locationSet":{"include":["kr"]},"geometry":["point","area"],"matchScore":2,"terms":["tous les jours","뚜레주르","뚜레쥬르"],"tags":{"brand:wikidata":"Q3535609","shop":"bakery"},"addTags":{"brand":"뚜레쥬르","brand:en":"Tous les Jours","brand:ko":"뚜레쥬르","brand:wikidata":"Q3535609","name":"뚜레쥬르","name:en":"Tous les Jours","name:ko":"뚜레쥬르","shop":"bakery"}},"shop/bakery/parisbaguette-e38a76":{"name":"파리바게뜨 (South Korea)","locationSet":{"include":["kr"]},"geometry":["point","area"],"matchScore":2,"terms":["paris baguette","paris baguette cafe","파리바게뜨","파리바게트"],"tags":{"brand:wikidata":"Q62605260","shop":"bakery"},"addTags":{"alt_name:ko":"파리바게트","brand":"파리바게뜨","brand:en":"Paris Baguette","brand:ko":"파리바게뜨","brand:wikidata":"Q62605260","name":"파리바게뜨","name:en":"Paris Baguette","name:ko":"파리바게뜨","shop":"bakery"}},"shop/car/koenigsegg-45c2de":{"name":"Koenigsegg","locationSet":{"include":["ae","au","ca","ch","cn","de","es","gb","jp","kr","lb","mx","my","om","pl","se","sg","th","tw","us","za"]},"geometry":["point","area"],"matchScore":2,"terms":["koenigsegg"],"fields":["name","brand","{shop/car}"],"tags":{"brand:wikidata":"Q35594","shop":"car"},"addTags":{"brand":"Koenigsegg","brand:wikidata":"Q35594","name":"Koenigsegg","shop":"car"}},"shop/clothes/aliceolivia-b99316":{"name":"Alice + Olivia","locationSet":{"include":["cn","gb","jp","kr","sg","th","tw","us"]},"geometry":["point","area"],"matchScore":2,"terms":["alice + olivia"],"tags":{"brand:wikidata":"Q4725705","shop":"clothes"},"addTags":{"brand":"Alice + Olivia","brand:wikidata":"Q4725705","clothes":"women","name":"Alice + Olivia","shop":"clothes"}},"shop/clothes/allsaints-37f446":{"name":"AllSaints","locationSet":{"include":["cn","fr","gb","ie","kr","mx","ru","us"]},"geometry":["point","area"],"matchScore":2,"terms":["allsaints"],"tags":{"brand:wikidata":"Q4728473","shop":"clothes"},"addTags":{"brand":"AllSaints","brand:wikidata":"Q4728473","name":"AllSaints","shop":"clothes"}},"shop/clothes/discoveryexpedition-d098b5":{"name":"Discovery Expedition","locationSet":{"include":["kr"]},"geometry":["point","area"],"matchScore":2,"terms":["discovery expedition"],"tags":{"brand:wikidata":"Q26286443","shop":"clothes"},"addTags":{"brand":"Discovery Expedition","brand:wikidata":"Q26286443","clothes":"outdoor","name":"Discovery Expedition","shop":"clothes"}},"shop/clothes/patagonia-7718c5":{"name":"Patagonia","locationSet":{"include":["ar","at","au","ca","cl","cn","cz","de","fx","gb","hk","ie","it","jp","kr","pe","tw","us"]},"geometry":["point","area"],"matchScore":2,"terms":["patagonia"],"tags":{"brand:wikidata":"Q1660552","shop":"clothes"},"addTags":{"brand":"Patagonia","brand:wikidata":"Q1660552","clothes":"outdoor","name":"Patagonia","shop":"clothes"}},"shop/clothes/peaceminusone-d098b5":{"name":"Peaceminusone","locationSet":{"include":["kr"]},"geometry":["point","area"],"matchScore":2,"terms":["peaceminusone"],"tags":{"brand:wikidata":"Q110269085","shop":"clothes"},"addTags":{"brand":"Peaceminusone","brand:wikidata":"Q110269085","clothes":"men;women","name":"Peaceminusone","shop":"clothes"}},"shop/clothes/stylenanda-d098b5":{"name":"Stylenanda","locationSet":{"include":["kr"]},"geometry":["point","area"],"matchScore":2,"terms":["stylenanda"],"tags":{"brand:wikidata":"Q21178775","shop":"clothes"},"addTags":{"brand":"Stylenanda","brand:wikidata":"Q21178775","clothes":"women","name":"Stylenanda","shop":"clothes"}},"shop/clothes/topten-d098b5":{"name":"Topten","locationSet":{"include":["kr"]},"geometry":["point","area"],"matchScore":2,"terms":["topten"],"tags":{"brand:wikidata":"Q42303266","shop":"clothes"},"addTags":{"brand":"Topten","brand:wikidata":"Q42303266","clothes":"children;men;women","name":"Topten","shop":"clothes"}},"shop/confectionery/barentreff-b9e3ac":{"name":"Bären-Treff","locationSet":{"include":["de","kr"]},"geometry":["point","area"],"matchScore":2,"terms":["bären-treff"],"tags":{"brand:wikidata":"Q99510166","shop":"confectionery"},"addTags":{"brand":"Bären-Treff","brand:wikidata":"Q99510166","name":"Bären-Treff","shop":"confectionery"}},"shop/convenience/cu-3b6392":{"name":"CU","locationSet":{"include":["kr","my"]},"geometry":["point","area"],"matchScore":2,"terms":["cu"],"tags":{"brand:wikidata":"Q12580836","shop":"convenience"},"addTags":{"brand":"CU","brand:wikidata":"Q12580836","name":"CU","shop":"convenience"}},"shop/convenience/gs25-f248a7":{"name":"GS25","locationSet":{"include":["kr","vn"]},"geometry":["point","area"],"matchScore":2,"terms":["gs25"],"tags":{"brand:wikidata":"Q624041","shop":"convenience"},"addTags":{"brand":"GS25","brand:wikidata":"Q624041","name":"GS25","shop":"convenience"}},"shop/convenience/ministop-fab923":{"name":"미니스톱","locationSet":{"include":["kr"]},"geometry":["point","area"],"matchScore":2,"terms":["ministop","미니스톱"],"tags":{"brand:wikidata":"Q1038929","shop":"convenience"},"addTags":{"brand":"미니스톱","brand:en":"Ministop","brand:ko":"미니스톱","brand:wikidata":"Q1038929","name":"미니스톱","name:en":"Ministop","name:ko":"미니스톱","shop":"convenience"}},"shop/convenience/7eleven-fab923":{"name":"세븐일레븐","locationSet":{"include":["kr"]},"geometry":["point","area"],"matchScore":2,"terms":["7-eleven","세븐일레븐"],"tags":{"brand:wikidata":"Q259340","shop":"convenience"},"addTags":{"brand":"세븐일레븐","brand:en":"7-Eleven","brand:ko":"세븐일레븐","brand:wikidata":"Q259340","name":"세븐일레븐","name:en":"7-Eleven","name:ko":"세븐일레븐","shop":"convenience"}},"shop/department_store/homeplus-84c155":{"name":"Homeplus","locationSet":{"include":["kr"]},"geometry":["point","area"],"matchScore":2,"terms":["homeplus","홈플러스"],"tags":{"brand:wikidata":"Q5889167","shop":"department_store"},"addTags":{"brand":"Homeplus","brand:en":"Homeplus","brand:ko":"홈플러스","brand:wikidata":"Q5889167","name":"Homeplus","name:en":"Homeplus","name:ko":"홈플러스","shop":"department_store"}},"shop/department_store/lottedepartmentstore-256de8":{"name":"Lotte Department Store","locationSet":{"include":["cn","id","kr","ru","vn"]},"geometry":["point","area"],"matchScore":2,"terms":["lotte","lotte department store"],"tags":{"brand:wikidata":"Q489905","shop":"department_store"},"addTags":{"brand":"Lotte Department Store","brand:wikidata":"Q489905","name":"Lotte Department Store","shop":"department_store"}},"shop/department_store/lottedutyfree-8352b8":{"name":"Lotte Duty Free","locationSet":{"include":["au","gu","jp","kr","nz","th","vn"]},"geometry":["point","area"],"matchScore":2,"terms":["lotte duty free","롯데면세점","ロッテ免税"],"tags":{"brand:wikidata":"Q12594196","shop":"department_store"},"addTags":{"brand":"Lotte Duty Free","brand:wikidata":"Q12594196","duty_free":"yes","name":"Lotte Duty Free","name:en":"Lotte Duty Free","name:ja":"ロッテ免税","name:ko":"롯데면세점","shop":"department_store"}},"shop/department_store/shinsegae-84c155":{"name":"Shinsegae","locationSet":{"include":["kr"]},"geometry":["point","area"],"matchScore":2,"terms":["shinsegae","신세계"],"tags":{"brand:wikidata":"Q490787","shop":"department_store"},"addTags":{"brand":"Shinsegae","brand:en":"Shinsegae","brand:ko":"신세계","brand:wikidata":"Q490787","name":"Shinsegae","name:en":"Shinsegae","name:ko":"신세계","shop":"department_store"}},"shop/department_store/lottedepartmentstore-84c155":{"name":"롯데백화점","locationSet":{"include":["kr"]},"geometry":["point","area"],"matchScore":2,"terms":["lotte department store","롯데백화점"],"tags":{"brand:wikidata":"Q489905","shop":"department_store"},"addTags":{"brand":"롯데백화점","brand:ko":"롯데백화점","brand:wikidata":"Q489905","name":"롯데백화점","name:en":"Lotte Department Store","name:ko":"롯데백화점","shop":"department_store"}},"shop/department_store/hyundai-84c155":{"name":"현대백화점","locationSet":{"include":["kr"]},"geometry":["point","area"],"matchScore":2,"terms":["hyundai","hyundai department store","hyundai department store group","현대","현대백화점","현대백화점그룹"],"tags":{"brand:wikidata":"Q624388","shop":"department_store"},"addTags":{"brand":"현대백화점","brand:en":"Hyundai Department Store","brand:ko":"현대백화점","brand:wikidata":"Q624388","name":"현대","name:en":"Hyundai","name:ko":"현대","operator":"현대백화점그룹","operator:en":"Hyundai Department Store Group","operator:ko":"현대백화점그룹","operator:wikidata":"Q5962584","shop":"department_store"}},"shop/fashion_accessories/mulberry-e1f087":{"name":"Mulberry","locationSet":{"include":["ae","au","ca","ch","cn","de","dk","fi","gb","ie","jp","kr","my","nl","no","se","sg","th","us"]},"geometry":["point","area"],"matchScore":2,"terms":["mulberry"],"tags":{"brand:wikidata":"Q3866987","shop":"fashion_accessories"},"addTags":{"brand":"Mulberry","brand:wikidata":"Q3866987","name":"Mulberry","shop":"fashion_accessories"}},"shop/jewelry/chowtaifook-4629af":{"name":"周大福","locationSet":{"include":["cn","jp","kr","my","sg","tw","us"],"exclude":["hk","mo"]},"geometry":["point","area"],"matchScore":2,"terms":["chow tai fook","周大福"],"tags":{"brand:wikidata":"Q48880993","shop":"jewelry"},"addTags":{"brand":"周大福","brand:en":"Chow Tai Fook","brand:wikidata":"Q48880993","brand:zh":"周大福","name":"周大福","name:en":"Chow Tai Fook","name:zh":"周大福","shop":"jewelry"}},"shop/sports/rapha-e13309":{"name":"Rapha","locationSet":{"include":["au","de","dk","es","gb","hk","jp","kr","nl","tw","us"]},"geometry":["point","area"],"matchScore":2,"terms":["rapha","ラファ"],"tags":{"brand:wikidata":"Q7293931","shop":"sports"},"addTags":{"brand":"Rapha","brand:en":"Rapha","brand:ja":"ラファ","brand:wikidata":"Q7293931","name":"Rapha","name:en":"Rapha","name:ja":"ラファ","shop":"sports","sport":"cycling"}},"shop/supermarket/emart-12b833":{"name":"E-Mart","locationSet":{"include":["kr"]},"geometry":["point","area"],"matchScore":2,"terms":["e-mart","이마트"],"tags":{"brand:wikidata":"Q490371","shop":"supermarket"},"addTags":{"brand":"E-Mart","brand:en":"E-Mart","brand:ko":"이마트","brand:wikidata":"Q490371","name":"E-Mart","name:en":"E-Mart","name:ko":"이마트","shop":"supermarket"}},"shop/supermarket/lottemart-1fa952":{"name":"Lotte Mart","locationSet":{"include":["id","kr"]},"geometry":["point","area"],"matchScore":2,"terms":["lotte mart"],"tags":{"brand:wikidata":"Q326715","shop":"supermarket"},"addTags":{"brand":"Lotte Mart","brand:wikidata":"Q326715","name":"Lotte Mart","shop":"supermarket"}},"shop/supermarket/lottemart-12b833":{"name":"롯데마트","locationSet":{"include":["kr"]},"geometry":["point","area"],"matchScore":2,"terms":["lotte mart","롯데마트"],"tags":{"brand:wikidata":"Q326715","shop":"supermarket"},"addTags":{"brand":"롯데마트","brand:ko":"롯데마트","brand:wikidata":"Q326715","name":"롯데마트","name:en":"Lotte Mart","name:ko":"롯데마트","shop":"supermarket"}},"shop/supermarket/87a10a-12b833":{"name":"롯데슈퍼","locationSet":{"include":["kr"]},"geometry":["point","area"],"matchScore":2,"terms":["롯데슈퍼"],"tags":{"brand:wikidata":"Q12594199","shop":"supermarket"},"addTags":{"brand":"롯데슈퍼","brand:ko":"롯데슈퍼","brand:wikidata":"Q12594199","name":"롯데슈퍼","name:ko":"롯데슈퍼","shop":"supermarket"}},"shop/supermarket/hanaromart-12b833":{"name":"하나로마트","locationSet":{"include":["kr"]},"geometry":["point","area"],"matchScore":2,"terms":["hanaro mart","하나로마트"],"tags":{"brand:wikidata":"Q12590611","shop":"supermarket"},"addTags":{"brand":"하나로마트","brand:en":"Hanaro Mart","brand:ko":"하나로마트","brand:wikidata":"Q12590611","name":"하나로마트","name:ko":"하나로마트","shop":"supermarket"}},"shop/tea/dammannfreres-14c0a7":{"name":"Dammann Frères","locationSet":{"include":["fr","it","ja","kr","lu"]},"geometry":["point","area"],"matchScore":2,"terms":["dammann frères"],"tags":{"brand:wikidata":"Q3012927","shop":"tea"},"addTags":{"brand":"Dammann Frères","brand:wikidata":"Q3012927","name":"Dammann Frères","shop":"tea"}},"shop/variety_store/flyingtigercopenhagen-37d726":{"name":"Flying Tiger Copenhagen","locationSet":{"include":["at","be","ch","cy","cz","de","dk","ee","es","fi","fr","gb","gr","hu","ie","is","it","jp","kr","lt","lv","mt","nl","no","pl","pt","se","sk"]},"geometry":["point","area"],"matchScore":2,"terms":["flying tiger","flying tiger copenhagen","tgr","tiger"],"tags":{"brand:wikidata":"Q2786319","shop":"variety_store"},"addTags":{"brand":"Flying Tiger Copenhagen","brand:wikidata":"Q2786319","name":"Flying Tiger Copenhagen","shop":"variety_store","short_name":"Flying Tiger"}},"shop/variety_store/daiso-67f747":{"name":"다이소","locationSet":{"include":["kr"]},"geometry":["point","area"],"matchScore":2,"terms":["daiso","다이소","ダイソー"],"tags":{"brand:wikidata":"Q12590862","shop":"variety_store"},"addTags":{"brand":"다이소","brand:en":"Daiso","brand:ja":"ダイソー","brand:ko":"다이소","brand:wikidata":"Q12590862","brand:zh-Hans":"大创百货","brand:zh-Hant":"大創百貨","name":"다이소","name:en":"Daiso","name:ja":"ダイソー","name:ko":"다이소","name:zh-Hans":"大创百货","name:zh-Hant":"大創百貨","shop":"variety_store"}},"tourism/hotel/avanihotelsandresorts-e9c192":{"name":"AVANI","locationSet":{"include":["ae","au","bw","id","kh","kr","la","lk","ls","my","mz","na","nz","om","pt","sc","th","vn","zm"]},"geometry":["point","area"],"matchScore":2,"terms":["avani hotels & resorts"],"fields":["name","brand","{tourism/hotel}"],"tags":{"brand:wikidata":"Q48989823","tourism":"hotel"},"addTags":{"brand":"Avani Hotels & Resorts","brand:wikidata":"Q48989823","name":"Avani Hotels & Resorts","tourism":"hotel"}},"tourism/hotel/conrad-ee1a43":{"name":"Conrad Hotels & Resorts","locationSet":{"include":["ae","ca","cn","eg","gb","id","ie","in","jp","kr","mv","pf","ph","pt","sa","sg","th","tr","us"]},"geometry":["point","area"],"matchScore":2,"terms":["conrad"],"fields":["name","brand","{tourism/hotel}"],"tags":{"brand:wikidata":"Q855525","tourism":"hotel"},"addTags":{"brand":"Conrad","brand:wikidata":"Q855525","name":"Conrad","tourism":"hotel"}},"tourism/hotel/daysinn-a89235":{"name":"Days Inn","locationSet":{"include":["ca","ch","gb","id","in","kr","mx","my","ph","sg","sn","th","us"]},"geometry":["point","area"],"matchScore":2,"terms":["days inn"],"fields":["name","brand","{tourism/hotel}"],"tags":{"brand:wikidata":"Q1047239","tourism":"hotel"},"addTags":{"brand":"Days Inn","brand:wikidata":"Q1047239","name":"Days Inn","tourism":"hotel"}},"tourism/hotel/fairfieldinn-b80dae":{"name":"Fairfield Inn","locationSet":{"include":["ca","cn","id","in","jp","kr","mx","my","sv","us"]},"geometry":["point","area"],"matchScore":2,"terms":["fairfield by marriott","fairfield inn"],"fields":["name","brand","{tourism/hotel}"],"tags":{"brand:wikidata":"Q5430314","tourism":"hotel"},"addTags":{"brand":"Fairfield Inn","brand:wikidata":"Q5430314","name":"Fairfield Inn","official_name":"Fairfield by Marriott","tourism":"hotel"}},"tourism/hotel/lottehotel-304b57":{"name":"Lotte Hotel","locationSet":{"include":["jp","kr","mm","ru","us","uz","vn"]},"geometry":["point","area"],"matchScore":2,"terms":["lotte","lotte hotels & resorts"],"fields":["name","brand","{tourism/hotel}"],"tags":{"brand:wikidata":"Q326720","tourism":"hotel"},"addTags":{"brand":"Lotte Hotels & Resorts","brand:wikidata":"Q326720","name":"Lotte Hotel","short_name":"Lotte","tourism":"hotel"}},"tourism/hotel/marriottexecutiveapartments-b2f419":{"name":"Marriott Executive Apartments","locationSet":{"include":["ae","be","bh","br","cn","et","gb","hu","id","in","kr","kz","pa","sa","th","za"]},"geometry":["point","area"],"matchScore":2,"terms":["marriott executive apartments"],"fields":["name","brand","{tourism/hotel}"],"tags":{"brand:wikidata":"Q72636824","tourism":"hotel"},"addTags":{"brand":"Marriott Executive Apartments","brand:wikidata":"Q72636824","name":"Marriott Executive Apartments","tourism":"hotel"}},"tourism/hotel/travelodge-2e0dc6":{"name":"Travelodge (Asia/Oceania)","locationSet":{"include":["au","hk","id","kr","my","nz","sg","th"]},"geometry":["point","area"],"matchScore":2,"terms":["travelodge"],"fields":["name","brand","{tourism/hotel}"],"tags":{"brand:wikidata":"Q24997583","tourism":"hotel"},"addTags":{"brand":"Travelodge","brand:wikidata":"Q24997583","name":"Travelodge","tourism":"hotel"}},"amenity/parking/wilsonparking-7fb8ab":{"name":"Wilson Parking","locationSet":{"include":["au","kr","nz","sg"]},"geometry":["area","point","vertex"],"matchScore":2,"terms":["wilson","wilson parking"],"fields":["name","operator","{amenity/parking}"],"tags":{"amenity":"parking","operator:wikidata":"Q28448427"},"addTags":{"amenity":"parking","brand":"Wilson Parking","brand:wikidata":"Q28448427","fee":"yes","name":"Wilson Parking","operator":"Wilson Parking","operator:wikidata":"Q28448427"}},"amenity/post_box/koreapost-ff3ead":{"name":"우정사업본부","locationSet":{"include":["kr"]},"geometry":["point","vertex"],"matchScore":2,"terms":["korea post","우정사업본부"],"tags":{"amenity":"post_box","operator:wikidata":"Q483280"},"addTags":{"amenity":"post_box","operator":"우정사업본부","operator:en":"Korea Post","operator:ko":"우정사업본부","operator:wikidata":"Q483280"}},"amenity/post_office/koreapost-168da6":{"name":"우정사업본부","locationSet":{"include":["kr"]},"geometry":["point","area"],"matchScore":2,"terms":["korea post","우정사업본부"],"fields":["name","operator","{amenity/post_office}"],"tags":{"amenity":"post_office","operator:wikidata":"Q483280"},"addTags":{"amenity":"post_office","operator":"우정사업본부","operator:en":"Korea Post","operator:ko":"우정사업본부","operator:wikidata":"Q483280"}},"power/plant/7af654-02dd35":{"name":"한국수력원자력","locationSet":{"include":["kr"]},"geometry":["area"],"matchScore":2,"terms":["한국수력원자력"],"tags":{"operator:wikidata":"Q6431646","power":"plant"},"addTags":{"operator":"한국수력원자력","operator:ko":"한국수력원자력","operator:wikidata":"Q6431646","power":"plant"}},"power/substation/koreaelectricpowercorporation-de9ad2":{"name":"한국전력공사","locationSet":{"include":["kr"]},"geometry":["area","point"],"matchScore":2,"terms":["kepco","korea electric power corporation","한국전력공사"],"tags":{"operator:wikidata":"Q486737","power":"substation"},"addTags":{"operator":"한국전력공사","operator:en":"Korea Electric Power Corporation","operator:ko":"한국전력공사","operator:short":"KEPCO","operator:wikidata":"Q486737","power":"substation"}},"power/transformer/koreaelectricpowercorporation-c8a485":{"name":"한국전력공사","locationSet":{"include":["kr"]},"geometry":["point","vertex"],"matchScore":2,"terms":["kepco","korea electric power corporation","한국전력공사"],"tags":{"operator:wikidata":"Q486737","power":"transformer"},"addTags":{"operator":"한국전력공사","operator:en":"Korea Electric Power Corporation","operator:ko":"한국전력공사","operator:short":"KEPCO","operator:wikidata":"Q486737","power":"transformer"}},"type/route/railway/korail-70c7ea":{"name":"한국철도공사","locationSet":{"include":["kr"]},"geometry":["relation"],"matchScore":2,"terms":["korail","한국철도공사"],"reference":{"key":"route","value":"railway"},"tags":{"operator:wikidata":"Q18169","route":"railway","type":"route"},"addTags":{"operator":"한국철도공사","operator:en":"Korail","operator:ko":"한국철도공사","operator:wikidata":"Q18169","route":"railway","type":"route"}},"public_transport/platform/bus_point/gbus-9a8c32":{"name":"경기도 시내버스","locationSet":{"include":["kr"]},"geometry":["point","vertex"],"matchScore":2,"terms":["g-bus","경기도 시내버스"],"reference":{"key":"public_transport","value":"platform"},"tags":{"bus":"yes","network:wikidata":"Q4859793","public_transport":"platform"},"addTags":{"bus":"yes","highway":"bus_stop","network":"경기도 시내버스","network:en":"G-BUS","network:ko":"경기도 시내버스","network:wikidata":"Q4859793","public_transport":"platform"}},"type/route/bus/gbus-776068":{"name":"경기도 시내버스","locationSet":{"include":["kr"]},"geometry":["relation"],"matchScore":2,"terms":["g-bus","경기도 시내버스"],"reference":{"key":"route","value":"bus"},"tags":{"network:wikidata":"Q4859793","route":"bus","type":"route"},"addTags":{"network":"경기도 시내버스","network:en":"G-BUS","network:ko":"경기도 시내버스","network:wikidata":"Q4859793","route":"bus","type":"route"}},"type/route/subway/seoulmetropolitansubway-fbbcc4":{"name":"수도권 전철","locationSet":{"include":["kr"]},"geometry":["relation"],"matchScore":2,"terms":["seoul metropolitan subway","수도권 전철"],"reference":{"key":"route","value":"subway"},"tags":{"network:wikidata":"Q16950","route":"subway","type":"route"},"addTags":{"network":"수도권 전철","network:en":"Seoul Metropolitan Subway","network:ko":"수도권 전철","network:wikidata":"Q16950","route":"subway","type":"route"}}}