{"amenity/atm/bnpparibas-6b438a":{"name":"BNP Paribas","locationSet":{"include":["ae","af","ar","at","bf","bg","bh","br","ca","ch","ci","cl","co","cz","de","dk","dz","es","fi","fr","gb","gf","gp","hu","ie","il","it","kw","lu","ma","ml","mq","mx","nl","no","pe","pt","qa","re","ro","ru","sa","se","sk","sn","tn","tr","us"]},"geometry":["point","vertex"],"matchScore":2,"terms":["bnp paribas"],"fields":["name","brand","{amenity/atm}"],"tags":{"amenity":"atm","brand:wikidata":"Q499707"},"addTags":{"amenity":"atm","brand":"BNP Paribas","brand:wikidata":"Q499707","operator":"BNP Paribas","operator:wikidata":"Q499707"}},"amenity/atm/danskebank-a2bade":{"name":"Danske Bank","locationSet":{"include":["dk","fi","gb","lt","no","se"]},"geometry":["point","vertex"],"matchScore":2,"terms":["danske bank"],"fields":["name","brand","{amenity/atm}"],"tags":{"amenity":"atm","brand:wikidata":"Q1636974"},"addTags":{"amenity":"atm","brand":"Danske Bank","brand:wikidata":"Q1636974","operator":"Danske Bank","operator:wikidata":"Q1636974"}},"amenity/atm/handelsbanken-6789c7":{"name":"Handelsbanken","locationSet":{"include":["dk","fi","gb","no","se"]},"geometry":["point","vertex"],"matchScore":2,"terms":["handelsbanken"],"fields":["name","brand","{amenity/atm}"],"tags":{"amenity":"atm","brand:wikidata":"Q1421630"},"addTags":{"amenity":"atm","brand":"Handelsbanken","brand:wikidata":"Q1421630","operator":"Handelsbanken","operator:wikidata":"Q1421630"}},"amenity/atm/nordea-73118e":{"name":"Nordea","locationSet":{"include":["dk","ee","fi","gb","lt","lv","no","pl","se","us"]},"geometry":["point","vertex"],"matchScore":2,"terms":["nordea"],"fields":["name","brand","{amenity/atm}"],"tags":{"amenity":"atm","brand:wikidata":"Q1123823"},"addTags":{"amenity":"atm","brand":"Nordea","brand:wikidata":"Q1123823","operator":"Nordea","operator:wikidata":"Q1123823"}},"amenity/atm/seb-7527a2":{"name":"SEB","locationSet":{"include":["de","ee","lt","lv","se"]},"geometry":["point","vertex"],"matchScore":2,"terms":["seb"],"fields":["name","brand","{amenity/atm}"],"tags":{"amenity":"atm","brand:wikidata":"Q975655"},"addTags":{"amenity":"atm","brand":"SEB","brand:wikidata":"Q975655","operator":"SEB","operator:wikidata":"Q975655"}},"amenity/atm/swedbank-ab2e60":{"name":"Swedbank","locationSet":{"include":["ee","lt","lv","se"]},"geometry":["point","vertex"],"matchScore":2,"terms":["swedbank"],"fields":["name","brand","{amenity/atm}"],"tags":{"amenity":"atm","brand:wikidata":"Q1145493"},"addTags":{"amenity":"atm","brand":"Swedbank","brand:wikidata":"Q1145493","operator":"Swedbank","operator:wikidata":"Q1145493"}},"amenity/atm/sydbank-ea875f":{"name":"Sydbank","locationSet":{"include":["de","dk","se"]},"geometry":["point","vertex"],"matchScore":2,"terms":["sydbank"],"fields":["name","brand","{amenity/atm}"],"tags":{"amenity":"atm","brand:wikidata":"Q825159"},"addTags":{"amenity":"atm","brand":"Sydbank","brand:wikidata":"Q825159","operator":"Sydbank","operator:wikidata":"Q825159"}},"amenity/bank/bnpparibas-42efac":{"name":"BNP Paribas","locationSet":{"include":["ae","af","ar","at","bf","bg","bh","br","ca","ch","ci","cl","co","cz","de","dk","dz","es","fi","fr","gb","gf","gp","hu","ie","il","it","kw","lu","ma","ml","mq","mx","nl","no","pe","pt","qa","re","ro","ru","sa","se","sk","sn","tn","tr","us"]},"geometry":["point","area"],"matchScore":2,"terms":["bnp paribas"],"tags":{"amenity":"bank","brand:wikidata":"Q499707"},"addTags":{"amenity":"bank","brand":"BNP Paribas","brand:wikidata":"Q499707","name":"BNP Paribas"}},"amenity/bank/danskebank-c75d31":{"name":"Danske Bank","locationSet":{"include":["dk","fi","gb","lt","no","se"]},"geometry":["point","area"],"matchScore":2,"terms":["danske bank"],"tags":{"amenity":"bank","brand:wikidata":"Q1636974"},"addTags":{"amenity":"bank","brand":"Danske Bank","brand:wikidata":"Q1636974","name":"Danske Bank"}},"amenity/bank/handelsbanken-1834eb":{"name":"Handelsbanken","locationSet":{"include":["dk","fi","gb","no","se"]},"geometry":["point","area"],"matchScore":2,"terms":["handelsbanken"],"fields":["name","brand","{amenity/bank}"],"tags":{"amenity":"bank","brand:wikidata":"Q1421630"},"addTags":{"amenity":"bank","brand":"Handelsbanken","brand:wikidata":"Q1421630","name":"Handelsbanken"}},"amenity/bank/nordea-0318fc":{"name":"Nordea","locationSet":{"include":["dk","ee","fi","gb","lt","lv","no","pl","se","us"]},"geometry":["point","area"],"matchScore":2,"terms":["nordea"],"fields":["name","brand","{amenity/bank}"],"tags":{"amenity":"bank","brand:wikidata":"Q1123823"},"addTags":{"amenity":"bank","brand":"Nordea","brand:wikidata":"Q1123823","name":"Nordea"}},"amenity/bank/seb-e3cf16":{"name":"SEB","locationSet":{"include":["de","ee","lt","lv","se"]},"geometry":["point","area"],"matchScore":2,"terms":["seb"],"tags":{"amenity":"bank","brand:wikidata":"Q975655"},"addTags":{"amenity":"bank","brand":"SEB","brand:wikidata":"Q975655","name":"SEB"}},"amenity/bank/swedbank-2cd0b2":{"name":"Swedbank","locationSet":{"include":["ee","lt","lv","se"]},"geometry":["point","area"],"matchScore":2,"terms":["swedbank"],"tags":{"amenity":"bank","brand:wikidata":"Q1145493"},"addTags":{"amenity":"bank","brand":"Swedbank","brand:wikidata":"Q1145493","name":"Swedbank"}},"amenity/bank/sydbank-9eeba7":{"name":"Sydbank","locationSet":{"include":["de","dk","se"]},"geometry":["point","area"],"matchScore":2,"terms":["sydbank"],"tags":{"amenity":"bank","brand:wikidata":"Q825159"},"addTags":{"amenity":"bank","brand":"Sydbank","brand:wikidata":"Q825159","name":"Sydbank"}},"amenity/bicycle_rental/lundahoj-bc0237":{"name":"Lundahoj","locationSet":{"include":["se"]},"geometry":["point","vertex","area"],"matchScore":2,"terms":["jcdecaux","lundahoj"],"fields":["name","brand","{amenity/bicycle_rental}"],"tags":{"amenity":"bicycle_rental","brand:wikidata":"Q22666405"},"addTags":{"amenity":"bicycle_rental","brand":"Lundahoj","brand:wikidata":"Q22666405","network":"Lundahoj","network:wikidata":"Q22666405","operator":"JCDecaux","operator:wikidata":"Q74877"}},"amenity/bicycle_rental/stockholmcitybikes-bc0237":{"name":"Stockholm City Bikes","locationSet":{"include":["se"]},"geometry":["point","vertex","area"],"matchScore":2,"terms":["city bikes","stockholm city bikes"],"fields":["name","brand","{amenity/bicycle_rental}"],"tags":{"amenity":"bicycle_rental","brand:wikidata":"Q7618000"},"addTags":{"amenity":"bicycle_rental","brand":"Stockholm City Bikes","brand:wikidata":"Q7618000","network":"Stockholm City Bikes","network:wikidata":"Q7618000","operator":"City Bikes"}},"amenity/bicycle_rental/styrandstall-bc0237":{"name":"Styr & Ställ","locationSet":{"include":["se"]},"geometry":["point","vertex","area"],"matchScore":2,"terms":["nextbike","styr & ställ","styr & ställ göteborg"],"fields":["name","brand","{amenity/bicycle_rental}"],"tags":{"amenity":"bicycle_rental","brand:wikidata":"Q6198848"},"addTags":{"amenity":"bicycle_rental","brand":"Styr & Ställ","brand:wikidata":"Q6198848","network":"Styr & Ställ","network:wikidata":"Q6198848","operator":"nextbike","operator:wikidata":"Q2351279"}},"amenity/cafe/coffee_shop/caffenero-0d98f2":{"name":"Caffè Nero","locationSet":{"include":["ae","cy","gb","hr","ie","om","pl","se","tr","us"]},"geometry":["point","area"],"matchScore":2,"terms":["cafe nero","caffè nero"],"reference":{"key":"cuisine","value":"coffee_shop"},"tags":{"amenity":"cafe","brand:wikidata":"Q675808","cuisine":"coffee_shop"},"addTags":{"amenity":"cafe","brand":"Caffè Nero","brand:wikidata":"Q675808","cuisine":"coffee_shop","name":"Caffè Nero","takeaway":"yes"}},"amenity/cafe/coffee_shop/espressohouse-86f303":{"name":"Espresso House","locationSet":{"include":["dk","fi","no","se"]},"geometry":["point","area"],"matchScore":2,"terms":["espresso house"],"fields":["name","brand","{amenity/cafe/coffee_shop}"],"reference":{"key":"cuisine","value":"coffee_shop"},"tags":{"amenity":"cafe","brand:wikidata":"Q10489162","cuisine":"coffee_shop"},"addTags":{"amenity":"cafe","brand":"Espresso House","brand:wikidata":"Q10489162","cuisine":"coffee_shop","name":"Espresso House","takeaway":"yes"}},"amenity/cafe/coffee_shop/waynescoffee-460348":{"name":"Wayne's Coffee","locationSet":{"include":["fi","no","se"]},"geometry":["point","area"],"matchScore":2,"terms":["wayne's coffee"],"fields":["name","brand","{amenity/cafe/coffee_shop}"],"reference":{"key":"cuisine","value":"coffee_shop"},"tags":{"amenity":"cafe","brand:wikidata":"Q2637272","cuisine":"coffee_shop"},"addTags":{"amenity":"cafe","brand":"Wayne's Coffee","brand:wikidata":"Q2637272","cuisine":"coffee_shop","name":"Wayne's Coffee","takeaway":"yes"}},"amenity/car_rental/europcar-95cde7":{"name":"Europcar (Scandinavia)","locationSet":{"include":["dk","fi","no","se"]},"geometry":["point","area"],"matchScore":2,"terms":["europcar"],"fields":["name","brand","{amenity/car_rental}"],"tags":{"amenity":"car_rental","brand:wikidata":"Q1376256"},"addTags":{"amenity":"car_rental","brand":"Europcar","brand:wikidata":"Q1376256","name":"Europcar"}},"amenity/charging_station/ionity-b625d6":{"name":"Ionity","locationSet":{"include":["by","bg","cz","hu","pl","md","ro","ru","sk","ua","ax","gg","je","cq","dk","ee","fo","fi","is","ie","im","lv","lt","no","sj","se","gb","al","ad","ba","hr","gi","gr","va","it","mt","me","mk","pt","sm","rs","si","es","xk","at","be","fr","de","li","lu","mc","nl","ch"]},"geometry":["point","vertex","area"],"matchScore":2,"terms":["ionity","ionity gmbh"],"fields":["name","brand","{amenity/charging_station}"],"tags":{"amenity":"charging_station","brand:wikidata":"Q42717773"},"addTags":{"amenity":"charging_station","brand":"Ionity","brand:wikidata":"Q42717773"}},"amenity/charging_station/mer-b20835":{"name":"Mer","locationSet":{"include":["de","gb","no","se"]},"geometry":["point","vertex","area"],"matchScore":2,"terms":["bee","bee charging solutions","eemobility","eemobility gmbh","grønn kontakt","mer"],"fields":["name","brand","{amenity/charging_station}"],"tags":{"amenity":"charging_station","brand:wikidata":"Q100821564"},"addTags":{"amenity":"charging_station","brand":"Mer","brand:wikidata":"Q100821564","name":"Mer"}},"amenity/dentist/folktandvarden-a3d4a5":{"name":"Folktandvården","locationSet":{"include":["se"]},"geometry":["point","area"],"matchScore":2,"terms":["folktandvården"],"reference":{"key":"amenity","value":"dentist"},"tags":{"amenity":"dentist","brand:wikidata":"Q10497476"},"addTags":{"amenity":"dentist","brand":"Folktandvården","brand:wikidata":"Q10497476","healthcare":"dentist","name":"Folktandvården"}},"amenity/fast_food/burger/frasses-72e24f":{"name":"Frasses","locationSet":{"include":["se"]},"geometry":["point","area"],"matchScore":2,"terms":["frasses"],"reference":{"key":"cuisine","value":"burger"},"tags":{"amenity":"fast_food","brand:wikidata":"Q3374476","cuisine":"burger"},"addTags":{"amenity":"fast_food","brand":"Frasses","brand:wikidata":"Q3374476","cuisine":"burger","name":"Frasses","takeaway":"yes"}},"amenity/fast_food/burger/max-829f63":{"name":"Max","locationSet":{"include":["dk","no","pl","se"]},"geometry":["point","area"],"matchScore":2,"terms":["max"],"reference":{"key":"cuisine","value":"burger"},"tags":{"amenity":"fast_food","brand:wikidata":"Q1912172","cuisine":"burger"},"addTags":{"amenity":"fast_food","brand":"Max","brand:wikidata":"Q1912172","cuisine":"burger","name":"Max","takeaway":"yes"}},"amenity/fast_food/pizza/pizzabakeren-4d7dcd":{"name":"Pizzabakeren","locationSet":{"include":["dk","no","se"]},"geometry":["point","area"],"matchScore":2,"terms":["pizzabakeren"],"fields":["name","brand","{amenity/fast_food/pizza}"],"reference":{"key":"cuisine","value":"pizza"},"tags":{"amenity":"fast_food","brand:wikidata":"Q11995777","cuisine":"pizza"},"addTags":{"amenity":"fast_food","brand":"Pizzabakeren","brand:wikidata":"Q11995777","cuisine":"pizza","name":"Pizzabakeren","takeaway":"yes"}},"amenity/fast_food/burger/sibylla-bdca1d":{"name":"Sibylla","locationSet":{"include":["fi","se"]},"geometry":["point","area"],"matchScore":2,"terms":["sibylla"],"reference":{"key":"cuisine","value":"burger"},"tags":{"amenity":"fast_food","brand:wikidata":"Q488643","cuisine":"burger"},"addTags":{"amenity":"fast_food","brand":"Sibylla","brand:wikidata":"Q488643","cuisine":"burger","name":"Sibylla","takeaway":"yes"}},"amenity/fast_food/sandwich/uppercrust-167d3f":{"name":"Upper Crust","locationSet":{"include":["de","dk","eg","es","fi","gb","ie","no","se"]},"geometry":["point","area"],"matchScore":2,"terms":["upper crust"],"reference":{"key":"cuisine","value":"sandwich"},"tags":{"amenity":"fast_food","brand:wikidata":"Q7898585","cuisine":"sandwich"},"addTags":{"amenity":"fast_food","brand":"Upper Crust","brand:wikidata":"Q7898585","cuisine":"sandwich","name":"Upper Crust","takeaway":"yes"}},"amenity/fuel/as24-3463db":{"name":"AS 24","locationSet":{"include":["at","be","bg","cz","de","dk","es","fr","gb","ge","gr","hr","hu","ie","it","lt","lu","mk","nl","pl","pt","ro","rs","se","si","sk","ua"]},"geometry":["point","area"],"matchScore":2,"terms":["as 24"],"fields":["name","brand","{amenity/fuel}"],"tags":{"amenity":"fuel","brand:wikidata":"Q2819394"},"addTags":{"amenity":"fuel","brand":"AS 24","brand:wikidata":"Q2819394","hgv":"only","name":"AS 24"}},"amenity/fuel/dinx-a1affa":{"name":"din-X","locationSet":{"include":["se"]},"geometry":["point","area"],"matchScore":2,"terms":["din-x"],"fields":["name","brand","{amenity/fuel}"],"tags":{"amenity":"fuel","brand:wikidata":"Q10472858"},"addTags":{"amenity":"fuel","brand":"din-X","brand:wikidata":"Q10472858","name":"din-X"}},"amenity/fuel/ingo-eef03e":{"name":"Ingo","locationSet":{"include":["dk","se"]},"geometry":["point","area"],"matchScore":2,"terms":["ingo"],"fields":["name","brand","{amenity/fuel}"],"tags":{"amenity":"fuel","brand:wikidata":"Q17048617"},"addTags":{"amenity":"fuel","brand":"Ingo","brand:wikidata":"Q17048617","name":"Ingo"}},"amenity/fuel/okq8-a1affa":{"name":"OKQ8","locationSet":{"include":["se"]},"geometry":["point","area"],"matchScore":2,"terms":["okq8"],"fields":["name","brand","{amenity/fuel}"],"tags":{"amenity":"fuel","brand:wikidata":"Q2789310"},"addTags":{"amenity":"fuel","brand":"OKQ8","brand:wikidata":"Q2789310","name":"OKQ8"}},"amenity/fuel/preem-a611ce":{"name":"Preem","locationSet":{"include":["pl","se"]},"geometry":["point","area"],"matchScore":2,"terms":["preem"],"fields":["name","brand","{amenity/fuel}"],"tags":{"amenity":"fuel","brand:wikidata":"Q598835"},"addTags":{"amenity":"fuel","brand":"Preem","brand:wikidata":"Q598835","name":"Preem"}},"amenity/fuel/qstar-a1affa":{"name":"Qstar","locationSet":{"include":["se"]},"geometry":["point","area"],"matchScore":2,"terms":["qstar"],"fields":["name","brand","{amenity/fuel}"],"tags":{"amenity":"fuel","brand:wikidata":"Q10647961"},"addTags":{"amenity":"fuel","brand":"Qstar","brand:wikidata":"Q10647961","name":"Qstar"}},"amenity/fuel/st1-cf1d83":{"name":"St1","locationSet":{"include":["fi","se"]},"geometry":["point","area"],"matchScore":2,"terms":["st1"],"fields":["name","brand","{amenity/fuel}"],"tags":{"amenity":"fuel","brand:wikidata":"Q7592214"},"addTags":{"amenity":"fuel","brand":"St1","brand:wikidata":"Q7592214","name":"St1"}},"amenity/fuel/statoil-442e61":{"name":"Statoil","locationSet":{"include":["dk","ee","ie","pl","ru","se"]},"geometry":["point","area"],"matchScore":2,"terms":["statoil"],"fields":["name","brand","{amenity/fuel}"],"tags":{"amenity":"fuel","brand:wikidata":"Q1776022"},"addTags":{"amenity":"fuel","brand":"Statoil","brand:wikidata":"Q1776022","name":"Statoil"}},"amenity/fuel/tanka-a1affa":{"name":"Tanka","locationSet":{"include":["se"]},"geometry":["point","area"],"matchScore":2,"terms":["tanka"],"fields":["name","brand","{amenity/fuel}"],"tags":{"amenity":"fuel","brand:wikidata":"Q10690640"},"addTags":{"amenity":"fuel","brand":"Tanka","brand:wikidata":"Q10690640","name":"Tanka"}},"amenity/parcel_locker/instabox-f97fed":{"name":"Instabox","locationSet":{"include":["de","dk","nl","no","se"]},"geometry":["point","vertex","area"],"matchScore":2,"terms":["instabox"],"fields":["name","brand","{amenity/parcel_locker}"],"reference":{"key":"amenity","value":"parcel_locker"},"tags":{"amenity":"parcel_locker","brand:wikidata":"Q109923726"},"addTags":{"amenity":"parcel_locker","brand":"Instabox","brand:wikidata":"Q109923726","name":"Instabox","parcel_mail_in":"no","parcel_pickup":"yes"}},"amenity/parcel_locker/zbox-5a86e9":{"name":"Packeta","locationSet":{"include":["by","bg","cz","hu","pl","md","ro","ru","sk","ua","ax","gg","je","cq","dk","ee","fo","fi","is","ie","im","lv","lt","no","sj","se","gb","al","ad","ba","hr","gi","gr","va","it","mt","me","mk","pt","sm","rs","si","es","xk","at","be","fr","de","li","lu","mc","nl","ch"]},"geometry":["point","vertex","area"],"matchScore":2,"terms":["packeta"],"fields":["name","brand","{amenity/parcel_locker}"],"reference":{"key":"amenity","value":"parcel_locker"},"tags":{"amenity":"parcel_locker","brand:wikidata":"Q67809905"},"addTags":{"amenity":"parcel_locker","brand":"Packeta","brand:wikidata":"Q67809905","name":"Z-Box"}},"amenity/pharmacy/apotekhjartat-bc5266":{"name":"Apotek Hjärtat","locationSet":{"include":["se"]},"geometry":["point","area"],"matchScore":2,"terms":["apotek hjärtat"],"reference":{"key":"amenity","value":"pharmacy"},"tags":{"amenity":"pharmacy","brand:wikidata":"Q10416114"},"addTags":{"amenity":"pharmacy","brand":"Apotek Hjärtat","brand:wikidata":"Q10416114","healthcare":"pharmacy","name":"Apotek Hjärtat"}},"amenity/pharmacy/apoteket-bc5266":{"name":"Apoteket","locationSet":{"include":["se"]},"geometry":["point","area"],"matchScore":2,"terms":["apoteket"],"reference":{"key":"amenity","value":"pharmacy"},"tags":{"amenity":"pharmacy","brand:wikidata":"Q1785637"},"addTags":{"amenity":"pharmacy","brand":"Apoteket","brand:wikidata":"Q1785637","healthcare":"pharmacy","name":"Apoteket"}},"amenity/pharmacy/apoteksgruppen-bc5266":{"name":"Apoteksgruppen","locationSet":{"include":["se"]},"geometry":["point","area"],"matchScore":2,"terms":["apoteksgruppen"],"reference":{"key":"amenity","value":"pharmacy"},"tags":{"amenity":"pharmacy","brand:wikidata":"Q10416129"},"addTags":{"amenity":"pharmacy","brand":"Apoteksgruppen","brand:wikidata":"Q10416129","healthcare":"pharmacy","name":"Apoteksgruppen"}},"amenity/pharmacy/kronansapotek-bc5266":{"name":"Kronans Apotek","locationSet":{"include":["se"]},"geometry":["point","area"],"matchScore":2,"terms":["kronans apotek"],"reference":{"key":"amenity","value":"pharmacy"},"tags":{"amenity":"pharmacy","brand:wikidata":"Q10549422"},"addTags":{"amenity":"pharmacy","brand":"Kronans Apotek","brand:wikidata":"Q10549422","healthcare":"pharmacy","name":"Kronans Apotek"}},"amenity/pub/brewdog-f93a3c":{"name":"BrewDog","locationSet":{"include":["au","be","de","es","fr","gb","it","kr","no","se","us"]},"geometry":["point","area"],"matchScore":2,"terms":["brewdog"],"fields":["name","brand","{amenity/pub}"],"tags":{"amenity":"pub","brand:wikidata":"Q911367"},"addTags":{"amenity":"pub","brand":"BrewDog","brand:wikidata":"Q911367","name":"BrewDog"}},"amenity/social_centre/ahepahall-30ca27":{"name":"AHEPA Hall","locationSet":{"include":["by","bg","cz","hu","pl","md","ro","ru","sk","ua","ax","gg","je","cq","dk","ee","fo","fi","is","ie","im","lv","lt","no","sj","se","gb","al","ad","ba","hr","gi","gr","va","it","mt","me","mk","pt","sm","rs","si","es","xk","at","be","fr","de","li","lu","mc","nl","ch","au","ca","cy","us"],"exclude":["ru"]},"geometry":["point","area"],"matchScore":2,"terms":["ahepa","american hellenic educational progressive association","the order of ahepa"],"fields":["name","brand","{amenity/social_centre}"],"tags":{"amenity":"social_centre","brand:wikidata":"Q4743973"},"addTags":{"amenity":"social_centre","brand":"AHEPA","brand:wikidata":"Q4743973","name":"AHEPA Hall"}},"amenity/vehicle_inspection/besiktabilprovning-ca3d1c":{"name":"Besikta Bilprovning","locationSet":{"include":["se"]},"geometry":["point","area"],"matchScore":2,"terms":["besikta","besikta bilprovning"],"tags":{"amenity":"vehicle_inspection","brand:wikidata":"Q31887522"},"addTags":{"amenity":"vehicle_inspection","brand":"Besikta Bilprovning","brand:wikidata":"Q31887522","name":"Besikta Bilprovning"}},"amenity/vending_machine/bicycle_tube/continental-123edb":{"name":"Continental","locationSet":{"include":["by","bg","cz","hu","pl","md","ro","ru","sk","ua","ax","gg","je","cq","dk","ee","fo","fi","is","ie","im","lv","lt","no","sj","se","gb","al","ad","ba","hr","gi","gr","va","it","mt","me","mk","pt","sm","rs","si","es","xk","at","be","fr","de","li","lu","mc","nl","ch"]},"geometry":["point","vertex"],"matchScore":2,"terms":["continental"],"reference":{"key":"vending","value":"bicycle_tube"},"tags":{"amenity":"vending_machine","brand:wikidata":"Q64739247","vending":"bicycle_tube"},"addTags":{"amenity":"vending_machine","brand":"Continental","brand:wikidata":"Q64739247","name":"Continental","vending":"bicycle_tube"}},"amenity/vending_machine/bicycle_tube/schwalbe-123edb":{"name":"Schwalbe","locationSet":{"include":["by","bg","cz","hu","pl","md","ro","ru","sk","ua","ax","gg","je","cq","dk","ee","fo","fi","is","ie","im","lv","lt","no","sj","se","gb","al","ad","ba","hr","gi","gr","va","it","mt","me","mk","pt","sm","rs","si","es","xk","at","be","fr","de","li","lu","mc","nl","ch"]},"geometry":["point","vertex"],"matchScore":2,"terms":["schwalbe"],"reference":{"key":"vending","value":"bicycle_tube"},"tags":{"amenity":"vending_machine","brand:wikidata":"Q1312213","vending":"bicycle_tube"},"addTags":{"amenity":"vending_machine","brand":"Schwalbe","brand:wikidata":"Q1312213","name":"Schwalbe","vending":"bicycle_tube"}},"amenity/vending_machine/selecta-ed4d31":{"name":"Selecta","locationSet":{"include":["at","be","ch","de","dk","es","fi","fr","ie","it","li","lu","nl","no","se","uk"]},"geometry":["point","vertex"],"matchScore":2,"terms":["selecta"],"tags":{"amenity":"vending_machine","brand:wikidata":"Q472153"},"addTags":{"amenity":"vending_machine","brand":"Selecta","brand:wikidata":"Q472153"}},"leisure/fitness_centre/barrys-1b6d66":{"name":"Barry's","locationSet":{"include":["ae","au","ca","de","dk","es","fr","gb","it","mx","no","qa","se","sg","us"]},"geometry":["point","area"],"matchScore":2,"terms":["barry's"],"tags":{"brand:wikidata":"Q96373178","leisure":"fitness_centre"},"addTags":{"brand":"Barry's","brand:wikidata":"Q96373178","leisure":"fitness_centre","name":"Barry's"}},"leisure/fitness_centre/fitinn-48d938":{"name":"FITINN","locationSet":{"include":["by","bg","cz","hu","pl","md","ro","ru","sk","ua","ax","gg","je","cq","dk","ee","fo","fi","is","ie","im","lv","lt","no","sj","se","gb","al","ad","ba","hr","gi","gr","va","it","mt","me","mk","pt","sm","rs","si","es","xk","at","be","fr","de","li","lu","mc","nl","ch"]},"geometry":["point","area"],"matchScore":2,"terms":["fitinn"],"tags":{"brand:wikidata":"Q1245564","leisure":"fitness_centre"},"addTags":{"brand":"FITINN","brand:wikidata":"Q1245564","leisure":"fitness_centre","name":"FITINN"}},"leisure/fitness_centre/fitness24seven-5fc685":{"name":"Fitness24Seven","locationSet":{"include":["fi","se"]},"geometry":["point","area"],"matchScore":2,"terms":["fitness24seven"],"tags":{"brand:wikidata":"Q61112447","leisure":"fitness_centre"},"addTags":{"brand":"Fitness24Seven","brand:wikidata":"Q61112447","leisure":"fitness_centre","name":"Fitness24Seven"}},"leisure/fitness_centre/holmesplace-901199":{"name":"Holmes Place","locationSet":{"include":["by","bg","cz","hu","pl","md","ro","ru","sk","ua","ax","gg","je","cq","dk","ee","fo","fi","is","ie","im","lv","lt","no","sj","se","gb","al","ad","ba","hr","gi","gr","va","it","mt","me","mk","pt","sm","rs","si","es","xk","at","be","fr","de","li","lu","mc","nl","ch","il"]},"geometry":["point","area"],"matchScore":2,"terms":["holmes place"],"tags":{"brand:wikidata":"Q15815819","leisure":"fitness_centre"},"addTags":{"brand":"Holmes Place","brand:wikidata":"Q15815819","leisure":"fitness_centre","name":"Holmes Place"}},"leisure/fitness_centre/nordicwellness-f113b7":{"name":"Nordic Wellness","locationSet":{"include":["se"]},"geometry":["point","area"],"matchScore":2,"terms":["nordic wellness"],"tags":{"brand:wikidata":"Q60970249","leisure":"fitness_centre"},"addTags":{"brand":"Nordic Wellness","brand:wikidata":"Q60970249","leisure":"fitness_centre","name":"Nordic Wellness"}},"leisure/fitness_centre/sats-44c5d4":{"name":"Sats","locationSet":{"include":["dk","fi","no","se"]},"geometry":["point","area"],"matchScore":2,"terms":["sats"],"fields":["name","brand","{leisure/fitness_centre}"],"tags":{"brand:wikidata":"Q4411496","leisure":"fitness_centre"},"addTags":{"brand":"Sats","brand:wikidata":"Q4411496","leisure":"fitness_centre","name":"Sats"}},"office/coworking/spaces-ffd6f1":{"name":"Spaces (Scandinavia)","locationSet":{"include":["dk","fi","no","se"]},"geometry":["point","area"],"matchScore":2,"terms":["spaces"],"fields":["name","brand","{office/coworking}"],"tags":{"brand:wikidata":"Q87629680","office":"coworking"},"addTags":{"brand":"Spaces","brand:wikidata":"Q87629680","name":"Spaces","office":"coworking"}},"office/estate_agent/vonpollrealestate-c99072":{"name":"von Poll Real Estate","locationSet":{"include":["by","bg","cz","hu","pl","md","ro","ru","sk","ua","ax","gg","je","cq","dk","ee","fo","fi","is","ie","im","lv","lt","no","sj","se","gb","al","ad","ba","hr","gi","gr","va","it","mt","me","mk","pt","sm","rs","si","es","xk","at","be","fr","de","li","lu","mc","nl","ch"],"exclude":["at","de"]},"geometry":["point","area"],"matchScore":2,"terms":["von poll immobilien","von poll real estate","vonpoll","vonpoll commercial"],"tags":{"brand:wikidata":"Q96026696","office":"estate_agent"},"addTags":{"brand":"von Poll Real Estate","brand:wikidata":"Q96026696","name":"von Poll Real Estate","office":"estate_agent"}},"office/insurance/allianz-332499":{"name":"Allianz","locationSet":{"include":["ae","ar","at","au","be","bg","bh","bm","bn","br","ca","cg","ch","ci","cm","cn","co","cy","cz","de","dk","ee","eg","es","fi","fr","gb","gf","gg","gh","gp","gr","hk","hr","hu","id","ie","in","is","it","ja","ke","kr","kw","la","li","lk","lt","lu","lv","ma","mg","mx","my","ng","nl","no","nz","om","ph","pk","pl","pt","qa","ro","ru","sa","se","sg","si","sk","sn","th","tr","tw","ua","us","za"]},"geometry":["point","area"],"matchScore":2,"terms":["allianz"],"fields":["name","brand","{office/insurance}"],"tags":{"brand:wikidata":"Q487292","office":"insurance"},"addTags":{"brand":"Allianz","brand:wikidata":"Q487292","name":"Allianz","office":"insurance"}},"office/insurance/axa-2e7672":{"name":"AXA","locationSet":{"include":["ae","ar","au","be","bh","bm","br","ca","ch","ci","cl","cm","cn","co","cz","de","dk","dz","eg","es","fi","fr","ga","gb","gr","hk","id","ie","in","it","jp","kr","lb","lu","ma","mu","mx","my","ng","nl","no","om","pa","pe","ph","pl","pt","qa","sa","se","sg","sk","sn","th","tr","tw","us"]},"geometry":["point","area"],"matchScore":2,"terms":["axa"],"fields":["name","brand","{office/insurance}"],"tags":{"brand:wikidata":"Q160054","office":"insurance"},"addTags":{"brand":"AXA","brand:wikidata":"Q160054","name":"AXA","office":"insurance"}},"office/insurance/ergo-38191f":{"name":"Ergo","locationSet":{"include":["at","be","ch","cn","cz","de","dk","ee","es","fr","gb","gr","hu","in","it","kr","lt","lu","lv","nl","pl","se","sg","th"]},"geometry":["point","area"],"matchScore":2,"terms":["ergo","ergo direkt","ergo direktversicherung","ergo versicherung"],"fields":["name","brand","{office/insurance}"],"tags":{"brand:wikidata":"Q541909","office":"insurance"},"addTags":{"brand":"Ergo","brand:wikidata":"Q541909","name":"Ergo","office":"insurance"}},"office/insurance/nn-336e34":{"name":"NN","locationSet":{"include":["by","bg","cz","hu","pl","md","ro","ru","sk","ua","ax","gg","je","cq","dk","ee","fo","fi","is","ie","im","lv","lt","no","sj","se","gb","al","ad","ba","hr","gi","gr","va","it","mt","me","mk","pt","sm","rs","si","es","xk","at","be","fr","de","li","lu","mc","nl","ch"]},"geometry":["point","area"],"matchScore":2,"terms":["nationale-nederlanden","nn"],"fields":["name","brand","{office/insurance}"],"tags":{"brand:wikidata":"Q1834291","office":"insurance"},"addTags":{"brand":"NN","brand:wikidata":"Q1834291","name":"NN","office":"insurance","official_name":"Nationale-Nederlanden"}},"office/insurance/zurich-2d6c95":{"name":"Zurich","locationSet":{"include":["ae","at","au","be","bh","br","ca","ch","cl","cn","co","de","ec","es","fi","fr","gb","hk","id","ie","it","ja","kw","lb","li","lu","mx","my","nl","no","nz","om","pt","qa","se","sg","sk","tr","us"]},"geometry":["point","area"],"matchScore":2,"terms":["zurich"],"fields":["name","brand","{office/insurance}"],"tags":{"brand:wikidata":"Q230426","office":"insurance"},"addTags":{"brand":"Zurich","brand:wikidata":"Q230426","name":"Zurich","office":"insurance"}},"shop/agrarian/granngarden-91ec76":{"name":"Granngården","locationSet":{"include":["se"]},"geometry":["point","area"],"matchScore":2,"terms":["granngården"],"tags":{"brand:wikidata":"Q10508136","shop":"agrarian"},"addTags":{"brand":"Granngården","brand:wikidata":"Q10508136","name":"Granngården","shop":"agrarian"}},"shop/alcohol/systembolaget-9afe69":{"name":"Systembolaget","locationSet":{"include":["se"]},"geometry":["point","area"],"matchScore":2,"terms":["systembolaget"],"tags":{"brand:wikidata":"Q1476113","shop":"alcohol"},"addTags":{"brand":"Systembolaget","brand:wikidata":"Q1476113","name":"Systembolaget","shop":"alcohol"}},"shop/books/akademibokhandeln-9645e8":{"name":"Akademibokhandeln","locationSet":{"include":["se"]},"geometry":["point","area"],"matchScore":2,"terms":["akademibokhandeln"],"tags":{"brand:wikidata":"Q10403918","shop":"books"},"addTags":{"brand":"Akademibokhandeln","brand:wikidata":"Q10403918","name":"Akademibokhandeln","shop":"books"}},"shop/car/karma-40d0fc":{"name":"Karma","locationSet":{"include":["be","ca","cn","ec","es","fr","il","is","nl","pa","se","us"]},"geometry":["point","area"],"matchScore":2,"terms":["karma automotive"],"fields":["name","brand","{shop/car}"],"tags":{"brand:wikidata":"Q22671741","shop":"car"},"addTags":{"brand":"Karma Automotive","brand:wikidata":"Q22671741","name":"Karma","shop":"car"}},"shop/car/koenigsegg-45c2de":{"name":"Koenigsegg","locationSet":{"include":["ae","au","ca","ch","cn","de","es","gb","jp","kr","lb","mx","my","om","pl","se","sg","th","tw","us","za"]},"geometry":["point","area"],"matchScore":2,"terms":["koenigsegg"],"fields":["name","brand","{shop/car}"],"tags":{"brand:wikidata":"Q35594","shop":"car"},"addTags":{"brand":"Koenigsegg","brand:wikidata":"Q35594","name":"Koenigsegg","shop":"car"}},"shop/car/polestar-adf3f2":{"name":"Polestar Spaces","locationSet":{"include":["be","ca","cn","de","gb","nl","no","se","us"]},"geometry":["point","area"],"matchScore":2,"terms":["polestar","polestar racing"],"fields":["name","brand","{shop/car}"],"tags":{"brand:wikidata":"Q4047174","shop":"car"},"addTags":{"brand":"Polestar","brand:wikidata":"Q4047174","name":"Polestar","shop":"car"}},"shop/car/smart-b77732":{"name":"Smart","locationSet":{"include":["by","bg","cz","hu","pl","md","ro","ru","sk","ua","ax","gg","je","cq","dk","ee","fo","fi","is","ie","im","lv","lt","no","sj","se","gb","al","ad","ba","hr","gi","gr","va","it","mt","me","mk","pt","sm","rs","si","es","xk","at","be","fr","de","li","lu","mc","nl","ch","cn"]},"geometry":["point","area"],"matchScore":2,"terms":["smart"],"fields":["name","brand","{shop/car}"],"tags":{"brand:wikidata":"Q156490","shop":"car"},"addTags":{"brand":"Smart","brand:wikidata":"Q156490","name":"Smart","shop":"car"}},"shop/car_repair/mekonomen-7de64b":{"name":"Mekonomen","locationSet":{"include":["dk","no","se"]},"geometry":["point","area"],"matchScore":2,"terms":["mekonomen"],"fields":["name","brand","{shop/car_repair}"],"tags":{"brand:wikidata":"Q10580079","shop":"car_repair"},"addTags":{"brand":"Mekonomen","brand:wikidata":"Q10580079","name":"Mekonomen","shop":"car_repair"}},"shop/charity/myrorna-ef3d1a":{"name":"Myrorna","locationSet":{"include":["se"]},"geometry":["point","area"],"matchScore":2,"terms":["myrorna"],"tags":{"brand:wikidata":"Q10592609","shop":"charity"},"addTags":{"brand":"Myrorna","brand:wikidata":"Q10592609","name":"Myrorna","shop":"charity"}},"shop/chemist/normal-eafdb5":{"name":"Normal","locationSet":{"include":["dk","fi","no","se"]},"geometry":["point","area"],"matchScore":2,"terms":["normal"],"tags":{"brand:wikidata":"Q19562429","shop":"chemist"},"addTags":{"brand":"Normal","brand:wikidata":"Q19562429","name":"Normal","shop":"chemist"}},"shop/clothes/carlings-89d713":{"name":"Carlings","locationSet":{"include":["at","fi","no","se"]},"geometry":["point","area"],"matchScore":2,"terms":["carlings"],"fields":["name","brand","{shop/clothes}"],"tags":{"brand:wikidata":"Q10443115","shop":"clothes"},"addTags":{"brand":"Carlings","brand:wikidata":"Q10443115","name":"Carlings","shop":"clothes"}},"shop/clothes/cubus-a91a7f":{"name":"Cubus","locationSet":{"include":["fi","no","se"]},"geometry":["point","area"],"matchScore":2,"terms":["cubus"],"fields":["name","brand","{shop/clothes}"],"tags":{"brand:wikidata":"Q3439593","shop":"clothes"},"addTags":{"brand":"Cubus","brand:wikidata":"Q3439593","name":"Cubus","shop":"clothes"}},"shop/clothes/dressmann-89d713":{"name":"Dressmann","locationSet":{"include":["at","fi","no","se"]},"geometry":["point","area"],"matchScore":2,"terms":["dressmann"],"fields":["name","brand","{shop/clothes}"],"tags":{"brand:wikidata":"Q3357081","shop":"clothes"},"addTags":{"brand":"Dressmann","brand:wikidata":"Q3357081","clothes":"men","name":"Dressmann","shop":"clothes"}},"shop/clothes/kappahl-c962e5":{"name":"KappAhl","locationSet":{"include":["fi","no","pl","se"]},"geometry":["point","area"],"matchScore":2,"terms":["kappahl"],"fields":["name","brand","{shop/clothes}"],"tags":{"brand:wikidata":"Q4349016","shop":"clothes"},"addTags":{"brand":"KappAhl","brand:wikidata":"Q4349016","name":"KappAhl","shop":"clothes"}},"shop/clothes/lindex-d7f5c5":{"name":"Lindex","locationSet":{"include":["cz","ee","fi","no","se","sk"]},"geometry":["point","area"],"matchScore":2,"terms":["lindex"],"fields":["name","brand","{shop/clothes}"],"tags":{"brand:wikidata":"Q1786717","shop":"clothes"},"addTags":{"brand":"Lindex","brand:wikidata":"Q1786717","name":"Lindex","shop":"clothes"}},"shop/clothes/maje-99ba8f":{"name":"Maje","locationSet":{"include":["by","bg","cz","hu","pl","md","ro","ru","sk","ua","ax","gg","je","cq","dk","ee","fo","fi","is","ie","im","lv","lt","no","sj","se","gb","al","ad","ba","hr","gi","gr","va","it","mt","me","mk","pt","sm","rs","si","es","xk","at","be","fr","de","li","lu","mc","nl","ch","cn","hk","sg","tw","uk","us"]},"geometry":["point","area"],"matchScore":2,"terms":["maje"],"tags":{"brand:wikidata":"Q3280458","shop":"clothes"},"addTags":{"brand":"Maje","brand:wikidata":"Q3280458","clothes":"women","name":"Maje","shop":"clothes"}},"shop/confectionery/hemmakvall-bb4f01":{"name":"Hemmakvall","locationSet":{"include":["se"]},"geometry":["point","area"],"matchScore":2,"terms":["hemmakväll"],"tags":{"brand:wikidata":"Q10521791","shop":"confectionery"},"addTags":{"brand":"Hemmakväll","brand:wikidata":"Q10521791","name":"Hemmakväll","shop":"confectionery"}},"shop/convenience/ica-c2a4d7":{"name":"ICA","locationSet":{"include":["no","se"]},"geometry":["point","area"],"matchScore":2,"terms":["ica"],"fields":["name","brand","{shop/convenience}"],"tags":{"brand:wikidata":"Q1663776","shop":"convenience"},"addTags":{"brand":"ICA","brand:wikidata":"Q1663776","name":"ICA","shop":"convenience"}},"shop/convenience/icanara-f5adeb":{"name":"ICA Nära","locationSet":{"include":["se"]},"geometry":["point","area"],"matchScore":2,"terms":["ica nära"],"tags":{"brand:wikidata":"Q1663776","shop":"convenience"},"addTags":{"brand":"ICA Nära","brand:wikidata":"Q1663776","name":"ICA Nära","shop":"convenience"}},"shop/convenience/viva-856fe1":{"name":"Viva","locationSet":{"include":["by","bg","cz","hu","pl","md","ro","ru","sk","ua","ax","gg","je","cq","dk","ee","fo","fi","is","ie","im","lv","lt","no","sj","se","gb","al","ad","ba","hr","gi","gr","va","it","mt","me","mk","pt","sm","rs","si","es","xk","at","be","fr","de","li","lu","mc","nl","ch"]},"geometry":["point","area"],"matchScore":2,"terms":["viva"],"tags":{"brand:wikidata":"Q168238","shop":"convenience"},"addTags":{"brand":"Viva","brand:wikidata":"Q168238","name":"Viva","shop":"convenience"}},"shop/craft/boesner-1cc9f4":{"name":"Boesner","locationSet":{"include":["at","ch","de","dk","fr","se"]},"geometry":["point","area"],"matchScore":2,"terms":["boesner"],"tags":{"brand:wikidata":"Q890317","shop":"craft"},"addTags":{"brand":"Boesner","brand:wikidata":"Q890317","name":"Boesner","shop":"craft"}},"shop/department_store/ahlens-2c114a":{"name":"Åhléns","locationSet":{"include":["se"]},"geometry":["point","area"],"matchScore":2,"terms":["åhléns"],"tags":{"brand:wikidata":"Q270851","shop":"department_store"},"addTags":{"brand":"Åhléns","brand:wikidata":"Q270851","name":"Åhléns","shop":"department_store"}},"shop/department_store/muji-b9b204":{"name":"Muji","locationSet":{"include":["au","ca","ch","de","es","fi","fr","gb","ie","it","pl","pt","se","tr"]},"geometry":["point","area"],"matchScore":2,"terms":["muji","無印良品"],"tags":{"brand:wikidata":"Q708789","shop":"department_store"},"addTags":{"brand":"Muji","brand:en":"Muji","brand:ja":"無印良品","brand:wikidata":"Q708789","name":"Muji","name:en":"Muji","name:ja":"無印良品","shop":"department_store"}},"shop/doityourself/bauhaus-6847b5":{"name":"Bauhaus","locationSet":{"include":["at","bg","ch","cz","de","dk","ee","es","fi","hr","hu","is","lu","nl","no","se","si","sk","tr"]},"geometry":["point","area"],"matchScore":2,"terms":["bauhaus"],"tags":{"brand:wikidata":"Q672043","shop":"doityourself"},"addTags":{"brand":"Bauhaus","brand:wikidata":"Q672043","name":"Bauhaus","shop":"doityourself"}},"shop/doityourself/biltema-acccd4":{"name":"Biltema","locationSet":{"include":["dk","fi","no","se"]},"geometry":["point","area"],"matchScore":2,"terms":["biltema"],"fields":["name","brand","{shop/doityourself}"],"tags":{"brand:wikidata":"Q3355552","shop":"doityourself"},"addTags":{"brand":"Biltema","brand:wikidata":"Q3355552","name":"Biltema","shop":"doityourself"}},"shop/doityourself/byggmax-b25d3a":{"name":"Byggmax","locationSet":{"include":["se"]},"geometry":["point","area"],"matchScore":2,"terms":["byggmax"],"tags":{"brand:wikidata":"Q10438182","shop":"doityourself"},"addTags":{"brand":"Byggmax","brand:wikidata":"Q10438182","name":"Byggmax","shop":"doityourself"}},"shop/doityourself/clasohlson-baf621":{"name":"Clas Ohlson","locationSet":{"include":["fi","no","se"]},"geometry":["point","area"],"matchScore":2,"terms":["clas ohlson"],"fields":["name","brand","{shop/doityourself}"],"tags":{"brand:wikidata":"Q3356220","shop":"doityourself"},"addTags":{"brand":"Clas Ohlson","brand:wikidata":"Q3356220","name":"Clas Ohlson","shop":"doityourself"}},"shop/doityourself/hornbach-92b1c1":{"name":"HORNBACH","locationSet":{"include":["at","ch","cz","de","lu","nl","ro","se","sk"]},"geometry":["point","area"],"matchScore":2,"terms":["hornbach"],"tags":{"brand:wikidata":"Q685926","shop":"doityourself"},"addTags":{"brand":"HORNBACH","brand:wikidata":"Q685926","name":"HORNBACH","shop":"doityourself"}},"shop/doityourself/jula-2478eb":{"name":"Jula","locationSet":{"include":["no","pl","se"]},"geometry":["point","area"],"matchScore":2,"terms":["jula"],"fields":["name","brand","{shop/doityourself}"],"tags":{"brand:wikidata":"Q10541151","shop":"doityourself"},"addTags":{"brand":"Jula","brand:wikidata":"Q10541151","name":"Jula","shop":"doityourself"}},"shop/electrical/rexel-091354":{"name":"Rexel","locationSet":{"include":["at","au","be","ca","ch","cn","de","es","fi","fr","gb","ie","in","it","lu","me","nl","no","nz","pt","se","si","us"]},"geometry":["point","area"],"matchScore":2,"terms":["rexel"],"tags":{"brand:wikidata":"Q962489","shop":"electrical"},"addTags":{"brand":"Rexel","brand:wikidata":"Q962489","name":"Rexel","shop":"electrical"}},"shop/electronics/elgiganten-540210":{"name":"Elgiganten","locationSet":{"include":["dk","se"]},"geometry":["point","area"],"matchScore":2,"terms":["elgiganten"],"tags":{"brand:wikidata":"Q17050121","shop":"electronics"},"addTags":{"brand":"Elgiganten","brand:wikidata":"Q17050121","name":"Elgiganten","shop":"electronics"}},"shop/electronics/kjellandcompany-4786d4":{"name":"Kjell & Company","locationSet":{"include":["no","se"]},"geometry":["point","area"],"matchScore":2,"terms":["kjell & company","kjell och company"],"tags":{"brand:wikidata":"Q6419332","shop":"electronics"},"addTags":{"brand":"Kjell & Company","brand:wikidata":"Q6419332","name":"Kjell & Company","shop":"electronics"}},"shop/electronics/mediamarkt-a3dfab":{"name":"MediaMarkt","locationSet":{"include":["at","be","ch","de","es","gr","hu","nl","pl","pt","se","tr"]},"geometry":["point","area"],"matchScore":2,"terms":["mediamarkt"],"tags":{"brand:wikidata":"Q2381223","shop":"electronics"},"addTags":{"brand":"MediaMarkt","brand:wikidata":"Q2381223","name":"MediaMarkt","shop":"electronics"}},"shop/electronics/power-9765c4":{"name":"Power","locationSet":{"include":["dk","fi","no","se"]},"geometry":["point","area"],"matchScore":2,"terms":["power"],"tags":{"brand:wikidata":"Q20857751","shop":"electronics"},"addTags":{"brand":"Power","brand:wikidata":"Q20857751","name":"Power","shop":"electronics"}},"shop/electronics/teknikmagasinet-bae196":{"name":"Teknikmagasinet","locationSet":{"include":["fi","no","se"]},"geometry":["point","area"],"matchScore":2,"terms":["teknikmagasinet"],"tags":{"brand:wikidata":"Q3357520","shop":"electronics"},"addTags":{"brand":"Teknikmagasinet","brand:wikidata":"Q3357520","name":"Teknikmagasinet","shop":"electronics"}},"shop/fashion_accessories/mulberry-e1f087":{"name":"Mulberry","locationSet":{"include":["ae","au","ca","ch","cn","de","dk","fi","gb","ie","jp","kr","my","nl","no","se","sg","th","us"]},"geometry":["point","area"],"matchScore":2,"terms":["mulberry"],"tags":{"brand:wikidata":"Q3866987","shop":"fashion_accessories"},"addTags":{"brand":"Mulberry","brand:wikidata":"Q3866987","name":"Mulberry","shop":"fashion_accessories"}},"shop/florist/interflora-6ef878":{"name":"Interflora","locationSet":{"include":["fr","gb","no","se"]},"geometry":["point","area"],"matchScore":2,"terms":["interflora"],"tags":{"brand:wikidata":"Q692179","shop":"florist"},"addTags":{"brand":"Interflora","brand:wikidata":"Q692179","name":"Interflora","shop":"florist"}},"shop/furniture/bohus-dccdff":{"name":"Bohus","locationSet":{"include":["no","se"]},"geometry":["point","area"],"matchScore":2,"terms":["bohus"],"fields":["name","brand","{shop/furniture}"],"tags":{"brand:wikidata":"Q13630057","shop":"furniture"},"addTags":{"brand":"Bohus","brand:wikidata":"Q13630057","name":"Bohus","shop":"furniture"}},"shop/furniture/bolia-a18722":{"name":"Bolia","locationSet":{"include":["by","bg","cz","hu","pl","md","ro","ru","sk","ua","ax","gg","je","cq","dk","ee","fo","fi","is","ie","im","lv","lt","no","sj","se","gb","al","ad","ba","hr","gi","gr","va","it","mt","me","mk","pt","sm","rs","si","es","xk","at","be","fr","de","li","lu","mc","nl","ch"]},"geometry":["point","area"],"matchScore":2,"terms":["bolia"],"tags":{"brand:wikidata":"Q11961809","shop":"furniture"},"addTags":{"brand":"Bolia","brand:wikidata":"Q11961809","name":"Bolia","shop":"furniture"}},"shop/furniture/ikea-3c70a1":{"name":"IKEA (Scandinavia)","locationSet":{"include":["dk","fi","no","se"]},"geometry":["point","area"],"matchScore":2,"terms":["ikea"],"fields":["name","brand","{shop/furniture}"],"tags":{"brand:wikidata":"Q54078","shop":"furniture"},"addTags":{"brand":"IKEA","brand:wikidata":"Q54078","name":"IKEA","shop":"furniture"}},"shop/furniture/momax-a18722":{"name":"Mömax","locationSet":{"include":["by","bg","cz","hu","pl","md","ro","ru","sk","ua","ax","gg","je","cq","dk","ee","fo","fi","is","ie","im","lv","lt","no","sj","se","gb","al","ad","ba","hr","gi","gr","va","it","mt","me","mk","pt","sm","rs","si","es","xk","at","be","fr","de","li","lu","mc","nl","ch"]},"geometry":["point","area"],"matchScore":2,"terms":["mömax"],"tags":{"brand:wikidata":"Q56388481","shop":"furniture"},"addTags":{"brand":"Mömax","brand:wikidata":"Q56388481","name":"Mömax","shop":"furniture"}},"shop/furniture/xxxlutz-5acc6e":{"name":"XXXLutz","locationSet":{"include":["by","bg","cz","hu","pl","md","ro","ru","sk","ua","ax","gg","je","cq","dk","ee","fo","fi","is","ie","im","lv","lt","no","sj","se","gb","al","ad","ba","hr","gi","gr","va","it","mt","me","mk","pt","sm","rs","si","es","xk","at","be","fr","de","li","lu","mc","nl","ch"],"exclude":["bg"]},"geometry":["point","area"],"matchScore":2,"terms":["xxxlutz"],"tags":{"brand:wikidata":"Q70339467","shop":"furniture"},"addTags":{"brand":"XXXLutz","brand:wikidata":"Q70339467","name":"XXXLutz","shop":"furniture"}},"shop/hairdresser/cutters-5effd8":{"name":"Cutters","locationSet":{"include":["fi","no","se"]},"geometry":["point","area"],"matchScore":2,"terms":["cutters"],"fields":["name","brand","{shop/hairdresser}"],"tags":{"brand:wikidata":"Q106940660","shop":"hairdresser"},"addTags":{"brand":"Cutters","brand:wikidata":"Q106940660","name":"Cutters","shop":"hairdresser"}},"shop/houseware/cervera-9b0747":{"name":"Cervera","locationSet":{"include":["se"]},"geometry":["point","area"],"matchScore":2,"terms":["cervera"],"tags":{"brand:wikidata":"Q10447179","shop":"houseware"},"addTags":{"brand":"Cervera","brand:wikidata":"Q10447179","name":"Cervera","shop":"houseware"}},"shop/houseware/lagerhaus-8b5f66":{"name":"Lagerhaus (Scandinavia)","locationSet":{"include":["no","se"]},"geometry":["point","area"],"matchScore":2,"terms":["lagerhaus"],"tags":{"brand:wikidata":"Q10553211","shop":"houseware"},"addTags":{"brand":"Lagerhaus","brand:wikidata":"Q10553211","name":"Lagerhaus","shop":"houseware"}},"shop/interior_decoration/hemtex-056dae":{"name":"Hemtex","locationSet":{"include":["ee","fi","se"]},"geometry":["point","area"],"matchScore":2,"terms":["hemtex"],"tags":{"brand:wikidata":"Q10521868","shop":"interior_decoration"},"addTags":{"brand":"Hemtex","brand:wikidata":"Q10521868","name":"Hemtex","shop":"interior_decoration"}},"shop/interior_decoration/iittala-a7e00a":{"name":"Iittala","locationSet":{"include":["be","de","fi","nl","se"]},"geometry":["point","area"],"matchScore":2,"terms":["iittala"],"tags":{"brand:wikidata":"Q1658018","shop":"interior_decoration"},"addTags":{"brand":"Iittala","brand:wikidata":"Q1658018","name":"Iittala","shop":"interior_decoration"}},"shop/jewelry/guldfynd-57004a":{"name":"Guldfynd","locationSet":{"include":["se"]},"geometry":["point","area"],"matchScore":2,"terms":["guldfynd"],"tags":{"brand:wikidata":"Q49099223","shop":"jewelry"},"addTags":{"brand":"Guldfynd","brand:wikidata":"Q49099223","name":"Guldfynd","shop":"jewelry"}},"shop/jewelry/valmano-634c4f":{"name":"Valmano","locationSet":{"include":["at","be","dk","fr","it","nl","se"]},"geometry":["point","area"],"matchScore":2,"terms":["valmano"],"tags":{"brand:wikidata":"Q116151710","shop":"jewelry"},"addTags":{"brand":"Valmano","brand:wikidata":"Q116151710","name":"Valmano","shop":"jewelry"}},"shop/kiosk/pressbyran-c177cf":{"name":"Pressbyrån","locationSet":{"include":["se"]},"geometry":["point","area"],"matchScore":2,"terms":["pressbyrån"],"tags":{"brand:wikidata":"Q2489072","shop":"kiosk"},"addTags":{"brand":"Pressbyrån","brand:wikidata":"Q2489072","name":"Pressbyrån","shop":"kiosk"}},"shop/kitchen/ixina-d089d8":{"name":"Ixina","locationSet":{"include":["ae","au","be","bf","bh","bj","ca","ci","cm","cn","cz","dz","ee","eg","fr","gh","hr","ke","kw","lu","ly","ma","mu","nl","pl","qa","ro","ru","sa","se","sn","tg","th","tn","vn"]},"geometry":["point","area"],"matchScore":2,"terms":["ixina"],"tags":{"brand:wikidata":"Q3156424","shop":"kitchen"},"addTags":{"brand":"Ixina","brand:wikidata":"Q3156424","name":"Ixina","shop":"kitchen"}},"shop/mobile_phone/telenor-5d1f83":{"name":"Telenor Sweden","locationSet":{"include":["se"]},"geometry":["point","area"],"matchScore":2,"terms":["telenor"],"fields":["name","brand","{shop/mobile_phone}"],"tags":{"brand:wikidata":"Q10692298","shop":"mobile_phone"},"addTags":{"brand":"Telenor","brand:wikidata":"Q10692298","name":"Telenor","shop":"mobile_phone"}},"shop/mobile_phone/telia-856553":{"name":"Telia","locationSet":{"include":["dk","fi","lt","no","se"]},"geometry":["point","area"],"matchScore":2,"terms":["telia"],"fields":["name","brand","{shop/mobile_phone}"],"tags":{"brand:wikidata":"Q862303","shop":"mobile_phone"},"addTags":{"brand":"Telia","brand:wikidata":"Q862303","name":"Telia","shop":"mobile_phone"}},"shop/optician/aceandtate-b2ee21":{"name":"Ace & Tate","locationSet":{"include":["at","be","ch","de","dk","es","gb","ie","nl","se"]},"geometry":["point","area"],"matchScore":2,"terms":["ace & tate"],"fields":["name","brand","{shop/optician}"],"tags":{"brand:wikidata":"Q110516413","shop":"optician"},"addTags":{"brand":"Ace & Tate","brand:wikidata":"Q110516413","name":"Ace & Tate","shop":"optician"}},"shop/optician/synoptik-876f61":{"name":"Synoptik","locationSet":{"include":["se"]},"geometry":["point","area"],"matchScore":2,"terms":["synoptik"],"fields":["name","brand","{shop/optician}"],"tags":{"brand:wikidata":"Q10687541","shop":"optician"},"addTags":{"brand":"Synoptik","brand:wikidata":"Q10687541","name":"Synoptik","shop":"optician"}},"shop/optician/synsam-aec081":{"name":"Synsam","locationSet":{"include":["fi","no","se"]},"geometry":["point","area"],"matchScore":2,"terms":["synsam"],"fields":["name","brand","{shop/optician}"],"tags":{"brand:wikidata":"Q12004589","shop":"optician"},"addTags":{"brand":"Synsam","brand:wikidata":"Q12004589","name":"Synsam","shop":"optician"}},"shop/shoes/dinsko-5ed905":{"name":"Din sko","locationSet":{"include":["no","se"]},"geometry":["point","area"],"matchScore":2,"terms":["din sko"],"fields":["name","brand","{shop/shoes}"],"tags":{"brand:wikidata":"Q10472869","shop":"shoes"},"addTags":{"brand":"Din sko","brand:wikidata":"Q10472869","name":"Din sko","shop":"shoes"}},"shop/shoes/eurosko-5ed905":{"name":"Eurosko","locationSet":{"include":["no","se"]},"geometry":["point","area"],"matchScore":2,"terms":["eurosko"],"fields":["name","brand","{shop/shoes}"],"tags":{"brand:wikidata":"Q11968121","shop":"shoes"},"addTags":{"brand":"Eurosko","brand:wikidata":"Q11968121","name":"Eurosko","shop":"shoes"}},"shop/sports/stadium-32e81d":{"name":"Stadium","locationSet":{"include":["de","dk","fi","se"]},"geometry":["point","area"],"matchScore":2,"terms":["stadium"],"tags":{"brand:wikidata":"Q4993863","shop":"sports"},"addTags":{"brand":"Stadium","brand:wikidata":"Q4993863","name":"Stadium","shop":"sports"}},"shop/sports/xxl-ea59d5":{"name":"XXL","locationSet":{"include":["fi","no","se"]},"geometry":["point","area"],"matchScore":2,"terms":["xxl"],"fields":["name","brand","{shop/sports}"],"tags":{"brand:wikidata":"Q12010840","shop":"sports"},"addTags":{"brand":"XXL","brand:wikidata":"Q12010840","name":"XXL","shop":"sports"}},"shop/supermarket/coop-c57afb":{"name":"Coop (Sverige)","locationSet":{"include":["se"]},"geometry":["point","area"],"matchScore":2,"terms":["coop (sweden)","coop konsum","konsum","lilla coop","stora coop"],"fields":["name","brand","{shop/supermarket}"],"tags":{"brand:wikidata":"Q15229319","shop":"supermarket"},"addTags":{"brand":"Coop (Sweden)","brand:wikidata":"Q15229319","name":"Coop","shop":"supermarket"}},"shop/supermarket/eurospar-4b5e11":{"name":"Eurospar","locationSet":{"include":["by","bg","cz","hu","pl","md","ro","ru","sk","ua","ax","gg","je","cq","dk","ee","fo","fi","is","ie","im","lv","lt","no","sj","se","gb","al","ad","ba","hr","gi","gr","va","it","mt","me","mk","pt","sm","rs","si","es","xk","at","be","fr","de","li","lu","mc","nl","ch"]},"geometry":["point","area"],"matchScore":2,"terms":["eurospar"],"tags":{"brand:wikidata":"Q12309283","shop":"supermarket"},"addTags":{"brand":"Eurospar","brand:wikidata":"Q12309283","name":"Eurospar","shop":"supermarket"}},"shop/supermarket/hemkop-c57afb":{"name":"Hemköp","locationSet":{"include":["se"]},"geometry":["point","area"],"matchScore":2,"terms":["hemköp"],"fields":["name","brand","{shop/supermarket}"],"tags":{"brand:wikidata":"Q10521746","shop":"supermarket"},"addTags":{"brand":"Hemköp","brand:wikidata":"Q10521746","name":"Hemköp","shop":"supermarket"}},"shop/supermarket/icakvantum-c57afb":{"name":"ICA Kvantum","locationSet":{"include":["se"]},"geometry":["point","area"],"matchScore":2,"terms":["ica kvantum"],"fields":["name","brand","{shop/supermarket}"],"tags":{"brand:wikidata":"Q1663776","shop":"supermarket"},"addTags":{"brand":"ICA Kvantum","brand:wikidata":"Q1663776","name":"ICA Kvantum","shop":"supermarket"}},"shop/supermarket/icanara-c57afb":{"name":"ICA Nära","locationSet":{"include":["se"]},"geometry":["point","area"],"matchScore":2,"terms":["ica nära"],"tags":{"brand:wikidata":"Q1663776","shop":"supermarket"},"addTags":{"brand":"ICA Nära","brand:wikidata":"Q1663776","name":"ICA Nära","shop":"supermarket"}},"shop/supermarket/icasupermarket-e39865":{"name":"ICA Supermarket","locationSet":{"include":["no","se"]},"geometry":["point","area"],"matchScore":2,"terms":["ica supermarket"],"fields":["name","brand","{shop/supermarket}"],"tags":{"brand:wikidata":"Q1663776","shop":"supermarket"},"addTags":{"brand":"ICA Supermarket","brand:wikidata":"Q1663776","name":"ICA Supermarket","shop":"supermarket"}},"shop/supermarket/maxiicastormarknad-e39865":{"name":"Maxi ICA Stormarknad","locationSet":{"include":["no","se"]},"geometry":["point","area"],"matchScore":2,"terms":["ica maxi","maxi ica stormarknad"],"fields":["name","brand","{shop/supermarket}"],"tags":{"brand:wikidata":"Q1663776","shop":"supermarket"},"addTags":{"brand":"Maxi ICA Stormarknad","brand:wikidata":"Q1663776","name":"Maxi ICA Stormarknad","shop":"supermarket","short_name":"ICA Maxi"}},"shop/supermarket/willys-c57afb":{"name":"Willys","locationSet":{"include":["se"]},"geometry":["point","area"],"matchScore":2,"terms":["willys"],"fields":["name","brand","{shop/supermarket}"],"tags":{"brand:wikidata":"Q10720214","shop":"supermarket"},"addTags":{"brand":"Willys","brand:wikidata":"Q10720214","name":"Willys","shop":"supermarket"}},"shop/ticket/ticketmaster-9f0b74":{"name":"Ticketmaster","locationSet":{"include":["ae","at","au","be","ca","ch","cy","cz","de","dk","es","fi","fr","gr","ie","it","mx","nl","no","nz","pl","se","sg","tr","tw","uk","za"]},"geometry":["point","area"],"matchScore":2,"terms":["live nation","ticketmaster"],"fields":["name","brand","{shop/ticket}"],"tags":{"brand:wikidata":"Q2609162","shop":"ticket"},"addTags":{"brand":"Ticketmaster","brand:wikidata":"Q2609162","name":"Ticketmaster","shop":"ticket"}},"shop/tool_hire/loxam-33fef8":{"name":"Loxam","locationSet":{"include":["ae","be","bh","br","ch","co","cz","de","dk","ee","es","fi","fr","gb","ie","it","kw","lt","lu","lv","ma","nl","no","om","pl","pt","qa","sa","se","sk"]},"geometry":["point","area"],"matchScore":2,"terms":["loxam"],"tags":{"brand:wikidata":"Q3264407","shop":"tool_hire"},"addTags":{"brand":"Loxam","brand:wikidata":"Q3264407","name":"Loxam","shop":"tool_hire"}},"shop/toys/lekia-77c96c":{"name":"Lekia","locationSet":{"include":["no","se"]},"geometry":["point","area"],"matchScore":2,"terms":["lekia"],"tags":{"brand:wikidata":"Q56303274","shop":"toys"},"addTags":{"brand":"Lekia","brand:wikidata":"Q56303274","name":"Lekia","shop":"toys"}},"shop/trade/xlbygg-14590b":{"name":"XL-Bygg","locationSet":{"include":["no","se"]},"geometry":["point","area"],"matchScore":2,"terms":["xl-bygg"],"fields":["name","brand","{shop/trade}"],"tags":{"brand:wikidata":"Q10720798","shop":"trade"},"addTags":{"brand":"XL-Bygg","brand:wikidata":"Q10720798","shop":"trade","trade":"building_supplies"}},"shop/variety_store/flyingtigercopenhagen-37d726":{"name":"Flying Tiger Copenhagen","locationSet":{"include":["at","be","ch","cy","cz","de","dk","ee","es","fi","fr","gb","gr","hu","ie","is","it","jp","kr","lt","lv","mt","nl","no","pl","pt","se","sk"]},"geometry":["point","area"],"matchScore":2,"terms":["flying tiger","flying tiger copenhagen","tgr","tiger"],"tags":{"brand:wikidata":"Q2786319","shop":"variety_store"},"addTags":{"brand":"Flying Tiger Copenhagen","brand:wikidata":"Q2786319","name":"Flying Tiger Copenhagen","shop":"variety_store","short_name":"Flying Tiger"}},"shop/watches/longines-691196":{"name":"Longines","locationSet":{"include":["ar","au","be","ca","ch","cl","cn","de","dk","es","fi","fr","gr","in","it","jp","kr","mx","my","nl","no","pt","se","sg","th","tr","tw","uk","us","za"]},"geometry":["point","area"],"matchScore":2,"terms":["longines"],"tags":{"brand:wikidata":"Q603698","shop":"watches"},"addTags":{"brand":"Longines","brand:wikidata":"Q603698","name":"Longines","shop":"watches"}},"tourism/hostel/forenomhostel-8d88d8":{"name":"Forenom","locationSet":{"include":["fi","se"]},"geometry":["point","area"],"matchScore":2,"terms":["forenom"],"fields":["name","brand","{tourism/hostel}"],"tags":{"brand:wikidata":"Q101142662","tourism":"hostel"},"addTags":{"brand":"Forenom","brand:wikidata":"Q101142662","name":"Forenom Hostel","tourism":"hostel"}},"tourism/hostel/stf-e1d194":{"name":"STF","locationSet":{"include":["se"]},"geometry":["point","area"],"matchScore":2,"terms":["stf","svenska turistföreningen"],"fields":["name","brand","{tourism/hostel}"],"tags":{"brand:wikidata":"Q1492844","tourism":"hostel"},"addTags":{"brand":"STF","brand:wikidata":"Q1492844","name":"STF","tourism":"hostel"}},"tourism/hotel/bandbhotel-fc8c2c":{"name":"B&B Hotel","locationSet":{"include":["by","bg","cz","hu","pl","md","ro","ru","sk","ua","ax","gg","je","cq","dk","ee","fo","fi","is","ie","im","lv","lt","no","sj","se","gb","al","ad","ba","hr","gi","gr","va","it","mt","me","mk","pt","sm","rs","si","es","xk","at","be","fr","de","li","lu","mc","nl","ch","br"]},"geometry":["point","area"],"matchScore":2,"terms":["b&b hotels"],"fields":["name","brand","{tourism/hotel}"],"tags":{"brand:wikidata":"Q794939","tourism":"hotel"},"addTags":{"brand":"B&B Hotels","brand:wikidata":"Q794939","name":"B&B Hotel","tourism":"hotel"}},"tourism/hotel/greet-046fe6":{"name":"greet","locationSet":{"include":["by","bg","cz","hu","pl","md","ro","ru","sk","ua","ax","gg","je","cq","dk","ee","fo","fi","is","ie","im","lv","lt","no","sj","se","gb","al","ad","ba","hr","gi","gr","va","it","mt","me","mk","pt","sm","rs","si","es","xk","at","be","fr","de","li","lu","mc","nl","ch"]},"geometry":["point","area"],"matchScore":2,"terms":["greet"],"fields":["name","brand","{tourism/hotel}"],"tags":{"brand:wikidata":"Q115489066","tourism":"hotel"},"addTags":{"brand":"greet","brand:wikidata":"Q115489066","name":"Greet","tourism":"hotel"}},"tourism/hotel/motelone-046fe6":{"name":"Motel One","locationSet":{"include":["by","bg","cz","hu","pl","md","ro","ru","sk","ua","ax","gg","je","cq","dk","ee","fo","fi","is","ie","im","lv","lt","no","sj","se","gb","al","ad","ba","hr","gi","gr","va","it","mt","me","mk","pt","sm","rs","si","es","xk","at","be","fr","de","li","lu","mc","nl","ch"]},"geometry":["point","area"],"matchScore":2,"terms":["motel one"],"fields":["name","brand","{tourism/hotel}"],"tags":{"brand:wikidata":"Q391080","tourism":"hotel"},"addTags":{"brand":"Motel One","brand:wikidata":"Q391080","name":"Motel One","tourism":"hotel"}},"tourism/hotel/scandichotels-f8f452":{"name":"Scandic Hotels","locationSet":{"include":["de","dk","fi","no","pl","se"]},"geometry":["point","area"],"matchScore":2,"terms":["scandic hotels"],"fields":["name","brand","{tourism/hotel}"],"tags":{"brand:wikidata":"Q129391","tourism":"hotel"},"addTags":{"brand":"Scandic Hotels","brand:wikidata":"Q129391","name":"Scandic Hotels","tourism":"hotel"}},"tourism/hotel/zleephotels-29370b":{"name":"Zleep Hotel","locationSet":{"include":["dk","se"]},"geometry":["point","area"],"matchScore":2,"terms":["zleep hotels"],"fields":["name","brand","{tourism/hotel}"],"tags":{"brand:wikidata":"Q16325118","tourism":"hotel"},"addTags":{"brand":"Zleep Hotels","brand:wikidata":"Q16325118","name":"Zleep Hotels","tourism":"hotel"}},"amenity/car_sharing/sunfleet-cd4862":{"name":"Sunfleet","locationSet":{"include":["se"]},"geometry":["point","area"],"matchScore":2,"terms":["sunfleet"],"tags":{"amenity":"car_sharing","operator:wikidata":"Q19978726"},"addTags":{"amenity":"car_sharing","operator":"Sunfleet","operator:wikidata":"Q19978726"}},"amenity/charging_station/eon-7f623e":{"name":"E.ON","locationSet":{"include":["by","bg","cz","hu","pl","md","ro","ru","sk","ua","ax","gg","je","cq","dk","ee","fo","fi","is","ie","im","lv","lt","no","sj","se","gb","al","ad","ba","hr","gi","gr","va","it","mt","me","mk","pt","sm","rs","si","es","xk","at","be","fr","de","li","lu","mc","nl","ch"]},"geometry":["point","vertex","area"],"matchScore":2,"terms":["e-on drive","e.on"],"fields":["name","operator","{amenity/charging_station}"],"tags":{"amenity":"charging_station","operator:wikidata":"Q270223"},"addTags":{"amenity":"charging_station","operator":"E.ON","operator:wikidata":"Q270223"}},"amenity/charging_station/evbox-7f623e":{"name":"EVBox","locationSet":{"include":["by","bg","cz","hu","pl","md","ro","ru","sk","ua","ax","gg","je","cq","dk","ee","fo","fi","is","ie","im","lv","lt","no","sj","se","gb","al","ad","ba","hr","gi","gr","va","it","mt","me","mk","pt","sm","rs","si","es","xk","at","be","fr","de","li","lu","mc","nl","ch"]},"geometry":["point","vertex","area"],"matchScore":2,"terms":["evbox"],"fields":["name","operator","{amenity/charging_station}"],"tags":{"amenity":"charging_station","operator:wikidata":"Q28406392"},"addTags":{"amenity":"charging_station","operator":"EVBox","operator:wikidata":"Q28406392"}},"amenity/charging_station/incharge-5abca8":{"name":"InCharge","locationSet":{"include":["gb","se"]},"geometry":["point","vertex","area"],"matchScore":2,"terms":["incharge","vattenfall"],"fields":["name","operator","{amenity/charging_station}"],"tags":{"amenity":"charging_station","operator:wikidata":"Q71041027"},"addTags":{"amenity":"charging_station","brand":"InCharge","brand:wikidata":"Q71041027","name":"InCharge","operator":"InCharge","operator:wikidata":"Q71041027"}},"amenity/charging_station/qpark-7f623e":{"name":"Q-Park","locationSet":{"include":["by","bg","cz","hu","pl","md","ro","ru","sk","ua","ax","gg","je","cq","dk","ee","fo","fi","is","ie","im","lv","lt","no","sj","se","gb","al","ad","ba","hr","gi","gr","va","it","mt","me","mk","pt","sm","rs","si","es","xk","at","be","fr","de","li","lu","mc","nl","ch"]},"geometry":["point","vertex","area"],"matchScore":2,"terms":["q-park"],"fields":["name","operator","{amenity/charging_station}"],"tags":{"amenity":"charging_station","operator:wikidata":"Q1127798"},"addTags":{"amenity":"charging_station","operator":"Q-Park","operator:wikidata":"Q1127798"}},"amenity/hospital/capio-ee5a4b":{"name":"Capio","locationSet":{"include":["de","dk","fx","no","se"]},"geometry":["area","point"],"matchScore":2,"terms":["capio"],"fields":["name","operator","{amenity/hospital}"],"reference":{"key":"amenity","value":"hospital"},"tags":{"amenity":"hospital","operator:wikidata":"Q498606"},"addTags":{"amenity":"hospital","healthcare":"hospital","operator":"Capio","operator:wikidata":"Q498606"}},"amenity/parking/apcoaparking-e752ad":{"name":"Apcoa Parking","locationSet":{"include":["at","be","ch","de","dk","gb","ie","it","nl","no","pl","se"]},"geometry":["area","point","vertex"],"matchScore":2,"terms":["apcoa parking"],"fields":["name","operator","{amenity/parking}"],"tags":{"amenity":"parking","operator:wikidata":"Q296108"},"addTags":{"amenity":"parking","operator":"APCOA Parking","operator:wikidata":"Q296108"}},"amenity/post_box/postnord-90fe7c":{"name":"PostNord","locationSet":{"include":["dk","se"]},"geometry":["point","vertex"],"matchScore":2,"terms":["postnord"],"tags":{"amenity":"post_box","operator:wikidata":"Q3181430"},"addTags":{"amenity":"post_box","operator":"PostNord","operator:wikidata":"Q3181430"}},"amenity/post_box/postnordab-55b9b8":{"name":"PostNord AB","locationSet":{"include":["se"]},"geometry":["point","vertex"],"matchScore":2,"terms":["postnord ab"],"tags":{"amenity":"post_box","operator:wikidata":"Q3181430"},"addTags":{"amenity":"post_box","operator":"PostNord AB","operator:wikidata":"Q3181430"}},"amenity/post_office/postnord-85beed":{"name":"PostNord","locationSet":{"include":["dk","se"]},"geometry":["point","area"],"matchScore":2,"terms":["postnord"],"fields":["name","operator","{amenity/post_office}"],"tags":{"amenity":"post_office","operator:wikidata":"Q3181430"},"addTags":{"amenity":"post_office","operator":"PostNord","operator:wikidata":"Q3181430"}},"amenity/post_office/postnordab-286ddb":{"name":"PostNord AB","locationSet":{"include":["se"]},"geometry":["point","area"],"matchScore":2,"terms":["postnord ab"],"fields":["name","operator","{amenity/post_office}"],"tags":{"amenity":"post_office","operator:wikidata":"Q3181430"},"addTags":{"amenity":"post_office","operator":"PostNord AB","operator:wikidata":"Q3181430"}},"amenity/prison/kriminalvarden-363fe4":{"name":"Kriminalvården","locationSet":{"include":["se"]},"geometry":["area","point"],"matchScore":2,"terms":["kriminalvården"],"fields":["name","operator","{amenity/prison}"],"tags":{"amenity":"prison","operator:wikidata":"Q7061065"},"addTags":{"amenity":"prison","operator":"Kriminalvården","operator:wikidata":"Q7061065"}},"amenity/social_facility/attendo-affb39":{"name":"Attendo","locationSet":{"include":["fi","se"]},"geometry":["point","area"],"matchScore":2,"terms":["attendo","attendo oy"],"tags":{"amenity":"social_facility","operator:wikidata":"Q11853322"},"addTags":{"amenity":"social_facility","operator":"Attendo","operator:wikidata":"Q11853322"}},"emergency/lifeboat_station/sjoraddningssallskapet-3653a6":{"name":"Sjöräddningssällskapet","locationSet":{"include":["se"]},"geometry":["point","area"],"matchScore":2,"terms":["sjöräddningssällskapet","ssrs","swedish sea rescue society"],"tags":{"emergency":"lifeboat_station","operator:wikidata":"Q1765275"},"addTags":{"emergency":"lifeboat_station","operator":"Sjöräddningssällskapet","operator:en":"Swedish Sea Rescue Society","operator:wikidata":"Q1765275"}},"emergency/phone/svenskaturistforeningen-76fb80":{"name":"Svenska Turistföreningen","locationSet":{"include":["se"]},"geometry":["point","vertex"],"matchScore":2,"terms":["svenska turistföreningen"],"tags":{"emergency":"phone","operator:wikidata":"Q1492844"},"addTags":{"emergency":"phone","operator":"Svenska Turistföreningen","operator:wikidata":"Q1492844"}},"man_made/pipeline/preem-febfa2":{"name":"Preem","locationSet":{"include":["se"]},"geometry":["line"],"matchScore":2,"terms":["preem"],"tags":{"man_made":"pipeline","operator:wikidata":"Q598835"},"addTags":{"man_made":"pipeline","operator":"Preem","operator:wikidata":"Q598835"}},"pipeline/substation/preem-6502da":{"name":"Preem","locationSet":{"include":["se"]},"geometry":["area","point"],"matchScore":2,"terms":["preem"],"tags":{"operator:wikidata":"Q598835","pipeline":"substation"},"addTags":{"operator":"Preem","operator:wikidata":"Q598835","pipeline":"substation"}},"power/generator/innogy-16c9d0":{"name":"Innogy","locationSet":{"include":["by","bg","cz","hu","pl","md","ro","ru","sk","ua","ax","gg","je","cq","dk","ee","fo","fi","is","ie","im","lv","lt","no","sj","se","gb","al","ad","ba","hr","gi","gr","va","it","mt","me","mk","pt","sm","rs","si","es","xk","at","be","fr","de","li","lu","mc","nl","ch"]},"geometry":["point","vertex","area"],"matchScore":2,"terms":["innogy"],"tags":{"operator:wikidata":"Q2124721","power":"generator"},"addTags":{"operator":"Innogy","operator:wikidata":"Q2124721","power":"generator"}},"power/generator/rwe-16c9d0":{"name":"RWE","locationSet":{"include":["by","bg","cz","hu","pl","md","ro","ru","sk","ua","ax","gg","je","cq","dk","ee","fo","fi","is","ie","im","lv","lt","no","sj","se","gb","al","ad","ba","hr","gi","gr","va","it","mt","me","mk","pt","sm","rs","si","es","xk","at","be","fr","de","li","lu","mc","nl","ch"]},"geometry":["point","vertex","area"],"matchScore":2,"terms":["rwe"],"tags":{"operator:wikidata":"Q138133","power":"generator"},"addTags":{"operator":"RWE","operator:wikidata":"Q138133","power":"generator"}},"power/generator/statkraft-16c9d0":{"name":"Statkraft","locationSet":{"include":["by","bg","cz","hu","pl","md","ro","ru","sk","ua","ax","gg","je","cq","dk","ee","fo","fi","is","ie","im","lv","lt","no","sj","se","gb","al","ad","ba","hr","gi","gr","va","it","mt","me","mk","pt","sm","rs","si","es","xk","at","be","fr","de","li","lu","mc","nl","ch"]},"geometry":["point","vertex","area"],"matchScore":2,"terms":["statkraft"],"tags":{"operator:wikidata":"Q1681145","power":"generator"},"addTags":{"operator":"Statkraft","operator:wikidata":"Q1681145","power":"generator"}},"power/generator/uniper-16c9d0":{"name":"Uniper","locationSet":{"include":["by","bg","cz","hu","pl","md","ro","ru","sk","ua","ax","gg","je","cq","dk","ee","fo","fi","is","ie","im","lv","lt","no","sj","se","gb","al","ad","ba","hr","gi","gr","va","it","mt","me","mk","pt","sm","rs","si","es","xk","at","be","fr","de","li","lu","mc","nl","ch"]},"geometry":["point","vertex","area"],"matchScore":2,"terms":["uniper"],"tags":{"operator:wikidata":"Q19839259","power":"generator"},"addTags":{"operator":"Uniper","operator:wikidata":"Q19839259","power":"generator"}},"power/generator/wpo-16c9d0":{"name":"WPO","locationSet":{"include":["by","bg","cz","hu","pl","md","ro","ru","sk","ua","ax","gg","je","cq","dk","ee","fo","fi","is","ie","im","lv","lt","no","sj","se","gb","al","ad","ba","hr","gi","gr","va","it","mt","me","mk","pt","sm","rs","si","es","xk","at","be","fr","de","li","lu","mc","nl","ch"]},"geometry":["point","vertex","area"],"matchScore":2,"terms":["wpo"],"tags":{"operator:wikidata":"Q64755627","power":"generator"},"addTags":{"operator":"WPO","operator:wikidata":"Q64755627","power":"generator"}},"power/line/ellevio-dc38bb":{"name":"Ellevio","locationSet":{"include":["se"]},"geometry":["line"],"matchScore":2,"terms":["ellevio"],"tags":{"operator:wikidata":"Q29015063","power":"line"},"addTags":{"operator":"Ellevio","operator:wikidata":"Q29015063","power":"line"}},"power/line/fortum-1bed17":{"name":"Fortum","locationSet":{"include":["fi","se"]},"geometry":["line"],"matchScore":2,"terms":["fortum"],"tags":{"operator:wikidata":"Q1439075","power":"line"},"addTags":{"operator":"Fortum","operator:wikidata":"Q1439075","power":"line"}},"power/line/svenskakraftnat-dc38bb":{"name":"Svenska Kraftnät","locationSet":{"include":["se"]},"geometry":["line"],"matchScore":2,"terms":["svenska kraftnät"],"tags":{"operator:wikidata":"Q942801","power":"line"},"addTags":{"operator":"Svenska Kraftnät","operator:wikidata":"Q942801","power":"line"}},"power/minor_line/ellevio-da7f1f":{"name":"Ellevio","locationSet":{"include":["se"]},"geometry":["line"],"matchScore":2,"terms":["ellevio"],"tags":{"operator:wikidata":"Q29015063","power":"minor_line"},"addTags":{"operator":"Ellevio","operator:wikidata":"Q29015063","power":"minor_line"}},"power/minor_line/fortum-58de68":{"name":"Fortum","locationSet":{"include":["fi","se"]},"geometry":["line"],"matchScore":2,"terms":["fortum"],"tags":{"operator:wikidata":"Q1439075","power":"minor_line"},"addTags":{"operator":"Fortum","operator:wikidata":"Q1439075","power":"minor_line"}},"power/minor_line/svenskakraftnat-da7f1f":{"name":"Svenska Kraftnät","locationSet":{"include":["se"]},"geometry":["line"],"matchScore":2,"terms":["svenska kraftnät"],"tags":{"operator:wikidata":"Q942801","power":"minor_line"},"addTags":{"operator":"Svenska Kraftnät","operator:wikidata":"Q942801","power":"minor_line"}},"power/plant/orsted-67f0f6":{"name":"Ørsted","locationSet":{"include":["de","dk","gb","nl","se","us"]},"geometry":["area"],"matchScore":2,"terms":["ørsted"],"tags":{"operator:wikidata":"Q1241260","power":"plant"},"addTags":{"operator":"Ørsted","operator:wikidata":"Q1241260","power":"plant"}},"power/plant/saltenkraftsambandproduksjon-7f89ba":{"name":"Salten Kraftsamband Produksjon","locationSet":{"include":["no","se"]},"geometry":["area"],"matchScore":2,"terms":["salten kraftsamband produksjon"],"tags":{"operator:wikidata":"Q7406074","power":"plant"},"addTags":{"operator":"Salten Kraftsamband Produksjon","operator:wikidata":"Q7406074","power":"plant"}},"power/plant/vattenfall-482654":{"name":"Vattenfall","locationSet":{"include":["dk","fi","gb","nl","pl","se"]},"geometry":["area"],"matchScore":2,"terms":["vattenfall","vattenfall ab"],"tags":{"operator:wikidata":"Q157675","power":"plant"},"addTags":{"operator":"Vattenfall","operator:wikidata":"Q157675","power":"plant"}},"power/pole/ellevio-cbf906":{"name":"Ellevio","locationSet":{"include":["se"]},"geometry":["point","vertex"],"matchScore":2,"terms":["ellevio"],"tags":{"operator:wikidata":"Q29015063","power":"pole"},"addTags":{"operator":"Ellevio","operator:wikidata":"Q29015063","power":"pole"}},"power/pole/fortum-fe790a":{"name":"Fortum","locationSet":{"include":["fi","se"]},"geometry":["point","vertex"],"matchScore":2,"terms":["fortum"],"tags":{"operator:wikidata":"Q1439075","power":"pole"},"addTags":{"operator":"Fortum","operator:wikidata":"Q1439075","power":"pole"}},"power/pole/svenskakraftnat-cbf906":{"name":"Svenska Kraftnät","locationSet":{"include":["se"]},"geometry":["point","vertex"],"matchScore":2,"terms":["svenska kraftnät"],"tags":{"operator:wikidata":"Q942801","power":"pole"},"addTags":{"operator":"Svenska Kraftnät","operator:wikidata":"Q942801","power":"pole"}},"power/substation/ellevio-44b3db":{"name":"Ellevio","locationSet":{"include":["se"]},"geometry":["area","point"],"matchScore":2,"terms":["ellevio"],"tags":{"operator:wikidata":"Q29015063","power":"substation"},"addTags":{"operator":"Ellevio","operator:wikidata":"Q29015063","power":"substation"}},"power/substation/fortum-08f77c":{"name":"Fortum","locationSet":{"include":["fi","se"]},"geometry":["area","point"],"matchScore":2,"terms":["fortum"],"tags":{"operator:wikidata":"Q1439075","power":"substation"},"addTags":{"operator":"Fortum","operator:wikidata":"Q1439075","power":"substation"}},"power/substation/gavleenergi-44b3db":{"name":"Gavle Energi","locationSet":{"include":["se"]},"geometry":["area","point"],"matchScore":2,"terms":["gavle energi"],"tags":{"operator:wikidata":"Q10512439","power":"substation"},"addTags":{"operator":"Gavle Energi","operator:wikidata":"Q10512439","power":"substation"}},"power/substation/svenskakraftnat-44b3db":{"name":"Svenska Kraftnät","locationSet":{"include":["se"]},"geometry":["area","point"],"matchScore":2,"terms":["svenska kraftnät"],"tags":{"operator:wikidata":"Q942801","power":"substation"},"addTags":{"operator":"Svenska Kraftnät","operator:wikidata":"Q942801","power":"substation"}},"power/substation/umeaenergi-44b3db":{"name":"Umeå Energi","locationSet":{"include":["se"]},"geometry":["area","point"],"matchScore":2,"terms":["umeå energi"],"tags":{"operator:wikidata":"Q10709162","power":"substation"},"addTags":{"operator":"Umeå Energi","operator:wikidata":"Q10709162","power":"substation"}},"power/tower/ellevio-57ded1":{"name":"Ellevio","locationSet":{"include":["se"]},"geometry":["point","vertex"],"matchScore":2,"terms":["ellevio"],"tags":{"operator:wikidata":"Q29015063","power":"tower"},"addTags":{"operator":"Ellevio","operator:wikidata":"Q29015063","power":"tower"}},"power/tower/fortum-240ceb":{"name":"Fortum","locationSet":{"include":["fi","se"]},"geometry":["point","vertex"],"matchScore":2,"terms":["fortum"],"tags":{"operator:wikidata":"Q1439075","power":"tower"},"addTags":{"operator":"Fortum","operator:wikidata":"Q1439075","power":"tower"}},"power/tower/svenskakraftnat-57ded1":{"name":"Svenska Kraftnät","locationSet":{"include":["se"]},"geometry":["point","vertex"],"matchScore":2,"terms":["svenska kraftnät"],"tags":{"operator:wikidata":"Q942801","power":"tower"},"addTags":{"operator":"Svenska Kraftnät","operator:wikidata":"Q942801","power":"tower"}},"power/transformer/ellevio-da9798":{"name":"Ellevio","locationSet":{"include":["se"]},"geometry":["point","vertex"],"matchScore":2,"terms":["ellevio"],"tags":{"operator:wikidata":"Q29015063","power":"transformer"},"addTags":{"operator":"Ellevio","operator:wikidata":"Q29015063","power":"transformer"}},"power/transformer/fortum-d4ffd9":{"name":"Fortum","locationSet":{"include":["fi","se"]},"geometry":["point","vertex"],"matchScore":2,"terms":["fortum"],"tags":{"operator:wikidata":"Q1439075","power":"transformer"},"addTags":{"operator":"Fortum","operator:wikidata":"Q1439075","power":"transformer"}},"power/transformer/gavleenergi-da9798":{"name":"Gavle Energi","locationSet":{"include":["se"]},"geometry":["point","vertex"],"matchScore":2,"terms":["gavle energi"],"tags":{"operator:wikidata":"Q10512439","power":"transformer"},"addTags":{"operator":"Gavle Energi","operator:wikidata":"Q10512439","power":"transformer"}},"power/transformer/svenskakraftnat-da9798":{"name":"Svenska Kraftnät","locationSet":{"include":["se"]},"geometry":["point","vertex"],"matchScore":2,"terms":["svenska kraftnät"],"tags":{"operator:wikidata":"Q942801","power":"transformer"},"addTags":{"operator":"Svenska Kraftnät","operator:wikidata":"Q942801","power":"transformer"}},"power/transformer/umeaenergi-da9798":{"name":"Umeå Energi","locationSet":{"include":["se"]},"geometry":["point","vertex"],"matchScore":2,"terms":["umeå energi"],"tags":{"operator:wikidata":"Q10709162","power":"transformer"},"addTags":{"operator":"Umeå Energi","operator:wikidata":"Q10709162","power":"transformer"}},"type/route/railway/trafikverket-18cfca":{"name":"Trafikverket","locationSet":{"include":["se"]},"geometry":["relation"],"matchScore":2,"terms":["trafikverket"],"reference":{"key":"route","value":"railway"},"tags":{"operator:wikidata":"Q1677108","route":"railway","type":"route"},"addTags":{"operator":"Trafikverket","operator:wikidata":"Q1677108","route":"railway","type":"route"}},"telecom/exchange/interoute-58ec5d":{"name":"Interoute","locationSet":{"include":["by","bg","cz","hu","pl","md","ro","ru","sk","ua","ax","gg","je","cq","dk","ee","fo","fi","is","ie","im","lv","lt","no","sj","se","gb","al","ad","ba","hr","gi","gr","va","it","mt","me","mk","pt","sm","rs","si","es","xk","at","be","fr","de","li","lu","mc","nl","ch"]},"geometry":["point","area"],"matchScore":2,"terms":["interoute"],"fields":["name","operator","{telecom/exchange}"],"tags":{"operator:wikidata":"Q1668090","telecom":"exchange"},"addTags":{"operator":"Interoute","operator:wikidata":"Q1668090","telecom":"exchange"}},"public_transport/station_ferry/sl-e41601":{"name":"SL","locationSet":{"include":["se"]},"geometry":["vertex","point","area"],"matchScore":2,"terms":["sl"],"reference":{"key":"amenity","value":"ferry_terminal"},"tags":{"ferry":"yes","network:wikidata":"Q970452","public_transport":"station"},"addTags":{"amenity":"ferry_terminal","ferry":"yes","network":"SL","network:wikidata":"Q970452","public_transport":"station"}},"public_transport/station_ferry/vasttrafik-e41601":{"name":"Västtrafik","locationSet":{"include":["se"]},"geometry":["vertex","point","area"],"matchScore":2,"terms":["västtrafik"],"reference":{"key":"amenity","value":"ferry_terminal"},"tags":{"ferry":"yes","network:wikidata":"Q928178","public_transport":"station"},"addTags":{"amenity":"ferry_terminal","ferry":"yes","network":"Västtrafik","network:wikidata":"Q928178","public_transport":"station"}},"public_transport/station_ferry/waxholmsbolaget-e41601":{"name":"Waxholmsbolaget","locationSet":{"include":["se"]},"geometry":["vertex","point","area"],"matchScore":2,"terms":["waxholmsbolaget"],"reference":{"key":"amenity","value":"ferry_terminal"},"tags":{"ferry":"yes","network:wikidata":"Q7975717","public_transport":"station"},"addTags":{"amenity":"ferry_terminal","ferry":"yes","network":"Waxholmsbolaget","network:wikidata":"Q7975717","public_transport":"station"}},"public_transport/platform/bus_point/blekingetrafiken-84cbf2":{"name":"Blekingetrafiken","locationSet":{"include":["se"]},"geometry":["point","vertex"],"matchScore":2,"terms":["blekingetrafiken"],"reference":{"key":"public_transport","value":"platform"},"tags":{"bus":"yes","network:wikidata":"Q10431249","public_transport":"platform"},"addTags":{"bus":"yes","highway":"bus_stop","network":"Blekingetrafiken","network:wikidata":"Q10431249","public_transport":"platform"}},"public_transport/platform/bus_point/dintur-84cbf2":{"name":"DinTur","locationSet":{"include":["se"]},"geometry":["point","vertex"],"matchScore":2,"terms":["dintur"],"reference":{"key":"public_transport","value":"platform"},"searchable":false,"tags":{"bus":"yes","network:wikidata":"Q5277826","public_transport":"platform"},"addTags":{"bus":"yes","highway":"bus_stop","network":"DinTur","network:wikidata":"Q5277826","public_transport":"platform"}},"public_transport/platform/bus_point/flygbussarna-84cbf2":{"name":"Flygbussarna","locationSet":{"include":["se"]},"geometry":["point","vertex"],"matchScore":2,"terms":["flygbussarna"],"reference":{"key":"public_transport","value":"platform"},"tags":{"bus":"yes","network:wikidata":"Q775247","public_transport":"platform"},"addTags":{"bus":"yes","highway":"bus_stop","network":"Flygbussarna","network:wikidata":"Q775247","public_transport":"platform"}},"public_transport/platform/bus_point/hallandstrafiken-84cbf2":{"name":"Hallandstrafiken","locationSet":{"include":["se"]},"geometry":["point","vertex"],"matchScore":2,"terms":["hallandstrafiken"],"reference":{"key":"public_transport","value":"platform"},"tags":{"bus":"yes","network:wikidata":"Q10516339","public_transport":"platform"},"addTags":{"bus":"yes","highway":"bus_stop","network":"Hallandstrafiken","network:wikidata":"Q10516339","public_transport":"platform"}},"public_transport/platform/bus_point/jonkopingslanstrafik-84cbf2":{"name":"Jönköpings Länstrafik","locationSet":{"include":["se"]},"geometry":["point","vertex"],"matchScore":2,"terms":["jlt","jönköpings länstrafik"],"reference":{"key":"public_transport","value":"platform"},"tags":{"bus":"yes","network:wikidata":"Q10542127","public_transport":"platform"},"addTags":{"bus":"yes","highway":"bus_stop","network":"Jönköpings Länstrafik","network:short":"JLT","network:wikidata":"Q10542127","public_transport":"platform"}},"public_transport/platform/bus_point/karlstadsbuss-84cbf2":{"name":"Karlstadsbuss","locationSet":{"include":["se"]},"geometry":["point","vertex"],"matchScore":2,"terms":["karlstadsbuss"],"reference":{"key":"public_transport","value":"platform"},"tags":{"bus":"yes","network:wikidata":"Q18291184","public_transport":"platform"},"addTags":{"bus":"yes","highway":"bus_stop","network":"Karlstadsbuss","network:wikidata":"Q18291184","public_transport":"platform"}},"public_transport/platform/bus_point/klt-84cbf2":{"name":"KLT","locationSet":{"include":["se"]},"geometry":["point","vertex"],"matchScore":2,"terms":["klt"],"reference":{"key":"public_transport","value":"platform"},"tags":{"bus":"yes","network:wikidata":"Q10542824","public_transport":"platform"},"addTags":{"bus":"yes","highway":"bus_stop","network":"KLT","network:wikidata":"Q10542824","public_transport":"platform"}},"public_transport/platform/bus_point/lanstrafikenijamtlandslan-84cbf2":{"name":"Länstrafiken i Jämtlands län","locationSet":{"include":["se"]},"geometry":["point","vertex"],"matchScore":2,"terms":["länstrafiken i jämtlands län"],"reference":{"key":"public_transport","value":"platform"},"tags":{"bus":"yes","network:wikidata":"Q6842703","public_transport":"platform"},"addTags":{"bus":"yes","highway":"bus_stop","network":"Länstrafiken i Jämtlands län","network:wikidata":"Q6842703","public_transport":"platform"}},"public_transport/platform/bus_point/lanstrafikenivasterbotten-84cbf2":{"name":"Länstrafiken i Västerbotten","locationSet":{"include":["se"]},"geometry":["point","vertex"],"matchScore":2,"terms":["länstrafiken i västerbotten"],"reference":{"key":"public_transport","value":"platform"},"tags":{"bus":"yes","network:wikidata":"Q10571997","public_transport":"platform"},"addTags":{"bus":"yes","highway":"bus_stop","network":"Länstrafiken i Västerbotten","network:wikidata":"Q10571997","public_transport":"platform"}},"public_transport/platform/bus_point/lanstrafikenkronoberg-84cbf2":{"name":"Länstrafiken Kronoberg","locationSet":{"include":["se"]},"geometry":["point","vertex"],"matchScore":2,"terms":["länstrafiken kronoberg"],"reference":{"key":"public_transport","value":"platform"},"tags":{"bus":"yes","network:wikidata":"Q10571992","public_transport":"platform"},"addTags":{"bus":"yes","highway":"bus_stop","network":"Länstrafiken Kronoberg","network:wikidata":"Q10571992","public_transport":"platform"}},"public_transport/platform/bus_point/lanstrafikenorebro-84cbf2":{"name":"Länstrafiken Örebro","locationSet":{"include":["se"]},"geometry":["point","vertex"],"matchScore":2,"terms":["länstrafiken örebro"],"reference":{"key":"public_transport","value":"platform"},"tags":{"bus":"yes","network:wikidata":"Q10571998","public_transport":"platform"},"addTags":{"bus":"yes","highway":"bus_stop","network":"Länstrafiken Örebro","network:wikidata":"Q10571998","public_transport":"platform"}},"public_transport/platform/bus_point/lulealokaltrafik-84cbf2":{"name":"Luleå Lokaltrafik","locationSet":{"include":["se"]},"geometry":["point","vertex"],"matchScore":2,"terms":["luleå lokaltrafik"],"reference":{"key":"public_transport","value":"platform"},"tags":{"bus":"yes","network:wikidata":"Q10570634","public_transport":"platform"},"addTags":{"bus":"yes","highway":"bus_stop","network":"Luleå Lokaltrafik","network:wikidata":"Q10570634","public_transport":"platform"}},"public_transport/platform/bus_point/ostgotatrafiken-84cbf2":{"name":"Östgötatrafiken","locationSet":{"include":["se"]},"geometry":["point","vertex"],"matchScore":2,"terms":["östgötatrafiken"],"reference":{"key":"public_transport","value":"platform"},"tags":{"bus":"yes","network:wikidata":"Q10728215","public_transport":"platform"},"addTags":{"bus":"yes","highway":"bus_stop","network":"Östgötatrafiken","network:wikidata":"Q10728215","public_transport":"platform"}},"public_transport/platform/bus_point/skanetrafiken-84cbf2":{"name":"Skånetrafiken","locationSet":{"include":["se"]},"geometry":["point","vertex"],"matchScore":2,"terms":["skånetrafiken"],"reference":{"key":"public_transport","value":"platform"},"tags":{"bus":"yes","network:wikidata":"Q1934330","public_transport":"platform"},"addTags":{"bus":"yes","highway":"bus_stop","network":"Skånetrafiken","network:wikidata":"Q1934330","public_transport":"platform"}},"public_transport/platform/bus_point/sl-84cbf2":{"name":"SL","locationSet":{"include":["se"]},"geometry":["point","vertex"],"matchScore":2,"terms":["sl"],"reference":{"key":"public_transport","value":"platform"},"tags":{"bus":"yes","network:wikidata":"Q970452","public_transport":"platform"},"addTags":{"bus":"yes","highway":"bus_stop","network":"SL","network:wikidata":"Q970452","public_transport":"platform"}},"public_transport/platform/bus_point/sormlandstrafiken-84cbf2":{"name":"Sörmlandstrafiken","locationSet":{"include":["se"]},"geometry":["point","vertex"],"matchScore":2,"terms":["sörmlandstrafiken"],"reference":{"key":"public_transport","value":"platform"},"tags":{"bus":"yes","network:wikidata":"Q10571995","public_transport":"platform"},"addTags":{"bus":"yes","highway":"bus_stop","network":"Sörmlandstrafiken","network:wikidata":"Q10571995","public_transport":"platform"}},"public_transport/platform/bus_point/stadsbussarnaostersund-84cbf2":{"name":"Stadsbussarna Östersund","locationSet":{"include":["se"]},"geometry":["point","vertex"],"matchScore":2,"terms":["stadsbussarna östersund"],"reference":{"key":"public_transport","value":"platform"},"tags":{"bus":"yes","network:wikidata":"Q57167540","public_transport":"platform"},"addTags":{"bus":"yes","highway":"bus_stop","network":"Stadsbussarna Östersund","network:wikidata":"Q57167540","public_transport":"platform"}},"public_transport/platform/bus_point/sundsvallsstadstrafik-84cbf2":{"name":"Sundsvalls stadstrafik","locationSet":{"include":["se"]},"geometry":["point","vertex"],"matchScore":2,"terms":["sundsvalls stadstrafik"],"reference":{"key":"public_transport","value":"platform"},"tags":{"bus":"yes","network:wikidata":"Q10677233","public_transport":"platform"},"addTags":{"bus":"yes","highway":"bus_stop","network":"Sundsvalls stadstrafik","network:wikidata":"Q10677233","public_transport":"platform"}},"public_transport/platform/bus_point/ul-84cbf2":{"name":"UL","locationSet":{"include":["se"]},"geometry":["point","vertex"],"matchScore":2,"terms":["ul"],"reference":{"key":"public_transport","value":"platform"},"tags":{"bus":"yes","network:wikidata":"Q7899151","public_transport":"platform"},"addTags":{"bus":"yes","highway":"bus_stop","network":"UL","network:wikidata":"Q7899151","public_transport":"platform"}},"public_transport/platform/bus_point/ultra-84cbf2":{"name":"Ultra","locationSet":{"include":["se"]},"geometry":["point","vertex"],"matchScore":2,"terms":["ultra"],"reference":{"key":"public_transport","value":"platform"},"tags":{"bus":"yes","network:wikidata":"Q10709170","public_transport":"platform"},"addTags":{"bus":"yes","highway":"bus_stop","network":"Ultra","network:wikidata":"Q10709170","public_transport":"platform"}},"public_transport/platform/bus_point/vasttrafik-84cbf2":{"name":"Västtrafik","locationSet":{"include":["se"]},"geometry":["point","vertex"],"matchScore":2,"terms":["västtrafik"],"reference":{"key":"public_transport","value":"platform"},"tags":{"bus":"yes","network:wikidata":"Q928178","public_transport":"platform"},"addTags":{"bus":"yes","highway":"bus_stop","network":"Västtrafik","network:wikidata":"Q928178","public_transport":"platform"}},"public_transport/platform/bus_point/vl-84cbf2":{"name":"VL","locationSet":{"include":["se"]},"geometry":["point","vertex"],"matchScore":2,"terms":["vl"],"reference":{"key":"public_transport","value":"platform"},"tags":{"bus":"yes","network:wikidata":"Q10718177","public_transport":"platform"},"addTags":{"bus":"yes","highway":"bus_stop","network":"VL","network:wikidata":"Q10718177","public_transport":"platform"}},"public_transport/platform/bus_point/vybus-f615fc":{"name":"Vy Bus","locationSet":{"include":["no","se"]},"geometry":["point","vertex"],"matchScore":2,"terms":["nettbuss","vy","vy bus","vy buss"],"reference":{"key":"public_transport","value":"platform"},"tags":{"bus":"yes","network:wikidata":"Q7000460","public_transport":"platform"},"addTags":{"bus":"yes","highway":"bus_stop","network":"Vy Bus","network:no":"Vy Buss","network:wikidata":"Q7000460","operator":"Vy","operator:wikidata":"Q83825","public_transport":"platform"}},"public_transport/platform/bus_point/xtrafik-84cbf2":{"name":"X-Trafik","locationSet":{"include":["se"]},"geometry":["point","vertex"],"matchScore":2,"terms":["x-trafik"],"reference":{"key":"public_transport","value":"platform"},"tags":{"bus":"yes","network:wikidata":"Q10720781","public_transport":"platform"},"addTags":{"bus":"yes","highway":"bus_stop","network":"X-Trafik","network:wikidata":"Q10720781","public_transport":"platform"}},"type/route/bus/blekingetrafiken-783b59":{"name":"Blekingetrafiken","locationSet":{"include":["se"]},"geometry":["relation"],"matchScore":2,"terms":["blekingetrafiken"],"reference":{"key":"route","value":"bus"},"tags":{"network:wikidata":"Q10431249","route":"bus","type":"route"},"addTags":{"network":"Blekingetrafiken","network:wikidata":"Q10431249","route":"bus","type":"route"}},"type/route/bus/dintur-783b59":{"name":"DinTur","locationSet":{"include":["se"]},"geometry":["relation"],"matchScore":2,"terms":["dintur"],"reference":{"key":"route","value":"bus"},"searchable":false,"tags":{"network:wikidata":"Q5277826","route":"bus","type":"route"},"addTags":{"network":"DinTur","network:wikidata":"Q5277826","route":"bus","type":"route"}},"type/route/bus/flygbussarna-783b59":{"name":"Flygbussarna","locationSet":{"include":["se"]},"geometry":["relation"],"matchScore":2,"terms":["flygbussarna"],"reference":{"key":"route","value":"bus"},"tags":{"network:wikidata":"Q775247","route":"bus","type":"route"},"addTags":{"network":"Flygbussarna","network:wikidata":"Q775247","route":"bus","type":"route"}},"type/route/bus/hallandstrafiken-783b59":{"name":"Hallandstrafiken","locationSet":{"include":["se"]},"geometry":["relation"],"matchScore":2,"terms":["hallandstrafiken"],"reference":{"key":"route","value":"bus"},"tags":{"network:wikidata":"Q10516339","route":"bus","type":"route"},"addTags":{"network":"Hallandstrafiken","network:wikidata":"Q10516339","route":"bus","type":"route"}},"type/route/bus/jonkopingslanstrafik-783b59":{"name":"Jönköpings Länstrafik","locationSet":{"include":["se"]},"geometry":["relation"],"matchScore":2,"terms":["jlt","jönköpings länstrafik"],"reference":{"key":"route","value":"bus"},"tags":{"network:wikidata":"Q10542127","route":"bus","type":"route"},"addTags":{"network":"Jönköpings Länstrafik","network:short":"JLT","network:wikidata":"Q10542127","route":"bus","type":"route"}},"type/route/bus/karlstadsbuss-783b59":{"name":"Karlstadsbuss","locationSet":{"include":["se"]},"geometry":["relation"],"matchScore":2,"terms":["karlstadsbuss"],"reference":{"key":"route","value":"bus"},"tags":{"network:wikidata":"Q18291184","route":"bus","type":"route"},"addTags":{"network":"Karlstadsbuss","network:wikidata":"Q18291184","route":"bus","type":"route"}},"type/route/bus/klt-783b59":{"name":"KLT","locationSet":{"include":["se"]},"geometry":["relation"],"matchScore":2,"terms":["klt"],"reference":{"key":"route","value":"bus"},"tags":{"network:wikidata":"Q10542824","route":"bus","type":"route"},"addTags":{"network":"KLT","network:wikidata":"Q10542824","route":"bus","type":"route"}},"type/route/bus/lanstrafikenijamtlandslan-783b59":{"name":"Länstrafiken i Jämtlands län","locationSet":{"include":["se"]},"geometry":["relation"],"matchScore":2,"terms":["länstrafiken i jämtlands län"],"reference":{"key":"route","value":"bus"},"tags":{"network:wikidata":"Q6842703","route":"bus","type":"route"},"addTags":{"network":"Länstrafiken i Jämtlands län","network:wikidata":"Q6842703","route":"bus","type":"route"}},"type/route/bus/lanstrafikenivasterbotten-783b59":{"name":"Länstrafiken i Västerbotten","locationSet":{"include":["se"]},"geometry":["relation"],"matchScore":2,"terms":["länstrafiken i västerbotten"],"reference":{"key":"route","value":"bus"},"tags":{"network:wikidata":"Q10571997","route":"bus","type":"route"},"addTags":{"network":"Länstrafiken i Västerbotten","network:wikidata":"Q10571997","route":"bus","type":"route"}},"type/route/bus/lanstrafikenkronoberg-783b59":{"name":"Länstrafiken Kronoberg","locationSet":{"include":["se"]},"geometry":["relation"],"matchScore":2,"terms":["länstrafiken kronoberg"],"reference":{"key":"route","value":"bus"},"tags":{"network:wikidata":"Q10571992","route":"bus","type":"route"},"addTags":{"network":"Länstrafiken Kronoberg","network:wikidata":"Q10571992","route":"bus","type":"route"}},"type/route/bus/lanstrafikenorebro-783b59":{"name":"Länstrafiken Örebro","locationSet":{"include":["se"]},"geometry":["relation"],"matchScore":2,"terms":["länstrafiken örebro"],"reference":{"key":"route","value":"bus"},"tags":{"network:wikidata":"Q10571998","route":"bus","type":"route"},"addTags":{"network":"Länstrafiken Örebro","network:wikidata":"Q10571998","route":"bus","type":"route"}},"type/route/bus/lulealokaltrafik-783b59":{"name":"Luleå Lokaltrafik","locationSet":{"include":["se"]},"geometry":["relation"],"matchScore":2,"terms":["luleå lokaltrafik"],"reference":{"key":"route","value":"bus"},"tags":{"network:wikidata":"Q10570634","route":"bus","type":"route"},"addTags":{"network":"Luleå Lokaltrafik","network:wikidata":"Q10570634","route":"bus","type":"route"}},"type/route/bus/ostgotatrafiken-783b59":{"name":"Östgötatrafiken","locationSet":{"include":["se"]},"geometry":["relation"],"matchScore":2,"terms":["östgötatrafiken"],"reference":{"key":"route","value":"bus"},"tags":{"network:wikidata":"Q10728215","route":"bus","type":"route"},"addTags":{"network":"Östgötatrafiken","network:wikidata":"Q10728215","route":"bus","type":"route"}},"type/route/bus/skanetrafiken-783b59":{"name":"Skånetrafiken","locationSet":{"include":["se"]},"geometry":["relation"],"matchScore":2,"terms":["skånetrafiken"],"reference":{"key":"route","value":"bus"},"tags":{"network:wikidata":"Q1934330","route":"bus","type":"route"},"addTags":{"network":"Skånetrafiken","network:wikidata":"Q1934330","route":"bus","type":"route"}},"type/route/bus/sl-783b59":{"name":"SL","locationSet":{"include":["se"]},"geometry":["relation"],"matchScore":2,"terms":["sl"],"reference":{"key":"route","value":"bus"},"tags":{"network:wikidata":"Q970452","route":"bus","type":"route"},"addTags":{"network":"SL","network:wikidata":"Q970452","route":"bus","type":"route"}},"type/route/bus/sormlandstrafiken-783b59":{"name":"Sörmlandstrafiken","locationSet":{"include":["se"]},"geometry":["relation"],"matchScore":2,"terms":["sörmlandstrafiken"],"reference":{"key":"route","value":"bus"},"tags":{"network:wikidata":"Q10571995","route":"bus","type":"route"},"addTags":{"network":"Sörmlandstrafiken","network:wikidata":"Q10571995","route":"bus","type":"route"}},"type/route/bus/stadsbussarnaostersund-783b59":{"name":"Stadsbussarna Östersund","locationSet":{"include":["se"]},"geometry":["relation"],"matchScore":2,"terms":["stadsbussarna östersund"],"reference":{"key":"route","value":"bus"},"tags":{"network:wikidata":"Q57167540","route":"bus","type":"route"},"addTags":{"network":"Stadsbussarna Östersund","network:wikidata":"Q57167540","route":"bus","type":"route"}},"type/route/bus/sundsvallsstadstrafik-783b59":{"name":"Sundsvalls stadstrafik","locationSet":{"include":["se"]},"geometry":["relation"],"matchScore":2,"terms":["sundsvalls stadstrafik"],"reference":{"key":"route","value":"bus"},"tags":{"network:wikidata":"Q10677233","route":"bus","type":"route"},"addTags":{"network":"Sundsvalls stadstrafik","network:wikidata":"Q10677233","route":"bus","type":"route"}},"type/route/bus/ul-783b59":{"name":"UL","locationSet":{"include":["se"]},"geometry":["relation"],"matchScore":2,"terms":["ul"],"reference":{"key":"route","value":"bus"},"tags":{"network:wikidata":"Q7899151","route":"bus","type":"route"},"addTags":{"network":"UL","network:wikidata":"Q7899151","route":"bus","type":"route"}},"type/route/bus/ultra-783b59":{"name":"Ultra","locationSet":{"include":["se"]},"geometry":["relation"],"matchScore":2,"terms":["ultra"],"reference":{"key":"route","value":"bus"},"tags":{"network:wikidata":"Q10709170","route":"bus","type":"route"},"addTags":{"network":"Ultra","network:wikidata":"Q10709170","route":"bus","type":"route"}},"type/route/bus/vasttrafik-783b59":{"name":"Västtrafik","locationSet":{"include":["se"]},"geometry":["relation"],"matchScore":2,"terms":["västtrafik"],"reference":{"key":"route","value":"bus"},"tags":{"network:wikidata":"Q928178","route":"bus","type":"route"},"addTags":{"network":"Västtrafik","network:wikidata":"Q928178","route":"bus","type":"route"}},"type/route/bus/vl-783b59":{"name":"VL","locationSet":{"include":["se"]},"geometry":["relation"],"matchScore":2,"terms":["vl"],"reference":{"key":"route","value":"bus"},"tags":{"network:wikidata":"Q10718177","route":"bus","type":"route"},"addTags":{"network":"VL","network:wikidata":"Q10718177","route":"bus","type":"route"}},"type/route/bus/vybus-bb165c":{"name":"Vy Bus","locationSet":{"include":["no","se"]},"geometry":["relation"],"matchScore":2,"terms":["nettbuss","vy","vy bus","vy buss"],"reference":{"key":"route","value":"bus"},"tags":{"network:wikidata":"Q7000460","route":"bus","type":"route"},"addTags":{"network":"Vy Bus","network:no":"Vy Buss","network:wikidata":"Q7000460","operator":"Vy","operator:wikidata":"Q83825","route":"bus","type":"route"}},"type/route/bus/xtrafik-783b59":{"name":"X-Trafik","locationSet":{"include":["se"]},"geometry":["relation"],"matchScore":2,"terms":["x-trafik"],"reference":{"key":"route","value":"bus"},"tags":{"network:wikidata":"Q10720781","route":"bus","type":"route"},"addTags":{"network":"X-Trafik","network:wikidata":"Q10720781","route":"bus","type":"route"}},"type/route/ferry/sl-db6623":{"name":"SL","locationSet":{"include":["se"]},"geometry":["relation"],"matchScore":2,"terms":["sl"],"reference":{"key":"route","value":"ferry"},"tags":{"network:wikidata":"Q970452","route":"ferry","type":"route"},"addTags":{"network":"SL","network:wikidata":"Q970452","route":"ferry","type":"route"}},"type/route/ferry/vasttrafik-db6623":{"name":"Västtrafik","locationSet":{"include":["se"]},"geometry":["relation"],"matchScore":2,"terms":["västtrafik"],"reference":{"key":"route","value":"ferry"},"tags":{"network:wikidata":"Q928178","route":"ferry","type":"route"},"addTags":{"network":"Västtrafik","network:wikidata":"Q928178","route":"ferry","type":"route"}},"type/route/ferry/waxholmsbolaget-db6623":{"name":"Waxholmsbolaget","locationSet":{"include":["se"]},"geometry":["relation"],"matchScore":2,"terms":["waxholmsbolaget"],"reference":{"key":"route","value":"ferry"},"tags":{"network:wikidata":"Q7975717","route":"ferry","type":"route"},"addTags":{"network":"Waxholmsbolaget","network:wikidata":"Q7975717","route":"ferry","type":"route"}},"route/ferry/sl-db6623":{"name":"SL","locationSet":{"include":["se"]},"geometry":["line"],"matchScore":2,"terms":["sl"],"tags":{"network:wikidata":"Q970452","route":"ferry"},"addTags":{"network":"SL","network:wikidata":"Q970452","route":"ferry"}},"route/ferry/vasttrafik-db6623":{"name":"Västtrafik","locationSet":{"include":["se"]},"geometry":["line"],"matchScore":2,"terms":["västtrafik"],"tags":{"network:wikidata":"Q928178","route":"ferry"},"addTags":{"network":"Västtrafik","network:wikidata":"Q928178","route":"ferry"}},"route/ferry/waxholmsbolaget-db6623":{"name":"Waxholmsbolaget","locationSet":{"include":["se"]},"geometry":["line"],"matchScore":2,"terms":["waxholmsbolaget"],"tags":{"network:wikidata":"Q7975717","route":"ferry"},"addTags":{"network":"Waxholmsbolaget","network:wikidata":"Q7975717","route":"ferry"}},"type/route/light_rail/sl-d4a475":{"name":"SL","locationSet":{"include":["se"]},"geometry":["relation"],"matchScore":2,"terms":["arriva","sl"],"reference":{"key":"route","value":"light_rail"},"tags":{"network:wikidata":"Q970452","route":"light_rail","type":"route"},"addTags":{"network":"SL","network:wikidata":"Q970452","operator":"Arriva","operator:wikidata":"Q680991","route":"light_rail","type":"route"}},"type/route/subway/stockholmstunnelbana-a6b04e":{"name":"Stockholms tunnelbana","locationSet":{"include":["se"]},"geometry":["relation"],"matchScore":2,"terms":["mtr nordic","stockholms tunnelbana"],"reference":{"key":"route","value":"subway"},"tags":{"network:wikidata":"Q272926","route":"subway","type":"route"},"addTags":{"network":"Stockholms tunnelbana","network:wikidata":"Q272926","operator":"MTR Nordic","operator:wikidata":"Q10573293","route":"subway","type":"route"}},"type/route/train/eurocity-6b9d23":{"name":"EuroCity","locationSet":{"include":["by","bg","cz","hu","pl","md","ro","ru","sk","ua","ax","gg","je","cq","dk","ee","fo","fi","is","ie","im","lv","lt","no","sj","se","gb","al","ad","ba","hr","gi","gr","va","it","mt","me","mk","pt","sm","rs","si","es","xk","at","be","fr","de","li","lu","mc","nl","ch"]},"geometry":["relation"],"matchScore":2,"terms":["eurocity"],"reference":{"key":"route","value":"train"},"tags":{"network:wikidata":"Q753050","route":"train","type":"route"},"addTags":{"network":"EuroCity","network:wikidata":"Q753050","route":"train","type":"route"}},"type/route/train/euronight-6b9d23":{"name":"EuroNight","locationSet":{"include":["by","bg","cz","hu","pl","md","ro","ru","sk","ua","ax","gg","je","cq","dk","ee","fo","fi","is","ie","im","lv","lt","no","sj","se","gb","al","ad","ba","hr","gi","gr","va","it","mt","me","mk","pt","sm","rs","si","es","xk","at","be","fr","de","li","lu","mc","nl","ch"]},"geometry":["relation"],"matchScore":2,"terms":["euronight"],"reference":{"key":"route","value":"train"},"tags":{"network:wikidata":"Q257307","route":"train","type":"route"},"addTags":{"network":"EuroNight","network:wikidata":"Q257307","route":"train","type":"route"}},"type/route/train/norrtag-2dcd18":{"name":"Norrtåg","locationSet":{"include":["fi","no","se"]},"geometry":["relation"],"matchScore":2,"terms":["norrtåg","vy tåg"],"reference":{"key":"route","value":"train"},"tags":{"network:wikidata":"Q10602972","route":"train","type":"route"},"addTags":{"network":"Norrtåg","network:wikidata":"Q10602972","operator":"Vy Tåg","operator:wikidata":"Q1503354","route":"train","type":"route"}},"type/route/train/skanetrafiken-ce5db4":{"name":"Skånetrafiken","locationSet":{"include":["se"]},"geometry":["relation"],"matchScore":2,"terms":["skånetrafiken"],"reference":{"key":"route","value":"train"},"tags":{"network:wikidata":"Q1934330","route":"train","type":"route"},"addTags":{"network":"Skånetrafiken","network:wikidata":"Q1934330","route":"train","type":"route"}},"type/route/train/sl-ce5db4":{"name":"SL","locationSet":{"include":["se"]},"geometry":["relation"],"matchScore":2,"terms":["sl"],"reference":{"key":"route","value":"train"},"tags":{"network:wikidata":"Q970452","route":"train","type":"route"},"addTags":{"network":"SL","network:wikidata":"Q970452","route":"train","type":"route"}},"type/route/train/vasttrafik-ce5db4":{"name":"Västtrafik","locationSet":{"include":["se"]},"geometry":["relation"],"matchScore":2,"terms":["västtrafik"],"reference":{"key":"route","value":"train"},"tags":{"network:wikidata":"Q928178","route":"train","type":"route"},"addTags":{"network":"Västtrafik","network:wikidata":"Q928178","route":"train","type":"route"}},"type/route/tram/vasttrafik-2462bf":{"name":"Västtrafik","locationSet":{"include":["se"]},"geometry":["relation"],"matchScore":2,"terms":["göteborgs spårvägar","västtrafik"],"reference":{"key":"route","value":"tram"},"tags":{"network:wikidata":"Q928178","route":"tram","type":"route"},"addTags":{"network":"Västtrafik","network:wikidata":"Q928178","operator":"Göteborgs Spårvägar","operator:wikidata":"Q10512910","route":"tram","type":"route"}}}