{"amenity/atm/citynationalbank-97e06e":{"name":"City National Bank (California)","locationSet":{"include":["us-ca","us-dc","us-de","us-fl","us-ga","us-ma","us-mn","us-nv","us-ny","us-tn","us-va"]},"geometry":["point","vertex"],"matchScore":2,"terms":["city national bank"],"fields":["name","brand","{amenity/atm}"],"tags":{"amenity":"atm","brand:wikidata":"Q5123314"},"addTags":{"amenity":"atm","brand":"City National Bank","brand:wikidata":"Q5123314","operator":"City National Bank","operator:wikidata":"Q5123314"}},"amenity/atm/unitedfederalcreditunion-d941c3":{"name":"United Federal Credit Union","locationSet":{"include":["us-ar","us-in","us-mi","us-nc","us-nv","us-oh"]},"geometry":["point","vertex"],"matchScore":2,"terms":["united federal credit union"],"fields":["name","brand","{amenity/atm}"],"tags":{"amenity":"atm","brand:wikidata":"Q7887758"},"addTags":{"amenity":"atm","brand":"United Federal Credit Union","brand:wikidata":"Q7887758","operator":"United Federal Credit Union","operator:wikidata":"Q7887758"}},"amenity/atm/wsfsbank-21e4b8":{"name":"WSFS Bank","locationSet":{"include":["us-de","us-nj","us-nv","us-pa","us-va"]},"geometry":["point","vertex"],"matchScore":2,"terms":["wsfs bank"],"fields":["name","brand","{amenity/atm}"],"tags":{"amenity":"atm","brand:wikidata":"Q7955609"},"addTags":{"amenity":"atm","brand":"WSFS Bank","brand:wikidata":"Q7955609","operator":"WSFS Bank","operator:wikidata":"Q7955609"}},"amenity/bank/citynationalbank-0b143b":{"name":"City National Bank (California)","locationSet":{"include":["us-ca","us-dc","us-de","us-fl","us-ga","us-ma","us-mn","us-nv","us-ny","us-tn","us-va"]},"geometry":["point","area"],"matchScore":2,"terms":["city national bank"],"tags":{"amenity":"bank","brand:wikidata":"Q5123314"},"addTags":{"amenity":"bank","brand":"City National Bank","brand:wikidata":"Q5123314","name":"City National Bank"}},"amenity/bank/unitedfederalcreditunion-2e0d3f":{"name":"United Federal Credit Union","locationSet":{"include":["us-ar","us-in","us-mi","us-nc","us-nv","us-oh"]},"geometry":["point","area"],"matchScore":2,"terms":["united federal credit union"],"tags":{"amenity":"bank","brand:wikidata":"Q7887758"},"addTags":{"amenity":"bank","brand":"United Federal Credit Union","brand:wikidata":"Q7887758","name":"United Federal Credit Union"}},"amenity/bank/wsfsbank-ecc1eb":{"name":"WSFS Bank","locationSet":{"include":["us-de","us-nj","us-nv","us-pa","us-va"]},"geometry":["point","area"],"matchScore":2,"terms":["wsfs bank"],"tags":{"amenity":"bank","brand:wikidata":"Q7955609"},"addTags":{"amenity":"bank","brand":"WSFS Bank","brand:wikidata":"Q7955609","name":"WSFS Bank"}},"amenity/dentist/westerndental-e883ee":{"name":"Western Dental","locationSet":{"include":["us-az","us-ca","us-nv"]},"geometry":["point","area"],"matchScore":2,"terms":["western dental","western dental & orthodontics"],"reference":{"key":"amenity","value":"dentist"},"tags":{"amenity":"dentist","brand:wikidata":"Q64211989"},"addTags":{"alt_name":"Western Dental & Orthodontics","amenity":"dentist","brand":"Western Dental","brand:wikidata":"Q64211989","healthcare":"dentist","name":"Western Dental"}},"amenity/fast_food/chicken/haroldschickenshack-f76ba8":{"name":"Harold's Chicken Shack","locationSet":{"include":["us-az","us-ca","us-ga","us-il","us-in","us-mo","us-nv"]},"geometry":["point","area"],"matchScore":2,"terms":["harold's","harold's chicken","harold's chicken shack","the fried chicken king"],"reference":{"key":"cuisine","value":"chicken"},"tags":{"amenity":"fast_food","brand:wikidata":"Q5659832","cuisine":"chicken"},"addTags":{"amenity":"fast_food","brand":"Harold's Chicken Shack","brand:wikidata":"Q5659832","cuisine":"chicken","name":"Harold's Chicken Shack","takeaway":"yes"}},"amenity/fast_food/mexican/laughingplanet-959927":{"name":"Laughing Planet","locationSet":{"include":["us-nv","us-or","us-wa"]},"geometry":["point","area"],"matchScore":2,"terms":["laughing planet"],"reference":{"key":"cuisine","value":"mexican"},"tags":{"amenity":"fast_food","brand:wikidata":"Q61603998","cuisine":"mexican"},"addTags":{"amenity":"fast_food","brand":"Laughing Planet","brand:wikidata":"Q61603998","cuisine":"mexican","name":"Laughing Planet","takeaway":"yes"}},"amenity/payment_terminal/nevadadmvnow-c49a2f":{"name":"Nevada DMV Now","locationSet":{"include":["us-nv"]},"geometry":["point"],"matchScore":2,"terms":["nevada department of motor vehicles","nevada dmv now"],"tags":{"amenity":"payment_terminal","brand:wikidata":"Q110265699"},"addTags":{"amenity":"payment_terminal","brand":"Nevada DMV Now","brand:wikidata":"Q110265699","name":"Nevada DMV Now","operator":"Nevada Department of Motor Vehicles","operator:wikidata":"Q16920922"}},"amenity/restaurant/american/lazydog-f4f1ab":{"name":"Lazy Dog","locationSet":{"include":["us-ca","us-co","us-fl","us-ga","us-il","us-nv","us-tx","us-va"]},"geometry":["point","area"],"matchScore":2,"terms":["lazy dog"],"reference":{"key":"cuisine","value":"american"},"tags":{"amenity":"restaurant","brand:wikidata":"Q111304278","cuisine":"american"},"addTags":{"amenity":"restaurant","brand":"Lazy Dog","brand:wikidata":"Q111304278","cuisine":"american","name":"Lazy Dog"}},"amenity/restaurant/lucillessmokehousebbq-385edb":{"name":"Lucille's Smokehouse BBQ","locationSet":{"include":["us-az","us-ca","us-nv"]},"geometry":["point","area"],"matchScore":2,"terms":["lucille's smokehouse bar-b-que","lucille's smokehouse bbq","lucilles","lucilles bbq"],"tags":{"amenity":"restaurant","brand:wikidata":"Q17019306"},"addTags":{"amenity":"restaurant","brand":"Lucille's Smokehouse BBQ","brand:wikidata":"Q17019306","cuisine":"barbecue","name":"Lucille's Smokehouse BBQ","official_name":"Lucille's Smokehouse Bar-B-Que"}},"amenity/restaurant/italian/maggianoslittleitaly-acf8ec":{"name":"Maggiano's Little Italy","locationSet":{"include":["us-az","us-ca","us-co","us-dc","us-fl","us-ga","us-il","us-in","us-ks","us-ma","us-md","us-mi","us-mo","us-nc","us-nj","us-nv","us-ny","us-oh","us-pa","us-tn","us-tx","us-va","us-wa","us-wi"]},"geometry":["point","area"],"matchScore":2,"terms":["maggiano's little italy"],"reference":{"key":"cuisine","value":"italian"},"tags":{"amenity":"restaurant","brand:wikidata":"Q6730149","cuisine":"italian"},"addTags":{"amenity":"restaurant","brand":"Maggiano's Little Italy","brand:wikidata":"Q6730149","cuisine":"italian","name":"Maggiano's Little Italy"}},"amenity/restaurant/pizza/roundtablepizza-6267fd":{"name":"Round Table Pizza","locationSet":{"include":["us-az","us-ca","us-nv","us-or","us-tx","us-wa"]},"geometry":["point","area"],"matchScore":2,"terms":["round table","round table pizza"],"reference":{"key":"cuisine","value":"pizza"},"tags":{"amenity":"restaurant","brand:wikidata":"Q7371139","cuisine":"pizza"},"addTags":{"amenity":"restaurant","brand":"Round Table Pizza","brand:wikidata":"Q7371139","cuisine":"pizza","name":"Round Table Pizza"}},"shop/cannabis/beyondhello-f81ec6":{"name":"Beyond Hello","locationSet":{"include":["us-ca","us-il","us-ma","us-nv","us-oh","us-pa","us-va"]},"geometry":["point","area"],"matchScore":2,"terms":["beyond hello"],"tags":{"brand:wikidata":"Q116734157","shop":"cannabis"},"addTags":{"brand":"Beyond Hello","brand:wikidata":"Q116734157","name":"Beyond Hello","shop":"cannabis"}},"shop/cannabis/curaleaf-4b9e8a":{"name":"Curaleaf","locationSet":{"include":["us-az","us-ct","us-fl","us-il","us-ma","us-md","us-me","us-mi","us-nd","us-nj","us-nv","us-ny","us-oh","us-or","us-pa","us-ut","us-vt"]},"geometry":["point","area"],"matchScore":2,"terms":["curaleaf"],"tags":{"brand:wikidata":"Q85754829","shop":"cannabis"},"addTags":{"brand":"Curaleaf","brand:wikidata":"Q85754829","name":"Curaleaf","shop":"cannabis"}},"shop/cannabis/rise-ce371d":{"name":"RISE","locationSet":{"include":["us-fl","us-il","us-ma","us-md","us-nj","us-nv","us-oh","us-pa","us-va"]},"geometry":["point","area"],"matchScore":2,"terms":["rise"],"tags":{"brand:wikidata":"Q108911841","shop":"cannabis"},"addTags":{"brand":"RISE","brand:wikidata":"Q108911841","name":"RISE","shop":"cannabis"}},"shop/cannabis/zenleaf-65d11e":{"name":"Zen Leaf","locationSet":{"include":["us-ar","us-az","us-il","us-ma","us-md","us-mi","us-nj","us-nv","us-oh","us-pa"]},"geometry":["point","area"],"matchScore":2,"terms":["zen leaf"],"tags":{"brand:wikidata":"Q108911834","shop":"cannabis"},"addTags":{"brand":"Zen Leaf","brand:wikidata":"Q108911834","name":"Zen Leaf","shop":"cannabis"}},"shop/clothes/workwear/workworld-0f3ba6":{"name":"Work World","locationSet":{"include":["us-ca","us-nv"]},"geometry":["point","area"],"matchScore":2,"terms":["work world"],"tags":{"brand:wikidata":"Q113502525","clothes":"workwear","shop":"clothes"},"addTags":{"brand":"Work World","brand:wikidata":"Q113502525","clothes":"workwear","name":"Work World","shop":"clothes"}},"shop/gift/atticsalt-ae6503":{"name":"Attic Salt","locationSet":{"include":["us-az","us-ca","us-co","us-id","us-il","us-in","us-ks","us-la","us-mo","us-ne","us-nv","us-ok","us-or","us-tx","us-ut","us-wa"]},"geometry":["point","area"],"matchScore":2,"terms":["attic salt"],"tags":{"brand:wikidata":"Q108409773","shop":"gift"},"addTags":{"brand":"Attic Salt","brand:wikidata":"Q108409773","name":"Attic Salt","shop":"gift"}},"shop/hairdresser/imagestudios-0d42d5":{"name":"Image Studios","locationSet":{"include":["us-ca","us-co","us-fl","us-ga","us-ky","us-mo","us-nc","us-nj","us-nv","us-ny","us-oh","us-or","us-sc","us-tn","us-tx","us-ut"]},"geometry":["point","area"],"matchScore":2,"terms":["image studios"],"tags":{"brand:wikidata":"Q110998819","shop":"hairdresser"},"addTags":{"brand":"Image Studios","brand:wikidata":"Q110998819","name":"Image Studios","shop":"hairdresser"}},"shop/pastry/mrsfields-e944b6":{"name":"Mrs. Fields","locationSet":{"include":["au","ph","us-ak","us-al","us-az","us-ca","us-co","us-de","us-fl","us-ga","us-hi","us-id","us-il","us-in","us-ks","us-la","us-ma","us-md","us-me","us-mi","us-mo","us-ms","us-nc","us-nj","us-nv","us-ny","us-oh","us-ok","us-pa","us-tx","us-ut","us-wi"]},"geometry":["point","area"],"matchScore":2,"terms":["mrs. fields"],"tags":{"brand:wikidata":"Q3866841","shop":"pastry"},"addTags":{"brand":"Mrs. Fields","brand:wikidata":"Q3866841","name":"Mrs. Fields","shop":"pastry"}},"shop/storage_rental/westcoastselfstorage-8e2904":{"name":"West Coast Self-Storage","locationSet":{"include":["us-ca","us-nv","us-or","us-wa"]},"geometry":["point","area"],"matchScore":2,"terms":["west coast self-storage"],"tags":{"brand:wikidata":"Q110084888","shop":"storage_rental"},"addTags":{"brand":"West Coast Self-Storage","brand:wikidata":"Q110084888","name":"West Coast Self-Storage","shop":"storage_rental"}},"shop/supermarket/sfsupermarket-7c1bf0":{"name":"SF Supermarket","locationSet":{"include":["us-ca","us-nv","us-or","us-tx"]},"geometry":["point","area"],"matchScore":2,"terms":["sf supermarket","shun fat supermarket"],"tags":{"brand:wikidata":"Q7505012","shop":"supermarket"},"addTags":{"brand":"SF Supermarket","brand:wikidata":"Q7505012","cuisine":"asian","name":"SF Supermarket","name:en":"SF Supermarket","name:zh-Hans":"顺发超级市场","name:zh-Hant":"順發超級市場","shop":"supermarket"}},"shop/supermarket/smartandfinal-3441e2":{"name":"Smart & Final","locationSet":{"include":["mx","us-az","us-ca","us-nv"]},"geometry":["point","area"],"matchScore":2,"terms":["smart & final"],"tags":{"brand:wikidata":"Q7543916","shop":"supermarket"},"addTags":{"brand":"Smart & Final","brand:wikidata":"Q7543916","name":"Smart & Final","shop":"supermarket"}},"shop/supermarket/smartandfinalextra-140857":{"name":"Smart & Final Extra!","locationSet":{"include":["us-az","us-ca","us-nv"]},"geometry":["point","area"],"matchScore":2,"terms":["smart & final"],"tags":{"brand:wikidata":"Q7543916","shop":"supermarket"},"addTags":{"brand":"Smart & Final","brand:wikidata":"Q7543916","name":"Smart & Final Extra!","shop":"supermarket"}},"shop/trade/cashmancat-d3dad1":{"name":"Cashman CAT","locationSet":{"include":["us-nv"]},"geometry":["point","area"],"matchScore":2,"terms":["cashman cat"],"tags":{"brand:wikidata":"Q109615492","shop":"trade"},"addTags":{"brand":"Cashman CAT","brand:wikidata":"Q109615492","name":"Cashman CAT","shop":"trade","trade":"construction_equipment"}},"shop/trade/wheelercat-753d55":{"name":"Wheeler CAT","locationSet":{"include":["us-nv","us-ut"]},"geometry":["point","area"],"matchScore":2,"terms":["wheeler cat"],"tags":{"brand:wikidata":"Q109615516","shop":"trade"},"addTags":{"brand":"Wheeler CAT","brand:wikidata":"Q109615516","name":"Wheeler CAT","shop":"trade","trade":"construction_equipment"}},"amenity/clinic/dignityhealth-781184":{"name":"Dignity Health","locationSet":{"include":["us-az","us-ca","us-nv"]},"geometry":["point","area"],"matchScore":2,"terms":["dignity health"],"fields":["name","operator","{amenity/clinic}"],"reference":{"key":"amenity","value":"clinic"},"tags":{"amenity":"clinic","operator:wikidata":"Q5276334"},"addTags":{"amenity":"clinic","healthcare":"clinic","operator":"Dignity Health","operator:wikidata":"Q5276334"}},"amenity/hospital/dignityhealth-a0d953":{"name":"Dignity Health","locationSet":{"include":["us-az","us-ca","us-nv"]},"geometry":["area","point"],"matchScore":2,"terms":["dignity health"],"fields":["name","operator","{amenity/hospital}"],"reference":{"key":"amenity","value":"hospital"},"tags":{"amenity":"hospital","operator:wikidata":"Q5276334"},"addTags":{"amenity":"hospital","healthcare":"hospital","operator":"Dignity Health","operator:wikidata":"Q5276334"}},"amenity/police/nevadahighwaypatrol-9a7641":{"name":"Nevada Highway Patrol","locationSet":{"include":["us-nv"]},"geometry":["point","area"],"matchScore":2,"terms":["nevada highway patrol","nevada state police","nhp"],"tags":{"amenity":"police","operator:wikidata":"Q17107984"},"addTags":{"amenity":"police","operator":"Nevada Highway Patrol","operator:short":"NHP","operator:wikidata":"Q17107984"}},"amenity/prison/nevadadepartmentofcorrections-fe3af9":{"name":"NDOC","locationSet":{"include":["us-nv"]},"geometry":["area","point"],"matchScore":2,"terms":["ndoc","nevada department of corrections"],"fields":["name","operator","{amenity/prison}"],"tags":{"amenity":"prison","operator:wikidata":"Q7003410"},"addTags":{"amenity":"prison","operator":"Nevada Department of Corrections","operator:wikidata":"Q7003410"}},"amenity/school/clarkcountyschooldistrict-cb1413":{"name":"Clark County School District","locationSet":{"include":["us-nv"]},"geometry":["area","point"],"matchScore":2,"terms":["ccsd","clark county school district"],"tags":{"amenity":"school","operator:wikidata":"Q4261591"},"addTags":{"amenity":"school","operator":"Clark County School District","operator:short":"CCSD","operator:type":"public","operator:wikidata":"Q4261591"}},"leisure/nature_reserve/carsoncity-320125":{"name":"Carson City","locationSet":{"include":["us-nv"]},"geometry":["area","point"],"matchScore":2,"terms":["carson city","carson city parks and recreation"],"tags":{"leisure":"nature_reserve","operator:wikidata":"Q40881"},"addTags":{"leisure":"nature_reserve","operator":"Carson City","operator:type":"public","operator:wikidata":"Q40881"}},"leisure/nature_reserve/nevadastateparks-320125":{"name":"Nevada State Parks","locationSet":{"include":["us-nv"]},"geometry":["area","point"],"matchScore":2,"terms":["idaho state parks","nevada state parks"],"tags":{"leisure":"nature_reserve","operator:wikidata":"Q109292599"},"addTags":{"leisure":"nature_reserve","operator":"Nevada State Parks","operator:type":"public","operator:wikidata":"Q109292599"}},"leisure/park/carsoncity-130a83":{"name":"Carson City","locationSet":{"include":["us-nv"]},"geometry":["area","point"],"matchScore":2,"terms":["carson city","carson city parks and recreation"],"tags":{"leisure":"park","operator:wikidata":"Q40881"},"addTags":{"leisure":"park","operator":"Carson City","operator:type":"public","operator:wikidata":"Q40881"}},"leisure/park/nevadastateparks-130a83":{"name":"Nevada State Parks","locationSet":{"include":["us-nv"]},"geometry":["area","point"],"matchScore":2,"terms":["idaho state parks","nevada state parks"],"tags":{"leisure":"park","operator:wikidata":"Q109292599"},"addTags":{"leisure":"park","operator":"Nevada State Parks","operator:type":"public","operator:wikidata":"Q109292599"}},"man_made/pipeline/southwestgas-19dc0e":{"name":"Southwest Gas","locationSet":{"include":["us-az","us-ca","us-nv"]},"geometry":["line"],"matchScore":2,"terms":["southwest gas"],"tags":{"man_made":"pipeline","operator:wikidata":"Q7571280"},"addTags":{"man_made":"pipeline","operator":"Southwest Gas","operator:wikidata":"Q7571280","substance":"gas"}},"office/government/nevadadepartmentofmotorvehicles-331b92":{"name":"Nevada DMV","locationSet":{"include":["us-nv"]},"geometry":["point","area"],"matchScore":2,"terms":["dmv","nevada department of motor vehicles","nevada dmv"],"fields":["name","operator","{office/government}"],"tags":{"office":"government","operator:wikidata":"Q16920922"},"addTags":{"government":"transportation","office":"government","operator":"Nevada Department of Motor Vehicles","operator:short":"Nevada DMV","operator:wikidata":"Q16920922"}},"pipeline/substation/southwestgas-5b19b8":{"name":"Southwest Gas","locationSet":{"include":["us-az","us-ca","us-nv"]},"geometry":["area","point"],"matchScore":2,"terms":["southwest gas"],"tags":{"operator:wikidata":"Q7571280","pipeline":"substation"},"addTags":{"operator":"Southwest Gas","operator:wikidata":"Q7571280","pipeline":"substation","substance":"gas"}},"power/plant/ormatnevadainc-684f2b":{"name":"Ormat Nevada Inc","locationSet":{"include":["us-nv"]},"geometry":["area"],"matchScore":2,"terms":["ormat industries","ormat nevada inc","ormat technologies"],"tags":{"operator:wikidata":"Q1549511","power":"plant"},"addTags":{"operator":"Ormat Nevada Inc","operator:wikidata":"Q1549511","power":"plant"}},"shop/charity/goodwillofsouthernnevada-e2f593":{"name":"Goodwill of Southern Nevada","locationSet":{"include":["us-nv"]},"geometry":["point","area"],"matchScore":2,"terms":["goodwill","goodwill of south nevada","goodwill of southern nevada"],"tags":{"operator:wikidata":"Q54624109","shop":"charity"},"addTags":{"brand":"Goodwill","brand:wikidata":"Q5583655","name":"Goodwill","operator":"Goodwill of Southern Nevada","operator:wikidata":"Q54624109","shop":"charity"}},"shop/charity/goodwillsacramentovalleyandnorthernnevada-d1b13f":{"name":"Goodwill Sacramento Valley & Northern Nevada","locationSet":{"include":["us-ca","us-nv"]},"geometry":["point","area"],"matchScore":2,"terms":["goodwill","goodwill sacramento valley & northern nevada"],"tags":{"operator:wikidata":"Q114928572","shop":"charity"},"addTags":{"brand":"Goodwill","brand:wikidata":"Q5583655","name":"Goodwill","operator":"Goodwill Sacramento Valley & Northern Nevada","operator:wikidata":"Q114928572","shop":"charity"}}}