{"amenity/cafe/coffee_shop/calipress-482b3e":{"name":"Cali Press","locationSet":{"include":["au-nsw"]},"geometry":["point","area"],"matchScore":2,"terms":["cali press"],"reference":{"key":"cuisine","value":"coffee_shop"},"tags":{"amenity":"cafe","brand:wikidata":"Q110910956","cuisine":"coffee_shop"},"addTags":{"amenity":"cafe","brand":"Cali Press","brand:wikidata":"Q110910956","cuisine":"coffee_shop","name":"Cali Press","takeaway":"yes"}},"amenity/cafe/thegrumpybaker-482b3e":{"name":"The Grumpy Baker","locationSet":{"include":["au-nsw"]},"geometry":["point","area"],"matchScore":2,"terms":["the grumpy baker"],"tags":{"amenity":"cafe","brand:wikidata":"Q117772090"},"addTags":{"amenity":"cafe","brand":"The Grumpy Baker","brand:wikidata":"Q117772090","cuisine":"bakery","name":"The Grumpy Baker","takeaway":"yes"}},"amenity/college/tafensw-e830c3":{"name":"TAFE NSW","locationSet":{"include":["au-nsw"]},"geometry":["area","point"],"matchScore":2,"terms":["tafe nsw"],"tags":{"amenity":"college","operator:wikidata":"Q7669247"},"addTags":{"amenity":"college","operator":"TAFE NSW","operator:type":"government","operator:wikidata":"Q7669247"}},"amenity/fire_station/fireandrescuensw-da435c":{"name":"Fire and Rescue NSW","locationSet":{"include":["au-nsw"]},"geometry":["point","area"],"matchScore":2,"terms":["fire and rescue new south wales","fire and rescue nsw"],"tags":{"amenity":"fire_station","operator:wikidata":"Q5451532"},"addTags":{"amenity":"fire_station","operator":"Fire and Rescue NSW","operator:wikidata":"Q5451532"}},"amenity/fire_station/nswruralfireservice-da435c":{"name":"NSW Rural Fire Service","locationSet":{"include":["au-nsw"]},"geometry":["point","area"],"matchScore":2,"terms":["new south wales rural fire service","nsw rural fire service"],"tags":{"amenity":"fire_station","operator:wikidata":"Q7011777"},"addTags":{"amenity":"fire_station","operator":"NSW Rural Fire Service","operator:wikidata":"Q7011777"}},"amenity/hospital/nswhealth-768201":{"name":"NSW Health","locationSet":{"include":["au-nsw"]},"geometry":["area","point"],"matchScore":2,"terms":["nsw health"],"fields":["name","operator","{amenity/hospital}"],"reference":{"key":"amenity","value":"hospital"},"tags":{"amenity":"hospital","operator:wikidata":"Q6867095"},"addTags":{"amenity":"hospital","healthcare":"hospital","operator":"NSW Health","operator:wikidata":"Q6867095"}},"amenity/police/nswpoliceforce-4d9f38":{"name":"NSW Police Force","locationSet":{"include":["au-nsw"]},"geometry":["point","area"],"matchScore":2,"terms":["new south wales police force","nsw police force"],"tags":{"amenity":"police","operator:wikidata":"Q7011763"},"addTags":{"amenity":"police","operator":"NSW Police Force","operator:wikidata":"Q7011763"}},"amenity/school/nswdepartmentofeducation-d7e2f4":{"name":"Department of Education (New South Wales)","locationSet":{"include":["au-nsw"]},"geometry":["area","point"],"matchScore":2,"terms":["department of education","nsw department of education"],"tags":{"amenity":"school","operator:wikidata":"Q5260271"},"addTags":{"amenity":"school","operator":"NSW Department of Education","operator:type":"public","operator:wikidata":"Q5260271"}},"amenity/ticket_validator/transportfornsw-832030":{"name":"Transport for NSW","locationSet":{"include":["au-nsw"]},"geometry":["point","vertex"],"matchScore":2,"terms":["transport for nsw"],"tags":{"amenity":"ticket_validator","operator:wikidata":"Q7834923"},"addTags":{"amenity":"ticket_validator","operator":"Transport for NSW","operator:wikidata":"Q7834923"}},"amenity/toilets/mosmancouncil-3fb4b7":{"name":"Mosman Council","locationSet":{"include":["au-nsw"]},"geometry":["point","vertex","area"],"matchScore":2,"terms":["mosman council"],"tags":{"amenity":"toilets","operator:wikidata":"Q56477569"},"addTags":{"amenity":"toilets","operator":"Mosman Council","operator:wikidata":"Q56477569"}},"boundary/nswnationalparksandwildlifeservice-1c4cc3":{"name":"NSW National Parks and Wildlife Service","locationSet":{"include":["au-nsw"]},"geometry":["line"],"matchScore":2,"terms":["national parks and wildlife service","npws","nsw national parks and wildlife service"],"tags":{"boundary":"national_park","operator:wikidata":"Q108872274"},"addTags":{"boundary":"national_park","operator":"NSW National Parks and Wildlife Service","operator:short":"NPWS","operator:wikidata":"Q108872274"}},"boundary/forestrycorporationofnsw-292b9d":{"name":"Forestry Corporation of NSW","locationSet":{"include":["au-nsw"]},"geometry":["line"],"matchScore":2,"terms":["forestry corporation of nsw"],"tags":{"boundary":"protected_area","operator:wikidata":"Q30267212"},"addTags":{"boundary":"protected_area","operator":"Forestry Corporation of NSW","operator:wikidata":"Q30267212"}},"boundary/nswnationalparksandwildlifeservice-292b9d":{"name":"NSW National Parks and Wildlife Service","locationSet":{"include":["au-nsw"]},"geometry":["line"],"matchScore":2,"terms":["npws","nsw national parks and wildlife service"],"tags":{"boundary":"protected_area","operator:wikidata":"Q108872274"},"addTags":{"boundary":"protected_area","operator":"NSW National Parks and Wildlife Service","operator:short":"NPWS","operator:wikidata":"Q108872274"}},"emergency/ambulance_station/nswambulance-2fb321":{"name":"NSW Ambulance","locationSet":{"include":["au-nsw"]},"geometry":["point","area"],"matchScore":2,"terms":["ambulance service of nsw","new south wales ambulance","nsw ambulance"],"tags":{"emergency":"ambulance_station","operator:wikidata":"Q4741948"},"addTags":{"emergency":"ambulance_station","operator":"NSW Ambulance","operator:wikidata":"Q4741948"}},"emergency/disaster_response/nswstateemergencyservice-5c3990":{"name":"NSW State Emergency Service","locationSet":{"include":["au-nsw"]},"geometry":["point","area"],"matchScore":2,"terms":["nsw state emergency service"],"tags":{"emergency":"disaster_response","operator:wikidata":"Q7011790"},"addTags":{"emergency":"disaster_response","operator":"NSW State Emergency Service","operator:wikidata":"Q7011790"}},"leisure/nature_reserve/camdencouncil-044fbe":{"name":"Camden Council","locationSet":{"include":["au-nsw"]},"geometry":["area","point"],"matchScore":2,"terms":["camden council"],"tags":{"leisure":"nature_reserve","operator:wikidata":"Q56477584"},"addTags":{"leisure":"nature_reserve","operator":"Camden Council","operator:wikidata":"Q56477584"}},"leisure/nature_reserve/campbelltowncitycouncil-044fbe":{"name":"Campbelltown City Council","locationSet":{"include":["au-nsw"]},"geometry":["area","point"],"matchScore":2,"terms":["campbelltown city council"],"tags":{"leisure":"nature_reserve","operator:wikidata":"Q56477592"},"addTags":{"leisure":"nature_reserve","operator":"Campbelltown City Council","operator:wikidata":"Q56477592"}},"leisure/nature_reserve/cityofsydney-044fbe":{"name":"City of Sydney","locationSet":{"include":["au-nsw"]},"geometry":["area","point"],"matchScore":2,"terms":["city of sydney"],"tags":{"leisure":"nature_reserve","operator:wikidata":"Q1094194"},"addTags":{"leisure":"nature_reserve","operator":"City of Sydney","operator:type":"government","operator:wikidata":"Q1094194"}},"leisure/nature_reserve/lanecovecouncil-044fbe":{"name":"Lane Cove Council","locationSet":{"include":["au-nsw"]},"geometry":["area","point"],"matchScore":2,"terms":["lane cove council"],"tags":{"leisure":"nature_reserve","operator:wikidata":"Q56477512"},"addTags":{"leisure":"nature_reserve","operator":"Lane Cove Council","operator:type":"government","operator:wikidata":"Q56477512"}},"leisure/nature_reserve/lismorecitycouncil-044fbe":{"name":"Lismore City Council","locationSet":{"include":["au-nsw"]},"geometry":["area","point"],"matchScore":2,"terms":["lismore city council"],"tags":{"leisure":"nature_reserve","operator:wikidata":"Q753599"},"addTags":{"leisure":"nature_reserve","operator":"Lismore City Council","operator:type":"government","operator:wikidata":"Q753599"}},"leisure/nature_reserve/northernbeachescouncil-044fbe":{"name":"Northern Beaches Council","locationSet":{"include":["au-nsw"]},"geometry":["area","point"],"matchScore":2,"terms":["northern beaches council"],"tags":{"leisure":"nature_reserve","operator:wikidata":"Q24050090"},"addTags":{"leisure":"nature_reserve","operator":"Northern Beaches Council","operator:type":"government","operator:wikidata":"Q24050090"}},"leisure/nature_reserve/willoughbycitycouncil-044fbe":{"name":"Willoughby City Council","locationSet":{"include":["au-nsw"]},"geometry":["area","point"],"matchScore":2,"terms":["willoughby city council"],"tags":{"leisure":"nature_reserve","operator:wikidata":"Q634933"},"addTags":{"leisure":"nature_reserve","operator":"Willoughby City Council","operator:type":"government","operator:wikidata":"Q634933"}},"leisure/nature_reserve/woollahramunicipalcouncil-044fbe":{"name":"Woollahra Municipal Council","locationSet":{"include":["au-nsw"]},"geometry":["area","point"],"matchScore":2,"terms":["woollahra municipal council"],"tags":{"leisure":"nature_reserve","operator:wikidata":"Q56477516"},"addTags":{"leisure":"nature_reserve","operator":"Woollahra Municipal Council","operator:wikidata":"Q56477516"}},"leisure/park/camdencouncil-11d7e5":{"name":"Camden Council","locationSet":{"include":["au-nsw"]},"geometry":["area","point"],"matchScore":2,"terms":["camden council"],"tags":{"leisure":"park","operator:wikidata":"Q56477584"},"addTags":{"leisure":"park","operator":"Camden Council","operator:wikidata":"Q56477584"}},"leisure/park/campbelltowncitycouncil-11d7e5":{"name":"Campbelltown City Council","locationSet":{"include":["au-nsw"]},"geometry":["area","point"],"matchScore":2,"terms":["campbelltown city council"],"tags":{"leisure":"park","operator:wikidata":"Q56477592"},"addTags":{"leisure":"park","operator":"Campbelltown City Council","operator:wikidata":"Q56477592"}},"leisure/park/cityofsydney-11d7e5":{"name":"City of Sydney","locationSet":{"include":["au-nsw"]},"geometry":["area","point"],"matchScore":2,"terms":["city of sydney"],"tags":{"leisure":"park","operator:wikidata":"Q1094194"},"addTags":{"leisure":"park","operator":"City of Sydney","operator:type":"government","operator:wikidata":"Q1094194"}},"leisure/park/lanecovecouncil-11d7e5":{"name":"Lane Cove Council","locationSet":{"include":["au-nsw"]},"geometry":["area","point"],"matchScore":2,"terms":["lane cove council"],"tags":{"leisure":"park","operator:wikidata":"Q56477512"},"addTags":{"leisure":"park","operator":"Lane Cove Council","operator:type":"government","operator:wikidata":"Q56477512"}},"leisure/park/lismorecitycouncil-11d7e5":{"name":"Lismore City Council","locationSet":{"include":["au-nsw"]},"geometry":["area","point"],"matchScore":2,"terms":["lismore city council"],"tags":{"leisure":"park","operator:wikidata":"Q753599"},"addTags":{"leisure":"park","operator":"Lismore City Council","operator:type":"government","operator:wikidata":"Q753599"}},"leisure/park/northernbeachescouncil-11d7e5":{"name":"Northern Beaches Council","locationSet":{"include":["au-nsw"]},"geometry":["area","point"],"matchScore":2,"terms":["northern beaches council"],"tags":{"leisure":"park","operator:wikidata":"Q24050090"},"addTags":{"leisure":"park","operator":"Northern Beaches Council","operator:type":"government","operator:wikidata":"Q24050090"}},"leisure/park/willoughbycitycouncil-11d7e5":{"name":"Willoughby City Council","locationSet":{"include":["au-nsw"]},"geometry":["area","point"],"matchScore":2,"terms":["willoughby city council"],"tags":{"leisure":"park","operator:wikidata":"Q634933"},"addTags":{"leisure":"park","operator":"Willoughby City Council","operator:type":"government","operator:wikidata":"Q634933"}},"leisure/park/woollahramunicipalcouncil-11d7e5":{"name":"Woollahra Municipal Council","locationSet":{"include":["au-nsw"]},"geometry":["area","point"],"matchScore":2,"terms":["woollahra municipal council"],"tags":{"leisure":"park","operator:wikidata":"Q56477516"},"addTags":{"leisure":"park","operator":"Woollahra Municipal Council","operator:wikidata":"Q56477516"}},"man_made/wastewater_plant/hunterwater-3a15ac":{"name":"Hunter Water","locationSet":{"include":["au-nsw"]},"geometry":["point","area"],"matchScore":2,"terms":["hunter water"],"tags":{"man_made":"wastewater_plant","operator:wikidata":"Q24185434"},"addTags":{"man_made":"wastewater_plant","operator":"Hunter Water","operator:wikidata":"Q24185434"}},"man_made/wastewater_plant/iconwater-98f006":{"name":"Icon Water","locationSet":{"include":["au-act","au-nsw"]},"geometry":["point","area"],"matchScore":2,"terms":["icon water"],"tags":{"man_made":"wastewater_plant","operator:wikidata":"Q288778"},"addTags":{"man_made":"wastewater_plant","operator":"Icon Water","operator:wikidata":"Q288778"}},"man_made/wastewater_plant/sydneywater-3a15ac":{"name":"Sydney Water","locationSet":{"include":["au-nsw"]},"geometry":["point","area"],"matchScore":2,"terms":["sydney water"],"tags":{"man_made":"wastewater_plant","operator:wikidata":"Q14476248"},"addTags":{"man_made":"wastewater_plant","operator":"Sydney Water","operator:wikidata":"Q14476248"}},"man_made/water_works/hunterwater-ba95cc":{"name":"Hunter Water","locationSet":{"include":["au-nsw"]},"geometry":["point","area"],"matchScore":2,"terms":["hunter water"],"tags":{"man_made":"water_works","operator:wikidata":"Q24185434"},"addTags":{"man_made":"water_works","operator":"Hunter Water","operator:wikidata":"Q24185434"}},"man_made/water_works/iconwater-42b9af":{"name":"Icon Water","locationSet":{"include":["au-act","au-nsw"]},"geometry":["point","area"],"matchScore":2,"terms":["icon water"],"tags":{"man_made":"water_works","operator:wikidata":"Q288778"},"addTags":{"man_made":"water_works","operator":"Icon Water","operator:wikidata":"Q288778"}},"man_made/water_works/sydneywater-ba95cc":{"name":"Sydney Water","locationSet":{"include":["au-nsw"]},"geometry":["point","area"],"matchScore":2,"terms":["sydney water"],"tags":{"man_made":"water_works","operator:wikidata":"Q14476248"},"addTags":{"man_made":"water_works","operator":"Sydney Water","operator:wikidata":"Q14476248"}},"power/line/ausgrid-67a43a":{"name":"Ausgrid","locationSet":{"include":["au-nsw"]},"geometry":["line"],"matchScore":2,"terms":["ausgrid"],"tags":{"operator:wikidata":"Q4822750","power":"line"},"addTags":{"operator":"Ausgrid","operator:wikidata":"Q4822750","power":"line"}},"power/line/essentialenergy-d64094":{"name":"Essential Energy","locationSet":{"include":["au-nsw","au-qld"]},"geometry":["line"],"matchScore":2,"terms":["essential energy"],"tags":{"operator:wikidata":"Q17003842","power":"line"},"addTags":{"operator":"Essential Energy","operator:wikidata":"Q17003842","power":"line"}},"power/line/transgrid-67a43a":{"name":"TransGrid","locationSet":{"include":["au-nsw"]},"geometry":["line"],"matchScore":2,"terms":["transgrid"],"tags":{"operator:wikidata":"Q7833620","power":"line"},"addTags":{"operator":"TransGrid","operator:wikidata":"Q7833620","power":"line"}},"power/line/transportfornsw-67a43a":{"name":"Transport for NSW","locationSet":{"include":["au-nsw"]},"geometry":["line"],"matchScore":2,"terms":["transport for nsw"],"tags":{"operator:wikidata":"Q7834923","power":"line"},"addTags":{"operator":"Transport for NSW","operator:wikidata":"Q7834923","power":"line"}},"power/minor_line/ausgrid-efee82":{"name":"Ausgrid","locationSet":{"include":["au-nsw"]},"geometry":["line"],"matchScore":2,"terms":["ausgrid"],"tags":{"operator:wikidata":"Q4822750","power":"minor_line"},"addTags":{"operator":"Ausgrid","operator:wikidata":"Q4822750","power":"minor_line"}},"power/minor_line/essentialenergy-ac7d4f":{"name":"Essential Energy","locationSet":{"include":["au-nsw","au-qld"]},"geometry":["line"],"matchScore":2,"terms":["essential energy"],"tags":{"operator:wikidata":"Q17003842","power":"minor_line"},"addTags":{"operator":"Essential Energy","operator:wikidata":"Q17003842","power":"minor_line"}},"power/minor_line/transgrid-efee82":{"name":"TransGrid","locationSet":{"include":["au-nsw"]},"geometry":["line"],"matchScore":2,"terms":["transgrid"],"tags":{"operator:wikidata":"Q7833620","power":"minor_line"},"addTags":{"operator":"TransGrid","operator:wikidata":"Q7833620","power":"minor_line"}},"power/minor_line/transportfornsw-efee82":{"name":"Transport for NSW","locationSet":{"include":["au-nsw"]},"geometry":["line"],"matchScore":2,"terms":["transport for nsw"],"tags":{"operator:wikidata":"Q7834923","power":"minor_line"},"addTags":{"operator":"Transport for NSW","operator:wikidata":"Q7834923","power":"minor_line"}},"power/plant/iconwater-1df8cd":{"name":"Icon Water","locationSet":{"include":["au-act","au-nsw"]},"geometry":["area"],"matchScore":2,"terms":["icon water"],"tags":{"operator:wikidata":"Q288778","power":"plant"},"addTags":{"operator":"Icon Water","operator:wikidata":"Q288778","power":"plant"}},"power/pole/ausgrid-e2ed89":{"name":"Ausgrid","locationSet":{"include":["au-nsw"]},"geometry":["point","vertex"],"matchScore":2,"terms":["ausgrid"],"tags":{"operator:wikidata":"Q4822750","power":"pole"},"addTags":{"operator":"Ausgrid","operator:wikidata":"Q4822750","power":"pole"}},"power/pole/essentialenergy-4411dc":{"name":"Essential Energy","locationSet":{"include":["au-nsw","au-qld"]},"geometry":["point","vertex"],"matchScore":2,"terms":["essential energy"],"tags":{"operator:wikidata":"Q17003842","power":"pole"},"addTags":{"operator":"Essential Energy","operator:wikidata":"Q17003842","power":"pole"}},"power/pole/transgrid-e2ed89":{"name":"TransGrid","locationSet":{"include":["au-nsw"]},"geometry":["point","vertex"],"matchScore":2,"terms":["transgrid"],"tags":{"operator:wikidata":"Q7833620","power":"pole"},"addTags":{"operator":"TransGrid","operator:wikidata":"Q7833620","power":"pole"}},"power/pole/transportfornsw-e2ed89":{"name":"Transport for NSW","locationSet":{"include":["au-nsw"]},"geometry":["point","vertex"],"matchScore":2,"terms":["transport for nsw"],"tags":{"operator:wikidata":"Q7834923","power":"pole"},"addTags":{"operator":"Transport for NSW","operator:wikidata":"Q7834923","power":"pole"}},"power/substation/ausgrid-1266b7":{"name":"Ausgrid","locationSet":{"include":["au-nsw"]},"geometry":["area","point"],"matchScore":2,"terms":["ausgrid"],"tags":{"operator:wikidata":"Q4822750","power":"substation"},"addTags":{"operator":"Ausgrid","operator:wikidata":"Q4822750","power":"substation"}},"power/substation/essentialenergy-b07c08":{"name":"Essential Energy","locationSet":{"include":["au-nsw","au-qld"]},"geometry":["area","point"],"matchScore":2,"terms":["essential energy"],"tags":{"operator:wikidata":"Q17003842","power":"substation"},"addTags":{"operator":"Essential Energy","operator:wikidata":"Q17003842","power":"substation"}},"power/substation/evoenergy-975e91":{"name":"Evoenergy","locationSet":{"include":["au-act","au-nsw"]},"geometry":["area","point"],"matchScore":2,"terms":["evoenergy"],"tags":{"operator:wikidata":"Q111081969","power":"substation"},"addTags":{"operator":"Evoenergy","operator:wikidata":"Q111081969","power":"substation"}},"power/substation/sydneytrains-1266b7":{"name":"Sydney Trains","locationSet":{"include":["au-nsw"]},"geometry":["area","point"],"matchScore":2,"terms":["sydney trains"],"tags":{"operator:wikidata":"Q7660181","power":"substation"},"addTags":{"operator":"Sydney Trains","operator:wikidata":"Q7660181","power":"substation"}},"power/substation/transgrid-1266b7":{"name":"TransGrid","locationSet":{"include":["au-nsw"]},"geometry":["area","point"],"matchScore":2,"terms":["transgrid"],"tags":{"operator:wikidata":"Q7833620","power":"substation"},"addTags":{"operator":"TransGrid","operator:wikidata":"Q7833620","power":"substation"}},"power/substation/transportfornsw-1266b7":{"name":"Transport for NSW","locationSet":{"include":["au-nsw"]},"geometry":["area","point"],"matchScore":2,"terms":["transport for nsw"],"tags":{"operator:wikidata":"Q7834923","power":"substation"},"addTags":{"operator":"Transport for NSW","operator:wikidata":"Q7834923","power":"substation"}},"power/tower/ausgrid-1b8b00":{"name":"Ausgrid","locationSet":{"include":["au-nsw"]},"geometry":["point","vertex"],"matchScore":2,"terms":["ausgrid"],"tags":{"operator:wikidata":"Q4822750","power":"tower"},"addTags":{"operator":"Ausgrid","operator:wikidata":"Q4822750","power":"tower"}},"power/tower/essentialenergy-af1cc5":{"name":"Essential Energy","locationSet":{"include":["au-nsw","au-qld"]},"geometry":["point","vertex"],"matchScore":2,"terms":["essential energy"],"tags":{"operator:wikidata":"Q17003842","power":"tower"},"addTags":{"operator":"Essential Energy","operator:wikidata":"Q17003842","power":"tower"}},"power/tower/transgrid-1b8b00":{"name":"TransGrid","locationSet":{"include":["au-nsw"]},"geometry":["point","vertex"],"matchScore":2,"terms":["transgrid"],"tags":{"operator:wikidata":"Q7833620","power":"tower"},"addTags":{"operator":"TransGrid","operator:wikidata":"Q7833620","power":"tower"}},"power/tower/transportfornsw-1b8b00":{"name":"Transport for NSW","locationSet":{"include":["au-nsw"]},"geometry":["point","vertex"],"matchScore":2,"terms":["transport for nsw"],"tags":{"operator:wikidata":"Q7834923","power":"tower"},"addTags":{"operator":"Transport for NSW","operator:wikidata":"Q7834923","power":"tower"}},"power/transformer/ausgrid-17e0e3":{"name":"Ausgrid","locationSet":{"include":["au-nsw"]},"geometry":["point","vertex"],"matchScore":2,"terms":["ausgrid"],"tags":{"operator:wikidata":"Q4822750","power":"transformer"},"addTags":{"operator":"Ausgrid","operator:wikidata":"Q4822750","power":"transformer"}},"power/transformer/essentialenergy-028f77":{"name":"Essential Energy","locationSet":{"include":["au-nsw","au-qld"]},"geometry":["point","vertex"],"matchScore":2,"terms":["essential energy"],"tags":{"operator:wikidata":"Q17003842","power":"transformer"},"addTags":{"operator":"Essential Energy","operator:wikidata":"Q17003842","power":"transformer"}},"power/transformer/evoenergy-222d1c":{"name":"Evoenergy","locationSet":{"include":["au-act","au-nsw"]},"geometry":["point","vertex"],"matchScore":2,"terms":["evoenergy"],"tags":{"operator:wikidata":"Q111081969","power":"transformer"},"addTags":{"operator":"Evoenergy","operator:wikidata":"Q111081969","power":"transformer"}},"power/transformer/sydneytrains-17e0e3":{"name":"Sydney Trains","locationSet":{"include":["au-nsw"]},"geometry":["point","vertex"],"matchScore":2,"terms":["sydney trains"],"tags":{"operator:wikidata":"Q7660181","power":"transformer"},"addTags":{"operator":"Sydney Trains","operator:wikidata":"Q7660181","power":"transformer"}},"power/transformer/transgrid-17e0e3":{"name":"TransGrid","locationSet":{"include":["au-nsw"]},"geometry":["point","vertex"],"matchScore":2,"terms":["transgrid"],"tags":{"operator:wikidata":"Q7833620","power":"transformer"},"addTags":{"operator":"TransGrid","operator:wikidata":"Q7833620","power":"transformer"}},"power/transformer/transportfornsw-17e0e3":{"name":"Transport for NSW","locationSet":{"include":["au-nsw"]},"geometry":["point","vertex"],"matchScore":2,"terms":["transport for nsw"],"tags":{"operator:wikidata":"Q7834923","power":"transformer"},"addTags":{"operator":"Transport for NSW","operator:wikidata":"Q7834923","power":"transformer"}},"public_transport/station_ferry/sydneyferries-e7a7dd":{"name":"Sydney Ferries","locationSet":{"include":["au-nsw"]},"geometry":["vertex","point","area"],"matchScore":2,"terms":["sydney ferries","transdev sydney ferries"],"reference":{"key":"amenity","value":"ferry_terminal"},"tags":{"ferry":"yes","network:wikidata":"Q3162795","public_transport":"station"},"addTags":{"amenity":"ferry_terminal","ferry":"yes","network":"Sydney Ferries","network:wikidata":"Q3162795","operator":"Transdev Sydney Ferries","operator:wikidata":"Q16927194","public_transport":"station"}},"public_transport/platform/bus_point/newcastletransport-6d8e1c":{"name":"Newcastle Transport","locationSet":{"include":["au-nsw"]},"geometry":["point","vertex"],"matchScore":2,"terms":["newcastle transport"],"reference":{"key":"public_transport","value":"platform"},"tags":{"bus":"yes","network:wikidata":"Q28128502","public_transport":"platform"},"addTags":{"bus":"yes","highway":"bus_stop","network":"Newcastle Transport","network:wikidata":"Q28128502","public_transport":"platform"}},"public_transport/platform/bus_point/transportbuses-6d8e1c":{"name":"Transport Buses","locationSet":{"include":["au-nsw"]},"geometry":["point","vertex"],"matchScore":2,"terms":["nsw","sydney busses","tfnsw","transport buses","transport for nsw"],"reference":{"key":"public_transport","value":"platform"},"tags":{"bus":"yes","network:wikidata":"Q5001345","public_transport":"platform"},"addTags":{"bus":"yes","highway":"bus_stop","network":"Transport Buses","network:wikidata":"Q5001345","public_transport":"platform"}},"public_transport/station_light_rail/sydneylightrail-2bbe8c":{"name":"Sydney Light Rail","locationSet":{"include":["au-nsw"]},"geometry":["point","vertex","area"],"matchScore":2,"terms":["nsw","sydney light rail","tfnsw","transport for nsw","transport light rail"],"reference":{"key":"station","value":"light_rail"},"tags":{"light_rail":"yes","network:wikidata":"Q771666","public_transport":"station"},"addTags":{"light_rail":"yes","network":"Sydney Light Rail","network:wikidata":"Q771666","public_transport":"station","railway":"station","station":"light_rail"}},"public_transport/station_subway/sydneymetro-21fc59":{"name":"Sydney Metro","locationSet":{"include":["au-nsw"]},"geometry":["point","vertex","area"],"matchScore":2,"terms":["metro trains sydney","sydney metro"],"reference":{"key":"station","value":"subway"},"tags":{"network:wikidata":"Q14774571","public_transport":"station","subway":"yes"},"addTags":{"network":"Sydney Metro","network:wikidata":"Q14774571","operator":"Metro Trains Sydney","operator:wikidata":"Q20861549","public_transport":"station","railway":"station","station":"subway","subway":"yes"}},"railway/station/nswtrainlink-e3afe8":{"name":"NSW TrainLink","locationSet":{"include":["au-act","au-nsw","au-qld","au-vic"]},"geometry":["point","vertex","area"],"matchScore":2,"terms":["new south wales trainlink","nsw trainlink","nsw trainslink","tfnsw","trainlink","transport for nsw trainlink"],"tags":{"network:wikidata":"Q6955406","railway":"station"},"addTags":{"network":"NSW TrainLink","network:wikidata":"Q6955406","public_transport":"station","railway":"station","train":"yes"}},"type/route/bus/newcastletransport-4ab973":{"name":"Newcastle Transport","locationSet":{"include":["au-nsw"]},"geometry":["relation"],"matchScore":2,"terms":["newcastle transport"],"reference":{"key":"route","value":"bus"},"tags":{"network:wikidata":"Q28128502","route":"bus","type":"route"},"addTags":{"network":"Newcastle Transport","network:wikidata":"Q28128502","route":"bus","type":"route"}},"type/route/bus/transportbuses-4ab973":{"name":"Transport Buses","locationSet":{"include":["au-nsw"]},"geometry":["relation"],"matchScore":2,"terms":["nsw","sydney busses","tfnsw","transport buses","transport for nsw"],"reference":{"key":"route","value":"bus"},"tags":{"network:wikidata":"Q5001345","route":"bus","type":"route"},"addTags":{"network":"Transport Buses","network:wikidata":"Q5001345","route":"bus","type":"route"}},"type/route/ferry/sydneyferries-613015":{"name":"Sydney Ferries","locationSet":{"include":["au-nsw"]},"geometry":["relation"],"matchScore":2,"terms":["sydney ferries","transdev sydney ferries"],"reference":{"key":"route","value":"ferry"},"tags":{"network:wikidata":"Q3162795","route":"ferry","type":"route"},"addTags":{"network":"Sydney Ferries","network:wikidata":"Q3162795","operator":"Transdev Sydney Ferries","operator:wikidata":"Q16927194","route":"ferry","type":"route"}},"route/ferry/sydneyferries-613015":{"name":"Sydney Ferries","locationSet":{"include":["au-nsw"]},"geometry":["line"],"matchScore":2,"terms":["sydney ferries","transdev sydney ferries"],"tags":{"network:wikidata":"Q3162795","route":"ferry"},"addTags":{"network":"Sydney Ferries","network:wikidata":"Q3162795","operator":"Transdev Sydney Ferries","operator:wikidata":"Q16927194","route":"ferry"}},"type/route/light_rail/sydneylightrail-fa5af0":{"name":"Sydney Light Rail","locationSet":{"include":["au-nsw"]},"geometry":["relation"],"matchScore":2,"terms":["nsw","sydney light rail","tfnsw","transport for nsw","transport light rail"],"reference":{"key":"route","value":"light_rail"},"tags":{"network:wikidata":"Q771666","route":"light_rail","type":"route"},"addTags":{"network":"Sydney Light Rail","network:wikidata":"Q771666","route":"light_rail","type":"route"}},"type/route/subway/sydneymetro-20be20":{"name":"Sydney Metro","locationSet":{"include":["au-nsw"]},"geometry":["relation"],"matchScore":2,"terms":["metro trains sydney","sydney metro"],"reference":{"key":"route","value":"subway"},"tags":{"network:wikidata":"Q14774571","route":"subway","type":"route"},"addTags":{"network":"Sydney Metro","network:wikidata":"Q14774571","operator":"Metro Trains Sydney","operator:wikidata":"Q20861549","route":"subway","type":"route"}},"type/route/train/nswtrainlink-b63b85":{"name":"NSW TrainLink","locationSet":{"include":["au-act","au-nsw","au-qld","au-vic"]},"geometry":["relation"],"matchScore":2,"terms":["new south wales trainlink","nsw trainlink","nsw trainslink","tfnsw","trainlink","transport for nsw trainlink"],"reference":{"key":"route","value":"train"},"tags":{"network:wikidata":"Q6955406","route":"train","type":"route"},"addTags":{"network":"NSW TrainLink","network:wikidata":"Q6955406","route":"train","type":"route"}}}