{"amenity/atm/bankofafrica-0517a4":{"name":"Bank of Africa","locationSet":{"include":["bf","bi","bj","cd","ci","dj","et","fr","gh","ke","mg","ml","ne","rw","sn","tg","tz","ug"]},"geometry":["point","vertex"],"matchScore":2,"terms":["bank of africa","boa"],"tags":{"amenity":"atm","brand:wikidata":"Q2882627"},"addTags":{"amenity":"atm","brand":"Bank of Africa","brand:wikidata":"Q2882627","name":"Bank of Africa","operator":"Bank of Africa","operator:wikidata":"Q2882627","short_name":"BOA"}},"amenity/atm/banqueatlantique-d61c57":{"name":"Banque Atlantique","locationSet":{"include":["bf","bj","ci","cm","ml","ne","sn","tg"]},"geometry":["point","vertex"],"matchScore":2,"terms":["banque atlantique"],"tags":{"amenity":"atm","brand:wikidata":"Q2882890"},"addTags":{"amenity":"atm","brand":"Banque Atlantique","brand:wikidata":"Q2882890","name":"Banque Atlantique","operator":"Banque Atlantique","operator:wikidata":"Q2882890"}},"amenity/bank/bankofafrica-0bcfcb":{"name":"Bank of Africa","locationSet":{"include":["bf","bi","bj","cd","ci","dj","et","fr","gh","ke","mg","ml","ne","rw","sn","tg","tz","ug"]},"geometry":["point","area"],"matchScore":2,"terms":["bank of africa","boa"],"tags":{"amenity":"bank","brand:wikidata":"Q2882627"},"addTags":{"amenity":"bank","brand":"Bank of Africa","brand:wikidata":"Q2882627","name":"Bank of Africa","short_name":"BOA"}},"amenity/bank/banqueatlantique-dc0023":{"name":"Banque Atlantique","locationSet":{"include":["bf","bj","ci","cm","ml","ne","sn","tg"]},"geometry":["point","area"],"matchScore":2,"terms":["banque atlantique"],"tags":{"amenity":"bank","brand:wikidata":"Q2882890"},"addTags":{"amenity":"bank","brand":"Banque Atlantique","brand:wikidata":"Q2882890","name":"Banque Atlantique"}},"shop/clothes/agnesb-600d6e":{"name":"Agnès B.","locationSet":{"include":["cn","de","fr","jp","ne","sg","tw","uk","us"]},"geometry":["point","area"],"matchScore":2,"terms":["agnès b."],"tags":{"brand:wikidata":"Q282967","shop":"clothes"},"addTags":{"brand":"Agnès B.","brand:wikidata":"Q282967","name":"Agnès B.","shop":"clothes"}}}