{"amenity/atm/greenstatecreditunion-897a9e":{"name":"GreenState Credit Union","locationSet":{"include":["us-ia","us-il"]},"geometry":["point","vertex"],"matchScore":2,"terms":["greenstate credit union"],"fields":["name","brand","{amenity/atm}"],"tags":{"amenity":"atm","brand:wikidata":"Q111381336"},"addTags":{"amenity":"atm","brand":"GreenState Credit Union","brand:wikidata":"Q111381336","operator":"GreenState Credit Union","operator:wikidata":"Q111381336"}},"amenity/bank/greenstatecreditunion-9a0c47":{"name":"GreenState Credit Union","locationSet":{"include":["us-ia","us-il"]},"geometry":["point","area"],"matchScore":2,"terms":["greenstate credit union"],"tags":{"amenity":"bank","brand:wikidata":"Q111381336"},"addTags":{"amenity":"bank","brand":"GreenState Credit Union","brand:wikidata":"Q111381336","name":"GreenState Credit Union"}},"amenity/fast_food/burger/teddysbiggerburgers-7b6848":{"name":"Teddy's Bigger Burgers","locationSet":{"include":["jp","ph","us-hi","us-ia"]},"geometry":["point","area"],"matchScore":2,"terms":["teddy's bigger burgers"],"reference":{"key":"cuisine","value":"burger"},"tags":{"amenity":"fast_food","brand:wikidata":"Q21188859","cuisine":"burger"},"addTags":{"amenity":"fast_food","brand":"Teddy's Bigger Burgers","brand:wikidata":"Q21188859","cuisine":"burger","name":"Teddy's Bigger Burgers","takeaway":"yes"}},"shop/trade/altorfercat-786476":{"name":"Altorfer CAT","locationSet":{"include":["us-ia","us-il","us-in","us-mo"]},"geometry":["point","area"],"matchScore":2,"terms":["altorfer cat"],"tags":{"brand:wikidata":"Q109616115","shop":"trade"},"addTags":{"brand":"Altorfer CAT","brand:wikidata":"Q109616115","name":"Altorfer CAT","shop":"trade","trade":"construction_equipment"}},"shop/trade/nmccat-346f4e":{"name":"NMC CAT","locationSet":{"include":["us-ia","us-ne"]},"geometry":["point","area"],"matchScore":2,"terms":["nmc cat"],"tags":{"brand:wikidata":"Q109619456","shop":"trade"},"addTags":{"brand":"NMC CAT","brand:wikidata":"Q109619456","name":"NMC CAT","shop":"trade","trade":"construction_equipment"}},"shop/trade/zieglercat-b606bc":{"name":"Ziegler CAT","locationSet":{"include":["us-ia","us-mn","us-mo","us-wi"]},"geometry":["point","area"],"matchScore":2,"terms":["ziegler cat"],"tags":{"brand:wikidata":"Q109619444","shop":"trade"},"addTags":{"brand":"Ziegler CAT","brand:wikidata":"Q109619444","name":"Ziegler CAT","shop":"trade","trade":"construction_equipment"}},"amenity/clinic/unitypointhealth-37d845":{"name":"UnityPoint Health","locationSet":{"include":["us-ia","us-il","us-wi"]},"geometry":["point","area"],"matchScore":2,"terms":["unitypoint health"],"fields":["name","operator","{amenity/clinic}"],"reference":{"key":"amenity","value":"clinic"},"tags":{"amenity":"clinic","operator:wikidata":"Q17078774"},"addTags":{"amenity":"clinic","healthcare":"clinic","operator":"UnityPoint Health","operator:wikidata":"Q17078774"}},"amenity/hospital/unitypointhealth-ac6cc4":{"name":"UnityPoint Health","locationSet":{"include":["us-ia","us-il","us-wi"]},"geometry":["area","point"],"matchScore":2,"terms":["unitypoint health"],"fields":["name","operator","{amenity/hospital}"],"reference":{"key":"amenity","value":"hospital"},"tags":{"amenity":"hospital","operator:wikidata":"Q17078774"},"addTags":{"amenity":"hospital","healthcare":"hospital","operator":"UnityPoint Health","operator:wikidata":"Q17078774"}},"amenity/police/iowastatepatrol-61c181":{"name":"Iowa State Patrol","locationSet":{"include":["us-ia"]},"geometry":["point","area"],"matchScore":2,"terms":["iowa state patrol","isp"],"tags":{"amenity":"police","operator:wikidata":"Q6064647"},"addTags":{"amenity":"police","operator":"Iowa State Patrol","operator:short":"ISP","operator:wikidata":"Q6064647"}},"amenity/school/cedarrapidscommunityschooldistrict-6e0541":{"name":"Cedar Rapids Community School District","locationSet":{"include":["us-ia"]},"geometry":["area","point"],"matchScore":2,"terms":["cedar rapids community school district","crcsd"],"tags":{"amenity":"school","operator:wikidata":"Q5056847"},"addTags":{"amenity":"school","operator":"Cedar Rapids Community School District","operator:short":"CRCSD","operator:type":"public","operator:wikidata":"Q5056847"}},"amenity/school/desmoinespublicschools-6e0541":{"name":"Des Moines Public Schools","locationSet":{"include":["us-ia"]},"geometry":["area","point"],"matchScore":2,"terms":["des moines public schools"],"tags":{"amenity":"school","operator:wikidata":"Q5263525"},"addTags":{"amenity":"school","operator":"Des Moines Public Schools","operator:type":"public","operator:wikidata":"Q5263525"}},"amenity/school/dubuquecommunityschools-6e0541":{"name":"Dubuque Community Schools","locationSet":{"include":["us-ia"]},"geometry":["area","point"],"matchScore":2,"terms":["dcsd","dubuque community school district","dubuque community schools"],"tags":{"amenity":"school","operator:wikidata":"Q5311170"},"addTags":{"amenity":"school","operator":"Dubuque Community Schools","operator:short":"DCSD","operator:type":"public","operator:wikidata":"Q5311170"}},"amenity/school/unioncommunityschooldistrict-6e0541":{"name":"Union Community School District","locationSet":{"include":["us-ia"]},"geometry":["area","point"],"matchScore":2,"terms":["union community school district"],"tags":{"amenity":"school","operator:wikidata":"Q85812021"},"addTags":{"amenity":"school","operator":"Union Community School District","operator:type":"public","operator:wikidata":"Q85812021"}},"leisure/nature_reserve/cityofbellevue-083489":{"name":"City of Bellevue (Iowa)","locationSet":{"include":["us-ia"]},"geometry":["area","point"],"matchScore":2,"terms":["city of bellevue"],"tags":{"leisure":"nature_reserve","operator:wikidata":"Q815958"},"addTags":{"leisure":"nature_reserve","operator":"City of Bellevue","operator:type":"public","operator:wikidata":"Q815958"}},"leisure/nature_reserve/hardincountyconservation-083489":{"name":"Hardin County Conservation","locationSet":{"include":["us-ia"]},"geometry":["area","point"],"matchScore":2,"terms":["hardin ccb","hardin county conservation"],"tags":{"leisure":"nature_reserve","operator:wikidata":"Q110064240"},"addTags":{"leisure":"nature_reserve","operator":"Hardin County Conservation","operator:type":"public","operator:wikidata":"Q110064240"}},"leisure/nature_reserve/iowadepartmentofnaturalresources-083489":{"name":"Iowa DNR","locationSet":{"include":["us-ia"]},"geometry":["area","point"],"matchScore":2,"terms":["iowa department of natural resources","iowa dnr"],"tags":{"leisure":"nature_reserve","operator:wikidata":"Q6064364"},"addTags":{"leisure":"nature_reserve","operator":"Iowa Department of Natural Resources","operator:short":"Iowa DNR","operator:type":"public","operator:wikidata":"Q6064364"}},"leisure/nature_reserve/jacksoncountyconservation-083489":{"name":"Jackson County Conservation","locationSet":{"include":["us-ia"]},"geometry":["area","point"],"matchScore":2,"terms":["jackson ccb","jackson county conservation"],"tags":{"leisure":"nature_reserve","operator:wikidata":"Q110064391"},"addTags":{"leisure":"nature_reserve","operator":"Jackson County Conservation","operator:type":"public","operator:wikidata":"Q110064391"}},"leisure/park/cityofbellevue-5303d3":{"name":"City of Bellevue (Iowa)","locationSet":{"include":["us-ia"]},"geometry":["area","point"],"matchScore":2,"terms":["city of bellevue"],"tags":{"leisure":"park","operator:wikidata":"Q815958"},"addTags":{"leisure":"park","operator":"City of Bellevue","operator:type":"public","operator:wikidata":"Q815958"}},"leisure/park/hardincountyconservation-5303d3":{"name":"Hardin County Conservation","locationSet":{"include":["us-ia"]},"geometry":["area","point"],"matchScore":2,"terms":["hardin ccb","hardin county conservation"],"tags":{"leisure":"park","operator:wikidata":"Q110064240"},"addTags":{"leisure":"park","operator":"Hardin County Conservation","operator:type":"public","operator:wikidata":"Q110064240"}},"leisure/park/iowadepartmentofnaturalresources-5303d3":{"name":"Iowa DNR","locationSet":{"include":["us-ia"]},"geometry":["area","point"],"matchScore":2,"terms":["iowa department of natural resources","iowa dnr"],"tags":{"leisure":"park","operator:wikidata":"Q6064364"},"addTags":{"leisure":"park","operator":"Iowa Department of Natural Resources","operator:short":"Iowa DNR","operator:type":"public","operator:wikidata":"Q6064364"}},"leisure/park/jacksoncountyconservation-5303d3":{"name":"Jackson County Conservation","locationSet":{"include":["us-ia"]},"geometry":["area","point"],"matchScore":2,"terms":["jackson ccb","jackson county conservation"],"tags":{"leisure":"park","operator:wikidata":"Q110064391"},"addTags":{"leisure":"park","operator":"Jackson County Conservation","operator:type":"public","operator:wikidata":"Q110064391"}},"office/government/iowadepartmentoftransportation-1af1d0":{"name":"Iowa DOT","locationSet":{"include":["us-ia"]},"geometry":["point","area"],"matchScore":2,"terms":["iowa department of transportation","iowa dot"],"fields":["name","operator","{office/government}"],"tags":{"office":"government","operator:wikidata":"Q4925621"},"addTags":{"government":"transportation","office":"government","operator":"Iowa Department of Transportation","operator:short":"Iowa DOT","operator:wikidata":"Q4925621"}},"shop/charity/goodwillofcentraliowa-110f24":{"name":"Goodwill of Central Iowa","locationSet":{"include":["us-ia"]},"geometry":["point","area"],"matchScore":2,"terms":["goodwill","goodwill of central iowa"],"tags":{"operator:wikidata":"Q109722336","shop":"charity"},"addTags":{"brand":"Goodwill","brand:wikidata":"Q5583655","name":"Goodwill","operator":"Goodwill of Central Iowa","operator:wikidata":"Q109722336","shop":"charity"}},"shop/charity/goodwillofthegreatplains-830112":{"name":"Goodwill of the Great Plains","locationSet":{"include":["us-ia","us-mn","us-ne","us-sd"]},"geometry":["point","area"],"matchScore":2,"terms":["goodwill","goodwill of the great plains"],"tags":{"operator:wikidata":"Q109722223","shop":"charity"},"addTags":{"brand":"Goodwill","brand:wikidata":"Q5583655","name":"Goodwill","operator":"Goodwill of the Great Plains","operator:wikidata":"Q109722223","shop":"charity"}},"public_transport/platform/bus_point/dart-eab26d":{"name":"DART (Des Moines Area Regional Transit)","locationSet":{"include":["us-ia"]},"geometry":["point","vertex"],"matchScore":2,"terms":["dart","des moines area regional transit authority"],"reference":{"key":"public_transport","value":"platform"},"tags":{"bus":"yes","network:wikidata":"Q5263499","public_transport":"platform"},"addTags":{"bus":"yes","highway":"bus_stop","network":"DART","network:wikidata":"Q5263499","operator":"Des Moines Area Regional Transit Authority","public_transport":"platform"}},"type/route/bus/dart-3c4d25":{"name":"DART (Des Moines Area Regional Transit)","locationSet":{"include":["us-ia"]},"geometry":["relation"],"matchScore":2,"terms":["dart","des moines area regional transit authority"],"reference":{"key":"route","value":"bus"},"tags":{"network:wikidata":"Q5263499","route":"bus","type":"route"},"addTags":{"network":"DART","network:wikidata":"Q5263499","operator":"Des Moines Area Regional Transit Authority","route":"bus","type":"route"}}}