{"amenity/atm/3bank-4fcc55":{"name":"3 Банка","locationSet":{"include":["rs"]},"geometry":["point","vertex"],"matchScore":2,"terms":["3 bank","3 банка"],"fields":["name","brand","{amenity/atm}"],"tags":{"amenity":"atm","brand:wikidata":"Q114345230"},"addTags":{"amenity":"atm","brand":"3 Банка","brand:wikidata":"Q114345230","name:en":"3 Bank","name:sr":"3 Банка","name:sr-Latn":"3 Banka","operator":"3 Банка","operator:wikidata":"Q114345230"}},"amenity/atm/addikobank-bd7eed":{"name":"Addiko Bank","locationSet":{"include":["ba","hr","me","rs","si"]},"geometry":["point","vertex"],"matchScore":2,"terms":["addiko bank"],"fields":["name","brand","{amenity/atm}"],"tags":{"amenity":"atm","brand:wikidata":"Q27926559"},"addTags":{"amenity":"atm","brand":"Addiko Bank","brand:wikidata":"Q27926559","operator":"Addiko Bank","operator:wikidata":"Q27926559"}},"amenity/atm/aikbank-4fcc55":{"name":"AIK banka","locationSet":{"include":["rs"]},"geometry":["point","vertex"],"matchScore":2,"terms":["aik bank","aik banka","аик банк","аик банка"],"fields":["name","brand","{amenity/atm}"],"tags":{"amenity":"atm","brand:wikidata":"Q293650"},"addTags":{"amenity":"atm","brand":"AIK banka","brand:wikidata":"Q293650","name:en":"AIK bank","name:sr":"АИК банка","name:sr-Latn":"AIK banka","operator":"AIK banka","operator:wikidata":"Q293650"}},"amenity/atm/bancaintesa-66eaa8":{"name":"Banca Intesa","locationSet":{"include":["it","rs"]},"geometry":["point","vertex"],"matchScore":2,"terms":["banca intesa"],"fields":["name","brand","{amenity/atm}"],"searchable":false,"tags":{"amenity":"atm","brand:wikidata":"Q647092"},"addTags":{"amenity":"atm","brand":"Banca Intesa","brand:wikidata":"Q647092","operator":"Banca Intesa","operator:wikidata":"Q647092"}},"amenity/atm/erstebank-1343ca":{"name":"Erste Bank","locationSet":{"include":["at","hr","hu","rs"]},"geometry":["point","vertex"],"matchScore":2,"terms":["erste bank"],"fields":["name","brand","{amenity/atm}"],"tags":{"amenity":"atm","brand:wikidata":"Q696867"},"addTags":{"amenity":"atm","brand":"Erste Bank","brand:wikidata":"Q696867","operator":"Erste Bank","operator:wikidata":"Q696867"}},"amenity/atm/eurobank-4fcc55":{"name":"Eurobank (Србија)","locationSet":{"include":["rs"]},"geometry":["point","vertex"],"matchScore":2,"terms":["eurobank"],"fields":["name","brand","{amenity/atm}"],"tags":{"amenity":"atm","brand:wikidata":"Q5411684"},"addTags":{"amenity":"atm","brand":"Eurobank","brand:wikidata":"Q5411684","operator":"Eurobank","operator:wikidata":"Q5411684"}},"amenity/atm/halkbank-4fcc55":{"name":"Halkbank (Serbia)","locationSet":{"include":["rs"]},"geometry":["point","vertex"],"matchScore":2,"terms":["halkbank","халк банка"],"fields":["name","brand","{amenity/atm}"],"tags":{"amenity":"atm","brand:wikidata":"Q3593818"},"addTags":{"amenity":"atm","brand":"Halkbank","brand:wikidata":"Q3593818","name:mk":"Халк Банка","operator":"Halkbank","operator:wikidata":"Q3593818"}},"amenity/atm/komercijalnabanka-afa18c":{"name":"Komercijalna banka","locationSet":{"include":["ba","me","rs"]},"geometry":["point","vertex"],"matchScore":2,"terms":["komercijalna banka"],"fields":["name","brand","{amenity/atm}"],"tags":{"amenity":"atm","brand:wikidata":"Q1536320"},"addTags":{"amenity":"atm","brand":"Komercijalna banka","brand:wikidata":"Q1536320","operator":"Komercijalna banka","operator:wikidata":"Q1536320"}},"amenity/atm/otpbank-8327a2":{"name":"OTP Bank","locationSet":{"include":["al","hr","md","ro","rs"]},"geometry":["point","vertex"],"matchScore":2,"terms":["otp","otp bank","otp banka","vojvođanska banka","војвођанска банка","отп банка"],"fields":["name","brand","{amenity/atm}"],"tags":{"amenity":"atm","brand:wikidata":"Q912778"},"addTags":{"amenity":"atm","brand":"OTP Bank","brand:wikidata":"Q912778","name:hr":"OTP banka","name:sr":"ОТП банка","operator":"OTP Bank","operator:wikidata":"Q912778","short_name":"OTP"}},"amenity/atm/raiffeisenbank-4fcc55":{"name":"Raiffeisen banka Srbije","locationSet":{"include":["rs"]},"geometry":["point","vertex"],"matchScore":2,"terms":["raiffeisen","raiffeisen bank"],"fields":["name","brand","{amenity/atm}"],"tags":{"amenity":"atm","brand:wikidata":"Q7283807"},"addTags":{"amenity":"atm","brand":"Raiffeisen bank","brand:wikidata":"Q7283807","operator":"Raiffeisen bank","operator:wikidata":"Q7283807"}},"amenity/atm/sparkassen-bd7eed":{"name":"Sparkassen","locationSet":{"include":["ba","hr","me","rs","si"]},"geometry":["point","vertex"],"matchScore":2,"terms":["sparkassen"],"fields":["name","brand","{amenity/atm}"],"tags":{"amenity":"atm","brand:wikidata":"Q1555572"},"addTags":{"amenity":"atm","brand":"Sparkassen","brand:wikidata":"Q1555572","operator":"Sparkassen","operator:wikidata":"Q1555572"}},"amenity/atm/unicreditbank-3ecec5":{"name":"UniCredit Bank","locationSet":{"include":["ba","cz","hu","it","ro","rs","ru","si","sk"]},"geometry":["point","vertex"],"matchScore":2,"terms":["unicredit","unicredit banca","unicredit bank","unicredit s.p.a."],"fields":["name","brand","{amenity/atm}"],"tags":{"amenity":"atm","brand:wikidata":"Q45568"},"addTags":{"amenity":"atm","brand":"UniCredit Bank","brand:wikidata":"Q45568","operator":"UniCredit Bank","operator:wikidata":"Q45568"}},"amenity/atm/postanskastedionica-4fcc55":{"name":"Поштанска штедионица","locationSet":{"include":["rs"]},"geometry":["point","vertex"],"matchScore":2,"terms":["postanska stedionica","поштанска штедионица"],"fields":["name","brand","{amenity/atm}"],"tags":{"amenity":"atm","brand:wikidata":"Q2882644"},"addTags":{"amenity":"atm","brand":"Поштанска штедионица","brand:wikidata":"Q2882644","name:en":"Postanska stedionica","name:sr":"Поштанска штедионица","name:sr-Latn":"Poštanska štedionica","operator":"Поштанска штедионица","operator:wikidata":"Q2882644"}},"amenity/atm/f02b23-4fcc55":{"name":"РБА банка","locationSet":{"include":["rs"]},"geometry":["point","vertex"],"matchScore":2,"terms":["crédit agricole","kredit agrikol","рба банка"],"fields":["name","brand","{amenity/atm}"],"tags":{"amenity":"atm","brand:wikidata":"Q5191472"},"addTags":{"amenity":"atm","brand":"РБА банка","brand:wikidata":"Q5191472","name:sr":"РБА банка","name:sr-Latn":"RBA banka","operator":"РБА банка","operator:wikidata":"Q5191472"}},"amenity/bank/3bank-e9ea45":{"name":"3 Банка","locationSet":{"include":["rs"]},"geometry":["point","area"],"matchScore":2,"terms":["3 bank","3 банка"],"tags":{"amenity":"bank","brand:wikidata":"Q114345230"},"addTags":{"amenity":"bank","brand":"3 Банка","brand:wikidata":"Q114345230","name":"3 Банка","name:en":"3 Bank","name:sr":"3 Банка","name:sr-Latn":"3 Banka"}},"amenity/bank/addikobank-975383":{"name":"Addiko Bank","locationSet":{"include":["ba","hr","me","rs","si"]},"geometry":["point","area"],"matchScore":2,"terms":["addiko bank"],"tags":{"amenity":"bank","brand:wikidata":"Q27926559"},"addTags":{"amenity":"bank","brand":"Addiko Bank","brand:wikidata":"Q27926559","name":"Addiko Bank"}},"amenity/bank/aikbanka-e9ea45":{"name":"AIK banka","locationSet":{"include":["rs"]},"geometry":["point","area"],"matchScore":2,"terms":["aik bank","aik banka","аик банк","аик банка"],"tags":{"amenity":"bank","brand:wikidata":"Q293650"},"addTags":{"amenity":"bank","brand":"AIK banka","brand:wikidata":"Q293650","name":"AIK banka","name:en":"AIK bank","name:sr":"АИК банка","name:sr-Latn":"AIK banka"}},"amenity/bank/bancaintesa-4a6838":{"name":"Banca Intesa","locationSet":{"include":["it","rs"]},"geometry":["point","area"],"matchScore":2,"terms":["banca intesa"],"searchable":false,"tags":{"amenity":"bank","brand:wikidata":"Q647092"},"addTags":{"amenity":"bank","brand":"Banca Intesa","brand:wikidata":"Q647092","name":"Banca Intesa"}},"amenity/bank/erstebank-d01b30":{"name":"Erste Bank","locationSet":{"include":["at","hr","hu","rs"]},"geometry":["point","area"],"matchScore":2,"terms":["erste bank"],"tags":{"amenity":"bank","brand:wikidata":"Q696867"},"addTags":{"amenity":"bank","brand":"Erste Bank","brand:wikidata":"Q696867","name":"Erste Bank"}},"amenity/bank/eurobank-e9ea45":{"name":"Eurobank (Србија)","locationSet":{"include":["rs"]},"geometry":["point","area"],"matchScore":2,"terms":["eurobank"],"tags":{"amenity":"bank","brand:wikidata":"Q5411684"},"addTags":{"amenity":"bank","brand":"Eurobank","brand:wikidata":"Q5411684","name":"Eurobank"}},"amenity/bank/halkbank-e9ea45":{"name":"Halkbank (Serbia)","locationSet":{"include":["rs"]},"geometry":["point","area"],"matchScore":2,"terms":["halkbank","халк банка"],"tags":{"amenity":"bank","brand:wikidata":"Q3593818"},"addTags":{"amenity":"bank","brand":"Halkbank","brand:wikidata":"Q3593818","name":"Halkbank","name:mk":"Халк Банка"}},"amenity/bank/komercijalnabanka-0c399e":{"name":"Komercijalna banka","locationSet":{"include":["ba","me","rs"]},"geometry":["point","area"],"matchScore":2,"terms":["komercijalna banka"],"tags":{"amenity":"bank","brand:wikidata":"Q1536320"},"addTags":{"amenity":"bank","brand":"Komercijalna banka","brand:wikidata":"Q1536320","name":"Komercijalna banka"}},"amenity/bank/otpbank-675816":{"name":"OTP Bank","locationSet":{"include":["al","hr","md","ro","rs"]},"geometry":["point","area"],"matchScore":2,"terms":["otp","otp bank","otp banka","vojvođanska banka","војвођанска банка","отп банка"],"tags":{"amenity":"bank","brand:wikidata":"Q912778"},"addTags":{"amenity":"bank","brand":"OTP Bank","brand:wikidata":"Q912778","name":"OTP Bank","name:hr":"OTP banka","name:sr":"ОТП банка","short_name":"OTP"}},"amenity/bank/raiffeisenbank-e9ea45":{"name":"Raiffeisen banka Srbije","locationSet":{"include":["rs"]},"geometry":["point","area"],"matchScore":2,"terms":["raiffeisen","raiffeisen bank"],"tags":{"amenity":"bank","brand:wikidata":"Q7283807"},"addTags":{"amenity":"bank","brand":"Raiffeisen bank","brand:wikidata":"Q7283807","name":"Raiffeisen bank"}},"amenity/bank/sparkassen-975383":{"name":"Sparkassen","locationSet":{"include":["ba","hr","me","rs","si"]},"geometry":["point","area"],"matchScore":2,"terms":["sparkassen"],"tags":{"amenity":"bank","brand:wikidata":"Q1555572"},"addTags":{"amenity":"bank","brand":"Sparkassen","brand:wikidata":"Q1555572","name":"Sparkassen"}},"amenity/bank/unicreditbank-ff6e1c":{"name":"UniCredit Bank","locationSet":{"include":["ba","cz","hu","it","ro","rs","ru","si","sk"]},"geometry":["point","area"],"matchScore":2,"terms":["unicredit","unicredit banca","unicredit bank","unicredit s.p.a."],"tags":{"amenity":"bank","brand:wikidata":"Q45568"},"addTags":{"amenity":"bank","brand":"UniCredit Bank","brand:wikidata":"Q45568","name":"UniCredit Bank"}},"amenity/bank/postanskastedionica-e9ea45":{"name":"Поштанска штедионица","locationSet":{"include":["rs"]},"geometry":["point","area"],"matchScore":2,"terms":["postanska stedionica","поштанска штедионица"],"tags":{"amenity":"bank","brand:wikidata":"Q2882644"},"addTags":{"amenity":"bank","brand":"Поштанска штедионица","brand:wikidata":"Q2882644","name":"Поштанска штедионица","name:en":"Postanska stedionica","name:sr":"Поштанска штедионица","name:sr-Latn":"Poštanska štedionica"}},"amenity/bank/f02b23-e9ea45":{"name":"РБА банка","locationSet":{"include":["rs"]},"geometry":["point","area"],"matchScore":2,"terms":["crédit agricole","kredit agrikol","рба банка"],"tags":{"amenity":"bank","brand:wikidata":"Q5191472"},"addTags":{"amenity":"bank","brand":"РБА банка","brand:wikidata":"Q5191472","name":"РБА банка","name:sr":"РБА банка","name:sr-Latn":"RBA banka"}},"amenity/charging_station/ionity-b625d6":{"name":"Ionity","locationSet":{"include":["by","bg","cz","hu","pl","md","ro","ru","sk","ua","ax","gg","je","cq","dk","ee","fo","fi","is","ie","im","lv","lt","no","sj","se","gb","al","ad","ba","hr","gi","gr","va","it","mt","me","mk","pt","sm","rs","si","es","xk","at","be","fr","de","li","lu","mc","nl","ch"]},"geometry":["point","area"],"matchScore":2,"terms":["ionity","ionity gmbh"],"fields":["name","brand","{amenity/charging_station}"],"tags":{"amenity":"charging_station","brand:wikidata":"Q42717773"},"addTags":{"amenity":"charging_station","brand":"Ionity","brand:wikidata":"Q42717773"}},"amenity/cinema/cineplexx-8f1bb5":{"name":"Cineplexx","locationSet":{"include":["al","at","ba","gr","hr","it","me","mk","ro","rs","si","xk"]},"geometry":["point","area"],"matchScore":2,"terms":["cineplexx"],"fields":["name","brand","{amenity/cinema}"],"tags":{"amenity":"cinema","brand:wikidata":"Q873340"},"addTags":{"amenity":"cinema","brand":"Cineplexx","brand:wikidata":"Q873340","name":"Cineplexx"}},"amenity/cinema/cinestar-a7029a":{"name":"CineStar","locationSet":{"include":["ba","cz","de","hr","it","rs"]},"geometry":["point","area"],"matchScore":2,"terms":["cinestar"],"fields":["name","brand","{amenity/cinema}"],"tags":{"amenity":"cinema","brand:wikidata":"Q321889"},"addTags":{"amenity":"cinema","brand":"CineStar","brand:wikidata":"Q321889","name":"CineStar"}},"amenity/college/saeinstitute-7a11fb":{"name":"SAE Institute","locationSet":{"include":["ae","at","au","be","ca","ch","de","es","fr","gb","gr","id","it","jo","mx","nl","nz","rs","us","za"]},"geometry":["area","point"],"matchScore":2,"terms":["sae institute"],"fields":["name","brand","{amenity/college}"],"tags":{"amenity":"college","brand:wikidata":"Q201438"},"addTags":{"amenity":"college","brand":"SAE Institute","brand:wikidata":"Q201438","name":"SAE Institute"}},"amenity/fuel/as24-3463db":{"name":"AS 24","locationSet":{"include":["at","be","bg","cz","de","dk","es","fr","gb","ge","gr","hr","hu","ie","it","lt","lu","mk","nl","pl","pt","ro","rs","se","si","sk","ua"]},"geometry":["point","area"],"matchScore":2,"terms":["as 24"],"fields":["name","brand","{amenity/fuel}"],"tags":{"amenity":"fuel","brand:wikidata":"Q2819394"},"addTags":{"amenity":"fuel","brand":"AS 24","brand:wikidata":"Q2819394","hgv":"only","name":"AS 24"}},"amenity/fuel/auchan-fcb99f":{"name":"Auchan","locationSet":{"include":["al","ad","ba","hr","gi","gr","va","it","mt","me","mk","pt","sm","rs","si","es","xk","by","bg","cz","hu","pl","md","ro","ru","sk","ua","at","be","fr","de","li","lu","mc","nl","ch"]},"geometry":["point","area"],"matchScore":2,"terms":["auchan"],"fields":["name","brand","{amenity/fuel}"],"tags":{"amenity":"fuel","brand:wikidata":"Q758603"},"addTags":{"amenity":"fuel","brand":"Auchan","brand:wikidata":"Q758603","name":"Auchan"}},"amenity/fuel/avia-e0aaf8":{"name":"Avia","locationSet":{"include":["at","be","bg","ch","cz","de","es","fr","hu","it","nl","pl","pt","rs","ua"]},"geometry":["point","area"],"matchScore":2,"terms":["avia","station avia"],"fields":["name","brand","{amenity/fuel}"],"tags":{"amenity":"fuel","brand:wikidata":"Q300147"},"addTags":{"amenity":"fuel","brand":"Avia","brand:wikidata":"Q300147","name":"Avia"}},"amenity/fuel/717c1c-a971aa":{"name":"НИС Петрол","locationSet":{"include":["rs"]},"geometry":["point","area"],"matchScore":2,"terms":["nis","nis petrol","нис","нис петрол"],"fields":["name","brand","{amenity/fuel}"],"tags":{"amenity":"fuel","brand:wikidata":"Q1279721"},"addTags":{"amenity":"fuel","brand":"НИС Петрол","brand:wikidata":"Q1279721","name":"НИС Петрол","name:sr":"НИС Петрол","name:sr-Latn":"NIS Petrol"}},"amenity/parcel_locker/zbox-5a86e9":{"name":"Packeta","locationSet":{"include":["by","bg","cz","hu","pl","md","ro","ru","sk","ua","ax","gg","je","cq","dk","ee","fo","fi","is","ie","im","lv","lt","no","sj","se","gb","al","ad","ba","hr","gi","gr","va","it","mt","me","mk","pt","sm","rs","si","es","xk","at","be","fr","de","li","lu","mc","nl","ch"]},"geometry":["point","vertex","area"],"matchScore":2,"terms":["packeta"],"fields":["name","brand","{amenity/parcel_locker}"],"reference":{"key":"amenity","value":"parcel_locker"},"tags":{"amenity":"parcel_locker","brand:wikidata":"Q67809905"},"addTags":{"amenity":"parcel_locker","brand":"Packeta","brand:wikidata":"Q67809905","name":"Z-Box"}},"amenity/pharmacy/benu-1cd44c":{"name":"Benu","locationSet":{"include":["ch","cz","ee","hu","lt","lv","me","nl","rs","sk"]},"geometry":["point","area"],"matchScore":2,"terms":["benu","benu apotheek","benu aptieka","benu vaistinė"],"reference":{"key":"amenity","value":"pharmacy"},"tags":{"amenity":"pharmacy","brand:wikidata":"Q62562792"},"addTags":{"amenity":"pharmacy","brand":"Benu","brand:wikidata":"Q62562792","healthcare":"pharmacy","name":"Benu"}},"amenity/pharmacy/drmax-d40f7b":{"name":"Dr. Max","locationSet":{"include":["cz","it","pl","ro","rs","sk"]},"geometry":["point","area"],"matchScore":2,"terms":["dr. max"],"reference":{"key":"amenity","value":"pharmacy"},"tags":{"amenity":"pharmacy","brand:wikidata":"Q56317371"},"addTags":{"amenity":"pharmacy","brand":"Dr. Max","brand:wikidata":"Q56317371","healthcare":"pharmacy","name":"Dr. Max"}},"amenity/school/maplebear-101006":{"name":"Maple Bear","locationSet":{"include":["ae","al","ar","au","bd","bg","br","ca","gt","hk","hr","in","ke","kr","lk","ma","mx","my","np","om","pe","ph","py","ro","rs","sg","th","tk","ua","us","vn"]},"geometry":["area","point"],"matchScore":2,"terms":["maple bear"],"fields":["name","brand","{amenity/school}"],"tags":{"amenity":"school","brand:wikidata":"Q10324823"},"addTags":{"amenity":"school","brand":"Maple Bear","brand:wikidata":"Q10324823","name":"Maple Bear","operator:type":"private"}},"amenity/vending_machine/bicycle_tube/continental-123edb":{"name":"Continental","locationSet":{"include":["by","bg","cz","hu","pl","md","ro","ru","sk","ua","ax","gg","je","cq","dk","ee","fo","fi","is","ie","im","lv","lt","no","sj","se","gb","al","ad","ba","hr","gi","gr","va","it","mt","me","mk","pt","sm","rs","si","es","xk","at","be","fr","de","li","lu","mc","nl","ch"]},"geometry":["point","vertex"],"matchScore":2,"terms":["continental"],"reference":{"key":"vending","value":"bicycle_tube"},"tags":{"amenity":"vending_machine","brand:wikidata":"Q64739247","vending":"bicycle_tube"},"addTags":{"amenity":"vending_machine","brand":"Continental","brand:wikidata":"Q64739247","name":"Continental","vending":"bicycle_tube"}},"amenity/vending_machine/bicycle_tube/schwalbe-123edb":{"name":"Schwalbe","locationSet":{"include":["by","bg","cz","hu","pl","md","ro","ru","sk","ua","ax","gg","je","cq","dk","ee","fo","fi","is","ie","im","lv","lt","no","sj","se","gb","al","ad","ba","hr","gi","gr","va","it","mt","me","mk","pt","sm","rs","si","es","xk","at","be","fr","de","li","lu","mc","nl","ch"]},"geometry":["point","vertex"],"matchScore":2,"terms":["schwalbe"],"reference":{"key":"vending","value":"bicycle_tube"},"tags":{"amenity":"vending_machine","brand:wikidata":"Q1312213","vending":"bicycle_tube"},"addTags":{"amenity":"vending_machine","brand":"Schwalbe","brand:wikidata":"Q1312213","name":"Schwalbe","vending":"bicycle_tube"}},"leisure/fitness_centre/holmesplace-901199":{"name":"Holmes Place","locationSet":{"include":["by","bg","cz","hu","pl","md","ro","ru","sk","ua","ax","gg","je","cq","dk","ee","fo","fi","is","ie","im","lv","lt","no","sj","se","gb","al","ad","ba","hr","gi","gr","va","it","mt","me","mk","pt","sm","rs","si","es","xk","at","be","fr","de","li","lu","mc","nl","ch","il"]},"geometry":["point","area"],"matchScore":2,"terms":["holmes place"],"tags":{"brand:wikidata":"Q15815819","leisure":"fitness_centre"},"addTags":{"brand":"Holmes Place","brand:wikidata":"Q15815819","leisure":"fitness_centre","name":"Holmes Place"}},"office/estate_agent/vonpollrealestate-c99072":{"name":"von Poll Real Estate","locationSet":{"include":["by","bg","cz","hu","pl","md","ro","ru","sk","ua","ax","gg","je","cq","dk","ee","fo","fi","is","ie","im","lv","lt","no","sj","se","gb","al","ad","ba","hr","gi","gr","va","it","mt","me","mk","pt","sm","rs","si","es","xk","at","be","fr","de","li","lu","mc","nl","ch"],"exclude":["at","de"]},"geometry":["point","area"],"matchScore":2,"terms":["von poll immobilien","von poll real estate","vonpoll","vonpoll commercial"],"tags":{"brand:wikidata":"Q96026696","office":"estate_agent"},"addTags":{"brand":"von Poll Real Estate","brand:wikidata":"Q96026696","name":"von Poll Real Estate","office":"estate_agent"}},"office/insurance/generali-cb13d1":{"name":"Generali","locationSet":{"include":["ar","at","bg","br","ch","cl","cn","cz","de","es","fr","gr","hr","hu","id","in","it","me","my","ph","pl","pt","ro","rs","si","sk","tr","vn"]},"geometry":["point","area"],"matchScore":2,"terms":["generali"],"fields":["name","brand","{office/insurance}"],"tags":{"brand:wikidata":"Q670482","office":"insurance"},"addTags":{"brand":"Generali","brand:wikidata":"Q670482","name":"Generali","office":"insurance"}},"office/insurance/uniqa-dc7360":{"name":"Uniqa","locationSet":{"include":["al","at","ba","bg","ch","cz","hr","hu","li","me","mk","pl","ro","rs","ru","sk","ua","xk"]},"geometry":["point","area"],"matchScore":2,"terms":["uniqa"],"fields":["name","brand","{office/insurance}"],"tags":{"brand:wikidata":"Q1022419","office":"insurance"},"addTags":{"brand":"Uniqa","brand:wikidata":"Q1022419","name":"Uniqa","office":"insurance"}},"shop/books/2b3ec0-000b97":{"name":"Вулкан","locationSet":{"include":["rs"]},"geometry":["point","area"],"matchScore":2,"terms":["knjižara vulkan","vulkan knjižara","вулкан","вулкан књижара","књижара вулкан"],"tags":{"brand:wikidata":"Q114735398","shop":"books"},"addTags":{"brand":"Вулкан","brand:wikidata":"Q114735398","name":"Вулкан","name:sr":"Вулкан","name:sr-Latn":"Vulkan","shop":"books"}},"shop/books/d753a4-000b97":{"name":"Делфи","locationSet":{"include":["rs"]},"geometry":["point","area"],"matchScore":2,"terms":["delfi knjižara","knjižara delfi","делфи","делфи књижара","књижара делфи"],"tags":{"brand:wikidata":"Q62081796","shop":"books"},"addTags":{"brand":"Делфи","brand:wikidata":"Q62081796","name":"Делфи","name:sr":"Делфи","name:sr-Latn":"Delfi","shop":"books"}},"shop/books/bbcfec-000b97":{"name":"Лагуна","locationSet":{"include":["rs"]},"geometry":["point","area"],"matchScore":2,"terms":["лагуна"],"tags":{"brand:wikidata":"Q12754418","shop":"books"},"addTags":{"brand":"Лагуна","brand:wikidata":"Q12754418","name":"Лагуна","name:sr":"Лагуна","name:sr-Latn":"Laguna","shop":"books"}},"shop/butcher/matijevic-c999d0":{"name":"Матијевић","locationSet":{"include":["rs"]},"geometry":["point","area"],"matchScore":2,"terms":["matijevic","mesara matijević","матијевић","месара матијевић"],"tags":{"brand:wikidata":"Q12752300","shop":"butcher"},"addTags":{"brand":"Матијевић","brand:wikidata":"Q12752300","name":"Матијевић","name:en":"Matijevic","name:sr":"Матијевић","name:sr-Latn":"Matijević","shop":"butcher"}},"shop/car/smart-f30ed8":{"name":"Smart","locationSet":{"include":["by","bg","cz","hu","pl","md","ro","ru","sk","ua","ax","gg","je","cq","dk","ee","fo","fi","is","ie","im","lv","lt","no","sj","se","gb","al","ad","ba","hr","gi","gr","va","it","mt","me","mk","pt","sm","rs","si","es","xk","at","be","fr","de","li","lu","mc","nl","ch"]},"geometry":["point","area"],"matchScore":2,"terms":["smart"],"fields":["name","brand","{shop/car}"],"tags":{"brand:wikidata":"Q156490","shop":"car"},"addTags":{"brand":"Smart","brand:wikidata":"Q156490","name":"Smart","shop":"car"}},"shop/chemist/dm-64e7ae":{"name":"dm","locationSet":{"include":["at","ba","bg","cz","de","hr","hu","it","mk","ro","rs","si","sk"]},"geometry":["point","area"],"matchScore":2,"terms":["dm","dm drogerie markt"],"tags":{"brand:wikidata":"Q266572","shop":"chemist"},"addTags":{"brand":"dm","brand:wikidata":"Q266572","name":"dm","shop":"chemist"}},"shop/chemist/lilly-2aefd6":{"name":"Lilly Drogerie (Србија)","locationSet":{"include":["rs"]},"geometry":["point","area"],"matchScore":2,"terms":["lilly","лили"],"tags":{"brand:wikidata":"Q111764460","shop":"chemist"},"addTags":{"brand":"Lilly","brand:wikidata":"Q111764460","name":"Lilly","name:sr":"Лили","shop":"chemist"}},"shop/clothes/coccodrillo-571709":{"name":"Coccodrillo","locationSet":{"include":["at","bg","by","cz","de","ee","fi","hu","lt","lv","me","pl","ro","rs","ru","sk","ua"]},"geometry":["point","area"],"matchScore":2,"terms":["coccodrillo"],"tags":{"brand:wikidata":"Q9195224","shop":"clothes"},"addTags":{"brand":"Coccodrillo","brand:wikidata":"Q9195224","clothes":"children","name":"Coccodrillo","shop":"clothes"}},"shop/clothes/cropp-613e37":{"name":"Cropp","locationSet":{"include":["ba","bg","cz","ee","fi","hr","hu","kz","lt","lv","ro","rs","ru","si","sk","ua"]},"geometry":["point","area"],"matchScore":2,"terms":["cropp"],"tags":{"brand:wikidata":"Q9196793","shop":"clothes"},"addTags":{"brand":"Cropp","brand:wikidata":"Q9196793","name":"Cropp","shop":"clothes"}},"shop/clothes/house-f09482":{"name":"House","locationSet":{"include":["ba","bg","cz","ee","fi","hr","hu","kz","lt","lv","pl","ro","rs","ru","si","sk","ua"]},"geometry":["point","area"],"matchScore":2,"terms":["house"],"tags":{"brand:wikidata":"Q9294202","shop":"clothes"},"addTags":{"brand":"House","brand:wikidata":"Q9294202","name":"House","shop":"clothes"}},"shop/clothes/maje-99ba8f":{"name":"Maje","locationSet":{"include":["by","bg","cz","hu","pl","md","ro","ru","sk","ua","ax","gg","je","cq","dk","ee","fo","fi","is","ie","im","lv","lt","no","sj","se","gb","al","ad","ba","hr","gi","gr","va","it","mt","me","mk","pt","sm","rs","si","es","xk","at","be","fr","de","li","lu","mc","nl","ch","cn","hk","sg","tw","uk","us"]},"geometry":["point","area"],"matchScore":2,"terms":["maje"],"tags":{"brand:wikidata":"Q3280458","shop":"clothes"},"addTags":{"brand":"Maje","brand:wikidata":"Q3280458","clothes":"women","name":"Maje","shop":"clothes"}},"shop/clothes/mohito-710e25":{"name":"Mohito","locationSet":{"include":["ba","bg","cz","ee","fi","hu","kz","lt","lv","pl","ro","rs","ru","si","sk","ua"]},"geometry":["point","area"],"matchScore":2,"terms":["mohito"],"tags":{"brand:wikidata":"Q107410616","shop":"clothes"},"addTags":{"brand":"Mohito","brand:wikidata":"Q107410616","clothes":"women","name":"Mohito","shop":"clothes"}},"shop/clothes/pepco-98e975":{"name":"Pepco","locationSet":{"include":["bg","cz","ee","hr","hu","it","lt","lv","pl","ro","rs","si","sk"]},"geometry":["point","area"],"matchScore":2,"terms":["pepco"],"tags":{"brand:wikidata":"Q11815580","shop":"clothes"},"addTags":{"brand":"Pepco","brand:wikidata":"Q11815580","name":"Pepco","shop":"clothes"}},"shop/clothes/takkofashion-972a80":{"name":"Takko Fashion","locationSet":{"include":["at","be","ch","cz","de","ee","fr","hr","hu","it","lt","nl","pl","ro","rs","si","sk"]},"geometry":["point","area"],"matchScore":2,"terms":["takko","takko fashion"],"tags":{"brand:wikidata":"Q1371302","shop":"clothes"},"addTags":{"brand":"Takko Fashion","brand:wikidata":"Q1371302","name":"Takko Fashion","shop":"clothes"}},"shop/convenience/avia-3fdfc9":{"name":"Avia","locationSet":{"include":["at","be","bg","ch","cz","de","es","fr","hu","it","nl","pl","pt","rs","ua"]},"geometry":["point","area"],"matchScore":2,"terms":["avia"],"tags":{"brand:wikidata":"Q300147","shop":"convenience"},"addTags":{"brand":"Avia","brand:wikidata":"Q300147","name":"Avia","shop":"convenience"}},"shop/convenience/idea-3015fb":{"name":"IDEA","locationSet":{"include":["rs"]},"geometry":["point","area"],"matchScore":2,"terms":["idea","идеа"],"tags":{"brand:wikidata":"Q23461622","shop":"convenience"},"addTags":{"brand":"IDEA","brand:en":"IDEA","brand:sr":"Идеа","brand:wikidata":"Q23461622","name":"IDEA","name:sr":"Идеа","name:sr-Latn":"Idea","shop":"convenience"}},"shop/convenience/ideaorganic-3015fb":{"name":"IDEA Organic","locationSet":{"include":["rs"]},"geometry":["point","area"],"matchScore":2,"terms":["idea organic","идеа органик"],"tags":{"brand:wikidata":"Q114670320","shop":"convenience"},"addTags":{"brand":"IDEA Organic","brand:en":"IDEA Organic","brand:sr":"Идеа органик","brand:wikidata":"Q114670320","name":"IDEA Organic","name:sr":"Идеа органик","name:sr-Latn":"Idea organik","organic":"only","shop":"convenience"}},"shop/convenience/konzum-442b6e":{"name":"Konzum (Balkans)","locationSet":{"include":["ba","hr","rs"]},"geometry":["point","area"],"matchScore":2,"terms":["konzum"],"tags":{"brand:wikidata":"Q518563","shop":"convenience"},"addTags":{"brand":"Konzum","brand:wikidata":"Q518563","name":"Konzum","shop":"convenience"}},"shop/convenience/mercator-eb6d99":{"name":"Mercator","locationSet":{"include":["ba","hr","me","mk","rs","si"]},"geometry":["point","area"],"matchScore":2,"terms":["mercator"],"tags":{"brand:wikidata":"Q738412","shop":"convenience"},"addTags":{"brand":"Mercator","brand:wikidata":"Q738412","name":"Mercator","shop":"convenience"}},"shop/convenience/viva-856fe1":{"name":"Viva","locationSet":{"include":["by","bg","cz","hu","pl","md","ro","ru","sk","ua","ax","gg","je","cq","dk","ee","fo","fi","is","ie","im","lv","lt","no","sj","se","gb","al","ad","ba","hr","gi","gr","va","it","mt","me","mk","pt","sm","rs","si","es","xk","at","be","fr","de","li","lu","mc","nl","ch"]},"geometry":["point","area"],"matchScore":2,"terms":["viva"],"tags":{"brand:wikidata":"Q168238","shop":"convenience"},"addTags":{"brand":"Viva","brand:wikidata":"Q168238","name":"Viva","shop":"convenience"}},"shop/furniture/bolia-a18722":{"name":"Bolia","locationSet":{"include":["by","bg","cz","hu","pl","md","ro","ru","sk","ua","ax","gg","je","cq","dk","ee","fo","fi","is","ie","im","lv","lt","no","sj","se","gb","al","ad","ba","hr","gi","gr","va","it","mt","me","mk","pt","sm","rs","si","es","xk","at","be","fr","de","li","lu","mc","nl","ch"]},"geometry":["point","area"],"matchScore":2,"terms":["bolia"],"tags":{"brand:wikidata":"Q11961809","shop":"furniture"},"addTags":{"brand":"Bolia","brand:wikidata":"Q11961809","name":"Bolia","shop":"furniture"}},"shop/furniture/momax-a18722":{"name":"Mömax","locationSet":{"include":["by","bg","cz","hu","pl","md","ro","ru","sk","ua","ax","gg","je","cq","dk","ee","fo","fi","is","ie","im","lv","lt","no","sj","se","gb","al","ad","ba","hr","gi","gr","va","it","mt","me","mk","pt","sm","rs","si","es","xk","at","be","fr","de","li","lu","mc","nl","ch"]},"geometry":["point","area"],"matchScore":2,"terms":["mömax"],"tags":{"brand:wikidata":"Q56388481","shop":"furniture"},"addTags":{"brand":"Mömax","brand:wikidata":"Q56388481","name":"Mömax","shop":"furniture"}},"shop/furniture/xxxlutz-5acc6e":{"name":"XXXLutz","locationSet":{"include":["by","bg","cz","hu","pl","md","ro","ru","sk","ua","ax","gg","je","cq","dk","ee","fo","fi","is","ie","im","lv","lt","no","sj","se","gb","al","ad","ba","hr","gi","gr","va","it","mt","me","mk","pt","sm","rs","si","es","xk","at","be","fr","de","li","lu","mc","nl","ch"],"exclude":["bg"]},"geometry":["point","area"],"matchScore":2,"terms":["xxxlutz"],"tags":{"brand:wikidata":"Q70339467","shop":"furniture"},"addTags":{"brand":"XXXLutz","brand:wikidata":"Q70339467","name":"XXXLutz","shop":"furniture"}},"shop/furniture/660dda-7d4b0a":{"name":"Форма идеале","locationSet":{"include":["rs"]},"geometry":["point","area"],"matchScore":2,"terms":["форма идеале"],"tags":{"brand:wikidata":"Q65079416","shop":"furniture"},"addTags":{"brand":"Форма идеале","brand:wikidata":"Q65079416","name":"Форма идеале","name:sr":"Форма идеале","name:sr-Latn":"Forma ideale","shop":"furniture"}},"shop/kiosk/mojkiosk-86ee53":{"name":"Moj Kiosk","locationSet":{"include":["rs"]},"geometry":["point","area"],"matchScore":2,"terms":["moj kiosk","мој киоск"],"tags":{"brand:wikidata":"Q65064541","shop":"kiosk"},"addTags":{"brand":"Мој киоск","brand:wikidata":"Q65064541","name":"Мој киоск","name:en":"Moj Kiosk","name:sr":"Мој киоск","name:sr-Latn":"Moj kiosk","shop":"kiosk"}},"shop/mobile_phone/a1-6945ea":{"name":"A1 (Srbija)","locationSet":{"include":["rs"]},"geometry":["point","area"],"matchScore":2,"terms":["a1 srbija","vip mobile","а1 србија","вип мобајл"],"tags":{"brand:wikidata":"Q826186","shop":"mobile_phone"},"addTags":{"brand":"A1 Srbija","brand:sr":"А1 Србија","brand:wikidata":"Q826186","name":"A1","shop":"mobile_phone"}},"shop/mobile_phone/a1centar-6945ea":{"name":"A1 centar","locationSet":{"include":["rs"]},"geometry":["point","area"],"matchScore":2,"terms":["a1 centar","а1 србија"],"tags":{"brand:wikidata":"Q826186","shop":"mobile_phone"},"addTags":{"brand":"A1 centar","brand:sr":"А1 Србија","brand:wikidata":"Q826186","name":"A1 centar","shop":"mobile_phone"}},"shop/mobile_phone/a1prodajnomesto-6945ea":{"name":"A1 prodajno mesto","locationSet":{"include":["rs"]},"geometry":["point","area"],"matchScore":2,"terms":["a1 prodajno mesto","а1 србија"],"tags":{"brand:wikidata":"Q826186","shop":"mobile_phone"},"addTags":{"brand":"A1 prodajno mesto","brand:sr":"А1 Србија","brand:wikidata":"Q826186","name":"A1 prodajno mesto","shop":"mobile_phone"}},"shop/shoes/officeshoes-30afef":{"name":"Office Shoes","locationSet":{"include":["al","ba","cz","hr","hu","me","pl","ro","rs","si","sk"]},"geometry":["point","area"],"matchScore":2,"terms":["office shoes"],"tags":{"brand:wikidata":"Q93946123","shop":"shoes"},"addTags":{"brand":"Office Shoes","brand:wikidata":"Q93946123","name":"Office Shoes","shop":"shoes"}},"shop/sports/planetasport-d20c83":{"name":"Planeta Sport","locationSet":{"include":["rs"]},"geometry":["point","area"],"matchScore":2,"terms":["planeta","planeta sport"],"tags":{"brand:wikidata":"Q72193528","shop":"sports"},"addTags":{"brand":"Planeta Sport","brand:en":"Planeta Sport","brand:rs":"Planeta Sport","brand:wikidata":"Q72193528","name":"Planeta Sport","shop":"sports"}},"shop/supermarket/auchan-925d9b":{"name":"Auchan","locationSet":{"include":["al","ad","ba","hr","gi","gr","va","it","mt","me","mk","pt","sm","rs","si","es","xk","by","bg","cz","hu","pl","md","ro","ru","sk","ua","at","be","fr","de","li","lu","mc","nl","ch","cn"],"exclude":["ru"]},"geometry":["point","area"],"matchScore":2,"terms":["auchan"],"tags":{"brand:wikidata":"Q758603","shop":"supermarket"},"addTags":{"brand":"Auchan","brand:wikidata":"Q758603","name":"Auchan","shop":"supermarket"}},"shop/supermarket/eurospar-4b5e11":{"name":"Eurospar","locationSet":{"include":["by","bg","cz","hu","pl","md","ro","ru","sk","ua","ax","gg","je","cq","dk","ee","fo","fi","is","ie","im","lv","lt","no","sj","se","gb","al","ad","ba","hr","gi","gr","va","it","mt","me","mk","pt","sm","rs","si","es","xk","at","be","fr","de","li","lu","mc","nl","ch"]},"geometry":["point","area"],"matchScore":2,"terms":["eurospar"],"tags":{"brand:wikidata":"Q12309283","shop":"supermarket"},"addTags":{"brand":"Eurospar","brand:wikidata":"Q12309283","name":"Eurospar","shop":"supermarket"}},"shop/supermarket/ideasuper-b83687":{"name":"IDEA Super","locationSet":{"include":["rs"]},"geometry":["point","area"],"matchScore":2,"terms":["idea","idea super","идеа супер"],"tags":{"brand:wikidata":"Q114669350","shop":"supermarket"},"addTags":{"brand":"IDEA Super","brand:wikidata":"Q114669350","name":"IDEA Super","name:sr":"Идеа супер","name:sr-Latn":"Idea super","shop":"supermarket"}},"shop/supermarket/konzum-0956c9":{"name":"Konzum (Balkans)","locationSet":{"include":["ba","hr","rs"]},"geometry":["point","area"],"matchScore":2,"terms":["konzum"],"tags":{"brand:wikidata":"Q518563","shop":"supermarket"},"addTags":{"brand":"Konzum","brand:wikidata":"Q518563","name":"Konzum","shop":"supermarket"}},"shop/supermarket/maxi-b83687":{"name":"Maxi","locationSet":{"include":["rs"]},"geometry":["point","area"],"matchScore":2,"terms":["maksi","maxi","макси"],"tags":{"brand:wikidata":"Q6795490","shop":"supermarket"},"addTags":{"brand":"Maxi","brand:en":"Maxi","brand:wikidata":"Q6795490","name":"Maxi","name:en":"Maxi","name:sr":"Макси","name:sr-Latn":"Maxi","shop":"supermarket"}},"shop/supermarket/mercator-05bb56":{"name":"Mercator","locationSet":{"include":["ba","hr","me","rs","si"]},"geometry":["point","area"],"matchScore":2,"terms":["mercator"],"tags":{"brand:wikidata":"Q738412","shop":"supermarket"},"addTags":{"brand":"Mercator","brand:wikidata":"Q738412","name":"Mercator","shop":"supermarket"}},"shop/supermarket/roda-b83687":{"name":"Roda","locationSet":{"include":["rs"]},"geometry":["point","area"],"matchScore":2,"terms":["roda","рода"],"tags":{"brand:wikidata":"Q21446192","shop":"supermarket"},"addTags":{"brand":"Roda","brand:en":"Roda","brand:sr":"Рода","brand:wikidata":"Q21446192","name":"Roda","name:en":"Roda","name:sr":"Рода","name:sr-Latn":"Roda","shop":"supermarket"}},"shop/supermarket/tempo-b83687":{"name":"Tempo","locationSet":{"include":["rs"]},"geometry":["point","area"],"matchScore":2,"terms":["tempo","темпо"],"tags":{"brand:wikidata":"Q7698875","shop":"supermarket"},"addTags":{"brand":"Tempo","brand:wikidata":"Q7698875","name":"Tempo","name:sr":"Темпо","name:sr-Latn":"Tempo","shop":"supermarket"}},"shop/supermarket/univerexport-b83687":{"name":"Univerexport","locationSet":{"include":["rs"]},"geometry":["point","area"],"matchScore":2,"terms":["univereksport","univerexport","универекспорт"],"tags":{"brand:wikidata":"Q12747294","shop":"supermarket"},"addTags":{"brand":"Univerexport","brand:wikidata":"Q12747294","name":"Univerexport","shop":"supermarket"}},"shop/supermarket/981fe7-b83687":{"name":"ДИС","locationSet":{"include":["rs"]},"geometry":["point","area"],"matchScore":2,"terms":["дис"],"tags":{"brand:wikidata":"Q115091348","shop":"supermarket"},"addTags":{"brand":"ДИС","brand:wikidata":"Q115091348","name":"ДИС","name:sr":"ДИС","name:sr-Latn":"DIS","shop":"supermarket"}},"shop/supermarket/lidl-b83687":{"name":"Лидл (Србија)","locationSet":{"include":["rs"]},"geometry":["point","area"],"matchScore":2,"terms":["lidl","лидл"],"tags":{"brand:wikidata":"Q114509929","shop":"supermarket"},"addTags":{"brand":"Lidl","brand:wikidata":"Q114509929","name":"Lidl","name:sr":"Лидл","name:sr-Latn":"Lidl","shop":"supermarket"}},"shop/telecommunication/yettel-ba40c7":{"name":"Yettel Serbia","locationSet":{"include":["rs"]},"geometry":["point","area"],"matchScore":2,"terms":["telenor","yettel","yettel (serbia)","теленор"],"tags":{"brand:wikidata":"Q1780171","shop":"telecommunication"},"addTags":{"brand":"Yettel","brand:wikidata":"Q1780171","name":"Yettel","shop":"telecommunication"}},"shop/toys/jumbo-f2bb45":{"name":"Jumbo","locationSet":{"include":["al","ba","cy","gr","md","me","mk","ro","rs","xk"]},"geometry":["point","area"],"matchScore":2,"terms":["jumbo"],"tags":{"brand:wikidata":"Q3562323","shop":"toys"},"addTags":{"brand":"Jumbo","brand:wikidata":"Q3562323","name":"Jumbo","shop":"toys"}},"tourism/hotel/bandbhotel-fc8c2c":{"name":"B&B Hotel","locationSet":{"include":["by","bg","cz","hu","pl","md","ro","ru","sk","ua","ax","gg","je","cq","dk","ee","fo","fi","is","ie","im","lv","lt","no","sj","se","gb","al","ad","ba","hr","gi","gr","va","it","mt","me","mk","pt","sm","rs","si","es","xk","at","be","fr","de","li","lu","mc","nl","ch","br"]},"geometry":["point","area"],"matchScore":2,"terms":["b&b hotels"],"fields":["name","brand","{tourism/hotel}"],"tags":{"brand:wikidata":"Q794939","tourism":"hotel"},"addTags":{"brand":"B&B Hotels","brand:wikidata":"Q794939","name":"B&B Hotel","tourism":"hotel"}},"tourism/hotel/motelone-046fe6":{"name":"Motel One","locationSet":{"include":["by","bg","cz","hu","pl","md","ro","ru","sk","ua","ax","gg","je","cq","dk","ee","fo","fi","is","ie","im","lv","lt","no","sj","se","gb","al","ad","ba","hr","gi","gr","va","it","mt","me","mk","pt","sm","rs","si","es","xk","at","be","fr","de","li","lu","mc","nl","ch"]},"geometry":["point","area"],"matchScore":2,"terms":["motel one"],"fields":["name","brand","{tourism/hotel}"],"tags":{"brand:wikidata":"Q391080","tourism":"hotel"},"addTags":{"brand":"Motel One","brand:wikidata":"Q391080","name":"Motel One","tourism":"hotel"}},"amenity/charging_station/eon-7f623e":{"name":"E.ON","locationSet":{"include":["by","bg","cz","hu","pl","md","ro","ru","sk","ua","ax","gg","je","cq","dk","ee","fo","fi","is","ie","im","lv","lt","no","sj","se","gb","al","ad","ba","hr","gi","gr","va","it","mt","me","mk","pt","sm","rs","si","es","xk","at","be","fr","de","li","lu","mc","nl","ch"]},"geometry":["point","area"],"matchScore":2,"terms":["e-on drive","e.on"],"fields":["name","operator","{amenity/charging_station}"],"tags":{"amenity":"charging_station","operator:wikidata":"Q270223"},"addTags":{"amenity":"charging_station","operator":"E.ON","operator:wikidata":"Q270223"}},"amenity/charging_station/evbox-7f623e":{"name":"EVBox","locationSet":{"include":["by","bg","cz","hu","pl","md","ro","ru","sk","ua","ax","gg","je","cq","dk","ee","fo","fi","is","ie","im","lv","lt","no","sj","se","gb","al","ad","ba","hr","gi","gr","va","it","mt","me","mk","pt","sm","rs","si","es","xk","at","be","fr","de","li","lu","mc","nl","ch"]},"geometry":["point","area"],"matchScore":2,"terms":["evbox"],"fields":["name","operator","{amenity/charging_station}"],"tags":{"amenity":"charging_station","operator:wikidata":"Q28406392"},"addTags":{"amenity":"charging_station","operator":"EVBox","operator:wikidata":"Q28406392"}},"amenity/charging_station/qpark-7f623e":{"name":"Q-Park","locationSet":{"include":["by","bg","cz","hu","pl","md","ro","ru","sk","ua","ax","gg","je","cq","dk","ee","fo","fi","is","ie","im","lv","lt","no","sj","se","gb","al","ad","ba","hr","gi","gr","va","it","mt","me","mk","pt","sm","rs","si","es","xk","at","be","fr","de","li","lu","mc","nl","ch"]},"geometry":["point","area"],"matchScore":2,"terms":["q-park"],"fields":["name","operator","{amenity/charging_station}"],"tags":{"amenity":"charging_station","operator:wikidata":"Q1127798"},"addTags":{"amenity":"charging_station","operator":"Q-Park","operator:wikidata":"Q1127798"}},"amenity/post_box/848860-776b1b":{"name":"Пошта Србије","locationSet":{"include":["rs"]},"geometry":["point","vertex"],"matchScore":2,"terms":["пошта србије"],"tags":{"amenity":"post_box","operator:wikidata":"Q769311"},"addTags":{"amenity":"post_box","operator":"Пошта Србије","operator:wikidata":"Q769311"}},"amenity/post_office/848860-6e4d23":{"name":"Пошта Србије","locationSet":{"include":["rs"]},"geometry":["point","area"],"matchScore":2,"terms":["пошта србије"],"fields":["name","operator","{amenity/post_office}"],"tags":{"amenity":"post_office","operator:wikidata":"Q769311"},"addTags":{"amenity":"post_office","operator":"Пошта Србије","operator:wikidata":"Q769311"}},"power/generator/innogy-16c9d0":{"name":"Innogy","locationSet":{"include":["by","bg","cz","hu","pl","md","ro","ru","sk","ua","ax","gg","je","cq","dk","ee","fo","fi","is","ie","im","lv","lt","no","sj","se","gb","al","ad","ba","hr","gi","gr","va","it","mt","me","mk","pt","sm","rs","si","es","xk","at","be","fr","de","li","lu","mc","nl","ch"]},"geometry":["point","vertex","area"],"matchScore":2,"terms":["innogy"],"tags":{"operator:wikidata":"Q2124721","power":"generator"},"addTags":{"operator":"Innogy","operator:wikidata":"Q2124721","power":"generator"}},"power/generator/mkfintelwind-a37acc":{"name":"MK Fintel Wind","locationSet":{"include":["rs"]},"geometry":["point","vertex","area"],"matchScore":2,"terms":["mk fintel wind"],"tags":{"operator:wikidata":"Q28402825","power":"generator"},"addTags":{"operator":"MK Fintel Wind","operator:wikidata":"Q28402825","power":"generator"}},"power/generator/rwe-16c9d0":{"name":"RWE","locationSet":{"include":["by","bg","cz","hu","pl","md","ro","ru","sk","ua","ax","gg","je","cq","dk","ee","fo","fi","is","ie","im","lv","lt","no","sj","se","gb","al","ad","ba","hr","gi","gr","va","it","mt","me","mk","pt","sm","rs","si","es","xk","at","be","fr","de","li","lu","mc","nl","ch"]},"geometry":["point","vertex","area"],"matchScore":2,"terms":["rwe"],"tags":{"operator:wikidata":"Q138133","power":"generator"},"addTags":{"operator":"RWE","operator:wikidata":"Q138133","power":"generator"}},"power/generator/statkraft-16c9d0":{"name":"Statkraft","locationSet":{"include":["by","bg","cz","hu","pl","md","ro","ru","sk","ua","ax","gg","je","cq","dk","ee","fo","fi","is","ie","im","lv","lt","no","sj","se","gb","al","ad","ba","hr","gi","gr","va","it","mt","me","mk","pt","sm","rs","si","es","xk","at","be","fr","de","li","lu","mc","nl","ch"]},"geometry":["point","vertex","area"],"matchScore":2,"terms":["statkraft"],"tags":{"operator:wikidata":"Q1681145","power":"generator"},"addTags":{"operator":"Statkraft","operator:wikidata":"Q1681145","power":"generator"}},"power/generator/uniper-16c9d0":{"name":"Uniper","locationSet":{"include":["by","bg","cz","hu","pl","md","ro","ru","sk","ua","ax","gg","je","cq","dk","ee","fo","fi","is","ie","im","lv","lt","no","sj","se","gb","al","ad","ba","hr","gi","gr","va","it","mt","me","mk","pt","sm","rs","si","es","xk","at","be","fr","de","li","lu","mc","nl","ch"]},"geometry":["point","vertex","area"],"matchScore":2,"terms":["uniper"],"tags":{"operator:wikidata":"Q19839259","power":"generator"},"addTags":{"operator":"Uniper","operator:wikidata":"Q19839259","power":"generator"}},"power/generator/wpo-16c9d0":{"name":"WPO","locationSet":{"include":["by","bg","cz","hu","pl","md","ro","ru","sk","ua","ax","gg","je","cq","dk","ee","fo","fi","is","ie","im","lv","lt","no","sj","se","gb","al","ad","ba","hr","gi","gr","va","it","mt","me","mk","pt","sm","rs","si","es","xk","at","be","fr","de","li","lu","mc","nl","ch"]},"geometry":["point","vertex","area"],"matchScore":2,"terms":["wpo"],"tags":{"operator:wikidata":"Q64755627","power":"generator"},"addTags":{"operator":"WPO","operator:wikidata":"Q64755627","power":"generator"}},"power/plant/3ea478-b5970c":{"name":"Електропривреда Србије","locationSet":{"include":["rs"]},"geometry":["area"],"matchScore":2,"terms":["електропривреда србије"],"tags":{"operator:wikidata":"Q1327532","power":"plant"},"addTags":{"operator":"Електропривреда Србије","operator:wikidata":"Q1327532","power":"plant"}},"power/substation/ems-0be006":{"name":"EMS","locationSet":{"include":["rs"]},"geometry":["area","point"],"matchScore":2,"terms":["ems"],"tags":{"operator:wikidata":"Q18250047","power":"substation"},"addTags":{"operator":"EMS","operator:wikidata":"Q18250047","power":"substation"}},"power/substation/elektroprivredasrbije-0be006":{"name":"Електропривреда Србије","locationSet":{"include":["rs"]},"geometry":["area","point"],"matchScore":2,"terms":["elektroprivreda srbije","електропривреда србије"],"tags":{"operator:wikidata":"Q1327532","power":"substation"},"addTags":{"operator":"Електропривреда Србије","operator:en":"Elektroprivreda Srbije","operator:wikidata":"Q1327532","power":"substation"}},"power/transformer/ems-c7be96":{"name":"EMS","locationSet":{"include":["rs"]},"geometry":["point","vertex"],"matchScore":2,"terms":["ems"],"tags":{"operator:wikidata":"Q18250047","power":"transformer"},"addTags":{"operator":"EMS","operator:wikidata":"Q18250047","power":"transformer"}},"power/transformer/elektroprivredasrbije-c7be96":{"name":"Електропривреда Србије","locationSet":{"include":["rs"]},"geometry":["point","vertex"],"matchScore":2,"terms":["elektroprivreda srbije","електропривреда србије"],"tags":{"operator:wikidata":"Q1327532","power":"transformer"},"addTags":{"operator":"Електропривреда Србије","operator:en":"Elektroprivreda Srbije","operator:wikidata":"Q1327532","power":"transformer"}},"type/route/railway/b5cfb7-dc2a17":{"name":"Железнице Србије","locationSet":{"include":["rs"]},"geometry":["relation"],"matchScore":2,"terms":["железнице србије"],"reference":{"key":"route","value":"railway"},"tags":{"operator:wikidata":"Q83878","route":"railway","type":"route"},"addTags":{"operator":"Железнице Србије","operator:wikidata":"Q83878","route":"railway","type":"route"}},"telecom/exchange/interoute-58ec5d":{"name":"Interoute","locationSet":{"include":["by","bg","cz","hu","pl","md","ro","ru","sk","ua","ax","gg","je","cq","dk","ee","fo","fi","is","ie","im","lv","lt","no","sj","se","gb","al","ad","ba","hr","gi","gr","va","it","mt","me","mk","pt","sm","rs","si","es","xk","at","be","fr","de","li","lu","mc","nl","ch"]},"geometry":["point","area"],"matchScore":2,"terms":["interoute"],"fields":["name","operator","{telecom/exchange}"],"tags":{"operator:wikidata":"Q1668090","telecom":"exchange"},"addTags":{"operator":"Interoute","operator:wikidata":"Q1668090","telecom":"exchange"}},"type/route/train/eurocity-6b9d23":{"name":"EuroCity","locationSet":{"include":["by","bg","cz","hu","pl","md","ro","ru","sk","ua","ax","gg","je","cq","dk","ee","fo","fi","is","ie","im","lv","lt","no","sj","se","gb","al","ad","ba","hr","gi","gr","va","it","mt","me","mk","pt","sm","rs","si","es","xk","at","be","fr","de","li","lu","mc","nl","ch"]},"geometry":["relation"],"matchScore":2,"terms":["eurocity"],"reference":{"key":"route","value":"train"},"tags":{"network:wikidata":"Q753050","route":"train","type":"route"},"addTags":{"network":"EuroCity","network:wikidata":"Q753050","route":"train","type":"route"}},"type/route/train/euronight-6b9d23":{"name":"EuroNight","locationSet":{"include":["by","bg","cz","hu","pl","md","ro","ru","sk","ua","ax","gg","je","cq","dk","ee","fo","fi","is","ie","im","lv","lt","no","sj","se","gb","al","ad","ba","hr","gi","gr","va","it","mt","me","mk","pt","sm","rs","si","es","xk","at","be","fr","de","li","lu","mc","nl","ch"]},"geometry":["relation"],"matchScore":2,"terms":["euronight"],"reference":{"key":"route","value":"train"},"tags":{"network:wikidata":"Q257307","route":"train","type":"route"},"addTags":{"network":"EuroNight","network:wikidata":"Q257307","route":"train","type":"route"}}}