{"amenity/atm/baccredomatic-9c7dd6":{"name":"BAC Credomatic","locationSet":{"include":["cr","gt","hn","ni","pa","sv"]},"geometry":["point","vertex"],"matchScore":2,"terms":["bac","bac credomatic"],"tags":{"amenity":"atm","brand:wikidata":"Q5715556"},"addTags":{"amenity":"atm","brand":"BAC Credomatic","brand:wikidata":"Q5715556","name":"BAC Credomatic","operator":"BAC Credomatic","operator:wikidata":"Q5715556"}},"amenity/atm/bancoazteca-6e6832":{"name":"Banco Azteca","locationSet":{"include":["gt","hn","mx","pa","pe","sv"]},"geometry":["point","vertex"],"matchScore":2,"terms":["banco azteca"],"tags":{"amenity":"atm","brand:wikidata":"Q4854076"},"addTags":{"amenity":"atm","brand":"Banco Azteca","brand:wikidata":"Q4854076","name":"Banco Azteca","operator":"Banco Azteca","operator:wikidata":"Q4854076"}},"amenity/atm/bancodeoccidente-925355":{"name":"Banco de Occidente (Honduras)","locationSet":{"include":["hn"]},"geometry":["point","vertex"],"matchScore":2,"terms":["banco de occidente"],"tags":{"amenity":"atm","brand:wikidata":"Q5718117"},"addTags":{"amenity":"atm","brand":"Banco de Occidente","brand:wikidata":"Q5718117","name":"Banco de Occidente","operator":"Banco de Occidente","operator:wikidata":"Q5718117"}},"amenity/atm/banpais-925355":{"name":"Banpais","locationSet":{"include":["hn"]},"geometry":["point","vertex"],"matchScore":2,"terms":["banpais"],"tags":{"amenity":"atm","brand:wikidata":"Q99196579"},"addTags":{"amenity":"atm","brand":"Banpais","brand:wikidata":"Q99196579","name":"Banpais","operator":"Banpais","operator:wikidata":"Q99196579"}},"amenity/atm/banrural-33bba5":{"name":"Banrural","locationSet":{"include":["gt","hn"]},"geometry":["point","vertex"],"matchScore":2,"terms":["banrural"],"tags":{"amenity":"atm","brand:wikidata":"Q5719130"},"addTags":{"amenity":"atm","brand":"Banrural","brand:wikidata":"Q5719130","name":"Banrural","operator":"Banrural","operator:wikidata":"Q5719130"}},"amenity/atm/davivienda-ad7b0d":{"name":"Davivienda","locationSet":{"include":["co","cr","hn","pa","sv"]},"geometry":["point","vertex"],"matchScore":2,"terms":["banco davivienda","davivienda"],"tags":{"amenity":"atm","brand:wikidata":"Q5242054"},"addTags":{"amenity":"atm","brand":"Davivienda","brand:wikidata":"Q5242054","name":"Davivienda","operator":"Davivienda","operator:wikidata":"Q5242054"}},"amenity/atm/ficohsa-3c5276":{"name":"Ficohsa","locationSet":{"include":["es","gt","hn","ni","pa","us"]},"geometry":["point","vertex"],"matchScore":2,"terms":["banco ficohsa","ficohsa"],"tags":{"amenity":"atm","brand:wikidata":"Q5886178"},"addTags":{"amenity":"atm","brand":"Ficohsa","brand:wikidata":"Q5886178","name":"Ficohsa","operator":"Ficohsa","operator:wikidata":"Q5886178"}},"amenity/bank/baccredomatic-a7c666":{"name":"BAC Credomatic","locationSet":{"include":["cr","gt","hn","ni","pa","sv"]},"geometry":["point","area"],"matchScore":2,"terms":["bac","bac credomatic"],"tags":{"amenity":"bank","brand:wikidata":"Q5715556"},"addTags":{"amenity":"bank","brand":"BAC Credomatic","brand:wikidata":"Q5715556","name":"BAC Credomatic"}},"amenity/bank/bancoazteca-a695fe":{"name":"Banco Azteca","locationSet":{"include":["gt","hn","mx","pa","pe","sv"]},"geometry":["point","area"],"matchScore":2,"terms":["banco azteca"],"tags":{"amenity":"bank","brand:wikidata":"Q4854076"},"addTags":{"amenity":"bank","brand":"Banco Azteca","brand:wikidata":"Q4854076","name":"Banco Azteca"}},"amenity/bank/bancodeoccidente-321983":{"name":"Banco de Occidente (Honduras)","locationSet":{"include":["hn"]},"geometry":["point","area"],"matchScore":2,"terms":["banco de occidente"],"tags":{"amenity":"bank","brand:wikidata":"Q5718117"},"addTags":{"amenity":"bank","brand":"Banco de Occidente","brand:wikidata":"Q5718117","name":"Banco de Occidente"}},"amenity/bank/banpais-321983":{"name":"Banpais","locationSet":{"include":["hn"]},"geometry":["point","area"],"matchScore":2,"terms":["banpais"],"tags":{"amenity":"bank","brand:wikidata":"Q99196579"},"addTags":{"amenity":"bank","brand":"Banpais","brand:wikidata":"Q99196579","name":"Banpais"}},"amenity/bank/banrural-e6a553":{"name":"Banrural","locationSet":{"include":["gt","hn"]},"geometry":["point","area"],"matchScore":2,"terms":["banrural"],"tags":{"amenity":"bank","brand:wikidata":"Q5719130"},"addTags":{"amenity":"bank","brand":"Banrural","brand:wikidata":"Q5719130","name":"Banrural"}},"amenity/bank/davivienda-0357a0":{"name":"Davivienda","locationSet":{"include":["co","cr","hn","pa","sv"]},"geometry":["point","area"],"matchScore":2,"terms":["banco davivienda","davivienda"],"tags":{"amenity":"bank","brand:wikidata":"Q5242054"},"addTags":{"amenity":"bank","brand":"Davivienda","brand:wikidata":"Q5242054","name":"Davivienda"}},"amenity/bank/ficohsa-47ab19":{"name":"Ficohsa","locationSet":{"include":["es","gt","hn","ni","pa","us"]},"geometry":["point","area"],"matchScore":2,"terms":["banco ficohsa","ficohsa"],"tags":{"amenity":"bank","brand:wikidata":"Q5886178"},"addTags":{"amenity":"bank","brand":"Ficohsa","brand:wikidata":"Q5886178","name":"Ficohsa"}},"amenity/fuel/uno-24faf9":{"name":"Uno","locationSet":{"include":["bz","cr","gt","hn","ni","sv"]},"geometry":["point","area"],"matchScore":2,"terms":["uno"],"fields":["name","brand","{amenity/fuel}"],"tags":{"amenity":"fuel","brand:wikidata":"Q62535574"},"addTags":{"amenity":"fuel","brand":"Uno","brand:wikidata":"Q62535574","name":"Uno"}},"amenity/pharmacy/puntofarma-30ead0":{"name":"Punto Farma (Honduras)","locationSet":{"include":["hn"]},"geometry":["point","area"],"matchScore":2,"terms":["punto farma"],"reference":{"key":"amenity","value":"pharmacy"},"tags":{"amenity":"pharmacy","brand:wikidata":"Q62595229"},"addTags":{"amenity":"pharmacy","brand":"Punto Farma","brand:wikidata":"Q62595229","healthcare":"pharmacy","name":"Punto Farma"}},"emergency/ambulance_station/cruzrojahondurena-e2b7fc":{"name":"Cruz Roja Hondure単a","locationSet":{"include":["hn"]},"geometry":["point","area"],"matchScore":2,"terms":["crh","cruz roja","cruz roja hondure単a"],"fields":["name","brand","{emergency/ambulance_station}"],"tags":{"brand:wikidata":"Q16553811","emergency":"ambulance_station"},"addTags":{"brand":"Cruz Roja Hondure単a","brand:wikidata":"Q16553811","emergency":"ambulance_station","name":"Cruz Roja Hondure単a"}},"shop/department_store/elektra-95a469":{"name":"Elektra","locationSet":{"include":["gt","hn","mx","pa","pe","sv"]},"geometry":["point","area"],"matchScore":2,"terms":["elektra"],"tags":{"brand:wikidata":"Q1142753","shop":"department_store"},"addTags":{"brand":"Elektra","brand:wikidata":"Q1142753","name":"Elektra","shop":"department_store"}},"shop/electronics/elektra-10d776":{"name":"Elektra","locationSet":{"include":["gt","hn","pa","pe","sv"]},"geometry":["point","area"],"matchScore":2,"terms":["elektra"],"tags":{"brand:wikidata":"Q1142753","shop":"electronics"},"addTags":{"brand":"Elektra","brand:wikidata":"Q1142753","name":"Elektra","shop":"electronics"}},"shop/hairdresser/marcoaldany-d15f75":{"name":"Marco Aldany","locationSet":{"include":["es","hn","in","ma","mx","pa","pe","pl"]},"geometry":["point","area"],"matchScore":2,"terms":["marco aldany"],"tags":{"brand:wikidata":"Q112095114","shop":"hairdresser"},"addTags":{"brand":"Marco Aldany","brand:wikidata":"Q112095114","name":"Marco Aldany","shop":"hairdresser"}},"shop/mobile_phone/claro-1c9651":{"name":"Claro","locationSet":{"include":["ar","br","cl","co","cr","do","ec","gt","hn","ni","pa","pe","pr","py","sv","uy"]},"geometry":["point","area"],"matchScore":2,"terms":["claro"],"tags":{"brand:wikidata":"Q1770208","shop":"mobile_phone"},"addTags":{"brand":"Claro","brand:wikidata":"Q1770208","name":"Claro","shop":"mobile_phone"}},"shop/paint/comex-d8e74b":{"name":"Comex","locationSet":{"include":["bz","cr","gt","hn","mx","ni","sv"]},"geometry":["point","area"],"matchScore":2,"terms":["comex"],"tags":{"brand:wikidata":"Q5151654","shop":"paint"},"addTags":{"brand":"Comex","brand:wikidata":"Q5151654","name":"Comex","shop":"paint"}},"shop/supermarket/despensafamiliar-4ef027":{"name":"Despensa Familiar","locationSet":{"include":["gt","hn","sv"]},"geometry":["point","area"],"matchScore":2,"terms":["despensa familiar"],"tags":{"brand:wikidata":"Q61994849","shop":"supermarket"},"addTags":{"brand":"Despensa Familiar","brand:wikidata":"Q61994849","name":"Despensa Familiar","shop":"supermarket"}},"tourism/hotel/laquintainn-a0e6b5":{"name":"La Quinta Inn","locationSet":{"include":["ca","cl","co","hn","mx","us"]},"geometry":["point","area"],"matchScore":2,"terms":["la quinta","la quinta inn","la quinta inn by wyndham"],"fields":["name","brand","{tourism/hotel}"],"tags":{"brand:wikidata":"Q6464734","tourism":"hotel"},"addTags":{"brand":"La Quinta Inn","brand:wikidata":"Q6464734","name":"La Quinta Inn","official_name":"La Quinta Inn by Wyndham","tourism":"hotel"}},"amenity/fire_station/cuerpodebomberosdehonduras-696c1a":{"name":"Cuerpo de Bomberos de Honduras","locationSet":{"include":["hn"]},"geometry":["point","area"],"matchScore":2,"terms":["cuerpo de bomberos de honduras","honduras fire department"],"tags":{"amenity":"fire_station","operator:wikidata":"Q20014331"},"addTags":{"amenity":"fire_station","operator":"Cuerpo de Bomberos de Honduras","operator:en":"Honduras Fire Department","operator:wikidata":"Q20014331"}},"amenity/telephone/claro-6490cd":{"name":"Claro","locationSet":{"include":["ai","ag","aw","bs","bb","bq","vg","ky","cu","cw","dm","do","gd","gp","ht","jm","mq","ms","pr","bl","kn","lc","mf","vc","sx","tt","tc","vi","bz","cr","sv","gt","hn","mx","ni","pa","ar","bo","bv","br","cl","co","ec","fk","gf","gy","py","pe","gs","sr","uy","ve"]},"geometry":["point","vertex"],"matchScore":2,"terms":["claro"],"fields":["name","operator","{amenity/telephone}"],"tags":{"amenity":"telephone","operator:wikidata":"Q1770208"},"addTags":{"amenity":"telephone","operator":"Claro","operator:wikidata":"Q1770208"}}}