{"advertising/totem/faststop-f242e9":{"name":"FAST STOP","locationSet":{"include":["us-ia","us-il","us-mi","us-mo","us-ne","us-wi"]},"geometry":["point","line"],"matchScore":2,"terms":["fast stop","fast stop (growmark)"],"tags":{"advertising":"totem","brand:wikidata":"Q116734101"},"addTags":{"advertising":"totem","brand":"FAST STOP","brand:wikidata":"Q116734101"}},"amenity/atm/pinnaclebank-495a05":{"name":"Pinnacle Bank (US Midwest & Southwest)","locationSet":{"include":["us-az","us-co","us-ks","us-mo","us-ne","us-nm","us-tx","us-wy"]},"geometry":["point","vertex"],"matchScore":2,"terms":["pinnacle bank"],"fields":["name","brand","{amenity/atm}"],"tags":{"amenity":"atm","brand:wikidata":"Q124021658"},"addTags":{"amenity":"atm","brand":"Pinnacle Bank","brand:wikidata":"Q124021658","operator":"Pinnacle Bank","operator:wikidata":"Q124021658"}},"amenity/atm/plattevalleybank-599017":{"name":"Platte Valley Bank","locationSet":{"include":["us-ne","us-wy"]},"geometry":["point","vertex"],"matchScore":2,"terms":["platte valley bank"],"fields":["name","brand","{amenity/atm}"],"tags":{"amenity":"atm","brand:wikidata":"Q113483051"},"addTags":{"amenity":"atm","brand":"Platte Valley Bank","brand:wikidata":"Q113483051","operator":"Platte Valley Bank","operator:wikidata":"Q113483051"}},"amenity/bank/pinnaclebank-ebf4c6":{"name":"Pinnacle Bank (US Midwest & Southwest)","locationSet":{"include":["us-az","us-co","us-ks","us-mo","us-ne","us-nm","us-tx","us-wy"]},"geometry":["point","area"],"matchScore":2,"terms":["pinnacle bank"],"tags":{"amenity":"bank","brand:wikidata":"Q124021658"},"addTags":{"amenity":"bank","brand":"Pinnacle Bank","brand:wikidata":"Q124021658","name":"Pinnacle Bank"}},"amenity/bank/plattevalleybank-a53937":{"name":"Platte Valley Bank","locationSet":{"include":["us-ne","us-wy"]},"geometry":["point","area"],"matchScore":2,"terms":["platte valley bank"],"tags":{"amenity":"bank","brand:wikidata":"Q113483051"},"addTags":{"amenity":"bank","brand":"Platte Valley Bank","brand:wikidata":"Q113483051","name":"Platte Valley Bank"}},"amenity/fuel/faststop-13feb8":{"name":"FAST STOP","locationSet":{"include":["us-ia","us-il","us-mi","us-mo","us-ne","us-wi"]},"geometry":["point","area"],"matchScore":2,"terms":["fast stop","fast stop (growmark)"],"fields":["name","brand","{amenity/fuel}"],"tags":{"amenity":"fuel","brand:wikidata":"Q116734101"},"addTags":{"amenity":"fuel","brand":"FAST STOP","brand:wikidata":"Q116734101","name":"FAST STOP"}},"amenity/restaurant/italian/valentinos-77ac66":{"name":"Valentino's","locationSet":{"include":["us-ne"]},"geometry":["point","area"],"matchScore":2,"terms":["valentino's","valentino's pizza"],"reference":{"key":"cuisine","value":"italian"},"tags":{"amenity":"restaurant","brand:wikidata":"Q7911049","cuisine":"italian"},"addTags":{"amenity":"restaurant","brand":"Valentino's","brand:wikidata":"Q7911049","cuisine":"italian","name":"Valentino's"}},"leisure/sports_centre/xgolf-8a88af":{"name":"X Golf","locationSet":{"include":["us-al","us-co","us-ga","us-il","us-in","us-ks","us-ma","us-me","us-mi","us-mn","us-mo","us-nd","us-ne","us-ny","us-oh","us-or","us-pa","us-ri","us-sc","us-sd","us-ut","us-va","us-wa","us-wi"]},"geometry":["point","area"],"matchScore":2,"terms":["x golf"],"fields":["name","brand","{leisure/sports_centre}"],"tags":{"brand:wikidata":"Q111585369","leisure":"sports_centre"},"addTags":{"brand":"X Golf","brand:wikidata":"Q111585369","indoor":"yes","leisure":"sports_centre","name":"X Golf","sport":"golf"}},"shop/gift/atticsalt-ae6503":{"name":"Attic Salt","locationSet":{"include":["us-az","us-ca","us-co","us-id","us-il","us-in","us-ks","us-la","us-mo","us-ne","us-nv","us-ok","us-or","us-tx","us-ut","us-wa"]},"geometry":["point","area"],"matchScore":2,"terms":["attic salt"],"tags":{"brand:wikidata":"Q108409773","shop":"gift"},"addTags":{"brand":"Attic Salt","brand:wikidata":"Q108409773","name":"Attic Salt","shop":"gift"}},"shop/trade/americanroofingsupply-930674":{"name":"American Roofing Supply","locationSet":{"include":["us-az","us-co","us-id","us-il","us-in","us-mn","us-nd","us-ne","us-sd","us-wi"]},"geometry":["point","area"],"matchScore":2,"terms":["american roofing supply"],"tags":{"brand:wikidata":"Q114515313","shop":"trade"},"addTags":{"brand":"American Roofing Supply","brand:wikidata":"Q114515313","name":"American Roofing Supply","shop":"trade","trade":"roofing"}},"shop/trade/butlercat-39aa46":{"name":"Butler CAT","locationSet":{"include":["us-nd","us-ne","us-sd"]},"geometry":["point","area"],"matchScore":2,"terms":["butler cat"],"tags":{"brand:wikidata":"Q109619534","shop":"trade"},"addTags":{"brand":"Butler CAT","brand:wikidata":"Q109619534","name":"Butler CAT","shop":"trade","trade":"construction_equipment"}},"shop/trade/nmccat-346f4e":{"name":"NMC CAT","locationSet":{"include":["us-ia","us-ne"]},"geometry":["point","area"],"matchScore":2,"terms":["nmc cat"],"tags":{"brand:wikidata":"Q109619456","shop":"trade"},"addTags":{"brand":"NMC CAT","brand:wikidata":"Q109619456","name":"NMC CAT","shop":"trade","trade":"construction_equipment"}},"amenity/police/nebraskastatepatrol-00b45e":{"name":"Nebraska State Patrol","locationSet":{"include":["us-ne"]},"geometry":["point","area"],"matchScore":2,"terms":["nebraska state patrol","nsp"],"tags":{"amenity":"police","operator:wikidata":"Q6984787"},"addTags":{"amenity":"police","operator":"Nebraska State Patrol","operator:short":"NSP","operator:wikidata":"Q6984787"}},"amenity/school/lincolnpublicschools-5b4c13":{"name":"Lincoln Public Schools","locationSet":{"include":["us-ne"]},"geometry":["area","point"],"matchScore":2,"terms":["lincoln public schools","lps"],"tags":{"amenity":"school","operator:wikidata":"Q6550972"},"addTags":{"amenity":"school","operator":"Lincoln Public Schools","operator:short":"LPS","operator:type":"public","operator:wikidata":"Q6550972"}},"boundary/nebraskagameandparkscommission-2f5d74":{"name":"Nebraska Game and Parks Commission","locationSet":{"include":["us-ne"]},"geometry":["line"],"matchScore":2,"terms":["nebraska game and parks commission","ngpc"],"tags":{"boundary":"national_park","operator:wikidata":"Q6984719"},"addTags":{"boundary":"national_park","operator":"Nebraska Game and Parks Commission","operator:short":"NGPC","operator:wikidata":"Q6984719"}},"boundary/nebraskagameandparkscommission-22c000":{"name":"Nebraska Game and Parks Commission","locationSet":{"include":["us-ne"]},"geometry":["line"],"matchScore":2,"terms":["nebraska game and parks commission"],"tags":{"boundary":"protected_area","operator:wikidata":"Q6984719"},"addTags":{"boundary":"protected_area","operator":"Nebraska Game and Parks Commission","operator:wikidata":"Q6984719"}},"leisure/nature_reserve/cityoflincoln-d7c809":{"name":"City of Lincoln (Nebraska)","locationSet":{"include":["us-ne"]},"geometry":["area","point"],"matchScore":2,"terms":["city of lincoln"],"tags":{"leisure":"nature_reserve","operator:wikidata":"Q28260"},"addTags":{"leisure":"nature_reserve","operator":"City of Lincoln","operator:type":"public","operator:wikidata":"Q28260"}},"leisure/nature_reserve/nebraskagameandparkscommission-d7c809":{"name":"Nebraska Game and Parks","locationSet":{"include":["us-ne"]},"geometry":["area","point"],"matchScore":2,"terms":["nebraska game and parks","nebraska game and parks commission","nebraska state parks","ngpc"],"tags":{"leisure":"nature_reserve","operator:wikidata":"Q6984719"},"addTags":{"leisure":"nature_reserve","operator":"Nebraska Game and Parks Commission","operator:short":"NGPC","operator:type":"public","operator:wikidata":"Q6984719"}},"leisure/park/cityoflincoln-01fc82":{"name":"City of Lincoln (Nebraska)","locationSet":{"include":["us-ne"]},"geometry":["area","point"],"matchScore":2,"terms":["city of lincoln"],"tags":{"leisure":"park","operator:wikidata":"Q28260"},"addTags":{"leisure":"park","operator":"City of Lincoln","operator:type":"public","operator:wikidata":"Q28260"}},"leisure/park/nebraskagameandparkscommission-01fc82":{"name":"Nebraska Game and Parks","locationSet":{"include":["us-ne"]},"geometry":["area","point"],"matchScore":2,"terms":["nebraska game and parks","nebraska game and parks commission","nebraska state parks","ngpc"],"tags":{"leisure":"park","operator:wikidata":"Q6984719"},"addTags":{"leisure":"park","operator":"Nebraska Game and Parks Commission","operator:short":"NGPC","operator:type":"public","operator:wikidata":"Q6984719"}},"shop/charity/goodwillindustriesofgreaternebraska-730912":{"name":"Goodwill Industries of Greater Nebraska","locationSet":{"include":["us-ne"]},"geometry":["point","area"],"matchScore":2,"terms":["goodwill","goodwill industries of greater nebraska"],"tags":{"operator:wikidata":"Q126850099","shop":"charity"},"addTags":{"brand":"Goodwill","brand:wikidata":"Q5583655","name":"Goodwill","operator":"Goodwill Industries of Greater Nebraska","operator:wikidata":"Q126850099","shop":"charity"}},"shop/charity/goodwillindustriesservingsoutheastnebraska-730912":{"name":"Goodwill Industries Serving Southeast Nebraska","locationSet":{"include":["us-ne"]},"geometry":["point","area"],"matchScore":2,"terms":["goodwill","goodwill industries serving southeast nebraska"],"tags":{"operator:wikidata":"Q126898116","shop":"charity"},"addTags":{"brand":"Goodwill","brand:wikidata":"Q5583655","name":"Goodwill","operator":"Goodwill Industries Serving Southeast Nebraska","operator:wikidata":"Q126898116","shop":"charity"}},"shop/charity/goodwillofthegreatplains-830112":{"name":"Goodwill of the Great Plains","locationSet":{"include":["us-ia","us-mn","us-ne","us-sd"]},"geometry":["point","area"],"matchScore":2,"terms":["goodwill","goodwill of the great plains"],"tags":{"operator:wikidata":"Q109722223","shop":"charity"},"addTags":{"brand":"Goodwill","brand:wikidata":"Q5583655","name":"Goodwill","operator":"Goodwill of the Great Plains","operator:wikidata":"Q109722223","shop":"charity"}},"shop/charity/goodwillservingeasternnebraskaandsouthwestiowa-9df4d0":{"name":"Goodwill Serving Eastern Nebraska and Southwest Iowa","locationSet":{"include":["us-ia","us-ne"]},"geometry":["point","area"],"matchScore":2,"terms":["goodwill","goodwill serving eastern nebraska and southwest iowa"],"tags":{"operator:wikidata":"Q126898806","shop":"charity"},"addTags":{"brand":"Goodwill","brand:wikidata":"Q5583655","name":"Goodwill","operator":"Goodwill Serving Eastern Nebraska and Southwest Iowa","operator:wikidata":"Q126898806","shop":"charity"}},"public_transport/platform/bus_point/metrotransit-b1a626":{"name":"Metro Transit (Omaha)","locationSet":{"include":["us-ne"]},"geometry":["point","vertex"],"matchScore":2,"terms":["metro transit","ometro"],"reference":{"key":"public_transport","value":"platform"},"tags":{"bus":"yes","network:wikidata":"Q6824485","public_transport":"platform"},"addTags":{"bus":"yes","highway":"bus_stop","network":"Metro Transit","network:wikidata":"Q6824485","operator":"Metro Transit","operator:wikidata":"Q6824485","public_transport":"platform"}},"public_transport/platform/bus_point/omaharapidbustransit-b1a626":{"name":"ORBT","locationSet":{"include":["us-ne"]},"geometry":["point","vertex"],"matchScore":2,"terms":["metro transit","omaha rapid bus transit","orbt"],"reference":{"key":"public_transport","value":"platform"},"tags":{"bus":"yes","network:wikidata":"Q54873971","public_transport":"platform"},"addTags":{"bus":"yes","highway":"bus_stop","network":"Omaha Rapid Bus Transit","network:short":"ORBT","network:wikidata":"Q54873971","operator":"Metro Transit","operator:wikidata":"Q6824485","public_transport":"platform"}},"public_transport/platform/bus_point/startran-b1a626":{"name":"StarTran","locationSet":{"include":["us-ne"]},"geometry":["point","vertex"],"matchScore":2,"terms":["startran"],"reference":{"key":"public_transport","value":"platform"},"tags":{"bus":"yes","network:wikidata":"Q7600574","public_transport":"platform"},"addTags":{"bus":"yes","highway":"bus_stop","network":"StarTran","network:wikidata":"Q7600574","public_transport":"platform"}},"type/route/bus/metrotransit-e69c8c":{"name":"Metro Transit (Omaha)","locationSet":{"include":["us-ne"]},"geometry":["relation"],"matchScore":2,"terms":["metro transit","ometro"],"reference":{"key":"route","value":"bus"},"tags":{"network:wikidata":"Q6824485","route":"bus","type":"route"},"addTags":{"network":"Metro Transit","network:wikidata":"Q6824485","operator":"Metro Transit","operator:wikidata":"Q6824485","route":"bus","type":"route"}},"type/route/bus/omaharapidbustransit-e69c8c":{"name":"ORBT","locationSet":{"include":["us-ne"]},"geometry":["relation"],"matchScore":2,"terms":["metro transit","omaha rapid bus transit","orbt"],"reference":{"key":"route","value":"bus"},"tags":{"network:wikidata":"Q54873971","route":"bus","type":"route"},"addTags":{"network":"Omaha Rapid Bus Transit","network:short":"ORBT","network:wikidata":"Q54873971","operator":"Metro Transit","operator:wikidata":"Q6824485","route":"bus","type":"route"}},"type/route/bus/startran-e69c8c":{"name":"StarTran","locationSet":{"include":["us-ne"]},"geometry":["relation"],"matchScore":2,"terms":["startran"],"reference":{"key":"route","value":"bus"},"tags":{"network:wikidata":"Q7600574","route":"bus","type":"route"},"addTags":{"network":"StarTran","network:wikidata":"Q7600574","route":"bus","type":"route"}}}