{"advertising/totem/gomart-746494":{"name":"GoMart","locationSet":{"include":["us-ky","us-oh","us-va","us-wv"]},"geometry":["point","line"],"matchScore":2,"terms":["gomart"],"tags":{"advertising":"totem","brand:wikidata":"Q5574575"},"addTags":{"advertising":"totem","brand":"GoMart","brand:wikidata":"Q5574575"}},"amenity/atm/aboundcreditunion-6603b3":{"name":"Abound Credit Union","locationSet":{"include":["us-ky"]},"geometry":["point","vertex"],"matchScore":2,"terms":["abound credit union"],"fields":["name","brand","{amenity/atm}"],"tags":{"amenity":"atm","brand:wikidata":"Q110677059"},"addTags":{"amenity":"atm","brand":"Abound Credit Union","brand:wikidata":"Q110677059","operator":"Abound Credit Union","operator:wikidata":"Q110677059"}},"amenity/atm/citynationalbank-12b850":{"name":"City National Bank (West Virginia)","locationSet":{"include":["us-ky","us-oh","us-va","us-wv"]},"geometry":["point","vertex"],"matchScore":2,"terms":["city national bank"],"fields":["name","brand","{amenity/atm}"],"tags":{"amenity":"atm","brand:wikidata":"Q90937436"},"addTags":{"amenity":"atm","brand":"City National Bank","brand:wikidata":"Q90937436","operator":"City National Bank","operator:wikidata":"Q90937436"}},"amenity/atm/firstfinancialbank-a035b2":{"name":"First Financial Bank","locationSet":{"include":["us-il","us-in","us-ky","us-tn"]},"geometry":["point","vertex"],"matchScore":2,"terms":["1st financial bank","first financial bank"],"fields":["name","brand","{amenity/atm}"],"tags":{"amenity":"atm","brand:wikidata":"Q5453009"},"addTags":{"amenity":"atm","brand":"First Financial Bank","brand:wikidata":"Q5453009","operator":"First Financial Bank","operator:wikidata":"Q5453009"}},"amenity/atm/heritagebank-07627b":{"name":"Heritage Bank (Kentucky)","locationSet":{"include":["us-ky","us-oh"]},"geometry":["point","vertex"],"matchScore":2,"terms":["heritage bank"],"fields":["name","brand","{amenity/atm}"],"tags":{"amenity":"atm","brand:wikidata":"Q73560500"},"addTags":{"amenity":"atm","brand":"Heritage Bank","brand:wikidata":"Q73560500","operator":"Heritage Bank","operator:wikidata":"Q73560500"}},"amenity/atm/republicbank-10254d":{"name":"Republic Bank (Kentucky)","locationSet":{"include":["us-fl","us-in","us-ky","us-oh","us-tn"]},"geometry":["point","vertex"],"matchScore":2,"terms":["republic bank","republic bank & trust company"],"fields":["name","brand","{amenity/atm}"],"tags":{"amenity":"atm","brand:wikidata":"Q7314387"},"addTags":{"amenity":"atm","brand":"Republic Bank","brand:wikidata":"Q7314387","official_name":"Republic Bank & Trust Company","operator":"Republic Bank","operator:wikidata":"Q7314387"}},"amenity/bank/aboundcreditunion-1458de":{"name":"Abound Credit Union","locationSet":{"include":["us-ky"]},"geometry":["point","area"],"matchScore":2,"terms":["abound credit union"],"tags":{"amenity":"bank","brand:wikidata":"Q110677059"},"addTags":{"amenity":"bank","brand":"Abound Credit Union","brand:wikidata":"Q110677059","name":"Abound Credit Union"}},"amenity/bank/citynationalbank-3abc7d":{"name":"City National Bank (West Virginia)","locationSet":{"include":["us-ky","us-oh","us-va","us-wv"]},"geometry":["point","area"],"matchScore":2,"terms":["city national bank"],"tags":{"amenity":"bank","brand:wikidata":"Q90937436"},"addTags":{"amenity":"bank","brand":"City National Bank","brand:wikidata":"Q90937436","name":"City National Bank"}},"amenity/bank/firstfinancialbank-c8207a":{"name":"First Financial Bank","locationSet":{"include":["us-il","us-in","us-ky","us-tn"]},"geometry":["point","area"],"matchScore":2,"terms":["1st financial bank","first financial bank"],"tags":{"amenity":"bank","brand:wikidata":"Q5453009"},"addTags":{"amenity":"bank","brand":"First Financial Bank","brand:wikidata":"Q5453009","name":"First Financial Bank"}},"amenity/bank/heritagebank-6787e9":{"name":"Heritage Bank (Kentucky)","locationSet":{"include":["us-ky","us-oh"]},"geometry":["point","area"],"matchScore":2,"terms":["heritage bank"],"tags":{"amenity":"bank","brand:wikidata":"Q73560500"},"addTags":{"amenity":"bank","brand":"Heritage Bank","brand:wikidata":"Q73560500","name":"Heritage Bank"}},"amenity/bank/republicbank-6552d3":{"name":"Republic Bank (Kentucky)","locationSet":{"include":["us-fl","us-in","us-ky","us-oh","us-tn"]},"geometry":["point","area"],"matchScore":2,"terms":["republic bank","republic bank & trust company"],"tags":{"amenity":"bank","brand:wikidata":"Q7314387"},"addTags":{"amenity":"bank","brand":"Republic Bank","brand:wikidata":"Q7314387","name":"Republic Bank","official_name":"Republic Bank & Trust Company"}},"amenity/dentist/dentalworks-f3d61f":{"name":"DentalWorks","locationSet":{"include":["us-az","us-co","us-il","us-in","us-ky","us-mi","us-nc","us-oh","us-pa","us-sc","us-tn","us-tx","us-wi"]},"geometry":["point","area"],"matchScore":2,"terms":["dentalworks"],"reference":{"key":"amenity","value":"dentist"},"tags":{"amenity":"dentist","brand:wikidata":"Q113712187"},"addTags":{"amenity":"dentist","brand":"DentalWorks","brand:wikidata":"Q113712187","healthcare":"dentist","name":"DentalWorks"}},"amenity/fast_food/donut/duckdonuts-6333a9":{"name":"Duck Donuts","locationSet":{"include":["ca-on","eg","sa","us-ar","us-az","us-ca","us-co","us-fl","us-ga","us-id","us-il","us-ks","us-ky","us-md","us-mi","us-mn","us-mo","us-nc","us-nj","us-ny","us-oh","us-pa","us-sc","us-tn","us-tx","us-ut","us-va"]},"geometry":["point","area"],"matchScore":2,"terms":["duck donuts","duck doughnuts"],"reference":{"key":"cuisine","value":"donut"},"tags":{"amenity":"fast_food","brand:wikidata":"Q54958282","cuisine":"donut"},"addTags":{"amenity":"fast_food","brand":"Duck Donuts","brand:wikidata":"Q54958282","cuisine":"donut","name":"Duck Donuts","takeaway":"yes"}},"amenity/fast_food/pokebros-eebea8":{"name":"Poke Bros.","locationSet":{"include":["us-de","us-fl","us-il","us-in","us-ky","us-nc","us-nj","us-ny","us-oh","us-pa","us-ri","us-sc","us-tn"]},"geometry":["point","area"],"matchScore":2,"terms":["poke bros."],"tags":{"amenity":"fast_food","brand:wikidata":"Q113640421"},"addTags":{"amenity":"fast_food","brand":"Poke Bros.","brand:wikidata":"Q113640421","cuisine":"poke","name":"Poke Bros.","takeaway":"yes"}},"amenity/fuel/gomart-8a82f2":{"name":"GoMart","locationSet":{"include":["us-ky","us-oh","us-va","us-wv"]},"geometry":["point","area"],"matchScore":2,"terms":["gomart"],"fields":["name","brand","{amenity/fuel}"],"tags":{"amenity":"fuel","brand:wikidata":"Q5574575"},"addTags":{"amenity":"fuel","brand":"GoMart","brand:wikidata":"Q5574575","name":"GoMart"}},"amenity/restaurant/seafood/joescrabshack-c6bbaa":{"name":"Joe's Crab Shack","locationSet":{"include":["us-az","us-ca","us-co","us-fl","us-ga","us-ky","us-la","us-mo","us-nc","us-nj","us-pa","us-sc","us-tn","us-tx","us-ut","us-va"]},"geometry":["point","area"],"matchScore":2,"terms":["joe's crab shack"],"reference":{"key":"cuisine","value":"seafood"},"tags":{"amenity":"restaurant","brand:wikidata":"Q6208210","cuisine":"seafood"},"addTags":{"amenity":"restaurant","brand":"Joe's Crab Shack","brand:wikidata":"Q6208210","cuisine":"seafood","name":"Joe's Crab Shack"}},"amenity/restaurant/maplestreetbiscuitcompany-d344e2":{"name":"Maple Street Biscuit Company","locationSet":{"include":["us-al","us-fl","us-ga","us-ky","us-nc","us-sc","us-tn","us-tx","us-va"]},"geometry":["point","area"],"matchScore":2,"terms":["maple street biscuit company"],"tags":{"amenity":"restaurant","brand:wikidata":"Q97104481"},"addTags":{"amenity":"restaurant","brand":"Maple Street Biscuit Company","brand:wikidata":"Q97104481","cuisine":"breakfast","name":"Maple Street Biscuit Company"}},"amenity/restaurant/indian/sankalp-512a76":{"name":"Sankalp","locationSet":{"include":["us-ca","us-il","us-ky","us-nj","us-oh","us-pa","us-tx"]},"geometry":["point","area"],"matchScore":2,"terms":["sankalp"],"reference":{"key":"cuisine","value":"indian"},"tags":{"amenity":"restaurant","brand:wikidata":"Q128664857","cuisine":"indian"},"addTags":{"amenity":"restaurant","brand":"Sankalp","brand:wikidata":"Q128664857","cuisine":"indian","name":"Sankalp"}},"shop/convenience/gomart-07a9fd":{"name":"GoMart","locationSet":{"include":["us-ky","us-oh","us-va","us-wv"]},"geometry":["point","area"],"matchScore":2,"terms":["gomart"],"tags":{"brand:wikidata":"Q5574575","shop":"convenience"},"addTags":{"brand":"GoMart","brand:wikidata":"Q5574575","name":"GoMart","shop":"convenience"}},"shop/hairdresser/imagestudios-0d42d5":{"name":"Image Studios","locationSet":{"include":["us-ca","us-co","us-fl","us-ga","us-ky","us-mo","us-nc","us-nj","us-nv","us-ny","us-oh","us-or","us-sc","us-tn","us-tx","us-ut"]},"geometry":["point","area"],"matchScore":2,"terms":["image studios"],"tags":{"brand:wikidata":"Q110998819","shop":"hairdresser"},"addTags":{"brand":"Image Studios","brand:wikidata":"Q110998819","name":"Image Studios","shop":"hairdresser"}},"shop/supermarket/unitedgroceryoutlet-aecdaf":{"name":"United Grocery Outlet","locationSet":{"include":["us-al","us-ga","us-ky","us-nc","us-tn","us-va"]},"geometry":["point","area"],"matchScore":2,"terms":["united grocery outlet"],"tags":{"brand:wikidata":"Q23074318","shop":"supermarket"},"addTags":{"brand":"United Grocery Outlet","brand:wikidata":"Q23074318","name":"United Grocery Outlet","shop":"supermarket"}},"shop/trade/boydcat-d88071":{"name":"Boyd CAT","locationSet":{"include":["us-ky","us-oh"]},"geometry":["point","area"],"matchScore":2,"terms":["boyd cat","walker machinery","whayne supply"],"tags":{"brand:wikidata":"Q115486292","shop":"trade"},"addTags":{"brand":"Boyd CAT","brand:wikidata":"Q115486292","name":"Boyd CAT","shop":"trade","trade":"construction_equipment"}},"shop/trade/ohiocat-d88071":{"name":"Ohio CAT","locationSet":{"include":["us-ky","us-oh"]},"geometry":["point","area"],"matchScore":2,"terms":["ohio cat"],"tags":{"brand:wikidata":"Q115486235","shop":"trade"},"addTags":{"brand":"Ohio CAT","brand:wikidata":"Q115486235","name":"Ohio CAT","shop":"trade","trade":"construction_equipment"}},"amenity/doctors/mercyhealth-4a018b":{"name":"Mercy Health","locationSet":{"include":["us-ky","us-oh"]},"geometry":["point","area"],"matchScore":2,"terms":["mercy health"],"fields":["name","operator","{amenity/doctors}"],"reference":{"key":"amenity","value":"doctors"},"tags":{"amenity":"doctors","operator:wikidata":"Q5053169"},"addTags":{"amenity":"doctors","healthcare":"doctor","operator":"Mercy Health","operator:wikidata":"Q5053169"}},"amenity/hospital/baptisthealth-0f0486":{"name":"Baptist Health (Indiana-Kentucky)","locationSet":{"include":["us-in","us-ky"]},"geometry":["area","point"],"matchScore":2,"terms":["baptist health"],"fields":["name","operator","{amenity/hospital}"],"reference":{"key":"amenity","value":"hospital"},"tags":{"amenity":"hospital","operator:wikidata":"Q110932481"},"addTags":{"amenity":"hospital","healthcare":"hospital","operator":"Baptist Health","operator:wikidata":"Q110932481"}},"amenity/hospital/mercyhealth-4cdbcf":{"name":"Mercy Health","locationSet":{"include":["us-ky","us-oh"]},"geometry":["area","point"],"matchScore":2,"terms":["mercy health"],"fields":["name","operator","{amenity/hospital}"],"reference":{"key":"amenity","value":"hospital"},"tags":{"amenity":"hospital","operator:wikidata":"Q5053169"},"addTags":{"amenity":"hospital","healthcare":"hospital","operator":"Mercy Health","operator:wikidata":"Q5053169"}},"amenity/prison/kentuckydepartmentofcorrections-1153aa":{"name":"Kentucky Department of Corrections","locationSet":{"include":["us-ky"]},"geometry":["area","point"],"matchScore":2,"terms":["kentucky department of corrections"],"fields":["name","operator","{amenity/prison}"],"tags":{"amenity":"prison","operator:wikidata":"Q6392223"},"addTags":{"amenity":"prison","operator":"Kentucky Department of Corrections","operator:wikidata":"Q6392223"}},"amenity/school/boonecountyschools-4e7bb3":{"name":"Boone County Schools","locationSet":{"include":["us-ky"]},"geometry":["area","point"],"matchScore":2,"terms":["boone county schools"],"tags":{"amenity":"school","operator:wikidata":"Q4943618"},"addTags":{"amenity":"school","operator":"Boone County Schools","operator:wikidata":"Q4943618"}},"amenity/school/dioceseofcovington-4e7bb3":{"name":"Diocese of Covington","locationSet":{"include":["us-ky"]},"geometry":["area","point"],"matchScore":2,"terms":["diocese of covington"],"tags":{"amenity":"school","operator:wikidata":"Q868192"},"addTags":{"amenity":"school","operator":"Diocese of Covington","operator:type":"religious","operator:wikidata":"Q868192"}},"amenity/school/jeffersoncountypublicschools-4e7bb3":{"name":"Jefferson County Public Schools (Kentucky)","locationSet":{"include":["us-ky"]},"geometry":["area","point"],"matchScore":2,"terms":["jcps","jefferson county public schools"],"tags":{"amenity":"school","operator:wikidata":"Q6175438"},"addTags":{"amenity":"school","operator":"Jefferson County Public Schools","operator:short":"JCPS","operator:type":"public","operator:wikidata":"Q6175438"}},"amenity/school/kentoncountyschooldistrict-4e7bb3":{"name":"Kenton County School District","locationSet":{"include":["us-ky"]},"geometry":["area","point"],"matchScore":2,"terms":["kcsd","kenton county school district"],"tags":{"amenity":"school","operator:wikidata":"Q6392077"},"addTags":{"amenity":"school","operator":"Kenton County School District","operator:short":"KCSD","operator:type":"public","operator:wikidata":"Q6392077"}},"amenity/school/unioncountypublicschools-4e7bb3":{"name":"Union County Public Schools (Kentucky)","locationSet":{"include":["us-ky"]},"geometry":["area","point"],"matchScore":2,"terms":["ucps","union county public schools"],"tags":{"amenity":"school","operator:wikidata":"Q7885618"},"addTags":{"amenity":"school","operator":"Union County Public Schools","operator:short":"UCPS","operator:type":"public","operator:wikidata":"Q7885618"}},"leisure/nature_reserve/kentuckydeparmentofparks-933e5b":{"name":"Kentucky State Parks","locationSet":{"include":["us-ky"]},"geometry":["area","point"],"matchScore":2,"terms":["kentucky deparment of parks","kentucky state parks"],"tags":{"leisure":"nature_reserve","operator:wikidata":"Q109328420"},"addTags":{"leisure":"nature_reserve","operator":"Kentucky Deparment of Parks","operator:type":"public","operator:wikidata":"Q109328420"}},"leisure/nature_reserve/louisvilleparksandrecreation-933e5b":{"name":"Louisville Parks and Recreation","locationSet":{"include":["us-ky"]},"geometry":["area","point"],"matchScore":2,"terms":["louisville metro parks and recreation","louisville parks and recreation"],"tags":{"leisure":"nature_reserve","operator:wikidata":"Q110072380"},"addTags":{"leisure":"nature_reserve","operator":"Louisville Parks and Recreation","operator:type":"public","operator:wikidata":"Q110072380"}},"leisure/park/kentuckydeparmentofparks-9af01b":{"name":"Kentucky State Parks","locationSet":{"include":["us-ky"]},"geometry":["area","point"],"matchScore":2,"terms":["kentucky deparment of parks","kentucky state parks"],"tags":{"leisure":"park","operator:wikidata":"Q109328420"},"addTags":{"leisure":"park","operator":"Kentucky Deparment of Parks","operator:type":"public","operator:wikidata":"Q109328420"}},"leisure/park/louisvilleparksandrecreation-9af01b":{"name":"Louisville Parks and Recreation","locationSet":{"include":["us-ky"]},"geometry":["area","point"],"matchScore":2,"terms":["louisville metro parks and recreation","louisville parks and recreation"],"tags":{"leisure":"park","operator:wikidata":"Q110072380"},"addTags":{"leisure":"park","operator":"Louisville Parks and Recreation","operator:type":"public","operator:wikidata":"Q110072380"}},"power/line/kentuckypower-ab6528":{"name":"Kentucky Power","locationSet":{"include":["us-ky"]},"geometry":["line"],"matchScore":2,"terms":["kentucky power"],"tags":{"operator:wikidata":"Q109016012","power":"line"},"addTags":{"operator":"Kentucky Power","operator:wikidata":"Q109016012","power":"line"}},"power/minor_line/kentuckypower-cc20a8":{"name":"Kentucky Power","locationSet":{"include":["us-ky"]},"geometry":["line"],"matchScore":2,"terms":["kentucky power"],"tags":{"operator:wikidata":"Q109016012","power":"minor_line"},"addTags":{"operator":"Kentucky Power","operator:wikidata":"Q109016012","power":"minor_line"}},"power/pole/kentuckypower-09c49f":{"name":"Kentucky Power","locationSet":{"include":["us-ky"]},"geometry":["point","vertex"],"matchScore":2,"terms":["kentucky power"],"tags":{"operator:wikidata":"Q109016012","power":"pole"},"addTags":{"operator":"Kentucky Power","operator:wikidata":"Q109016012","power":"pole"}},"power/substation/kentuckypower-6f0d53":{"name":"Kentucky Power","locationSet":{"include":["us-ky"]},"geometry":["area","point"],"matchScore":2,"terms":["kentucky power"],"tags":{"operator:wikidata":"Q109016012","power":"substation"},"addTags":{"operator":"Kentucky Power","operator:wikidata":"Q109016012","power":"substation"}},"power/tower/kentuckypower-17602a":{"name":"Kentucky Power","locationSet":{"include":["us-ky"]},"geometry":["point","vertex"],"matchScore":2,"terms":["kentucky power"],"tags":{"operator:wikidata":"Q109016012","power":"tower"},"addTags":{"operator":"Kentucky Power","operator:wikidata":"Q109016012","power":"tower"}},"power/transformer/kentuckypower-505574":{"name":"Kentucky Power","locationSet":{"include":["us-ky"]},"geometry":["point","vertex"],"matchScore":2,"terms":["kentucky power"],"tags":{"operator:wikidata":"Q109016012","power":"transformer"},"addTags":{"operator":"Kentucky Power","operator:wikidata":"Q109016012","power":"transformer"}},"shop/charity/evansvillegoodwillindustries-f90552":{"name":"Evansville Goodwill Industries","locationSet":{"include":["us-il","us-in","us-ky"]},"geometry":["point","area"],"matchScore":2,"terms":["evansville goodwill industries","goodwill"],"tags":{"operator:wikidata":"Q126844052","shop":"charity"},"addTags":{"brand":"Goodwill","brand:wikidata":"Q5583655","name":"Goodwill","operator":"Evansville Goodwill Industries","operator:wikidata":"Q126844052","shop":"charity"}},"shop/charity/goodwillindustriesofkentucky-ff88c0":{"name":"Goodwill Industries of Kentucky","locationSet":{"include":["us-ky"]},"geometry":["point","area"],"matchScore":2,"terms":["goodwill","goodwill industries of kentucky"],"tags":{"operator:wikidata":"Q126850555","shop":"charity"},"addTags":{"brand":"Goodwill","brand:wikidata":"Q5583655","name":"Goodwill","operator":"Goodwill Industries of Kentucky","operator:wikidata":"Q126850555","shop":"charity"}},"shop/charity/goodwillindustriesofkyowvaarea-70702e":{"name":"Goodwill Industries of KYOWVA Area","locationSet":{"include":["us-ky","us-wv"]},"geometry":["point","area"],"matchScore":2,"terms":["goodwill","goodwill industries of kyowva area"],"tags":{"operator:wikidata":"Q126850683","shop":"charity"},"addTags":{"brand":"Goodwill","brand:wikidata":"Q5583655","name":"Goodwill","operator":"Goodwill Industries of KYOWVA Area","operator:wikidata":"Q126850683","shop":"charity"}},"shop/charity/goodwillindustriesofsouthernohio-18aa79":{"name":"Goodwill Industries of Southern Ohio","locationSet":{"include":["us-ky","us-oh"]},"geometry":["point","area"],"matchScore":2,"terms":["goodwill","goodwill industries of southern ohio"],"tags":{"operator:wikidata":"Q126897825","shop":"charity"},"addTags":{"brand":"Goodwill","brand:wikidata":"Q5583655","name":"Goodwill","operator":"Goodwill Industries of Southern Ohio","operator:wikidata":"Q126897825","shop":"charity"}},"shop/charity/ohiovalleygoodwillindustries-9d056f":{"name":"Ohio Valley Goodwill Industries","locationSet":{"include":["us-in","us-ky","us-oh"]},"geometry":["point","area"],"matchScore":2,"terms":["goodwill","ohio valley goodwill","ohio valley goodwill industries"],"tags":{"operator:wikidata":"Q109722622","shop":"charity"},"addTags":{"brand":"Goodwill","brand:wikidata":"Q5583655","name":"Goodwill","operator":"Ohio Valley Goodwill Industries","operator:wikidata":"Q109722622","shop":"charity"}},"public_transport/platform/bus_point/tank-d1371f":{"name":"TANK","locationSet":{"include":["us-ky"]},"geometry":["point","vertex"],"matchScore":2,"terms":["tank"],"reference":{"key":"public_transport","value":"platform"},"tags":{"bus":"yes","network:wikidata":"Q7834339","public_transport":"platform"},"addTags":{"bus":"yes","highway":"bus_stop","network":"TANK","network:wikidata":"Q7834339","public_transport":"platform"}},"public_transport/platform/bus_point/tarc-d1371f":{"name":"TARC","locationSet":{"include":["us-ky"]},"geometry":["point","vertex"],"matchScore":2,"terms":["tarc","transit authority of river city"],"reference":{"key":"public_transport","value":"platform"},"tags":{"bus":"yes","network:wikidata":"Q3537637","public_transport":"platform"},"addTags":{"bus":"yes","highway":"bus_stop","network":"TARC","network:wikidata":"Q3537637","operator":"Transit Authority of River City","public_transport":"platform"}},"type/route/bus/tank-6e3622":{"name":"TANK","locationSet":{"include":["us-ky"]},"geometry":["relation"],"matchScore":2,"terms":["tank"],"reference":{"key":"route","value":"bus"},"tags":{"network:wikidata":"Q7834339","route":"bus","type":"route"},"addTags":{"network":"TANK","network:wikidata":"Q7834339","route":"bus","type":"route"}},"type/route/bus/tarc-6e3622":{"name":"TARC","locationSet":{"include":["us-ky"]},"geometry":["relation"],"matchScore":2,"terms":["tarc","transit authority of river city"],"reference":{"key":"route","value":"bus"},"tags":{"network:wikidata":"Q3537637","route":"bus","type":"route"},"addTags":{"network":"TARC","network:wikidata":"Q3537637","operator":"Transit Authority of River City","route":"bus","type":"route"}}}