{"amenity/atm/badrbanque-f957e0":{"name":"BADR Banque","locationSet":{"include":["dz"]},"geometry":["point","vertex"],"matchScore":2,"terms":["badr banque"],"fields":["name","brand","{amenity/atm}"],"tags":{"amenity":"atm","brand:wikidata":"Q2883031"},"addTags":{"amenity":"atm","brand":"BADR Banque","brand:wikidata":"Q2883031","operator":"BADR Banque","operator:wikidata":"Q2883031"}},"amenity/atm/cebee2-f957e0":{"name":"BDL, بنك التنمية المحلية","locationSet":{"include":["dz"]},"geometry":["point","vertex"],"matchScore":2,"terms":["banque de développement local","بنك التنمية المحلية"],"fields":["name","brand","{amenity/atm}"],"tags":{"amenity":"atm","brand:wikidata":"Q64410371"},"addTags":{"amenity":"atm","brand":"بنك التنمية المحلية","brand:fr":"Banque de Développement Local","brand:wikidata":"Q64410371","official_name":"بنك التنمية المحلية","official_name:fr":"Banque de Développement Local","operator":"بنك التنمية المحلية","operator:wikidata":"Q64410371"}},"amenity/atm/bea-f957e0":{"name":"BEA (البنك الجزائري الخارجي)","locationSet":{"include":["dz"]},"geometry":["point","vertex"],"matchScore":2,"terms":["banque extérieure d'algérie","bea","bea البنك الجزائري الخارجي","البنك الجزائري الخارجي"],"fields":["name","brand","{amenity/atm}"],"tags":{"amenity":"atm","brand:wikidata":"Q86660761"},"addTags":{"amenity":"atm","brand":"BEA","brand:ar":"البنك الجزائري الخارجي","brand:en":"BEA","brand:wikidata":"Q86660761","name:ar":"البنك الجزائري الخارجي","name:en":"BEA","operator":"BEA","operator:wikidata":"Q86660761"}},"amenity/atm/bna-f957e0":{"name":"BNA (Algeria)","locationSet":{"include":["dz"]},"geometry":["point","vertex"],"matchScore":2,"terms":["banque nationale d'algérie","bna"],"fields":["name","brand","{amenity/atm}"],"tags":{"amenity":"atm","brand:wikidata":"Q2883410"},"addTags":{"amenity":"atm","brand":"BNA","brand:wikidata":"Q2883410","official_name":"Banque nationale d'Algérie","operator":"BNA","operator:wikidata":"Q2883410"}},"amenity/atm/bnpparibas-6b438a":{"name":"BNP Paribas","locationSet":{"include":["ae","af","ar","at","bf","bg","bh","br","ca","ch","ci","cl","co","cz","de","dk","dz","es","fi","fr","gb","gf","gp","hu","ie","il","it","kw","lu","ma","ml","mq","mx","nl","no","pe","pt","qa","re","ro","ru","sa","se","sk","sn","tn","tr","us"]},"geometry":["point","vertex"],"matchScore":2,"terms":["bnp paribas"],"fields":["name","brand","{amenity/atm}"],"tags":{"amenity":"atm","brand:wikidata":"Q499707"},"addTags":{"amenity":"atm","brand":"BNP Paribas","brand:wikidata":"Q499707","operator":"BNP Paribas","operator:wikidata":"Q499707"}},"amenity/atm/cnep-f957e0":{"name":"CNEP (الصندوق الوطني للتوفير والاحتياط)","locationSet":{"include":["dz"]},"geometry":["point","vertex"],"matchScore":2,"terms":["cnep","cnep الصندوق الوطني للتوفير والاحتياط","الصندوق الوطني للتوفير والاحتياط"],"fields":["name","brand","{amenity/atm}"],"tags":{"amenity":"atm","brand:wikidata":"Q2931752"},"addTags":{"amenity":"atm","brand":"CNEP","brand:ar":"الصندوق الوطني للتوفير والاحتياط","brand:en":"CNEP","brand:wikidata":"Q2931752","name:ar":"الصندوق الوطني للتوفير والاحتياط","name:en":"CNEP","operator":"CNEP","operator:wikidata":"Q2931752"}},"amenity/atm/cpa-f957e0":{"name":"CPA (القرض الشعبي الجزائري)","locationSet":{"include":["dz"]},"geometry":["point","vertex"],"matchScore":2,"terms":["cpa","cpa bank","cpa القرض الشعبي الجزائري","crédit populaire d'algérie","القرض الشعبي الجزائري"],"fields":["name","brand","{amenity/atm}"],"tags":{"amenity":"atm","brand:wikidata":"Q3006243"},"addTags":{"amenity":"atm","brand":"CPA القرض الشعبي الجزائري","brand:ar":"القرض الشعبي الجزائري","brand:en":"CPA","brand:wikidata":"Q3006243","operator":"CPA القرض الشعبي الجزائري","operator:wikidata":"Q3006243"}},"amenity/atm/nationalbankofalgeria-f957e0":{"name":"البنك الوطني الجزائري","locationSet":{"include":["dz"]},"geometry":["point","vertex"],"matchScore":2,"terms":["national bank of algeria","البنك الوطني الجزائري"],"fields":["name","brand","{amenity/atm}"],"tags":{"amenity":"atm","brand:wikidata":"Q2883410"},"addTags":{"amenity":"atm","brand":"البنك الوطني الجزائري","brand:en":"National Bank of Algeria","brand:wikidata":"Q2883410","name:en":"National Bank of Algeria","operator":"البنك الوطني الجزائري","operator:wikidata":"Q2883410"}},"amenity/bank/badrbanque-47c9bd":{"name":"BADR Banque","locationSet":{"include":["dz"]},"geometry":["point","area"],"matchScore":2,"terms":["badr banque"],"tags":{"amenity":"bank","brand:wikidata":"Q2883031"},"addTags":{"amenity":"bank","brand":"BADR Banque","brand:wikidata":"Q2883031","name":"BADR Banque"}},"amenity/bank/bdl-47c9bd":{"name":"BDL, بنك التنمية المحلية","locationSet":{"include":["dz"]},"geometry":["point","area"],"matchScore":2,"terms":["banque de développement local","بنك التنمية المحلية"],"tags":{"amenity":"bank","brand:wikidata":"Q64410371"},"addTags":{"amenity":"bank","brand":"بنك التنمية المحلية","brand:fr":"Banque de Développement Local","brand:wikidata":"Q64410371","name":"BDL","official_name":"بنك التنمية المحلية","official_name:fr":"Banque de Développement Local"}},"amenity/bank/bea-47c9bd":{"name":"BEA (البنك الجزائري الخارجي)","locationSet":{"include":["dz"]},"geometry":["point","area"],"matchScore":2,"terms":["banque extérieure d'algérie","bea","bea البنك الجزائري الخارجي","البنك الجزائري الخارجي"],"tags":{"amenity":"bank","brand:wikidata":"Q86660761"},"addTags":{"amenity":"bank","brand":"BEA","brand:ar":"البنك الجزائري الخارجي","brand:en":"BEA","brand:wikidata":"Q86660761","name:ar":"البنك الجزائري الخارجي","name:en":"BEA"}},"amenity/bank/bna-47c9bd":{"name":"BNA (Algeria)","locationSet":{"include":["dz"]},"geometry":["point","area"],"matchScore":2,"terms":["banque nationale d'algérie","bna"],"tags":{"amenity":"bank","brand:wikidata":"Q2883410"},"addTags":{"amenity":"bank","brand":"BNA","brand:wikidata":"Q2883410","name":"BNA","official_name":"Banque nationale d'Algérie"}},"amenity/bank/bnpparibas-42efac":{"name":"BNP Paribas","locationSet":{"include":["ae","af","ar","at","bf","bg","bh","br","ca","ch","ci","cl","co","cz","de","dk","dz","es","fi","fr","gb","gf","gp","hu","ie","il","it","kw","lu","ma","ml","mq","mx","nl","no","pe","pt","qa","re","ro","ru","sa","se","sk","sn","tn","tr","us"]},"geometry":["point","area"],"matchScore":2,"terms":["bnp paribas"],"tags":{"amenity":"bank","brand:wikidata":"Q499707"},"addTags":{"amenity":"bank","brand":"BNP Paribas","brand:wikidata":"Q499707","name":"BNP Paribas"}},"amenity/bank/cnep-47c9bd":{"name":"CNEP (الصندوق الوطني للتوفير والاحتياط)","locationSet":{"include":["dz"]},"geometry":["point","area"],"matchScore":2,"terms":["cnep","cnep الصندوق الوطني للتوفير والاحتياط","الصندوق الوطني للتوفير والاحتياط"],"tags":{"amenity":"bank","brand:wikidata":"Q2931752"},"addTags":{"amenity":"bank","brand":"CNEP","brand:ar":"الصندوق الوطني للتوفير والاحتياط","brand:en":"CNEP","brand:wikidata":"Q2931752","name:ar":"الصندوق الوطني للتوفير والاحتياط","name:en":"CNEP"}},"amenity/bank/cpa-47c9bd":{"name":"CPA (القرض الشعبي الجزائري)","locationSet":{"include":["dz"]},"geometry":["point","area"],"matchScore":2,"terms":["cpa","cpa bank","cpa القرض الشعبي الجزائري","crédit populaire d'algérie","القرض الشعبي الجزائري"],"tags":{"amenity":"bank","brand:wikidata":"Q3006243"},"addTags":{"amenity":"bank","brand":"CPA القرض الشعبي الجزائري","brand:ar":"القرض الشعبي الجزائري","brand:en":"CPA","brand:wikidata":"Q3006243","name":"CPA القرض الشعبي الجزائري"}},"amenity/bank/nationalbankofalgeria-47c9bd":{"name":"البنك الوطني الجزائري","locationSet":{"include":["dz"]},"geometry":["point","area"],"matchScore":2,"terms":["national bank of algeria","البنك الوطني الجزائري"],"tags":{"amenity":"bank","brand:wikidata":"Q2883410"},"addTags":{"amenity":"bank","brand":"البنك الوطني الجزائري","brand:en":"National Bank of Algeria","brand:wikidata":"Q2883410","name":"البنك الوطني الجزائري","name:en":"National Bank of Algeria"}},"amenity/cafe/coffee_shop/starbucks-0dcee5":{"name":"ستاربكس","locationSet":{"include":["ae","bh","dz","eg","iq","jo","kw","lb","ly","ma","om","qa","sa","tn"]},"geometry":["point","area"],"matchScore":2,"terms":["starbucks","starbucks coffee","ستاربكس","ستاربكس كافية"],"reference":{"key":"cuisine","value":"coffee_shop"},"tags":{"amenity":"cafe","brand:wikidata":"Q37158","cuisine":"coffee_shop"},"addTags":{"amenity":"cafe","brand":"ستاربكس","brand:ar":"ستاربكس","brand:en":"Starbucks","brand:wikidata":"Q37158","cuisine":"coffee_shop","name":"ستاربكس","name:ar":"ستاربكس","name:en":"Starbucks","official_name":"ستاربكس كافية","official_name:ar":"ستاربكس كافية","official_name:en":"Starbucks Coffee","takeaway":"yes"}},"amenity/fuel/engen-b7f522":{"name":"Engen","locationSet":{"include":["dz","eg","ly","ma","sd","tn","eh","io","bi","km","dj","er","et","tf","ke","mg","mw","mu","yt","mz","re","rw","sc","so","ss","ug","tz","zm","zw","ao","cm","cf","td","cg","cd","gq","ga","st","bw","sz","ls","na","za","bj","bf","cv","ci","gm","gh","gn","gw","lr","ml","mr","ne","ng","sn","sl","tg","sh"]},"geometry":["point","area"],"matchScore":2,"terms":["engen","engen petroleum"],"fields":["name","brand","{amenity/fuel}"],"tags":{"amenity":"fuel","brand:wikidata":"Q3054251"},"addTags":{"amenity":"fuel","brand":"Engen","brand:wikidata":"Q3054251","name":"Engen"}},"amenity/ice_cream/smooy-bac155":{"name":"smöoy","locationSet":{"include":["ao","ci","cn","dz","ec","es","fr","gb","gn","it","ma","pa","pe","pt","re","sa"]},"geometry":["point","area"],"matchScore":2,"terms":["smöoy","softy cream"],"tags":{"amenity":"ice_cream","brand:wikidata":"Q21573945"},"addTags":{"amenity":"ice_cream","brand":"smöoy","brand:wikidata":"Q21573945","name":"smöoy","official_name":"Softy Cream"}},"amenity/language_school/shaneenglishschool-f8b177":{"name":"Shane English School","locationSet":{"include":["dz","gb","hk","id","kr","pl","th","vn"]},"geometry":["point","area"],"matchScore":2,"terms":["shane english school","シェーン英会話"],"fields":["name","brand","{amenity/language_school}"],"tags":{"amenity":"language_school","brand:wikidata":"Q17054332"},"addTags":{"amenity":"language_school","brand":"Shane English School","brand:en":"Shane English School","brand:ja":"シェーン英会話","brand:ja-Latn":"Shēn Eikaiwa","brand:wikidata":"Q17054332","language:en":"main","name":"Shane English School","name:en":"Shane English School","name:ja":"シェーン英会話","name:ja-Latn":"Shēn Eikaiwa"}},"office/insurance/axa-2e7672":{"name":"AXA","locationSet":{"include":["ae","ar","au","be","bh","bm","br","ca","ch","ci","cl","cm","cn","co","cz","de","dk","dz","eg","es","fi","fr","ga","gb","gr","hk","id","ie","in","it","jp","kr","lb","lu","ma","mu","mx","my","ng","nl","no","om","pa","pe","ph","pl","pt","qa","sa","se","sg","sk","sn","th","tr","tw","us"]},"geometry":["point","area"],"matchScore":2,"terms":["axa"],"fields":["name","brand","{office/insurance}"],"tags":{"brand:wikidata":"Q160054","office":"insurance"},"addTags":{"brand":"AXA","brand:wikidata":"Q160054","name":"AXA","office":"insurance"}},"office/insurance/e56dcd-95ca40":{"name":"الصندوق الوطني للتأمينات الاجتماعية للعمال الأجراء","locationSet":{"include":["dz"]},"geometry":["point","area"],"matchScore":2,"terms":["caisse nationale des assurances sociales des travailleurs salariés","cnas","cnas الصندوق الوطني للضمان الاجتماعي للعمال الأجراء","الصندوق الوطني للتأمينات الاجتماعية للعمال الأجراء"],"fields":["name","brand","{office/insurance}"],"tags":{"brand:wikidata":"Q42343122","office":"insurance"},"addTags":{"brand":"الصندوق الوطني للتأمينات الاجتماعية للعمال الأجراء","brand:wikidata":"Q42343122","name":"الصندوق الوطني للتأمينات الاجتماعية للعمال الأجراء","name:ar":"CNAS الصندوق الوطني للضمان الاجتماعي للعمال الأجراء","name:fr":"CNAS","office":"insurance","official_name:fr":"Caisse Nationale des Assurances Sociales des Travailleurs Salariés"}},"office/telecommunication/mobilis-c9e0b0":{"name":"موبيليس","locationSet":{"include":["dz"]},"geometry":["point","area"],"matchScore":2,"terms":["mobilis","mobilis موبيليس","موبيليس"],"tags":{"brand:wikidata":"Q2819545","office":"telecommunication"},"addTags":{"brand":"موبيليس","brand:en":"Mobilis","brand:wikidata":"Q2819545","name":"موبيليس","name:en":"Mobilis","office":"telecommunication"}},"shop/clothes/tati-72a3d7":{"name":"Tati","locationSet":{"include":["dz","fr"]},"geometry":["point","area"],"matchScore":2,"terms":["tati"],"tags":{"brand:wikidata":"Q3516026","shop":"clothes"},"addTags":{"brand":"Tati","brand:wikidata":"Q3516026","name":"Tati","shop":"clothes"}},"shop/kitchen/ixina-d089d8":{"name":"Ixina","locationSet":{"include":["ae","au","be","bf","bh","bj","ca","ci","cm","cn","cz","dz","ee","eg","fr","gh","hr","ke","kw","lu","ly","ma","mu","nl","pl","qa","ro","ru","sa","se","sn","tg","th","tn","vn"]},"geometry":["point","area"],"matchScore":2,"terms":["ixina"],"tags":{"brand:wikidata":"Q3156424","shop":"kitchen"},"addTags":{"brand":"Ixina","brand:wikidata":"Q3156424","name":"Ixina","shop":"kitchen"}},"amenity/hospital/ministeredelasante-a87298":{"name":"Ministère de la Santé (Algérie)","locationSet":{"include":["dz"]},"geometry":["area","point"],"matchScore":2,"terms":["ministère de la santé"],"fields":["name","operator","{amenity/hospital}"],"reference":{"key":"amenity","value":"hospital"},"tags":{"amenity":"hospital","operator:wikidata":"Q17639127"},"addTags":{"amenity":"hospital","healthcare":"hospital","operator":"Ministère de la Santé","operator:wikidata":"Q17639127"}},"amenity/police/directiongeneraledelasuretenationale-1f771a":{"name":"DGSN (Algeria)","locationSet":{"include":["dz"]},"geometry":["point","area"],"matchScore":2,"terms":["dgsn","direction générale de la sûreté nationale","المديرية العامة للأمن الوطني"],"tags":{"amenity":"police","operator:wikidata":"Q12218510"},"addTags":{"amenity":"police","operator":"Direction générale de la Sûreté nationale","operator:ar":"المديرية العامة للأمن الوطني","operator:short":"DGSN","operator:wikidata":"Q12218510"}},"amenity/police/gendarmerienationale-1f771a":{"name":"Gendarmerie nationale (Algeria)","locationSet":{"include":["dz"]},"geometry":["point","area"],"matchScore":2,"terms":["gendarmerie nationale","mdn","ministère de la défense nationale","ministry of national defence","ministry of national defense","الدرك الوطني","الدرك الوطني الجزائري","وزارة الدفاع الوطني الجزائرية"],"tags":{"amenity":"police","operator:wikidata":"Q3100409"},"addTags":{"amenity":"police","operator":"Gendarmerie nationale","operator:ar":"الدرك الوطني","operator:wikidata":"Q3100409"}},"amenity/post_box/algerieposte-b1eaa9":{"name":"Algérie Poste","locationSet":{"include":["dz"]},"geometry":["point","vertex"],"matchScore":2,"terms":["algérie poste","بريد الجزائر"],"tags":{"amenity":"post_box","operator:wikidata":"Q2836029"},"addTags":{"amenity":"post_box","operator":"Algérie Poste","operator:ar":"بريد الجزائر","operator:fr":"Algérie Poste","operator:wikidata":"Q2836029"}},"amenity/post_office/algerieposte-e99ec0":{"name":"Algérie Poste","locationSet":{"include":["dz"]},"geometry":["point","area"],"matchScore":2,"terms":["algérie poste","بريد الجزائر"],"fields":["name","operator","{amenity/post_office}"],"tags":{"amenity":"post_office","operator:wikidata":"Q2836029"},"addTags":{"amenity":"post_office","operator":"Algérie Poste","operator:ar":"بريد الجزائر","operator:fr":"Algérie Poste","operator:wikidata":"Q2836029"}},"office/energy_supplier/naturgy-e15d8a":{"name":"Naturgy","locationSet":{"include":["ar","au","be","br","cl","cn","cr","de","do","dz","eg","es","fr","gb","ie","in","jm","jo","jp","lu","ma","mx","nl","om","pa","pe","pk","pr","pt","sg"]},"geometry":["point","area"],"matchScore":2,"terms":["naturgy"],"tags":{"office":"energy_supplier","operator:wikidata":"Q474690"},"addTags":{"name":"Naturgy","office":"energy_supplier","operator":"Naturgy","operator:wikidata":"Q474690"}},"power/line/sonelgaz-1c2f9f":{"name":"الشركة الوطنية للكهرباء والغاز","locationSet":{"include":["dz"]},"geometry":["line"],"matchScore":2,"terms":["sonelgaz","الشركة الوطنية للكهرباء والغاز"],"tags":{"operator:wikidata":"Q3490327","power":"line"},"addTags":{"operator":"الشركة الوطنية للكهرباء والغاز","operator:ar":"الشركة الوطنية للكهرباء والغاز","operator:en":"Sonelgaz","operator:wikidata":"Q3490327","power":"line"}},"power/minor_line/sonelgaz-9d8084":{"name":"الشركة الوطنية للكهرباء والغاز","locationSet":{"include":["dz"]},"geometry":["line"],"matchScore":2,"terms":["sonelgaz","الشركة الوطنية للكهرباء والغاز"],"tags":{"operator:wikidata":"Q3490327","power":"minor_line"},"addTags":{"operator":"الشركة الوطنية للكهرباء والغاز","operator:ar":"الشركة الوطنية للكهرباء والغاز","operator:en":"Sonelgaz","operator:wikidata":"Q3490327","power":"minor_line"}},"power/plant/sonelgaz-029c1e":{"name":"Sonelgaz","locationSet":{"include":["dz"]},"geometry":["area"],"matchScore":2,"terms":["sonelgaz"],"tags":{"operator:wikidata":"Q3490327","power":"plant"},"addTags":{"operator":"Sonelgaz","operator:wikidata":"Q3490327","power":"plant"}},"power/pole/sonelgaz-9dcc3d":{"name":"الشركة الوطنية للكهرباء والغاز","locationSet":{"include":["dz"]},"geometry":["point","vertex"],"matchScore":2,"terms":["sonelgaz","الشركة الوطنية للكهرباء والغاز"],"tags":{"operator:wikidata":"Q3490327","power":"pole"},"addTags":{"operator":"الشركة الوطنية للكهرباء والغاز","operator:ar":"الشركة الوطنية للكهرباء والغاز","operator:en":"Sonelgaz","operator:wikidata":"Q3490327","power":"pole"}},"power/substation/sonelgaz-34b5c5":{"name":"SONELGAZ","locationSet":{"include":["dz"]},"geometry":["area","point"],"matchScore":2,"terms":["sonelgaz"],"tags":{"operator:wikidata":"Q3490327","power":"substation"},"addTags":{"operator":"SONELGAZ","operator:wikidata":"Q3490327","power":"substation"}},"power/tower/sonelgaz-ded989":{"name":"الشركة الوطنية للكهرباء والغاز","locationSet":{"include":["dz"]},"geometry":["point","vertex"],"matchScore":2,"terms":["sonelgaz","الشركة الوطنية للكهرباء والغاز"],"tags":{"operator:wikidata":"Q3490327","power":"tower"},"addTags":{"operator":"الشركة الوطنية للكهرباء والغاز","operator:ar":"الشركة الوطنية للكهرباء والغاز","operator:en":"Sonelgaz","operator:wikidata":"Q3490327","power":"tower"}},"power/transformer/sonelgaz-e89c7a":{"name":"SONELGAZ","locationSet":{"include":["dz"]},"geometry":["point","vertex"],"matchScore":2,"terms":["sonelgaz"],"tags":{"operator:wikidata":"Q3490327","power":"transformer"},"addTags":{"operator":"SONELGAZ","operator:wikidata":"Q3490327","power":"transformer"}},"type/route/subway/metrodalger-a8b2a7":{"name":"Métro d'Alger","locationSet":{"include":["dz"]},"geometry":["relation"],"matchScore":2,"terms":["métro d'alger","ratp","ratp el djazaïr"],"reference":{"key":"route","value":"subway"},"tags":{"network:wikidata":"Q728045","route":"subway","type":"route"},"addTags":{"network":"Métro d'Alger","network:wikidata":"Q728045","operator":"RATP El Djazaïr","route":"subway","type":"route"}}}