{"advertising/totem/alliedpetroleum-34a242":{"name":"Allied Petroleum","locationSet":{"include":["nz"]},"geometry":["point","line"],"matchScore":2,"terms":["allied","allied petroleum"],"tags":{"advertising":"totem","brand:wikidata":"Q112543637"},"addTags":{"advertising":"totem","brand":"Allied Petroleum","brand:wikidata":"Q112543637"}},"advertising/totem/caltex-0f1005":{"name":"Caltex","locationSet":{"include":["ae","au","eg","hk","id","kh","kr","lk","my","nz","ph","pk","sa","sg","th","vn","za"]},"geometry":["point","line"],"matchScore":2,"terms":["caltex"],"tags":{"advertising":"totem","brand:wikidata":"Q277470"},"addTags":{"advertising":"totem","brand":"Caltex","brand:wikidata":"Q277470"}},"advertising/totem/challenge-34a242":{"name":"Challenge","locationSet":{"include":["nz"]},"geometry":["point","line"],"matchScore":2,"terms":["challenge"],"tags":{"advertising":"totem","brand:wikidata":"Q5068888"},"addTags":{"advertising":"totem","brand":"Challenge","brand:wikidata":"Q5068888"}},"advertising/totem/costcogasoline-d072aa":{"name":"Costco Gasoline","locationSet":{"include":["au","ca","es","gb","is","jp","mx","nz","us"]},"geometry":["point","line"],"matchScore":2,"terms":["costco","costco gas","costco gasoline","costco wholesale"],"tags":{"advertising":"totem","brand:wikidata":"Q715583"},"addTags":{"advertising":"totem","brand":"Costco Gasoline","brand:wikidata":"Q715583"}},"advertising/totem/gas-34a242":{"name":"G.A.S.","locationSet":{"include":["nz"]},"geometry":["point","line"],"matchScore":2,"terms":["g.a.s.","gasoline alley services"],"tags":{"advertising":"totem","brand:wikidata":"Q112189761"},"addTags":{"advertising":"totem","brand":"G.A.S.","brand:wikidata":"Q112189761"}},"advertising/totem/gull-34a242":{"name":"Gull (New Zealand)","locationSet":{"include":["nz"]},"geometry":["point","line"],"matchScore":2,"terms":["gull"],"tags":{"advertising":"totem","brand:wikidata":"Q111949119"},"addTags":{"advertising":"totem","brand":"Gull","brand:wikidata":"Q111949119"}},"advertising/totem/mckeown-34a242":{"name":"McKeown","locationSet":{"include":["nz"]},"geometry":["point","line"],"matchScore":2,"terms":["mckeown"],"tags":{"advertising":"totem","brand:wikidata":"Q108897907"},"addTags":{"advertising":"totem","brand":"McKeown","brand:wikidata":"Q108897907"}},"advertising/totem/npd-34a242":{"name":"npd","locationSet":{"include":["nz"]},"geometry":["point","line"],"matchScore":2,"terms":["npd"],"tags":{"advertising":"totem","brand:wikidata":"Q110922616"},"addTags":{"advertising":"totem","brand":"npd","brand:wikidata":"Q110922616"}},"advertising/totem/paknsavefuel-34a242":{"name":"PAK'nSAVE Fuel","locationSet":{"include":["nz"]},"geometry":["point","line"],"matchScore":2,"terms":["pak'nsave fuel"],"tags":{"advertising":"totem","brand:wikidata":"Q115215489"},"addTags":{"advertising":"totem","brand":"PAK'nSAVE Fuel","brand:wikidata":"Q115215489"}},"advertising/totem/rdpetroleum-34a242":{"name":"RD Petroleum","locationSet":{"include":["nz"]},"geometry":["point","line"],"matchScore":2,"terms":["bp","rd","rd petroleum","rdp"],"tags":{"advertising":"totem","brand:wikidata":"Q115565889"},"addTags":{"advertising":"totem","brand":"RD Petroleum","brand:wikidata":"Q115565889","operator":"BP","operator:wikidata":"Q152057"}},"advertising/totem/waitomo-34a242":{"name":"Waitomo","locationSet":{"include":["nz"]},"geometry":["point","line"],"matchScore":2,"terms":["waitomo"],"tags":{"advertising":"totem","brand:wikidata":"Q112569504"},"addTags":{"advertising":"totem","brand":"Waitomo","brand:wikidata":"Q112569504"}},"advertising/totem/z-34a242":{"name":"Z","locationSet":{"include":["nz"]},"geometry":["point","line"],"matchScore":2,"terms":["z","z energy"],"tags":{"advertising":"totem","brand:wikidata":"Q8063337"},"addTags":{"advertising":"totem","brand":"Z","brand:wikidata":"Q8063337"}},"amenity/atm/cardtronics-244dba":{"name":"Cardtronics","locationSet":{"include":["au","ca","de","es","ie","mx","nz","us","za"]},"geometry":["point","vertex"],"matchScore":2,"terms":["cardtronics"],"fields":["name","brand","{amenity/atm}"],"tags":{"amenity":"atm","brand:wikidata":"Q50239180"},"addTags":{"amenity":"atm","brand":"Cardtronics","brand:wikidata":"Q50239180"}},"amenity/atm/amp-53bc34":{"name":"AMP","locationSet":{"include":["au","nz"]},"geometry":["point","vertex"],"matchScore":2,"terms":["amp","amp bank","amp limited"],"fields":["name","brand","{amenity/atm}"],"tags":{"amenity":"atm","brand:wikidata":"Q295261"},"addTags":{"amenity":"atm","brand":"AMP","brand:wikidata":"Q295261","official_name":"AMP Limited","operator":"AMP","operator:wikidata":"Q295261"}},"amenity/atm/anz-53bc34":{"name":"ANZ","locationSet":{"include":["au","nz"]},"geometry":["point","vertex"],"matchScore":2,"terms":["anz","anz bank","australia and new zealand banking group limited"],"fields":["name","brand","{amenity/atm}"],"tags":{"amenity":"atm","brand:wikidata":"Q714641"},"addTags":{"amenity":"atm","brand":"ANZ","brand:wikidata":"Q714641","official_name":"Australia and New Zealand Banking Group Limited","operator":"ANZ","operator:wikidata":"Q714641"}},"amenity/atm/asbbank-6bd214":{"name":"ASB Bank","locationSet":{"include":["nz"]},"geometry":["point","vertex"],"matchScore":2,"terms":["asb bank"],"fields":["name","brand","{amenity/atm}"],"tags":{"amenity":"atm","brand:wikidata":"Q297214"},"addTags":{"amenity":"atm","brand":"ASB Bank","brand:wikidata":"Q297214","operator":"ASB Bank","operator:wikidata":"Q297214"}},"amenity/atm/bankofnewzealand-6bd214":{"name":"Bank of New Zealand","locationSet":{"include":["nz"]},"geometry":["point","vertex"],"matchScore":2,"terms":["bank of new zealand","bank of new zeland","bnz","bnz bank"],"fields":["name","brand","{amenity/atm}"],"tags":{"amenity":"atm","brand:wikidata":"Q806687"},"addTags":{"amenity":"atm","brand":"Bank of New Zealand","brand:wikidata":"Q806687","operator":"Bank of New Zealand","operator:wikidata":"Q806687"}},"amenity/atm/kiwibank-6bd214":{"name":"Kiwibank","locationSet":{"include":["nz"]},"geometry":["point","vertex"],"matchScore":2,"terms":["kiwibank"],"fields":["name","brand","{amenity/atm}"],"tags":{"amenity":"atm","brand:wikidata":"Q1516341"},"addTags":{"amenity":"atm","brand":"Kiwibank","brand:wikidata":"Q1516341","operator":"Kiwibank","operator:wikidata":"Q1516341"}},"amenity/atm/rabobank-f970f3":{"name":"Rabobank","locationSet":{"include":["au","id","nl","nz","us"]},"geometry":["point","vertex"],"matchScore":2,"terms":["rabobank"],"fields":["name","brand","{amenity/atm}"],"tags":{"amenity":"atm","brand:wikidata":"Q252004"},"addTags":{"amenity":"atm","brand":"Rabobank","brand:wikidata":"Q252004","operator":"Rabobank","operator:wikidata":"Q252004"}},"amenity/atm/sbsbank-6bd214":{"name":"SBS Bank","locationSet":{"include":["nz"]},"geometry":["point","vertex"],"matchScore":2,"terms":["sbs bank"],"fields":["name","brand","{amenity/atm}"],"tags":{"amenity":"atm","brand:wikidata":"Q7388985"},"addTags":{"amenity":"atm","brand":"SBS Bank","brand:wikidata":"Q7388985","operator":"SBS Bank","operator:wikidata":"Q7388985"}},"amenity/atm/tsb-6bd214":{"name":"TSB (New Zealand)","locationSet":{"include":["nz"]},"geometry":["point","vertex"],"matchScore":2,"terms":["tsb"],"fields":["name","brand","{amenity/atm}"],"tags":{"amenity":"atm","brand:wikidata":"Q7671559"},"addTags":{"amenity":"atm","brand":"TSB","brand:wikidata":"Q7671559","operator":"TSB","operator:wikidata":"Q7671559"}},"amenity/atm/westpac-53bc34":{"name":"Westpac","locationSet":{"include":["au","nz"]},"geometry":["point","vertex"],"matchScore":2,"terms":["westpac"],"fields":["name","brand","{amenity/atm}"],"tags":{"amenity":"atm","brand:wikidata":"Q2031726"},"addTags":{"amenity":"atm","brand":"Westpac","brand:wikidata":"Q2031726","operator":"Westpac","operator:wikidata":"Q2031726"}},"amenity/bank/amp-510934":{"name":"AMP","locationSet":{"include":["au","nz"]},"geometry":["point","area"],"matchScore":2,"terms":["amp","amp bank","amp limited"],"tags":{"amenity":"bank","brand:wikidata":"Q295261"},"addTags":{"amenity":"bank","brand":"AMP","brand:wikidata":"Q295261","name":"AMP","official_name":"AMP Limited"}},"amenity/bank/anz-510934":{"name":"ANZ","locationSet":{"include":["au","nz"]},"geometry":["point","area"],"matchScore":2,"terms":["anz","anz bank","australia and new zealand banking group limited"],"tags":{"amenity":"bank","brand:wikidata":"Q714641"},"addTags":{"amenity":"bank","brand":"ANZ","brand:wikidata":"Q714641","name":"ANZ","official_name":"Australia and New Zealand Banking Group Limited"}},"amenity/bank/asbbank-279fc5":{"name":"ASB Bank","locationSet":{"include":["nz"]},"geometry":["point","area"],"matchScore":2,"terms":["asb bank"],"tags":{"amenity":"bank","brand:wikidata":"Q297214"},"addTags":{"amenity":"bank","brand":"ASB Bank","brand:wikidata":"Q297214","name":"ASB Bank"}},"amenity/bank/bankofnewzealand-279fc5":{"name":"Bank of New Zealand","locationSet":{"include":["nz"]},"geometry":["point","area"],"matchScore":2,"terms":["bank of new zealand","bank of new zeland","bnz","bnz bank"],"fields":["name","brand","{amenity/bank}"],"tags":{"amenity":"bank","brand:wikidata":"Q806687"},"addTags":{"amenity":"bank","brand":"Bank of New Zealand","brand:wikidata":"Q806687","name":"Bank of New Zealand"}},"amenity/bank/kiwibank-279fc5":{"name":"Kiwibank","locationSet":{"include":["nz"]},"geometry":["point","area"],"matchScore":2,"terms":["kiwibank"],"tags":{"amenity":"bank","brand:wikidata":"Q1516341"},"addTags":{"amenity":"bank","brand":"Kiwibank","brand:wikidata":"Q1516341","name":"Kiwibank"}},"amenity/bank/rabobank-c61987":{"name":"Rabobank","locationSet":{"include":["au","id","nl","nz","us"]},"geometry":["point","area"],"matchScore":2,"terms":["rabobank"],"tags":{"amenity":"bank","brand:wikidata":"Q252004"},"addTags":{"amenity":"bank","brand":"Rabobank","brand:wikidata":"Q252004","name":"Rabobank"}},"amenity/bank/sbsbank-279fc5":{"name":"SBS Bank","locationSet":{"include":["nz"]},"geometry":["point","area"],"matchScore":2,"terms":["sbs bank"],"tags":{"amenity":"bank","brand:wikidata":"Q7388985"},"addTags":{"amenity":"bank","brand":"SBS Bank","brand:wikidata":"Q7388985","name":"SBS Bank"}},"amenity/bank/tsb-279fc5":{"name":"TSB (New Zealand)","locationSet":{"include":["nz"]},"geometry":["point","area"],"matchScore":2,"terms":["tsb"],"tags":{"amenity":"bank","brand:wikidata":"Q7671559"},"addTags":{"amenity":"bank","brand":"TSB","brand:wikidata":"Q7671559","name":"TSB"}},"amenity/bank/westpac-510934":{"name":"Westpac","locationSet":{"include":["au","nz"]},"geometry":["point","area"],"matchScore":2,"terms":["westpac"],"tags":{"amenity":"bank","brand:wikidata":"Q2031726"},"addTags":{"amenity":"bank","brand":"Westpac","brand:wikidata":"Q2031726","name":"Westpac"}},"amenity/cafe/coffee_shop/coffeeculture-3d1dae":{"name":"Coffee Culture (New Zealand)","locationSet":{"include":["nz"]},"geometry":["point","area"],"matchScore":2,"terms":["coffee culture"],"reference":{"key":"cuisine","value":"coffee_shop"},"tags":{"amenity":"cafe","brand:wikidata":"Q100272682","cuisine":"coffee_shop"},"addTags":{"amenity":"cafe","brand":"Coffee Culture","brand:wikidata":"Q100272682","cuisine":"coffee_shop","name":"Coffee Culture","takeaway":"yes"}},"amenity/cafe/bubble_tea/gongcha-17742a":{"name":"Gong Cha (worldwide)","locationSet":{"include":["au","bn","ca","mm","my","nz","ph","sg","us"]},"geometry":["point","area"],"matchScore":2,"terms":["gong cha","貢茶"],"reference":{"key":"cuisine","value":"bubble_tea"},"tags":{"amenity":"cafe","brand:wikidata":"Q5581670","cuisine":"bubble_tea"},"addTags":{"amenity":"cafe","brand":"Gong Cha","brand:wikidata":"Q5581670","brand:zh":"貢茶","cuisine":"bubble_tea","int_name":"Gong Cha","name":"Gong Cha","name:zh":"貢茶","takeaway":"yes"}},"amenity/cafe/coffee_shop/hudsonscoffee-f5c0bd":{"name":"Hudsons Coffee","locationSet":{"include":["au","nz","sg"]},"geometry":["point","area"],"matchScore":2,"terms":["hudsons coffee"],"reference":{"key":"cuisine","value":"coffee_shop"},"tags":{"amenity":"cafe","brand:wikidata":"Q5929076","cuisine":"coffee_shop"},"addTags":{"amenity":"cafe","brand":"Hudsons Coffee","brand:wikidata":"Q5929076","cuisine":"coffee_shop","name":"Hudsons Coffee","takeaway":"yes"}},"amenity/cafe/coffee_shop/jamaicablue-941da9":{"name":"Jamaica Blue","locationSet":{"include":["ae","au","cn","gb","my","nz","sg"]},"geometry":["point","area"],"matchScore":2,"terms":["jamaica blue"],"reference":{"key":"cuisine","value":"coffee_shop"},"tags":{"amenity":"cafe","brand:wikidata":"Q24965819","cuisine":"coffee_shop"},"addTags":{"amenity":"cafe","brand":"Jamaica Blue","brand:wikidata":"Q24965819","cuisine":"coffee_shop","name":"Jamaica Blue","takeaway":"yes"}},"amenity/cafe/coffee_shop/michelspatisserie-d7a541":{"name":"Michel's Patisserie","locationSet":{"include":["au","cn","id","nz"]},"geometry":["point","area"],"matchScore":2,"terms":["michel's patisserie"],"reference":{"key":"cuisine","value":"coffee_shop"},"tags":{"amenity":"cafe","brand:wikidata":"Q6836235","cuisine":"coffee_shop"},"addTags":{"amenity":"cafe","brand":"Michel's Patisserie","brand:wikidata":"Q6836235","cuisine":"coffee_shop","name":"Michel's Patisserie","takeaway":"yes"}},"amenity/cafe/coffee_shop/muffinbreak-66b6c2":{"name":"Muffin Break","locationSet":{"include":["au","gb","in","nz"]},"geometry":["point","area"],"matchScore":2,"terms":["muffin break"],"reference":{"key":"cuisine","value":"coffee_shop"},"tags":{"amenity":"cafe","brand:wikidata":"Q16964876","cuisine":"coffee_shop"},"addTags":{"amenity":"cafe","brand":"Muffin Break","brand:wikidata":"Q16964876","cuisine":"coffee_shop","name":"Muffin Break","takeaway":"yes"}},"amenity/cafe/coffee_shop/muzzbuzz-4c3c5a":{"name":"Muzz Buzz","locationSet":{"include":["au","nz"]},"geometry":["point","area"],"matchScore":2,"terms":["muzz buzz"],"reference":{"key":"cuisine","value":"coffee_shop"},"tags":{"amenity":"cafe","brand:wikidata":"Q6944483","cuisine":"coffee_shop"},"addTags":{"amenity":"cafe","brand":"Muzz Buzz","brand:wikidata":"Q6944483","cuisine":"coffee_shop","name":"Muzz Buzz","takeaway":"yes"}},"amenity/cafe/obriens-20e9d6":{"name":"O'Briens Café","locationSet":{"include":["ae","au","cn","gb","ie","my","nz","sg","th"]},"geometry":["point","area"],"matchScore":2,"terms":["o'briens"],"tags":{"amenity":"cafe","brand:wikidata":"Q7071686"},"addTags":{"amenity":"cafe","brand":"O'Briens","brand:wikidata":"Q7071686","cuisine":"sandwich","name":"O'Briens","takeaway":"yes"}},"amenity/cafe/coffee_shop/robertharris-3d1dae":{"name":"Robert Harris","locationSet":{"include":["nz"]},"geometry":["point","area"],"matchScore":2,"terms":["robert harris"],"reference":{"key":"cuisine","value":"coffee_shop"},"tags":{"amenity":"cafe","brand:wikidata":"Q121652432","cuisine":"coffee_shop"},"addTags":{"amenity":"cafe","brand":"Robert Harris","brand:wikidata":"Q121652432","cuisine":"coffee_shop","name":"Robert Harris","takeaway":"yes"}},"amenity/cafe/coffee_shop/thecoffeeclub-19ebdf":{"name":"The Coffee Club","locationSet":{"include":["au","nz","th"]},"geometry":["point","area"],"matchScore":2,"terms":["the coffee club"],"reference":{"key":"cuisine","value":"coffee_shop"},"tags":{"amenity":"cafe","brand:wikidata":"Q7726599","cuisine":"coffee_shop"},"addTags":{"amenity":"cafe","brand":"The Coffee Club","brand:wikidata":"Q7726599","cuisine":"coffee_shop","name":"The Coffee Club","takeaway":"yes"}},"amenity/car_rental/apex-f8249a":{"name":"Apex","locationSet":{"include":["nz"]},"geometry":["point","area"],"matchScore":2,"terms":["apex"],"tags":{"amenity":"car_rental","brand:wikidata":"Q113312731"},"addTags":{"amenity":"car_rental","brand":"Apex","brand:wikidata":"Q113312731","name":"Apex"}},"amenity/car_rental/jucy-fde8ea":{"name":"Jucy","locationSet":{"include":["au","nz"]},"geometry":["point","area"],"matchScore":2,"terms":["jucy"],"tags":{"amenity":"car_rental","brand:wikidata":"Q22032112"},"addTags":{"amenity":"car_rental","brand":"Jucy","brand:wikidata":"Q22032112","name":"Jucy"}},"amenity/charging_station/bppulse-ed9b3b":{"name":"BP Pulse","locationSet":{"include":["au","gb","nz"]},"geometry":["point","vertex","area"],"matchScore":2,"terms":["bp chargemaster","bp pulse","chargemaster"],"fields":["name","brand","{amenity/charging_station}"],"tags":{"amenity":"charging_station","brand:wikidata":"Q39057719"},"addTags":{"amenity":"charging_station","brand":"BP Pulse","brand:wikidata":"Q39057719","operator":"BP Pulse","operator:wikidata":"Q39057719"}},"amenity/charging_station/openloop-dd8b2e":{"name":"OpenLoop","locationSet":{"include":["nz"]},"geometry":["point","vertex","area"],"matchScore":2,"terms":["openloop"],"fields":["name","brand","{amenity/charging_station}"],"tags":{"amenity":"charging_station","brand:wikidata":"Q113289213"},"addTags":{"amenity":"charging_station","brand":"OpenLoop","brand:wikidata":"Q113289213","network":"OpenLoop","network:wikidata":"Q113289213"}},"amenity/charging_station/zero-dd8b2e":{"name":"Zero","locationSet":{"include":["nz"]},"geometry":["point","vertex","area"],"matchScore":2,"terms":["meridian","meridian energy","zero"],"fields":["name","brand","{amenity/charging_station}"],"tags":{"amenity":"charging_station","brand:wikidata":"Q115065783"},"addTags":{"amenity":"charging_station","brand":"Zero","brand:wikidata":"Q115065783","operator":"Meridian Energy","operator:wikidata":"Q6819305"}},"amenity/cinema/eventcinemas-402915":{"name":"Event Cinemas","locationSet":{"include":["au","nz"]},"geometry":["point","area"],"matchScore":2,"terms":["event cinema","event cinemas"],"fields":["name","brand","{amenity/cinema}"],"tags":{"amenity":"cinema","brand:wikidata":"Q5416698"},"addTags":{"amenity":"cinema","brand":"Event Cinemas","brand:wikidata":"Q5416698","name":"Event Cinemas"}},"amenity/cinema/hoyts-402915":{"name":"Hoyts","locationSet":{"include":["au","nz"]},"geometry":["point","area"],"matchScore":2,"terms":["hoyts"],"fields":["name","brand","{amenity/cinema}"],"tags":{"amenity":"cinema","brand:wikidata":"Q5922976"},"addTags":{"amenity":"cinema","brand":"Hoyts","brand:wikidata":"Q5922976","name":"Hoyts"}},"amenity/cinema/readingcinemas-49d471":{"name":"Reading Cinemas","locationSet":{"include":["au","nz","us"]},"geometry":["point","area"],"matchScore":2,"terms":["reading cinemas"],"fields":["name","brand","{amenity/cinema}"],"tags":{"amenity":"cinema","brand:wikidata":"Q43898773"},"addTags":{"amenity":"cinema","brand":"Reading Cinemas","brand:wikidata":"Q43898773","name":"Reading Cinemas"}},"amenity/college/saeinstitute-7a11fb":{"name":"SAE Institute","locationSet":{"include":["ae","at","au","be","ca","ch","de","es","fr","gb","gr","id","it","jo","mx","nl","nz","rs","us","za"]},"geometry":["area","point"],"matchScore":2,"terms":["sae institute"],"fields":["name","brand","{amenity/college}"],"tags":{"amenity":"college","brand:wikidata":"Q201438"},"addTags":{"amenity":"college","brand":"SAE Institute","brand:wikidata":"Q201438","name":"SAE Institute"}},"amenity/fast_food/burger/burgerfuel-ba88db":{"name":"BurgerFuel","locationSet":{"include":["ae","iq","nz","sa","us"]},"geometry":["point","area"],"matchScore":2,"terms":["burgerfuel"],"reference":{"key":"cuisine","value":"burger"},"tags":{"amenity":"fast_food","brand:wikidata":"Q4998537","cuisine":"burger"},"addTags":{"amenity":"fast_food","brand":"BurgerFuel","brand:wikidata":"Q4998537","cuisine":"burger","name":"BurgerFuel","takeaway":"yes"}},"amenity/fast_food/chicken/dixychicken-d5291b":{"name":"Dixy Chicken","locationSet":{"include":["bn","gb","in","no","nz","pk","sa","sy","us"]},"geometry":["point","area"],"matchScore":2,"terms":["dixy chicken"],"reference":{"key":"cuisine","value":"chicken"},"tags":{"amenity":"fast_food","brand:wikidata":"Q5285003","cuisine":"chicken"},"addTags":{"amenity":"fast_food","brand":"Dixy Chicken","brand:wikidata":"Q5285003","cuisine":"chicken","diet:halal":"yes","name":"Dixy Chicken","takeaway":"yes"}},"amenity/fast_food/pizza/hell-6fb486":{"name":"Hell Pizza","locationSet":{"include":["ca","gb","ie","in","kr","nz"]},"geometry":["point","area"],"matchScore":2,"terms":["hell pizza"],"reference":{"key":"cuisine","value":"pizza"},"tags":{"amenity":"fast_food","brand:wikidata":"Q1602607","cuisine":"pizza"},"addTags":{"amenity":"fast_food","brand":"Hell Pizza","brand:wikidata":"Q1602607","cuisine":"pizza","name":"Hell","takeaway":"yes"}},"amenity/fast_food/burger/lordofthefries-183b7d":{"name":"Lord of the Fries","locationSet":{"include":["au","nz"]},"geometry":["point","area"],"matchScore":2,"terms":["lord of the fries"],"reference":{"key":"cuisine","value":"burger"},"tags":{"amenity":"fast_food","brand:wikidata":"Q104088629","cuisine":"burger"},"addTags":{"amenity":"fast_food","brand":"Lord of the Fries","brand:wikidata":"Q104088629","cuisine":"burger","diet:vegan":"only","name":"Lord of the Fries","takeaway":"yes"}},"amenity/fast_food/noodlecanteen-3a7e06":{"name":"Noodle Canteen","locationSet":{"include":["nz"]},"geometry":["point","area"],"matchScore":2,"terms":["noodle canteen"],"tags":{"amenity":"fast_food","brand:wikidata":"Q115565791"},"addTags":{"amenity":"fast_food","brand":"Noodle Canteen","brand:wikidata":"Q115565791","cuisine":"noodle","name":"Noodle Canteen","takeaway":"yes"}},"amenity/fast_food/pizza/salspizza-3a7e06":{"name":"Sal's Pizza","locationSet":{"include":["nz"]},"geometry":["point","area"],"matchScore":2,"terms":["sal's ny pizza","sal's pizza"],"fields":["name","brand","{amenity/fast_food/pizza}"],"reference":{"key":"cuisine","value":"pizza"},"tags":{"amenity":"fast_food","brand:wikidata":"Q115566078","cuisine":"pizza"},"addTags":{"amenity":"fast_food","brand":"Sal's Pizza","brand:wikidata":"Q115566078","cuisine":"pizza","name":"Sal's Pizza","takeaway":"yes"}},"amenity/fast_food/sumosalad-474d0a":{"name":"Sumo Salad","locationSet":{"include":["ae","au","br","nz","sg","us"]},"geometry":["point","area"],"matchScore":2,"terms":["sumo salad"],"tags":{"amenity":"fast_food","brand:wikidata":"Q16951700"},"addTags":{"amenity":"fast_food","brand":"Sumo Salad","brand:wikidata":"Q16951700","cuisine":"salad","name":"Sumo Salad","takeaway":"yes"}},"amenity/fast_food/burger/wahlburgers-6f47da":{"name":"Wahlburgers","locationSet":{"include":["au","ca","de","nz","us"]},"geometry":["point","area"],"matchScore":2,"terms":["wahlburgers"],"reference":{"key":"cuisine","value":"burger"},"tags":{"amenity":"fast_food","brand:wikidata":"Q17032457","cuisine":"burger"},"addTags":{"amenity":"fast_food","brand":"Wahlburgers","brand:wikidata":"Q17032457","cuisine":"burger","name":"Wahlburgers","takeaway":"yes"}},"amenity/fast_food/mexican/zambrero-ee9f0e":{"name":"Zambrero","locationSet":{"include":["au","ie","nz","us"]},"geometry":["point","area"],"matchScore":2,"terms":["zambrero"],"reference":{"key":"cuisine","value":"mexican"},"tags":{"amenity":"fast_food","brand:wikidata":"Q18636431","cuisine":"mexican"},"addTags":{"amenity":"fast_food","brand":"Zambrero","brand:wikidata":"Q18636431","cuisine":"mexican","name":"Zambrero","takeaway":"yes"}},"amenity/fuel/alliedpetroleum-088dbb":{"name":"Allied Petroleum","locationSet":{"include":["nz"]},"geometry":["point","area"],"matchScore":2,"terms":["allied","allied petroleum"],"fields":["name","brand","{amenity/fuel}"],"tags":{"amenity":"fuel","brand:wikidata":"Q112543637"},"addTags":{"amenity":"fuel","brand":"Allied Petroleum","brand:wikidata":"Q112543637","name":"Allied Petroleum"}},"amenity/fuel/caltex-a02c05":{"name":"Caltex","locationSet":{"include":["ae","au","eg","hk","id","kh","kr","lk","my","nz","ph","pk","sa","sg","th","vn","za"]},"geometry":["point","area"],"matchScore":2,"terms":["caltex"],"fields":["name","brand","{amenity/fuel}"],"tags":{"amenity":"fuel","brand:wikidata":"Q277470"},"addTags":{"amenity":"fuel","brand":"Caltex","brand:wikidata":"Q277470","name":"Caltex"}},"amenity/fuel/challenge-088dbb":{"name":"Challenge","locationSet":{"include":["nz"]},"geometry":["point","area"],"matchScore":2,"terms":["challenge"],"fields":["name","brand","{amenity/fuel}"],"tags":{"amenity":"fuel","brand:wikidata":"Q5068888"},"addTags":{"amenity":"fuel","brand":"Challenge","brand:wikidata":"Q5068888","name":"Challenge"}},"amenity/fuel/costcogasoline-fa9ed8":{"name":"Costco Gasoline","locationSet":{"include":["au","ca","es","gb","is","jp","mx","nz","us"]},"geometry":["point","area"],"matchScore":2,"terms":["costco","costco gas","costco gasoline","costco wholesale"],"fields":["name","brand","{amenity/fuel}"],"tags":{"amenity":"fuel","brand:wikidata":"Q715583"},"addTags":{"amenity":"fuel","brand":"Costco Gasoline","brand:wikidata":"Q715583","name":"Costco Gasoline"}},"amenity/fuel/gas-088dbb":{"name":"G.A.S.","locationSet":{"include":["nz"]},"geometry":["point","area"],"matchScore":2,"terms":["g.a.s.","gasoline alley services"],"fields":["name","brand","{amenity/fuel}"],"tags":{"amenity":"fuel","brand:wikidata":"Q112189761"},"addTags":{"amenity":"fuel","brand":"G.A.S.","brand:wikidata":"Q112189761","name":"G.A.S."}},"amenity/fuel/gull-088dbb":{"name":"Gull (New Zealand)","locationSet":{"include":["nz"]},"geometry":["point","area"],"matchScore":2,"terms":["gull"],"fields":["name","brand","{amenity/fuel}"],"tags":{"amenity":"fuel","brand:wikidata":"Q111949119"},"addTags":{"amenity":"fuel","brand":"Gull","brand:wikidata":"Q111949119","name":"Gull"}},"amenity/fuel/mckeowncardfuel247-088dbb":{"name":"McKeown","locationSet":{"include":["nz"]},"geometry":["point","area"],"matchScore":2,"terms":["mckeown"],"fields":["name","brand","{amenity/fuel}"],"tags":{"amenity":"fuel","brand:wikidata":"Q108897907"},"addTags":{"amenity":"fuel","brand":"McKeown","brand:wikidata":"Q108897907","name":"McKeown CardFuel 24/7"}},"amenity/fuel/npd-088dbb":{"name":"npd","locationSet":{"include":["nz"]},"geometry":["point","area"],"matchScore":2,"terms":["npd"],"fields":["name","brand","{amenity/fuel}"],"tags":{"amenity":"fuel","brand:wikidata":"Q110922616"},"addTags":{"amenity":"fuel","brand":"npd","brand:wikidata":"Q110922616","name":"npd"}},"amenity/fuel/paknsavefuel-088dbb":{"name":"PAK'nSAVE Fuel","locationSet":{"include":["nz"]},"geometry":["point","area"],"matchScore":2,"terms":["pak'nsave fuel"],"fields":["name","brand","{amenity/fuel}"],"tags":{"amenity":"fuel","brand:wikidata":"Q115215489"},"addTags":{"amenity":"fuel","brand":"PAK'nSAVE Fuel","brand:wikidata":"Q115215489","name":"PAK'nSAVE Fuel"}},"amenity/fuel/rdpetroleum-088dbb":{"name":"RD Petroleum","locationSet":{"include":["nz"]},"geometry":["point","area"],"matchScore":2,"terms":["bp","rd","rd petroleum","rdp"],"fields":["name","brand","{amenity/fuel}"],"tags":{"amenity":"fuel","brand:wikidata":"Q115565889"},"addTags":{"amenity":"fuel","brand":"RD Petroleum","brand:wikidata":"Q115565889","name":"RD Petroleum","operator":"BP","operator:wikidata":"Q152057"}},"amenity/fuel/waitomo-088dbb":{"name":"Waitomo","locationSet":{"include":["nz"]},"geometry":["point","area"],"matchScore":2,"terms":["waitomo"],"fields":["name","brand","{amenity/fuel}"],"tags":{"amenity":"fuel","brand:wikidata":"Q112569504"},"addTags":{"amenity":"fuel","brand":"Waitomo","brand:wikidata":"Q112569504","name":"Waitomo"}},"amenity/fuel/z-088dbb":{"name":"Z","locationSet":{"include":["nz"]},"geometry":["point","area"],"matchScore":2,"terms":["z","z energy"],"fields":["name","brand","{amenity/fuel}"],"tags":{"amenity":"fuel","brand:wikidata":"Q8063337"},"addTags":{"amenity":"fuel","brand":"Z","brand:wikidata":"Q8063337","name":"Z"}},"amenity/kindergarten/aucklandkindergartenassociation-e215a2":{"name":"Auckland Kindergarten Association","locationSet":{"include":["nz"]},"geometry":["area","point"],"matchScore":2,"terms":["auckland kindergarten association"],"fields":["name","brand","{amenity/kindergarten}"],"tags":{"amenity":"kindergarten","brand:wikidata":"Q116824744"},"addTags":{"amenity":"kindergarten","brand":"Auckland Kindergarten Association","brand:wikidata":"Q116824744"}},"amenity/kindergarten/beststarteducare-06f88c":{"name":"BestStart Educare","locationSet":{"include":["nz"]},"geometry":["area","point"],"matchScore":2,"terms":["beststart educare"],"fields":["name","brand","{amenity/kindergarten}"],"tags":{"amenity":"kindergarten","brand:wikidata":"Q115565848"},"addTags":{"amenity":"kindergarten","brand":"BestStart Educare","brand:wikidata":"Q115565848","name":"BestStart Educare"}},"amenity/kindergarten/kidsfirst-06f88c":{"name":"Kidsfirst","locationSet":{"include":["nz"]},"geometry":["area","point"],"matchScore":2,"terms":["kidsfirst kindergartens"],"fields":["name","brand","{amenity/kindergarten}"],"tags":{"amenity":"kindergarten","brand:wikidata":"Q111022330"},"addTags":{"amenity":"kindergarten","brand":"Kidsfirst Kindergartens","brand:wikidata":"Q111022330","name":"Kidsfirst"}},"amenity/kindergarten/kindercare-06f88c":{"name":"Kindercare (New Zealand)","locationSet":{"include":["nz"]},"geometry":["area","point"],"matchScore":2,"terms":["kindercare"],"fields":["name","brand","{amenity/kindergarten}"],"tags":{"amenity":"kindergarten","brand:wikidata":"Q111023246"},"addTags":{"amenity":"kindergarten","brand":"Kindercare","brand:wikidata":"Q111023246","name":"Kindercare"}},"amenity/kindergarten/lollipopseducare-06f88c":{"name":"Lollipops Educare","locationSet":{"include":["nz"]},"geometry":["area","point"],"matchScore":2,"terms":["lollipops educare"],"fields":["name","brand","{amenity/kindergarten}"],"tags":{"amenity":"kindergarten","brand:wikidata":"Q116824919"},"addTags":{"amenity":"kindergarten","brand":"Lollipops Educare","brand:wikidata":"Q116824919"}},"amenity/pharmacy/bargainchemist-8496bc":{"name":"Bargain Chemist","locationSet":{"include":["nz"]},"geometry":["point","area"],"matchScore":2,"terms":["bargain chemist"],"reference":{"key":"amenity","value":"pharmacy"},"tags":{"amenity":"pharmacy","brand:wikidata":"Q111017590"},"addTags":{"amenity":"pharmacy","brand":"Bargain Chemist","brand:wikidata":"Q111017590","healthcare":"pharmacy","name":"Bargain Chemist"}},"amenity/pharmacy/chemistwarehouse-382a5b":{"name":"Chemist Warehouse","locationSet":{"include":["au","nz"]},"geometry":["point","area"],"matchScore":2,"terms":["chemist warehouse"],"reference":{"key":"amenity","value":"pharmacy"},"tags":{"amenity":"pharmacy","brand:wikidata":"Q48782120"},"addTags":{"amenity":"pharmacy","brand":"Chemist Warehouse","brand:wikidata":"Q48782120","healthcare":"pharmacy","name":"Chemist Warehouse"}},"amenity/pharmacy/lifepharmacy-8496bc":{"name":"Life Pharmacy","locationSet":{"include":["nz"]},"geometry":["point","area"],"matchScore":2,"terms":["life pharmacy"],"reference":{"key":"amenity","value":"pharmacy"},"tags":{"amenity":"pharmacy","brand:wikidata":"Q7180825"},"addTags":{"amenity":"pharmacy","brand":"Life Pharmacy","brand:wikidata":"Q7180825","healthcare":"pharmacy","name":"Life Pharmacy"}},"amenity/pharmacy/unichem-8496bc":{"name":"Unichem (New Zealand)","locationSet":{"include":["nz"]},"geometry":["point","area"],"matchScore":2,"terms":["unichem","unichem pharmacy"],"reference":{"key":"amenity","value":"pharmacy"},"tags":{"amenity":"pharmacy","brand:wikidata":"Q7884722"},"addTags":{"amenity":"pharmacy","brand":"Unichem","brand:wikidata":"Q7884722","healthcare":"pharmacy","name":"Unichem"}},"amenity/restaurant/japanese/bentobowl-8ced4c":{"name":"Bento Bowl","locationSet":{"include":["nz"]},"geometry":["point","area"],"matchScore":2,"terms":["bento bowl"],"reference":{"key":"cuisine","value":"japanese"},"tags":{"amenity":"restaurant","brand:wikidata":"Q111018588","cuisine":"japanese"},"addTags":{"amenity":"restaurant","brand":"Bento Bowl","brand:wikidata":"Q111018588","cuisine":"japanese","name":"Bento Bowl"}},"amenity/restaurant/ramen/ippudo-b715b9":{"name":"Ippudo","locationSet":{"include":["au","fx","gb","id","mm","my","nz","ph","sg","us","vn"]},"geometry":["point","area"],"matchScore":2,"terms":["ippudo","一風堂"],"reference":{"key":"cuisine","value":"ramen"},"tags":{"amenity":"restaurant","brand:wikidata":"Q6065417","cuisine":"ramen"},"addTags":{"amenity":"restaurant","brand":"Ippudo","brand:en":"Ippudo","brand:ja":"一風堂","brand:wikidata":"Q6065417","cuisine":"ramen","name":"Ippudo","name:en":"Ippudo","name:ja":"一風堂"}},"amenity/restaurant/italian/laporchetta-bb079b":{"name":"La Porchetta","locationSet":{"include":["au","nz"]},"geometry":["point","area"],"matchScore":2,"terms":["la porchetta"],"reference":{"key":"cuisine","value":"italian"},"tags":{"amenity":"restaurant","brand:wikidata":"Q6464528","cuisine":"italian;pizza;pasta"},"addTags":{"amenity":"restaurant","brand":"La Porchetta","brand:wikidata":"Q6464528","cuisine":"italian;pizza;pasta","name":"La Porchetta"}},"amenity/restaurant/mexican/madmexfreshmexicangrill-bb079b":{"name":"Mad Mex Fresh Mexican","locationSet":{"include":["au","nz"]},"geometry":["point","area"],"matchScore":2,"terms":["mad mex fresh mexican grill"],"reference":{"key":"cuisine","value":"mexican"},"tags":{"amenity":"restaurant","brand:wikidata":"Q19589766","cuisine":"mexican"},"addTags":{"amenity":"restaurant","brand":"Mad Mex Fresh Mexican Grill","brand:wikidata":"Q19589766","cuisine":"mexican","name":"Mad Mex Fresh Mexican Grill"}},"amenity/restaurant/meetfresh-44e003":{"name":"Meet Fresh","locationSet":{"include":["au","ca","nz","us"]},"geometry":["point","area"],"matchScore":2,"terms":["meet fresh"],"tags":{"amenity":"restaurant","brand:wikidata":"Q11172707"},"addTags":{"amenity":"restaurant","brand":"Meet Fresh","brand:wikidata":"Q11172707","cuisine":"taiwanese","name":"Meet Fresh"}},"amenity/restaurant/nandos-32ebee":{"name":"Nando's","locationSet":{"include":["ae","au","bd","bh","bw","ca","fj","gb","ie","in","mu","my","nz","om","pk","qa","sa","sg","sz","us","za","zm","zw"]},"geometry":["point","area"],"matchScore":2,"terms":["nando's"],"tags":{"amenity":"restaurant","brand:wikidata":"Q3472954"},"addTags":{"amenity":"restaurant","brand":"Nando's","brand:wikidata":"Q3472954","cuisine":"chicken;portuguese","name":"Nando's"}},"amenity/restaurant/sushi/stpierressushi-8ced4c":{"name":"St Pierre's Sushi","locationSet":{"include":["nz"]},"geometry":["point","area"],"matchScore":2,"terms":["st pierre's sushi"],"reference":{"key":"cuisine","value":"sushi"},"tags":{"amenity":"restaurant","brand:wikidata":"Q111018464","cuisine":"sushi"},"addTags":{"amenity":"restaurant","brand":"St Pierre's Sushi","brand:wikidata":"Q111018464","cuisine":"sushi","name":"St Pierre's Sushi"}},"amenity/restaurant/chinese/zhangliangspicyhotpot-789436":{"name":"张亮麻辣烫","locationSet":{"include":["au","cn","gb","jp","nz","sg","us"]},"geometry":["point","area"],"matchScore":2,"terms":["zhangliang spicy hot pot","张亮麻辣烫"],"reference":{"key":"cuisine","value":"chinese"},"tags":{"amenity":"restaurant","brand:wikidata":"Q108210279","cuisine":"chinese;malatang"},"addTags":{"amenity":"restaurant","brand":"张亮麻辣烫","brand:en":"Zhangliang Spicy Hot Pot","brand:wikidata":"Q108210279","brand:zh":"张亮麻辣烫","cuisine":"chinese;malatang","name":"张亮麻辣烫","name:en":"Zhangliang Spicy Hot Pot","name:zh":"张亮麻辣烫"}},"amenity/vehicle_inspection/vtnz-31002f":{"name":"VTNZ","locationSet":{"include":["nz"]},"geometry":["point","area"],"matchScore":2,"terms":["vtnz"],"tags":{"amenity":"vehicle_inspection","brand:wikidata":"Q7907620"},"addTags":{"amenity":"vehicle_inspection","brand":"VTNZ","brand:wikidata":"Q7907620","name":"VTNZ"}},"amenity/veterinary/animatesvetcare-023837":{"name":"Animates Vetcare","locationSet":{"include":["nz"]},"geometry":["point","area"],"matchScore":2,"terms":["animates"],"fields":["name","brand","{amenity/veterinary}"],"tags":{"amenity":"veterinary","brand:wikidata":"Q110299350"},"addTags":{"amenity":"veterinary","brand":"Animates","brand:wikidata":"Q110299350","name":"Animates Vetcare"}},"healthcare/counselling/jennycraig-364e20":{"name":"Jenny Craig","locationSet":{"include":["au","ca","nz","us"]},"geometry":["point","area"],"matchScore":2,"terms":["jenny craig"],"tags":{"brand:wikidata":"Q6179221","healthcare":"counselling"},"addTags":{"brand":"Jenny Craig","brand:wikidata":"Q6179221","healthcare":"counselling","healthcare:counselling":"dietitian","healthcare:speciality":"weight_loss","name":"Jenny Craig"}},"healthcare/sample_collection/labtests-04a251":{"name":"Labtests","locationSet":{"include":["nz"]},"geometry":["point","area"],"matchScore":2,"terms":["labtests"],"tags":{"brand:wikidata":"Q113312315","healthcare":"sample_collection"},"addTags":{"brand":"Labtests","brand:wikidata":"Q113312315","healthcare":"sample_collection","name":"Labtests"}},"leisure/amusement_arcade/timezone-bbc11e":{"name":"Timezone","locationSet":{"include":["au","id","in","nz","ph","sg","vn"]},"geometry":["point","area"],"matchScore":2,"terms":["timezone"],"tags":{"brand:wikidata":"Q12521502","leisure":"amusement_arcade"},"addTags":{"brand":"Timezone","brand:wikidata":"Q12521502","leisure":"amusement_arcade","name":"Timezone"}},"leisure/fitness_centre/cityfitness-745622":{"name":"CityFitness","locationSet":{"include":["nz"]},"geometry":["point","area"],"matchScore":2,"terms":["cityfitness"],"tags":{"brand:wikidata":"Q110923303","leisure":"fitness_centre"},"addTags":{"brand":"CityFitness","brand:wikidata":"Q110923303","leisure":"fitness_centre","name":"CityFitness"}},"leisure/fitness_centre/f45training-e76881":{"name":"F45 Training","locationSet":{"include":["au","ca","gb","nz","us"]},"geometry":["point","area"],"matchScore":2,"terms":["f45","f45 training"],"tags":{"brand:wikidata":"Q64390973","leisure":"fitness_centre"},"addTags":{"brand":"F45 Training","brand:wikidata":"Q64390973","leisure":"fitness_centre","name":"F45 Training","short_name":"F45"}},"leisure/fitness_centre/jettsfitness-8f2b5b":{"name":"Jetts Fitness","locationSet":{"include":["au","gb","nl","nz","th"]},"geometry":["point","area"],"matchScore":2,"terms":["jetts","jetts fitness"],"tags":{"brand:wikidata":"Q24185346","leisure":"fitness_centre"},"addTags":{"brand":"Jetts Fitness","brand:wikidata":"Q24185346","leisure":"fitness_centre","name":"Jetts Fitness","short_name":"Jetts"}},"leisure/fitness_centre/plusfitness-737f81":{"name":"Plus Fitness","locationSet":{"include":["au","in","nz"]},"geometry":["point","area"],"matchScore":2,"terms":["plus fitness"],"tags":{"brand:wikidata":"Q118315364","leisure":"fitness_centre"},"addTags":{"brand":"Plus Fitness","brand:wikidata":"Q118315364","leisure":"fitness_centre","name":"Plus Fitness"}},"leisure/fitness_centre/snapfitness-551086":{"name":"Snap Fitness","locationSet":{"include":["ae","au","be","ca","es","gb","hk","id","ie","jp","mx","nl","nz","ph","tr","tw","us"]},"geometry":["point","area"],"matchScore":2,"terms":["snap fitness"],"tags":{"brand:wikidata":"Q7547254","leisure":"fitness_centre"},"addTags":{"brand":"Snap Fitness","brand:wikidata":"Q7547254","leisure":"fitness_centre","name":"Snap Fitness"}},"leisure/miniature_golf/holeymoley-936f06":{"name":"Holey Moley","locationSet":{"include":["au","nz","sg"]},"geometry":["area","point"],"matchScore":2,"terms":["holey moley"],"tags":{"brand:wikidata":"Q85766991","leisure":"miniature_golf"},"addTags":{"bar":"yes","brand":"Holey Moley","brand:wikidata":"Q85766991","food":"yes","leisure":"miniature_golf","name":"Holey Moley","sport":"miniature_golf"}},"leisure/playground/biba-d25aa3":{"name":"Biba Smart Playground","locationSet":{"include":["au","ca","de","gb","hr","il","mx","nz","sg","us"]},"geometry":["area","point"],"matchScore":2,"terms":["biba"],"tags":{"brand:wikidata":"Q116211938","leisure":"playground"},"addTags":{"brand":"Biba","brand:wikidata":"Q116211938","leisure":"playground"}},"leisure/playground/lollipopsplayland-a3623b":{"name":"Lollipops Playland","locationSet":{"include":["au","id","nz"]},"geometry":["area","point"],"matchScore":2,"terms":["lollipops playland"],"tags":{"brand:wikidata":"Q116825053","leisure":"playground"},"addTags":{"access":"customers","brand":"Lollipops Playland","brand:wikidata":"Q116825053","leisure":"playground","name":"Lollipops Playland"}},"man_made/charge_point/bppulse-ba9ece":{"name":"BP Pulse","locationSet":{"include":["au","gb","nz"]},"geometry":["point"],"matchScore":2,"terms":["bp chargemaster","bp pulse","chargemaster"],"fields":["name","brand","{man_made/charge_point}"],"tags":{"brand:wikidata":"Q39057719","man_made":"charge_point"},"addTags":{"brand":"BP Pulse","brand:wikidata":"Q39057719","man_made":"charge_point","operator":"BP Pulse","operator:wikidata":"Q39057719"}},"man_made/charge_point/openloop-c04700":{"name":"OpenLoop","locationSet":{"include":["nz"]},"geometry":["point"],"matchScore":2,"terms":["openloop"],"fields":["name","brand","{man_made/charge_point}"],"tags":{"brand:wikidata":"Q113289213","man_made":"charge_point"},"addTags":{"brand":"OpenLoop","brand:wikidata":"Q113289213","man_made":"charge_point","network":"OpenLoop","network:wikidata":"Q113289213"}},"man_made/charge_point/zero-c04700":{"name":"Zero","locationSet":{"include":["nz"]},"geometry":["point"],"matchScore":2,"terms":["meridian","meridian energy","zero"],"fields":["name","brand","{man_made/charge_point}"],"tags":{"brand:wikidata":"Q115065783","man_made":"charge_point"},"addTags":{"brand":"Zero","brand:wikidata":"Q115065783","man_made":"charge_point","operator":"Meridian Energy","operator:wikidata":"Q6819305"}},"office/employment_agency/expressemploymentprofessionals-867cf6":{"name":"Express Employment Professionals","locationSet":{"include":["au","ca","nz","us","za"]},"geometry":["point","area"],"matchScore":2,"terms":["express employment","express employment professionals"],"tags":{"brand:wikidata":"Q117351404","office":"employment_agency"},"addTags":{"brand":"Express Employment Professionals","brand:wikidata":"Q117351404","name":"Express Employment Professionals","office":"employment_agency"}},"office/employment_agency/randstad-f7dc26":{"name":"Randstad","locationSet":{"include":["ad","at","au","be","ca","ch","cn","cz","de","dk","es","fr","gb","gr","hk","hu","ie","in","it","jp","lu","mc","mx","my","nl","no","nz","pl","pt","ro","se","sg","sy","tk","us"]},"geometry":["point","area"],"matchScore":2,"terms":["randstad"],"tags":{"brand:wikidata":"Q267840","office":"employment_agency"},"addTags":{"brand":"Randstad","brand:wikidata":"Q267840","name":"Randstad","office":"employment_agency"}},"office/estate_agent/barfootandthompson-8dbc65":{"name":"Barfoot & Thompson","locationSet":{"include":["nz"]},"geometry":["point","area"],"matchScore":2,"terms":["barfoot & thompson"],"fields":["name","brand","{office/estate_agent}"],"tags":{"brand:wikidata":"Q4860509","office":"estate_agent"},"addTags":{"brand":"Barfoot & Thompson","brand:wikidata":"Q4860509","name":"Barfoot & Thompson","office":"estate_agent"}},"office/estate_agent/bayleys-d3667a":{"name":"Bayleys","locationSet":{"include":["fj","nz"]},"geometry":["point","area"],"matchScore":2,"terms":["bayleys"],"fields":["name","brand","{office/estate_agent}"],"tags":{"brand:wikidata":"Q112189592","office":"estate_agent"},"addTags":{"brand":"Bayleys","brand:wikidata":"Q112189592","name":"Bayleys","office":"estate_agent"}},"office/estate_agent/firstnationalrealestate-54d29c":{"name":"First National Real Estate","locationSet":{"include":["au","nc","nz","vu"]},"geometry":["point","area"],"matchScore":2,"terms":["first national real estate"],"tags":{"brand:wikidata":"Q122888198","office":"estate_agent"},"addTags":{"brand":"First National Real Estate","brand:wikidata":"Q122888198","name":"First National Real Estate","office":"estate_agent"}},"office/estate_agent/raywhite-85c03d":{"name":"Ray White","locationSet":{"include":["au","nz"]},"geometry":["point","area"],"matchScore":2,"terms":["ray white"],"tags":{"brand:wikidata":"Q81077729","office":"estate_agent"},"addTags":{"brand":"Ray White","brand:wikidata":"Q81077729","name":"Ray White","office":"estate_agent"}},"office/insurance/allianz-332499":{"name":"Allianz","locationSet":{"include":["ae","ar","at","au","be","bg","bh","bm","bn","br","ca","cg","ch","ci","cm","cn","co","cy","cz","de","dk","ee","eg","es","fi","fr","gb","gf","gg","gh","gp","gr","hk","hr","hu","id","ie","in","is","it","ja","ke","kr","kw","la","li","lk","lt","lu","lv","ma","mg","mx","my","ng","nl","no","nz","om","ph","pk","pl","pt","qa","ro","ru","sa","se","sg","si","sk","sn","th","tr","tw","ua","us","za"]},"geometry":["point","area"],"matchScore":2,"terms":["allianz","allianz versicherung"],"fields":["name","brand","{office/insurance}"],"tags":{"brand:wikidata":"Q487292","office":"insurance"},"addTags":{"brand":"Allianz","brand:wikidata":"Q487292","name":"Allianz","office":"insurance"}},"office/insurance/zurich-2d6c95":{"name":"Zurich","locationSet":{"include":["ae","at","au","be","bh","br","ca","ch","cl","cn","co","de","ec","es","fi","fr","gb","hk","id","ie","it","ja","kw","lb","li","lu","mx","my","nl","no","nz","om","pt","qa","se","sg","sk","tr","us"]},"geometry":["point","area"],"matchScore":2,"terms":["zurich"],"fields":["name","brand","{office/insurance}"],"tags":{"brand:wikidata":"Q230426","office":"insurance"},"addTags":{"brand":"Zurich","brand:wikidata":"Q230426","name":"Zurich","office":"insurance"}},"office/security/allieduniversal-1c6bb9":{"name":"Allied Universal","locationSet":{"include":["au","ca","gb","hn","il","mx","ni","nz","pr","us","vi"]},"geometry":["point","area"],"matchScore":2,"terms":["allied universal"],"tags":{"brand:wikidata":"Q4732537","office":"security"},"addTags":{"brand":"Allied Universal","brand:wikidata":"Q4732537","name":"Allied Universal","office":"security"}},"shop/alcohol/henrys-a2b828":{"name":"Henry's","locationSet":{"include":["nz"]},"geometry":["point","area"],"matchScore":2,"terms":["henry's"],"tags":{"brand:wikidata":"Q111017798","shop":"alcohol"},"addTags":{"brand":"Henry's","brand:wikidata":"Q111017798","name":"Henry's","shop":"alcohol"}},"shop/alcohol/liquorland-a2b828":{"name":"Liquorland (New Zealand)","locationSet":{"include":["nz"]},"geometry":["point","area"],"matchScore":2,"terms":["liquorland"],"tags":{"brand:wikidata":"Q110295342","shop":"alcohol"},"addTags":{"brand":"Liquorland","brand:wikidata":"Q110295342","name":"Liquorland","shop":"alcohol"}},"shop/alcohol/superliquor-a2b828":{"name":"Super Liquor","locationSet":{"include":["nz"]},"geometry":["point","area"],"matchScore":2,"terms":["super liquor"],"tags":{"brand:wikidata":"Q112038718","shop":"alcohol"},"addTags":{"brand":"Super Liquor","brand:wikidata":"Q112038718","name":"Super Liquor","shop":"alcohol"}},"shop/alcohol/thebottleo-a2b828":{"name":"The Bottle-O","locationSet":{"include":["nz"]},"geometry":["point","area"],"matchScore":2,"terms":["the bottle-o"],"tags":{"brand:wikidata":"Q111015122","shop":"alcohol"},"addTags":{"brand":"The Bottle-O","brand:wikidata":"Q111015122","name":"The Bottle-O","shop":"alcohol"}},"shop/baby_goods/babybunting-124709":{"name":"Baby Bunting","locationSet":{"include":["au","nz"]},"geometry":["point","area"],"matchScore":2,"terms":["baby bunting"],"tags":{"brand:wikidata":"Q109626935","shop":"baby_goods"},"addTags":{"brand":"Baby Bunting","brand:wikidata":"Q109626935","name":"Baby Bunting","shop":"baby_goods"}},"shop/baby_goods/thebabyfactory-42c98b":{"name":"The Baby Factory","locationSet":{"include":["nz"]},"geometry":["point","area"],"matchScore":2,"terms":["baby factory","the baby factory"],"tags":{"brand:wikidata":"Q110298660","shop":"baby_goods"},"addTags":{"brand":"The Baby Factory","brand:wikidata":"Q110298660","name":"The Baby Factory","shop":"baby_goods"}},"shop/bag/strandbags-e9e78d":{"name":"Strandbags","locationSet":{"include":["au","nz"]},"geometry":["point","area"],"matchScore":2,"terms":["strandbags"],"tags":{"brand:wikidata":"Q111946652","shop":"bag"},"addTags":{"brand":"Strandbags","brand:wikidata":"Q111946652","name":"Strandbags","shop":"bag"}},"shop/bakery/bakersdelight-3465b3":{"name":"Bakers Delight","locationSet":{"include":["au","ca","nz","us"]},"geometry":["point","area"],"matchScore":2,"terms":["bakers delight"],"tags":{"brand:wikidata":"Q4849261","shop":"bakery"},"addTags":{"brand":"Bakers Delight","brand:wikidata":"Q4849261","name":"Bakers Delight","shop":"bakery"}},"shop/bakery/couplands-80e21a":{"name":"Coupland's","locationSet":{"include":["nz"]},"geometry":["point","area"],"matchScore":2,"terms":["coupland's","coupland's bakeries"],"tags":{"brand:wikidata":"Q107297544","shop":"bakery"},"addTags":{"brand":"Coupland's","brand:wikidata":"Q107297544","name":"Coupland's","official_name":"Coupland's Bakeries","shop":"bakery"}},"shop/bakery/hollywoodbakery-80e21a":{"name":"Hollywood Bakery","locationSet":{"include":["nz"]},"geometry":["point","area"],"matchScore":2,"terms":["hollywood bakery"],"tags":{"brand:wikidata":"Q118464724","shop":"bakery"},"addTags":{"brand":"Hollywood Bakery","brand:wikidata":"Q118464724","name":"Hollywood Bakery","shop":"bakery"}},"shop/bakery/thecheesecakeshop-4d3be5":{"name":"The Cheesecake Shop","locationSet":{"include":["au","nz"]},"geometry":["point","area"],"matchScore":2,"terms":["the cheesecake shop"],"tags":{"brand:wikidata":"Q117717103","shop":"bakery"},"addTags":{"brand":"The Cheesecake Shop","brand:wikidata":"Q117717103","name":"The Cheesecake Shop","shop":"bakery"}},"shop/bed/bedsrus-a769d8":{"name":"BedsRus","locationSet":{"include":["nz"]},"geometry":["point","area"],"matchScore":2,"terms":["bedsrus"],"tags":{"brand:wikidata":"Q111018938","shop":"bed"},"addTags":{"brand":"BedsRus","brand:wikidata":"Q111018938","name":"BedsRus","shop":"bed"}},"shop/bicycle/99bikes-0d00fa":{"name":"99 Bikes","locationSet":{"include":["au","nz"]},"geometry":["point","area"],"matchScore":2,"terms":["99 bikes","bike barn"],"tags":{"brand:wikidata":"Q110288298","shop":"bicycle"},"addTags":{"brand":"99 Bikes","brand:wikidata":"Q110288298","name":"99 Bikes","shop":"bicycle"}},"shop/boat/burnsco-bc4d2d":{"name":"Burnsco","locationSet":{"include":["au","nz"]},"geometry":["point","area"],"matchScore":2,"terms":["burnsco"],"tags":{"brand:wikidata":"Q116825899","shop":"boat"},"addTags":{"brand":"Burnsco","brand:wikidata":"Q116825899","name":"Burnsco","seamark:small_craft_facility:category":"chandler","seamark:type":"small_craft_facility","shop":"boat"}},"shop/bookmaker/tab-c21655":{"name":"TAB (New Zealand)","locationSet":{"include":["nz"]},"geometry":["point","area"],"matchScore":2,"terms":["tab"],"tags":{"brand:wikidata":"Q110288070","shop":"bookmaker"},"addTags":{"brand":"TAB","brand:wikidata":"Q110288070","name":"TAB","shop":"bookmaker"}},"shop/books/paperplus-fe66a8":{"name":"Paper Plus","locationSet":{"include":["nz"]},"geometry":["point","area"],"matchScore":2,"terms":["paper plus"],"tags":{"brand:wikidata":"Q110437236","shop":"books"},"addTags":{"brand":"Paper Plus","brand:wikidata":"Q110437236","name":"Paper Plus","shop":"books"}},"shop/books/whitcoulls-fe66a8":{"name":"Whitcoulls","locationSet":{"include":["nz"]},"geometry":["point","area"],"matchScore":2,"terms":["whitcoulls"],"tags":{"brand:wikidata":"Q7994237","shop":"books"},"addTags":{"brand":"Whitcoulls","brand:wikidata":"Q7994237","name":"Whitcoulls","shop":"books"}},"shop/butcher/madbutcher-79ce66":{"name":"Mad Butcher","locationSet":{"include":["nz"]},"geometry":["point","area"],"matchScore":2,"terms":["mad butcher"],"tags":{"brand:wikidata":"Q111015152","shop":"butcher"},"addTags":{"brand":"Mad Butcher","brand:wikidata":"Q111015152","name":"Mad Butcher","shop":"butcher"}},"shop/car/holden-e02034":{"name":"Holden","locationSet":{"include":["au","nz"]},"geometry":["point","area"],"matchScore":2,"terms":["holden"],"fields":["name","brand","{shop/car}"],"searchable":false,"tags":{"brand:wikidata":"Q29281","shop":"car"},"addTags":{"brand":"Holden","brand:wikidata":"Q29281","name":"Holden","shop":"car"}},"shop/car_parts/repco-ff9108":{"name":"Repco","locationSet":{"include":["au","nz"]},"geometry":["point","area"],"matchScore":2,"terms":["repco"],"tags":{"brand:wikidata":"Q173425","shop":"car_parts"},"addTags":{"brand":"Repco","brand:wikidata":"Q173425","name":"Repco","shop":"car_parts"}},"shop/car_parts/supercheapauto-ff9108":{"name":"Supercheap Auto","locationSet":{"include":["au","nz"]},"geometry":["point","area"],"matchScore":2,"terms":["supercheap auto"],"tags":{"brand:wikidata":"Q7643119","shop":"car_parts"},"addTags":{"brand":"Supercheap Auto","brand:wikidata":"Q7643119","name":"Supercheap Auto","shop":"car_parts"}},"shop/carpet/carpetcourt-41ee08":{"name":"Carpet Court","locationSet":{"include":["au","nz"]},"geometry":["point","area"],"matchScore":2,"terms":["carpet court"],"tags":{"brand:wikidata":"Q117156437","shop":"carpet"},"addTags":{"brand":"Carpet Court","brand:wikidata":"Q117156437","name":"Carpet Court","shop":"carpet"}},"shop/charity/habitatforhumanityrestore-0873d3":{"name":"Habitat for Humanity ReStore","locationSet":{"include":["au","ca","nz","us"]},"geometry":["point","area"],"matchScore":2,"terms":["habitat for humanity restore","habitat restore","restore"],"tags":{"brand:wikidata":"Q108414596","shop":"charity"},"addTags":{"alt_name":"ReStore","brand":"Habitat for Humanity ReStore","brand:wikidata":"Q108414596","name":"Habitat for Humanity ReStore","second_hand":"yes","shop":"charity","short_name":"Habitat ReStore"}},"shop/clothes/ascolour-daf281":{"name":"AS Colour","locationSet":{"include":["au","gb","nz"]},"geometry":["point","area"],"matchScore":2,"terms":["as colour"],"tags":{"brand:wikidata":"Q121646382","shop":"clothes"},"addTags":{"brand":"AS Colour","brand:wikidata":"Q121646382","name":"AS Colour","shop":"clothes"}},"shop/clothes/blueillusion-2bb477":{"name":"Blue Illusion","locationSet":{"include":["au","nz"]},"geometry":["point","area"],"matchScore":2,"terms":["blue illusion"],"tags":{"brand:wikidata":"Q118464703","shop":"clothes"},"addTags":{"brand":"Blue Illusion","brand:wikidata":"Q118464703","clothes":"women","name":"Blue Illusion","shop":"clothes"}},"shop/clothes/bonds-2bb477":{"name":"Bonds","locationSet":{"include":["au","nz"]},"geometry":["point","area"],"matchScore":2,"terms":["bonds"],"tags":{"brand:wikidata":"Q4941440","shop":"clothes"},"addTags":{"brand":"Bonds","brand:wikidata":"Q4941440","name":"Bonds","shop":"clothes"}},"shop/clothes/brasnthings-24a002":{"name":"Bras N Things","locationSet":{"include":["au","nz","sa","us"]},"geometry":["point","area"],"matchScore":2,"terms":["bras n things"],"tags":{"brand:wikidata":"Q120669960","shop":"clothes"},"addTags":{"brand":"Bras N Things","brand:wikidata":"Q120669960","clothes":"women","name":"Bras N Things","shop":"clothes"}},"shop/clothes/citychic-2bb477":{"name":"City Chic","locationSet":{"include":["au","nz"]},"geometry":["point","area"],"matchScore":2,"terms":["city chic"],"tags":{"brand:wikidata":"Q123383442","shop":"clothes"},"addTags":{"brand":"City Chic","brand:wikidata":"Q123383442","name":"City Chic","shop":"clothes"}},"shop/clothes/countryroad-734e5a":{"name":"Country Road","locationSet":{"include":["au","nz","za"]},"geometry":["point","area"],"matchScore":2,"terms":["country road"],"tags":{"brand:wikidata":"Q2998907","shop":"clothes"},"addTags":{"brand":"Country Road","brand:wikidata":"Q2998907","name":"Country Road","shop":"clothes"}},"shop/clothes/dangerfield-2bb477":{"name":"Dangerfield","locationSet":{"include":["au","nz"]},"geometry":["point","area"],"matchScore":2,"terms":["dangerfield"],"tags":{"brand:wikidata":"Q119220880","shop":"clothes"},"addTags":{"brand":"Dangerfield","brand:wikidata":"Q119220880","name":"Dangerfield","shop":"clothes"}},"shop/clothes/forevernew-6961fa":{"name":"Forever New","locationSet":{"include":["au","ca","gb","in","na","nz","za"]},"geometry":["point","area"],"matchScore":2,"terms":["forever new"],"tags":{"brand:wikidata":"Q119221929","shop":"clothes"},"addTags":{"brand":"Forever New","brand:wikidata":"Q119221929","clothes":"women","name":"Forever New","shop":"clothes"}},"shop/clothes/glassons-2bb477":{"name":"Glassons","locationSet":{"include":["au","nz"]},"geometry":["point","area"],"matchScore":2,"terms":["glassons"],"tags":{"brand:wikidata":"Q118384067","shop":"clothes"},"addTags":{"brand":"Glassons","brand:wikidata":"Q118384067","clothes":"women","name":"Glassons","shop":"clothes"}},"shop/clothes/hallensteins-2bb477":{"name":"Hallensteins","locationSet":{"include":["au","nz"]},"geometry":["point","area"],"matchScore":2,"terms":["hallenstein brothers"],"tags":{"brand:wikidata":"Q24189399","shop":"clothes"},"addTags":{"brand":"Hallenstein Brothers","brand:wikidata":"Q24189399","name":"Hallensteins","shop":"clothes"}},"shop/clothes/huffer-2bb477":{"name":"Huffer","locationSet":{"include":["au","nz"]},"geometry":["point","area"],"matchScore":2,"terms":["huffer"],"tags":{"brand:wikidata":"Q107862765","shop":"clothes"},"addTags":{"brand":"Huffer","brand:wikidata":"Q107862765","name":"Huffer","shop":"clothes"}},"shop/clothes/jayjays-2bb477":{"name":"Jay Jays","locationSet":{"include":["au","nz"]},"geometry":["point","area"],"matchScore":2,"terms":["jay jays"],"tags":{"brand:wikidata":"Q6166759","shop":"clothes"},"addTags":{"brand":"Jay Jays","brand:wikidata":"Q6166759","name":"Jay Jays","shop":"clothes"}},"shop/clothes/jeanswest-2bb477":{"name":"Jeanswest","locationSet":{"include":["au","nz"]},"geometry":["point","area"],"matchScore":2,"terms":["jeanswest"],"tags":{"brand:wikidata":"Q6172434","shop":"clothes"},"addTags":{"brand":"Jeanswest","brand:wikidata":"Q6172434","clothes":"denim","name":"Jeanswest","shop":"clothes"}},"shop/clothes/justjeans-2bb477":{"name":"Just Jeans","locationSet":{"include":["au","nz"]},"geometry":["point","area"],"matchScore":2,"terms":["just jeans"],"tags":{"brand:wikidata":"Q6316068","shop":"clothes"},"addTags":{"brand":"Just Jeans","brand:wikidata":"Q6316068","clothes":"denim","name":"Just Jeans","shop":"clothes"}},"shop/clothes/lornajane-2bb477":{"name":"Lorna Jane","locationSet":{"include":["au","nz"]},"geometry":["point","area"],"matchScore":2,"terms":["lorna jane"],"tags":{"brand:wikidata":"Q28857986","shop":"clothes"},"addTags":{"brand":"Lorna Jane","brand:wikidata":"Q28857986","clothes":"women;sports","name":"Lorna Jane","shop":"clothes"}},"shop/clothes/lululemon-211268":{"name":"Lululemon","locationSet":{"include":["au","ca","de","gb","nz","us"]},"geometry":["point","area"],"matchScore":2,"terms":["lululemon","lululemon athletica"],"tags":{"brand:wikidata":"Q6702957","shop":"clothes"},"addTags":{"brand":"Lululemon","brand:wikidata":"Q6702957","clothes":"men;women","name":"Lululemon","official_name":"Lululemon Athletica","shop":"clothes"}},"shop/clothes/portmans-2bb477":{"name":"Portmans","locationSet":{"include":["au","nz"]},"geometry":["point","area"],"matchScore":2,"terms":["portmans"],"tags":{"brand:wikidata":"Q118383252","shop":"clothes"},"addTags":{"brand":"Portmans","brand:wikidata":"Q118383252","clothes":"women","name":"Portmans","shop":"clothes"}},"shop/clothes/postie-f8b7cc":{"name":"Postie","locationSet":{"include":["nz"]},"geometry":["point","area"],"matchScore":2,"terms":["postie"],"tags":{"brand:wikidata":"Q110299434","shop":"clothes"},"addTags":{"brand":"Postie","brand:wikidata":"Q110299434","name":"Postie","shop":"clothes"}},"shop/clothes/ripcurl-e95856":{"name":"Rip Curl","locationSet":{"include":["au","nz","us"]},"geometry":["point","area"],"matchScore":2,"terms":["rip curl"],"tags":{"brand:wikidata":"Q2915254","shop":"clothes"},"addTags":{"brand":"Rip Curl","brand:wikidata":"Q2915254","clothes":"sports","name":"Rip Curl","shop":"clothes"}},"shop/clothes/roddandgunn-5bf61e":{"name":"Rodd & Gunn","locationSet":{"include":["au","ca","fx","gb","nz","us"]},"geometry":["point","area"],"matchScore":2,"terms":["rodd & gunn"],"tags":{"brand:wikidata":"Q85797658","shop":"clothes"},"addTags":{"brand":"Rodd & Gunn","brand:wikidata":"Q85797658","clothes":"men","name":"Rodd & Gunn","shop":"clothes"}},"shop/clothes/seedheritage-2bb477":{"name":"Seed Heritage","locationSet":{"include":["au","nz"]},"geometry":["point","area"],"matchScore":2,"terms":["seed heritage"],"tags":{"brand:wikidata":"Q106014671","shop":"clothes"},"addTags":{"brand":"Seed Heritage","brand:wikidata":"Q106014671","clothes":"women","name":"Seed Heritage","shop":"clothes"}},"shop/computer/pbtech-57fd22":{"name":"PB Tech","locationSet":{"include":["nz"]},"geometry":["point","area"],"matchScore":2,"terms":["pb tech","pb technologies"],"tags":{"brand:wikidata":"Q123600421","shop":"computer"},"addTags":{"brand":"PB Tech","brand:wikidata":"Q123600421","name":"PB Tech","shop":"computer"}},"shop/convenience/bp2go-7a43a8":{"name":"BP 2go","locationSet":{"include":["nz"]},"geometry":["point","area"],"matchScore":2,"terms":["bp","bp 2go"],"tags":{"brand:wikidata":"Q152057","shop":"convenience"},"addTags":{"brand":"BP 2go","brand:wikidata":"Q152057","name":"BP 2go","shop":"convenience"}},"shop/convenience/bpconnect-7a43a8":{"name":"BP Connect","locationSet":{"include":["nz"]},"geometry":["point","area"],"matchScore":2,"terms":["bp","bp connect"],"tags":{"brand:wikidata":"Q152057","shop":"convenience"},"addTags":{"brand":"BP Connect","brand:wikidata":"Q152057","name":"BP Connect","shop":"convenience"}},"shop/convenience/foursquare-7a43a8":{"name":"Four Square","locationSet":{"include":["nz"]},"geometry":["point","area"],"matchScore":2,"terms":["4 square","four square"],"tags":{"brand:wikidata":"Q5475558","shop":"convenience"},"addTags":{"brand":"Four Square","brand:wikidata":"Q5475558","name":"Four Square","shop":"convenience"}},"shop/convenience/metromart-7a43a8":{"name":"MetroMart","locationSet":{"include":["nz"]},"geometry":["point","area"],"matchScore":2,"terms":["metromart"],"tags":{"brand:wikidata":"Q121642943","shop":"convenience"},"addTags":{"brand":"MetroMart","brand:wikidata":"Q121642943","name":"MetroMart","shop":"convenience"}},"shop/convenience/nightnday-7a43a8":{"name":"Night 'n Day","locationSet":{"include":["nz"]},"geometry":["point","area"],"matchScore":2,"terms":["night 'n day"],"tags":{"brand:wikidata":"Q111955183","shop":"convenience"},"addTags":{"brand":"Night 'n Day","brand:wikidata":"Q111955183","name":"Night 'n Day","shop":"convenience"}},"shop/department_store/farmers-98a4a8":{"name":"Farmers","locationSet":{"include":["nz"]},"geometry":["point","area"],"matchScore":2,"terms":["farmers"],"tags":{"brand:wikidata":"Q5435806","shop":"department_store"},"addTags":{"brand":"Farmers","brand:wikidata":"Q5435806","name":"Farmers","shop":"department_store"}},"shop/department_store/harveynorman-b73e73":{"name":"Harvey Norman","locationSet":{"include":["au","gb","ie","nz"]},"geometry":["point","area"],"matchScore":2,"terms":["harvey norman"],"tags":{"brand:wikidata":"Q4040441","shop":"department_store"},"addTags":{"brand":"Harvey Norman","brand:wikidata":"Q4040441","name":"Harvey Norman","shop":"department_store"}},"shop/department_store/kmart-2e4a6e":{"name":"Kmart (Australia/NZ)","locationSet":{"include":["au","nz"]},"geometry":["point","area"],"matchScore":2,"terms":["kmart"],"tags":{"brand:wikidata":"Q6421682","shop":"department_store"},"addTags":{"brand":"Kmart","brand:wikidata":"Q6421682","name":"Kmart","shop":"department_store"}},"shop/department_store/lottedutyfree-8352b8":{"name":"Lotte Duty Free","locationSet":{"include":["au","gu","jp","kr","nz","th","vn"]},"geometry":["point","area"],"matchScore":2,"terms":["lotte duty free","롯데면세점","ロッテ免税"],"tags":{"brand:wikidata":"Q12594196","shop":"department_store"},"addTags":{"brand":"Lotte Duty Free","brand:wikidata":"Q12594196","duty_free":"yes","name":"Lotte Duty Free","name:en":"Lotte Duty Free","name:ja":"ロッテ免税","name:ko":"롯데면세점","shop":"department_store"}},"shop/department_store/smithscity-98a4a8":{"name":"Smiths City","locationSet":{"include":["nz"]},"geometry":["point","area"],"matchScore":2,"terms":["smiths city"],"tags":{"brand:wikidata":"Q104865291","shop":"department_store"},"addTags":{"brand":"Smiths City","brand:wikidata":"Q104865291","name":"Smiths City","shop":"department_store"}},"shop/department_store/thewarehouse-98a4a8":{"name":"The Warehouse","locationSet":{"include":["nz"]},"geometry":["point","area"],"matchScore":2,"terms":["the warehouse"],"tags":{"brand:wikidata":"Q110205200","shop":"department_store"},"addTags":{"brand":"The Warehouse","brand:wikidata":"Q110205200","name":"The Warehouse","shop":"department_store"}},"shop/doityourself/bunningswarehouse-aaac5b":{"name":"Bunnings Warehouse","locationSet":{"include":["au","nz"]},"geometry":["point","area"],"matchScore":2,"terms":["bunnings warehouse"],"tags":{"brand:wikidata":"Q4997829","shop":"doityourself"},"addTags":{"brand":"Bunnings Warehouse","brand:wikidata":"Q4997829","name":"Bunnings Warehouse","shop":"doityourself"}},"shop/doityourself/mitre10-e80948":{"name":"Mitre 10 (New Zealand)","locationSet":{"include":["nz"]},"geometry":["point","area"],"matchScore":2,"terms":["mitre 10"],"tags":{"brand:wikidata":"Q6882394","shop":"doityourself"},"addTags":{"brand":"Mitre 10","brand:wikidata":"Q6882394","name":"Mitre 10","shop":"doityourself"}},"shop/doityourself/mitre10mega-e80948":{"name":"Mitre 10 MEGA","locationSet":{"include":["nz"]},"geometry":["point","area"],"matchScore":2,"terms":["mitre 10"],"tags":{"brand:wikidata":"Q6882394","shop":"doityourself"},"addTags":{"brand":"Mitre 10","brand:wikidata":"Q6882394","name":"Mitre 10 MEGA","shop":"doityourself"}},"shop/doityourself/placemakers-e80948":{"name":"PlaceMakers","locationSet":{"include":["nz"]},"geometry":["point","area"],"matchScore":2,"terms":["placemakers"],"tags":{"brand:wikidata":"Q7200206","shop":"doityourself"},"addTags":{"brand":"PlaceMakers","brand:wikidata":"Q7200206","name":"PlaceMakers","shop":"doityourself"}},"shop/e-cigarette/vapo-1ac9df":{"name":"VAPO","locationSet":{"include":["nz"]},"geometry":["point","area"],"matchScore":2,"terms":["vapo"],"tags":{"brand:wikidata":"Q117236856","shop":"e-cigarette"},"addTags":{"brand":"VAPO","brand:wikidata":"Q117236856","name":"VAPO","shop":"e-cigarette"}},"shop/electrical/rexel-091354":{"name":"Rexel","locationSet":{"include":["at","au","be","ca","ch","cn","de","es","fi","fr","gb","ie","in","it","lu","me","nl","no","nz","pt","se","si","us"]},"geometry":["point","area"],"matchScore":2,"terms":["rexel"],"tags":{"brand:wikidata":"Q962489","shop":"electrical"},"addTags":{"brand":"Rexel","brand:wikidata":"Q962489","name":"Rexel","shop":"electrical"}},"shop/electronics/jaycar-2d5b11":{"name":"Jaycar","locationSet":{"include":["au","nz"]},"geometry":["point","area"],"matchScore":2,"terms":["jaycar"],"tags":{"brand:wikidata":"Q6167713","shop":"electronics"},"addTags":{"brand":"Jaycar","brand:wikidata":"Q6167713","name":"Jaycar","shop":"electronics"}},"shop/electronics/jbhifi-2d5b11":{"name":"JB Hi-Fi","locationSet":{"include":["au","nz"]},"geometry":["point","area"],"matchScore":2,"terms":["jb hi-fi"],"tags":{"brand:wikidata":"Q3310113","shop":"electronics"},"addTags":{"brand":"JB Hi-Fi","brand:wikidata":"Q3310113","name":"JB Hi-Fi","shop":"electronics"}},"shop/electronics/noelleeming-5f4367":{"name":"Noel Leeming","locationSet":{"include":["nz"]},"geometry":["point","area"],"matchScore":2,"terms":["noel leeming"],"tags":{"brand:wikidata":"Q110205329","shop":"electronics"},"addTags":{"brand":"Noel Leeming","brand:wikidata":"Q110205329","name":"Noel Leeming","shop":"electronics"}},"shop/erotic/peachesandcream-a6d61a":{"name":"Peaches & Cream","locationSet":{"include":["nz"]},"geometry":["point","area"],"matchScore":2,"terms":["peaches & cream"],"tags":{"brand:wikidata":"Q110923243","shop":"erotic"},"addTags":{"brand":"Peaches & Cream","brand:wikidata":"Q110923243","name":"Peaches & Cream","shop":"erotic"}},"shop/fabric/lincraft-a43b83":{"name":"Lincraft","locationSet":{"include":["au","nz"]},"geometry":["point","area"],"matchScore":2,"terms":["lincraft"],"tags":{"brand:wikidata":"Q17052417","shop":"fabric"},"addTags":{"brand":"Lincraft","brand:wikidata":"Q17052417","name":"Lincraft","shop":"fabric"}},"shop/fabric/spotlight-0e32f9":{"name":"Spotlight","locationSet":{"include":["au","my","nz","sg"]},"geometry":["point","area"],"matchScore":2,"terms":["spotlight"],"tags":{"brand:wikidata":"Q105960982","shop":"fabric"},"addTags":{"brand":"Spotlight","brand:wikidata":"Q105960982","name":"Spotlight","shop":"fabric"}},"shop/flooring/choicesflooring-42cf07":{"name":"Choices Flooring","locationSet":{"include":["au","nz"]},"geometry":["point","area"],"matchScore":2,"terms":["choices flooring"],"tags":{"brand:wikidata":"Q117155570","shop":"flooring"},"addTags":{"brand":"Choices Flooring","brand:wikidata":"Q117155570","name":"Choices Flooring","shop":"flooring"}},"shop/furniture/bigsavefurniture-ac16b9":{"name":"Big Save Furniture","locationSet":{"include":["nz"]},"geometry":["point","area"],"matchScore":2,"terms":["big save furniture"],"tags":{"brand:wikidata":"Q118464713","shop":"furniture"},"addTags":{"brand":"Big Save Furniture","brand:wikidata":"Q118464713","name":"Big Save Furniture","shop":"furniture"}},"shop/furniture/danskemobler-ac16b9":{"name":"Danske Møbler","locationSet":{"include":["nz"]},"geometry":["point","area"],"matchScore":2,"terms":["danske møbler"],"tags":{"brand:wikidata":"Q118464708","shop":"furniture"},"addTags":{"brand":"Danske Møbler","brand:wikidata":"Q118464708","name":"Danske Møbler","shop":"furniture"}},"shop/furniture/earlysettler-42aa1b":{"name":"Early Settler","locationSet":{"include":["au","nz"]},"geometry":["point","area"],"matchScore":2,"terms":["early settler"],"tags":{"brand:wikidata":"Q111080173","shop":"furniture"},"addTags":{"brand":"Early Settler","brand:wikidata":"Q111080173","name":"Early Settler","shop":"furniture"}},"shop/furniture/lazboy-637554":{"name":"La-Z-Boy","locationSet":{"include":["au","ca","nz","us"]},"geometry":["point","area"],"matchScore":2,"terms":["la-z-boy","la-z-boy furniture gallery","lazy boy"],"tags":{"brand:wikidata":"Q6391583","shop":"furniture"},"addTags":{"brand":"La-Z-Boy","brand:wikidata":"Q6391583","name":"La-Z-Boy","shop":"furniture"}},"shop/garden_centre/palmers-aac937":{"name":"Palmers","locationSet":{"include":["nz"]},"geometry":["point","area"],"matchScore":2,"terms":["palmers gardenworld"],"tags":{"brand:wikidata":"Q7128292","shop":"garden_centre"},"addTags":{"brand":"Palmers Gardenworld","brand:wikidata":"Q7128292","name":"Palmers","shop":"garden_centre"}},"shop/hairdresser/justcuts-f77181":{"name":"Just Cuts","locationSet":{"include":["au","gb","nz","tw"]},"geometry":["point","area"],"matchScore":2,"terms":["just cuts"],"tags":{"brand:wikidata":"Q116784479","shop":"hairdresser"},"addTags":{"brand":"Just Cuts","brand:wikidata":"Q116784479","name":"Just Cuts","shop":"hairdresser"}},"shop/hairdresser/synergyhair-637f75":{"name":"Synergy Hair","locationSet":{"include":["nz"]},"geometry":["point","area"],"matchScore":2,"terms":["synergy hair"],"tags":{"brand:wikidata":"Q121644633","shop":"hairdresser"},"addTags":{"brand":"Synergy Hair","brand:wikidata":"Q121644633","female":"yes","male":"yes","name":"Synergy Hair","shop":"hairdresser"}},"shop/hairdresser_supply/shavershop-b81096":{"name":"Shaver Shop","locationSet":{"include":["au","nz"]},"geometry":["point","area"],"matchScore":2,"terms":["shaver shop"],"tags":{"brand:wikidata":"Q119443589","shop":"hairdresser_supply"},"addTags":{"brand":"Shaver Shop","brand:wikidata":"Q119443589","name":"Shaver Shop","shop":"hairdresser_supply"}},"shop/hardware/carters-10910e":{"name":"Carters","locationSet":{"include":["nz"]},"geometry":["point","area"],"matchScore":2,"terms":["carters"],"tags":{"brand:wikidata":"Q5047174","shop":"hardware"},"addTags":{"brand":"Carters","brand:wikidata":"Q5047174","name":"Carters","shop":"hardware"}},"shop/household_linen/adairs-f571b2":{"name":"Adairs","locationSet":{"include":["au","nz"]},"geometry":["point","area"],"matchScore":2,"terms":["adairs"],"tags":{"brand:wikidata":"Q109626904","shop":"household_linen"},"addTags":{"brand":"Adairs","brand:wikidata":"Q109626904","name":"Adairs","shop":"household_linen"}},"shop/household_linen/adairskids-f571b2":{"name":"Adairs Kids","locationSet":{"include":["au","nz"]},"geometry":["point","area"],"matchScore":2,"terms":["adairs kids"],"tags":{"brand:wikidata":"Q109626904","shop":"household_linen"},"addTags":{"brand":"Adairs Kids","brand:wikidata":"Q109626904","name":"Adairs Kids","shop":"household_linen"}},"shop/houseware/adairs-bc6f54":{"name":"Adairs","locationSet":{"include":["au","nz"]},"geometry":["point","area"],"matchScore":2,"terms":["adairs"],"tags":{"brand:wikidata":"Q109626904","shop":"houseware"},"addTags":{"brand":"Adairs","brand:wikidata":"Q109626904","name":"Adairs","shop":"houseware"}},"shop/houseware/bedbathandbeyond-1d32aa":{"name":"Bed Bath & Beyond (New Zealand)","locationSet":{"include":["nz"]},"geometry":["point","area"],"matchScore":2,"terms":["bed bath & beyond"],"tags":{"brand:wikidata":"Q110295215","shop":"houseware"},"addTags":{"brand":"Bed Bath & Beyond","brand:wikidata":"Q110295215","name":"Bed Bath & Beyond","shop":"houseware"}},"shop/houseware/bedbathntable-299251":{"name":"Bed Bath N' Table","locationSet":{"include":["au","nz","sg"]},"geometry":["point","area"],"matchScore":2,"terms":["bed bath n' table"],"tags":{"brand:wikidata":"Q118551276","shop":"houseware"},"addTags":{"brand":"Bed Bath N' Table","brand:wikidata":"Q118551276","name":"Bed Bath N' Table","shop":"houseware"}},"shop/houseware/briscoes-1d32aa":{"name":"Briscoes","locationSet":{"include":["nz"]},"geometry":["point","area"],"matchScore":2,"terms":["briscoes"],"tags":{"brand:wikidata":"Q110190653","shop":"houseware"},"addTags":{"brand":"Briscoes","brand:wikidata":"Q110190653","name":"Briscoes","shop":"houseware"}},"shop/jewelry/goldmark-f8a228":{"name":"Goldmark","locationSet":{"include":["au","nz"]},"geometry":["point","area"],"matchScore":2,"terms":["goldmark"],"tags":{"brand:wikidata":"Q17005474","shop":"jewelry"},"addTags":{"brand":"Goldmark","brand:wikidata":"Q17005474","name":"Goldmark","shop":"jewelry"}},"shop/jewelry/michaelhill-4ffa40":{"name":"Michael Hill","locationSet":{"include":["au","ca","nz","us"]},"geometry":["point","area"],"matchScore":2,"terms":["michael hill"],"tags":{"brand:wikidata":"Q3308250","shop":"jewelry"},"addTags":{"brand":"Michael Hill","brand:wikidata":"Q3308250","name":"Michael Hill","shop":"jewelry"}},"shop/mall/westfield-1e4415":{"name":"Westfield (Australia/NZ)","locationSet":{"include":["au","nz"]},"geometry":["point","area"],"matchScore":2,"terms":["scentre group","westfield"],"fields":["name","brand","{shop/mall}"],"tags":{"brand:wikidata":"Q106623253","shop":"mall"},"addTags":{"brand":"Westfield","brand:wikidata":"Q106623253","name":"Westfield","operator":"Scentre Group","operator:wikidata":"Q18378048","shop":"mall"}},"shop/mobile_phone/2degrees-5219b0":{"name":"2degrees","locationSet":{"include":["nz"]},"geometry":["point","area"],"matchScore":2,"terms":["2degrees","two degrees"],"fields":["name","brand","{shop/mobile_phone}"],"tags":{"brand:wikidata":"Q4633463","shop":"mobile_phone"},"addTags":{"brand":"2degrees","brand:wikidata":"Q4633463","name":"2degrees","shop":"mobile_phone"}},"shop/mobile_phone/spark-5219b0":{"name":"Spark New Zealand","locationSet":{"include":["nz"]},"geometry":["point","area"],"matchScore":2,"terms":["spark new zealand","telecom"],"fields":["name","brand","{shop/mobile_phone}"],"tags":{"brand:wikidata":"Q1549526","shop":"mobile_phone"},"addTags":{"brand":"Spark New Zealand","brand:wikidata":"Q1549526","name":"Spark","shop":"mobile_phone"}},"shop/optician/opsm-d767a4":{"name":"OPSM","locationSet":{"include":["au","nz"]},"geometry":["point","area"],"matchScore":2,"terms":["opsm"],"fields":["name","brand","{shop/optician}"],"tags":{"brand:wikidata":"Q7072858","shop":"optician"},"addTags":{"brand":"OPSM","brand:wikidata":"Q7072858","name":"OPSM","shop":"optician"}},"shop/optician/oscarwylee-d767a4":{"name":"Oscar Wylee","locationSet":{"include":["au","nz"]},"geometry":["point","area"],"matchScore":2,"terms":["oscar wylee"],"fields":["name","brand","{shop/optician}"],"tags":{"brand:wikidata":"Q120669494","shop":"optician"},"addTags":{"brand":"Oscar Wylee","brand:wikidata":"Q120669494","name":"Oscar Wylee","shop":"optician"}},"shop/outdoor/bivouacoutdoor-f40221":{"name":"Bivouac Outdoor","locationSet":{"include":["nz"]},"geometry":["point","area"],"matchScore":2,"terms":["bivouac","bivouac outdoor"],"tags":{"brand:wikidata":"Q111019114","shop":"outdoor"},"addTags":{"brand":"Bivouac Outdoor","brand:wikidata":"Q111019114","name":"Bivouac Outdoor","shop":"outdoor","short_name":"Bivouac"}},"shop/outdoor/kathmandu-7b766e":{"name":"Kathmandu","locationSet":{"include":["au","nz"]},"geometry":["point","area"],"matchScore":2,"terms":["kathmandu"],"tags":{"brand:wikidata":"Q1736294","shop":"outdoor"},"addTags":{"brand":"Kathmandu","brand:wikidata":"Q1736294","name":"Kathmandu","shop":"outdoor"}},"shop/outdoor/macpac-7b766e":{"name":"Macpac","locationSet":{"include":["au","nz"]},"geometry":["point","area"],"matchScore":2,"terms":["macpac"],"tags":{"brand:wikidata":"Q6724943","shop":"outdoor"},"addTags":{"brand":"Macpac","brand:wikidata":"Q6724943","name":"Macpac","shop":"outdoor"}},"shop/outdoor/mountainwarehouse-19caf6":{"name":"Mountain Warehouse","locationSet":{"include":["at","ca","de","gb","ie","nz","pl","us"]},"geometry":["point","area"],"matchScore":2,"terms":["mountain warehouse"],"tags":{"brand:wikidata":"Q6925414","shop":"outdoor"},"addTags":{"brand":"Mountain Warehouse","brand:wikidata":"Q6925414","name":"Mountain Warehouse","shop":"outdoor"}},"shop/outdoor/torpedo7-f40221":{"name":"Torpedo7","locationSet":{"include":["nz"]},"geometry":["point","area"],"matchScore":2,"terms":["torpedo7"],"tags":{"brand:wikidata":"Q110221600","shop":"outdoor"},"addTags":{"brand":"Torpedo7","brand:wikidata":"Q110221600","name":"Torpedo7","shop":"outdoor"}},"shop/paint/resene-7091e6":{"name":"Resene","locationSet":{"include":["au","nc","nz"]},"geometry":["point","area"],"matchScore":2,"terms":["resene"],"fields":["name","brand","{shop/paint}"],"tags":{"brand:wikidata":"Q111951487","shop":"paint"},"addTags":{"brand":"Resene","brand:wikidata":"Q111951487","name":"Resene","shop":"paint"}},"shop/pawnbroker/cashconverters-1c62e9":{"name":"Cash Converters","locationSet":{"include":["ae","au","be","ch","es","fr","gb","lu","my","na","nz","pt","sg","za"]},"geometry":["point","area"],"matchScore":2,"terms":["cash converters"],"tags":{"brand:wikidata":"Q5048645","shop":"pawnbroker"},"addTags":{"brand":"Cash Converters","brand:wikidata":"Q5048645","name":"Cash Converters","shop":"pawnbroker"}},"shop/pet/animates-b0a57a":{"name":"Animates","locationSet":{"include":["nz"]},"geometry":["point","area"],"matchScore":2,"terms":["animates"],"tags":{"brand:wikidata":"Q110299350","shop":"pet"},"addTags":{"brand":"Animates","brand:wikidata":"Q110299350","name":"Animates","shop":"pet"}},"shop/hirepool-13c9d0":{"name":"Hirepool","locationSet":{"include":["nz"]},"geometry":["point","area"],"matchScore":2,"terms":["hirepool"],"fields":["name","brand","{shop}"],"tags":{"brand:wikidata":"Q114352983","shop":"plant_hire"},"addTags":{"brand":"Hirepool","brand:wikidata":"Q114352983","name":"Hirepool","shop":"plant_hire"}},"shop/kennardshire-cc85b7":{"name":"Kennards Hire","locationSet":{"include":["au","nz"]},"geometry":["point","area"],"matchScore":2,"terms":["kennards hire"],"fields":["name","brand","{shop}"],"tags":{"brand:wikidata":"Q63557330","shop":"plant_hire"},"addTags":{"brand":"Kennards Hire","brand:wikidata":"Q63557330","name":"Kennards Hire","shop":"plant_hire"}},"shop/shoes/novo-f56c2a":{"name":"NOVO","locationSet":{"include":["au","nz"]},"geometry":["point","area"],"matchScore":2,"terms":["novo"],"tags":{"brand:wikidata":"Q120669012","shop":"shoes"},"addTags":{"brand":"NOVO","brand:wikidata":"Q120669012","name":"NOVO","shop":"shoes"}},"shop/shoes/numberoneshoes-4d7d7d":{"name":"Number One Shoes","locationSet":{"include":["nz"]},"geometry":["point","area"],"matchScore":2,"terms":["number one shoes"],"tags":{"brand:wikidata":"Q111015103","shop":"shoes"},"addTags":{"brand":"Number One Shoes","brand:wikidata":"Q111015103","name":"Number One Shoes","shop":"shoes"}},"shop/sports/rebelsport-6d17d3":{"name":"Rebel Sport","locationSet":{"include":["nz"]},"geometry":["point","area"],"matchScore":2,"terms":["rebel sport"],"tags":{"brand:wikidata":"Q110190372","shop":"sports"},"addTags":{"brand":"Rebel Sport","brand:wikidata":"Q110190372","name":"Rebel Sport","shop":"sports"}},"shop/stationery/officemax-f154d6":{"name":"OfficeMax","locationSet":{"include":["mx","nz","us"]},"geometry":["point","area"],"matchScore":2,"terms":["office depot / officemax","officemax"],"tags":{"brand:wikidata":"Q7079111","shop":"stationery"},"addTags":{"brand":"OfficeMax","brand:wikidata":"Q7079111","name":"OfficeMax","shop":"stationery"}},"shop/stationery/smiggle-471bdb":{"name":"Smiggle","locationSet":{"include":["at","au","gb","hk","ie","my","nz","sg"]},"geometry":["point","area"],"matchScore":2,"terms":["smiggle"],"tags":{"brand:wikidata":"Q7544536","shop":"stationery"},"addTags":{"brand":"Smiggle","brand:wikidata":"Q7544536","name":"Smiggle","shop":"stationery"}},"shop/stationery/warehousestationery-a34cb3":{"name":"Warehouse Stationery","locationSet":{"include":["nz"]},"geometry":["point","area"],"matchScore":2,"terms":["stationery warehouse","warehouse stationery"],"tags":{"brand:wikidata":"Q110221565","shop":"stationery"},"addTags":{"brand":"Warehouse Stationery","brand:wikidata":"Q110221565","name":"Warehouse Stationery","shop":"stationery"}},"shop/storage_rental/kennardsstorage-e49450":{"name":"Kennards Storage","locationSet":{"include":["au","nz"]},"geometry":["point","area"],"matchScore":2,"terms":["kennards storage"],"fields":["name","brand","{shop/storage_rental}"],"tags":{"brand:wikidata":"Q115565997","shop":"storage_rental"},"addTags":{"brand":"Kennards Storage","brand:wikidata":"Q115565997","name":"Kennards Storage","shop":"storage_rental"}},"shop/storage_rental/nationalministorage-8edc81":{"name":"National Mini Storage","locationSet":{"include":["nz"]},"geometry":["point","area"],"matchScore":2,"terms":["national mini storage"],"tags":{"brand:wikidata":"Q114353224","shop":"storage_rental"},"addTags":{"brand":"National Mini Storage","brand:wikidata":"Q114353224","name":"National Mini Storage","shop":"storage_rental"}},"shop/storage_rental/nationalstorage-e49450":{"name":"National Storage","locationSet":{"include":["au","nz"]},"geometry":["point","area"],"matchScore":2,"terms":["national storage"],"tags":{"brand:wikidata":"Q21178908","shop":"storage_rental"},"addTags":{"brand":"National Storage","brand:wikidata":"Q21178908","name":"National Storage","shop":"storage_rental"}},"shop/storage_rental/storageking-e49450":{"name":"Storage King","locationSet":{"include":["au","nz"]},"geometry":["point","area"],"matchScore":2,"terms":["storage king"],"tags":{"brand:wikidata":"Q114353097","shop":"storage_rental"},"addTags":{"brand":"Storage King","brand:wikidata":"Q114353097","name":"Storage King","shop":"storage_rental"}},"shop/supermarket/bininn-5dc426":{"name":"Bin Inn","locationSet":{"include":["nz"]},"geometry":["point","area"],"matchScore":2,"terms":["bin inn"],"tags":{"brand:wikidata":"Q110524077","shop":"supermarket"},"addTags":{"brand":"Bin Inn","brand:wikidata":"Q110524077","bulk_purchase":"yes","name":"Bin Inn","shop":"supermarket"}},"shop/supermarket/countdown-5dc426":{"name":"Countdown","locationSet":{"include":["nz"]},"geometry":["point","area"],"matchScore":2,"terms":["countdown","foodtown"],"tags":{"brand:wikidata":"Q5176845","shop":"supermarket"},"addTags":{"brand":"Countdown","brand:wikidata":"Q5176845","name":"Countdown","shop":"supermarket"}},"shop/supermarket/foursquare-5dc426":{"name":"Four Square","locationSet":{"include":["nz"]},"geometry":["point","area"],"matchScore":2,"terms":["4 square","four square"],"tags":{"brand:wikidata":"Q5475558","shop":"supermarket"},"addTags":{"brand":"Four Square","brand:wikidata":"Q5475558","name":"Four Square","shop":"supermarket"}},"shop/supermarket/freshchoice-5dc426":{"name":"FreshChoice","locationSet":{"include":["nz"]},"geometry":["point","area"],"matchScore":2,"terms":["freshchoice"],"tags":{"brand:wikidata":"Q22271877","shop":"supermarket"},"addTags":{"brand":"FreshChoice","brand:wikidata":"Q22271877","name":"FreshChoice","shop":"supermarket"}},"shop/supermarket/newworld-5dc426":{"name":"New World","locationSet":{"include":["nz"]},"geometry":["point","area"],"matchScore":2,"terms":["new world"],"tags":{"brand:wikidata":"Q7012488","shop":"supermarket"},"addTags":{"brand":"New World","brand:wikidata":"Q7012488","name":"New World","shop":"supermarket"}},"shop/supermarket/paknsave-5dc426":{"name":"PAK'nSAVE","locationSet":{"include":["nz"]},"geometry":["point","area"],"matchScore":2,"terms":["pak'nsave"],"tags":{"brand:wikidata":"Q7125339","shop":"supermarket"},"addTags":{"brand":"PAK'nSAVE","brand:wikidata":"Q7125339","name":"PAK'nSAVE","shop":"supermarket"}},"shop/supermarket/supervalue-5dc426":{"name":"SuperValue (New Zealand)","locationSet":{"include":["nz"]},"geometry":["point","area"],"matchScore":2,"terms":["supervalue"],"tags":{"brand:wikidata":"Q7642080","shop":"supermarket"},"addTags":{"brand":"SuperValue","brand:wikidata":"Q7642080","name":"SuperValue","shop":"supermarket"}},"shop/supermarket/woolworths-5dc426":{"name":"Woolworths (New Zealand)","locationSet":{"include":["nz"]},"geometry":["point","area"],"matchScore":2,"terms":["foodtown","woolworths"],"tags":{"brand:wikidata":"Q5176845","shop":"supermarket"},"addTags":{"brand":"Woolworths","brand:wikidata":"Q5176845","name":"Woolworths","shop":"supermarket"}},"shop/supermarket/woolworthsmetro-5dc426":{"name":"Woolworths Metro (New Zealand)","locationSet":{"include":["nz"]},"geometry":["point","area"],"matchScore":2,"terms":["woolworths metro"],"tags":{"brand:wikidata":"Q123699264","shop":"supermarket"},"addTags":{"brand":"Woolworths Metro","brand:wikidata":"Q123699264","name":"Woolworths Metro","shop":"supermarket"}},"shop/ticket/ticketmaster-9f0b74":{"name":"Ticketmaster","locationSet":{"include":["ae","at","au","be","ca","ch","cy","cz","de","dk","es","fi","fr","gb","gr","ie","it","mx","nl","no","nz","pl","se","sg","tr","tw","za"]},"geometry":["point","area"],"matchScore":2,"terms":["live nation","ticketmaster"],"fields":["name","brand","{shop/ticket}"],"tags":{"brand:wikidata":"Q2609162","shop":"ticket"},"addTags":{"brand":"Ticketmaster","brand:wikidata":"Q2609162","name":"Ticketmaster","shop":"ticket"}},"shop/toys/toyworld-03114e":{"name":"Toyworld","locationSet":{"include":["au","nz"]},"geometry":["point","area"],"matchScore":2,"terms":["toyworld"],"tags":{"brand:wikidata":"Q95923071","shop":"toys"},"addTags":{"brand":"Toyworld","brand:wikidata":"Q95923071","name":"Toyworld","shop":"toys"}},"shop/trade/coryselectrical-49357c":{"name":"Corys Electrical","locationSet":{"include":["nz"]},"geometry":["point","area"],"matchScore":2,"terms":["corys electrical"],"tags":{"brand:wikidata":"Q113313384","shop":"trade"},"addTags":{"brand":"Corys Electrical","brand:wikidata":"Q113313384","name":"Corys Electrical","shop":"trade","trade":"electrical"}},"shop/trade/itm-49357c":{"name":"ITM","locationSet":{"include":["nz"]},"geometry":["point","area"],"matchScore":2,"terms":["itm"],"fields":["name","brand","{shop/trade}"],"tags":{"brand:wikidata":"Q110437159","shop":"trade"},"addTags":{"alt_name":"ITM","brand":"ITM","brand:wikidata":"Q110437159","shop":"trade"}},"shop/trade/jarussel-49357c":{"name":"J. A. Russel","locationSet":{"include":["nz"]},"geometry":["point","area"],"matchScore":2,"terms":["j. a. russel"],"tags":{"brand:wikidata":"Q113313306","shop":"trade"},"addTags":{"brand":"J. A. Russel","brand:wikidata":"Q113313306","name":"J. A. Russel","shop":"trade","trade":"electrical"}},"shop/trade/reeceactrol-b11955":{"name":"Reece Actrol","locationSet":{"include":["au","nz"]},"geometry":["point","area"],"matchScore":2,"terms":["reece actrol"],"tags":{"brand:wikidata":"Q29025524","shop":"trade"},"addTags":{"brand":"Reece Actrol","brand:wikidata":"Q29025524","name":"Reece Actrol","shop":"trade","trade":"hvac"}},"shop/trade/reecebathroomlife-b11955":{"name":"Reece Bathroom Life","locationSet":{"include":["au","nz"]},"geometry":["point","area"],"matchScore":2,"terms":["reece bathroom life"],"tags":{"brand:wikidata":"Q29025524","shop":"trade"},"addTags":{"brand":"Reece Bathroom Life","brand:wikidata":"Q29025524","name":"Reece Bathroom Life","shop":"trade","trade":"bathroom"}},"shop/trade/reecehvacr-b11955":{"name":"Reece HVAC-R","locationSet":{"include":["au","nz"]},"geometry":["point","area"],"matchScore":2,"terms":["reece hvac-r"],"tags":{"brand:wikidata":"Q29025524","shop":"trade"},"addTags":{"brand":"Reece HVAC-R","brand:wikidata":"Q29025524","name":"Reece HVAC-R","shop":"trade","trade":"hvac"}},"shop/trade/reeceplumbingcentre-b11955":{"name":"Reece Plumbing Centre","locationSet":{"include":["au","nz"]},"geometry":["point","area"],"matchScore":2,"terms":["reece plumbing centre"],"tags":{"brand:wikidata":"Q29025524","shop":"trade"},"addTags":{"brand":"Reece Plumbing Centre","brand:wikidata":"Q29025524","name":"Reece Plumbing Centre","shop":"trade","trade":"plumbing"}},"shop/travel_agency/houseoftravel-64ecef":{"name":"House of Travel","locationSet":{"include":["nz"]},"geometry":["point","area"],"matchScore":2,"terms":["house of travel"],"tags":{"brand:wikidata":"Q23177553","shop":"travel_agency"},"addTags":{"brand":"House of Travel","brand:wikidata":"Q23177553","name":"House of Travel","shop":"travel_agency"}},"shop/vacuum_cleaner/godfreys-817a4b":{"name":"Godfreys","locationSet":{"include":["au","nz"]},"geometry":["point","area"],"matchScore":2,"terms":["godfreys"],"tags":{"brand:wikidata":"Q17005430","shop":"vacuum_cleaner"},"addTags":{"brand":"Godfreys","brand:wikidata":"Q17005430","name":"Godfreys","shop":"vacuum_cleaner"}},"shop/video_games/ebgames-c56656":{"name":"EB Games","locationSet":{"include":["au","ca","nz"]},"geometry":["point","area"],"matchScore":2,"terms":["eb games","electronics boutique / eb games"],"tags":{"brand:wikidata":"Q4993686","shop":"video_games"},"addTags":{"brand":"EB Games","brand:wikidata":"Q4993686","name":"EB Games","shop":"video_games"}},"shop/wholesale/costco-69a5bf":{"name":"Costco","locationSet":{"include":["au","ca","es","fr","gb","is","kr","mx","nz","se","us"]},"geometry":["point","area"],"matchScore":2,"terms":["costco","costco wholesale"],"tags":{"brand:wikidata":"Q715583","shop":"wholesale"},"addTags":{"brand":"Costco","brand:wikidata":"Q715583","name":"Costco","shop":"wholesale"}},"tourism/caravan_site/big4holidayparks-50f355":{"name":"Big 4 Holiday Parks","locationSet":{"include":["au","nz"]},"geometry":["point","vertex","area"],"matchScore":2,"terms":["big 4 holiday parks","big4"],"fields":["name","brand","{tourism/caravan_site}"],"tags":{"brand:wikidata":"Q18636678","tourism":"caravan_site"},"addTags":{"brand":"Big 4 Holiday Parks","brand:wikidata":"Q18636678","name":"BIG4 Holiday Parks","short_name":"Big4","tourism":"caravan_site"}},"tourism/hotel/adinaapartmenthotel-a6b67a":{"name":"Adina Hotels","locationSet":{"include":["at","au","ch","de","dk","hu","nz","sg"]},"geometry":["point","area"],"matchScore":2,"terms":["adina","adina hotels"],"fields":["name","brand","{tourism/hotel}"],"tags":{"brand:wikidata":"Q50406079","tourism":"hotel"},"addTags":{"brand":"Adina Hotels","brand:wikidata":"Q50406079","name":"Adina Apartment Hotel","tourism":"hotel"}},"tourism/hotel/aturahotels-a311b9":{"name":"Atura Hotels","locationSet":{"include":["au","nz"]},"geometry":["point","area"],"matchScore":2,"terms":["atura hotels"],"fields":["name","brand","{tourism/hotel}"],"tags":{"brand:wikidata":"Q110168350","tourism":"hotel"},"addTags":{"brand":"Atura Hotels","brand:wikidata":"Q110168350","name":"Atura Hotels","tourism":"hotel"}},"tourism/hotel/avanihotelsandresorts-e9c192":{"name":"AVANI","locationSet":{"include":["ae","au","bw","id","kh","kr","la","lk","ls","my","mz","na","nz","om","pt","sc","th","vn","zm"]},"geometry":["point","area"],"matchScore":2,"terms":["avani hotels & resorts"],"fields":["name","brand","{tourism/hotel}"],"tags":{"brand:wikidata":"Q48989823","tourism":"hotel"},"addTags":{"brand":"Avani Hotels & Resorts","brand:wikidata":"Q48989823","name":"Avani Hotels & Resorts","tourism":"hotel"}},"tourism/hotel/microtel-1638bb":{"name":"Microtel","locationSet":{"include":["ca","cn","mx","nz","ph","us"]},"geometry":["point","area"],"matchScore":2,"terms":["microtel","microtel by wyndham","microtel inn"],"fields":["name","brand","{tourism/hotel}"],"tags":{"brand:wikidata":"Q6840402","tourism":"hotel"},"addTags":{"brand":"Microtel","brand:wikidata":"Q6840402","name":"Microtel","official_name":"Microtel by Wyndham","tourism":"hotel"}},"tourism/hotel/oakshotelsresortsandsuites-bc2db3":{"name":"Oaks Hotels","locationSet":{"include":["ae","au","cn","in","nz","qa"]},"geometry":["point","area"],"matchScore":2,"terms":["oaks hotels, resorts & suites"],"fields":["name","brand","{tourism/hotel}"],"tags":{"brand:wikidata":"Q23073772","tourism":"hotel"},"addTags":{"brand":"Oaks Hotels, Resorts & Suites","brand:wikidata":"Q23073772","name":"Oaks Hotels, Resorts & Suites","tourism":"hotel"}},"tourism/hotel/thesebel-a311b9":{"name":"The Sebel","locationSet":{"include":["au","nz"]},"geometry":["point","area"],"matchScore":2,"terms":["sebel","the sebel"],"fields":["name","brand","{tourism/hotel}"],"tags":{"brand:wikidata":"Q110888248","tourism":"hotel"},"addTags":{"brand":"The Sebel","brand:wikidata":"Q110888248","name":"The Sebel","tourism":"hotel"}},"tourism/hotel/travelodge-2e0dc6":{"name":"Travelodge (Asia/Oceania)","locationSet":{"include":["au","hk","id","kr","my","nz","sg","th"]},"geometry":["point","area"],"matchScore":2,"terms":["travelodge"],"fields":["name","brand","{tourism/hotel}"],"tags":{"brand:wikidata":"Q24997583","tourism":"hotel"},"addTags":{"brand":"Travelodge","brand:wikidata":"Q24997583","name":"Travelodge","tourism":"hotel"}},"tourism/information/office/docvisitorcentre-a3c76e":{"name":"DOC Visitor Centre","locationSet":{"include":["nz"]},"geometry":["point","vertex","area"],"matchScore":2,"terms":["department of conservation"],"fields":["name","brand","{tourism/information/office}"],"reference":{"key":"information","value":"office"},"tags":{"brand:wikidata":"Q1191417","information":"office","tourism":"information"},"addTags":{"brand":"Department of Conservation","brand:wikidata":"Q1191417","information":"office","name":"DOC Visitor Centre","tourism":"information"}},"tourism/information/office/isite-a3c76e":{"name":"i-SITE","locationSet":{"include":["nz"]},"geometry":["point","vertex","area"],"matchScore":2,"terms":["i-site"],"fields":["name","brand","{tourism/information/office}"],"reference":{"key":"information","value":"office"},"tags":{"brand:wikidata":"Q115566061","information":"office","tourism":"information"},"addTags":{"brand":"i-SITE","brand:wikidata":"Q115566061","information":"office","name":"i-SITE","tourism":"information"}},"waterway/fuel/gofuel-1a11f1":{"name":"GOfuel","locationSet":{"include":["nz"]},"geometry":["point","vertex","area"],"matchScore":2,"terms":["gofuel"],"fields":["name","brand","{waterway/fuel}"],"tags":{"brand:wikidata":"Q118464732","waterway":"fuel"},"addTags":{"brand":"GOfuel","brand:wikidata":"Q118464732","name":"GOfuel","waterway":"fuel"}},"man_made/flagpole/tinorangatiratanga-f1c036":{"name":"NZ - Tino Rangatiratanga","locationSet":{"include":["nz"]},"geometry":["point","vertex"],"matchScore":2,"terms":["tino rangatiratanga"],"tags":{"flag:wikidata":"Q98609686","man_made":"flagpole"},"addTags":{"flag:name":"Tino Rangatiratanga","flag:type":"indigenous","flag:wikidata":"Q98609686","man_made":"flagpole","subject":"Tino Rangatiratanga","subject:wikidata":"Q7808426"}},"man_made/flagpole/unitedtribesofnewzealand-f1c036":{"name":"NZ - United Tribes of New Zealand","locationSet":{"include":["nz"]},"geometry":["point","vertex"],"matchScore":2,"terms":["united tribes of new zealand"],"tags":{"flag:wikidata":"Q114243922","man_made":"flagpole"},"addTags":{"flag:name":"United Tribes of New Zealand","flag:type":"indigenous","flag:wikidata":"Q114243922","man_made":"flagpole","subject":"United Tribes of New Zealand","subject:wikidata":"Q7893618"}},"amenity/charging_station/chargefox-61042c":{"name":"Chargefox","locationSet":{"include":["au","nz"]},"geometry":["point","vertex","area"],"matchScore":2,"terms":["chargefox"],"fields":["name","operator","{amenity/charging_station}"],"tags":{"amenity":"charging_station","operator:wikidata":"Q105775824"},"addTags":{"amenity":"charging_station","operator":"Chargefox","operator:wikidata":"Q105775824"}},"amenity/charging_station/chargenetnz-9850e1":{"name":"ChargeNet NZ","locationSet":{"include":["nz"]},"geometry":["point","vertex","area"],"matchScore":2,"terms":["chargenet","chargenet nz"],"fields":["name","operator","{amenity/charging_station}"],"tags":{"amenity":"charging_station","operator:wikidata":"Q105872959"},"addTags":{"amenity":"charging_station","operator":"ChargeNet NZ","operator:wikidata":"Q105872959"}},"amenity/charging_station/countiesenergy-9850e1":{"name":"Counties Energy","locationSet":{"include":["nz"]},"geometry":["point","vertex","area"],"matchScore":2,"terms":["counties energy"],"fields":["name","operator","{amenity/charging_station}"],"tags":{"amenity":"charging_station","operator:wikidata":"Q108450092"},"addTags":{"amenity":"charging_station","network":"OpenLoop","network:wikidata":"Q113289213","operator":"Counties Energy","operator:wikidata":"Q108450092"}},"amenity/charging_station/hikotron-9850e1":{"name":"Hikotron","locationSet":{"include":["nz"]},"geometry":["point","vertex","area"],"matchScore":2,"terms":["hikotron"],"fields":["name","operator","{amenity/charging_station}"],"tags":{"amenity":"charging_station","operator:wikidata":"Q113289003"},"addTags":{"amenity":"charging_station","operator":"Hikotron","operator:wikidata":"Q113289003"}},"amenity/charging_station/jolt-61042c":{"name":"Jolt","locationSet":{"include":["au","nz"]},"geometry":["point","vertex","area"],"matchScore":2,"terms":["jolt"],"fields":["name","operator","{amenity/charging_station}"],"tags":{"amenity":"charging_station","operator:wikidata":"Q109783503"},"addTags":{"amenity":"charging_station","operator":"Jolt","operator:wikidata":"Q109783503"}},"amenity/charging_station/kiwev-9850e1":{"name":"kiwEV","locationSet":{"include":["nz"]},"geometry":["point","vertex","area"],"matchScore":2,"terms":["kiwev"],"fields":["name","operator","{amenity/charging_station}"],"tags":{"amenity":"charging_station","operator:wikidata":"Q113807417"},"addTags":{"amenity":"charging_station","operator":"kiwEV","operator:wikidata":"Q113807417"}},"amenity/charging_station/vector-9850e1":{"name":"Vector","locationSet":{"include":["nz"]},"geometry":["point","vertex","area"],"matchScore":2,"terms":["vector"],"fields":["name","operator","{amenity/charging_station}"],"tags":{"amenity":"charging_station","operator:wikidata":"Q7917807"},"addTags":{"amenity":"charging_station","operator":"Vector","operator:wikidata":"Q7917807"}},"amenity/charging_station/welnetworks-9850e1":{"name":"WEL Networks","locationSet":{"include":["nz"]},"geometry":["point","vertex","area"],"matchScore":2,"terms":["wel networks"],"fields":["name","operator","{amenity/charging_station}"],"tags":{"amenity":"charging_station","operator:wikidata":"Q7948949"},"addTags":{"amenity":"charging_station","network":"OpenLoop","network:wikidata":"Q113289213","operator":"WEL Networks","operator:wikidata":"Q7948949"}},"amenity/charging_station/zenergy-9850e1":{"name":"Z Energy","locationSet":{"include":["nz"]},"geometry":["point","vertex","area"],"matchScore":2,"terms":["z","z energy"],"fields":["name","operator","{amenity/charging_station}"],"tags":{"amenity":"charging_station","operator:wikidata":"Q8063337"},"addTags":{"amenity":"charging_station","network":"Z Energy","network:wikidata":"Q8063337","operator":"Z Energy","operator:wikidata":"Q8063337"}},"amenity/community_centre/aucklandcouncil-8f36f1":{"name":"Auckland Council","locationSet":{"include":["nz"]},"geometry":["point","area"],"matchScore":2,"terms":["auckland council"],"tags":{"amenity":"community_centre","operator:wikidata":"Q758635"},"addTags":{"amenity":"community_centre","operator":"Auckland Council","operator:type":"government","operator:wikidata":"Q758635"}},"amenity/drinking_water/wellingtoncitycouncil-987ff7":{"name":"Wellington City Council","locationSet":{"include":["nz"]},"geometry":["point","vertex"],"matchScore":2,"terms":["wellington city council"],"tags":{"amenity":"drinking_water","operator:wikidata":"Q601800"},"addTags":{"amenity":"drinking_water","operator":"Wellington City Council","operator:wikidata":"Q601800"}},"amenity/fire_station/fireandemergencynewzealand-4a36f8":{"name":"Fire and Emergency New Zealand","locationSet":{"include":["nz"]},"geometry":["point","area"],"matchScore":2,"terms":["fire and emergency new zealand","new zealand fire service","nzfs"],"tags":{"amenity":"fire_station","operator:wikidata":"Q28180518"},"addTags":{"amenity":"fire_station","operator":"Fire and Emergency New Zealand","operator:wikidata":"Q28180518"}},"amenity/library/aucklandlibraries-f1e6a6":{"name":"Auckland Libraries","locationSet":{"include":["nz"]},"geometry":["point","area"],"matchScore":2,"terms":["auckland city libraries","auckland council libraries","auckland libraries","ngā pātaka kōrero o tāmaki makaurau"],"tags":{"amenity":"library","operator:wikidata":"Q4819503"},"addTags":{"amenity":"library","operator":"Auckland Libraries","operator:mi":"Ngā Pātaka Kōrero o Tāmaki Makaurau","operator:type":"government","operator:wikidata":"Q4819503"}},"amenity/parking/carepark-e0a745":{"name":"Care Park","locationSet":{"include":["au","my","nz"]},"geometry":["area","point","vertex"],"matchScore":2,"terms":["care park"],"fields":["name","operator","{amenity/parking}"],"tags":{"amenity":"parking","operator:wikidata":"Q106625352"},"addTags":{"amenity":"parking","brand":"Care Park","brand:wikidata":"Q106625352","fee":"yes","name":"Care Park","operator":"Care Park","operator:wikidata":"Q106625352"}},"amenity/parking/wilsonparking-7fb8ab":{"name":"Wilson Parking","locationSet":{"include":["au","kr","nz","sg"]},"geometry":["area","point","vertex"],"matchScore":2,"terms":["wilson","wilson parking"],"fields":["name","operator","{amenity/parking}"],"tags":{"amenity":"parking","operator:wikidata":"Q28448427"},"addTags":{"amenity":"parking","brand":"Wilson Parking","brand:wikidata":"Q28448427","fee":"yes","name":"Wilson Parking","operator":"Wilson Parking","operator:wikidata":"Q28448427"}},"amenity/police/newzealandpolice-6de575":{"name":"New Zealand Police","locationSet":{"include":["nz"]},"geometry":["point","area"],"matchScore":2,"terms":["new zealand police","nz police"],"tags":{"amenity":"police","operator:wikidata":"Q12063956"},"addTags":{"amenity":"police","operator":"New Zealand Police","operator:wikidata":"Q12063956"}},"amenity/post_box/newzealandpost-6c56da":{"name":"New Zealand Post","locationSet":{"include":["nz"]},"geometry":["point","vertex"],"matchScore":2,"terms":["new zealand post","nz post"],"tags":{"amenity":"post_box","operator:wikidata":"Q1144511"},"addTags":{"amenity":"post_box","operator":"New Zealand Post","operator:wikidata":"Q1144511"}},"amenity/post_depot/newzealandpost-6b0f2e":{"name":"New Zealand Post","locationSet":{"include":["nz"]},"geometry":["point","area"],"matchScore":2,"terms":["new zealand post","nz post"],"fields":["name","operator","{amenity/post_depot}"],"tags":{"amenity":"post_depot","operator:wikidata":"Q1144511"},"addTags":{"amenity":"post_depot","operator":"New Zealand Post","operator:wikidata":"Q1144511"}},"amenity/post_office/newzealandpost-ff95ef":{"name":"New Zealand Post","locationSet":{"include":["nz"]},"geometry":["point","area"],"matchScore":2,"terms":["new zealand post","nz post"],"fields":["name","operator","{amenity/post_office}"],"tags":{"amenity":"post_office","operator:wikidata":"Q1144511"},"addTags":{"amenity":"post_office","operator":"New Zealand Post","operator:wikidata":"Q1144511"}},"amenity/prison/departmentofcorrections-1f32ed":{"name":"Department of Corrections","locationSet":{"include":["nz"]},"geometry":["area","point"],"matchScore":2,"terms":["ara poutama aotearoa","department of corrections","department of corrections new zealand","new zealand department of corrections"],"fields":["name","operator","{amenity/prison}"],"tags":{"amenity":"prison","operator:wikidata":"Q5260217"},"addTags":{"amenity":"prison","operator":"Department of Corrections","operator:en":"Department of Corrections","operator:mi":"Ara Poutama Aotearoa","operator:wikidata":"Q5260217"}},"amenity/social_facility/group_home/arvida-97ad99":{"name":"Arvida","locationSet":{"include":["nz"]},"geometry":["point","area"],"matchScore":2,"terms":["arvida"],"reference":{"key":"social_facility","value":"group_home"},"tags":{"amenity":"social_facility","operator:wikidata":"Q115565733","social_facility":"group_home","social_facility:for":"senior"},"addTags":{"amenity":"social_facility","operator":"Arvida","operator:wikidata":"Q115565733","social_facility":"group_home","social_facility:for":"senior"}},"amenity/social_facility/group_home/oceaniahealthcare-97ad99":{"name":"Oceania Healthcare","locationSet":{"include":["nz"]},"geometry":["point","area"],"matchScore":2,"terms":["oceania healthcare"],"reference":{"key":"social_facility","value":"group_home"},"tags":{"amenity":"social_facility","operator:wikidata":"Q109627069","social_facility":"group_home","social_facility:for":"senior"},"addTags":{"amenity":"social_facility","operator":"Oceania Healthcare","operator:wikidata":"Q109627069","social_facility":"group_home","social_facility:for":"senior"}},"amenity/social_facility/plunket-97ad99":{"name":"Plunket","locationSet":{"include":["nz"]},"geometry":["point","area"],"matchScore":2,"terms":["plunket"],"fields":["name","operator","{amenity/social_facility}"],"tags":{"amenity":"social_facility","operator:wikidata":"Q7205515"},"addTags":{"amenity":"social_facility","name":"Plunket","operator":"Plunket","operator:wikidata":"Q7205515","social_facility:for":"child"}},"amenity/social_facility/group_home/rymanhealthcare-97ad99":{"name":"Ryman Healthcare","locationSet":{"include":["nz"]},"geometry":["point","area"],"matchScore":2,"terms":["ryman healthcare"],"reference":{"key":"social_facility","value":"group_home"},"tags":{"amenity":"social_facility","operator:wikidata":"Q7385191","social_facility":"group_home","social_facility:for":"senior"},"addTags":{"amenity":"social_facility","operator":"Ryman Healthcare","operator:wikidata":"Q7385191","social_facility":"group_home","social_facility:for":"senior"}},"amenity/social_facility/group_home/summerset-97ad99":{"name":"Summerset","locationSet":{"include":["nz"]},"geometry":["point","area"],"matchScore":2,"terms":["summerset"],"reference":{"key":"social_facility","value":"group_home"},"tags":{"amenity":"social_facility","operator:wikidata":"Q22909162","social_facility":"group_home","social_facility:for":"senior"},"addTags":{"amenity":"social_facility","operator":"Summerset","operator:wikidata":"Q22909162","social_facility":"group_home","social_facility:for":"senior"}},"amenity/telephone/sparknewzealand-2e73ba":{"name":"Spark New Zealand","locationSet":{"include":["nz"]},"geometry":["point","vertex"],"matchScore":2,"terms":["spark","spark new zealand","spark nz"],"fields":["name","operator","{amenity/telephone}"],"tags":{"amenity":"telephone","operator:wikidata":"Q1549526"},"addTags":{"amenity":"telephone","operator":"Spark New Zealand","operator:wikidata":"Q1549526"}},"amenity/ticket_validator/at-0b3968":{"name":"AT HOP Validator","locationSet":{"include":["nz"]},"geometry":["point"],"matchScore":2,"terms":["at","auckland transport"],"tags":{"amenity":"ticket_validator","operator:wikidata":"Q4819567"},"addTags":{"amenity":"ticket_validator","operator":"AT","operator:wikidata":"Q4819567"}},"amenity/vending_machine/public_transport_tickets/at-7f6a8f":{"name":"AT HOP Top-Up Machine","locationSet":{"include":["nz"]},"geometry":["point","vertex"],"matchScore":2,"terms":["at","auckland transport"],"reference":{"key":"vending","value":"public_transport_tickets"},"tags":{"amenity":"vending_machine","operator:wikidata":"Q4819567","vending":"public_transport_tickets"},"addTags":{"amenity":"vending_machine","operator":"AT","operator:wikidata":"Q4819567","vending":"public_transport_tickets"}},"boundary/aucklandcouncil-a9b2b6":{"name":"Auckland Council","locationSet":{"include":["nz"]},"geometry":["line"],"matchScore":2,"terms":["auckland council"],"tags":{"boundary":"protected_area","operator:wikidata":"Q758635"},"addTags":{"boundary":"protected_area","operator":"Auckland Council","operator:wikidata":"Q758635"}},"boundary/departmentofconservation-997671":{"name":"Department of Conservation","locationSet":{"include":["nz"]},"geometry":["line"],"matchScore":2,"terms":["department of conservation","doc"],"tags":{"boundary":"protected_area","operator:wikidata":"Q1191417"},"addTags":{"boundary":"protected_area","operator":"Department of Conservation","operator:wikidata":"Q1191417"}},"emergency/ambulance_station/stjohnambulance-ec65c5":{"name":"St John Ambulance (New Zealand)","locationSet":{"include":["nz"]},"geometry":["point","area"],"matchScore":2,"terms":["saint john","st john ambulance"],"tags":{"emergency":"ambulance_station","operator:wikidata":"Q7593661"},"addTags":{"emergency":"ambulance_station","operator":"St John Ambulance","operator:wikidata":"Q7593661"}},"emergency/lifeguard/surflifesavingnewzealand-d0e9cd":{"name":"Surf Life Saving New Zealand","locationSet":{"include":["nz"]},"geometry":["point","area"],"matchScore":2,"terms":["surf life saving new zealand","surf life saving nz"],"tags":{"emergency":"lifeguard","operator:wikidata":"Q7645867"},"addTags":{"emergency":"lifeguard","operator":"Surf Life Saving New Zealand","operator:wikidata":"Q7645867"}},"emergency/phone/at-25eda4":{"name":"AT (Auckland Transport)","locationSet":{"include":["nz"]},"geometry":["point","vertex"],"matchScore":2,"terms":["at","auckland transport"],"tags":{"emergency":"phone","operator:wikidata":"Q4819567"},"addTags":{"emergency":"phone","operator":"AT","operator:wikidata":"Q4819567"}},"emergency/phone/universityofcanterbury-dce6cd":{"name":"University of Canterbury","locationSet":{"include":["nz"]},"geometry":["point","vertex"],"matchScore":2,"terms":["university of canterbury"],"tags":{"emergency":"phone","operator:wikidata":"Q432475"},"addTags":{"emergency":"phone","operator":"University of Canterbury","operator:wikidata":"Q432475"}},"emergency/phone/wakakotahi-ed25d5":{"name":"Waka Kotahi","locationSet":{"include":["nz"]},"geometry":["point","vertex"],"matchScore":2,"terms":["new zealand transport agency","nzta","waka kotahi"],"tags":{"emergency":"phone","operator:wikidata":"Q7015807"},"addTags":{"emergency":"phone","operator":"Waka Kotahi","operator:wikidata":"Q7015807"}},"emergency/royalnewzealandcoastguard-9ad5bc":{"name":"Royal New Zealand Coastguard","locationSet":{"include":["nz"]},"geometry":["point","vertex","area"],"matchScore":2,"terms":["coastguard new zealand","rnzc","royal new zealand coastguard"],"tags":{"emergency":"water_rescue","operator:wikidata":"Q17063737"},"addTags":{"emergency":"water_rescue","operator":"Royal New Zealand Coastguard","operator:wikidata":"Q17063737"}},"landuse/quarry/fultonhogan-30f0f6":{"name":"Fulton Hogan","locationSet":{"include":["au","nz"]},"geometry":["area","point"],"matchScore":2,"terms":["fulton hogan"],"tags":{"landuse":"quarry","operator:wikidata":"Q5508437"},"addTags":{"landuse":"quarry","operator":"Fulton Hogan","operator:wikidata":"Q5508437"}},"leisure/nature_reserve/aucklandcouncil-fa9be8":{"name":"Auckland Council","locationSet":{"include":["nz"]},"geometry":["area","point"],"matchScore":2,"terms":["auckland council"],"tags":{"leisure":"nature_reserve","operator:wikidata":"Q758635"},"addTags":{"leisure":"nature_reserve","operator":"Auckland Council","operator:type":"government","operator:wikidata":"Q758635"}},"leisure/nature_reserve/christchurchcitycouncil-ff83c4":{"name":"Christchurch City Council","locationSet":{"include":["nz"]},"geometry":["area","point"],"matchScore":2,"terms":["christchurch city council"],"tags":{"leisure":"nature_reserve","operator:wikidata":"Q5109064"},"addTags":{"leisure":"nature_reserve","operator":"Christchurch City Council","operator:type":"government","operator:wikidata":"Q5109064"}},"leisure/nature_reserve/cluthadistrictcouncil-6e0a50":{"name":"Clutha District Council","locationSet":{"include":["nz"]},"geometry":["area","point"],"matchScore":2,"terms":["clutha district council"],"tags":{"leisure":"nature_reserve","operator:wikidata":"Q65617189"},"addTags":{"leisure":"nature_reserve","operator":"Clutha District Council","operator:type":"government","operator:wikidata":"Q65617189"}},"leisure/nature_reserve/hurunuidistrictcouncil-ff83c4":{"name":"Hurunui District Council","locationSet":{"include":["nz"]},"geometry":["area","point"],"matchScore":2,"terms":["hurunui district council"],"tags":{"leisure":"nature_reserve","operator:wikidata":"Q65606410"},"addTags":{"leisure":"nature_reserve","operator":"Hurunui District Council","operator:type":"government","operator:wikidata":"Q65606410"}},"leisure/nature_reserve/kapiticoastdistrictcouncil-3e515f":{"name":"Kāpiti Coast District Council","locationSet":{"include":["nz"]},"geometry":["area","point"],"matchScore":2,"terms":["kāpiti coast district council"],"tags":{"leisure":"nature_reserve","operator:wikidata":"Q73823769"},"addTags":{"leisure":"nature_reserve","operator":"Kāpiti Coast District Council","operator:type":"government","operator:wikidata":"Q73823769"}},"leisure/nature_reserve/nelsoncitycouncil-c80d8f":{"name":"Nelson City Council","locationSet":{"include":["nz"]},"geometry":["area","point"],"matchScore":2,"terms":["nelson city council"],"tags":{"leisure":"nature_reserve","operator:wikidata":"Q6990429"},"addTags":{"leisure":"nature_reserve","operator":"Nelson City Council","operator:wikidata":"Q6990429"}},"leisure/nature_reserve/tasmandistrictcouncil-ce5753":{"name":"Tasman District Council","locationSet":{"include":["nz"]},"geometry":["area","point"],"matchScore":2,"terms":["tasman district council"],"tags":{"leisure":"nature_reserve","operator:wikidata":"Q7687392"},"addTags":{"leisure":"nature_reserve","operator":"Tasman District Council","operator:type":"government","operator:wikidata":"Q7687392"}},"leisure/nature_reserve/timarudistrictcouncil-ff83c4":{"name":"Timaru District Council","locationSet":{"include":["nz"]},"geometry":["area","point"],"matchScore":2,"terms":["timaru district council"],"tags":{"leisure":"nature_reserve","operator:wikidata":"Q65601656"},"addTags":{"leisure":"nature_reserve","operator":"Timaru District Council","operator:type":"government","operator:wikidata":"Q65601656"}},"leisure/nature_reserve/waimakariridistrictcouncil-ff83c4":{"name":"Waimakariri District Council","locationSet":{"include":["nz"]},"geometry":["area","point"],"matchScore":2,"terms":["waimakariri district council"],"tags":{"leisure":"nature_reserve","operator:wikidata":"Q71866858"},"addTags":{"leisure":"nature_reserve","operator":"Waimakariri District Council","operator:type":"government","operator:wikidata":"Q71866858"}},"leisure/nature_reserve/waitakidistrictcouncil-6e0a50":{"name":"Waitaki District Council","locationSet":{"include":["nz"]},"geometry":["area","point"],"matchScore":2,"terms":["waitaki district council"],"tags":{"leisure":"nature_reserve","operator:wikidata":"Q73720239"},"addTags":{"leisure":"nature_reserve","operator":"Waitaki District Council","operator:type":"government","operator:wikidata":"Q73720239"}},"leisure/nature_reserve/wellingtoncitycouncil-3e515f":{"name":"Wellington City Council","locationSet":{"include":["nz"]},"geometry":["area","point"],"matchScore":2,"terms":["wellington city council"],"tags":{"leisure":"nature_reserve","operator:wikidata":"Q601800"},"addTags":{"leisure":"nature_reserve","operator":"Wellington City Council","operator:type":"government","operator:wikidata":"Q601800"}},"leisure/park/aucklandcouncil-9b811e":{"name":"Auckland Council","locationSet":{"include":["nz"]},"geometry":["area","point"],"matchScore":2,"terms":["auckland council"],"tags":{"leisure":"park","operator:wikidata":"Q758635"},"addTags":{"leisure":"park","operator":"Auckland Council","operator:type":"government","operator:wikidata":"Q758635"}},"leisure/park/christchurchcitycouncil-b93ce4":{"name":"Christchurch City Council","locationSet":{"include":["nz"]},"geometry":["area","point"],"matchScore":2,"terms":["christchurch city council"],"tags":{"leisure":"park","operator:wikidata":"Q5109064"},"addTags":{"leisure":"park","operator":"Christchurch City Council","operator:type":"government","operator:wikidata":"Q5109064"}},"leisure/park/cluthadistrictcouncil-a83a4e":{"name":"Clutha District Council","locationSet":{"include":["nz"]},"geometry":["area","point"],"matchScore":2,"terms":["clutha district council"],"tags":{"leisure":"park","operator:wikidata":"Q65617189"},"addTags":{"leisure":"park","operator":"Clutha District Council","operator:type":"government","operator:wikidata":"Q65617189"}},"leisure/park/hurunuidistrictcouncil-b93ce4":{"name":"Hurunui District Council","locationSet":{"include":["nz"]},"geometry":["area","point"],"matchScore":2,"terms":["hurunui district council"],"tags":{"leisure":"park","operator:wikidata":"Q65606410"},"addTags":{"leisure":"park","operator":"Hurunui District Council","operator:type":"government","operator:wikidata":"Q65606410"}},"leisure/park/kapiticoastdistrictcouncil-465cf6":{"name":"Kāpiti Coast District Council","locationSet":{"include":["nz"]},"geometry":["area","point"],"matchScore":2,"terms":["kāpiti coast district council"],"tags":{"leisure":"park","operator:wikidata":"Q73823769"},"addTags":{"leisure":"park","operator":"Kāpiti Coast District Council","operator:type":"government","operator:wikidata":"Q73823769"}},"leisure/park/nelsoncitycouncil-0a56ce":{"name":"Nelson City Council","locationSet":{"include":["nz"]},"geometry":["area","point"],"matchScore":2,"terms":["nelson city council"],"tags":{"leisure":"park","operator:wikidata":"Q6990429"},"addTags":{"leisure":"park","operator":"Nelson City Council","operator:wikidata":"Q6990429"}},"leisure/park/tasmandistrictcouncil-1585a5":{"name":"Tasman District Council","locationSet":{"include":["nz"]},"geometry":["area","point"],"matchScore":2,"terms":["tasman district council"],"tags":{"leisure":"park","operator:wikidata":"Q7687392"},"addTags":{"leisure":"park","operator":"Tasman District Council","operator:type":"government","operator:wikidata":"Q7687392"}},"leisure/park/timarudistrictcouncil-b93ce4":{"name":"Timaru District Council","locationSet":{"include":["nz"]},"geometry":["area","point"],"matchScore":2,"terms":["timaru district council"],"tags":{"leisure":"park","operator:wikidata":"Q65601656"},"addTags":{"leisure":"park","operator":"Timaru District Council","operator:type":"government","operator:wikidata":"Q65601656"}},"leisure/park/waimakariridistrictcouncil-b93ce4":{"name":"Waimakariri District Council","locationSet":{"include":["nz"]},"geometry":["area","point"],"matchScore":2,"terms":["waimakariri district council"],"tags":{"leisure":"park","operator:wikidata":"Q71866858"},"addTags":{"leisure":"park","operator":"Waimakariri District Council","operator:type":"government","operator:wikidata":"Q71866858"}},"leisure/park/waitakidistrictcouncil-a83a4e":{"name":"Waitaki District Council","locationSet":{"include":["nz"]},"geometry":["area","point"],"matchScore":2,"terms":["waitaki district council"],"tags":{"leisure":"park","operator:wikidata":"Q73720239"},"addTags":{"leisure":"park","operator":"Waitaki District Council","operator:type":"government","operator:wikidata":"Q73720239"}},"leisure/park/wellingtoncitycouncil-465cf6":{"name":"Wellington City Council","locationSet":{"include":["nz"]},"geometry":["area","point"],"matchScore":2,"terms":["wellington city council"],"tags":{"leisure":"park","operator:wikidata":"Q601800"},"addTags":{"leisure":"park","operator":"Wellington City Council","operator:type":"government","operator:wikidata":"Q601800"}},"man_made/charge_point/chargefox-d7f9de":{"name":"Chargefox","locationSet":{"include":["au","nz"]},"geometry":["point"],"matchScore":2,"terms":["chargefox"],"fields":["name","operator","{man_made/charge_point}"],"tags":{"man_made":"charge_point","operator:wikidata":"Q105775824"},"addTags":{"man_made":"charge_point","operator":"Chargefox","operator:wikidata":"Q105775824"}},"man_made/charge_point/chargenetnz-3fbaa3":{"name":"ChargeNet NZ","locationSet":{"include":["nz"]},"geometry":["point"],"matchScore":2,"terms":["chargenet","chargenet nz"],"fields":["name","operator","{man_made/charge_point}"],"tags":{"man_made":"charge_point","operator:wikidata":"Q105872959"},"addTags":{"man_made":"charge_point","operator":"ChargeNet NZ","operator:wikidata":"Q105872959"}},"man_made/charge_point/countiesenergy-3fbaa3":{"name":"Counties Energy","locationSet":{"include":["nz"]},"geometry":["point"],"matchScore":2,"terms":["counties energy"],"fields":["name","operator","{man_made/charge_point}"],"tags":{"man_made":"charge_point","operator:wikidata":"Q108450092"},"addTags":{"man_made":"charge_point","network":"OpenLoop","network:wikidata":"Q113289213","operator":"Counties Energy","operator:wikidata":"Q108450092"}},"man_made/charge_point/hikotron-3fbaa3":{"name":"Hikotron","locationSet":{"include":["nz"]},"geometry":["point"],"matchScore":2,"terms":["hikotron"],"fields":["name","operator","{man_made/charge_point}"],"tags":{"man_made":"charge_point","operator:wikidata":"Q113289003"},"addTags":{"man_made":"charge_point","operator":"Hikotron","operator:wikidata":"Q113289003"}},"man_made/charge_point/jolt-d7f9de":{"name":"Jolt","locationSet":{"include":["au","nz"]},"geometry":["point"],"matchScore":2,"terms":["jolt"],"fields":["name","operator","{man_made/charge_point}"],"tags":{"man_made":"charge_point","operator:wikidata":"Q109783503"},"addTags":{"man_made":"charge_point","operator":"Jolt","operator:wikidata":"Q109783503"}},"man_made/charge_point/kiwev-3fbaa3":{"name":"kiwEV","locationSet":{"include":["nz"]},"geometry":["point"],"matchScore":2,"terms":["kiwev"],"fields":["name","operator","{man_made/charge_point}"],"tags":{"man_made":"charge_point","operator:wikidata":"Q113807417"},"addTags":{"man_made":"charge_point","operator":"kiwEV","operator:wikidata":"Q113807417"}},"man_made/charge_point/vector-3fbaa3":{"name":"Vector","locationSet":{"include":["nz"]},"geometry":["point"],"matchScore":2,"terms":["vector"],"fields":["name","operator","{man_made/charge_point}"],"tags":{"man_made":"charge_point","operator:wikidata":"Q7917807"},"addTags":{"man_made":"charge_point","operator":"Vector","operator:wikidata":"Q7917807"}},"man_made/charge_point/welnetworks-3fbaa3":{"name":"WEL Networks","locationSet":{"include":["nz"]},"geometry":["point"],"matchScore":2,"terms":["wel networks"],"fields":["name","operator","{man_made/charge_point}"],"tags":{"man_made":"charge_point","operator:wikidata":"Q7948949"},"addTags":{"man_made":"charge_point","network":"OpenLoop","network:wikidata":"Q113289213","operator":"WEL Networks","operator:wikidata":"Q7948949"}},"man_made/charge_point/zenergy-3fbaa3":{"name":"Z Energy","locationSet":{"include":["nz"]},"geometry":["point"],"matchScore":2,"terms":["z","z energy"],"fields":["name","operator","{man_made/charge_point}"],"tags":{"man_made":"charge_point","operator:wikidata":"Q8063337"},"addTags":{"man_made":"charge_point","network":"Z Energy","network:wikidata":"Q8063337","operator":"Z Energy","operator:wikidata":"Q8063337"}},"man_made/pipeline/firstgas-22b69e":{"name":"First Gas","locationSet":{"include":["nz"]},"geometry":["line"],"matchScore":2,"terms":["first gas"],"tags":{"man_made":"pipeline","operator:wikidata":"Q24998649"},"addTags":{"man_made":"pipeline","operator":"First Gas","operator:wikidata":"Q24998649","substance":"gas"}},"man_made/pipeline/powerco-22b69e":{"name":"Powerco","locationSet":{"include":["nz"]},"geometry":["line"],"matchScore":2,"terms":["powerco"],"tags":{"man_made":"pipeline","operator:wikidata":"Q7236675"},"addTags":{"man_made":"pipeline","operator":"Powerco","operator:wikidata":"Q7236675","substance":"gas"}},"man_made/pipeline/vector-22b69e":{"name":"Vector","locationSet":{"include":["nz"]},"geometry":["line"],"matchScore":2,"terms":["vector"],"tags":{"man_made":"pipeline","operator:wikidata":"Q7917807"},"addTags":{"man_made":"pipeline","operator":"Vector","operator:wikidata":"Q7917807","substance":"gas"}},"man_made/pumping_station/watercare-876848":{"name":"Watercare","locationSet":{"include":["nz"]},"geometry":["point","area"],"matchScore":2,"terms":["watercare"],"tags":{"man_made":"pumping_station","operator:wikidata":"Q96414325"},"addTags":{"man_made":"pumping_station","operator":"Watercare","operator:wikidata":"Q96414325"}},"man_made/water_tower/watercare-988247":{"name":"Watercare","locationSet":{"include":["nz"]},"geometry":["area","point"],"matchScore":2,"terms":["watercare"],"tags":{"man_made":"water_tower","operator:wikidata":"Q96414325"},"addTags":{"man_made":"water_tower","operator":"Watercare","operator:wikidata":"Q96414325"}},"man_made/water_works/watercare-1be0b4":{"name":"Watercare","locationSet":{"include":["nz"]},"geometry":["point","area"],"matchScore":2,"terms":["watercare"],"tags":{"man_made":"water_works","operator:wikidata":"Q96414325"},"addTags":{"man_made":"water_works","operator":"Watercare","operator:wikidata":"Q96414325"}},"man_made/works/firthconcrete-3369b6":{"name":"Firth Concrete","locationSet":{"include":["nz"]},"geometry":["point","area"],"matchScore":2,"terms":["firth concrete"],"tags":{"man_made":"works","operator:wikidata":"Q5454297"},"addTags":{"landuse":"industrial","man_made":"works","operator":"Firth Concrete","operator:wikidata":"Q5454297","product":"concrete"}},"office/water_utility/watercare-7cc3eb":{"name":"Watercare","locationSet":{"include":["nz"]},"geometry":["point","area"],"matchScore":2,"terms":["watercare"],"tags":{"office":"water_utility","operator:wikidata":"Q96414325"},"addTags":{"name":"Watercare","office":"water_utility","operator":"Watercare","operator:wikidata":"Q96414325"}},"pipeline/substation/firstgas-dddc03":{"name":"First Gas","locationSet":{"include":["nz"]},"geometry":["area","point"],"matchScore":2,"terms":["first gas"],"tags":{"operator:wikidata":"Q24998649","pipeline":"substation"},"addTags":{"operator":"First Gas","operator:wikidata":"Q24998649","pipeline":"substation","substance":"gas"}},"pipeline/substation/powerco-dddc03":{"name":"Powerco","locationSet":{"include":["nz"]},"geometry":["area","point"],"matchScore":2,"terms":["powerco"],"tags":{"operator:wikidata":"Q7236675","pipeline":"substation"},"addTags":{"operator":"Powerco","operator:wikidata":"Q7236675","pipeline":"substation","substance":"gas"}},"pipeline/substation/vector-dddc03":{"name":"Vector","locationSet":{"include":["nz"]},"geometry":["area","point"],"matchScore":2,"terms":["vector"],"tags":{"operator:wikidata":"Q7917807","pipeline":"substation"},"addTags":{"operator":"Vector","operator:wikidata":"Q7917807","pipeline":"substation","substance":"gas"}},"power/generator/genesisenergy-7b0614":{"name":"Genesis Energy","locationSet":{"include":["nz"]},"geometry":["point","vertex","area"],"matchScore":2,"terms":["genesis energy"],"tags":{"operator:wikidata":"Q5532825","power":"generator"},"addTags":{"operator":"Genesis Energy","operator:wikidata":"Q5532825","power":"generator"}},"power/generator/meridianenergy-7b0614":{"name":"Meridian Energy","locationSet":{"include":["nz"]},"geometry":["point","vertex","area"],"matchScore":2,"terms":["meridian energy"],"tags":{"operator:wikidata":"Q6819305","power":"generator"},"addTags":{"operator":"Meridian Energy","operator:wikidata":"Q6819305","power":"generator"}},"power/generator/trustpower-7b0614":{"name":"Trustpower","locationSet":{"include":["nz"]},"geometry":["point","vertex","area"],"matchScore":2,"terms":["trustpower"],"tags":{"operator:wikidata":"Q2456640","power":"generator"},"addTags":{"operator":"Trustpower","operator:wikidata":"Q2456640","power":"generator"}},"power/line/eastlandnetwork-737a3a":{"name":"Eastland Network","locationSet":{"include":["nz"]},"geometry":["line"],"matchScore":2,"terms":["eastland network"],"tags":{"operator:wikidata":"Q108450243","power":"line"},"addTags":{"operator":"Eastland Network","operator:wikidata":"Q108450243","power":"line"}},"power/line/orionnewzealand-737a3a":{"name":"Orion New Zealand","locationSet":{"include":["nz"]},"geometry":["line"],"matchScore":2,"terms":["orion new zealand"],"tags":{"operator:wikidata":"Q7102789","power":"line"},"addTags":{"operator":"Orion New Zealand","operator:wikidata":"Q7102789","power":"line"}},"power/line/powerco-737a3a":{"name":"Powerco","locationSet":{"include":["nz"]},"geometry":["line"],"matchScore":2,"terms":["powerco"],"tags":{"operator:wikidata":"Q7236675","power":"line"},"addTags":{"operator":"Powerco","operator:wikidata":"Q7236675","power":"line"}},"power/line/transpowernewzealand-737a3a":{"name":"Transpower New Zealand","locationSet":{"include":["nz"]},"geometry":["line"],"matchScore":2,"terms":["transpower new zealand"],"tags":{"operator:wikidata":"Q7835339","power":"line"},"addTags":{"operator":"Transpower New Zealand","operator:wikidata":"Q7835339","power":"line"}},"power/line/vector-737a3a":{"name":"Vector","locationSet":{"include":["nz"]},"geometry":["line"],"matchScore":2,"terms":["vector"],"tags":{"operator:wikidata":"Q7917807","power":"line"},"addTags":{"operator":"Vector","operator:wikidata":"Q7917807","power":"line"}},"power/minor_line/eastlandnetwork-43abd4":{"name":"Eastland Network","locationSet":{"include":["nz"]},"geometry":["line"],"matchScore":2,"terms":["eastland network"],"tags":{"operator:wikidata":"Q108450243","power":"minor_line"},"addTags":{"operator":"Eastland Network","operator:wikidata":"Q108450243","power":"minor_line"}},"power/minor_line/orionnewzealand-43abd4":{"name":"Orion New Zealand","locationSet":{"include":["nz"]},"geometry":["line"],"matchScore":2,"terms":["orion new zealand"],"tags":{"operator:wikidata":"Q7102789","power":"minor_line"},"addTags":{"operator":"Orion New Zealand","operator:wikidata":"Q7102789","power":"minor_line"}},"power/minor_line/powerco-43abd4":{"name":"Powerco","locationSet":{"include":["nz"]},"geometry":["line"],"matchScore":2,"terms":["powerco"],"tags":{"operator:wikidata":"Q7236675","power":"minor_line"},"addTags":{"operator":"Powerco","operator:wikidata":"Q7236675","power":"minor_line"}},"power/minor_line/transpowernewzealand-43abd4":{"name":"Transpower New Zealand","locationSet":{"include":["nz"]},"geometry":["line"],"matchScore":2,"terms":["transpower new zealand"],"tags":{"operator:wikidata":"Q7835339","power":"minor_line"},"addTags":{"operator":"Transpower New Zealand","operator:wikidata":"Q7835339","power":"minor_line"}},"power/minor_line/vector-43abd4":{"name":"Vector","locationSet":{"include":["nz"]},"geometry":["line"],"matchScore":2,"terms":["vector"],"tags":{"operator:wikidata":"Q7917807","power":"minor_line"},"addTags":{"operator":"Vector","operator:wikidata":"Q7917807","power":"minor_line"}},"power/plant/mercuryenergy-2bbe4e":{"name":"Mercury Energy","locationSet":{"include":["nz"]},"geometry":["area"],"matchScore":2,"terms":["mercury energy"],"tags":{"operator:wikidata":"Q6818611","power":"plant"},"addTags":{"operator":"Mercury Energy","operator:wikidata":"Q6818611","power":"plant"}},"power/plant/meridianenergy-3485ae":{"name":"Meridian Energy","locationSet":{"include":["au","nz"]},"geometry":["area"],"matchScore":2,"terms":["meridian energy"],"tags":{"operator:wikidata":"Q6819305","power":"plant"},"addTags":{"operator":"Meridian Energy","operator:wikidata":"Q6819305","power":"plant"}},"power/plant/trustpower-3485ae":{"name":"Trustpower","locationSet":{"include":["au","nz"]},"geometry":["area"],"matchScore":2,"terms":["trustpower"],"tags":{"operator:wikidata":"Q2456640","power":"plant"},"addTags":{"operator":"Trustpower","operator:wikidata":"Q2456640","power":"plant"}},"power/pole/eastlandnetwork-54adcf":{"name":"Eastland Network","locationSet":{"include":["nz"]},"geometry":["point","vertex"],"matchScore":2,"terms":["eastland network"],"tags":{"operator:wikidata":"Q108450243","power":"pole"},"addTags":{"operator":"Eastland Network","operator:wikidata":"Q108450243","power":"pole"}},"power/pole/orionnewzealand-54adcf":{"name":"Orion New Zealand","locationSet":{"include":["nz"]},"geometry":["point","vertex"],"matchScore":2,"terms":["orion new zealand"],"tags":{"operator:wikidata":"Q7102789","power":"pole"},"addTags":{"operator":"Orion New Zealand","operator:wikidata":"Q7102789","power":"pole"}},"power/pole/powerco-54adcf":{"name":"Powerco","locationSet":{"include":["nz"]},"geometry":["point","vertex"],"matchScore":2,"terms":["powerco"],"tags":{"operator:wikidata":"Q7236675","power":"pole"},"addTags":{"operator":"Powerco","operator:wikidata":"Q7236675","power":"pole"}},"power/pole/transpowernewzealand-54adcf":{"name":"Transpower New Zealand","locationSet":{"include":["nz"]},"geometry":["point","vertex"],"matchScore":2,"terms":["transpower new zealand"],"tags":{"operator:wikidata":"Q7835339","power":"pole"},"addTags":{"operator":"Transpower New Zealand","operator:wikidata":"Q7835339","power":"pole"}},"power/pole/vector-54adcf":{"name":"Vector","locationSet":{"include":["nz"]},"geometry":["point","vertex"],"matchScore":2,"terms":["vector"],"tags":{"operator:wikidata":"Q7917807","power":"pole"},"addTags":{"operator":"Vector","operator:wikidata":"Q7917807","power":"pole"}},"power/substation/alpineenergy-e516d3":{"name":"Alpine Energy","locationSet":{"include":["nz"]},"geometry":["area","point"],"matchScore":2,"terms":["alpine energy"],"tags":{"operator:wikidata":"Q65068829","power":"substation"},"addTags":{"operator":"Alpine Energy","operator:wikidata":"Q65068829","power":"substation"}},"power/substation/auroraenergy-8d74a7":{"name":"Aurora Energy (New Zealand)","locationSet":{"include":["nz"]},"geometry":["area","point"],"matchScore":2,"terms":["aurora energy"],"tags":{"operator:wikidata":"Q4822522","power":"substation"},"addTags":{"operator":"Aurora Energy","operator:wikidata":"Q4822522","power":"substation"}},"power/substation/eastlandnetwork-8d74a7":{"name":"Eastland Network","locationSet":{"include":["nz"]},"geometry":["area","point"],"matchScore":2,"terms":["eastland network"],"tags":{"operator:wikidata":"Q108450243","power":"substation"},"addTags":{"operator":"Eastland Network","operator:wikidata":"Q108450243","power":"substation"}},"power/substation/kiwirail-8d74a7":{"name":"KiwiRail","locationSet":{"include":["nz"]},"geometry":["area","point"],"matchScore":2,"terms":["kiwirail"],"tags":{"operator:wikidata":"Q3788105","power":"substation"},"addTags":{"operator":"KiwiRail","operator:wikidata":"Q3788105","power":"substation"}},"power/substation/marlboroughlines-8d74a7":{"name":"Marlborough Lines","locationSet":{"include":["nz"]},"geometry":["area","point"],"matchScore":2,"terms":["marlborough lines"],"tags":{"operator:wikidata":"Q6771674","power":"substation"},"addTags":{"operator":"Marlborough Lines","operator:wikidata":"Q6771674","power":"substation"}},"power/substation/networktasman-8d74a7":{"name":"Network Tasman","locationSet":{"include":["nz"]},"geometry":["area","point"],"matchScore":2,"terms":["network tasman"],"tags":{"operator:wikidata":"Q108403115","power":"substation"},"addTags":{"operator":"Network Tasman","operator:wikidata":"Q108403115","power":"substation"}},"power/substation/networkwaitaki-8d74a7":{"name":"Network Waitaki","locationSet":{"include":["nz"]},"geometry":["area","point"],"matchScore":2,"terms":["network waitaki"],"tags":{"operator:wikidata":"Q108403182","power":"substation"},"addTags":{"operator":"Network Waitaki","operator:wikidata":"Q108403182","power":"substation"}},"power/substation/northpower-8d74a7":{"name":"Northpower","locationSet":{"include":["nz"]},"geometry":["area","point"],"matchScore":2,"terms":["northpower"],"tags":{"operator:wikidata":"Q7059634","power":"substation"},"addTags":{"operator":"Northpower","operator:wikidata":"Q7059634","power":"substation"}},"power/substation/orionnewzealand-8d74a7":{"name":"Orion New Zealand","locationSet":{"include":["nz"]},"geometry":["area","point"],"matchScore":2,"terms":["orion new zealand"],"tags":{"operator:wikidata":"Q7102789","power":"substation"},"addTags":{"operator":"Orion New Zealand","operator:wikidata":"Q7102789","power":"substation"}},"power/substation/powerco-8d74a7":{"name":"Powerco","locationSet":{"include":["nz"]},"geometry":["area","point"],"matchScore":2,"terms":["powerco"],"tags":{"operator:wikidata":"Q7236675","power":"substation"},"addTags":{"operator":"Powerco","operator:wikidata":"Q7236675","power":"substation"}},"power/substation/thelinescompany-8d74a7":{"name":"The Lines Company","locationSet":{"include":["nz"]},"geometry":["area","point"],"matchScore":2,"terms":["the lines company"],"tags":{"operator:wikidata":"Q108438789","power":"substation"},"addTags":{"operator":"The Lines Company","operator:wikidata":"Q108438789","power":"substation"}},"power/substation/topenergy-8d74a7":{"name":"Top Energy","locationSet":{"include":["nz"]},"geometry":["area","point"],"matchScore":2,"terms":["top energy"],"tags":{"operator:wikidata":"Q28182690","power":"substation"},"addTags":{"operator":"Top Energy","operator:wikidata":"Q28182690","power":"substation"}},"power/substation/transpowernewzealand-8d74a7":{"name":"Transpower New Zealand","locationSet":{"include":["nz"]},"geometry":["area","point"],"matchScore":2,"terms":["transpower new zealand"],"tags":{"operator:wikidata":"Q7835339","power":"substation"},"addTags":{"operator":"Transpower New Zealand","operator:wikidata":"Q7835339","power":"substation"}},"power/substation/unison-8d74a7":{"name":"Unison","locationSet":{"include":["nz"]},"geometry":["area","point"],"matchScore":2,"terms":["unison","unison networks"],"tags":{"operator:wikidata":"Q24190006","power":"substation"},"addTags":{"operator":"Unison","operator:wikidata":"Q24190006","power":"substation"}},"power/substation/vector-8d74a7":{"name":"Vector","locationSet":{"include":["nz"]},"geometry":["area","point"],"matchScore":2,"terms":["vector"],"tags":{"operator:wikidata":"Q7917807","power":"substation"},"addTags":{"operator":"Vector","operator:wikidata":"Q7917807","power":"substation"}},"power/substation/welnetworks-8d74a7":{"name":"WEL Networks","locationSet":{"include":["nz"]},"geometry":["area","point"],"matchScore":2,"terms":["wel networks"],"tags":{"operator:wikidata":"Q7948949","power":"substation"},"addTags":{"operator":"WEL Networks","operator:wikidata":"Q7948949","power":"substation"}},"power/substation/wellingtonelectricity-8d74a7":{"name":"Wellington Electricity","locationSet":{"include":["nz"]},"geometry":["area","point"],"matchScore":2,"terms":["wellington electricity"],"tags":{"operator:wikidata":"Q7981392","power":"substation"},"addTags":{"operator":"Wellington Electricity","operator:wikidata":"Q7981392","power":"substation"}},"power/substation/westpower-8d74a7":{"name":"Westpower","locationSet":{"include":["nz"]},"geometry":["area","point"],"matchScore":2,"terms":["westpower"],"tags":{"operator:wikidata":"Q105820572","power":"substation"},"addTags":{"operator":"Westpower","operator:wikidata":"Q105820572","power":"substation"}},"power/tower/eastlandnetwork-9a0f48":{"name":"Eastland Network","locationSet":{"include":["nz"]},"geometry":["point","vertex"],"matchScore":2,"terms":["eastland network"],"tags":{"operator:wikidata":"Q108450243","power":"tower"},"addTags":{"operator":"Eastland Network","operator:wikidata":"Q108450243","power":"tower"}},"power/tower/orionnewzealand-9a0f48":{"name":"Orion New Zealand","locationSet":{"include":["nz"]},"geometry":["point","vertex"],"matchScore":2,"terms":["orion new zealand"],"tags":{"operator:wikidata":"Q7102789","power":"tower"},"addTags":{"operator":"Orion New Zealand","operator:wikidata":"Q7102789","power":"tower"}},"power/tower/powerco-9a0f48":{"name":"Powerco","locationSet":{"include":["nz"]},"geometry":["point","vertex"],"matchScore":2,"terms":["powerco"],"tags":{"operator:wikidata":"Q7236675","power":"tower"},"addTags":{"operator":"Powerco","operator:wikidata":"Q7236675","power":"tower"}},"power/tower/transpowernewzealand-9a0f48":{"name":"Transpower New Zealand","locationSet":{"include":["nz"]},"geometry":["point","vertex"],"matchScore":2,"terms":["transpower new zealand"],"tags":{"operator:wikidata":"Q7835339","power":"tower"},"addTags":{"operator":"Transpower New Zealand","operator:wikidata":"Q7835339","power":"tower"}},"power/tower/vector-9a0f48":{"name":"Vector","locationSet":{"include":["nz"]},"geometry":["point","vertex"],"matchScore":2,"terms":["vector"],"tags":{"operator:wikidata":"Q7917807","power":"tower"},"addTags":{"operator":"Vector","operator:wikidata":"Q7917807","power":"tower"}},"power/transformer/alpineenergy-a6e13b":{"name":"Alpine Energy","locationSet":{"include":["nz"]},"geometry":["point","vertex"],"matchScore":2,"terms":["alpine energy"],"tags":{"operator:wikidata":"Q65068829","power":"transformer"},"addTags":{"operator":"Alpine Energy","operator:wikidata":"Q65068829","power":"transformer"}},"power/transformer/auroraenergy-05e84a":{"name":"Aurora Energy (New Zealand)","locationSet":{"include":["nz"]},"geometry":["point","vertex"],"matchScore":2,"terms":["aurora energy"],"tags":{"operator:wikidata":"Q4822522","power":"transformer"},"addTags":{"operator":"Aurora Energy","operator:wikidata":"Q4822522","power":"transformer"}},"power/transformer/eastlandnetwork-05e84a":{"name":"Eastland Network","locationSet":{"include":["nz"]},"geometry":["point","vertex"],"matchScore":2,"terms":["eastland network"],"tags":{"operator:wikidata":"Q108450243","power":"transformer"},"addTags":{"operator":"Eastland Network","operator:wikidata":"Q108450243","power":"transformer"}},"power/transformer/kiwirail-05e84a":{"name":"KiwiRail","locationSet":{"include":["nz"]},"geometry":["point","vertex"],"matchScore":2,"terms":["kiwirail"],"tags":{"operator:wikidata":"Q3788105","power":"transformer"},"addTags":{"operator":"KiwiRail","operator:wikidata":"Q3788105","power":"transformer"}},"power/transformer/marlboroughlines-05e84a":{"name":"Marlborough Lines","locationSet":{"include":["nz"]},"geometry":["point","vertex"],"matchScore":2,"terms":["marlborough lines"],"tags":{"operator:wikidata":"Q6771674","power":"transformer"},"addTags":{"operator":"Marlborough Lines","operator:wikidata":"Q6771674","power":"transformer"}},"power/transformer/networktasman-05e84a":{"name":"Network Tasman","locationSet":{"include":["nz"]},"geometry":["point","vertex"],"matchScore":2,"terms":["network tasman"],"tags":{"operator:wikidata":"Q108403115","power":"transformer"},"addTags":{"operator":"Network Tasman","operator:wikidata":"Q108403115","power":"transformer"}},"power/transformer/networkwaitaki-05e84a":{"name":"Network Waitaki","locationSet":{"include":["nz"]},"geometry":["point","vertex"],"matchScore":2,"terms":["network waitaki"],"tags":{"operator:wikidata":"Q108403182","power":"transformer"},"addTags":{"operator":"Network Waitaki","operator:wikidata":"Q108403182","power":"transformer"}},"power/transformer/northpower-05e84a":{"name":"Northpower","locationSet":{"include":["nz"]},"geometry":["point","vertex"],"matchScore":2,"terms":["northpower"],"tags":{"operator:wikidata":"Q7059634","power":"transformer"},"addTags":{"operator":"Northpower","operator:wikidata":"Q7059634","power":"transformer"}},"power/transformer/orionnewzealand-05e84a":{"name":"Orion New Zealand","locationSet":{"include":["nz"]},"geometry":["point","vertex"],"matchScore":2,"terms":["orion new zealand"],"tags":{"operator:wikidata":"Q7102789","power":"transformer"},"addTags":{"operator":"Orion New Zealand","operator:wikidata":"Q7102789","power":"transformer"}},"power/transformer/powerco-05e84a":{"name":"Powerco","locationSet":{"include":["nz"]},"geometry":["point","vertex"],"matchScore":2,"terms":["powerco"],"tags":{"operator:wikidata":"Q7236675","power":"transformer"},"addTags":{"operator":"Powerco","operator:wikidata":"Q7236675","power":"transformer"}},"power/transformer/thelinescompany-05e84a":{"name":"The Lines Company","locationSet":{"include":["nz"]},"geometry":["point","vertex"],"matchScore":2,"terms":["the lines company"],"tags":{"operator:wikidata":"Q108438789","power":"transformer"},"addTags":{"operator":"The Lines Company","operator:wikidata":"Q108438789","power":"transformer"}},"power/transformer/topenergy-05e84a":{"name":"Top Energy","locationSet":{"include":["nz"]},"geometry":["point","vertex"],"matchScore":2,"terms":["top energy"],"tags":{"operator:wikidata":"Q28182690","power":"transformer"},"addTags":{"operator":"Top Energy","operator:wikidata":"Q28182690","power":"transformer"}},"power/transformer/transpowernewzealand-05e84a":{"name":"Transpower New Zealand","locationSet":{"include":["nz"]},"geometry":["point","vertex"],"matchScore":2,"terms":["transpower new zealand"],"tags":{"operator:wikidata":"Q7835339","power":"transformer"},"addTags":{"operator":"Transpower New Zealand","operator:wikidata":"Q7835339","power":"transformer"}},"power/transformer/unison-05e84a":{"name":"Unison","locationSet":{"include":["nz"]},"geometry":["point","vertex"],"matchScore":2,"terms":["unison","unison networks"],"tags":{"operator:wikidata":"Q24190006","power":"transformer"},"addTags":{"operator":"Unison","operator:wikidata":"Q24190006","power":"transformer"}},"power/transformer/vector-05e84a":{"name":"Vector","locationSet":{"include":["nz"]},"geometry":["point","vertex"],"matchScore":2,"terms":["vector"],"tags":{"operator:wikidata":"Q7917807","power":"transformer"},"addTags":{"operator":"Vector","operator:wikidata":"Q7917807","power":"transformer"}},"power/transformer/welnetworks-05e84a":{"name":"WEL Networks","locationSet":{"include":["nz"]},"geometry":["point","vertex"],"matchScore":2,"terms":["wel networks"],"tags":{"operator:wikidata":"Q7948949","power":"transformer"},"addTags":{"operator":"WEL Networks","operator:wikidata":"Q7948949","power":"transformer"}},"power/transformer/wellingtonelectricity-05e84a":{"name":"Wellington Electricity","locationSet":{"include":["nz"]},"geometry":["point","vertex"],"matchScore":2,"terms":["wellington electricity"],"tags":{"operator:wikidata":"Q7981392","power":"transformer"},"addTags":{"operator":"Wellington Electricity","operator:wikidata":"Q7981392","power":"transformer"}},"power/transformer/westpower-05e84a":{"name":"Westpower","locationSet":{"include":["nz"]},"geometry":["point","vertex"],"matchScore":2,"terms":["westpower"],"tags":{"operator:wikidata":"Q105820572","power":"transformer"},"addTags":{"operator":"Westpower","operator:wikidata":"Q105820572","power":"transformer"}},"telecom/exchange/chorus-04ab95":{"name":"Chorus","locationSet":{"include":["nz"]},"geometry":["point","area"],"matchScore":2,"terms":["chorus"],"fields":["name","operator","{telecom/exchange}"],"tags":{"operator:wikidata":"Q5105276","telecom":"exchange"},"addTags":{"operator":"Chorus","operator:wikidata":"Q5105276","telecom":"exchange"}},"tourism/camp_site/departmentofconservation-b76ca8":{"name":"Department of Conservation","locationSet":{"include":["nz"]},"geometry":["point","vertex","area"],"matchScore":2,"terms":["department of conservation","doc"],"tags":{"operator:wikidata":"Q1191417","tourism":"camp_site"},"addTags":{"operator":"Department of Conservation","operator:wikidata":"Q1191417","tourism":"camp_site"}},"tourism/camp_site/top10holidayparks-b76ca8":{"name":"TOP 10 Holiday Parks","locationSet":{"include":["nz"]},"geometry":["point","vertex","area"],"matchScore":2,"terms":["top 10 holiday parks"],"tags":{"operator:wikidata":"Q115566046","tourism":"camp_site"},"addTags":{"operator":"TOP 10 Holiday Parks","operator:wikidata":"Q115566046","tourism":"camp_site"}},"tourism/wilderness_hut/departmentofconservation-5df9f2":{"name":"Department of Conservation","locationSet":{"include":["nz"]},"geometry":["point","area"],"matchScore":2,"terms":["department of conservation","doc"],"tags":{"operator:wikidata":"Q1191417","tourism":"wilderness_hut"},"addTags":{"operator":"Department of Conservation","operator:wikidata":"Q1191417","tourism":"wilderness_hut"}},"public_transport/station_ferry/at-683580":{"name":"AT (Auckland Transport)","locationSet":{"include":["nz"]},"geometry":["vertex","point","area"],"matchScore":2,"terms":["at","auckland transport"],"reference":{"key":"amenity","value":"ferry_terminal"},"tags":{"ferry":"yes","network:wikidata":"Q4819567","public_transport":"station"},"addTags":{"amenity":"ferry_terminal","ferry":"yes","network":"AT","network:wikidata":"Q4819567","public_transport":"station"}},"public_transport/platform/bus_point/at-b92a72":{"name":"AT (Auckland Transport)","locationSet":{"include":["nz"]},"geometry":["point","vertex"],"matchScore":2,"terms":["at"],"reference":{"key":"public_transport","value":"platform"},"tags":{"bus":"yes","network:wikidata":"Q4819567","public_transport":"platform"},"addTags":{"bus":"yes","highway":"bus_stop","network":"AT","network:wikidata":"Q4819567","public_transport":"platform"}},"public_transport/platform/bus_point/baybus-d44a38":{"name":"BayBus","locationSet":{"include":["nz"]},"geometry":["point","vertex"],"matchScore":2,"terms":["baybus"],"reference":{"key":"public_transport","value":"platform"},"tags":{"bus":"yes","network:wikidata":"Q112189811","public_transport":"platform"},"addTags":{"bus":"yes","highway":"bus_stop","network":"BayBus","network:wikidata":"Q112189811","public_transport":"platform"}},"public_transport/platform/bus_point/busit-b92a72":{"name":"BUSIT Waikato","locationSet":{"include":["nz"]},"geometry":["point","vertex"],"matchScore":2,"terms":["busit"],"reference":{"key":"public_transport","value":"platform"},"tags":{"bus":"yes","network:wikidata":"Q24998601","public_transport":"platform"},"addTags":{"bus":"yes","highway":"bus_stop","network":"BUSIT","network:wikidata":"Q24998601","public_transport":"platform"}},"public_transport/platform/bus_point/citylink-b2610c":{"name":"CityLink Whangārei","locationSet":{"include":["nz"]},"geometry":["point","vertex"],"matchScore":2,"terms":["citylink"],"reference":{"key":"public_transport","value":"platform"},"tags":{"bus":"yes","network:wikidata":"Q112189837","public_transport":"platform"},"addTags":{"bus":"yes","highway":"bus_stop","network":"CityLink","network:wikidata":"Q112189837","public_transport":"platform"}},"public_transport/platform/bus_point/gobay-acd8a4":{"name":"goBay","locationSet":{"include":["nz"]},"geometry":["point","vertex"],"matchScore":2,"terms":["gobay"],"reference":{"key":"public_transport","value":"platform"},"tags":{"bus":"yes","network:wikidata":"Q112189822","public_transport":"platform"},"addTags":{"bus":"yes","highway":"bus_stop","network":"goBay","network:wikidata":"Q112189822","public_transport":"platform"}},"public_transport/platform/bus_point/intercity-b8d017":{"name":"InterCity (New Zealand)","locationSet":{"include":["nz"]},"geometry":["point","vertex"],"matchScore":2,"terms":["intercity"],"reference":{"key":"public_transport","value":"platform"},"tags":{"bus":"yes","network:wikidata":"Q6045736","public_transport":"platform"},"addTags":{"bus":"yes","highway":"bus_stop","network":"InterCity","network:wikidata":"Q6045736","public_transport":"platform"}},"public_transport/platform/bus_point/metlink-137ae8":{"name":"Metlink (Wellington)","locationSet":{"include":["nz"]},"geometry":["point","vertex"],"matchScore":2,"terms":["metlink"],"reference":{"key":"public_transport","value":"platform"},"tags":{"bus":"yes","network:wikidata":"Q7258026","public_transport":"platform"},"addTags":{"bus":"yes","highway":"bus_stop","network":"Metlink","network:wikidata":"Q7258026","public_transport":"platform"}},"public_transport/platform/bus_point/metrochristchurch-429601":{"name":"Metro (Christchurch)","locationSet":{"include":["nz"]},"geometry":["point","vertex"],"matchScore":2,"terms":["metro christchurch"],"reference":{"key":"public_transport","value":"platform"},"tags":{"bus":"yes","network:wikidata":"Q7258007","public_transport":"platform"},"addTags":{"bus":"yes","highway":"bus_stop","network":"Metro Christchurch","network:wikidata":"Q7258007","public_transport":"platform"}},"public_transport/platform/bus_point/otagoregionalcouncil-3a10f2":{"name":"Otago Regional Council","locationSet":{"include":["nz"]},"geometry":["point","vertex"],"matchScore":2,"terms":["otago regional council"],"reference":{"key":"public_transport","value":"platform"},"tags":{"bus":"yes","network:wikidata":"Q7108351","public_transport":"platform"},"addTags":{"bus":"yes","highway":"bus_stop","network":"Otago Regional Council","network:wikidata":"Q7108351","public_transport":"platform"}},"public_transport/platform/bus_point/skybus-c0ad3f":{"name":"Skybus","locationSet":{"include":["au","nz"]},"geometry":["point","vertex"],"matchScore":2,"terms":["skybus"],"reference":{"key":"public_transport","value":"platform"},"tags":{"bus":"yes","network:wikidata":"Q7537617","public_transport":"platform"},"addTags":{"bus":"yes","highway":"bus_stop","network":"Skybus","network:wikidata":"Q7537617","public_transport":"platform"}},"railway/station/at-e9d90b":{"name":"AT (Auckland Transport)","locationSet":{"include":["nz"]},"geometry":["point","vertex","area"],"matchScore":2,"terms":["at","auckland transport"],"tags":{"network:wikidata":"Q4819567","railway":"station"},"addTags":{"network":"AT","network:wikidata":"Q4819567","public_transport":"station","railway":"station","train":"yes"}},"type/route/bus/at-829c40":{"name":"AT (Auckland Transport)","locationSet":{"include":["nz"]},"geometry":["relation"],"matchScore":2,"terms":["at"],"reference":{"key":"route","value":"bus"},"tags":{"network:wikidata":"Q4819567","route":"bus","type":"route"},"addTags":{"network":"AT","network:wikidata":"Q4819567","route":"bus","type":"route"}},"type/route/bus/baybus-8b4ea6":{"name":"BayBus","locationSet":{"include":["nz"]},"geometry":["relation"],"matchScore":2,"terms":["baybus"],"reference":{"key":"route","value":"bus"},"tags":{"network:wikidata":"Q112189811","route":"bus","type":"route"},"addTags":{"network":"BayBus","network:wikidata":"Q112189811","route":"bus","type":"route"}},"type/route/bus/busit-829c40":{"name":"BUSIT Waikato","locationSet":{"include":["nz"]},"geometry":["relation"],"matchScore":2,"terms":["busit"],"reference":{"key":"route","value":"bus"},"tags":{"network:wikidata":"Q24998601","route":"bus","type":"route"},"addTags":{"network":"BUSIT","network:wikidata":"Q24998601","route":"bus","type":"route"}},"type/route/bus/citylink-2d1d52":{"name":"CityLink Whangārei","locationSet":{"include":["nz"]},"geometry":["relation"],"matchScore":2,"terms":["citylink"],"reference":{"key":"route","value":"bus"},"tags":{"network:wikidata":"Q112189837","route":"bus","type":"route"},"addTags":{"network":"CityLink","network:wikidata":"Q112189837","route":"bus","type":"route"}},"type/route/bus/gobay-a82f86":{"name":"goBay","locationSet":{"include":["nz"]},"geometry":["relation"],"matchScore":2,"terms":["gobay"],"reference":{"key":"route","value":"bus"},"tags":{"network:wikidata":"Q112189822","route":"bus","type":"route"},"addTags":{"network":"goBay","network:wikidata":"Q112189822","route":"bus","type":"route"}},"type/route/bus/intercity-49ab84":{"name":"InterCity (New Zealand)","locationSet":{"include":["nz"]},"geometry":["relation"],"matchScore":2,"terms":["intercity"],"reference":{"key":"route","value":"bus"},"tags":{"network:wikidata":"Q6045736","route":"bus","type":"route"},"addTags":{"network":"InterCity","network:wikidata":"Q6045736","route":"bus","type":"route"}},"type/route/bus/metlink-844817":{"name":"Metlink (Wellington)","locationSet":{"include":["nz"]},"geometry":["relation"],"matchScore":2,"terms":["metlink"],"reference":{"key":"route","value":"bus"},"tags":{"network:wikidata":"Q7258026","route":"bus","type":"route"},"addTags":{"network":"Metlink","network:wikidata":"Q7258026","route":"bus","type":"route"}},"type/route/bus/metrochristchurch-034a34":{"name":"Metro (Christchurch)","locationSet":{"include":["nz"]},"geometry":["relation"],"matchScore":2,"terms":["metro christchurch"],"reference":{"key":"route","value":"bus"},"tags":{"network:wikidata":"Q7258007","route":"bus","type":"route"},"addTags":{"network":"Metro Christchurch","network:wikidata":"Q7258007","route":"bus","type":"route"}},"type/route/bus/otagoregionalcouncil-cd2ab3":{"name":"Otago Regional Council","locationSet":{"include":["nz"]},"geometry":["relation"],"matchScore":2,"terms":["otago regional council"],"reference":{"key":"route","value":"bus"},"tags":{"network:wikidata":"Q7108351","route":"bus","type":"route"},"addTags":{"network":"Otago Regional Council","network:wikidata":"Q7108351","route":"bus","type":"route"}},"type/route/bus/skybus-4d26c5":{"name":"Skybus","locationSet":{"include":["au","nz"]},"geometry":["relation"],"matchScore":2,"terms":["skybus"],"reference":{"key":"route","value":"bus"},"tags":{"network:wikidata":"Q7537617","route":"bus","type":"route"},"addTags":{"network":"Skybus","network:wikidata":"Q7537617","route":"bus","type":"route"}},"type/route/ferry/at-9acbbb":{"name":"AT (Auckland Transport)","locationSet":{"include":["nz"]},"geometry":["relation"],"matchScore":2,"terms":["at","auckland transport"],"reference":{"key":"route","value":"ferry"},"tags":{"network:wikidata":"Q4819567","route":"ferry","type":"route"},"addTags":{"network":"AT","network:wikidata":"Q4819567","route":"ferry","type":"route"}},"route/ferry/at-9acbbb":{"name":"AT (Auckland Transport)","locationSet":{"include":["nz"]},"geometry":["line"],"matchScore":2,"terms":["at","auckland transport"],"tags":{"network:wikidata":"Q4819567","route":"ferry"},"addTags":{"network":"AT","network:wikidata":"Q4819567","route":"ferry"}},"type/route/train/at-8a95ba":{"name":"AT (Auckland Transport)","locationSet":{"include":["nz"]},"geometry":["relation"],"matchScore":2,"terms":["at","auckland transport"],"reference":{"key":"route","value":"train"},"tags":{"network:wikidata":"Q4819567","route":"train","type":"route"},"addTags":{"network":"AT","network:wikidata":"Q4819567","route":"train","type":"route"}}}