{"amenity/atm/cardtronics-d0c754":{"name":"Cardtronics","locationSet":{"include":["au","ca","de","es","gb","ie","mx","nz","us","za"]},"geometry":["point","vertex"],"matchScore":2,"terms":["cardtronics"],"tags":{"amenity":"atm","brand:wikidata":"Q50239180"},"addTags":{"amenity":"atm","brand":"Cardtronics","brand:wikidata":"Q50239180","brand:wikipedia":"en:Cardtronics","name":"Cardtronics"}},"amenity/atm/abanca-b48e80":{"name":"ABANCA","locationSet":{"include":["es"]},"geometry":["point","vertex"],"matchScore":2,"terms":["abanca","abanca corporación bancaria"],"tags":{"amenity":"atm","brand:wikidata":"Q9598744"},"addTags":{"amenity":"atm","brand":"ABANCA","brand:wikidata":"Q9598744","brand:wikipedia":"es:Abanca","name":"ABANCA","official_name":"ABANCA Corporación Bancaria","operator":"ABANCA","operator:wikidata":"Q9598744","operator:wikipedia":"es:Abanca"}},"amenity/atm/attijariwafabank-e568eb":{"name":"Attijariwafa Bank (التجاري وفا بنك)","locationSet":{"include":["ae","be","bf","bj","ca","cd","cg","ch","ci","cm","eg","es","fr","ga","gb","it","ma","mr","nl","sa","sn","tg","tn"]},"geometry":["point","vertex"],"matchScore":2,"terms":["attijariwafa bank","attijariwafa bank التجاري وفا بنك","التجاري وفا بنك"],"tags":{"amenity":"atm","brand:wikidata":"Q758052"},"addTags":{"amenity":"atm","brand":"Attijariwafa Bank","brand:ar":"التجاري وفا بنك","brand:en":"Attijariwafa Bank","brand:wikidata":"Q758052","brand:wikipedia":"en:Attijariwafa Bank","name:ar":"التجاري وفا بنك","name:en":"Attijariwafa Bank","operator":"Attijariwafa Bank","operator:wikidata":"Q758052","operator:wikipedia":"en:Attijariwafa Bank"}},"amenity/atm/bancamarch-b48e80":{"name":"Banca March","locationSet":{"include":["es"]},"geometry":["point","vertex"],"matchScore":2,"terms":["banca march"],"tags":{"amenity":"atm","brand:wikidata":"Q578252"},"addTags":{"amenity":"atm","brand":"Banca March","brand:wikidata":"Q578252","brand:wikipedia":"en:Banca March","name":"Banca March","operator":"Banca March","operator:wikidata":"Q578252","operator:wikipedia":"en:Banca March"}},"amenity/atm/bancopastor-b48e80":{"name":"Banco Pastor","locationSet":{"include":["es"]},"geometry":["point","vertex"],"matchScore":2,"terms":["banco pastor","banco popular pastor"],"searchable":false,"tags":{"amenity":"atm","brand:wikidata":"Q806193"},"addTags":{"amenity":"atm","brand":"Banco Pastor","brand:wikidata":"Q806193","brand:wikipedia":"en:Banco Pastor","name":"Banco Pastor","official_name":"Banco Popular Pastor","operator":"Banco Pastor","operator:wikidata":"Q806193","operator:wikipedia":"en:Banco Pastor"}},"amenity/atm/bancosabadell-b48e80":{"name":"Banco Sabadell","locationSet":{"include":["es"]},"geometry":["point","vertex"],"matchScore":2,"terms":["banc sabadell","banco de sabadell, s.a.","banco sabadell","sabadell"],"tags":{"amenity":"atm","brand:wikidata":"Q762330"},"addTags":{"amenity":"atm","brand":"Banco Sabadell","brand:ca":"Banc Sabadell","brand:es":"Banco Sabadell","brand:wikidata":"Q762330","brand:wikipedia":"es:Banco Sabadell","name":"Banco Sabadell","name:ca":"Banc Sabadell","name:es":"Banco Sabadell","official_name":"Banco de Sabadell, S.A.","operator":"Banco Sabadell","operator:wikidata":"Q762330","operator:wikipedia":"es:Banco Sabadell"}},"amenity/atm/bankia-b48e80":{"name":"Bankia","locationSet":{"include":["es"]},"geometry":["point","vertex"],"matchScore":2,"terms":["bankia"],"searchable":false,"tags":{"amenity":"atm","brand:wikidata":"Q806807"},"addTags":{"amenity":"atm","brand":"Bankia","brand:wikidata":"Q806807","brand:wikipedia":"en:Bankia","name":"Bankia","operator":"Bankia","operator:wikidata":"Q806807","operator:wikipedia":"en:Bankia"}},"amenity/atm/bankinter-3f27ef":{"name":"Bankinter","locationSet":{"include":["es","pt"]},"geometry":["point","vertex"],"matchScore":2,"terms":["bankinter"],"tags":{"amenity":"atm","brand:wikidata":"Q806808"},"addTags":{"amenity":"atm","brand":"Bankinter","brand:wikidata":"Q806808","brand:wikipedia":"es:Bankinter","name":"Bankinter","operator":"Bankinter","operator:wikidata":"Q806808","operator:wikipedia":"es:Bankinter"}},"amenity/atm/banquepopulaire-2e486a":{"name":"Banque Populaire (البنك الشعبي)","locationSet":{"include":["de","es","it","ma","nl"]},"geometry":["point","vertex"],"matchScore":2,"terms":["banque populaire","banque populaire البنك الشعبي","البنك الشعبي"],"tags":{"amenity":"atm","brand:wikidata":"Q2883441"},"addTags":{"amenity":"atm","brand":"Banque Populaire","brand:ar":"البنك الشعبي","brand:en":"Banque Populaire","brand:wikidata":"Q2883441","brand:wikipedia":"en:Banque Populaire (Morocco)","name:ar":"البنك الشعبي","name:en":"Banque Populaire","operator":"Banque Populaire","operator:wikidata":"Q2883441","operator:wikipedia":"en:Banque Populaire (Morocco)"}},"amenity/atm/bantierra-b48e80":{"name":"Bantierra","locationSet":{"include":["es"]},"geometry":["point","vertex"],"matchScore":2,"terms":["bantierra"],"tags":{"amenity":"atm","brand:wikidata":"Q5719155"},"addTags":{"amenity":"atm","brand":"Bantierra","brand:wikidata":"Q5719155","brand:wikipedia":"es:Caja Rural de Aragón","name":"Bantierra","operator":"Bantierra","operator:wikidata":"Q5719155","operator:wikipedia":"es:Caja Rural de Aragón"}},"amenity/atm/bmn-b48e80":{"name":"BMN","locationSet":{"include":["es"]},"geometry":["point","vertex"],"matchScore":2,"terms":["banco mare nostrum","bmn"],"searchable":false,"tags":{"amenity":"atm","brand:wikidata":"Q3754900"},"addTags":{"amenity":"atm","brand":"BMN","brand:wikidata":"Q3754900","brand:wikipedia":"es:Banco Mare Nostrum","name":"BMN","official_name":"Banco Mare Nostrum","operator":"BMN","operator:wikidata":"Q3754900","operator:wikipedia":"es:Banco Mare Nostrum"}},"amenity/atm/caixageraldedepositos-49554e":{"name":"Caixa Geral de Depósitos","locationSet":{"include":["es","fr","pt"]},"geometry":["point","vertex"],"matchScore":2,"terms":["caixa geral de depósitos"],"tags":{"amenity":"atm","brand:wikidata":"Q1026044"},"addTags":{"amenity":"atm","brand":"Caixa Geral de Depósitos","brand:wikidata":"Q1026044","brand:wikipedia":"pt:Caixa Geral de Depósitos","name":"Caixa Geral de Depósitos","operator":"Caixa Geral de Depósitos","operator:wikidata":"Q1026044","operator:wikipedia":"pt:Caixa Geral de Depósitos"}},"amenity/atm/caixabank-b48e80":{"name":"Caixabank (España)","locationSet":{"include":["es"]},"geometry":["point","vertex"],"matchScore":2,"terms":["caixabank"],"tags":{"amenity":"atm","brand:wikidata":"Q847225"},"addTags":{"amenity":"atm","brand":"Caixabank","brand:wikidata":"Q847225","brand:wikipedia":"en:CaixaBank","name":"Caixabank","operator":"Caixabank","operator:wikidata":"Q847225","operator:wikipedia":"en:CaixaBank"}},"amenity/atm/cajaduero-b48e80":{"name":"Caja Duero","locationSet":{"include":["es"]},"geometry":["point","vertex"],"matchScore":2,"terms":["caja duero"],"searchable":false,"tags":{"amenity":"atm","brand:wikidata":"Q3821055"},"addTags":{"amenity":"atm","brand":"Caja Duero","brand:wikidata":"Q3821055","brand:wikipedia":"es:Caja Duero","name":"Caja Duero","operator":"Caja Duero","operator:wikidata":"Q3821055","operator:wikipedia":"es:Caja Duero"}},"amenity/atm/cajaespana-b48e80":{"name":"Caja España","locationSet":{"include":["es"]},"geometry":["point","vertex"],"matchScore":2,"terms":["caja españa"],"searchable":false,"tags":{"amenity":"atm","brand:wikidata":"Q966985"},"addTags":{"amenity":"atm","brand":"Caja España","brand:wikidata":"Q966985","brand:wikipedia":"es:Caja España","name":"Caja España","operator":"Caja España","operator:wikidata":"Q966985","operator:wikipedia":"es:Caja España"}},"amenity/atm/cajarural-b48e80":{"name":"Caja Rural","locationSet":{"include":["es"]},"geometry":["point","vertex"],"matchScore":2,"terms":["caja rural"],"tags":{"amenity":"atm","brand:wikidata":"Q3649971"},"addTags":{"amenity":"atm","brand":"Caja Rural","brand:wikidata":"Q3649971","brand:wikipedia":"es:Caja Rural","name":"Caja Rural","operator":"Caja Rural","operator:wikidata":"Q3649971","operator:wikipedia":"es:Caja Rural"}},"amenity/atm/cajaruraldejaen-b48e80":{"name":"Caja Rural de Jaén","locationSet":{"include":["es"]},"geometry":["point","vertex"],"matchScore":2,"terms":["caja rural de jaén"],"tags":{"amenity":"atm","brand:wikidata":"Q18720350"},"addTags":{"amenity":"atm","brand":"Caja Rural de Jaén","brand:wikidata":"Q18720350","brand:wikipedia":"es:Caja Rural de Jaén, Barcelona y Madrid","name":"Caja Rural de Jaén","operator":"Caja Rural de Jaén","operator:wikidata":"Q18720350","operator:wikipedia":"es:Caja Rural de Jaén, Barcelona y Madrid"}},"amenity/atm/cajamar-b48e80":{"name":"Cajamar","locationSet":{"include":["es"]},"geometry":["point","vertex"],"matchScore":2,"terms":["cajamar"],"tags":{"amenity":"atm","brand:wikidata":"Q8254971"},"addTags":{"amenity":"atm","brand":"Cajamar","brand:wikidata":"Q8254971","brand:wikipedia":"es:Cajamar Caja Rural","name":"Cajamar","operator":"Cajamar","operator:wikidata":"Q8254971","operator:wikipedia":"es:Cajamar Caja Rural"}},"amenity/atm/cajasur-b48e80":{"name":"CajaSur","locationSet":{"include":["es"]},"geometry":["point","vertex"],"matchScore":2,"terms":["cajasur"],"searchable":false,"tags":{"amenity":"atm","brand:wikidata":"Q3751637"},"addTags":{"amenity":"atm","brand":"CajaSur","brand:wikidata":"Q3751637","brand:wikipedia":"en:CajaSur","name":"CajaSur","operator":"CajaSur","operator:wikidata":"Q3751637","operator:wikipedia":"en:CajaSur"}},"amenity/atm/catalunyacaixa-b48e80":{"name":"CatalunyaCaixa","locationSet":{"include":["es"]},"geometry":["point","vertex"],"matchScore":2,"terms":["catalunyacaixa"],"searchable":false,"tags":{"amenity":"atm","brand:wikidata":"Q3750952"},"addTags":{"amenity":"atm","brand":"CatalunyaCaixa","brand:wikidata":"Q3750952","brand:wikipedia":"en:CatalunyaCaixa","name":"CatalunyaCaixa","operator":"CatalunyaCaixa","operator:wikidata":"Q3750952","operator:wikipedia":"en:CatalunyaCaixa"}},"amenity/atm/ficohsa-3c5276":{"name":"Ficohsa","locationSet":{"include":["es","gt","hn","ni","pa","us"]},"geometry":["point","vertex"],"matchScore":2,"terms":["banco ficohsa","ficohsa"],"tags":{"amenity":"atm","brand:wikidata":"Q5886178"},"addTags":{"amenity":"atm","brand":"Ficohsa","brand:wikidata":"Q5886178","brand:wikipedia":"es:Grupo Financiero FICOHSA","name":"Ficohsa","operator":"Ficohsa","operator:wikidata":"Q5886178","operator:wikipedia":"es:Grupo Financiero FICOHSA"}},"amenity/atm/ibercaja-b48e80":{"name":"Ibercaja","locationSet":{"include":["es"]},"geometry":["point","vertex"],"matchScore":2,"terms":["ibercaja"],"tags":{"amenity":"atm","brand:wikidata":"Q5907815"},"addTags":{"amenity":"atm","brand":"Ibercaja","brand:wikidata":"Q5907815","brand:wikipedia":"es:Ibercaja","name":"Ibercaja","operator":"Ibercaja","operator:wikidata":"Q5907815","operator:wikipedia":"es:Ibercaja"}},"amenity/atm/kutxabank-b48e80":{"name":"Kutxabank","locationSet":{"include":["es"]},"geometry":["point","vertex"],"matchScore":2,"terms":["kutxabank"],"tags":{"amenity":"atm","brand:wikidata":"Q5139377"},"addTags":{"amenity":"atm","brand":"Kutxabank","brand:wikidata":"Q5139377","brand:wikipedia":"en:Kutxabank","name":"Kutxabank","operator":"Kutxabank","operator:wikidata":"Q5139377","operator:wikipedia":"en:Kutxabank"}},"amenity/atm/lacaixa-b48e80":{"name":"La Caixa","locationSet":{"include":["es"]},"geometry":["point","vertex"],"matchScore":2,"terms":["la caixa"],"tags":{"amenity":"atm","brand:wikidata":"Q287753"},"addTags":{"amenity":"atm","brand":"La Caixa","brand:wikidata":"Q287753","brand:wikipedia":"en:La Caixa","name":"La Caixa","operator":"La Caixa","operator:wikidata":"Q287753","operator:wikipedia":"en:La Caixa"}},"amenity/atm/laboralkutxa-b48e80":{"name":"Laboral Kutxa","locationSet":{"include":["es"]},"geometry":["point","vertex"],"matchScore":2,"terms":["laboral kutxa"],"tags":{"amenity":"atm","brand:wikidata":"Q12052386"},"addTags":{"amenity":"atm","brand":"Laboral Kutxa","brand:wikidata":"Q12052386","brand:wikipedia":"en:Laboral Kutxa","name":"Laboral Kutxa","operator":"Laboral Kutxa","operator:wikidata":"Q12052386","operator:wikipedia":"en:Laboral Kutxa"}},"amenity/atm/liberbank-b48e80":{"name":"Liberbank","locationSet":{"include":["es"]},"geometry":["point","vertex"],"matchScore":2,"terms":["liberbank"],"searchable":false,"tags":{"amenity":"atm","brand:wikidata":"Q2891018"},"addTags":{"amenity":"atm","brand":"Liberbank","brand:wikidata":"Q2891018","brand:wikipedia":"en:Liberbank","name":"Liberbank","operator":"Liberbank","operator:wikidata":"Q2891018","operator:wikipedia":"en:Liberbank"}},"amenity/atm/novobanco-3f27ef":{"name":"Novo Banco","locationSet":{"include":["es","pt"]},"geometry":["point","vertex"],"matchScore":2,"terms":["novo banco"],"tags":{"amenity":"atm","brand:wikidata":"Q17488861"},"addTags":{"amenity":"atm","brand":"Novo Banco","brand:wikidata":"Q17488861","brand:wikipedia":"en:Novobanco","name":"Novo Banco","operator":"Novo Banco","operator:wikidata":"Q17488861","operator:wikipedia":"en:Novobanco"}},"amenity/atm/targobank-3246f9":{"name":"Targobank","locationSet":{"include":["de","es"]},"geometry":["point","vertex"],"matchScore":2,"terms":["targobank"],"tags":{"amenity":"atm","brand:wikidata":"Q1455437"},"addTags":{"amenity":"atm","brand":"Targobank","brand:wikidata":"Q1455437","brand:wikipedia":"en:Targobank","name":"Targobank","operator":"Targobank","operator:wikidata":"Q1455437","operator:wikipedia":"en:Targobank"}},"amenity/atm/unicajabanco-b48e80":{"name":"Unicaja Banco","locationSet":{"include":["es"]},"geometry":["point","vertex"],"matchScore":2,"terms":["unicaja","unicaja banco"],"tags":{"amenity":"atm","brand:wikidata":"Q2543704"},"addTags":{"amenity":"atm","brand":"Unicaja Banco","brand:wikidata":"Q2543704","brand:wikipedia":"en:Unicaja","name":"Unicaja Banco","operator":"Unicaja Banco","operator:wikidata":"Q2543704","operator:wikipedia":"en:Unicaja","short_name":"Unicaja"}},"amenity/bank/abanca-ce59ab":{"name":"ABANCA","locationSet":{"include":["es"]},"geometry":["point","area"],"matchScore":2,"terms":["abanca","abanca corporación bancaria"],"tags":{"amenity":"bank","brand:wikidata":"Q9598744"},"addTags":{"amenity":"bank","brand":"ABANCA","brand:wikidata":"Q9598744","brand:wikipedia":"es:Abanca","name":"ABANCA","official_name":"ABANCA Corporación Bancaria"}},"amenity/bank/attijariwafabank-c1cae6":{"name":"Attijariwafa Bank (التجاري وفا بنك)","locationSet":{"include":["ae","be","bf","bj","ca","cd","cg","ch","ci","cm","eg","es","fr","ga","gb","it","ma","mr","nl","sa","sn","tg","tn"]},"geometry":["point","area"],"matchScore":2,"terms":["attijariwafa bank","attijariwafa bank التجاري وفا بنك","التجاري وفا بنك"],"tags":{"amenity":"bank","brand:wikidata":"Q758052"},"addTags":{"amenity":"bank","brand":"Attijariwafa Bank","brand:ar":"التجاري وفا بنك","brand:en":"Attijariwafa Bank","brand:wikidata":"Q758052","brand:wikipedia":"en:Attijariwafa Bank","name:ar":"التجاري وفا بنك","name:en":"Attijariwafa Bank"}},"amenity/bank/bancamarch-ce59ab":{"name":"Banca March","locationSet":{"include":["es"]},"geometry":["point","area"],"matchScore":2,"terms":["banca march"],"tags":{"amenity":"bank","brand:wikidata":"Q578252"},"addTags":{"amenity":"bank","brand":"Banca March","brand:wikidata":"Q578252","brand:wikipedia":"en:Banca March","name":"Banca March"}},"amenity/bank/bancopastor-ce59ab":{"name":"Banco Pastor","locationSet":{"include":["es"]},"geometry":["point","area"],"matchScore":2,"terms":["banco pastor","banco popular pastor"],"searchable":false,"tags":{"amenity":"bank","brand:wikidata":"Q806193"},"addTags":{"amenity":"bank","brand":"Banco Pastor","brand:wikidata":"Q806193","brand:wikipedia":"en:Banco Pastor","name":"Banco Pastor","official_name":"Banco Popular Pastor"}},"amenity/bank/bancosabadell-ce59ab":{"name":"Banco Sabadell","locationSet":{"include":["es"]},"geometry":["point","area"],"matchScore":2,"terms":["banc sabadell","banco de sabadell, s.a.","banco sabadell","sabadell"],"tags":{"amenity":"bank","brand:wikidata":"Q762330"},"addTags":{"amenity":"bank","brand":"Banco Sabadell","brand:ca":"Banc Sabadell","brand:es":"Banco Sabadell","brand:wikidata":"Q762330","brand:wikipedia":"es:Banco Sabadell","name":"Banco Sabadell","name:ca":"Banc Sabadell","name:es":"Banco Sabadell","official_name":"Banco de Sabadell, S.A."}},"amenity/bank/bankia-ce59ab":{"name":"Bankia","locationSet":{"include":["es"]},"geometry":["point","area"],"matchScore":2,"terms":["bankia"],"searchable":false,"tags":{"amenity":"bank","brand:wikidata":"Q806807"},"addTags":{"amenity":"bank","brand":"Bankia","brand:wikidata":"Q806807","brand:wikipedia":"en:Bankia","name":"Bankia"}},"amenity/bank/bankinter-151324":{"name":"Bankinter","locationSet":{"include":["es","pt"]},"geometry":["point","area"],"matchScore":2,"terms":["bankinter"],"tags":{"amenity":"bank","brand:wikidata":"Q806808"},"addTags":{"amenity":"bank","brand":"Bankinter","brand:wikidata":"Q806808","brand:wikipedia":"es:Bankinter","name":"Bankinter"}},"amenity/bank/banquepopulaire-4fc013":{"name":"Banque Populaire (البنك الشعبي)","locationSet":{"include":["de","es","it","ma","nl"]},"geometry":["point","area"],"matchScore":2,"terms":["banque populaire","banque populaire البنك الشعبي","البنك الشعبي"],"tags":{"amenity":"bank","brand:wikidata":"Q2883441"},"addTags":{"amenity":"bank","brand":"Banque Populaire","brand:ar":"البنك الشعبي","brand:en":"Banque Populaire","brand:wikidata":"Q2883441","brand:wikipedia":"en:Banque Populaire (Morocco)","name:ar":"البنك الشعبي","name:en":"Banque Populaire"}},"amenity/bank/bantierra-ce59ab":{"name":"Bantierra","locationSet":{"include":["es"]},"geometry":["point","area"],"matchScore":2,"terms":["bantierra"],"tags":{"amenity":"bank","brand:wikidata":"Q5719155"},"addTags":{"amenity":"bank","brand":"Bantierra","brand:wikidata":"Q5719155","brand:wikipedia":"es:Caja Rural de Aragón","name":"Bantierra"}},"amenity/bank/bmn-ce59ab":{"name":"BMN","locationSet":{"include":["es"]},"geometry":["point","area"],"matchScore":2,"terms":["banco mare nostrum","bmn"],"searchable":false,"tags":{"amenity":"bank","brand:wikidata":"Q3754900"},"addTags":{"amenity":"bank","brand":"BMN","brand:wikidata":"Q3754900","brand:wikipedia":"es:Banco Mare Nostrum","name":"BMN","official_name":"Banco Mare Nostrum"}},"amenity/bank/caixageraldedepositos-74f292":{"name":"Caixa Geral de Depósitos","locationSet":{"include":["es","fr","pt"]},"geometry":["point","area"],"matchScore":2,"terms":["caixa geral de depósitos"],"tags":{"amenity":"bank","brand:wikidata":"Q1026044"},"addTags":{"amenity":"bank","brand":"Caixa Geral de Depósitos","brand:wikidata":"Q1026044","brand:wikipedia":"pt:Caixa Geral de Depósitos","name":"Caixa Geral de Depósitos"}},"amenity/bank/caixabank-ce59ab":{"name":"Caixabank (España)","locationSet":{"include":["es"]},"geometry":["point","area"],"matchScore":2,"terms":["caixabank"],"tags":{"amenity":"bank","brand:wikidata":"Q847225"},"addTags":{"amenity":"bank","brand":"Caixabank","brand:wikidata":"Q847225","brand:wikipedia":"en:CaixaBank","name":"Caixabank"}},"amenity/bank/cajaduero-ce59ab":{"name":"Caja Duero","locationSet":{"include":["es"]},"geometry":["point","area"],"matchScore":2,"terms":["caja duero"],"searchable":false,"tags":{"amenity":"bank","brand:wikidata":"Q3821055"},"addTags":{"amenity":"bank","brand":"Caja Duero","brand:wikidata":"Q3821055","brand:wikipedia":"es:Caja Duero","name":"Caja Duero"}},"amenity/bank/cajaespana-ce59ab":{"name":"Caja España","locationSet":{"include":["es"]},"geometry":["point","area"],"matchScore":2,"terms":["caja españa"],"searchable":false,"tags":{"amenity":"bank","brand:wikidata":"Q966985"},"addTags":{"amenity":"bank","brand":"Caja España","brand:wikidata":"Q966985","brand:wikipedia":"es:Caja España","name":"Caja España"}},"amenity/bank/cajarural-ce59ab":{"name":"Caja Rural","locationSet":{"include":["es"]},"geometry":["point","area"],"matchScore":2,"terms":["caja rural"],"tags":{"amenity":"bank","brand:wikidata":"Q3649971"},"addTags":{"amenity":"bank","brand":"Caja Rural","brand:wikidata":"Q3649971","brand:wikipedia":"es:Caja Rural","name":"Caja Rural"}},"amenity/bank/cajaruraldejaen-ce59ab":{"name":"Caja Rural de Jaén","locationSet":{"include":["es"]},"geometry":["point","area"],"matchScore":2,"terms":["caja rural de jaén"],"tags":{"amenity":"bank","brand:wikidata":"Q18720350"},"addTags":{"amenity":"bank","brand":"Caja Rural de Jaén","brand:wikidata":"Q18720350","brand:wikipedia":"es:Caja Rural de Jaén, Barcelona y Madrid","name":"Caja Rural de Jaén"}},"amenity/bank/cajamar-ce59ab":{"name":"Cajamar","locationSet":{"include":["es"]},"geometry":["point","area"],"matchScore":2,"terms":["cajamar"],"tags":{"amenity":"bank","brand:wikidata":"Q8254971"},"addTags":{"amenity":"bank","brand":"Cajamar","brand:wikidata":"Q8254971","brand:wikipedia":"es:Cajamar Caja Rural","name":"Cajamar"}},"amenity/bank/cajasur-ce59ab":{"name":"CajaSur","locationSet":{"include":["es"]},"geometry":["point","area"],"matchScore":2,"terms":["cajasur"],"searchable":false,"tags":{"amenity":"bank","brand:wikidata":"Q3751637"},"addTags":{"amenity":"bank","brand":"CajaSur","brand:wikidata":"Q3751637","brand:wikipedia":"en:CajaSur","name":"CajaSur"}},"amenity/bank/catalunyacaixa-ce59ab":{"name":"CatalunyaCaixa","locationSet":{"include":["es"]},"geometry":["point","area"],"matchScore":2,"terms":["catalunyacaixa"],"searchable":false,"tags":{"amenity":"bank","brand:wikidata":"Q3750952"},"addTags":{"amenity":"bank","brand":"CatalunyaCaixa","brand:wikidata":"Q3750952","brand:wikipedia":"en:CatalunyaCaixa","name":"CatalunyaCaixa"}},"amenity/bank/ficohsa-47ab19":{"name":"Ficohsa","locationSet":{"include":["es","gt","hn","ni","pa","us"]},"geometry":["point","area"],"matchScore":2,"terms":["banco ficohsa","ficohsa"],"tags":{"amenity":"bank","brand:wikidata":"Q5886178"},"addTags":{"amenity":"bank","brand":"Ficohsa","brand:wikidata":"Q5886178","brand:wikipedia":"es:Grupo Financiero FICOHSA","name":"Ficohsa"}},"amenity/bank/ibercaja-ce59ab":{"name":"Ibercaja","locationSet":{"include":["es"]},"geometry":["point","area"],"matchScore":2,"terms":["ibercaja"],"tags":{"amenity":"bank","brand:wikidata":"Q5907815"},"addTags":{"amenity":"bank","brand":"Ibercaja","brand:wikidata":"Q5907815","brand:wikipedia":"es:Ibercaja","name":"Ibercaja"}},"amenity/bank/kutxabank-ce59ab":{"name":"Kutxabank","locationSet":{"include":["es"]},"geometry":["point","area"],"matchScore":2,"terms":["kutxabank"],"tags":{"amenity":"bank","brand:wikidata":"Q5139377"},"addTags":{"amenity":"bank","brand":"Kutxabank","brand:wikidata":"Q5139377","brand:wikipedia":"en:Kutxabank","name":"Kutxabank"}},"amenity/bank/lacaixa-ce59ab":{"name":"La Caixa","locationSet":{"include":["es"]},"geometry":["point","area"],"matchScore":2,"terms":["la caixa"],"tags":{"amenity":"bank","brand:wikidata":"Q287753"},"addTags":{"amenity":"bank","brand":"La Caixa","brand:wikidata":"Q287753","brand:wikipedia":"en:La Caixa","name":"La Caixa"}},"amenity/bank/laboralkutxa-ce59ab":{"name":"Laboral Kutxa","locationSet":{"include":["es"]},"geometry":["point","area"],"matchScore":2,"terms":["laboral kutxa"],"tags":{"amenity":"bank","brand:wikidata":"Q12052386"},"addTags":{"amenity":"bank","brand":"Laboral Kutxa","brand:wikidata":"Q12052386","brand:wikipedia":"en:Laboral Kutxa","name":"Laboral Kutxa"}},"amenity/bank/liberbank-ce59ab":{"name":"Liberbank","locationSet":{"include":["es"]},"geometry":["point","area"],"matchScore":2,"terms":["liberbank"],"searchable":false,"tags":{"amenity":"bank","brand:wikidata":"Q2891018"},"addTags":{"amenity":"bank","brand":"Liberbank","brand:wikidata":"Q2891018","brand:wikipedia":"en:Liberbank","name":"Liberbank"}},"amenity/bank/novobanco-151324":{"name":"Novo Banco","locationSet":{"include":["es","pt"]},"geometry":["point","area"],"matchScore":2,"terms":["novo banco"],"tags":{"amenity":"bank","brand:wikidata":"Q17488861"},"addTags":{"amenity":"bank","brand":"Novo Banco","brand:wikidata":"Q17488861","brand:wikipedia":"en:Novobanco","name":"Novo Banco"}},"amenity/bank/targobank-236711":{"name":"Targobank","locationSet":{"include":["de","es"]},"geometry":["point","area"],"matchScore":2,"terms":["targobank"],"tags":{"amenity":"bank","brand:wikidata":"Q1455437"},"addTags":{"amenity":"bank","brand":"Targobank","brand:wikidata":"Q1455437","brand:wikipedia":"en:Targobank","name":"Targobank"}},"amenity/bank/unicajabanco-ce59ab":{"name":"Unicaja Banco","locationSet":{"include":["es"]},"geometry":["point","area"],"matchScore":2,"terms":["unicaja","unicaja banco"],"tags":{"amenity":"bank","brand:wikidata":"Q2543704"},"addTags":{"amenity":"bank","brand":"Unicaja Banco","brand:wikidata":"Q2543704","brand:wikipedia":"en:Unicaja","name":"Unicaja Banco","short_name":"Unicaja"}},"amenity/bicycle_rental/albabici-f59a8b":{"name":"AlbaBici","locationSet":{"include":["es"]},"geometry":["point","vertex","area"],"matchScore":2,"terms":["albabici","labici"],"fields":["name","brand","{amenity/bicycle_rental}"],"tags":{"amenity":"bicycle_rental","brand:wikidata":"Q17620480"},"addTags":{"amenity":"bicycle_rental","brand":"AlbaBici","brand:wikidata":"Q17620480","brand:wikipedia":"es:Albabici","network":"AlbaBici","network:wikidata":"Q17620480","network:wikipedia":"es:Albabici","operator":"Labici"}},"amenity/bicycle_rental/bicicas-f59a8b":{"name":"Bicicas","locationSet":{"include":["es"]},"geometry":["point","vertex","area"],"matchScore":2,"terms":["ajuntament castelló, mobilitat","bicicas"],"fields":["name","brand","{amenity/bicycle_rental}"],"tags":{"amenity":"bicycle_rental","brand:wikidata":"Q5728159"},"addTags":{"amenity":"bicycle_rental","brand":"Bicicas","brand:wikidata":"Q5728159","brand:wikipedia":"es:Bicicas","network":"Bicicas","network:wikidata":"Q5728159","network:wikipedia":"es:Bicicas","operator":"Ajuntament Castelló, Mobilitat"}},"amenity/bicycle_rental/bicimad-f59a8b":{"name":"BiciMAD","locationSet":{"include":["es"]},"geometry":["point","vertex","area"],"matchScore":2,"terms":["bicimad","emt madrid"],"fields":["name","brand","{amenity/bicycle_rental}"],"tags":{"amenity":"bicycle_rental","brand:wikidata":"Q17402113"},"addTags":{"amenity":"bicycle_rental","brand":"BiciMAD","brand:wikidata":"Q17402113","brand:wikipedia":"es:BiciMAD","network":"BiciMAD","network:wikidata":"Q17402113","network:wikipedia":"es:BiciMAD","operator":"EMT Madrid"}},"amenity/bicycle_rental/bicing-f59a8b":{"name":"bicing","locationSet":{"include":["es"]},"geometry":["point","vertex","area"],"matchScore":2,"terms":["bicing","clear channel"],"fields":["name","brand","{amenity/bicycle_rental}"],"tags":{"amenity":"bicycle_rental","brand:wikidata":"Q1833385"},"addTags":{"amenity":"bicycle_rental","brand":"bicing","brand:wikidata":"Q1833385","brand:wikipedia":"es:Bicing","network":"bicing","network:wikidata":"Q1833385","network:wikipedia":"es:Bicing","operator":"Clear Channel"}},"amenity/bicycle_rental/bilbaobizi-f59a8b":{"name":"Bilbaobizi","locationSet":{"include":["es"]},"geometry":["point","vertex","area"],"matchScore":2,"terms":["bilbaobizi","nextbike"],"fields":["name","brand","{amenity/bicycle_rental}"],"tags":{"amenity":"bicycle_rental","brand:wikidata":"Q61070767"},"addTags":{"amenity":"bicycle_rental","brand":"Bilbaobizi","brand:wikidata":"Q61070767","brand:wikipedia":"eu:Bilbaobizi","network":"Bilbaobizi","network:wikidata":"Q61070767","network:wikipedia":"eu:Bilbaobizi","operator":"nextbike","operator:wikidata":"Q2351279","operator:wikipedia":"en:Nextbike"}},"amenity/bicycle_rental/bizi-f59a8b":{"name":"BiZi","locationSet":{"include":["es"]},"geometry":["point","vertex","area"],"matchScore":2,"terms":["bizi","clear channel"],"fields":["name","brand","{amenity/bicycle_rental}"],"tags":{"amenity":"bicycle_rental","brand:wikidata":"Q953933"},"addTags":{"amenity":"bicycle_rental","brand":"BiZi","brand:wikidata":"Q953933","brand:wikipedia":"es:BiZi","network":"BiZi","network:wikidata":"Q953933","network:wikipedia":"es:BiZi","operator":"Clear Channel"}},"amenity/bicycle_rental/girocleta-f59a8b":{"name":"Girocleta","locationSet":{"include":["es"]},"geometry":["point","vertex","area"],"matchScore":2,"terms":["girocleta"],"fields":["name","brand","{amenity/bicycle_rental}"],"tags":{"amenity":"bicycle_rental","brand:wikidata":"Q20106716"},"addTags":{"amenity":"bicycle_rental","brand":"Girocleta","brand:wikidata":"Q20106716","brand:wikipedia":"ca:Girocleta","network":"Girocleta","operator":"Girocleta"}},"amenity/bicycle_rental/salenbici-f59a8b":{"name":"SalEnBici","locationSet":{"include":["es"]},"geometry":["point","vertex","area"],"matchScore":2,"terms":["onroll","salenbici"],"fields":["name","brand","{amenity/bicycle_rental}"],"tags":{"amenity":"bicycle_rental","brand:wikidata":"Q6117221"},"addTags":{"amenity":"bicycle_rental","brand":"SalEnBici","brand:wikidata":"Q6117221","brand:wikipedia":"es:Salenbici","network":"SalEnBici","operator":"Onroll"}},"amenity/casino/codere-3dfd07":{"name":"Codere","locationSet":{"include":["ar","co","es","it","mx","pa","uy"]},"geometry":["point","area"],"matchScore":2,"terms":["codere"],"tags":{"amenity":"casino","brand:wikidata":"Q2918415"},"addTags":{"amenity":"casino","brand":"Codere","brand:wikidata":"Q2918415","brand:wikipedia":"es:Codere","name":"Codere"}},"amenity/cinema/cinesa-408f25":{"name":"Cinesa","locationSet":{"include":["es"]},"geometry":["point","area"],"matchScore":2,"terms":["cinesa"],"fields":["name","brand","{amenity/cinema}"],"tags":{"amenity":"cinema","brand:wikidata":"Q20732115"},"addTags":{"amenity":"cinema","brand":"Cinesa","brand:wikidata":"Q20732115","brand:wikipedia":"es:Cinesa","name":"Cinesa"}},"amenity/cinema/kinepolis-bc363a":{"name":"Kinepolis","locationSet":{"include":["be","ch","es","fr","lu","nl"]},"geometry":["point","area"],"matchScore":2,"terms":["kinepolis"],"fields":["name","brand","{amenity/cinema}"],"tags":{"amenity":"cinema","brand:wikidata":"Q1741993"},"addTags":{"amenity":"cinema","brand":"Kinepolis","brand:wikidata":"Q1741993","brand:wikipedia":"en:Kinepolis","name":"Kinepolis"}},"amenity/cinema/megarama-2d2421":{"name":"Megarama","locationSet":{"include":["es","fr","ma"]},"geometry":["point","area"],"matchScore":2,"terms":["megarama"],"fields":["name","brand","{amenity/cinema}"],"tags":{"amenity":"cinema","brand:wikidata":"Q96707027"},"addTags":{"amenity":"cinema","brand":"Megarama","brand:wikidata":"Q96707027","name":"Megarama"}},"amenity/cinema/renoir-408f25":{"name":"Renoir","locationSet":{"include":["es"]},"geometry":["point","area"],"matchScore":2,"terms":["renoir"],"fields":["name","brand","{amenity/cinema}"],"tags":{"amenity":"cinema","brand:wikidata":"Q21077391"},"addTags":{"amenity":"cinema","brand":"Renoir","brand:wikidata":"Q21077391","brand:wikipedia":"ca:Cines Renoir","name":"Renoir"}},"amenity/cinema/yelmo-408f25":{"name":"Yelmo","locationSet":{"include":["es"]},"geometry":["point","area"],"matchScore":2,"terms":["yelmo","yelmo cines"],"fields":["name","brand","{amenity/cinema}"],"tags":{"amenity":"cinema","brand:wikidata":"Q21030996"},"addTags":{"amenity":"cinema","brand":"Yelmo","brand:wikidata":"Q21030996","brand:wikipedia":"fr:Yelmo Cines","name":"Yelmo"}},"amenity/dentist/vitaldent-23a76b":{"name":"Vitaldent","locationSet":{"include":["es","it"]},"geometry":["point","area"],"matchScore":2,"terms":["vitaldent"],"reference":{"key":"amenity","value":"dentist"},"tags":{"amenity":"dentist","brand:wikidata":"Q5860599"},"addTags":{"amenity":"dentist","brand":"Vitaldent","brand:wikidata":"Q5860599","brand:wikipedia":"es:Vitaldent","healthcare":"dentist","name":"Vitaldent"}},"amenity/fast_food/donut/dunkincoffee-34e6e8":{"name":"Dunkin' Coffee","locationSet":{"include":["es"]},"geometry":["point","area"],"matchScore":2,"terms":["dunkin doughnuts","dunkin' coffee","dunkin' donuts"],"reference":{"key":"cuisine","value":"donut"},"tags":{"amenity":"fast_food","brand:wikidata":"Q847743","cuisine":"donut;coffee_shop"},"addTags":{"amenity":"fast_food","brand":"Dunkin' Coffee","brand:wikidata":"Q847743","brand:wikipedia":"es:Dunkin'","cuisine":"donut;coffee_shop","name":"Dunkin' Coffee","takeaway":"yes"}},"amenity/fast_food/sandwich/exki-a3472e":{"name":"Exki","locationSet":{"include":["be","es","fr","it","lu","nl"]},"geometry":["point","area"],"matchScore":2,"terms":["exki"],"reference":{"key":"cuisine","value":"sandwich"},"tags":{"amenity":"fast_food","brand:wikidata":"Q251760","cuisine":"healthy;sandwich;salad;pie"},"addTags":{"amenity":"fast_food","brand":"Exki","brand:wikidata":"Q251760","brand:wikipedia":"fr:Exki","cuisine":"healthy;sandwich;salad;pie","diet:vegetarian":"yes","name":"Exki","takeaway":"yes"}},"amenity/fast_food/burger/fiveguys-200282":{"name":"Five Guys","locationSet":{"include":["ae","be","ca","de","es","fr","gb","hk","ie","it","kw","lu","nl","qa","sa","sg","us"]},"geometry":["point","area"],"matchScore":2,"terms":["five guys","five guys burgers and fries"],"reference":{"key":"cuisine","value":"burger"},"tags":{"amenity":"fast_food","brand:wikidata":"Q1131810","cuisine":"burger"},"addTags":{"amenity":"fast_food","brand":"Five Guys","brand:wikidata":"Q1131810","brand:wikipedia":"en:Five Guys","cuisine":"burger","name":"Five Guys","official_name":"Five Guys Burgers and Fries","takeaway":"yes"}},"amenity/fast_food/sandwich/lacroissanterie-affad8":{"name":"La Croissanterie","locationSet":{"include":["es","fr","gb"]},"geometry":["point","area"],"matchScore":2,"terms":["la croissanterie"],"reference":{"key":"cuisine","value":"sandwich"},"tags":{"amenity":"fast_food","brand:wikidata":"Q3207961","cuisine":"sandwich"},"addTags":{"amenity":"fast_food","brand":"La Croissanterie","brand:wikidata":"Q3207961","brand:wikipedia":"fr:La Croissanterie","cuisine":"sandwich","name":"La Croissanterie","takeaway":"yes"}},"amenity/fast_food/pizza/lekiosqueapizzas-1781f3":{"name":"Le Kiosque à Pizzas","locationSet":{"include":["es","fr","pt"]},"geometry":["point","area"],"matchScore":2,"terms":["le kiosque à pizzas"],"reference":{"key":"cuisine","value":"pizza"},"tags":{"amenity":"fast_food","brand:wikidata":"Q3223839","cuisine":"pizza"},"addTags":{"amenity":"fast_food","brand":"Le Kiosque à Pizzas","brand:wikidata":"Q3223839","brand:wikipedia":"fr:Le Kiosque à Pizzas","cuisine":"pizza","name":"Le Kiosque à Pizzas","takeaway":"yes"}},"amenity/fast_food/malvon-d3d66f":{"name":"Malvón","locationSet":{"include":["es","fr","it","pt"]},"geometry":["point","area"],"matchScore":2,"terms":["empanadas argentinas malvón","malvón"],"tags":{"amenity":"fast_food","brand:wikidata":"Q109877196"},"addTags":{"alt_name":"Empanadas Argentinas Malvón","amenity":"fast_food","brand":"Malvón","brand:wikidata":"Q109877196","cuisine":"empanada","name":"Malvón","takeaway":"yes"}},"amenity/fast_food/oakberryacaibowls-df46eb":{"name":"Oakberry Açaí bowls","locationSet":{"include":["ae","au","bh","br","ch","cl","co","de","es","gr","hr","il","mt","mx","pe","pt","py","sa","th","us"]},"geometry":["point","area"],"matchScore":2,"terms":["oakberry açaí bowls"],"tags":{"amenity":"fast_food","brand:wikidata":"Q104870840"},"addTags":{"amenity":"fast_food","brand":"Oakberry Açaí bowls","brand:wikidata":"Q104870840","cuisine":"açaí","name":"Oakberry Açaí bowls","takeaway":"yes"}},"amenity/fast_food/sandwich/pansandcompany-b2cd69":{"name":"Pans & Company","locationSet":{"include":["es","it","pt"]},"geometry":["point","area"],"matchScore":2,"terms":["pans & company"],"reference":{"key":"cuisine","value":"sandwich"},"tags":{"amenity":"fast_food","brand:wikidata":"Q11697586","cuisine":"sandwich"},"addTags":{"amenity":"fast_food","brand":"Pans & Company","brand:wikidata":"Q11697586","brand:wikipedia":"es:Pans & Company","cuisine":"sandwich","name":"Pans & Company","takeaway":"yes"}},"amenity/fast_food/pizza/pizzamovil-34e6e8":{"name":"Pizza Móvil","locationSet":{"include":["es"]},"geometry":["point","area"],"matchScore":2,"terms":["pizza móvil"],"reference":{"key":"cuisine","value":"pizza"},"tags":{"amenity":"fast_food","brand:wikidata":"Q12397697","cuisine":"pizza"},"addTags":{"amenity":"fast_food","brand":"Pizza Móvil","brand:wikidata":"Q12397697","brand:wikipedia":"gl:Pizza Móvil","cuisine":"pizza","name":"Pizza Móvil","takeaway":"yes"}},"amenity/fast_food/sandwich/rodilla-34e6e8":{"name":"Rodilla","locationSet":{"include":["es"]},"geometry":["point","area"],"matchScore":2,"terms":["rodilla"],"reference":{"key":"cuisine","value":"sandwich"},"tags":{"amenity":"fast_food","brand:wikidata":"Q7356777","cuisine":"sandwich"},"addTags":{"amenity":"fast_food","brand":"Rodilla","brand:wikidata":"Q7356777","brand:wikipedia":"es:Rodilla (franquicia)","cuisine":"sandwich","name":"Rodilla","takeaway":"yes"}},"amenity/fast_food/sushishop-ac545e":{"name":"Sushi Shop (Europe)","locationSet":{"include":["ae","be","ch","de","es","fr","it","lu","pt","sa","uk"]},"geometry":["point","area"],"matchScore":2,"terms":["sushi shop"],"tags":{"amenity":"fast_food","brand:wikidata":"Q3505657"},"addTags":{"amenity":"fast_food","brand":"Sushi Shop","brand:wikidata":"Q3505657","brand:wikipedia":"fr:Sushi Shop","cuisine":"sushi","name":"Sushi Shop","takeaway":"yes"}},"amenity/fast_food/burger/thegoodburger-34e6e8":{"name":"The Good Burger","locationSet":{"include":["es"]},"geometry":["point","area"],"matchScore":2,"terms":["la buena hamburguesa","tgb","the good burger","the good burguer"],"reference":{"key":"cuisine","value":"burger"},"tags":{"amenity":"fast_food","brand:wikidata":"Q20962086","cuisine":"burger"},"addTags":{"amenity":"fast_food","brand":"The Good Burger","brand:wikidata":"Q20962086","brand:wikipedia":"es:The Good Burger","cuisine":"burger","delivery":"yes","name":"The Good Burger","short_name":"TGB","takeaway":"yes"}},"amenity/fast_food/sandwich/uppercrust-167d3f":{"name":"Upper Crust","locationSet":{"include":["de","dk","eg","es","fi","gb","ie","no","se"]},"geometry":["point","area"],"matchScore":2,"terms":["upper crust"],"reference":{"key":"cuisine","value":"sandwich"},"tags":{"amenity":"fast_food","brand:wikidata":"Q7898585","cuisine":"sandwich"},"addTags":{"amenity":"fast_food","brand":"Upper Crust","brand:wikidata":"Q7898585","brand:wikipedia":"en:Upper Crust (restaurant chain)","cuisine":"sandwich","name":"Upper Crust","takeaway":"yes"}},"amenity/fuel/as24-3463db":{"name":"AS 24","locationSet":{"include":["at","be","bg","cz","de","dk","es","fr","gb","ge","gr","hr","hu","ie","it","lt","lu","mk","nl","pl","pt","ro","rs","se","si","sk","ua"]},"geometry":["point","area"],"matchScore":2,"terms":["as 24"],"fields":["name","brand","{amenity/fuel}"],"tags":{"amenity":"fuel","brand:wikidata":"Q2819394"},"addTags":{"amenity":"fuel","brand":"AS 24","brand:wikidata":"Q2819394","brand:wikipedia":"fr:AS 24 (entreprise)","hgv":"only","name":"AS 24"}},"amenity/fuel/auchan-fcb99f":{"name":"Auchan","locationSet":{"include":["al","ad","ba","hr","gi","gr","va","it","mt","me","mk","pt","sm","rs","si","es","xk","by","bg","cz","hu","pl","md","ro","ru","sk","ua","at","be","fr","de","li","lu","mc","nl","ch"]},"geometry":["point","area"],"matchScore":2,"terms":["auchan"],"fields":["name","brand","{amenity/fuel}"],"tags":{"amenity":"fuel","brand:wikidata":"Q758603"},"addTags":{"amenity":"fuel","brand":"Auchan","brand:wikidata":"Q758603","brand:wikipedia":"en:Auchan","name":"Auchan"}},"amenity/fuel/avia-e0aaf8":{"name":"Avia","locationSet":{"include":["at","be","bg","ch","cz","de","es","fr","hu","it","nl","pl","pt","rs","ua"]},"geometry":["point","area"],"matchScore":2,"terms":["avia","station avia"],"fields":["name","brand","{amenity/fuel}"],"tags":{"amenity":"fuel","brand:wikidata":"Q300147"},"addTags":{"amenity":"fuel","brand":"Avia","brand:wikidata":"Q300147","brand:wikipedia":"de:Avia International","name":"Avia"}},"amenity/fuel/ballenoil-83f854":{"name":"Ballenoil","locationSet":{"include":["es"]},"geometry":["point","area"],"matchScore":2,"terms":["ballenoil"],"fields":["name","brand","{amenity/fuel}"],"tags":{"amenity":"fuel","brand:wikidata":"Q110743569"},"addTags":{"amenity":"fuel","brand":"Ballenoil","brand:wikidata":"Q110743569","name":"Ballenoil"}},"amenity/fuel/bonarea-83f854":{"name":"BonÀrea","locationSet":{"include":["es"]},"geometry":["point","area"],"matchScore":2,"terms":["bonàrea"],"fields":["name","brand","{amenity/fuel}"],"tags":{"amenity":"fuel","brand:wikidata":"Q11924743"},"addTags":{"amenity":"fuel","brand":"BonÀrea","brand:wikidata":"Q11924743","brand:wikipedia":"ca:Grup Alimentari Guissona","name":"BonÀrea"}},"amenity/fuel/campsa-83f854":{"name":"CAMPSA","locationSet":{"include":["es"]},"geometry":["point","area"],"matchScore":2,"terms":["campsa","compañía arrendataria del monopolio del petróleo, s.a."],"fields":["name","brand","{amenity/fuel}"],"searchable":false,"tags":{"amenity":"fuel","brand:wikidata":"Q1031623"},"addTags":{"amenity":"fuel","brand":"CAMPSA","brand:wikidata":"Q1031623","brand:wikipedia":"en:Campsa","name":"CAMPSA","official_name":"Compañía Arrendataria del Monopolio del Petróleo, S.A."}},"amenity/fuel/cepsa-57abaf":{"name":"Cepsa","locationSet":{"include":["es","pt"]},"geometry":["point","area"],"matchScore":2,"terms":["cepsa","compañía española de petróleos, s.a.u."],"fields":["name","brand","{amenity/fuel}"],"tags":{"amenity":"fuel","brand:wikidata":"Q608819"},"addTags":{"amenity":"fuel","brand":"Cepsa","brand:wikidata":"Q608819","brand:wikipedia":"en:Cepsa","name":"Cepsa","official_name":"Compañía Española de Petróleos, S.A.U."}},"amenity/fuel/dyneff-addd1b":{"name":"Dyneff","locationSet":{"include":["es","fr"]},"geometry":["point","area"],"matchScore":2,"terms":["dyneff"],"fields":["name","brand","{amenity/fuel}"],"tags":{"amenity":"fuel","brand:wikidata":"Q16630266"},"addTags":{"amenity":"fuel","brand":"Dyneff","brand:wikidata":"Q16630266","brand:wikipedia":"fr:Dyneff","name":"Dyneff"}},"amenity/fuel/meroil-83f854":{"name":"MEROIL","locationSet":{"include":["es"]},"geometry":["point","area"],"matchScore":2,"terms":["meroil"],"fields":["name","brand","{amenity/fuel}"],"tags":{"amenity":"fuel","brand:wikidata":"Q62292559"},"addTags":{"amenity":"fuel","brand":"MEROIL","brand:wikidata":"Q62292559","name":"MEROIL"}},"amenity/fuel/nafte-83f854":{"name":"Naftë","locationSet":{"include":["es"]},"geometry":["point","area"],"matchScore":2,"terms":["naftë"],"fields":["name","brand","{amenity/fuel}"],"tags":{"amenity":"fuel","brand:wikidata":"Q108322433"},"addTags":{"amenity":"fuel","brand":"Naftë","brand:wikidata":"Q108322433","name":"Naftë"}},"amenity/fuel/petrocat-83f854":{"name":"Petrocat","locationSet":{"include":["es"]},"geometry":["point","area"],"matchScore":2,"terms":["petrocat"],"fields":["name","brand","{amenity/fuel}"],"tags":{"amenity":"fuel","brand:wikidata":"Q20104358"},"addTags":{"amenity":"fuel","brand":"Petrocat","brand:wikidata":"Q20104358","brand:wikipedia":"ca:Petrocat","name":"Petrocat"}},"amenity/fuel/petronor-83f854":{"name":"Petronor","locationSet":{"include":["es"]},"geometry":["point","area"],"matchScore":2,"terms":["petronor"],"fields":["name","brand","{amenity/fuel}"],"tags":{"amenity":"fuel","brand:wikidata":"Q1726547"},"addTags":{"amenity":"fuel","brand":"Petronor","brand:wikidata":"Q1726547","brand:wikipedia":"es:Petronor","name":"Petronor"}},"amenity/fuel/q8-7bb553":{"name":"Q8","locationSet":{"include":["be","dk","es","it","lu","nl","pt"]},"geometry":["point","area"],"matchScore":2,"terms":["q8"],"fields":["name","brand","{amenity/fuel}"],"tags":{"amenity":"fuel","brand:wikidata":"Q1634762"},"addTags":{"amenity":"fuel","brand":"Q8","brand:wikidata":"Q1634762","brand:wikipedia":"en:Kuwait Petroleum Corporation","name":"Q8"}},"amenity/fuel/tamoil-c25a01":{"name":"Tamoil","locationSet":{"include":["ch","de","es","fr","it","nl"]},"geometry":["point","area"],"matchScore":2,"terms":["tamoil"],"fields":["name","brand","{amenity/fuel}"],"tags":{"amenity":"fuel","brand:wikidata":"Q706793"},"addTags":{"amenity":"fuel","brand":"Tamoil","brand:wikidata":"Q706793","brand:wikipedia":"en:Tamoil","name":"Tamoil"}},"amenity/ice_cream/amorino-6cf168":{"name":"Amorino","locationSet":{"include":["ae","ch","cz","de","es","fr","gb","gr","ie","it","lu","ma","mt","mx","nc","pt","qa","re","us"]},"geometry":["point","area"],"matchScore":2,"terms":["amorino"],"tags":{"amenity":"ice_cream","brand:wikidata":"Q2843884"},"addTags":{"amenity":"ice_cream","brand":"Amorino","brand:wikidata":"Q2843884","brand:wikipedia":"fr:Amorino","name":"Amorino"}},"amenity/ice_cream/bicodexeado-2a89e9":{"name":"Bico de Xeado","locationSet":{"include":["es"]},"geometry":["point","area"],"matchScore":2,"terms":["bico de xeado"],"tags":{"amenity":"ice_cream","brand:wikidata":"Q94575629"},"addTags":{"amenity":"ice_cream","brand":"Bico de Xeado","brand:wikidata":"Q94575629","name":"Bico de Xeado"}},"amenity/ice_cream/jijonenca-f20d3f":{"name":"Jijonenca","locationSet":{"include":["ad","es"]},"geometry":["point","area"],"matchScore":2,"terms":["heladería jijonenca","jijonenca","la jijonenca","la xixonenca","xixonenca"],"tags":{"amenity":"ice_cream","brand:wikidata":"Q109332228"},"addTags":{"amenity":"ice_cream","brand":"Jijonenca","brand:wikidata":"Q109332228","name":"Jijonenca"}},"amenity/ice_cream/llaollao-dd9462":{"name":"Llaollao","locationSet":{"include":["au","ch","cl","co","ec","es","fr","gt","hr","id","iq","kw","ma","my","ph","pt","sa","sg","si","sv","us","vn"]},"geometry":["point","area"],"matchScore":2,"terms":["llaollao"],"tags":{"amenity":"ice_cream","brand:wikidata":"Q12163048"},"addTags":{"amenity":"ice_cream","brand":"Llaollao","brand:wikidata":"Q12163048","brand:wikipedia":"es:Llaollao","cuisine":"frozen_yogurt","name":"Llaollao"}},"amenity/ice_cream/regma-2a89e9":{"name":"Regma","locationSet":{"include":["es"]},"geometry":["point","area"],"matchScore":2,"terms":["regma"],"tags":{"amenity":"ice_cream","brand:wikidata":"Q108135319"},"addTags":{"amenity":"ice_cream","brand":"Regma","brand:wikidata":"Q108135319","cuisine":"ice_cream","name":"Regma"}},"amenity/ice_cream/smooy-bac155":{"name":"smöoy","locationSet":{"include":["ao","ci","cn","dz","ec","es","fr","gb","gn","it","ma","pa","pe","pt","re","sa"]},"geometry":["point","area"],"matchScore":2,"terms":["smöoy","softy cream"],"tags":{"amenity":"ice_cream","brand:wikidata":"Q21573945"},"addTags":{"amenity":"ice_cream","brand":"smöoy","brand:wikidata":"Q21573945","brand:wikipedia":"es:Smöoy","name":"smöoy","official_name":"Softy Cream"}},"amenity/music_school/schoolofrock-4e6205":{"name":"School of Rock","locationSet":{"include":["au","br","ca","cl","co","es","mx","pe","ph","py","tw","us","za"]},"geometry":["point","area"],"matchScore":2,"terms":["school of rock"],"fields":["name","brand","{amenity/music_school}"],"tags":{"amenity":"music_school","brand:wikidata":"Q7756376"},"addTags":{"amenity":"music_school","brand":"School of Rock","brand:wikidata":"Q7756376","brand:wikipedia":"en:School of Rock (company)","name":"School of Rock"}},"amenity/parcel_locker/citypaq-0d29dc":{"name":"CityPaq","locationSet":{"include":["es"]},"geometry":["point","vertex"],"matchScore":2,"terms":["citypaq","correos"],"reference":{"key":"amenity","value":"parcel_locker"},"tags":{"amenity":"parcel_locker","brand:wikidata":"Q110748819"},"addTags":{"amenity":"parcel_locker","brand":"CityPaq","brand:wikidata":"Q110748819","name":"CityPaq","operator":"Correos","operator:wikidata":"Q776605","operator:wikipedia":"es:Correos (España)","parcel_mail_in":"yes"}},"amenity/payment_terminal/coinstar-8dd7cb":{"name":"Coinstar","locationSet":{"include":["ca","de","es","fr","gb","ie","it","jp","us"]},"geometry":["point"],"matchScore":2,"terms":["coinstar"],"tags":{"amenity":"payment_terminal","brand:wikidata":"Q5141641"},"addTags":{"amenity":"payment_terminal","brand":"Coinstar","brand:wikidata":"Q5141641","brand:wikipedia":"en:Coinstar","name":"Coinstar"}},"amenity/pub/brewdog-f93a3c":{"name":"BrewDog","locationSet":{"include":["au","be","de","es","fr","gb","it","kr","no","se","us"]},"geometry":["point","area"],"matchScore":2,"terms":["brewdog"],"fields":["name","brand","{amenity/pub}"],"tags":{"amenity":"pub","brand:wikidata":"Q911367"},"addTags":{"amenity":"pub","brand":"BrewDog","brand:wikidata":"Q911367","brand:wikipedia":"en:BrewDog","name":"BrewDog"}},"amenity/pub/masqmenos-575688":{"name":"MásQMenos","locationSet":{"include":["es","fr","gb"]},"geometry":["point","area"],"matchScore":2,"terms":["másqmenos"],"fields":["name","brand","{amenity/pub}"],"tags":{"amenity":"pub","brand:wikidata":"Q98504930"},"addTags":{"amenity":"pub","brand":"MásQMenos","brand:wikidata":"Q98504930","cuisine":"tapas","name":"MásQMenos"}},"amenity/restaurant/100montaditos-f7c5fe":{"name":"100 Montaditos","locationSet":{"include":["es","it","pt","us"]},"geometry":["point","area"],"matchScore":2,"terms":["100 montaditos"],"tags":{"amenity":"restaurant","brand:wikidata":"Q8355805"},"addTags":{"amenity":"restaurant","brand":"100 Montaditos","brand:wikidata":"Q8355805","brand:wikipedia":"en:Cervecería 100 Montaditos","cuisine":"sandwich","name":"100 Montaditos"}},"amenity/restaurant/italian/autogrill-4c0f72":{"name":"Autogrill","locationSet":{"include":["at","es","fr","it"]},"geometry":["point","area"],"matchScore":2,"terms":["autogrill"],"reference":{"key":"cuisine","value":"italian"},"tags":{"amenity":"restaurant","brand:wikidata":"Q786790","cuisine":"italian;regional"},"addTags":{"amenity":"restaurant","brand":"Autogrill","brand:wikidata":"Q786790","brand:wikipedia":"en:Autogrill","cuisine":"italian;regional","name":"Autogrill"}},"amenity/restaurant/blockhouse-12455c":{"name":"BLOCK HOUSE","locationSet":{"include":["at","de","es","pt"]},"geometry":["point","area"],"matchScore":2,"terms":["block house"],"tags":{"amenity":"restaurant","brand:wikidata":"Q320430"},"addTags":{"amenity":"restaurant","brand":"BLOCK HOUSE","brand:wikidata":"Q320430","brand:wikipedia":"de:Block House","cuisine":"steak_house","name":"BLOCK HOUSE"}},"amenity/restaurant/buffalogrill-3d86c6":{"name":"Buffalo Grill","locationSet":{"include":["es","fr"]},"geometry":["point","area"],"matchScore":2,"terms":["buffalo grill"],"tags":{"amenity":"restaurant","brand:wikidata":"Q944655"},"addTags":{"amenity":"restaurant","brand":"Buffalo Grill","brand:wikidata":"Q944655","brand:wikipedia":"en:Buffalo Grill","cuisine":"steak_house","name":"Buffalo Grill"}},"amenity/restaurant/crepesandwaffles-7b5290":{"name":"Crepes & Waffles","locationSet":{"include":["br","cl","co","ec","es","mx","pa","pe","ve"]},"geometry":["point","area"],"matchScore":2,"terms":["crepes & waffles"],"tags":{"amenity":"restaurant","brand:wikidata":"Q5184238"},"addTags":{"alt_name":"Crepes & Waffles","amenity":"restaurant","brand":"Crepes & Waffles","brand:wikidata":"Q5184238","brand:wikipedia":"es:Crepes & Waffles","cuisine":"crepe;ice_cream","name":"Crepes & Waffles"}},"amenity/restaurant/american/fostershollywood-acf031":{"name":"Foster's Hollywood","locationSet":{"include":["es"]},"geometry":["point","area"],"matchScore":2,"terms":["foster's hollywood"],"reference":{"key":"cuisine","value":"american"},"tags":{"amenity":"restaurant","brand:wikidata":"Q5864366","cuisine":"american"},"addTags":{"amenity":"restaurant","brand":"Foster's Hollywood","brand:wikidata":"Q5864366","brand:wikipedia":"en:Foster's Hollywood","cuisine":"american","name":"Foster's Hollywood"}},"amenity/restaurant/italian/ginos-acf031":{"name":"Ginos","locationSet":{"include":["es"]},"geometry":["point","area"],"matchScore":2,"terms":["ginos"],"reference":{"key":"cuisine","value":"italian"},"tags":{"amenity":"restaurant","brand:wikidata":"Q98503664","cuisine":"italian"},"addTags":{"amenity":"restaurant","brand":"Ginos","brand:wikidata":"Q98503664","cuisine":"italian","name":"Ginos"}},"amenity/restaurant/giraffe-c20144":{"name":"Giraffe","locationSet":{"include":["ae","es","gb"]},"geometry":["point","area"],"matchScore":2,"terms":["giraffe"],"tags":{"amenity":"restaurant","brand:wikidata":"Q5564102"},"addTags":{"amenity":"restaurant","brand":"Giraffe","brand:wikidata":"Q5564102","brand:wikipedia":"en:Giraffe World Kitchen","cuisine":"international;burger","name":"Giraffe"}},"amenity/restaurant/lasurena-acf031":{"name":"La Sureña","locationSet":{"include":["es"]},"geometry":["point","area"],"matchScore":2,"terms":["la sureña"],"tags":{"amenity":"restaurant","brand:wikidata":"Q5763573"},"addTags":{"amenity":"restaurant","brand":"La Sureña","brand:wikidata":"Q5763573","brand:wikipedia":"es:Cervecería La Sureña","cuisine":"spanish","name":"La Sureña"}},"amenity/restaurant/lizarran-acf031":{"name":"Lizarrán","locationSet":{"include":["es"]},"geometry":["point","area"],"matchScore":2,"terms":["lizarrán"],"tags":{"amenity":"restaurant","brand:wikidata":"Q1866620"},"addTags":{"amenity":"restaurant","brand":"Lizarrán","brand:wikidata":"Q1866620","brand:wikipedia":"de:Lizarran","cuisine":"spanish","name":"Lizarrán"}},"amenity/restaurant/vips-acf031":{"name":"Vips (España)","locationSet":{"include":["es"]},"geometry":["point","area"],"matchScore":2,"terms":["vips"],"tags":{"amenity":"restaurant","brand:wikidata":"Q66087862"},"addTags":{"amenity":"restaurant","brand":"Vips","brand:wikidata":"Q66087862","cuisine":"international","name":"Vips"}},"amenity/social_facility/once-bb7a05":{"name":"ONCE","locationSet":{"include":["es"]},"geometry":["point","area"],"matchScore":2,"terms":["once","organización nacional de ciegos españoles"],"tags":{"amenity":"social_facility","brand:wikidata":"Q1750397"},"addTags":{"amenity":"social_facility","brand":"ONCE","brand:wikidata":"Q1750397","brand:wikipedia":"es:Organización Nacional de Ciegos Españoles","name":"ONCE","official_name":"Organización Nacional de Ciegos Españoles","social_facility":"outreach","social_facility:for":"blind"}},"amenity/vending_machine/continental-123edb":{"name":"Continental","locationSet":{"include":["by","bg","cz","hu","pl","md","ro","ru","sk","ua","ax","gg","je","cq","dk","ee","fo","fi","is","ie","im","lv","lt","no","sj","se","gb","al","ad","ba","hr","gi","gr","va","it","mt","me","mk","pt","sm","rs","si","es","xk","at","be","fr","de","li","lu","mc","nl","ch"]},"geometry":["point","vertex"],"matchScore":2,"terms":["continental"],"tags":{"amenity":"vending_machine","brand:wikidata":"Q64739247"},"addTags":{"amenity":"vending_machine","brand":"Continental","brand:wikidata":"Q64739247","brand:wikipedia":"de:Continental Reifen GmbH","name":"Continental","vending":"bicycle_tube"}},"amenity/vending_machine/schwalbe-123edb":{"name":"Schwalbe","locationSet":{"include":["by","bg","cz","hu","pl","md","ro","ru","sk","ua","ax","gg","je","cq","dk","ee","fo","fi","is","ie","im","lv","lt","no","sj","se","gb","al","ad","ba","hr","gi","gr","va","it","mt","me","mk","pt","sm","rs","si","es","xk","at","be","fr","de","li","lu","mc","nl","ch"]},"geometry":["point","vertex"],"matchScore":2,"terms":["schwalbe"],"tags":{"amenity":"vending_machine","brand:wikidata":"Q1312213"},"addTags":{"amenity":"vending_machine","brand":"Schwalbe","brand:wikidata":"Q1312213","brand:wikipedia":"de:Ralf Bohle GmbH","name":"Schwalbe","vending":"bicycle_tube"}},"amenity/vending_machine/selecta-ed4d31":{"name":"Selecta","locationSet":{"include":["at","be","ch","de","dk","es","fi","fr","ie","it","li","lu","nl","no","se","uk"]},"geometry":["point","vertex"],"matchScore":2,"terms":["selecta"],"tags":{"amenity":"vending_machine","brand:wikidata":"Q472153"},"addTags":{"amenity":"vending_machine","brand":"Selecta","brand:wikidata":"Q472153","brand:wikipedia":"en:Selecta (company)"}},"amenity/vending_machine/parking_tickets/zonaazul-9a306d":{"name":"Zona Azul","locationSet":{"include":["es"]},"geometry":["point","vertex"],"matchScore":2,"terms":["zona azul"],"reference":{"key":"vending","value":"parking_tickets"},"tags":{"amenity":"vending_machine","brand:wikidata":"Q6052214","vending":"parking_tickets"},"addTags":{"amenity":"vending_machine","brand":"Zona Azul","brand:wikidata":"Q6052214","brand:wikipedia":"es:Ordenanza Reguladora de Aparcamiento","name":"Zona Azul","vending":"parking_tickets"}},"leisure/fitness_centre/basicfit-4741dc":{"name":"Basic-Fit","locationSet":{"include":["be","es","fr","lu","nl"]},"geometry":["point","area"],"matchScore":2,"terms":["basic-fit"],"tags":{"brand:wikidata":"Q40165577","leisure":"fitness_centre"},"addTags":{"brand":"Basic-Fit","brand:wikidata":"Q40165577","brand:wikipedia":"nl:Basic-Fit","leisure":"fitness_centre","name":"Basic-Fit"}},"leisure/fitness_centre/lorangebleue-5ce32b":{"name":"L'Orange Bleue","locationSet":{"include":["es","fr","ma"]},"geometry":["point","area"],"matchScore":2,"terms":["l'orange bleue"],"tags":{"brand:wikidata":"Q3204640","leisure":"fitness_centre"},"addTags":{"brand":"L'Orange Bleue","brand:wikidata":"Q3204640","brand:wikipedia":"fr:L'Orange bleue","leisure":"fitness_centre","name":"L'Orange Bleue"}},"leisure/fitness_centre/mcfit-0ebac9":{"name":"McFit","locationSet":{"include":["at","de","es","it","pl"]},"geometry":["point","area"],"matchScore":2,"terms":["mcfit"],"tags":{"brand:wikidata":"Q871302","leisure":"fitness_centre"},"addTags":{"brand":"McFit","brand:wikidata":"Q871302","brand:wikipedia":"en:McFit","leisure":"fitness_centre","name":"McFit"}},"leisure/fitness_centre/mrssporty-658820":{"name":"Mrs. Sporty","locationSet":{"include":["at","ch","de","es","it","pl","sk"]},"geometry":["point","area"],"matchScore":2,"terms":["mrs. sporty"],"tags":{"brand:wikidata":"Q100718953","leisure":"fitness_centre"},"addTags":{"brand":"Mrs. Sporty","brand:wikidata":"Q100718953","leisure":"fitness_centre","name":"Mrs. Sporty"}},"leisure/fitness_centre/orangetheoryfitness-f1c5c5":{"name":"Orangetheory Fitness","locationSet":{"include":["ca","es","us"]},"geometry":["point","area"],"matchScore":2,"terms":["orangetheory","orangetheory fitness"],"tags":{"brand:wikidata":"Q25005163","leisure":"fitness_centre"},"addTags":{"brand":"Orangetheory Fitness","brand:wikidata":"Q25005163","brand:wikipedia":"en:Orangetheory Fitness","leisure":"fitness_centre","name":"Orangetheory Fitness"}},"leisure/fitness_centre/snapfitness-551086":{"name":"Snap Fitness","locationSet":{"include":["ae","au","be","ca","es","gb","hk","id","ie","jp","mx","nl","nz","ph","tr","tw","us"]},"geometry":["point","area"],"matchScore":2,"terms":["snap fitness"],"tags":{"brand:wikidata":"Q7547254","leisure":"fitness_centre"},"addTags":{"brand":"Snap Fitness","brand:wikidata":"Q7547254","brand:wikipedia":"en:Snap Fitness","leisure":"fitness_centre","name":"Snap Fitness"}},"office/estate_agent/tecnocasa-ed2199":{"name":"Tecnocasa","locationSet":{"include":["es","it","pl"]},"geometry":["point","area"],"matchScore":2,"terms":["tecnocasa"],"tags":{"brand:wikidata":"Q2399658","office":"estate_agent"},"addTags":{"brand":"Tecnocasa","brand:wikidata":"Q2399658","brand:wikipedia":"de:Tecnocasa","name":"Tecnocasa","office":"estate_agent"}},"office/estate_agent/vonpollrealestate-c99072":{"name":"von Poll Real Estate","locationSet":{"include":["by","bg","cz","hu","pl","md","ro","ru","sk","ua","ax","gg","je","cq","dk","ee","fo","fi","is","ie","im","lv","lt","no","sj","se","gb","al","ad","ba","hr","gi","gr","va","it","mt","me","mk","pt","sm","rs","si","es","xk","at","be","fr","de","li","lu","mc","nl","ch"],"exclude":["at","de"]},"geometry":["point","area"],"matchScore":2,"terms":["von poll immobilien","von poll real estate","vonpoll","vonpoll commercial"],"tags":{"brand:wikidata":"Q96026696","office":"estate_agent"},"addTags":{"brand":"von Poll Real Estate","brand:wikidata":"Q96026696","brand:wikipedia":"de:Von Poll Immobilien","name":"von Poll Real Estate","office":"estate_agent"}},"office/insurance/asepeyo-38d127":{"name":"Asepeyo","locationSet":{"include":["es"]},"geometry":["point","area"],"matchScore":2,"terms":["asepeyo"],"fields":["name","brand","{office/insurance}"],"tags":{"brand:wikidata":"Q11906879","office":"insurance"},"addTags":{"brand":"Asepeyo","brand:wikidata":"Q11906879","brand:wikipedia":"es:Asepeyo","name":"Asepeyo","office":"insurance"}},"office/insurance/caser-38d127":{"name":"Caser","locationSet":{"include":["es"]},"geometry":["point","area"],"matchScore":2,"terms":["caser"],"fields":["name","brand","{office/insurance}"],"tags":{"brand:wikidata":"Q5756057","office":"insurance"},"addTags":{"brand":"Caser","brand:wikidata":"Q5756057","brand:wikipedia":"es:Caser","name":"Caser","office":"insurance"}},"office/insurance/catalanaoccidente-38d127":{"name":"Catalana Occidente","locationSet":{"include":["es"]},"geometry":["point","area"],"matchScore":2,"terms":["catalana occidente"],"fields":["name","brand","{office/insurance}"],"tags":{"brand:wikidata":"Q5936881","office":"insurance"},"addTags":{"brand":"Catalana Occidente","brand:wikidata":"Q5936881","brand:wikipedia":"es:Grupo Catalana Occidente","name":"Catalana Occidente","office":"insurance"}},"office/insurance/cesce-38d127":{"name":"CESCE","locationSet":{"include":["es"]},"geometry":["point","area"],"matchScore":2,"terms":["cesce","compañía española de seguros de crédito a la exportación"],"fields":["name","brand","{office/insurance}"],"tags":{"brand:wikidata":"Q5737049","office":"insurance"},"addTags":{"brand":"CESCE","brand:wikidata":"Q5737049","brand:wikipedia":"es:Cesce","name":"CESCE","office":"insurance","official_name":"Compañía Española de Seguros de Crédito a la Exportación"}},"office/insurance/fremap-38d127":{"name":"Fremap","locationSet":{"include":["es"]},"geometry":["point","area"],"matchScore":2,"terms":["fremap"],"fields":["name","brand","{office/insurance}"],"tags":{"brand:wikidata":"Q5869232","office":"insurance"},"addTags":{"brand":"Fremap","brand:wikidata":"Q5869232","brand:wikipedia":"es:Fremap","name":"Fremap","office":"insurance"}},"office/insurance/helvetia-f9490e":{"name":"Helvetia","locationSet":{"include":["at","ch","de","es","fr","it"]},"geometry":["point","area"],"matchScore":2,"terms":["helvetia"],"fields":["name","brand","{office/insurance}"],"tags":{"brand:wikidata":"Q933766","office":"insurance"},"addTags":{"brand":"Helvetia","brand:wikidata":"Q933766","brand:wikipedia":"it:Helvetia Assicurazioni","name":"Helvetia","office":"insurance"}},"office/insurance/libertyseguros-38d127":{"name":"Liberty Seguros","locationSet":{"include":["es"]},"geometry":["point","area"],"matchScore":2,"terms":["liberty seguros"],"fields":["name","brand","{office/insurance}"],"tags":{"brand:wikidata":"Q3178929","office":"insurance"},"addTags":{"brand":"Liberty Seguros","brand:wikidata":"Q3178929","brand:wikipedia":"es:Liberty Seguros","name":"Liberty Seguros","office":"insurance"}},"office/insurance/lineadirecta-38d127":{"name":"Línea Directa","locationSet":{"include":["es"]},"geometry":["point","area"],"matchScore":2,"terms":["línea directa"],"fields":["name","brand","{office/insurance}"],"tags":{"brand:wikidata":"Q325156","office":"insurance"},"addTags":{"brand":"Línea Directa","brand:wikidata":"Q325156","brand:wikipedia":"es:Línea Directa Aseguradora","name":"Línea Directa","office":"insurance"}},"office/insurance/mutuamadrilena-38d127":{"name":"Mutua Madrileña","locationSet":{"include":["es"]},"geometry":["point","area"],"matchScore":2,"terms":["mutua madrileña"],"fields":["name","brand","{office/insurance}"],"tags":{"brand:wikidata":"Q4888750","office":"insurance"},"addTags":{"brand":"Mutua Madrileña","brand:wikidata":"Q4888750","brand:wikipedia":"es:Mutua Madrileña","name":"Mutua Madrileña","office":"insurance"}},"office/insurance/ocaso-ff07dc":{"name":"Ocaso","locationSet":{"include":["es","gb"]},"geometry":["point","area"],"matchScore":2,"terms":["ocaso","ocaso seguros","seguros ocaso"],"fields":["name","brand","{office/insurance}"],"tags":{"brand:wikidata":"Q6123955","office":"insurance"},"addTags":{"brand":"Ocaso","brand:wikidata":"Q6123955","brand:wikipedia":"es:Seguros Ocaso","name":"Ocaso","office":"insurance"}},"office/insurance/pelayo-38d127":{"name":"Pelayo","locationSet":{"include":["es"]},"geometry":["point","area"],"matchScore":2,"terms":["pelayo"],"fields":["name","brand","{office/insurance}"],"tags":{"brand:wikidata":"Q16617805","office":"insurance"},"addTags":{"brand":"Pelayo","brand:wikidata":"Q16617805","brand:wikipedia":"es:Pelayo Seguros","name":"Pelayo","office":"insurance"}},"office/insurance/reale-fe9c1d":{"name":"Reale","locationSet":{"include":["cl","es","it"]},"geometry":["point","area"],"matchScore":2,"terms":["reale","reale chile","reale immobili","reale mutua assicurazioni","reale seguros","seguros reale"],"fields":["name","brand","{office/insurance}"],"tags":{"brand:wikidata":"Q3931092","office":"insurance"},"addTags":{"brand":"Reale","brand:wikidata":"Q3931092","brand:wikipedia":"it:Reale Mutua Assicurazioni","name":"Reale","office":"insurance"}},"office/insurance/santalucia-38d127":{"name":"Santa Lucía","locationSet":{"include":["es"]},"geometry":["point","area"],"matchScore":2,"terms":["santa lucía"],"fields":["name","brand","{office/insurance}"],"tags":{"brand:wikidata":"Q6120481","office":"insurance"},"addTags":{"brand":"Santa Lucía","brand:wikidata":"Q6120481","brand:wikipedia":"es:Seguros Santa Lucía","name":"Santa Lucía","office":"insurance"}},"office/insurance/vidacaixa-38d127":{"name":"VidaCaixa","locationSet":{"include":["es"]},"geometry":["point","area"],"matchScore":2,"terms":["vidacaixa"],"fields":["name","brand","{office/insurance}"],"tags":{"brand:wikidata":"Q11705079","office":"insurance"},"addTags":{"brand":"VidaCaixa","brand:wikidata":"Q11705079","brand:wikipedia":"es:VidaCaixa","name":"VidaCaixa","office":"insurance"}},"office/telecommunication/r-b26dcd":{"name":"R","locationSet":{"include":["es"]},"geometry":["point","area"],"matchScore":2,"terms":["r"],"tags":{"brand:wikidata":"Q3326234","office":"telecommunication"},"addTags":{"brand":"R","brand:wikidata":"Q3326234","brand:wikipedia":"gl:R (telecomunicacións)","name":"R","office":"telecommunication"}},"shop/baby_goods/zippy-e93d5f":{"name":"Zippy","locationSet":{"include":["es","pt"]},"geometry":["point","area"],"matchScore":2,"terms":["zippy"],"tags":{"brand:wikidata":"Q10395161","shop":"baby_goods"},"addTags":{"brand":"Zippy","brand:wikidata":"Q10395161","brand:wikipedia":"en:Zippy Kidstore","name":"Zippy","shop":"baby_goods"}},"shop/bakery/granier-0ef3f4":{"name":"Granier","locationSet":{"include":["es"]},"geometry":["point","area"],"matchScore":2,"terms":["granier"],"tags":{"brand:wikidata":"Q102311169","shop":"bakery"},"addTags":{"brand":"Granier","brand:wikidata":"Q102311169","name":"Granier","shop":"bakery"}},"shop/bakery/panishop-0ef3f4":{"name":"Panishop","locationSet":{"include":["es"]},"geometry":["point","area"],"matchScore":2,"terms":["panishop"],"tags":{"brand:wikidata":"Q108472015","shop":"bakery"},"addTags":{"brand":"Panishop","brand:wikidata":"Q108472015","name":"Panishop","shop":"bakery"}},"shop/bakery/paul-652955":{"name":"Paul","locationSet":{"include":["ae","az","be","bh","by","ci","cy","cz","eg","es","fr","ga","gb","ge","gr","id","in","jo","jp","kw","kz","lb","lu","ma","mu","my","om","pa","ph","pl","pt","qa","ro","ru","sa","sg","th","tn","tw","ua","us","uz","vn","za"]},"geometry":["point","area"],"matchScore":2,"terms":["paul"],"tags":{"brand:wikidata":"Q3370417","shop":"bakery"},"addTags":{"brand":"Paul","brand:wikidata":"Q3370417","brand:wikipedia":"en:Paul (bakery)","name":"Paul","shop":"bakery"}},"shop/bakery/santagloria-61d4aa":{"name":"Santagloria","locationSet":{"include":["ad","es"]},"geometry":["point","area"],"matchScore":2,"terms":["santagloria"],"tags":{"brand:wikidata":"Q54606497","shop":"bakery"},"addTags":{"amenity":"cafe","brand":"Santagloria","brand:wikidata":"Q54606497","name":"Santagloria","shop":"bakery"}},"shop/books/casadellibro-03d7b8":{"name":"Casa del Libro","locationSet":{"include":["es"]},"geometry":["point","area"],"matchScore":2,"terms":["casa del libro"],"tags":{"brand:wikidata":"Q5755514","shop":"books"},"addTags":{"brand":"Casa del Libro","brand:wikidata":"Q5755514","brand:wikipedia":"es:Casa del Libro","name":"Casa del Libro","shop":"books"}},"shop/books/fnac-8c3017":{"name":"Fnac","locationSet":{"include":["be","ch","es","fr","nl","pt"]},"geometry":["point","area"],"matchScore":2,"terms":["fnac"],"tags":{"brand:wikidata":"Q676585","shop":"books"},"addTags":{"brand":"Fnac","brand:wikidata":"Q676585","brand:wikipedia":"en:Fnac","name":"Fnac","shop":"books"}},"shop/car/karma-40d0fc":{"name":"Karma","locationSet":{"include":["be","ca","cn","ec","es","fr","il","is","nl","pa","se","us"]},"geometry":["point","area"],"matchScore":2,"terms":["karma automotive"],"fields":["name","brand","{shop/car}"],"tags":{"brand:wikidata":"Q22671741","shop":"car"},"addTags":{"brand":"Karma Automotive","brand:wikidata":"Q22671741","brand:wikipedia":"en:Karma Automotive","name":"Karma","shop":"car"}},"shop/car/koenigsegg-45c2de":{"name":"Koenigsegg","locationSet":{"include":["ae","au","ca","ch","cn","de","es","gb","jp","kr","lb","mx","my","om","pl","se","sg","th","tw","us","za"]},"geometry":["point","area"],"matchScore":2,"terms":["koenigsegg"],"fields":["name","brand","{shop/car}"],"tags":{"brand:wikidata":"Q35594","shop":"car"},"addTags":{"brand":"Koenigsegg","brand:wikidata":"Q35594","brand:wikipedia":"en:Koenigsegg","name":"Koenigsegg","shop":"car"}},"shop/car/rimac-0f1e04":{"name":"Rimac","locationSet":{"include":["ae","ca","cn","de","es","gb","jp","mx","sg","us"]},"geometry":["point","area"],"matchScore":2,"terms":["rimac"],"fields":["name","brand","{shop/car}"],"tags":{"brand:wikidata":"Q7334368","shop":"car"},"addTags":{"brand":"Rimac","brand:wikidata":"Q7334368","brand:wikipedia":"en:Rimac Automobili","name":"Rimac","shop":"car"}},"shop/car/smart-f30ed8":{"name":"Smart","locationSet":{"include":["by","bg","cz","hu","pl","md","ro","ru","sk","ua","ax","gg","je","cq","dk","ee","fo","fi","is","ie","im","lv","lt","no","sj","se","gb","al","ad","ba","hr","gi","gr","va","it","mt","me","mk","pt","sm","rs","si","es","xk","at","be","fr","de","li","lu","mc","nl","ch"]},"geometry":["point","area"],"matchScore":2,"terms":["smart"],"fields":["name","brand","{shop/car}"],"tags":{"brand:wikidata":"Q156490","shop":"car"},"addTags":{"brand":"Smart","brand:wikidata":"Q156490","brand:wikipedia":"en:Smart (marque)","name":"Smart","shop":"car"}},"shop/car_repair/euromaster-db76b7":{"name":"Euromaster","locationSet":{"include":["ch","de","es","fi","fr","nl","pt"]},"geometry":["point","area"],"matchScore":2,"terms":["euromaster"],"fields":["name","brand","{shop/car_repair}"],"tags":{"brand:wikidata":"Q3060668","shop":"car_repair"},"addTags":{"brand":"Euromaster","brand:wikidata":"Q3060668","brand:wikipedia":"de:Euromaster","name":"Euromaster","shop":"car_repair"}},"shop/car_repair/norauto-388a61":{"name":"Norauto","locationSet":{"include":["ar","es","fr","hu","it","pl","pt","ro"]},"geometry":["point","area"],"matchScore":2,"terms":["norauto"],"fields":["name","brand","{shop/car_repair}"],"tags":{"brand:wikidata":"Q3317698","shop":"car_repair"},"addTags":{"brand":"Norauto","brand:wikidata":"Q3317698","brand:wikipedia":"en:Norauto","name":"Norauto","shop":"car_repair"}},"shop/chemist/clarel-5ee006":{"name":"Clarel","locationSet":{"include":["es"]},"geometry":["point","area"],"matchScore":2,"terms":["clarel"],"tags":{"brand:wikidata":"Q48784350","shop":"chemist"},"addTags":{"brand":"Clarel","brand:wikidata":"Q48784350","brand:wikipedia":"es:Clarel","name":"Clarel","shop":"chemist"}},"shop/chemist/muller-7b8da2":{"name":"Müller","locationSet":{"include":["at","ch","de","es","hr","hu"]},"geometry":["point","area"],"matchScore":2,"terms":["drogeriemarkt müller","müller"],"tags":{"brand:wikidata":"Q1958759","shop":"chemist"},"addTags":{"brand":"Müller","brand:wikidata":"Q1958759","brand:wikipedia":"en:Müller (German trade company)","name":"Müller","shop":"chemist"}},"shop/clothes/abercrombieandfitch-c69677":{"name":"Abercrombie & Fitch","locationSet":{"include":["ae","be","ca","cn","de","es","fr","gb","hk","ie","it","jp","kw","mx","nl","qa","sa","sg","us"]},"geometry":["point","area"],"matchScore":2,"terms":["abercrombie & fitch"],"tags":{"brand:wikidata":"Q319344","shop":"clothes"},"addTags":{"brand":"Abercrombie & Fitch","brand:wikidata":"Q319344","brand:wikipedia":"en:Abercrombie & Fitch","clothes":"men;women","name":"Abercrombie & Fitch","shop":"clothes"}},"shop/clothes/bimbaylola-9e078d":{"name":"Bimba y Lola","locationSet":{"include":["es"]},"geometry":["point","area"],"matchScore":2,"terms":["bimba & lola","bimba y lola"],"tags":{"brand:wikidata":"Q54869493","shop":"clothes"},"addTags":{"brand":"Bimba y Lola","brand:wikidata":"Q54869493","brand:wikipedia":"es:Bimba y Lola","name":"Bimba y Lola","shop":"clothes"}},"shop/clothes/boboli-9e078d":{"name":"Bóboli","locationSet":{"include":["es"]},"geometry":["point","area"],"matchScore":2,"terms":["boboli"],"tags":{"brand:wikidata":"Q39073733","shop":"clothes"},"addTags":{"brand":"Boboli","brand:wikidata":"Q39073733","brand:wikipedia":"ca:Bóboli","name":"Bóboli","shop":"clothes"}},"shop/clothes/elganso-bf6c2f":{"name":"El Ganso","locationSet":{"include":["cl","es","fr","kw","mx","pt"]},"geometry":["point","area"],"matchScore":2,"terms":["el ganso"],"tags":{"brand:wikidata":"Q51955203","shop":"clothes"},"addTags":{"brand":"El Ganso","brand:wikidata":"Q51955203","brand:wikipedia":"es:El Ganso (cadena de tiendas)","name":"El Ganso","shop":"clothes"}},"shop/clothes/underwear/hunkemoller-4950a4":{"name":"Hunkemöller","locationSet":{"include":["at","be","de","dk","es","lu","nl"]},"geometry":["point","area"],"matchScore":2,"terms":["hunkemöller"],"reference":{"key":"clothes","value":"underwear"},"tags":{"brand:wikidata":"Q2604175","clothes":"underwear","shop":"clothes"},"addTags":{"brand":"Hunkemöller","brand:wikidata":"Q2604175","brand:wikipedia":"en:Hunkemöller","clothes":"underwear","name":"Hunkemöller","shop":"clothes"}},"shop/clothes/ikks-859ec0":{"name":"Ikks","locationSet":{"include":["be","es","fr","lu","nl"]},"geometry":["point","area"],"matchScore":2,"terms":["ikks"],"tags":{"brand:wikidata":"Q3146711","shop":"clothes"},"addTags":{"brand":"Ikks","brand:wikidata":"Q3146711","brand:wikipedia":"fr:IKKS","name":"Ikks","shop":"clothes"}},"shop/clothes/koroshi-9e078d":{"name":"Koröshi","locationSet":{"include":["es"]},"geometry":["point","area"],"matchScore":2,"terms":["koröshi"],"tags":{"brand:wikidata":"Q99775834","shop":"clothes"},"addTags":{"brand":"Koröshi","brand:wikidata":"Q99775834","name":"Koröshi","shop":"clothes"}},"shop/clothes/lacompagniedespetits-658d81":{"name":"La Compagnie des Petits","locationSet":{"include":["be","es","fr","lu"]},"geometry":["point","area"],"matchScore":2,"terms":["la compagnie des petits"],"tags":{"brand:wikidata":"Q104195282","shop":"clothes"},"addTags":{"brand":"La Compagnie des Petits","brand:wikidata":"Q104195282","clothes":"children","name":"La Compagnie des Petits","shop":"clothes"}},"shop/clothes/letempsdescerises-137ac2":{"name":"Le Temps des Cerises","locationSet":{"include":["be","ch","cz","es","fr","lu","mg"]},"geometry":["point","area"],"matchScore":2,"terms":["le temps des cerises"],"tags":{"brand:wikidata":"Q3228558","shop":"clothes"},"addTags":{"brand":"Le Temps des Cerises","brand:wikidata":"Q3228558","brand:wikipedia":"fr:Le Temps des cerises (marque)","name":"Le Temps des Cerises","shop":"clothes"}},"shop/clothes/maje-99ba8f":{"name":"Maje","locationSet":{"include":["by","bg","cz","hu","pl","md","ro","ru","sk","ua","ax","gg","je","cq","dk","ee","fo","fi","is","ie","im","lv","lt","no","sj","se","gb","al","ad","ba","hr","gi","gr","va","it","mt","me","mk","pt","sm","rs","si","es","xk","at","be","fr","de","li","lu","mc","nl","ch","cn","hk","sg","tw","uk","us"]},"geometry":["point","area"],"matchScore":2,"terms":["maje"],"tags":{"brand:wikidata":"Q3280458","shop":"clothes"},"addTags":{"brand":"Maje","brand:wikidata":"Q3280458","brand:wikipedia":"fr:Maje","clothes":"women","name":"Maje","shop":"clothes"}},"shop/clothes/maxetmoi-c7a41d":{"name":"Max et Moi","locationSet":{"include":["ch","ee","es","fr","ru"]},"geometry":["point","area"],"matchScore":2,"terms":["max et moi"],"tags":{"brand:wikidata":"Q104717564","shop":"clothes"},"addTags":{"brand":"Max et Moi","brand:wikidata":"Q104717564","clothes":"women","name":"Max et Moi","shop":"clothes"}},"shop/clothes/oasis-cefcc8":{"name":"Oasis","locationSet":{"include":["es","gb","ie"]},"geometry":["point","area"],"matchScore":2,"terms":["oasis"],"tags":{"brand:wikidata":"Q64532852","shop":"clothes"},"addTags":{"brand":"Oasis","brand:wikidata":"Q64532852","name":"Oasis","shop":"clothes"}},"shop/clothes/okaidi-eea264":{"name":"Okaïdi","locationSet":{"include":["be","ch","de","es","fr","it","pl"]},"geometry":["point","area"],"matchScore":2,"terms":["okaïdi"],"tags":{"brand:wikidata":"Q3350027","shop":"clothes"},"addTags":{"brand":"Okaïdi","brand:wikidata":"Q3350027","brand:wikipedia":"fr:Okaïdi","name":"Okaïdi","shop":"clothes"}},"shop/clothes/pimkie-c56deb":{"name":"Pimkie","locationSet":{"include":["at","be","de","es","fr","it"]},"geometry":["point","area"],"matchScore":2,"terms":["pimkie"],"tags":{"brand:wikidata":"Q1758066","shop":"clothes"},"addTags":{"brand":"Pimkie","brand:wikidata":"Q1758066","brand:wikipedia":"en:Pimkie","name":"Pimkie","shop":"clothes"}},"shop/clothes/sergentmajor-acfeda":{"name":"Sergent Major","locationSet":{"include":["be","de","es","fr","gb","it"]},"geometry":["point","area"],"matchScore":2,"terms":["sergent major"],"tags":{"brand:wikidata":"Q62521738","shop":"clothes"},"addTags":{"brand":"Sergent Major","brand:wikidata":"Q62521738","brand:wikipedia":"fr:Sergent Major (entreprise)","clothes":"babies;children","name":"Sergent Major","shop":"clothes"}},"shop/clothes/underwear/undiz-f30927":{"name":"Undiz","locationSet":{"include":["ae","ch","es","fr","gf","gp","lb","ma","mq","nc","pf","qa","re","sa","za"]},"geometry":["point","area"],"matchScore":2,"terms":["undiz"],"reference":{"key":"clothes","value":"underwear"},"tags":{"brand:wikidata":"Q105306275","clothes":"underwear","shop":"clothes"},"addTags":{"brand":"Undiz","brand:wikidata":"Q105306275","clothes":"underwear","name":"Undiz","shop":"clothes"}},"shop/clothes/winners-2047be":{"name":"Winners","locationSet":{"include":["ca","es"]},"geometry":["point","area"],"matchScore":2,"terms":["winners"],"tags":{"brand:wikidata":"Q845257","shop":"clothes"},"addTags":{"brand":"Winners","brand:wikidata":"Q845257","brand:wikipedia":"en:Winners","name":"Winners","shop":"clothes"}},"shop/clothes/yamamay-8f2dbd":{"name":"Yamamay","locationSet":{"include":["es","it"]},"geometry":["point","area"],"matchScore":2,"terms":["yamamay"],"tags":{"brand:wikidata":"Q2599214","shop":"clothes"},"addTags":{"brand":"Yamamay","brand:wikidata":"Q2599214","brand:wikipedia":"it:Yamamay","name":"Yamamay","shop":"clothes"}},"shop/computer/beep-6542a7":{"name":"Beep","locationSet":{"include":["es"]},"geometry":["point","area"],"matchScore":2,"terms":["beep"],"tags":{"brand:wikidata":"Q98489220","shop":"computer"},"addTags":{"brand":"Beep","brand:wikidata":"Q98489220","name":"Beep","shop":"computer"}},"shop/confectionery/belros-0b3ba6":{"name":"Belros","locationSet":{"include":["es"]},"geometry":["point","area"],"matchScore":2,"terms":["belros"],"tags":{"brand:wikidata":"Q100089059","shop":"confectionery"},"addTags":{"brand":"Belros","brand:wikidata":"Q100089059","name":"Belros","shop":"confectionery"}},"shop/confectionery/elrincon-0b3ba6":{"name":"El Rincón","locationSet":{"include":["es"]},"geometry":["point","area"],"matchScore":2,"terms":["el rincón","frutos secos el rincón"],"tags":{"brand:wikidata":"Q98456614","shop":"confectionery"},"addTags":{"brand":"El Rincón","brand:wikidata":"Q98456614","name":"El Rincón","shop":"confectionery"}},"shop/confectionery/elrinconandcoffee-0b3ba6":{"name":"El Rincón & Coffee","locationSet":{"include":["es"]},"geometry":["point","area"],"matchScore":2,"terms":["el rincón"],"tags":{"brand:wikidata":"Q98456614","shop":"confectionery"},"addTags":{"amenity":"cafe","brand":"El Rincón","brand:wikidata":"Q98456614","name":"El Rincón & Coffee","shop":"confectionery"}},"shop/convenience/avia-3fdfc9":{"name":"Avia","locationSet":{"include":["at","be","bg","ch","cz","de","es","fr","hu","it","nl","pl","pt","rs","ua"]},"geometry":["point","area"],"matchScore":2,"terms":["avia"],"tags":{"brand:wikidata":"Q300147","shop":"convenience"},"addTags":{"brand":"Avia","brand:wikidata":"Q300147","brand:wikipedia":"de:Avia International","name":"Avia","shop":"convenience"}},"shop/convenience/hiperdinoexpress-dd9aae":{"name":"HiperDino Express","locationSet":{"include":["es"]},"geometry":["point","area"],"matchScore":2,"terms":["dinosol","hiperdino express"],"tags":{"brand:wikidata":"Q105955317","shop":"convenience"},"addTags":{"brand":"HiperDino Express","brand:wikidata":"Q105955317","operator":"DinoSol","operator:wikidata":"Q5278478","operator:wikipedia":"es:Dinosol Supermercados, S.L.","shop":"convenience"}},"shop/convenience/martinmartin-dd9aae":{"name":"Martín Martín","locationSet":{"include":["es"]},"geometry":["point","area"],"matchScore":2,"terms":["martín martín"],"tags":{"brand:wikidata":"Q98546074","shop":"convenience"},"addTags":{"brand":"Martín Martín","brand:wikidata":"Q98546074","name":"Martín Martín","shop":"convenience"}},"shop/convenience/minimix-57794c":{"name":"Mini Mix","locationSet":{"include":["at","be","cy","cz","de","es","fr","gb","gr","it","me","nl","pt"]},"geometry":["point","area"],"matchScore":2,"terms":["mini mix","mini mix markt"],"tags":{"brand:wikidata":"Q327854","shop":"convenience"},"addTags":{"brand":"Mini Mix","brand:wikidata":"Q327854","brand:wikipedia":"de:Mix Markt","name":"Mini Mix","shop":"convenience"}},"shop/convenience/simplybasic-dd9aae":{"name":"Simply Basic","locationSet":{"include":["es"]},"geometry":["point","area"],"matchScore":2,"terms":["simply basic"],"tags":{"brand:wikidata":"Q5643014","shop":"convenience"},"addTags":{"brand":"Simply Basic","brand:wikidata":"Q5643014","brand:wikipedia":"es:Sabeco","name":"Simply Basic","shop":"convenience"}},"shop/convenience/simplycity-dd9aae":{"name":"Simply City","locationSet":{"include":["es"]},"geometry":["point","area"],"matchScore":2,"terms":["simply city"],"tags":{"brand:wikidata":"Q5643014","shop":"convenience"},"addTags":{"brand":"Simply City","brand:wikidata":"Q5643014","brand:wikipedia":"es:Sabeco","name":"Simply City","shop":"convenience"}},"shop/convenience/simplystore-dd9aae":{"name":"Simply Store","locationSet":{"include":["es"]},"geometry":["point","area"],"matchScore":2,"terms":["simply store"],"tags":{"brand:wikidata":"Q5643014","shop":"convenience"},"addTags":{"brand":"Simply Store","brand:wikidata":"Q5643014","brand:wikipedia":"es:Sabeco","name":"Simply Store","shop":"convenience"}},"shop/convenience/viva-856fe1":{"name":"Viva","locationSet":{"include":["by","bg","cz","hu","pl","md","ro","ru","sk","ua","ax","gg","je","cq","dk","ee","fo","fi","is","ie","im","lv","lt","no","sj","se","gb","al","ad","ba","hr","gi","gr","va","it","mt","me","mk","pt","sm","rs","si","es","xk","at","be","fr","de","li","lu","mc","nl","ch"]},"geometry":["point","area"],"matchScore":2,"terms":["viva"],"tags":{"brand:wikidata":"Q168238","shop":"convenience"},"addTags":{"brand":"Viva","brand:wikidata":"Q168238","brand:wikipedia":"en:OMV","name":"Viva","shop":"convenience"}},"shop/cosmetics/rituals-6bd843":{"name":"Rituals","locationSet":{"include":["be","ch","de","es","gb","nl","se","us"]},"geometry":["point","area"],"matchScore":2,"terms":["rituals"],"tags":{"brand:wikidata":"Q62874140","shop":"cosmetics"},"addTags":{"brand":"Rituals","brand:wikidata":"Q62874140","name":"Rituals","shop":"cosmetics"}},"shop/deli/vomfass-a3c745":{"name":"vomFASS","locationSet":{"include":["at","be","br","ca","ch","cz","de","dk","es","fr","gb","hk","hr","hu","il","it","jp","lv","mx","my","ph","sg","th","us"]},"geometry":["point","area"],"matchScore":2,"terms":["vomfass"],"tags":{"brand:wikidata":"Q2533008","shop":"deli"},"addTags":{"brand":"vomFASS","brand:wikidata":"Q2533008","brand:wikipedia":"de:Vom Fass","name":"vomFASS","shop":"deli"}},"shop/department_store/elcorteingles-aa1c04":{"name":"El Corte Inglés","locationSet":{"include":["es"]},"geometry":["point","area"],"matchScore":2,"terms":["corte ingles","el corte inglés"],"tags":{"brand:wikidata":"Q623133","shop":"department_store"},"addTags":{"brand":"El Corte Inglés","brand:wikidata":"Q623133","brand:wikipedia":"en:El Corte Inglés","name":"El Corte Inglés","shop":"department_store"}},"shop/department_store/hema-e99f95":{"name":"HEMA","locationSet":{"include":["ae","at","be","de","es","fr","gb","lu","nl","qa"]},"geometry":["point","area"],"matchScore":2,"terms":["hema"],"tags":{"brand:wikidata":"Q903805","shop":"department_store"},"addTags":{"brand":"HEMA","brand:wikidata":"Q903805","brand:wikipedia":"en:HEMA (store)","name":"HEMA","shop":"department_store"}},"shop/department_store/muji-b9b204":{"name":"Muji","locationSet":{"include":["au","ca","ch","de","es","fi","fr","gb","ie","it","pl","pt","se","tr"]},"geometry":["point","area"],"matchScore":2,"terms":["muji","無印良品"],"tags":{"brand:wikidata":"Q708789","shop":"department_store"},"addTags":{"brand":"Muji","brand:en":"Muji","brand:ja":"無印良品","brand:wikidata":"Q708789","brand:wikipedia":"en:Muji","name":"Muji","name:en":"Muji","name:ja":"無印良品","shop":"department_store"}},"shop/department_store/winners-c81e81":{"name":"Winners","locationSet":{"include":["ca","es"]},"geometry":["point","area"],"matchScore":2,"terms":["winners"],"tags":{"brand:wikidata":"Q845257","shop":"department_store"},"addTags":{"brand":"Winners","brand:wikidata":"Q845257","brand:wikipedia":"en:Winners","name":"Winners","shop":"department_store"}},"shop/doityourself/bauhaus-6847b5":{"name":"Bauhaus","locationSet":{"include":["at","bg","ch","cz","de","dk","ee","es","fi","hr","hu","is","lu","nl","no","se","si","sk","tr"]},"geometry":["point","area"],"matchScore":2,"terms":["bauhaus"],"tags":{"brand:wikidata":"Q672043","shop":"doityourself"},"addTags":{"brand":"Bauhaus","brand:wikidata":"Q672043","brand:wikipedia":"en:Bauhaus (company)","name":"Bauhaus","shop":"doityourself"}},"shop/doityourself/bigmat-488295":{"name":"BigMat","locationSet":{"include":["be","cz","es","fr","gb","it","sk"]},"geometry":["point","area"],"matchScore":2,"terms":["bigmat"],"tags":{"brand:wikidata":"Q101851862","shop":"doityourself"},"addTags":{"brand":"BigMat","brand:wikidata":"Q101851862","name":"BigMat","shop":"doityourself"}},"shop/doityourself/bricodepot-46eef0":{"name":"Brico Dépôt","locationSet":{"include":["es","fr","pt","ro"]},"geometry":["point","area"],"matchScore":2,"terms":["brico dépôt"],"tags":{"brand:wikidata":"Q2889702","shop":"doityourself"},"addTags":{"brand":"Brico Dépôt","brand:wikidata":"Q2889702","brand:wikipedia":"fr:Brico Dépôt","name":"Brico Dépôt","shop":"doityourself"}},"shop/doityourself/bricorama-80eee7":{"name":"Bricorama","locationSet":{"include":["es","fr"]},"geometry":["point","area"],"matchScore":2,"terms":["bricorama"],"tags":{"brand:wikidata":"Q2925146","shop":"doityourself"},"addTags":{"brand":"Bricorama","brand:wikidata":"Q2925146","brand:wikipedia":"en:Bricorama","name":"Bricorama","shop":"doityourself"}},"shop/doityourself/hagebaumarkt-f009fa":{"name":"Hagebaumarkt","locationSet":{"include":["at","be","ch","de","es","fr","lu","nl"]},"geometry":["point","area"],"matchScore":2,"terms":["hagebau","hagebaumarkt"],"tags":{"brand:wikidata":"Q1568279","shop":"doityourself"},"addTags":{"brand":"Hagebaumarkt","brand:wikidata":"Q1568279","brand:wikipedia":"de:Hagebau","name":"Hagebaumarkt","shop":"doityourself"}},"shop/electronics/cex-75e32e":{"name":"CeX","locationSet":{"include":["au","es","gb","ie","in","it","mx","nl","pl","pt"]},"geometry":["point","area"],"matchScore":2,"terms":["cex"],"tags":{"brand:wikidata":"Q5055676","shop":"electronics"},"addTags":{"brand":"CeX","brand:wikidata":"Q5055676","brand:wikipedia":"en:CeX (company)","name":"CeX","shop":"electronics"}},"shop/electronics/inmotion-d88b15":{"name":"InMotion","locationSet":{"include":["au","es","gb","us"]},"geometry":["point","area"],"matchScore":2,"terms":["inmotion"],"tags":{"brand:wikidata":"Q109648041","shop":"electronics"},"addTags":{"brand":"InMotion","brand:wikidata":"Q109648041","name":"InMotion","shop":"electronics"}},"shop/electronics/mediamarkt-51d852":{"name":"MediaMarkt","locationSet":{"include":["at","be","ch","de","es","gr","hu","it","nl","pl","pt","se","tr"]},"geometry":["point","area"],"matchScore":2,"terms":["mediamarkt"],"tags":{"brand:wikidata":"Q2381223","shop":"electronics"},"addTags":{"brand":"MediaMarkt","brand:wikidata":"Q2381223","brand:wikipedia":"en:Media Markt","name":"MediaMarkt","shop":"electronics"}},"shop/electronics/worten-c3ad1a":{"name":"Worten","locationSet":{"include":["es","pt"]},"geometry":["point","area"],"matchScore":2,"terms":["worten"],"tags":{"brand:wikidata":"Q10394039","shop":"electronics"},"addTags":{"brand":"Worten","brand:wikidata":"Q10394039","brand:wikipedia":"pt:Worten","name":"Worten","shop":"electronics"}},"shop/fashion_accessories/parfois-87714a":{"name":"Parfois","locationSet":{"include":["be","de","es","fr","gb","hu","ie","it","nl","pl","pt"]},"geometry":["point","area"],"matchScore":2,"terms":["parfois"],"tags":{"brand:wikidata":"Q7136948","shop":"fashion_accessories"},"addTags":{"brand":"Parfois","brand:wikidata":"Q7136948","brand:wikipedia":"en:Parfois","name":"Parfois","shop":"fashion_accessories"}},"shop/furniture/casa-79abb5":{"name":"Casa","locationSet":{"include":["be","ch","es","fr","it","lu","pt"]},"geometry":["point","area"],"matchScore":2,"terms":["casa"],"tags":{"brand:wikidata":"Q1991755","shop":"furniture"},"addTags":{"brand":"Casa","brand:wikidata":"Q1991755","brand:wikipedia":"fr:Casa (enseigne)","name":"Casa","shop":"furniture"}},"shop/furniture/chateaudax-c96b56":{"name":"Chateau d'Ax","locationSet":{"include":["ao","be","ca","ch","cn","de","es","fx","gp","hk","hr","it","ma","mq","mt","mu","mz","pt","re","sg","si","tn","tw","us","vn"]},"geometry":["point","area"],"matchScore":2,"terms":["chateau d'ax"],"tags":{"brand:wikidata":"Q100249791","shop":"furniture"},"addTags":{"brand":"Chateau d'Ax","brand:wikidata":"Q100249791","name":"Chateau d'Ax","shop":"furniture"}},"shop/furniture/conforama-86a0f7":{"name":"Conforama","locationSet":{"include":["ch","es","fr","it","lu"]},"geometry":["point","area"],"matchScore":2,"terms":["conforama"],"tags":{"brand:wikidata":"Q541134","shop":"furniture"},"addTags":{"brand":"Conforama","brand:wikidata":"Q541134","brand:wikipedia":"en:Conforama","name":"Conforama","shop":"furniture"}},"shop/furniture/habitat-4d9d78":{"name":"Habitat (non-UK)","locationSet":{"include":["be","de","es","gr","is","lu","no","pt","tr"]},"geometry":["point","area"],"matchScore":2,"terms":["habitat"],"tags":{"brand:wikidata":"Q689059","shop":"furniture"},"addTags":{"brand":"Habitat","brand:wikidata":"Q689059","brand:wikipedia":"en:Habitat (retailer)","name":"Habitat","shop":"furniture"}},"shop/furniture/maisonsdumonde-55837e":{"name":"Maisons du Monde","locationSet":{"include":["be","ch","de","es","fr","gb","it","lu"]},"geometry":["point","area"],"matchScore":2,"terms":["maisons du monde"],"tags":{"brand:wikidata":"Q3280364","shop":"furniture"},"addTags":{"brand":"Maisons du Monde","brand:wikidata":"Q3280364","brand:wikipedia":"fr:Maisons du Monde","name":"Maisons du Monde","shop":"furniture"}},"shop/furniture/momax-a18722":{"name":"Mömax","locationSet":{"include":["by","bg","cz","hu","pl","md","ro","ru","sk","ua","ax","gg","je","cq","dk","ee","fo","fi","is","ie","im","lv","lt","no","sj","se","gb","al","ad","ba","hr","gi","gr","va","it","mt","me","mk","pt","sm","rs","si","es","xk","at","be","fr","de","li","lu","mc","nl","ch"]},"geometry":["point","area"],"matchScore":2,"terms":["mömax"],"tags":{"brand:wikidata":"Q56388481","shop":"furniture"},"addTags":{"brand":"Mömax","brand:wikidata":"Q56388481","brand:wikipedia":"hu:Mömax (nemzetközi cég)","name":"Mömax","shop":"furniture"}},"shop/furniture/xxxlutz-5acc6e":{"name":"XXXLutz","locationSet":{"include":["by","bg","cz","hu","pl","md","ro","ru","sk","ua","ax","gg","je","cq","dk","ee","fo","fi","is","ie","im","lv","lt","no","sj","se","gb","al","ad","ba","hr","gi","gr","va","it","mt","me","mk","pt","sm","rs","si","es","xk","at","be","fr","de","li","lu","mc","nl","ch"],"exclude":["bg"]},"geometry":["point","area"],"matchScore":2,"terms":["xxxlutz"],"tags":{"brand:wikidata":"Q70339467","shop":"furniture"},"addTags":{"brand":"XXXLutz","brand:wikidata":"Q70339467","brand:wikipedia":"de:XXXLutz","name":"XXXLutz","shop":"furniture"}},"shop/gift/alehop-be38fa":{"name":"ALE-HOP","locationSet":{"include":["es","hr","mx","pt"]},"geometry":["point","area"],"matchScore":2,"terms":["ale-hop"],"tags":{"brand:wikidata":"Q98456840","shop":"gift"},"addTags":{"brand":"ALE-HOP","brand:wikidata":"Q98456840","brand:wikipedia":"es:ALE-HOP","name":"ALE-HOP","shop":"gift"}},"shop/hairdresser/jeanlouisdavid-c24876":{"name":"Jean Louis David","locationSet":{"include":["es","fr","it","pl"]},"geometry":["point","area"],"matchScore":2,"terms":["jean louis david"],"tags":{"brand:wikidata":"Q64445174","shop":"hairdresser"},"addTags":{"brand":"Jean Louis David","brand:wikidata":"Q64445174","name":"Jean Louis David","shop":"hairdresser"}},"shop/hairdresser/passaro-5e03c5":{"name":"Passaró","locationSet":{"include":["es"]},"geometry":["point","area"],"matchScore":2,"terms":["passaró"],"tags":{"brand:wikidata":"Q109264394","shop":"hairdresser"},"addTags":{"brand":"Passaró","brand:wikidata":"Q109264394","name":"Passaró","shop":"hairdresser"}},"shop/hairdresser_supply/sallybeauty-0c832a":{"name":"Sally Beauty","locationSet":{"include":["be","ca","cl","de","es","fr","gb","ie","mx","nl","pe","pr","us"]},"geometry":["point","area"],"matchScore":2,"terms":["sally beauty","sally beauty supply"],"tags":{"brand:wikidata":"Q7405065","shop":"hairdresser_supply"},"addTags":{"alt_name":"Sally Beauty Supply","brand":"Sally Beauty","brand:wikidata":"Q7405065","brand:wikipedia":"en:Sally Beauty Holdings","name":"Sally Beauty","shop":"hairdresser_supply"}},"shop/hearing_aids/gaes-681898":{"name":"GAES","locationSet":{"include":["ar","cl","co","ec","es","mx","pa"]},"geometry":["point","area"],"matchScore":2,"terms":["gaes"],"tags":{"brand:wikidata":"Q98492565","shop":"hearing_aids"},"addTags":{"brand":"GAES","brand:wikidata":"Q98492565","name":"GAES","shop":"hearing_aids"}},"shop/household_linen/yvesdelorme-cbcdfa":{"name":"Yves Delorme","locationSet":{"include":["be","de","es","fr","lu","uk"]},"geometry":["point","area"],"matchScore":2,"terms":["yves delorme"],"tags":{"brand:wikidata":"Q3573601","shop":"household_linen"},"addTags":{"brand":"Yves Delorme","brand:wikidata":"Q3573601","brand:wikipedia":"fr:Yves Delorme","name":"Yves Delorme","shop":"household_linen"}},"shop/interior_decoration/butlers-85b078":{"name":"Butlers","locationSet":{"include":["at","ch","de","es","gb","hu","lu","mt","ua"]},"geometry":["point","area"],"matchScore":2,"terms":["butlers"],"tags":{"brand:wikidata":"Q1017972","shop":"interior_decoration"},"addTags":{"brand":"Butlers","brand:wikidata":"Q1017972","brand:wikipedia":"de:Butlers (Unternehmen)","name":"Butlers","shop":"interior_decoration"}},"shop/jewelry/wempe-5678fa":{"name":"Wempe","locationSet":{"include":["at","de","es","fr","gb","us"]},"geometry":["point","area"],"matchScore":2,"terms":["wempe"],"tags":{"brand:wikidata":"Q1483424","shop":"jewelry"},"addTags":{"brand":"Wempe","brand:wikidata":"Q1483424","brand:wikipedia":"de:Gerhard D. Wempe","name":"Wempe","shop":"jewelry"}},"shop/kitchen/schmidt-b36c9e":{"name":"Schmidt","locationSet":{"include":["be","es","fr","gb"]},"geometry":["point","area"],"matchScore":2,"terms":["schmidt"],"tags":{"brand:wikidata":"Q3487620","shop":"kitchen"},"addTags":{"brand":"Schmidt","brand:wikidata":"Q3487620","brand:wikipedia":"de:Schmidt Groupe","name":"Schmidt","shop":"kitchen"}},"shop/lottery/loteriasyapuestasdelestado-1a20a0":{"name":"Loterías y Apuestas del Estado","locationSet":{"include":["es"]},"geometry":["point","area"],"matchScore":2,"terms":["apuestas del estado","lotería del estado","loterías del estado","loterías y apuestas del estado"],"tags":{"brand:wikidata":"Q1311806","shop":"lottery"},"addTags":{"brand":"Loterías y Apuestas del Estado","brand:wikidata":"Q1311806","brand:wikipedia":"es:Loterías y Apuestas del Estado","name":"Loterías y Apuestas del Estado","shop":"lottery"}},"shop/lottery/once-1a20a0":{"name":"ONCE","locationSet":{"include":["es"]},"geometry":["point","area"],"matchScore":2,"terms":["once","organización nacional de ciegos españoles"],"tags":{"brand:wikidata":"Q1750397","shop":"lottery"},"addTags":{"brand":"ONCE","brand:wikidata":"Q1750397","brand:wikipedia":"es:Organización Nacional de Ciegos Españoles","name":"ONCE","official_name":"Organización Nacional de Ciegos Españoles","shop":"lottery"}},"shop/mobile_phone/phonehouse-3d17eb":{"name":"Phone House","locationSet":{"include":["de","es","fr","nl","pt"]},"geometry":["point","area"],"matchScore":2,"terms":["phone house","the phone house"],"tags":{"brand:wikidata":"Q118046","shop":"mobile_phone"},"addTags":{"brand":"Phone House","brand:wikidata":"Q118046","brand:wikipedia":"en:Carphone Warehouse","name":"Phone House","shop":"mobile_phone"}},"shop/mobile_phone/yoigo-7135b5":{"name":"Yoigo","locationSet":{"include":["es"]},"geometry":["point","area"],"matchScore":2,"terms":["yoigo"],"tags":{"brand:wikidata":"Q2630989","shop":"mobile_phone"},"addTags":{"brand":"Yoigo","brand:wikidata":"Q2630989","brand:wikipedia":"en:Yoigo","name":"Yoigo","shop":"mobile_phone"}},"shop/optician/aceandtate-b2ee21":{"name":"Ace & Tate","locationSet":{"include":["at","be","ch","de","dk","es","gb","ie","nl","se"]},"geometry":["point","area"],"matchScore":2,"terms":["ace & tate"],"tags":{"brand:wikidata":"Q110516413","shop":"optician"},"addTags":{"brand":"Ace & Tate","brand:wikidata":"Q110516413","name":"Ace & Tate","shop":"optician"}},"shop/optician/alainafflelou-b3bc92":{"name":"Alain Afflelou","locationSet":{"include":["be","ch","es","fr","pt"]},"geometry":["point","area"],"matchScore":2,"terms":["alain afflelou"],"tags":{"brand:wikidata":"Q2829511","shop":"optician"},"addTags":{"brand":"Alain Afflelou","brand:wikidata":"Q2829511","brand:wikipedia":"fr:Alain Afflelou (entreprise)","name":"Alain Afflelou","shop":"optician"}},"shop/optician/generaloptica-61af00":{"name":"General Óptica","locationSet":{"include":["es"]},"geometry":["point","area"],"matchScore":2,"terms":["general óptica"],"tags":{"brand:wikidata":"Q62391672","shop":"optician"},"addTags":{"brand":"General Óptica","brand:wikidata":"Q62391672","name":"General Óptica","shop":"optician"}},"shop/optician/misterspex-a59c89":{"name":"Mister Spex","locationSet":{"include":["at","ch","de","es","fr","gb","nl"]},"geometry":["point","area"],"matchScore":2,"terms":["mister spex"],"tags":{"brand:wikidata":"Q27313697","shop":"optician"},"addTags":{"brand":"Mister Spex","brand:wikidata":"Q27313697","brand:wikipedia":"de:Mister Spex","name":"Mister Spex","shop":"optician"}},"shop/optician/multiopticas-61af00":{"name":"Multiópticas (España)","locationSet":{"include":["es"]},"geometry":["point","area"],"matchScore":2,"terms":["multiópticas"],"tags":{"brand:wikidata":"Q62391719","shop":"optician"},"addTags":{"brand":"Multiópticas","brand:wikidata":"Q62391719","name":"Multiópticas","shop":"optician"}},"shop/optician/opticalcenter-02cbb2":{"name":"Optical Center","locationSet":{"include":["be","ca","es","fr","gp","il","lu","mq","re"]},"geometry":["point","area"],"matchScore":2,"terms":["optical center"],"tags":{"brand:wikidata":"Q3354448","shop":"optician"},"addTags":{"brand":"Optical Center","brand:wikidata":"Q3354448","brand:wikipedia":"fr:Optical Center","name":"Optical Center","shop":"optician"}},"shop/perfumery/douglas-4a1f51":{"name":"Douglas","locationSet":{"include":["at","ch","cz","de","es","it","nl","pl","sk"]},"geometry":["point","area"],"matchScore":2,"terms":["douglas"],"tags":{"brand:wikidata":"Q2052213","shop":"perfumery"},"addTags":{"brand":"Douglas","brand:wikidata":"Q2052213","brand:wikipedia":"de:Parfümerie Douglas","name":"Douglas","shop":"perfumery"}},"shop/perfumery/equivalenza-59ad61":{"name":"Equivalenza","locationSet":{"include":["ad","ao","at","be","ca","cv","de","do","es","fr","gr","gt","ie","it","mx","mz","nl","pe","pt","ro","tn","uk"]},"geometry":["point","area"],"matchScore":2,"terms":["equivalenza"],"tags":{"brand:wikidata":"Q104649798","shop":"perfumery"},"addTags":{"brand":"Equivalenza","brand:wikidata":"Q104649798","name":"Equivalenza","shop":"perfumery"}},"shop/perfumery/marionnaud-d22512":{"name":"Marionnaud","locationSet":{"include":["at","ch","es","fr","it","sk"]},"geometry":["point","area"],"matchScore":2,"terms":["marionnaud"],"tags":{"brand:wikidata":"Q1129073","shop":"perfumery"},"addTags":{"brand":"Marionnaud","brand:wikidata":"Q1129073","brand:wikipedia":"fr:Marionnaud","name":"Marionnaud","shop":"perfumery"}},"shop/photo/fotoprix-4b0687":{"name":"Fotoprix","locationSet":{"include":["es"]},"geometry":["point","area"],"matchScore":2,"terms":["fotoprix"],"tags":{"brand:wikidata":"Q99196842","shop":"photo"},"addTags":{"brand":"Fotoprix","brand:wikidata":"Q99196842","name":"Fotoprix","shop":"photo"}},"shop/pottery/sargadelos-cb4124":{"name":"Sargadelos","locationSet":{"include":["es"]},"geometry":["point","area"],"matchScore":2,"terms":["sargadelos"],"tags":{"brand:wikidata":"Q12390201","shop":"pottery"},"addTags":{"brand":"Sargadelos","brand:wikidata":"Q12390201","brand:wikipedia":"gl:Grupo Sargadelos","name":"Sargadelos","shop":"pottery"}},"shop/shoes/chaussea-d3b405":{"name":"Chaussea","locationSet":{"include":["be","es","fr","lu"]},"geometry":["point","area"],"matchScore":2,"terms":["chaussea"],"tags":{"brand:wikidata":"Q62082044","shop":"shoes"},"addTags":{"brand":"Chaussea","brand:wikidata":"Q62082044","name":"Chaussea","shop":"shoes"}},"shop/shoes/marypaz-587284":{"name":"Marypaz","locationSet":{"include":["es","pt"]},"geometry":["point","area"],"matchScore":2,"terms":["marypaz"],"tags":{"brand:wikidata":"Q98497264","shop":"shoes"},"addTags":{"brand":"Marypaz","brand:wikidata":"Q98497264","name":"Marypaz","shop":"shoes"}},"shop/shoes/munich-d6114e":{"name":"Munich","locationSet":{"include":["es"]},"geometry":["point","area"],"matchScore":2,"terms":["munich"],"tags":{"brand:wikidata":"Q2076935","shop":"shoes"},"addTags":{"brand":"Munich","brand:wikidata":"Q2076935","brand:wikipedia":"es:Munich (calzado deportivo)","name":"Munich","shop":"shoes"}},"shop/shoes/snipes-679af4":{"name":"Snipes","locationSet":{"include":["at","ch","de","es","fr","it","nl","us"]},"geometry":["point","area"],"matchScore":2,"terms":["snipes"],"tags":{"brand:wikidata":"Q42306166","shop":"shoes"},"addTags":{"brand":"Snipes","brand:wikidata":"Q42306166","brand:wikipedia":"de:Snipes (Unternehmen)","name":"Snipes","shop":"shoes"}},"shop/sports/jdsports-4957ee":{"name":"JD Sports","locationSet":{"include":["au","de","es","fr","gb","ie","nl"]},"geometry":["point","area"],"matchScore":2,"terms":["jd","jd sports"],"tags":{"brand:wikidata":"Q6108019","shop":"sports"},"addTags":{"brand":"JD Sports","brand:wikidata":"Q6108019","brand:wikipedia":"en:JD Sports","name":"JD Sports","shop":"sports"}},"shop/sports/rapha-e13309":{"name":"Rapha","locationSet":{"include":["au","de","dk","es","gb","hk","jp","kr","nl","tw","us"]},"geometry":["point","area"],"matchScore":2,"terms":["rapha","ラファ"],"tags":{"brand:wikidata":"Q7293931","shop":"sports"},"addTags":{"brand":"Rapha","brand:en":"Rapha","brand:ja":"ラファ","brand:wikidata":"Q7293931","brand:wikipedia":"en:Rapha (sportswear)","name":"Rapha","name:en":"Rapha","name:ja":"ラファ","shop":"sports","sport":"cycling"}},"shop/sports/sprinter-b318c6":{"name":"Sprinter","locationSet":{"include":["es"]},"geometry":["point","area"],"matchScore":2,"terms":["sprinter"],"tags":{"brand:wikidata":"Q6133465","shop":"sports"},"addTags":{"brand":"Sprinter","brand:wikidata":"Q6133465","name":"Sprinter","shop":"sports"}},"shop/stationery/carlin-fac120":{"name":"Carlin","locationSet":{"include":["ad","es","fr","gq","mx","pt"]},"geometry":["point","area"],"matchScore":2,"terms":["carlin"],"tags":{"brand:wikidata":"Q99762985","shop":"stationery"},"addTags":{"brand":"Carlin","brand:wikidata":"Q99762985","name":"Carlin","shop":"stationery"}},"shop/stationery/folder-e0984f":{"name":"Folder","locationSet":{"include":["es"]},"geometry":["point","area"],"matchScore":2,"terms":["folder"],"tags":{"brand:wikidata":"Q109735198","shop":"stationery"},"addTags":{"brand":"Folder","brand:wikidata":"Q109735198","name":"Folder","shop":"stationery"}},"shop/supermarket/ahorramas-0513f1":{"name":"Ahorramás","locationSet":{"include":["es"]},"geometry":["point","area"],"matchScore":2,"terms":["ahorramás"],"tags":{"brand:wikidata":"Q58221883","shop":"supermarket"},"addTags":{"brand":"Ahorramás","brand:wikidata":"Q58221883","name":"Ahorramás","shop":"supermarket"}},"shop/supermarket/alcampo-0513f1":{"name":"Alcampo","locationSet":{"include":["es"]},"geometry":["point","area"],"matchScore":2,"terms":["alcampo"],"tags":{"brand:wikidata":"Q2832081","shop":"supermarket"},"addTags":{"brand":"Alcampo","brand:wikidata":"Q2832081","brand:wikipedia":"es:Alcampo","name":"Alcampo","shop":"supermarket"}},"shop/supermarket/aldi-b5be76":{"name":"ALDI (ALDI Nord group)","locationSet":{"include":["be","dk","es","fr","lu","nl","pl","pt"],"exclude":["de"]},"geometry":["point","area"],"matchScore":2,"terms":["aldi"],"tags":{"brand:wikidata":"Q41171373","shop":"supermarket"},"addTags":{"brand":"ALDI","brand:wikidata":"Q41171373","brand:wikipedia":"en:Aldi","name":"ALDI","shop":"supermarket"}},"shop/supermarket/alimerka-0513f1":{"name":"Alimerka","locationSet":{"include":["es"]},"geometry":["point","area"],"matchScore":2,"terms":["alimerka"],"tags":{"brand:wikidata":"Q16482738","shop":"supermarket"},"addTags":{"brand":"Alimerka","brand:wikidata":"Q16482738","brand:wikipedia":"es:Alimerka","name":"Alimerka","shop":"supermarket"}},"shop/supermarket/auchan-925d9b":{"name":"Auchan","locationSet":{"include":["al","ad","ba","hr","gi","gr","va","it","mt","me","mk","pt","sm","rs","si","es","xk","by","bg","cz","hu","pl","md","ro","ru","sk","ua","at","be","fr","de","li","lu","mc","nl","ch","cn"],"exclude":["ru"]},"geometry":["point","area"],"matchScore":2,"terms":["auchan"],"tags":{"brand:wikidata":"Q758603","shop":"supermarket"},"addTags":{"brand":"Auchan","brand:wikidata":"Q758603","brand:wikipedia":"en:Auchan","name":"Auchan","shop":"supermarket"}},"shop/supermarket/biocbon-c08337":{"name":"Bio C' Bon","locationSet":{"include":["es","fr","jp"]},"geometry":["point","area"],"matchScore":2,"terms":["bio c' bon"],"tags":{"brand:wikidata":"Q54312551","shop":"supermarket"},"addTags":{"brand":"Bio C' Bon","brand:wikidata":"Q54312551","brand:wikipedia":"fr:Bio c'bon","name":"Bio C' Bon","shop":"supermarket"}},"shop/supermarket/bm-0513f1":{"name":"BM","locationSet":{"include":["es"]},"geometry":["point","area"],"matchScore":2,"terms":["bm"],"tags":{"brand:wikidata":"Q62073462","shop":"supermarket"},"addTags":{"brand":"BM","brand:wikidata":"Q62073462","brand:wikipedia":"es:BM Supermercados","name":"BM","shop":"supermarket"}},"shop/supermarket/bonarea-774072":{"name":"BonÀrea","locationSet":{"include":["ad","es"]},"geometry":["point","area"],"matchScore":2,"terms":["bonàrea"],"tags":{"brand:wikidata":"Q11924743","shop":"supermarket"},"addTags":{"brand":"BonÀrea","brand:wikidata":"Q11924743","brand:wikipedia":"ca:Grup Alimentari Guissona","name":"BonÀrea","shop":"supermarket"}},"shop/supermarket/bonpreu-0513f1":{"name":"Bonpreu","locationSet":{"include":["es"]},"geometry":["point","area"],"matchScore":2,"terms":["bonpreu"],"tags":{"brand:wikidata":"Q11924747","shop":"supermarket"},"addTags":{"brand":"Bonpreu","brand:wikidata":"Q11924747","brand:wikipedia":"ca:Grup Bon Preu","name":"Bonpreu","shop":"supermarket"}},"shop/supermarket/caprabo-774072":{"name":"Caprabo","locationSet":{"include":["ad","es"]},"geometry":["point","area"],"matchScore":2,"terms":["caprabo"],"tags":{"brand:wikidata":"Q1980781","shop":"supermarket"},"addTags":{"brand":"Caprabo","brand:wikidata":"Q1980781","brand:wikipedia":"en:Caprabo","name":"Caprabo","shop":"supermarket"}},"shop/supermarket/charter-0513f1":{"name":"Charter","locationSet":{"include":["es"]},"geometry":["point","area"],"matchScore":2,"terms":["charter"],"tags":{"brand:wikidata":"Q95916752","shop":"supermarket"},"addTags":{"brand":"Charter","brand:wikidata":"Q95916752","name":"Charter","shop":"supermarket"}},"shop/supermarket/condis-0513f1":{"name":"Condis","locationSet":{"include":["es"]},"geometry":["point","area"],"matchScore":2,"terms":["condis"],"tags":{"brand:wikidata":"Q57417581","shop":"supermarket"},"addTags":{"brand":"Condis","brand:wikidata":"Q57417581","brand:wikipedia":"ca:Condis","name":"Condis","shop":"supermarket"}},"shop/supermarket/consum-0513f1":{"name":"Consum","locationSet":{"include":["es"]},"geometry":["point","area"],"matchScore":2,"terms":["consum"],"tags":{"brand:wikidata":"Q8350308","shop":"supermarket"},"addTags":{"brand":"Consum","brand:wikidata":"Q8350308","brand:wikipedia":"es:Consum","name":"Consum","shop":"supermarket"}},"shop/supermarket/coviran-d9bffc":{"name":"Covirán","locationSet":{"include":["es","pt"]},"geometry":["point","area"],"matchScore":2,"terms":["coviran","covirán"],"tags":{"brand:wikidata":"Q61070539","shop":"supermarket"},"addTags":{"brand":"Covirán","brand:wikidata":"Q61070539","brand:wikipedia":"eu:Covirán","name":"Covirán","name:pt":"Coviran","shop":"supermarket"}},"shop/supermarket/eleclerc-111b05":{"name":"E. Leclerc","locationSet":{"include":["es","fr","pl","pt"]},"geometry":["point","area"],"matchScore":2,"terms":["e. leclerc"],"tags":{"brand:wikidata":"Q1273376","shop":"supermarket"},"addTags":{"brand":"E. Leclerc","brand:wikidata":"Q1273376","brand:wikipedia":"en:E.Leclerc","name":"E. Leclerc","shop":"supermarket"}},"shop/supermarket/eroski-9c34f5":{"name":"Eroski","locationSet":{"include":["es","gi"]},"geometry":["point","area"],"matchScore":2,"terms":["eroski","eroski center"],"tags":{"brand:wikidata":"Q1361349","shop":"supermarket"},"addTags":{"brand":"Eroski","brand:wikidata":"Q1361349","brand:wikipedia":"en:Eroski","name":"Eroski","shop":"supermarket"}},"shop/supermarket/eroskicity-0513f1":{"name":"Eroski City","locationSet":{"include":["es"]},"geometry":["point","area"],"matchScore":2,"terms":["eroski"],"tags":{"brand:wikidata":"Q1361349","shop":"supermarket"},"addTags":{"brand":"Eroski","brand:wikidata":"Q1361349","brand:wikipedia":"en:Eroski","name":"Eroski City","shop":"supermarket"}},"shop/supermarket/eurospar-4b5e11":{"name":"Eurospar","locationSet":{"include":["by","bg","cz","hu","pl","md","ro","ru","sk","ua","ax","gg","je","cq","dk","ee","fo","fi","is","ie","im","lv","lt","no","sj","se","gb","al","ad","ba","hr","gi","gr","va","it","mt","me","mk","pt","sm","rs","si","es","xk","at","be","fr","de","li","lu","mc","nl","ch"]},"geometry":["point","area"],"matchScore":2,"terms":["eurospar"],"tags":{"brand:wikidata":"Q12309283","shop":"supermarket"},"addTags":{"brand":"Eurospar","brand:wikidata":"Q12309283","brand:wikipedia":"da:Eurospar","name":"Eurospar","shop":"supermarket"}},"shop/supermarket/foodlion-7818a5":{"name":"Food Lion","locationSet":{"include":["es","us"]},"geometry":["point","area"],"matchScore":2,"terms":["food lion"],"tags":{"brand:wikidata":"Q1435950","shop":"supermarket"},"addTags":{"brand":"Food Lion","brand:wikidata":"Q1435950","brand:wikipedia":"en:Food Lion","name":"Food Lion","shop":"supermarket"}},"shop/supermarket/froiz-d9bffc":{"name":"Froiz","locationSet":{"include":["es","pt"]},"geometry":["point","area"],"matchScore":2,"terms":["froiz"],"tags":{"brand:wikidata":"Q17070775","shop":"supermarket"},"addTags":{"brand":"Froiz","brand:wikidata":"Q17070775","brand:wikipedia":"en:Froiz","name":"Froiz","shop":"supermarket"}},"shop/supermarket/gadis-0513f1":{"name":"Gadis","locationSet":{"include":["es"]},"geometry":["point","area"],"matchScore":2,"terms":["gadis"],"tags":{"brand:wikidata":"Q12389151","shop":"supermarket"},"addTags":{"brand":"Gadis","brand:wikidata":"Q12389151","brand:wikipedia":"gl:Gadisa","name":"Gadis","shop":"supermarket"}},"shop/supermarket/hipersimply-0513f1":{"name":"Hiper Simply","locationSet":{"include":["es"]},"geometry":["point","area"],"matchScore":2,"terms":["hiper simply"],"tags":{"brand:wikidata":"Q5643014","shop":"supermarket"},"addTags":{"brand":"Hiper Simply","brand:wikidata":"Q5643014","brand:wikipedia":"es:Sabeco","name":"Hiper Simply","shop":"supermarket"}},"shop/supermarket/hipercor-0513f1":{"name":"Hipercor","locationSet":{"include":["es"]},"geometry":["point","area"],"matchScore":2,"terms":["hipercor"],"tags":{"brand:wikidata":"Q191574","shop":"supermarket"},"addTags":{"brand":"Hipercor","brand:wikidata":"Q191574","brand:wikipedia":"es:Hipercor","name":"Hipercor","shop":"supermarket"}},"shop/supermarket/hiperdino-0513f1":{"name":"HiperDino","locationSet":{"include":["es"]},"geometry":["point","area"],"matchScore":2,"terms":["dinosol","hiperdino"],"tags":{"brand:wikidata":"Q105955292","shop":"supermarket"},"addTags":{"brand":"HiperDino","brand:wikidata":"Q105955292","operator":"DinoSol","operator:wikidata":"Q5278478","operator:wikipedia":"es:Dinosol Supermercados, S.L.","shop":"supermarket"}},"shop/supermarket/laplazadedia-0513f1":{"name":"La Plaza de DIA","locationSet":{"include":["es"]},"geometry":["point","area"],"matchScore":2,"terms":["la plaza de dia"],"tags":{"brand:wikidata":"Q58904673","shop":"supermarket"},"addTags":{"brand":"La Plaza de DIA","brand:wikidata":"Q58904673","name":"La Plaza de DIA","shop":"supermarket"}},"shop/supermarket/lasirena-0513f1":{"name":"La Sirena","locationSet":{"include":["es"]},"geometry":["point","area"],"matchScore":2,"terms":["la sirena"],"tags":{"brand:wikidata":"Q21034458","shop":"supermarket"},"addTags":{"brand":"La Sirena","brand:wikidata":"Q21034458","brand:wikipedia":"ca:La Sirena","name":"La Sirena","shop":"supermarket"}},"shop/supermarket/lupa-0513f1":{"name":"Lupa","locationSet":{"include":["es"]},"geometry":["point","area"],"matchScore":2,"terms":["lupa"],"tags":{"brand:wikidata":"Q58044048","shop":"supermarket"},"addTags":{"brand":"Lupa","brand:wikidata":"Q58044048","name":"Lupa","shop":"supermarket"}},"shop/supermarket/masymas-0513f1":{"name":"Masymas","locationSet":{"include":["es"]},"geometry":["point","area"],"matchScore":2,"terms":["masymas"],"tags":{"brand:wikidata":"Q6135987","shop":"supermarket"},"addTags":{"brand":"Masymas","brand:wikidata":"Q6135987","brand:wikipedia":"es:Supermercados Masymas","name":"Masymas","shop":"supermarket"}},"shop/supermarket/maxidia-0513f1":{"name":"Maxi Dia","locationSet":{"include":["es"]},"geometry":["point","area"],"matchScore":2,"terms":["maxi dia"],"searchable":false,"tags":{"brand:wikidata":"Q925132","shop":"supermarket"},"addTags":{"brand":"Maxi Dia","brand:wikidata":"Q925132","brand:wikipedia":"es:DIA (supermercados)","name":"Maxi Dia","shop":"supermarket"}},"shop/supermarket/mercadona-d9bffc":{"name":"Mercadona","locationSet":{"include":["es","pt"]},"geometry":["point","area"],"matchScore":2,"terms":["mercadona"],"tags":{"brand:wikidata":"Q377705","shop":"supermarket"},"addTags":{"brand":"Mercadona","brand:wikidata":"Q377705","brand:wikipedia":"en:Mercadona","name":"Mercadona","shop":"supermarket"}},"shop/supermarket/mixmarkt-3f43e2":{"name":"Mix Markt","locationSet":{"include":["at","be","cy","cz","de","es","fr","gb","gr","it","me","nl","pt"]},"geometry":["point","area"],"matchScore":2,"terms":["mix markt"],"tags":{"brand:wikidata":"Q327854","shop":"supermarket"},"addTags":{"brand":"Mix Markt","brand:wikidata":"Q327854","brand:wikipedia":"de:Mix Markt","name":"Mix Markt","shop":"supermarket"}},"shop/supermarket/sorlidiscau-0513f1":{"name":"Sorli Discau","locationSet":{"include":["es"]},"geometry":["point","area"],"matchScore":2,"terms":["sorli discau"],"tags":{"brand:wikidata":"Q21034458","shop":"supermarket"},"addTags":{"brand":"Sorli Discau","brand:wikidata":"Q21034458","brand:wikipedia":"ca:La Sirena","name":"Sorli Discau","shop":"supermarket"}},"shop/supermarket/suma-0513f1":{"name":"Suma","locationSet":{"include":["es"]},"geometry":["point","area"],"matchScore":2,"terms":["suma"],"tags":{"brand:wikidata":"Q58012362","shop":"supermarket"},"addTags":{"brand":"Suma","brand:wikidata":"Q58012362","name":"Suma","shop":"supermarket"}},"shop/supermarket/supeco-0513f1":{"name":"Supeco (España)","locationSet":{"include":["es"]},"geometry":["point","area"],"matchScore":2,"terms":["supeco"],"tags":{"brand:wikidata":"Q110067041","shop":"supermarket"},"addTags":{"brand":"Supeco","brand:wikidata":"Q110067041","name":"Supeco","shop":"supermarket"}},"shop/supermarket/supercor-d9bffc":{"name":"Supercor","locationSet":{"include":["es","pt"]},"geometry":["point","area"],"matchScore":2,"terms":["supercor"],"tags":{"brand:wikidata":"Q6135841","shop":"supermarket"},"addTags":{"brand":"Supercor","brand:wikidata":"Q6135841","brand:wikipedia":"es:Supercor","name":"Supercor","shop":"supermarket"}},"shop/supermarket/superdino-0513f1":{"name":"SuperDino","locationSet":{"include":["es"]},"geometry":["point","area"],"matchScore":2,"terms":["dinosol","superdino"],"tags":{"brand:wikidata":"Q105955304","shop":"supermarket"},"addTags":{"brand":"SuperDino","brand:wikidata":"Q105955304","operator":"DinoSol","operator:wikidata":"Q5278478","operator:wikipedia":"es:Dinosol Supermercados, S.L.","shop":"supermarket"}},"shop/supermarket/supersol-0a1807":{"name":"Supersol","locationSet":{"include":["ar","es","ma","uy"]},"geometry":["point","area"],"matchScore":2,"terms":["supersol"],"tags":{"brand:wikidata":"Q62073427","shop":"supermarket"},"addTags":{"brand":"Supersol","brand:wikidata":"Q62073427","name":"Supersol","shop":"supermarket"}},"shop/supermarket/superspar-5f0ef1":{"name":"Superspar","locationSet":{"include":["es","za"]},"geometry":["point","area"],"matchScore":2,"terms":["superspar"],"tags":{"brand:wikidata":"Q610492","shop":"supermarket"},"addTags":{"brand":"Superspar","brand:wikidata":"Q610492","brand:wikipedia":"en:SPAR (retailer)","name":"Superspar","shop":"supermarket"}},"shop/supermarket/superverd-0513f1":{"name":"SuperVerd","locationSet":{"include":["es"]},"geometry":["point","area"],"matchScore":2,"terms":["superverd"],"tags":{"brand:wikidata":"Q11950546","shop":"supermarket"},"addTags":{"brand":"Superverd","brand:wikidata":"Q11950546","brand:wikipedia":"ca:Superverd","name":"Superverd","shop":"supermarket"}},"shop/tool_hire/kiloutou-d6c674":{"name":"Kiloutou","locationSet":{"include":["de","es","fr","it","pl"]},"geometry":["point","area"],"matchScore":2,"terms":["kiloutou"],"tags":{"brand:wikidata":"Q3196672","shop":"tool_hire"},"addTags":{"brand":"Kiloutou","brand:wikidata":"Q3196672","brand:wikipedia":"fr:Kiloutou","name":"Kiloutou","shop":"tool_hire"}},"shop/tool_hire/loxam-33fef8":{"name":"Loxam","locationSet":{"include":["ae","be","bh","br","ch","co","cz","de","dk","ee","es","fi","fr","gb","ie","it","kw","lt","lu","lv","ma","nl","no","om","pl","pt","qa","sa","se","sk"]},"geometry":["point","area"],"matchScore":2,"terms":["loxam"],"tags":{"brand:wikidata":"Q3264407","shop":"tool_hire"},"addTags":{"brand":"Loxam","brand:wikidata":"Q3264407","brand:wikipedia":"fr:Loxam","name":"Loxam","shop":"tool_hire"}},"shop/toys/juguettos-fe170e":{"name":"Juguettos","locationSet":{"include":["es"]},"geometry":["point","area"],"matchScore":2,"terms":["juguettos"],"tags":{"brand:wikidata":"Q105339592","shop":"toys"},"addTags":{"brand":"Juguettos","brand:wikidata":"Q105339592","name":"Juguettos","shop":"toys"}},"shop/toys/lagranderecre-61c030":{"name":"La Grande Récré","locationSet":{"include":["be","ci","es","fr","ma"]},"geometry":["point","area"],"matchScore":2,"terms":["la grande récré"],"tags":{"brand:wikidata":"Q3209556","shop":"toys"},"addTags":{"brand":"La Grande Récré","brand:wikidata":"Q3209556","brand:wikipedia":"fr:La Grande Récré (magasin)","name":"La Grande Récré","shop":"toys"}},"shop/travel_agency/halconviajes-7a9abd":{"name":"Halcón Viajes","locationSet":{"include":["es"]},"geometry":["point","area"],"matchScore":2,"terms":["halcón viajes"],"tags":{"brand:wikidata":"Q57591939","shop":"travel_agency"},"addTags":{"brand":"Halcón Viajes","brand:wikidata":"Q57591939","name":"Halcón Viajes","shop":"travel_agency"}},"shop/variety_store/dealz-01f38b":{"name":"Dealz","locationSet":{"include":["es","ie","pl"]},"geometry":["point","area"],"matchScore":2,"terms":["dealz"],"tags":{"brand:wikidata":"Q16942585","shop":"variety_store"},"addTags":{"brand":"Dealz","brand:wikidata":"Q16942585","brand:wikipedia":"en:Dealz","name":"Dealz","shop":"variety_store"}},"shop/variety_store/flyingtigercopenhagen-37d726":{"name":"Flying Tiger Copenhagen","locationSet":{"include":["at","be","ch","cy","cz","de","dk","ee","es","fi","fr","gb","gr","hu","ie","is","it","jp","kr","lt","lv","mt","nl","no","pl","pt","se","sk"]},"geometry":["point","area"],"matchScore":2,"terms":["flying tiger","flying tiger copenhagen","tgr","tiger"],"tags":{"brand:wikidata":"Q2786319","shop":"variety_store"},"addTags":{"brand":"Flying Tiger Copenhagen","brand:wikidata":"Q2786319","brand:wikipedia":"en:Flying Tiger Copenhagen","name":"Flying Tiger Copenhagen","shop":"variety_store","short_name":"Flying Tiger"}},"shop/variety_store/tedi-588ea3":{"name":"TEDi","locationSet":{"include":["at","de","es","hr","it","si","sk"]},"geometry":["point","area"],"matchScore":2,"terms":["t\u20acdi","tedi"],"tags":{"brand:wikidata":"Q1364603","shop":"variety_store"},"addTags":{"brand":"TEDi","brand:wikidata":"Q1364603","brand:wikipedia":"de:TEDi","name":"TEDi","shop":"variety_store"}},"shop/video_games/game-b2f4fe":{"name":"Game","locationSet":{"include":["es","gb"]},"geometry":["point","area"],"matchScore":2,"terms":["game"],"tags":{"brand:wikidata":"Q5519813","shop":"video_games"},"addTags":{"brand":"Game","brand:wikidata":"Q5519813","brand:wikipedia":"en:Game (retailer)","name":"Game","shop":"video_games"}},"tourism/hotel/bandbhotel-fc8c2c":{"name":"B&B Hotel","locationSet":{"include":["by","bg","cz","hu","pl","md","ro","ru","sk","ua","ax","gg","je","cq","dk","ee","fo","fi","is","ie","im","lv","lt","no","sj","se","gb","al","ad","ba","hr","gi","gr","va","it","mt","me","mk","pt","sm","rs","si","es","xk","at","be","fr","de","li","lu","mc","nl","ch","br"]},"geometry":["point","area"],"matchScore":2,"terms":["b&b hotels"],"fields":["name","brand","{tourism/hotel}"],"tags":{"brand:wikidata":"Q794939","tourism":"hotel"},"addTags":{"brand":"B&B Hotels","brand:wikidata":"Q794939","brand:wikipedia":"en:B&B Hotels","name":"B&B Hotel","tourism":"hotel"}},"tourism/hotel/canopy-523ceb":{"name":"Canopy","locationSet":{"include":["ae","br","cn","es","fx","gb","hr","is","us"]},"geometry":["point","area"],"matchScore":2,"terms":["canopy","canopy by hilton"],"fields":["name","brand","{tourism/hotel}"],"tags":{"brand:wikidata":"Q30632909","tourism":"hotel"},"addTags":{"brand":"Canopy","brand:wikidata":"Q30632909","brand:wikipedia":"en:Canopy by Hilton","name":"Canopy","official_name":"Canopy by Hilton","tourism":"hotel"}},"tourism/hotel/edition-24940c":{"name":"Edition","locationSet":{"include":["ae","cn","es","gb","is","it","jp","mx","my","qa","sg","tr","us"]},"geometry":["point","area"],"matchScore":2,"terms":["edition"],"fields":["name","brand","{tourism/hotel}"],"tags":{"brand:wikidata":"Q91218404","tourism":"hotel"},"addTags":{"brand":"Edition","brand:wikidata":"Q91218404","brand:wikipedia":"pl:Edition Hotels","name":"Edition","tourism":"hotel"}},"tourism/hotel/grupobarcelo-a464b1":{"name":"Grupo Barceló","locationSet":{"include":["es","us"]},"geometry":["point","area"],"matchScore":2,"terms":["grupo barceló"],"fields":["name","brand","{tourism/hotel}"],"tags":{"brand:wikidata":"Q15148996","tourism":"hotel"},"addTags":{"brand":"Grupo Barceló","brand:wikidata":"Q15148996","brand:wikipedia":"es:Grupo Barceló","name":"Grupo Barceló","tourism":"hotel"}},"tourism/hotel/leonardoboutique-97784d":{"name":"Leonardo Boutique","locationSet":{"include":["ch","de","es","hu","il","nl"]},"geometry":["point","area"],"matchScore":2,"terms":["leonardo boutique"],"fields":["name","brand","{tourism/hotel}"],"tags":{"brand:wikidata":"Q1819101","tourism":"hotel"},"addTags":{"brand":"Leonardo Boutique","brand:wikidata":"Q1819101","brand:wikipedia":"de:Leonardo Hotels","name":"Leonardo Boutique","tourism":"hotel"}},"tourism/hotel/leonardohotel-596e41":{"name":"Leonardo Hotel","locationSet":{"include":["at","be","de","es","gb","hu","it","nl"]},"geometry":["point","area"],"matchScore":2,"terms":["leonardo hotel"],"fields":["name","brand","{tourism/hotel}"],"tags":{"brand:wikidata":"Q1819101","tourism":"hotel"},"addTags":{"brand":"Leonardo Hotel","brand:wikidata":"Q1819101","brand:wikipedia":"de:Leonardo Hotels","name":"Leonardo Hotel","tourism":"hotel"}},"tourism/hotel/melia-775941":{"name":"Meliá","locationSet":{"include":["es"]},"geometry":["point","area"],"matchScore":2,"terms":["meliá"],"fields":["name","brand","{tourism/hotel}"],"tags":{"brand:wikidata":"Q1815030","tourism":"hotel"},"addTags":{"brand":"Meliá","brand:wikidata":"Q1815030","brand:wikipedia":"es:Meliá Hotels International","name":"Meliá","tourism":"hotel"}},"tourism/hotel/motelone-046fe6":{"name":"Motel One","locationSet":{"include":["by","bg","cz","hu","pl","md","ro","ru","sk","ua","ax","gg","je","cq","dk","ee","fo","fi","is","ie","im","lv","lt","no","sj","se","gb","al","ad","ba","hr","gi","gr","va","it","mt","me","mk","pt","sm","rs","si","es","xk","at","be","fr","de","li","lu","mc","nl","ch"]},"geometry":["point","area"],"matchScore":2,"terms":["motel one"],"fields":["name","brand","{tourism/hotel}"],"tags":{"brand:wikidata":"Q391080","tourism":"hotel"},"addTags":{"brand":"Motel One","brand:wikidata":"Q391080","brand:wikipedia":"en:Motel One","name":"Motel One","tourism":"hotel"}},"tourism/hotel/roommate-a3fb22":{"name":"Room Mate","locationSet":{"include":["es","fr","it","mx","nl","tr","us"]},"geometry":["point","area"],"matchScore":2,"terms":["room mate"],"fields":["name","brand","{tourism/hotel}"],"tags":{"brand:wikidata":"Q26260849","tourism":"hotel"},"addTags":{"brand":"Room Mate","brand:wikidata":"Q26260849","name":"Room Mate","tourism":"hotel"}},"tourism/hotel/tapestrycollection-1c7927":{"name":"Tapestry Collection by Hilton","locationSet":{"include":["ae","br","ca","cn","es","fx","gb","mx","pt","tw","us"]},"geometry":["point","area"],"matchScore":2,"terms":["tapestry collection","tapestry collection by hilton"],"fields":["name","brand","{tourism/hotel}"],"tags":{"brand:wikidata":"Q109275422","tourism":"hotel"},"addTags":{"brand":"Tapestry Collection","brand:wikidata":"Q109275422","tourism":"hotel"}},"tourism/hotel/travelodge-dec11e":{"name":"Travelodge (Europe)","locationSet":{"include":["es","gb","ie"]},"geometry":["point","area"],"matchScore":2,"terms":["travelodge"],"fields":["name","brand","{tourism/hotel}"],"tags":{"brand:wikidata":"Q9361374","tourism":"hotel"},"addTags":{"brand":"Travelodge","brand:wikidata":"Q9361374","brand:wikipedia":"en:Travelodge UK","internet_access":"wlan","internet_access:fee":"customers","internet_access:ssid":"Travelodge WiFi","name":"Travelodge","tourism":"hotel"}},"tourism/hotel/vandervalkhotel-1676dc":{"name":"Van der Valk Hotel","locationSet":{"include":["be","de","es","fr","nl","us"]},"geometry":["point","area"],"matchScore":2,"terms":["van der valk"],"fields":["name","brand","{tourism/hotel}"],"tags":{"brand:wikidata":"Q2802214","tourism":"hotel"},"addTags":{"brand":"Van der Valk","brand:wikidata":"Q2802214","brand:wikipedia":"en:Van der Valk (company)","name":"Van der Valk Hotel","tourism":"hotel"}},"man_made/flagpole/andalucia-26c387":{"name":"ES - Andalucía","locationSet":{"include":["es"]},"geometry":["point","vertex"],"matchScore":2,"terms":["andalucía","andalusia"],"tags":{"flag:wikidata":"Q760401","man_made":"flagpole"},"addTags":{"flag:name":"Andalucía","flag:type":"regional","flag:wikidata":"Q760401","man_made":"flagpole","subject":"Andalucía","subject:wikidata":"Q5783"}},"man_made/flagpole/aragon-26c387":{"name":"ES - Aragón","locationSet":{"include":["es"]},"geometry":["point","vertex"],"matchScore":2,"terms":["arago","aragón","señera","senyera"],"tags":{"flag:wikidata":"Q774799","man_made":"flagpole"},"addTags":{"flag:name":"Aragón","flag:type":"regional","flag:wikidata":"Q774799","man_made":"flagpole","subject":"Aragón","subject:wikidata":"Q4040"}},"man_made/flagpole/cantabria-26c387":{"name":"ES - Cantabria","locationSet":{"include":["es"]},"geometry":["point","vertex"],"matchScore":2,"terms":["cantabria"],"tags":{"flag:wikidata":"Q1087030","man_made":"flagpole"},"addTags":{"flag:name":"Cantabria","flag:type":"regional","flag:wikidata":"Q1087030","man_made":"flagpole","subject":"Cantabria","subject:wikidata":"Q3946"}},"man_made/flagpole/castillayleon-26c387":{"name":"ES - Castilla y León","locationSet":{"include":["es"]},"geometry":["point","vertex"],"matchScore":2,"terms":["castile and leon","castilla y león"],"tags":{"flag:wikidata":"Q1073663","man_made":"flagpole"},"addTags":{"flag:name":"Castilla y León","flag:type":"regional","flag:wikidata":"Q1073663","man_made":"flagpole","subject":"Castilla y León","subject:wikidata":"Q5739"}},"man_made/flagpole/castillalamancha-26c387":{"name":"ES - Castilla-La Mancha","locationSet":{"include":["es"]},"geometry":["point","vertex"],"matchScore":2,"terms":["castile-la mancha","castilla-la mancha"],"tags":{"flag:wikidata":"Q601391","man_made":"flagpole"},"addTags":{"flag:name":"Castilla-La Mancha","flag:type":"regional","flag:wikidata":"Q601391","man_made":"flagpole","subject":"Castilla-La Mancha","subject:wikidata":"Q5748"}},"man_made/flagpole/catalunya-26c387":{"name":"ES - Catalunya","locationSet":{"include":["es"]},"geometry":["point","vertex"],"matchScore":2,"terms":["catalonha","catalonia","cataluña","catalunya","señera","senhera","senyera"],"tags":{"flag:wikidata":"Q148807","man_made":"flagpole"},"addTags":{"flag:name":"Catalunya","flag:type":"regional","flag:wikidata":"Q148807","man_made":"flagpole","subject":"Catalunya","subject:wikidata":"Q5705"}},"man_made/flagpole/ceuta-26c387":{"name":"ES - Ceuta","locationSet":{"include":["es"]},"geometry":["point","vertex"],"matchScore":2,"terms":["ceuta","san vicente","sebta","سبتة"],"tags":{"flag:wikidata":"Q876607","man_made":"flagpole"},"addTags":{"flag:name":"Ceuta","flag:type":"regional","flag:wikidata":"Q876607","man_made":"flagpole","subject":"Ceuta","subject:wikidata":"Q5823"}},"man_made/flagpole/comunidaddemadrid-26c387":{"name":"ES - Comunidad de Madrid","locationSet":{"include":["es"]},"geometry":["point","vertex"],"matchScore":2,"terms":["community of madrid","comunidad de madrid","madrid"],"tags":{"flag:wikidata":"Q1426515","man_made":"flagpole"},"addTags":{"flag:name":"Comunidad de Madrid","flag:type":"regional","flag:wikidata":"Q1426515","man_made":"flagpole","subject":"Comunidad de Madrid","subject:wikidata":"Q5756"}},"man_made/flagpole/comunitatvalenciana-26c387":{"name":"ES - Comunitat Valenciana","locationSet":{"include":["es"]},"geometry":["point","vertex"],"matchScore":2,"terms":["comunidad valenciana","comunitat valenciana","señera","señera coronada","senyera","senyera coronada","valencia","valencian community"],"tags":{"flag:wikidata":"Q933011","man_made":"flagpole"},"addTags":{"flag:name":"Comunitat Valenciana","flag:type":"regional","flag:wikidata":"Q933011","man_made":"flagpole","subject":"Comunitat Valenciana","subject:wikidata":"Q5720"}},"man_made/flagpole/ikurrina-26c387":{"name":"ES - Euskadi","locationSet":{"include":["es"]},"geometry":["point","vertex"],"matchScore":2,"terms":["basque country","euskadi","euskalherria","ikurrin","ikurrina","país vasco"],"tags":{"flag:wikidata":"Q235475","man_made":"flagpole"},"addTags":{"flag:name":"Ikurrina","flag:type":"regional","flag:wikidata":"Q235475","man_made":"flagpole","subject":"Euskadi","subject:wikidata":"Q3995"}},"man_made/flagpole/extremadura-26c387":{"name":"ES - Extremadura","locationSet":{"include":["es"]},"geometry":["point","vertex"],"matchScore":2,"terms":["estremadura","extremadura"],"tags":{"flag:wikidata":"Q763140","man_made":"flagpole"},"addTags":{"flag:name":"Extremadura","flag:type":"regional","flag:wikidata":"Q763140","man_made":"flagpole","subject":"Extremadura","subject:wikidata":"Q5777"}},"man_made/flagpole/galicia-26c387":{"name":"ES - Galicia","locationSet":{"include":["es"]},"geometry":["point","vertex"],"matchScore":2,"terms":["galicia","galiza"],"tags":{"flag:wikidata":"Q938601","man_made":"flagpole"},"addTags":{"flag:name":"Galicia","flag:type":"regional","flag:wikidata":"Q938601","man_made":"flagpole","subject":"Galicia","subject:wikidata":"Q3908"}},"man_made/flagpole/illesbalears-26c387":{"name":"ES - Illes Balears","locationSet":{"include":["es"]},"geometry":["point","vertex"],"matchScore":2,"terms":["baleares","balearic islands","balears","illes balears","islas baleares","señera","senyera"],"tags":{"flag:wikidata":"Q435103","man_made":"flagpole"},"addTags":{"flag:name":"Illes Balears","flag:type":"regional","flag:wikidata":"Q435103","man_made":"flagpole","subject":"Illes Balears","subject:wikidata":"Q5765"}},"man_made/flagpole/islascanarias-26c387":{"name":"ES - Islas Canarias","locationSet":{"include":["es"]},"geometry":["point","vertex"],"matchScore":2,"terms":["canarias","canary islands","islas canarias"],"tags":{"flag:wikidata":"Q224972","man_made":"flagpole"},"addTags":{"flag:name":"Islas Canarias","flag:type":"regional","flag:wikidata":"Q224972","man_made":"flagpole","subject":"Islas Canarias","subject:wikidata":"Q5813"}},"man_made/flagpole/larioja-26c387":{"name":"ES - La Rioja","locationSet":{"include":["es"]},"geometry":["point","vertex"],"matchScore":2,"terms":["la rioja","roblanvera"],"tags":{"flag:wikidata":"Q1426612","man_made":"flagpole"},"addTags":{"flag:name":"La Rioja","flag:type":"regional","flag:wikidata":"Q1426612","man_made":"flagpole","subject":"La Rioja","subject:wikidata":"Q5727"}},"man_made/flagpole/melilla-26c387":{"name":"ES - Melilla","locationSet":{"include":["es"]},"geometry":["point","vertex"],"matchScore":2,"terms":["melilla","mlilt","مليلة"],"tags":{"flag:wikidata":"Q752195","man_made":"flagpole"},"addTags":{"flag:name":"Melilla","flag:type":"regional","flag:wikidata":"Q752195","man_made":"flagpole","subject":"Melilla","subject:wikidata":"Q5831"}},"man_made/flagpole/navarranafarroa-26c387":{"name":"ES - Navarra - Nafarroa","locationSet":{"include":["es"]},"geometry":["point","vertex"],"matchScore":2,"terms":["chartered community of navarre","comunidad foral de navarra","nafarroa","nafarroako foru komunitatea","navarra","navarra - nafarroa","navarre"],"tags":{"flag:wikidata":"Q1091411","man_made":"flagpole"},"addTags":{"flag:name":"Navarra - Nafarroa","flag:type":"regional","flag:wikidata":"Q1091411","man_made":"flagpole","subject":"Navarra - Nafarroa","subject:wikidata":"Q4018"}},"man_made/flagpole/principadodeasturias-26c387":{"name":"ES - Principado de Asturias","locationSet":{"include":["es"]},"geometry":["point","vertex"],"matchScore":2,"terms":["asturias","asturies","principado de asturias","principáu d'asturies"],"tags":{"flag:wikidata":"Q583037","man_made":"flagpole"},"addTags":{"flag:name":"Principado de Asturias","flag:type":"regional","flag:wikidata":"Q583037","man_made":"flagpole","subject":"Principado de Asturias","subject:wikidata":"Q3934"}},"man_made/flagpole/regiondemurcia-26c387":{"name":"ES - Región de Murcia","locationSet":{"include":["es"]},"geometry":["point","vertex"],"matchScore":2,"terms":["murcia","murcia region","región de murcia"],"tags":{"flag:wikidata":"Q543471","man_made":"flagpole"},"addTags":{"flag:name":"Región de Murcia","flag:type":"regional","flag:wikidata":"Q543471","man_made":"flagpole","subject":"Región de Murcia","subject:wikidata":"Q5772"}},"amenity/charging_station/eon-7f623e":{"name":"E.ON","locationSet":{"include":["by","bg","cz","hu","pl","md","ro","ru","sk","ua","ax","gg","je","cq","dk","ee","fo","fi","is","ie","im","lv","lt","no","sj","se","gb","al","ad","ba","hr","gi","gr","va","it","mt","me","mk","pt","sm","rs","si","es","xk","at","be","fr","de","li","lu","mc","nl","ch"]},"geometry":["point","area"],"matchScore":2,"terms":["e-on drive","e.on"],"fields":["name","operator","{amenity/charging_station}"],"tags":{"amenity":"charging_station","operator:wikidata":"Q270223"},"addTags":{"amenity":"charging_station","operator":"E.ON","operator:wikidata":"Q270223","operator:wikipedia":"de:E.ON"}},"amenity/charging_station/edp-387085":{"name":"EDP","locationSet":{"include":["br","es","pt"]},"geometry":["point","area"],"matchScore":2,"terms":["edp","edp comercial"],"fields":["name","operator","{amenity/charging_station}"],"tags":{"amenity":"charging_station","operator:wikidata":"Q1341222"},"addTags":{"amenity":"charging_station","operator":"EDP","operator:wikidata":"Q1341222","operator:wikipedia":"pt:Energias de Portugal"}},"amenity/charging_station/endesa-97d7cf":{"name":"Endesa","locationSet":{"include":["es"]},"geometry":["point","area"],"matchScore":2,"terms":["endesa"],"fields":["name","operator","{amenity/charging_station}"],"tags":{"amenity":"charging_station","operator:wikidata":"Q1275336"},"addTags":{"amenity":"charging_station","operator":"Endesa","operator:wikidata":"Q1275336","operator:wikipedia":"es:Endesa"}},"amenity/charging_station/evbox-7f623e":{"name":"EVBOX","locationSet":{"include":["by","bg","cz","hu","pl","md","ro","ru","sk","ua","ax","gg","je","cq","dk","ee","fo","fi","is","ie","im","lv","lt","no","sj","se","gb","al","ad","ba","hr","gi","gr","va","it","mt","me","mk","pt","sm","rs","si","es","xk","at","be","fr","de","li","lu","mc","nl","ch"]},"geometry":["point","area"],"matchScore":2,"terms":["evbox"],"fields":["name","operator","{amenity/charging_station}"],"tags":{"amenity":"charging_station","operator:wikidata":"Q28406392"},"addTags":{"amenity":"charging_station","operator":"EVBOX","operator:wikidata":"Q28406392","operator:wikipedia":"en:EVBox"}},"amenity/charging_station/iberdrola-97d7cf":{"name":"Iberdrola","locationSet":{"include":["es"]},"geometry":["point","area"],"matchScore":2,"terms":["iberdrola"],"fields":["name","operator","{amenity/charging_station}"],"tags":{"amenity":"charging_station","operator:wikidata":"Q1437502"},"addTags":{"amenity":"charging_station","operator":"Iberdrola","operator:wikidata":"Q1437502","operator:wikipedia":"es:Iberdrola"}},"amenity/charging_station/ionity-7f623e":{"name":"Ionity","locationSet":{"include":["by","bg","cz","hu","pl","md","ro","ru","sk","ua","ax","gg","je","cq","dk","ee","fo","fi","is","ie","im","lv","lt","no","sj","se","gb","al","ad","ba","hr","gi","gr","va","it","mt","me","mk","pt","sm","rs","si","es","xk","at","be","fr","de","li","lu","mc","nl","ch"]},"geometry":["point","area"],"matchScore":2,"terms":["ionity","ionity gmbh"],"fields":["name","operator","{amenity/charging_station}"],"tags":{"amenity":"charging_station","operator:wikidata":"Q42717773"},"addTags":{"amenity":"charging_station","operator":"Ionity","operator:wikidata":"Q42717773","operator:wikipedia":"en:IONITY"}},"amenity/charging_station/mercadona-3948da":{"name":"Mercadona","locationSet":{"include":["es","pt"]},"geometry":["point","area"],"matchScore":2,"terms":["mercadona"],"fields":["name","operator","{amenity/charging_station}"],"tags":{"amenity":"charging_station","operator:wikidata":"Q377705"},"addTags":{"amenity":"charging_station","operator":"Mercadona","operator:wikidata":"Q377705","operator:wikipedia":"es:Mercadona"}},"amenity/charging_station/qpark-7f623e":{"name":"Q-Park","locationSet":{"include":["by","bg","cz","hu","pl","md","ro","ru","sk","ua","ax","gg","je","cq","dk","ee","fo","fi","is","ie","im","lv","lt","no","sj","se","gb","al","ad","ba","hr","gi","gr","va","it","mt","me","mk","pt","sm","rs","si","es","xk","at","be","fr","de","li","lu","mc","nl","ch"]},"geometry":["point","area"],"matchScore":2,"terms":["q-park"],"fields":["name","operator","{amenity/charging_station}"],"tags":{"amenity":"charging_station","operator:wikidata":"Q1127798"},"addTags":{"amenity":"charging_station","operator":"Q-Park","operator:wikidata":"Q1127798","operator:wikipedia":"en:Q-Park"}},"amenity/charging_station/universidadedacoruna-97d7cf":{"name":"Universidade da Coruña","locationSet":{"include":["es"]},"geometry":["point","area"],"matchScore":2,"terms":["universidade da coruña","university of a coruña"],"fields":["name","operator","{amenity/charging_station}"],"tags":{"amenity":"charging_station","operator:wikidata":"Q280305"},"addTags":{"amenity":"charging_station","operator":"Universidade da Coruña","operator:en":"University of A Coruña","operator:wikidata":"Q280305","operator:wikipedia":"es:Universidad de La Coruña"}},"amenity/charging_station/viesgo-97d7cf":{"name":"Viesgo","locationSet":{"include":["es"]},"geometry":["point","area"],"matchScore":2,"terms":["viesgo"],"fields":["name","operator","{amenity/charging_station}"],"tags":{"amenity":"charging_station","operator:wikidata":"Q5829004"},"addTags":{"amenity":"charging_station","operator":"Viesgo","operator:wikidata":"Q5829004","operator:wikipedia":"es:Viesgo"}},"amenity/clinic/asepeyo-edc4ef":{"name":"Asepeyo","locationSet":{"include":["es"]},"geometry":["point","area"],"matchScore":2,"terms":["asepeyo"],"reference":{"key":"amenity","value":"clinic"},"tags":{"amenity":"clinic","operator:wikidata":"Q11906879"},"addTags":{"amenity":"clinic","healthcare":"clinic","name":"Asepeyo","operator":"Asepeyo","operator:wikidata":"Q11906879","operator:wikipedia":"es:Asepeyo"}},"amenity/clinic/generalitatvalenciana-edc4ef":{"name":"Generalitat Valenciana","locationSet":{"include":["es"]},"geometry":["point","area"],"matchScore":2,"terms":["generalitat valenciana"],"reference":{"key":"amenity","value":"clinic"},"tags":{"amenity":"clinic","operator:wikidata":"Q2477285"},"addTags":{"amenity":"clinic","healthcare":"clinic","operator":"Generalitat Valenciana","operator:wikidata":"Q2477285","operator:wikipedia":"es:Generalidad Valenciana"}},"amenity/clinic/juntadeandalucia-edc4ef":{"name":"Junta de Andalucía","locationSet":{"include":["es"]},"geometry":["point","area"],"matchScore":2,"terms":["junta de andalucía"],"reference":{"key":"amenity","value":"clinic"},"tags":{"amenity":"clinic","operator:wikidata":"Q2743342"},"addTags":{"amenity":"clinic","healthcare":"clinic","operator":"Junta de Andalucía","operator:wikidata":"Q2743342","operator:wikipedia":"es:Junta de Andalucía"}},"amenity/clinic/osakidetza-edc4ef":{"name":"Osakidetza","locationSet":{"include":["es"]},"geometry":["point","area"],"matchScore":2,"terms":["osakidetza"],"reference":{"key":"amenity","value":"clinic"},"tags":{"amenity":"clinic","operator:wikidata":"Q3822645"},"addTags":{"amenity":"clinic","healthcare":"clinic","operator":"Osakidetza","operator:wikidata":"Q3822645","operator:wikipedia":"es:Osakidetza-Servicio Vasco de Salud"}},"amenity/clinic/sacyl-edc4ef":{"name":"SACYL","locationSet":{"include":["es"]},"geometry":["point","area"],"matchScore":2,"terms":["sacyl"],"reference":{"key":"amenity","value":"clinic"},"tags":{"amenity":"clinic","operator:wikidata":"Q6116740"},"addTags":{"amenity":"clinic","healthcare":"clinic","operator":"SACYL","operator:wikidata":"Q6116740","operator:wikipedia":"es:Sacyl"}},"amenity/clinic/servicioandaluzdesalud-edc4ef":{"name":"Servicio Andaluz de Salud","locationSet":{"include":["es"]},"geometry":["point","area"],"matchScore":2,"terms":["sas","servicio andaluz de salud"],"reference":{"key":"amenity","value":"clinic"},"tags":{"amenity":"clinic","operator:wikidata":"Q4753529"},"addTags":{"amenity":"clinic","healthcare":"clinic","operator":"Servicio Andaluz de Salud","operator:short":"SAS","operator:wikidata":"Q4753529","operator:wikipedia":"es:Servicio Andaluz de Salud"}},"amenity/clinic/serviciodesaluddecastillalamancha-edc4ef":{"name":"Servicio de Salud de Castilla-La Mancha","locationSet":{"include":["es"]},"geometry":["point","area"],"matchScore":2,"terms":["servicio de salud de castilla-la mancha","sescam"],"reference":{"key":"amenity","value":"clinic"},"tags":{"amenity":"clinic","operator:wikidata":"Q5665691"},"addTags":{"amenity":"clinic","healthcare":"clinic","operator":"Servicio de Salud de Castilla-La Mancha","operator:short":"SESCAM","operator:wikidata":"Q5665691","operator:wikipedia":"es:Servicio de Salud de Castilla-La Mancha"}},"amenity/clinic/servicioextremenodesalud-edc4ef":{"name":"Servicio Extremeño de Salud","locationSet":{"include":["es"]},"geometry":["point","area"],"matchScore":2,"terms":["servicio extremeño de salud","ses"],"reference":{"key":"amenity","value":"clinic"},"tags":{"amenity":"clinic","operator:wikidata":"Q6126026"},"addTags":{"amenity":"clinic","healthcare":"clinic","operator":"Servicio Extremeño de Salud","operator:short":"SES","operator:wikidata":"Q6126026","operator:wikipedia":"es:Servicio Extremeño de Salud"}},"amenity/clinic/serviciomadrilenodesalud-edc4ef":{"name":"Servicio Madrileño de Salud","locationSet":{"include":["es"]},"geometry":["point","area"],"matchScore":2,"terms":["sermas","servicio madrileño de salud"],"reference":{"key":"amenity","value":"clinic"},"tags":{"amenity":"clinic","operator:wikidata":"Q6126030"},"addTags":{"amenity":"clinic","healthcare":"clinic","operator":"Servicio Madrileño de Salud","operator:short":"SERMAS","operator:wikidata":"Q6126030","operator:wikipedia":"es:Servicio Madrileño de Salud"}},"amenity/clinic/servizogalegodesaude-edc4ef":{"name":"Servizo Galego de Saúde","locationSet":{"include":["es"]},"geometry":["point","area"],"matchScore":2,"terms":["sergas","sergas - xunta de galicia","servizo galego de saúde","servizo galego de saúde (sergas)"],"reference":{"key":"amenity","value":"clinic"},"tags":{"amenity":"clinic","operator:wikidata":"Q3393183"},"addTags":{"amenity":"clinic","healthcare":"clinic","operator":"Servizo Galego de Saúde","operator:short":"SERGAS","operator:type":"public","operator:wikidata":"Q3393183","operator:wikipedia":"es:Servicio Gallego de Salud"}},"amenity/drinking_water/ayuntamientodemadrid-a7f52c":{"name":"Ayuntamiento de Madrid","locationSet":{"include":["es"]},"geometry":["point"],"matchScore":2,"terms":["ayuntamiento de madrid"],"tags":{"amenity":"drinking_water","operator:wikidata":"Q3773976"},"addTags":{"amenity":"drinking_water","operator":"Ayuntamiento de Madrid","operator:wikidata":"Q3773976","operator:wikipedia":"es:Ayuntamiento de Madrid"}},"amenity/hospital/cruzroja-16e9ec":{"name":"Cruz Roja","locationSet":{"include":["ar","cl","co","es","mx"]},"geometry":["area","point"],"matchScore":2,"terms":["cruz roja"],"fields":["name","operator","{amenity/hospital}"],"reference":{"key":"amenity","value":"hospital"},"tags":{"amenity":"hospital","operator:wikidata":"Q7178"},"addTags":{"amenity":"hospital","healthcare":"hospital","name":"Cruz Roja","operator":"Cruz Roja","operator:wikidata":"Q7178","operator:wikipedia":"es:Cruz Roja"}},"amenity/police/guardiacivil-dd66e9":{"name":"Guardia Civil","locationSet":{"include":["es"]},"geometry":["point","area"],"matchScore":2,"terms":["guardia civil","ministerio de defensa"],"tags":{"amenity":"police","operator:wikidata":"Q932821"},"addTags":{"amenity":"police","operator":"Guardia Civil","operator:wikidata":"Q932821","operator:wikipedia":"es:Guardia Civil"}},"amenity/police/mossosdesquadra-dd66e9":{"name":"Mossos d'Esquadra","locationSet":{"include":["es"]},"geometry":["point","area"],"matchScore":2,"terms":["mossos d'esquadra"],"tags":{"amenity":"police","operator:wikidata":"Q1424346"},"addTags":{"amenity":"police","operator":"Mossos d'Esquadra","operator:wikidata":"Q1424346","operator:wikipedia":"ca:Mossos d'Esquadra"}},"amenity/police/policialocal-dd66e9":{"name":"Policía Local","locationSet":{"include":["es"]},"geometry":["point","area"],"matchScore":2,"terms":["policía local"],"tags":{"amenity":"police","operator:wikidata":"Q1507792"},"addTags":{"amenity":"police","operator":"Policía Local","operator:wikidata":"Q1507792","operator:wikipedia":"es:Policía local de España"}},"amenity/post_box/correos-05a564":{"name":"Correos","locationSet":{"include":["es"]},"geometry":["point","vertex"],"matchScore":2,"terms":["correos","correos y telégrafos","oficina de correos","sociedad estatal correos y telégrafos","sociedad estatal correos y telégrafos sa"],"tags":{"amenity":"post_box","operator:wikidata":"Q776605"},"addTags":{"amenity":"post_box","operator":"Correos","operator:wikidata":"Q776605","operator:wikipedia":"es:Correos (España)"}},"amenity/post_box/mrw-f1512b":{"name":"MRW","locationSet":{"include":["ad","es","gi","pt","ve"]},"geometry":["point","vertex"],"matchScore":2,"terms":["mrw"],"tags":{"amenity":"post_box","operator:wikidata":"Q23767821"},"addTags":{"amenity":"post_box","operator":"MRW","operator:wikidata":"Q23767821","operator:wikipedia":"es:MRW"}},"amenity/post_office/correos-e6c145":{"name":"Correos","locationSet":{"include":["es"]},"geometry":["point","area"],"matchScore":2,"terms":["correos","correos y telégrafos","oficina de correos","sociedad estatal correos y telégrafos","sociedad estatal correos y telégrafos sa"],"fields":["name","operator","{amenity/post_office}"],"tags":{"amenity":"post_office","operator:wikidata":"Q776605"},"addTags":{"amenity":"post_office","operator":"Correos","operator:wikidata":"Q776605","operator:wikipedia":"es:Correos (España)"}},"amenity/post_office/mrw-0a445b":{"name":"MRW","locationSet":{"include":["ad","es","gi","pt","ve"]},"geometry":["point","area"],"matchScore":2,"terms":["mrw"],"fields":["name","operator","{amenity/post_office}"],"tags":{"amenity":"post_office","operator:wikidata":"Q23767821"},"addTags":{"amenity":"post_office","operator":"MRW","operator:wikidata":"Q23767821","operator:wikipedia":"es:MRW"}},"amenity/social_facility/korian-08d104":{"name":"Korian","locationSet":{"include":["be","de","es","fx","it","nl"]},"geometry":["point","area"],"matchScore":2,"terms":["korian"],"tags":{"amenity":"social_facility","operator:wikidata":"Q3198944"},"addTags":{"amenity":"social_facility","operator":"Korian","operator:wikidata":"Q3198944","operator:wikipedia":"fr:Korian"}},"emergency/phone/bombersdelageneralitatdecatalunya-a463d2":{"name":"Bombers de la Generalitat de Catalunya","locationSet":{"include":["es"]},"geometry":["point","vertex"],"matchScore":2,"terms":["bombers de la generalitat de catalunya"],"tags":{"emergency":"phone","operator:wikidata":"Q8250689"},"addTags":{"emergency":"phone","operator":"Bombers de la Generalitat de Catalunya","operator:wikidata":"Q8250689","operator:wikipedia":"es:Bomberos de la Generalidad de Cataluña"}},"leisure/nature_reserve/ayuntamientodemalaga-c4d908":{"name":"Ayuntamiento de Málaga","locationSet":{"include":["es"]},"geometry":["area","point"],"matchScore":2,"terms":["ayuntamiento de málaga"],"tags":{"leisure":"nature_reserve","operator:wikidata":"Q8851"},"addTags":{"leisure":"nature_reserve","operator":"Ayuntamiento de Málaga","operator:type":"government","operator:wikidata":"Q8851","operator:wikipedia":"es:Málaga"}},"leisure/nature_reserve/ajuntamentdelhospitaletdellobregat-c4d908":{"name":"l'Hospitalet de Llobregat","locationSet":{"include":["es"]},"geometry":["area","point"],"matchScore":2,"terms":["ajuntament de l'hospitalet de llobregat"],"tags":{"leisure":"nature_reserve","operator:wikidata":"Q15470"},"addTags":{"leisure":"nature_reserve","operator":"Ajuntament de l'Hospitalet de Llobregat","operator:type":"government","operator:wikidata":"Q15470","operator:wikipedia":"ca:L'Hospitalet de Llobregat"}},"leisure/park/ayuntamientodemalaga-e4902f":{"name":"Ayuntamiento de Málaga","locationSet":{"include":["es"]},"geometry":["area","point"],"matchScore":2,"terms":["ayuntamiento de málaga"],"tags":{"leisure":"park","operator:wikidata":"Q8851"},"addTags":{"leisure":"park","operator":"Ayuntamiento de Málaga","operator:type":"government","operator:wikidata":"Q8851","operator:wikipedia":"es:Málaga"}},"leisure/park/ajuntamentdelhospitaletdellobregat-e4902f":{"name":"l'Hospitalet de Llobregat","locationSet":{"include":["es"]},"geometry":["area","point"],"matchScore":2,"terms":["ajuntament de l'hospitalet de llobregat"],"tags":{"leisure":"park","operator:wikidata":"Q15470"},"addTags":{"leisure":"park","operator":"Ajuntament de l'Hospitalet de Llobregat","operator:type":"government","operator:wikidata":"Q15470","operator:wikipedia":"ca:L'Hospitalet de Llobregat"}},"office/energy_supplier/endesa-6c94a9":{"name":"Endesa","locationSet":{"include":["es"]},"geometry":["point","area"],"matchScore":2,"terms":["endesa"],"tags":{"office":"energy_supplier","operator:wikidata":"Q1275336"},"addTags":{"name":"Endesa","office":"energy_supplier","operator":"Endesa","operator:wikidata":"Q1275336","operator:wikipedia":"es:Endesa"}},"office/energy_supplier/naturgy-e15d8a":{"name":"Naturgy","locationSet":{"include":["ar","au","be","br","cl","cn","cr","de","do","dz","eg","es","fr","gb","ie","in","jm","jo","jp","lu","ma","mx","nl","om","pa","pe","pk","pr","pt","sg"]},"geometry":["point","area"],"matchScore":2,"terms":["naturgy"],"tags":{"office":"energy_supplier","operator:wikidata":"Q474690"},"addTags":{"name":"Naturgy","office":"energy_supplier","operator":"Naturgy","operator:wikidata":"Q474690","operator:wikipedia":"es:Naturgy"}},"power/generator/accionaenergia-ae5946":{"name":"Acciona Energía","locationSet":{"include":["es"]},"geometry":["point","vertex","area"],"matchScore":2,"terms":["acciona","acciona energía","acciona energía internacional"],"tags":{"operator:wikidata":"Q11919256","power":"generator"},"addTags":{"operator":"Acciona Energía","operator:wikidata":"Q11919256","operator:wikipedia":"en:Acciona Energy","power":"generator"}},"power/generator/gamesa-8b20a8":{"name":"Gamesa","locationSet":{"include":["es","fx"]},"geometry":["point","vertex","area"],"matchScore":2,"terms":["gamesa"],"searchable":false,"tags":{"operator:wikidata":"Q42916742","power":"generator"},"addTags":{"operator":"Gamesa","operator:wikidata":"Q42916742","operator:wikipedia":"de:Gamesa","power":"generator"}},"power/generator/innogy-16c9d0":{"name":"Innogy","locationSet":{"include":["by","bg","cz","hu","pl","md","ro","ru","sk","ua","ax","gg","je","cq","dk","ee","fo","fi","is","ie","im","lv","lt","no","sj","se","gb","al","ad","ba","hr","gi","gr","va","it","mt","me","mk","pt","sm","rs","si","es","xk","at","be","fr","de","li","lu","mc","nl","ch"]},"geometry":["point","vertex","area"],"matchScore":2,"terms":["innogy"],"tags":{"operator:wikidata":"Q2124721","power":"generator"},"addTags":{"operator":"Innogy","operator:wikidata":"Q2124721","operator:wikipedia":"en:Innogy","power":"generator"}},"power/generator/naturgy-ae5946":{"name":"Naturgy","locationSet":{"include":["es"]},"geometry":["point","vertex","area"],"matchScore":2,"terms":["naturgy","naturgy future slu"],"tags":{"operator:wikidata":"Q474690","power":"generator"},"addTags":{"operator":"Naturgy","operator:wikidata":"Q474690","operator:wikipedia":"es:Naturgy","power":"generator"}},"power/generator/rwe-16c9d0":{"name":"RWE","locationSet":{"include":["by","bg","cz","hu","pl","md","ro","ru","sk","ua","ax","gg","je","cq","dk","ee","fo","fi","is","ie","im","lv","lt","no","sj","se","gb","al","ad","ba","hr","gi","gr","va","it","mt","me","mk","pt","sm","rs","si","es","xk","at","be","fr","de","li","lu","mc","nl","ch"]},"geometry":["point","vertex","area"],"matchScore":2,"terms":["rwe"],"tags":{"operator:wikidata":"Q138133","power":"generator"},"addTags":{"operator":"RWE","operator:wikidata":"Q138133","operator:wikipedia":"en:RWE","power":"generator"}},"power/generator/statkraft-16c9d0":{"name":"Statkraft","locationSet":{"include":["by","bg","cz","hu","pl","md","ro","ru","sk","ua","ax","gg","je","cq","dk","ee","fo","fi","is","ie","im","lv","lt","no","sj","se","gb","al","ad","ba","hr","gi","gr","va","it","mt","me","mk","pt","sm","rs","si","es","xk","at","be","fr","de","li","lu","mc","nl","ch"]},"geometry":["point","vertex","area"],"matchScore":2,"terms":["statkraft"],"tags":{"operator:wikidata":"Q1681145","power":"generator"},"addTags":{"operator":"Statkraft","operator:wikidata":"Q1681145","operator:wikipedia":"en:Statkraft","power":"generator"}},"power/generator/uniper-16c9d0":{"name":"Uniper","locationSet":{"include":["by","bg","cz","hu","pl","md","ro","ru","sk","ua","ax","gg","je","cq","dk","ee","fo","fi","is","ie","im","lv","lt","no","sj","se","gb","al","ad","ba","hr","gi","gr","va","it","mt","me","mk","pt","sm","rs","si","es","xk","at","be","fr","de","li","lu","mc","nl","ch"]},"geometry":["point","vertex","area"],"matchScore":2,"terms":["uniper"],"tags":{"operator:wikidata":"Q19839259","power":"generator"},"addTags":{"operator":"Uniper","operator:wikidata":"Q19839259","operator:wikipedia":"en:Uniper","power":"generator"}},"power/line/endesa-769454":{"name":"Endesa","locationSet":{"include":["es"]},"geometry":["line"],"matchScore":2,"terms":["endesa","sevillana endesa"],"tags":{"operator:wikidata":"Q1275336","power":"line"},"addTags":{"operator":"Endesa","operator:wikidata":"Q1275336","operator:wikipedia":"es:Endesa","power":"line"}},"power/line/redelectricadeespana-769454":{"name":"Red Eléctrica de España","locationSet":{"include":["es"]},"geometry":["line"],"matchScore":2,"terms":["red eléctrica de españa","red electrica española","ree"],"tags":{"operator:wikidata":"Q1551220","power":"line"},"addTags":{"operator":"Red Eléctrica de España","operator:short":"REE","operator:wikidata":"Q1551220","operator:wikipedia":"es:Red Eléctrica de España","power":"line"}},"power/minor_line/endesa-0a3cea":{"name":"Endesa","locationSet":{"include":["es"]},"geometry":["line"],"matchScore":2,"terms":["endesa","sevillana endesa"],"tags":{"operator:wikidata":"Q1275336","power":"minor_line"},"addTags":{"operator":"Endesa","operator:wikidata":"Q1275336","operator:wikipedia":"es:Endesa","power":"minor_line"}},"power/minor_line/redelectricadeespana-0a3cea":{"name":"Red Eléctrica de España","locationSet":{"include":["es"]},"geometry":["line"],"matchScore":2,"terms":["red eléctrica de españa","red electrica española","ree"],"tags":{"operator:wikidata":"Q1551220","power":"minor_line"},"addTags":{"operator":"Red Eléctrica de España","operator:short":"REE","operator:wikidata":"Q1551220","operator:wikipedia":"es:Red Eléctrica de España","power":"minor_line"}},"power/plant/accionaenergia-d14bb1":{"name":"Acciona Energía","locationSet":{"include":["es"]},"geometry":["area"],"matchScore":2,"terms":["acciona","acciona energía","acciona energía internacional"],"tags":{"operator:wikidata":"Q11919256","power":"plant"},"addTags":{"operator":"Acciona Energía","operator:wikidata":"Q11919256","operator:wikipedia":"en:Acciona Energy","power":"plant"}},"power/plant/endesa-d14bb1":{"name":"Endesa","locationSet":{"include":["es"]},"geometry":["area"],"matchScore":2,"terms":["endesa"],"tags":{"operator:wikidata":"Q1275336","power":"plant"},"addTags":{"operator":"Endesa","operator:wikidata":"Q1275336","operator:wikipedia":"es:Endesa","power":"plant"}},"power/plant/enelgreenpowerespana-d14bb1":{"name":"Enel Green Power España","locationSet":{"include":["es"]},"geometry":["area"],"matchScore":2,"terms":["enel green power españa","enel green power españa s.l"],"tags":{"operator:wikidata":"Q3725218","power":"plant"},"addTags":{"operator":"Enel Green Power España","operator:wikidata":"Q3725218","operator:wikipedia":"es:Enel Green Power","power":"plant"}},"power/pole/endesa-139d53":{"name":"Endesa","locationSet":{"include":["es"]},"geometry":["point","vertex"],"matchScore":2,"terms":["endesa","sevillana endesa"],"tags":{"operator:wikidata":"Q1275336","power":"pole"},"addTags":{"operator":"Endesa","operator:wikidata":"Q1275336","operator:wikipedia":"es:Endesa","power":"pole"}},"power/pole/redelectricadeespana-139d53":{"name":"Red Eléctrica de España","locationSet":{"include":["es"]},"geometry":["point","vertex"],"matchScore":2,"terms":["red eléctrica de españa","red electrica española","ree"],"tags":{"operator:wikidata":"Q1551220","power":"pole"},"addTags":{"operator":"Red Eléctrica de España","operator:short":"REE","operator:wikidata":"Q1551220","operator:wikipedia":"es:Red Eléctrica de España","power":"pole"}},"power/substation/adif-294d99":{"name":"Adif","locationSet":{"include":["es"]},"geometry":["area","point"],"matchScore":2,"terms":["adif"],"tags":{"operator:wikidata":"Q358752","power":"substation"},"addTags":{"operator":"Adif","operator:wikidata":"Q358752","operator:wikipedia":"es:Adif","power":"substation"}},"power/substation/endesa-294d99":{"name":"Endesa","locationSet":{"include":["es"]},"geometry":["area","point"],"matchScore":2,"terms":["endesa","sevillana endesa"],"tags":{"operator:wikidata":"Q1275336","power":"substation"},"addTags":{"operator":"Endesa","operator:wikidata":"Q1275336","operator:wikipedia":"es:Endesa","power":"substation"}},"power/substation/redelectricadeespana-294d99":{"name":"Red Eléctrica de España","locationSet":{"include":["es"]},"geometry":["area","point"],"matchScore":2,"terms":["red eléctrica de españa","red electrica española","ree"],"tags":{"operator:wikidata":"Q1551220","power":"substation"},"addTags":{"operator":"Red Eléctrica de España","operator:short":"REE","operator:wikidata":"Q1551220","operator:wikipedia":"es:Red Eléctrica de España","power":"substation"}},"power/tower/endesa-69d425":{"name":"Endesa","locationSet":{"include":["es"]},"geometry":["point","vertex"],"matchScore":2,"terms":["endesa","sevillana endesa"],"tags":{"operator:wikidata":"Q1275336","power":"tower"},"addTags":{"operator":"Endesa","operator:wikidata":"Q1275336","operator:wikipedia":"es:Endesa","power":"tower"}},"power/tower/redelectricadeespana-69d425":{"name":"Red Eléctrica de España","locationSet":{"include":["es"]},"geometry":["point","vertex"],"matchScore":2,"terms":["red eléctrica de españa","red electrica española","ree"],"tags":{"operator:wikidata":"Q1551220","power":"tower"},"addTags":{"operator":"Red Eléctrica de España","operator:short":"REE","operator:wikidata":"Q1551220","operator:wikipedia":"es:Red Eléctrica de España","power":"tower"}},"power/transformer/adif-489479":{"name":"Adif","locationSet":{"include":["es"]},"geometry":["point","vertex"],"matchScore":2,"terms":["adif"],"tags":{"operator:wikidata":"Q358752","power":"transformer"},"addTags":{"operator":"Adif","operator:wikidata":"Q358752","operator:wikipedia":"es:Adif","power":"transformer"}},"power/transformer/endesa-489479":{"name":"Endesa","locationSet":{"include":["es"]},"geometry":["point","vertex"],"matchScore":2,"terms":["endesa","sevillana endesa"],"tags":{"operator:wikidata":"Q1275336","power":"transformer"},"addTags":{"operator":"Endesa","operator:wikidata":"Q1275336","operator:wikipedia":"es:Endesa","power":"transformer"}},"power/transformer/redelectricadeespana-489479":{"name":"Red Eléctrica de España","locationSet":{"include":["es"]},"geometry":["point","vertex"],"matchScore":2,"terms":["red eléctrica de españa","red electrica española","ree"],"tags":{"operator:wikidata":"Q1551220","power":"transformer"},"addTags":{"operator":"Red Eléctrica de España","operator:short":"REE","operator:wikidata":"Q1551220","operator:wikipedia":"es:Red Eléctrica de España","power":"transformer"}},"public_transport/platform/bus_point/alavabus-3a5559":{"name":"Álava Bus","locationSet":{"include":["es"]},"geometry":["point","vertex"],"matchScore":2,"terms":["álava bus"],"reference":{"key":"public_transport","value":"platform"},"tags":{"bus":"yes","network:wikidata":"Q27969418","public_transport":"platform"},"addTags":{"bus":"yes","highway":"bus_stop","network":"Álava Bus","network:wikidata":"Q27969418","network:wikipedia":"es:Álava Bus","public_transport":"platform"}},"public_transport/platform/bus_point/alsa-3a5559":{"name":"Alsa","locationSet":{"include":["es"]},"geometry":["point","vertex"],"matchScore":2,"terms":["alsa"],"reference":{"key":"public_transport","value":"platform"},"tags":{"bus":"yes","network:wikidata":"Q294510","public_transport":"platform"},"addTags":{"bus":"yes","highway":"bus_stop","network":"Alsa","network:wikidata":"Q294510","network:wikipedia":"en:ALSA (bus company)","public_transport":"platform"}},"public_transport/platform/bus_point/aue-3a5559":{"name":"AUE","locationSet":{"include":["es"]},"geometry":["point","vertex"],"matchScore":2,"terms":["aue"],"reference":{"key":"public_transport","value":"platform"},"tags":{"bus":"yes","network:wikidata":"Q5712413","public_transport":"platform"},"addTags":{"bus":"yes","highway":"bus_stop","network":"AUE","network:wikidata":"Q5712413","network:wikipedia":"es:Autobuses Urbanos de Elche","public_transport":"platform"}},"public_transport/platform/bus_point/autobusesurbanosdegranada-3a5559":{"name":"Autobuses Urbanos de Granada","locationSet":{"include":["es"]},"geometry":["point","vertex"],"matchScore":2,"terms":["autobuses urbanos de granada"],"reference":{"key":"public_transport","value":"platform"},"tags":{"bus":"yes","network:wikidata":"Q5712425","public_transport":"platform"},"addTags":{"bus":"yes","highway":"bus_stop","network":"Autobuses Urbanos de Granada","network:wikidata":"Q5712425","network:wikipedia":"es:Autobuses urbanos de Granada","public_transport":"platform"}},"public_transport/platform/bus_point/autobusesurbanosdeleon-3a5559":{"name":"Autobuses Urbanos de León","locationSet":{"include":["es"]},"geometry":["point","vertex"],"matchScore":2,"terms":["autobuses urbanos de león"],"reference":{"key":"public_transport","value":"platform"},"tags":{"bus":"yes","network:wikidata":"Q18195802","public_transport":"platform"},"addTags":{"bus":"yes","highway":"bus_stop","network":"Autobuses Urbanos de León","network:wikidata":"Q18195802","network:wikipedia":"es:Autobuses Urbanos de León","public_transport":"platform"}},"public_transport/platform/bus_point/bilbobus-3a5559":{"name":"Bilbobus","locationSet":{"include":["es"]},"geometry":["point","vertex"],"matchScore":2,"terms":["bilbobus"],"reference":{"key":"public_transport","value":"platform"},"tags":{"bus":"yes","network:wikidata":"Q860494","public_transport":"platform"},"addTags":{"bus":"yes","highway":"bus_stop","network":"Bilbobus","network:wikidata":"Q860494","network:wikipedia":"es:Bilbobus","public_transport":"platform"}},"public_transport/platform/bus_point/bizkaibus-3a5559":{"name":"Bizkaibus","locationSet":{"include":["es"]},"geometry":["point","vertex"],"matchScore":2,"terms":["bizkaibus"],"reference":{"key":"public_transport","value":"platform"},"tags":{"bus":"yes","network:wikidata":"Q879270","public_transport":"platform"},"addTags":{"bus":"yes","highway":"bus_stop","network":"Bizkaibus","network:wikidata":"Q879270","network:wikipedia":"es:Bizkaibus","public_transport":"platform"}},"public_transport/platform/bus_point/consorciodetransportesdelareadezaragoza-3a5559":{"name":"Consorcio de Transportes del Área de Zaragoza","locationSet":{"include":["es"]},"geometry":["point","vertex"],"matchScore":2,"terms":["consorcio de transportes del área de zaragoza","ctaz","es-ar-z-ctaz"],"reference":{"key":"public_transport","value":"platform"},"tags":{"bus":"yes","network:wikidata":"Q5784328","public_transport":"platform"},"addTags":{"bus":"yes","highway":"bus_stop","network":"Consorcio de Transportes del Área de Zaragoza","network:guid":"ES-AR-Z-CTAZ","network:short":"CTAZ","network:wikidata":"Q5784328","network:wikipedia":"es:Consorcio de Transportes del Área de Zaragoza","public_transport":"platform"}},"public_transport/platform/bus_point/cta-3a5559":{"name":"CTA (Asturias)","locationSet":{"include":["es"]},"geometry":["point","vertex"],"matchScore":2,"terms":["cta"],"reference":{"key":"public_transport","value":"platform"},"tags":{"bus":"yes","network:wikidata":"Q5784322","public_transport":"platform"},"addTags":{"bus":"yes","highway":"bus_stop","network":"CTA","network:wikidata":"Q5784322","network:wikipedia":"es:Consorcio de Transportes de Asturias","public_transport":"platform"}},"public_transport/platform/bus_point/exprescat-3a5559":{"name":"exprés.cat","locationSet":{"include":["es"]},"geometry":["point","vertex"],"matchScore":2,"terms":["exprés.cat"],"reference":{"key":"public_transport","value":"platform"},"tags":{"bus":"yes","network:wikidata":"Q8847125","public_transport":"platform"},"addTags":{"bus":"yes","highway":"bus_stop","network":"exprés.cat","network:wikidata":"Q8847125","network:wikipedia":"es:Exprés.cat","public_transport":"platform"}},"public_transport/platform/bus_point/metrobus-3a5559":{"name":"MetroBus (Valencia)","locationSet":{"include":["es"]},"geometry":["point","vertex"],"matchScore":2,"terms":["metrobus"],"reference":{"key":"public_transport","value":"platform"},"tags":{"bus":"yes","network:wikidata":"Q5712403","public_transport":"platform"},"addTags":{"bus":"yes","highway":"bus_stop","network":"MetroBus","network:wikidata":"Q5712403","network:wikipedia":"es:Autobuses Metropolitanos de Valencia (MetroBus)","public_transport":"platform"}},"public_transport/platform/bus_point/reustransport-3a5559":{"name":"Reus Transport","locationSet":{"include":["es"]},"geometry":["point","vertex"],"matchScore":2,"terms":["reus transport"],"reference":{"key":"public_transport","value":"platform"},"tags":{"bus":"yes","network:wikidata":"Q9068439","public_transport":"platform"},"addTags":{"bus":"yes","highway":"bus_stop","network":"Reus Transport","network:wikidata":"Q9068439","network:wikipedia":"es:Reus Transport","public_transport":"platform"}},"public_transport/platform/bus_point/taminterurbano-3a5559":{"name":"TAM Interurbano","locationSet":{"include":["es"]},"geometry":["point","vertex"],"matchScore":2,"terms":["tam alicante interurbano","tam interurbano"],"reference":{"key":"public_transport","value":"platform"},"tags":{"bus":"yes","network:wikidata":"Q15846007","public_transport":"platform"},"addTags":{"bus":"yes","highway":"bus_stop","network":"TAM Interurbano","network:wikidata":"Q15846007","network:wikipedia":"es:Transporte Alicante Metropolitano","public_transport":"platform"}},"public_transport/platform/bus_point/tamurbano-3a5559":{"name":"TAM Urbano","locationSet":{"include":["es"]},"geometry":["point","vertex"],"matchScore":2,"terms":["tam urbano"],"reference":{"key":"public_transport","value":"platform"},"tags":{"bus":"yes","network:wikidata":"Q15846007","public_transport":"platform"},"addTags":{"bus":"yes","highway":"bus_stop","network":"TAM Urbano","network:wikidata":"Q15846007","network:wikipedia":"es:Transporte Alicante Metropolitano","public_transport":"platform"}},"public_transport/platform/bus_point/tmb-3a5559":{"name":"TMB","locationSet":{"include":["es"]},"geometry":["point","vertex"],"matchScore":2,"terms":["tmb"],"reference":{"key":"public_transport","value":"platform"},"tags":{"bus":"yes","network:wikidata":"Q1778212","public_transport":"platform"},"addTags":{"bus":"yes","highway":"bus_stop","network":"TMB","network:wikidata":"Q1778212","network:wikipedia":"es:Transportes Metropolitanos de Barcelona","public_transport":"platform"}},"public_transport/platform/bus_point/transporteurbanocartagena-3a5559":{"name":"Transporte Urbano Cartagena","locationSet":{"include":["es"]},"geometry":["point","vertex"],"matchScore":2,"terms":["transporte urbano cartagena"],"reference":{"key":"public_transport","value":"platform"},"tags":{"bus":"yes","network:wikidata":"Q17631951","public_transport":"platform"},"addTags":{"bus":"yes","highway":"bus_stop","network":"Transporte Urbano Cartagena","network:wikidata":"Q17631951","network:wikipedia":"es:Transportes Urbanos de Cartagena S.A.","public_transport":"platform"}},"public_transport/platform/bus_point/transporteurbanodeburgos-3a5559":{"name":"Transporte urbano de Burgos","locationSet":{"include":["es"]},"geometry":["point","vertex"],"matchScore":2,"terms":["servicio municipalizado de movilidad y transportes","smyt","transporte urbano de burgos"],"reference":{"key":"public_transport","value":"platform"},"tags":{"bus":"yes","network:wikidata":"Q6391113","public_transport":"platform"},"addTags":{"bus":"yes","highway":"bus_stop","network":"Transporte urbano de Burgos","network:wikidata":"Q6391113","network:wikipedia":"es:Transporte urbano de Burgos","operator":"Servicio Municipalizado de Movilidad y Transportes","operator:short":"SMYT","public_transport":"platform"}},"public_transport/platform/bus_point/tuvisa-3a5559":{"name":"TUVISA","locationSet":{"include":["es"]},"geometry":["point","vertex"],"matchScore":2,"terms":["tuvisa"],"reference":{"key":"public_transport","value":"platform"},"tags":{"bus":"yes","network:wikidata":"Q536320","public_transport":"platform"},"addTags":{"bus":"yes","highway":"bus_stop","network":"TUVISA","network:wikidata":"Q536320","network:wikipedia":"es:Tuvisa","public_transport":"platform"}},"type/route/bus/alavabus-cbced8":{"name":"Álava Bus","locationSet":{"include":["es"]},"geometry":["relation"],"matchScore":2,"terms":["álava bus"],"reference":{"key":"route","value":"bus"},"tags":{"network:wikidata":"Q27969418","route":"bus","type":"route"},"addTags":{"network":"Álava Bus","network:wikidata":"Q27969418","network:wikipedia":"es:Álava Bus","route":"bus","type":"route"}},"type/route/bus/alsa-cbced8":{"name":"Alsa","locationSet":{"include":["es"]},"geometry":["relation"],"matchScore":2,"terms":["alsa"],"reference":{"key":"route","value":"bus"},"tags":{"network:wikidata":"Q294510","route":"bus","type":"route"},"addTags":{"network":"Alsa","network:wikidata":"Q294510","network:wikipedia":"en:ALSA (bus company)","route":"bus","type":"route"}},"type/route/bus/aue-cbced8":{"name":"AUE","locationSet":{"include":["es"]},"geometry":["relation"],"matchScore":2,"terms":["aue"],"reference":{"key":"route","value":"bus"},"tags":{"network:wikidata":"Q5712413","route":"bus","type":"route"},"addTags":{"network":"AUE","network:wikidata":"Q5712413","network:wikipedia":"es:Autobuses Urbanos de Elche","route":"bus","type":"route"}},"type/route/bus/autobusesurbanosdegranada-cbced8":{"name":"Autobuses Urbanos de Granada","locationSet":{"include":["es"]},"geometry":["relation"],"matchScore":2,"terms":["autobuses urbanos de granada"],"reference":{"key":"route","value":"bus"},"tags":{"network:wikidata":"Q5712425","route":"bus","type":"route"},"addTags":{"network":"Autobuses Urbanos de Granada","network:wikidata":"Q5712425","network:wikipedia":"es:Autobuses urbanos de Granada","route":"bus","type":"route"}},"type/route/bus/autobusesurbanosdeleon-cbced8":{"name":"Autobuses Urbanos de León","locationSet":{"include":["es"]},"geometry":["relation"],"matchScore":2,"terms":["autobuses urbanos de león"],"reference":{"key":"route","value":"bus"},"tags":{"network:wikidata":"Q18195802","route":"bus","type":"route"},"addTags":{"network":"Autobuses Urbanos de León","network:wikidata":"Q18195802","network:wikipedia":"es:Autobuses Urbanos de León","route":"bus","type":"route"}},"type/route/bus/bilbobus-cbced8":{"name":"Bilbobus","locationSet":{"include":["es"]},"geometry":["relation"],"matchScore":2,"terms":["bilbobus"],"reference":{"key":"route","value":"bus"},"tags":{"network:wikidata":"Q860494","route":"bus","type":"route"},"addTags":{"network":"Bilbobus","network:wikidata":"Q860494","network:wikipedia":"es:Bilbobus","route":"bus","type":"route"}},"type/route/bus/bizkaibus-cbced8":{"name":"Bizkaibus","locationSet":{"include":["es"]},"geometry":["relation"],"matchScore":2,"terms":["bizkaibus"],"reference":{"key":"route","value":"bus"},"tags":{"network:wikidata":"Q879270","route":"bus","type":"route"},"addTags":{"network":"Bizkaibus","network:wikidata":"Q879270","network:wikipedia":"es:Bizkaibus","route":"bus","type":"route"}},"type/route/bus/consorciodetransportesdelareadezaragoza-cbced8":{"name":"Consorcio de Transportes del Área de Zaragoza","locationSet":{"include":["es"]},"geometry":["relation"],"matchScore":2,"terms":["consorcio de transportes del área de zaragoza","ctaz","es-ar-z-ctaz"],"reference":{"key":"route","value":"bus"},"tags":{"network:wikidata":"Q5784328","route":"bus","type":"route"},"addTags":{"network":"Consorcio de Transportes del Área de Zaragoza","network:guid":"ES-AR-Z-CTAZ","network:short":"CTAZ","network:wikidata":"Q5784328","network:wikipedia":"es:Consorcio de Transportes del Área de Zaragoza","route":"bus","type":"route"}},"type/route/bus/cta-cbced8":{"name":"CTA (Asturias)","locationSet":{"include":["es"]},"geometry":["relation"],"matchScore":2,"terms":["cta"],"reference":{"key":"route","value":"bus"},"tags":{"network:wikidata":"Q5784322","route":"bus","type":"route"},"addTags":{"network":"CTA","network:wikidata":"Q5784322","network:wikipedia":"es:Consorcio de Transportes de Asturias","route":"bus","type":"route"}},"type/route/bus/exprescat-cbced8":{"name":"exprés.cat","locationSet":{"include":["es"]},"geometry":["relation"],"matchScore":2,"terms":["exprés.cat"],"reference":{"key":"route","value":"bus"},"tags":{"network:wikidata":"Q8847125","route":"bus","type":"route"},"addTags":{"network":"exprés.cat","network:wikidata":"Q8847125","network:wikipedia":"es:Exprés.cat","route":"bus","type":"route"}},"type/route/bus/metrobus-cbced8":{"name":"MetroBus (Valencia)","locationSet":{"include":["es"]},"geometry":["relation"],"matchScore":2,"terms":["metrobus"],"reference":{"key":"route","value":"bus"},"tags":{"network:wikidata":"Q5712403","route":"bus","type":"route"},"addTags":{"network":"MetroBus","network:wikidata":"Q5712403","network:wikipedia":"es:Autobuses Metropolitanos de Valencia (MetroBus)","route":"bus","type":"route"}},"type/route/bus/reustransport-cbced8":{"name":"Reus Transport","locationSet":{"include":["es"]},"geometry":["relation"],"matchScore":2,"terms":["reus transport"],"reference":{"key":"route","value":"bus"},"tags":{"network:wikidata":"Q9068439","route":"bus","type":"route"},"addTags":{"network":"Reus Transport","network:wikidata":"Q9068439","network:wikipedia":"es:Reus Transport","route":"bus","type":"route"}},"type/route/bus/taminterurbano-cbced8":{"name":"TAM Interurbano","locationSet":{"include":["es"]},"geometry":["relation"],"matchScore":2,"terms":["tam alicante interurbano","tam interurbano"],"reference":{"key":"route","value":"bus"},"tags":{"network:wikidata":"Q15846007","route":"bus","type":"route"},"addTags":{"network":"TAM Interurbano","network:wikidata":"Q15846007","network:wikipedia":"es:Transporte Alicante Metropolitano","route":"bus","type":"route"}},"type/route/bus/tamurbano-cbced8":{"name":"TAM Urbano","locationSet":{"include":["es"]},"geometry":["relation"],"matchScore":2,"terms":["tam urbano"],"reference":{"key":"route","value":"bus"},"tags":{"network:wikidata":"Q15846007","route":"bus","type":"route"},"addTags":{"network":"TAM Urbano","network:wikidata":"Q15846007","network:wikipedia":"es:Transporte Alicante Metropolitano","route":"bus","type":"route"}},"type/route/bus/tmb-cbced8":{"name":"TMB","locationSet":{"include":["es"]},"geometry":["relation"],"matchScore":2,"terms":["tmb"],"reference":{"key":"route","value":"bus"},"tags":{"network:wikidata":"Q1778212","route":"bus","type":"route"},"addTags":{"network":"TMB","network:wikidata":"Q1778212","network:wikipedia":"es:Transportes Metropolitanos de Barcelona","route":"bus","type":"route"}},"type/route/bus/transporteurbanocartagena-cbced8":{"name":"Transporte Urbano Cartagena","locationSet":{"include":["es"]},"geometry":["relation"],"matchScore":2,"terms":["transporte urbano cartagena"],"reference":{"key":"route","value":"bus"},"tags":{"network:wikidata":"Q17631951","route":"bus","type":"route"},"addTags":{"network":"Transporte Urbano Cartagena","network:wikidata":"Q17631951","network:wikipedia":"es:Transportes Urbanos de Cartagena S.A.","route":"bus","type":"route"}},"type/route/bus/transporteurbanodeburgos-cbced8":{"name":"Transporte urbano de Burgos","locationSet":{"include":["es"]},"geometry":["relation"],"matchScore":2,"terms":["servicio municipalizado de movilidad y transportes","smyt","transporte urbano de burgos"],"reference":{"key":"route","value":"bus"},"tags":{"network:wikidata":"Q6391113","route":"bus","type":"route"},"addTags":{"network":"Transporte urbano de Burgos","network:wikidata":"Q6391113","network:wikipedia":"es:Transporte urbano de Burgos","operator":"Servicio Municipalizado de Movilidad y Transportes","operator:short":"SMYT","route":"bus","type":"route"}},"type/route/bus/tuvisa-cbced8":{"name":"TUVISA","locationSet":{"include":["es"]},"geometry":["relation"],"matchScore":2,"terms":["tuvisa"],"reference":{"key":"route","value":"bus"},"tags":{"network:wikidata":"Q536320","route":"bus","type":"route"},"addTags":{"network":"TUVISA","network:wikidata":"Q536320","network:wikipedia":"es:Tuvisa","route":"bus","type":"route"}},"type/route/light_rail/metrodepalma-7240fe":{"name":"Metro de Palma","locationSet":{"include":["es"]},"geometry":["relation"],"matchScore":2,"terms":["metro de palma","metro de palma de mallorca","serveis ferroviaris de mallorca"],"reference":{"key":"route","value":"light_rail"},"tags":{"network:wikidata":"Q1130284","route":"light_rail","type":"route"},"addTags":{"network":"Metro de Palma","network:wikidata":"Q1130284","network:wikipedia":"ca:Metro de Palma","operator":"Serveis Ferroviaris de Mallorca","operator:wikidata":"Q1811123","operator:wikipedia":"ca:Serveis Ferroviaris de Mallorca","route":"light_rail","type":"route"}},"type/route/subway/metrodebarcelona-f4ef66":{"name":"Metro de Barcelona","locationSet":{"include":["es"]},"geometry":["relation"],"matchScore":2,"terms":["barcelona metro","metro de barcelona"],"reference":{"key":"route","value":"subway"},"tags":{"network:wikidata":"Q237189","route":"subway","type":"route"},"addTags":{"network":"Metro de Barcelona","network:wikidata":"Q237189","network:wikipedia":"ca:Metro de Barcelona","route":"subway","type":"route"}},"type/route/subway/metrodemadrid-f4ef66":{"name":"Metro de Madrid","locationSet":{"include":["es"]},"geometry":["relation"],"matchScore":2,"terms":["metro de madrid"],"reference":{"key":"route","value":"subway"},"tags":{"network:wikidata":"Q191987","route":"subway","type":"route"},"addTags":{"network":"Metro de Madrid","network:wikidata":"Q191987","network:wikipedia":"es:Metro de Madrid","route":"subway","type":"route"}},"type/route/subway/metrovalencia-f4ef66":{"name":"metrovalencia","locationSet":{"include":["es"]},"geometry":["relation"],"matchScore":2,"terms":["ferrocarrils de la generalitat valenciana","metrovalencia"],"reference":{"key":"route","value":"subway"},"tags":{"network:wikidata":"Q511171","route":"subway","type":"route"},"addTags":{"network":"metrovalencia","network:wikidata":"Q511171","network:wikipedia":"ca:Metrovalència","operator":"Ferrocarrils de la Generalitat Valenciana","operator:wikidata":"Q750832","operator:wikipedia":"ca:Ferrocarrils de la Generalitat Valenciana","route":"subway","type":"route"}},"type/route/train/bilbokoaldiriakcercaniasbilbao-8dd936":{"name":"Bilboko Aldiriak / Cercanías Bilbao","locationSet":{"include":["es"]},"geometry":["relation"],"matchScore":2,"terms":["bilboko aldiriak","bilboko aldiriak / cercanías bilbao","cercanías bilbao","renfe"],"reference":{"key":"route","value":"train"},"tags":{"network:wikidata":"Q685485","route":"train","type":"route"},"addTags":{"network":"Bilboko Aldiriak / Cercanías Bilbao","network:es":"Cercanías Bilbao","network:eu":"Bilboko Aldiriak","network:wikidata":"Q685485","network:wikipedia":"eu:Bilboko Renfe Aldiriak","operator":"Renfe","operator:wikidata":"Q2476154","operator:wikipedia":"es:Renfe","route":"train","type":"route"}},"type/route/train/cercaniasasturias-8dd936":{"name":"Cercanías Asturias","locationSet":{"include":["es"]},"geometry":["relation"],"matchScore":2,"terms":["cercanías asturias","renfe"],"reference":{"key":"route","value":"train"},"tags":{"network:wikidata":"Q1054739","route":"train","type":"route"},"addTags":{"network":"Cercanías Asturias","network:wikidata":"Q1054739","network:wikipedia":"es:Núcleo de cercanías de Asturias","operator":"Renfe","operator:wikidata":"Q2476154","operator:wikipedia":"es:Renfe","route":"train","type":"route"}},"type/route/train/cercaniascadiz-8dd936":{"name":"Cercanías Cádiz","locationSet":{"include":["es"]},"geometry":["relation"],"matchScore":2,"terms":["cercanías cádiz","renfe"],"reference":{"key":"route","value":"train"},"tags":{"network:wikidata":"Q1054745","route":"train","type":"route"},"addTags":{"network":"Cercanías Cádiz","network:wikidata":"Q1054745","network:wikipedia":"es:Cercanías Cádiz","operator":"Renfe","operator:wikidata":"Q2476154","operator:wikipedia":"es:Renfe","route":"train","type":"route"}},"type/route/train/cercaniasmadrid-8dd936":{"name":"Cercanías Madrid","locationSet":{"include":["es"]},"geometry":["relation"],"matchScore":2,"terms":["cercanías madrid","renfe"],"reference":{"key":"route","value":"train"},"tags":{"network:wikidata":"Q1054785","route":"train","type":"route"},"addTags":{"network":"Cercanías Madrid","network:wikidata":"Q1054785","network:wikipedia":"es:Cercanías Madrid","operator":"Renfe","operator:wikidata":"Q2476154","operator:wikipedia":"es:Renfe","route":"train","type":"route"}},"type/route/train/cercaniasmalaga-8dd936":{"name":"Cercanías Málaga","locationSet":{"include":["es"]},"geometry":["relation"],"matchScore":2,"terms":["cercanías málaga","renfe"],"reference":{"key":"route","value":"train"},"tags":{"network:wikidata":"Q167503","route":"train","type":"route"},"addTags":{"network":"Cercanías Málaga","network:wikidata":"Q167503","network:wikipedia":"es:Cercanías Málaga","operator":"Renfe","operator:wikidata":"Q2476154","operator:wikipedia":"es:Renfe","route":"train","type":"route"}},"type/route/train/cercaniasmurciaalicante-8dd936":{"name":"Cercanías Murcia/Alicante","locationSet":{"include":["es"]},"geometry":["relation"],"matchScore":2,"terms":["cercanías murcia/alicante","renfe"],"reference":{"key":"route","value":"train"},"tags":{"network:wikidata":"Q650688","route":"train","type":"route"},"addTags":{"network":"Cercanías Murcia/Alicante","network:wikidata":"Q650688","network:wikipedia":"es:Cercanías Murcia/Alicante","operator":"Renfe","operator:wikidata":"Q2476154","operator:wikipedia":"es:Renfe","route":"train","type":"route"}},"type/route/train/cercaniassantander-8dd936":{"name":"Cercanías Santander","locationSet":{"include":["es"]},"geometry":["relation"],"matchScore":2,"terms":["cercanías santander","renfe"],"reference":{"key":"route","value":"train"},"tags":{"network:wikidata":"Q1054773","route":"train","type":"route"},"addTags":{"network":"Cercanías Santander","network:wikidata":"Q1054773","network:wikipedia":"es:Cercanías Cantabria","operator":"Renfe","operator:wikidata":"Q2476154","operator:wikipedia":"es:Renfe","route":"train","type":"route"}},"type/route/train/cercaniassevilla-8dd936":{"name":"Cercanías Sevilla","locationSet":{"include":["es"]},"geometry":["relation"],"matchScore":2,"terms":["cercanías sevilla","renfe"],"reference":{"key":"route","value":"train"},"tags":{"network:wikidata":"Q2747014","route":"train","type":"route"},"addTags":{"network":"Cercanías Sevilla","network:wikidata":"Q2747014","network:wikipedia":"es:Cercanías Sevilla","operator":"Renfe","operator:wikidata":"Q2476154","operator:wikipedia":"es:Renfe","route":"train","type":"route"}},"type/route/train/cercaniasvalencia-8dd936":{"name":"Cercanías València","locationSet":{"include":["es"]},"geometry":["relation"],"matchScore":2,"terms":["cercanías valència","renfe","rodalia de valència","rodalia valència"],"reference":{"key":"route","value":"train"},"tags":{"network:wikidata":"Q2689944","route":"train","type":"route"},"addTags":{"network":"Cercanías València","network:wikidata":"Q2689944","network:wikipedia":"es:Cercanías Valencia","operator":"Renfe","operator:wikidata":"Q2476154","operator:wikipedia":"es:Renfe","route":"train","type":"route"}},"type/route/train/cercaniaszaragoza-8dd936":{"name":"Cercanías Zaragoza","locationSet":{"include":["es"]},"geometry":["relation"],"matchScore":2,"terms":["cercanías zaragoza","renfe"],"reference":{"key":"route","value":"train"},"tags":{"network:wikidata":"Q1054798","route":"train","type":"route"},"addTags":{"network":"Cercanías Zaragoza","network:wikidata":"Q1054798","network:wikipedia":"es:Cercanías Zaragoza","operator":"Renfe","operator:wikidata":"Q2476154","operator:wikipedia":"es:Renfe","route":"train","type":"route"}},"type/route/train/donostiakoaldiriakcercaniassansebastian-8dd936":{"name":"Donostiako Aldiriak / Cercanías San Sebastián","locationSet":{"include":["es"]},"geometry":["relation"],"matchScore":2,"terms":["cercanías san sebastián","donostiako aldiriak","donostiako aldiriak / cercanías san sebastián","renfe"],"reference":{"key":"route","value":"train"},"tags":{"network:wikidata":"Q2946410","route":"train","type":"route"},"addTags":{"network":"Donostiako Aldiriak / Cercanías San Sebastián","network:es":"Cercanías San Sebastián","network:eu":"Donostiako Aldiriak","network:wikidata":"Q2946410","network:wikipedia":"eu:Donostiako Renfe Aldiriak","operator":"Renfe","operator:wikidata":"Q2476154","operator:wikipedia":"es:Renfe","route":"train","type":"route"}},"type/route/train/eurocity-6b9d23":{"name":"EuroCity","locationSet":{"include":["by","bg","cz","hu","pl","md","ro","ru","sk","ua","ax","gg","je","cq","dk","ee","fo","fi","is","ie","im","lv","lt","no","sj","se","gb","al","ad","ba","hr","gi","gr","va","it","mt","me","mk","pt","sm","rs","si","es","xk","at","be","fr","de","li","lu","mc","nl","ch"]},"geometry":["relation"],"matchScore":2,"terms":["eurocity"],"reference":{"key":"route","value":"train"},"tags":{"network:wikidata":"Q753050","route":"train","type":"route"},"addTags":{"network":"EuroCity","network:wikidata":"Q753050","network:wikipedia":"en:EuroCity","route":"train","type":"route"}},"type/route/train/euronight-6b9d23":{"name":"EuroNight","locationSet":{"include":["by","bg","cz","hu","pl","md","ro","ru","sk","ua","ax","gg","je","cq","dk","ee","fo","fi","is","ie","im","lv","lt","no","sj","se","gb","al","ad","ba","hr","gi","gr","va","it","mt","me","mk","pt","sm","rs","si","es","xk","at","be","fr","de","li","lu","mc","nl","ch"]},"geometry":["relation"],"matchScore":2,"terms":["euronight"],"reference":{"key":"route","value":"train"},"tags":{"network:wikidata":"Q257307","route":"train","type":"route"},"addTags":{"network":"EuroNight","network:wikidata":"Q257307","network:wikipedia":"en:EuroNight","route":"train","type":"route"}},"type/route/train/euskotrentrena-9a9458":{"name":"Euskotren Trena","locationSet":{"include":["es","fx"]},"geometry":["relation"],"matchScore":2,"terms":["eusko trenbideak","eusko trenbideak \u2013 ferrocarriles vascos","euskotren trena","ferrocarriles vascos"],"reference":{"key":"route","value":"train"},"tags":{"network:wikidata":"Q149274","route":"train","type":"route"},"addTags":{"network":"Euskotren Trena","network:wikidata":"Q149274","network:wikipedia":"eu:Euskotren Trena","operator":"Eusko Trenbideak \u2013 Ferrocarriles Vascos","operator:es":"Ferrocarriles Vascos","operator:eu":"Eusko Trenbideak","operator:wikidata":"Q3061020","operator:wikipedia":"eu:Eusko Trenbideak","route":"train","type":"route"}},"type/route/train/intercites-9a9458":{"name":"Intercités","locationSet":{"include":["es","fx"]},"geometry":["relation"],"matchScore":2,"terms":["intercités","sncf"],"reference":{"key":"route","value":"train"},"tags":{"network:wikidata":"Q1968198","route":"train","type":"route"},"addTags":{"network":"Intercités","network:wikidata":"Q1968198","network:wikipedia":"fr:Intercités","operator":"SNCF","route":"train","type":"route"}},"type/route/train/metrodelbaixllobregat-8dd936":{"name":"Metro del Baix Llobregat","locationSet":{"include":["es"]},"geometry":["relation"],"matchScore":2,"terms":["metro del baix llobregat"],"reference":{"key":"route","value":"train"},"tags":{"network:wikidata":"Q2381339","route":"train","type":"route"},"addTags":{"network":"Metro del Baix Llobregat","network:wikidata":"Q2381339","network:wikipedia":"es:Línea Llobregat-Noya","route":"train","type":"route"}},"type/route/train/ouigoespana-8dd936":{"name":"Ouigo España","locationSet":{"include":["es"]},"geometry":["relation"],"matchScore":2,"terms":["ouigo espagne","ouigo españa","ouigo espanya","ouigo spain"],"reference":{"key":"route","value":"train"},"tags":{"network:wikidata":"Q97172588","route":"train","type":"route"},"addTags":{"network":"Ouigo España","network:wikidata":"Q97172588","network:wikipedia":"es:Ouigo España","operator":"Ouigo España","operator:wikidata":"Q97172588","operator:wikipedia":"es:Ouigo España","route":"train","type":"route"}},"type/route/train/renfealvia-8dd936":{"name":"Renfe Alvia","locationSet":{"include":["es"]},"geometry":["relation"],"matchScore":2,"terms":["renfe","renfe alvia"],"reference":{"key":"route","value":"train"},"tags":{"network:wikidata":"Q448931","route":"train","type":"route"},"addTags":{"network":"Renfe Alvia","network:wikidata":"Q448931","network:wikipedia":"es:Renfe Alvia","operator":"Renfe","operator:wikidata":"Q2476154","operator:wikipedia":"es:Renfe","route":"train","type":"route"}},"type/route/train/renfeavant-8dd936":{"name":"Renfe Avant","locationSet":{"include":["es"]},"geometry":["relation"],"matchScore":2,"terms":["renfe","renfe avant"],"reference":{"key":"route","value":"train"},"tags":{"network:wikidata":"Q3111346","route":"train","type":"route"},"addTags":{"network":"Renfe Avant","network:wikidata":"Q3111346","network:wikipedia":"es:Renfe Avant","operator":"Renfe","operator:wikidata":"Q2476154","operator:wikipedia":"es:Renfe","route":"train","type":"route"}},"type/route/train/renfeave-8dd936":{"name":"Renfe AVE","locationSet":{"include":["es"]},"geometry":["relation"],"matchScore":2,"terms":["renfe","renfe ave"],"reference":{"key":"route","value":"train"},"tags":{"network:wikidata":"Q433671","route":"train","type":"route"},"addTags":{"network":"Renfe AVE","network:wikidata":"Q433671","network:wikipedia":"es:Renfe AVE","operator":"Renfe","operator:wikidata":"Q2476154","operator:wikipedia":"es:Renfe","route":"train","type":"route"}},"type/route/train/renfeavlo-8dd936":{"name":"Renfe Avlo","locationSet":{"include":["es"]},"geometry":["relation"],"matchScore":2,"terms":["renfe","renfe avlo"],"reference":{"key":"route","value":"train"},"tags":{"network:wikidata":"Q78223924","route":"train","type":"route"},"addTags":{"network":"Renfe Avlo","network:wikidata":"Q78223924","network:wikipedia":"es:Renfe Avlo","operator":"Renfe","operator:wikidata":"Q2476154","operator:wikipedia":"es:Renfe","route":"train","type":"route"}},"type/route/train/renfeintercity-8dd936":{"name":"Renfe InterCity","locationSet":{"include":["es"]},"geometry":["relation"],"matchScore":2,"terms":["renfe","renfe intercity"],"reference":{"key":"route","value":"train"},"tags":{"network:wikidata":"Q1415167","route":"train","type":"route"},"addTags":{"network":"Renfe InterCity","network:wikidata":"Q1415167","network:wikipedia":"es:Renfe Intercity","operator":"Renfe","operator:wikidata":"Q2476154","operator:wikipedia":"es:Renfe","route":"train","type":"route"}},"type/route/train/renfemediadistancia-8dd936":{"name":"Renfe Media Distancia","locationSet":{"include":["es"]},"geometry":["relation"],"matchScore":2,"terms":["renfe","renfe media distancia"],"reference":{"key":"route","value":"train"},"tags":{"network:wikidata":"Q3109506","route":"train","type":"route"},"addTags":{"network":"Renfe Media Distancia","network:wikidata":"Q3109506","network:wikipedia":"es:Renfe Media Distancia","operator":"Renfe","operator:wikidata":"Q2476154","operator:wikipedia":"es:Renfe","route":"train","type":"route"}},"type/route/train/renferegionales-8dd936":{"name":"Renfe Regionales","locationSet":{"include":["es"]},"geometry":["relation"],"matchScore":2,"terms":["renfe","renfe regionales"],"reference":{"key":"route","value":"train"},"tags":{"network:wikidata":"Q2842994","route":"train","type":"route"},"addTags":{"network":"Renfe Regionales","network:wikidata":"Q2842994","network:wikipedia":"es:Regional (Renfe)","operator":"Renfe","operator:wikidata":"Q2476154","operator:wikipedia":"es:Renfe","route":"train","type":"route"}},"type/route/train/rodaliesdecatalunya-9a9458":{"name":"Rodalies de Catalunya","locationSet":{"include":["es","fx"]},"geometry":["relation"],"matchScore":2,"terms":["cercanías de cataluña","cercanías de catalunya","renfe","rodalies de catalunya"],"reference":{"key":"route","value":"train"},"tags":{"network:wikidata":"Q3322422","route":"train","type":"route"},"addTags":{"network":"Rodalies de Catalunya","network:wikidata":"Q3322422","network:wikipedia":"ca:Rodalies de Catalunya","operator":"Renfe","operator:wikidata":"Q2476154","operator:wikipedia":"es:Renfe","route":"train","type":"route"}},"type/route/train/serveisferroviarisdemallorca-8dd936":{"name":"Serveis Ferroviaris de Mallorca","locationSet":{"include":["es"]},"geometry":["relation"],"matchScore":2,"terms":["serveis ferroviaris de mallorca","servicios ferroviarios de mallorca","sfm"],"reference":{"key":"route","value":"train"},"tags":{"network:wikidata":"Q1811123","route":"train","type":"route"},"addTags":{"network":"Serveis Ferroviaris de Mallorca","network:short":"SFM","network:wikidata":"Q1811123","network:wikipedia":"ca:Serveis Ferroviaris de Mallorca","route":"train","type":"route"}},"type/route/train/tgv-7d2d57":{"name":"TGV","locationSet":{"include":["be","ch","de","es","fx","it","lu","nl"]},"geometry":["relation"],"matchScore":2,"terms":["sncf","tgv"],"reference":{"key":"route","value":"train"},"tags":{"network:wikidata":"Q129337","route":"train","type":"route"},"addTags":{"network":"TGV","network:wikidata":"Q129337","network:wikipedia":"fr:TGV","operator":"SNCF","operator:wikidata":"Q13646","operator:wikipedia":"fr:Société nationale des chemins de fer français","route":"train","type":"route"}},"type/route/tram/euskotrentranbia-eef83a":{"name":"Euskotren Tranbia","locationSet":{"include":["es","fr"]},"geometry":["relation"],"matchScore":2,"terms":["eusko trenbideak","eusko trenbideak \u2013 ferrocarriles vascos","euskotren tranbia","ferrocarriles vascos"],"reference":{"key":"route","value":"tram"},"tags":{"network:wikidata":"Q123955","route":"tram","type":"route"},"addTags":{"network":"Euskotren Tranbia","network:wikidata":"Q123955","network:wikipedia":"eu:Euskotren Tranbia","operator":"Eusko Trenbideak \u2013 Ferrocarriles Vascos","operator:es":"Ferrocarriles Vascos","operator:eu":"Eusko Trenbideak","operator:wikidata":"Q3061020","operator:wikipedia":"eu:Eusko Trenbideak","route":"tram","type":"route"}},"type/route/tram/metrovalencia-1ff616":{"name":"metrovalencia","locationSet":{"include":["es"]},"geometry":["relation"],"matchScore":2,"terms":["ferrocarrils de la generalitat valenciana","metrovalencia"],"reference":{"key":"route","value":"tram"},"tags":{"network:wikidata":"Q511171","route":"tram","type":"route"},"addTags":{"network":"metrovalencia","network:wikidata":"Q511171","network:wikipedia":"ca:Metrovalència","operator":"Ferrocarrils de la Generalitat Valenciana","operator:wikidata":"Q750832","operator:wikipedia":"ca:Ferrocarrils de la Generalitat Valenciana","route":"tram","type":"route"}},"type/route/tram/tranviadezaragoza-1ff616":{"name":"Tranvía de Zaragoza","locationSet":{"include":["es"]},"geometry":["relation"],"matchScore":2,"terms":["es-ar-z-tranvia","sociedad de economía mixta los tranvías de zaragoza","tranvía de zaragoza","zaragoza tram"],"reference":{"key":"route","value":"tram"},"tags":{"network:wikidata":"Q1584986","route":"tram","type":"route"},"addTags":{"network":"Tranvía de Zaragoza","network:guid":"ES-AR-Z-Tranvia","network:wikidata":"Q1584986","network:wikipedia":"es:Tranvía de Zaragoza","operator":"Sociedad de Economía Mixta Los Tranvías de Zaragoza","route":"tram","type":"route"}}}