{"advertising/totem/gazel-066913":{"name":"Gazel","locationSet":{"include":["co","mx","pe"]},"geometry":["point","line"],"matchScore":2,"terms":["gazel"],"tags":{"advertising":"totem","brand:wikidata":"Q62529885"},"addTags":{"advertising":"totem","brand":"Gazel","brand:wikidata":"Q62529885"}},"advertising/totem/pecsa-c91af4":{"name":"Pecsa","locationSet":{"include":["pe"]},"geometry":["point","line"],"matchScore":2,"terms":["pecsa"],"tags":{"advertising":"totem","brand:wikidata":"Q62299262"},"addTags":{"advertising":"totem","brand":"Pecsa","brand:wikidata":"Q62299262"}},"advertising/totem/petroperu-c91af4":{"name":"PetroPerú","locationSet":{"include":["pe"]},"geometry":["point","line"],"matchScore":2,"terms":["petroperú"],"tags":{"advertising":"totem","brand:wikidata":"Q2506390"},"addTags":{"advertising":"totem","brand":"PetroPerú","brand:wikidata":"Q2506390"}},"advertising/totem/primax-c91af4":{"name":"Primax (Perú)","locationSet":{"include":["pe"]},"geometry":["point","line"],"matchScore":2,"terms":["primax"],"tags":{"advertising":"totem","brand:wikidata":"Q62332638"},"addTags":{"advertising":"totem","brand":"Primax","brand:wikidata":"Q62332638"}},"amenity/atm/bancoazteca-6e6832":{"name":"Banco Azteca","locationSet":{"include":["gt","hn","mx","pa","pe","sv"]},"geometry":["point","vertex"],"matchScore":2,"terms":["banco azteca"],"fields":["name","brand","{amenity/atm}"],"tags":{"amenity":"atm","brand:wikidata":"Q4854076"},"addTags":{"amenity":"atm","brand":"Banco Azteca","brand:wikidata":"Q4854076","operator":"Banco Azteca","operator:wikidata":"Q4854076"}},"amenity/atm/bancocontinental-98e68c":{"name":"Banco Continental (Perú)","locationSet":{"include":["pe"]},"geometry":["point","vertex"],"matchScore":2,"terms":["banco continental"],"fields":["name","brand","{amenity/atm}"],"tags":{"amenity":"atm","brand:wikidata":"Q4835089"},"addTags":{"amenity":"atm","brand":"Banco Continental","brand:wikidata":"Q4835089","operator":"Banco Continental","operator:wikidata":"Q4835089"}},"amenity/atm/bancodelanacion-98e68c":{"name":"Banco de la Nación (Perú)","locationSet":{"include":["pe"]},"geometry":["point","vertex"],"matchScore":2,"terms":["banco de la nación"],"fields":["name","brand","{amenity/atm}"],"tags":{"amenity":"atm","brand:wikidata":"Q4856206"},"addTags":{"amenity":"atm","brand":"Banco de la Nación","brand:wikidata":"Q4856206","operator":"Banco de la Nación","operator:wikidata":"Q4856206"}},"amenity/atm/bancofalabella-b9bb6a":{"name":"Banco Falabella","locationSet":{"include":["cl","co","pe"]},"geometry":["point","vertex"],"matchScore":2,"terms":["banco falabella"],"fields":["name","brand","{amenity/atm}"],"tags":{"amenity":"atm","brand:wikidata":"Q4854088"},"addTags":{"amenity":"atm","brand":"Banco Falabella","brand:wikidata":"Q4854088","operator":"Banco Falabella","operator:wikidata":"Q4854088"}},"amenity/atm/bancopichincha-89e930":{"name":"Banco Pichincha","locationSet":{"include":["co","ec","pe"]},"geometry":["point","vertex"],"matchScore":2,"terms":["banco pichincha"],"fields":["name","brand","{amenity/atm}"],"tags":{"amenity":"atm","brand:wikidata":"Q4854135"},"addTags":{"amenity":"atm","brand":"Banco Pichincha","brand:wikidata":"Q4854135","operator":"Banco Pichincha","operator:wikidata":"Q4854135"}},"amenity/atm/bbvacontinental-98e68c":{"name":"BBVA Continental","locationSet":{"include":["pe"]},"geometry":["point","vertex"],"matchScore":2,"terms":["bbva continental"],"fields":["name","brand","{amenity/atm}"],"tags":{"amenity":"atm","brand:wikidata":"Q4835089"},"addTags":{"amenity":"atm","brand":"BBVA Continental","brand:wikidata":"Q4835089","operator":"BBVA Continental","operator:wikidata":"Q4835089"}},"amenity/atm/bcp-98e68c":{"name":"BCP (Perú)","locationSet":{"include":["pe"]},"geometry":["point","vertex"],"matchScore":2,"terms":["banco de crédito del perú","bcp"],"fields":["name","brand","{amenity/atm}"],"tags":{"amenity":"atm","brand:wikidata":"Q4854124"},"addTags":{"amenity":"atm","brand":"BCP","brand:wikidata":"Q4854124","official_name":"Banco de Crédito del Perú","operator":"BCP","operator:wikidata":"Q4854124"}},"amenity/atm/bnpparibas-4ed91f":{"name":"BNP Paribas","locationSet":{"include":["ae","af","ar","at","bf","bg","bh","br","ca","ch","ci","cl","co","cz","de","dk","dz","es","fi","fr","gb","gf","gp","hu","ie","il","it","kw","ma","ml","mq","mx","nl","no","pe","pt","qa","re","ro","ru","sa","se","sk","sn","tn","tr","us"]},"geometry":["point","vertex"],"matchScore":2,"terms":["bnp paribas"],"fields":["name","brand","{amenity/atm}"],"tags":{"amenity":"atm","brand:wikidata":"Q499707"},"addTags":{"amenity":"atm","brand":"BNP Paribas","brand:wikidata":"Q499707","operator":"BNP Paribas","operator:wikidata":"Q499707"}},"amenity/atm/interbank-98e68c":{"name":"Interbank (Perú)","locationSet":{"include":["pe"]},"geometry":["point","vertex"],"matchScore":2,"terms":["interbank"],"fields":["name","brand","{amenity/atm}"],"tags":{"amenity":"atm","brand:wikidata":"Q2835558"},"addTags":{"amenity":"atm","brand":"Interbank","brand:wikidata":"Q2835558","operator":"Interbank","operator:wikidata":"Q2835558"}},"amenity/atm/mibanco-98e68c":{"name":"Mibanco","locationSet":{"include":["pe"]},"geometry":["point","vertex"],"matchScore":2,"terms":["mibanco"],"fields":["name","brand","{amenity/atm}"],"tags":{"amenity":"atm","brand:wikidata":"Q5558589"},"addTags":{"amenity":"atm","brand":"Mibanco","brand:wikidata":"Q5558589","operator":"Mibanco","operator:wikidata":"Q5558589"}},"amenity/bank/bancoazteca-a695fe":{"name":"Banco Azteca","locationSet":{"include":["gt","hn","mx","pa","pe","sv"]},"geometry":["point","area"],"matchScore":2,"terms":["banco azteca"],"tags":{"amenity":"bank","brand:wikidata":"Q4854076"},"addTags":{"amenity":"bank","brand":"Banco Azteca","brand:wikidata":"Q4854076","name":"Banco Azteca"}},"amenity/bank/bancocontinental-e2ab80":{"name":"Banco Continental (Perú)","locationSet":{"include":["pe"]},"geometry":["point","area"],"matchScore":2,"terms":["banco continental"],"tags":{"amenity":"bank","brand:wikidata":"Q4835089"},"addTags":{"amenity":"bank","brand":"Banco Continental","brand:wikidata":"Q4835089","name":"Banco Continental"}},"amenity/bank/bancodelanacion-e2ab80":{"name":"Banco de la Nación (Perú)","locationSet":{"include":["pe"]},"geometry":["point","area"],"matchScore":2,"terms":["banco de la nación"],"tags":{"amenity":"bank","brand:wikidata":"Q4856206"},"addTags":{"amenity":"bank","brand":"Banco de la Nación","brand:wikidata":"Q4856206","name":"Banco de la Nación"}},"amenity/bank/bancofalabella-7e72a9":{"name":"Banco Falabella","locationSet":{"include":["cl","co","pe"]},"geometry":["point","area"],"matchScore":2,"terms":["banco falabella"],"tags":{"amenity":"bank","brand:wikidata":"Q4854088"},"addTags":{"amenity":"bank","brand":"Banco Falabella","brand:wikidata":"Q4854088","name":"Banco Falabella"}},"amenity/bank/bancopichincha-6de7b0":{"name":"Banco Pichincha","locationSet":{"include":["co","ec","pe"]},"geometry":["point","area"],"matchScore":2,"terms":["banco pichincha"],"tags":{"amenity":"bank","brand:wikidata":"Q4854135"},"addTags":{"amenity":"bank","brand":"Banco Pichincha","brand:wikidata":"Q4854135","name":"Banco Pichincha"}},"amenity/bank/bbvacontinental-e2ab80":{"name":"BBVA Continental","locationSet":{"include":["pe"]},"geometry":["point","area"],"matchScore":2,"terms":["bbva continental"],"tags":{"amenity":"bank","brand:wikidata":"Q4835089"},"addTags":{"amenity":"bank","brand":"BBVA Continental","brand:wikidata":"Q4835089","name":"BBVA Continental"}},"amenity/bank/bcp-e2ab80":{"name":"BCP (Perú)","locationSet":{"include":["pe"]},"geometry":["point","area"],"matchScore":2,"terms":["banco de crédito del perú","bcp"],"tags":{"amenity":"bank","brand:wikidata":"Q4854124"},"addTags":{"amenity":"bank","brand":"BCP","brand:wikidata":"Q4854124","name":"BCP","official_name":"Banco de Crédito del Perú"}},"amenity/bank/bnpparibas-f7d855":{"name":"BNP Paribas","locationSet":{"include":["ae","af","ar","at","bf","bg","bh","br","ca","ch","ci","cl","co","cz","de","dk","dz","es","fi","fr","gb","gf","gp","hu","ie","il","it","kw","ma","ml","mq","mx","nl","no","pe","pt","qa","re","ro","ru","sa","se","sk","sn","tn","tr","us"]},"geometry":["point","area"],"matchScore":2,"terms":["bnp paribas"],"tags":{"amenity":"bank","brand:wikidata":"Q499707"},"addTags":{"amenity":"bank","brand":"BNP Paribas","brand:wikidata":"Q499707","name":"BNP Paribas"}},"amenity/bank/interbank-e2ab80":{"name":"Interbank (Perú)","locationSet":{"include":["pe"]},"geometry":["point","area"],"matchScore":2,"terms":["interbank"],"tags":{"amenity":"bank","brand:wikidata":"Q2835558"},"addTags":{"amenity":"bank","brand":"Interbank","brand:wikidata":"Q2835558","name":"Interbank"}},"amenity/bank/mibanco-e2ab80":{"name":"Mibanco","locationSet":{"include":["pe"]},"geometry":["point","area"],"matchScore":2,"terms":["mibanco"],"tags":{"amenity":"bank","brand:wikidata":"Q5558589"},"addTags":{"amenity":"bank","brand":"Mibanco","brand:wikidata":"Q5558589","name":"Mibanco"}},"amenity/cafe/coffee_shop/havanna-ffe1b3":{"name":"Havanna","locationSet":{"include":["ar","br","cl","pe"]},"geometry":["point","area"],"matchScore":2,"terms":["havanna"],"reference":{"key":"cuisine","value":"coffee_shop"},"tags":{"amenity":"cafe","brand:wikidata":"Q2900869","cuisine":"coffee_shop"},"addTags":{"amenity":"cafe","brand":"Havanna","brand:wikidata":"Q2900869","cuisine":"coffee_shop","name":"Havanna","takeaway":"yes"}},"amenity/cafe/coffee_shop/thecoffee-f04833":{"name":"The Coffee","locationSet":{"include":["br","co","es","fr","pe","pt"]},"geometry":["point","area"],"matchScore":2,"terms":["the coffee"],"reference":{"key":"cuisine","value":"coffee_shop"},"tags":{"amenity":"cafe","brand:wikidata":"Q112042753","cuisine":"coffee_shop"},"addTags":{"amenity":"cafe","brand":"The Coffee","brand:wikidata":"Q112042753","cuisine":"coffee_shop","name":"The Coffee","takeaway":"yes"}},"amenity/cinema/cineplanet-7fe2a4":{"name":"Cineplanet","locationSet":{"include":["cl","pe"]},"geometry":["point","area"],"matchScore":2,"terms":["cineplanet"],"fields":["name","brand","{amenity/cinema}"],"tags":{"amenity":"cinema","brand:wikidata":"Q5769680"},"addTags":{"amenity":"cinema","brand":"Cineplanet","brand:wikidata":"Q5769680","name":"Cineplanet"}},"amenity/fast_food/burger/bembos-654705":{"name":"Bembos","locationSet":{"include":["pe"]},"geometry":["point","area"],"matchScore":2,"terms":["bembos"],"reference":{"key":"cuisine","value":"burger"},"tags":{"amenity":"fast_food","brand:wikidata":"Q466971","cuisine":"burger"},"addTags":{"amenity":"fast_food","brand":"Bembos","brand:wikidata":"Q466971","cuisine":"burger","name":"Bembos","takeaway":"yes"}},"amenity/fast_food/burger/fasfuburgers-d62fc7":{"name":"Fasfú Burgers","locationSet":{"include":["co","es","mx","pe"]},"geometry":["point","area"],"matchScore":2,"terms":["fasf","fasfú burgers"],"reference":{"key":"cuisine","value":"burger"},"tags":{"amenity":"fast_food","brand:wikidata":"Q109324172","cuisine":"burger"},"addTags":{"amenity":"fast_food","brand":"Fasfú Burgers","brand:wikidata":"Q109324172","cuisine":"burger","delivery":"yes","name":"Fasfú Burgers","takeaway":"yes"}},"amenity/fast_food/laluchasangucheriacriolla-1a06c0":{"name":"La Lucha Sangucheria Criolla","locationSet":{"include":["cl","co","pe"]},"geometry":["point","area"],"matchScore":2,"terms":["la lucha","la lucha sangucheria criolla"],"tags":{"amenity":"fast_food","brand:wikidata":"Q111903592"},"addTags":{"alt_name":"La Lucha","amenity":"fast_food","brand":"La Lucha Sangucheria Criolla","brand:wikidata":"Q111903592","cuisine":"peruvian","name":"La Lucha Sangucheria Criolla","takeaway":"yes"}},"amenity/fast_food/mediterraneo-654705":{"name":"Mediterráneo","locationSet":{"include":["pe"]},"geometry":["point","area"],"matchScore":2,"terms":["mediterráneo"],"tags":{"amenity":"fast_food","brand:wikidata":"Q116374013"},"addTags":{"amenity":"fast_food","brand":"Mediterráneo","brand:wikidata":"Q116374013","cuisine":"peruvian","name":"Mediterráneo","takeaway":"yes"}},"amenity/fast_food/norkys-654705":{"name":"Norky's","locationSet":{"include":["pe"]},"geometry":["point","area"],"matchScore":2,"terms":["norky","norky's"],"tags":{"amenity":"fast_food","brand:wikidata":"Q109378465"},"addTags":{"amenity":"fast_food","brand":"Norky's","brand:wikidata":"Q109378465","cuisine":"peruvian","name":"Norky's","takeaway":"yes"}},"amenity/fast_food/oakberryacaibowls-df46eb":{"name":"Oakberry Açaí bowls","locationSet":{"include":["ae","au","bh","br","ch","cl","co","de","es","gr","hr","il","mt","mx","pe","pt","py","sa","th","us"]},"geometry":["point","area"],"matchScore":2,"terms":["oakberry açaí bowls"],"tags":{"amenity":"fast_food","brand:wikidata":"Q104870840"},"addTags":{"amenity":"fast_food","brand":"Oakberry Açaí bowls","brand:wikidata":"Q104870840","cuisine":"açaí","name":"Oakberry Açaí bowls","takeaway":"yes"}},"amenity/fast_food/rokys-654705":{"name":"Roky's","locationSet":{"include":["pe"]},"geometry":["point","area"],"matchScore":2,"terms":["roky's"],"tags":{"amenity":"fast_food","brand:wikidata":"Q116374108"},"addTags":{"amenity":"fast_food","brand":"Roky's","brand:wikidata":"Q116374108","cuisine":"peruvian","name":"Roky's","takeaway":"yes"}},"amenity/fuel/gazel-419915":{"name":"Gazel","locationSet":{"include":["co","mx","pe"]},"geometry":["point","area"],"matchScore":2,"terms":["gazel"],"fields":["name","brand","{amenity/fuel}"],"tags":{"amenity":"fuel","brand:wikidata":"Q62529885"},"addTags":{"amenity":"fuel","brand":"Gazel","brand:wikidata":"Q62529885","name":"Gazel"}},"amenity/fuel/pecsa-877762":{"name":"Pecsa","locationSet":{"include":["pe"]},"geometry":["point","area"],"matchScore":2,"terms":["pecsa"],"fields":["name","brand","{amenity/fuel}"],"tags":{"amenity":"fuel","brand:wikidata":"Q62299262"},"addTags":{"amenity":"fuel","brand":"Pecsa","brand:wikidata":"Q62299262","name":"Pecsa"}},"amenity/fuel/petroperu-877762":{"name":"PetroPerú","locationSet":{"include":["pe"]},"geometry":["point","area"],"matchScore":2,"terms":["petroperú"],"fields":["name","brand","{amenity/fuel}"],"tags":{"amenity":"fuel","brand:wikidata":"Q2506390"},"addTags":{"amenity":"fuel","brand":"PetroPerú","brand:wikidata":"Q2506390","name":"PetroPerú"}},"amenity/fuel/primax-877762":{"name":"Primax (Perú)","locationSet":{"include":["pe"]},"geometry":["point","area"],"matchScore":2,"terms":["primax"],"fields":["name","brand","{amenity/fuel}"],"tags":{"amenity":"fuel","brand:wikidata":"Q62332638"},"addTags":{"amenity":"fuel","brand":"Primax","brand:wikidata":"Q62332638","name":"Primax"}},"amenity/ice_cream/donofrio-93a72a":{"name":"D'Onofrio","locationSet":{"include":["pe"]},"geometry":["point","area"],"matchScore":2,"terms":["d'onofrio"],"tags":{"amenity":"ice_cream","brand:wikidata":"Q5203166"},"addTags":{"amenity":"ice_cream","brand":"D'Onofrio","brand:wikidata":"Q5203166","cuisine":"ice_cream","name":"D'Onofrio"}},"amenity/ice_cream/smooy-bac155":{"name":"smöoy","locationSet":{"include":["ao","ci","cn","dz","ec","es","fr","gb","gn","it","ma","pa","pe","pt","re","sa"]},"geometry":["point","area"],"matchScore":2,"terms":["smöoy","softy cream"],"tags":{"amenity":"ice_cream","brand:wikidata":"Q21573945"},"addTags":{"amenity":"ice_cream","brand":"smöoy","brand:wikidata":"Q21573945","name":"smöoy","official_name":"Softy Cream"}},"amenity/music_school/schoolofrock-aecfc9":{"name":"School of Rock","locationSet":{"include":["au","br","ca","cl","co","es","mx","pe","ph","py","us","za"]},"geometry":["point","area"],"matchScore":2,"terms":["school of rock"],"fields":["name","brand","{amenity/music_school}"],"tags":{"amenity":"music_school","brand:wikidata":"Q7756376"},"addTags":{"amenity":"music_school","brand":"School of Rock","brand:wikidata":"Q7756376","name":"School of Rock"}},"amenity/pharmacy/boticasysalud-141e89":{"name":"Boticas y Salud","locationSet":{"include":["pe"]},"geometry":["point","area"],"matchScore":2,"terms":["boticas y salud"],"reference":{"key":"amenity","value":"pharmacy"},"tags":{"amenity":"pharmacy","brand:wikidata":"Q62563126"},"addTags":{"amenity":"pharmacy","brand":"Boticas y Salud","brand:wikidata":"Q62563126","healthcare":"pharmacy","name":"Boticas y Salud"}},"amenity/pharmacy/inkafarma-141e89":{"name":"Inkafarma","locationSet":{"include":["pe"]},"geometry":["point","area"],"matchScore":2,"terms":["inkafarma"],"reference":{"key":"amenity","value":"pharmacy"},"tags":{"amenity":"pharmacy","brand:wikidata":"Q10997748"},"addTags":{"amenity":"pharmacy","brand":"Inkafarma","brand:wikidata":"Q10997748","healthcare":"pharmacy","name":"Inkafarma"}},"amenity/pharmacy/mifarma-141e89":{"name":"Mifarma","locationSet":{"include":["pe"]},"geometry":["point","area"],"matchScore":2,"terms":["mifarma"],"reference":{"key":"amenity","value":"pharmacy"},"tags":{"amenity":"pharmacy","brand:wikidata":"Q62564998"},"addTags":{"amenity":"pharmacy","brand":"Mifarma","brand:wikidata":"Q62564998","healthcare":"pharmacy","name":"Mifarma"}},"amenity/restaurant/pizza/chuckecheese-826402":{"name":"Chuck E. Cheese","locationSet":{"include":["ae","bh","ca","ch","co","gt","hn","mx","pa","pe","qa","sa","sr","sv","tt","us"]},"geometry":["point","area"],"matchScore":2,"terms":["chuck e. cheese","chuck e. cheese's"],"reference":{"key":"cuisine","value":"pizza"},"tags":{"amenity":"restaurant","brand:wikidata":"Q2438391","cuisine":"pizza"},"addTags":{"amenity":"restaurant","brand":"Chuck E. Cheese","brand:wikidata":"Q2438391","cuisine":"pizza","leisure":"amusement_arcade","name":"Chuck E. Cheese"}},"amenity/restaurant/crepesandwaffles-7b5290":{"name":"Crepes & Waffles","locationSet":{"include":["br","cl","co","ec","es","mx","pa","pe","ve"]},"geometry":["point","area"],"matchScore":2,"terms":["crepes & waffles"],"tags":{"amenity":"restaurant","brand:wikidata":"Q5184238"},"addTags":{"alt_name":"Crepes & Waffles","amenity":"restaurant","brand":"Crepes & Waffles","brand:wikidata":"Q5184238","cuisine":"crepe;ice_cream","name":"Crepes & Waffles"}},"amenity/restaurant/norkys-39b0af":{"name":"Norky's","locationSet":{"include":["pe"]},"geometry":["point","area"],"matchScore":2,"terms":["norky's"],"tags":{"amenity":"restaurant","brand:wikidata":"Q109378465"},"addTags":{"amenity":"restaurant","brand":"Norky's","brand:wikidata":"Q109378465","cuisine":"peruvian","name":"Norky's"}},"amenity/restaurant/pardoschicken-39b0af":{"name":"Pardos Chicken","locationSet":{"include":["pe"]},"geometry":["point","area"],"matchScore":2,"terms":["pardos chicken"],"tags":{"amenity":"restaurant","brand:wikidata":"Q17624435"},"addTags":{"amenity":"restaurant","brand":"Pardos Chicken","brand:wikidata":"Q17624435","cuisine":"peruvian","name":"Pardos Chicken"}},"amenity/school/maplebear-101006":{"name":"Maple Bear","locationSet":{"include":["ae","al","ar","au","bd","bg","br","ca","gt","hk","hr","in","ke","kr","lk","ma","mx","my","np","om","pe","ph","py","ro","rs","sg","th","tk","ua","us","vn"]},"geometry":["area","point"],"matchScore":2,"terms":["maple bear"],"fields":["name","brand","{amenity/school}"],"tags":{"amenity":"school","brand:wikidata":"Q10324823"},"addTags":{"amenity":"school","brand":"Maple Bear","brand:wikidata":"Q10324823","name":"Maple Bear","operator:type":"private"}},"amenity/madscience-0435a3":{"name":"Mad Science","locationSet":{"include":["bh","br","ca","cn","es","gb","kw","ma","nl","om","pe","sa","sg","th","tr","tt","us"]},"geometry":["point","vertex","line","area"],"matchScore":2,"terms":["mad science"],"fields":["name","brand","{amenity}"],"tags":{"amenity":"training","brand:wikidata":"Q17009137"},"addTags":{"amenity":"training","brand":"Mad Science","brand:wikidata":"Q17009137","name":"Mad Science","training":"science"}},"emergency/ambulance_station/cruzrojaperuana-02fe85":{"name":"Cruz Roja Peruana","locationSet":{"include":["pe"]},"geometry":["point","area"],"matchScore":2,"terms":["crp","cruz roja","cruz roja peruana"],"fields":["name","brand","{emergency/ambulance_station}"],"tags":{"brand:wikidata":"Q5792389","emergency":"ambulance_station"},"addTags":{"brand":"Cruz Roja Peruana","brand:wikidata":"Q5792389","emergency":"ambulance_station","name":"Cruz Roja Peruana"}},"leisure/fitness_centre/bodytech-526e49":{"name":"Bodytech","locationSet":{"include":["cl","co","pe"]},"geometry":["point","area"],"matchScore":2,"terms":["boditech","bodytech","bodytek"],"tags":{"brand:wikidata":"Q16538274","leisure":"fitness_centre"},"addTags":{"brand":"Bodytech","brand:wikidata":"Q16538274","leisure":"fitness_centre","name":"Bodytech"}},"leisure/fitness_centre/smartfit-cd44e6":{"name":"Smart Fit","locationSet":{"include":["br","cl","co","do","mx","pe"]},"geometry":["point","area"],"matchScore":2,"terms":["smart fit"],"tags":{"brand:wikidata":"Q30930959","leisure":"fitness_centre"},"addTags":{"brand":"Smart Fit","brand:wikidata":"Q30930959","leisure":"fitness_centre","name":"Smart Fit"}},"office/insurance/axa-2e7672":{"name":"AXA","locationSet":{"include":["ae","ar","au","be","bh","bm","br","ca","ch","ci","cl","cm","cn","co","cz","de","dk","dz","eg","es","fi","fr","ga","gb","gr","hk","id","ie","in","it","jp","kr","lb","lu","ma","mu","mx","my","ng","nl","no","om","pa","pe","ph","pl","pt","qa","sa","se","sg","sk","sn","th","tr","tw","us"]},"geometry":["point","area"],"matchScore":2,"terms":["axa"],"fields":["name","brand","{office/insurance}"],"tags":{"brand:wikidata":"Q160054","office":"insurance"},"addTags":{"brand":"AXA","brand:wikidata":"Q160054","name":"AXA","office":"insurance"}},"shop/car_repair/goodyear-d2aca7":{"name":"Goodyear","locationSet":{"include":["au","ca","cl","pe","us"]},"geometry":["point","area"],"matchScore":2,"terms":["goodyear","goodyear auto service center","goodyear commercial tire & service centers"],"fields":["name","brand","{shop/car_repair}"],"tags":{"brand:wikidata":"Q620875","shop":"car_repair"},"addTags":{"brand":"Goodyear","brand:wikidata":"Q620875","name":"Goodyear","shop":"car_repair"}},"shop/clothes/underwear/lupo-a63afb":{"name":"Lupo","locationSet":{"include":["bo","br","pe","ve"]},"geometry":["point","area"],"matchScore":2,"terms":["lupo"],"reference":{"key":"clothes","value":"underwear"},"tags":{"brand:wikidata":"Q48855225","clothes":"underwear;sports","shop":"clothes"},"addTags":{"brand":"Lupo","brand:wikidata":"Q48855225","clothes":"underwear;sports","name":"Lupo","shop":"clothes"}},"shop/clothes/patagonia-5dc190":{"name":"Patagonia","locationSet":{"include":["ar","at","au","ca","cl","cn","cz","de","fx","gb","ie","it","jp","kr","pe","tw","us"]},"geometry":["point","area"],"matchScore":2,"terms":["patagonia"],"tags":{"brand:wikidata":"Q1660552","shop":"clothes"},"addTags":{"brand":"Patagonia","brand:wikidata":"Q1660552","clothes":"outdoor","name":"Patagonia","shop":"clothes"}},"shop/clothes/todomoda-69b017":{"name":"Todomoda","locationSet":{"include":["ar","br","cl","mx","pe"]},"geometry":["point","area"],"matchScore":2,"terms":["todomoda"],"tags":{"brand:wikidata":"Q115898759","shop":"clothes"},"addTags":{"brand":"Todomoda","brand:wikidata":"Q115898759","name":"Todomoda","shop":"clothes"}},"shop/convenience/oxxo-8364f9":{"name":"Oxxo","locationSet":{"include":["br","cl","co","cr","mx","pe","us"]},"geometry":["point","area"],"matchScore":2,"terms":["oxxo"],"tags":{"brand:wikidata":"Q1342538","shop":"convenience"},"addTags":{"brand":"Oxxo","brand:wikidata":"Q1342538","name":"Oxxo","shop":"convenience"}},"shop/convenience/tambo-853840":{"name":"Tambo+","locationSet":{"include":["pe"]},"geometry":["point","area"],"matchScore":2,"terms":["tambo+"],"tags":{"brand:wikidata":"Q64516439","shop":"convenience"},"addTags":{"brand":"Tambo+","brand:wikidata":"Q64516439","name":"Tambo+","shop":"convenience"}},"shop/convenience/vival-12cc61":{"name":"Vival","locationSet":{"include":["fr","pe"]},"geometry":["point","area"],"matchScore":2,"terms":["vival"],"tags":{"brand:wikidata":"Q7937525","shop":"convenience"},"addTags":{"brand":"Vival","brand:wikidata":"Q7937525","name":"Vival","shop":"convenience"}},"shop/department_store/elektra-95a469":{"name":"Elektra","locationSet":{"include":["gt","hn","mx","pa","pe","sv"]},"geometry":["point","area"],"matchScore":2,"terms":["elektra"],"tags":{"brand:wikidata":"Q1142753","shop":"department_store"},"addTags":{"brand":"Elektra","brand:wikidata":"Q1142753","name":"Elektra","shop":"department_store"}},"shop/department_store/falabella-f2bfac":{"name":"Falabella","locationSet":{"include":["ar","cl","co","pe"]},"geometry":["point","area"],"matchScore":2,"terms":["falabella","saga falabella"],"tags":{"brand:wikidata":"Q5135229","shop":"department_store"},"addTags":{"brand":"Falabella","brand:wikidata":"Q5135229","name":"Falabella","shop":"department_store"}},"shop/department_store/oechsle-5dd0d8":{"name":"Oechsle","locationSet":{"include":["pe"]},"geometry":["point","area"],"matchScore":2,"terms":["oechsle"],"tags":{"brand:wikidata":"Q6049096","shop":"department_store"},"addTags":{"brand":"Oechsle","brand:wikidata":"Q6049096","name":"Oechsle","shop":"department_store"}},"shop/department_store/paris-f81fcb":{"name":"París","locationSet":{"include":["cl","pe"]},"geometry":["point","area"],"matchScore":2,"terms":["parís"],"tags":{"brand:wikidata":"Q20812805","shop":"department_store"},"addTags":{"brand":"París","brand:wikidata":"Q20812805","name":"París","shop":"department_store"}},"shop/department_store/ripley-f81fcb":{"name":"Ripley","locationSet":{"include":["cl","pe"]},"geometry":["point","area"],"matchScore":2,"terms":["ripley"],"tags":{"brand:wikidata":"Q3433040","shop":"department_store"},"addTags":{"brand":"Ripley","brand:wikidata":"Q3433040","name":"Ripley","shop":"department_store"}},"shop/doityourself/promart-2f83d4":{"name":"Promart","locationSet":{"include":["pe"]},"geometry":["point","area"],"matchScore":2,"terms":["promart"],"tags":{"brand:wikidata":"Q17626095","shop":"doityourself"},"addTags":{"brand":"Promart","brand:wikidata":"Q17626095","name":"Promart","shop":"doityourself"}},"shop/doityourself/sodimac-0b4811":{"name":"Sodimac","locationSet":{"include":["ar","br","cl","co","mx","pe","uy"]},"geometry":["point","area"],"matchScore":2,"terms":["sodimac","sodimac constructor"],"tags":{"brand:wikidata":"Q7553274","shop":"doityourself"},"addTags":{"brand":"Sodimac","brand:wikidata":"Q7553274","name":"Sodimac","shop":"doityourself"}},"shop/electronics/elektra-10d776":{"name":"Elektra","locationSet":{"include":["gt","hn","pa","pe","sv"]},"geometry":["point","area"],"matchScore":2,"terms":["elektra"],"tags":{"brand:wikidata":"Q1142753","shop":"electronics"},"addTags":{"brand":"Elektra","brand:wikidata":"Q1142753","name":"Elektra","shop":"electronics"}},"shop/erotic/adamandeve-3dd49d":{"name":"Adam & Eve","locationSet":{"include":["ca","pe","us"]},"geometry":["point","area"],"matchScore":2,"terms":["adam & eve"],"tags":{"brand:wikidata":"Q4678604","shop":"erotic"},"addTags":{"brand":"Adam & Eve","brand:wikidata":"Q4678604","name":"Adam & Eve","shop":"erotic"}},"shop/fashion_accessories/chillibeans-a3a9e0":{"name":"Chilli Beans","locationSet":{"include":["br","co","kw","pe","pt","us"]},"geometry":["point","area"],"matchScore":2,"terms":["chilli beans"],"tags":{"brand:wikidata":"Q18463851","shop":"fashion_accessories"},"addTags":{"brand":"Chilli Beans","brand:wikidata":"Q18463851","name":"Chilli Beans","shop":"fashion_accessories"}},"shop/hairdresser/marcoaldany-d15f75":{"name":"Marco Aldany","locationSet":{"include":["es","hn","in","ma","mx","pa","pe","pl"]},"geometry":["point","area"],"matchScore":2,"terms":["marco aldany"],"tags":{"brand:wikidata":"Q112095114","shop":"hairdresser"},"addTags":{"brand":"Marco Aldany","brand:wikidata":"Q112095114","name":"Marco Aldany","shop":"hairdresser"}},"shop/hairdresser_supply/sallybeauty-0c832a":{"name":"Sally Beauty","locationSet":{"include":["be","ca","cl","de","es","fr","gb","ie","mx","nl","pe","pr","us"]},"geometry":["point","area"],"matchScore":2,"terms":["sally beauty","sally beauty supply"],"tags":{"brand:wikidata":"Q7405065","shop":"hairdresser_supply"},"addTags":{"alt_name":"Sally Beauty Supply","brand":"Sally Beauty","brand:wikidata":"Q7405065","name":"Sally Beauty","shop":"hairdresser_supply"}},"shop/jewelry/hstern-5f2e62":{"name":"H. Stern","locationSet":{"include":["ar","br","fr","gb","il","mx","pe","ru","us"]},"geometry":["point","area"],"matchScore":2,"terms":["h. stern"],"tags":{"brand:wikidata":"Q2660388","shop":"jewelry"},"addTags":{"brand":"H. Stern","brand:wikidata":"Q2660388","name":"H. Stern","shop":"jewelry"}},"shop/mobile_phone/claro-1c9651":{"name":"Claro","locationSet":{"include":["ar","br","cl","co","cr","do","ec","gt","hn","ni","pa","pe","pr","py","sv","uy"]},"geometry":["point","area"],"matchScore":2,"terms":["claro","claro brasil"],"tags":{"brand:wikidata":"Q1770208","shop":"mobile_phone"},"addTags":{"brand":"Claro","brand:wikidata":"Q1770208","name":"Claro","shop":"mobile_phone"}},"shop/mobile_phone/entel-5960ea":{"name":"Entel","locationSet":{"include":["cl","pe"]},"geometry":["point","area"],"matchScore":2,"terms":["entel"],"tags":{"brand:wikidata":"Q450420","shop":"mobile_phone"},"addTags":{"brand":"Entel","brand:wikidata":"Q450420","name":"Entel","shop":"mobile_phone"}},"shop/mobile_phone/movistar-de0f48":{"name":"Movistar","locationSet":{"include":["ar","cl","co","cr","ec","es","gt","mx","ni","pa","pe","sv","uy","ve"]},"geometry":["point","area"],"matchScore":2,"terms":["movistar","movistar españa"],"tags":{"brand:wikidata":"Q967735","shop":"mobile_phone"},"addTags":{"brand":"Movistar","brand:wikidata":"Q967735","name":"Movistar","shop":"mobile_phone"}},"shop/perfumery/equivalenza-59ad61":{"name":"Equivalenza","locationSet":{"include":["ad","ao","at","be","ca","cv","de","do","es","fr","gb","gr","gt","ie","it","mx","mz","nl","pe","pt","ro","tn"]},"geometry":["point","area"],"matchScore":2,"terms":["equivalenza"],"tags":{"brand:wikidata":"Q104649798","shop":"perfumery"},"addTags":{"brand":"Equivalenza","brand:wikidata":"Q104649798","name":"Equivalenza","shop":"perfumery"}},"shop/sports/marathonsports-ce6e12":{"name":"Marathon Sports (Ecuador)","locationSet":{"include":["bo","ec","pe"]},"geometry":["point","area"],"matchScore":2,"terms":["marathon sports"],"tags":{"brand:wikidata":"Q3027516","shop":"sports"},"addTags":{"brand":"Marathon Sports","brand:wikidata":"Q3027516","name":"Marathon Sports","shop":"sports"}},"shop/supermarket/metro-acfc90":{"name":"Metro (Perú)","locationSet":{"include":["pe"]},"geometry":["point","area"],"matchScore":2,"terms":["metro"],"tags":{"brand:wikidata":"Q16640217","shop":"supermarket"},"addTags":{"brand":"Metro","brand:wikidata":"Q16640217","name":"Metro","shop":"supermarket"}},"shop/supermarket/plazavea-acfc90":{"name":"Plaza Vea","locationSet":{"include":["pe"]},"geometry":["point","area"],"matchScore":2,"terms":["plaza vea"],"tags":{"brand:wikidata":"Q7203672","shop":"supermarket"},"addTags":{"brand":"Plaza Vea","brand:wikidata":"Q7203672","name":"Plaza Vea","shop":"supermarket"}},"shop/supermarket/tottus-b9e971":{"name":"Tottus","locationSet":{"include":["cl","pe"]},"geometry":["point","area"],"matchScore":2,"terms":["tottus"],"tags":{"brand:wikidata":"Q7828510","shop":"supermarket"},"addTags":{"brand":"Tottus","brand:wikidata":"Q7828510","name":"Tottus","shop":"supermarket"}},"shop/travel_agency/viajeselcorteingles-d900b5":{"name":"Viajes El Corte Inglés","locationSet":{"include":["ar","cl","co","do","ec","es","fr","it","mx","pa","pe","pt","uy"]},"geometry":["point","area"],"matchScore":2,"terms":["viajes el corte inglés"],"tags":{"brand:wikidata":"Q115268048","shop":"travel_agency"},"addTags":{"brand":"Viajes El Corte Inglés","brand:wikidata":"Q115268048","name":"Viajes El Corte Inglés","shop":"travel_agency"}},"shop/variety_store/dollarcity-8f2567":{"name":"Dollarcity","locationSet":{"include":["co","gt","pe","sv"]},"geometry":["point","area"],"matchScore":2,"terms":["dollarcity"],"tags":{"brand:wikidata":"Q107120814","shop":"variety_store"},"addTags":{"brand":"Dollarcity","brand:wikidata":"Q107120814","name":"Dollarcity","shop":"variety_store"}},"tourism/hotel/iberostarhotelsandresorts-e0d9de":{"name":"Iberostar Hotels & Resorts","locationSet":{"include":["br","cv","do","es","gr","jm","ma","me","mx","pe","pt","tn","us"]},"geometry":["point","area"],"matchScore":2,"terms":["iberostar","iberostar hotels & resorts"],"fields":["name","brand","{tourism/hotel}"],"tags":{"brand:wikidata":"Q2035939","tourism":"hotel"},"addTags":{"brand":"Iberostar Hotels & Resorts","brand:wikidata":"Q2035939","tourism":"hotel"}},"tourism/hotel/motto-f20008":{"name":"Motto by Hilton","locationSet":{"include":["mx","nl","pe","us"]},"geometry":["point","area"],"matchScore":2,"terms":["motto","motto by hilton"],"fields":["name","brand","{tourism/hotel}"],"tags":{"brand:wikidata":"Q112144350","tourism":"hotel"},"addTags":{"brand":"Motto","brand:wikidata":"Q112144350","name":"Motto","official_name":"Motto by Hilton","tourism":"hotel"}},"tourism/hotel/sonesta-690134":{"name":"Sonesta","locationSet":{"include":["ca","cl","co","ec","eg","pe","sx","us"]},"geometry":["point","area"],"matchScore":2,"terms":["sonesta","sonesta hotel"],"fields":["name","brand","{tourism/hotel}"],"tags":{"brand:wikidata":"Q81003878","tourism":"hotel"},"addTags":{"alt_name":"Sonesta Hotel","brand":"Sonesta","brand:wikidata":"Q81003878","name":"Sonesta","tourism":"hotel"}},"amenity/clinic/essalud-aa2e69":{"name":"Essalud","locationSet":{"include":["pe"]},"geometry":["point","area"],"matchScore":2,"terms":["essalud"],"fields":["name","operator","{amenity/clinic}"],"reference":{"key":"amenity","value":"clinic"},"tags":{"amenity":"clinic","operator:wikidata":"Q6123930"},"addTags":{"amenity":"clinic","healthcare":"clinic","operator":"Essalud","operator:wikidata":"Q6123930"}},"amenity/clinic/gobiernoregional-aa2e69":{"name":"Gobierno Regional (Perú)","locationSet":{"include":["pe"]},"geometry":["point","area"],"matchScore":2,"terms":["gobierno regional"],"fields":["name","operator","{amenity/clinic}"],"reference":{"key":"amenity","value":"clinic"},"tags":{"amenity":"clinic","operator:wikidata":"Q3824815"},"addTags":{"amenity":"clinic","healthcare":"clinic","operator":"Gobierno Regional","operator:wikidata":"Q3824815"}},"amenity/clinic/ministeriodesaluddelperu-aa2e69":{"name":"Ministerio de Salud del Perú","locationSet":{"include":["pe"]},"geometry":["point","area"],"matchScore":2,"terms":["ministerio de salud del perú","minsa"],"fields":["name","operator","{amenity/clinic}"],"reference":{"key":"amenity","value":"clinic"},"tags":{"amenity":"clinic","operator:wikidata":"Q3065012"},"addTags":{"amenity":"clinic","healthcare":"clinic","operator":"Ministerio de Salud del Perú","operator:short":"MINSA","operator:wikidata":"Q3065012"}},"amenity/hospital/gobiernoregional-d29164":{"name":"Gobierno Regional (Perú)","locationSet":{"include":["pe"]},"geometry":["area","point"],"matchScore":2,"terms":["gobierno regional"],"fields":["name","operator","{amenity/hospital}"],"reference":{"key":"amenity","value":"hospital"},"tags":{"amenity":"hospital","operator:wikidata":"Q3824815"},"addTags":{"amenity":"hospital","healthcare":"hospital","operator":"Gobierno Regional","operator:wikidata":"Q3824815"}},"amenity/hospital/ministeriodesalud-d29164":{"name":"Ministerio de Salud (Perú)","locationSet":{"include":["pe"]},"geometry":["area","point"],"matchScore":2,"terms":["ministerio de salud","minsa"],"fields":["name","operator","{amenity/hospital}"],"reference":{"key":"amenity","value":"hospital"},"tags":{"amenity":"hospital","operator:wikidata":"Q3065012"},"addTags":{"amenity":"hospital","healthcare":"hospital","operator":"Ministerio de Salud","operator:short":"MINSA","operator:wikidata":"Q3065012"}},"amenity/hospital/municipalidadmetropolitanadelima-d29164":{"name":"Municipalidad Metropolitana de Lima","locationSet":{"include":["pe"]},"geometry":["area","point"],"matchScore":2,"terms":["municipalidad metropolitana de lima"],"fields":["name","operator","{amenity/hospital}"],"reference":{"key":"amenity","value":"hospital"},"tags":{"amenity":"hospital","operator:wikidata":"Q12184118"},"addTags":{"amenity":"hospital","healthcare":"hospital","operator":"Municipalidad Metropolitana de Lima","operator:wikidata":"Q12184118"}},"amenity/hospital/segurosocialdesalud-d29164":{"name":"Seguro Social de Salud (Perú)","locationSet":{"include":["pe"]},"geometry":["area","point"],"matchScore":2,"terms":["essalud","seguro social de salud"],"fields":["name","operator","{amenity/hospital}"],"reference":{"key":"amenity","value":"hospital"},"tags":{"amenity":"hospital","operator:wikidata":"Q6123930"},"addTags":{"amenity":"hospital","healthcare":"hospital","operator":"Seguro Social de Salud","operator:short":"Essalud","operator:wikidata":"Q6123930"}},"amenity/police/policianacionaldelperu-67e8f0":{"name":"Policía Nacional del Perú","locationSet":{"include":["pe"]},"geometry":["point","area"],"matchScore":2,"terms":["policia nacional","policía nacional del perú"],"tags":{"amenity":"police","operator:wikidata":"Q6320215"},"addTags":{"amenity":"police","operator":"Policía Nacional del Perú","operator:wikidata":"Q6320215"}},"amenity/post_box/serpost-7393da":{"name":"Serpost","locationSet":{"include":["pe"]},"geometry":["point","vertex"],"matchScore":2,"terms":["serpost","serpost sa","servicios postales del peru","servicios postales del peru sa"],"tags":{"amenity":"post_box","operator:wikidata":"Q19521863"},"addTags":{"amenity":"post_box","operator":"Serpost","operator:wikidata":"Q19521863"}},"amenity/post_office/serpost-41842d":{"name":"Serpost","locationSet":{"include":["pe"]},"geometry":["point","area"],"matchScore":2,"terms":["serpost","serpost sa","servicios postales del peru","servicios postales del peru sa"],"fields":["name","operator","{amenity/post_office}"],"tags":{"amenity":"post_office","operator:wikidata":"Q19521863"},"addTags":{"amenity":"post_office","operator":"Serpost","operator:wikidata":"Q19521863"}},"amenity/prison/institutonacionalpenitenciario-e9927b":{"name":"Instituto Nacional Penitenciario","locationSet":{"include":["pe"]},"geometry":["area","point"],"matchScore":2,"terms":["inpe","instituto nacional penitenciario","instituto nacional penitenciario del perú"],"fields":["name","operator","{amenity/prison}"],"tags":{"amenity":"prison","operator:wikidata":"Q6974856"},"addTags":{"amenity":"prison","operator":"Instituto Nacional Penitenciario","operator:wikidata":"Q6974856"}},"amenity/telephone/claro-6490cd":{"name":"Claro","locationSet":{"include":["ai","ag","aw","bs","bb","bq","vg","ky","cu","cw","dm","do","gd","gp","ht","jm","mq","ms","pr","bl","kn","lc","mf","vc","sx","tt","tc","vi","bz","cr","sv","gt","hn","mx","ni","pa","ar","bo","bv","br","cl","co","ec","fk","gf","gy","py","pe","gs","sr","uy","ve"]},"geometry":["point","vertex"],"matchScore":2,"terms":["claro"],"fields":["name","operator","{amenity/telephone}"],"tags":{"amenity":"telephone","operator:wikidata":"Q1770208"},"addTags":{"amenity":"telephone","operator":"Claro","operator:wikidata":"Q1770208"}},"boundary/servicionacionaldeareasnaturalesprotegidasporelestado-2c37fa":{"name":"Servicio Nacional de Áreas Naturales Protegidas por el Estado","locationSet":{"include":["pe"]},"geometry":["line"],"matchScore":2,"terms":["sernanp","servicio nacional de áreas naturales protegidas por el estado"],"tags":{"boundary":"protected_area","operator:wikidata":"Q19521797"},"addTags":{"boundary":"protected_area","operator":"Servicio Nacional de Áreas Naturales Protegidas por el Estado","operator:short":"SERNANP","operator:wikidata":"Q19521797"}},"leisure/nature_reserve/municipalidadprovincialdesullana-5e3ba0":{"name":"Municipalidad Provincial de Sullana","locationSet":{"include":["pe"]},"geometry":["area","point"],"matchScore":2,"terms":["municipalidad provincial de sullana"],"tags":{"leisure":"nature_reserve","operator:wikidata":"Q510413"},"addTags":{"leisure":"nature_reserve","operator":"Municipalidad Provincial de Sullana","operator:type":"public","operator:wikidata":"Q510413"}},"leisure/nature_reserve/serviciodeparquesdelima-5e3ba0":{"name":"Servicio de Parques de Lima","locationSet":{"include":["pe"]},"geometry":["area","point"],"matchScore":2,"terms":["servicio de parques de lima"],"tags":{"leisure":"nature_reserve","operator:wikidata":"Q30083612"},"addTags":{"leisure":"nature_reserve","operator":"Servicio de Parques de Lima","operator:type":"public","operator:wikidata":"Q30083612"}},"leisure/park/municipalidadprovincialdesullana-2a5779":{"name":"Municipalidad Provincial de Sullana","locationSet":{"include":["pe"]},"geometry":["area","point"],"matchScore":2,"terms":["municipalidad provincial de sullana"],"tags":{"leisure":"park","operator:wikidata":"Q510413"},"addTags":{"leisure":"park","operator":"Municipalidad Provincial de Sullana","operator:type":"public","operator:wikidata":"Q510413"}},"leisure/park/serviciodeparquesdelima-2a5779":{"name":"Servicio de Parques de Lima","locationSet":{"include":["pe"]},"geometry":["area","point"],"matchScore":2,"terms":["servicio de parques de lima"],"tags":{"leisure":"park","operator:wikidata":"Q30083612"},"addTags":{"leisure":"park","operator":"Servicio de Parques de Lima","operator:type":"public","operator:wikidata":"Q30083612"}},"office/energy_supplier/naturgy-e15d8a":{"name":"Naturgy","locationSet":{"include":["ar","au","be","br","cl","cn","cr","de","do","dz","eg","es","fr","gb","ie","in","jm","jo","jp","lu","ma","mx","nl","om","pa","pe","pk","pr","pt","sg"]},"geometry":["point","area"],"matchScore":2,"terms":["naturgy"],"tags":{"office":"energy_supplier","operator:wikidata":"Q474690"},"addTags":{"name":"Naturgy","office":"energy_supplier","operator":"Naturgy","operator:wikidata":"Q474690"}},"power/substation/eneldistribucionperu-c900f8":{"name":"Enel Distribución Perú","locationSet":{"include":["pe"]},"geometry":["area","point"],"matchScore":2,"terms":["enel distribución perú"],"tags":{"operator:wikidata":"Q72718459","power":"substation"},"addTags":{"operator":"Enel Distribución Perú","operator:wikidata":"Q72718459","power":"substation"}},"power/substation/luzdelsur-c900f8":{"name":"Luz del Sur","locationSet":{"include":["pe"]},"geometry":["area","point"],"matchScore":2,"terms":["luz del sur"],"tags":{"operator:wikidata":"Q6706549","power":"substation"},"addTags":{"operator":"Luz del Sur","operator:wikidata":"Q6706549","power":"substation"}},"power/transformer/eneldistribucionperu-40a90a":{"name":"Enel Distribución Perú","locationSet":{"include":["pe"]},"geometry":["point","vertex"],"matchScore":2,"terms":["enel distribución perú"],"tags":{"operator:wikidata":"Q72718459","power":"transformer"},"addTags":{"operator":"Enel Distribución Perú","operator:wikidata":"Q72718459","power":"transformer"}},"power/transformer/luzdelsur-40a90a":{"name":"Luz del Sur","locationSet":{"include":["pe"]},"geometry":["point","vertex"],"matchScore":2,"terms":["luz del sur"],"tags":{"operator:wikidata":"Q6706549","power":"transformer"},"addTags":{"operator":"Luz del Sur","operator:wikidata":"Q6706549","power":"transformer"}},"public_transport/platform/bus_point/sit-5bc3ec":{"name":"SIT (Lima y Callao)","locationSet":{"include":["pe"]},"geometry":["point","vertex"],"matchScore":2,"terms":["sit"],"reference":{"key":"public_transport","value":"platform"},"tags":{"bus":"yes","network:wikidata":"Q64707076","public_transport":"platform"},"addTags":{"bus":"yes","highway":"bus_stop","network":"SIT","network:wikidata":"Q64707076","public_transport":"platform"}},"type/route/bus/sit-490758":{"name":"SIT (Lima y Callao)","locationSet":{"include":["pe"]},"geometry":["relation"],"matchScore":2,"terms":["sit"],"reference":{"key":"route","value":"bus"},"tags":{"network:wikidata":"Q64707076","route":"bus","type":"route"},"addTags":{"network":"SIT","network:wikidata":"Q64707076","route":"bus","type":"route"}}}