{"amenity/atm/hawaiianfirstbank-bc3288":{"name":"Hawaiian First Bank","locationSet":{"include":["gu","mp","us-hi"]},"geometry":["point","vertex"],"matchScore":2,"terms":["hawaiian first bank"],"fields":["name","brand","{amenity/atm}"],"tags":{"amenity":"atm","brand:wikidata":"Q3072937"},"addTags":{"amenity":"atm","brand":"Hawaiian First Bank","brand:wikidata":"Q3072937","operator":"Hawaiian First Bank","operator:wikidata":"Q3072937"}},"amenity/bank/hawaiianfirstbank-ae6ba2":{"name":"Hawaiian First Bank","locationSet":{"include":["gu","mp","us-hi"]},"geometry":["point","area"],"matchScore":2,"terms":["hawaiian first bank"],"tags":{"amenity":"bank","brand:wikidata":"Q3072937"},"addTags":{"amenity":"bank","brand":"Hawaiian First Bank","brand:wikidata":"Q3072937","name":"Hawaiian First Bank"}},"amenity/fast_food/donut/winchellsdonuthouse-d02b6a":{"name":"Winchell's Donut House","locationSet":{"include":["gu","mp","sa","us"]},"geometry":["point","area"],"matchScore":2,"terms":["winchell's donut house","winchells donuts","winchells doughnut house","winchells doughnuts"],"reference":{"key":"cuisine","value":"donut"},"tags":{"amenity":"fast_food","brand:wikidata":"Q8023756","cuisine":"donut"},"addTags":{"amenity":"fast_food","brand":"Winchell's Donut House","brand:wikidata":"Q8023756","cuisine":"donut","name":"Winchell's Donut House","takeaway":"yes"}},"shop/department_store/lottedutyfree-8352b8":{"name":"Lotte Duty Free","locationSet":{"include":["au","gu","jp","kr","nz","th","vn"]},"geometry":["point","area"],"matchScore":2,"terms":["lotte duty free","롯데면세점","ロッテ免税"],"tags":{"brand:wikidata":"Q12594196","shop":"department_store"},"addTags":{"brand":"Lotte Duty Free","brand:wikidata":"Q12594196","duty_free":"yes","name":"Lotte Duty Free","name:en":"Lotte Duty Free","name:ja":"ロッテ免税","name:ko":"롯데면세점","shop":"department_store"}},"shop/shoes/naturalizer-856a0b":{"name":"Naturalizer","locationSet":{"include":["ca","cn","gu","us"]},"geometry":["point","area"],"matchScore":2,"terms":["naturalizer"],"tags":{"brand:wikidata":"Q65012038","shop":"shoes"},"addTags":{"brand":"Naturalizer","brand:wikidata":"Q65012038","name":"Naturalizer","shop":"shoes"}}}