{"amenity/atm/bancaribe-f50cd1":{"name":"Bancaribe","locationSet":{"include":["ve"]},"geometry":["point","vertex"],"matchScore":2,"terms":["bancaribe"],"fields":["name","brand","{amenity/atm}"],"tags":{"amenity":"atm","brand:wikidata":"Q5717827"},"addTags":{"amenity":"atm","brand":"Bancaribe","brand:wikidata":"Q5717827","operator":"Bancaribe","operator:wikidata":"Q5717827"}},"amenity/atm/bancobicentenario-f50cd1":{"name":"Banco Bicentenario","locationSet":{"include":["ve"]},"geometry":["point","vertex"],"matchScore":2,"terms":["banco bicentenario"],"fields":["name","brand","{amenity/atm}"],"tags":{"amenity":"atm","brand:wikidata":"Q5728123"},"addTags":{"amenity":"atm","brand":"Banco Bicentenario","brand:wikidata":"Q5728123","operator":"Banco Bicentenario","operator:wikidata":"Q5728123"}},"amenity/atm/bancodevenezuela-f50cd1":{"name":"Banco de Venezuela","locationSet":{"include":["ve"]},"geometry":["point","vertex"],"matchScore":2,"terms":["banco de venezuela","de venezuela","venezuela"],"fields":["name","brand","{amenity/atm}"],"tags":{"amenity":"atm","brand:wikidata":"Q517093"},"addTags":{"amenity":"atm","brand":"Banco de Venezuela","brand:wikidata":"Q517093","operator":"Banco de Venezuela","operator:wikidata":"Q517093"}},"amenity/atm/bancofondocomun-f50cd1":{"name":"Banco Fondo Común","locationSet":{"include":["ve"]},"geometry":["point","vertex"],"matchScore":2,"terms":["banco fondo común","bfc"],"fields":["name","brand","{amenity/atm}"],"tags":{"amenity":"atm","brand:wikidata":"Q5465007"},"addTags":{"amenity":"atm","brand":"Banco Fondo Común","brand:wikidata":"Q5465007","operator":"Banco Fondo Común","operator:wikidata":"Q5465007","short_name":"BFC"}},"amenity/atm/banconacionaldecredito-f50cd1":{"name":"Banco Nacional de Crédito","locationSet":{"include":["ve"]},"geometry":["point","vertex"],"matchScore":2,"terms":["banco nacional de crédito","bnc"],"fields":["name","brand","{amenity/atm}"],"tags":{"amenity":"atm","brand:wikidata":"Q4854103"},"addTags":{"amenity":"atm","brand":"Banco Nacional de Crédito","brand:wikidata":"Q4854103","operator":"Banco Nacional de Crédito","operator:wikidata":"Q4854103","short_name":"BNC"}},"amenity/atm/banesco-f50cd1":{"name":"Banesco","locationSet":{"include":["ve"]},"geometry":["point","vertex"],"matchScore":2,"terms":["banesco"],"fields":["name","brand","{amenity/atm}"],"tags":{"amenity":"atm","brand:wikidata":"Q4854841"},"addTags":{"amenity":"atm","brand":"Banesco","brand:wikidata":"Q4854841","operator":"Banesco","operator:wikidata":"Q4854841"}},"amenity/atm/bbvaprovincial-f50cd1":{"name":"BBVA Provincial","locationSet":{"include":["ve"]},"geometry":["point","vertex"],"matchScore":2,"terms":["banco provincial","bbva provincial"],"fields":["name","brand","{amenity/atm}"],"tags":{"amenity":"atm","brand:wikidata":"Q4835087"},"addTags":{"amenity":"atm","brand":"BBVA Provincial","brand:wikidata":"Q4835087","operator":"BBVA Provincial","operator:wikidata":"Q4835087"}},"amenity/atm/bicentenario-f50cd1":{"name":"Bicentenario","locationSet":{"include":["ve"]},"geometry":["point","vertex"],"matchScore":2,"terms":["bicentenario"],"fields":["name","brand","{amenity/atm}"],"tags":{"amenity":"atm","brand:wikidata":"Q5728123"},"addTags":{"amenity":"atm","brand":"Bicentenario","brand:wikidata":"Q5728123","operator":"Bicentenario","operator:wikidata":"Q5728123"}},"amenity/atm/occidentaldedescuento-f50cd1":{"name":"Occidental de Descuento","locationSet":{"include":["ve"]},"geometry":["point","vertex"],"matchScore":2,"terms":["occidental de descuento"],"fields":["name","brand","{amenity/atm}"],"tags":{"amenity":"atm","brand:wikidata":"Q4854108"},"addTags":{"amenity":"atm","brand":"Occidental de Descuento","brand:wikidata":"Q4854108","operator":"Occidental de Descuento","operator:wikidata":"Q4854108"}},"amenity/atm/provincial-f50cd1":{"name":"Provincial","locationSet":{"include":["ve"]},"geometry":["point","vertex"],"matchScore":2,"terms":["bbva provincial","provincial"],"fields":["name","brand","{amenity/atm}"],"tags":{"amenity":"atm","brand:wikidata":"Q4835087"},"addTags":{"amenity":"atm","brand":"Provincial","brand:wikidata":"Q4835087","operator":"Provincial","operator:wikidata":"Q4835087"}},"amenity/atm/tesoro-f50cd1":{"name":"Tesoro","locationSet":{"include":["ve"]},"geometry":["point","vertex"],"matchScore":2,"terms":["banco del tesoro","tesoro"],"fields":["name","brand","{amenity/atm}"],"tags":{"amenity":"atm","brand:wikidata":"Q5718196"},"addTags":{"amenity":"atm","brand":"Tesoro","brand:wikidata":"Q5718196","official_name":"Banco del Tesoro","operator":"Tesoro","operator:wikidata":"Q5718196"}},"amenity/bank/bancaribe-0269b0":{"name":"Bancaribe","locationSet":{"include":["ve"]},"geometry":["point","area"],"matchScore":2,"terms":["bancaribe"],"tags":{"amenity":"bank","brand:wikidata":"Q5717827"},"addTags":{"amenity":"bank","brand":"Bancaribe","brand:wikidata":"Q5717827","name":"Bancaribe"}},"amenity/bank/bancobicentenario-0269b0":{"name":"Banco Bicentenario","locationSet":{"include":["ve"]},"geometry":["point","area"],"matchScore":2,"terms":["banco bicentenario"],"tags":{"amenity":"bank","brand:wikidata":"Q5728123"},"addTags":{"amenity":"bank","brand":"Banco Bicentenario","brand:wikidata":"Q5728123","name":"Banco Bicentenario"}},"amenity/bank/bancodevenezuela-0269b0":{"name":"Banco de Venezuela","locationSet":{"include":["ve"]},"geometry":["point","area"],"matchScore":2,"terms":["banco de venezuela","de venezuela","venezuela"],"tags":{"amenity":"bank","brand:wikidata":"Q517093"},"addTags":{"amenity":"bank","brand":"Banco de Venezuela","brand:wikidata":"Q517093","name":"Banco de Venezuela"}},"amenity/bank/bancofondocomun-0269b0":{"name":"Banco Fondo Común","locationSet":{"include":["ve"]},"geometry":["point","area"],"matchScore":2,"terms":["banco fondo común","bfc"],"tags":{"amenity":"bank","brand:wikidata":"Q5465007"},"addTags":{"amenity":"bank","brand":"Banco Fondo Común","brand:wikidata":"Q5465007","name":"Banco Fondo Común","short_name":"BFC"}},"amenity/bank/banconacionaldecredito-0269b0":{"name":"Banco Nacional de Crédito","locationSet":{"include":["ve"]},"geometry":["point","area"],"matchScore":2,"terms":["banco nacional de crédito","bnc"],"tags":{"amenity":"bank","brand:wikidata":"Q4854103"},"addTags":{"amenity":"bank","brand":"Banco Nacional de Crédito","brand:wikidata":"Q4854103","name":"Banco Nacional de Crédito","short_name":"BNC"}},"amenity/bank/banesco-0269b0":{"name":"Banesco","locationSet":{"include":["ve"]},"geometry":["point","area"],"matchScore":2,"terms":["banesco"],"tags":{"amenity":"bank","brand:wikidata":"Q4854841"},"addTags":{"amenity":"bank","brand":"Banesco","brand:wikidata":"Q4854841","name":"Banesco"}},"amenity/bank/bbvaprovincial-0269b0":{"name":"BBVA Provincial","locationSet":{"include":["ve"]},"geometry":["point","area"],"matchScore":2,"terms":["banco provincial","bbva provincial"],"tags":{"amenity":"bank","brand:wikidata":"Q4835087"},"addTags":{"amenity":"bank","brand":"BBVA Provincial","brand:wikidata":"Q4835087","name":"BBVA Provincial"}},"amenity/bank/bicentenario-0269b0":{"name":"Bicentenario","locationSet":{"include":["ve"]},"geometry":["point","area"],"matchScore":2,"terms":["bicentenario"],"tags":{"amenity":"bank","brand:wikidata":"Q5728123"},"addTags":{"amenity":"bank","brand":"Bicentenario","brand:wikidata":"Q5728123","name":"Bicentenario"}},"amenity/bank/occidentaldedescuento-0269b0":{"name":"Occidental de Descuento","locationSet":{"include":["ve"]},"geometry":["point","area"],"matchScore":2,"terms":["occidental de descuento"],"tags":{"amenity":"bank","brand:wikidata":"Q4854108"},"addTags":{"amenity":"bank","brand":"Occidental de Descuento","brand:wikidata":"Q4854108","name":"Occidental de Descuento"}},"amenity/bank/provincial-0269b0":{"name":"Provincial","locationSet":{"include":["ve"]},"geometry":["point","area"],"matchScore":2,"terms":["bbva provincial","provincial"],"tags":{"amenity":"bank","brand:wikidata":"Q4835087"},"addTags":{"amenity":"bank","brand":"Provincial","brand:wikidata":"Q4835087","name":"Provincial"}},"amenity/bank/tesoro-0269b0":{"name":"Tesoro","locationSet":{"include":["ve"]},"geometry":["point","area"],"matchScore":2,"terms":["banco del tesoro","tesoro"],"tags":{"amenity":"bank","brand:wikidata":"Q5718196"},"addTags":{"amenity":"bank","brand":"Tesoro","brand:wikidata":"Q5718196","name":"Tesoro","official_name":"Banco del Tesoro"}},"amenity/fast_food/mrpretzels-c5a4fb":{"name":"Mr. Pretzels","locationSet":{"include":["br","ca","cl","eg","fr","il","kw","pr","uk","us","ve"]},"geometry":["point","area"],"matchScore":2,"terms":["mr. pretzels"],"tags":{"amenity":"fast_food","brand:wikidata":"Q115728208"},"addTags":{"amenity":"fast_food","brand":"Mr. Pretzels","brand:wikidata":"Q115728208","cuisine":"pretzel","name":"Mr. Pretzels","takeaway":"yes"}},"amenity/ice_cream/yogurtland-4111ef":{"name":"Yogurtland","locationSet":{"include":["ae","au","bh","kw","mm","qa","sa","sg","th","us","ve"]},"geometry":["point","area"],"matchScore":2,"terms":["yogurtland"],"tags":{"amenity":"ice_cream","brand:wikidata":"Q8054428"},"addTags":{"amenity":"ice_cream","brand":"Yogurtland","brand:wikidata":"Q8054428","cuisine":"frozen_yogurt","name":"Yogurtland","takeaway":"yes"}},"amenity/pharmacy/farmaciasaas-291746":{"name":"Farmacia SAAS","locationSet":{"include":["ve"]},"geometry":["point","area"],"matchScore":2,"terms":["farmacia saas"],"reference":{"key":"amenity","value":"pharmacy"},"tags":{"amenity":"pharmacy","brand:wikidata":"Q5856074"},"addTags":{"amenity":"pharmacy","brand":"Farmacia SAAS","brand:wikidata":"Q5856074","healthcare":"pharmacy","name":"Farmacia SAAS"}},"amenity/pharmacy/farmahorro-291746":{"name":"Farmahorro","locationSet":{"include":["ve"]},"geometry":["point","area"],"matchScore":2,"terms":["farmahorro"],"reference":{"key":"amenity","value":"pharmacy"},"tags":{"amenity":"pharmacy","brand:wikidata":"Q20015002"},"addTags":{"amenity":"pharmacy","brand":"Farmahorro","brand:wikidata":"Q20015002","healthcare":"pharmacy","name":"Farmahorro"}},"amenity/restaurant/crepesandwaffles-7b5290":{"name":"Crepes & Waffles","locationSet":{"include":["br","cl","co","ec","es","mx","pa","pe","ve"]},"geometry":["point","area"],"matchScore":2,"terms":["crepes & waffles"],"tags":{"amenity":"restaurant","brand:wikidata":"Q5184238"},"addTags":{"alt_name":"Crepes & Waffles","amenity":"restaurant","brand":"Crepes & Waffles","brand:wikidata":"Q5184238","cuisine":"crepe;ice_cream","name":"Crepes & Waffles"}},"shop/beauty/depylaction-69a669":{"name":"Depyl Action","locationSet":{"include":["br","ve"]},"geometry":["point","area"],"matchScore":2,"terms":["depyl action"],"tags":{"brand:wikidata":"Q115728327","shop":"beauty"},"addTags":{"beauty":"hair_removal","brand":"Depyl Action","brand:wikidata":"Q115728327","name":"Depyl Action","shop":"beauty"}},"shop/clothes/underwear/lupo-a63afb":{"name":"Lupo","locationSet":{"include":["bo","br","pe","ve"]},"geometry":["point","area"],"matchScore":2,"terms":["lupo"],"reference":{"key":"clothes","value":"underwear"},"tags":{"brand:wikidata":"Q48855225","clothes":"underwear;sports","shop":"clothes"},"addTags":{"brand":"Lupo","brand:wikidata":"Q48855225","clothes":"underwear;sports","name":"Lupo","shop":"clothes"}},"shop/mobile_phone/movistar-de0f48":{"name":"Movistar","locationSet":{"include":["ar","cl","co","cr","ec","es","gt","mx","ni","pa","pe","sv","uy","ve"]},"geometry":["point","area"],"matchScore":2,"terms":["movistar"],"tags":{"brand:wikidata":"Q967735","shop":"mobile_phone"},"addTags":{"brand":"Movistar","brand:wikidata":"Q967735","name":"Movistar","shop":"mobile_phone"}},"shop/perfumery/oboticario-40d28a":{"name":"O Boticário","locationSet":{"include":["ao","br","co","jp","mz","pt","py","sa","us","ve"]},"geometry":["point","area"],"matchScore":2,"terms":["o boticário"],"tags":{"brand:wikidata":"Q7073219","shop":"perfumery"},"addTags":{"brand":"O Boticário","brand:wikidata":"Q7073219","name":"O Boticário","shop":"perfumery"}},"amenity/hospital/institutovenezolanodelossegurossociales-0e934a":{"name":"Instituto Venezolano de los Seguros Sociales","locationSet":{"include":["ve"]},"geometry":["area","point"],"matchScore":2,"terms":["instituto venezolano de los seguros sociales","ivss"],"fields":["name","operator","{amenity/hospital}"],"reference":{"key":"amenity","value":"hospital"},"tags":{"amenity":"hospital","operator:wikidata":"Q6047563"},"addTags":{"amenity":"hospital","healthcare":"hospital","operator":"Instituto Venezolano de los Seguros Sociales","operator:short":"IVSS","operator:wikidata":"Q6047563"}},"amenity/hospital/ministeriodelpoderpopularparalasalud-0e934a":{"name":"Ministerio del Poder Popular para la Salud (Venezuela)","locationSet":{"include":["ve"]},"geometry":["area","point"],"matchScore":2,"terms":["ministerio de salud","ministerio del poder popular para la salud","mpps"],"fields":["name","operator","{amenity/hospital}"],"reference":{"key":"amenity","value":"hospital"},"tags":{"amenity":"hospital","operator:wikidata":"Q4141111"},"addTags":{"amenity":"hospital","healthcare":"hospital","operator":"Ministerio del Poder Popular para la Salud","operator:short":"MPPS","operator:wikidata":"Q4141111"}},"amenity/police/guardianacionalbolivarianadevenezuela-3383b4":{"name":"Guardia Nacional Bolivariana de Venezuela","locationSet":{"include":["ve"]},"geometry":["point","area"],"matchScore":2,"terms":["bolivarian national guard of venezuela","fuerzas armadas de cooperación","gnb","guardia nacional bolivariana de venezuela"],"tags":{"amenity":"police","operator:wikidata":"Q3095409"},"addTags":{"amenity":"police","operator":"Guardia Nacional Bolivariana de Venezuela","operator:en":"Bolivarian National Guard of Venezuela","operator:short":"GNB","operator:wikidata":"Q3095409"}},"amenity/police/policianacionalbolivariana-3383b4":{"name":"Policía Nacional Bolivariana","locationSet":{"include":["ve"]},"geometry":["point","area"],"matchScore":2,"terms":["bolivarian national police","pnb","policía nacional bolivariana"],"tags":{"amenity":"police","operator:wikidata":"Q7209712"},"addTags":{"amenity":"police","operator":"Policía Nacional Bolivariana","operator:en":"Bolivarian National Police","operator:short":"PNB","operator:wikidata":"Q7209712"}},"amenity/post_box/institutopostaltelegraficodevenezuela-6371df":{"name":"Instituto Postal Telegráfico de Venezuela","locationSet":{"include":["ve"]},"geometry":["point","vertex"],"matchScore":2,"terms":["instituto postal telegráfico de venezuela","ipostel"],"tags":{"amenity":"post_box","operator:wikidata":"Q30061585"},"addTags":{"alt_name":"IPOSTEL","amenity":"post_box","operator":"Instituto Postal Telegráfico de Venezuela","operator:wikidata":"Q30061585"}},"amenity/post_box/mrw-f1512b":{"name":"MRW","locationSet":{"include":["ad","es","gi","pt","ve"]},"geometry":["point","vertex"],"matchScore":2,"terms":["mrw"],"tags":{"amenity":"post_box","operator:wikidata":"Q23767821"},"addTags":{"amenity":"post_box","operator":"MRW","operator:wikidata":"Q23767821"}},"amenity/post_office/institutopostaltelegraficodevenezuela-de64fe":{"name":"Instituto Postal Telegráfico de Venezuela","locationSet":{"include":["ve"]},"geometry":["point","area"],"matchScore":2,"terms":["instituto postal telegráfico de venezuela","ipostel"],"fields":["name","operator","{amenity/post_office}"],"tags":{"amenity":"post_office","operator:wikidata":"Q30061585"},"addTags":{"alt_name":"IPOSTEL","amenity":"post_office","operator":"Instituto Postal Telegráfico de Venezuela","operator:wikidata":"Q30061585"}},"amenity/post_office/mrw-0a445b":{"name":"MRW","locationSet":{"include":["ad","es","gi","pt","ve"]},"geometry":["point","area"],"matchScore":2,"terms":["mrw"],"fields":["name","operator","{amenity/post_office}"],"tags":{"amenity":"post_office","operator:wikidata":"Q23767821"},"addTags":{"amenity":"post_office","operator":"MRW","operator:wikidata":"Q23767821"}},"amenity/telephone/cantv-da1b5a":{"name":"CANTV","locationSet":{"include":["ve"]},"geometry":["point","vertex"],"matchScore":2,"terms":["cantv"],"fields":["name","operator","{amenity/telephone}"],"tags":{"amenity":"telephone","operator:wikidata":"Q4302263"},"addTags":{"amenity":"telephone","operator":"CANTV","operator:wikidata":"Q4302263"}},"amenity/telephone/claro-6490cd":{"name":"Claro","locationSet":{"include":["ai","ag","aw","bs","bb","bq","vg","ky","cu","cw","dm","do","gd","gp","ht","jm","mq","ms","pr","bl","kn","lc","mf","vc","sx","tt","tc","vi","bz","cr","sv","gt","hn","mx","ni","pa","ar","bo","bv","br","cl","co","ec","fk","gf","gy","py","pe","gs","sr","uy","ve"]},"geometry":["point","vertex"],"matchScore":2,"terms":["claro"],"fields":["name","operator","{amenity/telephone}"],"tags":{"amenity":"telephone","operator:wikidata":"Q1770208"},"addTags":{"amenity":"telephone","operator":"Claro","operator:wikidata":"Q1770208"}},"boundary/institutonacionaldeparques-08aba9":{"name":"Instituto Nacional de Parques","locationSet":{"include":["ve"]},"geometry":["line"],"matchScore":2,"terms":["inparques","instituto nacional de parques"],"tags":{"boundary":"national_park","operator:wikidata":"Q5917567"},"addTags":{"boundary":"national_park","operator":"Instituto Nacional de Parques","operator:short":"Inparques","operator:wikidata":"Q5917567"}},"office/government/consejonacionalelectoral-b90a8d":{"name":"CNE","locationSet":{"include":["ve"]},"geometry":["point","area"],"matchScore":2,"terms":["cne","consejo nacional electoral"],"fields":["name","operator","{office/government}"],"tags":{"office":"government","operator:wikidata":"Q2890246"},"addTags":{"government":"election_commission","office":"government","operator":"Consejo Nacional Electoral","operator:short":"CNE","operator:wikidata":"Q2890246"}},"office/government/ministeriodeinterioryjusticia-b90a8d":{"name":"Ministerio de Interior y Justicia","locationSet":{"include":["ve"]},"geometry":["point","area"],"matchScore":2,"terms":["ministerio de interior y justicia"],"fields":["name","operator","{office/government}"],"tags":{"office":"government","operator:wikidata":"Q16607766"},"addTags":{"office":"government","operator":"Ministerio de Interior y Justicia","operator:wikidata":"Q16607766"}},"office/government/register_office/sarenministeriodeinterioryjusticia-b90a8d":{"name":"SAREN","locationSet":{"include":["ve"]},"geometry":["point","area"],"matchScore":2,"terms":["saren","saren, ministerio de interior y justicia"],"fields":["name","operator","{office/government/register_office}"],"reference":{"key":"government","value":"register_office"},"tags":{"government":"register_office","office":"government","operator:wikidata":"Q6126010"},"addTags":{"government":"register_office","office":"government","operator":"SAREN, Ministerio de Interior y Justicia","operator:short":"SAREN","operator:wikidata":"Q6126010"}},"power/line/corpoelec-220436":{"name":"Corpoelec","locationSet":{"include":["ve"]},"geometry":["line"],"matchScore":2,"terms":["corpoelec"],"tags":{"operator:wikidata":"Q5172366","power":"line"},"addTags":{"operator":"Corpoelec","operator:wikidata":"Q5172366","power":"line"}},"power/minor_line/corpoelec-4f3615":{"name":"Corpoelec","locationSet":{"include":["ve"]},"geometry":["line"],"matchScore":2,"terms":["corpoelec"],"tags":{"operator:wikidata":"Q5172366","power":"minor_line"},"addTags":{"operator":"Corpoelec","operator:wikidata":"Q5172366","power":"minor_line"}},"power/pole/corpoelec-1a0ccd":{"name":"Corpoelec","locationSet":{"include":["ve"]},"geometry":["point","vertex"],"matchScore":2,"terms":["corpoelec"],"tags":{"operator:wikidata":"Q5172366","power":"pole"},"addTags":{"operator":"Corpoelec","operator:wikidata":"Q5172366","power":"pole"}},"power/substation/corpoelec-ed6156":{"name":"Corpoelec","locationSet":{"include":["ve"]},"geometry":["area","point"],"matchScore":2,"terms":["corpoelec"],"tags":{"operator:wikidata":"Q5172366","power":"substation"},"addTags":{"operator":"Corpoelec","operator:wikidata":"Q5172366","power":"substation"}},"power/tower/corpoelec-46d8fc":{"name":"Corpoelec","locationSet":{"include":["ve"]},"geometry":["point","vertex"],"matchScore":2,"terms":["corpoelec"],"tags":{"operator:wikidata":"Q5172366","power":"tower"},"addTags":{"operator":"Corpoelec","operator:wikidata":"Q5172366","power":"tower"}},"power/transformer/corpoelec-eee9f7":{"name":"Corpoelec","locationSet":{"include":["ve"]},"geometry":["point","vertex"],"matchScore":2,"terms":["corpoelec"],"tags":{"operator:wikidata":"Q5172366","power":"transformer"},"addTags":{"operator":"Corpoelec","operator:wikidata":"Q5172366","power":"transformer"}},"type/route/subway/metrodecaracas-cd3374":{"name":"Metro de Caracas","locationSet":{"include":["ve"]},"geometry":["relation"],"matchScore":2,"terms":["metro de caracas"],"reference":{"key":"route","value":"subway"},"tags":{"network:wikidata":"Q1363954","route":"subway","type":"route"},"addTags":{"network":"Metro de Caracas","network:wikidata":"Q1363954","route":"subway","type":"route"}}}