{"amenity/atm/bankofafrica-0517a4":{"name":"Bank of Africa","locationSet":{"include":["bf","bi","bj","cd","ci","dj","et","fr","gh","ke","mg","ml","ne","rw","sn","tg","tz","ug"]},"geometry":["point","vertex"],"matchScore":2,"terms":["bank of africa","boa"],"tags":{"amenity":"atm","brand:wikidata":"Q2882627"},"addTags":{"amenity":"atm","brand":"Bank of Africa","brand:wikidata":"Q2882627","name":"Bank of Africa","operator":"Bank of Africa","operator:wikidata":"Q2882627","short_name":"BOA"}},"amenity/bank/bankofafrica-0bcfcb":{"name":"Bank of Africa","locationSet":{"include":["bf","bi","bj","cd","ci","dj","et","fr","gh","ke","mg","ml","ne","rw","sn","tg","tz","ug"]},"geometry":["point","area"],"matchScore":2,"terms":["bank of africa","boa"],"tags":{"amenity":"bank","brand:wikidata":"Q2882627"},"addTags":{"amenity":"bank","brand":"Bank of Africa","brand:wikidata":"Q2882627","name":"Bank of Africa","short_name":"BOA"}},"amenity/fuel/total-389b37":{"name":"Total طوطال","locationSet":{"include":["dj","er","ma"]},"geometry":["point","area"],"matchScore":2,"terms":["total","طوطال"],"fields":["name","brand","{amenity/fuel}"],"tags":{"amenity":"fuel","brand:wikidata":"Q154037"},"addTags":{"amenity":"fuel","brand":"طوطال","brand:ar":"طوطال","brand:en":"Total","brand:wikidata":"Q154037","name":"Total طوطال"}}}