{"advertising/totem/sol-688308":{"name":"Sol","locationSet":{"include":["ai","ag","aw","bs","bb","bq","vg","ky","cu","cw","dm","do","gd","gp","ht","jm","mq","ms","pr","bl","kn","lc","mf","vc","sx","tt","tc","vi","gf","gy","sr"]},"geometry":["point","line"],"matchScore":2,"terms":["sol"],"tags":{"advertising":"totem","brand:wikidata":"Q99939344"},"addTags":{"advertising":"totem","brand":"Sol","brand:wikidata":"Q99939344"}},"amenity/fast_food/pizza/marcospizza-70373b":{"name":"Marco's Pizza","locationSet":{"include":["bs","pr","us"]},"geometry":["point","area"],"matchScore":2,"terms":["marco's pizza","marcos"],"reference":{"key":"cuisine","value":"pizza"},"tags":{"amenity":"fast_food","brand:wikidata":"Q6757382","cuisine":"pizza"},"addTags":{"amenity":"fast_food","brand":"Marco's Pizza","brand:wikidata":"Q6757382","cuisine":"pizza","name":"Marco's Pizza","takeaway":"yes"}},"amenity/fuel/sol-6e9b5c":{"name":"Sol","locationSet":{"include":["ai","ag","aw","bs","bb","bq","vg","ky","cu","cw","dm","do","gd","gp","ht","jm","mq","ms","pr","bl","kn","lc","mf","vc","sx","tt","tc","vi","gf","gy","sr"]},"geometry":["point","area"],"matchScore":2,"terms":["sol"],"fields":["name","brand","{amenity/fuel}"],"tags":{"amenity":"fuel","brand:wikidata":"Q99939344"},"addTags":{"amenity":"fuel","brand":"Sol","brand:wikidata":"Q99939344","name":"Sol"}},"amenity/ice_cream/frozen_yogurt/menchies-411174":{"name":"Menchie's","locationSet":{"include":["ae","bh","bs","ca","cn","gb","in","jp","kw","qa","sa","us"]},"geometry":["point","area"],"matchScore":2,"terms":["menchie's","menchie's frozen yoghurt","menchie's frozen yogurt"],"reference":{"key":"cuisine","value":"frozen_yogurt"},"tags":{"amenity":"ice_cream","brand:wikidata":"Q6816528","cuisine":"frozen_yogurt"},"addTags":{"amenity":"ice_cream","brand":"Menchie's","brand:wikidata":"Q6816528","cuisine":"frozen_yogurt","name":"Menchie's"}},"amenity/telephone/claro-6490cd":{"name":"Claro","locationSet":{"include":["ai","ag","aw","bs","bb","bq","vg","ky","cu","cw","dm","do","gd","gp","ht","jm","mq","ms","pr","bl","kn","lc","mf","vc","sx","tt","tc","vi","bz","cr","sv","gt","hn","mx","ni","pa","ar","bo","bv","br","cl","co","ec","fk","gf","gy","py","pe","gs","sr","uy","ve"]},"geometry":["point","vertex"],"matchScore":2,"terms":["claro"],"fields":["name","operator","{amenity/telephone}"],"tags":{"amenity":"telephone","operator:wikidata":"Q1770208"},"addTags":{"amenity":"telephone","operator":"Claro","operator:wikidata":"Q1770208"}},"boundary/bahamasnationaltrust-243c3a":{"name":"Bahamas National Trust","locationSet":{"include":["bs"]},"geometry":["line"],"matchScore":2,"terms":["bahamas national trust"],"tags":{"boundary":"national_park","operator:wikidata":"Q4842342"},"addTags":{"boundary":"national_park","operator":"Bahamas National Trust","operator:wikidata":"Q4842342"}},"power/generator/valero-7654ee":{"name":"Valero","locationSet":{"include":["ai","ag","aw","bs","bb","bq","vg","ky","cu","cw","dm","do","gd","gp","ht","jm","mq","ms","pr","bl","kn","lc","mf","vc","sx","tt","tc","vi","ca","us"]},"geometry":["point","vertex","area"],"matchScore":2,"terms":["valero"],"tags":{"operator:wikidata":"Q1283291","power":"generator"},"addTags":{"operator":"Valero","operator:wikidata":"Q1283291","power":"generator"}}}