{"amenity/atm/firstcitizensbank-1ff3d8":{"name":"First Citizens Bank (Trinidad and Tobago)","locationSet":{"include":["bb","tt"]},"geometry":["point","vertex"],"matchScore":2,"terms":["1st citizens bank","first citizens bank"],"fields":["name","brand","{amenity/atm}"],"tags":{"amenity":"atm","brand:wikidata":"Q5452734"},"addTags":{"amenity":"atm","brand":"First Citizens Bank","brand:wikidata":"Q5452734","operator":"First Citizens Bank","operator:wikidata":"Q5452734"}},"amenity/atm/republicbank-6b5972":{"name":"Republic Bank (Eastern Caribbean)","locationSet":{"include":["bb","gd","gy","tt"]},"geometry":["point","vertex"],"matchScore":2,"terms":["republic bank"],"fields":["name","brand","{amenity/atm}"],"tags":{"amenity":"atm","brand:wikidata":"Q7314386"},"addTags":{"amenity":"atm","brand":"Republic Bank","brand:wikidata":"Q7314386","operator":"Republic Bank","operator:wikidata":"Q7314386"}},"amenity/bank/firstcitizensbank-ffbbe8":{"name":"First Citizens Bank (Trinidad and Tobago)","locationSet":{"include":["bb","tt"]},"geometry":["point","area"],"matchScore":2,"terms":["1st citizens bank","first citizens bank"],"tags":{"amenity":"bank","brand:wikidata":"Q5452734"},"addTags":{"amenity":"bank","brand":"First Citizens Bank","brand:wikidata":"Q5452734","name":"First Citizens Bank"}},"amenity/bank/republicbank-1e52aa":{"name":"Republic Bank (Eastern Caribbean)","locationSet":{"include":["bb","gd","gy","tt"]},"geometry":["point","area"],"matchScore":2,"terms":["republic bank"],"tags":{"amenity":"bank","brand:wikidata":"Q7314386"},"addTags":{"amenity":"bank","brand":"Republic Bank","brand:wikidata":"Q7314386","name":"Republic Bank"}},"amenity/fast_food/chicken/chefette-40578b":{"name":"Chefette","locationSet":{"include":["bb"]},"geometry":["point","area"],"matchScore":2,"terms":["chefette"],"reference":{"key":"cuisine","value":"chicken"},"tags":{"amenity":"fast_food","brand:wikidata":"Q5089525","cuisine":"chicken"},"addTags":{"amenity":"fast_food","brand":"Chefette","brand:wikidata":"Q5089525","cuisine":"chicken","name":"Chefette","takeaway":"yes"}},"amenity/fuel/sol-6e9b5c":{"name":"Sol","locationSet":{"include":["ai","ag","aw","bs","bb","bq","vg","ky","cu","cw","dm","do","gd","gp","ht","jm","mq","ms","pr","bl","kn","lc","mf","vc","sx","tt","tc","vi","gf","gy","sr"]},"geometry":["point","area"],"matchScore":2,"terms":["sol"],"fields":["name","brand","{amenity/fuel}"],"tags":{"amenity":"fuel","brand:wikidata":"Q99939344"},"addTags":{"amenity":"fuel","brand":"Sol","brand:wikidata":"Q99939344","name":"Sol"}},"amenity/telephone/claro-6490cd":{"name":"Claro","locationSet":{"include":["ai","ag","aw","bs","bb","bq","vg","ky","cu","cw","dm","do","gd","gp","ht","jm","mq","ms","pr","bl","kn","lc","mf","vc","sx","tt","tc","vi","bz","cr","sv","gt","hn","mx","ni","pa","ar","bo","bv","br","cl","co","ec","fk","gf","gy","py","pe","gs","sr","uy","ve"]},"geometry":["point","vertex"],"matchScore":2,"terms":["claro"],"fields":["name","operator","{amenity/telephone}"],"tags":{"amenity":"telephone","operator:wikidata":"Q1770208"},"addTags":{"amenity":"telephone","operator":"Claro","operator:wikidata":"Q1770208"}},"power/generator/valero-7654ee":{"name":"Valero","locationSet":{"include":["ai","ag","aw","bs","bb","bq","vg","ky","cu","cw","dm","do","gd","gp","ht","jm","mq","ms","pr","bl","kn","lc","mf","vc","sx","tt","tc","vi","ca","us"]},"geometry":["point","vertex","area"],"matchScore":2,"terms":["valero"],"tags":{"operator:wikidata":"Q1283291","power":"generator"},"addTags":{"operator":"Valero","operator:wikidata":"Q1283291","power":"generator"}}}