{"amenity/fuel/carenex-cfbbeb":{"name":"Carenex (カーエネクス)","locationSet":{"include":["ja"]},"geometry":["point","area"],"matchScore":2,"terms":["carenex","カーエネクス"],"fields":["name","brand","{amenity/fuel}"],"tags":{"amenity":"fuel","brand:wikidata":"Q119998631"},"addTags":{"amenity":"fuel","brand":"Carenex","brand:":"カーエネクス","brand:en":"Carenex","brand:wikidata":"Q119998631","name":"Carenex","name:en":"Carenex","name:ja":"カーエネクス"}},"amenity/fuel/solato-cfbbeb":{"name":"SOLATO","locationSet":{"include":["ja"]},"geometry":["point","area"],"matchScore":2,"terms":["solato"],"fields":["name","brand","{amenity/fuel}"],"tags":{"amenity":"fuel","brand:wikidata":"Q11444708"},"addTags":{"amenity":"fuel","brand":"SOLATO","brand:wikidata":"Q11444708","name":"SOLATO"}},"office/insurance/allianz-332499":{"name":"Allianz","locationSet":{"include":["ae","ar","at","au","be","bg","bh","bm","bn","br","ca","cg","ch","ci","cm","cn","co","cy","cz","de","dk","ee","eg","es","fi","fr","gb","gf","gg","gh","gp","gr","hk","hr","hu","id","ie","in","is","it","ja","ke","kr","kw","la","li","lk","lt","lu","lv","ma","mg","mx","my","ng","nl","no","nz","om","ph","pk","pl","pt","qa","ro","ru","sa","se","sg","si","sk","sn","th","tr","tw","ua","us","za"]},"geometry":["point","area"],"matchScore":2,"terms":["allianz","allianz versicherung"],"fields":["name","brand","{office/insurance}"],"tags":{"brand:wikidata":"Q487292","office":"insurance"},"addTags":{"brand":"Allianz","brand:wikidata":"Q487292","name":"Allianz","office":"insurance"}},"office/insurance/zurich-2d6c95":{"name":"Zurich","locationSet":{"include":["ae","at","au","be","bh","br","ca","ch","cl","cn","co","de","ec","es","fi","fr","gb","hk","id","ie","it","ja","kw","lb","li","lu","mx","my","nl","no","nz","om","pt","qa","se","sg","sk","tr","us"]},"geometry":["point","area"],"matchScore":2,"terms":["zurich"],"fields":["name","brand","{office/insurance}"],"tags":{"brand:wikidata":"Q230426","office":"insurance"},"addTags":{"brand":"Zurich","brand:wikidata":"Q230426","name":"Zurich","office":"insurance"}},"shop/tea/dammannfreres-14c0a7":{"name":"Dammann Frères","locationSet":{"include":["fr","it","ja","kr","lu"]},"geometry":["point","area"],"matchScore":2,"terms":["dammann frères"],"tags":{"brand:wikidata":"Q3012927","shop":"tea"},"addTags":{"brand":"Dammann Frères","brand:wikidata":"Q3012927","name":"Dammann Frères","shop":"tea"}}}