{"amenity/atm/allpoint-a81297":{"name":"Allpoint","locationSet":{"include":["au","ca","gb","mx","us"]},"geometry":["point","vertex"],"matchScore":2,"terms":["allpoint"],"fields":["name","brand","{amenity/atm}"],"tags":{"amenity":"atm","brand:wikidata":"Q4733264"},"addTags":{"amenity":"atm","brand":"Allpoint","brand:wikidata":"Q4733264"}},"amenity/atm/cardtronics-d0c754":{"name":"Cardtronics","locationSet":{"include":["au","ca","de","es","gb","ie","mx","nz","us","za"]},"geometry":["point","vertex"],"matchScore":2,"terms":["cardtronics"],"fields":["name","brand","{amenity/atm}"],"tags":{"amenity":"atm","brand:wikidata":"Q50239180"},"addTags":{"amenity":"atm","brand":"Cardtronics","brand:wikidata":"Q50239180"}},"amenity/atm/amp-53bc34":{"name":"AMP","locationSet":{"include":["au","nz"]},"geometry":["point","vertex"],"matchScore":2,"terms":["amp","amp bank","amp limited"],"fields":["name","brand","{amenity/atm}"],"tags":{"amenity":"atm","brand:wikidata":"Q295261"},"addTags":{"amenity":"atm","brand":"AMP","brand:wikidata":"Q295261","official_name":"AMP Limited","operator":"AMP","operator:wikidata":"Q295261"}},"amenity/atm/anz-53bc34":{"name":"ANZ","locationSet":{"include":["au","nz"]},"geometry":["point","vertex"],"matchScore":2,"terms":["anz","anz bank","australia and new zealand banking group limited"],"fields":["name","brand","{amenity/atm}"],"tags":{"amenity":"atm","brand:wikidata":"Q714641"},"addTags":{"amenity":"atm","brand":"ANZ","brand:wikidata":"Q714641","official_name":"Australia and New Zealand Banking Group Limited","operator":"ANZ","operator:wikidata":"Q714641"}},"amenity/atm/bankwest-8509c1":{"name":"Bankwest (Australia)","locationSet":{"include":["au"]},"geometry":["point","vertex"],"matchScore":2,"terms":["bankwest"],"fields":["name","brand","{amenity/atm}"],"tags":{"amenity":"atm","brand:wikidata":"Q4856817"},"addTags":{"amenity":"atm","brand":"Bankwest","brand:wikidata":"Q4856817","operator":"Bankwest","operator:wikidata":"Q4856817"}},"amenity/atm/bendigobank-8509c1":{"name":"Bendigo Bank","locationSet":{"include":["au"]},"geometry":["point","vertex"],"matchScore":2,"terms":["bendigo bank"],"fields":["name","brand","{amenity/atm}"],"tags":{"amenity":"atm","brand:wikidata":"Q4887077"},"addTags":{"amenity":"atm","brand":"Bendigo Bank","brand:wikidata":"Q4887077","operator":"Bendigo Bank","operator:wikidata":"Q4887077"}},"amenity/atm/bni-d4d2b6":{"name":"BNI","locationSet":{"include":["au","ca","gb","hk","id","jp","kr","mm","sg","us"]},"geometry":["point","vertex"],"matchScore":2,"terms":["bank bni","bank negara indonesia","bni"],"fields":["name","brand","{amenity/atm}"],"tags":{"amenity":"atm","brand:wikidata":"Q2882611"},"addTags":{"amenity":"atm","brand":"BNI","brand:wikidata":"Q2882611","official_name":"Bank Negara Indonesia","operator":"BNI","operator:wikidata":"Q2882611"}},"amenity/atm/bom-8509c1":{"name":"BOM","locationSet":{"include":["au"]},"geometry":["point","vertex"],"matchScore":2,"terms":["bank of melbourne","bom"],"fields":["name","brand","{amenity/atm}"],"tags":{"amenity":"atm","brand:wikidata":"Q4856151"},"addTags":{"amenity":"atm","brand":"BOM","brand:wikidata":"Q4856151","official_name":"Bank of Melbourne","operator":"BOM","operator:wikidata":"Q4856151"}},"amenity/atm/boq-8509c1":{"name":"BOQ","locationSet":{"include":["au"]},"geometry":["point","vertex"],"matchScore":2,"terms":["bank of queensland","boq"],"fields":["name","brand","{amenity/atm}"],"tags":{"amenity":"atm","brand:wikidata":"Q4856173"},"addTags":{"amenity":"atm","brand":"BOQ","brand:wikidata":"Q4856173","official_name":"Bank of Queensland","operator":"BOQ","operator:wikidata":"Q4856173"}},"amenity/atm/heritagebank-8509c1":{"name":"Heritage Bank (Australia)","locationSet":{"include":["au"]},"geometry":["point","vertex"],"matchScore":2,"terms":["heritage bank"],"fields":["name","brand","{amenity/atm}"],"tags":{"amenity":"atm","brand:wikidata":"Q5738690"},"addTags":{"amenity":"atm","brand":"Heritage Bank","brand:wikidata":"Q5738690","operator":"Heritage Bank","operator:wikidata":"Q5738690"}},"amenity/atm/nab-8509c1":{"name":"NAB","locationSet":{"include":["au"]},"geometry":["point","vertex"],"matchScore":2,"terms":["nab"],"fields":["name","brand","{amenity/atm}"],"tags":{"amenity":"atm","brand:wikidata":"Q1430985"},"addTags":{"amenity":"atm","brand":"NAB","brand:wikidata":"Q1430985","operator":"NAB","operator:wikidata":"Q1430985"}},"amenity/atm/rabobank-f970f3":{"name":"Rabobank","locationSet":{"include":["au","id","nl","nz","us"]},"geometry":["point","vertex"],"matchScore":2,"terms":["rabobank"],"fields":["name","brand","{amenity/atm}"],"tags":{"amenity":"atm","brand:wikidata":"Q252004"},"addTags":{"amenity":"atm","brand":"Rabobank","brand:wikidata":"Q252004","operator":"Rabobank","operator:wikidata":"Q252004"}},"amenity/atm/stgeorge-8509c1":{"name":"St.George","locationSet":{"include":["au"]},"geometry":["point","vertex"],"matchScore":2,"terms":["st.george","st.george bank"],"fields":["name","brand","{amenity/atm}"],"tags":{"amenity":"atm","brand:wikidata":"Q1606050"},"addTags":{"amenity":"atm","brand":"St.George","brand:wikidata":"Q1606050","operator":"St.George","operator:wikidata":"Q1606050"}},"amenity/atm/suncorp-8509c1":{"name":"Suncorp","locationSet":{"include":["au"]},"geometry":["point","vertex"],"matchScore":2,"terms":["suncorp"],"fields":["name","brand","{amenity/atm}"],"tags":{"amenity":"atm","brand:wikidata":"Q24189567"},"addTags":{"amenity":"atm","brand":"Suncorp","brand:wikidata":"Q24189567","operator":"Suncorp","operator:wikidata":"Q24189567"}},"amenity/atm/uob-441a96":{"name":"UOB","locationSet":{"include":["au","bn","ca","cn","gb","hk","id","in","jp","kr","mm","my","ph","sg","th","us","vn"]},"geometry":["point","vertex"],"matchScore":2,"terms":["united overseas bank","uob","大华银行"],"fields":["name","brand","{amenity/atm}"],"tags":{"amenity":"atm","brand:wikidata":"Q2064074"},"addTags":{"amenity":"atm","brand":"UOB","brand:wikidata":"Q2064074","brand:zh":"大华银行","name:zh":"大华银行","operator":"UOB","operator:wikidata":"Q2064074"}},"amenity/atm/westpac-53bc34":{"name":"Westpac","locationSet":{"include":["au","nz"]},"geometry":["point","vertex"],"matchScore":2,"terms":["westpac"],"fields":["name","brand","{amenity/atm}"],"tags":{"amenity":"atm","brand:wikidata":"Q2031726"},"addTags":{"amenity":"atm","brand":"Westpac","brand:wikidata":"Q2031726","operator":"Westpac","operator:wikidata":"Q2031726"}},"amenity/bank/amp-510934":{"name":"AMP","locationSet":{"include":["au","nz"]},"geometry":["point","area"],"matchScore":2,"terms":["amp","amp bank","amp limited"],"tags":{"amenity":"bank","brand:wikidata":"Q295261"},"addTags":{"amenity":"bank","brand":"AMP","brand:wikidata":"Q295261","name":"AMP","official_name":"AMP Limited"}},"amenity/bank/anz-510934":{"name":"ANZ","locationSet":{"include":["au","nz"]},"geometry":["point","area"],"matchScore":2,"terms":["anz","anz bank","australia and new zealand banking group limited"],"tags":{"amenity":"bank","brand:wikidata":"Q714641"},"addTags":{"amenity":"bank","brand":"ANZ","brand:wikidata":"Q714641","name":"ANZ","official_name":"Australia and New Zealand Banking Group Limited"}},"amenity/bank/bankwest-f304bd":{"name":"Bankwest (Australia)","locationSet":{"include":["au"]},"geometry":["point","area"],"matchScore":2,"terms":["bankwest"],"tags":{"amenity":"bank","brand:wikidata":"Q4856817"},"addTags":{"amenity":"bank","brand":"Bankwest","brand:wikidata":"Q4856817","name":"Bankwest"}},"amenity/bank/bendigobank-f304bd":{"name":"Bendigo Bank","locationSet":{"include":["au"]},"geometry":["point","area"],"matchScore":2,"terms":["bendigo bank"],"tags":{"amenity":"bank","brand:wikidata":"Q4887077"},"addTags":{"amenity":"bank","brand":"Bendigo Bank","brand:wikidata":"Q4887077","name":"Bendigo Bank"}},"amenity/bank/bni-27dfb6":{"name":"BNI","locationSet":{"include":["au","ca","gb","hk","id","jp","kr","mm","sg","us"]},"geometry":["point","area"],"matchScore":2,"terms":["bank bni","bank negara indonesia","bni"],"tags":{"amenity":"bank","brand:wikidata":"Q2882611"},"addTags":{"amenity":"bank","brand":"BNI","brand:wikidata":"Q2882611","name":"BNI","official_name":"Bank Negara Indonesia"}},"amenity/bank/bom-f304bd":{"name":"BOM","locationSet":{"include":["au"]},"geometry":["point","area"],"matchScore":2,"terms":["bank of melbourne","bom"],"tags":{"amenity":"bank","brand:wikidata":"Q4856151"},"addTags":{"amenity":"bank","brand":"BOM","brand:wikidata":"Q4856151","name":"BOM","official_name":"Bank of Melbourne"}},"amenity/bank/boq-f304bd":{"name":"BOQ","locationSet":{"include":["au"]},"geometry":["point","area"],"matchScore":2,"terms":["bank of queensland","boq"],"tags":{"amenity":"bank","brand:wikidata":"Q4856173"},"addTags":{"amenity":"bank","brand":"BOQ","brand:wikidata":"Q4856173","name":"BOQ","official_name":"Bank of Queensland"}},"amenity/bank/heritagebank-f304bd":{"name":"Heritage Bank (Australia)","locationSet":{"include":["au"]},"geometry":["point","area"],"matchScore":2,"terms":["heritage bank"],"tags":{"amenity":"bank","brand:wikidata":"Q5738690"},"addTags":{"amenity":"bank","brand":"Heritage Bank","brand:wikidata":"Q5738690","name":"Heritage Bank"}},"amenity/bank/nab-f304bd":{"name":"NAB","locationSet":{"include":["au"]},"geometry":["point","area"],"matchScore":2,"terms":["nab"],"tags":{"amenity":"bank","brand:wikidata":"Q1430985"},"addTags":{"amenity":"bank","brand":"NAB","brand:wikidata":"Q1430985","name":"NAB"}},"amenity/bank/rabobank-c61987":{"name":"Rabobank","locationSet":{"include":["au","id","nl","nz","us"]},"geometry":["point","area"],"matchScore":2,"terms":["rabobank"],"tags":{"amenity":"bank","brand:wikidata":"Q252004"},"addTags":{"amenity":"bank","brand":"Rabobank","brand:wikidata":"Q252004","name":"Rabobank"}},"amenity/bank/stgeorge-f304bd":{"name":"St.George","locationSet":{"include":["au"]},"geometry":["point","area"],"matchScore":2,"terms":["st.george","st.george bank"],"tags":{"amenity":"bank","brand:wikidata":"Q1606050"},"addTags":{"amenity":"bank","brand":"St.George","brand:wikidata":"Q1606050","name":"St.George"}},"amenity/bank/suncorp-f304bd":{"name":"Suncorp","locationSet":{"include":["au"]},"geometry":["point","area"],"matchScore":2,"terms":["suncorp"],"tags":{"amenity":"bank","brand:wikidata":"Q24189567"},"addTags":{"amenity":"bank","brand":"Suncorp","brand:wikidata":"Q24189567","name":"Suncorp"}},"amenity/bank/uob-dadccc":{"name":"UOB","locationSet":{"include":["au","bn","ca","cn","gb","hk","id","in","jp","kr","mm","my","ph","sg","th","us","vn"]},"geometry":["point","area"],"matchScore":2,"terms":["united overseas bank","uob","大华银行"],"tags":{"amenity":"bank","brand:wikidata":"Q2064074"},"addTags":{"amenity":"bank","brand":"UOB","brand:wikidata":"Q2064074","brand:zh":"大华银行","name":"UOB","name:zh":"大华银行"}},"amenity/bank/westpac-510934":{"name":"Westpac","locationSet":{"include":["au","nz"]},"geometry":["point","area"],"matchScore":2,"terms":["westpac"],"tags":{"amenity":"bank","brand:wikidata":"Q2031726"},"addTags":{"amenity":"bank","brand":"Westpac","brand:wikidata":"Q2031726","name":"Westpac"}},"amenity/bar/flightclub-dd725d":{"name":"Flight Club","locationSet":{"include":["au","gb","us"]},"geometry":["point","area"],"matchScore":2,"terms":["flight club"],"fields":["name","brand","{amenity/bar}"],"tags":{"amenity":"bar","brand:wikidata":"Q112668069"},"addTags":{"amenity":"bar","brand":"Flight Club","brand:wikidata":"Q112668069","food":"yes","name":"Flight Club","sport":"darts"}},"amenity/cafe/coffee_shop/ef3f02-07c6ab":{"name":"85°C","locationSet":{"include":["au","us"]},"geometry":["point","area"],"matchScore":2,"terms":["85 cafe","85 degrees","85 degrees c","85 degrees celsius","85°c","85c","85c bakery cafe","85c daily cafe","85oc"],"reference":{"key":"cuisine","value":"coffee_shop"},"tags":{"amenity":"cafe","brand:wikidata":"Q4644852","cuisine":"coffee_shop;chinese"},"addTags":{"alt_name":"85C","amenity":"cafe","brand":"85°C","brand:wikidata":"Q4644852","cuisine":"coffee_shop;chinese","name":"85°C","takeaway":"yes"}},"amenity/cafe/boostjuice-70e4e4":{"name":"Boost Juice","locationSet":{"include":["au"]},"geometry":["point","area"],"matchScore":2,"terms":["boost juice"],"tags":{"amenity":"cafe","brand:wikidata":"Q4943789"},"addTags":{"amenity":"cafe","brand":"Boost Juice","brand:wikidata":"Q4943789","cuisine":"juice","name":"Boost Juice","takeaway":"yes"}},"amenity/cafe/coffee_shop/ciboespresso-70e4e4":{"name":"Cibo Espresso","locationSet":{"include":["au"]},"geometry":["point","area"],"matchScore":2,"terms":["cibo espresso"],"reference":{"key":"cuisine","value":"coffee_shop"},"tags":{"amenity":"cafe","brand:wikidata":"Q5119230","cuisine":"coffee_shop"},"addTags":{"amenity":"cafe","brand":"Cibo Espresso","brand:wikidata":"Q5119230","cuisine":"coffee_shop","name":"Cibo Espresso","takeaway":"yes"}},"amenity/cafe/bubble_tea/gongcha-17742a":{"name":"Gong Cha (worldwide)","locationSet":{"include":["au","bn","ca","mm","my","nz","ph","sg","us"]},"geometry":["point","area"],"matchScore":2,"terms":["gong cha","貢茶"],"reference":{"key":"cuisine","value":"bubble_tea"},"tags":{"amenity":"cafe","brand:wikidata":"Q5581670","cuisine":"bubble_tea"},"addTags":{"amenity":"cafe","brand":"Gong Cha","brand:wikidata":"Q5581670","brand:zh":"貢茶","cuisine":"bubble_tea","int_name":"Gong Cha","name":"Gong Cha","name:zh":"貢茶","takeaway":"yes"}},"amenity/cafe/coffee_shop/hudsonscoffee-f5c0bd":{"name":"Hudsons Coffee","locationSet":{"include":["au","nz","sg"]},"geometry":["point","area"],"matchScore":2,"terms":["hudsons coffee"],"reference":{"key":"cuisine","value":"coffee_shop"},"tags":{"amenity":"cafe","brand:wikidata":"Q5929076","cuisine":"coffee_shop"},"addTags":{"amenity":"cafe","brand":"Hudsons Coffee","brand:wikidata":"Q5929076","cuisine":"coffee_shop","name":"Hudsons Coffee","takeaway":"yes"}},"amenity/cafe/coffee_shop/jamaicablue-941da9":{"name":"Jamaica Blue","locationSet":{"include":["ae","au","cn","gb","my","nz","sg"]},"geometry":["point","area"],"matchScore":2,"terms":["jamaica blue"],"reference":{"key":"cuisine","value":"coffee_shop"},"tags":{"amenity":"cafe","brand:wikidata":"Q24965819","cuisine":"coffee_shop"},"addTags":{"amenity":"cafe","brand":"Jamaica Blue","brand:wikidata":"Q24965819","cuisine":"coffee_shop","name":"Jamaica Blue","takeaway":"yes"}},"amenity/cafe/maxbrenner-15f3f0":{"name":"Max Brenner","locationSet":{"include":["au","il","ru","sg","us"]},"geometry":["point","area"],"matchScore":2,"terms":["max brenner","מקס ברנר"],"tags":{"amenity":"cafe","brand:wikidata":"Q955687"},"addTags":{"amenity":"cafe","brand":"Max Brenner","brand:wikidata":"Q955687","cuisine":"chocolate","name":"Max Brenner","name:en":"Max Brenner","name:he":"מקס ברנר","takeaway":"yes"}},"amenity/cafe/coffee_shop/michelspatisserie-d7a541":{"name":"Michel's Patisserie","locationSet":{"include":["au","cn","id","nz"]},"geometry":["point","area"],"matchScore":2,"terms":["michel's patisserie"],"reference":{"key":"cuisine","value":"coffee_shop"},"tags":{"amenity":"cafe","brand:wikidata":"Q6836235","cuisine":"coffee_shop"},"addTags":{"amenity":"cafe","brand":"Michel's Patisserie","brand:wikidata":"Q6836235","cuisine":"coffee_shop","name":"Michel's Patisserie","takeaway":"yes"}},"amenity/cafe/coffee_shop/mikel-349bad":{"name":"Mikel","locationSet":{"include":["ae","au","cy","de","eg","gb","gr","sa","us"]},"geometry":["point","area"],"matchScore":2,"terms":["mikel"],"reference":{"key":"cuisine","value":"coffee_shop"},"tags":{"amenity":"cafe","brand:wikidata":"Q16952021","cuisine":"coffee_shop"},"addTags":{"amenity":"cafe","brand":"Mikel","brand:wikidata":"Q16952021","cuisine":"coffee_shop","name":"Mikel","takeaway":"yes"}},"amenity/cafe/coffee_shop/muffinbreak-66b6c2":{"name":"Muffin Break","locationSet":{"include":["au","gb","in","nz"]},"geometry":["point","area"],"matchScore":2,"terms":["muffin break"],"reference":{"key":"cuisine","value":"coffee_shop"},"tags":{"amenity":"cafe","brand:wikidata":"Q16964876","cuisine":"coffee_shop"},"addTags":{"amenity":"cafe","brand":"Muffin Break","brand:wikidata":"Q16964876","cuisine":"coffee_shop","name":"Muffin Break","takeaway":"yes"}},"amenity/cafe/coffee_shop/muzzbuzz-4c3c5a":{"name":"Muzz Buzz","locationSet":{"include":["au","nz"]},"geometry":["point","area"],"matchScore":2,"terms":["muzz buzz"],"reference":{"key":"cuisine","value":"coffee_shop"},"tags":{"amenity":"cafe","brand:wikidata":"Q6944483","cuisine":"coffee_shop"},"addTags":{"amenity":"cafe","brand":"Muzz Buzz","brand:wikidata":"Q6944483","cuisine":"coffee_shop","name":"Muzz Buzz","takeaway":"yes"}},"amenity/cafe/coffee_shop/obriens-20e9d6":{"name":"O'Briens Café","locationSet":{"include":["ae","au","cn","gb","ie","my","nz","sg","th"]},"geometry":["point","area"],"matchScore":2,"terms":["o'briens"],"reference":{"key":"cuisine","value":"coffee_shop"},"tags":{"amenity":"cafe","brand:wikidata":"Q7071686","cuisine":"coffee_shop"},"addTags":{"amenity":"cafe","brand":"O'Briens","brand:wikidata":"Q7071686","cuisine":"coffee_shop","cusine":"sandwich","name":"O'Briens","takeaway":"yes"}},"amenity/cafe/coffee_shop/pieface-70e4e4":{"name":"Pie Face","locationSet":{"include":["au"]},"geometry":["point","area"],"matchScore":2,"terms":["pie face"],"reference":{"key":"cuisine","value":"coffee_shop"},"tags":{"amenity":"cafe","brand:wikidata":"Q18166370","cuisine":"coffee_shop"},"addTags":{"amenity":"cafe","brand":"Pie Face","brand:wikidata":"Q18166370","cuisine":"coffee_shop","name":"Pie Face","takeaway":"yes"}},"amenity/cafe/bubble_tea/sharetea-07c6ab":{"name":"Sharetea","locationSet":{"include":["au","us"]},"geometry":["point","area"],"matchScore":2,"terms":["sharetea","歇腳亭"],"reference":{"key":"cuisine","value":"bubble_tea"},"tags":{"amenity":"cafe","brand:wikidata":"Q64827032","cuisine":"bubble_tea"},"addTags":{"amenity":"cafe","brand":"Sharetea","brand:wikidata":"Q64827032","cuisine":"bubble_tea","name":"Sharetea","name:en":"Sharetea","name:zh":"歇腳亭","takeaway":"yes"}},"amenity/cafe/coffee_shop/soulorigin-70e4e4":{"name":"Soul Origin","locationSet":{"include":["au"]},"geometry":["point","area"],"matchScore":2,"terms":["soul origin"],"reference":{"key":"cuisine","value":"coffee_shop"},"tags":{"amenity":"cafe","brand:wikidata":"Q110473093","cuisine":"coffee_shop"},"addTags":{"amenity":"cafe","brand":"Soul Origin","brand:wikidata":"Q110473093","cuisine":"coffee_shop","name":"Soul Origin","takeaway":"yes"}},"amenity/cafe/coffee_shop/thecoffeeclub-19ebdf":{"name":"The Coffee Club","locationSet":{"include":["au","nz","th"]},"geometry":["point","area"],"matchScore":2,"terms":["the coffee club"],"reference":{"key":"cuisine","value":"coffee_shop"},"tags":{"amenity":"cafe","brand:wikidata":"Q7726599","cuisine":"coffee_shop"},"addTags":{"amenity":"cafe","brand":"The Coffee Club","brand:wikidata":"Q7726599","cuisine":"coffee_shop","name":"The Coffee Club","takeaway":"yes"}},"amenity/cafe/coffee_shop/tomntoms-16c022":{"name":"Tom N Toms","locationSet":{"include":["au","ch","hk","kr","mn","mo","my","ph","sg","th","us"]},"geometry":["point","area"],"matchScore":2,"terms":["tom n toms","탐앤탐스"],"reference":{"key":"cuisine","value":"coffee_shop"},"tags":{"amenity":"cafe","brand:wikidata":"Q18142418","cuisine":"coffee_shop;pretzel;smoothie;tea;bread"},"addTags":{"amenity":"cafe","brand":"Tom N Toms","brand:en":"Tom N Toms","brand:ko":"탐앤탐스","brand:wikidata":"Q18142418","cuisine":"coffee_shop;pretzel;smoothie;tea;bread","name":"Tom N Toms","takeaway":"yes"}},"amenity/cafe/coffee_shop/zarraffascoffee-70e4e4":{"name":"Zarraffa's Coffee","locationSet":{"include":["au"]},"geometry":["point","area"],"matchScore":2,"terms":["zarraffa's coffee"],"reference":{"key":"cuisine","value":"coffee_shop"},"tags":{"amenity":"cafe","brand:wikidata":"Q8066878","cuisine":"coffee_shop"},"addTags":{"amenity":"cafe","brand":"Zarraffa's Coffee","brand:wikidata":"Q8066878","cuisine":"coffee_shop","name":"Zarraffa's Coffee","takeaway":"yes"}},"amenity/car_rental/jucy-fde8ea":{"name":"Jucy","locationSet":{"include":["au","nz"]},"geometry":["point","area"],"matchScore":2,"terms":["jucy"],"tags":{"amenity":"car_rental","brand:wikidata":"Q22032112"},"addTags":{"amenity":"car_rental","brand":"Jucy","brand:wikidata":"Q22032112","name":"Jucy"}},"amenity/car_rental/redspotcarrentals-ba918c":{"name":"Redspot Car Rentals","locationSet":{"include":["au"]},"geometry":["point","area"],"matchScore":2,"terms":["redspot car rentals"],"tags":{"amenity":"car_rental","brand:wikidata":"Q7306270"},"addTags":{"amenity":"car_rental","brand":"Redspot Car Rentals","brand:wikidata":"Q7306270","name":"Redspot Car Rentals"}},"amenity/casino/crownresorts-683d57":{"name":"Crown Resorts","locationSet":{"include":["au"]},"geometry":["point","area"],"matchScore":2,"terms":["crown resorts"],"tags":{"amenity":"casino","brand:wikidata":"Q1029724"},"addTags":{"amenity":"casino","brand":"Crown Resorts","brand:wikidata":"Q1029724","name":"Crown Resorts"}},"amenity/cinema/dendy-1a8a27":{"name":"Dendy","locationSet":{"include":["au"]},"geometry":["point","area"],"matchScore":2,"terms":["dendy cinema","dendy cinemas"],"fields":["name","brand","{amenity/cinema}"],"tags":{"amenity":"cinema","brand:wikidata":"Q22907727"},"addTags":{"amenity":"cinema","brand":"Dendy Cinemas","brand:wikidata":"Q22907727","name":"Dendy"}},"amenity/cinema/eventcinemas-402915":{"name":"Event Cinemas","locationSet":{"include":["au","nz"]},"geometry":["point","area"],"matchScore":2,"terms":["event cinema","event cinemas"],"fields":["name","brand","{amenity/cinema}"],"tags":{"amenity":"cinema","brand:wikidata":"Q5416698"},"addTags":{"amenity":"cinema","brand":"Event Cinemas","brand:wikidata":"Q5416698","name":"Event Cinemas"}},"amenity/cinema/hoyts-402915":{"name":"Hoyts","locationSet":{"include":["au","nz"]},"geometry":["point","area"],"matchScore":2,"terms":["hoyts"],"fields":["name","brand","{amenity/cinema}"],"tags":{"amenity":"cinema","brand:wikidata":"Q5922976"},"addTags":{"amenity":"cinema","brand":"Hoyts","brand:wikidata":"Q5922976","name":"Hoyts"}},"amenity/cinema/palacecinemas-1a8a27":{"name":"Palace Cinemas","locationSet":{"include":["au"]},"geometry":["point","area"],"matchScore":2,"terms":["palace cinemas"],"fields":["name","brand","{amenity/cinema}"],"tags":{"amenity":"cinema","brand:wikidata":"Q7126164"},"addTags":{"amenity":"cinema","brand":"Palace Cinemas","brand:wikidata":"Q7126164","name":"Palace Cinemas"}},"amenity/cinema/readingcinemas-49d471":{"name":"Reading Cinemas","locationSet":{"include":["au","nz","us"]},"geometry":["point","area"],"matchScore":2,"terms":["reading cinemas"],"fields":["name","brand","{amenity/cinema}"],"tags":{"amenity":"cinema","brand:wikidata":"Q43898773"},"addTags":{"amenity":"cinema","brand":"Reading Cinemas","brand:wikidata":"Q43898773","name":"Reading Cinemas"}},"amenity/cinema/villagecinemas-1a8a27":{"name":"Village Cinemas","locationSet":{"include":["au"]},"geometry":["point","area"],"matchScore":2,"terms":["village"],"fields":["name","brand","{amenity/cinema}"],"tags":{"amenity":"cinema","brand:wikidata":"Q7930631"},"addTags":{"amenity":"cinema","brand":"Village","brand:wikidata":"Q7930631","name":"Village Cinemas"}},"amenity/cinema/walliscinemas-1a8a27":{"name":"Wallis Cinemas","locationSet":{"include":["au"]},"geometry":["point","area"],"matchScore":2,"terms":["wallis cinema","wallis cinemas","wallis theatres"],"fields":["name","brand","{amenity/cinema}"],"tags":{"amenity":"cinema","brand:wikidata":"Q7963128"},"addTags":{"amenity":"cinema","brand":"Wallis Cinemas","brand:wikidata":"Q7963128","name":"Wallis Cinemas"}},"amenity/college/saeinstitute-7a11fb":{"name":"SAE Institute","locationSet":{"include":["ae","at","au","be","ca","ch","de","es","fr","gb","gr","id","it","jo","mx","nl","nz","rs","us","za"]},"geometry":["area","point"],"matchScore":2,"terms":["sae institute"],"fields":["name","brand","{amenity/college}"],"tags":{"amenity":"college","brand:wikidata":"Q201438"},"addTags":{"amenity":"college","brand":"SAE Institute","brand:wikidata":"Q201438","name":"SAE Institute"}},"amenity/fast_food/burger/bettysburgers-d43c69":{"name":"Betty's Burgers","locationSet":{"include":["au"]},"geometry":["point","area"],"matchScore":2,"terms":["betty's burgers"],"reference":{"key":"cuisine","value":"burger"},"tags":{"amenity":"fast_food","brand:wikidata":"Q109406096","cuisine":"burger"},"addTags":{"amenity":"fast_food","brand":"Betty's Burgers","brand:wikidata":"Q109406096","cuisine":"burger","name":"Betty's Burgers","takeaway":"yes"}},"amenity/fast_food/burger/burgerurge-d43c69":{"name":"Burger Urge","locationSet":{"include":["au"]},"geometry":["point","area"],"matchScore":2,"terms":["burger urge"],"reference":{"key":"cuisine","value":"burger"},"tags":{"amenity":"fast_food","brand:wikidata":"Q19589751","cuisine":"burger"},"addTags":{"amenity":"fast_food","brand":"Burger Urge","brand:wikidata":"Q19589751","cuisine":"burger","name":"Burger Urge","takeaway":"yes"}},"amenity/fast_food/chicken/chickentreat-d43c69":{"name":"Chicken Treat","locationSet":{"include":["au"]},"geometry":["point","area"],"matchScore":2,"terms":["chicken treat"],"reference":{"key":"cuisine","value":"chicken"},"tags":{"amenity":"fast_food","brand:wikidata":"Q5096274","cuisine":"chicken"},"addTags":{"amenity":"fast_food","brand":"Chicken Treat","brand:wikidata":"Q5096274","cuisine":"chicken","name":"Chicken Treat","takeaway":"yes"}},"amenity/fast_food/hot_dog/costcofoodcourt-2909a2":{"name":"Costco Food Court","locationSet":{"include":["au","ca","jp","kr","mx","tw","uk","us"]},"geometry":["point","area"],"matchScore":2,"terms":["costco"],"reference":{"key":"cuisine","value":"hot_dog"},"tags":{"amenity":"fast_food","brand:wikidata":"Q715583","cuisine":"hot_dog;pizza;sandwich"},"addTags":{"amenity":"fast_food","brand":"Costco","brand:wikidata":"Q715583","cuisine":"hot_dog;pizza;sandwich","name":"Costco Food Court","takeaway":"yes"}},"amenity/fast_food/pizza/crust-d43c69":{"name":"Crust","locationSet":{"include":["au"]},"geometry":["point","area"],"matchScore":2,"terms":["crust","crust gourmet pizza bar"],"reference":{"key":"cuisine","value":"pizza"},"tags":{"amenity":"fast_food","brand:wikidata":"Q100792715","cuisine":"pizza"},"addTags":{"amenity":"fast_food","brand":"Crust","brand:wikidata":"Q100792715","cuisine":"pizza","name":"Crust","official_name":"Crust Gourmet Pizza Bar","takeaway":"yes"}},"amenity/fast_food/donut/danielsdonuts-d43c69":{"name":"Daniel's Donuts","locationSet":{"include":["au"]},"geometry":["point","area"],"matchScore":2,"terms":["daniel's donuts"],"reference":{"key":"cuisine","value":"donut"},"tags":{"amenity":"fast_food","brand:wikidata":"Q116147181","cuisine":"donut;pie;milkshake"},"addTags":{"amenity":"fast_food","brand":"Daniel's Donuts","brand:wikidata":"Q116147181","cuisine":"donut;pie;milkshake","name":"Daniel's Donuts","takeaway":"yes"}},"amenity/fast_food/donut/donutking-d43c69":{"name":"Donut King","locationSet":{"include":["au"]},"geometry":["point","area"],"matchScore":2,"terms":["donut king"],"reference":{"key":"cuisine","value":"donut"},"tags":{"amenity":"fast_food","brand:wikidata":"Q5296921","cuisine":"donut;coffee_shop"},"addTags":{"amenity":"fast_food","brand":"Donut King","brand:wikidata":"Q5296921","cuisine":"donut;coffee_shop","name":"Donut King","takeaway":"yes"}},"amenity/fast_food/fishbowl-d43c69":{"name":"Fishbowl","locationSet":{"include":["au"]},"geometry":["point","area"],"matchScore":2,"terms":["fishbowl"],"tags":{"amenity":"fast_food","brand:wikidata":"Q110785465"},"addTags":{"amenity":"fast_food","brand":"Fishbowl","brand:wikidata":"Q110785465","cuisine":"salad","name":"Fishbowl","takeaway":"yes"}},"amenity/fast_food/burger/fiveguys-ffd618":{"name":"Five Guys","locationSet":{"include":["ae","au","be","ca","de","es","fr","gb","hk","ie","it","kw","lu","nl","qa","sa","sg","us"]},"geometry":["point","area"],"matchScore":2,"terms":["five guys","five guys burgers and fries"],"reference":{"key":"cuisine","value":"burger"},"tags":{"amenity":"fast_food","brand:wikidata":"Q1131810","cuisine":"burger"},"addTags":{"amenity":"fast_food","brand":"Five Guys","brand:wikidata":"Q1131810","cuisine":"burger","name":"Five Guys","official_name":"Five Guys Burgers and Fries","takeaway":"yes"}},"amenity/fast_food/burger/grilld-d43c69":{"name":"Grill'd","locationSet":{"include":["au"]},"geometry":["point","area"],"matchScore":2,"terms":["grill'd"],"reference":{"key":"cuisine","value":"burger"},"tags":{"amenity":"fast_food","brand:wikidata":"Q18165852","cuisine":"burger"},"addTags":{"amenity":"fast_food","brand":"Grill'd","brand:wikidata":"Q18165852","cuisine":"burger","name":"Grill'd","takeaway":"yes"}},"amenity/fast_food/burger/hungryjacks-d43c69":{"name":"Hungry Jack's","locationSet":{"include":["au"]},"geometry":["point","area"],"matchScore":2,"terms":["hungry jack's"],"reference":{"key":"cuisine","value":"burger"},"tags":{"amenity":"fast_food","brand:wikidata":"Q3036373","cuisine":"burger"},"addTags":{"amenity":"fast_food","brand":"Hungry Jack's","brand:wikidata":"Q3036373","cuisine":"burger","name":"Hungry Jack's","takeaway":"yes"}},"amenity/fast_food/burger/lordofthefries-183b7d":{"name":"Lord of the Fries","locationSet":{"include":["au","nz"]},"geometry":["point","area"],"matchScore":2,"terms":["lord of the fries"],"reference":{"key":"cuisine","value":"burger"},"tags":{"amenity":"fast_food","brand:wikidata":"Q104088629","cuisine":"burger"},"addTags":{"amenity":"fast_food","brand":"Lord of the Fries","brand:wikidata":"Q104088629","cuisine":"burger","diet:vegan":"only","name":"Lord of the Fries","takeaway":"yes"}},"amenity/fast_food/noodlebox-d43c69":{"name":"Noodle Box","locationSet":{"include":["au"]},"geometry":["point","area"],"matchScore":2,"terms":["noodle box"],"tags":{"amenity":"fast_food","brand:wikidata":"Q7049671"},"addTags":{"amenity":"fast_food","brand":"Noodle Box","brand:wikidata":"Q7049671","cuisine":"noodle","name":"Noodle Box","takeaway":"yes"}},"amenity/fast_food/oakberryacaibowls-df46eb":{"name":"Oakberry Açaí bowls","locationSet":{"include":["ae","au","bh","br","ch","cl","co","de","es","gr","hr","il","mt","mx","pe","pt","py","sa","th","us"]},"geometry":["point","area"],"matchScore":2,"terms":["oakberry açaí bowls"],"tags":{"amenity":"fast_food","brand:wikidata":"Q104870840"},"addTags":{"amenity":"fast_food","brand":"Oakberry Açaí bowls","brand:wikidata":"Q104870840","cuisine":"açaí","name":"Oakberry Açaí bowls","takeaway":"yes"}},"amenity/fast_food/burger/oporto-d43c69":{"name":"Oporto","locationSet":{"include":["au"]},"geometry":["point","area"],"matchScore":2,"terms":["oporto"],"reference":{"key":"cuisine","value":"burger"},"tags":{"amenity":"fast_food","brand:wikidata":"Q4412342","cuisine":"burger;chicken"},"addTags":{"amenity":"fast_food","brand":"Oporto","brand:wikidata":"Q4412342","cuisine":"burger;chicken","name":"Oporto","takeaway":"yes"}},"amenity/fast_food/pizza/pizzacapers-d43c69":{"name":"Pizza Capers","locationSet":{"include":["au"]},"geometry":["point","area"],"matchScore":2,"terms":["pizza capers"],"reference":{"key":"cuisine","value":"pizza"},"tags":{"amenity":"fast_food","brand:wikidata":"Q17021875","cuisine":"pizza"},"addTags":{"amenity":"fast_food","brand":"Pizza Capers","brand:wikidata":"Q17021875","cuisine":"pizza","name":"Pizza Capers","takeaway":"yes"}},"amenity/fast_food/chicken/redrooster-d43c69":{"name":"Red Rooster","locationSet":{"include":["au"]},"geometry":["point","area"],"matchScore":2,"terms":["red rooster"],"reference":{"key":"cuisine","value":"chicken"},"tags":{"amenity":"fast_food","brand:wikidata":"Q376466","cuisine":"chicken"},"addTags":{"amenity":"fast_food","brand":"Red Rooster","brand:wikidata":"Q376466","cuisine":"chicken","name":"Red Rooster","takeaway":"yes"}},"amenity/fast_food/chicken/schnitz-d43c69":{"name":"Schnitz","locationSet":{"include":["au"]},"geometry":["point","area"],"matchScore":2,"terms":["schnitz"],"reference":{"key":"cuisine","value":"chicken"},"tags":{"amenity":"fast_food","brand:wikidata":"Q48792277","cuisine":"chicken"},"addTags":{"amenity":"fast_food","brand":"Schnitz","brand:wikidata":"Q48792277","cuisine":"chicken","name":"Schnitz","takeaway":"yes"}},"amenity/fast_food/sumosalad-474d0a":{"name":"Sumo Salad","locationSet":{"include":["ae","au","br","nz","sg","us"]},"geometry":["point","area"],"matchScore":2,"terms":["sumo salad"],"tags":{"amenity":"fast_food","brand:wikidata":"Q16951700"},"addTags":{"amenity":"fast_food","brand":"Sumo Salad","brand:wikidata":"Q16951700","cuisine":"salad","name":"Sumo Salad","takeaway":"yes"}},"amenity/fast_food/burger/wahlburgers-2b1ccf":{"name":"Wahlburgers","locationSet":{"include":["au","ca","de","us"]},"geometry":["point","area"],"matchScore":2,"terms":["wahlburgers"],"reference":{"key":"cuisine","value":"burger"},"tags":{"amenity":"fast_food","brand:wikidata":"Q17032457","cuisine":"burger"},"addTags":{"amenity":"fast_food","brand":"Wahlburgers","brand:wikidata":"Q17032457","cuisine":"burger","name":"Wahlburgers","takeaway":"yes"}},"amenity/fast_food/wingstreet-1c2e03":{"name":"WingStreet","locationSet":{"include":["au","ca","cy","us"]},"geometry":["point","area"],"matchScore":2,"terms":["wingstreet"],"tags":{"amenity":"fast_food","brand:wikidata":"Q946630"},"addTags":{"amenity":"fast_food","brand":"WingStreet","brand:wikidata":"Q946630","cuisine":"wings","name":"WingStreet","takeaway":"yes"}},"amenity/fast_food/mexican/zambrero-ee9f0e":{"name":"Zambrero","locationSet":{"include":["au","ie","nz","us"]},"geometry":["point","area"],"matchScore":2,"terms":["zambrero"],"reference":{"key":"cuisine","value":"mexican"},"tags":{"amenity":"fast_food","brand:wikidata":"Q18636431","cuisine":"mexican"},"addTags":{"amenity":"fast_food","brand":"Zambrero","brand:wikidata":"Q18636431","cuisine":"mexican","name":"Zambrero","takeaway":"yes"}},"amenity/fuel/ampol-9ed9c0":{"name":"Ampol","locationSet":{"include":["au"]},"geometry":["point","area"],"matchScore":2,"terms":["ampol"],"fields":["name","brand","{amenity/fuel}"],"tags":{"amenity":"fuel","brand:wikidata":"Q4748528"},"addTags":{"amenity":"fuel","brand":"Ampol","brand:wikidata":"Q4748528","name":"Ampol"}},"amenity/fuel/caltex-5153a3":{"name":"Caltex","locationSet":{"include":["ae","au","eg","hk","id","kh","kr","lk","my","ph","pk","sa","sg","th","vn","za"]},"geometry":["point","area"],"matchScore":2,"terms":["caltex"],"fields":["name","brand","{amenity/fuel}"],"tags":{"amenity":"fuel","brand:wikidata":"Q277470"},"addTags":{"amenity":"fuel","brand":"Caltex","brand:wikidata":"Q277470","name":"Caltex"}},"amenity/fuel/colesexpress-9ed9c0":{"name":"Coles Express","locationSet":{"include":["au"]},"geometry":["point","area"],"matchScore":2,"terms":["coles express"],"fields":["name","brand","{amenity/fuel}"],"tags":{"amenity":"fuel","brand:wikidata":"Q5144653"},"addTags":{"amenity":"fuel","brand":"Coles Express","brand:wikidata":"Q5144653","name":"Coles Express"}},"amenity/fuel/costcogasoline-73aa20":{"name":"Costco Gasoline","locationSet":{"include":["au","ca","mx","us"]},"geometry":["point","area"],"matchScore":2,"terms":["costco","costco gas","costco gasoline","costco wholesale"],"fields":["name","brand","{amenity/fuel}"],"tags":{"amenity":"fuel","brand:wikidata":"Q715583"},"addTags":{"amenity":"fuel","brand":"Costco Gasoline","brand:wikidata":"Q715583","name":"Costco Gasoline"}},"amenity/fuel/egaustralia-9ed9c0":{"name":"EG Australia","locationSet":{"include":["au"]},"geometry":["point","area"],"matchScore":2,"terms":["ampol","caltex woolworths","eg australia","woolworths caltex","woolworths petrol"],"fields":["name","brand","{amenity/fuel}"],"tags":{"amenity":"fuel","brand:wikidata":"Q4748528"},"addTags":{"amenity":"fuel","brand":"Ampol","brand:wikidata":"Q4748528","fuel:discount":"Woolworths","name":"EG Australia","operator":"EG Australia","operator:wikidata":"Q5023980"}},"amenity/fuel/gull-562623":{"name":"Gull","locationSet":{"include":["au","nz"]},"geometry":["point","area"],"matchScore":2,"terms":["gull"],"fields":["name","brand","{amenity/fuel}"],"tags":{"amenity":"fuel","brand:wikidata":"Q5617739"},"addTags":{"amenity":"fuel","brand":"Gull","brand:wikidata":"Q5617739","name":"Gull"}},"amenity/fuel/metropetroleum-9ed9c0":{"name":"Metro Petroleum","locationSet":{"include":["au"]},"geometry":["point","area"],"matchScore":2,"terms":["metro","metro petroleum"],"fields":["name","brand","{amenity/fuel}"],"tags":{"amenity":"fuel","brand:wikidata":"Q111970125"},"addTags":{"amenity":"fuel","brand":"Metro Petroleum","brand:wikidata":"Q111970125","name":"Metro Petroleum"}},"amenity/fuel/otr-9ed9c0":{"name":"OTR","locationSet":{"include":["au"]},"geometry":["point","area"],"matchScore":2,"terms":["otr"],"fields":["name","brand","{amenity/fuel}"],"tags":{"amenity":"fuel","brand:wikidata":"Q116394019"},"addTags":{"amenity":"fuel","brand":"OTR","brand:wikidata":"Q116394019","name":"OTR"}},"amenity/fuel/united-9ed9c0":{"name":"United","locationSet":{"include":["au"]},"geometry":["point","area"],"matchScore":2,"terms":["united","united petroleum"],"fields":["name","brand","{amenity/fuel}"],"tags":{"amenity":"fuel","brand:wikidata":"Q28224393"},"addTags":{"amenity":"fuel","brand":"United","brand:wikidata":"Q28224393","name":"United"}},"amenity/ice_cream/coldrockicecreamery-e699dd":{"name":"Cold Rock Ice Creamery","locationSet":{"include":["au"]},"geometry":["point","area"],"matchScore":2,"terms":["cold rock ice creamery"],"tags":{"amenity":"ice_cream","brand:wikidata":"Q2982390"},"addTags":{"amenity":"ice_cream","brand":"Cold Rock Ice Creamery","brand:wikidata":"Q2982390","cuisine":"ice_cream","name":"Cold Rock Ice Creamery","takeaway":"yes"}},"amenity/ice_cream/gelatissimo-17af97":{"name":"Gelatissimo","locationSet":{"include":["au","bd","cn","in","ph","sa","sg"]},"geometry":["point","area"],"matchScore":2,"terms":["gelatissimo"],"tags":{"amenity":"ice_cream","brand:wikidata":"Q105270111"},"addTags":{"amenity":"ice_cream","brand":"Gelatissimo","brand:wikidata":"Q105270111","cuisine":"ice_cream","name":"Gelatissimo","takeaway":"yes"}},"amenity/ice_cream/llaollao-dd9462":{"name":"Llaollao","locationSet":{"include":["au","ch","cl","co","ec","es","fr","gt","hr","id","iq","kw","ma","my","ph","pt","sa","sg","si","sv","us","vn"]},"geometry":["point","area"],"matchScore":2,"terms":["llaollao"],"tags":{"amenity":"ice_cream","brand:wikidata":"Q12163048"},"addTags":{"amenity":"ice_cream","brand":"Llaollao","brand:wikidata":"Q12163048","cuisine":"frozen_yogurt","name":"Llaollao"}},"amenity/ice_cream/orangeleaffrozenyogurt-4cfb80":{"name":"Orange Leaf","locationSet":{"include":["au","cn","us"]},"geometry":["point","area"],"matchScore":2,"terms":["orange leaf frozen yogurt"],"tags":{"amenity":"ice_cream","brand:wikidata":"Q18155467"},"addTags":{"amenity":"ice_cream","brand":"Orange Leaf Frozen Yogurt","brand:wikidata":"Q18155467","cuisine":"ice_cream","name":"Orange Leaf Frozen Yogurt"}},"amenity/ice_cream/yogurtland-4111ef":{"name":"Yogurtland","locationSet":{"include":["ae","au","bh","kw","mm","qa","sa","sg","th","us","ve"]},"geometry":["point","area"],"matchScore":2,"terms":["yogurtland"],"tags":{"amenity":"ice_cream","brand:wikidata":"Q8054428"},"addTags":{"amenity":"ice_cream","brand":"Yogurtland","brand:wikidata":"Q8054428","cuisine":"frozen_yogurt","name":"Yogurtland","takeaway":"yes"}},"amenity/music_school/schoolofrock-aecfc9":{"name":"School of Rock","locationSet":{"include":["au","br","ca","cl","co","es","mx","pe","ph","py","us","za"]},"geometry":["point","area"],"matchScore":2,"terms":["school of rock"],"fields":["name","brand","{amenity/music_school}"],"tags":{"amenity":"music_school","brand:wikidata":"Q7756376"},"addTags":{"amenity":"music_school","brand":"School of Rock","brand:wikidata":"Q7756376","name":"School of Rock"}},"amenity/parcel_locker/australiapostparcellocker-a2f344":{"name":"Australia Post Parcel Locker","locationSet":{"include":["au"]},"geometry":["point","vertex","area"],"matchScore":2,"terms":["australia post"],"fields":["name","brand","{amenity/parcel_locker}"],"reference":{"key":"amenity","value":"parcel_locker"},"tags":{"amenity":"parcel_locker","brand:wikidata":"Q1142936"},"addTags":{"amenity":"parcel_locker","brand":"Australia Post","brand:wikidata":"Q1142936","name":"Australia Post Parcel Locker"}},"amenity/pharmacy/amcal-a4bb5f":{"name":"Amcal","locationSet":{"include":["au"]},"geometry":["point","area"],"matchScore":2,"terms":["amcal","amcal pharmacy"],"reference":{"key":"amenity","value":"pharmacy"},"tags":{"amenity":"pharmacy","brand:wikidata":"Q63367373"},"addTags":{"amenity":"pharmacy","brand":"Amcal","brand:wikidata":"Q63367373","healthcare":"pharmacy","name":"Amcal"}},"amenity/pharmacy/bloomsthechemist-a4bb5f":{"name":"Blooms The Chemist","locationSet":{"include":["au"]},"geometry":["point","area"],"matchScore":2,"terms":["blooms the chemist"],"reference":{"key":"amenity","value":"pharmacy"},"tags":{"amenity":"pharmacy","brand:wikidata":"Q63367543"},"addTags":{"amenity":"pharmacy","brand":"Blooms The Chemist","brand:wikidata":"Q63367543","healthcare":"pharmacy","name":"Blooms The Chemist","shop":"chemist"}},"amenity/pharmacy/chemistkingdiscountpharmacy-a4bb5f":{"name":"Chemist King Discount Pharmacy","locationSet":{"include":["au"]},"geometry":["point","area"],"matchScore":2,"terms":["chemist king","chemist king discount pharmacies","chemist king discount pharmacy"],"reference":{"key":"amenity","value":"pharmacy"},"tags":{"amenity":"pharmacy","brand:wikidata":"Q63367667"},"addTags":{"amenity":"pharmacy","brand":"Chemist King Discount Pharmacy","brand:wikidata":"Q63367667","healthcare":"pharmacy","name":"Chemist King Discount Pharmacy"}},"amenity/pharmacy/chemistwarehouse-382a5b":{"name":"Chemist Warehouse","locationSet":{"include":["au","nz"]},"geometry":["point","area"],"matchScore":2,"terms":["chemist warehouse"],"reference":{"key":"amenity","value":"pharmacy"},"tags":{"amenity":"pharmacy","brand:wikidata":"Q48782120"},"addTags":{"amenity":"pharmacy","brand":"Chemist Warehouse","brand:wikidata":"Q48782120","healthcare":"pharmacy","name":"Chemist Warehouse"}},"amenity/pharmacy/guardian-a4bb5f":{"name":"Guardian (Australia)","locationSet":{"include":["au"]},"geometry":["point","area"],"matchScore":2,"terms":["guardian","guardian pharmacies","guardian pharmacy"],"reference":{"key":"amenity","value":"pharmacy"},"tags":{"amenity":"pharmacy","brand:wikidata":"Q63367814"},"addTags":{"amenity":"pharmacy","brand":"Guardian","brand:wikidata":"Q63367814","healthcare":"pharmacy","name":"Guardian"}},"amenity/pharmacy/pharmacy4less-a4bb5f":{"name":"Pharmacy 4 Less","locationSet":{"include":["au"]},"geometry":["point","area"],"matchScore":2,"terms":["pharmacy 4 less"],"reference":{"key":"amenity","value":"pharmacy"},"tags":{"amenity":"pharmacy","brand:wikidata":"Q63367608"},"addTags":{"amenity":"pharmacy","brand":"Pharmacy 4 Less","brand:wikidata":"Q63367608","healthcare":"pharmacy","name":"Pharmacy 4 Less"}},"amenity/pharmacy/pharmasave-a4bb5f":{"name":"PharmaSave (Australia)","locationSet":{"include":["au"]},"geometry":["point","area"],"matchScore":2,"terms":["pharmasave"],"reference":{"key":"amenity","value":"pharmacy"},"tags":{"amenity":"pharmacy","brand:wikidata":"Q63367906"},"addTags":{"amenity":"pharmacy","brand":"PharmaSave","brand:wikidata":"Q63367906","healthcare":"pharmacy","name":"PharmaSave"}},"amenity/pharmacy/pricelinepharmacy-a4bb5f":{"name":"Priceline Pharmacy","locationSet":{"include":["au"]},"geometry":["point","area"],"matchScore":2,"terms":["priceline","priceline pharmacy"],"reference":{"key":"amenity","value":"pharmacy"},"tags":{"amenity":"pharmacy","brand:wikidata":"Q7242652"},"addTags":{"amenity":"pharmacy","brand":"Priceline Pharmacy","brand:wikidata":"Q7242652","healthcare":"pharmacy","name":"Priceline Pharmacy"}},"amenity/pharmacy/terrywhitechemmart-a4bb5f":{"name":"TerryWhite Chemmart","locationSet":{"include":["au"]},"geometry":["point","area"],"matchScore":2,"terms":["terrywhite","terrywhite chemist","terrywhite chemists","terrywhite chemmart"],"reference":{"key":"amenity","value":"pharmacy"},"tags":{"amenity":"pharmacy","brand:wikidata":"Q24089773"},"addTags":{"amenity":"pharmacy","brand":"TerryWhite Chemmart","brand:wikidata":"Q24089773","healthcare":"pharmacy","name":"TerryWhite Chemmart"}},"amenity/pharmacy/ufs-a4bb5f":{"name":"UFS","locationSet":{"include":["au"]},"geometry":["point","area"],"matchScore":2,"terms":["ufs","ufs dispensaries"],"reference":{"key":"amenity","value":"pharmacy"},"tags":{"amenity":"pharmacy","brand:wikidata":"Q63367573"},"addTags":{"amenity":"pharmacy","brand":"UFS","brand:wikidata":"Q63367573","healthcare":"pharmacy","name":"UFS"}},"amenity/pub/brewdog-f93a3c":{"name":"BrewDog","locationSet":{"include":["au","be","de","es","fr","gb","it","kr","no","se","us"]},"geometry":["point","area"],"matchScore":2,"terms":["brewdog"],"fields":["name","brand","{amenity/pub}"],"tags":{"amenity":"pub","brand:wikidata":"Q911367"},"addTags":{"amenity":"pub","brand":"BrewDog","brand:wikidata":"Q911367","name":"BrewDog"}},"amenity/public_bookcase/streetlibrary-ff483e":{"name":"Street Library","locationSet":{"include":["au"]},"geometry":["point","area"],"matchScore":2,"terms":["street library"],"tags":{"amenity":"public_bookcase","brand:wikidata":"Q110910587"},"addTags":{"amenity":"public_bookcase","brand":"Street Library","brand:wikidata":"Q110910587","name":"Street Library"}},"amenity/restaurant/buckingbull-3c82e9":{"name":"Bucking Bull","locationSet":{"include":["au"]},"geometry":["point","area"],"matchScore":2,"terms":["bucking bull"],"tags":{"amenity":"restaurant","brand:wikidata":"Q18208286"},"addTags":{"amenity":"restaurant","brand":"Bucking Bull","brand:wikidata":"Q18208286","cuisine":"steak_house","name":"Bucking Bull"}},"amenity/restaurant/dintaifung-4a64f1":{"name":"Din Tai Fung","locationSet":{"include":["ae","au","gb","id","jp","kr","mo","my","ph","sg","th","us"]},"geometry":["point","area"],"matchScore":2,"terms":["din tai fung","鼎泰豐"],"tags":{"amenity":"restaurant","brand:wikidata":"Q699142"},"addTags":{"amenity":"restaurant","brand":"Din Tai Fung","brand:en":"Din Tai Fung","brand:wikidata":"Q699142","brand:zh":"鼎泰豐","cuisine":"taiwanese","name":"Din Tai Fung","name:en":"Din Tai Fung","name:zh":"鼎泰豐"}},"amenity/restaurant/mexican/guzmanygomez-688cfd":{"name":"Guzman y Gomez","locationSet":{"include":["au","jp","sg"]},"geometry":["point","area"],"matchScore":2,"terms":["guzman y gomez"],"reference":{"key":"cuisine","value":"mexican"},"tags":{"amenity":"restaurant","brand:wikidata":"Q23019759","cuisine":"mexican"},"addTags":{"amenity":"restaurant","brand":"Guzman y Gomez","brand:wikidata":"Q23019759","cuisine":"mexican","name":"Guzman y Gomez"}},"amenity/restaurant/hogsbreathcafe-3c82e9":{"name":"Hog's Breath Cafe","locationSet":{"include":["au"]},"geometry":["point","area"],"matchScore":2,"terms":["hog's breath cafe"],"tags":{"amenity":"restaurant","brand:wikidata":"Q5876920"},"addTags":{"amenity":"restaurant","brand":"Hog's Breath Cafe","brand:wikidata":"Q5876920","cuisine":"steak_house","name":"Hog's Breath Cafe"}},"amenity/restaurant/italian/laporchetta-bb079b":{"name":"La Porchetta","locationSet":{"include":["au","nz"]},"geometry":["point","area"],"matchScore":2,"terms":["la porchetta"],"reference":{"key":"cuisine","value":"italian"},"tags":{"amenity":"restaurant","brand:wikidata":"Q6464528","cuisine":"italian;pizza;pasta"},"addTags":{"amenity":"restaurant","brand":"La Porchetta","brand:wikidata":"Q6464528","cuisine":"italian;pizza;pasta","name":"La Porchetta"}},"amenity/restaurant/mexican/madmexfreshmexicangrill-bb079b":{"name":"Mad Mex Fresh Mexican","locationSet":{"include":["au","nz"]},"geometry":["point","area"],"matchScore":2,"terms":["mad mex fresh mexican grill"],"reference":{"key":"cuisine","value":"mexican"},"tags":{"amenity":"restaurant","brand:wikidata":"Q19589766","cuisine":"mexican"},"addTags":{"amenity":"restaurant","brand":"Mad Mex Fresh Mexican Grill","brand:wikidata":"Q19589766","cuisine":"mexican","name":"Mad Mex Fresh Mexican Grill"}},"amenity/restaurant/meetfresh-44e003":{"name":"Meet Fresh","locationSet":{"include":["au","ca","nz","us"]},"geometry":["point","area"],"matchScore":2,"terms":["meet fresh"],"tags":{"amenity":"restaurant","brand:wikidata":"Q11172707"},"addTags":{"amenity":"restaurant","brand":"Meet Fresh","brand:wikidata":"Q11172707","cuisine":"taiwanese","name":"Meet Fresh"}},"amenity/restaurant/nandos-32ebee":{"name":"Nando's","locationSet":{"include":["ae","au","bd","bh","bw","ca","fj","gb","ie","in","mu","my","nz","om","pk","qa","sa","sg","sz","us","za","zm","zw"]},"geometry":["point","area"],"matchScore":2,"terms":["nando's"],"tags":{"amenity":"restaurant","brand:wikidata":"Q3472954"},"addTags":{"amenity":"restaurant","brand":"Nando's","brand:wikidata":"Q3472954","cuisine":"chicken;portuguese","name":"Nando's"}},"amenity/restaurant/shingleinn-3c82e9":{"name":"Shingle Inn","locationSet":{"include":["au"]},"geometry":["point","area"],"matchScore":2,"terms":["shingle inn"],"tags":{"amenity":"restaurant","brand:wikidata":"Q7497463"},"addTags":{"amenity":"restaurant","brand":"Shingle Inn","brand:wikidata":"Q7497463","cuisine":"bakery","name":"Shingle Inn"}},"amenity/restaurant/spudbar-3c82e9":{"name":"Spudbar","locationSet":{"include":["au"]},"geometry":["point","area"],"matchScore":2,"terms":["spudbar"],"tags":{"amenity":"restaurant","brand:wikidata":"Q19589778"},"addTags":{"amenity":"restaurant","brand":"Spudbar","brand:wikidata":"Q19589778","cuisine":"baked_potato","name":"Spudbar"}},"amenity/restaurant/chinese/zhangliangspicyhotpot-789436":{"name":"张亮麻辣烫","locationSet":{"include":["au","cn","gb","jp","nz","sg","us"]},"geometry":["point","area"],"matchScore":2,"terms":["zhangliang spicy hot pot","张亮麻辣烫"],"reference":{"key":"cuisine","value":"chinese"},"tags":{"amenity":"restaurant","brand:wikidata":"Q108210279","cuisine":"chinese;malatang"},"addTags":{"amenity":"restaurant","brand":"张亮麻辣烫","brand:en":"Zhangliang Spicy Hot Pot","brand:wikidata":"Q108210279","brand:zh":"张亮麻辣烫","cuisine":"chinese;malatang","name":"张亮麻辣烫","name:en":"Zhangliang Spicy Hot Pot","name:zh":"张亮麻辣烫"}},"amenity/restaurant/chinese/yangguofuspicyhotpot-c61f2f":{"name":"杨国福麻辣烫","locationSet":{"include":["au","ca","cn","jp","kr","sg"]},"geometry":["point","area"],"matchScore":2,"terms":["yangguofu spicy hot pot","杨国福麻辣烫"],"reference":{"key":"cuisine","value":"chinese"},"tags":{"amenity":"restaurant","brand:wikidata":"Q108210209","cuisine":"chinese;malatang"},"addTags":{"amenity":"restaurant","brand":"杨国福麻辣烫","brand:en":"Yangguofu Spicy Hot Pot","brand:wikidata":"Q108210209","brand:zh":"杨国福麻辣烫","cuisine":"chinese;malatang","name":"杨国福麻辣烫","name:en":"Yangguofu Spicy Hot Pot","name:zh":"杨国福麻辣烫"}},"amenity/school/maplebear-101006":{"name":"Maple Bear","locationSet":{"include":["ae","al","ar","au","bd","bg","br","ca","gt","hk","hr","in","ke","kr","lk","ma","mx","my","np","om","pe","ph","py","ro","rs","sg","th","tk","ua","us","vn"]},"geometry":["area","point"],"matchScore":2,"terms":["maple bear"],"fields":["name","brand","{amenity/school}"],"tags":{"amenity":"school","brand:wikidata":"Q10324823"},"addTags":{"amenity":"school","brand":"Maple Bear","brand:wikidata":"Q10324823","name":"Maple Bear","operator:type":"private"}},"amenity/social_centre/ahepahall-30ca27":{"name":"AHEPA Hall","locationSet":{"include":["by","bg","cz","hu","pl","md","ro","ru","sk","ua","ax","gg","je","cq","dk","ee","fo","fi","is","ie","im","lv","lt","no","sj","se","gb","al","ad","ba","hr","gi","gr","va","it","mt","me","mk","pt","sm","rs","si","es","xk","at","be","fr","de","li","lu","mc","nl","ch","au","ca","cy","us"],"exclude":["ru"]},"geometry":["point","area"],"matchScore":2,"terms":["ahepa","american hellenic educational progressive association","the order of ahepa"],"fields":["name","brand","{amenity/social_centre}"],"tags":{"amenity":"social_centre","brand:wikidata":"Q4743973"},"addTags":{"amenity":"social_centre","brand":"AHEPA","brand:wikidata":"Q4743973","name":"AHEPA Hall"}},"amenity/veterinary/greencrossvets-42dd12":{"name":"Greencross Vets","locationSet":{"include":["au"]},"geometry":["point","area"],"matchScore":2,"terms":["greencross vets"],"tags":{"amenity":"veterinary","brand:wikidata":"Q41179992"},"addTags":{"amenity":"veterinary","brand":"Greencross Vets","brand:wikidata":"Q41179992","name":"Greencross Vets"}},"healthcare/blood_donation/australianredcrossbloodservice-ed38a1":{"name":"Australian Red Cross Blood Service","locationSet":{"include":["au"]},"geometry":["point","area"],"matchScore":2,"terms":["australian red cross blood service","blood service"],"tags":{"brand:wikidata":"Q4824602","healthcare":"blood_donation"},"addTags":{"brand":"Australian Red Cross Blood Service","brand:wikidata":"Q4824602","donation:compensation":"no","healthcare":"blood_donation","name":"Australian Red Cross Blood Service","short_name":"Blood Service"}},"healthcare/counselling/jennycraig-364e20":{"name":"Jenny Craig","locationSet":{"include":["au","ca","nz","us"]},"geometry":["point","area"],"matchScore":2,"terms":["jenny craig"],"tags":{"brand:wikidata":"Q6179221","healthcare":"counselling"},"addTags":{"brand":"Jenny Craig","brand:wikidata":"Q6179221","healthcare":"counselling","healthcare:counselling":"dietitian","healthcare:speciality":"weight_loss","name":"Jenny Craig"}},"healthcare/sample_collection/australianclinicallabs-b42694":{"name":"Australian Clinical Labs","locationSet":{"include":["au"]},"geometry":["point","area"],"matchScore":2,"terms":["australian clinical labs"],"tags":{"brand:wikidata":"Q105256111","healthcare":"sample_collection"},"addTags":{"brand":"Australian Clinical Labs","brand:wikidata":"Q105256111","healthcare":"sample_collection","name":"Australian Clinical Labs"}},"healthcare/sample_collection/douglasshanlymoir-b42694":{"name":"Douglass Hanly Moir","locationSet":{"include":["au"]},"geometry":["point","area"],"matchScore":2,"terms":["dhm","douglass hanly moir"],"tags":{"brand:wikidata":"Q30253740","healthcare":"sample_collection"},"addTags":{"brand":"Douglass Hanly Moir","brand:wikidata":"Q30253740","healthcare":"sample_collection","name":"Douglass Hanly Moir","short_name":"DHM"}},"healthcare/sample_collection/lavertypathology-b42694":{"name":"Laverty Pathology","locationSet":{"include":["au"]},"geometry":["point","area"],"matchScore":2,"terms":["laverty pathology"],"tags":{"brand:wikidata":"Q105256033","healthcare":"sample_collection"},"addTags":{"brand":"Laverty Pathology","brand:wikidata":"Q105256033","healthcare":"sample_collection","name":"Laverty Pathology"}},"leisure/amusement_arcade/timezone-bbc11e":{"name":"Timezone","locationSet":{"include":["au","id","in","nz","ph","sg","vn"]},"geometry":["point","area"],"matchScore":2,"terms":["timezone"],"tags":{"brand:wikidata":"Q12521502","leisure":"amusement_arcade"},"addTags":{"brand":"Timezone","brand:wikidata":"Q12521502","leisure":"amusement_arcade","name":"Timezone"}},"leisure/bowling_alley/strikebowlingbar-16aa6f":{"name":"Strike Bowling Bar","locationSet":{"include":["au"]},"geometry":["point","area"],"matchScore":2,"terms":["strike bowling bar"],"tags":{"brand:wikidata":"Q7623769","leisure":"bowling_alley"},"addTags":{"brand":"Strike Bowling Bar","brand:wikidata":"Q7623769","leisure":"bowling_alley","name":"Strike Bowling Bar"}},"leisure/bowling_alley/zonebowling-16aa6f":{"name":"Zone Bowling","locationSet":{"include":["au"]},"geometry":["point","area"],"matchScore":2,"terms":["zone bowling"],"tags":{"brand:wikidata":"Q85817146","leisure":"bowling_alley"},"addTags":{"brand":"Zone Bowling","brand:wikidata":"Q85817146","leisure":"bowling_alley","name":"Zone Bowling"}},"leisure/fitness_centre/barrys-1b6d66":{"name":"Barry's","locationSet":{"include":["ae","au","ca","de","dk","es","fr","gb","it","mx","no","qa","se","sg","us"]},"geometry":["point","area"],"matchScore":2,"terms":["barry's"],"tags":{"brand:wikidata":"Q96373178","leisure":"fitness_centre"},"addTags":{"brand":"Barry's","brand:wikidata":"Q96373178","leisure":"fitness_centre","name":"Barry's"}},"leisure/fitness_centre/crunchfitness-39883b":{"name":"Crunch Fitness","locationSet":{"include":["au","ca","us"]},"geometry":["point","area"],"matchScore":2,"terms":["crunch","crunch fitness"],"tags":{"brand:wikidata":"Q5190093","leisure":"fitness_centre"},"addTags":{"brand":"Crunch Fitness","brand:wikidata":"Q5190093","leisure":"fitness_centre","name":"Crunch Fitness"}},"leisure/fitness_centre/f45training-1ae565":{"name":"F45 Training","locationSet":{"include":["au","ca","gb","us"]},"geometry":["point","area"],"matchScore":2,"terms":["f45","f45 training"],"tags":{"brand:wikidata":"Q64390973","leisure":"fitness_centre"},"addTags":{"brand":"F45 Training","brand:wikidata":"Q64390973","leisure":"fitness_centre","name":"F45 Training","short_name":"F45"}},"leisure/fitness_centre/fernwoodfitness-c88de3":{"name":"Fernwood Fitness","locationSet":{"include":["au"]},"geometry":["point","area"],"matchScore":2,"terms":["fernwood fitness"],"tags":{"brand:wikidata":"Q115668528","leisure":"fitness_centre"},"addTags":{"brand":"Fernwood Fitness","brand:wikidata":"Q115668528","female":"yes","leisure":"fitness_centre","name":"Fernwood Fitness"}},"leisure/fitness_centre/fitnessfirst-6ff977":{"name":"Fitness First","locationSet":{"include":["ae","au","de","gb","ph","th"]},"geometry":["point","area"],"matchScore":2,"terms":["fitness first"],"tags":{"brand:wikidata":"Q127120","leisure":"fitness_centre"},"addTags":{"brand":"Fitness First","brand:wikidata":"Q127120","leisure":"fitness_centre","name":"Fitness First"}},"leisure/fitness_centre/hotworx-cee411":{"name":"Hotworx","locationSet":{"include":["au","ie","us"]},"geometry":["point","area"],"matchScore":2,"terms":["hotworx"],"tags":{"brand:wikidata":"Q115527690","leisure":"fitness_centre"},"addTags":{"brand":"Hotworx","brand:wikidata":"Q115527690","leisure":"fitness_centre","name":"Hotworx"}},"leisure/fitness_centre/kiesertraining-a70e35":{"name":"Kieser Training","locationSet":{"include":["at","au","ch","de","lu"]},"geometry":["point","area"],"matchScore":2,"terms":["kieser training"],"tags":{"brand:wikidata":"Q1112367","leisure":"fitness_centre"},"addTags":{"brand":"Kieser Training","brand:wikidata":"Q1112367","leisure":"fitness_centre","name":"Kieser Training"}},"leisure/fitness_centre/snapfitness-551086":{"name":"Snap Fitness","locationSet":{"include":["ae","au","be","ca","es","gb","hk","id","ie","jp","mx","nl","nz","ph","tr","tw","us"]},"geometry":["point","area"],"matchScore":2,"terms":["snap fitness"],"tags":{"brand:wikidata":"Q7547254","leisure":"fitness_centre"},"addTags":{"brand":"Snap Fitness","brand:wikidata":"Q7547254","leisure":"fitness_centre","name":"Snap Fitness"}},"leisure/fitness_centre/virginactive-4a682e":{"name":"Virgin Active","locationSet":{"include":["au","bw","gb","it","na","sg","th","za"]},"geometry":["point","area"],"matchScore":2,"terms":["virgin active"],"tags":{"brand:wikidata":"Q4013942","leisure":"fitness_centre"},"addTags":{"brand":"Virgin Active","brand:wikidata":"Q4013942","leisure":"fitness_centre","name":"Virgin Active"}},"leisure/fitness_centre/zapfitness-c88de3":{"name":"Zap Fitness","locationSet":{"include":["au"]},"geometry":["point","area"],"matchScore":2,"terms":["zap fitness"],"tags":{"brand:wikidata":"Q106119874","leisure":"fitness_centre"},"addTags":{"brand":"Zap Fitness","brand:wikidata":"Q106119874","leisure":"fitness_centre","name":"Zap Fitness"}},"leisure/miniature_golf/holeymoley-936f06":{"name":"Holey Moley","locationSet":{"include":["au","nz","sg"]},"geometry":["area","point"],"matchScore":2,"terms":["holey moley"],"tags":{"brand:wikidata":"Q85766991","leisure":"miniature_golf"},"addTags":{"bar":"yes","brand":"Holey Moley","brand:wikidata":"Q85766991","food":"yes","leisure":"miniature_golf","name":"Holey Moley","sport":"miniature_golf"}},"leisure/playground/biba-d25aa3":{"name":"Biba Smart Playground","locationSet":{"include":["au","ca","de","gb","hr","il","mx","nz","sg","us"]},"geometry":["area","point"],"matchScore":2,"terms":["biba"],"tags":{"brand:wikidata":"Q116211938","leisure":"playground"},"addTags":{"brand":"Biba","brand:wikidata":"Q116211938","leisure":"playground"}},"leisure/sports_centre/topgolf-9025ef":{"name":"Topgolf","locationSet":{"include":["ae","au","cn","de","mx","th","uk","us"]},"geometry":["point","area"],"matchScore":2,"terms":["topgolf"],"fields":["name","brand","{leisure/sports_centre}"],"tags":{"brand:wikidata":"Q7824379","leisure":"sports_centre"},"addTags":{"brand":"Topgolf","brand:wikidata":"Q7824379","leisure":"sports_centre","name":"Topgolf","sport":"golf"}},"office/estate_agent/belleproperty-d66f4e":{"name":"Belle Property","locationSet":{"include":["au"]},"geometry":["point","area"],"matchScore":2,"terms":["belle","belle property"],"tags":{"brand:wikidata":"Q104721339","office":"estate_agent"},"addTags":{"brand":"Belle Property","brand:wikidata":"Q104721339","name":"Belle Property","office":"estate_agent","short_name":"Belle"}},"office/estate_agent/dijones-d66f4e":{"name":"Di Jones","locationSet":{"include":["au"]},"geometry":["point","area"],"matchScore":2,"terms":["di jones"],"tags":{"brand:wikidata":"Q105290274","office":"estate_agent"},"addTags":{"brand":"Di Jones","brand:wikidata":"Q105290274","name":"Di Jones","office":"estate_agent"}},"office/estate_agent/fletchers-d66f4e":{"name":"Fletchers","locationSet":{"include":["au"]},"geometry":["point","area"],"matchScore":2,"terms":["fletchers"],"tags":{"brand:wikidata":"Q106236137","office":"estate_agent"},"addTags":{"brand":"Fletchers","brand:wikidata":"Q106236137","name":"Fletchers","office":"estate_agent"}},"office/estate_agent/jelliscraig-d66f4e":{"name":"Jellis Craig","locationSet":{"include":["au"]},"geometry":["point","area"],"matchScore":2,"terms":["jellis craig"],"tags":{"brand:wikidata":"Q106236086","office":"estate_agent"},"addTags":{"brand":"Jellis Craig","brand:wikidata":"Q106236086","name":"Jellis Craig","office":"estate_agent"}},"office/estate_agent/mcgrath-d66f4e":{"name":"McGrath","locationSet":{"include":["au"]},"geometry":["point","area"],"matchScore":2,"terms":["mcgrath"],"tags":{"brand:wikidata":"Q105290661","office":"estate_agent"},"addTags":{"brand":"McGrath","brand:wikidata":"Q105290661","name":"McGrath","office":"estate_agent"}},"office/estate_agent/nelsonalexander-d66f4e":{"name":"Nelson Alexander","locationSet":{"include":["au"]},"geometry":["point","area"],"matchScore":2,"terms":["nelson alexander"],"tags":{"brand:wikidata":"Q106236053","office":"estate_agent"},"addTags":{"brand":"Nelson Alexander","brand:wikidata":"Q106236053","name":"Nelson Alexander","office":"estate_agent"}},"office/estate_agent/raywhite-85c03d":{"name":"Ray White","locationSet":{"include":["au","nz"]},"geometry":["point","area"],"matchScore":2,"terms":["ray white"],"tags":{"brand:wikidata":"Q81077729","office":"estate_agent"},"addTags":{"brand":"Ray White","brand:wikidata":"Q81077729","name":"Ray White","office":"estate_agent"}},"office/estate_agent/stone-d66f4e":{"name":"Stone","locationSet":{"include":["au"]},"geometry":["point","area"],"matchScore":2,"terms":["stone"],"tags":{"brand:wikidata":"Q105290093","office":"estate_agent"},"addTags":{"brand":"Stone","brand:wikidata":"Q105290093","name":"Stone","office":"estate_agent"}},"office/insurance/allianz-332499":{"name":"Allianz","locationSet":{"include":["ae","ar","at","au","be","bg","bh","bm","bn","br","ca","cg","ch","ci","cm","cn","co","cy","cz","de","dk","ee","eg","es","fi","fr","gb","gf","gg","gh","gp","gr","hk","hr","hu","id","ie","in","is","it","ja","ke","kr","kw","la","li","lk","lt","lu","lv","ma","mg","mx","my","ng","nl","no","nz","om","ph","pk","pl","pt","qa","ro","ru","sa","se","sg","si","sk","sn","th","tr","tw","ua","us","za"]},"geometry":["point","area"],"matchScore":2,"terms":["allianz"],"fields":["name","brand","{office/insurance}"],"tags":{"brand:wikidata":"Q487292","office":"insurance"},"addTags":{"brand":"Allianz","brand:wikidata":"Q487292","name":"Allianz","office":"insurance"}},"office/insurance/axa-2e7672":{"name":"AXA","locationSet":{"include":["ae","ar","au","be","bh","bm","br","ca","ch","ci","cl","cm","cn","co","cz","de","dk","dz","eg","es","fi","fr","ga","gb","gr","hk","id","ie","in","it","jp","kr","lb","lu","ma","mu","mx","my","ng","nl","no","om","pa","pe","ph","pl","pt","qa","sa","se","sg","sk","sn","th","tr","tw","us"]},"geometry":["point","area"],"matchScore":2,"terms":["axa"],"fields":["name","brand","{office/insurance}"],"tags":{"brand:wikidata":"Q160054","office":"insurance"},"addTags":{"brand":"AXA","brand:wikidata":"Q160054","name":"AXA","office":"insurance"}},"office/insurance/zurich-2d6c95":{"name":"Zurich","locationSet":{"include":["ae","at","au","be","bh","br","ca","ch","cl","cn","co","de","ec","es","fi","fr","gb","hk","id","ie","it","ja","kw","lb","li","lu","mx","my","nl","no","nz","om","pt","qa","se","sg","sk","tr","us"]},"geometry":["point","area"],"matchScore":2,"terms":["zurich"],"fields":["name","brand","{office/insurance}"],"tags":{"brand:wikidata":"Q230426","office":"insurance"},"addTags":{"brand":"Zurich","brand:wikidata":"Q230426","name":"Zurich","office":"insurance"}},"office/tax_advisor/handrblock-c966c8":{"name":"H&R Block","locationSet":{"include":["au","ca","in","us"]},"geometry":["point","area"],"matchScore":2,"terms":["h&r block","hr block"],"tags":{"brand:wikidata":"Q5627799","office":"tax_advisor"},"addTags":{"brand":"H&R Block","brand:wikidata":"Q5627799","name":"H&R Block","office":"tax_advisor"}},"office/telecommunication/beeline-31646e":{"name":"Beeline","locationSet":{"include":["am","au","la","vn"]},"geometry":["point","area"],"matchScore":2,"terms":["beeline"],"tags":{"brand:wikidata":"Q402880","office":"telecommunication"},"addTags":{"brand":"Beeline","brand:wikidata":"Q402880","name":"Beeline","office":"telecommunication"}},"shop/alcohol/bottlemart-cb3c62":{"name":"Bottlemart","locationSet":{"include":["au"]},"geometry":["point","area"],"matchScore":2,"terms":["bottlemart"],"tags":{"brand:wikidata":"Q102863175","shop":"alcohol"},"addTags":{"brand":"Bottlemart","brand:wikidata":"Q102863175","name":"Bottlemart","shop":"alcohol"}},"shop/alcohol/bws-cb3c62":{"name":"BWS","locationSet":{"include":["au"]},"geometry":["point","area"],"matchScore":2,"terms":["bws"],"tags":{"brand:wikidata":"Q4836848","shop":"alcohol"},"addTags":{"brand":"BWS","brand:wikidata":"Q4836848","name":"BWS","shop":"alcohol"}},"shop/alcohol/cellarbrations-cb3c62":{"name":"Cellarbrations","locationSet":{"include":["au"]},"geometry":["point","area"],"matchScore":2,"terms":["cellarbrations"],"tags":{"brand:wikidata":"Q109807592","shop":"alcohol"},"addTags":{"brand":"Cellarbrations","brand:wikidata":"Q109807592","name":"Cellarbrations","shop":"alcohol"}},"shop/alcohol/danmurphys-cb3c62":{"name":"Dan Murphy's","locationSet":{"include":["au"]},"geometry":["point","area"],"matchScore":2,"terms":["dan murphy's"],"tags":{"brand:wikidata":"Q5214075","shop":"alcohol"},"addTags":{"brand":"Dan Murphy's","brand:wikidata":"Q5214075","name":"Dan Murphy's","shop":"alcohol"}},"shop/alcohol/firstchoiceliquor-cb3c62":{"name":"First Choice Liquor","locationSet":{"include":["au"]},"geometry":["point","area"],"matchScore":2,"terms":["first choice liquor"],"tags":{"brand:wikidata":"Q4596269","shop":"alcohol"},"addTags":{"brand":"First Choice Liquor","brand:wikidata":"Q4596269","name":"First Choice Liquor","shop":"alcohol"}},"shop/alcohol/liquorland-cb3c62":{"name":"Liquorland (Australia)","locationSet":{"include":["au"]},"geometry":["point","area"],"matchScore":2,"terms":["liquorland"],"tags":{"brand:wikidata":"Q2283837","shop":"alcohol"},"addTags":{"brand":"Liquorland","brand:wikidata":"Q2283837","name":"Liquorland","shop":"alcohol"}},"shop/alcohol/thirstycamel-cb3c62":{"name":"Thirsty Camel","locationSet":{"include":["au"]},"geometry":["point","area"],"matchScore":2,"terms":["thirsty camel"],"tags":{"brand:wikidata":"Q113503937","shop":"alcohol"},"addTags":{"brand":"Thirsty Camel","brand:wikidata":"Q113503937","name":"Thirsty Camel","shop":"alcohol"}},"shop/art/lumas-60f999":{"name":"Lumas","locationSet":{"include":["at","au","ca","ch","de","fr","gb","hu","us"]},"geometry":["point","area"],"matchScore":2,"terms":["lumas"],"tags":{"brand:wikidata":"Q1452381","shop":"art"},"addTags":{"brand":"Lumas","brand:wikidata":"Q1452381","name":"Lumas","shop":"art"}},"shop/baby_goods/babybunting-124709":{"name":"Baby Bunting","locationSet":{"include":["au","nz"]},"geometry":["point","area"],"matchScore":2,"terms":["baby bunting"],"tags":{"brand:wikidata":"Q109626935","shop":"baby_goods"},"addTags":{"brand":"Baby Bunting","brand:wikidata":"Q109626935","name":"Baby Bunting","shop":"baby_goods"}},"shop/bakery/bakersdelight-3465b3":{"name":"Bakers Delight","locationSet":{"include":["au","ca","nz","us"]},"geometry":["point","area"],"matchScore":2,"terms":["bakers delight"],"tags":{"brand:wikidata":"Q4849261","shop":"bakery"},"addTags":{"brand":"Bakers Delight","brand:wikidata":"Q4849261","name":"Bakers Delight","shop":"bakery"}},"shop/bakery/balfours-c119fa":{"name":"Balfours","locationSet":{"include":["au"]},"geometry":["point","area"],"matchScore":2,"terms":["balfours"],"tags":{"brand:wikidata":"Q4850765","shop":"bakery"},"addTags":{"brand":"Balfours","brand:wikidata":"Q4850765","name":"Balfours","shop":"bakery","takeaway":"yes"}},"shop/bakery/banjosbakerycafe-c119fa":{"name":"Banjo's Bakery Cafe","locationSet":{"include":["au"]},"geometry":["point","area"],"matchScore":2,"terms":["banjo's bakery cafe"],"tags":{"brand:wikidata":"Q105904686","shop":"bakery"},"addTags":{"brand":"Banjo's Bakery Cafe","brand:wikidata":"Q105904686","name":"Banjo's Bakery Cafe","shop":"bakery"}},"shop/bakery/beechworthbakery-c119fa":{"name":"Beechworth Bakery","locationSet":{"include":["au"]},"geometry":["point","area"],"matchScore":2,"terms":["beechworth bakery"],"tags":{"brand:wikidata":"Q28183324","shop":"bakery"},"addTags":{"brand":"Beechworth Bakery","brand:wikidata":"Q28183324","name":"Beechworth Bakery","shop":"bakery"}},"shop/bakery/breadtop-c119fa":{"name":"Breadtop","locationSet":{"include":["au"]},"geometry":["point","area"],"matchScore":2,"terms":["breadtop"],"tags":{"brand:wikidata":"Q4959217","shop":"bakery"},"addTags":{"brand":"Breadtop","brand:wikidata":"Q4959217","cuisine":"chinese","name":"Breadtop","shop":"bakery"}},"shop/bakery/brumbysbakeries-c119fa":{"name":"Brumby's Bakeries","locationSet":{"include":["au"]},"geometry":["point","area"],"matchScore":2,"terms":["brumby's bakeries"],"tags":{"brand:wikidata":"Q4978794","shop":"bakery"},"addTags":{"brand":"Brumby's Bakeries","brand:wikidata":"Q4978794","name":"Brumby's Bakeries","shop":"bakery"}},"shop/bed/bedshead-156cc7":{"name":"Bedshead","locationSet":{"include":["au"]},"geometry":["point","area"],"matchScore":2,"terms":["bedshead"],"tags":{"brand:wikidata":"Q84452962","shop":"bed"},"addTags":{"brand":"Bedshead","brand:wikidata":"Q84452962","name":"Bedshead","shop":"bed"}},"shop/bed/fortywinks-156cc7":{"name":"Forty Winks","locationSet":{"include":["au"]},"geometry":["point","area"],"matchScore":2,"terms":["forty winks"],"tags":{"brand:wikidata":"Q106283438","shop":"bed"},"addTags":{"brand":"Forty Winks","brand:wikidata":"Q106283438","name":"Forty Winks","shop":"bed"}},"shop/bicycle/99bikes-0d00fa":{"name":"99 Bikes","locationSet":{"include":["au","nz"]},"geometry":["point","area"],"matchScore":2,"terms":["99 bikes","bike barn"],"tags":{"brand:wikidata":"Q110288298","shop":"bicycle"},"addTags":{"brand":"99 Bikes","brand:wikidata":"Q110288298","name":"99 Bikes","shop":"bicycle"}},"shop/bookmaker/tab-21679e":{"name":"TAB (Australia)","locationSet":{"include":["au"],"exclude":["au-wa"]},"geometry":["point","area"],"matchScore":2,"terms":["tab"],"tags":{"brand:wikidata":"Q110288149","shop":"bookmaker"},"addTags":{"brand":"TAB","brand:wikidata":"Q110288149","name":"TAB","shop":"bookmaker"}},"shop/car/holden-e02034":{"name":"Holden","locationSet":{"include":["au","nz"]},"geometry":["point","area"],"matchScore":2,"terms":["holden"],"fields":["name","brand","{shop/car}"],"searchable":false,"tags":{"brand:wikidata":"Q29281","shop":"car"},"addTags":{"brand":"Holden","brand:wikidata":"Q29281","name":"Holden","shop":"car"}},"shop/car/koenigsegg-45c2de":{"name":"Koenigsegg","locationSet":{"include":["ae","au","ca","ch","cn","de","es","gb","jp","kr","lb","mx","my","om","pl","se","sg","th","tw","us","za"]},"geometry":["point","area"],"matchScore":2,"terms":["koenigsegg"],"fields":["name","brand","{shop/car}"],"tags":{"brand:wikidata":"Q35594","shop":"car"},"addTags":{"brand":"Koenigsegg","brand:wikidata":"Q35594","name":"Koenigsegg","shop":"car"}},"shop/car_parts/autobarn-5404d0":{"name":"Autobarn","locationSet":{"include":["au"]},"geometry":["point","area"],"matchScore":2,"terms":["autobarn"],"tags":{"brand:wikidata":"Q105831666","shop":"car_parts"},"addTags":{"brand":"Autobarn","brand:wikidata":"Q105831666","name":"Autobarn","shop":"car_parts"}},"shop/car_parts/repco-ff9108":{"name":"Repco","locationSet":{"include":["au","nz"]},"geometry":["point","area"],"matchScore":2,"terms":["repco"],"tags":{"brand:wikidata":"Q173425","shop":"car_parts"},"addTags":{"brand":"Repco","brand:wikidata":"Q173425","name":"Repco","shop":"car_parts"}},"shop/car_parts/supercheapauto-ff9108":{"name":"Supercheap Auto","locationSet":{"include":["au","nz"]},"geometry":["point","area"],"matchScore":2,"terms":["supercheap auto"],"tags":{"brand:wikidata":"Q7643119","shop":"car_parts"},"addTags":{"brand":"Supercheap Auto","brand:wikidata":"Q7643119","name":"Supercheap Auto","shop":"car_parts"}},"shop/car_repair/goodyear-d2aca7":{"name":"Goodyear","locationSet":{"include":["au","ca","cl","pe","us"]},"geometry":["point","area"],"matchScore":2,"terms":["goodyear"],"fields":["name","brand","{shop/car_repair}"],"tags":{"brand:wikidata":"Q620875","shop":"car_repair"},"addTags":{"brand":"Goodyear","brand:wikidata":"Q620875","name":"Goodyear","shop":"car_repair"}},"shop/car_repair/mycartyreandauto-c3960a":{"name":"mycar Tyre & Auto","locationSet":{"include":["au"]},"geometry":["point","area"],"matchScore":2,"terms":["mycar tyre & auto"],"fields":["name","brand","{shop/car_repair}"],"tags":{"brand:wikidata":"Q106224674","shop":"car_repair"},"addTags":{"brand":"mycar Tyre & Auto","brand:wikidata":"Q106224674","name":"mycar Tyre & Auto","shop":"car_repair"}},"shop/charity/habitatforhumanityrestore-0873d3":{"name":"Habitat for Humanity ReStore","locationSet":{"include":["au","ca","nz","us"]},"geometry":["point","area"],"matchScore":2,"terms":["habitat for humanity restore","habitat restore","restore"],"tags":{"brand:wikidata":"Q108414596","shop":"charity"},"addTags":{"alt_name":"ReStore","brand":"Habitat for Humanity ReStore","brand:wikidata":"Q108414596","name":"Habitat for Humanity ReStore","second_hand":"yes","shop":"charity","short_name":"Habitat ReStore"}},"shop/charity/rspca-c2d19b":{"name":"RSPCA","locationSet":{"include":["au","gb"]},"geometry":["point","area"],"matchScore":2,"terms":["rspca"],"tags":{"brand:wikidata":"Q584819","shop":"charity"},"addTags":{"brand":"RSPCA","brand:wikidata":"Q584819","name":"RSPCA","shop":"charity"}},"shop/charity/thesalvationarmy-2031e0":{"name":"The Salvation Army","locationSet":{"include":["au","ca","gb","us"]},"geometry":["point","area"],"matchScore":2,"terms":["salvation army","the salvation army"],"tags":{"brand:wikidata":"Q188307","shop":"charity"},"addTags":{"brand":"The Salvation Army","brand:wikidata":"Q188307","name":"The Salvation Army","shop":"charity"}},"shop/clothes/bestandless-392c8b":{"name":"Best & Less","locationSet":{"include":["au"]},"geometry":["point","area"],"matchScore":2,"terms":["best & less"],"tags":{"brand:wikidata":"Q4896542","shop":"clothes"},"addTags":{"brand":"Best & Less","brand:wikidata":"Q4896542","name":"Best & Less","shop":"clothes"}},"shop/clothes/connor-392c8b":{"name":"Connor","locationSet":{"include":["au"]},"geometry":["point","area"],"matchScore":2,"terms":["connor","retail apparel group"],"tags":{"brand:wikidata":"Q113468988","shop":"clothes"},"addTags":{"brand":"Connor","brand:wikidata":"Q113468988","clothes":"men","name":"Connor","operator":"Retail Apparel Group","operator:wikidata":"Q111952124","shop":"clothes"}},"shop/clothes/countryroad-734e5a":{"name":"Country Road","locationSet":{"include":["au","nz","za"]},"geometry":["point","area"],"matchScore":2,"terms":["country road"],"tags":{"brand:wikidata":"Q2998907","shop":"clothes"},"addTags":{"brand":"Country Road","brand:wikidata":"Q2998907","name":"Country Road","shop":"clothes"}},"shop/clothes/generalpantsco-392c8b":{"name":"General Pants Co.","locationSet":{"include":["au"]},"geometry":["point","area"],"matchScore":2,"terms":["general pants co."],"tags":{"brand:wikidata":"Q5532086","shop":"clothes"},"addTags":{"brand":"General Pants Co.","brand:wikidata":"Q5532086","name":"General Pants Co.","shop":"clothes"}},"shop/clothes/ghanda-392c8b":{"name":"Ghanda","locationSet":{"include":["au"]},"geometry":["point","area"],"matchScore":2,"terms":["ghanda"],"tags":{"brand:wikidata":"Q105960946","shop":"clothes"},"addTags":{"brand":"Ghanda","brand:wikidata":"Q105960946","name":"Ghanda","shop":"clothes"}},"shop/clothes/hallensteins-2bb477":{"name":"Hallensteins","locationSet":{"include":["au","nz"]},"geometry":["point","area"],"matchScore":2,"terms":["hallenstein brothers"],"tags":{"brand:wikidata":"Q24189399","shop":"clothes"},"addTags":{"brand":"Hallenstein Brothers","brand:wikidata":"Q24189399","name":"Hallensteins","shop":"clothes"}},"shop/clothes/huffer-2bb477":{"name":"Huffer","locationSet":{"include":["au","nz"]},"geometry":["point","area"],"matchScore":2,"terms":["huffer"],"tags":{"brand:wikidata":"Q107862765","shop":"clothes"},"addTags":{"brand":"Huffer","brand:wikidata":"Q107862765","name":"Huffer","shop":"clothes"}},"shop/clothes/jayjays-2bb477":{"name":"Jay Jays","locationSet":{"include":["au","nz"]},"geometry":["point","area"],"matchScore":2,"terms":["jay jays"],"tags":{"brand:wikidata":"Q6166759","shop":"clothes"},"addTags":{"brand":"Jay Jays","brand:wikidata":"Q6166759","name":"Jay Jays","shop":"clothes"}},"shop/clothes/jigsaw-8babcc":{"name":"Jigsaw","locationSet":{"include":["au","gb","us"]},"geometry":["point","area"],"matchScore":2,"terms":["jigsaw"],"tags":{"brand:wikidata":"Q6192383","shop":"clothes"},"addTags":{"brand":"Jigsaw","brand:wikidata":"Q6192383","name":"Jigsaw","shop":"clothes"}},"shop/clothes/johnnybigg-392c8b":{"name":"Johnny Bigg","locationSet":{"include":["au"]},"geometry":["point","area"],"matchScore":2,"terms":["johnny bigg","retail apparel group"],"tags":{"brand:wikidata":"Q113469024","shop":"clothes"},"addTags":{"brand":"Johnny Bigg","brand:wikidata":"Q113469024","clothes":"men;oversize","name":"Johnny Bigg","operator":"Retail Apparel Group","operator:wikidata":"Q111952124","shop":"clothes"}},"shop/clothes/justjeans-2bb477":{"name":"Just Jeans","locationSet":{"include":["au","nz"]},"geometry":["point","area"],"matchScore":2,"terms":["just jeans"],"tags":{"brand:wikidata":"Q6316068","shop":"clothes"},"addTags":{"brand":"Just Jeans","brand:wikidata":"Q6316068","clothes":"denim","name":"Just Jeans","shop":"clothes"}},"shop/clothes/lowes-392c8b":{"name":"Lowes","locationSet":{"include":["au"]},"geometry":["point","area"],"matchScore":2,"terms":["lowes"],"tags":{"brand:wikidata":"Q6693996","shop":"clothes"},"addTags":{"brand":"Lowes","brand:wikidata":"Q6693996","name":"Lowes","shop":"clothes"}},"shop/clothes/lululemon-4c7083":{"name":"Lululemon","locationSet":{"include":["au","ca","de","gb","us"]},"geometry":["point","area"],"matchScore":2,"terms":["lululemon","lululemon athletica"],"tags":{"brand:wikidata":"Q6702957","shop":"clothes"},"addTags":{"brand":"Lululemon","brand:wikidata":"Q6702957","clothes":"men;women","name":"Lululemon","official_name":"Lululemon Athletica","shop":"clothes"}},"shop/clothes/patagonia-7718c5":{"name":"Patagonia","locationSet":{"include":["ar","at","au","ca","cl","cn","cz","de","fx","gb","hk","ie","it","jp","kr","pe","tw","us"]},"geometry":["point","area"],"matchScore":2,"terms":["patagonia"],"tags":{"brand:wikidata":"Q1660552","shop":"clothes"},"addTags":{"brand":"Patagonia","brand:wikidata":"Q1660552","clothes":"outdoor","name":"Patagonia","shop":"clothes"}},"shop/clothes/rivers-392c8b":{"name":"Rivers","locationSet":{"include":["au"]},"geometry":["point","area"],"matchScore":2,"terms":["rivers"],"tags":{"brand:wikidata":"Q106224813","shop":"clothes"},"addTags":{"brand":"Rivers","brand:wikidata":"Q106224813","name":"Rivers","shop":"clothes"}},"shop/clothes/rockwear-392c8b":{"name":"Rockwear","locationSet":{"include":["au"]},"geometry":["point","area"],"matchScore":2,"terms":["retail apparel group","rockwear"],"tags":{"brand:wikidata":"Q113469029","shop":"clothes"},"addTags":{"brand":"Rockwear","brand:wikidata":"Q113469029","clothes":"women;sports","name":"Rockwear","operator":"Retail Apparel Group","operator:wikidata":"Q111952124","shop":"clothes"}},"shop/clothes/roddandgunn-5bf61e":{"name":"Rodd & Gunn","locationSet":{"include":["au","ca","fx","gb","nz","us"]},"geometry":["point","area"],"matchScore":2,"terms":["rodd & gunn"],"tags":{"brand:wikidata":"Q85797658","shop":"clothes"},"addTags":{"brand":"Rodd & Gunn","brand:wikidata":"Q85797658","clothes":"men","name":"Rodd & Gunn","shop":"clothes"}},"shop/clothes/seedheritage-2bb477":{"name":"Seed Heritage","locationSet":{"include":["au","nz"]},"geometry":["point","area"],"matchScore":2,"terms":["seed heritage"],"tags":{"brand:wikidata":"Q106014671","shop":"clothes"},"addTags":{"brand":"Seed Heritage","brand:wikidata":"Q106014671","clothes":"women","name":"Seed Heritage","shop":"clothes"}},"shop/clothes/tarocash-392c8b":{"name":"Tarocash","locationSet":{"include":["au"]},"geometry":["point","area"],"matchScore":2,"terms":["retail apparel group","tarocash"],"tags":{"brand:wikidata":"Q7686519","shop":"clothes"},"addTags":{"brand":"Tarocash","brand:wikidata":"Q7686519","clothes":"men;fashion","name":"Tarocash","operator":"Retail Apparel Group","operator:wikidata":"Q111952124","shop":"clothes"}},"shop/clothes/witchery-392c8b":{"name":"Witchery","locationSet":{"include":["au"]},"geometry":["point","area"],"matchScore":2,"terms":["witchery"],"tags":{"brand:wikidata":"Q8027909","shop":"clothes"},"addTags":{"brand":"Witchery","brand:wikidata":"Q8027909","name":"Witchery","shop":"clothes"}},"shop/clothes/yd-392c8b":{"name":"yd.","locationSet":{"include":["au"]},"geometry":["point","area"],"matchScore":2,"terms":["retail apparel group","yd."],"tags":{"brand:wikidata":"Q113469019","shop":"clothes"},"addTags":{"brand":"yd.","brand:wikidata":"Q113469019","clothes":"men","name":"yd.","operator":"Retail Apparel Group","operator:wikidata":"Q111952124","shop":"clothes"}},"shop/convenience/bpshop-24c3f1":{"name":"BP Shop","locationSet":{"include":["au","ch","fr","gb","us"]},"geometry":["point","area"],"matchScore":2,"terms":["bp","bp shop"],"tags":{"brand:wikidata":"Q152057","shop":"convenience"},"addTags":{"brand":"BP Shop","brand:wikidata":"Q152057","name":"BP Shop","shop":"convenience"}},"shop/convenience/colesexpress-0b0ae9":{"name":"Coles Express","locationSet":{"include":["au"]},"geometry":["point","area"],"matchScore":2,"terms":["coles express","coles group"],"tags":{"brand:wikidata":"Q5144653","shop":"convenience"},"addTags":{"brand":"Coles Express","brand:wikidata":"Q5144653","name":"Coles Express","operator":"Coles Group","operator:wikidata":"Q1339055","shop":"convenience"}},"shop/convenience/egaustralia-0b0ae9":{"name":"EG Australia","locationSet":{"include":["au"]},"geometry":["point","area"],"matchScore":2,"terms":["eg australia","woolworths petrol"],"tags":{"brand:wikidata":"Q5023980","shop":"convenience"},"addTags":{"brand":"EG Australia","brand:wikidata":"Q5023980","name":"EG Australia","shop":"convenience"}},"shop/convenience/friendlygrocer-0b0ae9":{"name":"Friendly Grocer","locationSet":{"include":["au"]},"geometry":["point","area"],"matchScore":2,"terms":["friendly grocer"],"fields":["name","brand","{shop/convenience}"],"tags":{"brand:wikidata":"Q24190419","shop":"convenience"},"addTags":{"brand":"Friendly Grocer","brand:wikidata":"Q24190419","name":"Friendly Grocer","shop":"convenience"}},"shop/convenience/iga-0b0ae9":{"name":"IGA (Australia)","locationSet":{"include":["au"]},"geometry":["point","area"],"matchScore":2,"terms":["iga"],"fields":["name","brand","{shop/convenience}"],"tags":{"brand:wikidata":"Q5970945","shop":"convenience"},"addTags":{"brand":"IGA","brand:wikidata":"Q5970945","name":"IGA","shop":"convenience"}},"shop/convenience/otr-0b0ae9":{"name":"OTR","locationSet":{"include":["au"]},"geometry":["point","area"],"matchScore":2,"terms":["otr"],"tags":{"brand:wikidata":"Q116394019","shop":"convenience"},"addTags":{"brand":"OTR","brand:wikidata":"Q116394019","name":"OTR","shop":"convenience"}},"shop/convenience/united-0b0ae9":{"name":"United","locationSet":{"include":["au"]},"geometry":["point","area"],"matchScore":2,"terms":["united","united petroleum"],"tags":{"brand:wikidata":"Q28224393","shop":"convenience"},"addTags":{"brand":"United","brand:wikidata":"Q28224393","name":"United","shop":"convenience"}},"shop/convenience/woolworthsmetrogo-0b0ae9":{"name":"Woolworths MetroGo","locationSet":{"include":["au"]},"geometry":["point","area"],"matchScore":2,"terms":["woolworths group","woolworths metrogo"],"tags":{"brand:wikidata":"Q111772555","shop":"convenience"},"addTags":{"brand":"Woolworths MetroGo","brand:wikidata":"Q111772555","name":"Woolworths MetroGo","operator":"Woolworths Group","operator:wikidata":"Q607272","shop":"convenience"}},"shop/copyshop/minutemanpress-a4530d":{"name":"Minuteman Press","locationSet":{"include":["au","gb","us"]},"geometry":["point","area"],"matchScore":2,"terms":["minuteman press"],"tags":{"brand:wikidata":"Q64866081","shop":"copyshop"},"addTags":{"brand":"Minuteman Press","brand:wikidata":"Q64866081","name":"Minuteman Press","shop":"copyshop"}},"shop/cosmetics/bareminerals-fdc7bb":{"name":"bareMinerals","locationSet":{"include":["au","ca","dk","gb","ie","us"]},"geometry":["point","area"],"matchScore":2,"terms":["bareminerals"],"tags":{"brand:wikidata":"Q66740659","shop":"cosmetics"},"addTags":{"brand":"bareMinerals","brand:wikidata":"Q66740659","name":"bareMinerals","shop":"cosmetics"}},"shop/department_store/bigw-c93bbd":{"name":"Big W","locationSet":{"include":["au"]},"geometry":["point","area"],"matchScore":2,"terms":["big w"],"tags":{"brand:wikidata":"Q4906646","shop":"department_store"},"addTags":{"brand":"Big W","brand:wikidata":"Q4906646","name":"Big W","shop":"department_store"}},"shop/department_store/davidjones-c93bbd":{"name":"David Jones","locationSet":{"include":["au"]},"geometry":["point","area"],"matchScore":2,"terms":["david jones"],"tags":{"brand:wikidata":"Q5235753","shop":"department_store"},"addTags":{"brand":"David Jones","brand:wikidata":"Q5235753","name":"David Jones","shop":"department_store"}},"shop/department_store/dimmeys-c93bbd":{"name":"Dimmeys","locationSet":{"include":["au"]},"geometry":["point","area"],"matchScore":2,"terms":["dimmeys"],"tags":{"brand:wikidata":"Q17003075","shop":"department_store"},"addTags":{"brand":"Dimmeys","brand:wikidata":"Q17003075","name":"Dimmeys","shop":"department_store"}},"shop/department_store/harrisscarfe-c93bbd":{"name":"Harris Scarfe","locationSet":{"include":["au"]},"geometry":["point","area"],"matchScore":2,"terms":["harris scarfe"],"tags":{"brand:wikidata":"Q5665029","shop":"department_store"},"addTags":{"brand":"Harris Scarfe","brand:wikidata":"Q5665029","name":"Harris Scarfe","shop":"department_store"}},"shop/department_store/harveynorman-b73e73":{"name":"Harvey Norman","locationSet":{"include":["au","gb","ie","nz"]},"geometry":["point","area"],"matchScore":2,"terms":["harvey norman"],"tags":{"brand:wikidata":"Q4040441","shop":"department_store"},"addTags":{"brand":"Harvey Norman","brand:wikidata":"Q4040441","name":"Harvey Norman","shop":"department_store"}},"shop/department_store/khub-c93bbd":{"name":"K Hub","locationSet":{"include":["au"]},"geometry":["point","area"],"matchScore":2,"terms":["kmart"],"tags":{"brand:wikidata":"Q6421682","shop":"department_store"},"addTags":{"brand":"Kmart","brand:wikidata":"Q6421682","name":"K Hub","shop":"department_store"}},"shop/department_store/kmart-2e4a6e":{"name":"Kmart (Australia/NZ)","locationSet":{"include":["au","nz"]},"geometry":["point","area"],"matchScore":2,"terms":["kmart"],"tags":{"brand:wikidata":"Q6421682","shop":"department_store"},"addTags":{"brand":"Kmart","brand:wikidata":"Q6421682","name":"Kmart","shop":"department_store"}},"shop/department_store/lottedutyfree-8352b8":{"name":"Lotte Duty Free","locationSet":{"include":["au","gu","jp","kr","nz","th","vn"]},"geometry":["point","area"],"matchScore":2,"terms":["lotte duty free","롯데면세점","ロッテ免税"],"tags":{"brand:wikidata":"Q12594196","shop":"department_store"},"addTags":{"brand":"Lotte Duty Free","brand:wikidata":"Q12594196","duty_free":"yes","name":"Lotte Duty Free","name:en":"Lotte Duty Free","name:ja":"ロッテ免税","name:ko":"롯데면세점","shop":"department_store"}},"shop/department_store/muji-b9b204":{"name":"Muji","locationSet":{"include":["au","ca","ch","de","es","fi","fr","gb","ie","it","pl","pt","se","tr"]},"geometry":["point","area"],"matchScore":2,"terms":["muji","無印良品"],"tags":{"brand:wikidata":"Q708789","shop":"department_store"},"addTags":{"brand":"Muji","brand:en":"Muji","brand:ja":"無印良品","brand:wikidata":"Q708789","name":"Muji","name:en":"Muji","name:ja":"無印良品","shop":"department_store"}},"shop/department_store/myer-c93bbd":{"name":"Myer","locationSet":{"include":["au"]},"geometry":["point","area"],"matchScore":2,"terms":["myer"],"tags":{"brand:wikidata":"Q1110323","shop":"department_store"},"addTags":{"brand":"Myer","brand:wikidata":"Q1110323","name":"Myer","shop":"department_store"}},"shop/department_store/target-c93bbd":{"name":"Target (Australia)","locationSet":{"include":["au"]},"geometry":["point","area"],"matchScore":2,"terms":["target"],"tags":{"brand:wikidata":"Q7685854","shop":"department_store"},"addTags":{"brand":"Target","brand:wikidata":"Q7685854","name":"Target","shop":"department_store"}},"shop/department_store/tkmaxx-d02268":{"name":"TK Maxx","locationSet":{"include":["at","au","de","ie","nl","pl","uk"]},"geometry":["point","area"],"matchScore":2,"terms":["tk maxx"],"tags":{"brand:wikidata":"Q23823668","shop":"department_store"},"addTags":{"brand":"TK Maxx","brand:wikidata":"Q23823668","name":"TK Maxx","shop":"department_store"}},"shop/doityourself/bunningswarehouse-aaac5b":{"name":"Bunnings Warehouse","locationSet":{"include":["au","nz"]},"geometry":["point","area"],"matchScore":2,"terms":["bunnings warehouse"],"tags":{"brand:wikidata":"Q4997829","shop":"doityourself"},"addTags":{"brand":"Bunnings Warehouse","brand:wikidata":"Q4997829","name":"Bunnings Warehouse","shop":"doityourself"}},"shop/doityourself/hometimberandhardware-b05cd0":{"name":"Home Timber & Hardware (Australia)","locationSet":{"include":["au"]},"geometry":["point","area"],"matchScore":2,"terms":["home","home hardware","home timber & hardware"],"tags":{"brand:wikidata":"Q17006984","shop":"doityourself"},"addTags":{"alt_name":"Home Hardware","brand":"Home Timber & Hardware","brand:wikidata":"Q17006984","name":"Home Timber & Hardware","shop":"doityourself","short_name":"Home"}},"shop/doityourself/mitre10-b05cd0":{"name":"Mitre 10","locationSet":{"include":["au"]},"geometry":["point","area"],"matchScore":2,"terms":["mitre 10"],"tags":{"brand:wikidata":"Q6882393","shop":"doityourself"},"addTags":{"brand":"Mitre 10","brand:wikidata":"Q6882393","name":"Mitre 10","shop":"doityourself"}},"shop/electrical/rexel-091354":{"name":"Rexel","locationSet":{"include":["at","au","be","ca","ch","cn","de","es","fi","fr","gb","ie","in","it","lu","me","nl","no","nz","pt","se","si","us"]},"geometry":["point","area"],"matchScore":2,"terms":["rexel"],"tags":{"brand:wikidata":"Q962489","shop":"electrical"},"addTags":{"brand":"Rexel","brand:wikidata":"Q962489","name":"Rexel","shop":"electrical"}},"shop/electronics/binglee-026a7a":{"name":"Bing Lee","locationSet":{"include":["au"]},"geometry":["point","area"],"matchScore":2,"terms":["bing lee"],"tags":{"brand:wikidata":"Q4914136","shop":"electronics"},"addTags":{"brand":"Bing Lee","brand:wikidata":"Q4914136","name":"Bing Lee","shop":"electronics"}},"shop/electronics/cex-75e32e":{"name":"CeX","locationSet":{"include":["au","es","gb","ie","in","it","mx","nl","pl","pt"]},"geometry":["point","area"],"matchScore":2,"terms":["cex"],"tags":{"brand:wikidata":"Q5055676","shop":"electronics"},"addTags":{"brand":"CeX","brand:wikidata":"Q5055676","name":"CeX","shop":"electronics"}},"shop/electronics/inmotion-d88b15":{"name":"InMotion","locationSet":{"include":["au","es","gb","us"]},"geometry":["point","area"],"matchScore":2,"terms":["inmotion"],"tags":{"brand:wikidata":"Q109648041","shop":"electronics"},"addTags":{"brand":"InMotion","brand:wikidata":"Q109648041","name":"InMotion","shop":"electronics"}},"shop/electronics/jaycar-2d5b11":{"name":"Jaycar","locationSet":{"include":["au","nz"]},"geometry":["point","area"],"matchScore":2,"terms":["jaycar"],"tags":{"brand:wikidata":"Q6167713","shop":"electronics"},"addTags":{"brand":"Jaycar","brand:wikidata":"Q6167713","name":"Jaycar","shop":"electronics"}},"shop/electronics/jbhifi-2d5b11":{"name":"JB Hi-Fi","locationSet":{"include":["au","nz"]},"geometry":["point","area"],"matchScore":2,"terms":["jb hi-fi"],"tags":{"brand:wikidata":"Q3310113","shop":"electronics"},"addTags":{"brand":"JB Hi-Fi","brand:wikidata":"Q3310113","name":"JB Hi-Fi","shop":"electronics"}},"shop/electronics/thegoodguys-026a7a":{"name":"The Good Guys","locationSet":{"include":["au"]},"geometry":["point","area"],"matchScore":2,"terms":["the good guys"],"tags":{"brand:wikidata":"Q7737217","shop":"electronics"},"addTags":{"brand":"The Good Guys","brand:wikidata":"Q7737217","name":"The Good Guys","shop":"electronics"}},"shop/fabric/lincraft-a43b83":{"name":"Lincraft","locationSet":{"include":["au","nz"]},"geometry":["point","area"],"matchScore":2,"terms":["lincraft"],"tags":{"brand:wikidata":"Q17052417","shop":"fabric"},"addTags":{"brand":"Lincraft","brand:wikidata":"Q17052417","name":"Lincraft","shop":"fabric"}},"shop/fabric/spotlight-0e32f9":{"name":"Spotlight","locationSet":{"include":["au","my","nz","sg"]},"geometry":["point","area"],"matchScore":2,"terms":["spotlight"],"tags":{"brand:wikidata":"Q105960982","shop":"fabric"},"addTags":{"brand":"Spotlight","brand:wikidata":"Q105960982","name":"Spotlight","shop":"fabric"}},"shop/fashion_accessories/mulberry-e1f087":{"name":"Mulberry","locationSet":{"include":["ae","au","ca","ch","cn","de","dk","fi","gb","ie","jp","kr","my","nl","no","se","sg","th","us"]},"geometry":["point","area"],"matchScore":2,"terms":["mulberry"],"tags":{"brand:wikidata":"Q3866987","shop":"fashion_accessories"},"addTags":{"brand":"Mulberry","brand:wikidata":"Q3866987","name":"Mulberry","shop":"fashion_accessories"}},"shop/furniture/1825interiors-0da980":{"name":"1825 Interiors","locationSet":{"include":["au"]},"geometry":["point","area"],"matchScore":2,"terms":["1825 interiors"],"tags":{"brand:wikidata":"Q111080640","shop":"furniture"},"addTags":{"brand":"1825 Interiors","brand:wikidata":"Q111080640","name":"1825 Interiors","shop":"furniture"}},"shop/furniture/domayne-0da980":{"name":"Domayne","locationSet":{"include":["au"]},"geometry":["point","area"],"matchScore":2,"terms":["domayne"],"tags":{"brand:wikidata":"Q106224590","shop":"furniture"},"addTags":{"brand":"Domayne","brand:wikidata":"Q106224590","name":"Domayne","shop":"furniture"}},"shop/furniture/earlysettler-42aa1b":{"name":"Early Settler","locationSet":{"include":["au","nz"]},"geometry":["point","area"],"matchScore":2,"terms":["early settler"],"tags":{"brand:wikidata":"Q111080173","shop":"furniture"},"addTags":{"brand":"Early Settler","brand:wikidata":"Q111080173","name":"Early Settler","shop":"furniture"}},"shop/furniture/eurekastreetfurniture-0da980":{"name":"Eureka Street Furniture","locationSet":{"include":["au"]},"geometry":["point","area"],"matchScore":2,"terms":["eureka street furniture"],"tags":{"brand:wikidata":"Q111081528","shop":"furniture"},"addTags":{"brand":"Eureka Street Furniture","brand:wikidata":"Q111081528","name":"Eureka Street Furniture","shop":"furniture"}},"shop/furniture/fantasticfurniture-0da980":{"name":"Fantastic Furniture","locationSet":{"include":["au"]},"geometry":["point","area"],"matchScore":2,"terms":["fantastic furniture"],"tags":{"brand:wikidata":"Q18164803","shop":"furniture"},"addTags":{"brand":"Fantastic Furniture","brand:wikidata":"Q18164803","name":"Fantastic Furniture","shop":"furniture"}},"shop/furniture/freedom-0da980":{"name":"Freedom","locationSet":{"include":["au"]},"geometry":["point","area"],"matchScore":2,"terms":["freedom","freedom furniture"],"tags":{"brand:wikidata":"Q5500546","shop":"furniture"},"addTags":{"brand":"Freedom","brand:wikidata":"Q5500546","name":"Freedom","shop":"furniture"}},"shop/furniture/nickscali-0da980":{"name":"Nick Scali","locationSet":{"include":["au"]},"geometry":["point","area"],"matchScore":2,"terms":["nick scali"],"tags":{"brand:wikidata":"Q17053453","shop":"furniture"},"addTags":{"brand":"Nick Scali","brand:wikidata":"Q17053453","name":"Nick Scali","shop":"furniture"}},"shop/furniture/ozdesignfurniture-0da980":{"name":"OZ Design Furniture","locationSet":{"include":["au"]},"geometry":["point","area"],"matchScore":2,"terms":["oz design furniture"],"tags":{"brand:wikidata":"Q111081305","shop":"furniture"},"addTags":{"brand":"OZ Design Furniture","brand:wikidata":"Q111081305","name":"OZ Design Furniture","shop":"furniture"}},"shop/furniture/plush-0da980":{"name":"Plush","locationSet":{"include":["au"]},"geometry":["point","area"],"matchScore":2,"terms":["plush"],"tags":{"brand:wikidata":"Q111081152","shop":"furniture"},"addTags":{"brand":"Plush","brand:wikidata":"Q111081152","name":"Plush","shop":"furniture"}},"shop/furniture/provincialhomeliving-0da980":{"name":"Provincial Home Living","locationSet":{"include":["au"]},"geometry":["point","area"],"matchScore":2,"terms":["provincial home living"],"tags":{"brand:wikidata":"Q111080958","shop":"furniture"},"addTags":{"brand":"Provincial Home Living","brand:wikidata":"Q111080958","name":"Provincial Home Living","shop":"furniture"}},"shop/herbalist/euyansang-7be159":{"name":"Eu Yan Sang","locationSet":{"include":["au","ca","my","sg","us"]},"geometry":["point","area"],"matchScore":2,"terms":["eu yan sang","余仁生"],"tags":{"brand:wikidata":"Q4207246","shop":"herbalist"},"addTags":{"brand":"Eu Yan Sang","brand:en":"Eu Yan Sang","brand:wikidata":"Q4207246","brand:zh":"余仁生","name":"Eu Yan Sang","name:en":"Eu Yan Sang","name:zh":"余仁生","shop":"herbalist"}},"shop/houseware/howardsstorageworld-9d9c4b":{"name":"Howards Storage World","locationSet":{"include":["au"]},"geometry":["point","area"],"matchScore":2,"terms":["howards storage world"],"tags":{"brand:wikidata":"Q106283555","shop":"houseware"},"addTags":{"brand":"Howards Storage World","brand:wikidata":"Q106283555","name":"Howards Storage World","shop":"houseware"}},"shop/jewelry/angusandcoote-0359a8":{"name":"Angus and Coote","locationSet":{"include":["au"]},"geometry":["point","area"],"matchScore":2,"terms":["angus and coote"],"tags":{"brand:wikidata":"Q18162112","shop":"jewelry"},"addTags":{"brand":"Angus and Coote","brand:wikidata":"Q18162112","name":"Angus and Coote","shop":"jewelry"}},"shop/jewelry/michaelhill-4ffa40":{"name":"Michael Hill","locationSet":{"include":["au","ca","nz","us"]},"geometry":["point","area"],"matchScore":2,"terms":["michael hill"],"tags":{"brand:wikidata":"Q3308250","shop":"jewelry"},"addTags":{"brand":"Michael Hill","brand:wikidata":"Q3308250","name":"Michael Hill","shop":"jewelry"}},"shop/jewelry/mimco-0359a8":{"name":"Mimco","locationSet":{"include":["au"]},"geometry":["point","area"],"matchScore":2,"terms":["mimco"],"tags":{"brand:wikidata":"Q106014291","shop":"jewelry"},"addTags":{"brand":"Mimco","brand:wikidata":"Q106014291","name":"Mimco","shop":"jewelry"}},"shop/jewelry/lukfookjewellery-7fe408":{"name":"六福珠宝","locationSet":{"include":["au","ca","cn","kh","my","sg","us"],"exclude":["hk","mo"]},"geometry":["point","area"],"matchScore":2,"terms":["lukfook jewellery","六福珠宝"],"tags":{"brand:wikidata":"Q10893397","shop":"jewelry"},"addTags":{"brand":"六福珠宝","brand:en":"LukFook Jewellery","brand:wikidata":"Q10893397","brand:zh":"六福珠宝","name":"六福珠宝","name:en":"LukFook Jewellery","name:zh":"六福珠宝","shop":"jewelry"}},"shop/jewelry/laofengxiang-45876e":{"name":"老凤祥","locationSet":{"include":["au","ca","cn","us"],"exclude":["hk","mo"]},"geometry":["point","area"],"matchScore":2,"terms":["lao feng xiang","老凤祥"],"tags":{"brand:wikidata":"Q15910313","shop":"jewelry"},"addTags":{"brand":"老凤祥","brand:en":"Lao Feng Xiang","brand:wikidata":"Q15910313","brand:zh":"老凤祥","name":"老凤祥","name:en":"Lao Feng Xiang","name:zh":"老凤祥","shop":"jewelry"}},"shop/kitchen/ixina-d089d8":{"name":"Ixina","locationSet":{"include":["ae","au","be","bf","bh","bj","ca","ci","cm","cn","cz","dz","ee","eg","fr","gh","hr","ke","kw","lu","ly","ma","mu","nl","pl","qa","ro","ru","sa","se","sn","tg","th","tn","vn"]},"geometry":["point","area"],"matchScore":2,"terms":["ixina"],"tags":{"brand:wikidata":"Q3156424","shop":"kitchen"},"addTags":{"brand":"Ixina","brand:wikidata":"Q3156424","name":"Ixina","shop":"kitchen"}},"shop/kitchen/kitchenconnection-8118ed":{"name":"KitchenConnection","locationSet":{"include":["au"]},"geometry":["point","area"],"matchScore":2,"terms":["kitchen connection"],"tags":{"brand:wikidata":"Q111081406","shop":"kitchen"},"addTags":{"brand":"Kitchen Connection","brand:wikidata":"Q111081406","name":"Kitchen Connection","shop":"kitchen"}},"shop/mall/directfactoryoutlets-3fb812":{"name":"Direct Factory Outlets","locationSet":{"include":["au"]},"geometry":["point","area"],"matchScore":2,"terms":["dfo","direct factory outlets"],"fields":["name","brand","{shop/mall}"],"tags":{"brand:wikidata":"Q5280270","shop":"mall"},"addTags":{"brand":"Direct Factory Outlets","brand:wikidata":"Q5280270","name":"Direct Factory Outlets","shop":"mall","short_name":"DFO"}},"shop/mall/gptgroup-3fb812":{"name":"GPT Group","locationSet":{"include":["au"]},"geometry":["point","area"],"matchScore":2,"terms":["gpt group"],"fields":["name","brand","{shop/mall}"],"tags":{"brand:wikidata":"Q3100507","shop":"mall"},"addTags":{"brand":"GPT Group","brand:wikidata":"Q3100507","name":"GPT Group","shop":"mall"}},"shop/mall/homeco-3fb812":{"name":"HomeCo","locationSet":{"include":["au"]},"geometry":["point","area"],"matchScore":2,"terms":["home consortium","homeco"],"fields":["name","brand","{shop/mall}"],"tags":{"brand:wikidata":"Q106773031","shop":"mall"},"addTags":{"brand":"HomeCo","brand:wikidata":"Q106773031","name":"HomeCo","shop":"mall"}},"shop/mall/vicinitycentres-3fb812":{"name":"Vicinity Centres","locationSet":{"include":["au"]},"geometry":["point","area"],"matchScore":2,"terms":["vicinity centres"],"fields":["name","brand","{shop/mall}"],"tags":{"brand:wikidata":"Q1054327","shop":"mall"},"addTags":{"brand":"Vicinity Centres","brand:wikidata":"Q1054327","name":"Vicinity Centres","shop":"mall"}},"shop/mall/westfield-1e4415":{"name":"Westfield (Australia/NZ)","locationSet":{"include":["au","nz"]},"geometry":["point","area"],"matchScore":2,"terms":["scentre group","westfield"],"fields":["name","brand","{shop/mall}"],"tags":{"brand:wikidata":"Q106623253","shop":"mall"},"addTags":{"brand":"Westfield","brand:wikidata":"Q106623253","name":"Westfield","operator":"Scentre Group","operator:wikidata":"Q18378048","shop":"mall"}},"shop/mobile_phone/optus-bae8bc":{"name":"Optus","locationSet":{"include":["au"]},"geometry":["point","area"],"matchScore":2,"terms":["optus"],"tags":{"brand:wikidata":"Q865038","shop":"mobile_phone"},"addTags":{"brand":"Optus","brand:wikidata":"Q865038","name":"Optus","shop":"mobile_phone"}},"shop/mobile_phone/telstra-bae8bc":{"name":"Telstra","locationSet":{"include":["au"]},"geometry":["point","area"],"matchScore":2,"terms":["telstra"],"tags":{"brand:wikidata":"Q721162","shop":"mobile_phone"},"addTags":{"brand":"Telstra","brand:wikidata":"Q721162","name":"Telstra","shop":"mobile_phone"}},"shop/optician/rayban-ace229":{"name":"Ray-Ban","locationSet":{"include":["ae","at","au","br","ca","de","es","fr","ie","it","jp","my","ne","tr","uk","us"]},"geometry":["point","area"],"matchScore":2,"terms":["ray-ban"],"fields":["name","brand","{shop/optician}"],"tags":{"brand:wikidata":"Q653941","shop":"optician"},"addTags":{"brand":"Ray-Ban","brand:wikidata":"Q653941","name":"Ray-Ban","shop":"optician"}},"shop/outdoor/anaconda-a827df":{"name":"Anaconda","locationSet":{"include":["au"]},"geometry":["point","area"],"matchScore":2,"terms":["anaconda"],"tags":{"brand:wikidata":"Q105981238","shop":"outdoor"},"addTags":{"brand":"Anaconda","brand:wikidata":"Q105981238","name":"Anaconda","shop":"outdoor"}},"shop/outdoor/barbequesgalore-a827df":{"name":"Barbeques Galore","locationSet":{"include":["au"]},"geometry":["point","area"],"matchScore":2,"terms":["barbeques galore"],"tags":{"brand:wikidata":"Q4859570","shop":"outdoor"},"addTags":{"brand":"Barbeques Galore","brand:wikidata":"Q4859570","name":"Barbeques Galore","shop":"outdoor"}},"shop/outdoor/bcf-a827df":{"name":"BCF","locationSet":{"include":["au"]},"geometry":["point","area"],"matchScore":2,"terms":["bcf"],"tags":{"brand:wikidata":"Q16246527","shop":"outdoor"},"addTags":{"brand":"BCF","brand:wikidata":"Q16246527","name":"BCF","shop":"outdoor"}},"shop/outdoor/kathmandu-7b766e":{"name":"Kathmandu","locationSet":{"include":["au","nz"]},"geometry":["point","area"],"matchScore":2,"terms":["kathmandu"],"tags":{"brand:wikidata":"Q1736294","shop":"outdoor"},"addTags":{"brand":"Kathmandu","brand:wikidata":"Q1736294","name":"Kathmandu","shop":"outdoor"}},"shop/outdoor/macpac-7b766e":{"name":"Macpac","locationSet":{"include":["au","nz"]},"geometry":["point","area"],"matchScore":2,"terms":["macpac"],"tags":{"brand:wikidata":"Q6724943","shop":"outdoor"},"addTags":{"brand":"Macpac","brand:wikidata":"Q6724943","name":"Macpac","shop":"outdoor"}},"shop/paint/resene-7091e6":{"name":"Resene","locationSet":{"include":["au","nc","nz"]},"geometry":["point","area"],"matchScore":2,"terms":["resene"],"fields":["name","brand","{shop/paint}"],"tags":{"brand:wikidata":"Q111951487","shop":"paint"},"addTags":{"brand":"Resene","brand:wikidata":"Q111951487","name":"Resene","shop":"paint"}},"shop/pastry/mrsfields-e944b6":{"name":"Mrs. Fields","locationSet":{"include":["au","ph","us-ak","us-al","us-az","us-ca","us-co","us-de","us-fl","us-ga","us-hi","us-id","us-il","us-in","us-ks","us-la","us-ma","us-md","us-me","us-mi","us-mo","us-ms","us-nc","us-nj","us-nv","us-ny","us-oh","us-ok","us-pa","us-tx","us-ut","us-wi"]},"geometry":["point","area"],"matchScore":2,"terms":["mrs. fields"],"tags":{"brand:wikidata":"Q3866841","shop":"pastry"},"addTags":{"brand":"Mrs. Fields","brand:wikidata":"Q3866841","name":"Mrs. Fields","shop":"pastry"}},"shop/pawnbroker/cashconverters-1c62e9":{"name":"Cash Converters","locationSet":{"include":["ae","au","be","ch","es","fr","lu","my","na","nz","pt","sg","uk","za"]},"geometry":["point","area"],"matchScore":2,"terms":["cash converters"],"tags":{"brand:wikidata":"Q5048645","shop":"pawnbroker"},"addTags":{"brand":"Cash Converters","brand:wikidata":"Q5048645","name":"Cash Converters","shop":"pawnbroker"}},"shop/pet/bestfriends-26188c":{"name":"Best Friends","locationSet":{"include":["au"]},"geometry":["point","area"],"matchScore":2,"terms":["best friends"],"tags":{"brand:wikidata":"Q106540748","shop":"pet"},"addTags":{"brand":"Best Friends","brand:wikidata":"Q106540748","name":"Best Friends","shop":"pet"}},"shop/pet/petbarn-26188c":{"name":"Petbarn","locationSet":{"include":["au"]},"geometry":["point","area"],"matchScore":2,"terms":["petbarn"],"tags":{"brand:wikidata":"Q104746468","shop":"pet"},"addTags":{"brand":"Petbarn","brand:wikidata":"Q104746468","name":"Petbarn","shop":"pet"}},"shop/pet/petstock-26188c":{"name":"Petstock","locationSet":{"include":["au"]},"geometry":["point","area"],"matchScore":2,"terms":["petstock"],"tags":{"brand:wikidata":"Q106540728","shop":"pet"},"addTags":{"brand":"Petstock","brand:wikidata":"Q106540728","name":"Petstock","shop":"pet"}},"shop/kennardshire-cc85b7":{"name":"Kennards Hire","locationSet":{"include":["au","nz"]},"geometry":["point","area"],"matchScore":2,"terms":["kennards hire"],"fields":["name","brand","{shop}"],"tags":{"brand:wikidata":"Q63557330","shop":"plant_hire"},"addTags":{"brand":"Kennards Hire","brand:wikidata":"Q63557330","name":"Kennards Hire","shop":"plant_hire"}},"shop/second_hand/savers-cb877b":{"name":"Savers","locationSet":{"include":["au","ca","us"]},"geometry":["point","area"],"matchScore":2,"terms":["savers"],"tags":{"brand:wikidata":"Q7428188","shop":"second_hand"},"addTags":{"brand":"Savers","brand:wikidata":"Q7428188","name":"Savers","shop":"second_hand"}},"shop/shoes/ugg-14c07b":{"name":"UGG","locationSet":{"include":["au","us"]},"geometry":["point","area"],"matchScore":2,"terms":["ugg"],"tags":{"brand:wikidata":"Q1138480","shop":"shoes"},"addTags":{"brand":"UGG","brand:wikidata":"Q1138480","name":"UGG","shop":"shoes"}},"shop/sports/jdsports-b01dfc":{"name":"JD Sports","locationSet":{"include":["au","de","es","fr","gb","ie","nl","pt"]},"geometry":["point","area"],"matchScore":2,"terms":["jd","jd sports"],"tags":{"brand:wikidata":"Q6108019","shop":"sports"},"addTags":{"brand":"JD Sports","brand:wikidata":"Q6108019","name":"JD Sports","shop":"sports"}},"shop/sports/rapha-e13309":{"name":"Rapha","locationSet":{"include":["au","de","dk","es","gb","hk","jp","kr","nl","tw","us"]},"geometry":["point","area"],"matchScore":2,"terms":["rapha","ラファ"],"tags":{"brand:wikidata":"Q7293931","shop":"sports"},"addTags":{"brand":"Rapha","brand:en":"Rapha","brand:ja":"ラファ","brand:wikidata":"Q7293931","name":"Rapha","name:en":"Rapha","name:ja":"ラファ","shop":"sports","sport":"cycling"}},"shop/sports/rebel-81181e":{"name":"Rebel","locationSet":{"include":["au"]},"geometry":["point","area"],"matchScore":2,"terms":["rebel"],"tags":{"brand:wikidata":"Q18636397","shop":"sports"},"addTags":{"brand":"Rebel","brand:wikidata":"Q18636397","name":"Rebel","shop":"sports"}},"shop/stationery/officeworks-52dece":{"name":"Officeworks","locationSet":{"include":["au"]},"geometry":["point","area"],"matchScore":2,"terms":["officeworks"],"tags":{"brand:wikidata":"Q7079486","shop":"stationery"},"addTags":{"brand":"Officeworks","brand:wikidata":"Q7079486","name":"Officeworks","shop":"stationery"}},"shop/storage_rental/kennardsstorage-e49450":{"name":"Kennards Storage","locationSet":{"include":["au","nz"]},"geometry":["point","area"],"matchScore":2,"terms":["kennards storage"],"fields":["name","brand","{shop/storage_rental}"],"tags":{"brand:wikidata":"Q115565997","shop":"storage_rental"},"addTags":{"brand":"Kennards Storage","brand:wikidata":"Q115565997","name":"Kennards Storage","shop":"storage_rental"}},"shop/storage_rental/nationalstorage-e49450":{"name":"National Storage","locationSet":{"include":["au","nz"]},"geometry":["point","area"],"matchScore":2,"terms":["national storage"],"tags":{"brand:wikidata":"Q21178908","shop":"storage_rental"},"addTags":{"brand":"National Storage","brand:wikidata":"Q21178908","name":"National Storage","shop":"storage_rental"}},"shop/storage_rental/storageking-e49450":{"name":"Storage King","locationSet":{"include":["au","nz"]},"geometry":["point","area"],"matchScore":2,"terms":["storage king"],"tags":{"brand:wikidata":"Q114353097","shop":"storage_rental"},"addTags":{"brand":"Storage King","brand:wikidata":"Q114353097","name":"Storage King","shop":"storage_rental"}},"shop/supermarket/aldi-0d26d7":{"name":"ALDI (ALDI Süd group)","locationSet":{"include":["au","ch","cn","gb","hu","ie","it","us"],"exclude":["de"]},"geometry":["point","area"],"matchScore":2,"terms":["aldi"],"tags":{"brand:wikidata":"Q41171672","shop":"supermarket"},"addTags":{"brand":"ALDI","brand:wikidata":"Q41171672","name":"ALDI","shop":"supermarket"}},"shop/supermarket/coles-0aa0b6":{"name":"Coles","locationSet":{"include":["au","gb"]},"geometry":["point","area"],"matchScore":2,"terms":["coles","coles group"],"tags":{"brand:wikidata":"Q1108172","shop":"supermarket"},"addTags":{"brand":"Coles","brand:wikidata":"Q1108172","name":"Coles","operator":"Coles Group","operator:wikidata":"Q1339055","shop":"supermarket"}},"shop/supermarket/colescentral-c254c9":{"name":"Coles Central","locationSet":{"include":["au"]},"geometry":["point","area"],"matchScore":2,"terms":["coles central","coles group"],"tags":{"brand:wikidata":"Q5144653","shop":"supermarket"},"addTags":{"brand":"Coles Central","brand:wikidata":"Q5144653","name":"Coles Central","operator":"Coles Group","operator:wikidata":"Q1339055","shop":"supermarket"}},"shop/supermarket/coleslocal-c254c9":{"name":"Coles Local","locationSet":{"include":["au"]},"geometry":["point","area"],"matchScore":2,"terms":["coles group","coles local"],"tags":{"brand:wikidata":"Q104850818","shop":"supermarket"},"addTags":{"brand":"Coles Local","brand:wikidata":"Q104850818","name":"Coles Local","operator":"Coles Group","operator:wikidata":"Q1339055","shop":"supermarket"}},"shop/supermarket/drakes-c254c9":{"name":"Drakes","locationSet":{"include":["au"]},"geometry":["point","area"],"matchScore":2,"terms":["drakes"],"tags":{"brand:wikidata":"Q48988077","shop":"supermarket"},"addTags":{"brand":"Drakes","brand:wikidata":"Q48988077","name":"Drakes","shop":"supermarket"}},"shop/supermarket/foodland-c254c9":{"name":"Foodland (Australia)","locationSet":{"include":["au"]},"geometry":["point","area"],"matchScore":2,"terms":["foodland"],"tags":{"brand:wikidata":"Q5465555","shop":"supermarket"},"addTags":{"brand":"Foodland","brand:wikidata":"Q5465555","name":"Foodland","shop":"supermarket"}},"shop/supermarket/foodworks-c254c9":{"name":"Foodworks","locationSet":{"include":["au"]},"geometry":["point","area"],"matchScore":2,"terms":["foodworks"],"tags":{"brand:wikidata":"Q5465579","shop":"supermarket"},"addTags":{"brand":"Foodworks","brand:wikidata":"Q5465579","name":"Foodworks","shop":"supermarket"}},"shop/supermarket/harrisfarmmarkets-c254c9":{"name":"Harris Farm Markets","locationSet":{"include":["au"]},"geometry":["point","area"],"matchScore":2,"terms":["harris market farms"],"tags":{"brand:wikidata":"Q5664888","shop":"supermarket"},"addTags":{"brand":"Harris Market Farms","brand:wikidata":"Q5664888","name":"Harris Farm Markets","shop":"supermarket"}},"shop/supermarket/iga-c254c9":{"name":"IGA (Australia)","locationSet":{"include":["au"]},"geometry":["point","area"],"matchScore":2,"terms":["iga"],"fields":["name","brand","{shop/supermarket}"],"tags":{"brand:wikidata":"Q5970945","shop":"supermarket"},"addTags":{"brand":"IGA","brand:wikidata":"Q5970945","name":"IGA","shop":"supermarket"}},"shop/supermarket/kflsupermarkets-c254c9":{"name":"KFL Supermarkets","locationSet":{"include":["au"]},"geometry":["point","area"],"matchScore":2,"terms":["kfl","kfl supermarkets","达成超市"],"tags":{"brand:wikidata":"Q113462406","shop":"supermarket"},"addTags":{"alt_name":"KFL","brand":"KFL Supermarkets","brand:wikidata":"Q113462406","name":"KFL Supermarkets","name:zh":"达成超市","origin":"asian","shop":"supermarket"}},"shop/supermarket/ritchies-c254c9":{"name":"Ritchies","locationSet":{"include":["au"]},"geometry":["point","area"],"matchScore":2,"terms":["ritchies"],"tags":{"brand:wikidata":"Q7336696","shop":"supermarket"},"addTags":{"brand":"Ritchies","brand:wikidata":"Q7336696","name":"Ritchies","shop":"supermarket"}},"shop/supermarket/supabarn-c254c9":{"name":"Supabarn","locationSet":{"include":["au"]},"geometry":["point","area"],"matchScore":2,"terms":["supabarn","supabarn supermarkets"],"tags":{"brand:wikidata":"Q7641883","shop":"supermarket"},"addTags":{"brand":"Supabarn","brand:wikidata":"Q7641883","name":"Supabarn","official_name":"Supabarn Supermarkets","shop":"supermarket"}},"shop/supermarket/thesourcebulkfoods-ff3d2b":{"name":"The Source Bulk Foods","locationSet":{"include":["au","ca","gb"]},"geometry":["point","area"],"matchScore":2,"terms":["the source bulk foods"],"tags":{"brand:wikidata":"Q113771168","shop":"supermarket"},"addTags":{"brand":"The Source Bulk Foods","brand:wikidata":"Q113771168","name":"The Source Bulk Foods","shop":"supermarket","zero_waste":"only"}},"shop/supermarket/woolworths-c254c9":{"name":"Woolworths","locationSet":{"include":["au"]},"geometry":["point","area"],"matchScore":2,"terms":["woolworths","woolworths group"],"tags":{"brand:wikidata":"Q3249145","shop":"supermarket"},"addTags":{"brand":"Woolworths","brand:wikidata":"Q3249145","name":"Woolworths","operator":"Woolworths Group","operator:wikidata":"Q607272","shop":"supermarket"}},"shop/supermarket/woolworthsmetro-c254c9":{"name":"Woolworths Metro","locationSet":{"include":["au"]},"geometry":["point","area"],"matchScore":2,"terms":["woolworths group","woolworths metro"],"tags":{"brand:wikidata":"Q111772555","shop":"supermarket"},"addTags":{"brand":"Woolworths Metro","brand:wikidata":"Q111772555","name":"Woolworths Metro","operator":"Woolworths Group","operator:wikidata":"Q607272","shop":"supermarket"}},"shop/tea/t2-c95a9d":{"name":"T2","locationSet":{"include":["au"]},"geometry":["point","area"],"matchScore":2,"terms":["t2"],"tags":{"brand:wikidata":"Q48802134","shop":"tea"},"addTags":{"brand":"T2","brand:wikidata":"Q48802134","name":"T2","shop":"tea"}},"shop/ticket/ticketmaster-9f0b74":{"name":"Ticketmaster","locationSet":{"include":["ae","at","au","be","ca","ch","cy","cz","de","dk","es","fi","fr","gr","ie","it","mx","nl","no","nz","pl","se","sg","tr","tw","uk","za"]},"geometry":["point","area"],"matchScore":2,"terms":["live nation","ticketmaster"],"fields":["name","brand","{shop/ticket}"],"tags":{"brand:wikidata":"Q2609162","shop":"ticket"},"addTags":{"brand":"Ticketmaster","brand:wikidata":"Q2609162","name":"Ticketmaster","shop":"ticket"}},"shop/toys/toyworld-03114e":{"name":"Toyworld","locationSet":{"include":["au","nz"]},"geometry":["point","area"],"matchScore":2,"terms":["toyworld"],"tags":{"brand:wikidata":"Q95923071","shop":"toys"},"addTags":{"brand":"Toyworld","brand:wikidata":"Q95923071","name":"Toyworld","shop":"toys"}},"shop/travel_agency/helloworldtravel-b91cc8":{"name":"Helloworld Travel","locationSet":{"include":["au"]},"geometry":["point","area"],"matchScore":2,"terms":["helloworld travel"],"tags":{"brand:wikidata":"Q48772712","shop":"travel_agency"},"addTags":{"brand":"Helloworld Travel","brand:wikidata":"Q48772712","name":"Helloworld Travel","shop":"travel_agency"}},"shop/tyres/bobjanetmarts-6139cc":{"name":"Bob Jane T-Marts","locationSet":{"include":["au"]},"geometry":["point","area"],"matchScore":2,"terms":["bob jane t-marts"],"tags":{"brand:wikidata":"Q16952468","shop":"tyres"},"addTags":{"brand":"Bob Jane T-Marts","brand:wikidata":"Q16952468","name":"Bob Jane T-Marts","shop":"tyres"}},"shop/tyres/tyreplus-99cc81":{"name":"Tyreplus","locationSet":{"include":["ae","au","bh","cn","id","kh","kw","my","om","ph","qa","ru","sa","sg","th","tw"]},"geometry":["point","area"],"matchScore":2,"terms":["tyreplus"],"tags":{"brand:wikidata":"Q110959120","shop":"tyres"},"addTags":{"brand":"Tyreplus","brand:wikidata":"Q110959120","name":"Tyreplus","shop":"tyres"}},"shop/tyres/tyrepower-6139cc":{"name":"Tyrepower","locationSet":{"include":["au"]},"geometry":["point","area"],"matchScore":2,"terms":["tyrepower"],"tags":{"brand:wikidata":"Q108855867","shop":"tyres"},"addTags":{"brand":"Tyrepower","brand:wikidata":"Q108855867","name":"Tyrepower","shop":"tyres"}},"shop/variety_store/daisojapan-3b78c0":{"name":"Daiso Japan","locationSet":{"include":["au","us"]},"geometry":["point","area"],"matchScore":2,"terms":["daiso"],"tags":{"brand:wikidata":"Q866991","shop":"variety_store"},"addTags":{"brand":"Daiso","brand:wikidata":"Q866991","name":"Daiso Japan","shop":"variety_store","short_name":"Daiso"}},"shop/variety_store/shiploads-c7d002":{"name":"Shiploads","locationSet":{"include":["au"]},"geometry":["point","area"],"matchScore":2,"terms":["shiploads"],"tags":{"brand:wikidata":"Q105883436","shop":"variety_store"},"addTags":{"brand":"Shiploads","brand:wikidata":"Q105883436","name":"Shiploads","shop":"variety_store"}},"shop/variety_store/therejectshop-c7d002":{"name":"The Reject Shop","locationSet":{"include":["au"]},"geometry":["point","area"],"matchScore":2,"terms":["the reject shop"],"tags":{"brand:wikidata":"Q7760092","shop":"variety_store"},"addTags":{"brand":"The Reject Shop","brand:wikidata":"Q7760092","name":"The Reject Shop","shop":"variety_store"}},"shop/video_games/ebgames-c56656":{"name":"EB Games","locationSet":{"include":["au","ca","nz"]},"geometry":["point","area"],"matchScore":2,"terms":["eb games"],"tags":{"brand:wikidata":"Q4993686","shop":"video_games"},"addTags":{"brand":"EB Games","brand:wikidata":"Q4993686","name":"EB Games","shop":"video_games"}},"tourism/caravan_site/big4holidayparks-50f355":{"name":"Big 4 Holiday Parks","locationSet":{"include":["au","nz"]},"geometry":["point","vertex","area"],"matchScore":2,"terms":["big 4 holiday parks","big4"],"fields":["name","brand","{tourism/caravan_site}"],"tags":{"brand:wikidata":"Q18636678","tourism":"caravan_site"},"addTags":{"brand":"Big 4 Holiday Parks","brand:wikidata":"Q18636678","name":"BIG4 Holiday Parks","short_name":"Big4","tourism":"caravan_site"}},"tourism/hotel/aturahotels-a311b9":{"name":"Atura Hotels","locationSet":{"include":["au","nz"]},"geometry":["point","area"],"matchScore":2,"terms":["atura hotels"],"fields":["name","brand","{tourism/hotel}"],"tags":{"brand:wikidata":"Q110168350","tourism":"hotel"},"addTags":{"brand":"Atura Hotels","brand:wikidata":"Q110168350","name":"Atura Hotels","tourism":"hotel"}},"tourism/hotel/avanihotelsandresorts-e9c192":{"name":"AVANI","locationSet":{"include":["ae","au","bw","id","kh","kr","la","lk","ls","my","mz","na","nz","om","pt","sc","th","vn","zm"]},"geometry":["point","area"],"matchScore":2,"terms":["avani hotels & resorts"],"fields":["name","brand","{tourism/hotel}"],"tags":{"brand:wikidata":"Q48989823","tourism":"hotel"},"addTags":{"brand":"Avani Hotels & Resorts","brand:wikidata":"Q48989823","name":"Avani Hotels & Resorts","tourism":"hotel"}},"tourism/hotel/element-6dd642":{"name":"Element by Westin","locationSet":{"include":["ae","au","ca","cn","id","my","nl","tz","us"]},"geometry":["point","area"],"matchScore":2,"terms":["element"],"fields":["name","brand","{tourism/hotel}"],"tags":{"brand:wikidata":"Q91948072","tourism":"hotel"},"addTags":{"brand":"Element","brand:wikidata":"Q91948072","name":"Element","tourism":"hotel"}},"tourism/hotel/oakshotelsresortsandsuites-bc2db3":{"name":"Oaks Hotels","locationSet":{"include":["ae","au","cn","in","nz","qa"]},"geometry":["point","area"],"matchScore":2,"terms":["oaks hotels, resorts & suites"],"fields":["name","brand","{tourism/hotel}"],"tags":{"brand:wikidata":"Q23073772","tourism":"hotel"},"addTags":{"brand":"Oaks Hotels, Resorts & Suites","brand:wikidata":"Q23073772","name":"Oaks Hotels, Resorts & Suites","tourism":"hotel"}},"tourism/hotel/thesebel-a311b9":{"name":"The Sebel","locationSet":{"include":["au","nz"]},"geometry":["point","area"],"matchScore":2,"terms":["sebel","the sebel"],"fields":["name","brand","{tourism/hotel}"],"tags":{"brand:wikidata":"Q110888248","tourism":"hotel"},"addTags":{"brand":"The Sebel","brand:wikidata":"Q110888248","name":"The Sebel","tourism":"hotel"}},"tourism/hotel/travelodge-2e0dc6":{"name":"Travelodge (Asia/Oceania)","locationSet":{"include":["au","hk","id","kr","my","nz","sg","th"]},"geometry":["point","area"],"matchScore":2,"terms":["travelodge"],"fields":["name","brand","{tourism/hotel}"],"tags":{"brand:wikidata":"Q24997583","tourism":"hotel"},"addTags":{"brand":"Travelodge","brand:wikidata":"Q24997583","name":"Travelodge","tourism":"hotel"}},"tourism/hotel/waldorfastoria-665f74":{"name":"Waldorf Astoria","locationSet":{"include":["ae","au","cn","de","eg","fx","gb","il","it","kw","mv","mx","nl","pa","sa","th","us"]},"geometry":["point","area"],"matchScore":2,"terms":["waldorf astoria"],"fields":["name","brand","{tourism/hotel}"],"tags":{"brand:wikidata":"Q3239392","tourism":"hotel"},"addTags":{"brand":"Waldorf Astoria","brand:wikidata":"Q3239392","name":"Waldorf Astoria","tourism":"hotel"}},"man_made/flagpole/australianaboriginal-aec753":{"name":"AU - Australian Aboriginal","locationSet":{"include":["au"]},"geometry":["point","vertex"],"matchScore":2,"terms":["aboriginal australians","australian aboriginal"],"tags":{"flag:wikidata":"Q1285625","man_made":"flagpole"},"addTags":{"flag:name":"Australian Aboriginal","flag:type":"indigenous","flag:wikidata":"Q1285625","man_made":"flagpole","subject":"Aboriginal Australians","subject:wikidata":"Q12060728"}},"man_made/flagpole/australiancapitalterritory-aec753":{"name":"AU - Australian Capital Territory","locationSet":{"include":["au"]},"geometry":["point","vertex"],"matchScore":2,"terms":["australian capital territory"],"tags":{"flag:wikidata":"Q252995","man_made":"flagpole"},"addTags":{"flag:name":"Australian Capital Territory","flag:type":"regional","flag:wikidata":"Q252995","man_made":"flagpole","subject":"Australian Capital Territory","subject:wikidata":"Q3258"}},"man_made/flagpole/newsouthwales-aec753":{"name":"AU - New South Wales","locationSet":{"include":["au"]},"geometry":["point","vertex"],"matchScore":2,"terms":["new south wales"],"tags":{"flag:wikidata":"Q1064042","man_made":"flagpole"},"addTags":{"flag:name":"New South Wales","flag:type":"regional","flag:wikidata":"Q1064042","man_made":"flagpole","subject":"New South Wales","subject:wikidata":"Q3224"}},"man_made/flagpole/northernterritory-aec753":{"name":"AU - Northern Territory","locationSet":{"include":["au"]},"geometry":["point","vertex"],"matchScore":2,"terms":["northern territory"],"tags":{"flag:wikidata":"Q599323","man_made":"flagpole"},"addTags":{"flag:name":"Northern Territory","flag:type":"regional","flag:wikidata":"Q599323","man_made":"flagpole","subject":"Northern Territory","subject:wikidata":"Q3235"}},"man_made/flagpole/queensland-aec753":{"name":"AU - Queensland","locationSet":{"include":["au"]},"geometry":["point","vertex"],"matchScore":2,"terms":["queensland"],"tags":{"flag:wikidata":"Q383109","man_made":"flagpole"},"addTags":{"flag:name":"Queensland","flag:type":"regional","flag:wikidata":"Q383109","man_made":"flagpole","subject":"Queensland","subject:wikidata":"Q36074"}},"man_made/flagpole/southaustralia-aec753":{"name":"AU - South Australia","locationSet":{"include":["au"]},"geometry":["point","vertex"],"matchScore":2,"terms":["south australia"],"tags":{"flag:wikidata":"Q912854","man_made":"flagpole"},"addTags":{"flag:name":"South Australia","flag:type":"regional","flag:wikidata":"Q912854","man_made":"flagpole","subject":"South Australia","subject:wikidata":"Q35715"}},"man_made/flagpole/tasmania-aec753":{"name":"AU - Tasmania","locationSet":{"include":["au"]},"geometry":["point","vertex"],"matchScore":2,"terms":["tasmania"],"tags":{"flag:wikidata":"Q1074327","man_made":"flagpole"},"addTags":{"flag:name":"Tasmania","flag:type":"regional","flag:wikidata":"Q1074327","man_made":"flagpole","subject":"Tasmania","subject:wikidata":"Q34366"}},"man_made/flagpole/torresstraitislander-aec753":{"name":"AU - Torres Strait Islander","locationSet":{"include":["au"]},"geometry":["point","vertex"],"matchScore":2,"terms":["torres strait islander","torres strait islanders"],"tags":{"flag:wikidata":"Q462621","man_made":"flagpole"},"addTags":{"flag:name":"Torres Strait Islander","flag:type":"indigenous","flag:wikidata":"Q462621","man_made":"flagpole","subject":"Torres Strait Islanders","subject:wikidata":"Q379636"}},"man_made/flagpole/victoria-aec753":{"name":"AU - Victoria","locationSet":{"include":["au"]},"geometry":["point","vertex"],"matchScore":2,"terms":["victoria"],"tags":{"flag:wikidata":"Q34494","man_made":"flagpole"},"addTags":{"flag:name":"Victoria","flag:type":"regional","flag:wikidata":"Q34494","man_made":"flagpole","subject":"Victoria","subject:wikidata":"Q36687"}},"man_made/flagpole/westernaustralia-aec753":{"name":"AU - Western Australia","locationSet":{"include":["au"]},"geometry":["point","vertex"],"matchScore":2,"terms":["western australia"],"tags":{"flag:wikidata":"Q1091279","man_made":"flagpole"},"addTags":{"flag:name":"Western Australia","flag:type":"regional","flag:wikidata":"Q1091279","man_made":"flagpole","subject":"Western Australia","subject:wikidata":"Q3206"}},"amenity/car_sharing/goget-d577f8":{"name":"GoGet","locationSet":{"include":["au"]},"geometry":["point","area"],"matchScore":2,"terms":["goget"],"tags":{"amenity":"car_sharing","operator:wikidata":"Q5574624"},"addTags":{"amenity":"car_sharing","operator":"GoGet","operator:wikidata":"Q5574624"}},"amenity/charging_station/ampcharge-943805":{"name":"AmpCharge","locationSet":{"include":["au"]},"geometry":["point","vertex","area"],"matchScore":2,"terms":["ampcharge"],"fields":["name","operator","{amenity/charging_station}"],"tags":{"amenity":"charging_station","operator:wikidata":"Q111744561"},"addTags":{"amenity":"charging_station","operator":"AmpCharge","operator:wikidata":"Q111744561"}},"amenity/charging_station/bolt-943805":{"name":"Bolt","locationSet":{"include":["au"]},"geometry":["point","vertex","area"],"matchScore":2,"terms":["bolt"],"fields":["name","operator","{amenity/charging_station}"],"tags":{"amenity":"charging_station","operator:wikidata":"Q105846404"},"addTags":{"amenity":"charging_station","operator":"Bolt","operator:wikidata":"Q105846404"}},"amenity/charging_station/bppulse-4e7c93":{"name":"BP Pulse","locationSet":{"include":["au","gb","nz"]},"geometry":["point","vertex","area"],"matchScore":2,"terms":["bp chargemaster","bp pulse"],"fields":["name","operator","{amenity/charging_station}"],"tags":{"amenity":"charging_station","operator:wikidata":"Q39057719"},"addTags":{"amenity":"charging_station","operator":"BP Pulse","operator:wikidata":"Q39057719"}},"amenity/charging_station/chargefox-61042c":{"name":"Chargefox","locationSet":{"include":["au","nz"]},"geometry":["point","vertex","area"],"matchScore":2,"terms":["chargefox"],"fields":["name","operator","{amenity/charging_station}"],"tags":{"amenity":"charging_station","operator:wikidata":"Q105775824"},"addTags":{"amenity":"charging_station","operator":"Chargefox","operator:wikidata":"Q105775824"}},"amenity/charging_station/electrichighwaytasmania-943805":{"name":"Electric Highway Tasmania","locationSet":{"include":["au"]},"geometry":["point","vertex","area"],"matchScore":2,"terms":["electric highway tasmania"],"fields":["name","operator","{amenity/charging_station}"],"tags":{"amenity":"charging_station","operator:wikidata":"Q105834331"},"addTags":{"amenity":"charging_station","operator":"Electric Highway Tasmania","operator:wikidata":"Q105834331"}},"amenity/charging_station/evienetworks-943805":{"name":"Evie Networks","locationSet":{"include":["au"]},"geometry":["point","vertex","area"],"matchScore":2,"terms":["evie","evie networks"],"fields":["name","operator","{amenity/charging_station}"],"tags":{"amenity":"charging_station","operator:wikidata":"Q105795220"},"addTags":{"amenity":"charging_station","operator":"Evie Networks","operator:wikidata":"Q105795220"}},"amenity/charging_station/jolt-61042c":{"name":"Jolt","locationSet":{"include":["au","nz"]},"geometry":["point","vertex","area"],"matchScore":2,"terms":["jolt"],"fields":["name","operator","{amenity/charging_station}"],"tags":{"amenity":"charging_station","operator:wikidata":"Q109783503"},"addTags":{"amenity":"charging_station","operator":"Jolt","operator:wikidata":"Q109783503"}},"amenity/charging_station/nrma-943805":{"name":"NRMA","locationSet":{"include":["au"]},"geometry":["point","vertex","area"],"matchScore":2,"terms":["nrma"],"fields":["name","operator","{amenity/charging_station}"],"tags":{"amenity":"charging_station","operator:wikidata":"Q6955173"},"addTags":{"amenity":"charging_station","operator":"NRMA","operator:wikidata":"Q6955173"}},"amenity/charging_station/yurika-943805":{"name":"Queensland Electric Super Highway","locationSet":{"include":["au"]},"geometry":["point","vertex","area"],"matchScore":2,"terms":["queensland electric super highway","yurika"],"fields":["name","operator","{amenity/charging_station}"],"tags":{"amenity":"charging_station","operator:wikidata":"Q106234391"},"addTags":{"amenity":"charging_station","operator":"Yurika","operator:wikidata":"Q106234391"}},"amenity/charging_station/racwa-943805":{"name":"RAC WA Electric Highway","locationSet":{"include":["au"]},"geometry":["point","vertex","area"],"matchScore":2,"terms":["rac wa"],"fields":["name","operator","{amenity/charging_station}"],"tags":{"amenity":"charging_station","operator:wikidata":"Q7373777"},"addTags":{"amenity":"charging_station","operator":"RAC WA","operator:wikidata":"Q7373777"}},"amenity/fire_station/queenslandfireandemergencyservices-81fd49":{"name":"Queensland Fire and Emergency Services","locationSet":{"include":["au"]},"geometry":["point","area"],"matchScore":2,"terms":["qfes","queensland fire and emergency services"],"tags":{"amenity":"fire_station","operator:wikidata":"Q7270940"},"addTags":{"amenity":"fire_station","operator":"Queensland Fire and Emergency Services","operator:short":"QFES","operator:wikidata":"Q7270940"}},"amenity/hospital/nswhealth-86ebc0":{"name":"NSW Health","locationSet":{"include":["au"]},"geometry":["area","point"],"matchScore":2,"terms":["nsw health"],"fields":["name","operator","{amenity/hospital}"],"reference":{"key":"amenity","value":"hospital"},"tags":{"amenity":"hospital","operator:wikidata":"Q6867095"},"addTags":{"amenity":"hospital","healthcare":"hospital","operator":"NSW Health","operator:wikidata":"Q6867095"}},"amenity/hospital/queenslandhealth-86ebc0":{"name":"Queensland Health","locationSet":{"include":["au"]},"geometry":["area","point"],"matchScore":2,"terms":["qld health","queensland health"],"fields":["name","operator","{amenity/hospital}"],"reference":{"key":"amenity","value":"hospital"},"tags":{"amenity":"hospital","operator:wikidata":"Q17006271"},"addTags":{"amenity":"hospital","healthcare":"hospital","operator":"Queensland Health","operator:wikidata":"Q17006271"}},"amenity/parking/carepark-e0a745":{"name":"Care Park","locationSet":{"include":["au","my","nz"]},"geometry":["area","point","vertex"],"matchScore":2,"terms":["care park"],"fields":["name","operator","{amenity/parking}"],"tags":{"amenity":"parking","operator:wikidata":"Q106625352"},"addTags":{"amenity":"parking","brand":"Care Park","brand:wikidata":"Q106625352","fee":"yes","name":"Care Park","operator":"Care Park","operator:wikidata":"Q106625352"}},"amenity/parking/wilsonparking-7fb8ab":{"name":"Wilson Parking","locationSet":{"include":["au","kr","nz","sg"]},"geometry":["area","point","vertex"],"matchScore":2,"terms":["wilson","wilson parking"],"fields":["name","operator","{amenity/parking}"],"tags":{"amenity":"parking","operator:wikidata":"Q28448427"},"addTags":{"amenity":"parking","brand":"Wilson Parking","brand:wikidata":"Q28448427","fee":"yes","name":"Wilson Parking","operator":"Wilson Parking","operator:wikidata":"Q28448427"}},"amenity/post_box/australiapost-7f3a8a":{"name":"Australia Post","locationSet":{"include":["au"]},"geometry":["point","vertex"],"matchScore":2,"terms":["aust post","australia post"],"tags":{"amenity":"post_box","operator:wikidata":"Q1142936"},"addTags":{"amenity":"post_box","operator":"Australia Post","operator:wikidata":"Q1142936"}},"amenity/post_office/australiapost-536bec":{"name":"Australia Post","locationSet":{"include":["au"]},"geometry":["point","area"],"matchScore":2,"terms":["aust post","australia post"],"fields":["name","operator","{amenity/post_office}"],"tags":{"amenity":"post_office","operator:wikidata":"Q1142936"},"addTags":{"amenity":"post_office","operator":"Australia Post","operator:wikidata":"Q1142936"}},"amenity/school/edmundriceeducationaustralia-2c0dd7":{"name":"Edmund Rice Education Australia","locationSet":{"include":["au"]},"geometry":["area","point"],"matchScore":2,"terms":["edmund rice education australia","erea"],"tags":{"amenity":"school","operator:wikidata":"Q5339779"},"addTags":{"amenity":"school","denomination":"catholic","operator":"Edmund Rice Education Australia","operator:short":"EREA","operator:type":"religious","operator:wikidata":"Q5339779","religion":"christian"}},"amenity/school/lutheraneducationaustralia-2c0dd7":{"name":"Lutheran Education Australia","locationSet":{"include":["au"]},"geometry":["area","point"],"matchScore":2,"terms":["lutheran education australia"],"tags":{"amenity":"school","operator:wikidata":"Q113435241"},"addTags":{"amenity":"school","denomination":"lutheran","operator":"Lutheran Education Australia","operator:type":"religious","operator:wikidata":"Q113435241","religion":"christian"}},"amenity/telephone/telstra-c9cd58":{"name":"Telstra","locationSet":{"include":["au"]},"geometry":["point","vertex"],"matchScore":2,"terms":["telstra"],"fields":["name","operator","{amenity/telephone}"],"tags":{"amenity":"telephone","operator:wikidata":"Q721162"},"addTags":{"amenity":"telephone","operator":"Telstra","operator:wikidata":"Q721162"}},"boundary/parksaustralia-44065a":{"name":"Parks Australia","locationSet":{"include":["au"]},"geometry":["line"],"matchScore":2,"terms":["parks australia"],"tags":{"boundary":"national_park","operator:wikidata":"Q111082331"},"addTags":{"boundary":"national_park","operator":"Parks Australia","operator:wikidata":"Q111082331"}},"boundary/nswnationalparksandwildlifeservice-b5b751":{"name":"NSW National Parks and Wildlife Service","locationSet":{"include":["au"]},"geometry":["line"],"matchScore":2,"terms":["npws","nsw national parks and wildlife service"],"tags":{"boundary":"protected_area","operator:wikidata":"Q108872274"},"addTags":{"boundary":"protected_area","operator":"NSW National Parks and Wildlife Service","operator:short":"NPWS","operator:wikidata":"Q108872274"}},"boundary/parksvictoria-b5b751":{"name":"Parks Victoria","locationSet":{"include":["au"]},"geometry":["line"],"matchScore":2,"terms":["parks victoria"],"tags":{"boundary":"protected_area","operator:wikidata":"Q3365478"},"addTags":{"boundary":"protected_area","operator":"Parks Victoria","operator:wikidata":"Q3365478"}},"boundary/southaustralianforestrycorporation-b5b751":{"name":"South Australian Forestry Corporation","locationSet":{"include":["au"]},"geometry":["line"],"matchScore":2,"terms":["forestry sa","south australian forestry corporation"],"tags":{"boundary":"protected_area","operator:wikidata":"Q23073845"},"addTags":{"boundary":"protected_area","operator":"South Australian Forestry Corporation","operator:short":"Forestry SA","operator:wikidata":"Q23073845"}},"boundary/victoriandepartmentofenvironmentlandwaterandplanning-b5b751":{"name":"Victorian Department of Environment Land Water and Planning","locationSet":{"include":["au"]},"geometry":["line"],"matchScore":2,"terms":["delwp","victorian department of environment land water and planning"],"tags":{"boundary":"protected_area","operator:wikidata":"Q20647143"},"addTags":{"boundary":"protected_area","operator":"Victorian Department of Environment Land Water and Planning","operator:short":"DELWP","operator:wikidata":"Q20647143"}},"emergency/lifeguard/goldcoastcitycouncil-97fc03":{"name":"GCCC","locationSet":{"include":["au"]},"geometry":["point","area"],"matchScore":2,"terms":["gccc","gold coast city council"],"tags":{"emergency":"lifeguard","operator:wikidata":"Q1069385"},"addTags":{"emergency":"lifeguard","operator":"Gold Coast City Council","operator:short":"GCCC","operator:wikidata":"Q1069385"}},"landuse/quarry/fultonhogan-30f0f6":{"name":"Fulton Hogan","locationSet":{"include":["au","nz"]},"geometry":["area","point"],"matchScore":2,"terms":["fulton hogan"],"tags":{"landuse":"quarry","operator:wikidata":"Q5508437"},"addTags":{"landuse":"quarry","operator":"Fulton Hogan","operator:wikidata":"Q5508437"}},"leisure/nature_reserve/nationaltrustofaustralia-db6a54":{"name":"National Trust of Australia","locationSet":{"include":["au"]},"geometry":["area","point"],"matchScore":2,"terms":["national trust of australia"],"tags":{"leisure":"nature_reserve","operator:wikidata":"Q569207"},"addTags":{"leisure":"nature_reserve","operator":"National Trust of Australia","operator:wikidata":"Q569207"}},"leisure/park/nationaltrustofaustralia-8d759d":{"name":"National Trust of Australia","locationSet":{"include":["au"]},"geometry":["area","point"],"matchScore":2,"terms":["national trust of australia"],"tags":{"leisure":"park","operator:wikidata":"Q569207"},"addTags":{"leisure":"park","operator":"National Trust of Australia","operator:wikidata":"Q569207"}},"office/energy_supplier/naturgy-e15d8a":{"name":"Naturgy","locationSet":{"include":["ar","au","be","br","cl","cn","cr","de","do","dz","eg","es","fr","gb","ie","in","jm","jo","jp","lu","ma","mx","nl","om","pa","pe","pk","pr","pt","sg"]},"geometry":["point","area"],"matchScore":2,"terms":["naturgy"],"tags":{"office":"energy_supplier","operator:wikidata":"Q474690"},"addTags":{"name":"Naturgy","office":"energy_supplier","operator":"Naturgy","operator:wikidata":"Q474690"}},"office/government/departmentoftransportandmainroads-1b54b2":{"name":"Department of Transport and Main Roads","locationSet":{"include":["au"]},"geometry":["point","area"],"matchScore":2,"terms":["department of transport and main roads"],"fields":["name","operator","{office/government}"],"tags":{"office":"government","operator:wikidata":"Q1191482"},"addTags":{"office":"government","operator":"Department of Transport and Main Roads","operator:wikidata":"Q1191482"}},"power/generator/aglenergy-08761e":{"name":"AGL Energy","locationSet":{"include":["au"]},"geometry":["point","vertex","area"],"matchScore":2,"terms":["agl","agl energy"],"tags":{"operator:wikidata":"Q292374","power":"generator"},"addTags":{"operator":"AGL Energy","operator:wikidata":"Q292374","power":"generator"}},"power/generator/brightenergy-08761e":{"name":"Bright Energy","locationSet":{"include":["au"]},"geometry":["point","vertex","area"],"matchScore":2,"terms":["bright energy"],"tags":{"operator:wikidata":"Q78436358","power":"generator"},"addTags":{"operator":"Bright Energy","operator:wikidata":"Q78436358","power":"generator"}},"power/generator/cwprenewables-08761e":{"name":"CWP Renewables","locationSet":{"include":["au"]},"geometry":["point","vertex","area"],"matchScore":2,"terms":["cwp renewables"],"tags":{"operator:wikidata":"Q68782470","power":"generator"},"addTags":{"operator":"CWP Renewables","operator:wikidata":"Q68782470","power":"generator"}},"power/generator/hydrotasmania-08761e":{"name":"Hydro Tasmania","locationSet":{"include":["au"]},"geometry":["point","vertex","area"],"matchScore":2,"terms":["hydro tasmania"],"tags":{"operator:wikidata":"Q1640187","power":"generator"},"addTags":{"operator":"Hydro Tasmania","operator:wikidata":"Q1640187","power":"generator"}},"power/generator/infigenenergy-08761e":{"name":"Infigen Energy","locationSet":{"include":["au"]},"geometry":["point","vertex","area"],"matchScore":2,"terms":["infigen energy"],"tags":{"operator:wikidata":"Q6029640","power":"generator"},"addTags":{"operator":"Infigen Energy","operator:wikidata":"Q6029640","power":"generator"}},"power/generator/ratchaustralia-08761e":{"name":"RATCH-Australia","locationSet":{"include":["au"]},"geometry":["point","vertex","area"],"matchScore":2,"terms":["ratch-australia"],"tags":{"operator:wikidata":"Q72236788","power":"generator"},"addTags":{"operator":"RATCH-Australia","operator:wikidata":"Q72236788","power":"generator"}},"power/generator/snowyhydro-08761e":{"name":"Snowy Hydro","locationSet":{"include":["au"]},"geometry":["point","vertex","area"],"matchScore":2,"terms":["snowy hydro"],"tags":{"operator:wikidata":"Q7548740","power":"generator"},"addTags":{"operator":"Snowy Hydro","operator:wikidata":"Q7548740","power":"generator"}},"power/line/electranet-8d5e75":{"name":"Electranet","locationSet":{"include":["au"]},"geometry":["line"],"matchScore":2,"terms":["electranet"],"tags":{"operator:wikidata":"Q5357218","power":"line"},"addTags":{"operator":"Electranet","operator:wikidata":"Q5357218","power":"line"}},"power/line/endeavourenergy-8d5e75":{"name":"Endeavour Energy","locationSet":{"include":["au"]},"geometry":["line"],"matchScore":2,"terms":["endeavour energy"],"tags":{"operator:wikidata":"Q5375986","power":"line"},"addTags":{"operator":"Endeavour Energy","operator:wikidata":"Q5375986","power":"line"}},"power/line/ergonenergy-8d5e75":{"name":"Ergon Energy","locationSet":{"include":["au"]},"geometry":["line"],"matchScore":2,"terms":["ergon energy"],"tags":{"operator:wikidata":"Q5385825","power":"line"},"addTags":{"operator":"Ergon Energy","operator:wikidata":"Q5385825","power":"line"}},"power/line/essentialenergy-8d5e75":{"name":"Essential Energy","locationSet":{"include":["au"]},"geometry":["line"],"matchScore":2,"terms":["essential energy"],"tags":{"operator:wikidata":"Q17003842","power":"line"},"addTags":{"operator":"Essential Energy","operator:wikidata":"Q17003842","power":"line"}},"power/line/nationalgrid-e4870f":{"name":"National Grid","locationSet":{"include":["au","us"]},"geometry":["line"],"matchScore":2,"terms":["national grid","national grid plc","new england power company"],"tags":{"operator:wikidata":"Q1465461","power":"line"},"addTags":{"operator":"National Grid","operator:wikidata":"Q1465461","power":"line"}},"power/line/powercor-8d5e75":{"name":"Powercor","locationSet":{"include":["au"]},"geometry":["line"],"matchScore":2,"terms":["powercor"],"tags":{"operator:wikidata":"Q7236677","power":"line"},"addTags":{"operator":"Powercor","operator:wikidata":"Q7236677","power":"line"}},"power/minor_line/electranet-b4baaa":{"name":"Electranet","locationSet":{"include":["au"]},"geometry":["line"],"matchScore":2,"terms":["electranet"],"tags":{"operator:wikidata":"Q5357218","power":"minor_line"},"addTags":{"operator":"Electranet","operator:wikidata":"Q5357218","power":"minor_line"}},"power/minor_line/endeavourenergy-b4baaa":{"name":"Endeavour Energy","locationSet":{"include":["au"]},"geometry":["line"],"matchScore":2,"terms":["endeavour energy"],"tags":{"operator:wikidata":"Q5375986","power":"minor_line"},"addTags":{"operator":"Endeavour Energy","operator:wikidata":"Q5375986","power":"minor_line"}},"power/minor_line/ergonenergy-b4baaa":{"name":"Ergon Energy","locationSet":{"include":["au"]},"geometry":["line"],"matchScore":2,"terms":["ergon energy"],"tags":{"operator:wikidata":"Q5385825","power":"minor_line"},"addTags":{"operator":"Ergon Energy","operator:wikidata":"Q5385825","power":"minor_line"}},"power/minor_line/essentialenergy-b4baaa":{"name":"Essential Energy","locationSet":{"include":["au"]},"geometry":["line"],"matchScore":2,"terms":["essential energy"],"tags":{"operator:wikidata":"Q17003842","power":"minor_line"},"addTags":{"operator":"Essential Energy","operator:wikidata":"Q17003842","power":"minor_line"}},"power/minor_line/nationalgrid-a4d329":{"name":"National Grid","locationSet":{"include":["au","us"]},"geometry":["line"],"matchScore":2,"terms":["national grid","national grid plc","new england power company"],"tags":{"operator:wikidata":"Q1465461","power":"minor_line"},"addTags":{"operator":"National Grid","operator:wikidata":"Q1465461","power":"minor_line"}},"power/minor_line/powercor-b4baaa":{"name":"Powercor","locationSet":{"include":["au"]},"geometry":["line"],"matchScore":2,"terms":["powercor"],"tags":{"operator:wikidata":"Q7236677","power":"minor_line"},"addTags":{"operator":"Powercor","operator:wikidata":"Q7236677","power":"minor_line"}},"power/plant/aglenergy-225a52":{"name":"AGL Energy","locationSet":{"include":["au"]},"geometry":["area"],"matchScore":2,"terms":["agl energy"],"tags":{"operator:wikidata":"Q292374","power":"plant"},"addTags":{"operator":"AGL Energy","operator:wikidata":"Q292374","power":"plant"}},"power/plant/hydrotasmania-225a52":{"name":"Hydro Tasmania","locationSet":{"include":["au"]},"geometry":["area"],"matchScore":2,"terms":["hydro tasmania"],"tags":{"operator:wikidata":"Q1640187","power":"plant"},"addTags":{"operator":"Hydro Tasmania","operator:wikidata":"Q1640187","power":"plant"}},"power/plant/meridianenergy-3485ae":{"name":"Meridian Energy","locationSet":{"include":["au","nz"]},"geometry":["area"],"matchScore":2,"terms":["meridian energy"],"tags":{"operator:wikidata":"Q6819305","power":"plant"},"addTags":{"operator":"Meridian Energy","operator:wikidata":"Q6819305","power":"plant"}},"power/plant/snowyhydro-225a52":{"name":"Snowy Hydro","locationSet":{"include":["au"]},"geometry":["area"],"matchScore":2,"terms":["snowy hydro"],"tags":{"operator:wikidata":"Q7548740","power":"plant"},"addTags":{"operator":"Snowy Hydro","operator:wikidata":"Q7548740","power":"plant"}},"power/plant/trustpower-3485ae":{"name":"Trustpower","locationSet":{"include":["au","nz"]},"geometry":["area"],"matchScore":2,"terms":["trustpower"],"tags":{"operator:wikidata":"Q2456640","power":"plant"},"addTags":{"operator":"Trustpower","operator:wikidata":"Q2456640","power":"plant"}},"power/pole/electranet-6c22c4":{"name":"Electranet","locationSet":{"include":["au"]},"geometry":["point","vertex"],"matchScore":2,"terms":["electranet"],"tags":{"operator:wikidata":"Q5357218","power":"pole"},"addTags":{"operator":"Electranet","operator:wikidata":"Q5357218","power":"pole"}},"power/pole/endeavourenergy-6c22c4":{"name":"Endeavour Energy","locationSet":{"include":["au"]},"geometry":["point","vertex"],"matchScore":2,"terms":["endeavour energy"],"tags":{"operator:wikidata":"Q5375986","power":"pole"},"addTags":{"operator":"Endeavour Energy","operator:wikidata":"Q5375986","power":"pole"}},"power/pole/ergonenergy-6c22c4":{"name":"Ergon Energy","locationSet":{"include":["au"]},"geometry":["point","vertex"],"matchScore":2,"terms":["ergon energy"],"tags":{"operator:wikidata":"Q5385825","power":"pole"},"addTags":{"operator":"Ergon Energy","operator:wikidata":"Q5385825","power":"pole"}},"power/pole/essentialenergy-6c22c4":{"name":"Essential Energy","locationSet":{"include":["au"]},"geometry":["point","vertex"],"matchScore":2,"terms":["essential energy"],"tags":{"operator:wikidata":"Q17003842","power":"pole"},"addTags":{"operator":"Essential Energy","operator:wikidata":"Q17003842","power":"pole"}},"power/pole/nationalgrid-931e9c":{"name":"National Grid","locationSet":{"include":["au","us"]},"geometry":["point","vertex"],"matchScore":2,"terms":["national grid","national grid plc","new england power company"],"tags":{"operator:wikidata":"Q1465461","power":"pole"},"addTags":{"operator":"National Grid","operator:wikidata":"Q1465461","power":"pole"}},"power/pole/powercor-6c22c4":{"name":"Powercor","locationSet":{"include":["au"]},"geometry":["point","vertex"],"matchScore":2,"terms":["powercor"],"tags":{"operator:wikidata":"Q7236677","power":"pole"},"addTags":{"operator":"Powercor","operator:wikidata":"Q7236677","power":"pole"}},"power/substation/ausnet-e597e3":{"name":"AusNet","locationSet":{"include":["au"]},"geometry":["area","point"],"matchScore":2,"terms":["ausnet"],"tags":{"operator:wikidata":"Q7392701","power":"substation"},"addTags":{"operator":"AusNet","operator:wikidata":"Q7392701","power":"substation"}},"power/substation/electranet-e597e3":{"name":"Electranet","locationSet":{"include":["au"]},"geometry":["area","point"],"matchScore":2,"terms":["electranet"],"tags":{"operator:wikidata":"Q5357218","power":"substation"},"addTags":{"operator":"Electranet","operator:wikidata":"Q5357218","power":"substation"}},"power/substation/endeavourenergy-e597e3":{"name":"Endeavour Energy","locationSet":{"include":["au"]},"geometry":["area","point"],"matchScore":2,"terms":["endeavour energy"],"tags":{"operator:wikidata":"Q5375986","power":"substation"},"addTags":{"operator":"Endeavour Energy","operator:wikidata":"Q5375986","power":"substation"}},"power/substation/energex-e597e3":{"name":"Energex","locationSet":{"include":["au"]},"geometry":["area","point"],"matchScore":2,"terms":["energex"],"tags":{"operator:wikidata":"Q5376841","power":"substation"},"addTags":{"operator":"Energex","operator:wikidata":"Q5376841","power":"substation"}},"power/substation/ergonenergy-e597e3":{"name":"Ergon Energy","locationSet":{"include":["au"]},"geometry":["area","point"],"matchScore":2,"terms":["ergon energy"],"tags":{"operator:wikidata":"Q5385825","power":"substation"},"addTags":{"operator":"Ergon Energy","operator:wikidata":"Q5385825","power":"substation"}},"power/substation/hydrotasmania-e597e3":{"name":"Hydro Tasmania","locationSet":{"include":["au"]},"geometry":["area","point"],"matchScore":2,"terms":["hydro tasmania"],"tags":{"operator:wikidata":"Q1640187","power":"substation"},"addTags":{"operator":"Hydro Tasmania","operator:wikidata":"Q1640187","power":"substation"}},"power/substation/jemena-e597e3":{"name":"Jemena","locationSet":{"include":["au"]},"geometry":["area","point"],"matchScore":2,"terms":["jemena"],"tags":{"operator:wikidata":"Q6177098","power":"substation"},"addTags":{"operator":"Jemena","operator:wikidata":"Q6177098","power":"substation"}},"power/substation/nationalgrid-c3892d":{"name":"National Grid","locationSet":{"include":["au","us"]},"geometry":["area","point"],"matchScore":2,"terms":["national grid","national grid plc","new england power company"],"tags":{"operator:wikidata":"Q1465461","power":"substation"},"addTags":{"operator":"National Grid","operator:wikidata":"Q1465461","power":"substation"}},"power/substation/powerlink-e597e3":{"name":"Powerlink","locationSet":{"include":["au"]},"geometry":["area","point"],"matchScore":2,"terms":["powerlink","powerlink queensland"],"tags":{"operator:wikidata":"Q7236786","power":"substation"},"addTags":{"operator":"Powerlink","operator:wikidata":"Q7236786","power":"substation"}},"power/substation/tasnetworks-e597e3":{"name":"TasNetworks","locationSet":{"include":["au"]},"geometry":["area","point"],"matchScore":2,"terms":["tasnetworks"],"tags":{"operator:wikidata":"Q18166493","power":"substation"},"addTags":{"operator":"TasNetworks","operator:wikidata":"Q18166493","power":"substation"}},"power/substation/unitedenergy-e597e3":{"name":"United Energy","locationSet":{"include":["au"]},"geometry":["area","point"],"matchScore":2,"terms":["united energy"],"tags":{"operator:wikidata":"Q48790747","power":"substation"},"addTags":{"operator":"United Energy","operator:wikidata":"Q48790747","power":"substation"}},"power/tower/electranet-1f9868":{"name":"Electranet","locationSet":{"include":["au"]},"geometry":["point","vertex"],"matchScore":2,"terms":["electranet"],"tags":{"operator:wikidata":"Q5357218","power":"tower"},"addTags":{"operator":"Electranet","operator:wikidata":"Q5357218","power":"tower"}},"power/tower/endeavourenergy-1f9868":{"name":"Endeavour Energy","locationSet":{"include":["au"]},"geometry":["point","vertex"],"matchScore":2,"terms":["endeavour energy"],"tags":{"operator:wikidata":"Q5375986","power":"tower"},"addTags":{"operator":"Endeavour Energy","operator:wikidata":"Q5375986","power":"tower"}},"power/tower/ergonenergy-1f9868":{"name":"Ergon Energy","locationSet":{"include":["au"]},"geometry":["point","vertex"],"matchScore":2,"terms":["ergon energy"],"tags":{"operator:wikidata":"Q5385825","power":"tower"},"addTags":{"operator":"Ergon Energy","operator:wikidata":"Q5385825","power":"tower"}},"power/tower/essentialenergy-1f9868":{"name":"Essential Energy","locationSet":{"include":["au"]},"geometry":["point","vertex"],"matchScore":2,"terms":["essential energy"],"tags":{"operator:wikidata":"Q17003842","power":"tower"},"addTags":{"operator":"Essential Energy","operator:wikidata":"Q17003842","power":"tower"}},"power/tower/nationalgrid-f62dfe":{"name":"National Grid","locationSet":{"include":["au","us"]},"geometry":["point","vertex"],"matchScore":2,"terms":["national grid","national grid plc","new england power company"],"tags":{"operator:wikidata":"Q1465461","power":"tower"},"addTags":{"operator":"National Grid","operator:wikidata":"Q1465461","power":"tower"}},"power/tower/powercor-1f9868":{"name":"Powercor","locationSet":{"include":["au"]},"geometry":["point","vertex"],"matchScore":2,"terms":["powercor"],"tags":{"operator:wikidata":"Q7236677","power":"tower"},"addTags":{"operator":"Powercor","operator:wikidata":"Q7236677","power":"tower"}},"power/transformer/ausnet-ace77b":{"name":"AusNet","locationSet":{"include":["au"]},"geometry":["point","vertex"],"matchScore":2,"terms":["ausnet"],"tags":{"operator:wikidata":"Q7392701","power":"transformer"},"addTags":{"operator":"AusNet","operator:wikidata":"Q7392701","power":"transformer"}},"power/transformer/electranet-ace77b":{"name":"Electranet","locationSet":{"include":["au"]},"geometry":["point","vertex"],"matchScore":2,"terms":["electranet"],"tags":{"operator:wikidata":"Q5357218","power":"transformer"},"addTags":{"operator":"Electranet","operator:wikidata":"Q5357218","power":"transformer"}},"power/transformer/endeavourenergy-ace77b":{"name":"Endeavour Energy","locationSet":{"include":["au"]},"geometry":["point","vertex"],"matchScore":2,"terms":["endeavour energy"],"tags":{"operator:wikidata":"Q5375986","power":"transformer"},"addTags":{"operator":"Endeavour Energy","operator:wikidata":"Q5375986","power":"transformer"}},"power/transformer/energex-ace77b":{"name":"Energex","locationSet":{"include":["au"]},"geometry":["point","vertex"],"matchScore":2,"terms":["energex"],"tags":{"operator:wikidata":"Q5376841","power":"transformer"},"addTags":{"operator":"Energex","operator:wikidata":"Q5376841","power":"transformer"}},"power/transformer/ergonenergy-ace77b":{"name":"Ergon Energy","locationSet":{"include":["au"]},"geometry":["point","vertex"],"matchScore":2,"terms":["ergon energy"],"tags":{"operator:wikidata":"Q5385825","power":"transformer"},"addTags":{"operator":"Ergon Energy","operator:wikidata":"Q5385825","power":"transformer"}},"power/transformer/hydrotasmania-ace77b":{"name":"Hydro Tasmania","locationSet":{"include":["au"]},"geometry":["point","vertex"],"matchScore":2,"terms":["hydro tasmania"],"tags":{"operator:wikidata":"Q1640187","power":"transformer"},"addTags":{"operator":"Hydro Tasmania","operator:wikidata":"Q1640187","power":"transformer"}},"power/transformer/jemena-ace77b":{"name":"Jemena","locationSet":{"include":["au"]},"geometry":["point","vertex"],"matchScore":2,"terms":["jemena"],"tags":{"operator:wikidata":"Q6177098","power":"transformer"},"addTags":{"operator":"Jemena","operator:wikidata":"Q6177098","power":"transformer"}},"power/transformer/nationalgrid-6eb91f":{"name":"National Grid","locationSet":{"include":["au","us"]},"geometry":["point","vertex"],"matchScore":2,"terms":["national grid","national grid plc","new england power company"],"tags":{"operator:wikidata":"Q1465461","power":"transformer"},"addTags":{"operator":"National Grid","operator:wikidata":"Q1465461","power":"transformer"}},"power/transformer/powerlink-ace77b":{"name":"Powerlink","locationSet":{"include":["au"]},"geometry":["point","vertex"],"matchScore":2,"terms":["powerlink","powerlink queensland"],"tags":{"operator:wikidata":"Q7236786","power":"transformer"},"addTags":{"operator":"Powerlink","operator:wikidata":"Q7236786","power":"transformer"}},"power/transformer/tasnetworks-ace77b":{"name":"TasNetworks","locationSet":{"include":["au"]},"geometry":["point","vertex"],"matchScore":2,"terms":["tasnetworks"],"tags":{"operator:wikidata":"Q18166493","power":"transformer"},"addTags":{"operator":"TasNetworks","operator:wikidata":"Q18166493","power":"transformer"}},"power/transformer/unitedenergy-ace77b":{"name":"United Energy","locationSet":{"include":["au"]},"geometry":["point","vertex"],"matchScore":2,"terms":["united energy"],"tags":{"operator:wikidata":"Q48790747","power":"transformer"},"addTags":{"operator":"United Energy","operator:wikidata":"Q48790747","power":"transformer"}},"telecom/data_center/nextdc-2d5c42":{"name":"NextDC","locationSet":{"include":["au","jp","sg"]},"geometry":["point","area"],"matchScore":2,"terms":["nextdc"],"fields":["name","operator","{telecom/data_center}"],"tags":{"operator:wikidata":"Q55696290","telecom":"data_center"},"addTags":{"name":"NextDC","operator":"NextDC","operator:wikidata":"Q55696290","telecom":"data_center"}},"telecom/data_center/tpgtelecom-61c6f8":{"name":"TPG Telecom","locationSet":{"include":["au"]},"geometry":["point","area"],"matchScore":2,"terms":["pipe networks","tpg telecom"],"fields":["name","operator","{telecom/data_center}"],"tags":{"operator:wikidata":"Q7939276","telecom":"data_center"},"addTags":{"name":"TPG Telecom","operator":"TPG Telecom","operator:wikidata":"Q7939276","telecom":"data_center"}},"telecom/exchange/nbnco-03cc00":{"name":"NBN Co","locationSet":{"include":["au"]},"geometry":["point","area"],"matchScore":2,"terms":["nbn co"],"fields":["name","operator","{telecom/exchange}"],"tags":{"operator:wikidata":"Q6952833","telecom":"exchange"},"addTags":{"operator":"NBN Co","operator:wikidata":"Q6952833","telecom":"exchange"}},"telecom/exchange/telstra-03cc00":{"name":"Telstra","locationSet":{"include":["au"]},"geometry":["point","area"],"matchScore":2,"terms":["telstra"],"fields":["name","operator","{telecom/exchange}"],"tags":{"operator:wikidata":"Q721162","telecom":"exchange"},"addTags":{"operator":"Telstra","operator:wikidata":"Q721162","telecom":"exchange"}},"public_transport/platform/bus_point/newcastletransport-5e6177":{"name":"Newcastle Transport","locationSet":{"include":["au"]},"geometry":["point","vertex"],"matchScore":2,"terms":["newcastle transport"],"reference":{"key":"public_transport","value":"platform"},"tags":{"bus":"yes","network:wikidata":"Q28128502","public_transport":"platform"},"addTags":{"bus":"yes","highway":"bus_stop","network":"Newcastle Transport","network:wikidata":"Q28128502","public_transport":"platform"}},"public_transport/platform/bus_point/skybus-c0ad3f":{"name":"Skybus","locationSet":{"include":["au","nz"]},"geometry":["point","vertex"],"matchScore":2,"terms":["skybus"],"reference":{"key":"public_transport","value":"platform"},"tags":{"bus":"yes","network:wikidata":"Q7537617","public_transport":"platform"},"addTags":{"bus":"yes","highway":"bus_stop","network":"Skybus","network:wikidata":"Q7537617","public_transport":"platform"}},"type/route/bus/newcastletransport-95a292":{"name":"Newcastle Transport","locationSet":{"include":["au"]},"geometry":["relation"],"matchScore":2,"terms":["newcastle transport"],"reference":{"key":"route","value":"bus"},"tags":{"network:wikidata":"Q28128502","route":"bus","type":"route"},"addTags":{"network":"Newcastle Transport","network:wikidata":"Q28128502","route":"bus","type":"route"}},"type/route/bus/skybus-4d26c5":{"name":"Skybus","locationSet":{"include":["au","nz"]},"geometry":["relation"],"matchScore":2,"terms":["skybus"],"reference":{"key":"route","value":"bus"},"tags":{"network:wikidata":"Q7537617","route":"bus","type":"route"},"addTags":{"network":"Skybus","network:wikidata":"Q7537617","route":"bus","type":"route"}},"type/route/train/adelaidemetro-cffedd":{"name":"Adelaide Metro","locationSet":{"include":["au"]},"geometry":["relation"],"matchScore":2,"terms":["adelaide metro"],"reference":{"key":"route","value":"train"},"tags":{"network:wikidata":"Q4681753","route":"train","type":"route"},"addTags":{"network":"Adelaide Metro","network:wikidata":"Q4681753","route":"train","type":"route"}},"type/route/train/ptvmetropolitantrains-cffedd":{"name":"PTV - Metropolitan Trains","locationSet":{"include":["au"]},"geometry":["relation"],"matchScore":2,"terms":["ptv - metropolitan trains"],"reference":{"key":"route","value":"train"},"tags":{"network:wikidata":"Q7257648","route":"train","type":"route"},"addTags":{"network":"PTV - Metropolitan Trains","network:wikidata":"Q7257648","route":"train","type":"route"}},"type/route/train/ptvregionaltrains-cffedd":{"name":"PTV - Regional Trains","locationSet":{"include":["au"]},"geometry":["relation"],"matchScore":2,"terms":["ptv - regional trains"],"reference":{"key":"route","value":"train"},"tags":{"network:wikidata":"Q7257648","route":"train","type":"route"},"addTags":{"network":"PTV - Regional Trains","network:wikidata":"Q7257648","route":"train","type":"route"}},"type/route/train/sydneytrains-cffedd":{"name":"Sydney Trains","locationSet":{"include":["au"]},"geometry":["relation"],"matchScore":2,"terms":["sydney trains"],"reference":{"key":"route","value":"train"},"tags":{"network:wikidata":"Q7660181","route":"train","type":"route"},"addTags":{"network":"Sydney Trains","network:wikidata":"Q7660181","route":"train","type":"route"}},"type/route/train/translink-cffedd":{"name":"TransLink","locationSet":{"include":["au"]},"geometry":["relation"],"matchScore":2,"terms":["translink"],"reference":{"key":"route","value":"train"},"tags":{"network:wikidata":"Q7833625","route":"train","type":"route"},"addTags":{"network":"TransLink","network:wikidata":"Q7833625","route":"train","type":"route"}},"type/route/train/transperth-cffedd":{"name":"Transperth","locationSet":{"include":["au"]},"geometry":["relation"],"matchScore":2,"terms":["transperth"],"reference":{"key":"route","value":"train"},"tags":{"network:wikidata":"Q1503488","route":"train","type":"route"},"addTags":{"network":"Transperth","network:wikidata":"Q1503488","route":"train","type":"route"}},"type/route/train/vline-cffedd":{"name":"V/Line","locationSet":{"include":["au"]},"geometry":["relation"],"matchScore":2,"terms":["v/line","v/line corporation"],"reference":{"key":"route","value":"train"},"tags":{"network:wikidata":"Q7906335","route":"train","type":"route"},"addTags":{"network":"V/Line","network:wikidata":"Q7906335","route":"train","type":"route"}},"type/route/tram/ptvmetropolitantrams-f14ffe":{"name":"PTV - Metropolitan Trams","locationSet":{"include":["au"]},"geometry":["relation"],"matchScore":2,"terms":["keolis downer","ptv - metropolitan trams"],"reference":{"key":"route","value":"tram"},"tags":{"network:wikidata":"Q7257648","route":"tram","type":"route"},"addTags":{"network":"PTV - Metropolitan Trams","network:wikidata":"Q7257648","operator":"Keolis Downer","operator:wikidata":"Q6328065","route":"tram","type":"route"}},"type/route/tram/yarratrams-f14ffe":{"name":"Yarra Trams","locationSet":{"include":["au"]},"geometry":["relation"],"matchScore":2,"terms":["yarra trams"],"reference":{"key":"route","value":"tram"},"tags":{"network:wikidata":"Q16927551","route":"tram","type":"route"},"addTags":{"network":"Yarra Trams","network:wikidata":"Q16927551","route":"tram","type":"route"}}}