{"amenity/atm/fortebank-228817":{"name":"ForteBank","locationSet":{"include":["kz"]},"geometry":["point","vertex"],"matchScore":2,"terms":["abc bank","alliance bank","fortebank","temirbank","альянс банк"],"fields":["name","brand","{amenity/atm}"],"tags":{"amenity":"atm","brand:wikidata":"Q1336498"},"addTags":{"amenity":"atm","brand":"ForteBank","brand:wikidata":"Q1336498","operator":"ForteBank","operator:wikidata":"Q1336498"}},"amenity/atm/jusan-228817":{"name":"Jusan","locationSet":{"include":["kz"]},"geometry":["point","vertex"],"matchScore":2,"terms":["first heartland jusan bank","first heartland jýsan bank","jusan","jusan bank","jýsan","jýsan bank","tsesnabank"],"fields":["name","brand","{amenity/atm}"],"tags":{"amenity":"atm","brand:wikidata":"Q25485074"},"addTags":{"amenity":"atm","brand":"Jusan","brand:wikidata":"Q25485074","operator":"Jusan","operator:wikidata":"Q25485074"}},"amenity/atm/kaspikz-228817":{"name":"Kaspi.kz","locationSet":{"include":["kz"]},"geometry":["point","vertex"],"matchScore":2,"terms":["kaspi.kz","kaspibank"],"fields":["name","brand","{amenity/atm}"],"tags":{"amenity":"atm","brand:wikidata":"Q143833"},"addTags":{"amenity":"atm","brand":"Kaspi.kz","brand:wikidata":"Q143833","operator":"Kaspi.kz","operator:wikidata":"Q143833"}},"amenity/atm/alfabank-7b834c":{"name":"Альфа-Банк (Россия)","locationSet":{"include":["kz","ru"]},"geometry":["point","vertex"],"matchScore":2,"terms":["alfa-bank","альфа-банк"],"fields":["name","brand","{amenity/atm}"],"tags":{"amenity":"atm","brand:wikidata":"Q1377835"},"addTags":{"amenity":"atm","brand":"Альфа-Банк","brand:en":"Alfa-Bank","brand:ru":"Альфа-Банк","brand:wikidata":"Q1377835","name:en":"Alfa-Bank","name:ru":"Альфа-Банк","operator":"Альфа-Банк","operator:wikidata":"Q1377835"}},"amenity/atm/kazkommertsbank-228817":{"name":"Казкоммерцбанк","locationSet":{"include":["kz"]},"geometry":["point","vertex"],"matchScore":2,"terms":["kazkommertsbank","казкоммерцбанк"],"fields":["name","brand","{amenity/atm}"],"tags":{"amenity":"atm","brand:wikidata":"Q1168179"},"addTags":{"amenity":"atm","brand":"Казкоммерцбанк","brand:en":"Kazkommertsbank","brand:wikidata":"Q1168179","name:en":"Kazkommertsbank","operator":"Казкоммерцбанк","operator:wikidata":"Q1168179"}},"amenity/atm/f25812-e91767":{"name":"Народный банк","locationSet":{"include":["kg","kz","uz"]},"geometry":["point","vertex"],"matchScore":2,"terms":["народный банк"],"fields":["name","brand","{amenity/atm}"],"tags":{"amenity":"atm","brand:wikidata":"Q1046186"},"addTags":{"amenity":"atm","brand":"Народный банк","brand:wikidata":"Q1046186","operator":"Народный банк","operator:wikidata":"Q1046186"}},"amenity/atm/sberbank-7b834c":{"name":"Сбербанк","locationSet":{"include":["kz","ru"]},"geometry":["point","vertex"],"matchScore":2,"terms":["cбербанк","cбербанк россии","sberbank","сбербанк","сбербанк россии"],"fields":["name","brand","{amenity/atm}"],"tags":{"amenity":"atm","brand:wikidata":"Q205012"},"addTags":{"amenity":"atm","brand":"Сбербанк","brand:en":"Sberbank","brand:ru":"Сбербанк","brand:wikidata":"Q205012","name:en":"Sberbank","name:ru":"Сбербанк","operator":"Сбербанк","operator:wikidata":"Q205012"}},"amenity/bank/fortebank-033b31":{"name":"ForteBank","locationSet":{"include":["kz"]},"geometry":["point","area"],"matchScore":2,"terms":["abc bank","alliance bank","fortebank","temirbank","альянс банк"],"tags":{"amenity":"bank","brand:wikidata":"Q1336498"},"addTags":{"amenity":"bank","brand":"ForteBank","brand:wikidata":"Q1336498","name":"ForteBank"}},"amenity/bank/jusan-033b31":{"name":"Jusan","locationSet":{"include":["kz"]},"geometry":["point","area"],"matchScore":2,"terms":["first heartland jusan bank","first heartland jýsan bank","jusan","jusan bank","jýsan","jýsan bank","tsesnabank"],"tags":{"amenity":"bank","brand:wikidata":"Q25485074"},"addTags":{"amenity":"bank","brand":"Jusan","brand:wikidata":"Q25485074","name":"Jusan"}},"amenity/bank/kaspikz-033b31":{"name":"Kaspi.kz","locationSet":{"include":["kz"]},"geometry":["point","area"],"matchScore":2,"terms":["kaspi.kz","kaspibank"],"tags":{"amenity":"bank","brand:wikidata":"Q143833"},"addTags":{"amenity":"bank","brand":"Kaspi.kz","brand:wikidata":"Q143833","name":"Kaspi.kz"}},"amenity/bank/alfabank-be9928":{"name":"Альфа-Банк (Россия)","locationSet":{"include":["kz","ru"]},"geometry":["point","area"],"matchScore":2,"terms":["alfa-bank","альфа-банк"],"tags":{"amenity":"bank","brand:wikidata":"Q1377835"},"addTags":{"amenity":"bank","brand":"Альфа-Банк","brand:en":"Alfa-Bank","brand:ru":"Альфа-Банк","brand:wikidata":"Q1377835","name":"Альфа-Банк","name:en":"Alfa-Bank","name:ru":"Альфа-Банк"}},"amenity/bank/kazkommertsbank-033b31":{"name":"Казкоммерцбанк","locationSet":{"include":["kz"]},"geometry":["point","area"],"matchScore":2,"terms":["kazkommertsbank","казкоммерцбанк"],"tags":{"amenity":"bank","brand:wikidata":"Q1168179"},"addTags":{"amenity":"bank","brand":"Казкоммерцбанк","brand:en":"Kazkommertsbank","brand:wikidata":"Q1168179","name":"Казкоммерцбанк","name:en":"Kazkommertsbank"}},"amenity/bank/f25812-894181":{"name":"Народный банк","locationSet":{"include":["kg","kz","uz"]},"geometry":["point","area"],"matchScore":2,"terms":["народный банк"],"tags":{"amenity":"bank","brand:wikidata":"Q1046186"},"addTags":{"amenity":"bank","brand":"Народный банк","brand:wikidata":"Q1046186","name":"Народный банк"}},"amenity/bank/sberbank-be9928":{"name":"Сбербанк","locationSet":{"include":["kz","ru"]},"geometry":["point","area"],"matchScore":2,"terms":["cбербанк","cбербанк россии","sberbank","сбербанк","сбербанк россии"],"tags":{"amenity":"bank","brand:wikidata":"Q205012"},"addTags":{"amenity":"bank","brand":"Сбербанк","brand:en":"Sberbank","brand:ru":"Сбербанк","brand:wikidata":"Q205012","name":"Сбербанк","name:en":"Sberbank","name:ru":"Сбербанк"}},"amenity/cafe/coffee_shop/aromaespressobar-1ae0cd":{"name":"Aroma Espresso Bar","locationSet":{"include":["ca","kz","ro","ua","us"]},"geometry":["point","area"],"matchScore":2,"terms":["aroma espresso bar"],"reference":{"key":"cuisine","value":"coffee_shop"},"tags":{"amenity":"cafe","brand:wikidata":"Q2909872","cuisine":"coffee_shop"},"addTags":{"amenity":"cafe","brand":"Aroma Espresso Bar","brand:wikidata":"Q2909872","cuisine":"coffee_shop","name":"Aroma Espresso Bar","takeaway":"yes"}},"amenity/cafe/coffee_shop/coffeelike-9c7c7f":{"name":"Coffee Like","locationSet":{"include":["kz","ru"]},"geometry":["point","area"],"matchScore":2,"terms":["coffee like"],"reference":{"key":"cuisine","value":"coffee_shop"},"tags":{"amenity":"cafe","brand:wikidata":"Q55662627","cuisine":"coffee_shop"},"addTags":{"amenity":"cafe","brand":"Coffee Like","brand:wikidata":"Q55662627","cuisine":"coffee_shop","name":"Coffee Like","takeaway":"yes"}},"amenity/fast_food/burger/burgerking-e25654":{"name":"Бургер Кинг","locationSet":{"include":["by","kz","ru"]},"geometry":["point","area"],"matchScore":2,"terms":["burger king","бургер кинг"],"reference":{"key":"cuisine","value":"burger"},"tags":{"amenity":"fast_food","brand:wikidata":"Q177054","cuisine":"burger"},"addTags":{"amenity":"fast_food","brand":"Бургер Кинг","brand:en":"Burger King","brand:ru":"Бургер Кинг","brand:wikidata":"Q177054","cuisine":"burger","name":"Бургер Кинг","name:en":"Burger King","name:ru":"Бургер Кинг","takeaway":"yes"}},"amenity/fast_food/pizza/dodopizza-e25654":{"name":"Додо Пицца","locationSet":{"include":["by","kz","ru"]},"geometry":["point","area"],"matchScore":2,"terms":["dodo pizza","dodo пицца","до-до","додо пица","додо пицца"],"reference":{"key":"cuisine","value":"pizza"},"tags":{"amenity":"fast_food","brand:wikidata":"Q61949318","cuisine":"pizza"},"addTags":{"amenity":"fast_food","brand":"Додо Пицца","brand:en":"Dodo Pizza","brand:ru":"Додо Пицца","brand:wikidata":"Q61949318","cuisine":"pizza","name":"Додо Пицца","name:en":"Dodo Pizza","name:ru":"Додо Пицца","takeaway":"yes"}},"amenity/fast_food/pizza/dominos-e25654":{"name":"Домино'c","locationSet":{"include":["by","kz","ru"]},"geometry":["point","area"],"matchScore":2,"terms":["domino's","домино'c","доминоc пицца"],"reference":{"key":"cuisine","value":"pizza"},"tags":{"amenity":"fast_food","brand:wikidata":"Q839466","cuisine":"pizza"},"addTags":{"amenity":"fast_food","brand":"Домино'c","brand:en":"Domino's","brand:ru":"Домино'c","brand:wikidata":"Q839466","cuisine":"pizza","name":"Домино'c","name:en":"Domino's","name:ru":"Домино'c","takeaway":"yes"}},"amenity/fast_food/burger/mcdonalds-bac877":{"name":"Макдоналдс","locationSet":{"include":["by","kz"]},"geometry":["point","area"],"matchScore":2,"terms":["mcdonald's","макдоналдс"],"reference":{"key":"cuisine","value":"burger"},"tags":{"amenity":"fast_food","brand:wikidata":"Q38076","cuisine":"burger"},"addTags":{"amenity":"fast_food","brand":"Макдоналдс","brand:en":"McDonald's","brand:ru":"Макдоналдс","brand:wikidata":"Q38076","cuisine":"burger","name":"Макдоналдс","name:en":"McDonald's","name:ru":"Макдоналдс","takeaway":"yes"}},"amenity/fuel/sinooil-6daebb":{"name":"Sinooil","locationSet":{"include":["kz"]},"geometry":["point","area"],"matchScore":2,"terms":["sinooil"],"fields":["name","brand","{amenity/fuel}"],"tags":{"amenity":"fuel","brand:wikidata":"Q503182"},"addTags":{"amenity":"fuel","brand":"Sinooil","brand:wikidata":"Q503182","name":"Sinooil"}},"amenity/fuel/0b910f-bb6729":{"name":"Газпромнефть","locationSet":{"include":["by","kg","kz","ru","tj"]},"geometry":["point","area"],"matchScore":2,"terms":["газпром","газпромнефть"],"fields":["name","brand","{amenity/fuel}"],"tags":{"amenity":"fuel","brand:wikidata":"Q1461799"},"addTags":{"amenity":"fuel","brand":"Газпромнефть","brand:wikidata":"Q1461799","name":"Газпромнефть"}},"amenity/fuel/helios-6daebb":{"name":"Гелиос","locationSet":{"include":["kz"]},"geometry":["point","area"],"matchScore":2,"terms":["helios","гелиос"],"fields":["name","brand","{amenity/fuel}"],"tags":{"amenity":"fuel","brand:wikidata":"Q62286471"},"addTags":{"amenity":"fuel","brand":"Гелиос","brand:en":"Helios","brand:wikidata":"Q62286471","name":"Гелиос","name:en":"Helios"}},"amenity/fuel/ec4d32-6daebb":{"name":"КазМунайГаз","locationSet":{"include":["kz"]},"geometry":["point","area"],"matchScore":2,"terms":["казмунайгаз"],"fields":["name","brand","{amenity/fuel}"],"tags":{"amenity":"fuel","brand:wikidata":"Q1417227"},"addTags":{"amenity":"fuel","brand":"КазМунайГаз","brand:wikidata":"Q1417227","name":"КазМунайГаз"}},"amenity/fuel/lukoil-0962f2":{"name":"Лукойл","locationSet":{"include":["by","kz","ru"]},"geometry":["point","area"],"matchScore":2,"terms":["lukoil","лукоил","лукойл"],"fields":["name","brand","{amenity/fuel}"],"tags":{"amenity":"fuel","brand:wikidata":"Q329347"},"addTags":{"amenity":"fuel","brand":"Лукойл","brand:en":"Lukoil","brand:ru":"Лукойл","brand:wikidata":"Q329347","name":"Лукойл","name:en":"Lukoil","name:ru":"Лукойл"}},"amenity/ice_cream/fd1d7e-3c9560":{"name":"33 пингвина","locationSet":{"include":["by","kg","kz","ru","uz"]},"geometry":["point","area"],"matchScore":2,"terms":["33 пингвина"],"tags":{"amenity":"ice_cream","brand:wikidata":"Q110147993"},"addTags":{"amenity":"ice_cream","brand":"33 пингвина","brand:wikidata":"Q110147993","name":"33 пингвина"}},"amenity/restaurant/seafood/oceanbasket-5d9698":{"name":"Ocean Basket","locationSet":{"include":["ae","bw","cy","gb","ke","kw","kz","mt","mu","na","ng","qa","ru","sa","sz","za","zw"]},"geometry":["point","area"],"matchScore":2,"terms":["ocean basket"],"reference":{"key":"cuisine","value":"seafood"},"tags":{"amenity":"restaurant","brand:wikidata":"Q62075311","cuisine":"seafood"},"addTags":{"amenity":"restaurant","brand":"Ocean Basket","brand:wikidata":"Q62075311","cuisine":"seafood","name":"Ocean Basket"}},"amenity/restaurant/japanese/tanuki-dd767d":{"name":"Тануки","locationSet":{"include":["kz","ru"]},"geometry":["point","area"],"matchScore":2,"terms":["tanuki","тануки"],"reference":{"key":"cuisine","value":"japanese"},"tags":{"amenity":"restaurant","brand:wikidata":"Q62758690","cuisine":"japanese"},"addTags":{"amenity":"restaurant","brand":"Тануки","brand:wikidata":"Q62758690","cuisine":"japanese","name":"Тануки","name:en":"Tanuki","name:ru":"Тануки"}},"office/telecommunication/kcell-4679e0":{"name":"Kcell","locationSet":{"include":["kz"]},"geometry":["point","area"],"matchScore":2,"terms":["kcell"],"tags":{"brand:wikidata":"Q1737636","office":"telecommunication"},"addTags":{"brand":"Kcell","brand:wikidata":"Q1737636","name":"Kcell","office":"telecommunication"}},"office/telecommunication/beeline-c5e7fc":{"name":"Билайн","locationSet":{"include":["ge","kg","kz","ru"]},"geometry":["point","area"],"matchScore":2,"terms":["beeline","билайн"],"tags":{"brand:wikidata":"Q402880","office":"telecommunication"},"addTags":{"brand":"Билайн","brand:en":"Beeline","brand:ru":"Билайн","brand:wikidata":"Q402880","name":"Билайн","name:en":"Beeline","name:ru":"Билайн","office":"telecommunication"}},"shop/baby_goods/detskiymir-7b1c28":{"name":"Детский мир","locationSet":{"include":["by","kz","ru"]},"geometry":["point","area"],"matchScore":2,"terms":["detskiy mir","детский мир"],"tags":{"brand:wikidata":"Q16643324","shop":"baby_goods"},"addTags":{"brand":"Детский мир","brand:en":"Detskiy Mir","brand:wikidata":"Q16643324","name":"Детский мир","name:en":"Detskiy Mir","shop":"baby_goods"}},"shop/bakery/paul-652955":{"name":"Paul","locationSet":{"include":["ae","az","be","bh","by","ci","cy","cz","eg","es","fr","ga","gb","ge","gr","id","in","jo","jp","kw","kz","lb","lu","ma","mu","my","om","pa","ph","pl","pt","qa","ro","ru","sa","sg","th","tn","tw","ua","us","uz","vn","za"]},"geometry":["point","area"],"matchScore":2,"terms":["paul"],"tags":{"brand:wikidata":"Q3370417","shop":"bakery"},"addTags":{"brand":"Paul","brand:wikidata":"Q3370417","name":"Paul","shop":"bakery"}},"shop/clothes/cropp-613e37":{"name":"Cropp","locationSet":{"include":["ba","bg","cz","ee","fi","hr","hu","kz","lt","lv","ro","rs","ru","si","sk","ua"]},"geometry":["point","area"],"matchScore":2,"terms":["cropp"],"tags":{"brand:wikidata":"Q9196793","shop":"clothes"},"addTags":{"brand":"Cropp","brand:wikidata":"Q9196793","name":"Cropp","shop":"clothes"}},"shop/clothes/house-f09482":{"name":"House","locationSet":{"include":["ba","bg","cz","ee","fi","hr","hu","kz","lt","lv","pl","ro","rs","ru","si","sk","ua"]},"geometry":["point","area"],"matchScore":2,"terms":["house"],"tags":{"brand:wikidata":"Q9294202","shop":"clothes"},"addTags":{"brand":"House","brand:wikidata":"Q9294202","name":"House","shop":"clothes"}},"shop/clothes/loverepublic-54fe8d":{"name":"LOVE REPUBLIC","locationSet":{"include":["am","by","kz","ru"]},"geometry":["point","area"],"matchScore":2,"terms":["love republic"],"tags":{"brand:wikidata":"Q103848331","shop":"clothes"},"addTags":{"brand":"LOVE REPUBLIC","brand:wikidata":"Q103848331","clothes":"women","name":"LOVE REPUBLIC","shop":"clothes"}},"shop/clothes/markformelle-1c3486":{"name":"Mark Formelle","locationSet":{"include":["by","kz","ru"]},"geometry":["point","area"],"matchScore":2,"terms":["mark formelle"],"tags":{"brand:wikidata":"Q25381083","shop":"clothes"},"addTags":{"brand":"Mark Formelle","brand:wikidata":"Q25381083","name":"Mark Formelle","shop":"clothes"}},"shop/clothes/mohito-710e25":{"name":"Mohito","locationSet":{"include":["ba","bg","cz","ee","fi","hu","kz","lt","lv","pl","ro","rs","ru","si","sk","ua"]},"geometry":["point","area"],"matchScore":2,"terms":["mohito"],"tags":{"brand:wikidata":"Q107410616","shop":"clothes"},"addTags":{"brand":"Mohito","brand:wikidata":"Q107410616","clothes":"women","name":"Mohito","shop":"clothes"}},"shop/clothes/zarina-54fe8d":{"name":"Zarina","locationSet":{"include":["am","by","kz","ru"]},"geometry":["point","area"],"matchScore":2,"terms":["zarina"],"tags":{"brand:wikidata":"Q147662","shop":"clothes"},"addTags":{"brand":"Zarina","brand:wikidata":"Q147662","clothes":"women","name":"Zarina","shop":"clothes"}},"shop/clothes/snezhnayakoroleva-102c33":{"name":"Снежная королева","locationSet":{"include":["kz","ru"]},"geometry":["point","area"],"matchScore":2,"terms":["snezhnaya koroleva","снежная королева"],"tags":{"brand:wikidata":"Q4425512","shop":"clothes"},"addTags":{"brand":"Снежная королева","brand:wikidata":"Q4425512","name":"Снежная королева","name:en":"Snezhnaya koroleva","name:ru":"Снежная королева","shop":"clothes"}},"shop/clothes/tvoe-1c3486":{"name":"ТВОЕ","locationSet":{"include":["by","kz","ru"]},"geometry":["point","area"],"matchScore":2,"terms":["tvoe","твое"],"tags":{"brand:wikidata":"Q110034939","shop":"clothes"},"addTags":{"brand":"ТВОЕ","brand:en":"TVOE","brand:ru":"ТВОЕ","brand:wikidata":"Q110034939","name":"ТВОЕ","name:en":"TVOE","name:ru":"ТВОЕ","shop":"clothes"}},"shop/convenience/ministop-d6ae81":{"name":"Ministop","locationSet":{"include":["cn","kz","ph","vn"]},"geometry":["point","area"],"matchScore":2,"terms":["ministop"],"tags":{"brand:wikidata":"Q1038929","shop":"convenience"},"addTags":{"brand":"Ministop","brand:wikidata":"Q1038929","name":"Ministop","shop":"convenience"}},"shop/convenience/ec4d32-7ad3ae":{"name":"КазМунайГаз","locationSet":{"include":["kz"]},"geometry":["point","area"],"matchScore":2,"terms":["казмунайгаз"],"tags":{"brand:wikidata":"Q1417227","shop":"convenience"},"addTags":{"brand":"КазМунайГаз","brand:wikidata":"Q1417227","name":"КазМунайГаз","shop":"convenience"}},"shop/cosmetics/mixit-8126fc":{"name":"Mixit","locationSet":{"include":["by","kz","ru"]},"geometry":["point","area"],"matchScore":2,"terms":["mixit"],"tags":{"brand:wikidata":"Q110291123","shop":"cosmetics"},"addTags":{"brand":"Mixit","brand:wikidata":"Q110291123","name":"Mixit","shop":"cosmetics"}},"shop/craft/f57608-3615c7":{"name":"Леонардо","locationSet":{"include":["by","kz","ru"]},"geometry":["point","area"],"matchScore":2,"terms":["леонардо"],"tags":{"brand:wikidata":"Q110138162","shop":"craft"},"addTags":{"brand":"Леонардо","brand:wikidata":"Q110138162","name":"Леонардо","shop":"craft"}},"shop/electronics/bork-c106d0":{"name":"Bork","locationSet":{"include":["am","by","kz","ru","ua"]},"geometry":["point","area"],"matchScore":2,"terms":["bork"],"tags":{"brand:wikidata":"Q4035327","shop":"electronics"},"addTags":{"brand":"Bork","brand:wikidata":"Q4035327","name":"Bork","shop":"electronics"}},"shop/mobile_phone/beeline-3f097a":{"name":"Билайн","locationSet":{"include":["kg","kz","ru"]},"geometry":["point","area"],"matchScore":2,"terms":["beeline","билайн"],"tags":{"brand:wikidata":"Q402880","shop":"mobile_phone"},"addTags":{"brand":"Билайн","brand:en":"Beeline","brand:wikidata":"Q402880","name":"Билайн","name:en":"Beeline","shop":"mobile_phone"}},"shop/mobile_phone/euroset-4d9972":{"name":"Евросеть","locationSet":{"include":["by","kz","ru","ua"]},"geometry":["point","area"],"matchScore":2,"terms":["euroset","евросеть"],"searchable":false,"tags":{"brand:wikidata":"Q65310","shop":"mobile_phone"},"addTags":{"brand":"Евросеть","brand:en":"Euroset","brand:wikidata":"Q65310","name":"Евросеть","name:en":"Euroset","shop":"mobile_phone"}},"shop/pet/42195e-8e284e":{"name":"Четыре лапы","locationSet":{"include":["kz","ru"]},"geometry":["point","area"],"matchScore":2,"terms":["четыре лапы"],"tags":{"brand:wikidata":"Q62390783","shop":"pet"},"addTags":{"brand":"Четыре лапы","brand:wikidata":"Q62390783","name":"Четыре лапы","shop":"pet"}},"shop/shoes/b94bbd-2bb834":{"name":"Эконика","locationSet":{"include":["kz","ru"]},"geometry":["point","area"],"matchScore":2,"terms":["эконика"],"tags":{"brand:wikidata":"Q110246884","shop":"shoes"},"addTags":{"brand":"Эконика","brand:wikidata":"Q110246884","name":"Эконика","shoes":"women","shop":"shoes"}},"shop/shoes/fa8d5a-2bb834":{"name":"Юничел","locationSet":{"include":["kz","ru"]},"geometry":["point","area"],"matchScore":2,"terms":["юничел"],"tags":{"brand:wikidata":"Q62390569","shop":"shoes"},"addTags":{"brand":"Юничел","brand:wikidata":"Q62390569","name":"Юничел","shop":"shoes"}},"shop/sports/sportmaster-1e138a":{"name":"Спортмастер","locationSet":{"include":["by","kz","ru"]},"geometry":["point","area"],"matchScore":2,"terms":["sportmaster","спортмастер","спортмастер гипер"],"tags":{"brand:wikidata":"Q4438176","shop":"sports"},"addTags":{"brand":"Спортмастер","brand:en":"Sportmaster","brand:ru":"Спортмастер","brand:wikidata":"Q4438176","name":"Спортмастер","name:en":"Sportmaster","name:ru":"Спортмастер","shop":"sports"}},"tourism/hotel/marriottexecutiveapartments-b2f419":{"name":"Marriott Executive Apartments","locationSet":{"include":["ae","be","bh","br","cn","et","gb","hu","id","in","kr","kz","pa","sa","th","za"]},"geometry":["point","area"],"matchScore":2,"terms":["marriott executive apartments"],"fields":["name","brand","{tourism/hotel}"],"tags":{"brand:wikidata":"Q72636824","tourism":"hotel"},"addTags":{"brand":"Marriott Executive Apartments","brand:wikidata":"Q72636824","name":"Marriott Executive Apartments","tourism":"hotel"}},"amenity/post_box/c12bb7-f5a740":{"name":"Казпочта","locationSet":{"include":["kz"]},"geometry":["point","vertex"],"matchScore":2,"terms":["казпочта"],"tags":{"amenity":"post_box","operator:wikidata":"Q746263"},"addTags":{"amenity":"post_box","operator":"Казпочта","operator:wikidata":"Q746263"}},"amenity/post_office/c12bb7-58ab80":{"name":"Казпочта","locationSet":{"include":["kz"]},"geometry":["point","area"],"matchScore":2,"terms":["казпочта"],"fields":["name","operator","{amenity/post_office}"],"tags":{"amenity":"post_office","operator:wikidata":"Q746263"},"addTags":{"amenity":"post_office","operator":"Казпочта","operator:wikidata":"Q746263"}}}