{"advertising/totem/as24-e95b1e":{"name":"AS 24","locationSet":{"include":["at","be","bg","cz","de","dk","es","fr","gb","ge","gr","hr","hu","ie","it","lt","lu","mk","nl","pl","pt","ro","rs","se","si","sk","ua"]},"geometry":["point","line"],"matchScore":2,"terms":["as 24"],"tags":{"advertising":"totem","brand:wikidata":"Q2819394"},"addTags":{"advertising":"totem","brand":"AS 24","brand:wikidata":"Q2819394","hgv":"only"}},"advertising/totem/auchan-9efa8b":{"name":"Auchan","locationSet":{"include":["al","ad","ba","hr","gi","gr","va","it","mt","me","mk","pt","sm","rs","si","es","xk","by","bg","cz","hu","pl","md","ro","ru","sk","ua","at","be","fr","de","li","lu","mc","nl","ch"]},"geometry":["point","line"],"matchScore":2,"terms":["auchan"],"tags":{"advertising":"totem","brand:wikidata":"Q758603"},"addTags":{"advertising":"totem","brand":"Auchan","brand:wikidata":"Q758603"}},"advertising/totem/avia-189542":{"name":"Avia","locationSet":{"include":["at","be","bg","ch","cz","de","es","fr","hu","it","nl","pl","pt","rs","ua"]},"geometry":["point","line"],"matchScore":2,"terms":["avia","station avia"],"tags":{"advertising":"totem","brand:wikidata":"Q300147"},"addTags":{"advertising":"totem","brand":"Avia","brand:wikidata":"Q300147"}},"advertising/totem/ina-245676":{"name":"INA","locationSet":{"include":["ba","hr","hu","me"]},"geometry":["point","line"],"matchScore":2,"terms":["ina"],"tags":{"advertising":"totem","brand:wikidata":"Q1662137"},"addTags":{"advertising":"totem","brand":"INA","brand:wikidata":"Q1662137"}},"advertising/totem/orlen-5e42d4":{"name":"Orlen","locationSet":{"include":["de","hu","lt","pl","sk"]},"geometry":["point","line"],"matchScore":2,"terms":["orlen"],"tags":{"advertising":"totem","brand:wikidata":"Q971649"},"addTags":{"advertising":"totem","brand":"Orlen","brand:wikidata":"Q971649"}},"amenity/atm/bnpparibas-4ed91f":{"name":"BNP Paribas","locationSet":{"include":["ae","af","ar","at","bf","bg","bh","br","ca","ch","ci","cl","co","cz","de","dk","dz","es","fi","fr","gb","gf","gp","hu","ie","il","it","kw","ma","ml","mq","mx","nl","no","pe","pt","qa","re","ro","ru","sa","se","sk","sn","tn","tr","us"]},"geometry":["point","vertex"],"matchScore":2,"terms":["bnp paribas"],"fields":["name","brand","{amenity/atm}"],"tags":{"amenity":"atm","brand:wikidata":"Q499707"},"addTags":{"amenity":"atm","brand":"BNP Paribas","brand:wikidata":"Q499707","operator":"BNP Paribas","operator:wikidata":"Q499707"}},"amenity/atm/budapestbank-681c6d":{"name":"Budapest Bank","locationSet":{"include":["hu"]},"geometry":["point","vertex"],"matchScore":2,"terms":["budapest bank"],"fields":["name","brand","{amenity/atm}"],"searchable":false,"tags":{"amenity":"atm","brand:wikidata":"Q27493463"},"addTags":{"amenity":"atm","brand":"Budapest Bank","brand:wikidata":"Q27493463","operator":"Budapest Bank","operator:wikidata":"Q27493463"}},"amenity/atm/cibbank-681c6d":{"name":"CIB Bank","locationSet":{"include":["hu"]},"geometry":["point","vertex"],"matchScore":2,"terms":["cib bank"],"fields":["name","brand","{amenity/atm}"],"tags":{"amenity":"atm","brand:wikidata":"Q839566"},"addTags":{"amenity":"atm","brand":"CIB Bank","brand:wikidata":"Q839566","operator":"CIB Bank","operator:wikidata":"Q839566"}},"amenity/atm/erstebank-1343ca":{"name":"Erste Bank","locationSet":{"include":["at","hr","hu","rs"]},"geometry":["point","vertex"],"matchScore":2,"terms":["erste bank"],"fields":["name","brand","{amenity/atm}"],"tags":{"amenity":"atm","brand:wikidata":"Q696867"},"addTags":{"amenity":"atm","brand":"Erste Bank","brand:wikidata":"Q696867","operator":"Erste Bank","operator:wikidata":"Q696867"}},"amenity/atm/groupama-57ab19":{"name":"Groupama","locationSet":{"include":["bg","cn","fr","gr","hu","it","ro","sk","tr"]},"geometry":["point","vertex"],"matchScore":2,"terms":["groupama"],"fields":["name","brand","{amenity/atm}"],"tags":{"amenity":"atm","brand:wikidata":"Q3083531"},"addTags":{"amenity":"atm","brand":"Groupama","brand:wikidata":"Q3083531","operator":"Groupama","operator:wikidata":"Q3083531"}},"amenity/atm/kandhbank-681c6d":{"name":"K&H Bank","locationSet":{"include":["hu"]},"geometry":["point","vertex"],"matchScore":2,"terms":["k&h bank"],"fields":["name","brand","{amenity/atm}"],"tags":{"amenity":"atm","brand:wikidata":"Q6393834"},"addTags":{"amenity":"atm","brand":"K&H Bank","brand:wikidata":"Q6393834","operator":"K&H Bank","operator:wikidata":"Q6393834"}},"amenity/atm/mkbbank-681c6d":{"name":"MKB Bank","locationSet":{"include":["hu"]},"geometry":["point","vertex"],"matchScore":2,"terms":["mkb bank"],"fields":["name","brand","{amenity/atm}"],"tags":{"amenity":"atm","brand:wikidata":"Q916185"},"addTags":{"amenity":"atm","brand":"MKB Bank","brand:wikidata":"Q916185","operator":"MKB Bank","operator:wikidata":"Q916185"}},"amenity/atm/oberbank-54e4c0":{"name":"Oberbank","locationSet":{"include":["at","cz","de","hu","sk"]},"geometry":["point","vertex"],"matchScore":2,"terms":["oberbank"],"fields":["name","brand","{amenity/atm}"],"tags":{"amenity":"atm","brand:wikidata":"Q2009139"},"addTags":{"amenity":"atm","brand":"Oberbank","brand:wikidata":"Q2009139","operator":"Oberbank","operator:wikidata":"Q2009139"}},"amenity/atm/raiffeisenbank-681c6d":{"name":"Raiffeisen Bank (Magyarország)","locationSet":{"include":["hu"]},"geometry":["point","vertex"],"matchScore":2,"terms":["raiffeisen","raiffeisen bank"],"fields":["name","brand","{amenity/atm}"],"tags":{"amenity":"atm","brand:wikidata":"Q16522506"},"addTags":{"amenity":"atm","brand":"Raiffeisen Bank","brand:wikidata":"Q16522506","operator":"Raiffeisen Bank","operator:wikidata":"Q16522506"}},"amenity/atm/takarekbank-681c6d":{"name":"Takarékbank","locationSet":{"include":["hu"]},"geometry":["point","vertex"],"matchScore":2,"terms":["takarékbank","takarékpénztár","takarékszövetkezet"],"fields":["name","brand","{amenity/atm}"],"tags":{"amenity":"atm","brand:wikidata":"Q30324674"},"addTags":{"amenity":"atm","brand":"Takarékbank","brand:wikidata":"Q30324674","operator":"Takarékbank","operator:wikidata":"Q30324674"}},"amenity/atm/unicreditbank-3ecec5":{"name":"UniCredit Bank","locationSet":{"include":["ba","cz","hu","it","ro","rs","ru","si","sk"]},"geometry":["point","vertex"],"matchScore":2,"terms":["unicredit","unicredit banca","unicredit bank","unicredit s.p.a."],"fields":["name","brand","{amenity/atm}"],"tags":{"amenity":"atm","brand:wikidata":"Q45568"},"addTags":{"amenity":"atm","brand":"UniCredit Bank","brand:wikidata":"Q45568","operator":"UniCredit Bank","operator:wikidata":"Q45568"}},"amenity/bank/bnpparibas-f7d855":{"name":"BNP Paribas","locationSet":{"include":["ae","af","ar","at","bf","bg","bh","br","ca","ch","ci","cl","co","cz","de","dk","dz","es","fi","fr","gb","gf","gp","hu","ie","il","it","kw","ma","ml","mq","mx","nl","no","pe","pt","qa","re","ro","ru","sa","se","sk","sn","tn","tr","us"]},"geometry":["point","area"],"matchScore":2,"terms":["bnp paribas"],"tags":{"amenity":"bank","brand:wikidata":"Q499707"},"addTags":{"amenity":"bank","brand":"BNP Paribas","brand:wikidata":"Q499707","name":"BNP Paribas"}},"amenity/bank/budapestbank-60884a":{"name":"Budapest Bank","locationSet":{"include":["hu"]},"geometry":["point","area"],"matchScore":2,"terms":["budapest bank"],"searchable":false,"tags":{"amenity":"bank","brand:wikidata":"Q27493463"},"addTags":{"amenity":"bank","brand":"Budapest Bank","brand:wikidata":"Q27493463","name":"Budapest Bank"}},"amenity/bank/cibbank-60884a":{"name":"CIB Bank","locationSet":{"include":["hu"]},"geometry":["point","area"],"matchScore":2,"terms":["cib bank"],"tags":{"amenity":"bank","brand:wikidata":"Q839566"},"addTags":{"amenity":"bank","brand":"CIB Bank","brand:wikidata":"Q839566","name":"CIB Bank"}},"amenity/bank/erstebank-d01b30":{"name":"Erste Bank","locationSet":{"include":["at","hr","hu","rs"]},"geometry":["point","area"],"matchScore":2,"terms":["erste bank"],"tags":{"amenity":"bank","brand:wikidata":"Q696867"},"addTags":{"amenity":"bank","brand":"Erste Bank","brand:wikidata":"Q696867","name":"Erste Bank"}},"amenity/bank/groupama-512200":{"name":"Groupama","locationSet":{"include":["bg","cn","fr","gr","hu","it","ro","sk","tr"]},"geometry":["point","area"],"matchScore":2,"terms":["groupama"],"tags":{"amenity":"bank","brand:wikidata":"Q3083531"},"addTags":{"amenity":"bank","brand":"Groupama","brand:wikidata":"Q3083531","name":"Groupama"}},"amenity/bank/kandhbank-60884a":{"name":"K&H Bank","locationSet":{"include":["hu"]},"geometry":["point","area"],"matchScore":2,"terms":["k&h bank"],"tags":{"amenity":"bank","brand:wikidata":"Q6393834"},"addTags":{"amenity":"bank","brand":"K&H Bank","brand:wikidata":"Q6393834","name":"K&H Bank"}},"amenity/bank/mkbbank-60884a":{"name":"MKB Bank","locationSet":{"include":["hu"]},"geometry":["point","area"],"matchScore":2,"terms":["mkb bank"],"tags":{"amenity":"bank","brand:wikidata":"Q916185"},"addTags":{"amenity":"bank","brand":"MKB Bank","brand:wikidata":"Q916185","name":"MKB Bank"}},"amenity/bank/oberbank-f71288":{"name":"Oberbank","locationSet":{"include":["at","cz","de","hu","sk"]},"geometry":["point","area"],"matchScore":2,"terms":["oberbank"],"tags":{"amenity":"bank","brand:wikidata":"Q2009139"},"addTags":{"amenity":"bank","brand":"Oberbank","brand:wikidata":"Q2009139","name":"Oberbank"}},"amenity/bank/raiffeisenbank-60884a":{"name":"Raiffeisen Bank (Magyarország)","locationSet":{"include":["hu"]},"geometry":["point","area"],"matchScore":2,"terms":["raiffeisen","raiffeisen bank"],"tags":{"amenity":"bank","brand:wikidata":"Q16522506"},"addTags":{"amenity":"bank","brand":"Raiffeisen Bank","brand:wikidata":"Q16522506","name":"Raiffeisen Bank"}},"amenity/bank/takarekbank-60884a":{"name":"Takarékbank","locationSet":{"include":["hu"]},"geometry":["point","area"],"matchScore":2,"terms":["takarékbank","takarékpénztár","takarékszövetkezet"],"tags":{"amenity":"bank","brand:wikidata":"Q30324674"},"addTags":{"amenity":"bank","brand":"Takarékbank","brand:wikidata":"Q30324674","name":"Takarékbank"}},"amenity/bank/unicreditbank-ff6e1c":{"name":"UniCredit Bank","locationSet":{"include":["ba","cz","hu","it","ro","rs","ru","si","sk"]},"geometry":["point","area"],"matchScore":2,"terms":["unicredit","unicredit banca","unicredit bank","unicredit s.p.a."],"tags":{"amenity":"bank","brand:wikidata":"Q45568"},"addTags":{"amenity":"bank","brand":"UniCredit Bank","brand:wikidata":"Q45568","name":"UniCredit Bank"}},"amenity/bar/pianavyshnia-1dc747":{"name":"Piana Vyshnia","locationSet":{"include":["ee","hu","lt","lv","md","ro","sk"]},"geometry":["point","area"],"matchScore":2,"terms":["piana vyshnia"],"fields":["name","brand","{amenity/bar}"],"tags":{"amenity":"bar","brand:wikidata":"Q120651326"},"addTags":{"amenity":"bar","brand":"Piana Vyshnia","brand:wikidata":"Q120651326","name":"Piana Vyshnia"}},"amenity/bicycle_rental/bubi-7b42f4":{"name":"BuBi","locationSet":{"include":["hu"]},"geometry":["point","vertex","area"],"matchScore":2,"terms":["bkk","bubi","mol bubi"],"fields":["name","brand","{amenity/bicycle_rental}"],"tags":{"amenity":"bicycle_rental","brand:wikidata":"Q16971969"},"addTags":{"amenity":"bicycle_rental","brand":"BuBi","brand:wikidata":"Q16971969","network":"BuBi","network:wikidata":"Q16971969","operator":"BKK","operator:wikidata":"Q608917"}},"amenity/bicycle_rental/donkeyrepublic-c32b83":{"name":"Donkey Republic","locationSet":{"include":["by","bg","cz","hu","pl","md","ro","ru","sk","ua","ax","gg","je","cq","dk","ee","fo","fi","is","ie","im","lv","lt","no","sj","se","gb","al","ad","ba","hr","gi","gr","va","it","mt","me","mk","pt","sm","rs","si","es","xk","at","be","fr","de","li","lu","mc","nl","ch"]},"geometry":["point","vertex","area"],"matchScore":2,"terms":["donkey republic"],"fields":["name","brand","{amenity/bicycle_rental}"],"tags":{"amenity":"bicycle_rental","brand:wikidata":"Q63753939"},"addTags":{"amenity":"bicycle_rental","brand":"Donkey Republic","brand:wikidata":"Q63753939","name":"Donkey Republic","operator":"Donkey Republic"}},"amenity/cafe/coffee_shop/cafefrei-b37b54":{"name":"Cafe Frei","locationSet":{"include":["ae","ch","fr","hr","hu","ro","sa","sk"]},"geometry":["point","area"],"matchScore":2,"terms":["cafe frei"],"reference":{"key":"cuisine","value":"coffee_shop"},"tags":{"amenity":"cafe","brand:wikidata":"Q105210995","cuisine":"coffee_shop"},"addTags":{"amenity":"cafe","brand":"Cafe Frei","brand:wikidata":"Q105210995","cuisine":"coffee_shop","name":"Cafe Frei","takeaway":"yes"}},"amenity/cafe/coffee_shop/juliusmeinl-d9fed5":{"name":"Julius Meinl","locationSet":{"include":["ae","at","ba","bg","cz","de","fx","hr","hu","it","md","pl","ro","rs","si","sk","tr","us"]},"geometry":["point","area"],"matchScore":2,"terms":["julius meinl"],"reference":{"key":"cuisine","value":"coffee_shop"},"tags":{"amenity":"cafe","brand:wikidata":"Q670154","cuisine":"coffee_shop"},"addTags":{"amenity":"cafe","brand":"Julius Meinl","brand:wikidata":"Q670154","cuisine":"coffee_shop","name":"Julius Meinl","takeaway":"yes"}},"amenity/charging_station/ionity-b625d6":{"name":"Ionity","locationSet":{"include":["by","bg","cz","hu","pl","md","ro","ru","sk","ua","ax","gg","je","cq","dk","ee","fo","fi","is","ie","im","lv","lt","no","sj","se","gb","al","ad","ba","hr","gi","gr","va","it","mt","me","mk","pt","sm","rs","si","es","xk","at","be","fr","de","li","lu","mc","nl","ch"]},"geometry":["point","vertex","area"],"matchScore":2,"terms":["ionity","ionity gmbh"],"fields":["name","brand","{amenity/charging_station}"],"tags":{"amenity":"charging_station","brand:wikidata":"Q42717773"},"addTags":{"amenity":"charging_station","brand":"Ionity","brand:wikidata":"Q42717773"}},"amenity/cinema/cinemacity-2b5fb2":{"name":"Cinema City","locationSet":{"include":["bg","cz","hu","pl","ro","sk"]},"geometry":["point","area"],"matchScore":2,"terms":["cinema city"],"fields":["name","brand","{amenity/cinema}"],"tags":{"amenity":"cinema","brand:wikidata":"Q543651"},"addTags":{"amenity":"cinema","brand":"Cinema City","brand:wikidata":"Q543651","name":"Cinema City"}},"amenity/fast_food/nordsee-da5f5f":{"name":"Nordsee","locationSet":{"include":["at","ch","cz","de","hu","ro","sk"]},"geometry":["point","area"],"matchScore":2,"terms":["nordsee"],"tags":{"amenity":"fast_food","brand:wikidata":"Q74866"},"addTags":{"amenity":"fast_food","brand":"Nordsee","brand:wikidata":"Q74866","cuisine":"seafood","name":"Nordsee","takeaway":"yes"}},"amenity/fuel/as24-3463db":{"name":"AS 24","locationSet":{"include":["at","be","bg","cz","de","dk","es","fr","gb","ge","gr","hr","hu","ie","it","lt","lu","mk","nl","pl","pt","ro","rs","se","si","sk","ua"]},"geometry":["point","area"],"matchScore":2,"terms":["as 24"],"fields":["name","brand","{amenity/fuel}"],"tags":{"amenity":"fuel","brand:wikidata":"Q2819394"},"addTags":{"amenity":"fuel","brand":"AS 24","brand:wikidata":"Q2819394","hgv":"only","name":"AS 24"}},"amenity/fuel/auchan-fcb99f":{"name":"Auchan","locationSet":{"include":["al","ad","ba","hr","gi","gr","va","it","mt","me","mk","pt","sm","rs","si","es","xk","by","bg","cz","hu","pl","md","ro","ru","sk","ua","at","be","fr","de","li","lu","mc","nl","ch"]},"geometry":["point","area"],"matchScore":2,"terms":["auchan"],"fields":["name","brand","{amenity/fuel}"],"tags":{"amenity":"fuel","brand:wikidata":"Q758603"},"addTags":{"amenity":"fuel","brand":"Auchan","brand:wikidata":"Q758603","name":"Auchan"}},"amenity/fuel/avia-e0aaf8":{"name":"Avia","locationSet":{"include":["at","be","bg","ch","cz","de","es","fr","hu","it","nl","pl","pt","rs","ua"]},"geometry":["point","area"],"matchScore":2,"terms":["avia","station avia"],"fields":["name","brand","{amenity/fuel}"],"tags":{"amenity":"fuel","brand:wikidata":"Q300147"},"addTags":{"amenity":"fuel","brand":"Avia","brand:wikidata":"Q300147","name":"Avia"}},"amenity/fuel/ina-f27d94":{"name":"INA","locationSet":{"include":["ba","hr","hu","me"]},"geometry":["point","area"],"matchScore":2,"terms":["ina"],"fields":["name","brand","{amenity/fuel}"],"tags":{"amenity":"fuel","brand:wikidata":"Q1662137"},"addTags":{"amenity":"fuel","brand":"INA","brand:wikidata":"Q1662137","name":"INA"}},"amenity/fuel/orlen-5730fb":{"name":"Orlen","locationSet":{"include":["de","hu","lt","pl","sk"]},"geometry":["point","area"],"matchScore":2,"terms":["orlen"],"fields":["name","brand","{amenity/fuel}"],"tags":{"amenity":"fuel","brand:wikidata":"Q971649"},"addTags":{"amenity":"fuel","brand":"Orlen","brand:wikidata":"Q971649","name":"Orlen"}},"amenity/parcel_locker/alzabox-bee63b":{"name":"AlzaBox","locationSet":{"include":["at","cz","hu","sk"]},"geometry":["point","vertex","area"],"matchScore":2,"terms":["alzabox"],"fields":["name","brand","{amenity/parcel_locker}"],"reference":{"key":"amenity","value":"parcel_locker"},"tags":{"amenity":"parcel_locker","brand:wikidata":"Q10786832"},"addTags":{"amenity":"parcel_locker","brand":"AlzaBox","brand:wikidata":"Q10786832","name":"AlzaBox"}},"amenity/parcel_locker/easybox-cd92a3":{"name":"easybox","locationSet":{"include":["bg","hu","ro"]},"geometry":["point","vertex","area"],"matchScore":2,"terms":["easybox","sameday"],"fields":["name","brand","{amenity/parcel_locker}"],"reference":{"key":"amenity","value":"parcel_locker"},"tags":{"amenity":"parcel_locker","brand:wikidata":"Q114496224"},"addTags":{"amenity":"parcel_locker","brand":"easybox","brand:wikidata":"Q114496224","operator":"Sameday","operator:wikidata":"Q114417096"}},"amenity/parcel_locker/zbox-5a86e9":{"name":"Packeta","locationSet":{"include":["by","bg","cz","hu","pl","md","ro","ru","sk","ua","ax","gg","je","cq","dk","ee","fo","fi","is","ie","im","lv","lt","no","sj","se","gb","al","ad","ba","hr","gi","gr","va","it","mt","me","mk","pt","sm","rs","si","es","xk","at","be","fr","de","li","lu","mc","nl","ch"]},"geometry":["point","vertex","area"],"matchScore":2,"terms":["packeta"],"fields":["name","brand","{amenity/parcel_locker}"],"reference":{"key":"amenity","value":"parcel_locker"},"tags":{"amenity":"parcel_locker","brand:wikidata":"Q67809905"},"addTags":{"amenity":"parcel_locker","brand":"Packeta","brand:wikidata":"Q67809905","name":"Z-Box"}},"amenity/pharmacy/almagyogyszertar-3674c9":{"name":"Alma Gyógyszertár","locationSet":{"include":["hu"]},"geometry":["point","area"],"matchScore":2,"terms":["alma gyógyszertár"],"reference":{"key":"amenity","value":"pharmacy"},"tags":{"amenity":"pharmacy","brand:wikidata":"Q105626221"},"addTags":{"amenity":"pharmacy","brand":"Alma Gyógyszertár","brand:wikidata":"Q105626221","healthcare":"pharmacy","name":"Alma Gyógyszertár"}},"amenity/pharmacy/benu-1cd44c":{"name":"Benu","locationSet":{"include":["ch","cz","ee","hu","lt","lv","me","nl","rs","sk"]},"geometry":["point","area"],"matchScore":2,"terms":["benu","benu apotheek","benu aptieka","benu vaistinė"],"reference":{"key":"amenity","value":"pharmacy"},"tags":{"amenity":"pharmacy","brand:wikidata":"Q62562792"},"addTags":{"amenity":"pharmacy","brand":"Benu","brand:wikidata":"Q62562792","healthcare":"pharmacy","name":"Benu"}},"amenity/pharmacy/pingvinpatika-3674c9":{"name":"Pingvin Patika","locationSet":{"include":["hu"]},"geometry":["point","area"],"matchScore":2,"terms":["penguin pharmacy","pingvin patika"],"reference":{"key":"amenity","value":"pharmacy"},"tags":{"amenity":"pharmacy","brand:wikidata":"Q105626461"},"addTags":{"amenity":"pharmacy","brand":"Pingvin Patika","brand:wikidata":"Q105626461","healthcare":"pharmacy","name":"Pingvin Patika","name:en":"Penguin Pharmacy"}},"amenity/pharmacy/szimpatika-3674c9":{"name":"Szimpatika","locationSet":{"include":["hu"]},"geometry":["point","area"],"matchScore":2,"terms":["szimpatika"],"reference":{"key":"amenity","value":"pharmacy"},"tags":{"amenity":"pharmacy","brand:wikidata":"Q105626428"},"addTags":{"amenity":"pharmacy","brand":"Szimpatika","brand:wikidata":"Q105626428","healthcare":"pharmacy","name":"Szimpatika"}},"amenity/post_office/expressone-9e675c":{"name":"Express One (Hungary)","locationSet":{"include":["hu"]},"geometry":["point","area"],"matchScore":2,"terms":["express one"],"fields":["name","brand","{amenity/post_office}"],"tags":{"amenity":"post_office","brand:wikidata":"Q115972600"},"addTags":{"amenity":"post_office","brand":"Express One","brand:wikidata":"Q115972600"}},"amenity/social_centre/ahepahall-30ca27":{"name":"AHEPA Hall","locationSet":{"include":["by","bg","cz","hu","pl","md","ro","ru","sk","ua","ax","gg","je","cq","dk","ee","fo","fi","is","ie","im","lv","lt","no","sj","se","gb","al","ad","ba","hr","gi","gr","va","it","mt","me","mk","pt","sm","rs","si","es","xk","at","be","fr","de","li","lu","mc","nl","ch","au","ca","cy","us"],"exclude":["ru"]},"geometry":["point","area"],"matchScore":2,"terms":["ahepa","american hellenic educational progressive association","the order of ahepa"],"fields":["name","brand","{amenity/social_centre}"],"tags":{"amenity":"social_centre","brand:wikidata":"Q4743973"},"addTags":{"amenity":"social_centre","brand":"AHEPA","brand:wikidata":"Q4743973","name":"AHEPA Hall"}},"amenity/vending_machine/public_transport_tickets/bkkautomata-1490d1":{"name":"BKK-automata","locationSet":{"include":["hu"]},"geometry":["point","vertex"],"matchScore":2,"terms":["bkk-automata"],"reference":{"key":"vending","value":"public_transport_tickets"},"tags":{"amenity":"vending_machine","brand:wikidata":"Q608917","vending":"public_transport_tickets"},"addTags":{"amenity":"vending_machine","brand":"BKK-automata","brand:wikidata":"Q608917","name":"BKK-automata","vending":"public_transport_tickets"}},"amenity/vending_machine/bicycle_tube/continental-123edb":{"name":"Continental","locationSet":{"include":["by","bg","cz","hu","pl","md","ro","ru","sk","ua","ax","gg","je","cq","dk","ee","fo","fi","is","ie","im","lv","lt","no","sj","se","gb","al","ad","ba","hr","gi","gr","va","it","mt","me","mk","pt","sm","rs","si","es","xk","at","be","fr","de","li","lu","mc","nl","ch"]},"geometry":["point","vertex"],"matchScore":2,"terms":["continental"],"reference":{"key":"vending","value":"bicycle_tube"},"tags":{"amenity":"vending_machine","brand:wikidata":"Q64739247","vending":"bicycle_tube"},"addTags":{"amenity":"vending_machine","brand":"Continental","brand:wikidata":"Q64739247","vending":"bicycle_tube"}},"amenity/vending_machine/bicycle_tube/schwalbe-123edb":{"name":"Schwalbe","locationSet":{"include":["by","bg","cz","hu","pl","md","ro","ru","sk","ua","ax","gg","je","cq","dk","ee","fo","fi","is","ie","im","lv","lt","no","sj","se","gb","al","ad","ba","hr","gi","gr","va","it","mt","me","mk","pt","sm","rs","si","es","xk","at","be","fr","de","li","lu","mc","nl","ch"]},"geometry":["point","vertex"],"matchScore":2,"terms":["schwalbe"],"reference":{"key":"vending","value":"bicycle_tube"},"tags":{"amenity":"vending_machine","brand:wikidata":"Q1312213","vending":"bicycle_tube"},"addTags":{"amenity":"vending_machine","brand":"Schwalbe","brand:wikidata":"Q1312213","vending":"bicycle_tube"}},"leisure/fitness_centre/fitinn-48d938":{"name":"FITINN","locationSet":{"include":["by","bg","cz","hu","pl","md","ro","ru","sk","ua","ax","gg","je","cq","dk","ee","fo","fi","is","ie","im","lv","lt","no","sj","se","gb","al","ad","ba","hr","gi","gr","va","it","mt","me","mk","pt","sm","rs","si","es","xk","at","be","fr","de","li","lu","mc","nl","ch"]},"geometry":["point","area"],"matchScore":2,"terms":["fitinn"],"tags":{"brand:wikidata":"Q1245564","leisure":"fitness_centre"},"addTags":{"brand":"FITINN","brand:wikidata":"Q1245564","leisure":"fitness_centre","name":"FITINN"}},"leisure/fitness_centre/holmesplace-901199":{"name":"Holmes Place","locationSet":{"include":["by","bg","cz","hu","pl","md","ro","ru","sk","ua","ax","gg","je","cq","dk","ee","fo","fi","is","ie","im","lv","lt","no","sj","se","gb","al","ad","ba","hr","gi","gr","va","it","mt","me","mk","pt","sm","rs","si","es","xk","at","be","fr","de","li","lu","mc","nl","ch","il"]},"geometry":["point","area"],"matchScore":2,"terms":["holmes place"],"tags":{"brand:wikidata":"Q15815819","leisure":"fitness_centre"},"addTags":{"brand":"Holmes Place","brand:wikidata":"Q15815819","leisure":"fitness_centre","name":"Holmes Place"}},"man_made/charge_point/ionity-97d83d":{"name":"Ionity","locationSet":{"include":["by","bg","cz","hu","pl","md","ro","ru","sk","ua","ax","gg","je","cq","dk","ee","fo","fi","is","ie","im","lv","lt","no","sj","se","gb","al","ad","ba","hr","gi","gr","va","it","mt","me","mk","pt","sm","rs","si","es","xk","at","be","fr","de","li","lu","mc","nl","ch"]},"geometry":["point"],"matchScore":2,"terms":["ionity","ionity gmbh"],"fields":["name","brand","{man_made/charge_point}"],"tags":{"brand:wikidata":"Q42717773","man_made":"charge_point"},"addTags":{"brand":"Ionity","brand:wikidata":"Q42717773","man_made":"charge_point"}},"office/consulting/ecovis-10b2fd":{"name":"Ecovis International","locationSet":{"include":["by","bg","cz","hu","pl","md","ro","ru","sk","ua","ax","gg","je","cq","dk","ee","fo","fi","is","ie","im","lv","lt","no","sj","se","gb","al","ad","ba","hr","gi","gr","va","it","mt","me","mk","pt","sm","rs","si","es","xk","at","be","fr","de","li","lu","mc","nl","ch","tr"]},"geometry":["point","area"],"matchScore":2,"terms":["ecovis international"],"tags":{"brand:wikidata":"Q65509562","office":"consulting"},"addTags":{"brand":"Ecovis International","brand:wikidata":"Q65509562","name":"Ecovis","office":"consulting"}},"office/employment_agency/randstad-f7dc26":{"name":"Randstad","locationSet":{"include":["ad","at","au","be","ca","ch","cn","cz","de","dk","es","fr","gb","gr","hk","hu","ie","in","it","jp","lu","mc","mx","my","nl","no","nz","pl","pt","ro","se","sg","sy","tk","us"]},"geometry":["point","area"],"matchScore":2,"terms":["randstad"],"tags":{"brand:wikidata":"Q267840","office":"employment_agency"},"addTags":{"brand":"Randstad","brand:wikidata":"Q267840","name":"Randstad","office":"employment_agency"}},"office/estate_agent/dunahouse-e3d705":{"name":"Duna House","locationSet":{"include":["hu"]},"geometry":["point","area"],"matchScore":2,"terms":["duna house"],"tags":{"brand:wikidata":"Q115167185","office":"estate_agent"},"addTags":{"brand":"Duna House","brand:wikidata":"Q115167185","name":"Duna House","office":"estate_agent"}},"office/estate_agent/vonpollrealestate-c99072":{"name":"von Poll Real Estate","locationSet":{"include":["by","bg","cz","hu","pl","md","ro","ru","sk","ua","ax","gg","je","cq","dk","ee","fo","fi","is","ie","im","lv","lt","no","sj","se","gb","al","ad","ba","hr","gi","gr","va","it","mt","me","mk","pt","sm","rs","si","es","xk","at","be","fr","de","li","lu","mc","nl","ch"],"exclude":["at","de"]},"geometry":["point","area"],"matchScore":2,"terms":["von poll immobilien","von poll real estate","vonpoll","vonpoll commercial"],"tags":{"brand:wikidata":"Q96026696","office":"estate_agent"},"addTags":{"brand":"von Poll Real Estate","brand:wikidata":"Q96026696","name":"von Poll Real Estate","office":"estate_agent"}},"office/insurance/allianz-332499":{"name":"Allianz","locationSet":{"include":["ae","ar","at","au","be","bg","bh","bm","bn","br","ca","cg","ch","ci","cm","cn","co","cy","cz","de","dk","ee","eg","es","fi","fr","gb","gf","gg","gh","gp","gr","hk","hr","hu","id","ie","in","is","it","ja","ke","kr","kw","la","li","lk","lt","lu","lv","ma","mg","mx","my","ng","nl","no","nz","om","ph","pk","pl","pt","qa","ro","ru","sa","se","sg","si","sk","sn","th","tr","tw","ua","us","za"]},"geometry":["point","area"],"matchScore":2,"terms":["allianz","allianz versicherung"],"fields":["name","brand","{office/insurance}"],"tags":{"brand:wikidata":"Q487292","office":"insurance"},"addTags":{"brand":"Allianz","brand:wikidata":"Q487292","name":"Allianz","office":"insurance"}},"office/insurance/ergo-38191f":{"name":"Ergo","locationSet":{"include":["at","be","ch","cn","cz","de","dk","ee","es","fr","gb","gr","hu","in","it","kr","lt","lu","lv","nl","pl","se","sg","th"]},"geometry":["point","area"],"matchScore":2,"terms":["ergo","ergo direkt","ergo direktversicherung","ergo versicherung"],"fields":["name","brand","{office/insurance}"],"tags":{"brand:wikidata":"Q541909","office":"insurance"},"addTags":{"brand":"Ergo","brand:wikidata":"Q541909","name":"Ergo","office":"insurance"}},"office/insurance/generali-cb13d1":{"name":"Generali","locationSet":{"include":["ar","at","bg","br","ch","cl","cn","cz","de","es","fr","gr","hr","hu","id","in","it","me","my","ph","pl","pt","ro","rs","si","sk","tr","vn"]},"geometry":["point","area"],"matchScore":2,"terms":["generali","generali españa"],"fields":["name","brand","{office/insurance}"],"tags":{"brand:wikidata":"Q670482","office":"insurance"},"addTags":{"brand":"Generali","brand:wikidata":"Q670482","name":"Generali","office":"insurance"}},"office/insurance/grawe-49851b":{"name":"Grawe","locationSet":{"include":["at","ba","bg","cy","hr","hu","md","me","mk","ro","rs","si","ua"]},"geometry":["point","area"],"matchScore":2,"terms":["grawe","grazer wechselseitige","grazer wechselseitige versicherung ag"],"fields":["name","brand","{office/insurance}"],"tags":{"brand:wikidata":"Q877006","office":"insurance"},"addTags":{"brand":"Grawe","brand:wikidata":"Q877006","name":"Grawe","office":"insurance"}},"office/insurance/groupama-bb2387":{"name":"Groupama","locationSet":{"include":["bg","cn","fr","gr","hu","it","ro","sk","tr"]},"geometry":["point","area"],"matchScore":2,"terms":["groupama","groupe des assurances mutuelles agricoles"],"fields":["name","brand","{office/insurance}"],"tags":{"brand:wikidata":"Q3083531","office":"insurance"},"addTags":{"brand":"Groupama","brand:wikidata":"Q3083531","name":"Groupama","office":"insurance","official_name":"Groupe des Assurances Mutuelles Agricoles"}},"office/insurance/nn-336e34":{"name":"NN","locationSet":{"include":["by","bg","cz","hu","pl","md","ro","ru","sk","ua","ax","gg","je","cq","dk","ee","fo","fi","is","ie","im","lv","lt","no","sj","se","gb","al","ad","ba","hr","gi","gr","va","it","mt","me","mk","pt","sm","rs","si","es","xk","at","be","fr","de","li","lu","mc","nl","ch"]},"geometry":["point","area"],"matchScore":2,"terms":["nationale-nederlanden","nn"],"fields":["name","brand","{office/insurance}"],"tags":{"brand:wikidata":"Q1834291","office":"insurance"},"addTags":{"brand":"NN","brand:wikidata":"Q1834291","name":"NN","office":"insurance","official_name":"Nationale-Nederlanden"}},"office/insurance/uniqa-dc7360":{"name":"Uniqa","locationSet":{"include":["al","at","ba","bg","ch","cz","hr","hu","li","me","mk","pl","ro","rs","ru","sk","ua","xk"]},"geometry":["point","area"],"matchScore":2,"terms":["uniqa","uniqa asigurări"],"fields":["name","brand","{office/insurance}"],"tags":{"brand:wikidata":"Q1022419","office":"insurance"},"addTags":{"brand":"Uniqa","brand:wikidata":"Q1022419","name":"Uniqa","office":"insurance"}},"shop/art/lumas-60f999":{"name":"Lumas","locationSet":{"include":["at","au","ca","ch","de","fr","gb","hu","us"]},"geometry":["point","area"],"matchScore":2,"terms":["lumas"],"tags":{"brand:wikidata":"Q1452381","shop":"art"},"addTags":{"brand":"Lumas","brand:wikidata":"Q1452381","name":"Lumas","shop":"art"}},"shop/bakery/fornetti-0c6f37":{"name":"Fornetti","locationSet":{"include":["bg","cz","hr","hu","md","pl","ro","sk","ua"]},"geometry":["point","area"],"matchScore":2,"terms":["fornetti"],"tags":{"brand:wikidata":"Q1003020","shop":"bakery"},"addTags":{"brand":"Fornetti","brand:wikidata":"Q1003020","name":"Fornetti","shop":"bakery"}},"shop/car/smart-b77732":{"name":"Smart","locationSet":{"include":["by","bg","cz","hu","pl","md","ro","ru","sk","ua","ax","gg","je","cq","dk","ee","fo","fi","is","ie","im","lv","lt","no","sj","se","gb","al","ad","ba","hr","gi","gr","va","it","mt","me","mk","pt","sm","rs","si","es","xk","at","be","fr","de","li","lu","mc","nl","ch","cn"]},"geometry":["point","area"],"matchScore":2,"terms":["smart"],"fields":["name","brand","{shop/car}"],"tags":{"brand:wikidata":"Q156490","shop":"car"},"addTags":{"brand":"Smart","brand:wikidata":"Q156490","name":"Smart","shop":"car"}},"shop/car_parts/intercars-a4b6c1":{"name":"Inter Cars","locationSet":{"include":["ba","bg","cz","ee","gr","hr","hu","it","la","lv","md","pl","ro","rs","si","sk","ua"]},"geometry":["point","area"],"matchScore":2,"terms":["inter cars"],"tags":{"brand:wikidata":"Q115922509","shop":"car_parts"},"addTags":{"brand":"Inter Cars","brand:wikidata":"Q115922509","name":"Inter Cars","shop":"car_parts"}},"shop/car_repair/norauto-388a61":{"name":"Norauto","locationSet":{"include":["ar","es","fr","hu","it","pl","pt","ro"]},"geometry":["point","area"],"matchScore":2,"terms":["norauto"],"fields":["name","brand","{shop/car_repair}"],"tags":{"brand:wikidata":"Q3317698","shop":"car_repair"},"addTags":{"brand":"Norauto","brand:wikidata":"Q3317698","name":"Norauto","shop":"car_repair"}},"shop/car_repair/premio-354273":{"name":"Premio","locationSet":{"include":["be","bg","ch","cz","de","hu","nl","pl","ro","ru","sk"]},"geometry":["point","area"],"matchScore":2,"terms":["premio"],"fields":["name","brand","{shop/car_repair}"],"tags":{"brand:wikidata":"Q100895958","shop":"car_repair"},"addTags":{"brand":"Premio","brand:wikidata":"Q100895958","name":"Premio","shop":"car_repair"}},"shop/chemist/dm-64e7ae":{"name":"dm","locationSet":{"include":["at","ba","bg","cz","de","hr","hu","it","mk","ro","rs","si","sk"]},"geometry":["point","area"],"matchScore":2,"terms":["dm","dm drogerie markt","dm-drogerie markt deutschland"],"tags":{"brand:wikidata":"Q266572","shop":"chemist"},"addTags":{"brand":"dm","brand:wikidata":"Q266572","name":"dm","shop":"chemist"}},"shop/chemist/muller-7b8da2":{"name":"Müller","locationSet":{"include":["at","ch","de","es","hr","hu"]},"geometry":["point","area"],"matchScore":2,"terms":["drogeriemarkt müller","müller"],"tags":{"brand:wikidata":"Q1958759","shop":"chemist"},"addTags":{"brand":"Müller","brand:wikidata":"Q1958759","name":"Müller","shop":"chemist"}},"shop/chemist/rossmann-f4ddf3":{"name":"Rossmann","locationSet":{"include":["cz","de","hu","pl","tr"]},"geometry":["point","area"],"matchScore":2,"terms":["rossmann","rossmann polska"],"tags":{"brand:wikidata":"Q316004","shop":"chemist"},"addTags":{"brand":"Rossmann","brand:wikidata":"Q316004","name":"Rossmann","shop":"chemist"}},"shop/clothes/budmil-31c5a7":{"name":"Budmil","locationSet":{"include":["hu"]},"geometry":["point","area"],"matchScore":2,"terms":["budmil"],"tags":{"brand:wikidata":"Q851439","shop":"clothes"},"addTags":{"brand":"Budmil","brand:wikidata":"Q851439","clothes":"men;women;sports","name":"Budmil","shop":"clothes"}},"shop/clothes/charlesvogele-900aa6":{"name":"Charles Vögele","locationSet":{"include":["at","be","ch","de","hu","nl"]},"geometry":["point","area"],"matchScore":2,"terms":["charles vögele","vögele"],"searchable":false,"tags":{"brand:wikidata":"Q1066326","shop":"clothes"},"addTags":{"brand":"Charles Vögele","brand:wikidata":"Q1066326","name":"Charles Vögele","shop":"clothes","short_name":"Vögele"}},"shop/clothes/coccodrillo-571709":{"name":"Coccodrillo","locationSet":{"include":["at","bg","by","cz","de","ee","fi","hu","lt","lv","me","pl","ro","rs","ru","sk","ua"]},"geometry":["point","area"],"matchScore":2,"terms":["coccodrillo"],"tags":{"brand:wikidata":"Q9195224","shop":"clothes"},"addTags":{"brand":"Coccodrillo","brand:wikidata":"Q9195224","clothes":"children","name":"Coccodrillo","shop":"clothes"}},"shop/clothes/cropp-f09482":{"name":"Cropp","locationSet":{"include":["ba","bg","cz","ee","fi","hr","hu","kz","lt","lv","pl","ro","rs","ru","si","sk","ua"]},"geometry":["point","area"],"matchScore":2,"terms":["cropp"],"tags":{"brand:wikidata":"Q9196793","shop":"clothes"},"addTags":{"brand":"Cropp","brand:wikidata":"Q9196793","name":"Cropp","shop":"clothes"}},"shop/clothes/gate-d52ff8":{"name":"Gate","locationSet":{"include":["cz","hu","pl","ro","sk"]},"geometry":["point","area"],"matchScore":2,"terms":["gate"],"tags":{"brand:wikidata":"Q93517084","shop":"clothes"},"addTags":{"brand":"Gate","brand:wikidata":"Q93517084","name":"Gate","shop":"clothes"}},"shop/clothes/harmontandblaine-6f335a":{"name":"Harmont & Blaine","locationSet":{"include":["fx","hu","it"]},"geometry":["point","area"],"matchScore":2,"terms":["harmont & blaine"],"tags":{"brand:wikidata":"Q3783405","shop":"clothes"},"addTags":{"brand":"Harmont & Blaine","brand:wikidata":"Q3783405","name":"Harmont & Blaine","shop":"clothes"}},"shop/clothes/house-f09482":{"name":"House","locationSet":{"include":["ba","bg","cz","ee","fi","hr","hu","kz","lt","lv","pl","ro","rs","ru","si","sk","ua"]},"geometry":["point","area"],"matchScore":2,"terms":["house"],"tags":{"brand:wikidata":"Q9294202","shop":"clothes"},"addTags":{"brand":"House","brand:wikidata":"Q9294202","name":"House","shop":"clothes"}},"shop/clothes/kik-323dff":{"name":"KiK","locationSet":{"include":["at","bg","cz","de","es","hr","hu","it","nl","pl","pt","ro","si","sk"]},"geometry":["point","area"],"matchScore":2,"terms":["kik"],"tags":{"brand:wikidata":"Q883965","shop":"clothes"},"addTags":{"brand":"KiK","brand:wikidata":"Q883965","name":"KiK","shop":"clothes"}},"shop/clothes/maje-ab7b56":{"name":"Maje","locationSet":{"include":["by","bg","cz","hu","pl","md","ro","ru","sk","ua","ax","gg","je","cq","dk","ee","fo","fi","is","ie","im","lv","lt","no","sj","se","gb","al","ad","ba","hr","gi","gr","va","it","mt","me","mk","pt","sm","rs","si","es","xk","at","be","fr","de","li","lu","mc","nl","ch","cn","sg","tw","us"]},"geometry":["point","area"],"matchScore":2,"terms":["maje"],"tags":{"brand:wikidata":"Q3280458","shop":"clothes"},"addTags":{"brand":"Maje","brand:wikidata":"Q3280458","clothes":"women","name":"Maje","shop":"clothes"}},"shop/clothes/mohito-710e25":{"name":"Mohito","locationSet":{"include":["ba","bg","cz","ee","fi","hu","kz","lt","lv","pl","ro","rs","ru","si","sk","ua"]},"geometry":["point","area"],"matchScore":2,"terms":["mohito"],"tags":{"brand:wikidata":"Q107410616","shop":"clothes"},"addTags":{"brand":"Mohito","brand:wikidata":"Q107410616","clothes":"women","name":"Mohito","shop":"clothes"}},"shop/clothes/pepco-9b55e7":{"name":"Pepco","locationSet":{"include":["at","bg","cz","de","ee","el","es","hr","hu","it","lt","lv","pl","pt","ro","rs","si","sk"]},"geometry":["point","area"],"matchScore":2,"terms":["pepco"],"tags":{"brand:wikidata":"Q11815580","shop":"clothes"},"addTags":{"brand":"Pepco","brand:wikidata":"Q11815580","name":"Pepco","shop":"clothes"}},"shop/clothes/soliver-fb408e":{"name":"s.Oliver","locationSet":{"include":["by","bg","cz","hu","pl","md","ro","ru","sk","ua","ax","gg","je","cq","dk","ee","fo","fi","is","ie","im","lv","lt","no","sj","se","gb","al","ad","ba","hr","gi","gr","va","it","mt","me","mk","pt","sm","rs","si","es","xk","at","be","fr","de","li","lu","mc","nl","ch","cn","in"]},"geometry":["point","area"],"matchScore":2,"terms":["s.oliver"],"tags":{"brand:wikidata":"Q265056","shop":"clothes"},"addTags":{"brand":"s.Oliver","brand:wikidata":"Q265056","name":"s.Oliver","shop":"clothes"}},"shop/clothes/takkofashion-972a80":{"name":"Takko Fashion","locationSet":{"include":["at","be","ch","cz","de","ee","fr","hr","hu","it","lt","nl","pl","ro","rs","si","sk"]},"geometry":["point","area"],"matchScore":2,"terms":["takko","takko fashion"],"tags":{"brand:wikidata":"Q1371302","shop":"clothes"},"addTags":{"brand":"Takko Fashion","brand:wikidata":"Q1371302","name":"Takko Fashion","shop":"clothes","short_name":"Takko"}},"shop/clothes/vangraaf-9ef6ea":{"name":"Van Graaf","locationSet":{"include":["ch","cz","hu","lv","pl"]},"geometry":["point","area"],"matchScore":2,"terms":["van graaf"],"tags":{"brand:wikidata":"Q113505161","shop":"clothes"},"addTags":{"brand":"Van Graaf","brand:wikidata":"Q113505161","name":"Van Graaf","shop":"clothes"}},"shop/clothes/weekday-b5590c":{"name":"Weekday","locationSet":{"include":["by","bg","cz","hu","pl","md","ro","ru","sk","ua","ax","gg","je","cq","dk","ee","fo","fi","is","ie","im","lv","lt","no","sj","se","gb","al","ad","ba","hr","gi","gr","va","it","mt","me","mk","pt","sm","rs","si","es","xk","at","be","fr","de","li","lu","mc","nl","ch"]},"geometry":["point","area"],"matchScore":2,"terms":["weekday"],"tags":{"brand:wikidata":"Q10719514","shop":"clothes"},"addTags":{"brand":"Weekday","brand:wikidata":"Q10719514","name":"Weekday","shop":"clothes"}},"shop/confectionery/bearsandfriends-e5aed3":{"name":"Bears & Friends","locationSet":{"include":["at","cz","de","hk","hr","hu"]},"geometry":["point","area"],"matchScore":2,"terms":["bears & friends"],"tags":{"brand:wikidata":"Q99510345","shop":"confectionery"},"addTags":{"brand":"Bears & Friends","brand:wikidata":"Q99510345","name":"Bears & Friends","shop":"confectionery"}},"shop/convenience/avia-3fdfc9":{"name":"Avia","locationSet":{"include":["at","be","bg","ch","cz","de","es","fr","hu","it","nl","pl","pt","rs","ua"]},"geometry":["point","area"],"matchScore":2,"terms":["avia"],"tags":{"brand:wikidata":"Q300147","shop":"convenience"},"addTags":{"brand":"Avia","brand:wikidata":"Q300147","name":"Avia","shop":"convenience"}},"shop/convenience/cba-a1e3fb":{"name":"CBA","locationSet":{"include":["bg","hu","ro","sk"]},"geometry":["point","area"],"matchScore":2,"terms":["cba"],"tags":{"brand:wikidata":"Q779845","shop":"convenience"},"addTags":{"brand":"CBA","brand:wikidata":"Q779845","name":"CBA","shop":"convenience"}},"shop/convenience/coopabc-58d40d":{"name":"Coop ABC","locationSet":{"include":["hu"]},"geometry":["point","area"],"matchScore":2,"terms":["coop abc"],"tags":{"brand:wikidata":"Q868980","shop":"convenience"},"addTags":{"brand":"Coop ABC","brand:wikidata":"Q868980","name":"Coop ABC","shop":"convenience"}},"shop/convenience/coopmini-58d40d":{"name":"Coop Mini","locationSet":{"include":["hu"]},"geometry":["point","area"],"matchScore":2,"terms":["coop mini"],"tags":{"brand:wikidata":"Q868980","shop":"convenience"},"addTags":{"brand":"Coop Mini","brand:wikidata":"Q868980","name":"Coop Mini","shop":"convenience"}},"shop/convenience/privat-58d40d":{"name":"Privát","locationSet":{"include":["hu"]},"geometry":["point","area"],"matchScore":2,"terms":["privát"],"tags":{"brand:wikidata":"Q115606854","shop":"convenience"},"addTags":{"brand":"Privát","brand:wikidata":"Q115606854","name":"Privát","shop":"convenience"}},"shop/convenience/real-58d40d":{"name":"Reál","locationSet":{"include":["hu"]},"geometry":["point","area"],"matchScore":2,"terms":["reál","reál hungária élelmiszer kereskedelmi kft.","reál pont"],"tags":{"brand:wikidata":"Q100741414","shop":"convenience"},"addTags":{"brand":"Reál","brand:wikidata":"Q100741414","name":"Reál","shop":"convenience"}},"shop/convenience/viva-856fe1":{"name":"Viva","locationSet":{"include":["by","bg","cz","hu","pl","md","ro","ru","sk","ua","ax","gg","je","cq","dk","ee","fo","fi","is","ie","im","lv","lt","no","sj","se","gb","al","ad","ba","hr","gi","gr","va","it","mt","me","mk","pt","sm","rs","si","es","xk","at","be","fr","de","li","lu","mc","nl","ch"]},"geometry":["point","area"],"matchScore":2,"terms":["viva"],"tags":{"brand:wikidata":"Q168238","shop":"convenience"},"addTags":{"brand":"Viva","brand:wikidata":"Q168238","name":"Viva","shop":"convenience"}},"shop/cosmetics/ziaja-a2d805":{"name":"Ziaja","locationSet":{"include":["at","cz","de","es","hu","ie","pl","sk"]},"geometry":["point","area"],"matchScore":2,"terms":["ziaja"],"tags":{"brand:wikidata":"Q9390905","shop":"cosmetics"},"addTags":{"brand":"Ziaja","brand:wikidata":"Q9390905","name":"Ziaja","shop":"cosmetics"}},"shop/deli/vomfass-a3c745":{"name":"vomFASS","locationSet":{"include":["at","be","br","ca","ch","cz","de","dk","es","fr","gb","hk","hr","hu","il","it","jp","lv","mx","my","ph","sg","th","us"]},"geometry":["point","area"],"matchScore":2,"terms":["vomfass"],"tags":{"brand:wikidata":"Q2533008","shop":"deli"},"addTags":{"brand":"vomFASS","brand:wikidata":"Q2533008","name":"vomFASS","shop":"deli"}},"shop/doityourself/bauhaus-6847b5":{"name":"Bauhaus","locationSet":{"include":["at","bg","ch","cz","de","dk","ee","es","fi","hr","hu","is","lu","nl","no","se","si","sk","tr"]},"geometry":["point","area"],"matchScore":2,"terms":["bauhaus"],"tags":{"brand:wikidata":"Q672043","shop":"doityourself"},"addTags":{"brand":"Bauhaus","brand:wikidata":"Q672043","name":"Bauhaus","shop":"doityourself"}},"shop/doityourself/obi-d5381e":{"name":"OBI","locationSet":{"include":["at","ba","ch","cz","de","hu","it","pl","ru","si","sk"]},"geometry":["point","area"],"matchScore":2,"terms":["obi"],"tags":{"brand:wikidata":"Q300518","shop":"doityourself"},"addTags":{"brand":"OBI","brand:wikidata":"Q300518","name":"OBI","shop":"doityourself"}},"shop/doityourself/praktiker-eb3505":{"name":"Praktiker","locationSet":{"include":["gr","hu","ro","tr"]},"geometry":["point","area"],"matchScore":2,"terms":["praktiker"],"tags":{"brand:wikidata":"Q680214","shop":"doityourself"},"addTags":{"brand":"Praktiker","brand:wikidata":"Q680214","name":"Praktiker","shop":"doityourself"}},"shop/electrical/sonepar-bfcbb0":{"name":"Sonepar","locationSet":{"include":["ch","cz","de","fx","hu","it","lu"]},"geometry":["point","area"],"matchScore":2,"terms":["sonepar"],"tags":{"brand:wikidata":"Q2301315","shop":"electrical"},"addTags":{"brand":"Sonepar","brand:wikidata":"Q2301315","name":"Sonepar","shop":"electrical"}},"shop/electronics/alza-5fa1c3":{"name":"Alza","locationSet":{"include":["cz","hu","sk"]},"geometry":["point","area"],"matchScore":2,"terms":["alza","alza.cz","alza.hu","alza.sk"],"tags":{"brand:wikidata":"Q10786832","shop":"electronics"},"addTags":{"brand":"Alza","brand:wikidata":"Q10786832","name":"Alza","name:cs":"Alza.cz","name:hu":"Alza.hu","name:sk":"Alza.sk","shop":"electronics"}},"shop/electronics/conrad-a3c660":{"name":"Conrad","locationSet":{"include":["at","ch","de","hu"]},"geometry":["point","area"],"matchScore":2,"terms":["conrad"],"tags":{"brand:wikidata":"Q467136","shop":"electronics"},"addTags":{"brand":"Conrad","brand:wikidata":"Q467136","name":"Conrad","shop":"electronics"}},"shop/electronics/istyle-e9662e":{"name":"iStyle","locationSet":{"include":["bg","cz","hr","hu","mk","ro","rs","si","sk"]},"geometry":["point","area"],"matchScore":2,"terms":["istyle"],"tags":{"brand:wikidata":"Q58196745","shop":"electronics"},"addTags":{"brand":"iStyle","brand:wikidata":"Q58196745","name":"iStyle","shop":"electronics"}},"shop/electronics/mediamarkt-19e894":{"name":"MediaMarkt","locationSet":{"include":["at","be","ch","de","es","hu","nl","pl","tr"]},"geometry":["point","area"],"matchScore":2,"terms":["mediamarkt"],"tags":{"brand:wikidata":"Q2381223","shop":"electronics"},"addTags":{"brand":"MediaMarkt","brand:wikidata":"Q2381223","name":"MediaMarkt","shop":"electronics"}},"shop/flooring/diego-be714e":{"name":"Diego","locationSet":{"include":["cz","hu","ro","sk"]},"geometry":["point","area"],"matchScore":2,"terms":["diego"],"tags":{"brand:wikidata":"Q55639530","shop":"flooring"},"addTags":{"brand":"Diego","brand:wikidata":"Q55639530","name":"Diego","shop":"flooring"}},"shop/furniture/bolia-a18722":{"name":"Bolia","locationSet":{"include":["by","bg","cz","hu","pl","md","ro","ru","sk","ua","ax","gg","je","cq","dk","ee","fo","fi","is","ie","im","lv","lt","no","sj","se","gb","al","ad","ba","hr","gi","gr","va","it","mt","me","mk","pt","sm","rs","si","es","xk","at","be","fr","de","li","lu","mc","nl","ch"]},"geometry":["point","area"],"matchScore":2,"terms":["bolia"],"tags":{"brand:wikidata":"Q11961809","shop":"furniture"},"addTags":{"brand":"Bolia","brand:wikidata":"Q11961809","name":"Bolia","shop":"furniture"}},"shop/furniture/mobelix-0d6d80":{"name":"Möbelix","locationSet":{"include":["at","cz","hu","sk"]},"geometry":["point","area"],"matchScore":2,"terms":["möbelix"],"tags":{"brand:wikidata":"Q877547","shop":"furniture"},"addTags":{"brand":"Möbelix","brand:wikidata":"Q877547","name":"Möbelix","shop":"furniture"}},"shop/furniture/momax-a18722":{"name":"Mömax","locationSet":{"include":["by","bg","cz","hu","pl","md","ro","ru","sk","ua","ax","gg","je","cq","dk","ee","fo","fi","is","ie","im","lv","lt","no","sj","se","gb","al","ad","ba","hr","gi","gr","va","it","mt","me","mk","pt","sm","rs","si","es","xk","at","be","fr","de","li","lu","mc","nl","ch"]},"geometry":["point","area"],"matchScore":2,"terms":["mömax"],"tags":{"brand:wikidata":"Q56388481","shop":"furniture"},"addTags":{"brand":"Mömax","brand:wikidata":"Q56388481","name":"Mömax","shop":"furniture"}},"shop/furniture/xxxlutz-5acc6e":{"name":"XXXLutz","locationSet":{"include":["by","bg","cz","hu","pl","md","ro","ru","sk","ua","ax","gg","je","cq","dk","ee","fo","fi","is","ie","im","lv","lt","no","sj","se","gb","al","ad","ba","hr","gi","gr","va","it","mt","me","mk","pt","sm","rs","si","es","xk","at","be","fr","de","li","lu","mc","nl","ch"],"exclude":["bg"]},"geometry":["point","area"],"matchScore":2,"terms":["xxxlutz"],"tags":{"brand:wikidata":"Q70339467","shop":"furniture"},"addTags":{"brand":"XXXLutz","brand:wikidata":"Q70339467","name":"XXXLutz","shop":"furniture"}},"shop/interior_decoration/butlers-85b078":{"name":"Butlers","locationSet":{"include":["at","ch","de","es","gb","hu","lu","mt","ua"]},"geometry":["point","area"],"matchScore":2,"terms":["butlers"],"tags":{"brand:wikidata":"Q1017972","shop":"interior_decoration"},"addTags":{"brand":"Butlers","brand:wikidata":"Q1017972","name":"Butlers","shop":"interior_decoration"}},"shop/mobile_phone/telekom-22825c":{"name":"Telekom","locationSet":{"include":["hu","ro","si","sk"]},"geometry":["point","area"],"matchScore":2,"terms":["telekom","telekom shop"],"tags":{"brand:wikidata":"Q9396","shop":"mobile_phone"},"addTags":{"brand":"Telekom","brand:wikidata":"Q9396","name":"Telekom","shop":"mobile_phone"}},"shop/newsagent/inmedio-b60255":{"name":"Inmedio","locationSet":{"include":["hu","pl","ro"]},"geometry":["point","area"],"matchScore":2,"terms":["inmedio"],"tags":{"brand:wikidata":"Q108599411","shop":"newsagent"},"addTags":{"brand":"Inmedio","brand:wikidata":"Q108599411","name":"Inmedio","shop":"newsagent"}},"shop/nutrition_supplements/biotechusa-8d859c":{"name":"BioTechUSA","locationSet":{"include":["hu","sk"]},"geometry":["point","area"],"matchScore":2,"terms":["biotechusa"],"tags":{"brand:wikidata":"Q116861247","shop":"nutrition_supplements"},"addTags":{"brand":"BioTechUSA","brand:wikidata":"Q116861247","name":"BioTechUSA","shop":"nutrition_supplements"}},"shop/optician/ofotert-44463c":{"name":"Ofotért","locationSet":{"include":["hu"]},"geometry":["point","area"],"matchScore":2,"terms":["ofotért"],"fields":["name","brand","{shop/optician}"],"tags":{"brand:wikidata":"Q120734241","shop":"optician"},"addTags":{"brand":"Ofotért","brand:wikidata":"Q120734241","name":"Ofotért","shop":"optician"}},"shop/perfumery/douglas-4ed3c9":{"name":"Douglas","locationSet":{"include":["ad","at","be","bg","ch","cz","de","ee","es","hr","hu","it","lt","lv","nl","pl","pt","ro","si","sk"]},"geometry":["point","area"],"matchScore":2,"terms":["douglas"],"tags":{"brand:wikidata":"Q2052213","shop":"perfumery"},"addTags":{"brand":"Douglas","brand:wikidata":"Q2052213","name":"Douglas","shop":"perfumery"}},"shop/perfumery/marionnaud-40e2d5":{"name":"Marionnaud","locationSet":{"include":["at","ch","cz","es","fr","hu","it","ro","sk"]},"geometry":["point","area"],"matchScore":2,"terms":["marionnaud"],"tags":{"brand:wikidata":"Q1129073","shop":"perfumery"},"addTags":{"brand":"Marionnaud","brand:wikidata":"Q1129073","name":"Marionnaud","shop":"perfumery"}},"shop/pet/fressnapf-254367":{"name":"Fressnapf","locationSet":{"include":["at","ch","de","hu","lu","ro"]},"geometry":["point","area"],"matchScore":2,"terms":["fressnapf","fressnapf deutschland"],"tags":{"brand:wikidata":"Q875796","shop":"pet"},"addTags":{"brand":"Fressnapf","brand:wikidata":"Q875796","name":"Fressnapf","shop":"pet"}},"shop/shoes/humanic-fbe642":{"name":"Humanic","locationSet":{"include":["at","bg","cz","de","hu","ro","si","sk"]},"geometry":["point","area"],"matchScore":2,"terms":["humanic"],"tags":{"brand:wikidata":"Q1636668","shop":"shoes"},"addTags":{"brand":"Humanic","brand:wikidata":"Q1636668","name":"Humanic","shop":"shoes"}},"shop/shoes/officeshoes-30afef":{"name":"Office Shoes","locationSet":{"include":["al","ba","cz","hr","hu","me","pl","ro","rs","si","sk"]},"geometry":["point","area"],"matchScore":2,"terms":["office shoes"],"tags":{"brand:wikidata":"Q93946123","shop":"shoes"},"addTags":{"brand":"Office Shoes","brand:wikidata":"Q93946123","name":"Office Shoes","shop":"shoes"}},"shop/shoes/reno-647f57":{"name":"Reno","locationSet":{"include":["at","ch","de","hu","sk"]},"geometry":["point","area"],"matchScore":2,"terms":["reno"],"tags":{"brand:wikidata":"Q2144204","shop":"shoes"},"addTags":{"brand":"Reno","brand:wikidata":"Q2144204","name":"Reno","shop":"shoes"}},"shop/shoes/sizeer-5db2a9":{"name":"Sizeer","locationSet":{"include":["at","bg","cz","de","ee","hr","hu","lt","lv","pl","ro","si","sk"]},"geometry":["point","area"],"matchScore":2,"terms":["sizeer"],"tags":{"brand:wikidata":"Q93982889","shop":"shoes"},"addTags":{"brand":"Sizeer","brand:wikidata":"Q93982889","name":"Sizeer","shop":"shoes"}},"shop/sports/hervis-38a747":{"name":"Hervis","locationSet":{"include":["at","cz","de","hr","hu","ro","si"]},"geometry":["point","area"],"matchScore":2,"terms":["hervis","hervis sport","hervis sports"],"tags":{"brand:wikidata":"Q1614816","shop":"sports"},"addTags":{"brand":"Hervis","brand:wikidata":"Q1614816","name":"Hervis","shop":"sports"}},"shop/sports/sportvision-daf837":{"name":"Sport Vision","locationSet":{"include":["al","ba","bg","cz","gr","hr","hu","me","mk","ro","rs","si","sk"]},"geometry":["point","area"],"matchScore":2,"terms":["sport vision"],"tags":{"brand:wikidata":"Q116729857","shop":"sports"},"addTags":{"brand":"Sport Vision","brand:wikidata":"Q116729857","name":"Sport Vision","shop":"sports"}},"shop/sports/sportisimo-8183b2":{"name":"Sportisimo","locationSet":{"include":["bg","cz","hr","hu","ro","sk"]},"geometry":["point","area"],"matchScore":2,"terms":["sportisimo"],"tags":{"brand:wikidata":"Q54974273","shop":"sports"},"addTags":{"brand":"Sportisimo","brand:wikidata":"Q54974273","name":"Sportisimo","shop":"sports"}},"shop/supermarket/aldi-68f0e3":{"name":"ALDI (ALDI Süd group)","locationSet":{"include":["au","ch","cn","gb","hu","ie","it","us"]},"geometry":["point","area"],"matchScore":2,"terms":["aldi","aldi australia","aldi suisse","aldi uk","aldi usa"],"tags":{"brand:wikidata":"Q41171672","shop":"supermarket"},"addTags":{"brand":"ALDI","brand:wikidata":"Q41171672","name":"ALDI","shop":"supermarket"}},"shop/supermarket/auchan-05ddc8":{"name":"Auchan","locationSet":{"include":["ci","cn","fr","hu","lu","mr","pl","pt","ro","sn"]},"geometry":["point","area"],"matchScore":2,"terms":["auchan"],"tags":{"brand:wikidata":"Q758603","shop":"supermarket"},"addTags":{"brand":"Auchan","brand:wikidata":"Q758603","name":"Auchan","shop":"supermarket"}},"shop/supermarket/cba-6e9bfc":{"name":"CBA","locationSet":{"include":["hu","ro","sk"]},"geometry":["point","area"],"matchScore":2,"terms":["cba"],"tags":{"brand:wikidata":"Q779845","shop":"supermarket"},"addTags":{"brand":"CBA","brand:wikidata":"Q779845","name":"CBA","shop":"supermarket"}},"shop/supermarket/coopszuper-478515":{"name":"Coop Szuper","locationSet":{"include":["hu"]},"geometry":["point","area"],"matchScore":2,"terms":["coop szuper"],"tags":{"brand:wikidata":"Q868980","shop":"supermarket"},"addTags":{"brand":"Coop Szuper","brand:wikidata":"Q868980","name":"Coop Szuper","shop":"supermarket"}},"shop/supermarket/eurospar-4b5e11":{"name":"Eurospar","locationSet":{"include":["by","bg","cz","hu","pl","md","ro","ru","sk","ua","ax","gg","je","cq","dk","ee","fo","fi","is","ie","im","lv","lt","no","sj","se","gb","al","ad","ba","hr","gi","gr","va","it","mt","me","mk","pt","sm","rs","si","es","xk","at","be","fr","de","li","lu","mc","nl","ch"]},"geometry":["point","area"],"matchScore":2,"terms":["eurospar"],"tags":{"brand:wikidata":"Q12309283","shop":"supermarket"},"addTags":{"brand":"Eurospar","brand:wikidata":"Q12309283","name":"Eurospar","shop":"supermarket"}},"shop/supermarket/match-ae86a1":{"name":"Match","locationSet":{"include":["be","fr","hu","lu"]},"geometry":["point","area"],"matchScore":2,"terms":["match"],"tags":{"brand:wikidata":"Q513977","shop":"supermarket"},"addTags":{"brand":"Match","brand:wikidata":"Q513977","name":"Match","shop":"supermarket"}},"shop/supermarket/penny-55dfd6":{"name":"PENNY","locationSet":{"include":["at","cz","de","hu","it","ro"]},"geometry":["point","area"],"matchScore":2,"terms":["penny","penny market","penny markt"],"fields":["name","brand","{shop/supermarket}"],"tags":{"brand:wikidata":"Q284688","shop":"supermarket"},"addTags":{"brand":"PENNY","brand:wikidata":"Q284688","name":"PENNY","shop":"supermarket"}},"shop/supermarket/privatmax-478515":{"name":"Privát Max","locationSet":{"include":["hu"]},"geometry":["point","area"],"matchScore":2,"terms":["privát max"],"tags":{"brand:wikidata":"Q115606854","shop":"supermarket"},"addTags":{"brand":"Privát Max","brand:wikidata":"Q115606854","name":"Privát Max","shop":"supermarket"}},"shop/supermarket/profi-8721fd":{"name":"Profi","locationSet":{"include":["be","hu","ro"]},"geometry":["point","area"],"matchScore":2,"terms":["profi"],"tags":{"brand:wikidata":"Q956664","shop":"supermarket"},"addTags":{"brand":"Profi","brand:wikidata":"Q956664","name":"Profi","shop":"supermarket"}},"shop/supermarket/real-478515":{"name":"Reál","locationSet":{"include":["hu"]},"geometry":["point","area"],"matchScore":2,"terms":["reál","reál hungária élelmiszer kereskedelmi kft.","reál pont"],"tags":{"brand:wikidata":"Q100741414","shop":"supermarket"},"addTags":{"brand":"Reál","brand:wikidata":"Q100741414","name":"Reál","shop":"supermarket"}},"shop/tattoo/veantattoo-eea007":{"name":"VeAn Tattoo","locationSet":{"include":["by","bg","cz","hu","pl","md","ro","ru","sk","ua","ax","gg","je","cq","dk","ee","fo","fi","is","ie","im","lv","lt","no","sj","se","gb","al","ad","ba","hr","gi","gr","va","it","mt","me","mk","pt","sm","rs","si","es","xk","at","be","fr","de","li","lu","mc","nl","ch"]},"geometry":["point","area"],"matchScore":2,"terms":["vean tattoo"],"tags":{"brand:wikidata":"Q116871240","shop":"tattoo"},"addTags":{"brand":"VeAn Tattoo","brand:wikidata":"Q116871240","name":"VeAn Tattoo","shop":"tattoo"}},"shop/telecommunication/yettel-fbadaa":{"name":"Yettel Hungary","locationSet":{"include":["hu"]},"geometry":["point","area"],"matchScore":2,"terms":["telenor","yettel","yettel (hungary)"],"tags":{"brand:wikidata":"Q268578","shop":"telecommunication"},"addTags":{"brand":"Yettel","brand:wikidata":"Q268578","name":"Yettel","shop":"telecommunication"}},"shop/tobacco/nemzetidohanybolt-9778cc":{"name":"Nemzeti Dohánybolt","locationSet":{"include":["hu"]},"geometry":["point","area"],"matchScore":2,"terms":["dohánybolt","nemzeti dohánybolt"],"tags":{"brand:wikidata":"Q20639040","shop":"tobacco"},"addTags":{"brand":"Nemzeti Dohánybolt","brand:wikidata":"Q20639040","name":"Nemzeti Dohánybolt","shop":"tobacco"}},"shop/trade/felbermayr-26d55f":{"name":"Felbermayr","locationSet":{"include":["at","ba","bg","cz","de","hr","hu","it","pl","ro","rs","sk"]},"geometry":["point","area"],"matchScore":2,"terms":["felbermayr"],"tags":{"brand:wikidata":"Q19687619","shop":"trade"},"addTags":{"brand":"Felbermayr","brand:wikidata":"Q19687619","name":"Felbermayr","shop":"trade","trade":"construction_equipment"}},"shop/travel_agency/invia-bc5dc6":{"name":"Invia","locationSet":{"include":["cz","hu","pl","sk"]},"geometry":["point","area"],"matchScore":2,"terms":["invia"],"tags":{"brand:wikidata":"Q20057477","shop":"travel_agency"},"addTags":{"brand":"Invia","brand:wikidata":"Q20057477","name":"Invia","shop":"travel_agency"}},"shop/variety_store/flyingtigercopenhagen-55ef00":{"name":"Flying Tiger Copenhagen","locationSet":{"include":["at","be","ch","cy","cz","de","dk","ee","es","fi","fr","gb","gr","hu","ie","il","is","it","jp","kr","lt","lv","mt","nl","no","pl","pt","se","sk"]},"geometry":["point","area"],"matchScore":2,"terms":["flying tiger","flying tiger copenhagen","tgr","tiger"],"tags":{"brand:wikidata":"Q2786319","shop":"variety_store"},"addTags":{"brand":"Flying Tiger Copenhagen","brand:wikidata":"Q2786319","name":"Flying Tiger Copenhagen","shop":"variety_store","short_name":"Flying Tiger"}},"shop/variety_store/tedi-8a061e":{"name":"TEDi","locationSet":{"include":["at","bg","cz","de","es","gb","hr","hu","it","pl","pt","ro","si","sk"]},"geometry":["point","area"],"matchScore":2,"terms":["t\u20acdi","tedi"],"tags":{"brand:wikidata":"Q1364603","shop":"variety_store"},"addTags":{"brand":"TEDi","brand:wikidata":"Q1364603","name":"TEDi","shop":"variety_store"}},"shop/variety_store/topshop-f153f8":{"name":"Top Shop","locationSet":{"include":["al","ba","bg","cz","ee","hr","hu","lt","lv","md","me","mk","pl","ro","rs","si","sk","ua","xk"]},"geometry":["point","area"],"matchScore":2,"terms":["top shop"],"tags":{"brand:wikidata":"Q116919675","shop":"variety_store"},"addTags":{"brand":"Top Shop","brand:wikidata":"Q116919675","name":"Top Shop","shop":"variety_store"}},"shop/wholesale/metro-101fbc":{"name":"METRO","locationSet":{"include":["at","bg","de","fr","hr","hu","in","it","kz","md","pk","ro","rs","ru","sk","tr","ua"]},"geometry":["point","area"],"matchScore":2,"terms":["metro","metro cash & carry"],"tags":{"brand:wikidata":"Q13610282","shop":"wholesale"},"addTags":{"brand":"METRO","brand:wikidata":"Q13610282","name":"METRO","shop":"wholesale"}},"tourism/hostel/aando-a930a5":{"name":"A&O","locationSet":{"include":["at","cz","de","dk","gb","hu","it","nl","pl"]},"geometry":["point","area"],"matchScore":2,"terms":["a&o"],"fields":["name","brand","{tourism/hostel}"],"tags":{"brand:wikidata":"Q15890910","tourism":"hostel"},"addTags":{"brand":"A&O","brand:wikidata":"Q15890910","name":"A&O","tourism":"hostel"}},"tourism/hotel/aando-7ebc01":{"name":"A&O","locationSet":{"include":["at","cz","de","dk","gb","hu","it","nl","pl"]},"geometry":["point","area"],"matchScore":2,"terms":["a&o"],"fields":["name","brand","{tourism/hotel}"],"tags":{"brand:wikidata":"Q15890910","tourism":"hotel"},"addTags":{"brand":"A&O","brand:wikidata":"Q15890910","name":"A&O","tourism":"hotel"}},"tourism/hotel/adinaapartmenthotel-a6b67a":{"name":"Adina Hotels","locationSet":{"include":["at","au","ch","de","dk","hu","nz","sg"]},"geometry":["point","area"],"matchScore":2,"terms":["adina","adina hotels"],"fields":["name","brand","{tourism/hotel}"],"tags":{"brand:wikidata":"Q50406079","tourism":"hotel"},"addTags":{"brand":"Adina Hotels","brand:wikidata":"Q50406079","name":"Adina Apartment Hotel","tourism":"hotel"}},"tourism/hotel/anantara-e8534c":{"name":"Anantara","locationSet":{"include":["ae","br","cn","es","fr","hu","id","ie","it","kh","mu","mv","my","mz","nl","om","pt","qa","sc","th","tn","vn","zm"]},"geometry":["point","area"],"matchScore":2,"terms":["anantara"],"fields":["name","brand","{tourism/hotel}"],"tags":{"brand:wikidata":"Q112671781","tourism":"hotel"},"addTags":{"brand":"Anantara","brand:wikidata":"Q112671781","name":"Anantara","tourism":"hotel"}},"tourism/hotel/bandbhotel-fc8c2c":{"name":"B&B Hotel","locationSet":{"include":["by","bg","cz","hu","pl","md","ro","ru","sk","ua","ax","gg","je","cq","dk","ee","fo","fi","is","ie","im","lv","lt","no","sj","se","gb","al","ad","ba","hr","gi","gr","va","it","mt","me","mk","pt","sm","rs","si","es","xk","at","be","fr","de","li","lu","mc","nl","ch","br"]},"geometry":["point","area"],"matchScore":2,"terms":["b&b hotels"],"fields":["name","brand","{tourism/hotel}"],"tags":{"brand:wikidata":"Q794939","tourism":"hotel"},"addTags":{"brand":"B&B Hotels","brand:wikidata":"Q794939","name":"B&B Hotel","tourism":"hotel"}},"tourism/hotel/barcelohotelsandresorts-302c40":{"name":"Barceló","locationSet":{"include":["ae","aw","bg","cr","cu","cz","de","do","eg","es","gr","gt","hu","it","ma","mv","mx","ni","om","pt","sv","tn","tr","us"]},"geometry":["point","area"],"matchScore":2,"terms":["barceló hotels & resorts"],"fields":["name","brand","{tourism/hotel}"],"tags":{"brand:wikidata":"Q15148996","tourism":"hotel"},"addTags":{"brand":"Barceló Hotels & Resorts","brand:wikidata":"Q15148996","name":"Barceló Hotels & Resorts","tourism":"hotel"}},"tourism/hotel/greet-046fe6":{"name":"greet","locationSet":{"include":["by","bg","cz","hu","pl","md","ro","ru","sk","ua","ax","gg","je","cq","dk","ee","fo","fi","is","ie","im","lv","lt","no","sj","se","gb","al","ad","ba","hr","gi","gr","va","it","mt","me","mk","pt","sm","rs","si","es","xk","at","be","fr","de","li","lu","mc","nl","ch"]},"geometry":["point","area"],"matchScore":2,"terms":["greet"],"fields":["name","brand","{tourism/hotel}"],"tags":{"brand:wikidata":"Q115489066","tourism":"hotel"},"addTags":{"brand":"greet","brand:wikidata":"Q115489066","name":"Greet","tourism":"hotel"}},"tourism/hotel/leonardoboutique-97784d":{"name":"Leonardo Boutique","locationSet":{"include":["ch","de","es","hu","il","nl"]},"geometry":["point","area"],"matchScore":2,"terms":["leonardo boutique"],"fields":["name","brand","{tourism/hotel}"],"tags":{"brand:wikidata":"Q1819101","tourism":"hotel"},"addTags":{"brand":"Leonardo Boutique","brand:wikidata":"Q1819101","name":"Leonardo Boutique","tourism":"hotel"}},"tourism/hotel/leonardohotels-e45a92":{"name":"Leonardo Hotels","locationSet":{"include":["at","be","de","es","hu","it","nl"]},"geometry":["point","area"],"matchScore":2,"terms":["jurys","jurys inn","leonardo hotels"],"fields":["name","brand","{tourism/hotel}"],"tags":{"brand:wikidata":"Q1819101","tourism":"hotel"},"addTags":{"brand":"Leonardo Hotels","brand:wikidata":"Q1819101","name":"Leonardo Hotels","tourism":"hotel"}},"tourism/hotel/marriottexecutiveapartments-b2f419":{"name":"Marriott Executive Apartments","locationSet":{"include":["ae","be","bh","br","cn","et","gb","hu","id","in","kr","kz","pa","sa","th","za"]},"geometry":["point","area"],"matchScore":2,"terms":["marriott executive apartments"],"fields":["name","brand","{tourism/hotel}"],"tags":{"brand:wikidata":"Q72636824","tourism":"hotel"},"addTags":{"brand":"Marriott Executive Apartments","brand:wikidata":"Q72636824","name":"Marriott Executive Apartments","tourism":"hotel"}},"tourism/hotel/motelone-1fc1b4":{"name":"Motel One","locationSet":{"include":["by","bg","cz","hu","pl","md","ro","ru","sk","ua","ax","gg","je","cq","dk","ee","fo","fi","is","ie","im","lv","lt","no","sj","se","gb","al","ad","ba","hr","gi","gr","va","it","mt","me","mk","pt","sm","rs","si","es","xk","at","be","fr","de","li","lu","mc","nl","ch","us-ny"]},"geometry":["point","area"],"matchScore":2,"terms":["motel one"],"fields":["name","brand","{tourism/hotel}"],"tags":{"brand:wikidata":"Q391080","tourism":"hotel"},"addTags":{"brand":"Motel One","brand:wikidata":"Q391080","name":"Motel One","tourism":"hotel"}},"tourism/hotel/nhcollectionhotels-f05c75":{"name":"NH Collection Hotels","locationSet":{"include":["ad","ar","at","be","cl","co","cu","cz","de","dk","ec","es","fr","hu","it","mx","nl","pt","qa","us-ny"]},"geometry":["point","area"],"matchScore":2,"terms":["nh collection hotels"],"fields":["name","brand","{tourism/hotel}"],"tags":{"brand:wikidata":"Q1604631","tourism":"hotel"},"addTags":{"brand":"NH Collection Hotels","brand:wikidata":"Q1604631","name":"NH Collection Hotels","tourism":"hotel"}},"tourism/hotel/nhhotel-e9b4fb":{"name":"NH Hotels","locationSet":{"include":["ad","ar","at","be","br","ch","cl","co","cu","cz","de","es","fr","hu","it","lu","mx","nl","pl","pt"]},"geometry":["point","area"],"matchScore":2,"terms":["nh hotels"],"fields":["name","brand","{tourism/hotel}"],"tags":{"brand:wikidata":"Q1604631","tourism":"hotel"},"addTags":{"brand":"NH Hotels","brand:wikidata":"Q1604631","name":"NH Hotel","tourism":"hotel"}},"amenity/charging_station/daemobil-ff4fbd":{"name":"da emobil","locationSet":{"include":["at","ch","de","dk","fr","gb","hu","ie","it"]},"geometry":["point","vertex","area"],"matchScore":2,"terms":["da emobil"],"fields":["name","operator","{amenity/charging_station}"],"tags":{"amenity":"charging_station","operator:wikidata":"Q114946167"},"addTags":{"amenity":"charging_station","operator":"da emobil","operator:wikidata":"Q114946167"}},"amenity/charging_station/eon-7f623e":{"name":"E.ON","locationSet":{"include":["by","bg","cz","hu","pl","md","ro","ru","sk","ua","ax","gg","je","cq","dk","ee","fo","fi","is","ie","im","lv","lt","no","sj","se","gb","al","ad","ba","hr","gi","gr","va","it","mt","me","mk","pt","sm","rs","si","es","xk","at","be","fr","de","li","lu","mc","nl","ch"]},"geometry":["point","vertex","area"],"matchScore":2,"terms":["e-on drive","e.on"],"fields":["name","operator","{amenity/charging_station}"],"tags":{"amenity":"charging_station","operator:wikidata":"Q270223"},"addTags":{"amenity":"charging_station","operator":"E.ON","operator:wikidata":"Q270223"}},"amenity/charging_station/elmu-27e906":{"name":"ELMŰ","locationSet":{"include":["hu"]},"geometry":["point","vertex","area"],"matchScore":2,"terms":["elmű"],"fields":["name","operator","{amenity/charging_station}"],"tags":{"amenity":"charging_station","operator:wikidata":"Q851145"},"addTags":{"amenity":"charging_station","operator":"ELMŰ","operator:wikidata":"Q851145"}},"amenity/charging_station/evbox-7f623e":{"name":"EVBox","locationSet":{"include":["by","bg","cz","hu","pl","md","ro","ru","sk","ua","ax","gg","je","cq","dk","ee","fo","fi","is","ie","im","lv","lt","no","sj","se","gb","al","ad","ba","hr","gi","gr","va","it","mt","me","mk","pt","sm","rs","si","es","xk","at","be","fr","de","li","lu","mc","nl","ch"]},"geometry":["point","vertex","area"],"matchScore":2,"terms":["evbox"],"fields":["name","operator","{amenity/charging_station}"],"tags":{"amenity":"charging_station","operator:wikidata":"Q28406392"},"addTags":{"amenity":"charging_station","operator":"EVBox","operator:wikidata":"Q28406392"}},"amenity/charging_station/molnyrt-27e906":{"name":"MOL Nyrt.","locationSet":{"include":["hu"]},"geometry":["point","vertex","area"],"matchScore":2,"terms":["mol nyrt."],"fields":["name","operator","{amenity/charging_station}"],"tags":{"amenity":"charging_station","operator:wikidata":"Q549181"},"addTags":{"amenity":"charging_station","operator":"MOL Nyrt.","operator:wikidata":"Q549181"}},"amenity/charging_station/qpark-7f623e":{"name":"Q-Park","locationSet":{"include":["by","bg","cz","hu","pl","md","ro","ru","sk","ua","ax","gg","je","cq","dk","ee","fo","fi","is","ie","im","lv","lt","no","sj","se","gb","al","ad","ba","hr","gi","gr","va","it","mt","me","mk","pt","sm","rs","si","es","xk","at","be","fr","de","li","lu","mc","nl","ch"]},"geometry":["point","vertex","area"],"matchScore":2,"terms":["q-park"],"fields":["name","operator","{amenity/charging_station}"],"tags":{"amenity":"charging_station","operator:wikidata":"Q1127798"},"addTags":{"amenity":"charging_station","operator":"Q-Park","operator:wikidata":"Q1127798"}},"amenity/post_box/expressone-b69600":{"name":"Express One (Hungary)","locationSet":{"include":["hu"]},"geometry":["point","vertex"],"matchScore":2,"terms":["express one"],"tags":{"amenity":"post_box","operator:wikidata":"Q115972600"},"addTags":{"amenity":"post_box","brand":"Express One","brand:wikidata":"Q115972600","operator":"Express One","operator:wikidata":"Q115972600"}},"amenity/post_box/magyarposta-b69600":{"name":"Magyar Posta","locationSet":{"include":["hu"]},"geometry":["point","vertex"],"matchScore":2,"terms":["magyar posta","magyar posta zrt."],"tags":{"amenity":"post_box","operator:wikidata":"Q145614"},"addTags":{"amenity":"post_box","operator":"Magyar Posta","operator:wikidata":"Q145614"}},"amenity/post_office/magyarposta-14f2b7":{"name":"Magyar Posta","locationSet":{"include":["hu"]},"geometry":["point","area"],"matchScore":2,"terms":["magyar posta","magyar posta zrt."],"fields":["name","operator","{amenity/post_office}"],"tags":{"amenity":"post_office","operator:wikidata":"Q145614"},"addTags":{"amenity":"post_office","operator":"Magyar Posta","operator:wikidata":"Q145614"}},"amenity/recycling/remondis-222d99":{"name":"REMONDIS","locationSet":{"include":["by","bg","cz","hu","pl","md","ro","ru","sk","ua","ax","gg","je","cq","dk","ee","fo","fi","is","ie","im","lv","lt","no","sj","se","gb","al","ad","ba","hr","gi","gr","va","it","mt","me","mk","pt","sm","rs","si","es","xk","at","be","fr","de","li","lu","mc","nl","ch"]},"geometry":["point","area"],"matchScore":2,"terms":["remondis"],"tags":{"amenity":"recycling","operator:wikidata":"Q884975"},"addTags":{"amenity":"recycling","operator":"REMONDIS","operator:wikidata":"Q884975"}},"amenity/recycling/texaidhungaria-b316be":{"name":"TEXAID Hungaria","locationSet":{"include":["hu"]},"geometry":["point","area"],"matchScore":2,"terms":["texaid","texaid hungaria"],"tags":{"amenity":"recycling","operator:wikidata":"Q1395183"},"addTags":{"amenity":"recycling","operator":"TEXAID Hungaria","operator:wikidata":"Q1395183","recycling:clothes":"yes","recycling:shoes":"yes"}},"amenity/school/klebelsbergintezmenyfenntartokozpont-211b9f":{"name":"Klebelsberg Intézményfenntartó Központ","locationSet":{"include":["hu"]},"geometry":["area","point"],"matchScore":2,"terms":["klebelsberg intézményfenntartó központ"],"tags":{"amenity":"school","operator:wikidata":"Q16521272"},"addTags":{"amenity":"school","operator":"Klebelsberg Intézményfenntartó Központ","operator:type":"public","operator:wikidata":"Q16521272"}},"amenity/school/kozeppestitankeruletikozpont-211b9f":{"name":"Közép-Pesti Tankerületi Központ","locationSet":{"include":["hu"]},"geometry":["area","point"],"matchScore":2,"terms":["közép-pesti tankerületi központ"],"tags":{"amenity":"school","operator:wikidata":"Q108840244"},"addTags":{"amenity":"school","operator":"Közép-Pesti Tankerületi Központ","operator:type":"public","operator:wikidata":"Q108840244"}},"amenity/social_facility/magyarmaltaiszeretetszolgalat-bb8da1":{"name":"Magyar Máltai Szeretetszolgálat","locationSet":{"include":["hu"]},"geometry":["point","area"],"matchScore":2,"terms":["magyar máltai szeretetszolgálat"],"tags":{"amenity":"social_facility","operator:wikidata":"Q1162102"},"addTags":{"amenity":"social_facility","operator":"Magyar Máltai Szeretetszolgálat","operator:wikidata":"Q1162102"}},"amenity/telephone/invitel-a3dfca":{"name":"Invitel","locationSet":{"include":["hu"]},"geometry":["point","vertex"],"matchScore":2,"terms":["invitel"],"fields":["name","operator","{amenity/telephone}"],"tags":{"amenity":"telephone","operator:wikidata":"Q372983"},"addTags":{"amenity":"telephone","operator":"Invitel","operator:wikidata":"Q372983"}},"amenity/telephone/magyartelekom-a3dfca":{"name":"Magyar Telekom","locationSet":{"include":["hu"]},"geometry":["point","vertex"],"matchScore":2,"terms":["magyar telekom","magyar telekom nyrt."],"fields":["name","operator","{amenity/telephone}"],"tags":{"amenity":"telephone","operator:wikidata":"Q458944"},"addTags":{"amenity":"telephone","operator":"Magyar Telekom","operator:wikidata":"Q458944"}},"emergency/ambulance_station/orszagosmentoszolgalat-9ab0cd":{"name":"Országos Mentőszolgálat","locationSet":{"include":["hu"]},"geometry":["point","area"],"matchScore":2,"terms":["országos mentőszolgálat"],"tags":{"emergency":"ambulance_station","operator:wikidata":"Q98404980"},"addTags":{"emergency":"ambulance_station","operator":"Országos Mentőszolgálat","operator:wikidata":"Q98404980"}},"man_made/charge_point/daemobil-319d1e":{"name":"da emobil","locationSet":{"include":["at","ch","de","dk","fr","gb","hu","ie","it"]},"geometry":["point"],"matchScore":2,"terms":["da emobil"],"fields":["name","operator","{man_made/charge_point}"],"tags":{"man_made":"charge_point","operator:wikidata":"Q114946167"},"addTags":{"man_made":"charge_point","operator":"da emobil","operator:wikidata":"Q114946167"}},"man_made/charge_point/eon-22bfb3":{"name":"E.ON","locationSet":{"include":["by","bg","cz","hu","pl","md","ro","ru","sk","ua","ax","gg","je","cq","dk","ee","fo","fi","is","ie","im","lv","lt","no","sj","se","gb","al","ad","ba","hr","gi","gr","va","it","mt","me","mk","pt","sm","rs","si","es","xk","at","be","fr","de","li","lu","mc","nl","ch"]},"geometry":["point"],"matchScore":2,"terms":["e-on drive","e.on"],"fields":["name","operator","{man_made/charge_point}"],"tags":{"man_made":"charge_point","operator:wikidata":"Q270223"},"addTags":{"man_made":"charge_point","operator":"E.ON","operator:wikidata":"Q270223"}},"man_made/charge_point/elmu-7c6771":{"name":"ELMŰ","locationSet":{"include":["hu"]},"geometry":["point"],"matchScore":2,"terms":["elmű"],"fields":["name","operator","{man_made/charge_point}"],"tags":{"man_made":"charge_point","operator:wikidata":"Q851145"},"addTags":{"man_made":"charge_point","operator":"ELMŰ","operator:wikidata":"Q851145"}},"man_made/charge_point/evbox-22bfb3":{"name":"EVBox","locationSet":{"include":["by","bg","cz","hu","pl","md","ro","ru","sk","ua","ax","gg","je","cq","dk","ee","fo","fi","is","ie","im","lv","lt","no","sj","se","gb","al","ad","ba","hr","gi","gr","va","it","mt","me","mk","pt","sm","rs","si","es","xk","at","be","fr","de","li","lu","mc","nl","ch"]},"geometry":["point"],"matchScore":2,"terms":["evbox"],"fields":["name","operator","{man_made/charge_point}"],"tags":{"man_made":"charge_point","operator:wikidata":"Q28406392"},"addTags":{"man_made":"charge_point","operator":"EVBox","operator:wikidata":"Q28406392"}},"man_made/charge_point/molnyrt-7c6771":{"name":"MOL Nyrt.","locationSet":{"include":["hu"]},"geometry":["point"],"matchScore":2,"terms":["mol nyrt."],"fields":["name","operator","{man_made/charge_point}"],"tags":{"man_made":"charge_point","operator:wikidata":"Q549181"},"addTags":{"man_made":"charge_point","operator":"MOL Nyrt.","operator:wikidata":"Q549181"}},"man_made/charge_point/qpark-22bfb3":{"name":"Q-Park","locationSet":{"include":["by","bg","cz","hu","pl","md","ro","ru","sk","ua","ax","gg","je","cq","dk","ee","fo","fi","is","ie","im","lv","lt","no","sj","se","gb","al","ad","ba","hr","gi","gr","va","it","mt","me","mk","pt","sm","rs","si","es","xk","at","be","fr","de","li","lu","mc","nl","ch"]},"geometry":["point"],"matchScore":2,"terms":["q-park"],"fields":["name","operator","{man_made/charge_point}"],"tags":{"man_made":"charge_point","operator:wikidata":"Q1127798"},"addTags":{"man_made":"charge_point","operator":"Q-Park","operator:wikidata":"Q1127798"}},"man_made/mast/communication/mobile_phone/telekom-488966":{"name":"Telekom","locationSet":{"include":["de","hu","ro","si","sk"]},"geometry":["point","vertex"],"matchScore":2,"terms":["telekom"],"reference":{"key":"communication:mobile_phone","value":"yes"},"tags":{"communication:mobile_phone":"yes","man_made":"mast","operator:wikidata":"Q9396","tower:type":"communication"},"addTags":{"communication:mobile_phone":"yes","man_made":"mast","operator":"Telekom","operator:wikidata":"Q9396","tower:type":"communication"}},"man_made/tower/communication/telekom-a8749b":{"name":"Telekom","locationSet":{"include":["de","hu","ro","si","sk"]},"geometry":["point","vertex","area"],"matchScore":2,"terms":["telekom"],"reference":{"key":"tower:type","value":"communication"},"tags":{"man_made":"tower","operator:wikidata":"Q9396","tower:type":"communication"},"addTags":{"communication:mobile_phone":"yes","man_made":"tower","operator":"Telekom","operator:wikidata":"Q9396","tower:type":"communication"}},"power/catenary_mast/gysev-202ce1":{"name":"GYSEV","locationSet":{"include":["at","hu"]},"geometry":["point","vertex"],"matchScore":2,"terms":["gysev"],"tags":{"operator:wikidata":"Q181697","power":"catenary_mast"},"addTags":{"operator":"GYSEV","operator:wikidata":"Q181697","power":"catenary_mast"}},"power/catenary_mast/mav-9b4488":{"name":"MÁV","locationSet":{"include":["hu"]},"geometry":["point","vertex"],"matchScore":2,"terms":["magyar államvasutak zrt.","máv"],"tags":{"operator:wikidata":"Q168082","power":"catenary_mast"},"addTags":{"operator":"MÁV","operator:wikidata":"Q168082","power":"catenary_mast"}},"power/generator/innogy-16c9d0":{"name":"Innogy","locationSet":{"include":["by","bg","cz","hu","pl","md","ro","ru","sk","ua","ax","gg","je","cq","dk","ee","fo","fi","is","ie","im","lv","lt","no","sj","se","gb","al","ad","ba","hr","gi","gr","va","it","mt","me","mk","pt","sm","rs","si","es","xk","at","be","fr","de","li","lu","mc","nl","ch"]},"geometry":["point","vertex","area"],"matchScore":2,"terms":["innogy"],"tags":{"operator:wikidata":"Q2124721","power":"generator"},"addTags":{"operator":"Innogy","operator:wikidata":"Q2124721","power":"generator"}},"power/generator/mvm-dc1ee9":{"name":"MVM","locationSet":{"include":["hu"]},"geometry":["point","vertex","area"],"matchScore":2,"terms":["mvm"],"tags":{"operator:wikidata":"Q1162287","power":"generator"},"addTags":{"operator":"MVM","operator:wikidata":"Q1162287","power":"generator"}},"power/generator/rwe-16c9d0":{"name":"RWE","locationSet":{"include":["by","bg","cz","hu","pl","md","ro","ru","sk","ua","ax","gg","je","cq","dk","ee","fo","fi","is","ie","im","lv","lt","no","sj","se","gb","al","ad","ba","hr","gi","gr","va","it","mt","me","mk","pt","sm","rs","si","es","xk","at","be","fr","de","li","lu","mc","nl","ch"]},"geometry":["point","vertex","area"],"matchScore":2,"terms":["rwe"],"tags":{"operator:wikidata":"Q138133","power":"generator"},"addTags":{"operator":"RWE","operator:wikidata":"Q138133","power":"generator"}},"power/generator/statkraft-16c9d0":{"name":"Statkraft","locationSet":{"include":["by","bg","cz","hu","pl","md","ro","ru","sk","ua","ax","gg","je","cq","dk","ee","fo","fi","is","ie","im","lv","lt","no","sj","se","gb","al","ad","ba","hr","gi","gr","va","it","mt","me","mk","pt","sm","rs","si","es","xk","at","be","fr","de","li","lu","mc","nl","ch"]},"geometry":["point","vertex","area"],"matchScore":2,"terms":["statkraft"],"tags":{"operator:wikidata":"Q1681145","power":"generator"},"addTags":{"operator":"Statkraft","operator:wikidata":"Q1681145","power":"generator"}},"power/generator/uniper-16c9d0":{"name":"Uniper","locationSet":{"include":["by","bg","cz","hu","pl","md","ro","ru","sk","ua","ax","gg","je","cq","dk","ee","fo","fi","is","ie","im","lv","lt","no","sj","se","gb","al","ad","ba","hr","gi","gr","va","it","mt","me","mk","pt","sm","rs","si","es","xk","at","be","fr","de","li","lu","mc","nl","ch"]},"geometry":["point","vertex","area"],"matchScore":2,"terms":["uniper"],"tags":{"operator:wikidata":"Q19839259","power":"generator"},"addTags":{"operator":"Uniper","operator:wikidata":"Q19839259","power":"generator"}},"power/generator/wpo-16c9d0":{"name":"WPO","locationSet":{"include":["by","bg","cz","hu","pl","md","ro","ru","sk","ua","ax","gg","je","cq","dk","ee","fo","fi","is","ie","im","lv","lt","no","sj","se","gb","al","ad","ba","hr","gi","gr","va","it","mt","me","mk","pt","sm","rs","si","es","xk","at","be","fr","de","li","lu","mc","nl","ch"]},"geometry":["point","vertex","area"],"matchScore":2,"terms":["wpo"],"tags":{"operator:wikidata":"Q64755627","power":"generator"},"addTags":{"operator":"WPO","operator:wikidata":"Q64755627","power":"generator"}},"power/line/elmu-74d56c":{"name":"ELMŰ","locationSet":{"include":["hu"]},"geometry":["line"],"matchScore":2,"terms":["elmű","elmű zrt."],"tags":{"operator:wikidata":"Q851145","power":"line"},"addTags":{"operator":"ELMŰ","operator:wikidata":"Q851145","power":"line"}},"power/line/mavir-74d56c":{"name":"MAVIR","locationSet":{"include":["hu"]},"geometry":["line"],"matchScore":2,"terms":["mavir"],"tags":{"operator:wikidata":"Q88272702","power":"line"},"addTags":{"operator":"MAVIR","operator:wikidata":"Q88272702","power":"line"}},"power/minor_line/elmu-b8e692":{"name":"ELMŰ","locationSet":{"include":["hu"]},"geometry":["line"],"matchScore":2,"terms":["elmű","elmű zrt."],"tags":{"operator:wikidata":"Q851145","power":"minor_line"},"addTags":{"operator":"ELMŰ","operator:wikidata":"Q851145","power":"minor_line"}},"power/minor_line/mavir-b8e692":{"name":"MAVIR","locationSet":{"include":["hu"]},"geometry":["line"],"matchScore":2,"terms":["mavir"],"tags":{"operator:wikidata":"Q88272702","power":"minor_line"},"addTags":{"operator":"MAVIR","operator:wikidata":"Q88272702","power":"minor_line"}},"power/pole/elmu-294d85":{"name":"ELMŰ","locationSet":{"include":["hu"]},"geometry":["point","vertex"],"matchScore":2,"terms":["elmű","elmű zrt."],"tags":{"operator:wikidata":"Q851145","power":"pole"},"addTags":{"operator":"ELMŰ","operator:wikidata":"Q851145","power":"pole"}},"power/pole/mavir-294d85":{"name":"MAVIR","locationSet":{"include":["hu"]},"geometry":["point","vertex"],"matchScore":2,"terms":["mavir"],"tags":{"operator:wikidata":"Q88272702","power":"pole"},"addTags":{"operator":"MAVIR","operator:wikidata":"Q88272702","power":"pole"}},"power/substation/elmu-998f8d":{"name":"ELMŰ","locationSet":{"include":["hu"]},"geometry":["area","point"],"matchScore":2,"terms":["elmű","elmű zrt."],"tags":{"operator:wikidata":"Q851145","power":"substation"},"addTags":{"operator":"ELMŰ","operator:wikidata":"Q851145","power":"substation"}},"power/substation/mavir-998f8d":{"name":"MAVIR","locationSet":{"include":["hu"]},"geometry":["area","point"],"matchScore":2,"terms":["mavir"],"tags":{"operator:wikidata":"Q88272702","power":"substation"},"addTags":{"operator":"MAVIR","operator:wikidata":"Q88272702","power":"substation"}},"power/tower/elmu-fb6ef4":{"name":"ELMŰ","locationSet":{"include":["hu"]},"geometry":["point","vertex"],"matchScore":2,"terms":["elmű","elmű zrt."],"tags":{"operator:wikidata":"Q851145","power":"tower"},"addTags":{"operator":"ELMŰ","operator:wikidata":"Q851145","power":"tower"}},"power/tower/mavir-fb6ef4":{"name":"MAVIR","locationSet":{"include":["hu"]},"geometry":["point","vertex"],"matchScore":2,"terms":["mavir"],"tags":{"operator:wikidata":"Q88272702","power":"tower"},"addTags":{"operator":"MAVIR","operator:wikidata":"Q88272702","power":"tower"}},"power/transformer/elmu-d2172f":{"name":"ELMŰ","locationSet":{"include":["hu"]},"geometry":["point","vertex"],"matchScore":2,"terms":["elmű","elmű zrt."],"tags":{"operator:wikidata":"Q851145","power":"transformer"},"addTags":{"operator":"ELMŰ","operator:wikidata":"Q851145","power":"transformer"}},"power/transformer/mavir-d2172f":{"name":"MAVIR","locationSet":{"include":["hu"]},"geometry":["point","vertex"],"matchScore":2,"terms":["mavir"],"tags":{"operator:wikidata":"Q88272702","power":"transformer"},"addTags":{"operator":"MAVIR","operator:wikidata":"Q88272702","power":"transformer"}},"type/route/railway/gysev-236bfa":{"name":"GYSEV","locationSet":{"include":["at","hu"]},"geometry":["relation"],"matchScore":2,"terms":["gysev"],"reference":{"key":"route","value":"railway"},"tags":{"operator:wikidata":"Q181697","route":"railway","type":"route"},"addTags":{"operator":"GYSEV","operator:wikidata":"Q181697","route":"railway","type":"route"}},"type/route/railway/mav-6c36c0":{"name":"MÁV","locationSet":{"include":["hu"]},"geometry":["relation"],"matchScore":2,"terms":["magyar államvasutak zrt.","máv"],"reference":{"key":"route","value":"railway"},"tags":{"operator:wikidata":"Q168082","route":"railway","type":"route"},"addTags":{"operator":"MÁV","operator:wikidata":"Q168082","route":"railway","type":"route"}},"telecom/exchange/interoute-58ec5d":{"name":"Interoute","locationSet":{"include":["by","bg","cz","hu","pl","md","ro","ru","sk","ua","ax","gg","je","cq","dk","ee","fo","fi","is","ie","im","lv","lt","no","sj","se","gb","al","ad","ba","hr","gi","gr","va","it","mt","me","mk","pt","sm","rs","si","es","xk","at","be","fr","de","li","lu","mc","nl","ch"]},"geometry":["point","area"],"matchScore":2,"terms":["interoute"],"fields":["name","operator","{telecom/exchange}"],"tags":{"operator:wikidata":"Q1668090","telecom":"exchange"},"addTags":{"operator":"Interoute","operator:wikidata":"Q1668090","telecom":"exchange"}},"public_transport/platform/bus_point/flixbus-f5b4b3":{"name":"Flixbus","locationSet":{"include":["by","bg","cz","hu","pl","md","ro","ru","sk","ua","ax","gg","je","cq","dk","ee","fo","fi","is","ie","im","lv","lt","no","sj","se","gb","al","ad","ba","hr","gi","gr","va","it","mt","me","mk","pt","sm","rs","si","es","xk","at","be","fr","de","li","lu","mc","nl","ch","br","ca","us"]},"geometry":["point","vertex"],"matchScore":2,"terms":["flixbus"],"reference":{"key":"public_transport","value":"platform"},"tags":{"bus":"yes","network:wikidata":"Q15712258","public_transport":"platform"},"addTags":{"bus":"yes","highway":"bus_stop","network":"Flixbus","network:wikidata":"Q15712258","public_transport":"platform"}},"public_transport/platform/bus_point/mhdbratislava-78b59b":{"name":"MHD Bratislava","locationSet":{"include":["at","hu","sk"]},"geometry":["point","vertex"],"matchScore":2,"terms":["mhd bratislava"],"reference":{"key":"public_transport","value":"platform"},"tags":{"bus":"yes","network:wikidata":"Q7258005","public_transport":"platform"},"addTags":{"bus":"yes","highway":"bus_stop","network":"MHD Bratislava","network:wikidata":"Q7258005","public_transport":"platform"}},"public_transport/platform/bus_point/volanbusz-1d4a9b":{"name":"Volánbusz","locationSet":{"include":["hu"]},"geometry":["point","vertex"],"matchScore":2,"terms":["volánbusz"],"reference":{"key":"public_transport","value":"platform"},"tags":{"bus":"yes","network:wikidata":"Q746503","public_transport":"platform"},"addTags":{"bus":"yes","highway":"bus_stop","network":"Volánbusz","network:wikidata":"Q746503","public_transport":"platform"}},"public_transport/platform/bus_point/vor-f355a5":{"name":"VOR","locationSet":{"include":["at","cz","hu","sk"]},"geometry":["point","vertex"],"matchScore":2,"terms":["vor"],"reference":{"key":"public_transport","value":"platform"},"tags":{"bus":"yes","network:wikidata":"Q2516485","public_transport":"platform"},"addTags":{"bus":"yes","highway":"bus_stop","network":"VOR","network:wikidata":"Q2516485","public_transport":"platform"}},"railway/station/eurocity-170b77":{"name":"EuroCity","locationSet":{"include":["by","bg","cz","hu","pl","md","ro","ru","sk","ua","ax","gg","je","cq","dk","ee","fo","fi","is","ie","im","lv","lt","no","sj","se","gb","al","ad","ba","hr","gi","gr","va","it","mt","me","mk","pt","sm","rs","si","es","xk","at","be","fr","de","li","lu","mc","nl","ch"]},"geometry":["point","vertex","area"],"matchScore":2,"terms":["eurocity"],"tags":{"network:wikidata":"Q753050","railway":"station"},"addTags":{"network":"EuroCity","network:wikidata":"Q753050","public_transport":"station","railway":"station","train":"yes"}},"railway/station/euronight-170b77":{"name":"EuroNight","locationSet":{"include":["by","bg","cz","hu","pl","md","ro","ru","sk","ua","ax","gg","je","cq","dk","ee","fo","fi","is","ie","im","lv","lt","no","sj","se","gb","al","ad","ba","hr","gi","gr","va","it","mt","me","mk","pt","sm","rs","si","es","xk","at","be","fr","de","li","lu","mc","nl","ch"]},"geometry":["point","vertex","area"],"matchScore":2,"terms":["euronight"],"tags":{"network:wikidata":"Q257307","railway":"station"},"addTags":{"network":"EuroNight","network:wikidata":"Q257307","public_transport":"station","railway":"station","train":"yes"}},"railway/station/vor-24bd93":{"name":"VOR","locationSet":{"include":["at","cz","hu","sk"]},"geometry":["point","vertex","area"],"matchScore":2,"terms":["vor"],"tags":{"network:wikidata":"Q2516485","railway":"station"},"addTags":{"network":"VOR","network:wikidata":"Q2516485","public_transport":"station","railway":"station","train":"yes"}},"type/route/bus/flixbus-8cc9ca":{"name":"Flixbus","locationSet":{"include":["by","bg","cz","hu","pl","md","ro","ru","sk","ua","ax","gg","je","cq","dk","ee","fo","fi","is","ie","im","lv","lt","no","sj","se","gb","al","ad","ba","hr","gi","gr","va","it","mt","me","mk","pt","sm","rs","si","es","xk","at","be","fr","de","li","lu","mc","nl","ch","br","ca","us"]},"geometry":["relation"],"matchScore":2,"terms":["flixbus"],"reference":{"key":"route","value":"bus"},"tags":{"network:wikidata":"Q15712258","route":"bus","type":"route"},"addTags":{"network":"Flixbus","network:wikidata":"Q15712258","route":"bus","type":"route"}},"type/route/bus/mhdbratislava-5363ca":{"name":"MHD Bratislava","locationSet":{"include":["at","hu","sk"]},"geometry":["relation"],"matchScore":2,"terms":["mhd bratislava"],"reference":{"key":"route","value":"bus"},"tags":{"network:wikidata":"Q7258005","route":"bus","type":"route"},"addTags":{"network":"MHD Bratislava","network:wikidata":"Q7258005","route":"bus","type":"route"}},"type/route/bus/volanbusz-6ba633":{"name":"Volánbusz","locationSet":{"include":["hu"]},"geometry":["relation"],"matchScore":2,"terms":["volánbusz"],"reference":{"key":"route","value":"bus"},"tags":{"network:wikidata":"Q746503","route":"bus","type":"route"},"addTags":{"network":"Volánbusz","network:wikidata":"Q746503","route":"bus","type":"route"}},"type/route/bus/vor-df49c7":{"name":"VOR","locationSet":{"include":["at","cz","hu","sk"]},"geometry":["relation"],"matchScore":2,"terms":["vor"],"reference":{"key":"route","value":"bus"},"tags":{"network:wikidata":"Q2516485","route":"bus","type":"route"},"addTags":{"network":"VOR","network:wikidata":"Q2516485","route":"bus","type":"route"}},"type/route/light_rail/bhev-96ddc1":{"name":"BHÉV","locationSet":{"include":["hu"]},"geometry":["relation"],"matchScore":2,"terms":["bhév","máv-hév","máv-hév zrt"],"reference":{"key":"route","value":"light_rail"},"tags":{"network:wikidata":"Q723245","route":"light_rail","type":"route"},"addTags":{"network":"BHÉV","network:wikidata":"Q723245","operator":"MÁV-HÉV","operator:wikidata":"Q26722428","route":"light_rail","type":"route"}},"type/route/subway/budapestimetro-7f7842":{"name":"Budapesti metró","locationSet":{"include":["hu"]},"geometry":["relation"],"matchScore":2,"terms":["bkv","budapesti metró"],"reference":{"key":"route","value":"subway"},"tags":{"network:wikidata":"Q211044","route":"subway","type":"route"},"addTags":{"network":"Budapesti metró","network:wikidata":"Q211044","operator":"BKV","operator:wikidata":"Q745664","route":"subway","type":"route"}},"type/route/train/eurocity-6b9d23":{"name":"EuroCity","locationSet":{"include":["by","bg","cz","hu","pl","md","ro","ru","sk","ua","ax","gg","je","cq","dk","ee","fo","fi","is","ie","im","lv","lt","no","sj","se","gb","al","ad","ba","hr","gi","gr","va","it","mt","me","mk","pt","sm","rs","si","es","xk","at","be","fr","de","li","lu","mc","nl","ch"]},"geometry":["relation"],"matchScore":2,"terms":["eurocity"],"reference":{"key":"route","value":"train"},"tags":{"network:wikidata":"Q753050","route":"train","type":"route"},"addTags":{"network":"EuroCity","network:wikidata":"Q753050","route":"train","type":"route"}},"type/route/train/euronight-6b9d23":{"name":"EuroNight","locationSet":{"include":["by","bg","cz","hu","pl","md","ro","ru","sk","ua","ax","gg","je","cq","dk","ee","fo","fi","is","ie","im","lv","lt","no","sj","se","gb","al","ad","ba","hr","gi","gr","va","it","mt","me","mk","pt","sm","rs","si","es","xk","at","be","fr","de","li","lu","mc","nl","ch"]},"geometry":["relation"],"matchScore":2,"terms":["euronight"],"reference":{"key":"route","value":"train"},"tags":{"network:wikidata":"Q257307","route":"train","type":"route"},"addTags":{"network":"EuroNight","network:wikidata":"Q257307","route":"train","type":"route"}},"type/route/train/vor-5316b2":{"name":"VOR","locationSet":{"include":["at","cz","hu","sk"]},"geometry":["relation"],"matchScore":2,"terms":["vor"],"reference":{"key":"route","value":"train"},"tags":{"network:wikidata":"Q2516485","route":"train","type":"route"},"addTags":{"network":"VOR","network:wikidata":"Q2516485","route":"train","type":"route"}},"type/route/trolleybus/szeged-c2505f":{"name":"Szeged","locationSet":{"include":["hu"]},"geometry":["relation"],"matchScore":2,"terms":["szeged","szegedi közlekedési társaság"],"reference":{"key":"route","value":"trolleybus"},"tags":{"network:wikidata":"Q720449","route":"trolleybus","type":"route"},"addTags":{"network":"Szeged","network:wikidata":"Q720449","operator":"Szegedi Közlekedési Társaság","operator:wikidata":"Q1295391","route":"trolleybus","type":"route"}}}