{"amenity/atm/bnpparibas-6b438a":{"name":"BNP Paribas","locationSet":{"include":["ae","af","ar","at","bf","bg","bh","br","ca","ch","ci","cl","co","cz","de","dk","dz","es","fi","fr","gb","gf","gp","hu","ie","il","it","kw","lu","ma","ml","mq","mx","nl","no","pe","pt","qa","re","ro","ru","sa","se","sk","sn","tn","tr","us"]},"geometry":["point","vertex"],"matchScore":2,"terms":["bnp paribas"],"fields":["name","brand","{amenity/atm}"],"tags":{"amenity":"atm","brand:wikidata":"Q499707"},"addTags":{"amenity":"atm","brand":"BNP Paribas","brand:wikidata":"Q499707","operator":"BNP Paribas","operator:wikidata":"Q499707"}},"amenity/atm/ceskasporitelna-767782":{"name":"Česká spořitelna","locationSet":{"include":["cz"]},"geometry":["point","vertex"],"matchScore":2,"terms":["česká spořitelna"],"fields":["name","brand","{amenity/atm}"],"tags":{"amenity":"atm","brand:wikidata":"Q341100"},"addTags":{"amenity":"atm","brand":"Česká spořitelna","brand:wikidata":"Q341100","operator":"Česká spořitelna","operator:wikidata":"Q341100"}},"amenity/atm/csob-58e2e6":{"name":"ČSOB","locationSet":{"include":["cz","sk"]},"geometry":["point","vertex"],"matchScore":2,"terms":["čsob"],"fields":["name","brand","{amenity/atm}"],"tags":{"amenity":"atm","brand:wikidata":"Q340135"},"addTags":{"amenity":"atm","brand":"ČSOB","brand:wikidata":"Q340135","operator":"ČSOB","operator:wikidata":"Q340135"}},"amenity/atm/fiobanka-58e2e6":{"name":"Fio banka","locationSet":{"include":["cz","sk"]},"geometry":["point","vertex"],"matchScore":2,"terms":["fio banka"],"fields":["name","brand","{amenity/atm}"],"tags":{"amenity":"atm","brand:wikidata":"Q12016657"},"addTags":{"amenity":"atm","brand":"Fio banka","brand:wikidata":"Q12016657","operator":"Fio banka","operator:wikidata":"Q12016657"}},"amenity/atm/jandtbanka-58e2e6":{"name":"J&T Banka","locationSet":{"include":["cz","sk"]},"geometry":["point","vertex"],"matchScore":2,"terms":["j&t banka"],"fields":["name","brand","{amenity/atm}"],"tags":{"amenity":"atm","brand:wikidata":"Q12022160"},"addTags":{"amenity":"atm","brand":"J&T Banka","brand:wikidata":"Q12022160","operator":"J&T Banka","operator:wikidata":"Q12022160"}},"amenity/atm/komercnibanka-767782":{"name":"Komerční banka","locationSet":{"include":["cz"]},"geometry":["point","vertex"],"matchScore":2,"terms":["komerční banka"],"fields":["name","brand","{amenity/atm}"],"tags":{"amenity":"atm","brand:wikidata":"Q1541079"},"addTags":{"amenity":"atm","brand":"Komerční banka","brand:wikidata":"Q1541079","operator":"Komerční banka","operator:wikidata":"Q1541079"}},"amenity/atm/mbank-ede12f":{"name":"mBank (Europe)","locationSet":{"include":["cz","pl","sk"]},"geometry":["point","vertex"],"matchScore":2,"terms":["mbank"],"fields":["name","brand","{amenity/atm}"],"tags":{"amenity":"atm","brand:wikidata":"Q1160928"},"addTags":{"amenity":"atm","brand":"mBank","brand:wikidata":"Q1160928","operator":"mBank","operator:wikidata":"Q1160928"}},"amenity/atm/monetamoneybank-767782":{"name":"MONETA Money Bank","locationSet":{"include":["cz"]},"geometry":["point","vertex"],"matchScore":2,"terms":["moneta money bank"],"fields":["name","brand","{amenity/atm}"],"tags":{"amenity":"atm","brand:wikidata":"Q24282966"},"addTags":{"amenity":"atm","brand":"MONETA Money Bank","brand:wikidata":"Q24282966","operator":"MONETA Money Bank","operator:wikidata":"Q24282966"}},"amenity/atm/oberbank-54e4c0":{"name":"Oberbank","locationSet":{"include":["at","cz","de","hu","sk"]},"geometry":["point","vertex"],"matchScore":2,"terms":["oberbank"],"fields":["name","brand","{amenity/atm}"],"tags":{"amenity":"atm","brand:wikidata":"Q2009139"},"addTags":{"amenity":"atm","brand":"Oberbank","brand:wikidata":"Q2009139","operator":"Oberbank","operator:wikidata":"Q2009139"}},"amenity/atm/raiffeisenbank-767782":{"name":"Raiffeisenbank (Czech Republic)","locationSet":{"include":["cz"]},"geometry":["point","vertex"],"matchScore":2,"terms":["raiffeisen","raiffeisenbank","raiffeisenkasse"],"fields":["name","brand","{amenity/atm}"],"tags":{"amenity":"atm","brand:wikidata":"Q24282825"},"addTags":{"amenity":"atm","brand":"Raiffeisenbank","brand:wikidata":"Q24282825","operator":"Raiffeisenbank","operator:wikidata":"Q24282825"}},"amenity/atm/unicreditbank-3ecec5":{"name":"UniCredit Bank","locationSet":{"include":["ba","cz","hu","it","ro","rs","ru","si","sk"]},"geometry":["point","vertex"],"matchScore":2,"terms":["unicredit","unicredit banca","unicredit bank","unicredit s.p.a."],"fields":["name","brand","{amenity/atm}"],"tags":{"amenity":"atm","brand:wikidata":"Q45568"},"addTags":{"amenity":"atm","brand":"UniCredit Bank","brand:wikidata":"Q45568","operator":"UniCredit Bank","operator:wikidata":"Q45568"}},"amenity/bank/bnpparibas-42efac":{"name":"BNP Paribas","locationSet":{"include":["ae","af","ar","at","bf","bg","bh","br","ca","ch","ci","cl","co","cz","de","dk","dz","es","fi","fr","gb","gf","gp","hu","ie","il","it","kw","lu","ma","ml","mq","mx","nl","no","pe","pt","qa","re","ro","ru","sa","se","sk","sn","tn","tr","us"]},"geometry":["point","area"],"matchScore":2,"terms":["bnp paribas"],"tags":{"amenity":"bank","brand:wikidata":"Q499707"},"addTags":{"amenity":"bank","brand":"BNP Paribas","brand:wikidata":"Q499707","name":"BNP Paribas"}},"amenity/bank/ceskasporitelna-7d13c0":{"name":"Česká spořitelna","locationSet":{"include":["cz"]},"geometry":["point","area"],"matchScore":2,"terms":["česká spořitelna"],"tags":{"amenity":"bank","brand:wikidata":"Q341100"},"addTags":{"amenity":"bank","brand":"Česká spořitelna","brand:wikidata":"Q341100","name":"Česká spořitelna"}},"amenity/bank/csob-dde967":{"name":"ČSOB","locationSet":{"include":["cz","sk"]},"geometry":["point","area"],"matchScore":2,"terms":["čsob"],"tags":{"amenity":"bank","brand:wikidata":"Q340135"},"addTags":{"amenity":"bank","brand":"ČSOB","brand:wikidata":"Q340135","name":"ČSOB"}},"amenity/bank/fiobanka-dde967":{"name":"Fio banka","locationSet":{"include":["cz","sk"]},"geometry":["point","area"],"matchScore":2,"terms":["fio banka"],"tags":{"amenity":"bank","brand:wikidata":"Q12016657"},"addTags":{"amenity":"bank","brand":"Fio banka","brand:wikidata":"Q12016657","name":"Fio banka"}},"amenity/bank/jandtbanka-dde967":{"name":"J&T Banka","locationSet":{"include":["cz","sk"]},"geometry":["point","area"],"matchScore":2,"terms":["j&t banka"],"tags":{"amenity":"bank","brand:wikidata":"Q12022160"},"addTags":{"amenity":"bank","brand":"J&T Banka","brand:wikidata":"Q12022160","name":"J&T Banka"}},"amenity/bank/komercnibanka-7d13c0":{"name":"Komerční banka","locationSet":{"include":["cz"]},"geometry":["point","area"],"matchScore":2,"terms":["komerční banka"],"tags":{"amenity":"bank","brand:wikidata":"Q1541079"},"addTags":{"amenity":"bank","brand":"Komerční banka","brand:wikidata":"Q1541079","name":"Komerční banka"}},"amenity/bank/mbank-b95c32":{"name":"mBank (Europe)","locationSet":{"include":["cz","pl","sk"]},"geometry":["point","area"],"matchScore":2,"terms":["mbank"],"tags":{"amenity":"bank","brand:wikidata":"Q1160928"},"addTags":{"amenity":"bank","brand":"mBank","brand:wikidata":"Q1160928","name":"mBank"}},"amenity/bank/monetamoneybank-7d13c0":{"name":"MONETA Money Bank","locationSet":{"include":["cz"]},"geometry":["point","area"],"matchScore":2,"terms":["moneta money bank"],"tags":{"amenity":"bank","brand:wikidata":"Q24282966"},"addTags":{"amenity":"bank","brand":"MONETA Money Bank","brand:wikidata":"Q24282966","name":"MONETA Money Bank"}},"amenity/bank/oberbank-f71288":{"name":"Oberbank","locationSet":{"include":["at","cz","de","hu","sk"]},"geometry":["point","area"],"matchScore":2,"terms":["oberbank"],"tags":{"amenity":"bank","brand:wikidata":"Q2009139"},"addTags":{"amenity":"bank","brand":"Oberbank","brand:wikidata":"Q2009139","name":"Oberbank"}},"amenity/bank/raiffeisenbank-7d13c0":{"name":"Raiffeisenbank (Czech Republic)","locationSet":{"include":["cz"]},"geometry":["point","area"],"matchScore":2,"terms":["raiffeisen","raiffeisenbank","raiffeisenkasse"],"tags":{"amenity":"bank","brand:wikidata":"Q24282825"},"addTags":{"amenity":"bank","brand":"Raiffeisenbank","brand:wikidata":"Q24282825","name":"Raiffeisenbank"}},"amenity/bank/unicreditbank-ff6e1c":{"name":"UniCredit Bank","locationSet":{"include":["ba","cz","hu","it","ro","rs","ru","si","sk"]},"geometry":["point","area"],"matchScore":2,"terms":["unicredit","unicredit banca","unicredit bank","unicredit s.p.a."],"tags":{"amenity":"bank","brand:wikidata":"Q45568"},"addTags":{"amenity":"bank","brand":"UniCredit Bank","brand:wikidata":"Q45568","name":"UniCredit Bank"}},"amenity/cafe/coffee_shop/juliusmeinl-d9fed5":{"name":"Julius Meinl","locationSet":{"include":["ae","at","ba","bg","cz","de","fx","hr","hu","it","md","pl","ro","rs","si","sk","tr","us"]},"geometry":["point","area"],"matchScore":2,"terms":["julius meinl"],"reference":{"key":"cuisine","value":"coffee_shop"},"tags":{"amenity":"cafe","brand:wikidata":"Q670154","cuisine":"coffee_shop"},"addTags":{"amenity":"cafe","brand":"Julius Meinl","brand:wikidata":"Q670154","cuisine":"coffee_shop","name":"Julius Meinl","takeaway":"yes"}},"amenity/car_wash/slovnaft-9d2a81":{"name":"Slovnaft","locationSet":{"include":["cz","pl","sk"]},"geometry":["point","area"],"matchScore":2,"terms":["slovnaft"],"tags":{"amenity":"car_wash","brand:wikidata":"Q1587563"},"addTags":{"amenity":"car_wash","brand":"Slovnaft","brand:wikidata":"Q1587563","name":"Slovnaft"}},"amenity/casino/bancocasino-efca36":{"name":"BANCO CASINO","locationSet":{"include":["cz","sk"]},"geometry":["point","area"],"matchScore":2,"terms":["banco casino"],"tags":{"amenity":"casino","brand:wikidata":"Q58555038"},"addTags":{"amenity":"casino","brand":"BANCO CASINO","brand:wikidata":"Q58555038","name":"BANCO CASINO"}},"amenity/charging_station/ionity-b625d6":{"name":"Ionity","locationSet":{"include":["by","bg","cz","hu","pl","md","ro","ru","sk","ua","ax","gg","je","cq","dk","ee","fo","fi","is","ie","im","lv","lt","no","sj","se","gb","al","ad","ba","hr","gi","gr","va","it","mt","me","mk","pt","sm","rs","si","es","xk","at","be","fr","de","li","lu","mc","nl","ch"]},"geometry":["point","vertex","area"],"matchScore":2,"terms":["ionity","ionity gmbh"],"fields":["name","brand","{amenity/charging_station}"],"tags":{"amenity":"charging_station","brand:wikidata":"Q42717773"},"addTags":{"amenity":"charging_station","brand":"Ionity","brand:wikidata":"Q42717773"}},"amenity/cinema/cinemacity-2b5fb2":{"name":"Cinema City","locationSet":{"include":["bg","cz","hu","pl","ro","sk"]},"geometry":["point","area"],"matchScore":2,"terms":["cinema city"],"fields":["name","brand","{amenity/cinema}"],"tags":{"amenity":"cinema","brand:wikidata":"Q543651"},"addTags":{"amenity":"cinema","brand":"Cinema City","brand:wikidata":"Q543651","name":"Cinema City"}},"amenity/cinema/cinestar-a7029a":{"name":"CineStar","locationSet":{"include":["ba","cz","de","hr","it","rs"]},"geometry":["point","area"],"matchScore":2,"terms":["cinestar"],"fields":["name","brand","{amenity/cinema}"],"tags":{"amenity":"cinema","brand:wikidata":"Q321889"},"addTags":{"amenity":"cinema","brand":"CineStar","brand:wikidata":"Q321889","name":"CineStar"}},"amenity/fast_food/sandwich/bageterieboulevard-57c7d8":{"name":"Bageterie Boulevard","locationSet":{"include":["ae","cz","de","sk"]},"geometry":["point","area"],"matchScore":2,"terms":["bageterie boulevard"],"reference":{"key":"cuisine","value":"sandwich"},"tags":{"amenity":"fast_food","brand:wikidata":"Q10859823","cuisine":"sandwich"},"addTags":{"amenity":"fast_food","brand":"Bageterie Boulevard","brand:wikidata":"Q10859823","cuisine":"sandwich","name":"Bageterie Boulevard","takeaway":"yes"}},"amenity/fast_food/nordsee-db642f":{"name":"Nordsee","locationSet":{"include":["at","ch","cz","de","sk"]},"geometry":["point","area"],"matchScore":2,"terms":["nordsee"],"tags":{"amenity":"fast_food","brand:wikidata":"Q74866"},"addTags":{"amenity":"fast_food","brand":"Nordsee","brand:wikidata":"Q74866","cuisine":"seafood","name":"Nordsee","takeaway":"yes"}},"amenity/fast_food/sandwich/panos-f9b8a7":{"name":"Panos","locationSet":{"include":["ae","be","cz","nl","sk","tw"]},"geometry":["point","area"],"matchScore":2,"terms":["panos"],"reference":{"key":"cuisine","value":"sandwich"},"tags":{"amenity":"fast_food","brand:wikidata":"Q3384496","cuisine":"sandwich"},"addTags":{"amenity":"fast_food","brand":"Panos","brand:wikidata":"Q3384496","cuisine":"sandwich","name":"Panos","takeaway":"yes"}},"amenity/fast_food/juice/ugo-9b6fa9":{"name":"UGO","locationSet":{"include":["cz","sk"]},"geometry":["point","area"],"matchScore":2,"terms":["ugo"],"reference":{"key":"cuisine","value":"juice"},"tags":{"amenity":"fast_food","brand:wikidata":"Q108126892","cuisine":"juice"},"addTags":{"amenity":"fast_food","brand":"UGO","brand:wikidata":"Q108126892","cuisine":"juice","name":"UGO","takeaway":"yes"}},"amenity/fuel/as24-3463db":{"name":"AS 24","locationSet":{"include":["at","be","bg","cz","de","dk","es","fr","gb","ge","gr","hr","hu","ie","it","lt","lu","mk","nl","pl","pt","ro","rs","se","si","sk","ua"]},"geometry":["point","area"],"matchScore":2,"terms":["as 24"],"fields":["name","brand","{amenity/fuel}"],"tags":{"amenity":"fuel","brand:wikidata":"Q2819394"},"addTags":{"amenity":"fuel","brand":"AS 24","brand:wikidata":"Q2819394","hgv":"only","name":"AS 24"}},"amenity/fuel/auchan-fcb99f":{"name":"Auchan","locationSet":{"include":["al","ad","ba","hr","gi","gr","va","it","mt","me","mk","pt","sm","rs","si","es","xk","by","bg","cz","hu","pl","md","ro","ru","sk","ua","at","be","fr","de","li","lu","mc","nl","ch"]},"geometry":["point","area"],"matchScore":2,"terms":["auchan"],"fields":["name","brand","{amenity/fuel}"],"tags":{"amenity":"fuel","brand:wikidata":"Q758603"},"addTags":{"amenity":"fuel","brand":"Auchan","brand:wikidata":"Q758603","name":"Auchan"}},"amenity/fuel/avia-e0aaf8":{"name":"Avia","locationSet":{"include":["at","be","bg","ch","cz","de","es","fr","hu","it","nl","pl","pt","rs","ua"]},"geometry":["point","area"],"matchScore":2,"terms":["avia","station avia"],"fields":["name","brand","{amenity/fuel}"],"tags":{"amenity":"fuel","brand:wikidata":"Q300147"},"addTags":{"amenity":"fuel","brand":"Avia","brand:wikidata":"Q300147","name":"Avia"}},"amenity/fuel/benzina-5f489f":{"name":"Benzina","locationSet":{"include":["cz","sk"]},"geometry":["point","area"],"matchScore":2,"terms":["benzina"],"fields":["name","brand","{amenity/fuel}"],"tags":{"amenity":"fuel","brand:wikidata":"Q11130894"},"addTags":{"amenity":"fuel","brand":"Benzina","brand:wikidata":"Q11130894","name":"Benzina"}},"amenity/fuel/slovnaft-d7c78f":{"name":"Slovnaft","locationSet":{"include":["cz","pl","sk"]},"geometry":["point","area"],"matchScore":2,"terms":["slovnaft"],"fields":["name","brand","{amenity/fuel}"],"tags":{"amenity":"fuel","brand:wikidata":"Q1587563"},"addTags":{"amenity":"fuel","brand":"Slovnaft","brand:wikidata":"Q1587563","name":"Slovnaft"}},"amenity/fuel/tamautohof-5f489f":{"name":"TAM Autohof","locationSet":{"include":["cz","sk"]},"geometry":["point","area"],"matchScore":2,"terms":["tam autohof"],"fields":["name","brand","{amenity/fuel}"],"tags":{"amenity":"fuel","brand:wikidata":"Q96138528"},"addTags":{"amenity":"fuel","brand":"TAM Autohof","brand:wikidata":"Q96138528","name":"TAM Autohof"}},"amenity/ice_cream/amorino-6cf168":{"name":"Amorino","locationSet":{"include":["ae","ch","cz","de","es","fr","gb","gr","ie","it","lu","ma","mt","mx","nc","pt","qa","re","us"]},"geometry":["point","area"],"matchScore":2,"terms":["amorino"],"tags":{"amenity":"ice_cream","brand:wikidata":"Q2843884"},"addTags":{"amenity":"ice_cream","brand":"Amorino","brand:wikidata":"Q2843884","name":"Amorino"}},"amenity/ice_cream/grom-48073a":{"name":"Grom","locationSet":{"include":["cn","cz","fr","gb","id","it","pt"]},"geometry":["point","area"],"matchScore":2,"terms":["grom","grom gelaterie artigianali","grom gelato"],"tags":{"amenity":"ice_cream","brand:wikidata":"Q3776892"},"addTags":{"amenity":"ice_cream","brand":"Grom","brand:wikidata":"Q3776892","cuisine":"ice_cream","name":"Grom","takeaway":"yes"}},"amenity/parcel_locker/alzabox-bee63b":{"name":"AlzaBox","locationSet":{"include":["at","cz","hu","sk"]},"geometry":["point","vertex","area"],"matchScore":2,"terms":["alzabox"],"fields":["name","brand","{amenity/parcel_locker}"],"reference":{"key":"amenity","value":"parcel_locker"},"tags":{"amenity":"parcel_locker","brand:wikidata":"Q10786832"},"addTags":{"amenity":"parcel_locker","brand":"AlzaBox","brand:wikidata":"Q10786832","name":"AlzaBox"}},"amenity/parcel_locker/balikomat-48c9bb":{"name":"Balíkomat","locationSet":{"include":["cz"]},"geometry":["point","vertex","area"],"matchScore":2,"terms":["balíkomat","česká pošta"],"fields":["name","brand","{amenity/parcel_locker}"],"reference":{"key":"amenity","value":"parcel_locker"},"tags":{"amenity":"parcel_locker","brand:wikidata":"Q110748952"},"addTags":{"amenity":"parcel_locker","brand":"Balíkomat","brand:wikidata":"Q110748952","name":"Balíkomat","operator":"Česká pošta","operator:wikidata":"Q341090","parcel_mail_in":"yes"}},"amenity/parcel_locker/zbox-5a86e9":{"name":"Packeta","locationSet":{"include":["by","bg","cz","hu","pl","md","ro","ru","sk","ua","ax","gg","je","cq","dk","ee","fo","fi","is","ie","im","lv","lt","no","sj","se","gb","al","ad","ba","hr","gi","gr","va","it","mt","me","mk","pt","sm","rs","si","es","xk","at","be","fr","de","li","lu","mc","nl","ch"]},"geometry":["point","vertex","area"],"matchScore":2,"terms":["packeta"],"fields":["name","brand","{amenity/parcel_locker}"],"reference":{"key":"amenity","value":"parcel_locker"},"tags":{"amenity":"parcel_locker","brand:wikidata":"Q67809905"},"addTags":{"amenity":"parcel_locker","brand":"Packeta","brand:wikidata":"Q67809905","name":"Z-Box"}},"amenity/pharmacy/benu-1cd44c":{"name":"Benu","locationSet":{"include":["ch","cz","ee","hu","lt","lv","me","nl","rs","sk"]},"geometry":["point","area"],"matchScore":2,"terms":["benu","benu apotheek","benu aptieka","benu vaistinė"],"reference":{"key":"amenity","value":"pharmacy"},"tags":{"amenity":"pharmacy","brand:wikidata":"Q62562792"},"addTags":{"amenity":"pharmacy","brand":"Benu","brand:wikidata":"Q62562792","healthcare":"pharmacy","name":"Benu"}},"amenity/pharmacy/drmax-d40f7b":{"name":"Dr. Max","locationSet":{"include":["cz","it","pl","ro","rs","sk"]},"geometry":["point","area"],"matchScore":2,"terms":["dr. max"],"reference":{"key":"amenity","value":"pharmacy"},"tags":{"amenity":"pharmacy","brand:wikidata":"Q56317371"},"addTags":{"amenity":"pharmacy","brand":"Dr. Max","brand:wikidata":"Q56317371","healthcare":"pharmacy","name":"Dr. Max"}},"amenity/restaurant/italian/losteria-454d96":{"name":"L'Osteria","locationSet":{"include":["at","ch","cz","de","fr","gb","nl"]},"geometry":["point","area"],"matchScore":2,"terms":["l'osteria"],"reference":{"key":"cuisine","value":"italian"},"tags":{"amenity":"restaurant","brand:wikidata":"Q17323478","cuisine":"italian"},"addTags":{"amenity":"restaurant","brand":"L'Osteria","brand:wikidata":"Q17323478","cuisine":"italian","name":"L'Osteria"}},"amenity/social_centre/ahepahall-30ca27":{"name":"AHEPA Hall","locationSet":{"include":["by","bg","cz","hu","pl","md","ro","ru","sk","ua","ax","gg","je","cq","dk","ee","fo","fi","is","ie","im","lv","lt","no","sj","se","gb","al","ad","ba","hr","gi","gr","va","it","mt","me","mk","pt","sm","rs","si","es","xk","at","be","fr","de","li","lu","mc","nl","ch","au","ca","cy","us"],"exclude":["ru"]},"geometry":["point","area"],"matchScore":2,"terms":["ahepa","american hellenic educational progressive association","the order of ahepa"],"fields":["name","brand","{amenity/social_centre}"],"tags":{"amenity":"social_centre","brand:wikidata":"Q4743973"},"addTags":{"amenity":"social_centre","brand":"AHEPA","brand:wikidata":"Q4743973","name":"AHEPA Hall"}},"amenity/vending_machine/bicycle_tube/continental-123edb":{"name":"Continental","locationSet":{"include":["by","bg","cz","hu","pl","md","ro","ru","sk","ua","ax","gg","je","cq","dk","ee","fo","fi","is","ie","im","lv","lt","no","sj","se","gb","al","ad","ba","hr","gi","gr","va","it","mt","me","mk","pt","sm","rs","si","es","xk","at","be","fr","de","li","lu","mc","nl","ch"]},"geometry":["point","vertex"],"matchScore":2,"terms":["continental"],"reference":{"key":"vending","value":"bicycle_tube"},"tags":{"amenity":"vending_machine","brand:wikidata":"Q64739247","vending":"bicycle_tube"},"addTags":{"amenity":"vending_machine","brand":"Continental","brand:wikidata":"Q64739247","name":"Continental","vending":"bicycle_tube"}},"amenity/vending_machine/bicycle_tube/schwalbe-123edb":{"name":"Schwalbe","locationSet":{"include":["by","bg","cz","hu","pl","md","ro","ru","sk","ua","ax","gg","je","cq","dk","ee","fo","fi","is","ie","im","lv","lt","no","sj","se","gb","al","ad","ba","hr","gi","gr","va","it","mt","me","mk","pt","sm","rs","si","es","xk","at","be","fr","de","li","lu","mc","nl","ch"]},"geometry":["point","vertex"],"matchScore":2,"terms":["schwalbe"],"reference":{"key":"vending","value":"bicycle_tube"},"tags":{"amenity":"vending_machine","brand:wikidata":"Q1312213","vending":"bicycle_tube"},"addTags":{"amenity":"vending_machine","brand":"Schwalbe","brand:wikidata":"Q1312213","name":"Schwalbe","vending":"bicycle_tube"}},"craft/electronics_repair/pcexpres-96c0e5":{"name":"PCexpres","locationSet":{"include":["cz","sk"]},"geometry":["point","area"],"matchScore":2,"terms":["expres opravy","pc express","pcexpres"],"tags":{"brand:wikidata":"Q116867808","craft":"electronics_repair"},"addTags":{"brand":"PCexpres","brand:wikidata":"Q116867808","craft":"electronics_repair","electronics_repair":"computer;appliance;phone","name":"PCexpres","name:cs":"expres opravy","name:sk":"PCexpres"}},"leisure/fitness_centre/fitinn-48d938":{"name":"FITINN","locationSet":{"include":["by","bg","cz","hu","pl","md","ro","ru","sk","ua","ax","gg","je","cq","dk","ee","fo","fi","is","ie","im","lv","lt","no","sj","se","gb","al","ad","ba","hr","gi","gr","va","it","mt","me","mk","pt","sm","rs","si","es","xk","at","be","fr","de","li","lu","mc","nl","ch"]},"geometry":["point","area"],"matchScore":2,"terms":["fitinn"],"tags":{"brand:wikidata":"Q1245564","leisure":"fitness_centre"},"addTags":{"brand":"FITINN","brand:wikidata":"Q1245564","leisure":"fitness_centre","name":"FITINN"}},"leisure/fitness_centre/holmesplace-901199":{"name":"Holmes Place","locationSet":{"include":["by","bg","cz","hu","pl","md","ro","ru","sk","ua","ax","gg","je","cq","dk","ee","fo","fi","is","ie","im","lv","lt","no","sj","se","gb","al","ad","ba","hr","gi","gr","va","it","mt","me","mk","pt","sm","rs","si","es","xk","at","be","fr","de","li","lu","mc","nl","ch","il"]},"geometry":["point","area"],"matchScore":2,"terms":["holmes place"],"tags":{"brand:wikidata":"Q15815819","leisure":"fitness_centre"},"addTags":{"brand":"Holmes Place","brand:wikidata":"Q15815819","leisure":"fitness_centre","name":"Holmes Place"}},"office/estate_agent/vonpollrealestate-c99072":{"name":"von Poll Real Estate","locationSet":{"include":["by","bg","cz","hu","pl","md","ro","ru","sk","ua","ax","gg","je","cq","dk","ee","fo","fi","is","ie","im","lv","lt","no","sj","se","gb","al","ad","ba","hr","gi","gr","va","it","mt","me","mk","pt","sm","rs","si","es","xk","at","be","fr","de","li","lu","mc","nl","ch"],"exclude":["at","de"]},"geometry":["point","area"],"matchScore":2,"terms":["von poll immobilien","von poll real estate","vonpoll","vonpoll commercial"],"tags":{"brand:wikidata":"Q96026696","office":"estate_agent"},"addTags":{"brand":"von Poll Real Estate","brand:wikidata":"Q96026696","name":"von Poll Real Estate","office":"estate_agent"}},"office/insurance/allianz-332499":{"name":"Allianz","locationSet":{"include":["ae","ar","at","au","be","bg","bh","bm","bn","br","ca","cg","ch","ci","cm","cn","co","cy","cz","de","dk","ee","eg","es","fi","fr","gb","gf","gg","gh","gp","gr","hk","hr","hu","id","ie","in","is","it","ja","ke","kr","kw","la","li","lk","lt","lu","lv","ma","mg","mx","my","ng","nl","no","nz","om","ph","pk","pl","pt","qa","ro","ru","sa","se","sg","si","sk","sn","th","tr","tw","ua","us","za"]},"geometry":["point","area"],"matchScore":2,"terms":["allianz"],"fields":["name","brand","{office/insurance}"],"tags":{"brand:wikidata":"Q487292","office":"insurance"},"addTags":{"brand":"Allianz","brand:wikidata":"Q487292","name":"Allianz","office":"insurance"}},"office/insurance/axa-2e7672":{"name":"AXA","locationSet":{"include":["ae","ar","au","be","bh","bm","br","ca","ch","ci","cl","cm","cn","co","cz","de","dk","dz","eg","es","fi","fr","ga","gb","gr","hk","id","ie","in","it","jp","kr","lb","lu","ma","mu","mx","my","ng","nl","no","om","pa","pe","ph","pl","pt","qa","sa","se","sg","sk","sn","th","tr","tw","us"]},"geometry":["point","area"],"matchScore":2,"terms":["axa"],"fields":["name","brand","{office/insurance}"],"tags":{"brand:wikidata":"Q160054","office":"insurance"},"addTags":{"brand":"AXA","brand:wikidata":"Q160054","name":"AXA","office":"insurance"}},"office/insurance/ergo-38191f":{"name":"Ergo","locationSet":{"include":["at","be","ch","cn","cz","de","dk","ee","es","fr","gb","gr","hu","in","it","kr","lt","lu","lv","nl","pl","se","sg","th"]},"geometry":["point","area"],"matchScore":2,"terms":["ergo","ergo direkt","ergo direktversicherung","ergo versicherung"],"fields":["name","brand","{office/insurance}"],"tags":{"brand:wikidata":"Q541909","office":"insurance"},"addTags":{"brand":"Ergo","brand:wikidata":"Q541909","name":"Ergo","office":"insurance"}},"office/insurance/generali-cb13d1":{"name":"Generali","locationSet":{"include":["ar","at","bg","br","ch","cl","cn","cz","de","es","fr","gr","hr","hu","id","in","it","me","my","ph","pl","pt","ro","rs","si","sk","tr","vn"]},"geometry":["point","area"],"matchScore":2,"terms":["generali"],"fields":["name","brand","{office/insurance}"],"tags":{"brand:wikidata":"Q670482","office":"insurance"},"addTags":{"brand":"Generali","brand:wikidata":"Q670482","name":"Generali","office":"insurance"}},"office/insurance/kooperativa-98fcf6":{"name":"Kooperativa","locationSet":{"include":["cz","sk"]},"geometry":["point","area"],"matchScore":2,"terms":["kooperativa"],"fields":["name","brand","{office/insurance}"],"tags":{"brand:wikidata":"Q16742113","office":"insurance"},"addTags":{"brand":"Kooperativa","brand:wikidata":"Q16742113","name":"Kooperativa","office":"insurance"}},"office/insurance/nn-336e34":{"name":"NN","locationSet":{"include":["by","bg","cz","hu","pl","md","ro","ru","sk","ua","ax","gg","je","cq","dk","ee","fo","fi","is","ie","im","lv","lt","no","sj","se","gb","al","ad","ba","hr","gi","gr","va","it","mt","me","mk","pt","sm","rs","si","es","xk","at","be","fr","de","li","lu","mc","nl","ch"]},"geometry":["point","area"],"matchScore":2,"terms":["nationale-nederlanden","nn"],"fields":["name","brand","{office/insurance}"],"tags":{"brand:wikidata":"Q1834291","office":"insurance"},"addTags":{"brand":"NN","brand:wikidata":"Q1834291","name":"NN","office":"insurance","official_name":"Nationale-Nederlanden"}},"office/insurance/swisslife-aab9d2":{"name":"Swiss Life","locationSet":{"include":["at","ch","cz","de","fr","gb","sk"]},"geometry":["point","area"],"matchScore":2,"terms":["swiss life"],"fields":["name","brand","{office/insurance}"],"tags":{"brand:wikidata":"Q667350","office":"insurance"},"addTags":{"brand":"Swiss Life","brand:wikidata":"Q667350","name":"Swiss Life","office":"insurance"}},"office/insurance/uniqa-dc7360":{"name":"Uniqa","locationSet":{"include":["al","at","ba","bg","ch","cz","hr","hu","li","me","mk","pl","ro","rs","ru","sk","ua","xk"]},"geometry":["point","area"],"matchScore":2,"terms":["uniqa"],"fields":["name","brand","{office/insurance}"],"tags":{"brand:wikidata":"Q1022419","office":"insurance"},"addTags":{"brand":"Uniqa","brand:wikidata":"Q1022419","name":"Uniqa","office":"insurance"}},"office/insurance/wustenrot-6f527a":{"name":"Wüstenrot","locationSet":{"include":["at","cz","de","sk"]},"geometry":["point","area"],"matchScore":2,"terms":["wüstenrot"],"fields":["name","brand","{office/insurance}"],"tags":{"brand:wikidata":"Q2597123","office":"insurance"},"addTags":{"brand":"Wüstenrot","brand:wikidata":"Q2597123","name":"Wüstenrot","office":"insurance"}},"shop/bag/larabags-f2ddb9":{"name":"LARA BAGS","locationSet":{"include":["cz","sk"]},"geometry":["point","area"],"matchScore":2,"terms":["lara bags"],"tags":{"brand:wikidata":"Q116737805","shop":"bag"},"addTags":{"brand":"LARA BAGS","brand:wikidata":"Q116737805","name":"LARA BAGS","shop":"bag"}},"shop/bakery/fornetti-0c6f37":{"name":"Fornetti","locationSet":{"include":["bg","cz","hr","hu","md","pl","ro","sk","ua"]},"geometry":["point","area"],"matchScore":2,"terms":["fornetti"],"tags":{"brand:wikidata":"Q1003020","shop":"bakery"},"addTags":{"brand":"Fornetti","brand:wikidata":"Q1003020","name":"Fornetti","shop":"bakery"}},"shop/bakery/paul-652955":{"name":"Paul","locationSet":{"include":["ae","az","be","bh","by","ci","cy","cz","eg","es","fr","ga","gb","ge","gr","id","in","jo","jp","kw","kz","lb","lu","ma","mu","my","om","pa","ph","pl","pt","qa","ro","ru","sa","sg","th","tn","tw","ua","us","uz","vn","za"]},"geometry":["point","area"],"matchScore":2,"terms":["paul"],"tags":{"brand:wikidata":"Q3370417","shop":"bakery"},"addTags":{"brand":"Paul","brand:wikidata":"Q3370417","name":"Paul","shop":"bakery"}},"shop/bookmaker/fortuna-70887d":{"name":"Fortuna","locationSet":{"include":["cz","hr","pl","ro","sk"]},"geometry":["point","area"],"matchScore":2,"terms":["fortuna"],"tags":{"brand:wikidata":"Q25857973","shop":"bookmaker"},"addTags":{"brand":"Fortuna","brand:wikidata":"Q25857973","name":"Fortuna","shop":"bookmaker"}},"shop/bookmaker/tipsport-d9567a":{"name":"Tipsport","locationSet":{"include":["cz","sk"]},"geometry":["point","area"],"matchScore":2,"terms":["tipsport"],"tags":{"brand:wikidata":"Q7808973","shop":"bookmaker"},"addTags":{"brand":"Tipsport","brand:wikidata":"Q7808973","name":"Tipsport","shop":"bookmaker"}},"shop/car/smart-f30ed8":{"name":"Smart","locationSet":{"include":["by","bg","cz","hu","pl","md","ro","ru","sk","ua","ax","gg","je","cq","dk","ee","fo","fi","is","ie","im","lv","lt","no","sj","se","gb","al","ad","ba","hr","gi","gr","va","it","mt","me","mk","pt","sm","rs","si","es","xk","at","be","fr","de","li","lu","mc","nl","ch"]},"geometry":["point","area"],"matchScore":2,"terms":["smart"],"fields":["name","brand","{shop/car}"],"tags":{"brand:wikidata":"Q156490","shop":"car"},"addTags":{"brand":"Smart","brand:wikidata":"Q156490","name":"Smart","shop":"car"}},"shop/car_parts/intercars-a4b6c1":{"name":"Inter Cars","locationSet":{"include":["ba","bg","cz","ee","gr","hr","hu","it","la","lv","md","pl","ro","rs","si","sk","ua"]},"geometry":["point","area"],"matchScore":2,"terms":["inter cars"],"tags":{"brand:wikidata":"Q115922509","shop":"car_parts"},"addTags":{"brand":"Inter Cars","brand:wikidata":"Q115922509","name":"Inter Cars","shop":"car_parts"}},"shop/car_repair/bestdrive-9f6e1a":{"name":"BestDrive","locationSet":{"include":["cz","fr","sk"]},"geometry":["point","area"],"matchScore":2,"terms":["bestdrive"],"fields":["name","brand","{shop/car_repair}"],"tags":{"brand:wikidata":"Q63057183","shop":"car_repair"},"addTags":{"brand":"BestDrive","brand:wikidata":"Q63057183","name":"BestDrive","shop":"car_repair"}},"shop/car_repair/premio-354273":{"name":"Premio","locationSet":{"include":["be","bg","ch","cz","de","hu","nl","pl","ro","ru","sk"]},"geometry":["point","area"],"matchScore":2,"terms":["premio"],"fields":["name","brand","{shop/car_repair}"],"tags":{"brand:wikidata":"Q100895958","shop":"car_repair"},"addTags":{"brand":"Premio","brand:wikidata":"Q100895958","name":"Premio","shop":"car_repair"}},"shop/chemist/curaproxsmileshop-419e7d":{"name":"Curaprox Smile Shop","locationSet":{"include":["cz","sk"]},"geometry":["point","area"],"matchScore":2,"terms":["curaprox","curaprox smile shop"],"tags":{"brand:wikidata":"Q116868432","shop":"chemist"},"addTags":{"brand":"Curaprox Smile Shop","brand:wikidata":"Q116868432","name":"Curaprox Smile Shop","shop":"chemist","short_name":"Curaprox"}},"shop/chemist/dm-64e7ae":{"name":"dm","locationSet":{"include":["at","ba","bg","cz","de","hr","hu","it","mk","ro","rs","si","sk"]},"geometry":["point","area"],"matchScore":2,"terms":["dm","dm drogerie markt"],"tags":{"brand:wikidata":"Q266572","shop":"chemist"},"addTags":{"brand":"dm","brand:wikidata":"Q266572","name":"dm","shop":"chemist"}},"shop/chemist/rossmann-f4ddf3":{"name":"Rossmann","locationSet":{"include":["cz","de","hu","pl","tr"]},"geometry":["point","area"],"matchScore":2,"terms":["rossmann"],"tags":{"brand:wikidata":"Q316004","shop":"chemist"},"addTags":{"brand":"Rossmann","brand:wikidata":"Q316004","name":"Rossmann","shop":"chemist"}},"shop/chemist/teta-419e7d":{"name":"Teta","locationSet":{"include":["cz","sk"]},"geometry":["point","area"],"matchScore":2,"terms":["teta"],"tags":{"brand:wikidata":"Q20860823","shop":"chemist"},"addTags":{"brand":"Teta","brand:wikidata":"Q20860823","name":"Teta","shop":"chemist"}},"shop/chemist/topdrogerie-419e7d":{"name":"TOP Drogerie","locationSet":{"include":["cz","sk"]},"geometry":["point","area"],"matchScore":2,"terms":["top drogéria","top drogerie"],"tags":{"brand:wikidata":"Q93429821","shop":"chemist"},"addTags":{"brand":"TOP Drogerie","brand:wikidata":"Q93429821","name":"TOP Drogerie","name:sk":"TOP Drogéria","shop":"chemist"}},"shop/chocolate/jeffdebruges-d57ca4":{"name":"Jeff de Bruges","locationSet":{"include":["at","bg","ca","cz","de","ee","es","fr","gb","it","jo","lu","ma","om","pf","sa","sk","sn","tn"]},"geometry":["point","area"],"matchScore":2,"terms":["jeff de bruges"],"tags":{"brand:wikidata":"Q3176626","shop":"chocolate"},"addTags":{"brand":"Jeff de Bruges","brand:wikidata":"Q3176626","name":"Jeff de Bruges","shop":"chocolate"}},"shop/chocolate/leonidas-92a9fe":{"name":"Leonidas","locationSet":{"include":["be","cz","fr","gb","gr","nl","pt"]},"geometry":["point","area"],"matchScore":2,"terms":["leonidas"],"tags":{"brand:wikidata":"Q80335","shop":"chocolate"},"addTags":{"brand":"Leonidas","brand:wikidata":"Q80335","name":"Leonidas","shop":"chocolate"}},"shop/clothes/underwear/bepon-111ecf":{"name":"Bepon","locationSet":{"include":["cz","sk"]},"geometry":["point","area"],"matchScore":2,"terms":["bepon"],"reference":{"key":"clothes","value":"underwear"},"tags":{"brand:wikidata":"Q23766409","clothes":"underwear","shop":"clothes"},"addTags":{"brand":"Bepon","brand:wikidata":"Q23766409","clothes":"underwear","name":"Bepon","shop":"clothes"}},"shop/clothes/suits/blazek-111ecf":{"name":"Blažek","locationSet":{"include":["cz","sk"]},"geometry":["point","area"],"matchScore":2,"terms":["blažek"],"tags":{"brand:wikidata":"Q108064966","clothes":"suits","shop":"clothes"},"addTags":{"brand":"Blažek","brand:wikidata":"Q108064966","clothes":"suits","name":"Blažek","shop":"clothes"}},"shop/clothes/camaieu-1cb4e7":{"name":"Camaïeu","locationSet":{"include":["be","cz","fr","it","pl"]},"geometry":["point","area"],"matchScore":2,"terms":["camaïeu"],"searchable":false,"tags":{"brand:wikidata":"Q2934647","shop":"clothes"},"addTags":{"brand":"Camaïeu","brand:wikidata":"Q2934647","name":"Camaïeu","shop":"clothes"}},"shop/clothes/coccodrillo-571709":{"name":"Coccodrillo","locationSet":{"include":["at","bg","by","cz","de","ee","fi","hu","lt","lv","me","pl","ro","rs","ru","sk","ua"]},"geometry":["point","area"],"matchScore":2,"terms":["coccodrillo"],"tags":{"brand:wikidata":"Q9195224","shop":"clothes"},"addTags":{"brand":"Coccodrillo","brand:wikidata":"Q9195224","clothes":"children","name":"Coccodrillo","shop":"clothes"}},"shop/clothes/colloseum-3648e4":{"name":"Colloseum","locationSet":{"include":["at","cz","de","gr","lv","pl","ru","sk"]},"geometry":["point","area"],"matchScore":2,"terms":["colloseum"],"tags":{"brand:wikidata":"Q15794685","shop":"clothes"},"addTags":{"brand":"Colloseum","brand:wikidata":"Q15794685","name":"Colloseum","shop":"clothes"}},"shop/clothes/cropp-f09482":{"name":"Cropp","locationSet":{"include":["ba","bg","cz","ee","fi","hr","hu","kz","lt","lv","pl","ro","rs","ru","si","sk","ua"]},"geometry":["point","area"],"matchScore":2,"terms":["cropp"],"tags":{"brand:wikidata":"Q9196793","shop":"clothes"},"addTags":{"brand":"Cropp","brand:wikidata":"Q9196793","name":"Cropp","shop":"clothes"}},"shop/clothes/fusakle-111ecf":{"name":"Fusakle","locationSet":{"include":["cz","sk"]},"geometry":["point","area"],"matchScore":2,"terms":["fusakle"],"tags":{"brand:wikidata":"Q116729957","shop":"clothes"},"addTags":{"brand":"Fusakle","brand:wikidata":"Q116729957","clothes":"socks","name":"Fusakle","shop":"clothes"}},"shop/clothes/gate-d52ff8":{"name":"Gate","locationSet":{"include":["cz","hu","pl","ro","sk"]},"geometry":["point","area"],"matchScore":2,"terms":["gate"],"tags":{"brand:wikidata":"Q93517084","shop":"clothes"},"addTags":{"brand":"Gate","brand:wikidata":"Q93517084","name":"Gate","shop":"clothes"}},"shop/clothes/house-f09482":{"name":"House","locationSet":{"include":["ba","bg","cz","ee","fi","hr","hu","kz","lt","lv","pl","ro","rs","ru","si","sk","ua"]},"geometry":["point","area"],"matchScore":2,"terms":["house"],"tags":{"brand:wikidata":"Q9294202","shop":"clothes"},"addTags":{"brand":"House","brand:wikidata":"Q9294202","name":"House","shop":"clothes"}},"shop/clothes/kik-323dff":{"name":"KiK","locationSet":{"include":["at","bg","cz","de","es","hr","hu","it","nl","pl","pt","ro","si","sk"]},"geometry":["point","area"],"matchScore":2,"terms":["kik"],"tags":{"brand:wikidata":"Q883965","shop":"clothes"},"addTags":{"brand":"KiK","brand:wikidata":"Q883965","name":"KiK","shop":"clothes"}},"shop/clothes/letempsdescerises-137ac2":{"name":"Le Temps des Cerises","locationSet":{"include":["be","ch","cz","es","fr","lu","mg"]},"geometry":["point","area"],"matchScore":2,"terms":["le temps des cerises"],"tags":{"brand:wikidata":"Q3228558","shop":"clothes"},"addTags":{"brand":"Le Temps des Cerises","brand:wikidata":"Q3228558","name":"Le Temps des Cerises","shop":"clothes"}},"shop/clothes/lindex-d7f5c5":{"name":"Lindex","locationSet":{"include":["cz","ee","fi","no","se","sk"]},"geometry":["point","area"],"matchScore":2,"terms":["lindex"],"fields":["name","brand","{shop/clothes}"],"tags":{"brand:wikidata":"Q1786717","shop":"clothes"},"addTags":{"brand":"Lindex","brand:wikidata":"Q1786717","name":"Lindex","shop":"clothes"}},"shop/clothes/maje-99ba8f":{"name":"Maje","locationSet":{"include":["by","bg","cz","hu","pl","md","ro","ru","sk","ua","ax","gg","je","cq","dk","ee","fo","fi","is","ie","im","lv","lt","no","sj","se","gb","al","ad","ba","hr","gi","gr","va","it","mt","me","mk","pt","sm","rs","si","es","xk","at","be","fr","de","li","lu","mc","nl","ch","cn","hk","sg","tw","uk","us"]},"geometry":["point","area"],"matchScore":2,"terms":["maje"],"tags":{"brand:wikidata":"Q3280458","shop":"clothes"},"addTags":{"brand":"Maje","brand:wikidata":"Q3280458","clothes":"women","name":"Maje","shop":"clothes"}},"shop/clothes/mohito-710e25":{"name":"Mohito","locationSet":{"include":["ba","bg","cz","ee","fi","hu","kz","lt","lv","pl","ro","rs","ru","si","sk","ua"]},"geometry":["point","area"],"matchScore":2,"terms":["mohito"],"tags":{"brand:wikidata":"Q107410616","shop":"clothes"},"addTags":{"brand":"Mohito","brand:wikidata":"Q107410616","clothes":"women","name":"Mohito","shop":"clothes"}},"shop/clothes/patagonia-7718c5":{"name":"Patagonia","locationSet":{"include":["ar","at","au","ca","cl","cn","cz","de","fx","gb","hk","ie","it","jp","kr","pe","tw","us"]},"geometry":["point","area"],"matchScore":2,"terms":["patagonia"],"tags":{"brand:wikidata":"Q1660552","shop":"clothes"},"addTags":{"brand":"Patagonia","brand:wikidata":"Q1660552","clothes":"outdoor","name":"Patagonia","shop":"clothes"}},"shop/clothes/pepco-8ddd9a":{"name":"Pepco","locationSet":{"include":["at","bg","cz","de","ee","el","es","hr","hu","it","lt","lv","pl","ro","rs","si","sk"]},"geometry":["point","area"],"matchScore":2,"terms":["pepco"],"tags":{"brand:wikidata":"Q11815580","shop":"clothes"},"addTags":{"brand":"Pepco","brand:wikidata":"Q11815580","name":"Pepco","shop":"clothes"}},"shop/clothes/seidensticker-a4dacd":{"name":"Seidensticker","locationSet":{"include":["at","be","ch","cz","de","fr","it","lu","nl","pl"]},"geometry":["point","area"],"matchScore":2,"terms":["seidensticker"],"tags":{"brand:wikidata":"Q1797834","shop":"clothes"},"addTags":{"brand":"Seidensticker","brand:wikidata":"Q1797834","name":"Seidensticker","shop":"clothes"}},"shop/clothes/takkofashion-972a80":{"name":"Takko Fashion","locationSet":{"include":["at","be","ch","cz","de","ee","fr","hr","hu","it","lt","nl","pl","ro","rs","si","sk"]},"geometry":["point","area"],"matchScore":2,"terms":["takko","takko fashion"],"tags":{"brand:wikidata":"Q1371302","shop":"clothes"},"addTags":{"brand":"Takko Fashion","brand:wikidata":"Q1371302","name":"Takko Fashion","shop":"clothes"}},"shop/clothes/textilehouse-86acc9":{"name":"TEXTILE house","locationSet":{"include":["at","ba","cz","hr","mk","pl","ro","rs","si","sk"]},"geometry":["point","area"],"matchScore":2,"terms":["textile house"],"tags":{"brand:wikidata":"Q77878002","shop":"clothes"},"addTags":{"brand":"TEXTILE house","brand:wikidata":"Q77878002","name":"TEXTILE house","second_hand":"only","shop":"clothes"}},"shop/clothes/vangraaf-9ef6ea":{"name":"Van Graaf","locationSet":{"include":["ch","cz","hu","lv","pl"]},"geometry":["point","area"],"matchScore":2,"terms":["van graaf"],"tags":{"brand:wikidata":"Q113505161","shop":"clothes"},"addTags":{"brand":"Van Graaf","brand:wikidata":"Q113505161","name":"Van Graaf","shop":"clothes"}},"shop/coffee/tchibo-8e6167":{"name":"Tchibo","locationSet":{"include":["at","ch","cz","de","pl","sk"]},"geometry":["point","area"],"matchScore":2,"terms":["tchibo"],"tags":{"brand:wikidata":"Q564213","shop":"coffee"},"addTags":{"brand":"Tchibo","brand:wikidata":"Q564213","name":"Tchibo","shop":"coffee"}},"shop/confectionery/bearsandfriends-e5aed3":{"name":"Bears & Friends","locationSet":{"include":["at","cz","de","hk","hr","hu"]},"geometry":["point","area"],"matchScore":2,"terms":["bears & friends"],"tags":{"brand:wikidata":"Q99510345","shop":"confectionery"},"addTags":{"brand":"Bears & Friends","brand:wikidata":"Q99510345","name":"Bears & Friends","shop":"confectionery"}},"shop/convenience/avia-3fdfc9":{"name":"Avia","locationSet":{"include":["at","be","bg","ch","cz","de","es","fr","hu","it","nl","pl","pt","rs","ua"]},"geometry":["point","area"],"matchScore":2,"terms":["avia"],"tags":{"brand:wikidata":"Q300147","shop":"convenience"},"addTags":{"brand":"Avia","brand:wikidata":"Q300147","name":"Avia","shop":"convenience"}},"shop/convenience/coopjednota-65ae8a":{"name":"COOP Jednota","locationSet":{"include":["cz","sk"]},"geometry":["point","area"],"matchScore":2,"terms":["coop jednota","jednota"],"tags":{"brand:wikidata":"Q41629254","shop":"convenience"},"addTags":{"brand":"COOP Jednota","brand:wikidata":"Q41629254","name":"COOP Jednota","shop":"convenience"}},"shop/convenience/minimix-57794c":{"name":"Mini Mix","locationSet":{"include":["at","be","cy","cz","de","es","fr","gb","gr","it","me","nl","pt"]},"geometry":["point","area"],"matchScore":2,"terms":["mini mix","mini mix markt"],"tags":{"brand:wikidata":"Q327854","shop":"convenience"},"addTags":{"brand":"Mini Mix","brand:wikidata":"Q327854","name":"Mini Mix","shop":"convenience"}},"shop/convenience/viva-856fe1":{"name":"Viva","locationSet":{"include":["by","bg","cz","hu","pl","md","ro","ru","sk","ua","ax","gg","je","cq","dk","ee","fo","fi","is","ie","im","lv","lt","no","sj","se","gb","al","ad","ba","hr","gi","gr","va","it","mt","me","mk","pt","sm","rs","si","es","xk","at","be","fr","de","li","lu","mc","nl","ch"]},"geometry":["point","area"],"matchScore":2,"terms":["viva"],"tags":{"brand:wikidata":"Q168238","shop":"convenience"},"addTags":{"brand":"Viva","brand:wikidata":"Q168238","name":"Viva","shop":"convenience"}},"shop/convenience/zabka-f55ead":{"name":"Żabka","locationSet":{"include":["cz","pl"]},"geometry":["point","area"],"matchScore":2,"terms":["freshmarket","żabka","жабка"],"tags":{"brand:wikidata":"Q2589061","shop":"convenience"},"addTags":{"brand":"Żabka","brand:wikidata":"Q2589061","name":"Żabka","name:pl":"Żabka","name:uk":"Жабка","shop":"convenience"}},"shop/cosmetics/dermacol-85d8c2":{"name":"Dermacol","locationSet":{"include":["cz","sk"]},"geometry":["point","area"],"matchScore":2,"terms":["dermacol"],"tags":{"brand:wikidata":"Q67810810","shop":"cosmetics"},"addTags":{"brand":"Dermacol","brand:wikidata":"Q67810810","name":"Dermacol","shop":"cosmetics"}},"shop/cosmetics/havlikovaapoteka-85d8c2":{"name":"Havlíkova apotéka","locationSet":{"include":["cz","sk"]},"geometry":["point","area"],"matchScore":2,"terms":["havlíkova apotéka"],"tags":{"brand:wikidata":"Q67814393","shop":"cosmetics"},"addTags":{"brand":"Havlíkova apotéka","brand:wikidata":"Q67814393","name":"Havlíkova apotéka","shop":"cosmetics"}},"shop/cosmetics/manufaktura-85d8c2":{"name":"Manufaktura","locationSet":{"include":["cz","sk"]},"geometry":["point","area"],"matchScore":2,"terms":["manufaktura"],"tags":{"brand:wikidata":"Q107740958","shop":"cosmetics"},"addTags":{"brand":"Manufaktura","brand:wikidata":"Q107740958","name":"Manufaktura","shop":"cosmetics"}},"shop/cosmetics/ziaja-a2d805":{"name":"Ziaja","locationSet":{"include":["at","cz","de","es","hu","ie","pl","sk"]},"geometry":["point","area"],"matchScore":2,"terms":["ziaja"],"tags":{"brand:wikidata":"Q9390905","shop":"cosmetics"},"addTags":{"brand":"Ziaja","brand:wikidata":"Q9390905","name":"Ziaja","shop":"cosmetics"}},"shop/deli/vomfass-a3c745":{"name":"vomFASS","locationSet":{"include":["at","be","br","ca","ch","cz","de","dk","es","fr","gb","hk","hr","hu","il","it","jp","lv","mx","my","ph","sg","th","us"]},"geometry":["point","area"],"matchScore":2,"terms":["vomfass"],"tags":{"brand:wikidata":"Q2533008","shop":"deli"},"addTags":{"brand":"vomFASS","brand:wikidata":"Q2533008","name":"vomFASS","shop":"deli"}},"shop/doityourself/bauhaus-6847b5":{"name":"Bauhaus","locationSet":{"include":["at","bg","ch","cz","de","dk","ee","es","fi","hr","hu","is","lu","nl","no","se","si","sk","tr"]},"geometry":["point","area"],"matchScore":2,"terms":["bauhaus"],"tags":{"brand:wikidata":"Q672043","shop":"doityourself"},"addTags":{"brand":"Bauhaus","brand:wikidata":"Q672043","name":"Bauhaus","shop":"doityourself"}},"shop/doityourself/baumax-bc270a":{"name":"Baumax","locationSet":{"include":["at","cz","si","sk"]},"geometry":["point","area"],"matchScore":2,"terms":["baumax"],"tags":{"brand:wikidata":"Q310499","shop":"doityourself"},"addTags":{"brand":"Baumax","brand:wikidata":"Q310499","name":"Baumax","shop":"doityourself"}},"shop/doityourself/bigmat-488295":{"name":"BigMat","locationSet":{"include":["be","cz","es","fr","gb","it","sk"]},"geometry":["point","area"],"matchScore":2,"terms":["bigmat"],"tags":{"brand:wikidata":"Q101851862","shop":"doityourself"},"addTags":{"brand":"BigMat","brand:wikidata":"Q101851862","name":"BigMat","shop":"doityourself"}},"shop/doityourself/hornbach-92b1c1":{"name":"HORNBACH","locationSet":{"include":["at","ch","cz","de","lu","nl","ro","se","sk"]},"geometry":["point","area"],"matchScore":2,"terms":["hornbach"],"tags":{"brand:wikidata":"Q685926","shop":"doityourself"},"addTags":{"brand":"HORNBACH","brand:wikidata":"Q685926","name":"HORNBACH","shop":"doityourself"}},"shop/doityourself/obi-d5381e":{"name":"OBI","locationSet":{"include":["at","ba","ch","cz","de","hu","it","pl","ru","si","sk"]},"geometry":["point","area"],"matchScore":2,"terms":["obi"],"tags":{"brand:wikidata":"Q300518","shop":"doityourself"},"addTags":{"brand":"OBI","brand:wikidata":"Q300518","name":"OBI","shop":"doityourself"}},"shop/doors/adlo-46a8ae":{"name":"ADLO","locationSet":{"include":["at","ch","cz","de","dk","sk"]},"geometry":["point","area"],"matchScore":2,"terms":["adlo"],"tags":{"brand:wikidata":"Q116862985","shop":"doors"},"addTags":{"brand":"ADLO","brand:wikidata":"Q116862985","name":"ADLO","shop":"doors"}},"shop/electronics/alza-5fa1c3":{"name":"Alza","locationSet":{"include":["cz","hu","sk"]},"geometry":["point","area"],"matchScore":2,"terms":["alza","alza.cz","alza.hu","alza.sk"],"tags":{"brand:wikidata":"Q10786832","shop":"electronics"},"addTags":{"brand":"Alza","brand:wikidata":"Q10786832","name":"Alza","name:cs":"Alza.cz","name:hu":"Alza.hu","name:sk":"Alza.sk","shop":"electronics"}},"shop/electronics/datart-8bbdd1":{"name":"Datart","locationSet":{"include":["cz","sk"]},"geometry":["point","area"],"matchScore":2,"terms":["datart"],"tags":{"brand:wikidata":"Q11774311","shop":"electronics"},"addTags":{"brand":"Datart","brand:wikidata":"Q11774311","name":"Datart","shop":"electronics"}},"shop/electronics/eta-8bbdd1":{"name":"ETA","locationSet":{"include":["cz","sk"]},"geometry":["point","area"],"matchScore":2,"terms":["eta"],"tags":{"brand:wikidata":"Q11866675","shop":"electronics"},"addTags":{"brand":"ETA","brand:wikidata":"Q11866675","name":"ETA","shop":"electronics"}},"shop/electronics/istores-8bbdd1":{"name":"iStores","locationSet":{"include":["cz","sk"]},"geometry":["point","area"],"matchScore":2,"terms":["istores"],"tags":{"brand:wikidata":"Q116732324","shop":"electronics"},"addTags":{"brand":"iStores","brand:wikidata":"Q116732324","name":"iStores","shop":"electronics"}},"shop/electronics/istyle-e9662e":{"name":"iStyle","locationSet":{"include":["bg","cz","hr","hu","mk","ro","rs","si","sk"]},"geometry":["point","area"],"matchScore":2,"terms":["istyle"],"tags":{"brand:wikidata":"Q58196745","shop":"electronics"},"addTags":{"brand":"iStyle","brand:wikidata":"Q58196745","name":"iStyle","shop":"electronics"}},"shop/electronics/okay-8bbdd1":{"name":"Okay","locationSet":{"include":["cz","sk"]},"geometry":["point","area"],"matchScore":2,"terms":["okay"],"tags":{"brand:wikidata":"Q17583128","shop":"electronics"},"addTags":{"brand":"Okay","brand:wikidata":"Q17583128","name":"Okay","shop":"electronics"}},"shop/electronics/planeoelektro-8bbdd1":{"name":"PLANEO Elektro","locationSet":{"include":["cz","sk"]},"geometry":["point","area"],"matchScore":2,"terms":["planeo elektro"],"tags":{"brand:wikidata":"Q107723323","shop":"electronics"},"addTags":{"brand":"PLANEO Elektro","brand:wikidata":"Q107723323","name":"PLANEO Elektro","shop":"electronics"}},"shop/frozen_food/iceland-0c2cb7":{"name":"Iceland","locationSet":{"include":["cz","gb","ie"]},"geometry":["point","area"],"matchScore":2,"terms":["iceland"],"tags":{"brand:wikidata":"Q721810","shop":"frozen_food"},"addTags":{"brand":"Iceland","brand:wikidata":"Q721810","name":"Iceland","shop":"frozen_food"}},"shop/furniture/askonabytek-2a1637":{"name":"ASKO Nábytek","locationSet":{"include":["cz","sk"]},"geometry":["point","area"],"matchScore":2,"terms":["asko nábytek","asko nábytok"],"tags":{"brand:wikidata":"Q58197384","shop":"furniture"},"addTags":{"brand":"ASKO Nábytek","brand:wikidata":"Q58197384","name":"ASKO Nábytek","name:sk":"ASKO Nábytok","shop":"furniture"}},"shop/furniture/bolia-a18722":{"name":"Bolia","locationSet":{"include":["by","bg","cz","hu","pl","md","ro","ru","sk","ua","ax","gg","je","cq","dk","ee","fo","fi","is","ie","im","lv","lt","no","sj","se","gb","al","ad","ba","hr","gi","gr","va","it","mt","me","mk","pt","sm","rs","si","es","xk","at","be","fr","de","li","lu","mc","nl","ch"]},"geometry":["point","area"],"matchScore":2,"terms":["bolia"],"tags":{"brand:wikidata":"Q11961809","shop":"furniture"},"addTags":{"brand":"Bolia","brand:wikidata":"Q11961809","name":"Bolia","shop":"furniture"}},"shop/furniture/mobelix-0d6d80":{"name":"Möbelix","locationSet":{"include":["at","cz","hu","sk"]},"geometry":["point","area"],"matchScore":2,"terms":["möbelix"],"tags":{"brand:wikidata":"Q877547","shop":"furniture"},"addTags":{"brand":"Möbelix","brand:wikidata":"Q877547","name":"Möbelix","shop":"furniture"}},"shop/furniture/momax-a18722":{"name":"Mömax","locationSet":{"include":["by","bg","cz","hu","pl","md","ro","ru","sk","ua","ax","gg","je","cq","dk","ee","fo","fi","is","ie","im","lv","lt","no","sj","se","gb","al","ad","ba","hr","gi","gr","va","it","mt","me","mk","pt","sm","rs","si","es","xk","at","be","fr","de","li","lu","mc","nl","ch"]},"geometry":["point","area"],"matchScore":2,"terms":["mömax"],"tags":{"brand:wikidata":"Q56388481","shop":"furniture"},"addTags":{"brand":"Mömax","brand:wikidata":"Q56388481","name":"Mömax","shop":"furniture"}},"shop/furniture/scontomobelsofort-7ce246":{"name":"Sconto Möbel Sofort","locationSet":{"include":["cz","de","sk"]},"geometry":["point","area"],"matchScore":2,"terms":["sconto","sconto möbel sofort","sconto nábytek","sconto nábytok","sconto sb"],"tags":{"brand:wikidata":"Q2260475","shop":"furniture"},"addTags":{"brand":"Sconto Möbel Sofort","brand:wikidata":"Q2260475","name":"Sconto Möbel Sofort","name:cs":"Sconto Nábytek","name:sk":"Sconto Nábytok","shop":"furniture","short_name":"Sconto"}},"shop/furniture/siko-2a1637":{"name":"Siko","locationSet":{"include":["cz","sk"]},"geometry":["point","area"],"matchScore":2,"terms":["siko"],"tags":{"brand:wikidata":"Q58218696","shop":"furniture"},"addTags":{"brand":"Siko","brand:wikidata":"Q58218696","name":"Siko","shop":"furniture"}},"shop/furniture/xxxlutz-5acc6e":{"name":"XXXLutz","locationSet":{"include":["by","bg","cz","hu","pl","md","ro","ru","sk","ua","ax","gg","je","cq","dk","ee","fo","fi","is","ie","im","lv","lt","no","sj","se","gb","al","ad","ba","hr","gi","gr","va","it","mt","me","mk","pt","sm","rs","si","es","xk","at","be","fr","de","li","lu","mc","nl","ch"],"exclude":["bg"]},"geometry":["point","area"],"matchScore":2,"terms":["xxxlutz"],"tags":{"brand:wikidata":"Q70339467","shop":"furniture"},"addTags":{"brand":"XXXLutz","brand:wikidata":"Q70339467","name":"XXXLutz","shop":"furniture"}},"shop/garden_centre/mountfield-570714":{"name":"Mountfield","locationSet":{"include":["cz","sk"]},"geometry":["point","area"],"matchScore":2,"terms":["mountfield"],"tags":{"brand:wikidata":"Q21180783","shop":"garden_centre"},"addTags":{"brand":"Mountfield","brand:wikidata":"Q21180783","name":"Mountfield","shop":"garden_centre"}},"shop/gift/albi-100c1c":{"name":"Albi","locationSet":{"include":["cz","sk"]},"geometry":["point","area"],"matchScore":2,"terms":["albi"],"tags":{"brand:wikidata":"Q67804907","shop":"gift"},"addTags":{"brand":"Albi","brand:wikidata":"Q67804907","name":"Albi","shop":"gift"}},"shop/hairdresser/klier-03dd74":{"name":"Klier","locationSet":{"include":["at","cz","de","sk"]},"geometry":["point","area"],"matchScore":2,"terms":["klier"],"tags":{"brand:wikidata":"Q1465159","shop":"hairdresser"},"addTags":{"brand":"Klier","brand:wikidata":"Q1465159","name":"Klier","shop":"hairdresser"}},"shop/hardware/wurth-d9914d":{"name":"Würth","locationSet":{"include":["be","cz","de","fi","fr","it","no","sk"]},"geometry":["point","area"],"matchScore":2,"terms":["würth"],"fields":["name","brand","{shop/hardware}"],"tags":{"brand:wikidata":"Q679750","shop":"hardware"},"addTags":{"brand":"Würth","brand:wikidata":"Q679750","name":"Würth","shop":"hardware"}},"shop/household_linen/scanquilt-fc4fc3":{"name":"SCANquilt","locationSet":{"include":["cz","sk"]},"geometry":["point","area"],"matchScore":2,"terms":["scanquilt"],"tags":{"brand:wikidata":"Q116729931","shop":"household_linen"},"addTags":{"brand":"SCANquilt","brand:wikidata":"Q116729931","name":"SCANquilt","shop":"household_linen"}},"shop/houseware/orion-4991ba":{"name":"ORION","locationSet":{"include":["cz","sk"]},"geometry":["point","area"],"matchScore":2,"terms":["orion"],"tags":{"brand:wikidata":"Q67806141","shop":"houseware"},"addTags":{"brand":"ORION","brand:wikidata":"Q67806141","name":"ORION","shop":"houseware"}},"shop/interior_decoration/homeandyou-e9ee18":{"name":"home&you","locationSet":{"include":["cz","pl","sk"]},"geometry":["point","area"],"matchScore":2,"terms":["home&you"],"tags":{"brand:wikidata":"Q116884264","shop":"interior_decoration"},"addTags":{"brand":"home&you","brand:wikidata":"Q116884264","name":"home&you","shop":"interior_decoration"}},"shop/kitchen/ixina-d089d8":{"name":"Ixina","locationSet":{"include":["ae","au","be","bf","bh","bj","ca","ci","cm","cn","cz","dz","ee","eg","fr","gh","hr","ke","kw","lu","ly","ma","mu","nl","pl","qa","ro","ru","sa","se","sn","tg","th","tn","vn"]},"geometry":["point","area"],"matchScore":2,"terms":["ixina"],"tags":{"brand:wikidata":"Q3156424","shop":"kitchen"},"addTags":{"brand":"Ixina","brand:wikidata":"Q3156424","name":"Ixina","shop":"kitchen"}},"shop/kitchen/oresi-10bb52":{"name":"Oresi","locationSet":{"include":["cz","sk"]},"geometry":["point","area"],"matchScore":2,"terms":["oresi"],"tags":{"brand:wikidata":"Q53409609","shop":"kitchen"},"addTags":{"brand":"Oresi","brand:wikidata":"Q53409609","name":"Oresi","shop":"kitchen"}},"shop/mobile_phone/o2-8befd0":{"name":"O2","locationSet":{"include":["cz","de","gb","ie","sk"]},"geometry":["point","area"],"matchScore":2,"terms":["o2"],"tags":{"brand:wikidata":"Q1759255","shop":"mobile_phone"},"addTags":{"brand":"O2","brand:wikidata":"Q1759255","name":"O2","shop":"mobile_phone"}},"shop/musical_instrument/muziker-ae1cfe":{"name":"Muziker","locationSet":{"include":["cz","sk"]},"geometry":["point","area"],"matchScore":2,"terms":["muziker"],"tags":{"brand:wikidata":"Q114425580","shop":"musical_instrument"},"addTags":{"brand":"Muziker","brand:wikidata":"Q114425580","name":"Muziker","shop":"musical_instrument"}},"shop/newsagent/geco-5d4c3a":{"name":"GECO","locationSet":{"include":["cz","sk"]},"geometry":["point","area"],"matchScore":2,"terms":["geco","geco tabak"],"searchable":false,"tags":{"brand:wikidata":"Q12017963","shop":"newsagent"},"addTags":{"brand":"GECO","brand:wikidata":"Q12017963","name":"GECO","shop":"newsagent"}},"shop/newsagent/tabakpress-5d4c3a":{"name":"Tabak Press","locationSet":{"include":["cz","sk"]},"geometry":["point","area"],"matchScore":2,"terms":["gg tabak","tabak press"],"tags":{"brand:wikidata":"Q110264693","shop":"newsagent"},"addTags":{"brand":"Tabak Press","brand:wikidata":"Q110264693","name":"Tabak Press","shop":"newsagent"}},"shop/optician/fokus-892407":{"name":"FOKUS","locationSet":{"include":["cz","sk"]},"geometry":["point","area"],"matchScore":2,"terms":["fokus","fokus optik"],"fields":["name","brand","{shop/optician}"],"tags":{"brand:wikidata":"Q58557324","shop":"optician"},"addTags":{"brand":"FOKUS","brand:wikidata":"Q58557324","name":"FOKUS","shop":"optician"}},"shop/pawnbroker/zaloznabreva-504b45":{"name":"Záložňa Breva","locationSet":{"include":["cz","sk"]},"geometry":["point","area"],"matchScore":2,"terms":["breva","záložňa breva","zastavárna index"],"tags":{"brand:wikidata":"Q108371754","shop":"pawnbroker"},"addTags":{"brand":"Záložňa Breva","brand:wikidata":"Q108371754","name":"Záložňa Breva","name:cs":"Zastavárna Index","shop":"pawnbroker"}},"shop/perfumery/douglas-f751d3":{"name":"Douglas","locationSet":{"include":["at","ch","cz","de","es","it","nl","pl","pt","sk"]},"geometry":["point","area"],"matchScore":2,"terms":["douglas"],"tags":{"brand:wikidata":"Q2052213","shop":"perfumery"},"addTags":{"brand":"Douglas","brand:wikidata":"Q2052213","name":"Douglas","shop":"perfumery"}},"shop/perfumery/fann-21bb40":{"name":"FAnn","locationSet":{"include":["cz","sk"]},"geometry":["point","area"],"matchScore":2,"terms":["fann"],"tags":{"brand:wikidata":"Q62391353","shop":"perfumery"},"addTags":{"brand":"FAnn","brand:wikidata":"Q62391353","name":"FAnn","shop":"perfumery"}},"shop/pet/petcenter-09e3e7":{"name":"Pet Center","locationSet":{"include":["cz","sk"]},"geometry":["point","area"],"matchScore":2,"terms":["pet center"],"tags":{"brand:wikidata":"Q58607477","shop":"pet"},"addTags":{"brand":"Pet Center","brand:wikidata":"Q58607477","name":"Pet Center","shop":"pet"}},"shop/pet/superzoo-09e3e7":{"name":"SUPER ZOO","locationSet":{"include":["cz","sk"]},"geometry":["point","area"],"matchScore":2,"terms":["super zoo"],"tags":{"brand:wikidata":"Q93998805","shop":"pet"},"addTags":{"brand":"SUPER ZOO","brand:wikidata":"Q93998805","name":"SUPER ZOO","shop":"pet"}},"shop/shoes/bata-76c27d":{"name":"Baťa","locationSet":{"include":["cz","sk"]},"geometry":["point","area"],"matchScore":2,"terms":["baťa"],"tags":{"brand:wikidata":"Q688082","shop":"shoes"},"addTags":{"brand":"Baťa","brand:wikidata":"Q688082","name":"Baťa","shop":"shoes"}},"shop/shoes/humanic-07d535":{"name":"Humanic","locationSet":{"include":["at","cz","de","hu","ro","sk"]},"geometry":["point","area"],"matchScore":2,"terms":["humanic"],"tags":{"brand:wikidata":"Q1636668","shop":"shoes"},"addTags":{"brand":"Humanic","brand:wikidata":"Q1636668","name":"Humanic","shop":"shoes"}},"shop/shoes/lloyd-928d17":{"name":"Lloyd","locationSet":{"include":["at","be","cz","de","dk","nl"]},"geometry":["point","area"],"matchScore":2,"terms":["lloyd"],"tags":{"brand:wikidata":"Q1866944","shop":"shoes"},"addTags":{"brand":"Lloyd","brand:wikidata":"Q1866944","name":"Lloyd","shop":"shoes"}},"shop/shoes/officeshoes-30afef":{"name":"Office Shoes","locationSet":{"include":["al","ba","cz","hr","hu","me","pl","ro","rs","si","sk"]},"geometry":["point","area"],"matchScore":2,"terms":["office shoes"],"tags":{"brand:wikidata":"Q93946123","shop":"shoes"},"addTags":{"brand":"Office Shoes","brand:wikidata":"Q93946123","name":"Office Shoes","shop":"shoes"}},"shop/shoes/sizeer-a67893":{"name":"Sizeer","locationSet":{"include":["at","cz","de","hu","lt","pl","ro","sk"]},"geometry":["point","area"],"matchScore":2,"terms":["sizeer"],"tags":{"brand:wikidata":"Q93982889","shop":"shoes"},"addTags":{"brand":"Sizeer","brand:wikidata":"Q93982889","name":"Sizeer","shop":"shoes"}},"shop/shoes/wojas-db04aa":{"name":"Wojas","locationSet":{"include":["by","cz","pl","sk"]},"geometry":["point","area"],"matchScore":2,"terms":["wojas"],"tags":{"brand:wikidata":"Q9376325","shop":"shoes"},"addTags":{"brand":"Wojas","brand:wikidata":"Q9376325","name":"Wojas","shop":"shoes"}},"shop/sports/4f-5624eb":{"name":"4F","locationSet":{"include":["cz","de","lt","lv","ro","ru","sk"]},"geometry":["point","area"],"matchScore":2,"terms":["4f"],"tags":{"brand:wikidata":"Q16525801","shop":"sports"},"addTags":{"brand":"4F","brand:wikidata":"Q16525801","name":"4F","shop":"sports"}},"shop/sports/a3sport-9dd59e":{"name":"A3 SPORT","locationSet":{"include":["cz","de","sk"]},"geometry":["point","area"],"matchScore":2,"terms":["a3 sport"],"tags":{"brand:wikidata":"Q58170961","shop":"sports"},"addTags":{"brand":"A3 SPORT","brand:wikidata":"Q58170961","name":"A3 SPORT","shop":"sports"}},"shop/sports/exisport-aa748e":{"name":"EXIsport","locationSet":{"include":["cz","sk"]},"geometry":["point","area"],"matchScore":2,"terms":["exisport"],"tags":{"brand:wikidata":"Q107736469","shop":"sports"},"addTags":{"brand":"EXIsport","brand:wikidata":"Q107736469","name":"EXIsport","shop":"sports"}},"shop/sports/hervis-38a747":{"name":"Hervis","locationSet":{"include":["at","cz","de","hr","hu","ro","si"]},"geometry":["point","area"],"matchScore":2,"terms":["hervis","hervis sport","hervis sports"],"tags":{"brand:wikidata":"Q1614816","shop":"sports"},"addTags":{"brand":"Hervis","brand:wikidata":"Q1614816","name":"Hervis","shop":"sports"}},"shop/sports/sportvision-daf837":{"name":"Sport Vision","locationSet":{"include":["al","ba","bg","cz","gr","hr","hu","me","mk","ro","rs","si","sk"]},"geometry":["point","area"],"matchScore":2,"terms":["sport vision"],"tags":{"brand:wikidata":"Q116729857","shop":"sports"},"addTags":{"brand":"Sport Vision","brand:wikidata":"Q116729857","name":"Sport Vision","shop":"sports"}},"shop/sports/sportisimo-8183b2":{"name":"Sportisimo","locationSet":{"include":["bg","cz","hr","hu","ro","sk"]},"geometry":["point","area"],"matchScore":2,"terms":["sportisimo"],"tags":{"brand:wikidata":"Q54974273","shop":"sports"},"addTags":{"brand":"Sportisimo","brand:wikidata":"Q54974273","name":"Sportisimo","shop":"sports"}},"shop/stationery/kohinoor-ecb638":{"name":"Koh-i-Noor","locationSet":{"include":["cz","sk"]},"geometry":["point","area"],"matchScore":2,"terms":["koh-i-noor","koh-i-noor hardtmuth"],"tags":{"brand:wikidata":"Q698032","shop":"stationery"},"addTags":{"brand":"Koh-i-Noor","brand:wikidata":"Q698032","name":"Koh-i-Noor","official_name":"Koh-i-Noor Hardtmuth","shop":"stationery"}},"shop/supermarket/albert-8e6809":{"name":"Albert","locationSet":{"include":["cz"]},"geometry":["point","area"],"matchScore":2,"terms":["albert"],"tags":{"brand:wikidata":"Q9144241","shop":"supermarket"},"addTags":{"brand":"Albert","brand:wikidata":"Q9144241","name":"Albert","shop":"supermarket"}},"shop/supermarket/auchan-925d9b":{"name":"Auchan","locationSet":{"include":["al","ad","ba","hr","gi","gr","va","it","mt","me","mk","pt","sm","rs","si","es","xk","by","bg","cz","hu","pl","md","ro","ru","sk","ua","at","be","fr","de","li","lu","mc","nl","ch","cn"],"exclude":["ru"]},"geometry":["point","area"],"matchScore":2,"terms":["auchan"],"tags":{"brand:wikidata":"Q758603","shop":"supermarket"},"addTags":{"brand":"Auchan","brand:wikidata":"Q758603","name":"Auchan","shop":"supermarket"}},"shop/supermarket/billa-f4f534":{"name":"Billa","locationSet":{"include":["by","bg","cz","hu","pl","md","ro","ru","sk","ua","at"],"exclude":["cz"]},"geometry":["point","area"],"matchScore":2,"terms":["billa"],"tags":{"brand:wikidata":"Q537781","shop":"supermarket"},"addTags":{"brand":"Billa","brand:wikidata":"Q537781","name":"Billa","shop":"supermarket"}},"shop/supermarket/billa-8e6809":{"name":"Billa (Czechia)","locationSet":{"include":["cz"]},"geometry":["point","area"],"matchScore":2,"terms":["billa"],"tags":{"brand:wikidata":"Q42969493","shop":"supermarket"},"addTags":{"brand":"Billa","brand:wikidata":"Q42969493","name":"Billa","shop":"supermarket"}},"shop/supermarket/coopjednota-261d20":{"name":"COOP Jednota","locationSet":{"include":["cz","sk"]},"geometry":["point","area"],"matchScore":2,"terms":["coop jednota","jednota"],"tags":{"brand:wikidata":"Q41629254","shop":"supermarket"},"addTags":{"brand":"COOP Jednota","brand:wikidata":"Q41629254","name":"COOP Jednota","shop":"supermarket"}},"shop/supermarket/eurospar-4b5e11":{"name":"Eurospar","locationSet":{"include":["by","bg","cz","hu","pl","md","ro","ru","sk","ua","ax","gg","je","cq","dk","ee","fo","fi","is","ie","im","lv","lt","no","sj","se","gb","al","ad","ba","hr","gi","gr","va","it","mt","me","mk","pt","sm","rs","si","es","xk","at","be","fr","de","li","lu","mc","nl","ch"]},"geometry":["point","area"],"matchScore":2,"terms":["eurospar"],"tags":{"brand:wikidata":"Q12309283","shop":"supermarket"},"addTags":{"brand":"Eurospar","brand:wikidata":"Q12309283","name":"Eurospar","shop":"supermarket"}},"shop/supermarket/globus-2d7d3f":{"name":"Globus","locationSet":{"include":["cz","de","ru"]},"geometry":["point","area"],"matchScore":2,"terms":["globus"],"tags":{"brand:wikidata":"Q457503","shop":"supermarket"},"addTags":{"brand":"Globus","brand:wikidata":"Q457503","name":"Globus","shop":"supermarket"}},"shop/supermarket/hruska-8e6809":{"name":"Hruška","locationSet":{"include":["cz"]},"geometry":["point","area"],"matchScore":2,"terms":["hruška"],"tags":{"brand:wikidata":"Q58196374","shop":"supermarket"},"addTags":{"brand":"Hruška","brand:wikidata":"Q58196374","name":"Hruška","shop":"supermarket"}},"shop/supermarket/kaufland-464a37":{"name":"Kaufland","locationSet":{"include":["cz","de","hr","md","pl","ro","sk"]},"geometry":["point","area"],"matchScore":2,"terms":["kaufland"],"tags":{"brand:wikidata":"Q685967","shop":"supermarket"},"addTags":{"brand":"Kaufland","brand:wikidata":"Q685967","name":"Kaufland","shop":"supermarket"}},"shop/supermarket/mixmarkt-3f43e2":{"name":"Mix Markt","locationSet":{"include":["at","be","cy","cz","de","es","fr","gb","gr","it","me","nl","pt"]},"geometry":["point","area"],"matchScore":2,"terms":["mix markt"],"tags":{"brand:wikidata":"Q327854","shop":"supermarket"},"addTags":{"brand":"Mix Markt","brand:wikidata":"Q327854","name":"Mix Markt","shop":"supermarket"}},"shop/supermarket/norma-c1eeeb":{"name":"Norma","locationSet":{"include":["at","cz","de","fr"]},"geometry":["point","area"],"matchScore":2,"terms":["norma"],"tags":{"brand:wikidata":"Q450180","shop":"supermarket"},"addTags":{"brand":"Norma","brand:wikidata":"Q450180","name":"Norma","shop":"supermarket"}},"shop/supermarket/penny-55dfd6":{"name":"PENNY","locationSet":{"include":["at","cz","de","hu","it","ro"]},"geometry":["point","area"],"matchScore":2,"terms":["penny","penny market","penny markt"],"tags":{"brand:wikidata":"Q284688","shop":"supermarket"},"addTags":{"brand":"PENNY","brand:wikidata":"Q284688","name":"PENNY","shop":"supermarket"}},"shop/tea/oxalis-cec35b":{"name":"Oxalis","locationSet":{"include":["cz","sk"]},"geometry":["point","area"],"matchScore":2,"terms":["oxalis"],"tags":{"brand:wikidata":"Q54948754","shop":"tea"},"addTags":{"brand":"Oxalis","brand:wikidata":"Q54948754","name":"Oxalis","shop":"tea"}},"shop/tea/sonnentor-8b9919":{"name":"Sonnentor","locationSet":{"include":["at","cz","de"]},"geometry":["point","area"],"matchScore":2,"terms":["sonnentor"],"tags":{"brand:wikidata":"Q1651649","shop":"tea"},"addTags":{"brand":"Sonnentor","brand:wikidata":"Q1651649","name":"Sonnentor","shop":"tea"}},"shop/ticket/ticketmaster-9f0b74":{"name":"Ticketmaster","locationSet":{"include":["ae","at","au","be","ca","ch","cy","cz","de","dk","es","fi","fr","gr","ie","it","mx","nl","no","nz","pl","se","sg","tr","tw","uk","za"]},"geometry":["point","area"],"matchScore":2,"terms":["live nation","ticketmaster"],"fields":["name","brand","{shop/ticket}"],"tags":{"brand:wikidata":"Q2609162","shop":"ticket"},"addTags":{"brand":"Ticketmaster","brand:wikidata":"Q2609162","name":"Ticketmaster","shop":"ticket"}},"shop/tool_hire/boels-d0c09f":{"name":"Boels","locationSet":{"include":["at","be","ch","cz","de","gb","it","lu","nl","pl","sk"]},"geometry":["point","area"],"matchScore":2,"terms":["boels","boels rental"],"tags":{"brand:wikidata":"Q19901961","shop":"tool_hire"},"addTags":{"brand":"Boels","brand:wikidata":"Q19901961","name":"Boels","shop":"tool_hire"}},"shop/tool_hire/loxam-33fef8":{"name":"Loxam","locationSet":{"include":["ae","be","bh","br","ch","co","cz","de","dk","ee","es","fi","fr","gb","ie","it","kw","lt","lu","lv","ma","nl","no","om","pl","pt","qa","sa","se","sk"]},"geometry":["point","area"],"matchScore":2,"terms":["loxam"],"tags":{"brand:wikidata":"Q3264407","shop":"tool_hire"},"addTags":{"brand":"Loxam","brand:wikidata":"Q3264407","name":"Loxam","shop":"tool_hire"}},"shop/toys/alltoys-72911e":{"name":"Alltoys","locationSet":{"include":["cz","sk"]},"geometry":["point","area"],"matchScore":2,"terms":["alltoys"],"tags":{"brand:wikidata":"Q52857895","shop":"toys"},"addTags":{"brand":"Alltoys","brand:wikidata":"Q52857895","name":"Alltoys","shop":"toys"}},"shop/toys/bambule-259fba":{"name":"Bambule","locationSet":{"include":["cz"]},"geometry":["point","area"],"matchScore":2,"terms":["bambule"],"tags":{"brand:wikidata":"Q97312896","shop":"toys"},"addTags":{"brand":"Bambule","brand:wikidata":"Q97312896","name":"Bambule","shop":"toys"}},"shop/toys/dracik-72911e":{"name":"Dráčik","locationSet":{"include":["cz","sk"]},"geometry":["point","area"],"matchScore":2,"terms":["dráčik"],"tags":{"brand:wikidata":"Q57653669","shop":"toys"},"addTags":{"brand":"Dráčik","brand:wikidata":"Q57653669","name":"Dráčik","shop":"toys"}},"shop/trade/dek-8ec304":{"name":"DEK","locationSet":{"include":["cz","sk"]},"geometry":["point","area"],"matchScore":2,"terms":["dek","dek stavebniny"],"tags":{"brand:wikidata":"Q58205825","shop":"trade"},"addTags":{"brand":"DEK","brand:wikidata":"Q58205825","name":"DEK","shop":"trade","trade":"building_supplies"}},"shop/trade/felbermayr-26d55f":{"name":"Felbermayr","locationSet":{"include":["at","ba","bg","cz","de","hr","hu","it","pl","ro","rs","sk"]},"geometry":["point","area"],"matchScore":2,"terms":["felbermayr"],"tags":{"brand:wikidata":"Q19687619","shop":"trade"},"addTags":{"brand":"Felbermayr","brand:wikidata":"Q19687619","name":"Felbermayr","shop":"trade","trade":"construction_equipment"}},"shop/travel_agency/invia-bc5dc6":{"name":"Invia","locationSet":{"include":["cz","hu","pl","sk"]},"geometry":["point","area"],"matchScore":2,"terms":["invia"],"tags":{"brand:wikidata":"Q20057477","shop":"travel_agency"},"addTags":{"brand":"Invia","brand:wikidata":"Q20057477","name":"Invia","shop":"travel_agency"}},"shop/variety_store/action-8dd2e2":{"name":"Action","locationSet":{"include":["at","be","cz","de","es","fr","it","lu","nl","pl","sk"]},"geometry":["point","area"],"matchScore":2,"terms":["action"],"tags":{"brand:wikidata":"Q2634111","shop":"variety_store"},"addTags":{"brand":"Action","brand:wikidata":"Q2634111","name":"Action","shop":"variety_store"}},"shop/variety_store/flyingtigercopenhagen-37d726":{"name":"Flying Tiger Copenhagen","locationSet":{"include":["at","be","ch","cy","cz","de","dk","ee","es","fi","fr","gb","gr","hu","ie","is","it","jp","kr","lt","lv","mt","nl","no","pl","pt","se","sk"]},"geometry":["point","area"],"matchScore":2,"terms":["flying tiger","flying tiger copenhagen","tgr","tiger"],"tags":{"brand:wikidata":"Q2786319","shop":"variety_store"},"addTags":{"brand":"Flying Tiger Copenhagen","brand:wikidata":"Q2786319","name":"Flying Tiger Copenhagen","shop":"variety_store","short_name":"Flying Tiger"}},"shop/variety_store/kinekus-c029a3":{"name":"KINEKUS","locationSet":{"include":["cz","sk"]},"geometry":["point","area"],"matchScore":2,"terms":["kinekus"],"tags":{"brand:wikidata":"Q96132061","shop":"variety_store"},"addTags":{"brand":"KINEKUS","brand:wikidata":"Q96132061","name":"KINEKUS","shop":"variety_store"}},"shop/variety_store/topshop-f153f8":{"name":"Top Shop","locationSet":{"include":["al","ba","bg","cz","ee","hr","hu","lt","lv","md","me","mk","pl","ro","rs","si","sk","ua","xk"]},"geometry":["point","area"],"matchScore":2,"terms":["top shop"],"tags":{"brand:wikidata":"Q116919675","shop":"variety_store"},"addTags":{"brand":"Top Shop","brand:wikidata":"Q116919675","name":"Top Shop","shop":"variety_store"}},"tourism/hostel/aando-a930a5":{"name":"A&O","locationSet":{"include":["at","cz","de","dk","hu","it","nl","pl","uk"]},"geometry":["point","area"],"matchScore":2,"terms":["a&o"],"fields":["name","brand","{tourism/hostel}"],"tags":{"brand:wikidata":"Q15890910","tourism":"hostel"},"addTags":{"brand":"A&O","brand:wikidata":"Q15890910","name":"A&O","tourism":"hostel"}},"tourism/hotel/aando-7ebc01":{"name":"A&O","locationSet":{"include":["at","cz","de","dk","hu","it","nl","pl","uk"]},"geometry":["point","area"],"matchScore":2,"terms":["a&o"],"fields":["name","brand","{tourism/hotel}"],"tags":{"brand:wikidata":"Q15890910","tourism":"hotel"},"addTags":{"brand":"A&O","brand:wikidata":"Q15890910","name":"A&O","tourism":"hotel"}},"tourism/hotel/bandbhotel-fc8c2c":{"name":"B&B Hotel","locationSet":{"include":["by","bg","cz","hu","pl","md","ro","ru","sk","ua","ax","gg","je","cq","dk","ee","fo","fi","is","ie","im","lv","lt","no","sj","se","gb","al","ad","ba","hr","gi","gr","va","it","mt","me","mk","pt","sm","rs","si","es","xk","at","be","fr","de","li","lu","mc","nl","ch","br"]},"geometry":["point","area"],"matchScore":2,"terms":["b&b hotels"],"fields":["name","brand","{tourism/hotel}"],"tags":{"brand:wikidata":"Q794939","tourism":"hotel"},"addTags":{"brand":"B&B Hotels","brand:wikidata":"Q794939","name":"B&B Hotel","tourism":"hotel"}},"tourism/hotel/barcelohotelsandresorts-302c40":{"name":"Barceló","locationSet":{"include":["ae","aw","bg","cr","cu","cz","de","do","eg","es","gr","gt","hu","it","ma","mv","mx","ni","om","pt","sv","tn","tr","us"]},"geometry":["point","area"],"matchScore":2,"terms":["barceló hotels & resorts"],"fields":["name","brand","{tourism/hotel}"],"tags":{"brand:wikidata":"Q15148996","tourism":"hotel"},"addTags":{"brand":"Barceló Hotels & Resorts","brand:wikidata":"Q15148996","name":"Barceló Hotels & Resorts","tourism":"hotel"}},"tourism/hotel/greet-046fe6":{"name":"greet","locationSet":{"include":["by","bg","cz","hu","pl","md","ro","ru","sk","ua","ax","gg","je","cq","dk","ee","fo","fi","is","ie","im","lv","lt","no","sj","se","gb","al","ad","ba","hr","gi","gr","va","it","mt","me","mk","pt","sm","rs","si","es","xk","at","be","fr","de","li","lu","mc","nl","ch"]},"geometry":["point","area"],"matchScore":2,"terms":["greet"],"fields":["name","brand","{tourism/hotel}"],"tags":{"brand:wikidata":"Q115489066","tourism":"hotel"},"addTags":{"brand":"greet","brand:wikidata":"Q115489066","name":"Greet","tourism":"hotel"}},"tourism/hotel/jurysinn-1e45a9":{"name":"Jurys Inn","locationSet":{"include":["cz"]},"geometry":["point","area"],"matchScore":2,"terms":["jurys inn"],"fields":["name","brand","{tourism/hotel}"],"tags":{"brand:wikidata":"Q12060924","tourism":"hotel"},"addTags":{"brand":"Jurys Inn","brand:wikidata":"Q12060924","name":"Jurys Inn","tourism":"hotel"}},"tourism/hotel/motelone-046fe6":{"name":"Motel One","locationSet":{"include":["by","bg","cz","hu","pl","md","ro","ru","sk","ua","ax","gg","je","cq","dk","ee","fo","fi","is","ie","im","lv","lt","no","sj","se","gb","al","ad","ba","hr","gi","gr","va","it","mt","me","mk","pt","sm","rs","si","es","xk","at","be","fr","de","li","lu","mc","nl","ch"]},"geometry":["point","area"],"matchScore":2,"terms":["motel one"],"fields":["name","brand","{tourism/hotel}"],"tags":{"brand:wikidata":"Q391080","tourism":"hotel"},"addTags":{"brand":"Motel One","brand:wikidata":"Q391080","name":"Motel One","tourism":"hotel"}},"tourism/hotel/nhcollectionhotels-f05c75":{"name":"NH Collection Hotels","locationSet":{"include":["ad","ar","at","be","cl","co","cu","cz","de","dk","ec","es","fr","hu","it","mx","nl","pt","qa","us-ny"]},"geometry":["point","area"],"matchScore":2,"terms":["nh collection hotels"],"fields":["name","brand","{tourism/hotel}"],"tags":{"brand:wikidata":"Q1604631","tourism":"hotel"},"addTags":{"brand":"NH Collection Hotels","brand:wikidata":"Q1604631","name":"NH Collection Hotels","tourism":"hotel"}},"tourism/hotel/nhhotel-e9b4fb":{"name":"NH Hotels","locationSet":{"include":["ad","ar","at","be","br","ch","cl","co","cu","cz","de","es","fr","hu","it","lu","mx","nl","pl","pt"]},"geometry":["point","area"],"matchScore":2,"terms":["nh hotels"],"fields":["name","brand","{tourism/hotel}"],"tags":{"brand:wikidata":"Q1604631","tourism":"hotel"},"addTags":{"brand":"NH Hotels","brand:wikidata":"Q1604631","name":"NH Hotel","tourism":"hotel"}},"tourism/hotel/occidental-e4b4d8":{"name":"Occidental","locationSet":{"include":["ae","cr","cu","cz","do","es","it","mx","tn","tr"]},"geometry":["point","area"],"matchScore":2,"terms":["occidental"],"fields":["name","brand","{tourism/hotel}"],"tags":{"brand:wikidata":"Q15148996","tourism":"hotel"},"addTags":{"brand":"Occidental","brand:wikidata":"Q15148996","name":"Occidental","tourism":"hotel"}},"amenity/charging_station/cez-f67a50":{"name":"ČEZ","locationSet":{"include":["cz"]},"geometry":["point","vertex","area"],"matchScore":2,"terms":["čez","čez (ccs/chademo/mennekes type2)"],"fields":["name","operator","{amenity/charging_station}"],"tags":{"amenity":"charging_station","operator:wikidata":"Q336735"},"addTags":{"amenity":"charging_station","operator":"ČEZ","operator:wikidata":"Q336735"}},"amenity/charging_station/eon-7f623e":{"name":"E.ON","locationSet":{"include":["by","bg","cz","hu","pl","md","ro","ru","sk","ua","ax","gg","je","cq","dk","ee","fo","fi","is","ie","im","lv","lt","no","sj","se","gb","al","ad","ba","hr","gi","gr","va","it","mt","me","mk","pt","sm","rs","si","es","xk","at","be","fr","de","li","lu","mc","nl","ch"]},"geometry":["point","vertex","area"],"matchScore":2,"terms":["e-on drive","e.on"],"fields":["name","operator","{amenity/charging_station}"],"tags":{"amenity":"charging_station","operator:wikidata":"Q270223"},"addTags":{"amenity":"charging_station","operator":"E.ON","operator:wikidata":"Q270223"}},"amenity/charging_station/evbox-7f623e":{"name":"EVBox","locationSet":{"include":["by","bg","cz","hu","pl","md","ro","ru","sk","ua","ax","gg","je","cq","dk","ee","fo","fi","is","ie","im","lv","lt","no","sj","se","gb","al","ad","ba","hr","gi","gr","va","it","mt","me","mk","pt","sm","rs","si","es","xk","at","be","fr","de","li","lu","mc","nl","ch"]},"geometry":["point","vertex","area"],"matchScore":2,"terms":["evbox"],"fields":["name","operator","{amenity/charging_station}"],"tags":{"amenity":"charging_station","operator:wikidata":"Q28406392"},"addTags":{"amenity":"charging_station","operator":"EVBox","operator:wikidata":"Q28406392"}},"amenity/charging_station/qpark-7f623e":{"name":"Q-Park","locationSet":{"include":["by","bg","cz","hu","pl","md","ro","ru","sk","ua","ax","gg","je","cq","dk","ee","fo","fi","is","ie","im","lv","lt","no","sj","se","gb","al","ad","ba","hr","gi","gr","va","it","mt","me","mk","pt","sm","rs","si","es","xk","at","be","fr","de","li","lu","mc","nl","ch"]},"geometry":["point","vertex","area"],"matchScore":2,"terms":["q-park"],"fields":["name","operator","{amenity/charging_station}"],"tags":{"amenity":"charging_station","operator:wikidata":"Q1127798"},"addTags":{"amenity":"charging_station","operator":"Q-Park","operator:wikidata":"Q1127798"}},"amenity/post_box/ceskapostasp-645a7b":{"name":"Česká pošta","locationSet":{"include":["cz"]},"geometry":["point","vertex"],"matchScore":2,"terms":["česká pošta","česká pošta, s.p."],"tags":{"amenity":"post_box","operator:wikidata":"Q341090"},"addTags":{"amenity":"post_box","operator":"Česká pošta, s.p.","operator:wikidata":"Q341090"}},"amenity/post_box/zasilkovna-645a7b":{"name":"Zásilkovna","locationSet":{"include":["cz"]},"geometry":["point","vertex"],"matchScore":2,"terms":["zásilkovna"],"tags":{"amenity":"post_box","operator:wikidata":"Q25454926"},"addTags":{"amenity":"post_box","operator":"Zásilkovna","operator:wikidata":"Q25454926"}},"amenity/post_office/ceskapostasp-aa9270":{"name":"Česká pošta","locationSet":{"include":["cz"]},"geometry":["point","area"],"matchScore":2,"terms":["česká pošta","česká pošta, s.p."],"fields":["name","operator","{amenity/post_office}"],"tags":{"amenity":"post_office","operator:wikidata":"Q341090"},"addTags":{"amenity":"post_office","operator":"Česká pošta, s.p.","operator:wikidata":"Q341090"}},"amenity/post_office/zasilkovna-aa9270":{"name":"Zásilkovna","locationSet":{"include":["cz"]},"geometry":["point","area"],"matchScore":2,"terms":["zásilkovna"],"fields":["name","operator","{amenity/post_office}"],"tags":{"amenity":"post_office","operator:wikidata":"Q25454926"},"addTags":{"amenity":"post_office","operator":"Zásilkovna","operator:wikidata":"Q25454926"}},"amenity/toilets/sanifairgmbh-99935b":{"name":"SANIFAIR","locationSet":{"include":["at","cz","de","nl","pl"]},"geometry":["point","vertex","area"],"matchScore":2,"terms":["sanifair","sanifair gmbh"],"tags":{"amenity":"toilets","operator:wikidata":"Q104814416"},"addTags":{"access":"yes","amenity":"toilets","brand":"SANIFAIR","operator":"SANIFAIR GmbH","operator:wikidata":"Q104814416"}},"landuse/quarry/euroviacs-60440c":{"name":"Eurovia CS","locationSet":{"include":["cz"]},"geometry":["area","point"],"matchScore":2,"terms":["eurovia cs"],"tags":{"landuse":"quarry","operator:wikidata":"Q30258467"},"addTags":{"landuse":"quarry","operator":"Eurovia CS","operator:wikidata":"Q30258467"}},"leisure/nature_reserve/magistratmestaceskebudejovice-ab8e90":{"name":"MMCB","locationSet":{"include":["cz"]},"geometry":["area","point"],"matchScore":2,"terms":["magistrát města české budějovice","mmcb"],"tags":{"leisure":"nature_reserve","operator:wikidata":"Q16506"},"addTags":{"leisure":"nature_reserve","operator":"Magistrát města České Budějovice","operator:short":"MMCB","operator:type":"public","operator:wikidata":"Q16506"}},"leisure/park/magistratmestaceskebudejovice-63f1de":{"name":"MMCB","locationSet":{"include":["cz"]},"geometry":["area","point"],"matchScore":2,"terms":["magistrát města české budějovice","mmcb"],"tags":{"leisure":"park","operator:wikidata":"Q16506"},"addTags":{"leisure":"park","operator":"Magistrát města České Budějovice","operator:short":"MMCB","operator:type":"public","operator:wikidata":"Q16506"}},"man_made/pipeline/plzenskateplarenskaas-446620":{"name":"Plzeňská teplárenská, a.s.","locationSet":{"include":["cz"]},"geometry":["line"],"matchScore":2,"terms":["plzeňská teplárenská, a.s."],"tags":{"man_made":"pipeline","operator:wikidata":"Q58206548"},"addTags":{"man_made":"pipeline","operator":"Plzeňská teplárenská, a.s.","operator:wikidata":"Q58206548"}},"pipeline/substation/plzenskateplarenskaas-ccffd7":{"name":"Plzeňská teplárenská, a.s.","locationSet":{"include":["cz"]},"geometry":["area","point"],"matchScore":2,"terms":["plzeňská teplárenská, a.s."],"tags":{"operator:wikidata":"Q58206548","pipeline":"substation"},"addTags":{"operator":"Plzeňská teplárenská, a.s.","operator:wikidata":"Q58206548","pipeline":"substation"}},"power/generator/cez-e7507c":{"name":"ČEZ","locationSet":{"include":["cz"]},"geometry":["point","vertex","area"],"matchScore":2,"terms":["čez"],"tags":{"operator:wikidata":"Q336735","power":"generator"},"addTags":{"operator":"ČEZ","operator:wikidata":"Q336735","power":"generator"}},"power/generator/innogy-16c9d0":{"name":"Innogy","locationSet":{"include":["by","bg","cz","hu","pl","md","ro","ru","sk","ua","ax","gg","je","cq","dk","ee","fo","fi","is","ie","im","lv","lt","no","sj","se","gb","al","ad","ba","hr","gi","gr","va","it","mt","me","mk","pt","sm","rs","si","es","xk","at","be","fr","de","li","lu","mc","nl","ch"]},"geometry":["point","vertex","area"],"matchScore":2,"terms":["innogy"],"tags":{"operator:wikidata":"Q2124721","power":"generator"},"addTags":{"operator":"Innogy","operator:wikidata":"Q2124721","power":"generator"}},"power/generator/rwe-16c9d0":{"name":"RWE","locationSet":{"include":["by","bg","cz","hu","pl","md","ro","ru","sk","ua","ax","gg","je","cq","dk","ee","fo","fi","is","ie","im","lv","lt","no","sj","se","gb","al","ad","ba","hr","gi","gr","va","it","mt","me","mk","pt","sm","rs","si","es","xk","at","be","fr","de","li","lu","mc","nl","ch"]},"geometry":["point","vertex","area"],"matchScore":2,"terms":["rwe"],"tags":{"operator:wikidata":"Q138133","power":"generator"},"addTags":{"operator":"RWE","operator:wikidata":"Q138133","power":"generator"}},"power/generator/statkraft-16c9d0":{"name":"Statkraft","locationSet":{"include":["by","bg","cz","hu","pl","md","ro","ru","sk","ua","ax","gg","je","cq","dk","ee","fo","fi","is","ie","im","lv","lt","no","sj","se","gb","al","ad","ba","hr","gi","gr","va","it","mt","me","mk","pt","sm","rs","si","es","xk","at","be","fr","de","li","lu","mc","nl","ch"]},"geometry":["point","vertex","area"],"matchScore":2,"terms":["statkraft"],"tags":{"operator:wikidata":"Q1681145","power":"generator"},"addTags":{"operator":"Statkraft","operator:wikidata":"Q1681145","power":"generator"}},"power/generator/uniper-16c9d0":{"name":"Uniper","locationSet":{"include":["by","bg","cz","hu","pl","md","ro","ru","sk","ua","ax","gg","je","cq","dk","ee","fo","fi","is","ie","im","lv","lt","no","sj","se","gb","al","ad","ba","hr","gi","gr","va","it","mt","me","mk","pt","sm","rs","si","es","xk","at","be","fr","de","li","lu","mc","nl","ch"]},"geometry":["point","vertex","area"],"matchScore":2,"terms":["uniper"],"tags":{"operator:wikidata":"Q19839259","power":"generator"},"addTags":{"operator":"Uniper","operator:wikidata":"Q19839259","power":"generator"}},"power/generator/wpo-16c9d0":{"name":"WPO","locationSet":{"include":["by","bg","cz","hu","pl","md","ro","ru","sk","ua","ax","gg","je","cq","dk","ee","fo","fi","is","ie","im","lv","lt","no","sj","se","gb","al","ad","ba","hr","gi","gr","va","it","mt","me","mk","pt","sm","rs","si","es","xk","at","be","fr","de","li","lu","mc","nl","ch"]},"geometry":["point","vertex","area"],"matchScore":2,"terms":["wpo"],"tags":{"operator:wikidata":"Q64755627","power":"generator"},"addTags":{"operator":"WPO","operator:wikidata":"Q64755627","power":"generator"}},"power/line/ceps-f6b6f1":{"name":"ČEPS","locationSet":{"include":["cz","de","pl","sk"]},"geometry":["line"],"matchScore":2,"terms":["čeps"],"tags":{"operator:wikidata":"Q11089927","power":"line"},"addTags":{"operator":"ČEPS","operator:wikidata":"Q11089927","power":"line"}},"power/line/cez-452a56":{"name":"ČEZ","locationSet":{"include":["cz","de","sk"]},"geometry":["line"],"matchScore":2,"terms":["čez","čez distribuce","čez distribuce, as"],"tags":{"operator:wikidata":"Q336735","power":"line"},"addTags":{"operator":"ČEZ","operator:wikidata":"Q336735","power":"line"}},"power/line/pre-04ae3b":{"name":"PRE","locationSet":{"include":["cz"]},"geometry":["line"],"matchScore":2,"terms":["cz:pre","pre"],"tags":{"operator:wikidata":"Q15870812","power":"line"},"addTags":{"operator":"PRE","operator:wikidata":"Q15870812","power":"line"}},"power/minor_line/ceps-43d40b":{"name":"ČEPS","locationSet":{"include":["cz","de","pl","sk"]},"geometry":["line"],"matchScore":2,"terms":["čeps"],"tags":{"operator:wikidata":"Q11089927","power":"minor_line"},"addTags":{"operator":"ČEPS","operator:wikidata":"Q11089927","power":"minor_line"}},"power/minor_line/cez-0c37bb":{"name":"ČEZ","locationSet":{"include":["cz","de","sk"]},"geometry":["line"],"matchScore":2,"terms":["čez","čez distribuce","čez distribuce, as"],"tags":{"operator:wikidata":"Q336735","power":"minor_line"},"addTags":{"operator":"ČEZ","operator:wikidata":"Q336735","power":"minor_line"}},"power/minor_line/pre-9e3254":{"name":"PRE","locationSet":{"include":["cz"]},"geometry":["line"],"matchScore":2,"terms":["cz:pre","pre"],"tags":{"operator:wikidata":"Q15870812","power":"minor_line"},"addTags":{"operator":"PRE","operator:wikidata":"Q15870812","power":"minor_line"}},"power/plant/cez-14fcf8":{"name":"ČEZ","locationSet":{"include":["cz"]},"geometry":["area"],"matchScore":2,"terms":["čez"],"tags":{"operator:wikidata":"Q336735","power":"plant"},"addTags":{"operator":"ČEZ","operator:wikidata":"Q336735","power":"plant"}},"power/plant/energopro-8a4876":{"name":"Energo-Pro","locationSet":{"include":["bg","cz","ge","si","tr"]},"geometry":["area"],"matchScore":2,"terms":["energo-pro"],"tags":{"operator:wikidata":"Q11878927","power":"plant"},"addTags":{"operator":"Energo-Pro","operator:wikidata":"Q11878927","power":"plant"}},"power/pole/ceps-cbe952":{"name":"ČEPS","locationSet":{"include":["cz","de","pl","sk"]},"geometry":["point","vertex"],"matchScore":2,"terms":["čeps"],"tags":{"operator:wikidata":"Q11089927","power":"pole"},"addTags":{"operator":"ČEPS","operator:wikidata":"Q11089927","power":"pole"}},"power/pole/cez-e795a2":{"name":"ČEZ","locationSet":{"include":["cz","de","sk"]},"geometry":["point","vertex"],"matchScore":2,"terms":["čez","čez distribuce","čez distribuce, as"],"tags":{"operator:wikidata":"Q336735","power":"pole"},"addTags":{"operator":"ČEZ","operator:wikidata":"Q336735","power":"pole"}},"power/pole/pre-51167e":{"name":"PRE","locationSet":{"include":["cz"]},"geometry":["point","vertex"],"matchScore":2,"terms":["cz:pre","pre"],"tags":{"operator:wikidata":"Q15870812","power":"pole"},"addTags":{"operator":"PRE","operator:wikidata":"Q15870812","power":"pole"}},"power/substation/ceps-fdda90":{"name":"ČEPS","locationSet":{"include":["cz","de","pl","sk"]},"geometry":["area","point"],"matchScore":2,"terms":["čeps"],"tags":{"operator:wikidata":"Q11089927","power":"substation"},"addTags":{"operator":"ČEPS","operator:wikidata":"Q11089927","power":"substation"}},"power/substation/cez-845558":{"name":"ČEZ","locationSet":{"include":["cz","de","sk"]},"geometry":["area","point"],"matchScore":2,"terms":["čez","čez distribuce","čez distribuce, as"],"tags":{"operator:wikidata":"Q336735","power":"substation"},"addTags":{"operator":"ČEZ","operator:wikidata":"Q336735","power":"substation"}},"power/substation/dpp-fd39e1":{"name":"DPP","locationSet":{"include":["cz"]},"geometry":["area","point"],"matchScore":2,"terms":["cz:dpp","dpp"],"tags":{"operator:wikidata":"Q381100","power":"substation"},"addTags":{"operator":"DPP","operator:wikidata":"Q381100","power":"substation"}},"power/substation/pre-fd39e1":{"name":"PRE","locationSet":{"include":["cz"]},"geometry":["area","point"],"matchScore":2,"terms":["cz:pre","pre"],"tags":{"operator:wikidata":"Q15870812","power":"substation"},"addTags":{"operator":"PRE","operator:wikidata":"Q15870812","power":"substation"}},"power/substation/szdc-fd39e1":{"name":"SŽDC","locationSet":{"include":["cz"]},"geometry":["area","point"],"matchScore":2,"terms":["sždc"],"tags":{"operator:wikidata":"Q1848025","power":"substation"},"addTags":{"operator":"SŽDC","operator:wikidata":"Q1848025","power":"substation"}},"power/tower/ceps-2998d9":{"name":"ČEPS","locationSet":{"include":["cz","de","pl","sk"]},"geometry":["point","vertex"],"matchScore":2,"terms":["čeps"],"tags":{"operator:wikidata":"Q11089927","power":"tower"},"addTags":{"operator":"ČEPS","operator:wikidata":"Q11089927","power":"tower"}},"power/tower/cez-1cf775":{"name":"ČEZ","locationSet":{"include":["cz","de","sk"]},"geometry":["point","vertex"],"matchScore":2,"terms":["čez","čez distribuce","čez distribuce, as"],"tags":{"operator:wikidata":"Q336735","power":"tower"},"addTags":{"operator":"ČEZ","operator:wikidata":"Q336735","power":"tower"}},"power/tower/pre-814054":{"name":"PRE","locationSet":{"include":["cz"]},"geometry":["point","vertex"],"matchScore":2,"terms":["cz:pre","pre"],"tags":{"operator:wikidata":"Q15870812","power":"tower"},"addTags":{"operator":"PRE","operator:wikidata":"Q15870812","power":"tower"}},"power/transformer/ceps-ecf5fe":{"name":"ČEPS","locationSet":{"include":["cz","de","pl","sk"]},"geometry":["point","vertex"],"matchScore":2,"terms":["čeps"],"tags":{"operator:wikidata":"Q11089927","power":"transformer"},"addTags":{"operator":"ČEPS","operator:wikidata":"Q11089927","power":"transformer"}},"power/transformer/cez-a48566":{"name":"ČEZ","locationSet":{"include":["cz","de","sk"]},"geometry":["point","vertex"],"matchScore":2,"terms":["čez","čez distribuce","čez distribuce, as"],"tags":{"operator:wikidata":"Q336735","power":"transformer"},"addTags":{"operator":"ČEZ","operator:wikidata":"Q336735","power":"transformer"}},"power/transformer/dpp-5a056f":{"name":"DPP","locationSet":{"include":["cz"]},"geometry":["point","vertex"],"matchScore":2,"terms":["cz:dpp","dpp"],"tags":{"operator:wikidata":"Q381100","power":"transformer"},"addTags":{"operator":"DPP","operator:wikidata":"Q381100","power":"transformer"}},"power/transformer/pre-5a056f":{"name":"PRE","locationSet":{"include":["cz"]},"geometry":["point","vertex"],"matchScore":2,"terms":["cz:pre","pre"],"tags":{"operator:wikidata":"Q15870812","power":"transformer"},"addTags":{"operator":"PRE","operator:wikidata":"Q15870812","power":"transformer"}},"power/transformer/szdc-5a056f":{"name":"SŽDC","locationSet":{"include":["cz"]},"geometry":["point","vertex"],"matchScore":2,"terms":["sždc"],"tags":{"operator:wikidata":"Q1848025","power":"transformer"},"addTags":{"operator":"SŽDC","operator:wikidata":"Q1848025","power":"transformer"}},"type/route/power/ceps-3c5842":{"name":"ČEPS","locationSet":{"include":["cz","de","pl","sk"]},"geometry":["relation"],"matchScore":2,"terms":["čeps"],"reference":{"key":"route","value":"power"},"tags":{"operator:wikidata":"Q11089927","route":"power","type":"route"},"addTags":{"operator":"ČEPS","operator:wikidata":"Q11089927","route":"power","type":"route"}},"type/route/power/cez-e79b22":{"name":"ČEZ","locationSet":{"include":["cz","de","sk"]},"geometry":["relation"],"matchScore":2,"terms":["čez","čez distribuce","čez distribuce, as"],"reference":{"key":"route","value":"power"},"tags":{"operator:wikidata":"Q336735","route":"power","type":"route"},"addTags":{"operator":"ČEZ","operator:wikidata":"Q336735","route":"power","type":"route"}},"type/route/railway/ceskedrahy-fb3809":{"name":"České dráhy","locationSet":{"include":["cz"]},"geometry":["relation"],"matchScore":2,"terms":["čd","české dráhy","cz:čd"],"reference":{"key":"route","value":"railway"},"tags":{"operator:wikidata":"Q304944","route":"railway","type":"route"},"addTags":{"operator":"České dráhy","operator:short":"ČD","operator:wikidata":"Q304944","route":"railway","type":"route"}},"type/route/railway/spravazeleznicso-fb3809":{"name":"Správa železnic, s. o.","locationSet":{"include":["cz"]},"geometry":["relation"],"matchScore":2,"terms":["správa železnic","správa železnic, s. o.","sžcz"],"reference":{"key":"route","value":"railway"},"tags":{"operator:wikidata":"Q1848025","route":"railway","type":"route"},"addTags":{"operator":"Správa železnic, s. o.","operator:wikidata":"Q1848025","route":"railway","type":"route"}},"telecom/exchange/interoute-58ec5d":{"name":"Interoute","locationSet":{"include":["by","bg","cz","hu","pl","md","ro","ru","sk","ua","ax","gg","je","cq","dk","ee","fo","fi","is","ie","im","lv","lt","no","sj","se","gb","al","ad","ba","hr","gi","gr","va","it","mt","me","mk","pt","sm","rs","si","es","xk","at","be","fr","de","li","lu","mc","nl","ch"]},"geometry":["point","area"],"matchScore":2,"terms":["interoute"],"fields":["name","operator","{telecom/exchange}"],"tags":{"operator:wikidata":"Q1668090","telecom":"exchange"},"addTags":{"operator":"Interoute","operator:wikidata":"Q1668090","telecom":"exchange"}},"public_transport/platform/bus_point/dpmhk-2a2472":{"name":"DPmHK","locationSet":{"include":["cz"]},"geometry":["point","vertex"],"matchScore":2,"terms":["dpmhk","dpmhk, a.s."],"reference":{"key":"public_transport","value":"platform"},"tags":{"bus":"yes","network:wikidata":"Q58557872","public_transport":"platform"},"addTags":{"bus":"yes","highway":"bus_stop","network":"DPmHK","network:wikidata":"Q58557872","public_transport":"platform"}},"public_transport/platform/bus_point/duk-2a2472":{"name":"DÚK","locationSet":{"include":["cz"]},"geometry":["point","vertex"],"matchScore":2,"terms":["dúk"],"reference":{"key":"public_transport","value":"platform"},"tags":{"bus":"yes","network:wikidata":"Q12021691","public_transport":"platform"},"addTags":{"bus":"yes","highway":"bus_stop","network":"DÚK","network:wikidata":"Q12021691","public_transport":"platform"}},"public_transport/platform/bus_point/idsbk-5f8357":{"name":"IDS BK","locationSet":{"include":["at","cz","sk"]},"geometry":["point","vertex"],"matchScore":2,"terms":["ids bk"],"reference":{"key":"public_transport","value":"platform"},"tags":{"bus":"yes","network:wikidata":"Q4241634","public_transport":"platform"},"addTags":{"bus":"yes","highway":"bus_stop","network":"IDS BK","network:wikidata":"Q4241634","public_transport":"platform"}},"public_transport/platform/bus_point/idsjmk-5f8357":{"name":"IDS JMK","locationSet":{"include":["at","cz","sk"]},"geometry":["point","vertex"],"matchScore":2,"terms":["ids jmk"],"reference":{"key":"public_transport","value":"platform"},"tags":{"bus":"yes","network:wikidata":"Q12020731","public_transport":"platform"},"addTags":{"bus":"yes","highway":"bus_stop","network":"IDS JMK","network:wikidata":"Q12020731","public_transport":"platform"}},"public_transport/platform/bus_point/idsta-2a2472":{"name":"IDS TA","locationSet":{"include":["cz"]},"geometry":["point","vertex"],"matchScore":2,"terms":["ids ta"],"reference":{"key":"public_transport","value":"platform"},"tags":{"bus":"yes","network:wikidata":"Q12021690","public_transport":"platform"},"addTags":{"bus":"yes","highway":"bus_stop","network":"IDS TA","network:wikidata":"Q12021690","public_transport":"platform"}},"public_transport/platform/bus_point/idszid-2a2472":{"name":"IDS ZID","locationSet":{"include":["cz"]},"geometry":["point","vertex"],"matchScore":2,"terms":["ids zid"],"reference":{"key":"public_transport","value":"platform"},"tags":{"bus":"yes","network:wikidata":"Q10861159","public_transport":"platform"},"addTags":{"bus":"yes","highway":"bus_stop","network":"IDS ZID","network:wikidata":"Q10861159","public_transport":"platform"}},"public_transport/platform/bus_point/iredo-b99f27":{"name":"IREDO","locationSet":{"include":["cz","pl"]},"geometry":["point","vertex"],"matchScore":2,"terms":["iredo"],"reference":{"key":"public_transport","value":"platform"},"tags":{"bus":"yes","network:wikidata":"Q12021384","public_transport":"platform"},"addTags":{"bus":"yes","highway":"bus_stop","network":"IREDO","network:wikidata":"Q12021384","public_transport":"platform"}},"public_transport/platform/bus_point/madtrebic-2a2472":{"name":"MAD Třebíč","locationSet":{"include":["cz"]},"geometry":["point","vertex"],"matchScore":2,"terms":["mad třebíč"],"reference":{"key":"public_transport","value":"platform"},"tags":{"bus":"yes","network:wikidata":"Q12039369","public_transport":"platform"},"addTags":{"bus":"yes","highway":"bus_stop","network":"MAD Třebíč","network:wikidata":"Q12039369","public_transport":"platform"}},"public_transport/platform/bus_point/mhddpmml-2a2472":{"name":"MHD DPmML","locationSet":{"include":["cz"]},"geometry":["point","vertex"],"matchScore":2,"terms":["mhd dpmml"],"reference":{"key":"public_transport","value":"platform"},"tags":{"bus":"yes","network:wikidata":"Q11822093","public_transport":"platform"},"addTags":{"bus":"yes","highway":"bus_stop","network":"MHD DPmML","network:wikidata":"Q11822093","public_transport":"platform"}},"public_transport/platform/bus_point/prazskaintegrovanadoprava-2a2472":{"name":"Pražská integrovaná doprava","locationSet":{"include":["cz"]},"geometry":["point","vertex"],"matchScore":2,"terms":["pražská integrovaná doprava"],"reference":{"key":"public_transport","value":"platform"},"tags":{"bus":"yes","network:wikidata":"Q2108171","public_transport":"platform"},"addTags":{"bus":"yes","highway":"bus_stop","network":"Pražská integrovaná doprava","network:wikidata":"Q2108171","public_transport":"platform"}},"public_transport/platform/bus_point/sidstredoceskaintegrovanadoprava-2a2472":{"name":"SID Středočeská integrovaná doprava","locationSet":{"include":["cz"]},"geometry":["point","vertex"],"matchScore":2,"terms":["sid středočeská integrovaná doprava"],"reference":{"key":"public_transport","value":"platform"},"tags":{"bus":"yes","network:wikidata":"Q12057029","public_transport":"platform"},"addTags":{"bus":"yes","highway":"bus_stop","network":"SID Středočeská integrovaná doprava","network:wikidata":"Q12057029","public_transport":"platform"}},"public_transport/platform/bus_point/vor-f355a5":{"name":"VOR","locationSet":{"include":["at","cz","hu","sk"]},"geometry":["point","vertex"],"matchScore":2,"terms":["vor"],"reference":{"key":"public_transport","value":"platform"},"tags":{"bus":"yes","network:wikidata":"Q2516485","public_transport":"platform"},"addTags":{"bus":"yes","highway":"bus_stop","network":"VOR","network:wikidata":"Q2516485","public_transport":"platform"}},"type/route/bus/dpmhk-1bafda":{"name":"DPmHK","locationSet":{"include":["cz"]},"geometry":["relation"],"matchScore":2,"terms":["dpmhk","dpmhk, a.s."],"reference":{"key":"route","value":"bus"},"tags":{"network:wikidata":"Q58557872","route":"bus","type":"route"},"addTags":{"network":"DPmHK","network:wikidata":"Q58557872","route":"bus","type":"route"}},"type/route/bus/duk-1bafda":{"name":"DÚK","locationSet":{"include":["cz"]},"geometry":["relation"],"matchScore":2,"terms":["dúk"],"reference":{"key":"route","value":"bus"},"tags":{"network:wikidata":"Q12021691","route":"bus","type":"route"},"addTags":{"network":"DÚK","network:wikidata":"Q12021691","route":"bus","type":"route"}},"type/route/bus/idsbk-151bbe":{"name":"IDS BK","locationSet":{"include":["at","cz","sk"]},"geometry":["relation"],"matchScore":2,"terms":["ids bk"],"reference":{"key":"route","value":"bus"},"tags":{"network:wikidata":"Q4241634","route":"bus","type":"route"},"addTags":{"network":"IDS BK","network:wikidata":"Q4241634","route":"bus","type":"route"}},"type/route/bus/idsjmk-151bbe":{"name":"IDS JMK","locationSet":{"include":["at","cz","sk"]},"geometry":["relation"],"matchScore":2,"terms":["ids jmk"],"reference":{"key":"route","value":"bus"},"tags":{"network:wikidata":"Q12020731","route":"bus","type":"route"},"addTags":{"network":"IDS JMK","network:wikidata":"Q12020731","route":"bus","type":"route"}},"type/route/bus/idsta-1bafda":{"name":"IDS TA","locationSet":{"include":["cz"]},"geometry":["relation"],"matchScore":2,"terms":["ids ta"],"reference":{"key":"route","value":"bus"},"tags":{"network:wikidata":"Q12021690","route":"bus","type":"route"},"addTags":{"network":"IDS TA","network:wikidata":"Q12021690","route":"bus","type":"route"}},"type/route/bus/idszid-1bafda":{"name":"IDS ZID","locationSet":{"include":["cz"]},"geometry":["relation"],"matchScore":2,"terms":["ids zid"],"reference":{"key":"route","value":"bus"},"tags":{"network:wikidata":"Q10861159","route":"bus","type":"route"},"addTags":{"network":"IDS ZID","network:wikidata":"Q10861159","route":"bus","type":"route"}},"type/route/bus/iredo-a1a5c7":{"name":"IREDO","locationSet":{"include":["cz","pl"]},"geometry":["relation"],"matchScore":2,"terms":["iredo"],"reference":{"key":"route","value":"bus"},"tags":{"network:wikidata":"Q12021384","route":"bus","type":"route"},"addTags":{"network":"IREDO","network:wikidata":"Q12021384","route":"bus","type":"route"}},"type/route/bus/madtrebic-1bafda":{"name":"MAD Třebíč","locationSet":{"include":["cz"]},"geometry":["relation"],"matchScore":2,"terms":["mad třebíč"],"reference":{"key":"route","value":"bus"},"tags":{"network:wikidata":"Q12039369","route":"bus","type":"route"},"addTags":{"network":"MAD Třebíč","network:wikidata":"Q12039369","route":"bus","type":"route"}},"type/route/bus/mhddpmml-1bafda":{"name":"MHD DPmML","locationSet":{"include":["cz"]},"geometry":["relation"],"matchScore":2,"terms":["mhd dpmml"],"reference":{"key":"route","value":"bus"},"tags":{"network:wikidata":"Q11822093","route":"bus","type":"route"},"addTags":{"network":"MHD DPmML","network:wikidata":"Q11822093","route":"bus","type":"route"}},"type/route/bus/prazskaintegrovanadoprava-1bafda":{"name":"Pražská integrovaná doprava","locationSet":{"include":["cz"]},"geometry":["relation"],"matchScore":2,"terms":["pražská integrovaná doprava"],"reference":{"key":"route","value":"bus"},"tags":{"network:wikidata":"Q2108171","route":"bus","type":"route"},"addTags":{"network":"Pražská integrovaná doprava","network:wikidata":"Q2108171","route":"bus","type":"route"}},"type/route/bus/sidstredoceskaintegrovanadoprava-1bafda":{"name":"SID Středočeská integrovaná doprava","locationSet":{"include":["cz"]},"geometry":["relation"],"matchScore":2,"terms":["sid středočeská integrovaná doprava"],"reference":{"key":"route","value":"bus"},"tags":{"network:wikidata":"Q12057029","route":"bus","type":"route"},"addTags":{"network":"SID Středočeská integrovaná doprava","network:wikidata":"Q12057029","route":"bus","type":"route"}},"type/route/bus/vor-df49c7":{"name":"VOR","locationSet":{"include":["at","cz","hu","sk"]},"geometry":["relation"],"matchScore":2,"terms":["vor"],"reference":{"key":"route","value":"bus"},"tags":{"network:wikidata":"Q2516485","route":"bus","type":"route"},"addTags":{"network":"VOR","network:wikidata":"Q2516485","route":"bus","type":"route"}},"type/route/subway/prazskemetro-68f608":{"name":"Pražské metro","locationSet":{"include":["cz"]},"geometry":["relation"],"matchScore":2,"terms":["dopravní podnik hl. m. prahy","dpp","pražské metro"],"reference":{"key":"route","value":"subway"},"tags":{"network:wikidata":"Q190271","route":"subway","type":"route"},"addTags":{"network":"Pražské metro","network:wikidata":"Q190271","operator":"Dopravní podnik hl. m. Prahy","operator:short":"DPP","operator:wikidata":"Q381100","route":"subway","type":"route"}},"type/route/train/eurocity-6b9d23":{"name":"EuroCity","locationSet":{"include":["by","bg","cz","hu","pl","md","ro","ru","sk","ua","ax","gg","je","cq","dk","ee","fo","fi","is","ie","im","lv","lt","no","sj","se","gb","al","ad","ba","hr","gi","gr","va","it","mt","me","mk","pt","sm","rs","si","es","xk","at","be","fr","de","li","lu","mc","nl","ch"]},"geometry":["relation"],"matchScore":2,"terms":["eurocity"],"reference":{"key":"route","value":"train"},"tags":{"network:wikidata":"Q753050","route":"train","type":"route"},"addTags":{"network":"EuroCity","network:wikidata":"Q753050","route":"train","type":"route"}},"type/route/train/euronight-6b9d23":{"name":"EuroNight","locationSet":{"include":["by","bg","cz","hu","pl","md","ro","ru","sk","ua","ax","gg","je","cq","dk","ee","fo","fi","is","ie","im","lv","lt","no","sj","se","gb","al","ad","ba","hr","gi","gr","va","it","mt","me","mk","pt","sm","rs","si","es","xk","at","be","fr","de","li","lu","mc","nl","ch"]},"geometry":["relation"],"matchScore":2,"terms":["euronight"],"reference":{"key":"route","value":"train"},"tags":{"network:wikidata":"Q257307","route":"train","type":"route"},"addTags":{"network":"EuroNight","network:wikidata":"Q257307","route":"train","type":"route"}},"type/route/train/kolejeslaskie-163923":{"name":"Koleje Śląskie","locationSet":{"include":["cz","pl"]},"geometry":["relation"],"matchScore":2,"terms":["koleje śląskie","ksl"],"reference":{"key":"route","value":"train"},"tags":{"network:wikidata":"Q776749","route":"train","type":"route"},"addTags":{"network":"Koleje Śląskie","network:short":"KSl","network:wikidata":"Q776749","operator":"Koleje Śląskie","operator:wikidata":"Q776749","route":"train","type":"route"}},"type/route/train/vor-5316b2":{"name":"VOR","locationSet":{"include":["at","cz","hu","sk"]},"geometry":["relation"],"matchScore":2,"terms":["vor"],"reference":{"key":"route","value":"train"},"tags":{"network:wikidata":"Q2516485","route":"train","type":"route"},"addTags":{"network":"VOR","network:wikidata":"Q2516485","route":"train","type":"route"}},"type/route/tram/idsjmk-2f0afc":{"name":"IDS JMK","locationSet":{"include":["cz"]},"geometry":["relation"],"matchScore":2,"terms":["cz:ids jmk","dpmb","ids jmk"],"reference":{"key":"route","value":"tram"},"tags":{"network:wikidata":"Q12020731","route":"tram","type":"route"},"addTags":{"network":"IDS JMK","network:wikidata":"Q12020731","operator":"DPMB","operator:wikidata":"Q3700534","route":"tram","type":"route"}},"type/route/tram/idsok-2f0afc":{"name":"IDSOK","locationSet":{"include":["cz"]},"geometry":["relation"],"matchScore":2,"terms":["idsok"],"reference":{"key":"route","value":"tram"},"tags":{"network:wikidata":"Q12021688","route":"tram","type":"route"},"addTags":{"network":"IDSOK","network:wikidata":"Q12021688","route":"tram","type":"route"}},"type/route/tram/odis-2f0afc":{"name":"ODIS","locationSet":{"include":["cz"]},"geometry":["relation"],"matchScore":2,"terms":["dopravní podnik ostrava","dpo","odis"],"reference":{"key":"route","value":"tram"},"tags":{"network:wikidata":"Q1741955","route":"tram","type":"route"},"addTags":{"network":"ODIS","network:wikidata":"Q1741955","operator":"Dopravní podnik Ostrava","operator:short":"DPO","operator:wikidata":"Q11323689","route":"tram","type":"route"}},"type/route/tram/pid-2f0afc":{"name":"PID","locationSet":{"include":["cz"]},"geometry":["relation"],"matchScore":2,"terms":["dopravní podnik hlavního města prahy","dpp","pid"],"reference":{"key":"route","value":"tram"},"tags":{"network:wikidata":"Q2108171","route":"tram","type":"route"},"addTags":{"network":"PID","network:wikidata":"Q2108171","operator":"Dopravní podnik hlavního města Prahy","operator:short":"DPP","operator:wikidata":"Q381100","route":"tram","type":"route"}},"type/route/trolleybus/idsjmk-706c20":{"name":"IDS JMK","locationSet":{"include":["cz"]},"geometry":["relation"],"matchScore":2,"terms":["cz:ids jmk","dpmb","ids jmk"],"reference":{"key":"route","value":"trolleybus"},"tags":{"network:wikidata":"Q12020731","route":"trolleybus","type":"route"},"addTags":{"network":"IDS JMK","network:wikidata":"Q12020731","operator":"DPMB","operator:wikidata":"Q3700534","route":"trolleybus","type":"route"}},"type/route/trolleybus/idszid-706c20":{"name":"IDS ZID","locationSet":{"include":["cz"]},"geometry":["relation"],"matchScore":2,"terms":["dszo","ids zid"],"reference":{"key":"route","value":"trolleybus"},"tags":{"network:wikidata":"Q10861159","route":"trolleybus","type":"route"},"addTags":{"network":"IDS ZID","network:wikidata":"Q10861159","operator":"DSZO","operator:wikidata":"Q58524503","route":"trolleybus","type":"route"}},"type/route/trolleybus/mhdhradeckralove-706c20":{"name":"MHD Hradec Králové","locationSet":{"include":["cz"]},"geometry":["relation"],"matchScore":2,"terms":["dpmhk","mhd hradec králové"],"reference":{"key":"route","value":"trolleybus"},"tags":{"network:wikidata":"Q11865048","route":"trolleybus","type":"route"},"addTags":{"network":"MHD Hradec Králové","network:wikidata":"Q11865048","operator":"DPMHK","operator:wikidata":"Q58557872","route":"trolleybus","type":"route"}},"type/route/trolleybus/mhdopava-706c20":{"name":"MHD Opava","locationSet":{"include":["cz"]},"geometry":["relation"],"matchScore":2,"terms":["mdpo","mhd opava"],"reference":{"key":"route","value":"trolleybus"},"tags":{"network:wikidata":"Q12043044","route":"trolleybus","type":"route"},"addTags":{"network":"MHD Opava","network:wikidata":"Q12043044","operator":"MDPO","operator:wikidata":"Q12039422","route":"trolleybus","type":"route"}},"type/route/trolleybus/mhdplzen-706c20":{"name":"MHD Plzeň","locationSet":{"include":["cz"]},"geometry":["relation"],"matchScore":2,"terms":["mhd plzeň","pmdp"],"reference":{"key":"route","value":"trolleybus"},"tags":{"network:wikidata":"Q12021682","route":"trolleybus","type":"route"},"addTags":{"network":"MHD Plzeň","network:wikidata":"Q12021682","operator":"PMDP","operator:wikidata":"Q2099900","route":"trolleybus","type":"route"}},"type/route/trolleybus/mhdteplice-706c20":{"name":"MHD Teplice","locationSet":{"include":["cz"]},"geometry":["relation"],"matchScore":2,"terms":["arriva teplice","mhd teplice"],"reference":{"key":"route","value":"trolleybus"},"searchable":false,"tags":{"network:wikidata":"Q12021691","route":"trolleybus","type":"route"},"addTags":{"network":"MHD Teplice","network:wikidata":"Q12021691","operator":"Arriva Teplice","operator:wikidata":"Q11879344","route":"trolleybus","type":"route"}},"type/route/trolleybus/mhdustinadlabem-706c20":{"name":"MHD Ústí nad Labem","locationSet":{"include":["cz"]},"geometry":["relation"],"matchScore":2,"terms":["dopravní podnik města ústí nad labem","mhd ústí nad labem"],"reference":{"key":"route","value":"trolleybus"},"tags":{"network:wikidata":"Q12021691","route":"trolleybus","type":"route"},"addTags":{"network":"MHD Ústí nad Labem","network:wikidata":"Q12021691","operator":"Dopravní podnik města Ústí nad Labem","operator:wikidata":"Q11822130","route":"trolleybus","type":"route"}},"type/route/trolleybus/odis-706c20":{"name":"ODIS","locationSet":{"include":["cz"]},"geometry":["relation"],"matchScore":2,"terms":["dpo","odis"],"reference":{"key":"route","value":"trolleybus"},"tags":{"network:wikidata":"Q12043044","route":"trolleybus","type":"route"},"addTags":{"network":"ODIS","network:wikidata":"Q12043044","operator":"DPO","operator:wikidata":"Q11323689","route":"trolleybus","type":"route"}}}