{"amenity/fast_food/pizza/debonairspizza-10dad6":{"name":"Debonairs Pizza","locationSet":{"include":["ae","bw","ke","ls","mu","mw","mz","na","ng","sd","ss","sz","za","zm"]},"geometry":["point","area"],"matchScore":2,"terms":["debonairs","debonairs pizza"],"reference":{"key":"cuisine","value":"pizza"},"tags":{"amenity":"fast_food","brand:wikidata":"Q65079407","cuisine":"pizza"},"addTags":{"amenity":"fast_food","brand":"Debonairs Pizza","brand:wikidata":"Q65079407","cuisine":"pizza","name":"Debonairs Pizza","takeaway":"yes"}},"amenity/fast_food/sandwich/momen-f39225":{"name":"Mo'men","locationSet":{"include":["bh","eg","kw","ly","my","sa","sd"]},"geometry":["point","area"],"matchScore":2,"terms":["mo'men"],"reference":{"key":"cuisine","value":"sandwich"},"tags":{"amenity":"fast_food","brand:wikidata":"Q3317535","cuisine":"sandwich"},"addTags":{"amenity":"fast_food","brand":"Mo'men","brand:wikidata":"Q3317535","cuisine":"sandwich","name":"Mo'men","takeaway":"yes"}},"amenity/fast_food/chicken/kfc-15a250":{"name":"دجاج كنتاكي","locationSet":{"include":["ae","bh","eg","iq","jo","kw","lb","ly","ma","om","qa","sa","sd","sy","tn","ye"]},"geometry":["point","area"],"matchScore":2,"terms":["kfc","دجاج كنتاكي"],"reference":{"key":"cuisine","value":"chicken"},"tags":{"amenity":"fast_food","brand:wikidata":"Q524757","cuisine":"chicken"},"addTags":{"amenity":"fast_food","brand":"دجاج كنتاكي","brand:ar":"دجاج كنتاكي","brand:en":"KFC","brand:wikidata":"Q524757","cuisine":"chicken","name":"دجاج كنتاكي","name:ar":"دجاج كنتاكي","name:en":"KFC","takeaway":"yes"}},"amenity/fast_food/sandwich/kudu-1b3be3":{"name":"كودو","locationSet":{"include":["ae","bh","jo","sa","sd"]},"geometry":["point","area"],"matchScore":2,"terms":["kudu","كودو"],"reference":{"key":"cuisine","value":"sandwich"},"tags":{"amenity":"fast_food","brand:wikidata":"Q6441777","cuisine":"sandwich"},"addTags":{"amenity":"fast_food","brand":"كودو","brand:ar":"كودو","brand:en":"Kudu","brand:wikidata":"Q6441777","cuisine":"sandwich","name":"كودو","name:ar":"كودو","name:en":"Kudu","takeaway":"yes"}},"amenity/fuel/engen-b7f522":{"name":"Engen","locationSet":{"include":["dz","eg","ly","ma","sd","tn","eh","io","bi","km","dj","er","et","tf","ke","mg","mw","mu","yt","mz","re","rw","sc","so","ss","ug","tz","zm","zw","ao","cm","cf","td","cg","cd","gq","ga","st","bw","sz","ls","na","za","bj","bf","cv","ci","gm","gh","gn","gw","lr","ml","mr","ne","ng","sn","sl","tg","sh"]},"geometry":["point","area"],"matchScore":2,"terms":["engen","engen petroleum"],"fields":["name","brand","{amenity/fuel}"],"tags":{"amenity":"fuel","brand:wikidata":"Q3054251"},"addTags":{"amenity":"fuel","brand":"Engen","brand:wikidata":"Q3054251","name":"Engen"}},"shop/mobile_phone/mtn-fe03c5":{"name":"MTN","locationSet":{"include":["af","bj","bw","cg","ci","cm","gn","gw","ir","lr","ni","rw","sd","ss","sy","ug","ye","za","zm"]},"geometry":["point","area"],"matchScore":2,"terms":["agence mtn","mtn"],"tags":{"brand:wikidata":"Q1813361","shop":"mobile_phone"},"addTags":{"brand":"MTN","brand:wikidata":"Q1813361","name":"MTN","shop":"mobile_phone"}}}