{"amenity/atm/danskebank-a2bade":{"name":"Danske Bank","locationSet":{"include":["dk","fi","gb","lt","no","se"]},"geometry":["point","vertex"],"matchScore":2,"terms":["danske bank"],"fields":["name","brand","{amenity/atm}"],"tags":{"amenity":"atm","brand:wikidata":"Q1636974"},"addTags":{"amenity":"atm","brand":"Danske Bank","brand:wikidata":"Q1636974","operator":"Danske Bank","operator:wikidata":"Q1636974"}},"amenity/atm/luminorbank-82bd77":{"name":"Luminor Bank","locationSet":{"include":["ee","lt","lv"]},"geometry":["point","vertex"],"matchScore":2,"terms":["dnb","luminor bank"],"fields":["name","brand","{amenity/atm}"],"tags":{"amenity":"atm","brand:wikidata":"Q28966957"},"addTags":{"amenity":"atm","brand":"Luminor Bank","brand:wikidata":"Q28966957","operator":"Luminor Bank","operator:wikidata":"Q28966957"}},"amenity/atm/nordea-73118e":{"name":"Nordea","locationSet":{"include":["dk","ee","fi","gb","lt","lv","no","pl","se","us"]},"geometry":["point","vertex"],"matchScore":2,"terms":["nordea"],"fields":["name","brand","{amenity/atm}"],"tags":{"amenity":"atm","brand:wikidata":"Q1123823"},"addTags":{"amenity":"atm","brand":"Nordea","brand:wikidata":"Q1123823","operator":"Nordea","operator:wikidata":"Q1123823"}},"amenity/atm/seb-7527a2":{"name":"SEB","locationSet":{"include":["de","ee","lt","lv","se"]},"geometry":["point","vertex"],"matchScore":2,"terms":["seb"],"fields":["name","brand","{amenity/atm}"],"tags":{"amenity":"atm","brand:wikidata":"Q975655"},"addTags":{"amenity":"atm","brand":"SEB","brand:wikidata":"Q975655","operator":"SEB","operator:wikidata":"Q975655"}},"amenity/atm/swedbank-ab2e60":{"name":"Swedbank","locationSet":{"include":["ee","lt","lv","se"]},"geometry":["point","vertex"],"matchScore":2,"terms":["swedbank"],"fields":["name","brand","{amenity/atm}"],"tags":{"amenity":"atm","brand:wikidata":"Q1145493"},"addTags":{"amenity":"atm","brand":"Swedbank","brand:wikidata":"Q1145493","operator":"Swedbank","operator:wikidata":"Q1145493"}},"amenity/bank/danskebank-c75d31":{"name":"Danske Bank","locationSet":{"include":["dk","fi","gb","lt","no","se"]},"geometry":["point","area"],"matchScore":2,"terms":["danske bank"],"tags":{"amenity":"bank","brand:wikidata":"Q1636974"},"addTags":{"amenity":"bank","brand":"Danske Bank","brand:wikidata":"Q1636974","name":"Danske Bank"}},"amenity/bank/luminorbank-3ce14c":{"name":"Luminor Bank","locationSet":{"include":["ee","lt","lv"]},"geometry":["point","area"],"matchScore":2,"terms":["dnb","luminor bank"],"tags":{"amenity":"bank","brand:wikidata":"Q28966957"},"addTags":{"amenity":"bank","brand":"Luminor Bank","brand:wikidata":"Q28966957","name":"Luminor Bank"}},"amenity/bank/nordea-0318fc":{"name":"Nordea","locationSet":{"include":["dk","ee","fi","gb","lt","lv","no","pl","se","us"]},"geometry":["point","area"],"matchScore":2,"terms":["nordea"],"fields":["name","brand","{amenity/bank}"],"tags":{"amenity":"bank","brand:wikidata":"Q1123823"},"addTags":{"amenity":"bank","brand":"Nordea","brand:wikidata":"Q1123823","name":"Nordea"}},"amenity/bank/seb-e3cf16":{"name":"SEB","locationSet":{"include":["de","ee","lt","lv","se"]},"geometry":["point","area"],"matchScore":2,"terms":["seb"],"tags":{"amenity":"bank","brand:wikidata":"Q975655"},"addTags":{"amenity":"bank","brand":"SEB","brand:wikidata":"Q975655","name":"SEB"}},"amenity/bank/swedbank-2cd0b2":{"name":"Swedbank","locationSet":{"include":["ee","lt","lv","se"]},"geometry":["point","area"],"matchScore":2,"terms":["swedbank"],"tags":{"amenity":"bank","brand:wikidata":"Q1145493"},"addTags":{"amenity":"bank","brand":"Swedbank","brand:wikidata":"Q1145493","name":"Swedbank"}},"amenity/car_wash/orlen-b1b959":{"name":"Orlen","locationSet":{"include":["lt","pl"]},"geometry":["point","area"],"matchScore":2,"terms":["orlen"],"tags":{"amenity":"car_wash","brand:wikidata":"Q971649"},"addTags":{"amenity":"car_wash","brand":"Orlen","brand:wikidata":"Q971649","name":"Orlen"}},"amenity/casino/topsport-c593f4":{"name":"Topsport","locationSet":{"include":["lt"]},"geometry":["point","area"],"matchScore":2,"terms":["topsport"],"tags":{"amenity":"casino","brand:wikidata":"Q105343094"},"addTags":{"amenity":"casino","brand":"Topsport","brand:wikidata":"Q105343094","name":"Topsport"}},"amenity/charging_station/ionity-b625d6":{"name":"Ionity","locationSet":{"include":["by","bg","cz","hu","pl","md","ro","ru","sk","ua","ax","gg","je","cq","dk","ee","fo","fi","is","ie","im","lv","lt","no","sj","se","gb","al","ad","ba","hr","gi","gr","va","it","mt","me","mk","pt","sm","rs","si","es","xk","at","be","fr","de","li","lu","mc","nl","ch"]},"geometry":["point","area"],"matchScore":2,"terms":["ionity","ionity gmbh"],"fields":["name","brand","{amenity/charging_station}"],"tags":{"amenity":"charging_station","brand:wikidata":"Q42717773"},"addTags":{"amenity":"charging_station","brand":"Ionity","brand:wikidata":"Q42717773"}},"amenity/cinema/multikino-2d7744":{"name":"Multikino","locationSet":{"include":["lt","lv","pl"]},"geometry":["point","area"],"matchScore":2,"terms":["multikino","vue cinemas"],"fields":["name","brand","{amenity/cinema}"],"tags":{"amenity":"cinema","brand:wikidata":"Q1144802"},"addTags":{"amenity":"cinema","brand":"Multikino","brand:wikidata":"Q1144802","name":"Multikino","operator":"Vue Cinemas"}},"amenity/fast_food/woktowalk-f5ada9":{"name":"Wok to Walk","locationSet":{"include":["ae","bg","co","cy","ec","ee","es","fx","gb","il","in","it","lt","lv","ma","mt","mx","nl","om","pa","pt","qa","sa","us"]},"geometry":["point","area"],"matchScore":2,"terms":["wok to walk"],"tags":{"amenity":"fast_food","brand:wikidata":"Q4020634"},"addTags":{"amenity":"fast_food","brand":"Wok to Walk","brand:wikidata":"Q4020634","cuisine":"asian","name":"Wok to Walk","takeaway":"yes"}},"amenity/fuel/amic-4797a1":{"name":"Amic","locationSet":{"include":["at","lt","lv","pl","ua"]},"geometry":["point","area"],"matchScore":2,"terms":["amic","amic energy"],"fields":["name","brand","{amenity/fuel}"],"tags":{"amenity":"fuel","brand:wikidata":"Q96047373"},"addTags":{"amenity":"fuel","brand":"Amic","brand:wikidata":"Q96047373","name":"Amic"}},"amenity/fuel/as24-3463db":{"name":"AS 24","locationSet":{"include":["at","be","bg","cz","de","dk","es","fr","gb","ge","gr","hr","hu","ie","it","lt","lu","mk","nl","pl","pt","ro","rs","se","si","sk","ua"]},"geometry":["point","area"],"matchScore":2,"terms":["as 24"],"fields":["name","brand","{amenity/fuel}"],"tags":{"amenity":"fuel","brand:wikidata":"Q2819394"},"addTags":{"amenity":"fuel","brand":"AS 24","brand:wikidata":"Q2819394","hgv":"only","name":"AS 24"}},"amenity/fuel/balticpetroleum-d665db":{"name":"Baltic Petroleum","locationSet":{"include":["lt"]},"geometry":["point","area"],"matchScore":2,"terms":["baltic petroleum"],"fields":["name","brand","{amenity/fuel}"],"tags":{"amenity":"fuel","brand:wikidata":"Q96591447"},"addTags":{"amenity":"fuel","brand":"Baltic Petroleum","brand:wikidata":"Q96591447","name":"Baltic Petroleum"}},"amenity/fuel/orlen-66fb29":{"name":"Orlen","locationSet":{"include":["lt","pl"]},"geometry":["point","area"],"matchScore":2,"terms":["orlen"],"fields":["name","brand","{amenity/fuel}"],"tags":{"amenity":"fuel","brand:wikidata":"Q971649"},"addTags":{"amenity":"fuel","brand":"Orlen","brand:wikidata":"Q971649","name":"Orlen"}},"amenity/fuel/viada-86cad0":{"name":"Viada","locationSet":{"include":["lt","lv"]},"geometry":["point","area"],"matchScore":2,"terms":["viada"],"fields":["name","brand","{amenity/fuel}"],"tags":{"amenity":"fuel","brand:wikidata":"Q12663942"},"addTags":{"amenity":"fuel","brand":"Viada","brand:wikidata":"Q12663942","name":"Viada"}},"amenity/parcel_locker/zbox-5a86e9":{"name":"Packeta","locationSet":{"include":["by","bg","cz","hu","pl","md","ro","ru","sk","ua","ax","gg","je","cq","dk","ee","fo","fi","is","ie","im","lv","lt","no","sj","se","gb","al","ad","ba","hr","gi","gr","va","it","mt","me","mk","pt","sm","rs","si","es","xk","at","be","fr","de","li","lu","mc","nl","ch"]},"geometry":["point","vertex","area"],"matchScore":2,"terms":["packeta"],"fields":["name","brand","{amenity/parcel_locker}"],"reference":{"key":"amenity","value":"parcel_locker"},"tags":{"amenity":"parcel_locker","brand:wikidata":"Q67809905"},"addTags":{"amenity":"parcel_locker","brand":"Packeta","brand:wikidata":"Q67809905","name":"Z-Box"}},"amenity/pharmacy/benu-1cd44c":{"name":"Benu","locationSet":{"include":["ch","cz","ee","hu","lt","lv","me","nl","rs","sk"]},"geometry":["point","area"],"matchScore":2,"terms":["benu","benu apotheek","benu aptieka","benu vaistinė"],"reference":{"key":"amenity","value":"pharmacy"},"tags":{"amenity":"pharmacy","brand:wikidata":"Q62562792"},"addTags":{"amenity":"pharmacy","brand":"Benu","brand:wikidata":"Q62562792","healthcare":"pharmacy","name":"Benu"}},"amenity/pharmacy/camelia-503e9a":{"name":"Camelia","locationSet":{"include":["lt"]},"geometry":["point","area"],"matchScore":2,"terms":["camelia"],"reference":{"key":"amenity","value":"pharmacy"},"tags":{"amenity":"pharmacy","brand:wikidata":"Q15867413"},"addTags":{"amenity":"pharmacy","brand":"Camelia","brand:wikidata":"Q15867413","healthcare":"pharmacy","name":"Camelia"}},"amenity/pharmacy/eurovaistine-503e9a":{"name":"Eurovaistinė","locationSet":{"include":["lt"]},"geometry":["point","area"],"matchScore":2,"terms":["eurovaistinė"],"reference":{"key":"amenity","value":"pharmacy"},"tags":{"amenity":"pharmacy","brand:wikidata":"Q267205"},"addTags":{"amenity":"pharmacy","brand":"Eurovaistinė","brand:wikidata":"Q267205","healthcare":"pharmacy","name":"Eurovaistinė"}},"amenity/pharmacy/gintarinevaistine-503e9a":{"name":"Gintarinė vaistinė","locationSet":{"include":["lt"]},"geometry":["point","area"],"matchScore":2,"terms":["gintarinė vaistinė"],"reference":{"key":"amenity","value":"pharmacy"},"tags":{"amenity":"pharmacy","brand:wikidata":"Q15857801"},"addTags":{"amenity":"pharmacy","brand":"Gintarinė vaistinė","brand:wikidata":"Q15857801","healthcare":"pharmacy","name":"Gintarinė vaistinė"}},"amenity/social_centre/ahepahall-30ca27":{"name":"AHEPA Hall","locationSet":{"include":["by","bg","cz","hu","pl","md","ro","ru","sk","ua","ax","gg","je","cq","dk","ee","fo","fi","is","ie","im","lv","lt","no","sj","se","gb","al","ad","ba","hr","gi","gr","va","it","mt","me","mk","pt","sm","rs","si","es","xk","at","be","fr","de","li","lu","mc","nl","ch","au","ca","cy","us"],"exclude":["ru"]},"geometry":["point","area"],"matchScore":2,"terms":["ahepa","american hellenic educational progressive association","the order of ahepa"],"fields":["name","brand","{amenity/social_centre}"],"tags":{"amenity":"social_centre","brand:wikidata":"Q4743973"},"addTags":{"amenity":"social_centre","brand":"AHEPA","brand:wikidata":"Q4743973","name":"AHEPA Hall"}},"amenity/vending_machine/bicycle_tube/continental-123edb":{"name":"Continental","locationSet":{"include":["by","bg","cz","hu","pl","md","ro","ru","sk","ua","ax","gg","je","cq","dk","ee","fo","fi","is","ie","im","lv","lt","no","sj","se","gb","al","ad","ba","hr","gi","gr","va","it","mt","me","mk","pt","sm","rs","si","es","xk","at","be","fr","de","li","lu","mc","nl","ch"]},"geometry":["point","vertex"],"matchScore":2,"terms":["continental"],"reference":{"key":"vending","value":"bicycle_tube"},"tags":{"amenity":"vending_machine","brand:wikidata":"Q64739247","vending":"bicycle_tube"},"addTags":{"amenity":"vending_machine","brand":"Continental","brand:wikidata":"Q64739247","name":"Continental","vending":"bicycle_tube"}},"amenity/vending_machine/bicycle_tube/schwalbe-123edb":{"name":"Schwalbe","locationSet":{"include":["by","bg","cz","hu","pl","md","ro","ru","sk","ua","ax","gg","je","cq","dk","ee","fo","fi","is","ie","im","lv","lt","no","sj","se","gb","al","ad","ba","hr","gi","gr","va","it","mt","me","mk","pt","sm","rs","si","es","xk","at","be","fr","de","li","lu","mc","nl","ch"]},"geometry":["point","vertex"],"matchScore":2,"terms":["schwalbe"],"reference":{"key":"vending","value":"bicycle_tube"},"tags":{"amenity":"vending_machine","brand:wikidata":"Q1312213","vending":"bicycle_tube"},"addTags":{"amenity":"vending_machine","brand":"Schwalbe","brand:wikidata":"Q1312213","name":"Schwalbe","vending":"bicycle_tube"}},"leisure/fitness_centre/holmesplace-901199":{"name":"Holmes Place","locationSet":{"include":["by","bg","cz","hu","pl","md","ro","ru","sk","ua","ax","gg","je","cq","dk","ee","fo","fi","is","ie","im","lv","lt","no","sj","se","gb","al","ad","ba","hr","gi","gr","va","it","mt","me","mk","pt","sm","rs","si","es","xk","at","be","fr","de","li","lu","mc","nl","ch","il"]},"geometry":["point","area"],"matchScore":2,"terms":["holmes place"],"tags":{"brand:wikidata":"Q15815819","leisure":"fitness_centre"},"addTags":{"brand":"Holmes Place","brand:wikidata":"Q15815819","leisure":"fitness_centre","name":"Holmes Place"}},"office/estate_agent/vonpollrealestate-c99072":{"name":"von Poll Real Estate","locationSet":{"include":["by","bg","cz","hu","pl","md","ro","ru","sk","ua","ax","gg","je","cq","dk","ee","fo","fi","is","ie","im","lv","lt","no","sj","se","gb","al","ad","ba","hr","gi","gr","va","it","mt","me","mk","pt","sm","rs","si","es","xk","at","be","fr","de","li","lu","mc","nl","ch"],"exclude":["at","de"]},"geometry":["point","area"],"matchScore":2,"terms":["von poll immobilien","von poll real estate","vonpoll","vonpoll commercial"],"tags":{"brand:wikidata":"Q96026696","office":"estate_agent"},"addTags":{"brand":"von Poll Real Estate","brand:wikidata":"Q96026696","name":"von Poll Real Estate","office":"estate_agent"}},"office/insurance/allianz-332499":{"name":"Allianz","locationSet":{"include":["ae","ar","at","au","be","bg","bh","bm","bn","br","ca","cg","ch","ci","cm","cn","co","cy","cz","de","dk","ee","eg","es","fi","fr","gb","gf","gg","gh","gp","gr","hk","hr","hu","id","ie","in","is","it","ja","ke","kr","kw","la","li","lk","lt","lu","lv","ma","mg","mx","my","ng","nl","no","nz","om","ph","pk","pl","pt","qa","ro","ru","sa","se","sg","si","sk","sn","th","tr","tw","ua","us","za"]},"geometry":["point","area"],"matchScore":2,"terms":["allianz"],"fields":["name","brand","{office/insurance}"],"tags":{"brand:wikidata":"Q487292","office":"insurance"},"addTags":{"brand":"Allianz","brand:wikidata":"Q487292","name":"Allianz","office":"insurance"}},"office/insurance/ergo-38191f":{"name":"Ergo","locationSet":{"include":["at","be","ch","cn","cz","de","dk","ee","es","fr","gb","gr","hu","in","it","kr","lt","lu","lv","nl","pl","se","sg","th"]},"geometry":["point","area"],"matchScore":2,"terms":["ergo","ergo direkt","ergo direktversicherung","ergo versicherung"],"fields":["name","brand","{office/insurance}"],"tags":{"brand:wikidata":"Q541909","office":"insurance"},"addTags":{"brand":"Ergo","brand:wikidata":"Q541909","name":"Ergo","office":"insurance"}},"shop/car/smart-f30ed8":{"name":"Smart","locationSet":{"include":["by","bg","cz","hu","pl","md","ro","ru","sk","ua","ax","gg","je","cq","dk","ee","fo","fi","is","ie","im","lv","lt","no","sj","se","gb","al","ad","ba","hr","gi","gr","va","it","mt","me","mk","pt","sm","rs","si","es","xk","at","be","fr","de","li","lu","mc","nl","ch"]},"geometry":["point","area"],"matchScore":2,"terms":["smart"],"fields":["name","brand","{shop/car}"],"tags":{"brand:wikidata":"Q156490","shop":"car"},"addTags":{"brand":"Smart","brand:wikidata":"Q156490","name":"Smart","shop":"car"}},"shop/chemist/drogas-1a360a":{"name":"Drogas","locationSet":{"include":["ee","lt","lv"]},"geometry":["point","area"],"matchScore":2,"terms":["drogas"],"tags":{"brand:wikidata":"Q15806753","shop":"chemist"},"addTags":{"brand":"Drogas","brand:wikidata":"Q15806753","name":"Drogas","shop":"chemist"}},"shop/clothes/coccodrillo-571709":{"name":"Coccodrillo","locationSet":{"include":["at","bg","by","cz","de","ee","fi","hu","lt","lv","me","pl","ro","rs","ru","sk","ua"]},"geometry":["point","area"],"matchScore":2,"terms":["coccodrillo"],"tags":{"brand:wikidata":"Q9195224","shop":"clothes"},"addTags":{"brand":"Coccodrillo","brand:wikidata":"Q9195224","clothes":"children","name":"Coccodrillo","shop":"clothes"}},"shop/clothes/cropp-f09482":{"name":"Cropp","locationSet":{"include":["ba","bg","cz","ee","fi","hr","hu","kz","lt","lv","pl","ro","rs","ru","si","sk","ua"]},"geometry":["point","area"],"matchScore":2,"terms":["cropp"],"tags":{"brand:wikidata":"Q9196793","shop":"clothes"},"addTags":{"brand":"Cropp","brand:wikidata":"Q9196793","name":"Cropp","shop":"clothes"}},"shop/clothes/house-f09482":{"name":"House","locationSet":{"include":["ba","bg","cz","ee","fi","hr","hu","kz","lt","lv","pl","ro","rs","ru","si","sk","ua"]},"geometry":["point","area"],"matchScore":2,"terms":["house"],"tags":{"brand:wikidata":"Q9294202","shop":"clothes"},"addTags":{"brand":"House","brand:wikidata":"Q9294202","name":"House","shop":"clothes"}},"shop/clothes/maje-99ba8f":{"name":"Maje","locationSet":{"include":["by","bg","cz","hu","pl","md","ro","ru","sk","ua","ax","gg","je","cq","dk","ee","fo","fi","is","ie","im","lv","lt","no","sj","se","gb","al","ad","ba","hr","gi","gr","va","it","mt","me","mk","pt","sm","rs","si","es","xk","at","be","fr","de","li","lu","mc","nl","ch","cn","hk","sg","tw","uk","us"]},"geometry":["point","area"],"matchScore":2,"terms":["maje"],"tags":{"brand:wikidata":"Q3280458","shop":"clothes"},"addTags":{"brand":"Maje","brand:wikidata":"Q3280458","clothes":"women","name":"Maje","shop":"clothes"}},"shop/clothes/mohito-710e25":{"name":"Mohito","locationSet":{"include":["ba","bg","cz","ee","fi","hu","kz","lt","lv","pl","ro","rs","ru","si","sk","ua"]},"geometry":["point","area"],"matchScore":2,"terms":["mohito"],"tags":{"brand:wikidata":"Q107410616","shop":"clothes"},"addTags":{"brand":"Mohito","brand:wikidata":"Q107410616","clothes":"women","name":"Mohito","shop":"clothes"}},"shop/clothes/pepco-8ddd9a":{"name":"Pepco","locationSet":{"include":["at","bg","cz","de","ee","el","es","hr","hu","it","lt","lv","pl","ro","rs","si","sk"]},"geometry":["point","area"],"matchScore":2,"terms":["pepco"],"tags":{"brand:wikidata":"Q11815580","shop":"clothes"},"addTags":{"brand":"Pepco","brand:wikidata":"Q11815580","name":"Pepco","shop":"clothes"}},"shop/clothes/takkofashion-972a80":{"name":"Takko Fashion","locationSet":{"include":["at","be","ch","cz","de","ee","fr","hr","hu","it","lt","nl","pl","ro","rs","si","sk"]},"geometry":["point","area"],"matchScore":2,"terms":["takko","takko fashion"],"tags":{"brand:wikidata":"Q1371302","shop":"clothes"},"addTags":{"brand":"Takko Fashion","brand:wikidata":"Q1371302","name":"Takko Fashion","shop":"clothes"}},"shop/convenience/aibe-64a6c9":{"name":"Aibė","locationSet":{"include":["lt"]},"geometry":["point","area"],"matchScore":2,"terms":["aibė"],"tags":{"brand:wikidata":"Q1022952","shop":"convenience"},"addTags":{"brand":"Aibė","brand:wikidata":"Q1022952","name":"Aibė","shop":"convenience"}},"shop/convenience/viva-856fe1":{"name":"Viva","locationSet":{"include":["by","bg","cz","hu","pl","md","ro","ru","sk","ua","ax","gg","je","cq","dk","ee","fo","fi","is","ie","im","lv","lt","no","sj","se","gb","al","ad","ba","hr","gi","gr","va","it","mt","me","mk","pt","sm","rs","si","es","xk","at","be","fr","de","li","lu","mc","nl","ch"]},"geometry":["point","area"],"matchScore":2,"terms":["viva"],"tags":{"brand:wikidata":"Q168238","shop":"convenience"},"addTags":{"brand":"Viva","brand:wikidata":"Q168238","name":"Viva","shop":"convenience"}},"shop/furniture/bolia-a18722":{"name":"Bolia","locationSet":{"include":["by","bg","cz","hu","pl","md","ro","ru","sk","ua","ax","gg","je","cq","dk","ee","fo","fi","is","ie","im","lv","lt","no","sj","se","gb","al","ad","ba","hr","gi","gr","va","it","mt","me","mk","pt","sm","rs","si","es","xk","at","be","fr","de","li","lu","mc","nl","ch"]},"geometry":["point","area"],"matchScore":2,"terms":["bolia"],"tags":{"brand:wikidata":"Q11961809","shop":"furniture"},"addTags":{"brand":"Bolia","brand:wikidata":"Q11961809","name":"Bolia","shop":"furniture"}},"shop/furniture/momax-a18722":{"name":"Mömax","locationSet":{"include":["by","bg","cz","hu","pl","md","ro","ru","sk","ua","ax","gg","je","cq","dk","ee","fo","fi","is","ie","im","lv","lt","no","sj","se","gb","al","ad","ba","hr","gi","gr","va","it","mt","me","mk","pt","sm","rs","si","es","xk","at","be","fr","de","li","lu","mc","nl","ch"]},"geometry":["point","area"],"matchScore":2,"terms":["mömax"],"tags":{"brand:wikidata":"Q56388481","shop":"furniture"},"addTags":{"brand":"Mömax","brand:wikidata":"Q56388481","name":"Mömax","shop":"furniture"}},"shop/furniture/xxxlutz-5acc6e":{"name":"XXXLutz","locationSet":{"include":["by","bg","cz","hu","pl","md","ro","ru","sk","ua","ax","gg","je","cq","dk","ee","fo","fi","is","ie","im","lv","lt","no","sj","se","gb","al","ad","ba","hr","gi","gr","va","it","mt","me","mk","pt","sm","rs","si","es","xk","at","be","fr","de","li","lu","mc","nl","ch"],"exclude":["bg"]},"geometry":["point","area"],"matchScore":2,"terms":["xxxlutz"],"tags":{"brand:wikidata":"Q70339467","shop":"furniture"},"addTags":{"brand":"XXXLutz","brand:wikidata":"Q70339467","name":"XXXLutz","shop":"furniture"}},"shop/kiosk/lietuvosspauda-34adb3":{"name":"Lietuvos spauda","locationSet":{"include":["lt"]},"geometry":["point","area"],"matchScore":2,"terms":["lietuvos spauda"],"tags":{"brand:wikidata":"Q6514414","shop":"kiosk"},"addTags":{"brand":"Lietuvos spauda","brand:wikidata":"Q6514414","name":"Lietuvos spauda","shop":"kiosk"}},"shop/kiosk/narvesen-a42ea8":{"name":"Narvesen","locationSet":{"include":["lt","lv","no"]},"geometry":["point","area"],"matchScore":2,"terms":["narvesen"],"tags":{"brand:wikidata":"Q6514414","shop":"kiosk"},"addTags":{"brand":"Narvesen","brand:wikidata":"Q6514414","name":"Narvesen","shop":"kiosk"}},"shop/mobile_phone/bite-cc5c6f":{"name":"Bitė","locationSet":{"include":["lt"]},"geometry":["point","area"],"matchScore":2,"terms":["bitė"],"tags":{"brand:wikidata":"Q796010","shop":"mobile_phone"},"addTags":{"brand":"Bitė","brand:wikidata":"Q796010","name":"Bitė","shop":"mobile_phone"}},"shop/mobile_phone/telia-856553":{"name":"Telia","locationSet":{"include":["dk","fi","lt","no","se"]},"geometry":["point","area"],"matchScore":2,"terms":["telia"],"fields":["name","brand","{shop/mobile_phone}"],"tags":{"brand:wikidata":"Q862303","shop":"mobile_phone"},"addTags":{"brand":"Telia","brand:wikidata":"Q862303","name":"Telia","shop":"mobile_phone"}},"shop/optician/fielmann-f003f4":{"name":"fielmann","locationSet":{"include":["at","by","ch","de","it","lt","lu","lv","nl","pl","ru","ua"]},"geometry":["point","area"],"matchScore":2,"terms":["fielmann"],"fields":["name","brand","{shop/optician}"],"tags":{"brand:wikidata":"Q457822","shop":"optician"},"addTags":{"brand":"Fielmann","brand:wikidata":"Q457822","name":"Fielmann","shop":"optician"}},"shop/shoes/sizeer-a67893":{"name":"Sizeer","locationSet":{"include":["at","cz","de","hu","lt","pl","ro","sk"]},"geometry":["point","area"],"matchScore":2,"terms":["sizeer"],"tags":{"brand:wikidata":"Q93982889","shop":"shoes"},"addTags":{"brand":"Sizeer","brand:wikidata":"Q93982889","name":"Sizeer","shop":"shoes"}},"shop/sports/4f-5624eb":{"name":"4F","locationSet":{"include":["cz","de","lt","lv","ro","ru","sk"]},"geometry":["point","area"],"matchScore":2,"terms":["4f"],"tags":{"brand:wikidata":"Q16525801","shop":"sports"},"addTags":{"brand":"4F","brand:wikidata":"Q16525801","name":"4F","shop":"sports"}},"shop/supermarket/eurospar-4b5e11":{"name":"Eurospar","locationSet":{"include":["by","bg","cz","hu","pl","md","ro","ru","sk","ua","ax","gg","je","cq","dk","ee","fo","fi","is","ie","im","lv","lt","no","sj","se","gb","al","ad","ba","hr","gi","gr","va","it","mt","me","mk","pt","sm","rs","si","es","xk","at","be","fr","de","li","lu","mc","nl","ch"]},"geometry":["point","area"],"matchScore":2,"terms":["eurospar"],"tags":{"brand:wikidata":"Q12309283","shop":"supermarket"},"addTags":{"brand":"Eurospar","brand:wikidata":"Q12309283","name":"Eurospar","shop":"supermarket"}},"shop/supermarket/iki-dfbc25":{"name":"IKI","locationSet":{"include":["lt"]},"geometry":["point","area"],"matchScore":2,"terms":["iki","palink"],"tags":{"brand:wikidata":"Q1653981","shop":"supermarket"},"addTags":{"brand":"IKI","brand:wikidata":"Q1653981","name":"IKI","operator":"Palink","shop":"supermarket"}},"shop/supermarket/maximax-45f6bc":{"name":"Maxima X","locationSet":{"include":["ee","lt","lv"]},"geometry":["point","area"],"matchScore":2,"terms":["maxima x"],"tags":{"brand:wikidata":"Q1881222","shop":"supermarket"},"addTags":{"brand":"Maxima X","brand:wikidata":"Q1881222","name":"Maxima X","shop":"supermarket"}},"shop/supermarket/maximaxx-48a198":{"name":"Maxima XX","locationSet":{"include":["ee","lt","lv","pl"]},"geometry":["point","area"],"matchScore":2,"terms":["maxima xx"],"tags":{"brand:wikidata":"Q1881222","shop":"supermarket"},"addTags":{"brand":"Maxima XX","brand:wikidata":"Q1881222","name":"Maxima XX","shop":"supermarket"}},"shop/supermarket/maximaxxx-48a198":{"name":"Maxima XXX","locationSet":{"include":["ee","lt","lv","pl"]},"geometry":["point","area"],"matchScore":2,"terms":["maxima","maxima xxx"],"tags":{"brand:wikidata":"Q1881222","shop":"supermarket"},"addTags":{"brand":"Maxima XXX","brand:wikidata":"Q1881222","name":"Maxima XXX","shop":"supermarket"}},"shop/supermarket/norfaxl-dfbc25":{"name":"Norfa XL","locationSet":{"include":["lt"]},"geometry":["point","area"],"matchScore":2,"terms":["norfa xl"],"tags":{"brand:wikidata":"Q1998983","shop":"supermarket"},"addTags":{"brand":"Norfa XL","brand:wikidata":"Q1998983","name":"Norfa XL","shop":"supermarket"}},"shop/supermarket/rimi-45f6bc":{"name":"Rimi","locationSet":{"include":["ee","lt","lv"]},"geometry":["point","area"],"matchScore":2,"terms":["rimi"],"tags":{"brand:wikidata":"Q3741108","shop":"supermarket"},"addTags":{"brand":"Rimi","brand:wikidata":"Q3741108","name":"Rimi","shop":"supermarket"}},"shop/tool_hire/loxam-33fef8":{"name":"Loxam","locationSet":{"include":["ae","be","bh","br","ch","co","cz","de","dk","ee","es","fi","fr","gb","ie","it","kw","lt","lu","lv","ma","nl","no","om","pl","pt","qa","sa","se","sk"]},"geometry":["point","area"],"matchScore":2,"terms":["loxam"],"tags":{"brand:wikidata":"Q3264407","shop":"tool_hire"},"addTags":{"brand":"Loxam","brand:wikidata":"Q3264407","name":"Loxam","shop":"tool_hire"}},"shop/variety_store/flyingtigercopenhagen-37d726":{"name":"Flying Tiger Copenhagen","locationSet":{"include":["at","be","ch","cy","cz","de","dk","ee","es","fi","fr","gb","gr","hu","ie","is","it","jp","kr","lt","lv","mt","nl","no","pl","pt","se","sk"]},"geometry":["point","area"],"matchScore":2,"terms":["flying tiger","flying tiger copenhagen","tgr","tiger"],"tags":{"brand:wikidata":"Q2786319","shop":"variety_store"},"addTags":{"brand":"Flying Tiger Copenhagen","brand:wikidata":"Q2786319","name":"Flying Tiger Copenhagen","shop":"variety_store","short_name":"Flying Tiger"}},"tourism/hotel/bandbhotel-fc8c2c":{"name":"B&B Hotel","locationSet":{"include":["by","bg","cz","hu","pl","md","ro","ru","sk","ua","ax","gg","je","cq","dk","ee","fo","fi","is","ie","im","lv","lt","no","sj","se","gb","al","ad","ba","hr","gi","gr","va","it","mt","me","mk","pt","sm","rs","si","es","xk","at","be","fr","de","li","lu","mc","nl","ch","br"]},"geometry":["point","area"],"matchScore":2,"terms":["b&b hotels"],"fields":["name","brand","{tourism/hotel}"],"tags":{"brand:wikidata":"Q794939","tourism":"hotel"},"addTags":{"brand":"B&B Hotels","brand:wikidata":"Q794939","name":"B&B Hotel","tourism":"hotel"}},"tourism/hotel/motelone-046fe6":{"name":"Motel One","locationSet":{"include":["by","bg","cz","hu","pl","md","ro","ru","sk","ua","ax","gg","je","cq","dk","ee","fo","fi","is","ie","im","lv","lt","no","sj","se","gb","al","ad","ba","hr","gi","gr","va","it","mt","me","mk","pt","sm","rs","si","es","xk","at","be","fr","de","li","lu","mc","nl","ch"]},"geometry":["point","area"],"matchScore":2,"terms":["motel one"],"fields":["name","brand","{tourism/hotel}"],"tags":{"brand:wikidata":"Q391080","tourism":"hotel"},"addTags":{"brand":"Motel One","brand:wikidata":"Q391080","name":"Motel One","tourism":"hotel"}},"amenity/charging_station/eon-7f623e":{"name":"E.ON","locationSet":{"include":["by","bg","cz","hu","pl","md","ro","ru","sk","ua","ax","gg","je","cq","dk","ee","fo","fi","is","ie","im","lv","lt","no","sj","se","gb","al","ad","ba","hr","gi","gr","va","it","mt","me","mk","pt","sm","rs","si","es","xk","at","be","fr","de","li","lu","mc","nl","ch"]},"geometry":["point","area"],"matchScore":2,"terms":["e-on drive","e.on"],"fields":["name","operator","{amenity/charging_station}"],"tags":{"amenity":"charging_station","operator:wikidata":"Q270223"},"addTags":{"amenity":"charging_station","operator":"E.ON","operator:wikidata":"Q270223"}},"amenity/charging_station/evbox-7f623e":{"name":"EVBox","locationSet":{"include":["by","bg","cz","hu","pl","md","ro","ru","sk","ua","ax","gg","je","cq","dk","ee","fo","fi","is","ie","im","lv","lt","no","sj","se","gb","al","ad","ba","hr","gi","gr","va","it","mt","me","mk","pt","sm","rs","si","es","xk","at","be","fr","de","li","lu","mc","nl","ch"]},"geometry":["point","area"],"matchScore":2,"terms":["evbox"],"fields":["name","operator","{amenity/charging_station}"],"tags":{"amenity":"charging_station","operator:wikidata":"Q28406392"},"addTags":{"amenity":"charging_station","operator":"EVBox","operator:wikidata":"Q28406392"}},"amenity/charging_station/qpark-7f623e":{"name":"Q-Park","locationSet":{"include":["by","bg","cz","hu","pl","md","ro","ru","sk","ua","ax","gg","je","cq","dk","ee","fo","fi","is","ie","im","lv","lt","no","sj","se","gb","al","ad","ba","hr","gi","gr","va","it","mt","me","mk","pt","sm","rs","si","es","xk","at","be","fr","de","li","lu","mc","nl","ch"]},"geometry":["point","area"],"matchScore":2,"terms":["q-park"],"fields":["name","operator","{amenity/charging_station}"],"tags":{"amenity":"charging_station","operator:wikidata":"Q1127798"},"addTags":{"amenity":"charging_station","operator":"Q-Park","operator:wikidata":"Q1127798"}},"amenity/charging_station/uabignitis-467e3c":{"name":"UAB Ignitis","locationSet":{"include":["lt"]},"geometry":["point","area"],"matchScore":2,"terms":["uab ignitis"],"fields":["name","operator","{amenity/charging_station}"],"tags":{"amenity":"charging_station","operator:wikidata":"Q583822"},"addTags":{"amenity":"charging_station","operator":"UAB Ignitis","operator:wikidata":"Q583822"}},"amenity/post_box/lietuvospastas-06c38d":{"name":"Lietuvos paštas","locationSet":{"include":["lt"]},"geometry":["point","vertex"],"matchScore":2,"terms":["lietuvos paštas"],"tags":{"amenity":"post_box","operator:wikidata":"Q175964"},"addTags":{"amenity":"post_box","operator":"Lietuvos paštas","operator:wikidata":"Q175964"}},"amenity/post_office/lietuvospastas-738531":{"name":"Lietuvos paštas","locationSet":{"include":["lt"]},"geometry":["point","area"],"matchScore":2,"terms":["lietuvos paštas"],"fields":["name","operator","{amenity/post_office}"],"tags":{"amenity":"post_office","operator:wikidata":"Q175964"},"addTags":{"amenity":"post_office","operator":"Lietuvos paštas","operator:wikidata":"Q175964"}},"power/generator/innogy-16c9d0":{"name":"Innogy","locationSet":{"include":["by","bg","cz","hu","pl","md","ro","ru","sk","ua","ax","gg","je","cq","dk","ee","fo","fi","is","ie","im","lv","lt","no","sj","se","gb","al","ad","ba","hr","gi","gr","va","it","mt","me","mk","pt","sm","rs","si","es","xk","at","be","fr","de","li","lu","mc","nl","ch"]},"geometry":["point","vertex","area"],"matchScore":2,"terms":["innogy"],"tags":{"operator:wikidata":"Q2124721","power":"generator"},"addTags":{"operator":"Innogy","operator:wikidata":"Q2124721","power":"generator"}},"power/generator/rwe-16c9d0":{"name":"RWE","locationSet":{"include":["by","bg","cz","hu","pl","md","ro","ru","sk","ua","ax","gg","je","cq","dk","ee","fo","fi","is","ie","im","lv","lt","no","sj","se","gb","al","ad","ba","hr","gi","gr","va","it","mt","me","mk","pt","sm","rs","si","es","xk","at","be","fr","de","li","lu","mc","nl","ch"]},"geometry":["point","vertex","area"],"matchScore":2,"terms":["rwe"],"tags":{"operator:wikidata":"Q138133","power":"generator"},"addTags":{"operator":"RWE","operator:wikidata":"Q138133","power":"generator"}},"power/generator/statkraft-16c9d0":{"name":"Statkraft","locationSet":{"include":["by","bg","cz","hu","pl","md","ro","ru","sk","ua","ax","gg","je","cq","dk","ee","fo","fi","is","ie","im","lv","lt","no","sj","se","gb","al","ad","ba","hr","gi","gr","va","it","mt","me","mk","pt","sm","rs","si","es","xk","at","be","fr","de","li","lu","mc","nl","ch"]},"geometry":["point","vertex","area"],"matchScore":2,"terms":["statkraft"],"tags":{"operator:wikidata":"Q1681145","power":"generator"},"addTags":{"operator":"Statkraft","operator:wikidata":"Q1681145","power":"generator"}},"power/generator/uniper-16c9d0":{"name":"Uniper","locationSet":{"include":["by","bg","cz","hu","pl","md","ro","ru","sk","ua","ax","gg","je","cq","dk","ee","fo","fi","is","ie","im","lv","lt","no","sj","se","gb","al","ad","ba","hr","gi","gr","va","it","mt","me","mk","pt","sm","rs","si","es","xk","at","be","fr","de","li","lu","mc","nl","ch"]},"geometry":["point","vertex","area"],"matchScore":2,"terms":["uniper"],"tags":{"operator:wikidata":"Q19839259","power":"generator"},"addTags":{"operator":"Uniper","operator:wikidata":"Q19839259","power":"generator"}},"power/generator/wpo-16c9d0":{"name":"WPO","locationSet":{"include":["by","bg","cz","hu","pl","md","ro","ru","sk","ua","ax","gg","je","cq","dk","ee","fo","fi","is","ie","im","lv","lt","no","sj","se","gb","al","ad","ba","hr","gi","gr","va","it","mt","me","mk","pt","sm","rs","si","es","xk","at","be","fr","de","li","lu","mc","nl","ch"]},"geometry":["point","vertex","area"],"matchScore":2,"terms":["wpo"],"tags":{"operator:wikidata":"Q64755627","power":"generator"},"addTags":{"operator":"WPO","operator:wikidata":"Q64755627","power":"generator"}},"power/substation/eso-d3558e":{"name":"ESO","locationSet":{"include":["lt"]},"geometry":["area","point"],"matchScore":2,"terms":["eso"],"tags":{"operator:wikidata":"Q22691779","power":"substation"},"addTags":{"operator":"ESO","operator:wikidata":"Q22691779","power":"substation"}},"power/transformer/eso-a40007":{"name":"ESO","locationSet":{"include":["lt"]},"geometry":["point","vertex"],"matchScore":2,"terms":["eso"],"tags":{"operator:wikidata":"Q22691779","power":"transformer"},"addTags":{"operator":"ESO","operator:wikidata":"Q22691779","power":"transformer"}},"telecom/exchange/interoute-58ec5d":{"name":"Interoute","locationSet":{"include":["by","bg","cz","hu","pl","md","ro","ru","sk","ua","ax","gg","je","cq","dk","ee","fo","fi","is","ie","im","lv","lt","no","sj","se","gb","al","ad","ba","hr","gi","gr","va","it","mt","me","mk","pt","sm","rs","si","es","xk","at","be","fr","de","li","lu","mc","nl","ch"]},"geometry":["point","area"],"matchScore":2,"terms":["interoute"],"fields":["name","operator","{telecom/exchange}"],"tags":{"operator:wikidata":"Q1668090","telecom":"exchange"},"addTags":{"operator":"Interoute","operator:wikidata":"Q1668090","telecom":"exchange"}},"type/route/train/eurocity-6b9d23":{"name":"EuroCity","locationSet":{"include":["by","bg","cz","hu","pl","md","ro","ru","sk","ua","ax","gg","je","cq","dk","ee","fo","fi","is","ie","im","lv","lt","no","sj","se","gb","al","ad","ba","hr","gi","gr","va","it","mt","me","mk","pt","sm","rs","si","es","xk","at","be","fr","de","li","lu","mc","nl","ch"]},"geometry":["relation"],"matchScore":2,"terms":["eurocity"],"reference":{"key":"route","value":"train"},"tags":{"network:wikidata":"Q753050","route":"train","type":"route"},"addTags":{"network":"EuroCity","network:wikidata":"Q753050","route":"train","type":"route"}},"type/route/train/euronight-6b9d23":{"name":"EuroNight","locationSet":{"include":["by","bg","cz","hu","pl","md","ro","ru","sk","ua","ax","gg","je","cq","dk","ee","fo","fi","is","ie","im","lv","lt","no","sj","se","gb","al","ad","ba","hr","gi","gr","va","it","mt","me","mk","pt","sm","rs","si","es","xk","at","be","fr","de","li","lu","mc","nl","ch"]},"geometry":["relation"],"matchScore":2,"terms":["euronight"],"reference":{"key":"route","value":"train"},"tags":{"network:wikidata":"Q257307","route":"train","type":"route"},"addTags":{"network":"EuroNight","network:wikidata":"Q257307","route":"train","type":"route"}},"type/route/trolleybus/vilniausmiestosavivaldybe-b0cd15":{"name":"Vilniaus miesto savivaldybė","locationSet":{"include":["lt"]},"geometry":["relation"],"matchScore":2,"terms":["vilniaus miesto savivaldybė"],"reference":{"key":"route","value":"trolleybus"},"tags":{"network:wikidata":"Q1424990","route":"trolleybus","type":"route"},"addTags":{"network":"Vilniaus miesto savivaldybė","network:wikidata":"Q1424990","route":"trolleybus","type":"route"}}}