{"office/estate_agent/buxton-f2ceb3":{"name":"Buxton","locationSet":{"include":["au-vic"]},"geometry":["point","area"],"matchScore":2,"terms":["buxton"],"tags":{"brand:wikidata":"Q106236116","office":"estate_agent"},"addTags":{"brand":"Buxton","brand:wikidata":"Q106236116","name":"Buxton","office":"estate_agent"}},"shop/bakery/fergusonplarresbakehouse-4fc062":{"name":"Ferguson Plarre's Bakehouse","locationSet":{"include":["au-vic"]},"geometry":["point","area"],"matchScore":2,"terms":["ferguson plarre's bakehouse","fergusson plarre"],"tags":{"brand:wikidata":"Q5444249","shop":"bakery"},"addTags":{"brand":"Ferguson Plarre's Bakehouse","brand:wikidata":"Q5444249","name":"Ferguson Plarre's Bakehouse","shop":"bakery"}},"amenity/charging_station/centralvictoriangreenhousealliance-6c573b":{"name":"Charging the Regions","locationSet":{"include":["au-vic"]},"geometry":["point","vertex","area"],"matchScore":2,"terms":["central victorian greenhouse alliance","charging the regions"],"fields":["name","operator","{amenity/charging_station}"],"tags":{"amenity":"charging_station","operator:wikidata":"Q106320329"},"addTags":{"amenity":"charging_station","brand":"Charging the Regions","brand:wikidata":"Q106320264","operator":"Central Victorian Greenhouse Alliance","operator:wikidata":"Q106320329"}},"amenity/college/tafevictoria-982bd2":{"name":"TAFE Victoria","locationSet":{"include":["au-vic"]},"geometry":["area","point"],"matchScore":2,"terms":["tafe victoria"],"tags":{"amenity":"college","operator:wikidata":"Q7669253"},"addTags":{"amenity":"college","operator":"TAFE Victoria","operator:type":"government","operator:wikidata":"Q7669253"}},"amenity/drinking_water/darebincitycouncil-bffbbc":{"name":"Darebin City Council","locationSet":{"include":["au-vic"]},"geometry":["point","vertex"],"matchScore":2,"terms":["darebin city council"],"tags":{"amenity":"drinking_water","operator:wikidata":"Q56477803"},"addTags":{"amenity":"drinking_water","operator":"Darebin City Council","operator:wikidata":"Q56477803"}},"amenity/drinking_water/universityofmelbourne-bffbbc":{"name":"University of Melbourne","locationSet":{"include":["au-vic"]},"geometry":["point","vertex"],"matchScore":2,"terms":["university of melbourne"],"tags":{"amenity":"drinking_water","operator:wikidata":"Q319078"},"addTags":{"amenity":"drinking_water","operator":"University of Melbourne","operator:wikidata":"Q319078"}},"amenity/fire_station/countryfireauthority-1faece":{"name":"Country Fire Authority","locationSet":{"include":["au-vic"]},"geometry":["point","area"],"matchScore":2,"terms":["country fire authority"],"tags":{"amenity":"fire_station","operator:wikidata":"Q13632973"},"addTags":{"amenity":"fire_station","operator":"Country Fire Authority","operator:wikidata":"Q13632973"}},"amenity/fire_station/firerescuevictoria-1faece":{"name":"Fire Rescue Victoria","locationSet":{"include":["au-vic"]},"geometry":["point","area"],"matchScore":2,"terms":["fire rescue victoria"],"tags":{"amenity":"fire_station","operator:wikidata":"Q30640483"},"addTags":{"amenity":"fire_station","operator":"Fire Rescue Victoria","operator:wikidata":"Q30640483"}},"amenity/hospital/victorianhealthpromotionfoundation-e71a1a":{"name":"VIC Health","locationSet":{"include":["au-vic"]},"geometry":["area","point"],"matchScore":2,"terms":["vichealth","victorian health promotion foundation"],"fields":["name","operator","{amenity/hospital}"],"reference":{"key":"amenity","value":"hospital"},"tags":{"amenity":"hospital","operator:wikidata":"Q7927219"},"addTags":{"amenity":"hospital","healthcare":"hospital","operator":"Victorian Health Promotion Foundation","operator:short":"VicHealth","operator:wikidata":"Q7927219"}},"amenity/police/victoriapolice-808201":{"name":"Victoria Police","locationSet":{"include":["au-vic"]},"geometry":["point","area"],"matchScore":2,"terms":["victoria police"],"tags":{"amenity":"police","operator:wikidata":"Q1406658"},"addTags":{"amenity":"police","operator":"Victoria Police","operator:wikidata":"Q1406658"}},"amenity/school/catholiceducationsandhurstlimited-1fc2f5":{"name":"Catholic Education Sandhurst Limited","locationSet":{"include":["au-vic"]},"geometry":["area","point"],"matchScore":2,"terms":["catholic education sandhurst limited"],"tags":{"amenity":"school","operator:wikidata":"Q113026529"},"addTags":{"amenity":"school","operator":"Catholic Education Sandhurst Limited","operator:type":"religious","operator:wikidata":"Q113026529"}},"amenity/school/victoriandepartmentofeducation-1fc2f5":{"name":"Department of Education (Victoria)","locationSet":{"include":["au-vic"]},"geometry":["area","point"],"matchScore":2,"terms":["department of education","department of education and training","department of education and training victoria","victorian department of education"],"tags":{"amenity":"school","operator:wikidata":"Q5260272"},"addTags":{"amenity":"school","operator":"Victorian Department of Education","operator:type":"public","operator:wikidata":"Q5260272"}},"amenity/school/dioceseofballaratcatholiceducationlimited-1fc2f5":{"name":"Diocese of Ballarat Catholic Education Limited","locationSet":{"include":["au-vic"]},"geometry":["area","point"],"matchScore":2,"terms":["diocese of ballarat catholic education limited","dobcel"],"tags":{"amenity":"school","operator:wikidata":"Q113059804"},"addTags":{"amenity":"school","operator":"Diocese of Ballarat Catholic Education Limited","operator:short":"DOBCEL","operator:type":"religious","operator:wikidata":"Q113059804"}},"amenity/school/dioceseofsalecatholiceducationlimited-1fc2f5":{"name":"Diocese of Sale Catholic Education Limited","locationSet":{"include":["au-vic"]},"geometry":["area","point"],"matchScore":2,"terms":["diocese of sale catholic education limited","docsel"],"tags":{"amenity":"school","operator:wikidata":"Q113101391"},"addTags":{"amenity":"school","operator":"Diocese of Sale Catholic Education Limited","operator:short":"DOCSEL","operator:type":"religious","operator:wikidata":"Q113101391"}},"amenity/school/melbournearchdiocesecatholicschools-1fc2f5":{"name":"Melbourne Archdiocese Catholic Schools","locationSet":{"include":["au-vic"]},"geometry":["area","point"],"matchScore":2,"terms":["macs","melbourne archdiocese catholic schools"],"tags":{"amenity":"school","operator:wikidata":"Q100769882"},"addTags":{"amenity":"school","operator":"Melbourne Archdiocese Catholic Schools","operator:short":"MACS","operator:type":"religious","operator:wikidata":"Q100769882"}},"amenity/toilets/melbournecitycouncil-1f48c5":{"name":"Melbourne City Council","locationSet":{"include":["au-vic"]},"geometry":["point","vertex","area"],"matchScore":2,"terms":["melbourne city council"],"tags":{"amenity":"toilets","operator:wikidata":"Q56477763"},"addTags":{"amenity":"toilets","operator":"Melbourne City Council","operator:wikidata":"Q56477763"}},"boundary/parksvictoria-cdaa72":{"name":"Parks Victoria","locationSet":{"include":["au-vic"]},"geometry":["line"],"matchScore":2,"terms":["parks victoria"],"tags":{"boundary":"national_park","operator:wikidata":"Q3365478"},"addTags":{"boundary":"national_park","operator":"Parks Victoria","operator:wikidata":"Q3365478"}},"boundary/departmentofenergyenvironmentandclimateaction-261f43":{"name":"DEECA (Victoria)","locationSet":{"include":["au-vic"]},"geometry":["line"],"matchScore":2,"terms":["deeca","delwp","department of energy, environment and climate action","victorian department of environment land water and planning"],"tags":{"boundary":"protected_area","operator:wikidata":"Q115804184"},"addTags":{"boundary":"protected_area","operator":"Department of Energy, Environment and Climate Action","operator:short":"DEECA","operator:wikidata":"Q115804184"}},"boundary/parksvictoria-261f43":{"name":"Parks Victoria","locationSet":{"include":["au-vic"]},"geometry":["line"],"matchScore":2,"terms":["parks victoria"],"tags":{"boundary":"protected_area","operator:wikidata":"Q3365478"},"addTags":{"boundary":"protected_area","operator":"Parks Victoria","operator:wikidata":"Q3365478"}},"emergency/ambulance_station/ambulancevictoria-6651b8":{"name":"Ambulance Victoria","locationSet":{"include":["au-vic"]},"geometry":["point","area"],"matchScore":2,"terms":["ambulance victoria"],"tags":{"emergency":"ambulance_station","operator:wikidata":"Q4741949"},"addTags":{"emergency":"ambulance_station","operator":"Ambulance Victoria","operator:wikidata":"Q4741949"}},"emergency/disaster_response/victoriastateemergencyservice-c5f233":{"name":"Victoria State Emergency Service","locationSet":{"include":["au-vic"]},"geometry":["point","area"],"matchScore":2,"terms":["victoria state emergency service"],"tags":{"emergency":"disaster_response","operator:wikidata":"Q7927057"},"addTags":{"emergency":"disaster_response","operator":"Victoria State Emergency Service","operator:wikidata":"Q7927057"}},"leisure/nature_reserve/cityofcasey-612bf2":{"name":"City of Casey","locationSet":{"include":["au-vic"]},"geometry":["area","point"],"matchScore":2,"terms":["city of casey"],"tags":{"leisure":"nature_reserve","operator:wikidata":"Q1756241"},"addTags":{"leisure":"nature_reserve","operator":"City of Casey","operator:type":"government","operator:wikidata":"Q1756241"}},"leisure/nature_reserve/maroondahcitycouncil-612bf2":{"name":"Maroondah City Council","locationSet":{"include":["au-vic"]},"geometry":["area","point"],"matchScore":2,"terms":["maroondah city council"],"tags":{"leisure":"nature_reserve","operator:wikidata":"Q115706174"},"addTags":{"leisure":"nature_reserve","operator":"Maroondah City Council","operator:wikidata":"Q115706174"}},"leisure/nature_reserve/parksvictoria-612bf2":{"name":"Parks Victoria","locationSet":{"include":["au-vic"]},"geometry":["area","point"],"matchScore":2,"terms":["parks victoria"],"tags":{"leisure":"nature_reserve","operator:wikidata":"Q3365478"},"addTags":{"leisure":"nature_reserve","operator":"Parks Victoria","operator:wikidata":"Q3365478"}},"leisure/nature_reserve/universityofmelbourne-612bf2":{"name":"University of Melbourne","locationSet":{"include":["au-vic"]},"geometry":["area","point"],"matchScore":2,"terms":["university of melbourne"],"tags":{"leisure":"nature_reserve","operator:wikidata":"Q319078"},"addTags":{"leisure":"nature_reserve","operator":"University of Melbourne","operator:wikidata":"Q319078"}},"leisure/park/cityofcasey-3b6b12":{"name":"City of Casey","locationSet":{"include":["au-vic"]},"geometry":["area","point"],"matchScore":2,"terms":["city of casey"],"tags":{"leisure":"park","operator:wikidata":"Q1756241"},"addTags":{"leisure":"park","operator":"City of Casey","operator:type":"government","operator:wikidata":"Q1756241"}},"leisure/park/maroondahcitycouncil-3b6b12":{"name":"Maroondah City Council","locationSet":{"include":["au-vic"]},"geometry":["area","point"],"matchScore":2,"terms":["maroondah city council"],"tags":{"leisure":"park","operator:wikidata":"Q115706174"},"addTags":{"leisure":"park","operator":"Maroondah City Council","operator:wikidata":"Q115706174"}},"leisure/park/parksvictoria-3b6b12":{"name":"Parks Victoria","locationSet":{"include":["au-vic"]},"geometry":["area","point"],"matchScore":2,"terms":["parks victoria"],"tags":{"leisure":"park","operator:wikidata":"Q3365478"},"addTags":{"leisure":"park","operator":"Parks Victoria","operator:wikidata":"Q3365478"}},"leisure/park/universityofmelbourne-3b6b12":{"name":"University of Melbourne","locationSet":{"include":["au-vic"]},"geometry":["area","point"],"matchScore":2,"terms":["university of melbourne"],"tags":{"leisure":"park","operator:wikidata":"Q319078"},"addTags":{"leisure":"park","operator":"University of Melbourne","operator:wikidata":"Q319078"}},"man_made/charge_point/centralvictoriangreenhousealliance-36f71a":{"name":"Charging the Regions","locationSet":{"include":["au-vic"]},"geometry":["point"],"matchScore":2,"terms":["central victorian greenhouse alliance","charging the regions"],"fields":["name","operator","{man_made/charge_point}"],"tags":{"man_made":"charge_point","operator:wikidata":"Q106320329"},"addTags":{"brand":"Charging the Regions","brand:wikidata":"Q106320264","man_made":"charge_point","operator":"Central Victorian Greenhouse Alliance","operator:wikidata":"Q106320329"}},"man_made/wastewater_plant/barwonwater-9409a2":{"name":"Barwon Water","locationSet":{"include":["au-vic"]},"geometry":["point","area"],"matchScore":2,"terms":["barwon water"],"tags":{"man_made":"wastewater_plant","operator:wikidata":"Q4865988"},"addTags":{"man_made":"wastewater_plant","operator":"Barwon Water","operator:wikidata":"Q4865988"}},"man_made/wastewater_plant/centralhighlandswater-9409a2":{"name":"Central Highlands Water","locationSet":{"include":["au-vic"]},"geometry":["point","area"],"matchScore":2,"terms":["central highlands water"],"tags":{"man_made":"wastewater_plant","operator:wikidata":"Q16858671"},"addTags":{"man_made":"wastewater_plant","operator":"Central Highlands Water","operator:wikidata":"Q16858671"}},"man_made/wastewater_plant/colibanwater-9409a2":{"name":"Coliban Water","locationSet":{"include":["au-vic"]},"geometry":["point","area"],"matchScore":2,"terms":["coliban water"],"tags":{"man_made":"wastewater_plant","operator:wikidata":"Q5144809"},"addTags":{"man_made":"wastewater_plant","operator":"Coliban Water","operator:wikidata":"Q5144809"}},"man_made/wastewater_plant/eastgippslandwater-9409a2":{"name":"East Gippsland Water","locationSet":{"include":["au-vic"]},"geometry":["point","area"],"matchScore":2,"terms":["east gippsland water"],"tags":{"man_made":"wastewater_plant","operator:wikidata":"Q111142849"},"addTags":{"man_made":"wastewater_plant","operator":"East Gippsland Water","operator:wikidata":"Q111142849"}},"man_made/wastewater_plant/gippslandwater-9409a2":{"name":"Gippsland Water","locationSet":{"include":["au-vic"]},"geometry":["point","area"],"matchScore":2,"terms":["gippsland water"],"tags":{"man_made":"wastewater_plant","operator:wikidata":"Q111142865"},"addTags":{"man_made":"wastewater_plant","operator":"Gippsland Water","operator:wikidata":"Q111142865"}},"man_made/wastewater_plant/goulburnvalleywater-9409a2":{"name":"Goulburn Valley Water","locationSet":{"include":["au-vic"]},"geometry":["point","area"],"matchScore":2,"terms":["goulburn valley water"],"tags":{"man_made":"wastewater_plant","operator:wikidata":"Q111142877"},"addTags":{"man_made":"wastewater_plant","operator":"Goulburn Valley Water","operator:wikidata":"Q111142877"}},"man_made/wastewater_plant/grampianswimmeramalleewater-9409a2":{"name":"Grampians Wimmera Mallee Water","locationSet":{"include":["au-vic"]},"geometry":["point","area"],"matchScore":2,"terms":["grampians wimmera mallee water"],"tags":{"man_made":"wastewater_plant","operator:wikidata":"Q111143122"},"addTags":{"man_made":"wastewater_plant","operator":"Grampians Wimmera Mallee Water","operator:wikidata":"Q111143122"}},"man_made/wastewater_plant/greaterwesternwater-9409a2":{"name":"Greater Western Water","locationSet":{"include":["au-vic"]},"geometry":["point","area"],"matchScore":2,"terms":["greater western water"],"tags":{"man_made":"wastewater_plant","operator:wikidata":"Q111142722"},"addTags":{"man_made":"wastewater_plant","operator":"Greater Western Water","operator:wikidata":"Q111142722"}},"man_made/wastewater_plant/lowermurraywater-9409a2":{"name":"Lower Murray Water","locationSet":{"include":["au-vic"]},"geometry":["point","area"],"matchScore":2,"terms":["lower murray water"],"tags":{"man_made":"wastewater_plant","operator:wikidata":"Q111143226"},"addTags":{"man_made":"wastewater_plant","operator":"Lower Murray Water","operator:wikidata":"Q111143226"}},"man_made/wastewater_plant/melbournewater-9409a2":{"name":"Melbourne Water","locationSet":{"include":["au-vic"]},"geometry":["point","area"],"matchScore":2,"terms":["melbourne water"],"tags":{"man_made":"wastewater_plant","operator:wikidata":"Q6811920"},"addTags":{"man_made":"wastewater_plant","operator":"Melbourne Water","operator:wikidata":"Q6811920"}},"man_made/wastewater_plant/northeastwater-9409a2":{"name":"North East Water","locationSet":{"include":["au-vic"]},"geometry":["point","area"],"matchScore":2,"terms":["north east water"],"tags":{"man_made":"wastewater_plant","operator:wikidata":"Q111143408"},"addTags":{"man_made":"wastewater_plant","operator":"North East Water","operator:wikidata":"Q111143408"}},"man_made/wastewater_plant/southeastwater-9409a2":{"name":"South East Water","locationSet":{"include":["au-vic"]},"geometry":["point","area"],"matchScore":2,"terms":["south east water"],"tags":{"man_made":"wastewater_plant","operator:wikidata":"Q7567145"},"addTags":{"man_made":"wastewater_plant","operator":"South East Water","operator:wikidata":"Q7567145"}},"man_made/wastewater_plant/southgippslandwater-9409a2":{"name":"South Gippsland Water","locationSet":{"include":["au-vic"]},"geometry":["point","area"],"matchScore":2,"terms":["south gippsland water"],"tags":{"man_made":"wastewater_plant","operator:wikidata":"Q111143421"},"addTags":{"man_made":"wastewater_plant","operator":"South Gippsland Water","operator:wikidata":"Q111143421"}},"man_made/wastewater_plant/wannonwater-9409a2":{"name":"Wannon Water","locationSet":{"include":["au-vic"]},"geometry":["point","area"],"matchScore":2,"terms":["wannon water"],"tags":{"man_made":"wastewater_plant","operator:wikidata":"Q111143433"},"addTags":{"man_made":"wastewater_plant","operator":"Wannon Water","operator:wikidata":"Q111143433"}},"man_made/wastewater_plant/westernportwater-9409a2":{"name":"Westernport Water","locationSet":{"include":["au-vic"]},"geometry":["point","area"],"matchScore":2,"terms":["westernport water"],"tags":{"man_made":"wastewater_plant","operator:wikidata":"Q111143439"},"addTags":{"man_made":"wastewater_plant","operator":"Westernport Water","operator:wikidata":"Q111143439"}},"man_made/wastewater_plant/yarravalleywater-9409a2":{"name":"Yarra Valley Water","locationSet":{"include":["au-vic"]},"geometry":["point","area"],"matchScore":2,"terms":["yarra valley water"],"tags":{"man_made":"wastewater_plant","operator:wikidata":"Q8049513"},"addTags":{"man_made":"wastewater_plant","operator":"Yarra Valley Water","operator:wikidata":"Q8049513"}},"man_made/water_works/barwonwater-086b9d":{"name":"Barwon Water","locationSet":{"include":["au-vic"]},"geometry":["point","area"],"matchScore":2,"terms":["barwon water"],"tags":{"man_made":"water_works","operator:wikidata":"Q4865988"},"addTags":{"man_made":"water_works","operator":"Barwon Water","operator:wikidata":"Q4865988"}},"man_made/water_works/centralhighlandswater-086b9d":{"name":"Central Highlands Water","locationSet":{"include":["au-vic"]},"geometry":["point","area"],"matchScore":2,"terms":["central highlands water"],"tags":{"man_made":"water_works","operator:wikidata":"Q16858671"},"addTags":{"man_made":"water_works","operator":"Central Highlands Water","operator:wikidata":"Q16858671"}},"man_made/water_works/colibanwater-086b9d":{"name":"Coliban Water","locationSet":{"include":["au-vic"]},"geometry":["point","area"],"matchScore":2,"terms":["coliban water"],"tags":{"man_made":"water_works","operator:wikidata":"Q5144809"},"addTags":{"man_made":"water_works","operator":"Coliban Water","operator:wikidata":"Q5144809"}},"man_made/water_works/eastgippslandwater-086b9d":{"name":"East Gippsland Water","locationSet":{"include":["au-vic"]},"geometry":["point","area"],"matchScore":2,"terms":["east gippsland water"],"tags":{"man_made":"water_works","operator:wikidata":"Q111142849"},"addTags":{"man_made":"water_works","operator":"East Gippsland Water","operator:wikidata":"Q111142849"}},"man_made/water_works/gippslandwater-086b9d":{"name":"Gippsland Water","locationSet":{"include":["au-vic"]},"geometry":["point","area"],"matchScore":2,"terms":["gippsland water"],"tags":{"man_made":"water_works","operator:wikidata":"Q111142865"},"addTags":{"man_made":"water_works","operator":"Gippsland Water","operator:wikidata":"Q111142865"}},"man_made/water_works/goulburnvalleywater-086b9d":{"name":"Goulburn Valley Water","locationSet":{"include":["au-vic"]},"geometry":["point","area"],"matchScore":2,"terms":["goulburn valley water"],"tags":{"man_made":"water_works","operator:wikidata":"Q111142877"},"addTags":{"man_made":"water_works","operator":"Goulburn Valley Water","operator:wikidata":"Q111142877"}},"man_made/water_works/grampianswimmeramalleewater-086b9d":{"name":"Grampians Wimmera Mallee Water","locationSet":{"include":["au-vic"]},"geometry":["point","area"],"matchScore":2,"terms":["grampians wimmera mallee water"],"tags":{"man_made":"water_works","operator:wikidata":"Q111143122"},"addTags":{"man_made":"water_works","operator":"Grampians Wimmera Mallee Water","operator:wikidata":"Q111143122"}},"man_made/water_works/greaterwesternwater-086b9d":{"name":"Greater Western Water","locationSet":{"include":["au-vic"]},"geometry":["point","area"],"matchScore":2,"terms":["greater western water"],"tags":{"man_made":"water_works","operator:wikidata":"Q111142722"},"addTags":{"man_made":"water_works","operator":"Greater Western Water","operator:wikidata":"Q111142722"}},"man_made/water_works/lowermurraywater-086b9d":{"name":"Lower Murray Water","locationSet":{"include":["au-vic"]},"geometry":["point","area"],"matchScore":2,"terms":["lower murray water"],"tags":{"man_made":"water_works","operator:wikidata":"Q111143226"},"addTags":{"man_made":"water_works","operator":"Lower Murray Water","operator:wikidata":"Q111143226"}},"man_made/water_works/melbournewater-086b9d":{"name":"Melbourne Water","locationSet":{"include":["au-vic"]},"geometry":["point","area"],"matchScore":2,"terms":["melbourne water"],"tags":{"man_made":"water_works","operator:wikidata":"Q6811920"},"addTags":{"man_made":"water_works","operator":"Melbourne Water","operator:wikidata":"Q6811920"}},"man_made/water_works/northeastwater-086b9d":{"name":"North East Water","locationSet":{"include":["au-vic"]},"geometry":["point","area"],"matchScore":2,"terms":["north east water"],"tags":{"man_made":"water_works","operator:wikidata":"Q111143408"},"addTags":{"man_made":"water_works","operator":"North East Water","operator:wikidata":"Q111143408"}},"man_made/water_works/southeastwater-086b9d":{"name":"South East Water","locationSet":{"include":["au-vic"]},"geometry":["point","area"],"matchScore":2,"terms":["south east water"],"tags":{"man_made":"water_works","operator:wikidata":"Q7567145"},"addTags":{"man_made":"water_works","operator":"South East Water","operator:wikidata":"Q7567145"}},"man_made/water_works/southgippslandwater-086b9d":{"name":"South Gippsland Water","locationSet":{"include":["au-vic"]},"geometry":["point","area"],"matchScore":2,"terms":["south gippsland water"],"tags":{"man_made":"water_works","operator:wikidata":"Q111143421"},"addTags":{"man_made":"water_works","operator":"South Gippsland Water","operator:wikidata":"Q111143421"}},"man_made/water_works/wannonwater-086b9d":{"name":"Wannon Water","locationSet":{"include":["au-vic"]},"geometry":["point","area"],"matchScore":2,"terms":["wannon water"],"tags":{"man_made":"water_works","operator:wikidata":"Q111143433"},"addTags":{"man_made":"water_works","operator":"Wannon Water","operator:wikidata":"Q111143433"}},"man_made/water_works/westernportwater-086b9d":{"name":"Westernport Water","locationSet":{"include":["au-vic"]},"geometry":["point","area"],"matchScore":2,"terms":["westernport water"],"tags":{"man_made":"water_works","operator:wikidata":"Q111143439"},"addTags":{"man_made":"water_works","operator":"Westernport Water","operator:wikidata":"Q111143439"}},"public_transport/station_ferry/spiritoftasmania-6ba95b":{"name":"Spirit of Tasmania","locationSet":{"include":["au-tas","au-vic"]},"geometry":["vertex","point","area"],"matchScore":2,"terms":["tt-line company"],"reference":{"key":"amenity","value":"ferry_terminal"},"tags":{"ferry":"yes","network:wikidata":"Q11704194","public_transport":"station"},"addTags":{"amenity":"ferry_terminal","ferry":"yes","name":"Spirit of Tasmania","network":"TT-Line Company","network:wikidata":"Q11704194","public_transport":"station"}},"public_transport/platform/bus_point/skybus-86ba35":{"name":"Skybus","locationSet":{"include":["au-tas","au-vic"]},"geometry":["point","vertex"],"matchScore":2,"terms":["skybus"],"reference":{"key":"public_transport","value":"platform"},"tags":{"bus":"yes","network:wikidata":"Q7537617","public_transport":"platform"},"addTags":{"bus":"yes","highway":"bus_stop","network":"Skybus","network:wikidata":"Q7537617","public_transport":"platform"}},"railway/station/nswtrainlink-e3afe8":{"name":"NSW TrainLink","locationSet":{"include":["au-act","au-nsw","au-qld","au-vic"]},"geometry":["point","vertex","area"],"matchScore":2,"terms":["new south wales trainlink","nsw trainlink","nsw trainslink","tfnsw","trainlink","transport for nsw trainlink"],"tags":{"network:wikidata":"Q6955406","railway":"station"},"addTags":{"network":"NSW TrainLink","network:wikidata":"Q6955406","public_transport":"station","railway":"station","train":"yes"}},"type/route/bus/skybus-bbd34c":{"name":"Skybus","locationSet":{"include":["au-tas","au-vic"]},"geometry":["relation"],"matchScore":2,"terms":["skybus"],"reference":{"key":"route","value":"bus"},"tags":{"network:wikidata":"Q7537617","route":"bus","type":"route"},"addTags":{"network":"Skybus","network:wikidata":"Q7537617","route":"bus","type":"route"}},"type/route/ferry/spiritoftasmania-3caa08":{"name":"Spirit of Tasmania","locationSet":{"include":["au-tas","au-vic"]},"geometry":["relation"],"matchScore":2,"terms":["tt-line company"],"reference":{"key":"route","value":"ferry"},"tags":{"network:wikidata":"Q11704194","route":"ferry","type":"route"},"addTags":{"name":"Spirit of Tasmania","network":"TT-Line Company","network:wikidata":"Q11704194","route":"ferry","type":"route"}},"route/ferry/spiritoftasmania-3caa08":{"name":"Spirit of Tasmania","locationSet":{"include":["au-tas","au-vic"]},"geometry":["line"],"matchScore":2,"terms":["tt-line company"],"tags":{"network:wikidata":"Q11704194","route":"ferry"},"addTags":{"name":"Spirit of Tasmania","network":"TT-Line Company","network:wikidata":"Q11704194","route":"ferry"}},"type/route/train/nswtrainlink-b63b85":{"name":"NSW TrainLink","locationSet":{"include":["au-act","au-nsw","au-qld","au-vic"]},"geometry":["relation"],"matchScore":2,"terms":["new south wales trainlink","nsw trainlink","nsw trainslink","tfnsw","trainlink","transport for nsw trainlink"],"reference":{"key":"route","value":"train"},"tags":{"network:wikidata":"Q6955406","route":"train","type":"route"},"addTags":{"network":"NSW TrainLink","network:wikidata":"Q6955406","route":"train","type":"route"}}}