{"amenity/atm/bancodecreditoycomercio-94b01c":{"name":"Banco de Crédito y Comercio","locationSet":{"include":["cu"]},"geometry":["point","vertex"],"matchScore":2,"terms":["banco de crédito y comercio","bandec"],"fields":["name","brand","{amenity/atm}"],"tags":{"amenity":"atm","brand:wikidata":"Q113137945"},"addTags":{"amenity":"atm","brand":"Banco de Crédito y Comercio","brand:wikidata":"Q113137945","operator":"Banco de Crédito y Comercio","operator:wikidata":"Q113137945"}},"amenity/atm/bancometropolitano-94b01c":{"name":"Banco Metropolitano","locationSet":{"include":["cu"]},"geometry":["point","vertex"],"matchScore":2,"terms":["banco metropolitano","banmet"],"fields":["name","brand","{amenity/atm}"],"tags":{"amenity":"atm","brand:wikidata":"Q62118612"},"addTags":{"amenity":"atm","brand":"Banco Metropolitano","brand:wikidata":"Q62118612","operator":"Banco Metropolitano","operator:wikidata":"Q62118612"}},"amenity/atm/bancopopulardeahorro-94b01c":{"name":"Banco Popular de Ahorro","locationSet":{"include":["cu"]},"geometry":["point","vertex"],"matchScore":2,"terms":["banco popular de ahorro","bpa"],"fields":["name","brand","{amenity/atm}"],"tags":{"amenity":"atm","brand:wikidata":"Q62118626"},"addTags":{"amenity":"atm","brand":"Banco Popular de Ahorro","brand:wikidata":"Q62118626","operator":"Banco Popular de Ahorro","operator:wikidata":"Q62118626"}},"amenity/bank/bancodecreditoycomercio-23df77":{"name":"Banco de Crédito y Comercio","locationSet":{"include":["cu"]},"geometry":["point","area"],"matchScore":2,"terms":["banco de crédito y comercio","bandec"],"tags":{"amenity":"bank","brand:wikidata":"Q113137945"},"addTags":{"amenity":"bank","brand":"Banco de Crédito y Comercio","brand:wikidata":"Q113137945","name":"Banco de Crédito y Comercio"}},"amenity/bank/bancometropolitano-23df77":{"name":"Banco Metropolitano","locationSet":{"include":["cu"]},"geometry":["point","area"],"matchScore":2,"terms":["banco metropolitano","banmet"],"tags":{"amenity":"bank","brand:wikidata":"Q62118612"},"addTags":{"amenity":"bank","brand":"Banco Metropolitano","brand:wikidata":"Q62118612","name":"Banco Metropolitano"}},"amenity/bank/bancopopulardeahorro-23df77":{"name":"Banco Popular de Ahorro","locationSet":{"include":["cu"]},"geometry":["point","area"],"matchScore":2,"terms":["banco popular de ahorro","bpa"],"tags":{"amenity":"bank","brand:wikidata":"Q62118626"},"addTags":{"amenity":"bank","brand":"Banco Popular de Ahorro","brand:wikidata":"Q62118626","name":"Banco Popular de Ahorro"}},"amenity/bureau_de_change/cadeca-bd5e7d":{"name":"CADECA","locationSet":{"include":["cu"]},"geometry":["point","area"],"matchScore":2,"terms":["cadeca"],"tags":{"amenity":"bureau_de_change","brand:wikidata":"Q62122716"},"addTags":{"amenity":"bureau_de_change","brand":"CADECA","brand:wikidata":"Q62122716","name":"CADECA"}},"amenity/fuel/cupet-e04f92":{"name":"Cupet","locationSet":{"include":["cu"]},"geometry":["point","area"],"matchScore":2,"terms":["cuba oil union","cuba petróleo union","cupet"],"fields":["name","brand","{amenity/fuel}"],"tags":{"amenity":"fuel","brand:wikidata":"Q3007579"},"addTags":{"amenity":"fuel","brand":"Cupet","brand:wikidata":"Q3007579","name":"Cupet"}},"amenity/fuel/sol-6e9b5c":{"name":"Sol","locationSet":{"include":["ai","ag","aw","bs","bb","bq","vg","ky","cu","cw","dm","do","gd","gp","ht","jm","mq","ms","pr","bl","kn","lc","mf","vc","sx","tt","tc","vi","gf","gy","sr"]},"geometry":["point","area"],"matchScore":2,"terms":["sol"],"fields":["name","brand","{amenity/fuel}"],"tags":{"amenity":"fuel","brand:wikidata":"Q99939344"},"addTags":{"amenity":"fuel","brand":"Sol","brand:wikidata":"Q99939344","name":"Sol"}},"emergency/ambulance_station/cruzrojacubana-8b68ec":{"name":"Cruz Roja Cubana","locationSet":{"include":["cu"]},"geometry":["point","area"],"matchScore":2,"terms":["crc","cruz roja","cruz roja cubana"],"fields":["name","brand","{emergency/ambulance_station}"],"tags":{"brand:wikidata":"Q5792392","emergency":"ambulance_station"},"addTags":{"brand":"Cruz Roja Cubana","brand:wikidata":"Q5792392","emergency":"ambulance_station","name":"Cruz Roja Cubana"}},"office/telecommunication/etecsa-0b19c8":{"name":"ETECSA","locationSet":{"include":["cu"]},"geometry":["point","area"],"matchScore":2,"terms":["empresa de telecomunicaciones de cuba","etecsa"],"tags":{"brand:wikidata":"Q490323","office":"telecommunication"},"addTags":{"brand":"ETECSA","brand:wikidata":"Q490323","name":"ETECSA","office":"telecommunication","official_name":"Empresa de Telecomunicaciones de Cuba"}},"shop/mobile_phone/telcel-9812f0":{"name":"Telcel","locationSet":{"include":["cu","mx"]},"geometry":["point","area"],"matchScore":2,"terms":["telcel"],"tags":{"brand:wikidata":"Q3517255","shop":"mobile_phone"},"addTags":{"brand":"Telcel","brand:wikidata":"Q3517255","name":"Telcel","shop":"mobile_phone"}},"shop/mobile_phone/wifietecsa-9a8553":{"name":"WIFI_ETECSA","locationSet":{"include":["cu"]},"geometry":["point","area"],"matchScore":2,"terms":["wifi_etecsa"],"tags":{"brand:wikidata":"Q490323","shop":"mobile_phone"},"addTags":{"brand":"WIFI_ETECSA","brand:wikidata":"Q490323","name":"WIFI_ETECSA","shop":"mobile_phone"}},"tourism/hotel/nhcollectionhotels-f05c75":{"name":"NH Collection Hotels","locationSet":{"include":["ad","ar","at","be","cl","co","cu","cz","de","dk","ec","es","fr","hu","it","mx","nl","pt","qa","us-ny"]},"geometry":["point","area"],"matchScore":2,"terms":["nh collection hotels"],"fields":["name","brand","{tourism/hotel}"],"tags":{"brand:wikidata":"Q1604631","tourism":"hotel"},"addTags":{"brand":"NH Collection Hotels","brand:wikidata":"Q1604631","name":"NH Collection Hotels","tourism":"hotel"}},"tourism/hotel/nhhotel-e9b4fb":{"name":"NH Hotels","locationSet":{"include":["ad","ar","at","be","br","ch","cl","co","cu","cz","de","es","fr","hu","it","lu","mx","nl","pl","pt"]},"geometry":["point","area"],"matchScore":2,"terms":["nh hotels"],"fields":["name","brand","{tourism/hotel}"],"tags":{"brand:wikidata":"Q1604631","tourism":"hotel"},"addTags":{"brand":"NH Hotels","brand:wikidata":"Q1604631","name":"NH Hotel","tourism":"hotel"}},"amenity/clinic/ministeriodesaludpublica-72f142":{"name":"Ministerio de Salud Pública (Cuba)","locationSet":{"include":["cu"]},"geometry":["point","area"],"matchScore":2,"terms":["ministerio de salud pública","minsap"],"fields":["name","operator","{amenity/clinic}"],"reference":{"key":"amenity","value":"clinic"},"tags":{"amenity":"clinic","operator:wikidata":"Q5970641"},"addTags":{"amenity":"clinic","healthcare":"clinic","operator":"Ministerio de Salud Pública","operator:short":"MINSAP","operator:wikidata":"Q5970641"}},"amenity/hospital/ministeriodesaludpublica-08985e":{"name":"Ministerio de Salud Pública (Cuba)","locationSet":{"include":["cu"]},"geometry":["area","point"],"matchScore":2,"terms":["ministerio de salud pública","minsap"],"fields":["name","operator","{amenity/hospital}"],"reference":{"key":"amenity","value":"hospital"},"tags":{"amenity":"hospital","operator:wikidata":"Q6017421"},"addTags":{"amenity":"hospital","healthcare":"hospital","operator":"Ministerio de Salud Pública","operator:short":"MINSAP","operator:wikidata":"Q6017421"}},"amenity/police/policianacionalrevolucionaria-0bef41":{"name":"Policía Nacional Revolucionaria","locationSet":{"include":["cu"]},"geometry":["point","area"],"matchScore":2,"terms":["ministerio de interior","pnr","policía nacional revolucionaria","policía revolucionaria de cuba"],"tags":{"amenity":"police","operator:wikidata":"Q3907549"},"addTags":{"amenity":"police","operator":"Policía Nacional Revolucionaria","operator:short":"PNR","operator:wikidata":"Q3907549"}},"amenity/post_box/correosdecuba-9416d8":{"name":"Correos de Cuba","locationSet":{"include":["cu"]},"geometry":["point","vertex"],"matchScore":2,"terms":["correos de cuba"],"tags":{"amenity":"post_box","operator:wikidata":"Q5789322"},"addTags":{"amenity":"post_box","operator":"Correos de Cuba","operator:wikidata":"Q5789322"}},"amenity/post_office/correosdecuba-e577ef":{"name":"Correos de Cuba","locationSet":{"include":["cu"]},"geometry":["point","area"],"matchScore":2,"terms":["correos de cuba"],"fields":["name","operator","{amenity/post_office}"],"tags":{"amenity":"post_office","operator:wikidata":"Q5789322"},"addTags":{"amenity":"post_office","operator":"Correos de Cuba","operator:wikidata":"Q5789322"}},"amenity/telephone/claro-6490cd":{"name":"Claro","locationSet":{"include":["ai","ag","aw","bs","bb","bq","vg","ky","cu","cw","dm","do","gd","gp","ht","jm","mq","ms","pr","bl","kn","lc","mf","vc","sx","tt","tc","vi","bz","cr","sv","gt","hn","mx","ni","pa","ar","bo","bv","br","cl","co","ec","fk","gf","gy","py","pe","gs","sr","uy","ve"]},"geometry":["point","vertex"],"matchScore":2,"terms":["claro"],"fields":["name","operator","{amenity/telephone}"],"tags":{"amenity":"telephone","operator:wikidata":"Q1770208"},"addTags":{"amenity":"telephone","operator":"Claro","operator:wikidata":"Q1770208"}},"amenity/telephone/etecsa-e894e6":{"name":"ETECSA","locationSet":{"include":["cu"]},"geometry":["point","vertex"],"matchScore":2,"terms":["etecsa"],"fields":["name","operator","{amenity/telephone}"],"tags":{"amenity":"telephone","operator:wikidata":"Q490323"},"addTags":{"amenity":"telephone","operator":"ETECSA","operator:wikidata":"Q490323"}},"power/generator/valero-7654ee":{"name":"Valero","locationSet":{"include":["ai","ag","aw","bs","bb","bq","vg","ky","cu","cw","dm","do","gd","gp","ht","jm","mq","ms","pr","bl","kn","lc","mf","vc","sx","tt","tc","vi","ca","us"]},"geometry":["point","vertex","area"],"matchScore":2,"terms":["valero"],"tags":{"operator:wikidata":"Q1283291","power":"generator"},"addTags":{"operator":"Valero","operator:wikidata":"Q1283291","power":"generator"}}}