{"shop/mobile_phone/vodafone-2a2469":{"name":"Vodafone","locationSet":{"include":["al","au","ck","cz","de","es","fj","gb","gh","gr","hu","ie","is","it","ki","nl","om","pf","pg","pt","qa","ro","tr","vu","ws"]},"geometry":["point","area"],"matchScore":2,"terms":["vodafone","vodafone deutschland","vodafone it","vodafone italia spa","vodafone shop"],"tags":{"brand:wikidata":"Q122141","shop":"mobile_phone"},"addTags":{"brand":"Vodafone","brand:wikidata":"Q122141","name":"Vodafone","shop":"mobile_phone"}},"amenity/police/royalpapuanewguineaconstabulary-2d366c":{"name":"Royal Papua New Guinea Constabulary","locationSet":{"include":["pg"]},"geometry":["point","area"],"matchScore":2,"terms":["royal papua new guinea constabulary","rpngc"],"tags":{"amenity":"police","operator:wikidata":"Q7374681"},"addTags":{"amenity":"police","operator":"Royal Papua New Guinea Constabulary","operator:short":"RPNGC","operator:wikidata":"Q7374681"}},"amenity/school/departmentofeducation-6ced19":{"name":"Department of Education (Papua Niugini)","locationSet":{"include":["pg"]},"geometry":["area","point"],"matchScore":2,"terms":["department of education","dept. of education","deptartment of education"],"tags":{"amenity":"school","operator:wikidata":"Q111466445"},"addTags":{"amenity":"school","operator":"Department of Education","operator:type":"government","operator:wikidata":"Q111466445"}},"amenity/school/evangelicalbrotherhoodchurch-6ced19":{"name":"Evangelical Brotherhood Church (New Guinea)","locationSet":{"include":["pg"]},"geometry":["area","point"],"matchScore":2,"terms":["ebc","evangelical brotherhood church"],"tags":{"amenity":"school","operator:wikidata":"Q111699130"},"addTags":{"amenity":"school","operator":"Evangelical Brotherhood Church","operator:short":"EBC","operator:type":"religious","operator:wikidata":"Q111699130"}},"amenity/school/evangelicallutheranchurchofpapuanewguinea-6ced19":{"name":"Evangelical Lutheran Church of Papua New Guinea","locationSet":{"include":["pg"]},"geometry":["area","point"],"matchScore":2,"terms":["elc-png","evangelical lutheran church","evangelical lutheran church of papua new guinea"],"tags":{"amenity":"school","operator:wikidata":"Q1379909"},"addTags":{"amenity":"school","operator":"Evangelical Lutheran Church of Papua New Guinea","operator:short":"ELC-PNG","operator:type":"religious","operator:wikidata":"Q1379909"}}}