{"amenity/atm/bankalfalah-d0578d":{"name":"Bank Alfalah (بینک الفلاح)","locationSet":{"include":["ae","af","bd","bh","pk"]},"geometry":["point","vertex"],"matchScore":2,"terms":["bank alfalah","bank alfalah limited","habib credit and exchange bank","بینک الفلاح","بینک الفلاح لمیٹڈ"],"tags":{"amenity":"atm","brand:wikidata":"Q4855895"},"addTags":{"amenity":"atm","brand":"Bank Alfalah","brand:en":"Bank Alfalah","brand:ur":"بینک الفلاح","brand:wikidata":"Q4855895","name:en":"Bank Alfalah","name:ur":"بینک الفلاح","operator":"Bank Alfalah","operator:wikidata":"Q4855895"}},"amenity/bank/bankalfalah-a78d37":{"name":"Bank Alfalah (بینک الفلاح)","locationSet":{"include":["ae","af","bd","bh","pk"]},"geometry":["point","area"],"matchScore":2,"terms":["bank alfalah","bank alfalah limited","habib credit and exchange bank","بینک الفلاح","بینک الفلاح لمیٹڈ"],"tags":{"amenity":"bank","brand:wikidata":"Q4855895"},"addTags":{"amenity":"bank","brand":"Bank Alfalah","brand:en":"Bank Alfalah","brand:ur":"بینک الفلاح","brand:wikidata":"Q4855895","name:en":"Bank Alfalah","name:ur":"بینک الفلاح"}},"shop/mobile_phone/mtn-fe03c5":{"name":"MTN","locationSet":{"include":["af","bj","bw","cg","ci","cm","gn","gw","ir","lr","ni","rw","sd","ss","sy","ug","ye","za","zm"]},"geometry":["point","area"],"matchScore":2,"terms":["agence mtn","mtn"],"tags":{"brand:wikidata":"Q1813361","shop":"mobile_phone"},"addTags":{"brand":"MTN","brand:wikidata":"Q1813361","name":"MTN","shop":"mobile_phone"}}}