{"amenity/atm/monobank-968b58":{"name":"Monobank","locationSet":{"include":["ua"]},"geometry":["point","vertex"],"matchScore":2,"terms":["monobank"],"fields":["name","brand","{amenity/atm}"],"tags":{"amenity":"atm","brand:wikidata":"Q44789053"},"addTags":{"amenity":"atm","brand":"Monobank","brand:wikidata":"Q44789053","operator":"Monobank","operator:wikidata":"Q44789053"}},"amenity/atm/13a122-968b58":{"name":"А-Банк","locationSet":{"include":["ua"]},"geometry":["point","vertex"],"matchScore":2,"terms":["а-банк"],"fields":["name","brand","{amenity/atm}"],"tags":{"amenity":"atm","brand:wikidata":"Q28705400"},"addTags":{"amenity":"atm","brand":"А-Банк","brand:wikidata":"Q28705400","operator":"А-Банк","operator:wikidata":"Q28705400"}},"amenity/atm/alfabank-968b58":{"name":"Альфа-Банк (Украина)","locationSet":{"include":["ua"]},"geometry":["point","vertex"],"matchScore":2,"terms":["alfa-bank","альфа-банк"],"fields":["name","brand","{amenity/atm}"],"tags":{"amenity":"atm","brand:wikidata":"Q16691757"},"addTags":{"amenity":"atm","brand":"Альфа-Банк","brand:en":"Alfa-Bank","brand:ru":"Альфа-Банк","brand:uk":"Альфа-Банк","brand:wikidata":"Q16691757","name:en":"Alfa-Bank","name:ru":"Альфа-Банк","name:uk":"Альфа-Банк","operator":"Альфа-Банк","operator:wikidata":"Q16691757"}},"amenity/atm/btabank-968b58":{"name":"БТА Банк (Україна)","locationSet":{"include":["ua"]},"geometry":["point","vertex"],"matchScore":2,"terms":["bta bank","бта банк"],"fields":["name","brand","{amenity/atm}"],"searchable":false,"tags":{"amenity":"atm","brand:wikidata":"Q797060"},"addTags":{"amenity":"atm","brand":"БТА Банк","brand:en":"BTA Bank","brand:uk":"БТА Банк","brand:wikidata":"Q797060","name:en":"BTA Bank","name:uk":"БТА Банк","operator":"БТА Банк","operator:wikidata":"Q797060"}},"amenity/atm/ideabank-968b58":{"name":"Ідея Банк (Україна)","locationSet":{"include":["ua"]},"geometry":["point","vertex"],"matchScore":2,"terms":["idea bank","ідея банк"],"fields":["name","brand","{amenity/atm}"],"tags":{"amenity":"atm","brand:wikidata":"Q47502068"},"addTags":{"amenity":"atm","brand":"Ідея Банк","brand:en":"Idea Bank","brand:uk":"Ідея Банк","brand:wikidata":"Q47502068","name:en":"Idea Bank","name:uk":"Ідея Банк","operator":"Ідея Банк","operator:wikidata":"Q47502068"}},"amenity/atm/otpbank-968b58":{"name":"ОТП Банк (Україна)","locationSet":{"include":["ua"]},"geometry":["point","vertex"],"matchScore":2,"terms":["otp bank","отп банк"],"fields":["name","brand","{amenity/atm}"],"tags":{"amenity":"atm","brand:wikidata":"Q16688676"},"addTags":{"amenity":"atm","brand":"ОТП Банк","brand:en":"OTP Bank","brand:uk":"ОТП Банк","brand:wikidata":"Q16688676","name:en":"OTP Bank","name:uk":"ОТП Банк","operator":"ОТП Банк","operator:wikidata":"Q16688676"}},"amenity/atm/oschadbank-968b58":{"name":"Ощадбанк","locationSet":{"include":["ua"]},"geometry":["point","vertex"],"matchScore":2,"terms":["joint stock company \"state savings bank of ukraine\"","jsc \"oschadbank\"","oschadbank","акціонерне товариство \"державний ощадний банк україни\"","ат \"ощадбанк\"","ощадбанк"],"fields":["name","brand","{amenity/atm}"],"tags":{"amenity":"atm","brand:wikidata":"Q4340839"},"addTags":{"amenity":"atm","brand":"Ощадбанк","brand:en":"Oschadbank","brand:uk":"Ощадбанк","brand:wikidata":"Q4340839","name:en":"Oschadbank","name:uk":"Ощадбанк","official_name":"Акціонерне товариство \"Державний ощадний банк України\"","official_name:en":"Joint Stock Company \"State Savings Bank of Ukraine\"","official_name:uk":"Акціонерне товариство \"Державний ощадний банк України\"","operator":"Ощадбанк","operator:wikidata":"Q4340839","short_name":"АТ \"Ощадбанк\"","short_name:en":"JSC \"Oschadbank\"","short_name:uk":"АТ \"Ощадбанк\""}},"amenity/atm/privatbank-968b58":{"name":"ПриватБанк","locationSet":{"include":["ua"]},"geometry":["point","vertex"],"matchScore":2,"terms":["privatbank","приватбанк"],"fields":["name","brand","{amenity/atm}"],"tags":{"amenity":"atm","brand:wikidata":"Q1515015"},"addTags":{"amenity":"atm","brand":"ПриватБанк","brand:en":"PrivatBank","brand:wikidata":"Q1515015","name:en":"PrivatBank","operator":"ПриватБанк","operator:wikidata":"Q1515015"}},"amenity/atm/procreditbank-968b58":{"name":"ПроКредит Банк (Україна)","locationSet":{"include":["ua"]},"geometry":["point","vertex"],"matchScore":2,"terms":["procredit bank","прокредит банк"],"fields":["name","brand","{amenity/atm}"],"tags":{"amenity":"atm","brand:wikidata":"Q20091911"},"addTags":{"amenity":"atm","brand":"ПроКредит Банк","brand:en":"ProCredit Bank","brand:uk":"ПроКредит Банк","brand:wikidata":"Q20091911","name:en":"ProCredit Bank","name:uk":"ПроКредит Банк","operator":"ПроКредит Банк","operator:wikidata":"Q20091911"}},"amenity/atm/firstukrainianinternationalbank-968b58":{"name":"ПУМБ","locationSet":{"include":["ua"]},"geometry":["point","vertex"],"matchScore":2,"terms":["first ukrainian international bank","пумб"],"fields":["name","brand","{amenity/atm}"],"tags":{"amenity":"atm","brand:wikidata":"Q4341156"},"addTags":{"amenity":"atm","brand":"ПУМБ","brand:en":"First Ukrainian International Bank","brand:wikidata":"Q4341156","name:en":"First Ukrainian International Bank","operator":"ПУМБ","operator:wikidata":"Q4341156"}},"amenity/atm/raiffeisenbank-968b58":{"name":"Райффайзен Банк","locationSet":{"include":["ua"]},"geometry":["point","vertex"],"matchScore":2,"terms":["raiffeisen bank","raiffeisen bank aval","аваль","банк аваль","райффайзен банк","райффайзен банк аваль"],"fields":["name","brand","{amenity/atm}"],"tags":{"amenity":"atm","brand:wikidata":"Q4389243"},"addTags":{"amenity":"atm","brand":"Райффайзен Банк","brand:en":"Raiffeisen Bank","brand:ru":"Райффайзен Банк","brand:uk":"Райффайзен Банк","brand:wikidata":"Q4389243","name:en":"Raiffeisen Bank","name:ru":"Райффайзен Банк","name:uk":"Райффайзен Банк","operator":"Райффайзен Банк","operator:wikidata":"Q4389243"}},"amenity/atm/ukrgasbank-968b58":{"name":"Укргазбанк","locationSet":{"include":["ua"]},"geometry":["point","vertex"],"matchScore":2,"terms":["ukrgasbank","укргазбанк"],"fields":["name","brand","{amenity/atm}"],"tags":{"amenity":"atm","brand:wikidata":"Q4470692"},"addTags":{"amenity":"atm","brand":"Укргазбанк","brand:en":"Ukrgasbank","brand:uk":"Укргазбанк","brand:wikidata":"Q4470692","name:en":"Ukrgasbank","name:uk":"Укргазбанк","operator":"Укргазбанк","operator:wikidata":"Q4470692"}},"amenity/atm/ukrsibbank-968b58":{"name":"УкрСиббанк","locationSet":{"include":["ua"]},"geometry":["point","vertex"],"matchScore":2,"terms":["bnp paribas","ukrsibbank","укрсиббанк"],"fields":["name","brand","{amenity/atm}"],"tags":{"amenity":"atm","brand:wikidata":"Q1976290"},"addTags":{"amenity":"atm","brand":"УкрСиббанк","brand:en":"UkrSibbank","brand:uk":"УкрСиббанк","brand:wikidata":"Q1976290","name:en":"UkrSibbank","name:uk":"УкрСиббанк","operator":"УкрСиббанк","operator:wikidata":"Q1976290"}},"amenity/atm/universalbank-968b58":{"name":"Універсал Банк","locationSet":{"include":["ua"]},"geometry":["point","vertex"],"matchScore":2,"terms":["universal bank","універсал банк"],"fields":["name","brand","{amenity/atm}"],"tags":{"amenity":"atm","brand:wikidata":"Q12164628"},"addTags":{"amenity":"atm","brand":"Універсал Банк","brand:en":"Universal Bank","brand:uk":"Універсал Банк","brand:wikidata":"Q12164628","name:en":"Universal Bank","name:uk":"Універсал Банк","operator":"Універсал Банк","operator:wikidata":"Q12164628"}},"amenity/bank/monobank-c8dc19":{"name":"Monobank","locationSet":{"include":["ua"]},"geometry":["point","area"],"matchScore":2,"terms":["monobank"],"tags":{"amenity":"bank","brand:wikidata":"Q44789053"},"addTags":{"amenity":"bank","brand":"Monobank","brand:wikidata":"Q44789053","name":"Monobank"}},"amenity/bank/13a122-c8dc19":{"name":"А-Банк","locationSet":{"include":["ua"]},"geometry":["point","area"],"matchScore":2,"terms":["а-банк"],"tags":{"amenity":"bank","brand:wikidata":"Q28705400"},"addTags":{"amenity":"bank","brand":"А-Банк","brand:wikidata":"Q28705400","name":"А-Банк"}},"amenity/bank/alfabank-c8dc19":{"name":"Альфа-Банк (Украина)","locationSet":{"include":["ua"]},"geometry":["point","area"],"matchScore":2,"terms":["alfa-bank","альфа-банк"],"tags":{"amenity":"bank","brand:wikidata":"Q16691757"},"addTags":{"amenity":"bank","brand":"Альфа-Банк","brand:en":"Alfa-Bank","brand:ru":"Альфа-Банк","brand:uk":"Альфа-Банк","brand:wikidata":"Q16691757","name":"Альфа-Банк","name:en":"Alfa-Bank","name:ru":"Альфа-Банк","name:uk":"Альфа-Банк"}},"amenity/bank/btabank-c8dc19":{"name":"БТА Банк (Україна)","locationSet":{"include":["ua"]},"geometry":["point","area"],"matchScore":2,"terms":["bta bank","бта банк"],"searchable":false,"tags":{"amenity":"bank","brand:wikidata":"Q797060"},"addTags":{"amenity":"bank","brand":"БТА Банк","brand:en":"BTA Bank","brand:uk":"БТА Банк","brand:wikidata":"Q797060","name":"БТА Банк","name:en":"BTA Bank","name:uk":"БТА Банк"}},"amenity/bank/ideabank-c8dc19":{"name":"Ідея Банк (Україна)","locationSet":{"include":["ua"]},"geometry":["point","area"],"matchScore":2,"terms":["idea bank","ідея банк"],"tags":{"amenity":"bank","brand:wikidata":"Q47502068"},"addTags":{"amenity":"bank","brand":"Ідея Банк","brand:en":"Idea Bank","brand:uk":"Ідея Банк","brand:wikidata":"Q47502068","name":"Ідея Банк","name:en":"Idea Bank","name:uk":"Ідея Банк"}},"amenity/bank/otpbank-c8dc19":{"name":"ОТП Банк (Україна)","locationSet":{"include":["ua"]},"geometry":["point","area"],"matchScore":2,"terms":["otp bank","отп банк"],"tags":{"amenity":"bank","brand:wikidata":"Q16688676"},"addTags":{"amenity":"bank","brand":"ОТП Банк","brand:en":"OTP Bank","brand:uk":"ОТП Банк","brand:wikidata":"Q16688676","name":"ОТП Банк","name:en":"OTP Bank","name:uk":"ОТП Банк"}},"amenity/bank/oschadbank-c8dc19":{"name":"Ощадбанк","locationSet":{"include":["ua"]},"geometry":["point","area"],"matchScore":2,"terms":["joint stock company \"state savings bank of ukraine\"","jsc \"oschadbank\"","oschadbank","акціонерне товариство \"державний ощадний банк україни\"","ат \"ощадбанк\"","ощадбанк"],"tags":{"amenity":"bank","brand:wikidata":"Q4340839"},"addTags":{"amenity":"bank","brand":"Ощадбанк","brand:en":"Oschadbank","brand:uk":"Ощадбанк","brand:wikidata":"Q4340839","name":"Ощадбанк","name:en":"Oschadbank","name:uk":"Ощадбанк","official_name":"Акціонерне товариство \"Державний ощадний банк України\"","official_name:en":"Joint Stock Company \"State Savings Bank of Ukraine\"","official_name:uk":"Акціонерне товариство \"Державний ощадний банк України\"","short_name":"АТ \"Ощадбанк\"","short_name:en":"JSC \"Oschadbank\"","short_name:uk":"АТ \"Ощадбанк\""}},"amenity/bank/privatbank-c8dc19":{"name":"ПриватБанк","locationSet":{"include":["ua"]},"geometry":["point","area"],"matchScore":2,"terms":["privatbank","приватбанк"],"tags":{"amenity":"bank","brand:wikidata":"Q1515015"},"addTags":{"amenity":"bank","brand":"ПриватБанк","brand:en":"PrivatBank","brand:wikidata":"Q1515015","name":"ПриватБанк","name:en":"PrivatBank"}},"amenity/bank/procreditbank-c8dc19":{"name":"ПроКредит Банк (Україна)","locationSet":{"include":["ua"]},"geometry":["point","area"],"matchScore":2,"terms":["procredit bank","прокредит банк"],"tags":{"amenity":"bank","brand:wikidata":"Q20091911"},"addTags":{"amenity":"bank","brand":"ПроКредит Банк","brand:en":"ProCredit Bank","brand:uk":"ПроКредит Банк","brand:wikidata":"Q20091911","name":"ПроКредит Банк","name:en":"ProCredit Bank","name:uk":"ПроКредит Банк"}},"amenity/bank/firstukrainianinternationalbank-c8dc19":{"name":"ПУМБ","locationSet":{"include":["ua"]},"geometry":["point","area"],"matchScore":2,"terms":["first ukrainian international bank","пумб"],"tags":{"amenity":"bank","brand:wikidata":"Q4341156"},"addTags":{"amenity":"bank","brand":"ПУМБ","brand:en":"First Ukrainian International Bank","brand:wikidata":"Q4341156","name":"ПУМБ","name:en":"First Ukrainian International Bank"}},"amenity/bank/raiffeisenbank-c8dc19":{"name":"Райффайзен Банк","locationSet":{"include":["ua"]},"geometry":["point","area"],"matchScore":2,"terms":["raiffeisen bank","raiffeisen bank aval","аваль","банк аваль","райффайзен банк","райффайзен банк аваль"],"tags":{"amenity":"bank","brand:wikidata":"Q4389243"},"addTags":{"amenity":"bank","brand":"Райффайзен Банк","brand:en":"Raiffeisen Bank","brand:ru":"Райффайзен Банк","brand:uk":"Райффайзен Банк","brand:wikidata":"Q4389243","name":"Райффайзен Банк","name:en":"Raiffeisen Bank","name:ru":"Райффайзен Банк","name:uk":"Райффайзен Банк"}},"amenity/bank/ukrgasbank-c8dc19":{"name":"Укргазбанк","locationSet":{"include":["ua"]},"geometry":["point","area"],"matchScore":2,"terms":["ukrgasbank","укргазбанк"],"tags":{"amenity":"bank","brand:wikidata":"Q4470692"},"addTags":{"amenity":"bank","brand":"Укргазбанк","brand:en":"Ukrgasbank","brand:uk":"Укргазбанк","brand:wikidata":"Q4470692","name":"Укргазбанк","name:en":"Ukrgasbank","name:uk":"Укргазбанк"}},"amenity/bank/ukrsibbank-c8dc19":{"name":"УкрСиббанк","locationSet":{"include":["ua"]},"geometry":["point","area"],"matchScore":2,"terms":["bnp paribas","ukrsibbank","укрсиббанк"],"tags":{"amenity":"bank","brand:wikidata":"Q1976290"},"addTags":{"amenity":"bank","brand":"УкрСиббанк","brand:en":"UkrSibbank","brand:uk":"УкрСиббанк","brand:wikidata":"Q1976290","name":"УкрСиббанк","name:en":"UkrSibbank","name:uk":"УкрСиббанк"}},"amenity/bank/universalbank-c8dc19":{"name":"Універсал Банк","locationSet":{"include":["ua"]},"geometry":["point","area"],"matchScore":2,"terms":["universal bank","універсал банк"],"tags":{"amenity":"bank","brand:wikidata":"Q12164628"},"addTags":{"amenity":"bank","brand":"Універсал Банк","brand:en":"Universal Bank","brand:uk":"Універсал Банк","brand:wikidata":"Q12164628","name":"Універсал Банк","name:en":"Universal Bank","name:uk":"Універсал Банк"}},"amenity/bicycle_rental/nextbike-a162ac":{"name":"nextbike (Ukraine)","locationSet":{"include":["ua"]},"geometry":["point","vertex","area"],"matchScore":2,"terms":["nextbike","некстбайк","тов некстбайк україна"],"fields":["name","brand","{amenity/bicycle_rental}"],"tags":{"amenity":"bicycle_rental","brand:wikidata":"Q2351279"},"addTags":{"amenity":"bicycle_rental","brand":"nextbike","brand:en":"nextbike","brand:uk":"Некстбайк","brand:wikidata":"Q2351279","network":"nextbike","network:en":"nextbike","network:uk":"Некстбайк","network:wikidata":"Q2351279","operator":"ТОВ Некстбайк Україна"}},"amenity/cafe/coffee_shop/aromaespressobar-1ae0cd":{"name":"Aroma Espresso Bar","locationSet":{"include":["ca","kz","ro","ua","us"]},"geometry":["point","area"],"matchScore":2,"terms":["aroma espresso bar"],"reference":{"key":"cuisine","value":"coffee_shop"},"tags":{"amenity":"cafe","brand:wikidata":"Q2909872","cuisine":"coffee_shop"},"addTags":{"amenity":"cafe","brand":"Aroma Espresso Bar","brand:wikidata":"Q2909872","cuisine":"coffee_shop","name":"Aroma Espresso Bar","takeaway":"yes"}},"amenity/cafe/coffee_shop/aromakava-d74022":{"name":"Aroma Kava","locationSet":{"include":["ua"]},"geometry":["point","area"],"matchScore":2,"terms":["aroma kava","арома кава"],"reference":{"key":"cuisine","value":"coffee_shop"},"tags":{"amenity":"cafe","brand:wikidata":"Q102175745","cuisine":"coffee_shop"},"addTags":{"amenity":"cafe","brand":"Aroma Kava","brand:wikidata":"Q102175745","cuisine":"coffee_shop","name":"Арома Кава","name:en":"Aroma Kava","name:ru":"Арома Кава","name:uk":"Арома Кава","takeaway":"yes"}},"amenity/cafe/coffee_shop/14d894-e2c355":{"name":"Кофе Хауз","locationSet":{"include":["ru","ua"]},"geometry":["point","area"],"matchScore":2,"terms":["кофе хауз"],"reference":{"key":"cuisine","value":"coffee_shop"},"tags":{"amenity":"cafe","brand:wikidata":"Q4236456","cuisine":"coffee_shop"},"addTags":{"amenity":"cafe","brand":"Кофе Хауз","brand:wikidata":"Q4236456","cuisine":"coffee_shop","name":"Кофе Хауз","takeaway":"yes"}},"amenity/cafe/coffee_shop/stolle-80fe8b":{"name":"Штолле","locationSet":{"include":["by","ru","ua"]},"geometry":["point","area"],"matchScore":2,"terms":["stolle","штолле"],"reference":{"key":"cuisine","value":"coffee_shop"},"tags":{"amenity":"cafe","brand:wikidata":"Q62502236","cuisine":"coffee_shop"},"addTags":{"amenity":"cafe","brand":"Штолле","brand:en":"Stolle","brand:wikidata":"Q62502236","cuisine":"coffee_shop","name":"Штолле","name:en":"Stolle","takeaway":"yes"}},"amenity/charging_station/ionity-b625d6":{"name":"Ionity","locationSet":{"include":["by","bg","cz","hu","pl","md","ro","ru","sk","ua","ax","gg","je","cq","dk","ee","fo","fi","is","ie","im","lv","lt","no","sj","se","gb","al","ad","ba","hr","gi","gr","va","it","mt","me","mk","pt","sm","rs","si","es","xk","at","be","fr","de","li","lu","mc","nl","ch"]},"geometry":["point","area"],"matchScore":2,"terms":["ionity","ionity gmbh"],"fields":["name","brand","{amenity/charging_station}"],"tags":{"amenity":"charging_station","brand:wikidata":"Q42717773"},"addTags":{"amenity":"charging_station","brand":"Ionity","brand:wikidata":"Q42717773"}},"amenity/fast_food/pizza/dominos-50e0ae":{"name":"Domino's (Ukraine)","locationSet":{"include":["ua"]},"geometry":["point","area"],"matchScore":2,"terms":["domino's","dominos pizza","доміно"],"reference":{"key":"cuisine","value":"pizza"},"tags":{"amenity":"fast_food","brand:wikidata":"Q839466","cuisine":"pizza"},"addTags":{"amenity":"fast_food","brand":"Domino's","brand:en":"Domino's","brand:wikidata":"Q839466","cuisine":"pizza","name":"Domino's","name:en":"Domino's","takeaway":"yes"}},"amenity/fast_food/burger/mcdonalds-50e0ae":{"name":"МакДональдз","locationSet":{"include":["ua"]},"geometry":["point","area"],"matchScore":2,"terms":["mcdonald's","макдоналдс","макдональдз"],"reference":{"key":"cuisine","value":"burger"},"tags":{"amenity":"fast_food","brand:wikidata":"Q38076","cuisine":"burger"},"addTags":{"amenity":"fast_food","brand":"McDonald's","brand:en":"McDonald's","brand:ru":"МакДоналдс","brand:uk":"МакДональдз","brand:wikidata":"Q38076","cuisine":"burger","name":"McDonald's","name:en":"McDonald's","name:ru":"МакДоналдс","name:uk":"МакДональдз","takeaway":"yes"}},"amenity/fast_food/puzatahata-af0c49":{"name":"Пузата хата","locationSet":{"include":["ru","ua"]},"geometry":["point","area"],"matchScore":2,"terms":["puzata hata","пузата хата"],"tags":{"amenity":"fast_food","brand:wikidata":"Q11832009"},"addTags":{"amenity":"fast_food","brand":"Пузата Хата","brand:en":"Puzata hata","brand:ru":"Пузата Хата","brand:uk":"Пузата Хата","brand:wikidata":"Q11832009","cuisine":"ukrainian;western","name":"Пузата Хата","name:en":"Puzata hata","name:ru":"Пузата Хата","name:uk":"Пузата Хата","takeaway":"yes"}},"amenity/fast_food/sushiwok-af0c49":{"name":"Суши Wok","locationSet":{"include":["ru","ua"]},"geometry":["point","area"],"matchScore":2,"terms":["sushi wok","суши wok","сушивок"],"tags":{"amenity":"fast_food","brand:wikidata":"Q25444754"},"addTags":{"amenity":"fast_food","brand":"Суши Wok","brand:en":"Sushi Wok","brand:ru":"Суши Wok","brand:wikidata":"Q25444754","cuisine":"asian","name":"Суши Wok","name:en":"Sushi Wok","name:ru":"Суши Wok","takeaway":"yes"}},"amenity/fuel/amic-4797a1":{"name":"Amic","locationSet":{"include":["at","lt","lv","pl","ua"]},"geometry":["point","area"],"matchScore":2,"terms":["amic","amic energy"],"fields":["name","brand","{amenity/fuel}"],"tags":{"amenity":"fuel","brand:wikidata":"Q96047373"},"addTags":{"amenity":"fuel","brand":"Amic","brand:wikidata":"Q96047373","name":"Amic"}},"amenity/fuel/as24-3463db":{"name":"AS 24","locationSet":{"include":["at","be","bg","cz","de","dk","es","fr","gb","ge","gr","hr","hu","ie","it","lt","lu","mk","nl","pl","pt","ro","rs","se","si","sk","ua"]},"geometry":["point","area"],"matchScore":2,"terms":["as 24"],"fields":["name","brand","{amenity/fuel}"],"tags":{"amenity":"fuel","brand:wikidata":"Q2819394"},"addTags":{"amenity":"fuel","brand":"AS 24","brand:wikidata":"Q2819394","hgv":"only","name":"AS 24"}},"amenity/fuel/auchan-fcb99f":{"name":"Auchan","locationSet":{"include":["al","ad","ba","hr","gi","gr","va","it","mt","me","mk","pt","sm","rs","si","es","xk","by","bg","cz","hu","pl","md","ro","ru","sk","ua","at","be","fr","de","li","lu","mc","nl","ch"]},"geometry":["point","area"],"matchScore":2,"terms":["auchan"],"fields":["name","brand","{amenity/fuel}"],"tags":{"amenity":"fuel","brand:wikidata":"Q758603"},"addTags":{"amenity":"fuel","brand":"Auchan","brand:wikidata":"Q758603","name":"Auchan"}},"amenity/fuel/avia-e0aaf8":{"name":"Avia","locationSet":{"include":["at","be","bg","ch","cz","de","es","fr","hu","it","nl","pl","pt","rs","ua"]},"geometry":["point","area"],"matchScore":2,"terms":["avia","station avia"],"fields":["name","brand","{amenity/fuel}"],"tags":{"amenity":"fuel","brand:wikidata":"Q300147"},"addTags":{"amenity":"fuel","brand":"Avia","brand:wikidata":"Q300147","name":"Avia"}},"amenity/fuel/chipo-ed4144":{"name":"Chipo","locationSet":{"include":["ua"]},"geometry":["point","area"],"matchScore":2,"terms":["chipo"],"fields":["name","brand","{amenity/fuel}"],"tags":{"amenity":"fuel","brand:wikidata":"Q112082302"},"addTags":{"amenity":"fuel","brand":"Chipo","brand:wikidata":"Q112082302","name":"Chipo"}},"amenity/fuel/glusco-ed4144":{"name":"Glusco","locationSet":{"include":["ua"]},"geometry":["point","area"],"matchScore":2,"terms":["glusco"],"fields":["name","brand","{amenity/fuel}"],"tags":{"amenity":"fuel","brand:wikidata":"Q62284719"},"addTags":{"amenity":"fuel","brand":"Glusco","brand:wikidata":"Q62284719","name":"Glusco"}},"amenity/fuel/wog-ed4144":{"name":"WOG","locationSet":{"include":["ua"]},"geometry":["point","area"],"matchScore":2,"terms":["wog"],"fields":["name","brand","{amenity/fuel}"],"tags":{"amenity":"fuel","brand:wikidata":"Q12072939"},"addTags":{"amenity":"fuel","brand":"WOG","brand:wikidata":"Q12072939","name":"WOG"}},"amenity/fuel/86c26e-ed4144":{"name":"Авіас","locationSet":{"include":["ua"]},"geometry":["point","area"],"matchScore":2,"terms":["авіас"],"fields":["name","brand","{amenity/fuel}"],"tags":{"amenity":"fuel","brand:wikidata":"Q12122687"},"addTags":{"amenity":"fuel","brand":"Авіас","brand:wikidata":"Q12122687","name":"Авіас"}},"amenity/fuel/69e648-ed4144":{"name":"БРСМ-Нафта","locationSet":{"include":["ua"]},"geometry":["point","area"],"matchScore":2,"terms":["брсм-нафта"],"fields":["name","brand","{amenity/fuel}"],"tags":{"amenity":"fuel","brand:wikidata":"Q56356523"},"addTags":{"amenity":"fuel","brand":"БРСМ-Нафта","brand:wikidata":"Q56356523","name":"БРСМ-Нафта"}},"amenity/fuel/klo-ed4144":{"name":"КЛО","locationSet":{"include":["ua"]},"geometry":["point","area"],"matchScore":2,"terms":["klo","кло"],"fields":["name","brand","{amenity/fuel}"],"tags":{"amenity":"fuel","brand:wikidata":"Q60966526"},"addTags":{"amenity":"fuel","brand":"КЛО","brand:en":"Klo","brand:wikidata":"Q60966526","name":"КЛО","name:en":"Klo"}},"amenity/fuel/okko-ed4144":{"name":"ОККО","locationSet":{"include":["ua"]},"geometry":["point","area"],"matchScore":2,"terms":["okko","окко"],"fields":["name","brand","{amenity/fuel}"],"tags":{"amenity":"fuel","brand:wikidata":"Q7072617"},"addTags":{"amenity":"fuel","brand":"ОККО","brand:en":"OKKO","brand:wikidata":"Q7072617","name":"ОККО","name:en":"OKKO"}},"amenity/fuel/ukrnafta-ed4144":{"name":"Укрнафта","locationSet":{"include":["ua"]},"geometry":["point","area"],"matchScore":2,"terms":["ukrnafta","укрнафта"],"fields":["name","brand","{amenity/fuel}"],"tags":{"amenity":"fuel","brand:wikidata":"Q2447961"},"addTags":{"amenity":"fuel","brand":"Укрнафта","brand:en":"Ukrnafta","brand:uk":"Укрнафта","brand:wikidata":"Q2447961","name":"Укрнафта","name:en":"Ukrnafta","name:uk":"Укрнафта"}},"amenity/parcel_locker/meest-7c151e":{"name":"Meest","locationSet":{"include":["ua"]},"geometry":["point","vertex","area"],"matchScore":2,"terms":["meest","міст"],"fields":["name","brand","{amenity/parcel_locker}"],"reference":{"key":"amenity","value":"parcel_locker"},"tags":{"amenity":"parcel_locker","brand:wikidata":"Q25432124"},"addTags":{"amenity":"parcel_locker","brand":"Meest","brand:wikidata":"Q25432124","name":"Meest"}},"amenity/parcel_locker/zbox-5a86e9":{"name":"Packeta","locationSet":{"include":["by","bg","cz","hu","pl","md","ro","ru","sk","ua","ax","gg","je","cq","dk","ee","fo","fi","is","ie","im","lv","lt","no","sj","se","gb","al","ad","ba","hr","gi","gr","va","it","mt","me","mk","pt","sm","rs","si","es","xk","at","be","fr","de","li","lu","mc","nl","ch"]},"geometry":["point","vertex","area"],"matchScore":2,"terms":["packeta"],"fields":["name","brand","{amenity/parcel_locker}"],"reference":{"key":"amenity","value":"parcel_locker"},"tags":{"amenity":"parcel_locker","brand:wikidata":"Q67809905"},"addTags":{"amenity":"parcel_locker","brand":"Packeta","brand:wikidata":"Q67809905","name":"Z-Box"}},"amenity/parcel_locker/rozetka-7c151e":{"name":"Rozetka","locationSet":{"include":["ua"]},"geometry":["point","vertex","area"],"matchScore":2,"terms":["rozetka","розетка"],"fields":["name","brand","{amenity/parcel_locker}"],"reference":{"key":"amenity","value":"parcel_locker"},"tags":{"amenity":"parcel_locker","brand:wikidata":"Q12072279"},"addTags":{"amenity":"parcel_locker","brand":"Rozetka","brand:wikidata":"Q12072279","name":"Rozetka"}},"amenity/parcel_locker/novaposhta-7c151e":{"name":"Нова Пошта","locationSet":{"include":["ua"]},"geometry":["point","vertex","area"],"matchScore":2,"terms":["nova poshta","нова пошта"],"fields":["name","brand","{amenity/parcel_locker}"],"reference":{"key":"amenity","value":"parcel_locker"},"tags":{"amenity":"parcel_locker","brand:wikidata":"Q12133863"},"addTags":{"amenity":"parcel_locker","brand":"Нова Пошта","brand:en":"Nova Poshta","brand:uk":"Нова Пошта","brand:wikidata":"Q12133863","name":"Нова Пошта","name:en":"Nova Poshta","name:uk":"Нова Пошта"}},"amenity/payment_terminal/ukrsibbank-73846e":{"name":"Ukrsibbank","locationSet":{"include":["ua"]},"geometry":["point"],"matchScore":2,"terms":["bnp paribas","ukrsibbank","укрсиббанк"],"tags":{"amenity":"payment_terminal","brand:wikidata":"Q1976290"},"addTags":{"amenity":"payment_terminal","brand":"Ukrsibbank","brand:wikidata":"Q1976290","name":"Ukrsibbank"}},"amenity/payment_terminal/otpbank-73846e":{"name":"ОТП Банк (Україна)","locationSet":{"include":["ua"]},"geometry":["point"],"matchScore":2,"terms":["otp bank","отп банк"],"tags":{"amenity":"payment_terminal","brand:wikidata":"Q16688676"},"addTags":{"amenity":"payment_terminal","brand":"ОТП Банк","brand:en":"OTP Bank","brand:uk":"ОТП Банк","brand:wikidata":"Q16688676","name":"ОТП Банк","name:en":"OTP Bank","name:uk":"ОТП Банк"}},"amenity/payment_terminal/oschadbank-73846e":{"name":"Ощадбанк","locationSet":{"include":["ua"]},"geometry":["point"],"matchScore":2,"terms":["oschadbank","ощадбанк"],"tags":{"amenity":"payment_terminal","brand:wikidata":"Q4340839"},"addTags":{"amenity":"payment_terminal","brand":"Ощадбанк","brand:en":"Oschadbank","brand:uk":"Ощадбанк","brand:wikidata":"Q4340839","name":"Ощадбанк","name:en":"Oschadbank","name:uk":"Ощадбанк"}},"amenity/payment_terminal/658548-73846e":{"name":"ПриватБанк","locationSet":{"include":["ua"]},"geometry":["point"],"matchScore":2,"terms":["приватбанк"],"tags":{"amenity":"payment_terminal","brand:wikidata":"Q1515015"},"addTags":{"amenity":"payment_terminal","brand":"ПриватБанк","brand:wikidata":"Q1515015","name":"ПриватБанк"}},"amenity/payment_terminal/cc39bb-73846e":{"name":"ПУМБ","locationSet":{"include":["ua"]},"geometry":["point"],"matchScore":2,"terms":["перший український міжнародний банк","пумб"],"tags":{"amenity":"payment_terminal","brand:wikidata":"Q4341156"},"addTags":{"amenity":"payment_terminal","brand":"ПУМБ","brand:wikidata":"Q4341156","name":"ПУМБ"}},"amenity/pharmacy/06361d-996e17":{"name":"1 Соціальна Аптека","locationSet":{"include":["ua"]},"geometry":["point","area"],"matchScore":2,"terms":["1 социальная аптека","1 соціальна аптека","первая социальная аптека","перша соціальна аптека"],"reference":{"key":"amenity","value":"pharmacy"},"tags":{"amenity":"pharmacy","brand:wikidata":"Q102174405"},"addTags":{"amenity":"pharmacy","brand":"1 Соціальна Аптека","brand:wikidata":"Q102174405","healthcare":"pharmacy","name":"1 Соціальна Аптека","name:ru":"1 Социальная Аптека","name:uk":"1 Соціальна Аптека"}},"amenity/pharmacy/6d99c6-996e17":{"name":"АНЦ","locationSet":{"include":["ua"]},"geometry":["point","area"],"matchScore":2,"terms":["анц","аптека низьких цін"],"reference":{"key":"amenity","value":"pharmacy"},"tags":{"amenity":"pharmacy","brand:wikidata":"Q100148965"},"addTags":{"amenity":"pharmacy","brand":"АНЦ","brand:wikidata":"Q100148965","healthcare":"pharmacy","name":"АНЦ"}},"amenity/pharmacy/d13b83-571ebe":{"name":"Апрель","locationSet":{"include":["ru","ua"]},"geometry":["point","area"],"matchScore":2,"terms":["апрель"],"reference":{"key":"amenity","value":"pharmacy"},"tags":{"amenity":"pharmacy","brand:wikidata":"Q114060847"},"addTags":{"amenity":"pharmacy","brand":"Апрель","brand:wikidata":"Q114060847","healthcare":"pharmacy","name":"Апрель"}},"amenity/pharmacy/pharmacygoodday-996e17":{"name":"Аптека доброго дня","locationSet":{"include":["ua"]},"geometry":["point","area"],"matchScore":2,"terms":["pharmacy good day","аптека доброго дня"],"reference":{"key":"amenity","value":"pharmacy"},"tags":{"amenity":"pharmacy","brand:wikidata":"Q102174228"},"addTags":{"amenity":"pharmacy","brand":"Аптека доброго дня","brand:en":"Pharmacy Good Day","brand:ru":"Аптека доброго дня","brand:uk":"Аптека доброго дня","brand:wikidata":"Q102174228","healthcare":"pharmacy","name":"Аптека доброго дня","name:en":"Pharmacy Good Day","name:ru":"Аптека доброго дня","name:uk":"Аптека доброго дня"}},"amenity/pharmacy/pharmacyyourfamily-996e17":{"name":"Аптека Твоєї Родини","locationSet":{"include":["ua"]},"geometry":["point","area"],"matchScore":2,"terms":["pharmacy your family","аптека твоей родини","аптека твоєї родини","атр","твоєї родини"],"reference":{"key":"amenity","value":"pharmacy"},"tags":{"amenity":"pharmacy","brand:wikidata":"Q106424150"},"addTags":{"amenity":"pharmacy","brand":"Аптека Твоєї Родини","brand:en":"Pharmacy Your Family","brand:uk":"Аптека Твоєї Родини","brand:wikidata":"Q106424150","healthcare":"pharmacy","name":"Аптека Твоєї Родини","name:en":"Pharmacy Your Family","name:uk":"Аптека Твоєї Родини"}},"amenity/restaurant/japanese/d1906a-f6a2df":{"name":"Евразия (Україна)","locationSet":{"include":["ua"]},"geometry":["point","area"],"matchScore":2,"terms":["евразия","євразія"],"reference":{"key":"cuisine","value":"japanese"},"tags":{"amenity":"restaurant","brand:wikidata":"Q66088028","cuisine":"western;japanese"},"addTags":{"amenity":"restaurant","brand":"Євразія","brand:ru":"Евразия","brand:uk":"Євразія","brand:wikidata":"Q66088028","cuisine":"western;japanese","name":"Євразія","name:ru":"Евразия","name:uk":"Євразія"}},"amenity/school/maplebear-101006":{"name":"Maple Bear","locationSet":{"include":["ae","al","ar","au","bd","bg","br","ca","gt","hk","hr","in","ke","kr","lk","ma","mx","my","np","om","pe","ph","py","ro","rs","sg","th","tk","ua","us","vn"]},"geometry":["area","point"],"matchScore":2,"terms":["maple bear"],"fields":["name","brand","{amenity/school}"],"tags":{"amenity":"school","brand:wikidata":"Q10324823"},"addTags":{"amenity":"school","brand":"Maple Bear","brand:wikidata":"Q10324823","name":"Maple Bear","operator:type":"private"}},"amenity/vending_machine/bicycle_tube/continental-123edb":{"name":"Continental","locationSet":{"include":["by","bg","cz","hu","pl","md","ro","ru","sk","ua","ax","gg","je","cq","dk","ee","fo","fi","is","ie","im","lv","lt","no","sj","se","gb","al","ad","ba","hr","gi","gr","va","it","mt","me","mk","pt","sm","rs","si","es","xk","at","be","fr","de","li","lu","mc","nl","ch"]},"geometry":["point","vertex"],"matchScore":2,"terms":["continental"],"reference":{"key":"vending","value":"bicycle_tube"},"tags":{"amenity":"vending_machine","brand:wikidata":"Q64739247","vending":"bicycle_tube"},"addTags":{"amenity":"vending_machine","brand":"Continental","brand:wikidata":"Q64739247","name":"Continental","vending":"bicycle_tube"}},"amenity/vending_machine/bicycle_tube/schwalbe-123edb":{"name":"Schwalbe","locationSet":{"include":["by","bg","cz","hu","pl","md","ro","ru","sk","ua","ax","gg","je","cq","dk","ee","fo","fi","is","ie","im","lv","lt","no","sj","se","gb","al","ad","ba","hr","gi","gr","va","it","mt","me","mk","pt","sm","rs","si","es","xk","at","be","fr","de","li","lu","mc","nl","ch"]},"geometry":["point","vertex"],"matchScore":2,"terms":["schwalbe"],"reference":{"key":"vending","value":"bicycle_tube"},"tags":{"amenity":"vending_machine","brand:wikidata":"Q1312213","vending":"bicycle_tube"},"addTags":{"amenity":"vending_machine","brand":"Schwalbe","brand:wikidata":"Q1312213","name":"Schwalbe","vending":"bicycle_tube"}},"healthcare/laboratory/synevo-d27ce4":{"name":"Synevo","locationSet":{"include":["ua"]},"geometry":["point","area"],"matchScore":2,"terms":["synevo","синэво","сінево"],"tags":{"brand:wikidata":"Q65207011","healthcare":"laboratory"},"addTags":{"brand":"Synevo","brand:wikidata":"Q65207011","healthcare":"laboratory","name":"Сінево","name:en":"Synevo","name:ru":"Синэво","name:uk":"Сінево"}},"leisure/fitness_centre/holmesplace-901199":{"name":"Holmes Place","locationSet":{"include":["by","bg","cz","hu","pl","md","ro","ru","sk","ua","ax","gg","je","cq","dk","ee","fo","fi","is","ie","im","lv","lt","no","sj","se","gb","al","ad","ba","hr","gi","gr","va","it","mt","me","mk","pt","sm","rs","si","es","xk","at","be","fr","de","li","lu","mc","nl","ch","il"]},"geometry":["point","area"],"matchScore":2,"terms":["holmes place"],"tags":{"brand:wikidata":"Q15815819","leisure":"fitness_centre"},"addTags":{"brand":"Holmes Place","brand:wikidata":"Q15815819","leisure":"fitness_centre","name":"Holmes Place"}},"office/estate_agent/vonpollrealestate-c99072":{"name":"von Poll Real Estate","locationSet":{"include":["by","bg","cz","hu","pl","md","ro","ru","sk","ua","ax","gg","je","cq","dk","ee","fo","fi","is","ie","im","lv","lt","no","sj","se","gb","al","ad","ba","hr","gi","gr","va","it","mt","me","mk","pt","sm","rs","si","es","xk","at","be","fr","de","li","lu","mc","nl","ch"],"exclude":["at","de"]},"geometry":["point","area"],"matchScore":2,"terms":["von poll immobilien","von poll real estate","vonpoll","vonpoll commercial"],"tags":{"brand:wikidata":"Q96026696","office":"estate_agent"},"addTags":{"brand":"von Poll Real Estate","brand:wikidata":"Q96026696","name":"von Poll Real Estate","office":"estate_agent"}},"office/insurance/allianz-332499":{"name":"Allianz","locationSet":{"include":["ae","ar","at","au","be","bg","bh","bm","bn","br","ca","cg","ch","ci","cm","cn","co","cy","cz","de","dk","ee","eg","es","fi","fr","gb","gf","gg","gh","gp","gr","hk","hr","hu","id","ie","in","is","it","ja","ke","kr","kw","la","li","lk","lt","lu","lv","ma","mg","mx","my","ng","nl","no","nz","om","ph","pk","pl","pt","qa","ro","ru","sa","se","sg","si","sk","sn","th","tr","tw","ua","us","za"]},"geometry":["point","area"],"matchScore":2,"terms":["allianz"],"fields":["name","brand","{office/insurance}"],"tags":{"brand:wikidata":"Q487292","office":"insurance"},"addTags":{"brand":"Allianz","brand:wikidata":"Q487292","name":"Allianz","office":"insurance"}},"office/insurance/uniqa-dc7360":{"name":"Uniqa","locationSet":{"include":["al","at","ba","bg","ch","cz","hr","hu","li","me","mk","pl","ro","rs","ru","sk","ua","xk"]},"geometry":["point","area"],"matchScore":2,"terms":["uniqa"],"fields":["name","brand","{office/insurance}"],"tags":{"brand:wikidata":"Q1022419","office":"insurance"},"addTags":{"brand":"Uniqa","brand:wikidata":"Q1022419","name":"Uniqa","office":"insurance"}},"shop/alcohol/d94189-345467":{"name":"Море пива","locationSet":{"include":["ua"]},"geometry":["point","area"],"matchScore":2,"terms":["море пива"],"tags":{"brand:wikidata":"Q104829481","shop":"alcohol"},"addTags":{"brand":"Море пива","brand:wikidata":"Q104829481","name":"Море пива","shop":"alcohol"}},"shop/bakery/fornetti-0c6f37":{"name":"Fornetti","locationSet":{"include":["bg","cz","hr","hu","md","pl","ro","sk","ua"]},"geometry":["point","area"],"matchScore":2,"terms":["fornetti"],"tags":{"brand:wikidata":"Q1003020","shop":"bakery"},"addTags":{"brand":"Fornetti","brand:wikidata":"Q1003020","name":"Fornetti","shop":"bakery"}},"shop/bakery/paul-652955":{"name":"Paul","locationSet":{"include":["ae","az","be","bh","by","ci","cy","cz","eg","es","fr","ga","gb","ge","gr","id","in","jo","jp","kw","kz","lb","lu","ma","mu","my","om","pa","ph","pl","pt","qa","ro","ru","sa","sg","th","tn","tw","ua","us","uz","vn","za"]},"geometry":["point","area"],"matchScore":2,"terms":["paul"],"tags":{"brand:wikidata":"Q3370417","shop":"bakery"},"addTags":{"brand":"Paul","brand:wikidata":"Q3370417","name":"Paul","shop":"bakery"}},"shop/bakery/3d7cfd-3664c0":{"name":"Київхліб","locationSet":{"include":["ua"]},"geometry":["point","area"],"matchScore":2,"terms":["київхліб"],"tags":{"brand:wikidata":"Q12110306","shop":"bakery"},"addTags":{"brand":"Київхліб","brand:wikidata":"Q12110306","name":"Київхліб","shop":"bakery"}},"shop/butcher/fbd1e6-d60de5":{"name":"Наша Ряба","locationSet":{"include":["ua"]},"geometry":["point","area"],"matchScore":2,"terms":["наша ряба"],"tags":{"brand:wikidata":"Q12123536","shop":"butcher"},"addTags":{"brand":"Наша Ряба","brand:wikidata":"Q12123536","name":"Наша Ряба","shop":"butcher"}},"shop/butcher/rodynnakovbaska-d60de5":{"name":"Родинна ковбаска","locationSet":{"include":["ua"]},"geometry":["point","area"],"matchScore":2,"terms":["rodynna-kovbaska","родинна ковбаска"],"tags":{"brand:wikidata":"Q30969660","shop":"butcher"},"addTags":{"brand":"Родинна ковбаска","brand:en":"Rodynna-kovbaska","brand:wikidata":"Q30969660","name":"Родинна ковбаска","name:en":"Rodynna-kovbaska","shop":"butcher"}},"shop/car/smart-f30ed8":{"name":"Smart","locationSet":{"include":["by","bg","cz","hu","pl","md","ro","ru","sk","ua","ax","gg","je","cq","dk","ee","fo","fi","is","ie","im","lv","lt","no","sj","se","gb","al","ad","ba","hr","gi","gr","va","it","mt","me","mk","pt","sm","rs","si","es","xk","at","be","fr","de","li","lu","mc","nl","ch"]},"geometry":["point","area"],"matchScore":2,"terms":["smart"],"fields":["name","brand","{shop/car}"],"tags":{"brand:wikidata":"Q156490","shop":"car"},"addTags":{"brand":"Smart","brand:wikidata":"Q156490","name":"Smart","shop":"car"}},"shop/clothes/coccodrillo-571709":{"name":"Coccodrillo","locationSet":{"include":["at","bg","by","cz","de","ee","fi","hu","lt","lv","me","pl","ro","rs","ru","sk","ua"]},"geometry":["point","area"],"matchScore":2,"terms":["coccodrillo"],"tags":{"brand:wikidata":"Q9195224","shop":"clothes"},"addTags":{"brand":"Coccodrillo","brand:wikidata":"Q9195224","clothes":"children","name":"Coccodrillo","shop":"clothes"}},"shop/clothes/cropp-613e37":{"name":"Cropp","locationSet":{"include":["ba","bg","cz","ee","fi","hr","hu","kz","lt","lv","ro","rs","ru","si","sk","ua"]},"geometry":["point","area"],"matchScore":2,"terms":["cropp"],"tags":{"brand:wikidata":"Q9196793","shop":"clothes"},"addTags":{"brand":"Cropp","brand:wikidata":"Q9196793","name":"Cropp","shop":"clothes"}},"shop/clothes/esotiq-264379":{"name":"Esotiq","locationSet":{"include":["de","pl","ua"]},"geometry":["point","area"],"matchScore":2,"terms":["esotiq"],"tags":{"brand:wikidata":"Q56338245","shop":"clothes"},"addTags":{"brand":"Esotiq","brand:wikidata":"Q56338245","name":"Esotiq","shop":"clothes"}},"shop/clothes/gloriajeans-7876f3":{"name":"Gloria Jeans","locationSet":{"include":["ru","ua"]},"geometry":["point","area"],"matchScore":2,"terms":["gloria jeans"],"tags":{"brand:wikidata":"Q4139985","shop":"clothes"},"addTags":{"brand":"Gloria Jeans","brand:wikidata":"Q4139985","name":"Gloria Jeans","shop":"clothes"}},"shop/clothes/house-f09482":{"name":"House","locationSet":{"include":["ba","bg","cz","ee","fi","hr","hu","kz","lt","lv","pl","ro","rs","ru","si","sk","ua"]},"geometry":["point","area"],"matchScore":2,"terms":["house"],"tags":{"brand:wikidata":"Q9294202","shop":"clothes"},"addTags":{"brand":"House","brand:wikidata":"Q9294202","name":"House","shop":"clothes"}},"shop/clothes/maje-99ba8f":{"name":"Maje","locationSet":{"include":["by","bg","cz","hu","pl","md","ro","ru","sk","ua","ax","gg","je","cq","dk","ee","fo","fi","is","ie","im","lv","lt","no","sj","se","gb","al","ad","ba","hr","gi","gr","va","it","mt","me","mk","pt","sm","rs","si","es","xk","at","be","fr","de","li","lu","mc","nl","ch","cn","hk","sg","tw","uk","us"]},"geometry":["point","area"],"matchScore":2,"terms":["maje"],"tags":{"brand:wikidata":"Q3280458","shop":"clothes"},"addTags":{"brand":"Maje","brand:wikidata":"Q3280458","clothes":"women","name":"Maje","shop":"clothes"}},"shop/clothes/medicine-a7eccb":{"name":"Medicine","locationSet":{"include":["pl","sk","ua"]},"geometry":["point","area"],"matchScore":2,"terms":["medicine"],"tags":{"brand:wikidata":"Q113505176","shop":"clothes"},"addTags":{"brand":"Medicine","brand:wikidata":"Q113505176","name":"Medicine","shop":"clothes"}},"shop/clothes/mohito-710e25":{"name":"Mohito","locationSet":{"include":["ba","bg","cz","ee","fi","hu","kz","lt","lv","pl","ro","rs","ru","si","sk","ua"]},"geometry":["point","area"],"matchScore":2,"terms":["mohito"],"tags":{"brand:wikidata":"Q107410616","shop":"clothes"},"addTags":{"brand":"Mohito","brand:wikidata":"Q107410616","clothes":"women","name":"Mohito","shop":"clothes"}},"shop/confectionery/vatsak-84145b":{"name":"Вацак","locationSet":{"include":["ua"]},"geometry":["point","area"],"matchScore":2,"terms":["vatsak","вацак"],"tags":{"brand:wikidata":"Q30966576","shop":"confectionery"},"addTags":{"brand":"Вацак","brand:wikidata":"Q30966576","name":"Вацак","name:en":"Vatsak","shop":"confectionery"}},"shop/convenience/avia-3fdfc9":{"name":"Avia","locationSet":{"include":["at","be","bg","ch","cz","de","es","fr","hu","it","nl","pl","pt","rs","ua"]},"geometry":["point","area"],"matchScore":2,"terms":["avia"],"tags":{"brand:wikidata":"Q300147","shop":"convenience"},"addTags":{"brand":"Avia","brand:wikidata":"Q300147","name":"Avia","shop":"convenience"}},"shop/convenience/viva-856fe1":{"name":"Viva","locationSet":{"include":["by","bg","cz","hu","pl","md","ro","ru","sk","ua","ax","gg","je","cq","dk","ee","fo","fi","is","ie","im","lv","lt","no","sj","se","gb","al","ad","ba","hr","gi","gr","va","it","mt","me","mk","pt","sm","rs","si","es","xk","at","be","fr","de","li","lu","mc","nl","ch"]},"geometry":["point","area"],"matchScore":2,"terms":["viva"],"tags":{"brand:wikidata":"Q168238","shop":"convenience"},"addTags":{"brand":"Viva","brand:wikidata":"Q168238","name":"Viva","shop":"convenience"}},"shop/convenience/yermolino-c491ec":{"name":"Ермолино","locationSet":{"include":["ru","ua"]},"geometry":["point","area"],"matchScore":2,"terms":["yermolino","ермолино","продукты ермолино"],"tags":{"brand:wikidata":"Q109995205","shop":"convenience"},"addTags":{"brand":"Ермолино","brand:wikidata":"Q109995205","name":"Ермолино","name:en":"Yermolino","name:ru":"Ермолино","shop":"convenience"}},"shop/cosmetics/95c47a-b8d09c":{"name":"Подружка","locationSet":{"include":["ru","ua"]},"geometry":["point","area"],"matchScore":2,"terms":["подружка"],"tags":{"brand:wikidata":"Q101646588","shop":"cosmetics"},"addTags":{"brand":"Подружка","brand:wikidata":"Q101646588","name":"Подружка","shop":"cosmetics"}},"shop/dairy/49945f-9e0ef1":{"name":"Молоко від фермера","locationSet":{"include":["ua"]},"geometry":["point","area"],"matchScore":2,"terms":["молоко від фермера"],"tags":{"brand:wikidata":"Q102174655","shop":"dairy"},"addTags":{"amenity":"fast_food","brand":"Молоко від фермера","brand:wikidata":"Q102174655","cuisine":"coffee_shop;cake;ice_cream","name":"Молоко від фермера","shop":"dairy","takeaway":"yes"}},"shop/doityourself/leroymerlin-ea6c83":{"name":"Леруа Мерлен","locationSet":{"include":["ru","ua"]},"geometry":["point","area"],"matchScore":2,"terms":["leroy merlin","леруа мерлен"],"tags":{"brand:wikidata":"Q889624","shop":"doityourself"},"addTags":{"brand":"Леруа Мерлен","brand:en":"Leroy Merlin","brand:wikidata":"Q889624","name":"Леруа Мерлен","name:en":"Leroy Merlin","shop":"doityourself"}},"shop/electronics/bork-c106d0":{"name":"Bork","locationSet":{"include":["am","by","kz","ru","ua"]},"geometry":["point","area"],"matchScore":2,"terms":["bork"],"tags":{"brand:wikidata":"Q4035327","shop":"electronics"},"addTags":{"brand":"Bork","brand:wikidata":"Q4035327","name":"Bork","shop":"electronics"}},"shop/electronics/dns-10b077":{"name":"DNS","locationSet":{"include":["ru","ua"]},"geometry":["point","area"],"matchScore":2,"terms":["dns","днс"],"tags":{"brand:wikidata":"Q4036922","shop":"electronics"},"addTags":{"alt_name":"ДНС","brand":"DNS","brand:en":"DNS","brand:ru":"ДНС","brand:wikidata":"Q4036922","name":"DNS","name:en":"DNS","name:ru":"ДНС","shop":"electronics"}},"shop/electronics/eldorado-f31684":{"name":"Eldorado (Україна)","locationSet":{"include":["ua"]},"geometry":["point","area"],"matchScore":2,"terms":["eldorado","ельдорадо"],"tags":{"brand:wikidata":"Q60851865","shop":"electronics"},"addTags":{"brand":"Eldorado","brand:wikidata":"Q60851865","name":"Eldorado","shop":"electronics"}},"shop/electronics/moyo-f31684":{"name":"Moyo","locationSet":{"include":["ua"]},"geometry":["point","area"],"matchScore":2,"terms":["moyo","мойо"],"tags":{"brand:wikidata":"Q50413543","shop":"electronics"},"addTags":{"brand":"Moyo","brand:wikidata":"Q50413543","name":"Moyo","shop":"electronics"}},"shop/electronics/foxtrot-f31684":{"name":"Фокстрот","locationSet":{"include":["ua"]},"geometry":["point","area"],"matchScore":2,"terms":["foxtrot","фокстрот"],"tags":{"brand:wikidata":"Q16721578","shop":"electronics"},"addTags":{"brand":"Фокстрот","brand:en":"Foxtrot","brand:uk":"Фокстрот","brand:wikidata":"Q16721578","name":"Фокстрот","name:en":"Foxtrot","name:uk":"Фокстрот","shop":"electronics"}},"shop/furniture/bolia-a18722":{"name":"Bolia","locationSet":{"include":["by","bg","cz","hu","pl","md","ro","ru","sk","ua","ax","gg","je","cq","dk","ee","fo","fi","is","ie","im","lv","lt","no","sj","se","gb","al","ad","ba","hr","gi","gr","va","it","mt","me","mk","pt","sm","rs","si","es","xk","at","be","fr","de","li","lu","mc","nl","ch"]},"geometry":["point","area"],"matchScore":2,"terms":["bolia"],"tags":{"brand:wikidata":"Q11961809","shop":"furniture"},"addTags":{"brand":"Bolia","brand:wikidata":"Q11961809","name":"Bolia","shop":"furniture"}},"shop/furniture/momax-a18722":{"name":"Mömax","locationSet":{"include":["by","bg","cz","hu","pl","md","ro","ru","sk","ua","ax","gg","je","cq","dk","ee","fo","fi","is","ie","im","lv","lt","no","sj","se","gb","al","ad","ba","hr","gi","gr","va","it","mt","me","mk","pt","sm","rs","si","es","xk","at","be","fr","de","li","lu","mc","nl","ch"]},"geometry":["point","area"],"matchScore":2,"terms":["mömax"],"tags":{"brand:wikidata":"Q56388481","shop":"furniture"},"addTags":{"brand":"Mömax","brand:wikidata":"Q56388481","name":"Mömax","shop":"furniture"}},"shop/furniture/xxxlutz-5acc6e":{"name":"XXXLutz","locationSet":{"include":["by","bg","cz","hu","pl","md","ro","ru","sk","ua","ax","gg","je","cq","dk","ee","fo","fi","is","ie","im","lv","lt","no","sj","se","gb","al","ad","ba","hr","gi","gr","va","it","mt","me","mk","pt","sm","rs","si","es","xk","at","be","fr","de","li","lu","mc","nl","ch"],"exclude":["bg"]},"geometry":["point","area"],"matchScore":2,"terms":["xxxlutz"],"tags":{"brand:wikidata":"Q70339467","shop":"furniture"},"addTags":{"brand":"XXXLutz","brand:wikidata":"Q70339467","name":"XXXLutz","shop":"furniture"}},"shop/hardware/220volt-41db75":{"name":"220 вольт","locationSet":{"include":["by","ru","ua"]},"geometry":["point","area"],"matchScore":2,"terms":["220 volt","220 вольт"],"tags":{"brand:wikidata":"Q18635304","shop":"hardware"},"addTags":{"brand":"220 вольт","brand:en":"220 Volt","brand:ru":"220 вольт","brand:wikidata":"Q18635304","name":"220 вольт","name:en":"220 Volt","name:ru":"220 вольт","shop":"hardware"}},"shop/interior_decoration/butlers-85b078":{"name":"Butlers","locationSet":{"include":["at","ch","de","es","gb","hu","lu","mt","ua"]},"geometry":["point","area"],"matchScore":2,"terms":["butlers"],"tags":{"brand:wikidata":"Q1017972","shop":"interior_decoration"},"addTags":{"brand":"Butlers","brand:wikidata":"Q1017972","name":"Butlers","shop":"interior_decoration"}},"shop/jewelry/cc67fd-a7f1e4":{"name":"Золотий вік","locationSet":{"include":["ua"]},"geometry":["point","area"],"matchScore":2,"terms":["золотий вік"],"tags":{"brand:wikidata":"Q113335928","shop":"jewelry"},"addTags":{"brand":"Золотий вік","brand:wikidata":"Q113335928","name":"Золотий вік","shop":"jewelry"}},"shop/mobile_phone/lifecell-985251":{"name":"lifecell","locationSet":{"include":["ua"]},"geometry":["point","area"],"matchScore":2,"terms":["lifecell","магазин lifecell"],"tags":{"brand:wikidata":"Q1936895","shop":"mobile_phone"},"addTags":{"brand":"Lifecell","brand:wikidata":"Q1936895","name":"lifecell","shop":"mobile_phone"}},"shop/mobile_phone/vodafone-985251":{"name":"Vodafone (Україна)","locationSet":{"include":["ua"]},"geometry":["point","area"],"matchScore":2,"terms":["mts","vodafone","vodafone shop","водафон","мтс"],"tags":{"brand:wikidata":"Q846031","shop":"mobile_phone"},"addTags":{"brand":"Vodafone","brand:wikidata":"Q846031","name":"Vodafone","shop":"mobile_phone"}},"shop/mobile_phone/77c523-104cfb":{"name":"Алло","locationSet":{"include":["md","ua"]},"geometry":["point","area"],"matchScore":2,"terms":["алло"],"tags":{"brand:wikidata":"Q18683057","shop":"mobile_phone"},"addTags":{"brand":"Алло","brand:wikidata":"Q18683057","name":"Алло","shop":"mobile_phone"}},"shop/mobile_phone/euroset-4d9972":{"name":"Евросеть","locationSet":{"include":["by","kz","ru","ua"]},"geometry":["point","area"],"matchScore":2,"terms":["euroset","евросеть"],"searchable":false,"tags":{"brand:wikidata":"Q65310","shop":"mobile_phone"},"addTags":{"brand":"Евросеть","brand:en":"Euroset","brand:wikidata":"Q65310","name":"Евросеть","name:en":"Euroset","shop":"mobile_phone"}},"shop/mobile_phone/kyivstar-985251":{"name":"Київстар","locationSet":{"include":["ua"]},"geometry":["point","area"],"matchScore":2,"terms":["beeline","kyivstar","білайн","київстар"],"tags":{"brand:wikidata":"Q2288463","shop":"mobile_phone"},"addTags":{"brand":"Київстар","brand:en":"Kyivstar","brand:wikidata":"Q2288463","name":"Київстар","name:en":"Kyivstar","shop":"mobile_phone"}},"shop/newsagent/6aba18-b88745":{"name":"Союзпечать","locationSet":{"include":["ru","ua"]},"geometry":["point","area"],"matchScore":2,"terms":["союзпечать"],"searchable":false,"tags":{"brand:wikidata":"Q4430611","shop":"newsagent"},"addTags":{"brand":"Союзпечать","brand:wikidata":"Q4430611","name":"Союзпечать","shop":"newsagent"}},"shop/optician/fielmann-f003f4":{"name":"fielmann","locationSet":{"include":["at","by","ch","de","it","lt","lu","lv","nl","pl","ru","ua"]},"geometry":["point","area"],"matchScore":2,"terms":["fielmann"],"fields":["name","brand","{shop/optician}"],"tags":{"brand:wikidata":"Q457822","shop":"optician"},"addTags":{"brand":"Fielmann","brand:wikidata":"Q457822","name":"Fielmann","shop":"optician"}},"shop/optician/luxoptica-15d381":{"name":"Люксоптика","locationSet":{"include":["ua"]},"geometry":["point","area"],"matchScore":2,"terms":["luxoptica","люксоптика"],"fields":["name","brand","{shop/optician}"],"tags":{"brand:wikidata":"Q102176456","shop":"optician"},"addTags":{"brand":"Люксоптика","brand:wikidata":"Q102176456","name":"Люксоптика","name:en":"Luxoptica","name:ru":"Люксоптика","name:uk":"Люксоптика","shop":"optician"}},"shop/optician/7f246c-15d381":{"name":"Оптика 1st","locationSet":{"include":["ua"]},"geometry":["point","area"],"matchScore":2,"terms":["оptika 1st","оптика 1st"],"fields":["name","brand","{shop/optician}"],"tags":{"brand:wikidata":"Q110066590","shop":"optician"},"addTags":{"brand":"Оптика 1st","brand:wikidata":"Q110066590","name":"Оптика 1st","name:en":"Оptika 1st","name:uk":"Оптика 1st","shop":"optician"}},"shop/outdoor/jackwolfskin-5feed5":{"name":"Jack Wolfskin","locationSet":{"include":["at","be","ch","de","fr","gb","it","nl","pl","ru","ua"]},"geometry":["point","area"],"matchScore":2,"terms":["jack wolfskin"],"tags":{"brand:wikidata":"Q536133","shop":"outdoor"},"addTags":{"brand":"Jack Wolfskin","brand:wikidata":"Q536133","name":"Jack Wolfskin","shop":"outdoor"}},"shop/outpost/lamoda-26bf14":{"name":"Lamoda","locationSet":{"include":["ru","ua"]},"geometry":["point","area"],"matchScore":2,"terms":["lamoda"],"tags":{"brand:wikidata":"Q97658635","shop":"outpost"},"addTags":{"brand":"Lamoda","brand:wikidata":"Q97658635","name":"Lamoda","shop":"outpost"}},"shop/shoes/6c57c6-ea44e5":{"name":"ЦентрОбувь","locationSet":{"include":["by","ru","ua"]},"geometry":["point","area"],"matchScore":2,"terms":["центробувь"],"searchable":false,"tags":{"brand:wikidata":"Q4504072","shop":"shoes"},"addTags":{"brand":"ЦентрОбувь","brand:wikidata":"Q4504072","name":"ЦентрОбувь","shop":"shoes"}},"shop/sports/decathlon-82be21":{"name":"Декатлон","locationSet":{"include":["bg","ru","ua"]},"geometry":["point","area"],"matchScore":2,"terms":["decathlon","декатлон"],"tags":{"brand:wikidata":"Q509349","shop":"sports"},"addTags":{"brand":"Декатлон","brand:en":"Decathlon","brand:ru":"Декатлон","brand:wikidata":"Q509349","name":"Декатлон","name:en":"Decathlon","name:ru":"Декатлон","shop":"sports"}},"shop/supermarket/auchan-925d9b":{"name":"Auchan","locationSet":{"include":["al","ad","ba","hr","gi","gr","va","it","mt","me","mk","pt","sm","rs","si","es","xk","by","bg","cz","hu","pl","md","ro","ru","sk","ua","at","be","fr","de","li","lu","mc","nl","ch","cn"],"exclude":["ru"]},"geometry":["point","area"],"matchScore":2,"terms":["auchan"],"tags":{"brand:wikidata":"Q758603","shop":"supermarket"},"addTags":{"brand":"Auchan","brand:wikidata":"Q758603","name":"Auchan","shop":"supermarket"}},"shop/supermarket/billa-260f39":{"name":"Billa","locationSet":{"include":["by","bg","cz","hu","pl","md","ro","ru","sk","ua","at"]},"geometry":["point","area"],"matchScore":2,"terms":["billa"],"tags":{"brand:wikidata":"Q537781","shop":"supermarket"},"addTags":{"brand":"Billa","brand:wikidata":"Q537781","name":"Billa","shop":"supermarket"}},"shop/supermarket/eurospar-4b5e11":{"name":"Eurospar","locationSet":{"include":["by","bg","cz","hu","pl","md","ro","ru","sk","ua","ax","gg","je","cq","dk","ee","fo","fi","is","ie","im","lv","lt","no","sj","se","gb","al","ad","ba","hr","gi","gr","va","it","mt","me","mk","pt","sm","rs","si","es","xk","at","be","fr","de","li","lu","mc","nl","ch"]},"geometry":["point","area"],"matchScore":2,"terms":["eurospar"],"tags":{"brand:wikidata":"Q12309283","shop":"supermarket"},"addTags":{"brand":"Eurospar","brand:wikidata":"Q12309283","name":"Eurospar","shop":"supermarket"}},"shop/supermarket/6784df-94881c":{"name":"Абсолют (Україна)","locationSet":{"include":["ua"]},"geometry":["point","area"],"matchScore":2,"terms":["абсолют"],"tags":{"brand:wikidata":"Q62389546","shop":"supermarket"},"addTags":{"brand":"Абсолют","brand:wikidata":"Q62389546","name":"Абсолют","shop":"supermarket"}},"shop/supermarket/atbmarket-94881c":{"name":"АТБ-маркет","locationSet":{"include":["ua"]},"geometry":["point","area"],"matchScore":2,"terms":["atb-market","атб","атб-маркет"],"tags":{"brand:wikidata":"Q4054103","shop":"supermarket"},"addTags":{"brand":"АТБ-маркет","brand:en":"ATB-Market","brand:uk":"АТБ-маркет","brand:wikidata":"Q4054103","name":"АТБ-маркет","name:en":"ATB-Market","name:uk":"АТБ-маркет","shop":"supermarket"}},"shop/supermarket/brusnichka-94881c":{"name":"Брусничка","locationSet":{"include":["ua"]},"geometry":["point","area"],"matchScore":2,"terms":["brusnichka","брусничка"],"tags":{"brand:wikidata":"Q21656645","shop":"supermarket"},"addTags":{"brand":"Брусничка","brand:en":"Brusnichka","brand:wikidata":"Q21656645","name":"Брусничка","name:en":"Brusnichka","shop":"supermarket"}},"shop/supermarket/vopak-94881c":{"name":"Вопак","locationSet":{"include":["ua"]},"geometry":["point","area"],"matchScore":2,"terms":["vopak","вопак"],"tags":{"brand:wikidata":"Q30966107","shop":"supermarket"},"addTags":{"brand":"Вопак","brand:en":"Vopak","brand:wikidata":"Q30966107","name":"Вопак","name:en":"Vopak","shop":"supermarket"}},"shop/supermarket/rukavychka-94881c":{"name":"Рукавичка","locationSet":{"include":["ua"]},"geometry":["point","area"],"matchScore":2,"terms":["rukavychka","рукавичка"],"tags":{"brand:wikidata":"Q20092568","shop":"supermarket"},"addTags":{"brand":"Рукавичка","brand:en":"Rukavychka","brand:wikidata":"Q20092568","name":"Рукавичка","name:en":"Rukavychka","shop":"supermarket"}},"shop/supermarket/silpo-94881c":{"name":"Сільпо","locationSet":{"include":["ua"]},"geometry":["point","area"],"matchScore":2,"terms":["silpo","сільпо"],"tags":{"brand:wikidata":"Q4419434","shop":"supermarket"},"addTags":{"brand":"Сільпо","brand:en":"Silpo","brand:wikidata":"Q4419434","name":"Сільпо","name:en":"Silpo","shop":"supermarket"}},"shop/supermarket/tavriav-94881c":{"name":"Таврія В","locationSet":{"include":["ua"]},"geometry":["point","area"],"matchScore":2,"terms":["tavria v","таврия в","таврія в"],"tags":{"brand:wikidata":"Q61823146","shop":"supermarket"},"addTags":{"brand":"Таврія В","brand:en":"Tavria V","brand:ru":"Таврия В","brand:uk":"Таврія В","brand:wikidata":"Q61823146","name":"Таврія В","name:en":"Tavria V","name:ru":"Таврия В","name:uk":"Таврія В","shop":"supermarket"}},"shop/supermarket/fora-94881c":{"name":"Фора","locationSet":{"include":["ua"]},"geometry":["point","area"],"matchScore":2,"terms":["fora","фора"],"tags":{"brand:wikidata":"Q12165977","shop":"supermarket"},"addTags":{"brand":"Фора","brand:en":"Fora","brand:wikidata":"Q12165977","name":"Фора","name:en":"Fora","shop":"supermarket"}},"shop/supermarket/furshet-94881c":{"name":"Фуршет","locationSet":{"include":["ua"]},"geometry":["point","area"],"matchScore":2,"terms":["furshet","фуршет"],"tags":{"brand:wikidata":"Q4493564","shop":"supermarket"},"addTags":{"brand":"Фуршет","brand:en":"Furshet","brand:wikidata":"Q4493564","name":"Фуршет","name:en":"Furshet","shop":"supermarket"}},"shop/telecommunication/ukrtelecom-19c022":{"name":"Укртелеком","locationSet":{"include":["ua"]},"geometry":["point","area"],"matchScore":2,"terms":["ukrtelecom","укртелеком"],"tags":{"brand:wikidata":"Q1505321","shop":"telecommunication"},"addTags":{"brand":"Укртелеком","brand:en":"Ukrtelecom","brand:wikidata":"Q1505321","name":"Укртелеком","name:en":"Ukrtelecom","shop":"telecommunication"}},"shop/toys/smyk-3d0b80":{"name":"Smyk","locationSet":{"include":["pl","ro","ua"]},"geometry":["point","area"],"matchScore":2,"terms":["smyk"],"tags":{"brand:wikidata":"Q2295606","shop":"toys"},"addTags":{"brand":"Smyk","brand:wikidata":"Q2295606","name":"Smyk","shop":"toys"}},"shop/trade/rozetka-a5d3a8":{"name":"Rozetka","locationSet":{"include":["ua"]},"geometry":["point","area"],"matchScore":2,"terms":["rozetka"],"tags":{"brand:wikidata":"Q12072279","shop":"trade"},"addTags":{"brand":"Rozetka","brand:wikidata":"Q12072279","name":"Rozetka","shop":"trade"}},"shop/travel_agency/coraltravel-45eb20":{"name":"Coral Travel","locationSet":{"include":["pl","ru","ua"]},"geometry":["point","area"],"matchScore":2,"terms":["coral travel"],"tags":{"brand:wikidata":"Q58011479","shop":"travel_agency"},"addTags":{"brand":"Coral Travel","brand:wikidata":"Q58011479","name":"Coral Travel","shop":"travel_agency"}},"shop/travel_agency/ffa08a-09bdb9":{"name":"Поїхали з нами","locationSet":{"include":["ua"]},"geometry":["point","area"],"matchScore":2,"terms":["поехали с нами","поїхали з нами"],"tags":{"brand:wikidata":"Q25439141","shop":"travel_agency"},"addTags":{"brand":"Поїхали з нами","brand:ru":"Поехали с нами","brand:uk":"Поїхали з нами","brand:wikidata":"Q25439141","name":"Поїхали з нами","name:ru":"Поехали с нами","name:uk":"Поїхали з нами","shop":"travel_agency"}},"shop/tyres/koleso-0a95f9":{"name":"Колесо","locationSet":{"include":["by","ru","ua"]},"geometry":["point","area"],"matchScore":2,"terms":["koleso","колесо"],"tags":{"brand:wikidata":"Q110959636","shop":"tyres"},"addTags":{"brand":"Колесо","brand:wikidata":"Q110959636","name":"Колесо","name:en":"Koleso","name:ru":"Колесо","shop":"tyres"}},"tourism/hotel/bandbhotel-fc8c2c":{"name":"B&B Hotel","locationSet":{"include":["by","bg","cz","hu","pl","md","ro","ru","sk","ua","ax","gg","je","cq","dk","ee","fo","fi","is","ie","im","lv","lt","no","sj","se","gb","al","ad","ba","hr","gi","gr","va","it","mt","me","mk","pt","sm","rs","si","es","xk","at","be","fr","de","li","lu","mc","nl","ch","br"]},"geometry":["point","area"],"matchScore":2,"terms":["b&b hotels"],"fields":["name","brand","{tourism/hotel}"],"tags":{"brand:wikidata":"Q794939","tourism":"hotel"},"addTags":{"brand":"B&B Hotels","brand:wikidata":"Q794939","name":"B&B Hotel","tourism":"hotel"}},"tourism/hotel/motelone-046fe6":{"name":"Motel One","locationSet":{"include":["by","bg","cz","hu","pl","md","ro","ru","sk","ua","ax","gg","je","cq","dk","ee","fo","fi","is","ie","im","lv","lt","no","sj","se","gb","al","ad","ba","hr","gi","gr","va","it","mt","me","mk","pt","sm","rs","si","es","xk","at","be","fr","de","li","lu","mc","nl","ch"]},"geometry":["point","area"],"matchScore":2,"terms":["motel one"],"fields":["name","brand","{tourism/hotel}"],"tags":{"brand:wikidata":"Q391080","tourism":"hotel"},"addTags":{"brand":"Motel One","brand:wikidata":"Q391080","name":"Motel One","tourism":"hotel"}},"amenity/charging_station/autoenterprise-a6c3f2":{"name":"AutoEnterprise","locationSet":{"include":["ua"]},"geometry":["point","area"],"matchScore":2,"terms":["autoenterprise"],"fields":["name","operator","{amenity/charging_station}"],"tags":{"amenity":"charging_station","operator:wikidata":"Q113289500"},"addTags":{"amenity":"charging_station","operator":"AutoEnterprise","operator:wikidata":"Q113289500"}},"amenity/charging_station/eon-7f623e":{"name":"E.ON","locationSet":{"include":["by","bg","cz","hu","pl","md","ro","ru","sk","ua","ax","gg","je","cq","dk","ee","fo","fi","is","ie","im","lv","lt","no","sj","se","gb","al","ad","ba","hr","gi","gr","va","it","mt","me","mk","pt","sm","rs","si","es","xk","at","be","fr","de","li","lu","mc","nl","ch"]},"geometry":["point","area"],"matchScore":2,"terms":["e-on drive","e.on"],"fields":["name","operator","{amenity/charging_station}"],"tags":{"amenity":"charging_station","operator:wikidata":"Q270223"},"addTags":{"amenity":"charging_station","operator":"E.ON","operator:wikidata":"Q270223"}},"amenity/charging_station/evbox-7f623e":{"name":"EVBox","locationSet":{"include":["by","bg","cz","hu","pl","md","ro","ru","sk","ua","ax","gg","je","cq","dk","ee","fo","fi","is","ie","im","lv","lt","no","sj","se","gb","al","ad","ba","hr","gi","gr","va","it","mt","me","mk","pt","sm","rs","si","es","xk","at","be","fr","de","li","lu","mc","nl","ch"]},"geometry":["point","area"],"matchScore":2,"terms":["evbox"],"fields":["name","operator","{amenity/charging_station}"],"tags":{"amenity":"charging_station","operator:wikidata":"Q28406392"},"addTags":{"amenity":"charging_station","operator":"EVBox","operator:wikidata":"Q28406392"}},"amenity/charging_station/qpark-7f623e":{"name":"Q-Park","locationSet":{"include":["by","bg","cz","hu","pl","md","ro","ru","sk","ua","ax","gg","je","cq","dk","ee","fo","fi","is","ie","im","lv","lt","no","sj","se","gb","al","ad","ba","hr","gi","gr","va","it","mt","me","mk","pt","sm","rs","si","es","xk","at","be","fr","de","li","lu","mc","nl","ch"]},"geometry":["point","area"],"matchScore":2,"terms":["q-park"],"fields":["name","operator","{amenity/charging_station}"],"tags":{"amenity":"charging_station","operator:wikidata":"Q1127798"},"addTags":{"amenity":"charging_station","operator":"Q-Park","operator:wikidata":"Q1127798"}},"amenity/post_box/meest-1a910f":{"name":"Meest","locationSet":{"include":["ua"]},"geometry":["point","vertex"],"matchScore":2,"terms":["meest","meest express","міст","міст експрес"],"tags":{"amenity":"post_box","operator:wikidata":"Q25432124"},"addTags":{"amenity":"post_box","operator":"Meest","operator:en":"Meest","operator:uk":"Міст","operator:wikidata":"Q25432124"}},"amenity/post_box/autolux-1a910f":{"name":"Автолюкс","locationSet":{"include":["ua"]},"geometry":["point","vertex"],"matchScore":2,"terms":["autolux","автолюкс"],"tags":{"amenity":"post_box","operator:wikidata":"Q12075972"},"addTags":{"amenity":"post_box","operator":"Автолюкс","operator:en":"Autolux","operator:uk":"Автолюкс","operator:wikidata":"Q12075972"}},"amenity/post_box/delivery-1a910f":{"name":"Делівері","locationSet":{"include":["ua"]},"geometry":["point","vertex"],"matchScore":2,"terms":["delivery","делівері"],"tags":{"amenity":"post_box","operator:wikidata":"Q104092221"},"addTags":{"amenity":"post_box","operator":"Делівері","operator:en":"Delivery","operator:wikidata":"Q104092221"}},"amenity/post_box/justin-1a910f":{"name":"ДЖАСТ ІН","locationSet":{"include":["ua"]},"geometry":["point","vertex"],"matchScore":2,"terms":["justin","джаст ін"],"tags":{"amenity":"post_box","operator:wikidata":"Q63828668"},"addTags":{"amenity":"post_box","operator":"ДЖАСТ ІН","operator:en":"justin","operator:uk":"ДЖАСТ ІН","operator:wikidata":"Q63828668"}},"amenity/post_box/530f2c-1a910f":{"name":"Нова Пошта","locationSet":{"include":["ua"]},"geometry":["point","vertex"],"matchScore":2,"terms":["нова пошта","нова пошта №1","нова пошта №2","нова пошта №3","нова пошта №4","нова пошта, відділення №1"],"tags":{"amenity":"post_box","operator:wikidata":"Q12133863"},"addTags":{"amenity":"post_box","operator":"Нова Пошта","operator:wikidata":"Q12133863"}},"amenity/post_box/c8edb5-1a910f":{"name":"Укрпошта","locationSet":{"include":["ua"]},"geometry":["point","vertex"],"matchScore":2,"terms":["ат укрпошта","укрпочта","укрпошта"],"tags":{"amenity":"post_box","operator:wikidata":"Q2470783"},"addTags":{"amenity":"post_box","operator":"Укрпошта","operator:ru":"Укрпочта","operator:uk":"Укрпошта","operator:wikidata":"Q2470783"}},"amenity/post_office/meest-970b0c":{"name":"Meest","locationSet":{"include":["ua"]},"geometry":["point","area"],"matchScore":2,"terms":["meest","meest express","міст","міст експрес"],"fields":["name","operator","{amenity/post_office}"],"tags":{"amenity":"post_office","operator:wikidata":"Q25432124"},"addTags":{"amenity":"post_office","operator":"Meest","operator:en":"Meest","operator:uk":"Міст","operator:wikidata":"Q25432124"}},"amenity/post_office/autolux-970b0c":{"name":"Автолюкс","locationSet":{"include":["ua"]},"geometry":["point","area"],"matchScore":2,"terms":["autolux","автолюкс"],"fields":["name","operator","{amenity/post_office}"],"tags":{"amenity":"post_office","operator:wikidata":"Q12075972"},"addTags":{"amenity":"post_office","operator":"Автолюкс","operator:en":"Autolux","operator:uk":"Автолюкс","operator:wikidata":"Q12075972"}},"amenity/post_office/delivery-970b0c":{"name":"Делівері","locationSet":{"include":["ua"]},"geometry":["point","area"],"matchScore":2,"terms":["delivery","делівері"],"fields":["name","operator","{amenity/post_office}"],"tags":{"amenity":"post_office","operator:wikidata":"Q104092221"},"addTags":{"amenity":"post_office","operator":"Делівері","operator:en":"Delivery","operator:wikidata":"Q104092221"}},"amenity/post_office/justin-970b0c":{"name":"ДЖАСТ ІН","locationSet":{"include":["ua"]},"geometry":["point","area"],"matchScore":2,"terms":["justin","джаст ін"],"fields":["name","operator","{amenity/post_office}"],"tags":{"amenity":"post_office","operator:wikidata":"Q63828668"},"addTags":{"amenity":"post_office","operator":"ДЖАСТ ІН","operator:en":"justin","operator:uk":"ДЖАСТ ІН","operator:wikidata":"Q63828668"}},"amenity/post_office/530f2c-970b0c":{"name":"Нова Пошта","locationSet":{"include":["ua"]},"geometry":["point","area"],"matchScore":2,"terms":["нова пошта","нова пошта №1","нова пошта №2","нова пошта №3","нова пошта №4","нова пошта, відділення №1"],"fields":["name","operator","{amenity/post_office}"],"tags":{"amenity":"post_office","operator:wikidata":"Q12133863"},"addTags":{"amenity":"post_office","operator":"Нова Пошта","operator:wikidata":"Q12133863"}},"amenity/post_office/c8edb5-970b0c":{"name":"Укрпошта","locationSet":{"include":["ua"]},"geometry":["point","area"],"matchScore":2,"terms":["ат укрпошта","укрпочта","укрпошта"],"fields":["name","operator","{amenity/post_office}"],"tags":{"amenity":"post_office","operator:wikidata":"Q2470783"},"addTags":{"amenity":"post_office","operator":"Укрпошта","operator:ru":"Укрпочта","operator:uk":"Укрпошта","operator:wikidata":"Q2470783"}},"power/generator/innogy-16c9d0":{"name":"Innogy","locationSet":{"include":["by","bg","cz","hu","pl","md","ro","ru","sk","ua","ax","gg","je","cq","dk","ee","fo","fi","is","ie","im","lv","lt","no","sj","se","gb","al","ad","ba","hr","gi","gr","va","it","mt","me","mk","pt","sm","rs","si","es","xk","at","be","fr","de","li","lu","mc","nl","ch"]},"geometry":["point","vertex","area"],"matchScore":2,"terms":["innogy"],"tags":{"operator:wikidata":"Q2124721","power":"generator"},"addTags":{"operator":"Innogy","operator:wikidata":"Q2124721","power":"generator"}},"power/generator/rwe-16c9d0":{"name":"RWE","locationSet":{"include":["by","bg","cz","hu","pl","md","ro","ru","sk","ua","ax","gg","je","cq","dk","ee","fo","fi","is","ie","im","lv","lt","no","sj","se","gb","al","ad","ba","hr","gi","gr","va","it","mt","me","mk","pt","sm","rs","si","es","xk","at","be","fr","de","li","lu","mc","nl","ch"]},"geometry":["point","vertex","area"],"matchScore":2,"terms":["rwe"],"tags":{"operator:wikidata":"Q138133","power":"generator"},"addTags":{"operator":"RWE","operator:wikidata":"Q138133","power":"generator"}},"power/generator/statkraft-16c9d0":{"name":"Statkraft","locationSet":{"include":["by","bg","cz","hu","pl","md","ro","ru","sk","ua","ax","gg","je","cq","dk","ee","fo","fi","is","ie","im","lv","lt","no","sj","se","gb","al","ad","ba","hr","gi","gr","va","it","mt","me","mk","pt","sm","rs","si","es","xk","at","be","fr","de","li","lu","mc","nl","ch"]},"geometry":["point","vertex","area"],"matchScore":2,"terms":["statkraft"],"tags":{"operator:wikidata":"Q1681145","power":"generator"},"addTags":{"operator":"Statkraft","operator:wikidata":"Q1681145","power":"generator"}},"power/generator/uniper-16c9d0":{"name":"Uniper","locationSet":{"include":["by","bg","cz","hu","pl","md","ro","ru","sk","ua","ax","gg","je","cq","dk","ee","fo","fi","is","ie","im","lv","lt","no","sj","se","gb","al","ad","ba","hr","gi","gr","va","it","mt","me","mk","pt","sm","rs","si","es","xk","at","be","fr","de","li","lu","mc","nl","ch"]},"geometry":["point","vertex","area"],"matchScore":2,"terms":["uniper"],"tags":{"operator:wikidata":"Q19839259","power":"generator"},"addTags":{"operator":"Uniper","operator:wikidata":"Q19839259","power":"generator"}},"power/generator/wpo-16c9d0":{"name":"WPO","locationSet":{"include":["by","bg","cz","hu","pl","md","ro","ru","sk","ua","ax","gg","je","cq","dk","ee","fo","fi","is","ie","im","lv","lt","no","sj","se","gb","al","ad","ba","hr","gi","gr","va","it","mt","me","mk","pt","sm","rs","si","es","xk","at","be","fr","de","li","lu","mc","nl","ch"]},"geometry":["point","vertex","area"],"matchScore":2,"terms":["wpo"],"tags":{"operator:wikidata":"Q64755627","power":"generator"},"addTags":{"operator":"WPO","operator:wikidata":"Q64755627","power":"generator"}},"power/substation/lvivoblenergo-b0b17c":{"name":"Львівобленерго","locationSet":{"include":["ua"]},"geometry":["area","point"],"matchScore":2,"terms":["lvivoblenergo","львівобленерго","прат \"львівобленерго\""],"tags":{"operator:wikidata":"Q12119088","power":"substation"},"addTags":{"operator":"Львівобленерго","operator:en":"Lvivoblenergo","operator:uk":"Львівобленерго","operator:wikidata":"Q12119088","power":"substation"}},"power/substation/poltavaoblenergo-b0b17c":{"name":"Полтаваобленерго","locationSet":{"include":["ua"]},"geometry":["area","point"],"matchScore":2,"terms":["poltavaoblenergo","полтаваобленерго"],"tags":{"operator:wikidata":"Q16712082","power":"substation"},"addTags":{"operator":"Полтаваобленерго","operator:en":"Poltavaoblenergo","operator:uk":"Полтаваобленерго","operator:wikidata":"Q16712082","power":"substation"}},"power/substation/prikarpattyaoblenergo-b0b17c":{"name":"Прикарпаттяобленерго","locationSet":{"include":["ua"]},"geometry":["area","point"],"matchScore":2,"terms":["prikarpattyaoblenergo","прикарпаттяобленерго"],"tags":{"operator:wikidata":"Q25447387","power":"substation"},"addTags":{"operator":"Прикарпаттяобленерго","operator:en":"Prikarpattyaoblenergo","operator:uk":"Прикарпаттяобленерго","operator:wikidata":"Q25447387","power":"substation"}},"power/substation/388547-b0b17c":{"name":"Регіональні електричні мережі","locationSet":{"include":["ua"]},"geometry":["area","point"],"matchScore":2,"terms":["регіональні електричні мережі"],"tags":{"operator:wikidata":"Q60986654","power":"substation"},"addTags":{"operator":"Регіональні електричні мережі","operator:wikidata":"Q60986654","power":"substation"}},"power/substation/rivneoblenergo-b0b17c":{"name":"Рівнеобленерго","locationSet":{"include":["ua"]},"geometry":["area","point"],"matchScore":2,"terms":["rivneoblenergo","прат рівнеобленерго","рівнеобленерго"],"tags":{"operator:wikidata":"Q60986619","power":"substation"},"addTags":{"operator":"Рівнеобленерго","operator:en":"Rivneoblenergo","operator:uk":"Рівнеобленерго","operator:wikidata":"Q60986619","power":"substation"}},"power/substation/ternopiloblenergo-b0b17c":{"name":"Тернопільобленерго","locationSet":{"include":["ua"]},"geometry":["area","point"],"matchScore":2,"terms":["ternopiloblenergo","тернопільобленерго"],"tags":{"operator:wikidata":"Q60986592","power":"substation"},"addTags":{"operator":"Тернопільобленерго","operator:en":"Ternopiloblenergo","operator:uk":"Тернопільобленерго","operator:wikidata":"Q60986592","power":"substation"}},"power/substation/ukrenergo-b0b17c":{"name":"Укренерго","locationSet":{"include":["ua"]},"geometry":["area","point"],"matchScore":2,"terms":["ukrenergo","укренерго","укрэнерго","центральна енергетична компанія"],"tags":{"operator:wikidata":"Q12132842","power":"substation"},"addTags":{"operator":"Укренерго","operator:en":"Ukrenergo","operator:ru":"Укрэнерго","operator:uk":"Укренерго","operator:wikidata":"Q12132842","power":"substation"}},"power/substation/ukrainianrailways-b0b17c":{"name":"Укрзалізниця","locationSet":{"include":["ua"]},"geometry":["area","point"],"matchScore":2,"terms":["ukrainian railways","укрзалізниця"],"tags":{"operator:wikidata":"Q923337","power":"substation"},"addTags":{"operator":"Укрзалізниця","operator:en":"Ukrainian Railways","operator:uk":"Укрзалізниця","operator:wikidata":"Q923337","power":"substation"}},"power/substation/kharkivoblenergo-b0b17c":{"name":"Харківобленерго","locationSet":{"include":["ua"]},"geometry":["area","point"],"matchScore":2,"terms":["kharkivoblenergo","харківобленерго"],"tags":{"operator:wikidata":"Q20097236","power":"substation"},"addTags":{"operator":"Харківобленерго","operator:en":"Kharkivoblenergo","operator:uk":"Харківобленерго","operator:wikidata":"Q20097236","power":"substation"}},"power/substation/chersonoblenergo-b0b17c":{"name":"Херсонобленерго","locationSet":{"include":["ua"]},"geometry":["area","point"],"matchScore":2,"terms":["chersonoblenergo","херсонобленерго"],"tags":{"operator:wikidata":"Q60986624","power":"substation"},"addTags":{"operator":"Херсонобленерго","operator:en":"Chersonoblenergo","operator:uk":"Херсонобленерго","operator:wikidata":"Q60986624","power":"substation"}},"power/substation/khmelnytskoblenergo-b0b17c":{"name":"Хмельницькобленерго","locationSet":{"include":["ua"]},"geometry":["area","point"],"matchScore":2,"terms":["khmelnytskoblenergo","хмельницькобленерго"],"tags":{"operator:wikidata":"Q60986632","power":"substation"},"addTags":{"operator":"Хмельницькобленерго","operator:en":"Khmelnytskoblenergo","operator:uk":"Хмельницькобленерго","operator:wikidata":"Q60986632","power":"substation"}},"power/substation/472734-b0b17c":{"name":"Черкасиобленерго","locationSet":{"include":["ua"]},"geometry":["area","point"],"matchScore":2,"terms":["черкасиобленерго"],"tags":{"operator:wikidata":"Q60986585","power":"substation"},"addTags":{"operator":"Черкасиобленерго","operator:wikidata":"Q60986585","power":"substation"}},"power/substation/chernihivoblenergo-b0b17c":{"name":"Чернігівобленерго","locationSet":{"include":["ua"]},"geometry":["area","point"],"matchScore":2,"terms":["chernihivoblenergo","чернівціобленерго","чернігівобленерго"],"tags":{"operator:wikidata":"Q6665196","power":"substation"},"addTags":{"operator":"Чернігівобленерго","operator:en":"Chernihivoblenergo","operator:ru":"Чернівціобленерго","operator:uk":"Чернігівобленерго","operator:wikidata":"Q6665196","power":"substation"}},"power/transformer/lvivoblenergo-01f0e3":{"name":"Львівобленерго","locationSet":{"include":["ua"]},"geometry":["point","vertex"],"matchScore":2,"terms":["lvivoblenergo","львівобленерго","прат \"львівобленерго\""],"tags":{"operator:wikidata":"Q12119088","power":"transformer"},"addTags":{"operator":"Львівобленерго","operator:en":"Lvivoblenergo","operator:uk":"Львівобленерго","operator:wikidata":"Q12119088","power":"transformer"}},"power/transformer/poltavaoblenergo-01f0e3":{"name":"Полтаваобленерго","locationSet":{"include":["ua"]},"geometry":["point","vertex"],"matchScore":2,"terms":["poltavaoblenergo","полтаваобленерго"],"tags":{"operator:wikidata":"Q16712082","power":"transformer"},"addTags":{"operator":"Полтаваобленерго","operator:en":"Poltavaoblenergo","operator:uk":"Полтаваобленерго","operator:wikidata":"Q16712082","power":"transformer"}},"power/transformer/prikarpattyaoblenergo-01f0e3":{"name":"Прикарпаттяобленерго","locationSet":{"include":["ua"]},"geometry":["point","vertex"],"matchScore":2,"terms":["prikarpattyaoblenergo","прикарпаттяобленерго"],"tags":{"operator:wikidata":"Q25447387","power":"transformer"},"addTags":{"operator":"Прикарпаттяобленерго","operator:en":"Prikarpattyaoblenergo","operator:uk":"Прикарпаттяобленерго","operator:wikidata":"Q25447387","power":"transformer"}},"power/transformer/388547-01f0e3":{"name":"Регіональні електричні мережі","locationSet":{"include":["ua"]},"geometry":["point","vertex"],"matchScore":2,"terms":["регіональні електричні мережі"],"tags":{"operator:wikidata":"Q60986654","power":"transformer"},"addTags":{"operator":"Регіональні електричні мережі","operator:wikidata":"Q60986654","power":"transformer"}},"power/transformer/rivneoblenergo-01f0e3":{"name":"Рівнеобленерго","locationSet":{"include":["ua"]},"geometry":["point","vertex"],"matchScore":2,"terms":["rivneoblenergo","прат рівнеобленерго","рівнеобленерго"],"tags":{"operator:wikidata":"Q60986619","power":"transformer"},"addTags":{"operator":"Рівнеобленерго","operator:en":"Rivneoblenergo","operator:uk":"Рівнеобленерго","operator:wikidata":"Q60986619","power":"transformer"}},"power/transformer/ternopiloblenergo-01f0e3":{"name":"Тернопільобленерго","locationSet":{"include":["ua"]},"geometry":["point","vertex"],"matchScore":2,"terms":["ternopiloblenergo","тернопільобленерго"],"tags":{"operator:wikidata":"Q60986592","power":"transformer"},"addTags":{"operator":"Тернопільобленерго","operator:en":"Ternopiloblenergo","operator:uk":"Тернопільобленерго","operator:wikidata":"Q60986592","power":"transformer"}},"power/transformer/ukrenergo-01f0e3":{"name":"Укренерго","locationSet":{"include":["ua"]},"geometry":["point","vertex"],"matchScore":2,"terms":["ukrenergo","укренерго","укрэнерго","центральна енергетична компанія"],"tags":{"operator:wikidata":"Q12132842","power":"transformer"},"addTags":{"operator":"Укренерго","operator:en":"Ukrenergo","operator:ru":"Укрэнерго","operator:uk":"Укренерго","operator:wikidata":"Q12132842","power":"transformer"}},"power/transformer/ukrainianrailways-01f0e3":{"name":"Укрзалізниця","locationSet":{"include":["ua"]},"geometry":["point","vertex"],"matchScore":2,"terms":["ukrainian railways","укрзалізниця"],"tags":{"operator:wikidata":"Q923337","power":"transformer"},"addTags":{"operator":"Укрзалізниця","operator:en":"Ukrainian Railways","operator:uk":"Укрзалізниця","operator:wikidata":"Q923337","power":"transformer"}},"power/transformer/kharkivoblenergo-01f0e3":{"name":"Харківобленерго","locationSet":{"include":["ua"]},"geometry":["point","vertex"],"matchScore":2,"terms":["kharkivoblenergo","харківобленерго"],"tags":{"operator:wikidata":"Q20097236","power":"transformer"},"addTags":{"operator":"Харківобленерго","operator:en":"Kharkivoblenergo","operator:uk":"Харківобленерго","operator:wikidata":"Q20097236","power":"transformer"}},"power/transformer/chersonoblenergo-01f0e3":{"name":"Херсонобленерго","locationSet":{"include":["ua"]},"geometry":["point","vertex"],"matchScore":2,"terms":["chersonoblenergo","херсонобленерго"],"tags":{"operator:wikidata":"Q60986624","power":"transformer"},"addTags":{"operator":"Херсонобленерго","operator:en":"Chersonoblenergo","operator:uk":"Херсонобленерго","operator:wikidata":"Q60986624","power":"transformer"}},"power/transformer/khmelnytskoblenergo-01f0e3":{"name":"Хмельницькобленерго","locationSet":{"include":["ua"]},"geometry":["point","vertex"],"matchScore":2,"terms":["khmelnytskoblenergo","хмельницькобленерго"],"tags":{"operator:wikidata":"Q60986632","power":"transformer"},"addTags":{"operator":"Хмельницькобленерго","operator:en":"Khmelnytskoblenergo","operator:uk":"Хмельницькобленерго","operator:wikidata":"Q60986632","power":"transformer"}},"power/transformer/472734-01f0e3":{"name":"Черкасиобленерго","locationSet":{"include":["ua"]},"geometry":["point","vertex"],"matchScore":2,"terms":["черкасиобленерго"],"tags":{"operator:wikidata":"Q60986585","power":"transformer"},"addTags":{"operator":"Черкасиобленерго","operator:wikidata":"Q60986585","power":"transformer"}},"power/transformer/chernihivoblenergo-01f0e3":{"name":"Чернігівобленерго","locationSet":{"include":["ua"]},"geometry":["point","vertex"],"matchScore":2,"terms":["chernihivoblenergo","чернівціобленерго","чернігівобленерго"],"tags":{"operator:wikidata":"Q6665196","power":"transformer"},"addTags":{"operator":"Чернігівобленерго","operator:en":"Chernihivoblenergo","operator:ru":"Чернівціобленерго","operator:uk":"Чернігівобленерго","operator:wikidata":"Q6665196","power":"transformer"}},"type/route/railway/odessarailways-53b4a5":{"name":"Одеська залізниця","locationSet":{"include":["ua"]},"geometry":["relation"],"matchScore":2,"terms":["odessa railways","одеська залізниця"],"reference":{"key":"route","value":"railway"},"tags":{"operator:wikidata":"Q166574","route":"railway","type":"route"},"addTags":{"operator":"Одеська залізниця","operator:en":"Odessa Railways","operator:uk":"Одеська залізниця","operator:wikidata":"Q166574","route":"railway","type":"route"}},"telecom/exchange/interoute-58ec5d":{"name":"Interoute","locationSet":{"include":["by","bg","cz","hu","pl","md","ro","ru","sk","ua","ax","gg","je","cq","dk","ee","fo","fi","is","ie","im","lv","lt","no","sj","se","gb","al","ad","ba","hr","gi","gr","va","it","mt","me","mk","pt","sm","rs","si","es","xk","at","be","fr","de","li","lu","mc","nl","ch"]},"geometry":["point","area"],"matchScore":2,"terms":["interoute"],"fields":["name","operator","{telecom/exchange}"],"tags":{"operator:wikidata":"Q1668090","telecom":"exchange"},"addTags":{"operator":"Interoute","operator:wikidata":"Q1668090","telecom":"exchange"}},"type/route/train/eurocity-6b9d23":{"name":"EuroCity","locationSet":{"include":["by","bg","cz","hu","pl","md","ro","ru","sk","ua","ax","gg","je","cq","dk","ee","fo","fi","is","ie","im","lv","lt","no","sj","se","gb","al","ad","ba","hr","gi","gr","va","it","mt","me","mk","pt","sm","rs","si","es","xk","at","be","fr","de","li","lu","mc","nl","ch"]},"geometry":["relation"],"matchScore":2,"terms":["eurocity"],"reference":{"key":"route","value":"train"},"tags":{"network:wikidata":"Q753050","route":"train","type":"route"},"addTags":{"network":"EuroCity","network:wikidata":"Q753050","route":"train","type":"route"}},"type/route/train/euronight-6b9d23":{"name":"EuroNight","locationSet":{"include":["by","bg","cz","hu","pl","md","ro","ru","sk","ua","ax","gg","je","cq","dk","ee","fo","fi","is","ie","im","lv","lt","no","sj","se","gb","al","ad","ba","hr","gi","gr","va","it","mt","me","mk","pt","sm","rs","si","es","xk","at","be","fr","de","li","lu","mc","nl","ch"]},"geometry":["relation"],"matchScore":2,"terms":["euronight"],"reference":{"key":"route","value":"train"},"tags":{"network:wikidata":"Q257307","route":"train","type":"route"},"addTags":{"network":"EuroNight","network:wikidata":"Q257307","route":"train","type":"route"}},"type/route/train/ukrzaliznytsia-216244":{"name":"Укрзалізниця","locationSet":{"include":["ua"]},"geometry":["relation"],"matchScore":2,"terms":["ukrzaliznytsia","укрзалізниця"],"reference":{"key":"route","value":"train"},"tags":{"network:wikidata":"Q923337","route":"train","type":"route"},"addTags":{"network":"Укрзалізниця","network:en":"Ukrzaliznytsia","network:uk":"Укрзалізниця","network:wikidata":"Q923337","route":"train","type":"route"}},"type/route/tram/c529a3-8ac616":{"name":"Миколаївський трамвай","locationSet":{"include":["ua"]},"geometry":["relation"],"matchScore":2,"terms":["миколаївський трамвай"],"reference":{"key":"route","value":"tram"},"tags":{"network:wikidata":"Q2442921","route":"tram","type":"route"},"addTags":{"network":"Миколаївський трамвай","network:wikidata":"Q2442921","route":"tram","type":"route"}}}