{"advertising/totem/as24-e95b1e":{"name":"AS 24","locationSet":{"include":["at","be","bg","cz","de","dk","es","fr","gb","ge","gr","hr","hu","ie","it","lt","lu","mk","nl","pl","pt","ro","rs","se","si","sk","ua"]},"geometry":["point","line"],"matchScore":2,"terms":["as 24"],"tags":{"advertising":"totem","brand:wikidata":"Q2819394"},"addTags":{"advertising":"totem","brand":"AS 24","brand:wikidata":"Q2819394","hgv":"only"}},"advertising/totem/auchan-9efa8b":{"name":"Auchan","locationSet":{"include":["al","ad","ba","hr","gi","gr","va","it","mt","me","mk","pt","sm","rs","si","es","xk","by","bg","cz","hu","pl","md","ro","ru","sk","ua","at","be","fr","de","li","lu","mc","nl","ch"]},"geometry":["point","line"],"matchScore":2,"terms":["auchan"],"tags":{"advertising":"totem","brand:wikidata":"Q758603"},"addTags":{"advertising":"totem","brand":"Auchan","brand:wikidata":"Q758603"}},"advertising/totem/gazprom-e13144":{"name":"Gazprom","locationSet":{"include":["ba","ro"]},"geometry":["point","line"],"matchScore":2,"terms":["gazprom"],"tags":{"advertising":"totem","brand:wikidata":"Q102673"},"addTags":{"advertising":"totem","brand":"Gazprom","brand:wikidata":"Q102673"}},"advertising/totem/petrom-b4e784":{"name":"Petrom (MD & RO)","locationSet":{"include":["md","ro"]},"geometry":["point","line"],"matchScore":2,"terms":["petrom"],"tags":{"advertising":"totem","brand:wikidata":"Q1755034"},"addTags":{"advertising":"totem","brand":"Petrom","brand:wikidata":"Q1755034"}},"advertising/totem/rompetrol-b4e784":{"name":"Rompetrol","locationSet":{"include":["md","ro"]},"geometry":["point","line"],"matchScore":2,"terms":["rompetrol"],"tags":{"advertising":"totem","brand:wikidata":"Q1788862"},"addTags":{"advertising":"totem","brand":"Rompetrol","brand:wikidata":"Q1788862"}},"advertising/totem/socar-563cec":{"name":"SOCAR","locationSet":{"include":["at","az","ch","li","ro","tr","ua"]},"geometry":["point","line"],"matchScore":2,"terms":["socar"],"tags":{"advertising":"totem","brand:wikidata":"Q1622293"},"addTags":{"advertising":"totem","brand":"SOCAR","brand:wikidata":"Q1622293"}},"amenity/atm/alphabank-39c6ab":{"name":"Alpha Bank","locationSet":{"include":["cy","gr","ro"]},"geometry":["point","vertex"],"matchScore":2,"terms":["alpha bank"],"fields":["name","brand","{amenity/atm}"],"tags":{"amenity":"atm","brand:wikidata":"Q747394"},"addTags":{"amenity":"atm","brand":"Alpha Bank","brand:wikidata":"Q747394","operator":"Alpha Bank","operator:wikidata":"Q747394"}},"amenity/atm/bancaromaneasca-1de605":{"name":"Banca Românească","locationSet":{"include":["ro"]},"geometry":["point","vertex"],"matchScore":2,"terms":["banca românească"],"fields":["name","brand","{amenity/atm}"],"searchable":false,"tags":{"amenity":"atm","brand:wikidata":"Q4854052"},"addTags":{"amenity":"atm","brand":"Banca Românească","brand:wikidata":"Q4854052","operator":"Banca Românească","operator:wikidata":"Q4854052"}},"amenity/atm/bancatransilvania-1de605":{"name":"Banca Transilvania","locationSet":{"include":["ro"]},"geometry":["point","vertex"],"matchScore":2,"terms":["banca transilvania"],"fields":["name","brand","{amenity/atm}"],"tags":{"amenity":"atm","brand:wikidata":"Q806161"},"addTags":{"amenity":"atm","brand":"Banca Transilvania","brand:wikidata":"Q806161","operator":"Banca Transilvania","operator:wikidata":"Q806161"}},"amenity/atm/bancpost-1de605":{"name":"Bancpost","locationSet":{"include":["ro"]},"geometry":["point","vertex"],"matchScore":2,"terms":["bancpost"],"fields":["name","brand","{amenity/atm}"],"searchable":false,"tags":{"amenity":"atm","brand:wikidata":"Q4854143"},"addTags":{"amenity":"atm","brand":"Bancpost","brand:wikidata":"Q4854143","operator":"Bancpost","operator:wikidata":"Q4854143"}},"amenity/atm/bcr-1de605":{"name":"BCR (Banca Comercială Română)","locationSet":{"include":["ro"]},"geometry":["point","vertex"],"matchScore":2,"terms":["banca comercială română","bcr"],"fields":["name","brand","{amenity/atm}"],"tags":{"amenity":"atm","brand:wikidata":"Q806149"},"addTags":{"amenity":"atm","brand":"BCR","brand:wikidata":"Q806149","official_name":"Banca Comercială Română","operator":"BCR","operator:wikidata":"Q806149"}},"amenity/atm/bnpparibas-4ed91f":{"name":"BNP Paribas","locationSet":{"include":["ae","af","ar","at","bf","bg","bh","br","ca","ch","ci","cl","co","cz","de","dk","dz","es","fi","fr","gb","gf","gp","hu","ie","il","it","kw","ma","ml","mq","mx","nl","no","pe","pt","qa","re","ro","ru","sa","se","sk","sn","tn","tr","us"]},"geometry":["point","vertex"],"matchScore":2,"terms":["bnp paribas"],"fields":["name","brand","{amenity/atm}"],"tags":{"amenity":"atm","brand:wikidata":"Q499707"},"addTags":{"amenity":"atm","brand":"BNP Paribas","brand:wikidata":"Q499707","operator":"BNP Paribas","operator:wikidata":"Q499707"}},"amenity/atm/brd-1de605":{"name":"BRD","locationSet":{"include":["ro"]},"geometry":["point","vertex"],"matchScore":2,"terms":["brd"],"fields":["name","brand","{amenity/atm}"],"tags":{"amenity":"atm","brand:wikidata":"Q796927"},"addTags":{"amenity":"atm","brand":"BRD","brand:wikidata":"Q796927","operator":"BRD","operator:wikidata":"Q796927"}},"amenity/atm/cecbank-1de605":{"name":"CEC Bank","locationSet":{"include":["ro"]},"geometry":["point","vertex"],"matchScore":2,"terms":["cec bank"],"fields":["name","brand","{amenity/atm}"],"tags":{"amenity":"atm","brand:wikidata":"Q1023306"},"addTags":{"amenity":"atm","brand":"CEC Bank","brand:wikidata":"Q1023306","operator":"CEC Bank","operator:wikidata":"Q1023306"}},"amenity/atm/groupama-57ab19":{"name":"Groupama","locationSet":{"include":["bg","cn","fr","gr","hu","it","ro","sk","tr"]},"geometry":["point","vertex"],"matchScore":2,"terms":["groupama"],"fields":["name","brand","{amenity/atm}"],"tags":{"amenity":"atm","brand:wikidata":"Q3083531"},"addTags":{"amenity":"atm","brand":"Groupama","brand:wikidata":"Q3083531","operator":"Groupama","operator:wikidata":"Q3083531"}},"amenity/atm/ideabank-1de605":{"name":"Idea Bank (România)","locationSet":{"include":["ro"]},"geometry":["point","vertex"],"matchScore":2,"terms":["idea bank"],"fields":["name","brand","{amenity/atm}"],"tags":{"amenity":"atm","brand:wikidata":"Q7362554"},"addTags":{"amenity":"atm","brand":"Idea Bank","brand:wikidata":"Q7362554","operator":"Idea Bank","operator:wikidata":"Q7362554"}},"amenity/atm/otpbank-52756a":{"name":"OTP Bank","locationSet":{"include":["al","hu","md","ro"]},"geometry":["point","vertex"],"matchScore":2,"terms":["otp","otp bank"],"fields":["name","brand","{amenity/atm}"],"tags":{"amenity":"atm","brand:wikidata":"Q912778"},"addTags":{"amenity":"atm","brand":"OTP Bank","brand:wikidata":"Q912778","operator":"OTP Bank","operator:wikidata":"Q912778","short_name":"OTP"}},"amenity/atm/procreditbank-5cd6db":{"name":"ProCredit Bank","locationSet":{"include":["al","ba","de","gr","md","ro","xk"]},"geometry":["point","vertex"],"matchScore":2,"terms":["procredit","procredit bank"],"fields":["name","brand","{amenity/atm}"],"tags":{"amenity":"atm","brand:wikidata":"Q567304"},"addTags":{"amenity":"atm","brand":"ProCredit Bank","brand:wikidata":"Q567304","operator":"ProCredit Bank","operator:wikidata":"Q567304"}},"amenity/atm/raiffeisenbank-1de605":{"name":"Raiffeisen Bank (România)","locationSet":{"include":["ro"]},"geometry":["point","vertex"],"matchScore":2,"terms":["raiffeisen","raiffeisen bank"],"fields":["name","brand","{amenity/atm}"],"tags":{"amenity":"atm","brand:wikidata":"Q7283806"},"addTags":{"amenity":"atm","brand":"Raiffeisen Bank","brand:wikidata":"Q7283806","operator":"Raiffeisen Bank","operator:wikidata":"Q7283806"}},"amenity/atm/unicreditbank-3ecec5":{"name":"UniCredit Bank","locationSet":{"include":["ba","cz","hu","it","ro","rs","ru","si","sk"]},"geometry":["point","vertex"],"matchScore":2,"terms":["unicredit","unicredit banca","unicredit bank","unicredit s.p.a."],"fields":["name","brand","{amenity/atm}"],"tags":{"amenity":"atm","brand:wikidata":"Q45568"},"addTags":{"amenity":"atm","brand":"UniCredit Bank","brand:wikidata":"Q45568","operator":"UniCredit Bank","operator:wikidata":"Q45568"}},"amenity/bank/alphabank-438bef":{"name":"Alpha Bank","locationSet":{"include":["cy","gr","ro"]},"geometry":["point","area"],"matchScore":2,"terms":["alpha bank"],"tags":{"amenity":"bank","brand:wikidata":"Q747394"},"addTags":{"amenity":"bank","brand":"Alpha Bank","brand:wikidata":"Q747394","name":"Alpha Bank"}},"amenity/bank/bancaromaneasca-9a9a30":{"name":"Banca Românească","locationSet":{"include":["ro"]},"geometry":["point","area"],"matchScore":2,"terms":["banca românească"],"searchable":false,"tags":{"amenity":"bank","brand:wikidata":"Q4854052"},"addTags":{"amenity":"bank","brand":"Banca Românească","brand:wikidata":"Q4854052","name":"Banca Românească"}},"amenity/bank/bancatransilvania-9a9a30":{"name":"Banca Transilvania","locationSet":{"include":["ro"]},"geometry":["point","area"],"matchScore":2,"terms":["banca transilvania"],"tags":{"amenity":"bank","brand:wikidata":"Q806161"},"addTags":{"amenity":"bank","brand":"Banca Transilvania","brand:wikidata":"Q806161","name":"Banca Transilvania"}},"amenity/bank/bancpost-9a9a30":{"name":"Bancpost","locationSet":{"include":["ro"]},"geometry":["point","area"],"matchScore":2,"terms":["bancpost"],"searchable":false,"tags":{"amenity":"bank","brand:wikidata":"Q4854143"},"addTags":{"amenity":"bank","brand":"Bancpost","brand:wikidata":"Q4854143","name":"Bancpost"}},"amenity/bank/bcr-9a9a30":{"name":"BCR (Banca Comercială Română)","locationSet":{"include":["ro"]},"geometry":["point","area"],"matchScore":2,"terms":["banca comercială română","bcr"],"tags":{"amenity":"bank","brand:wikidata":"Q806149"},"addTags":{"amenity":"bank","brand":"BCR","brand:wikidata":"Q806149","name":"BCR","official_name":"Banca Comercială Română"}},"amenity/bank/bnpparibas-f7d855":{"name":"BNP Paribas","locationSet":{"include":["ae","af","ar","at","bf","bg","bh","br","ca","ch","ci","cl","co","cz","de","dk","dz","es","fi","fr","gb","gf","gp","hu","ie","il","it","kw","ma","ml","mq","mx","nl","no","pe","pt","qa","re","ro","ru","sa","se","sk","sn","tn","tr","us"]},"geometry":["point","area"],"matchScore":2,"terms":["bnp paribas"],"tags":{"amenity":"bank","brand:wikidata":"Q499707"},"addTags":{"amenity":"bank","brand":"BNP Paribas","brand:wikidata":"Q499707","name":"BNP Paribas"}},"amenity/bank/brd-9a9a30":{"name":"BRD","locationSet":{"include":["ro"]},"geometry":["point","area"],"matchScore":2,"terms":["brd"],"tags":{"amenity":"bank","brand:wikidata":"Q796927"},"addTags":{"amenity":"bank","brand":"BRD","brand:wikidata":"Q796927","name":"BRD"}},"amenity/bank/cecbank-9a9a30":{"name":"CEC Bank","locationSet":{"include":["ro"]},"geometry":["point","area"],"matchScore":2,"terms":["cec bank"],"tags":{"amenity":"bank","brand:wikidata":"Q1023306"},"addTags":{"amenity":"bank","brand":"CEC Bank","brand:wikidata":"Q1023306","name":"CEC Bank"}},"amenity/bank/groupama-512200":{"name":"Groupama","locationSet":{"include":["bg","cn","fr","gr","hu","it","ro","sk","tr"]},"geometry":["point","area"],"matchScore":2,"terms":["groupama"],"tags":{"amenity":"bank","brand:wikidata":"Q3083531"},"addTags":{"amenity":"bank","brand":"Groupama","brand:wikidata":"Q3083531","name":"Groupama"}},"amenity/bank/ideabank-9a9a30":{"name":"Idea Bank (România)","locationSet":{"include":["ro"]},"geometry":["point","area"],"matchScore":2,"terms":["idea bank"],"tags":{"amenity":"bank","brand:wikidata":"Q7362554"},"addTags":{"amenity":"bank","brand":"Idea Bank","brand:wikidata":"Q7362554","name":"Idea Bank"}},"amenity/bank/otpbank-2ef74c":{"name":"OTP Bank","locationSet":{"include":["al","hu","md","ro"]},"geometry":["point","area"],"matchScore":2,"terms":["otp","otp bank"],"tags":{"amenity":"bank","brand:wikidata":"Q912778"},"addTags":{"amenity":"bank","brand":"OTP Bank","brand:wikidata":"Q912778","name":"OTP Bank","short_name":"OTP"}},"amenity/bank/procreditbank-f3fcbc":{"name":"ProCredit Bank","locationSet":{"include":["al","ba","de","gr","md","ro","xk"]},"geometry":["point","area"],"matchScore":2,"terms":["procredit","procredit bank"],"tags":{"amenity":"bank","brand:wikidata":"Q567304"},"addTags":{"amenity":"bank","brand":"ProCredit Bank","brand:wikidata":"Q567304","name":"ProCredit Bank"}},"amenity/bank/raiffeisenbank-9a9a30":{"name":"Raiffeisen Bank (România)","locationSet":{"include":["ro"]},"geometry":["point","area"],"matchScore":2,"terms":["raiffeisen","raiffeisen bank"],"tags":{"amenity":"bank","brand:wikidata":"Q7283806"},"addTags":{"amenity":"bank","brand":"Raiffeisen Bank","brand:wikidata":"Q7283806","name":"Raiffeisen Bank"}},"amenity/bank/unicreditbank-ff6e1c":{"name":"UniCredit Bank","locationSet":{"include":["ba","cz","hu","it","ro","rs","ru","si","sk"]},"geometry":["point","area"],"matchScore":2,"terms":["unicredit","unicredit banca","unicredit bank","unicredit s.p.a."],"tags":{"amenity":"bank","brand:wikidata":"Q45568"},"addTags":{"amenity":"bank","brand":"UniCredit Bank","brand:wikidata":"Q45568","name":"UniCredit Bank"}},"amenity/bar/pianavyshnia-1dc747":{"name":"Piana Vyshnia","locationSet":{"include":["ee","hu","lt","lv","md","ro","sk"]},"geometry":["point","area"],"matchScore":2,"terms":["piana vyshnia"],"fields":["name","brand","{amenity/bar}"],"tags":{"amenity":"bar","brand:wikidata":"Q120651326"},"addTags":{"amenity":"bar","brand":"Piana Vyshnia","brand:wikidata":"Q120651326","name":"Piana Vyshnia"}},"amenity/bicycle_rental/donkeyrepublic-c32b83":{"name":"Donkey Republic","locationSet":{"include":["by","bg","cz","hu","pl","md","ro","ru","sk","ua","ax","gg","je","cq","dk","ee","fo","fi","is","ie","im","lv","lt","no","sj","se","gb","al","ad","ba","hr","gi","gr","va","it","mt","me","mk","pt","sm","rs","si","es","xk","at","be","fr","de","li","lu","mc","nl","ch"]},"geometry":["point","vertex","area"],"matchScore":2,"terms":["donkey republic"],"fields":["name","brand","{amenity/bicycle_rental}"],"tags":{"amenity":"bicycle_rental","brand:wikidata":"Q63753939"},"addTags":{"amenity":"bicycle_rental","brand":"Donkey Republic","brand:wikidata":"Q63753939","name":"Donkey Republic","operator":"Donkey Republic"}},"amenity/bicycle_rental/ivelo-8ba172":{"name":"I'Velo","locationSet":{"include":["ro"]},"geometry":["point","vertex","area"],"matchScore":2,"terms":["asociația green revolution","bucharest bike share","i'velo"],"fields":["name","brand","{amenity/bicycle_rental}"],"tags":{"amenity":"bicycle_rental","brand:wikidata":"Q119495434"},"addTags":{"amenity":"bicycle_rental","brand":"I'Velo","brand:wikidata":"Q119495434","network":"I'Velo","operator":"Asociația Green Revolution"}},"amenity/cafe/coffee_shop/5togo-24f015":{"name":"5 to go","locationSet":{"include":["ro"]},"geometry":["point","area"],"matchScore":2,"terms":["5 to go"],"reference":{"key":"cuisine","value":"coffee_shop"},"tags":{"amenity":"cafe","brand:wikidata":"Q115684369","cuisine":"coffee_shop"},"addTags":{"amenity":"cafe","brand":"5 to go","brand:wikidata":"Q115684369","cuisine":"coffee_shop","name":"5 to go","takeaway":"yes"}},"amenity/cafe/coffee_shop/aromaespressobar-1ae0cd":{"name":"Aroma Espresso Bar","locationSet":{"include":["ca","kz","ro","ua","us"]},"geometry":["point","area"],"matchScore":2,"terms":["aroma espresso bar"],"reference":{"key":"cuisine","value":"coffee_shop"},"tags":{"amenity":"cafe","brand:wikidata":"Q2909872","cuisine":"coffee_shop"},"addTags":{"amenity":"cafe","brand":"Aroma Espresso Bar","brand:wikidata":"Q2909872","cuisine":"coffee_shop","name":"Aroma Espresso Bar","takeaway":"yes"}},"amenity/cafe/coffee_shop/cafefrei-b37b54":{"name":"Cafe Frei","locationSet":{"include":["ae","ch","fr","hr","hu","ro","sa","sk"]},"geometry":["point","area"],"matchScore":2,"terms":["cafe frei"],"reference":{"key":"cuisine","value":"coffee_shop"},"tags":{"amenity":"cafe","brand:wikidata":"Q105210995","cuisine":"coffee_shop"},"addTags":{"amenity":"cafe","brand":"Cafe Frei","brand:wikidata":"Q105210995","cuisine":"coffee_shop","name":"Cafe Frei","takeaway":"yes"}},"amenity/cafe/coffee_shop/juliusmeinl-d9fed5":{"name":"Julius Meinl","locationSet":{"include":["ae","at","ba","bg","cz","de","fx","hr","hu","it","md","pl","ro","rs","si","sk","tr","us"]},"geometry":["point","area"],"matchScore":2,"terms":["julius meinl"],"reference":{"key":"cuisine","value":"coffee_shop"},"tags":{"amenity":"cafe","brand:wikidata":"Q670154","cuisine":"coffee_shop"},"addTags":{"amenity":"cafe","brand":"Julius Meinl","brand:wikidata":"Q670154","cuisine":"coffee_shop","name":"Julius Meinl","takeaway":"yes"}},"amenity/cafe/coffee_shop/kahvedunyasi-9278bc":{"name":"Kahve Dünyası","locationSet":{"include":["ae","gb","kw","ro","sa","tr"]},"geometry":["point","area"],"matchScore":2,"terms":["kahve dünyası"],"reference":{"key":"cuisine","value":"coffee_shop"},"tags":{"amenity":"cafe","brand:wikidata":"Q28008050","cuisine":"coffee_shop"},"addTags":{"amenity":"cafe","brand":"Kahve Dünyası","brand:wikidata":"Q28008050","cuisine":"coffee_shop","name":"Kahve Dünyası","takeaway":"yes"}},"amenity/car_rental/usave-c212fd":{"name":"U-Save","locationSet":{"include":["cr","do","jm","mt","mx","nl","ro","us"]},"geometry":["point","area"],"matchScore":2,"terms":["u-save","u-save car & truck rental"],"tags":{"amenity":"car_rental","brand:wikidata":"Q123005345"},"addTags":{"amenity":"car_rental","brand":"U-Save","brand:wikidata":"Q123005345","name":"U-Save","official_name":"U-Save Car & Truck Rental"}},"amenity/car_wash/as24-d24fa4":{"name":"AS 24","locationSet":{"include":["at","be","bg","cz","de","dk","es","fr","gb","ge","gr","hr","hu","ie","it","lt","lu","mk","nl","pl","pt","ro","rs","se","si","sk","ua"]},"geometry":["point","area"],"matchScore":2,"terms":["as 24"],"tags":{"amenity":"car_wash","brand:wikidata":"Q2819394"},"addTags":{"amenity":"car_wash","brand":"AS 24","brand:wikidata":"Q2819394","name":"AS 24"}},"amenity/charging_station/ionity-b625d6":{"name":"Ionity","locationSet":{"include":["by","bg","cz","hu","pl","md","ro","ru","sk","ua","ax","gg","je","cq","dk","ee","fo","fi","is","ie","im","lv","lt","no","sj","se","gb","al","ad","ba","hr","gi","gr","va","it","mt","me","mk","pt","sm","rs","si","es","xk","at","be","fr","de","li","lu","mc","nl","ch"]},"geometry":["point","vertex","area"],"matchScore":2,"terms":["ionity","ionity gmbh"],"fields":["name","brand","{amenity/charging_station}"],"tags":{"amenity":"charging_station","brand:wikidata":"Q42717773"},"addTags":{"amenity":"charging_station","brand":"Ionity","brand:wikidata":"Q42717773"}},"amenity/cinema/cinemacity-2b5fb2":{"name":"Cinema City","locationSet":{"include":["bg","cz","hu","pl","ro","sk"]},"geometry":["point","area"],"matchScore":2,"terms":["cinema city"],"fields":["name","brand","{amenity/cinema}"],"tags":{"amenity":"cinema","brand:wikidata":"Q543651"},"addTags":{"amenity":"cinema","brand":"Cinema City","brand:wikidata":"Q543651","name":"Cinema City"}},"amenity/cinema/cinemax-396cc7":{"name":"Cinemax","locationSet":{"include":["ro","sk"]},"geometry":["point","area"],"matchScore":2,"terms":["cinemax"],"fields":["name","brand","{amenity/cinema}"],"tags":{"amenity":"cinema","brand:wikidata":"Q93129643"},"addTags":{"amenity":"cinema","brand":"Cinemax","brand:wikidata":"Q93129643","name":"Cinemax"}},"amenity/cinema/cineplexx-8f1bb5":{"name":"Cineplexx","locationSet":{"include":["al","at","ba","gr","hr","it","me","mk","ro","rs","si","xk"]},"geometry":["point","area"],"matchScore":2,"terms":["cineplexx"],"fields":["name","brand","{amenity/cinema}"],"tags":{"amenity":"cinema","brand:wikidata":"Q873340"},"addTags":{"amenity":"cinema","brand":"Cineplexx","brand:wikidata":"Q873340","name":"Cineplexx"}},"amenity/fast_food/nordsee-da5f5f":{"name":"Nordsee","locationSet":{"include":["at","ch","cz","de","hu","ro","sk"]},"geometry":["point","area"],"matchScore":2,"terms":["nordsee"],"tags":{"amenity":"fast_food","brand:wikidata":"Q74866"},"addTags":{"amenity":"fast_food","brand":"Nordsee","brand:wikidata":"Q74866","cuisine":"seafood","name":"Nordsee","takeaway":"yes"}},"amenity/fast_food/oakberryacaibowls-5bb50d":{"name":"Oakberry Açaí bowls","locationSet":{"include":["ae","at","au","be","bh","br","ca","ch","cl","co","cy","de","dk","ec","ee","es","fr","gb","gr","hr","ie","il","it","mt","mx","nl","pe","pl","pt","py","qa","ro","sa","si","th","us"]},"geometry":["point","area"],"matchScore":2,"terms":["oakberry açaí bowls"],"tags":{"amenity":"fast_food","brand:wikidata":"Q104870840"},"addTags":{"amenity":"fast_food","brand":"Oakberry Açaí bowls","brand:wikidata":"Q104870840","cuisine":"açaí","name":"Oakberry Açaí bowls","takeaway":"yes"}},"amenity/fuel/as24-3463db":{"name":"AS 24","locationSet":{"include":["at","be","bg","cz","de","dk","es","fr","gb","ge","gr","hr","hu","ie","it","lt","lu","mk","nl","pl","pt","ro","rs","se","si","sk","ua"]},"geometry":["point","area"],"matchScore":2,"terms":["as 24"],"fields":["name","brand","{amenity/fuel}"],"tags":{"amenity":"fuel","brand:wikidata":"Q2819394"},"addTags":{"amenity":"fuel","brand":"AS 24","brand:wikidata":"Q2819394","hgv":"only","name":"AS 24"}},"amenity/fuel/auchan-fcb99f":{"name":"Auchan","locationSet":{"include":["al","ad","ba","hr","gi","gr","va","it","mt","me","mk","pt","sm","rs","si","es","xk","by","bg","cz","hu","pl","md","ro","ru","sk","ua","at","be","fr","de","li","lu","mc","nl","ch"]},"geometry":["point","area"],"matchScore":2,"terms":["auchan"],"fields":["name","brand","{amenity/fuel}"],"tags":{"amenity":"fuel","brand:wikidata":"Q758603"},"addTags":{"amenity":"fuel","brand":"Auchan","brand:wikidata":"Q758603","name":"Auchan"}},"amenity/fuel/gazprom-a10c9b":{"name":"Gazprom","locationSet":{"include":["ba","ro"]},"geometry":["point","area"],"matchScore":2,"terms":["gazprom"],"fields":["name","brand","{amenity/fuel}"],"tags":{"amenity":"fuel","brand:wikidata":"Q102673"},"addTags":{"amenity":"fuel","brand":"Gazprom","brand:wikidata":"Q102673","name":"Gazprom"}},"amenity/fuel/petrom-871b5c":{"name":"Petrom (MD & RO)","locationSet":{"include":["md","ro"]},"geometry":["point","area"],"matchScore":2,"terms":["petrom"],"fields":["name","brand","{amenity/fuel}"],"tags":{"amenity":"fuel","brand:wikidata":"Q1755034"},"addTags":{"amenity":"fuel","brand":"Petrom","brand:wikidata":"Q1755034","name":"Petrom"}},"amenity/fuel/rompetrol-871b5c":{"name":"Rompetrol","locationSet":{"include":["md","ro"]},"geometry":["point","area"],"matchScore":2,"terms":["rompetrol"],"fields":["name","brand","{amenity/fuel}"],"tags":{"amenity":"fuel","brand:wikidata":"Q1788862"},"addTags":{"amenity":"fuel","brand":"Rompetrol","brand:wikidata":"Q1788862","name":"Rompetrol"}},"amenity/fuel/socar-619b60":{"name":"SOCAR","locationSet":{"include":["at","az","ch","li","ro","tr","ua"]},"geometry":["point","area"],"matchScore":2,"terms":["socar"],"fields":["name","brand","{amenity/fuel}"],"tags":{"amenity":"fuel","brand:wikidata":"Q1622293"},"addTags":{"amenity":"fuel","brand":"SOCAR","brand:wikidata":"Q1622293","name":"SOCAR"}},"amenity/parcel_locker/dpdpickupstation-63abf7":{"name":"DPD Pickup Station","locationSet":{"include":["ar","at","be","by","ch","cn","cz","de","ee","fr","gb","hr","hu","ie","kz","lt","lu","lv","nl","pl","pt","ro","ru","si","sk","za"]},"geometry":["point","vertex","area"],"matchScore":2,"terms":["dpd","dpd pickup station"],"fields":["name","brand","{amenity/parcel_locker}"],"reference":{"key":"amenity","value":"parcel_locker"},"tags":{"amenity":"parcel_locker","brand:wikidata":"Q114273730"},"addTags":{"amenity":"parcel_locker","brand":"DPD Pickup Station","brand:wikidata":"Q114273730","operator":"DPD","operator:wikidata":"Q541030","parcel_pickup":"yes"}},"amenity/parcel_locker/easybox-cd92a3":{"name":"easybox","locationSet":{"include":["bg","hu","ro"]},"geometry":["point","vertex","area"],"matchScore":2,"terms":["easybox","sameday"],"fields":["name","brand","{amenity/parcel_locker}"],"reference":{"key":"amenity","value":"parcel_locker"},"tags":{"amenity":"parcel_locker","brand:wikidata":"Q114496224"},"addTags":{"amenity":"parcel_locker","brand":"easybox","brand:wikidata":"Q114496224","operator":"Sameday","operator:wikidata":"Q114417096"}},"amenity/parcel_locker/fanbox-ba4d23":{"name":"FANbox","locationSet":{"include":["ro"]},"geometry":["point","vertex","area"],"matchScore":2,"terms":["fanbox"],"fields":["name","brand","{amenity/parcel_locker}"],"reference":{"key":"amenity","value":"parcel_locker"},"tags":{"amenity":"parcel_locker","brand:wikidata":"Q115351090"},"addTags":{"amenity":"parcel_locker","brand":"FANbox","brand:wikidata":"Q115351090","name":"FANbox"}},"amenity/parcel_locker/zbox-5a86e9":{"name":"Packeta","locationSet":{"include":["by","bg","cz","hu","pl","md","ro","ru","sk","ua","ax","gg","je","cq","dk","ee","fo","fi","is","ie","im","lv","lt","no","sj","se","gb","al","ad","ba","hr","gi","gr","va","it","mt","me","mk","pt","sm","rs","si","es","xk","at","be","fr","de","li","lu","mc","nl","ch"]},"geometry":["point","vertex","area"],"matchScore":2,"terms":["packeta"],"fields":["name","brand","{amenity/parcel_locker}"],"reference":{"key":"amenity","value":"parcel_locker"},"tags":{"amenity":"parcel_locker","brand:wikidata":"Q67809905"},"addTags":{"amenity":"parcel_locker","brand":"Packeta","brand:wikidata":"Q67809905","name":"Z-Box"}},"amenity/parcel_locker/cargusshipandgo-ba4d23":{"name":"Ship & Go","locationSet":{"include":["ro"]},"geometry":["point","vertex","area"],"matchScore":2,"terms":["cargus","ship & go"],"fields":["name","brand","{amenity/parcel_locker}"],"reference":{"key":"amenity","value":"parcel_locker"},"tags":{"amenity":"parcel_locker","brand:wikidata":"Q117327750"},"addTags":{"amenity":"parcel_locker","brand":"Ship & Go","brand:wikidata":"Q117327750","name":"Cargus Ship & Go","operator":"Cargus","operator:wikidata":"Q12723442"}},"amenity/pharmacy/catena-8861f5":{"name":"Catena","locationSet":{"include":["ro"]},"geometry":["point","area"],"matchScore":2,"terms":["catena"],"reference":{"key":"amenity","value":"pharmacy"},"tags":{"amenity":"pharmacy","brand:wikidata":"Q24035728"},"addTags":{"amenity":"pharmacy","brand":"Catena","brand:wikidata":"Q24035728","healthcare":"pharmacy","name":"Catena"}},"amenity/pharmacy/drmax-d40f7b":{"name":"Dr. Max","locationSet":{"include":["cz","it","pl","ro","rs","sk"]},"geometry":["point","area"],"matchScore":2,"terms":["dr. max","sensiblu"],"reference":{"key":"amenity","value":"pharmacy"},"tags":{"amenity":"pharmacy","brand:wikidata":"Q56317371"},"addTags":{"amenity":"pharmacy","brand":"Dr. Max","brand:wikidata":"Q56317371","healthcare":"pharmacy","name":"Dr. Max"}},"amenity/pharmacy/evofarm-8861f5":{"name":"EvoFarm","locationSet":{"include":["ro"]},"geometry":["point","area"],"matchScore":2,"terms":["evofarm"],"reference":{"key":"amenity","value":"pharmacy"},"tags":{"amenity":"pharmacy","brand:wikidata":"Q114647927"},"addTags":{"amenity":"pharmacy","brand":"EvoFarm","brand:wikidata":"Q114647927","healthcare":"pharmacy","name":"EvoFarm"}},"amenity/pharmacy/farmaciadona-8861f5":{"name":"Farmacia Dona","locationSet":{"include":["ro"]},"geometry":["point","area"],"matchScore":2,"terms":["dona","farmacia dona"],"reference":{"key":"amenity","value":"pharmacy"},"tags":{"amenity":"pharmacy","brand:wikidata":"Q12726919"},"addTags":{"amenity":"pharmacy","brand":"Farmacia Dona","brand:wikidata":"Q12726919","healthcare":"pharmacy","name":"Farmacia Dona"}},"amenity/pharmacy/helpnet-8861f5":{"name":"Help Net","locationSet":{"include":["ro"]},"geometry":["point","area"],"matchScore":2,"terms":["help net"],"reference":{"key":"amenity","value":"pharmacy"},"tags":{"amenity":"pharmacy","brand:wikidata":"Q12729923"},"addTags":{"amenity":"pharmacy","brand":"Help Net","brand:wikidata":"Q12729923","healthcare":"pharmacy","name":"Help Net"}},"amenity/restaurant/japanese/benihana-934c20":{"name":"Benihana","locationSet":{"include":["aw","br","ca","eg","gb","id","kw","lb","mx","pa","qa","ro","sa","sv","us"]},"geometry":["point","area"],"matchScore":2,"terms":["benihana","benihana of tokyo"],"reference":{"key":"cuisine","value":"japanese"},"tags":{"amenity":"restaurant","brand:wikidata":"Q4887996","cuisine":"japanese;teppanyaki;steak"},"addTags":{"amenity":"restaurant","brand":"Benihana","brand:wikidata":"Q4887996","cuisine":"japanese;teppanyaki;steak","name":"Benihana"}},"amenity/school/maplebear-101006":{"name":"Maple Bear","locationSet":{"include":["ae","al","ar","au","bd","bg","br","ca","gt","hk","hr","in","ke","kr","lk","ma","mx","my","np","om","pe","ph","py","ro","rs","sg","th","tk","ua","us","vn"]},"geometry":["area","point"],"matchScore":2,"terms":["maple bear"],"fields":["name","brand","{amenity/school}"],"tags":{"amenity":"school","brand:wikidata":"Q10324823"},"addTags":{"amenity":"school","brand":"Maple Bear","brand:wikidata":"Q10324823","name":"Maple Bear","operator:type":"private"}},"amenity/social_centre/ahepahall-30ca27":{"name":"AHEPA Hall","locationSet":{"include":["by","bg","cz","hu","pl","md","ro","ru","sk","ua","ax","gg","je","cq","dk","ee","fo","fi","is","ie","im","lv","lt","no","sj","se","gb","al","ad","ba","hr","gi","gr","va","it","mt","me","mk","pt","sm","rs","si","es","xk","at","be","fr","de","li","lu","mc","nl","ch","au","ca","cy","us"],"exclude":["ru"]},"geometry":["point","area"],"matchScore":2,"terms":["ahepa","american hellenic educational progressive association","the order of ahepa"],"fields":["name","brand","{amenity/social_centre}"],"tags":{"amenity":"social_centre","brand:wikidata":"Q4743973"},"addTags":{"amenity":"social_centre","brand":"AHEPA","brand:wikidata":"Q4743973","name":"AHEPA Hall"}},"amenity/vending_machine/bicycle_tube/continental-123edb":{"name":"Continental","locationSet":{"include":["by","bg","cz","hu","pl","md","ro","ru","sk","ua","ax","gg","je","cq","dk","ee","fo","fi","is","ie","im","lv","lt","no","sj","se","gb","al","ad","ba","hr","gi","gr","va","it","mt","me","mk","pt","sm","rs","si","es","xk","at","be","fr","de","li","lu","mc","nl","ch"]},"geometry":["point","vertex"],"matchScore":2,"terms":["continental"],"reference":{"key":"vending","value":"bicycle_tube"},"tags":{"amenity":"vending_machine","brand:wikidata":"Q64739247","vending":"bicycle_tube"},"addTags":{"amenity":"vending_machine","brand":"Continental","brand:wikidata":"Q64739247","vending":"bicycle_tube"}},"amenity/vending_machine/bicycle_tube/schwalbe-123edb":{"name":"Schwalbe","locationSet":{"include":["by","bg","cz","hu","pl","md","ro","ru","sk","ua","ax","gg","je","cq","dk","ee","fo","fi","is","ie","im","lv","lt","no","sj","se","gb","al","ad","ba","hr","gi","gr","va","it","mt","me","mk","pt","sm","rs","si","es","xk","at","be","fr","de","li","lu","mc","nl","ch"]},"geometry":["point","vertex"],"matchScore":2,"terms":["schwalbe"],"reference":{"key":"vending","value":"bicycle_tube"},"tags":{"amenity":"vending_machine","brand:wikidata":"Q1312213","vending":"bicycle_tube"},"addTags":{"amenity":"vending_machine","brand":"Schwalbe","brand:wikidata":"Q1312213","vending":"bicycle_tube"}},"healthcare/laboratory/synevo-80efe5":{"name":"Synevo (România)","locationSet":{"include":["ro"]},"geometry":["point","area"],"matchScore":2,"terms":["synevo"],"tags":{"brand:wikidata":"Q85968400","healthcare":"laboratory"},"addTags":{"brand":"Synevo","brand:wikidata":"Q85968400","healthcare":"laboratory","name":"Synevo"}},"healthcare/sample_collection/clinicasante-9f4d9c":{"name":"Clinica Sante","locationSet":{"include":["ro","ua"]},"geometry":["point","area"],"matchScore":2,"terms":["clinica sante","sante"],"tags":{"brand:wikidata":"Q121080834","healthcare":"sample_collection"},"addTags":{"brand":"Clinica Sante","brand:wikidata":"Q121080834","healthcare":"sample_collection","name":"Clinica Sante"}},"leisure/fitness_centre/fitinn-48d938":{"name":"FITINN","locationSet":{"include":["by","bg","cz","hu","pl","md","ro","ru","sk","ua","ax","gg","je","cq","dk","ee","fo","fi","is","ie","im","lv","lt","no","sj","se","gb","al","ad","ba","hr","gi","gr","va","it","mt","me","mk","pt","sm","rs","si","es","xk","at","be","fr","de","li","lu","mc","nl","ch"]},"geometry":["point","area"],"matchScore":2,"terms":["fitinn"],"tags":{"brand:wikidata":"Q1245564","leisure":"fitness_centre"},"addTags":{"brand":"FITINN","brand:wikidata":"Q1245564","leisure":"fitness_centre","name":"FITINN"}},"leisure/fitness_centre/holmesplace-901199":{"name":"Holmes Place","locationSet":{"include":["by","bg","cz","hu","pl","md","ro","ru","sk","ua","ax","gg","je","cq","dk","ee","fo","fi","is","ie","im","lv","lt","no","sj","se","gb","al","ad","ba","hr","gi","gr","va","it","mt","me","mk","pt","sm","rs","si","es","xk","at","be","fr","de","li","lu","mc","nl","ch","il"]},"geometry":["point","area"],"matchScore":2,"terms":["holmes place"],"tags":{"brand:wikidata":"Q15815819","leisure":"fitness_centre"},"addTags":{"brand":"Holmes Place","brand:wikidata":"Q15815819","leisure":"fitness_centre","name":"Holmes Place"}},"leisure/fitness_centre/worldclass-fa50b9":{"name":"World Class (România)","locationSet":{"include":["ro"]},"geometry":["point","area"],"matchScore":2,"terms":["world class"],"tags":{"brand:wikidata":"Q102350621","leisure":"fitness_centre"},"addTags":{"brand":"World Class","brand:wikidata":"Q102350621","leisure":"fitness_centre","name":"World Class"}},"man_made/charge_point/ionity-97d83d":{"name":"Ionity","locationSet":{"include":["by","bg","cz","hu","pl","md","ro","ru","sk","ua","ax","gg","je","cq","dk","ee","fo","fi","is","ie","im","lv","lt","no","sj","se","gb","al","ad","ba","hr","gi","gr","va","it","mt","me","mk","pt","sm","rs","si","es","xk","at","be","fr","de","li","lu","mc","nl","ch"]},"geometry":["point"],"matchScore":2,"terms":["ionity","ionity gmbh"],"fields":["name","brand","{man_made/charge_point}"],"tags":{"brand:wikidata":"Q42717773","man_made":"charge_point"},"addTags":{"brand":"Ionity","brand:wikidata":"Q42717773","man_made":"charge_point"}},"office/consulting/ecovis-10b2fd":{"name":"Ecovis International","locationSet":{"include":["by","bg","cz","hu","pl","md","ro","ru","sk","ua","ax","gg","je","cq","dk","ee","fo","fi","is","ie","im","lv","lt","no","sj","se","gb","al","ad","ba","hr","gi","gr","va","it","mt","me","mk","pt","sm","rs","si","es","xk","at","be","fr","de","li","lu","mc","nl","ch","tr"]},"geometry":["point","area"],"matchScore":2,"terms":["ecovis international"],"tags":{"brand:wikidata":"Q65509562","office":"consulting"},"addTags":{"brand":"Ecovis International","brand:wikidata":"Q65509562","name":"Ecovis","office":"consulting"}},"office/employment_agency/randstad-f7dc26":{"name":"Randstad","locationSet":{"include":["ad","at","au","be","ca","ch","cn","cz","de","dk","es","fr","gb","gr","hk","hu","ie","in","it","jp","lu","mc","mx","my","nl","no","nz","pl","pt","ro","se","sg","sy","tk","us"]},"geometry":["point","area"],"matchScore":2,"terms":["randstad"],"tags":{"brand:wikidata":"Q267840","office":"employment_agency"},"addTags":{"brand":"Randstad","brand:wikidata":"Q267840","name":"Randstad","office":"employment_agency"}},"office/estate_agent/vonpollrealestate-c99072":{"name":"von Poll Real Estate","locationSet":{"include":["by","bg","cz","hu","pl","md","ro","ru","sk","ua","ax","gg","je","cq","dk","ee","fo","fi","is","ie","im","lv","lt","no","sj","se","gb","al","ad","ba","hr","gi","gr","va","it","mt","me","mk","pt","sm","rs","si","es","xk","at","be","fr","de","li","lu","mc","nl","ch"],"exclude":["at","de"]},"geometry":["point","area"],"matchScore":2,"terms":["von poll immobilien","von poll real estate","vonpoll","vonpoll commercial"],"tags":{"brand:wikidata":"Q96026696","office":"estate_agent"},"addTags":{"brand":"von Poll Real Estate","brand:wikidata":"Q96026696","name":"von Poll Real Estate","office":"estate_agent"}},"office/insurance/allianz-332499":{"name":"Allianz","locationSet":{"include":["ae","ar","at","au","be","bg","bh","bm","bn","br","ca","cg","ch","ci","cm","cn","co","cy","cz","de","dk","ee","eg","es","fi","fr","gb","gf","gg","gh","gp","gr","hk","hr","hu","id","ie","in","is","it","ja","ke","kr","kw","la","li","lk","lt","lu","lv","ma","mg","mx","my","ng","nl","no","nz","om","ph","pk","pl","pt","qa","ro","ru","sa","se","sg","si","sk","sn","th","tr","tw","ua","us","za"]},"geometry":["point","area"],"matchScore":2,"terms":["allianz","allianz versicherung"],"fields":["name","brand","{office/insurance}"],"tags":{"brand:wikidata":"Q487292","office":"insurance"},"addTags":{"brand":"Allianz","brand:wikidata":"Q487292","name":"Allianz","office":"insurance"}},"office/insurance/generali-cb13d1":{"name":"Generali","locationSet":{"include":["ar","at","bg","br","ch","cl","cn","cz","de","es","fr","gr","hr","hu","id","in","it","me","my","ph","pl","pt","ro","rs","si","sk","tr","vn"]},"geometry":["point","area"],"matchScore":2,"terms":["generali","generali españa"],"fields":["name","brand","{office/insurance}"],"tags":{"brand:wikidata":"Q670482","office":"insurance"},"addTags":{"brand":"Generali","brand:wikidata":"Q670482","name":"Generali","office":"insurance"}},"office/insurance/grawe-49851b":{"name":"Grawe","locationSet":{"include":["at","ba","bg","cy","hr","hu","md","me","mk","ro","rs","si","ua"]},"geometry":["point","area"],"matchScore":2,"terms":["grawe","grazer wechselseitige","grazer wechselseitige versicherung ag"],"fields":["name","brand","{office/insurance}"],"tags":{"brand:wikidata":"Q877006","office":"insurance"},"addTags":{"brand":"Grawe","brand:wikidata":"Q877006","name":"Grawe","office":"insurance"}},"office/insurance/groupama-bb2387":{"name":"Groupama","locationSet":{"include":["bg","cn","fr","gr","hu","it","ro","sk","tr"]},"geometry":["point","area"],"matchScore":2,"terms":["groupama","groupe des assurances mutuelles agricoles"],"fields":["name","brand","{office/insurance}"],"tags":{"brand:wikidata":"Q3083531","office":"insurance"},"addTags":{"brand":"Groupama","brand:wikidata":"Q3083531","name":"Groupama","office":"insurance","official_name":"Groupe des Assurances Mutuelles Agricoles"}},"office/insurance/nn-336e34":{"name":"NN","locationSet":{"include":["by","bg","cz","hu","pl","md","ro","ru","sk","ua","ax","gg","je","cq","dk","ee","fo","fi","is","ie","im","lv","lt","no","sj","se","gb","al","ad","ba","hr","gi","gr","va","it","mt","me","mk","pt","sm","rs","si","es","xk","at","be","fr","de","li","lu","mc","nl","ch"]},"geometry":["point","area"],"matchScore":2,"terms":["nationale-nederlanden","nn"],"fields":["name","brand","{office/insurance}"],"tags":{"brand:wikidata":"Q1834291","office":"insurance"},"addTags":{"brand":"NN","brand:wikidata":"Q1834291","name":"NN","office":"insurance","official_name":"Nationale-Nederlanden"}},"office/insurance/uniqa-dc7360":{"name":"Uniqa","locationSet":{"include":["al","at","ba","bg","ch","cz","hr","hu","li","me","mk","pl","ro","rs","ru","sk","ua","xk"]},"geometry":["point","area"],"matchScore":2,"terms":["uniqa","uniqa asigurări"],"fields":["name","brand","{office/insurance}"],"tags":{"brand:wikidata":"Q1022419","office":"insurance"},"addTags":{"brand":"Uniqa","brand:wikidata":"Q1022419","name":"Uniqa","office":"insurance"}},"shop/baby_goods/suavinex-f3fd61":{"name":"Suavinex","locationSet":{"include":["ae","al","ao","au","be","ch","cl","cn","co","cr","cy","cz","do","dz","ec","es","fr","ge","gq","gr","hk","il","iq","ir","it","kr","lb","lu","me","mt","mx","my","nl","no","pa","pl","pt","ro","rs","ru","sa","sg","sk","tr","uy","vn"]},"geometry":["point","area"],"matchScore":2,"terms":["suavinex"],"tags":{"brand:wikidata":"Q122258837","shop":"baby_goods"},"addTags":{"brand":"Suavinex","brand:wikidata":"Q122258837","name":"Suavinex","shop":"baby_goods"}},"shop/bakery/fornetti-0c6f37":{"name":"Fornetti","locationSet":{"include":["bg","cz","hr","hu","md","pl","ro","sk","ua"]},"geometry":["point","area"],"matchScore":2,"terms":["fornetti"],"tags":{"brand:wikidata":"Q1003020","shop":"bakery"},"addTags":{"brand":"Fornetti","brand:wikidata":"Q1003020","name":"Fornetti","shop":"bakery"}},"shop/bakery/luca-fd5747":{"name":"Luca","locationSet":{"include":["ro"]},"geometry":["point","area"],"matchScore":2,"terms":["luca","simigeria luca"],"tags":{"brand:wikidata":"Q114647790","shop":"bakery"},"addTags":{"brand":"Luca","brand:wikidata":"Q114647790","name":"Luca","shop":"bakery"}},"shop/bakery/paul-652955":{"name":"Paul","locationSet":{"include":["ae","az","be","bh","by","ci","cy","cz","eg","es","fr","ga","gb","ge","gr","id","in","jo","jp","kw","kz","lb","lu","ma","mu","my","om","pa","ph","pl","pt","qa","ro","ru","sa","sg","th","tn","tw","ua","us","uz","vn","za"]},"geometry":["point","area"],"matchScore":2,"terms":["paul"],"tags":{"brand:wikidata":"Q3370417","shop":"bakery"},"addTags":{"brand":"Paul","brand:wikidata":"Q3370417","name":"Paul","shop":"bakery"}},"shop/bookmaker/fortuna-70887d":{"name":"Fortuna","locationSet":{"include":["cz","hr","pl","ro","sk"]},"geometry":["point","area"],"matchScore":2,"terms":["fortuna"],"tags":{"brand:wikidata":"Q25857973","shop":"bookmaker"},"addTags":{"brand":"Fortuna","brand:wikidata":"Q25857973","name":"Fortuna","shop":"bookmaker"}},"shop/bookmaker/stanleybet-dd4c95":{"name":"Stanleybet","locationSet":{"include":["it","ro"]},"geometry":["point","area"],"matchScore":2,"terms":["stanleybet"],"tags":{"brand:wikidata":"Q25466489","shop":"bookmaker"},"addTags":{"brand":"Stanleybet","brand:wikidata":"Q25466489","name":"Stanleybet","shop":"bookmaker"}},"shop/bookmaker/superbet-81d51d":{"name":"Superbet","locationSet":{"include":["pl","ro"]},"geometry":["point","area"],"matchScore":2,"terms":["superbet"],"tags":{"brand:wikidata":"Q61082636","shop":"bookmaker"},"addTags":{"brand":"Superbet","brand:wikidata":"Q61082636","name":"Superbet","shop":"bookmaker"}},"shop/books/carturesti-2e1569":{"name":"Cărturești","locationSet":{"include":["md","ro"]},"geometry":["point","area"],"matchScore":2,"terms":["cărturești"],"fields":["name","brand","{shop/books}"],"tags":{"brand:wikidata":"Q12726202","shop":"books"},"addTags":{"brand":"Cărturești","brand:wikidata":"Q12726202","name":"Cărturești","shop":"books"}},"shop/car/smart-b77732":{"name":"Smart","locationSet":{"include":["by","bg","cz","hu","pl","md","ro","ru","sk","ua","ax","gg","je","cq","dk","ee","fo","fi","is","ie","im","lv","lt","no","sj","se","gb","al","ad","ba","hr","gi","gr","va","it","mt","me","mk","pt","sm","rs","si","es","xk","at","be","fr","de","li","lu","mc","nl","ch","cn"]},"geometry":["point","area"],"matchScore":2,"terms":["smart"],"fields":["name","brand","{shop/car}"],"tags":{"brand:wikidata":"Q156490","shop":"car"},"addTags":{"brand":"Smart","brand:wikidata":"Q156490","name":"Smart","shop":"car"}},"shop/car_parts/intercars-a4b6c1":{"name":"Inter Cars","locationSet":{"include":["ba","bg","cz","ee","gr","hr","hu","it","la","lv","md","pl","ro","rs","si","sk","ua"]},"geometry":["point","area"],"matchScore":2,"terms":["inter cars"],"tags":{"brand:wikidata":"Q115922509","shop":"car_parts"},"addTags":{"brand":"Inter Cars","brand:wikidata":"Q115922509","name":"Inter Cars","shop":"car_parts"}},"shop/car_repair/norauto-388a61":{"name":"Norauto","locationSet":{"include":["ar","es","fr","hu","it","pl","pt","ro"]},"geometry":["point","area"],"matchScore":2,"terms":["norauto"],"fields":["name","brand","{shop/car_repair}"],"tags":{"brand:wikidata":"Q3317698","shop":"car_repair"},"addTags":{"brand":"Norauto","brand:wikidata":"Q3317698","name":"Norauto","shop":"car_repair"}},"shop/car_repair/premio-354273":{"name":"Premio","locationSet":{"include":["be","bg","ch","cz","de","hu","nl","pl","ro","ru","sk"]},"geometry":["point","area"],"matchScore":2,"terms":["premio"],"fields":["name","brand","{shop/car_repair}"],"tags":{"brand:wikidata":"Q100895958","shop":"car_repair"},"addTags":{"brand":"Premio","brand:wikidata":"Q100895958","name":"Premio","shop":"car_repair"}},"shop/chemist/dm-1281c9":{"name":"dm","locationSet":{"include":["at","ba","bg","cz","de","hr","hu","it","mk","pl","ro","rs","si","sk"]},"geometry":["point","area"],"matchScore":2,"terms":["dm","dm drogerie markt","dm-drogerie markt deutschland"],"tags":{"brand:wikidata":"Q266572","shop":"chemist"},"addTags":{"brand":"dm","brand:wikidata":"Q266572","name":"dm","shop":"chemist"}},"shop/clothes/bsbfashion-3443a7":{"name":"BSB Fashion","locationSet":{"include":["al","am","bg","cy","eg","gr","ro","xk"]},"geometry":["point","area"],"matchScore":2,"terms":["bsb","bsb fashion"],"tags":{"brand:wikidata":"Q12721399","shop":"clothes"},"addTags":{"brand":"BSB Fashion","brand:wikidata":"Q12721399","clothes":"women","name":"BSB Fashion","shop":"clothes"}},"shop/clothes/coccodrillo-571709":{"name":"Coccodrillo","locationSet":{"include":["at","bg","by","cz","de","ee","fi","hu","lt","lv","me","pl","ro","rs","ru","sk","ua"]},"geometry":["point","area"],"matchScore":2,"terms":["coccodrillo"],"tags":{"brand:wikidata":"Q9195224","shop":"clothes"},"addTags":{"brand":"Coccodrillo","brand:wikidata":"Q9195224","clothes":"children","name":"Coccodrillo","shop":"clothes"}},"shop/clothes/cropp-f09482":{"name":"Cropp","locationSet":{"include":["ba","bg","cz","ee","fi","hr","hu","kz","lt","lv","pl","ro","rs","ru","si","sk","ua"]},"geometry":["point","area"],"matchScore":2,"terms":["cropp"],"tags":{"brand:wikidata":"Q9196793","shop":"clothes"},"addTags":{"brand":"Cropp","brand:wikidata":"Q9196793","name":"Cropp","shop":"clothes"}},"shop/clothes/decimas-1443d3":{"name":"Decimas","locationSet":{"include":["es","fr","pl","pt","ro"]},"geometry":["point","area"],"matchScore":2,"terms":["decimas"],"tags":{"brand:wikidata":"Q107262020","shop":"clothes"},"addTags":{"brand":"Decimas","brand:wikidata":"Q107262020","clothes":"sports","name":"Decimas","shop":"clothes"}},"shop/clothes/gate-d52ff8":{"name":"Gate","locationSet":{"include":["cz","hu","pl","ro","sk"]},"geometry":["point","area"],"matchScore":2,"terms":["gate"],"tags":{"brand:wikidata":"Q93517084","shop":"clothes"},"addTags":{"brand":"Gate","brand:wikidata":"Q93517084","name":"Gate","shop":"clothes"}},"shop/clothes/house-f09482":{"name":"House","locationSet":{"include":["ba","bg","cz","ee","fi","hr","hu","kz","lt","lv","pl","ro","rs","ru","si","sk","ua"]},"geometry":["point","area"],"matchScore":2,"terms":["house"],"tags":{"brand:wikidata":"Q9294202","shop":"clothes"},"addTags":{"brand":"House","brand:wikidata":"Q9294202","name":"House","shop":"clothes"}},"shop/clothes/kik-323dff":{"name":"KiK","locationSet":{"include":["at","bg","cz","de","es","hr","hu","it","nl","pl","pt","ro","si","sk"]},"geometry":["point","area"],"matchScore":2,"terms":["kik"],"tags":{"brand:wikidata":"Q883965","shop":"clothes"},"addTags":{"brand":"KiK","brand:wikidata":"Q883965","name":"KiK","shop":"clothes"}},"shop/clothes/maje-ab7b56":{"name":"Maje","locationSet":{"include":["by","bg","cz","hu","pl","md","ro","ru","sk","ua","ax","gg","je","cq","dk","ee","fo","fi","is","ie","im","lv","lt","no","sj","se","gb","al","ad","ba","hr","gi","gr","va","it","mt","me","mk","pt","sm","rs","si","es","xk","at","be","fr","de","li","lu","mc","nl","ch","cn","sg","tw","us"]},"geometry":["point","area"],"matchScore":2,"terms":["maje"],"tags":{"brand:wikidata":"Q3280458","shop":"clothes"},"addTags":{"brand":"Maje","brand:wikidata":"Q3280458","clothes":"women","name":"Maje","shop":"clothes"}},"shop/clothes/mohito-710e25":{"name":"Mohito","locationSet":{"include":["ba","bg","cz","ee","fi","hu","kz","lt","lv","pl","ro","rs","ru","si","sk","ua"]},"geometry":["point","area"],"matchScore":2,"terms":["mohito"],"tags":{"brand:wikidata":"Q107410616","shop":"clothes"},"addTags":{"brand":"Mohito","brand:wikidata":"Q107410616","clothes":"women","name":"Mohito","shop":"clothes"}},"shop/clothes/pepco-9b55e7":{"name":"Pepco","locationSet":{"include":["at","bg","cz","de","ee","el","es","hr","hu","it","lt","lv","pl","pt","ro","rs","si","sk"]},"geometry":["point","area"],"matchScore":2,"terms":["pepco"],"tags":{"brand:wikidata":"Q11815580","shop":"clothes"},"addTags":{"brand":"Pepco","brand:wikidata":"Q11815580","name":"Pepco","shop":"clothes"}},"shop/clothes/soliver-fb408e":{"name":"s.Oliver","locationSet":{"include":["by","bg","cz","hu","pl","md","ro","ru","sk","ua","ax","gg","je","cq","dk","ee","fo","fi","is","ie","im","lv","lt","no","sj","se","gb","al","ad","ba","hr","gi","gr","va","it","mt","me","mk","pt","sm","rs","si","es","xk","at","be","fr","de","li","lu","mc","nl","ch","cn","in"]},"geometry":["point","area"],"matchScore":2,"terms":["s.oliver"],"tags":{"brand:wikidata":"Q265056","shop":"clothes"},"addTags":{"brand":"s.Oliver","brand:wikidata":"Q265056","name":"s.Oliver","shop":"clothes"}},"shop/clothes/takkofashion-972a80":{"name":"Takko Fashion","locationSet":{"include":["at","be","ch","cz","de","ee","fr","hr","hu","it","lt","nl","pl","ro","rs","si","sk"]},"geometry":["point","area"],"matchScore":2,"terms":["takko","takko fashion"],"tags":{"brand:wikidata":"Q1371302","shop":"clothes"},"addTags":{"brand":"Takko Fashion","brand:wikidata":"Q1371302","name":"Takko Fashion","shop":"clothes","short_name":"Takko"}},"shop/clothes/second_hand/textilehouse-86acc9":{"name":"TEXTILE house","locationSet":{"include":["at","ba","cz","hr","mk","pl","ro","rs","si","sk"]},"geometry":["point","area"],"matchScore":2,"terms":["textile house"],"tags":{"brand:wikidata":"Q77878002","second_hand":"only","shop":"clothes"},"addTags":{"brand":"TEXTILE house","brand:wikidata":"Q77878002","name":"TEXTILE house","second_hand":"only","shop":"clothes"}},"shop/clothes/weekday-b5590c":{"name":"Weekday","locationSet":{"include":["by","bg","cz","hu","pl","md","ro","ru","sk","ua","ax","gg","je","cq","dk","ee","fo","fi","is","ie","im","lv","lt","no","sj","se","gb","al","ad","ba","hr","gi","gr","va","it","mt","me","mk","pt","sm","rs","si","es","xk","at","be","fr","de","li","lu","mc","nl","ch"]},"geometry":["point","area"],"matchScore":2,"terms":["weekday"],"tags":{"brand:wikidata":"Q10719514","shop":"clothes"},"addTags":{"brand":"Weekday","brand:wikidata":"Q10719514","name":"Weekday","shop":"clothes"}},"shop/convenience/cba-a1e3fb":{"name":"CBA","locationSet":{"include":["bg","hu","ro","sk"]},"geometry":["point","area"],"matchScore":2,"terms":["cba"],"tags":{"brand:wikidata":"Q779845","shop":"convenience"},"addTags":{"brand":"CBA","brand:wikidata":"Q779845","name":"CBA","shop":"convenience"}},"shop/convenience/hei-6378da":{"name":"hei","locationSet":{"include":["bg","ge","md","ro"]},"geometry":["point","area"],"matchScore":2,"terms":["hei"],"tags":{"brand:wikidata":"Q1788862","shop":"convenience"},"addTags":{"brand":"hei","brand:wikidata":"Q1788862","name":"hei","shop":"convenience"}},"shop/convenience/ladoipasi-597303":{"name":"La Doi Pași","locationSet":{"include":["ro"]},"geometry":["point","area"],"matchScore":2,"terms":["la doi pași"],"tags":{"brand:wikidata":"Q18544132","shop":"convenience"},"addTags":{"brand":"La Doi Pași","brand:wikidata":"Q18544132","name":"La Doi Pași","shop":"convenience"}},"shop/convenience/molshop-32b19d":{"name":"MOL Shop","locationSet":{"include":["cz","hu","pl","ro","rs","si"]},"geometry":["point","area"],"matchScore":2,"terms":["mol shop"],"tags":{"brand:wikidata":"Q549181","shop":"convenience"},"addTags":{"brand":"MOL Shop","brand:wikidata":"Q549181","name":"MOL Shop","shop":"convenience"}},"shop/convenience/profigo-597303":{"name":"Profi Go","locationSet":{"include":["ro"]},"geometry":["point","area"],"matchScore":2,"terms":["profi"],"tags":{"brand:wikidata":"Q956664","shop":"convenience"},"addTags":{"brand":"Profi","brand:wikidata":"Q956664","name":"Profi Go","shop":"convenience"}},"shop/convenience/shopandgo-597303":{"name":"Shop&Go (Romania)","locationSet":{"include":["ro"]},"geometry":["point","area"],"matchScore":2,"terms":["mega image","shop&go"],"tags":{"brand:wikidata":"Q114644174","shop":"convenience"},"addTags":{"brand":"Shop&Go","brand:wikidata":"Q114644174","name":"Shop&Go","operator":"Mega Image","operator:wikidata":"Q6808085","shop":"convenience"}},"shop/convenience/viva-856fe1":{"name":"Viva","locationSet":{"include":["by","bg","cz","hu","pl","md","ro","ru","sk","ua","ax","gg","je","cq","dk","ee","fo","fi","is","ie","im","lv","lt","no","sj","se","gb","al","ad","ba","hr","gi","gr","va","it","mt","me","mk","pt","sm","rs","si","es","xk","at","be","fr","de","li","lu","mc","nl","ch"]},"geometry":["point","area"],"matchScore":2,"terms":["viva"],"tags":{"brand:wikidata":"Q168238","shop":"convenience"},"addTags":{"brand":"Viva","brand:wikidata":"Q168238","name":"Viva","shop":"convenience"}},"shop/doityourself/bricodepot-46eef0":{"name":"Brico Dépôt","locationSet":{"include":["es","fr","pt","ro"]},"geometry":["point","area"],"matchScore":2,"terms":["brico dépôt"],"tags":{"brand:wikidata":"Q2889702","shop":"doityourself"},"addTags":{"brand":"Brico Dépôt","brand:wikidata":"Q2889702","name":"Brico Dépôt","shop":"doityourself"}},"shop/doityourself/dedeman-8112dc":{"name":"Dedeman","locationSet":{"include":["ro"]},"geometry":["point","area"],"matchScore":2,"terms":["dedeman"],"tags":{"brand:wikidata":"Q5249762","shop":"doityourself"},"addTags":{"brand":"Dedeman","brand:wikidata":"Q5249762","name":"Dedeman","shop":"doityourself"}},"shop/doityourself/hornbach-92b1c1":{"name":"HORNBACH","locationSet":{"include":["at","ch","cz","de","lu","nl","ro","se","sk"]},"geometry":["point","area"],"matchScore":2,"terms":["hornbach"],"tags":{"brand:wikidata":"Q685926","shop":"doityourself"},"addTags":{"brand":"HORNBACH","brand:wikidata":"Q685926","name":"HORNBACH","shop":"doityourself"}},"shop/doityourself/praktiker-eb3505":{"name":"Praktiker","locationSet":{"include":["gr","hu","ro","tr"]},"geometry":["point","area"],"matchScore":2,"terms":["praktiker"],"tags":{"brand:wikidata":"Q680214","shop":"doityourself"},"addTags":{"brand":"Praktiker","brand:wikidata":"Q680214","name":"Praktiker","shop":"doityourself"}},"shop/electronics/altex-9c4b16":{"name":"Altex","locationSet":{"include":["ro"]},"geometry":["point","area"],"matchScore":2,"terms":["altex"],"tags":{"brand:wikidata":"Q2840436","shop":"electronics"},"addTags":{"brand":"Altex","brand:wikidata":"Q2840436","name":"Altex","shop":"electronics"}},"shop/electronics/flanco-9c4b16":{"name":"Flanco","locationSet":{"include":["ro"]},"geometry":["point","area"],"matchScore":2,"terms":["flanco"],"tags":{"brand:wikidata":"Q5457354","shop":"electronics"},"addTags":{"brand":"Flanco","brand:wikidata":"Q5457354","name":"Flanco","shop":"electronics"}},"shop/electronics/istyle-e9662e":{"name":"iStyle","locationSet":{"include":["bg","cz","hr","hu","mk","ro","rs","si","sk"]},"geometry":["point","area"],"matchScore":2,"terms":["istyle"],"tags":{"brand:wikidata":"Q58196745","shop":"electronics"},"addTags":{"brand":"iStyle","brand:wikidata":"Q58196745","name":"iStyle","shop":"electronics"}},"shop/flooring/diego-be714e":{"name":"Diego","locationSet":{"include":["cz","hu","ro","sk"]},"geometry":["point","area"],"matchScore":2,"terms":["diego"],"tags":{"brand:wikidata":"Q55639530","shop":"flooring"},"addTags":{"brand":"Diego","brand:wikidata":"Q55639530","name":"Diego","shop":"flooring"}},"shop/furniture/bolia-a18722":{"name":"Bolia","locationSet":{"include":["by","bg","cz","hu","pl","md","ro","ru","sk","ua","ax","gg","je","cq","dk","ee","fo","fi","is","ie","im","lv","lt","no","sj","se","gb","al","ad","ba","hr","gi","gr","va","it","mt","me","mk","pt","sm","rs","si","es","xk","at","be","fr","de","li","lu","mc","nl","ch"]},"geometry":["point","area"],"matchScore":2,"terms":["bolia"],"tags":{"brand:wikidata":"Q11961809","shop":"furniture"},"addTags":{"brand":"Bolia","brand:wikidata":"Q11961809","name":"Bolia","shop":"furniture"}},"shop/furniture/mobexpert-e892fd":{"name":"Mobexpert","locationSet":{"include":["ro"]},"geometry":["point","area"],"matchScore":2,"terms":["mobexpert"],"tags":{"brand:wikidata":"Q6886685","shop":"furniture"},"addTags":{"brand":"Mobexpert","brand:wikidata":"Q6886685","name":"Mobexpert","shop":"furniture"}},"shop/furniture/mobilavidenov-e892fd":{"name":"Mobila Videnov","locationSet":{"include":["ro"]},"geometry":["point","area"],"matchScore":2,"terms":["mobila videnov","videnov furniture"],"tags":{"brand:wikidata":"Q114133371","shop":"furniture"},"addTags":{"brand":"Mobila Videnov","brand:wikidata":"Q114133371","name":"Mobila Videnov","name:en":"Videnov Furniture","shop":"furniture"}},"shop/furniture/momax-a18722":{"name":"Mömax","locationSet":{"include":["by","bg","cz","hu","pl","md","ro","ru","sk","ua","ax","gg","je","cq","dk","ee","fo","fi","is","ie","im","lv","lt","no","sj","se","gb","al","ad","ba","hr","gi","gr","va","it","mt","me","mk","pt","sm","rs","si","es","xk","at","be","fr","de","li","lu","mc","nl","ch"]},"geometry":["point","area"],"matchScore":2,"terms":["mömax"],"tags":{"brand:wikidata":"Q56388481","shop":"furniture"},"addTags":{"brand":"Mömax","brand:wikidata":"Q56388481","name":"Mömax","shop":"furniture"}},"shop/furniture/xxxlutz-5acc6e":{"name":"XXXLutz","locationSet":{"include":["by","bg","cz","hu","pl","md","ro","ru","sk","ua","ax","gg","je","cq","dk","ee","fo","fi","is","ie","im","lv","lt","no","sj","se","gb","al","ad","ba","hr","gi","gr","va","it","mt","me","mk","pt","sm","rs","si","es","xk","at","be","fr","de","li","lu","mc","nl","ch"],"exclude":["bg"]},"geometry":["point","area"],"matchScore":2,"terms":["xxxlutz"],"tags":{"brand:wikidata":"Q70339467","shop":"furniture"},"addTags":{"brand":"XXXLutz","brand:wikidata":"Q70339467","name":"XXXLutz","shop":"furniture"}},"shop/interior_decoration/englishhome-bd3698":{"name":"English Home","locationSet":{"include":["ba","bg","ch","kw","ro","tr","ua"]},"geometry":["point","area"],"matchScore":2,"terms":["english home"],"tags":{"brand:wikidata":"Q106803513","shop":"interior_decoration"},"addTags":{"brand":"English Home","brand:wikidata":"Q106803513","name":"English Home","shop":"interior_decoration"}},"shop/kitchen/ixina-d089d8":{"name":"Ixina","locationSet":{"include":["ae","au","be","bf","bh","bj","ca","ci","cm","cn","cz","dz","ee","eg","fr","gh","hr","ke","kw","lu","ly","ma","mu","nl","pl","qa","ro","ru","sa","se","sn","tg","th","tn","vn"]},"geometry":["point","area"],"matchScore":2,"terms":["ixina"],"tags":{"brand:wikidata":"Q3156424","shop":"kitchen"},"addTags":{"brand":"Ixina","brand:wikidata":"Q3156424","name":"Ixina","shop":"kitchen"}},"shop/mobile_phone/telekom-22825c":{"name":"Telekom","locationSet":{"include":["hu","ro","si","sk"]},"geometry":["point","area"],"matchScore":2,"terms":["telekom","telekom shop"],"tags":{"brand:wikidata":"Q9396","shop":"mobile_phone"},"addTags":{"brand":"Telekom","brand:wikidata":"Q9396","name":"Telekom","shop":"mobile_phone"}},"shop/newsagent/inmedio-c2bbae":{"name":"inmedio","locationSet":{"include":["bg","hu","pl","ro"]},"geometry":["point","area"],"matchScore":2,"terms":["inmedio"],"tags":{"brand:wikidata":"Q108599411","shop":"newsagent"},"addTags":{"brand":"inmedio","brand:wikidata":"Q108599411","name":"inmedio","shop":"newsagent"}},"shop/optician/lensa-16fcad":{"name":"Lensa","locationSet":{"include":["ro"]},"geometry":["point","area"],"matchScore":2,"terms":["lensa"],"fields":["name","brand","{shop/optician}"],"tags":{"brand:wikidata":"Q120786451","shop":"optician"},"addTags":{"brand":"Lensa","brand:wikidata":"Q120786451","name":"Lensa","shop":"optician"}},"shop/optician/optiblu-16fcad":{"name":"OPTIblu","locationSet":{"include":["ro"]},"geometry":["point","area"],"matchScore":2,"terms":["optiblu"],"fields":["name","brand","{shop/optician}"],"tags":{"brand:wikidata":"Q12737209","shop":"optician"},"addTags":{"brand":"OPTIblu","brand:wikidata":"Q12737209","name":"OPTIblu","shop":"optician"}},"shop/optician/opticris-16fcad":{"name":"Opticris","locationSet":{"include":["ro"]},"geometry":["point","area"],"matchScore":2,"terms":["opticris"],"fields":["name","brand","{shop/optician}"],"tags":{"brand:wikidata":"Q12737205","shop":"optician"},"addTags":{"brand":"Opticris","brand:wikidata":"Q12737205","name":"Opticris","shop":"optician"}},"shop/optician/optiplaza-ac2de7":{"name":"Optiplaza","locationSet":{"include":["md","ro"]},"geometry":["point","area"],"matchScore":2,"terms":["optiplaza"],"fields":["name","brand","{shop/optician}"],"tags":{"brand:wikidata":"Q12737210","shop":"optician"},"addTags":{"brand":"Optiplaza","brand:wikidata":"Q12737210","name":"Optiplaza","shop":"optician"}},"shop/pastry/vatsak-96373c":{"name":"Vatsak","locationSet":{"include":["md","pl","ro","sk","ua"]},"geometry":["point","area"],"matchScore":2,"terms":["confectionery house vatsak","vatsak","vatsak confectionery house","вацак","кондитерський дім вацак"],"tags":{"brand:wikidata":"Q30966576","shop":"pastry"},"addTags":{"brand":"Vatsak","brand:wikidata":"Q30966576","name":"Vatsak","shop":"pastry"}},"shop/perfumery/douglas-4ed3c9":{"name":"Douglas","locationSet":{"include":["ad","at","be","bg","ch","cz","de","ee","es","hr","hu","it","lt","lv","nl","pl","pt","ro","si","sk"]},"geometry":["point","area"],"matchScore":2,"terms":["douglas"],"tags":{"brand:wikidata":"Q2052213","shop":"perfumery"},"addTags":{"brand":"Douglas","brand:wikidata":"Q2052213","name":"Douglas","shop":"perfumery"}},"shop/perfumery/equivalenza-59ad61":{"name":"Equivalenza","locationSet":{"include":["ad","ao","at","be","ca","cv","de","do","es","fr","gb","gr","gt","ie","it","mx","mz","nl","pe","pt","ro","tn"]},"geometry":["point","area"],"matchScore":2,"terms":["equivalenza"],"tags":{"brand:wikidata":"Q104649798","shop":"perfumery"},"addTags":{"brand":"Equivalenza","brand:wikidata":"Q104649798","name":"Equivalenza","shop":"perfumery"}},"shop/perfumery/marionnaud-40e2d5":{"name":"Marionnaud","locationSet":{"include":["at","ch","cz","es","fr","hu","it","ro","sk"]},"geometry":["point","area"],"matchScore":2,"terms":["marionnaud"],"tags":{"brand:wikidata":"Q1129073","shop":"perfumery"},"addTags":{"brand":"Marionnaud","brand:wikidata":"Q1129073","name":"Marionnaud","shop":"perfumery"}},"shop/pet/animax-67c127":{"name":"Animax","locationSet":{"include":["ro"]},"geometry":["point","area"],"matchScore":2,"terms":["animax"],"tags":{"brand:wikidata":"Q119440709","shop":"pet"},"addTags":{"brand":"Animax","brand:wikidata":"Q119440709","name":"Animax","shop":"pet"}},"shop/pet/fressnapf-254367":{"name":"Fressnapf","locationSet":{"include":["at","ch","de","hu","lu","ro"]},"geometry":["point","area"],"matchScore":2,"terms":["fressnapf","fressnapf deutschland"],"tags":{"brand:wikidata":"Q875796","shop":"pet"},"addTags":{"brand":"Fressnapf","brand:wikidata":"Q875796","name":"Fressnapf","shop":"pet"}},"shop/shoes/humanic-fbe642":{"name":"Humanic","locationSet":{"include":["at","bg","cz","de","hu","ro","si","sk"]},"geometry":["point","area"],"matchScore":2,"terms":["humanic"],"tags":{"brand:wikidata":"Q1636668","shop":"shoes"},"addTags":{"brand":"Humanic","brand:wikidata":"Q1636668","name":"Humanic","shop":"shoes"}},"shop/shoes/officeshoes-30afef":{"name":"Office Shoes","locationSet":{"include":["al","ba","cz","hr","hu","me","pl","ro","rs","si","sk"]},"geometry":["point","area"],"matchScore":2,"terms":["office shoes"],"tags":{"brand:wikidata":"Q93946123","shop":"shoes"},"addTags":{"brand":"Office Shoes","brand:wikidata":"Q93946123","name":"Office Shoes","shop":"shoes"}},"shop/shoes/sizeer-5db2a9":{"name":"Sizeer","locationSet":{"include":["at","bg","cz","de","ee","hr","hu","lt","lv","pl","ro","si","sk"]},"geometry":["point","area"],"matchScore":2,"terms":["sizeer"],"tags":{"brand:wikidata":"Q93982889","shop":"shoes"},"addTags":{"brand":"Sizeer","brand:wikidata":"Q93982889","name":"Sizeer","shop":"shoes"}},"shop/sports/4f-723a68":{"name":"4F","locationSet":{"include":["cz","de","lt","lv","ro","ru","sk","ua"]},"geometry":["point","area"],"matchScore":2,"terms":["4f"],"tags":{"brand:wikidata":"Q16525801","shop":"sports"},"addTags":{"brand":"4F","brand:wikidata":"Q16525801","name":"4F","shop":"sports"}},"shop/sports/hervis-38a747":{"name":"Hervis","locationSet":{"include":["at","cz","de","hr","hu","ro","si"]},"geometry":["point","area"],"matchScore":2,"terms":["hervis","hervis sport","hervis sports"],"tags":{"brand:wikidata":"Q1614816","shop":"sports"},"addTags":{"brand":"Hervis","brand:wikidata":"Q1614816","name":"Hervis","shop":"sports"}},"shop/sports/johnsonfitnessandwellness-57cfca":{"name":"Johnson Fitness & Wellness","locationSet":{"include":["au","br","ca","cn","cz","gb","gr","hk","it","jp","kr","mx","my","ro","th","tw","us","vn"]},"geometry":["point","area"],"matchScore":2,"terms":["johnson fitness & wellness","johnson fitness & wellness store"],"tags":{"brand:wikidata":"Q120785852","shop":"sports"},"addTags":{"brand":"Johnson Fitness & Wellness","brand:wikidata":"Q120785852","name":"Johnson Fitness & Wellness","shop":"sports"}},"shop/sports/sportvision-daf837":{"name":"Sport Vision","locationSet":{"include":["al","ba","bg","cz","gr","hr","hu","me","mk","ro","rs","si","sk"]},"geometry":["point","area"],"matchScore":2,"terms":["sport vision"],"tags":{"brand:wikidata":"Q116729857","shop":"sports"},"addTags":{"brand":"Sport Vision","brand:wikidata":"Q116729857","name":"Sport Vision","shop":"sports"}},"shop/sports/sportisimo-8183b2":{"name":"Sportisimo","locationSet":{"include":["bg","cz","hr","hu","ro","sk"]},"geometry":["point","area"],"matchScore":2,"terms":["sportisimo"],"tags":{"brand:wikidata":"Q54974273","shop":"sports"},"addTags":{"brand":"Sportisimo","brand:wikidata":"Q54974273","name":"Sportisimo","shop":"sports"}},"shop/supermarket/auchan-05ddc8":{"name":"Auchan","locationSet":{"include":["ci","cn","fr","hu","lu","mr","pl","pt","ro","sn"]},"geometry":["point","area"],"matchScore":2,"terms":["auchan"],"tags":{"brand:wikidata":"Q758603","shop":"supermarket"},"addTags":{"brand":"Auchan","brand:wikidata":"Q758603","name":"Auchan","shop":"supermarket"}},"shop/supermarket/cba-6e9bfc":{"name":"CBA","locationSet":{"include":["hu","ro","sk"]},"geometry":["point","area"],"matchScore":2,"terms":["cba"],"tags":{"brand:wikidata":"Q779845","shop":"supermarket"},"addTags":{"brand":"CBA","brand:wikidata":"Q779845","name":"CBA","shop":"supermarket"}},"shop/supermarket/cora-ea1ce5":{"name":"Cora","locationSet":{"include":["be","fr","lu","ro"]},"geometry":["point","area"],"matchScore":2,"terms":["cora"],"tags":{"brand:wikidata":"Q686643","shop":"supermarket"},"addTags":{"brand":"Cora","brand:wikidata":"Q686643","name":"Cora","shop":"supermarket"}},"shop/supermarket/eurospar-4b5e11":{"name":"Eurospar","locationSet":{"include":["by","bg","cz","hu","pl","md","ro","ru","sk","ua","ax","gg","je","cq","dk","ee","fo","fi","is","ie","im","lv","lt","no","sj","se","gb","al","ad","ba","hr","gi","gr","va","it","mt","me","mk","pt","sm","rs","si","es","xk","at","be","fr","de","li","lu","mc","nl","ch"]},"geometry":["point","area"],"matchScore":2,"terms":["eurospar"],"tags":{"brand:wikidata":"Q12309283","shop":"supermarket"},"addTags":{"brand":"Eurospar","brand:wikidata":"Q12309283","name":"Eurospar","shop":"supermarket"}},"shop/supermarket/kaufland-464a37":{"name":"Kaufland","locationSet":{"include":["cz","de","hr","md","pl","ro","sk"]},"geometry":["point","area"],"matchScore":2,"terms":["kaufland"],"tags":{"brand:wikidata":"Q685967","shop":"supermarket"},"addTags":{"brand":"Kaufland","brand:wikidata":"Q685967","name":"Kaufland","shop":"supermarket"}},"shop/supermarket/megaimage-62a473":{"name":"Mega Image","locationSet":{"include":["ro"]},"geometry":["point","area"],"matchScore":2,"terms":["mega image"],"tags":{"brand:wikidata":"Q6808085","shop":"supermarket"},"addTags":{"brand":"Mega Image","brand:wikidata":"Q6808085","name":"Mega Image","shop":"supermarket"}},"shop/supermarket/penny-55dfd6":{"name":"PENNY","locationSet":{"include":["at","cz","de","hu","it","ro"]},"geometry":["point","area"],"matchScore":2,"terms":["penny","penny market","penny markt"],"fields":["name","brand","{shop/supermarket}"],"tags":{"brand:wikidata":"Q284688","shop":"supermarket"},"addTags":{"brand":"PENNY","brand:wikidata":"Q284688","name":"PENNY","shop":"supermarket"}},"shop/supermarket/profi-8721fd":{"name":"Profi","locationSet":{"include":["be","hu","ro"]},"geometry":["point","area"],"matchScore":2,"terms":["profi"],"tags":{"brand:wikidata":"Q956664","shop":"supermarket"},"addTags":{"brand":"Profi","brand:wikidata":"Q956664","name":"Profi","shop":"supermarket"}},"shop/supermarket/proficity-62a473":{"name":"Profi City","locationSet":{"include":["ro"]},"geometry":["point","area"],"matchScore":2,"terms":["profi"],"tags":{"brand:wikidata":"Q956664","shop":"supermarket"},"addTags":{"brand":"Profi","brand:wikidata":"Q956664","name":"Profi City","shop":"supermarket"}},"shop/supermarket/profiloco-62a473":{"name":"Profi Loco","locationSet":{"include":["ro"]},"geometry":["point","area"],"matchScore":2,"terms":["profi"],"tags":{"brand:wikidata":"Q956664","shop":"supermarket"},"addTags":{"brand":"Profi","brand:wikidata":"Q956664","name":"Profi Loco","shop":"supermarket"}},"shop/supermarket/profisuper-62a473":{"name":"Profi Super","locationSet":{"include":["ro"]},"geometry":["point","area"],"matchScore":2,"terms":["profi"],"tags":{"brand:wikidata":"Q956664","shop":"supermarket"},"addTags":{"brand":"Profi","brand:wikidata":"Q956664","name":"Profi Super","shop":"supermarket"}},"shop/supermarket/supeco-62a473":{"name":"Supeco (România)","locationSet":{"include":["ro"]},"geometry":["point","area"],"matchScore":2,"terms":["supeco"],"tags":{"brand:wikidata":"Q110066889","shop":"supermarket"},"addTags":{"brand":"Supeco","brand:wikidata":"Q110066889","name":"Supeco","shop":"supermarket"}},"shop/tattoo/veantattoo-eea007":{"name":"VeAn Tattoo","locationSet":{"include":["by","bg","cz","hu","pl","md","ro","ru","sk","ua","ax","gg","je","cq","dk","ee","fo","fi","is","ie","im","lv","lt","no","sj","se","gb","al","ad","ba","hr","gi","gr","va","it","mt","me","mk","pt","sm","rs","si","es","xk","at","be","fr","de","li","lu","mc","nl","ch"]},"geometry":["point","area"],"matchScore":2,"terms":["vean tattoo"],"tags":{"brand:wikidata":"Q116871240","shop":"tattoo"},"addTags":{"brand":"VeAn Tattoo","brand:wikidata":"Q116871240","name":"VeAn Tattoo","shop":"tattoo"}},"shop/telecommunication/digi-9fbd0b":{"name":"Digi","locationSet":{"include":["ro"]},"geometry":["point","area"],"matchScore":2,"terms":["digi"],"tags":{"brand:wikidata":"Q224710","shop":"telecommunication"},"addTags":{"brand":"Digi","brand:wikidata":"Q224710","name":"Digi","shop":"telecommunication"}},"shop/toys/jumbo-f2bb45":{"name":"Jumbo","locationSet":{"include":["al","ba","cy","gr","md","me","mk","ro","rs","xk"]},"geometry":["point","area"],"matchScore":2,"terms":["jumbo"],"tags":{"brand:wikidata":"Q3562323","shop":"toys"},"addTags":{"brand":"Jumbo","brand:wikidata":"Q3562323","name":"Jumbo","shop":"toys"}},"shop/toys/noriel-ec9991":{"name":"Noriel","locationSet":{"include":["ro"]},"geometry":["point","area"],"matchScore":2,"terms":["noriel"],"tags":{"brand:wikidata":"Q18544426","shop":"toys"},"addTags":{"brand":"Noriel","brand:wikidata":"Q18544426","name":"Noriel","shop":"toys"}},"shop/toys/smyk-3d0b80":{"name":"Smyk","locationSet":{"include":["pl","ro","ua"]},"geometry":["point","area"],"matchScore":2,"terms":["smyk"],"tags":{"brand:wikidata":"Q2295606","shop":"toys"},"addTags":{"brand":"Smyk","brand:wikidata":"Q2295606","name":"Smyk","shop":"toys"}},"shop/trade/felbermayr-26d55f":{"name":"Felbermayr","locationSet":{"include":["at","ba","bg","cz","de","hr","hu","it","pl","ro","rs","sk"]},"geometry":["point","area"],"matchScore":2,"terms":["felbermayr"],"tags":{"brand:wikidata":"Q19687619","shop":"trade"},"addTags":{"brand":"Felbermayr","brand:wikidata":"Q19687619","name":"Felbermayr","shop":"trade","trade":"construction_equipment"}},"shop/variety_store/tedi-8a061e":{"name":"TEDi","locationSet":{"include":["at","bg","cz","de","es","gb","hr","hu","it","pl","pt","ro","si","sk"]},"geometry":["point","area"],"matchScore":2,"terms":["t\u20acdi","tedi"],"tags":{"brand:wikidata":"Q1364603","shop":"variety_store"},"addTags":{"brand":"TEDi","brand:wikidata":"Q1364603","name":"TEDi","shop":"variety_store"}},"shop/variety_store/topshop-f153f8":{"name":"Top Shop","locationSet":{"include":["al","ba","bg","cz","ee","hr","hu","lt","lv","md","me","mk","pl","ro","rs","si","sk","ua","xk"]},"geometry":["point","area"],"matchScore":2,"terms":["top shop"],"tags":{"brand:wikidata":"Q116919675","shop":"variety_store"},"addTags":{"brand":"Top Shop","brand:wikidata":"Q116919675","name":"Top Shop","shop":"variety_store"}},"shop/wholesale/metro-101fbc":{"name":"METRO","locationSet":{"include":["at","bg","de","fr","hr","hu","in","it","kz","md","pk","ro","rs","ru","sk","tr","ua"]},"geometry":["point","area"],"matchScore":2,"terms":["metro","metro cash & carry"],"tags":{"brand:wikidata":"Q13610282","shop":"wholesale"},"addTags":{"brand":"METRO","brand:wikidata":"Q13610282","name":"METRO","shop":"wholesale"}},"shop/wholesale/selgros-8ea7cd":{"name":"Selgros","locationSet":{"include":["de","pl","ro","ru"]},"geometry":["point","area"],"matchScore":2,"terms":["selgros","selgros cash & carry"],"tags":{"brand:wikidata":"Q473918","shop":"wholesale"},"addTags":{"brand":"Selgros","brand:wikidata":"Q473918","name":"Selgros","shop":"wholesale"}},"tourism/hotel/bandbhotel-fc8c2c":{"name":"B&B Hotel","locationSet":{"include":["by","bg","cz","hu","pl","md","ro","ru","sk","ua","ax","gg","je","cq","dk","ee","fo","fi","is","ie","im","lv","lt","no","sj","se","gb","al","ad","ba","hr","gi","gr","va","it","mt","me","mk","pt","sm","rs","si","es","xk","at","be","fr","de","li","lu","mc","nl","ch","br"]},"geometry":["point","area"],"matchScore":2,"terms":["b&b hotels"],"fields":["name","brand","{tourism/hotel}"],"tags":{"brand:wikidata":"Q794939","tourism":"hotel"},"addTags":{"brand":"B&B Hotels","brand:wikidata":"Q794939","name":"B&B Hotel","tourism":"hotel"}},"tourism/hotel/greet-046fe6":{"name":"greet","locationSet":{"include":["by","bg","cz","hu","pl","md","ro","ru","sk","ua","ax","gg","je","cq","dk","ee","fo","fi","is","ie","im","lv","lt","no","sj","se","gb","al","ad","ba","hr","gi","gr","va","it","mt","me","mk","pt","sm","rs","si","es","xk","at","be","fr","de","li","lu","mc","nl","ch"]},"geometry":["point","area"],"matchScore":2,"terms":["greet"],"fields":["name","brand","{tourism/hotel}"],"tags":{"brand:wikidata":"Q115489066","tourism":"hotel"},"addTags":{"brand":"greet","brand:wikidata":"Q115489066","name":"Greet","tourism":"hotel"}},"tourism/hotel/motelone-1fc1b4":{"name":"Motel One","locationSet":{"include":["by","bg","cz","hu","pl","md","ro","ru","sk","ua","ax","gg","je","cq","dk","ee","fo","fi","is","ie","im","lv","lt","no","sj","se","gb","al","ad","ba","hr","gi","gr","va","it","mt","me","mk","pt","sm","rs","si","es","xk","at","be","fr","de","li","lu","mc","nl","ch","us-ny"]},"geometry":["point","area"],"matchScore":2,"terms":["motel one"],"fields":["name","brand","{tourism/hotel}"],"tags":{"brand:wikidata":"Q391080","tourism":"hotel"},"addTags":{"brand":"Motel One","brand:wikidata":"Q391080","name":"Motel One","tourism":"hotel"}},"amenity/charging_station/eon-7f623e":{"name":"E.ON","locationSet":{"include":["by","bg","cz","hu","pl","md","ro","ru","sk","ua","ax","gg","je","cq","dk","ee","fo","fi","is","ie","im","lv","lt","no","sj","se","gb","al","ad","ba","hr","gi","gr","va","it","mt","me","mk","pt","sm","rs","si","es","xk","at","be","fr","de","li","lu","mc","nl","ch"]},"geometry":["point","vertex","area"],"matchScore":2,"terms":["e-on drive","e.on"],"fields":["name","operator","{amenity/charging_station}"],"tags":{"amenity":"charging_station","operator:wikidata":"Q270223"},"addTags":{"amenity":"charging_station","operator":"E.ON","operator:wikidata":"Q270223"}},"amenity/charging_station/enelx-bdf07e":{"name":"Enel X","locationSet":{"include":["cl","it","ro"]},"geometry":["point","vertex","area"],"matchScore":2,"terms":["enel x","enel x metbus"],"fields":["name","operator","{amenity/charging_station}"],"tags":{"amenity":"charging_station","operator:wikidata":"Q5376815"},"addTags":{"amenity":"charging_station","brand":"Enel X","brand:wikidata":"Q5376815","name":"Enel X","operator":"Enel X","operator:wikidata":"Q5376815"}},"amenity/charging_station/evbox-7f623e":{"name":"EVBox","locationSet":{"include":["by","bg","cz","hu","pl","md","ro","ru","sk","ua","ax","gg","je","cq","dk","ee","fo","fi","is","ie","im","lv","lt","no","sj","se","gb","al","ad","ba","hr","gi","gr","va","it","mt","me","mk","pt","sm","rs","si","es","xk","at","be","fr","de","li","lu","mc","nl","ch"]},"geometry":["point","vertex","area"],"matchScore":2,"terms":["evbox"],"fields":["name","operator","{amenity/charging_station}"],"tags":{"amenity":"charging_station","operator:wikidata":"Q28406392"},"addTags":{"amenity":"charging_station","operator":"EVBox","operator:wikidata":"Q28406392"}},"amenity/charging_station/qpark-7f623e":{"name":"Q-Park","locationSet":{"include":["by","bg","cz","hu","pl","md","ro","ru","sk","ua","ax","gg","je","cq","dk","ee","fo","fi","is","ie","im","lv","lt","no","sj","se","gb","al","ad","ba","hr","gi","gr","va","it","mt","me","mk","pt","sm","rs","si","es","xk","at","be","fr","de","li","lu","mc","nl","ch"]},"geometry":["point","vertex","area"],"matchScore":2,"terms":["q-park"],"fields":["name","operator","{amenity/charging_station}"],"tags":{"amenity":"charging_station","operator:wikidata":"Q1127798"},"addTags":{"amenity":"charging_station","operator":"Q-Park","operator:wikidata":"Q1127798"}},"amenity/charging_station/renovatioecharge-806f62":{"name":"Renovatio e-charge","locationSet":{"include":["ro"]},"geometry":["point","vertex","area"],"matchScore":2,"terms":["renovatio e-charge"],"fields":["name","operator","{amenity/charging_station}"],"tags":{"amenity":"charging_station","operator:wikidata":"Q115409077"},"addTags":{"amenity":"charging_station","operator":"Renovatio e-charge","operator:wikidata":"Q115409077"}},"amenity/charging_station/stpt-806f62":{"name":"STPT","locationSet":{"include":["ro"]},"geometry":["point","vertex","area"],"matchScore":2,"terms":["stpt"],"fields":["name","operator","{amenity/charging_station}"],"tags":{"amenity":"charging_station","operator:wikidata":"Q929687"},"addTags":{"amenity":"charging_station","operator":"STPT","operator:wikidata":"Q929687"}},"amenity/parking/interparking-119199":{"name":"Interparking","locationSet":{"include":["be","es","fr","it","nl","pl","ro"]},"geometry":["area","point","vertex"],"matchScore":2,"terms":["interparking"],"fields":["name","operator","{amenity/parking}"],"tags":{"amenity":"parking","operator:wikidata":"Q1895863"},"addTags":{"amenity":"parking","brand":"Interparking","brand:wikidata":"Q1895863","fee":"yes","name":"Interparking","operator":"Interparking","operator:wikidata":"Q1895863"}},"amenity/police/directiageneraladepolitieamunicipiuluibucuresti-f06bca":{"name":"Direcția Generală de Poliție a Municipiului București","locationSet":{"include":["ro"]},"geometry":["point","area"],"matchScore":2,"terms":["direcția generală de poliție a municipiului bucurești"],"tags":{"amenity":"police","operator:wikidata":"Q18539731"},"addTags":{"amenity":"police","operator":"Direcția Generală de Poliție a Municipiului București","operator:wikidata":"Q18539731"}},"amenity/post_box/cargus-746983":{"name":"Cargus","locationSet":{"include":["ro"]},"geometry":["point","vertex"],"matchScore":2,"terms":["cargus"],"tags":{"amenity":"post_box","operator:wikidata":"Q12723442"},"addTags":{"amenity":"post_box","operator":"Cargus","operator:wikidata":"Q12723442"}},"amenity/post_box/fancourier-746983":{"name":"Fancourier","locationSet":{"include":["ro"]},"geometry":["point","vertex"],"matchScore":2,"terms":["fancourier"],"tags":{"amenity":"post_box","operator:wikidata":"Q12727984"},"addTags":{"amenity":"post_box","operator":"Fancourier","operator:wikidata":"Q12727984"}},"amenity/post_box/postaromana-746983":{"name":"Poșta Română","locationSet":{"include":["ro"]},"geometry":["point","vertex"],"matchScore":2,"terms":["poșta română"],"tags":{"amenity":"post_box","operator:wikidata":"Q283175"},"addTags":{"amenity":"post_box","operator":"Poșta Română","operator:wikidata":"Q283175"}},"amenity/post_office/cargus-08dfb1":{"name":"Cargus","locationSet":{"include":["ro"]},"geometry":["point","area"],"matchScore":2,"terms":["cargus"],"fields":["name","operator","{amenity/post_office}"],"tags":{"amenity":"post_office","operator:wikidata":"Q12723442"},"addTags":{"amenity":"post_office","operator":"Cargus","operator:wikidata":"Q12723442"}},"amenity/post_office/fancourier-08dfb1":{"name":"Fancourier","locationSet":{"include":["ro"]},"geometry":["point","area"],"matchScore":2,"terms":["fancourier"],"fields":["name","operator","{amenity/post_office}"],"tags":{"amenity":"post_office","operator:wikidata":"Q12727984"},"addTags":{"amenity":"post_office","operator":"Fancourier","operator:wikidata":"Q12727984"}},"amenity/post_office/novapost-fa5273":{"name":"Nova Post","locationSet":{"include":["cz","de","ee","hu","it","lt","lv","pl","ro","sk"]},"geometry":["point","area"],"matchScore":2,"terms":["nova post"],"fields":["name","operator","{amenity/post_office}"],"tags":{"amenity":"post_office","operator:wikidata":"Q118613846"},"addTags":{"amenity":"post_office","operator":"Nova Post","operator:wikidata":"Q118613846"}},"amenity/post_office/postaromana-08dfb1":{"name":"Poșta Română","locationSet":{"include":["ro"]},"geometry":["point","area"],"matchScore":2,"terms":["poșta română"],"fields":["name","operator","{amenity/post_office}"],"tags":{"amenity":"post_office","operator:wikidata":"Q283175"},"addTags":{"amenity":"post_office","operator":"Poșta Română","operator:wikidata":"Q283175"}},"amenity/recycling/remondis-222d99":{"name":"REMONDIS","locationSet":{"include":["by","bg","cz","hu","pl","md","ro","ru","sk","ua","ax","gg","je","cq","dk","ee","fo","fi","is","ie","im","lv","lt","no","sj","se","gb","al","ad","ba","hr","gi","gr","va","it","mt","me","mk","pt","sm","rs","si","es","xk","at","be","fr","de","li","lu","mc","nl","ch"]},"geometry":["point","area"],"matchScore":2,"terms":["remondis"],"tags":{"amenity":"recycling","operator:wikidata":"Q884975"},"addTags":{"amenity":"recycling","operator":"REMONDIS","operator:wikidata":"Q884975"}},"amenity/telephone/romtelecom-273726":{"name":"Romtelecom","locationSet":{"include":["ro"]},"geometry":["point","vertex"],"matchScore":2,"terms":["romtelecom"],"fields":["name","operator","{amenity/telephone}"],"searchable":false,"tags":{"amenity":"telephone","operator:wikidata":"Q4118400"},"addTags":{"amenity":"telephone","operator":"Romtelecom","operator:wikidata":"Q4118400"}},"man_made/charge_point/eon-22bfb3":{"name":"E.ON","locationSet":{"include":["by","bg","cz","hu","pl","md","ro","ru","sk","ua","ax","gg","je","cq","dk","ee","fo","fi","is","ie","im","lv","lt","no","sj","se","gb","al","ad","ba","hr","gi","gr","va","it","mt","me","mk","pt","sm","rs","si","es","xk","at","be","fr","de","li","lu","mc","nl","ch"]},"geometry":["point"],"matchScore":2,"terms":["e-on drive","e.on"],"fields":["name","operator","{man_made/charge_point}"],"tags":{"man_made":"charge_point","operator:wikidata":"Q270223"},"addTags":{"man_made":"charge_point","operator":"E.ON","operator:wikidata":"Q270223"}},"man_made/charge_point/enelx-f8853a":{"name":"Enel X","locationSet":{"include":["cl","it","ro"]},"geometry":["point"],"matchScore":2,"terms":["enel x","enel x metbus"],"fields":["name","operator","{man_made/charge_point}"],"tags":{"man_made":"charge_point","operator:wikidata":"Q5376815"},"addTags":{"brand":"Enel X","brand:wikidata":"Q5376815","man_made":"charge_point","operator":"Enel X","operator:wikidata":"Q5376815"}},"man_made/charge_point/evbox-22bfb3":{"name":"EVBox","locationSet":{"include":["by","bg","cz","hu","pl","md","ro","ru","sk","ua","ax","gg","je","cq","dk","ee","fo","fi","is","ie","im","lv","lt","no","sj","se","gb","al","ad","ba","hr","gi","gr","va","it","mt","me","mk","pt","sm","rs","si","es","xk","at","be","fr","de","li","lu","mc","nl","ch"]},"geometry":["point"],"matchScore":2,"terms":["evbox"],"fields":["name","operator","{man_made/charge_point}"],"tags":{"man_made":"charge_point","operator:wikidata":"Q28406392"},"addTags":{"man_made":"charge_point","operator":"EVBox","operator:wikidata":"Q28406392"}},"man_made/charge_point/qpark-22bfb3":{"name":"Q-Park","locationSet":{"include":["by","bg","cz","hu","pl","md","ro","ru","sk","ua","ax","gg","je","cq","dk","ee","fo","fi","is","ie","im","lv","lt","no","sj","se","gb","al","ad","ba","hr","gi","gr","va","it","mt","me","mk","pt","sm","rs","si","es","xk","at","be","fr","de","li","lu","mc","nl","ch"]},"geometry":["point"],"matchScore":2,"terms":["q-park"],"fields":["name","operator","{man_made/charge_point}"],"tags":{"man_made":"charge_point","operator:wikidata":"Q1127798"},"addTags":{"man_made":"charge_point","operator":"Q-Park","operator:wikidata":"Q1127798"}},"man_made/charge_point/renovatioecharge-2ef00a":{"name":"Renovatio e-charge","locationSet":{"include":["ro"]},"geometry":["point"],"matchScore":2,"terms":["renovatio e-charge"],"fields":["name","operator","{man_made/charge_point}"],"tags":{"man_made":"charge_point","operator:wikidata":"Q115409077"},"addTags":{"man_made":"charge_point","operator":"Renovatio e-charge","operator:wikidata":"Q115409077"}},"man_made/charge_point/stpt-2ef00a":{"name":"STPT","locationSet":{"include":["ro"]},"geometry":["point"],"matchScore":2,"terms":["stpt"],"fields":["name","operator","{man_made/charge_point}"],"tags":{"man_made":"charge_point","operator:wikidata":"Q929687"},"addTags":{"man_made":"charge_point","operator":"STPT","operator:wikidata":"Q929687"}},"man_made/mast/communication/mobile_phone/telekom-488966":{"name":"Telekom","locationSet":{"include":["de","hu","ro","si","sk"]},"geometry":["point","vertex"],"matchScore":2,"terms":["telekom"],"reference":{"key":"communication:mobile_phone","value":"yes"},"tags":{"communication:mobile_phone":"yes","man_made":"mast","operator:wikidata":"Q9396","tower:type":"communication"},"addTags":{"communication:mobile_phone":"yes","man_made":"mast","operator":"Telekom","operator:wikidata":"Q9396","tower:type":"communication"}},"man_made/tower/communication/telekom-a8749b":{"name":"Telekom","locationSet":{"include":["de","hu","ro","si","sk"]},"geometry":["point","vertex","area"],"matchScore":2,"terms":["telekom"],"reference":{"key":"tower:type","value":"communication"},"tags":{"man_made":"tower","operator:wikidata":"Q9396","tower:type":"communication"},"addTags":{"communication:mobile_phone":"yes","man_made":"tower","operator":"Telekom","operator:wikidata":"Q9396","tower:type":"communication"}},"power/catenary_mast/cfrcalatori-7a5ea5":{"name":"CFR Călători","locationSet":{"include":["ro"]},"geometry":["point","vertex"],"matchScore":2,"terms":["cfr călători"],"tags":{"operator:wikidata":"Q856252","power":"catenary_mast"},"addTags":{"operator":"CFR Călători","operator:wikidata":"Q856252","power":"catenary_mast"}},"power/catenary_mast/regiocalatori-7a5ea5":{"name":"Regio Călători","locationSet":{"include":["ro"]},"geometry":["point","vertex"],"matchScore":2,"terms":["regio călători"],"tags":{"operator:wikidata":"Q567819","power":"catenary_mast"},"addTags":{"operator":"Regio Călători","operator:wikidata":"Q567819","power":"catenary_mast"}},"power/generator/innogy-16c9d0":{"name":"Innogy","locationSet":{"include":["by","bg","cz","hu","pl","md","ro","ru","sk","ua","ax","gg","je","cq","dk","ee","fo","fi","is","ie","im","lv","lt","no","sj","se","gb","al","ad","ba","hr","gi","gr","va","it","mt","me","mk","pt","sm","rs","si","es","xk","at","be","fr","de","li","lu","mc","nl","ch"]},"geometry":["point","vertex","area"],"matchScore":2,"terms":["innogy"],"tags":{"operator:wikidata":"Q2124721","power":"generator"},"addTags":{"operator":"Innogy","operator:wikidata":"Q2124721","power":"generator"}},"power/generator/rwe-16c9d0":{"name":"RWE","locationSet":{"include":["by","bg","cz","hu","pl","md","ro","ru","sk","ua","ax","gg","je","cq","dk","ee","fo","fi","is","ie","im","lv","lt","no","sj","se","gb","al","ad","ba","hr","gi","gr","va","it","mt","me","mk","pt","sm","rs","si","es","xk","at","be","fr","de","li","lu","mc","nl","ch"]},"geometry":["point","vertex","area"],"matchScore":2,"terms":["rwe"],"tags":{"operator:wikidata":"Q138133","power":"generator"},"addTags":{"operator":"RWE","operator:wikidata":"Q138133","power":"generator"}},"power/generator/statkraft-16c9d0":{"name":"Statkraft","locationSet":{"include":["by","bg","cz","hu","pl","md","ro","ru","sk","ua","ax","gg","je","cq","dk","ee","fo","fi","is","ie","im","lv","lt","no","sj","se","gb","al","ad","ba","hr","gi","gr","va","it","mt","me","mk","pt","sm","rs","si","es","xk","at","be","fr","de","li","lu","mc","nl","ch"]},"geometry":["point","vertex","area"],"matchScore":2,"terms":["statkraft"],"tags":{"operator:wikidata":"Q1681145","power":"generator"},"addTags":{"operator":"Statkraft","operator:wikidata":"Q1681145","power":"generator"}},"power/generator/uniper-16c9d0":{"name":"Uniper","locationSet":{"include":["by","bg","cz","hu","pl","md","ro","ru","sk","ua","ax","gg","je","cq","dk","ee","fo","fi","is","ie","im","lv","lt","no","sj","se","gb","al","ad","ba","hr","gi","gr","va","it","mt","me","mk","pt","sm","rs","si","es","xk","at","be","fr","de","li","lu","mc","nl","ch"]},"geometry":["point","vertex","area"],"matchScore":2,"terms":["uniper"],"tags":{"operator:wikidata":"Q19839259","power":"generator"},"addTags":{"operator":"Uniper","operator:wikidata":"Q19839259","power":"generator"}},"power/generator/wpo-16c9d0":{"name":"WPO","locationSet":{"include":["by","bg","cz","hu","pl","md","ro","ru","sk","ua","ax","gg","je","cq","dk","ee","fo","fi","is","ie","im","lv","lt","no","sj","se","gb","al","ad","ba","hr","gi","gr","va","it","mt","me","mk","pt","sm","rs","si","es","xk","at","be","fr","de","li","lu","mc","nl","ch"]},"geometry":["point","vertex","area"],"matchScore":2,"terms":["wpo"],"tags":{"operator:wikidata":"Q64755627","power":"generator"},"addTags":{"operator":"WPO","operator:wikidata":"Q64755627","power":"generator"}},"power/substation/transelectrica-e2eb53":{"name":"Transelectrica","locationSet":{"include":["ro"]},"geometry":["area","point"],"matchScore":2,"terms":["tel","transelectrica"],"tags":{"operator:wikidata":"Q750324","power":"substation"},"addTags":{"operator":"Transelectrica","operator:short":"TEL","operator:wikidata":"Q750324","power":"substation"}},"power/transformer/transelectrica-68cee0":{"name":"Transelectrica","locationSet":{"include":["ro"]},"geometry":["point","vertex"],"matchScore":2,"terms":["tel","transelectrica"],"tags":{"operator:wikidata":"Q750324","power":"transformer"},"addTags":{"operator":"Transelectrica","operator:short":"TEL","operator:wikidata":"Q750324","power":"transformer"}},"type/route/railway/cfrcalatori-e13be9":{"name":"CFR Călători","locationSet":{"include":["ro"]},"geometry":["relation"],"matchScore":2,"terms":["cfr călători"],"reference":{"key":"route","value":"railway"},"tags":{"operator:wikidata":"Q856252","route":"railway","type":"route"},"addTags":{"operator":"CFR Călători","operator:wikidata":"Q856252","route":"railway","type":"route"}},"type/route/railway/regiocalatori-e13be9":{"name":"Regio Călători","locationSet":{"include":["ro"]},"geometry":["relation"],"matchScore":2,"terms":["regio călători"],"reference":{"key":"route","value":"railway"},"tags":{"operator:wikidata":"Q567819","route":"railway","type":"route"},"addTags":{"operator":"Regio Călători","operator:wikidata":"Q567819","route":"railway","type":"route"}},"telecom/exchange/interoute-58ec5d":{"name":"Interoute","locationSet":{"include":["by","bg","cz","hu","pl","md","ro","ru","sk","ua","ax","gg","je","cq","dk","ee","fo","fi","is","ie","im","lv","lt","no","sj","se","gb","al","ad","ba","hr","gi","gr","va","it","mt","me","mk","pt","sm","rs","si","es","xk","at","be","fr","de","li","lu","mc","nl","ch"]},"geometry":["point","area"],"matchScore":2,"terms":["interoute"],"fields":["name","operator","{telecom/exchange}"],"tags":{"operator:wikidata":"Q1668090","telecom":"exchange"},"addTags":{"operator":"Interoute","operator:wikidata":"Q1668090","telecom":"exchange"}},"public_transport/platform/bus_point/ctpiasi-5b7f3a":{"name":"CTP Iași","locationSet":{"include":["ro"]},"geometry":["point","vertex"],"matchScore":2,"terms":["ctp iași","ratp (regia autonoma de transport public iasi)"],"reference":{"key":"public_transport","value":"platform"},"tags":{"bus":"yes","network:wikidata":"Q7275888","public_transport":"platform"},"addTags":{"bus":"yes","highway":"bus_stop","network":"CTP Iași","network:wikidata":"Q7275888","public_transport":"platform"}},"public_transport/platform/bus_point/flixbus-f5b4b3":{"name":"Flixbus","locationSet":{"include":["by","bg","cz","hu","pl","md","ro","ru","sk","ua","ax","gg","je","cq","dk","ee","fo","fi","is","ie","im","lv","lt","no","sj","se","gb","al","ad","ba","hr","gi","gr","va","it","mt","me","mk","pt","sm","rs","si","es","xk","at","be","fr","de","li","lu","mc","nl","ch","br","ca","us"]},"geometry":["point","vertex"],"matchScore":2,"terms":["flixbus"],"reference":{"key":"public_transport","value":"platform"},"tags":{"bus":"yes","network:wikidata":"Q15712258","public_transport":"platform"},"addTags":{"bus":"yes","highway":"bus_stop","network":"Flixbus","network:wikidata":"Q15712258","public_transport":"platform"}},"public_transport/platform/bus_point/ratbrasov-5b7f3a":{"name":"RAT Brașov","locationSet":{"include":["ro"]},"geometry":["point","vertex"],"matchScore":2,"terms":["rat brașov"],"reference":{"key":"public_transport","value":"platform"},"tags":{"bus":"yes","network:wikidata":"Q7258031","public_transport":"platform"},"addTags":{"bus":"yes","highway":"bus_stop","network":"RAT Brașov","network:wikidata":"Q7258031","public_transport":"platform"}},"public_transport/platform/bus_point/ratcraiova-5b7f3a":{"name":"RAT Craiova","locationSet":{"include":["ro"]},"geometry":["point","vertex"],"matchScore":2,"terms":["rat craiova"],"reference":{"key":"public_transport","value":"platform"},"tags":{"bus":"yes","network:wikidata":"Q25399056","public_transport":"platform"},"addTags":{"bus":"yes","highway":"bus_stop","network":"RAT Craiova","network:wikidata":"Q25399056","public_transport":"platform"}},"public_transport/platform/bus_point/stpt-5b7f3a":{"name":"S.T.P.T.","locationSet":{"include":["ro"]},"geometry":["point","vertex"],"matchScore":2,"terms":["s.t.p.t."],"reference":{"key":"public_transport","value":"platform"},"tags":{"bus":"yes","network:wikidata":"Q929687","public_transport":"platform"},"addTags":{"bus":"yes","highway":"bus_stop","network":"S.T.P.T.","network:wikidata":"Q929687","public_transport":"platform"}},"public_transport/platform/bus_point/societateadetransportbucuresti-5b7f3a":{"name":"STB (Societatea de Transport București)","locationSet":{"include":["ro"]},"geometry":["point","vertex"],"matchScore":2,"terms":["ratb","ratb (regia autonomă de transport bucurești)","societatea de transport bucurești","stb","stb (societatea de transport bucurești)"],"reference":{"key":"public_transport","value":"platform"},"tags":{"bus":"yes","network:wikidata":"Q2280353","public_transport":"platform"},"addTags":{"bus":"yes","highway":"bus_stop","network":"Societatea de Transport București","network:short":"STB","network:wikidata":"Q2280353","public_transport":"platform"}},"public_transport/platform/bus_point/transurb-5b7f3a":{"name":"Transurb","locationSet":{"include":["ro"]},"geometry":["point","vertex"],"matchScore":2,"terms":["transurb"],"reference":{"key":"public_transport","value":"platform"},"tags":{"bus":"yes","network:wikidata":"Q3997541","public_transport":"platform"},"addTags":{"bus":"yes","highway":"bus_stop","network":"Transurb","network:wikidata":"Q3997541","public_transport":"platform"}},"public_transport/platform/bus_point/tursib-5b7f3a":{"name":"Tursib","locationSet":{"include":["ro"]},"geometry":["point","vertex"],"matchScore":2,"terms":["s.c.tursib s.a","tursib"],"reference":{"key":"public_transport","value":"platform"},"tags":{"bus":"yes","network:wikidata":"Q1477885","public_transport":"platform"},"addTags":{"bus":"yes","highway":"bus_stop","network":"Tursib","network:wikidata":"Q1477885","public_transport":"platform"}},"railway/station/metrorex-6f3045":{"name":"Metrorex","locationSet":{"include":["ro"]},"geometry":["point","vertex","area"],"matchScore":2,"terms":["metrorex"],"tags":{"network:wikidata":"Q622884","railway":"station"},"addTags":{"network":"Metrorex","network:wikidata":"Q622884","operator:wikidata":"Q1091725","public_transport":"station","railway":"station","subway":"yes"}},"railway/station/eurocity-170b77":{"name":"EuroCity","locationSet":{"include":["by","bg","cz","hu","pl","md","ro","ru","sk","ua","ax","gg","je","cq","dk","ee","fo","fi","is","ie","im","lv","lt","no","sj","se","gb","al","ad","ba","hr","gi","gr","va","it","mt","me","mk","pt","sm","rs","si","es","xk","at","be","fr","de","li","lu","mc","nl","ch"]},"geometry":["point","vertex","area"],"matchScore":2,"terms":["eurocity"],"tags":{"network:wikidata":"Q753050","railway":"station"},"addTags":{"network":"EuroCity","network:wikidata":"Q753050","public_transport":"station","railway":"station","train":"yes"}},"railway/station/euronight-170b77":{"name":"EuroNight","locationSet":{"include":["by","bg","cz","hu","pl","md","ro","ru","sk","ua","ax","gg","je","cq","dk","ee","fo","fi","is","ie","im","lv","lt","no","sj","se","gb","al","ad","ba","hr","gi","gr","va","it","mt","me","mk","pt","sm","rs","si","es","xk","at","be","fr","de","li","lu","mc","nl","ch"]},"geometry":["point","vertex","area"],"matchScore":2,"terms":["euronight"],"tags":{"network:wikidata":"Q257307","railway":"station"},"addTags":{"network":"EuroNight","network:wikidata":"Q257307","public_transport":"station","railway":"station","train":"yes"}},"railway/tram_stop/ctpiasi-4b3ba9":{"name":"CTP Iași","locationSet":{"include":["ro"]},"geometry":["vertex"],"matchScore":2,"terms":["ctp iași"],"tags":{"network:wikidata":"Q7275888","railway":"tram_stop"},"addTags":{"network":"CTP Iași","network:wikidata":"Q7275888","railway":"tram_stop"}},"railway/tram_stop/stpt-4b3ba9":{"name":"S.T.P.T.","locationSet":{"include":["ro"]},"geometry":["vertex"],"matchScore":2,"terms":["s.t.p.t.","societatea de transport public timișoara","societatea de transport public timișoara s.a."],"tags":{"network:wikidata":"Q929687","railway":"tram_stop"},"addTags":{"network":"S.T.P.T.","network:wikidata":"Q929687","railway":"tram_stop"}},"railway/tram_stop/societateadetransportbucuresti-4b3ba9":{"name":"STB (Societatea de Transport București)","locationSet":{"include":["ro"]},"geometry":["vertex"],"matchScore":2,"terms":["ratb","societatea de transport bucurești","stb","stb (societatea de transport bucurești)"],"tags":{"network:wikidata":"Q2280353","railway":"tram_stop"},"addTags":{"network":"Societatea de Transport București","network:short":"STB","network:wikidata":"Q2280353","railway":"tram_stop"}},"type/route/bus/ctpiasi-9c403a":{"name":"CTP Iași","locationSet":{"include":["ro"]},"geometry":["relation"],"matchScore":2,"terms":["ctp iași","ratp (regia autonoma de transport public iasi)"],"reference":{"key":"route","value":"bus"},"tags":{"network:wikidata":"Q7275888","route":"bus","type":"route"},"addTags":{"network":"CTP Iași","network:wikidata":"Q7275888","route":"bus","type":"route"}},"type/route/bus/flixbus-8cc9ca":{"name":"Flixbus","locationSet":{"include":["by","bg","cz","hu","pl","md","ro","ru","sk","ua","ax","gg","je","cq","dk","ee","fo","fi","is","ie","im","lv","lt","no","sj","se","gb","al","ad","ba","hr","gi","gr","va","it","mt","me","mk","pt","sm","rs","si","es","xk","at","be","fr","de","li","lu","mc","nl","ch","br","ca","us"]},"geometry":["relation"],"matchScore":2,"terms":["flixbus"],"reference":{"key":"route","value":"bus"},"tags":{"network:wikidata":"Q15712258","route":"bus","type":"route"},"addTags":{"network":"Flixbus","network:wikidata":"Q15712258","route":"bus","type":"route"}},"type/route/bus/ratbrasov-9c403a":{"name":"RAT Brașov","locationSet":{"include":["ro"]},"geometry":["relation"],"matchScore":2,"terms":["rat brașov"],"reference":{"key":"route","value":"bus"},"tags":{"network:wikidata":"Q7258031","route":"bus","type":"route"},"addTags":{"network":"RAT Brașov","network:wikidata":"Q7258031","route":"bus","type":"route"}},"type/route/bus/ratcraiova-9c403a":{"name":"RAT Craiova","locationSet":{"include":["ro"]},"geometry":["relation"],"matchScore":2,"terms":["rat craiova"],"reference":{"key":"route","value":"bus"},"tags":{"network:wikidata":"Q25399056","route":"bus","type":"route"},"addTags":{"network":"RAT Craiova","network:wikidata":"Q25399056","route":"bus","type":"route"}},"type/route/bus/stpt-9c403a":{"name":"S.T.P.T.","locationSet":{"include":["ro"]},"geometry":["relation"],"matchScore":2,"terms":["s.t.p.t."],"reference":{"key":"route","value":"bus"},"tags":{"network:wikidata":"Q929687","route":"bus","type":"route"},"addTags":{"network":"S.T.P.T.","network:wikidata":"Q929687","route":"bus","type":"route"}},"type/route/bus/societateadetransportbucuresti-9c403a":{"name":"STB (Societatea de Transport București)","locationSet":{"include":["ro"]},"geometry":["relation"],"matchScore":2,"terms":["ratb","ratb (regia autonomă de transport bucurești)","societatea de transport bucurești","stb","stb (societatea de transport bucurești)"],"reference":{"key":"route","value":"bus"},"tags":{"network:wikidata":"Q2280353","route":"bus","type":"route"},"addTags":{"network":"Societatea de Transport București","network:short":"STB","network:wikidata":"Q2280353","route":"bus","type":"route"}},"type/route/bus/transurb-9c403a":{"name":"Transurb","locationSet":{"include":["ro"]},"geometry":["relation"],"matchScore":2,"terms":["transurb"],"reference":{"key":"route","value":"bus"},"tags":{"network:wikidata":"Q3997541","route":"bus","type":"route"},"addTags":{"network":"Transurb","network:wikidata":"Q3997541","route":"bus","type":"route"}},"type/route/bus/tursib-9c403a":{"name":"Tursib","locationSet":{"include":["ro"]},"geometry":["relation"],"matchScore":2,"terms":["s.c.tursib s.a","tursib"],"reference":{"key":"route","value":"bus"},"tags":{"network:wikidata":"Q1477885","route":"bus","type":"route"},"addTags":{"network":"Tursib","network:wikidata":"Q1477885","route":"bus","type":"route"}},"type/route/subway/metrorex-61c88f":{"name":"Metrorex","locationSet":{"include":["ro"]},"geometry":["relation"],"matchScore":2,"terms":["metrorex"],"reference":{"key":"route","value":"subway"},"tags":{"network:wikidata":"Q622884","route":"subway","type":"route"},"addTags":{"network":"Metrorex","network:wikidata":"Q622884","operator:wikidata":"Q1091725","route":"subway","type":"route"}},"type/route/train/eurocity-6b9d23":{"name":"EuroCity","locationSet":{"include":["by","bg","cz","hu","pl","md","ro","ru","sk","ua","ax","gg","je","cq","dk","ee","fo","fi","is","ie","im","lv","lt","no","sj","se","gb","al","ad","ba","hr","gi","gr","va","it","mt","me","mk","pt","sm","rs","si","es","xk","at","be","fr","de","li","lu","mc","nl","ch"]},"geometry":["relation"],"matchScore":2,"terms":["eurocity"],"reference":{"key":"route","value":"train"},"tags":{"network:wikidata":"Q753050","route":"train","type":"route"},"addTags":{"network":"EuroCity","network:wikidata":"Q753050","route":"train","type":"route"}},"type/route/train/euronight-6b9d23":{"name":"EuroNight","locationSet":{"include":["by","bg","cz","hu","pl","md","ro","ru","sk","ua","ax","gg","je","cq","dk","ee","fo","fi","is","ie","im","lv","lt","no","sj","se","gb","al","ad","ba","hr","gi","gr","va","it","mt","me","mk","pt","sm","rs","si","es","xk","at","be","fr","de","li","lu","mc","nl","ch"]},"geometry":["relation"],"matchScore":2,"terms":["euronight"],"reference":{"key":"route","value":"train"},"tags":{"network:wikidata":"Q257307","route":"train","type":"route"},"addTags":{"network":"EuroNight","network:wikidata":"Q257307","route":"train","type":"route"}},"type/route/tram/ctpiasi-200f98":{"name":"CTP Iași","locationSet":{"include":["ro"]},"geometry":["relation"],"matchScore":2,"terms":["ctp iași"],"reference":{"key":"route","value":"tram"},"tags":{"network:wikidata":"Q7275888","route":"tram","type":"route"},"addTags":{"network":"CTP Iași","network:wikidata":"Q7275888","route":"tram","type":"route"}},"type/route/tram/stpt-200f98":{"name":"S.T.P.T.","locationSet":{"include":["ro"]},"geometry":["relation"],"matchScore":2,"terms":["s.t.p.t.","societatea de transport public timișoara","societatea de transport public timișoara s.a."],"reference":{"key":"route","value":"tram"},"tags":{"network:wikidata":"Q929687","route":"tram","type":"route"},"addTags":{"network":"S.T.P.T.","network:wikidata":"Q929687","route":"tram","type":"route"}},"type/route/tram/societateadetransportbucuresti-200f98":{"name":"STB (Societatea de Transport București)","locationSet":{"include":["ro"]},"geometry":["relation"],"matchScore":2,"terms":["ratb","societatea de transport bucurești","stb","stb (societatea de transport bucurești)"],"reference":{"key":"route","value":"tram"},"tags":{"network:wikidata":"Q2280353","route":"tram","type":"route"},"addTags":{"network":"Societatea de Transport București","network:short":"STB","network:wikidata":"Q2280353","route":"tram","type":"route"}},"type/route/trolleybus/ctpcompaniadetransportpublicclujnapocasa-6b6251":{"name":"CTP (Compania de Transport Public Cluj Napoca SA)","locationSet":{"include":["ro"]},"geometry":["relation"],"matchScore":2,"terms":["ctp (compania de transport public cluj napoca sa)"],"reference":{"key":"route","value":"trolleybus"},"tags":{"network:wikidata":"Q266625","route":"trolleybus","type":"route"},"addTags":{"network":"CTP (Compania de Transport Public Cluj Napoca SA)","network:wikidata":"Q266625","route":"trolleybus","type":"route"}},"type/route/trolleybus/ratbrasov-6b6251":{"name":"RAT Brașov","locationSet":{"include":["ro"]},"geometry":["relation"],"matchScore":2,"terms":["rat brașov"],"reference":{"key":"route","value":"trolleybus"},"tags":{"network:wikidata":"Q7258031","route":"trolleybus","type":"route"},"addTags":{"network":"RAT Brașov","network:wikidata":"Q7258031","route":"trolleybus","type":"route"}},"type/route/trolleybus/stpt-6b6251":{"name":"S.T.P.T.","locationSet":{"include":["ro"]},"geometry":["relation"],"matchScore":2,"terms":["s.t.p.t."],"reference":{"key":"route","value":"trolleybus"},"tags":{"network:wikidata":"Q2010200","route":"trolleybus","type":"route"},"addTags":{"network":"S.T.P.T.","network:wikidata":"Q2010200","operator:wikidata":"Q929687","route":"trolleybus","type":"route"}},"type/route/trolleybus/societateadetransportbucuresti-6b6251":{"name":"STB","locationSet":{"include":["ro"]},"geometry":["relation"],"matchScore":2,"terms":["ratb","ratb (regia autonomă de transport bucurești)","societatea de transport bucurești","stb","stb (societatea de transport bucurești)"],"reference":{"key":"route","value":"trolleybus"},"tags":{"network:wikidata":"Q2280353","route":"trolleybus","type":"route"},"addTags":{"network":"Societatea de Transport București","network:short":"STB","network:wikidata":"Q2280353","route":"trolleybus","type":"route"}}}