{"advertising/totem/caltex-0f1005":{"name":"Caltex","locationSet":{"include":["ae","au","eg","hk","id","kh","kr","lk","my","nz","ph","pk","sa","sg","th","vn","za"]},"geometry":["point","line"],"matchScore":2,"terms":["caltex"],"tags":{"advertising":"totem","brand:wikidata":"Q277470"},"addTags":{"advertising":"totem","brand":"Caltex","brand:wikidata":"Q277470"}},"advertising/totem/pvoil-f51e7e":{"name":"PV Oil","locationSet":{"include":["vn"]},"geometry":["point","line"],"matchScore":2,"terms":["pv oil"],"tags":{"advertising":"totem","brand:wikidata":"Q2089536"},"addTags":{"advertising":"totem","brand":"PV Oil","brand:wikidata":"Q2089536"}},"amenity/atm/agribank-cfdb1a":{"name":"Agribank (Việt Nam)","locationSet":{"include":["vn"]},"geometry":["point","vertex"],"matchScore":2,"terms":["agribank","ngân hàng nông nghiệp và phát triển nông thôn việt nam","vietnam bank for agriculture and rural development"],"fields":["name","brand","{amenity/atm}"],"tags":{"amenity":"atm","brand:wikidata":"Q1924723"},"addTags":{"amenity":"atm","brand":"Agribank","brand:wikidata":"Q1924723","official_name":"Ngân hàng Nông nghiệp và Phát triển Nông thôn Việt Nam","official_name:en":"Vietnam Bank for Agriculture and Rural Development","operator":"Agribank","operator:wikidata":"Q1924723"}},"amenity/atm/bidv-cfdb1a":{"name":"BIDV","locationSet":{"include":["vn"]},"geometry":["point","vertex"],"matchScore":2,"terms":["bank for investment and development of vietnam","bidv","ngân hàng đầu tư và phát triển việt nam"],"fields":["name","brand","{amenity/atm}"],"tags":{"amenity":"atm","brand:wikidata":"Q1003180"},"addTags":{"amenity":"atm","brand":"BIDV","brand:wikidata":"Q1003180","official_name":"Ngân hàng Đầu tư và Phát triển Việt Nam","official_name:en":"Bank for Investment and Development of Vietnam","official_name:vi":"Ngân hàng Đầu tư và Phát triển Việt Nam","operator":"BIDV","operator:wikidata":"Q1003180"}},"amenity/atm/rhbbank-309a65":{"name":"RHB Bank","locationSet":{"include":["bn","my","sg","th","vn"]},"geometry":["point","vertex"],"matchScore":2,"terms":["rhb bank"],"fields":["name","brand","{amenity/atm}"],"tags":{"amenity":"atm","brand:wikidata":"Q4207443"},"addTags":{"amenity":"atm","brand":"RHB Bank","brand:wikidata":"Q4207443","operator":"RHB Bank","operator:wikidata":"Q4207443"}},"amenity/atm/techcombank-cfdb1a":{"name":"Techcombank","locationSet":{"include":["vn"]},"geometry":["point","vertex"],"matchScore":2,"terms":["techcombank"],"fields":["name","brand","{amenity/atm}"],"tags":{"amenity":"atm","brand:wikidata":"Q10541776"},"addTags":{"amenity":"atm","brand":"Techcombank","brand:wikidata":"Q10541776","operator":"Techcombank","operator:wikidata":"Q10541776"}},"amenity/atm/uob-441a96":{"name":"UOB","locationSet":{"include":["au","bn","ca","cn","gb","hk","id","in","jp","kr","mm","my","ph","sg","th","us","vn"]},"geometry":["point","vertex"],"matchScore":2,"terms":["united overseas bank","uob","大华银行"],"fields":["name","brand","{amenity/atm}"],"tags":{"amenity":"atm","brand:wikidata":"Q2064074"},"addTags":{"amenity":"atm","brand":"UOB","brand:wikidata":"Q2064074","brand:zh":"大华银行","name:zh":"大华银行","operator":"UOB","operator:wikidata":"Q2064074"}},"amenity/atm/vietcombank-cfdb1a":{"name":"Vietcombank","locationSet":{"include":["vn"]},"geometry":["point","vertex"],"matchScore":2,"terms":["vietcombank"],"fields":["name","brand","{amenity/atm}"],"tags":{"amenity":"atm","brand:wikidata":"Q6122995"},"addTags":{"amenity":"atm","brand":"Vietcombank","brand:wikidata":"Q6122995","operator":"Vietcombank","operator:wikidata":"Q6122995"}},"amenity/atm/vietinbank-cfdb1a":{"name":"VietinBank","locationSet":{"include":["vn"]},"geometry":["point","vertex"],"matchScore":2,"terms":["vietinbank"],"fields":["name","brand","{amenity/atm}"],"tags":{"amenity":"atm","brand:wikidata":"Q7928459"},"addTags":{"amenity":"atm","brand":"VietinBank","brand:wikidata":"Q7928459","operator":"VietinBank","operator:wikidata":"Q7928459"}},"amenity/bank/agribank-a28d32":{"name":"Agribank (Việt Nam)","locationSet":{"include":["vn"]},"geometry":["point","area"],"matchScore":2,"terms":["agribank","ngân hàng nông nghiệp và phát triển nông thôn việt nam","vietnam bank for agriculture and rural development"],"tags":{"amenity":"bank","brand:wikidata":"Q1924723"},"addTags":{"amenity":"bank","brand":"Agribank","brand:wikidata":"Q1924723","name":"Agribank","official_name":"Ngân hàng Nông nghiệp và Phát triển Nông thôn Việt Nam","official_name:en":"Vietnam Bank for Agriculture and Rural Development"}},"amenity/bank/bidv-a28d32":{"name":"BIDV","locationSet":{"include":["vn"]},"geometry":["point","area"],"matchScore":2,"terms":["bank for investment and development of vietnam","bidv","ngân hàng đầu tư và phát triển việt nam"],"tags":{"amenity":"bank","brand:wikidata":"Q1003180"},"addTags":{"amenity":"bank","brand":"BIDV","brand:wikidata":"Q1003180","name":"BIDV","official_name":"Ngân hàng Đầu tư và Phát triển Việt Nam","official_name:en":"Bank for Investment and Development of Vietnam","official_name:vi":"Ngân hàng Đầu tư và Phát triển Việt Nam"}},"amenity/bank/rhbbank-ea52df":{"name":"RHB Bank","locationSet":{"include":["bn","my","sg","th","vn"]},"geometry":["point","area"],"matchScore":2,"terms":["rhb bank"],"tags":{"amenity":"bank","brand:wikidata":"Q4207443"},"addTags":{"amenity":"bank","brand":"RHB Bank","brand:wikidata":"Q4207443","name":"RHB Bank"}},"amenity/bank/techcombank-a28d32":{"name":"Techcombank","locationSet":{"include":["vn"]},"geometry":["point","area"],"matchScore":2,"terms":["techcombank"],"tags":{"amenity":"bank","brand:wikidata":"Q10541776"},"addTags":{"amenity":"bank","brand":"Techcombank","brand:wikidata":"Q10541776","name":"Techcombank"}},"amenity/bank/uob-dadccc":{"name":"UOB","locationSet":{"include":["au","bn","ca","cn","gb","hk","id","in","jp","kr","mm","my","ph","sg","th","us","vn"]},"geometry":["point","area"],"matchScore":2,"terms":["united overseas bank","uob","大华银行"],"tags":{"amenity":"bank","brand:wikidata":"Q2064074"},"addTags":{"amenity":"bank","brand":"UOB","brand:wikidata":"Q2064074","brand:zh":"大华银行","name":"UOB","name:zh":"大华银行"}},"amenity/bank/vietcombank-a28d32":{"name":"Vietcombank","locationSet":{"include":["vn"]},"geometry":["point","area"],"matchScore":2,"terms":["vietcombank"],"tags":{"amenity":"bank","brand:wikidata":"Q6122995"},"addTags":{"amenity":"bank","brand":"Vietcombank","brand:wikidata":"Q6122995","name":"Vietcombank"}},"amenity/bank/vietinbank-a28d32":{"name":"VietinBank","locationSet":{"include":["vn"]},"geometry":["point","area"],"matchScore":2,"terms":["vietinbank"],"tags":{"amenity":"bank","brand:wikidata":"Q7928459"},"addTags":{"amenity":"bank","brand":"VietinBank","brand:wikidata":"Q7928459","name":"VietinBank"}},"amenity/cafe/coffee_shop/congcaphe-6f4c59":{"name":"Cộng Cà Phê","locationSet":{"include":["kr","vn"]},"geometry":["point","area"],"matchScore":2,"terms":["cong","cộng cà phê"],"reference":{"key":"cuisine","value":"coffee_shop"},"tags":{"amenity":"cafe","brand:wikidata":"Q63864181","cuisine":"coffee_shop;vietnamese"},"addTags":{"amenity":"cafe","brand":"Cộng Cà Phê","brand:wikidata":"Q63864181","cuisine":"coffee_shop;vietnamese","name":"Cộng Cà Phê","name:vi":"Cộng Cà Phê","takeaway":"yes"}},"amenity/cafe/bubble_tea/gongcha-fd99aa":{"name":"Gong Cha (Việt Nam)","locationSet":{"include":["vn"]},"geometry":["point","area"],"matchScore":2,"terms":["cống trà","gong cha","貢茶"],"reference":{"key":"cuisine","value":"bubble_tea"},"tags":{"amenity":"cafe","brand:wikidata":"Q5581670","cuisine":"bubble_tea"},"addTags":{"alt_name:vi":"Cống Trà","amenity":"cafe","brand":"Gong Cha","brand:vi":"Gong Cha","brand:wikidata":"Q5581670","brand:zh":"貢茶","cuisine":"bubble_tea","name":"Gong Cha","name:vi":"Gong Cha","name:zh":"貢茶","takeaway":"yes"}},"amenity/cafe/coffee_shop/highlandscoffee-fd99aa":{"name":"Highlands Coffee","locationSet":{"include":["vn"]},"geometry":["point","area"],"matchScore":2,"terms":["highlands","highlands coffee"],"reference":{"key":"cuisine","value":"coffee_shop"},"tags":{"amenity":"cafe","brand:wikidata":"Q5759361","cuisine":"coffee_shop;vietnamese"},"addTags":{"amenity":"cafe","brand":"Highlands Coffee","brand:wikidata":"Q5759361","cuisine":"coffee_shop;vietnamese","name":"Highlands Coffee","name:en":"Highlands Coffee","takeaway":"yes"}},"amenity/cafe/coffee_shop/thecoffeehouse-fd99aa":{"name":"The Coffee House (Việt Nam)","locationSet":{"include":["vn"]},"geometry":["point","area"],"matchScore":2,"terms":["coffee house","the coffee house"],"reference":{"key":"cuisine","value":"coffee_shop"},"tags":{"amenity":"cafe","brand:wikidata":"Q60775742","cuisine":"coffee_shop;vietnamese"},"addTags":{"amenity":"cafe","brand":"The Coffee House","brand:wikidata":"Q60775742","cuisine":"coffee_shop;vietnamese","name":"The Coffee House","name:en":"The Coffee House","takeaway":"yes"}},"amenity/cafe/coffee_shop/trungnguyencoffee-fd99aa":{"name":"Trung Nguyên Coffee","locationSet":{"include":["vn"]},"geometry":["point","area"],"matchScore":2,"terms":["cà phê trung nguyên","trung nguyên","trung nguyen coffee","trung nguyên e-coffee"],"reference":{"key":"cuisine","value":"coffee_shop"},"tags":{"amenity":"cafe","brand:wikidata":"Q3541154","cuisine":"coffee_shop;vietnamese"},"addTags":{"amenity":"cafe","brand":"Trung Nguyên","brand:wikidata":"Q3541154","cuisine":"coffee_shop;vietnamese","name":"Trung Nguyên Coffee","name:en":"Trung Nguyen Coffee","name:vi":"Cà phê Trung Nguyên","takeaway":"yes"}},"amenity/cinema/rapchieuphimcgv-360d00":{"name":"rạp chiếu phim CGV","locationSet":{"include":["vn"]},"geometry":["point","area"],"matchScore":2,"terms":["cgv","cgv cinema","cgv cinemas vietnam","rạp chiếu phim cgv"],"fields":["name","brand","{amenity/cinema}"],"tags":{"amenity":"cinema","brand:wikidata":"Q5012261"},"addTags":{"amenity":"cinema","brand":"rạp chiếu phim CGV","brand:en":"CGV Cinema","brand:vi":"rạp chiếu phim CGV","brand:wikidata":"Q5012261","name":"rạp chiếu phim CGV","name:en":"CGV Cinema","name:vi":"rạp chiếu phim CGV","official_name":"CGV Cinemas Vietnam"}},"amenity/fast_food/marugameudon-a3c3a3":{"name":"Marugame Udon","locationSet":{"include":["gb","id","kh","ph","ru","us","vn"]},"geometry":["point","area"],"matchScore":2,"terms":["marugame seimen"],"tags":{"amenity":"fast_food","brand:wikidata":"Q10877253"},"addTags":{"alt_name":"Marugame Seimen","amenity":"fast_food","brand":"Marugame Seimen","brand:wikidata":"Q10877253","cuisine":"noodle","name":"Marugame Udon","takeaway":"yes"}},"amenity/fast_food/pizza/thepizzacompany-abbb1f":{"name":"The Pizza Company","locationSet":{"include":["ae","bh","cn","jo","kh","la","mm","my","sa","th","vn"]},"geometry":["point","area"],"matchScore":2,"terms":["pizza company","the pizza company"],"reference":{"key":"cuisine","value":"pizza"},"tags":{"amenity":"fast_food","brand:wikidata":"Q2413520","cuisine":"pizza"},"addTags":{"alt_name":"Pizza Company","amenity":"fast_food","brand":"The Pizza Company","brand:wikidata":"Q2413520","cuisine":"pizza","name":"The Pizza Company","takeaway":"yes"}},"amenity/fuel/caltex-a02c05":{"name":"Caltex","locationSet":{"include":["ae","au","eg","hk","id","kh","kr","lk","my","nz","ph","pk","sa","sg","th","vn","za"]},"geometry":["point","area"],"matchScore":2,"terms":["caltex"],"fields":["name","brand","{amenity/fuel}"],"tags":{"amenity":"fuel","brand:wikidata":"Q277470"},"addTags":{"amenity":"fuel","brand":"Caltex","brand:wikidata":"Q277470","name":"Caltex"}},"amenity/fuel/pvoil-c46b94":{"name":"PV Oil","locationSet":{"include":["vn"]},"geometry":["point","area"],"matchScore":2,"terms":["pv oil"],"fields":["name","brand","{amenity/fuel}"],"tags":{"amenity":"fuel","brand:wikidata":"Q2089536"},"addTags":{"amenity":"fuel","brand":"PV Oil","brand:wikidata":"Q2089536","name":"PV Oil"}},"amenity/ice_cream/frozen_yogurt/llaollao-dd9462":{"name":"Llaollao","locationSet":{"include":["au","ch","cl","co","ec","es","fr","gt","hr","id","iq","kw","ma","my","ph","pt","sa","sg","si","sv","us","vn"]},"geometry":["point","area"],"matchScore":2,"terms":["llaollao"],"reference":{"key":"cuisine","value":"frozen_yogurt"},"tags":{"amenity":"ice_cream","brand:wikidata":"Q12163048","cuisine":"frozen_yogurt"},"addTags":{"amenity":"ice_cream","brand":"Llaollao","brand:wikidata":"Q12163048","cuisine":"frozen_yogurt","name":"Llaollao"}},"amenity/ice_cream/swensens-570cf0":{"name":"Swensen's","locationSet":{"include":["bn","kh","la","mm","my","th","tw","us","vn"]},"geometry":["point","area"],"matchScore":2,"terms":["swensen's"],"tags":{"amenity":"ice_cream","brand:wikidata":"Q6640658"},"addTags":{"amenity":"ice_cream","brand":"Swensen's","brand:wikidata":"Q6640658","cuisine":"ice_cream","name":"Swensen's"}},"amenity/language_school/els-89568f":{"name":"ELS","locationSet":{"include":["ca","in","my","pa","sa","tr","us","vn"]},"geometry":["point","area"],"matchScore":2,"terms":["els","els language centers"],"fields":["name","brand","{amenity/language_school}"],"tags":{"amenity":"language_school","brand:wikidata":"Q5323325"},"addTags":{"amenity":"language_school","brand":"ELS","brand:en":"ELS","brand:wikidata":"Q5323325","language:en":"main","name":"ELS","name:en":"ELS","official_name":"ELS Language Centers","official_name:en":"ELS Language Centers"}},"amenity/language_school/shaneenglishschool-f8b177":{"name":"Shane English School","locationSet":{"include":["dz","gb","hk","id","kr","pl","th","vn"]},"geometry":["point","area"],"matchScore":2,"terms":["shane english school","シェーン英会話"],"fields":["name","brand","{amenity/language_school}"],"tags":{"amenity":"language_school","brand:wikidata":"Q17054332"},"addTags":{"amenity":"language_school","brand":"Shane English School","brand:en":"Shane English School","brand:ja":"シェーン英会話","brand:ja-Latn":"Shēn Eikaiwa","brand:wikidata":"Q17054332","language:en":"main","name":"Shane English School","name:en":"Shane English School","name:ja":"シェーン英会話","name:ja-Latn":"Shēn Eikaiwa"}},"amenity/pharmacy/guardian-c3738d":{"name":"Guardian (Asia)","locationSet":{"include":["bn","id","kh","my","sg","vn"]},"geometry":["point","area"],"matchScore":2,"terms":["guardian"],"reference":{"key":"amenity","value":"pharmacy"},"tags":{"amenity":"pharmacy","brand:wikidata":"Q63371124"},"addTags":{"amenity":"pharmacy","brand":"Guardian","brand:wikidata":"Q63371124","healthcare":"pharmacy","name":"Guardian"}},"amenity/pharmacy/pharmacity-59b438":{"name":"Pharmacity","locationSet":{"include":["vn"]},"geometry":["point","area"],"matchScore":2,"terms":["pharmacity"],"reference":{"key":"amenity","value":"pharmacy"},"tags":{"amenity":"pharmacy","brand:wikidata":"Q115324413"},"addTags":{"amenity":"pharmacy","brand":"Pharmacity","brand:wikidata":"Q115324413","healthcare":"pharmacy","name":"Pharmacity"}},"amenity/restaurant/japanese/cocoichibanya-74f126":{"name":"CoCo Ichibanya","locationSet":{"include":["cn","gb","hk","id","in","kr","ph","sg","th","us","vn"]},"geometry":["point","area"],"matchScore":2,"terms":["coco ichibanya","coco壱番屋"],"reference":{"key":"cuisine","value":"japanese"},"tags":{"amenity":"restaurant","brand:wikidata":"Q5986105","cuisine":"curry;japanese"},"addTags":{"amenity":"restaurant","brand":"CoCo Ichibanya","brand:en":"CoCo Ichibanya","brand:ja":"CoCo壱番屋","brand:wikidata":"Q5986105","cuisine":"curry;japanese","name":"CoCo Ichibanya","name:en":"CoCo Ichibanya","name:ja":"CoCo壱番屋","takeaway":"yes"}},"amenity/restaurant/ramen/ippudo-b715b9":{"name":"Ippudo","locationSet":{"include":["au","fx","gb","id","mm","my","nz","ph","sg","us","vn"]},"geometry":["point","area"],"matchScore":2,"terms":["ippudo","一風堂"],"reference":{"key":"cuisine","value":"ramen"},"tags":{"amenity":"restaurant","brand:wikidata":"Q6065417","cuisine":"ramen"},"addTags":{"amenity":"restaurant","brand":"Ippudo","brand:en":"Ippudo","brand:ja":"一風堂","brand:wikidata":"Q6065417","cuisine":"ramen","name":"Ippudo","name:en":"Ippudo","name:ja":"一風堂"}},"amenity/restaurant/japanese/momoparadise-aad2df":{"name":"Mo-Mo Paradise","locationSet":{"include":["cn","id","jp","kh","th","tw","us","vn"]},"geometry":["point","area"],"matchScore":2,"terms":["mo-mo paradise","momo"],"reference":{"key":"cuisine","value":"japanese"},"tags":{"amenity":"restaurant","brand:wikidata":"Q126369578","cuisine":"japanese;hot_pot"},"addTags":{"amenity":"restaurant","brand":"Mo-Mo Paradise","brand:wikidata":"Q126369578","cuisine":"japanese;hot_pot","name":"Mo-Mo Paradise"}},"amenity/restaurant/vietnamese/pho24-d3bf7d":{"name":"Phở 24","locationSet":{"include":["vn"]},"geometry":["point","area"],"matchScore":2,"terms":["pho 24","phở 24"],"reference":{"key":"cuisine","value":"vietnamese"},"tags":{"amenity":"restaurant","brand:wikidata":"Q63863118","cuisine":"vietnamese;noodle"},"addTags":{"amenity":"restaurant","brand":"Phở 24","brand:wikidata":"Q63863118","cuisine":"vietnamese;noodle","name":"Phở 24","name:en":"Pho 24","name:vi":"Phở 24"}},"amenity/school/maplebear-101006":{"name":"Maple Bear","locationSet":{"include":["ae","al","ar","au","bd","bg","br","ca","gt","hk","hr","in","ke","kr","lk","ma","mx","my","np","om","pe","ph","py","ro","rs","sg","th","tk","ua","us","vn"]},"geometry":["area","point"],"matchScore":2,"terms":["maple bear"],"fields":["name","brand","{amenity/school}"],"tags":{"amenity":"school","brand:wikidata":"Q10324823"},"addTags":{"amenity":"school","brand":"Maple Bear","brand:wikidata":"Q10324823","name":"Maple Bear","operator:type":"private"}},"leisure/amusement_arcade/timezone-bbc11e":{"name":"Timezone","locationSet":{"include":["au","id","in","nz","ph","sg","vn"]},"geometry":["point","area"],"matchScore":2,"terms":["timezone"],"tags":{"brand:wikidata":"Q12521502","leisure":"amusement_arcade"},"addTags":{"brand":"Timezone","brand:wikidata":"Q12521502","leisure":"amusement_arcade","name":"Timezone"}},"leisure/sports_centre/swimming/aquatotsswimschools-ce9814":{"name":"Aqua-Tots Swim Schools","locationSet":{"include":["ca","kw","lb","mx","om","pa","qa","sa","th","tr","us","vn"]},"geometry":["area","point"],"matchScore":2,"terms":["aqua-tots swim schools"],"fields":["name","brand","{leisure/sports_centre/swimming}"],"reference":{"key":"sport","value":"swimming"},"tags":{"brand:wikidata":"Q121333463","leisure":"sports_centre","sport":"swimming"},"addTags":{"brand":"Aqua-Tots Swim Schools","brand:wikidata":"Q121333463","leisure":"sports_centre","name":"Aqua-Tots Swim Schools","sport":"swimming"}},"office/insurance/generali-cb13d1":{"name":"Generali","locationSet":{"include":["ar","at","bg","br","ch","cl","cn","cz","de","es","fr","gr","hr","hu","id","in","it","me","my","ph","pl","pt","ro","rs","si","sk","tr","vn"]},"geometry":["point","area"],"matchScore":2,"terms":["generali","generali españa"],"fields":["name","brand","{office/insurance}"],"tags":{"brand:wikidata":"Q670482","office":"insurance"},"addTags":{"brand":"Generali","brand:wikidata":"Q670482","name":"Generali","office":"insurance"}},"office/telecommunication/beeline-2f71de":{"name":"Beeline","locationSet":{"include":["au","la","vn"]},"geometry":["point","area"],"matchScore":2,"terms":["beeline"],"tags":{"brand:wikidata":"Q402880","office":"telecommunication"},"addTags":{"brand":"Beeline","brand:wikidata":"Q402880","name":"Beeline","office":"telecommunication"}},"shop/baby_goods/suavinex-f3fd61":{"name":"Suavinex","locationSet":{"include":["ae","al","ao","au","be","ch","cl","cn","co","cr","cy","cz","do","dz","ec","es","fr","ge","gq","gr","hk","il","iq","ir","it","kr","lb","lu","me","mt","mx","my","nl","no","pa","pl","pt","ro","rs","ru","sa","sg","sk","tr","uy","vn"]},"geometry":["point","area"],"matchScore":2,"terms":["suavinex"],"tags":{"brand:wikidata":"Q122258837","shop":"baby_goods"},"addTags":{"brand":"Suavinex","brand:wikidata":"Q122258837","name":"Suavinex","shop":"baby_goods"}},"shop/bakery/parisbaguette-e1a226":{"name":"Paris Baguette (worldwide)","locationSet":{"include":["sg","us","vn"]},"geometry":["point","area"],"matchScore":2,"terms":["paris baguette","paris baguette cafe"],"tags":{"brand:wikidata":"Q62605260","shop":"bakery"},"addTags":{"brand":"Paris Baguette","brand:wikidata":"Q62605260","name":"Paris Baguette","shop":"bakery"}},"shop/bakery/paul-652955":{"name":"Paul","locationSet":{"include":["ae","az","be","bh","by","ci","cy","cz","eg","es","fr","ga","gb","ge","gr","id","in","jo","jp","kw","kz","lb","lu","ma","mu","my","om","pa","ph","pl","pt","qa","ro","ru","sa","sg","th","tn","tw","ua","us","uz","vn","za"]},"geometry":["point","area"],"matchScore":2,"terms":["paul"],"tags":{"brand:wikidata":"Q3370417","shop":"bakery"},"addTags":{"brand":"Paul","brand:wikidata":"Q3370417","name":"Paul","shop":"bakery"}},"shop/bakery/touslesjours-e39ddb":{"name":"Tous les Jours","locationSet":{"include":["id","kh","my","ph","us","vn"]},"geometry":["point","area"],"matchScore":2,"terms":["tous les jours"],"tags":{"brand:wikidata":"Q3535609","shop":"bakery"},"addTags":{"brand":"Tous les Jours","brand:wikidata":"Q3535609","name":"Tous les Jours","shop":"bakery"}},"shop/convenience/bachhoaxanh-61b913":{"name":"Bách Hóa XANH","locationSet":{"include":["vn"]},"geometry":["point","area"],"matchScore":2,"terms":["bách hóa xanh"],"tags":{"brand:wikidata":"Q115327101","shop":"convenience"},"addTags":{"brand":"Bách Hóa XANH","brand:wikidata":"Q115327101","name":"Bách Hóa XANH","shop":"convenience"}},"shop/convenience/cheers-a4ab31":{"name":"Cheers","locationSet":{"include":["sg","vn"]},"geometry":["point","area"],"matchScore":2,"terms":["cheers"],"tags":{"brand:wikidata":"Q64154066","shop":"convenience"},"addTags":{"brand":"Cheers","brand:wikidata":"Q64154066","name":"Cheers","opening_hours":"24/7","shop":"convenience"}},"shop/convenience/familymart-095323":{"name":"FamilyMart","locationSet":{"include":["id","my","ph","th","vn"]},"geometry":["point","area"],"matchScore":2,"terms":["familymart"],"tags":{"brand:wikidata":"Q1191685","shop":"convenience"},"addTags":{"brand":"FamilyMart","brand:wikidata":"Q1191685","name":"FamilyMart","shop":"convenience"}},"shop/convenience/gs25-f248a7":{"name":"GS25","locationSet":{"include":["kr","vn"]},"geometry":["point","area"],"matchScore":2,"terms":["gs25"],"tags":{"brand:wikidata":"Q624041","shop":"convenience"},"addTags":{"brand":"GS25","brand:wikidata":"Q624041","name":"GS25","shop":"convenience"}},"shop/convenience/ministop-365d07":{"name":"Ministop","locationSet":{"include":["cn","kz","vn"]},"geometry":["point","area"],"matchScore":2,"terms":["ministop"],"tags":{"brand:wikidata":"Q1038929","shop":"convenience"},"addTags":{"brand":"Ministop","brand:wikidata":"Q1038929","name":"Ministop","shop":"convenience"}},"shop/convenience/winmart-61b913":{"name":"WinMart+","locationSet":{"include":["vn"]},"geometry":["point","area"],"matchScore":2,"terms":["vinmart+","winmart+"],"tags":{"brand:wikidata":"Q113236478","shop":"convenience"},"addTags":{"brand":"WinMart+","brand:wikidata":"Q113236478","name":"WinMart+","shop":"convenience"}},"shop/department_store/lottedepartmentstore-256de8":{"name":"Lotte Department Store","locationSet":{"include":["cn","id","kr","ru","vn"]},"geometry":["point","area"],"matchScore":2,"terms":["lotte","lotte department store"],"tags":{"brand:wikidata":"Q489905","shop":"department_store"},"addTags":{"brand":"Lotte Department Store","brand:wikidata":"Q489905","name":"Lotte Department Store","shop":"department_store"}},"shop/department_store/lottedutyfree-8352b8":{"name":"Lotte Duty Free","locationSet":{"include":["au","gu","jp","kr","nz","th","vn"]},"geometry":["point","area"],"matchScore":2,"terms":["lotte duty free","롯데면세점","ロッテ免税"],"tags":{"brand:wikidata":"Q12594196","shop":"department_store"},"addTags":{"brand":"Lotte Duty Free","brand:wikidata":"Q12594196","duty_free":"yes","name":"Lotte Duty Free","name:en":"Lotte Duty Free","name:ja":"ロッテ免税","name:ko":"롯데면세점","shop":"department_store"}},"shop/department_store/parkson-6dcedc":{"name":"Parkson","locationSet":{"include":["id","la","mm","my","vn"]},"geometry":["point","area"],"matchScore":2,"terms":["parkson","百盛"],"tags":{"brand:wikidata":"Q835145","shop":"department_store"},"addTags":{"brand":"Parkson","brand:en":"Parkson","brand:wikidata":"Q835145","brand:zh":"百盛","name":"Parkson","name:en":"Parkson","name:zh":"百盛","shop":"department_store"}},"shop/furniture/chateaudax-c96b56":{"name":"Chateau d'Ax","locationSet":{"include":["ao","be","ca","ch","cn","de","es","fx","gp","hk","hr","it","ma","mq","mt","mu","mz","pt","re","sg","si","tn","tw","us","vn"]},"geometry":["point","area"],"matchScore":2,"terms":["chateau d'ax"],"tags":{"brand:wikidata":"Q100249791","shop":"furniture"},"addTags":{"brand":"Chateau d'Ax","brand:wikidata":"Q100249791","name":"Chateau d'Ax","shop":"furniture"}},"shop/jewelry/pnj-a9c8da":{"name":"PNJ","locationSet":{"include":["vn"]},"geometry":["point","area"],"matchScore":2,"terms":["pnj"],"tags":{"brand:wikidata":"Q61129183","shop":"jewelry"},"addTags":{"brand":"PNJ","brand:wikidata":"Q61129183","name":"PNJ","shop":"jewelry"}},"shop/kitchen/ixina-d089d8":{"name":"Ixina","locationSet":{"include":["ae","au","be","bf","bh","bj","ca","ci","cm","cn","cz","dz","ee","eg","fr","gh","hr","ke","kw","lu","ly","ma","mu","nl","pl","qa","ro","ru","sa","se","sn","tg","th","tn","vn"]},"geometry":["point","area"],"matchScore":2,"terms":["ixina"],"tags":{"brand:wikidata":"Q3156424","shop":"kitchen"},"addTags":{"brand":"Ixina","brand:wikidata":"Q3156424","name":"Ixina","shop":"kitchen"}},"shop/mobile_phone/a1prodajnomesto-4fc1f0":{"name":"Viettel Store","locationSet":{"include":["vn"]},"geometry":["point","area"],"matchScore":2,"terms":["viettel store"],"tags":{"brand:wikidata":"Q123493815","shop":"mobile_phone"},"addTags":{"brand":"Viettel Store","brand:wikidata":"Q123493815","name":"A1 prodajno mesto","shop":"mobile_phone"}},"shop/sports/johnsonfitnessandwellness-57cfca":{"name":"Johnson Fitness & Wellness","locationSet":{"include":["au","br","ca","cn","cz","gb","gr","hk","it","jp","kr","mx","my","ro","th","tw","us","vn"]},"geometry":["point","area"],"matchScore":2,"terms":["johnson fitness & wellness","johnson fitness & wellness store"],"tags":{"brand:wikidata":"Q120785852","shop":"sports"},"addTags":{"brand":"Johnson Fitness & Wellness","brand:wikidata":"Q120785852","name":"Johnson Fitness & Wellness","shop":"sports"}},"shop/supermarket/bigc-a1bbd8":{"name":"Big C","locationSet":{"include":["th","vn"]},"geometry":["point","area"],"matchScore":2,"terms":["big c","บิ๊กซี"],"tags":{"brand:wikidata":"Q858665","shop":"supermarket"},"addTags":{"brand":"Big C","brand:en":"Big C","brand:th":"บิ๊กซี","brand:wikidata":"Q858665","name":"Big C","name:en":"Big C","name:th":"บิ๊กซี","shop":"supermarket"}},"shop/supermarket/gianthypermarket-e1160b":{"name":"Giant Hypermarket","locationSet":{"include":["id","my","sg","vn"]},"geometry":["point","area"],"matchScore":2,"terms":["giant hypermarket"],"tags":{"brand:wikidata":"Q4217013","shop":"supermarket"},"addTags":{"brand":"Giant Hypermarket","brand:wikidata":"Q4217013","name":"Giant Hypermarket","shop":"supermarket"}},"shop/supermarket/winmart-45db57":{"name":"WinMart","locationSet":{"include":["vn"]},"geometry":["point","area"],"matchScore":2,"terms":["vinmart","winmart"],"tags":{"brand:wikidata":"Q60245505","shop":"supermarket"},"addTags":{"brand":"WinMart","brand:wikidata":"Q60245505","name":"WinMart","shop":"supermarket"}},"tourism/hotel/anantara-e8534c":{"name":"Anantara","locationSet":{"include":["ae","br","cn","es","fr","hu","id","ie","it","kh","mu","mv","my","mz","nl","om","pt","qa","sc","th","tn","vn","zm"]},"geometry":["point","area"],"matchScore":2,"terms":["anantara"],"fields":["name","brand","{tourism/hotel}"],"tags":{"brand:wikidata":"Q112671781","tourism":"hotel"},"addTags":{"brand":"Anantara","brand:wikidata":"Q112671781","name":"Anantara","tourism":"hotel"}},"tourism/hotel/avanihotelsandresorts-e9c192":{"name":"AVANI","locationSet":{"include":["ae","au","bw","id","kh","kr","la","lk","ls","my","mz","na","nz","om","pt","sc","th","vn","zm"]},"geometry":["point","area"],"matchScore":2,"terms":["avani hotels & resorts"],"fields":["name","brand","{tourism/hotel}"],"tags":{"brand:wikidata":"Q48989823","tourism":"hotel"},"addTags":{"brand":"Avani Hotels & Resorts","brand:wikidata":"Q48989823","name":"Avani Hotels & Resorts","tourism":"hotel"}},"tourism/hotel/lottehotel-304b57":{"name":"Lotte Hotel","locationSet":{"include":["jp","kr","mm","ru","us","uz","vn"]},"geometry":["point","area"],"matchScore":2,"terms":["lotte","lotte hotels & resorts"],"fields":["name","brand","{tourism/hotel}"],"tags":{"brand:wikidata":"Q326720","tourism":"hotel"},"addTags":{"brand":"Lotte Hotels & Resorts","brand:wikidata":"Q326720","name":"Lotte Hotel","short_name":"Lotte","tourism":"hotel"}},"tourism/hotel/reddoorz-25d260":{"name":"RedDoorz","locationSet":{"include":["id","ph","sg","vn"]},"geometry":["point","area"],"matchScore":2,"terms":["reddoorz"],"fields":["name","brand","{tourism/hotel}"],"tags":{"brand:wikidata":"Q78186049","tourism":"hotel"},"addTags":{"brand":"RedDoorz","brand:wikidata":"Q78186049","name":"RedDoorz","tourism":"hotel"}},"amenity/hospital/columbiaasia-fcf381":{"name":"Columbia Asia Hospital","locationSet":{"include":["id","my","vn"]},"geometry":["area","point"],"matchScore":2,"terms":["columbia asia"],"fields":["name","operator","{amenity/hospital}"],"reference":{"key":"amenity","value":"hospital"},"tags":{"amenity":"hospital","operator:wikidata":"Q5149612"},"addTags":{"amenity":"hospital","healthcare":"hospital","name":"Columbia Asia Hospital","operator":"Columbia Asia","operator:wikidata":"Q5149612"}},"amenity/post_box/vietnampost-5b5816":{"name":"Vietnam Post","locationSet":{"include":["vn"]},"geometry":["point","vertex"],"matchScore":2,"terms":["vietnam post","vietnam post corporation","vnpost"],"tags":{"amenity":"post_box","operator:wikidata":"Q112150791"},"addTags":{"amenity":"post_box","operator":"Vietnam Post","operator:wikidata":"Q112150791"}},"amenity/post_office/vietnampost-c0dded":{"name":"Vietnam Post","locationSet":{"include":["vn"]},"geometry":["point","area"],"matchScore":2,"terms":["vietnam post","vietnam post corporation","vnpost"],"fields":["name","operator","{amenity/post_office}"],"tags":{"amenity":"post_office","operator:wikidata":"Q112150791"},"addTags":{"amenity":"post_office","operator":"Vietnam Post","operator:wikidata":"Q112150791"}},"power/generator/evn-640b1a":{"name":"EVN (Việt Nam)","locationSet":{"include":["vn"]},"geometry":["point","vertex","area"],"matchScore":2,"terms":["evn","evn naturkraft"],"tags":{"operator:wikidata":"Q3558046","power":"generator"},"addTags":{"operator":"EVN","operator:wikidata":"Q3558046","power":"generator"}},"power/line/evn-e72a33":{"name":"EVN (Việt Nam)","locationSet":{"include":["vn"]},"geometry":["line"],"matchScore":2,"terms":["evn"],"tags":{"operator:wikidata":"Q3558046","power":"line"},"addTags":{"operator":"EVN","operator:wikidata":"Q3558046","power":"line"}},"power/minor_line/evn-45575f":{"name":"EVN (Việt Nam)","locationSet":{"include":["vn"]},"geometry":["line"],"matchScore":2,"terms":["evn"],"tags":{"operator:wikidata":"Q3558046","power":"minor_line"},"addTags":{"operator":"EVN","operator:wikidata":"Q3558046","power":"minor_line"}},"power/plant/evn-2004ec":{"name":"EVN (Việt Nam)","locationSet":{"include":["vn"]},"geometry":["area"],"matchScore":2,"terms":["evn"],"tags":{"operator:wikidata":"Q3558046","power":"plant"},"addTags":{"operator":"EVN","operator:wikidata":"Q3558046","power":"plant"}},"power/pole/evn-5e319c":{"name":"EVN (Việt Nam)","locationSet":{"include":["vn"]},"geometry":["point","vertex"],"matchScore":2,"terms":["evn"],"tags":{"operator:wikidata":"Q3558046","power":"pole"},"addTags":{"operator":"EVN","operator:wikidata":"Q3558046","power":"pole"}},"power/substation/evn-64dced":{"name":"EVN (Việt Nam)","locationSet":{"include":["vn"]},"geometry":["area","point"],"matchScore":2,"terms":["evn"],"tags":{"operator:wikidata":"Q3558046","power":"substation"},"addTags":{"operator":"EVN","operator:wikidata":"Q3558046","power":"substation"}},"power/tower/evn-46fdad":{"name":"EVN (Việt Nam)","locationSet":{"include":["vn"]},"geometry":["point","vertex"],"matchScore":2,"terms":["evn"],"tags":{"operator:wikidata":"Q3558046","power":"tower"},"addTags":{"operator":"EVN","operator:wikidata":"Q3558046","power":"tower"}},"power/transformer/evn-1127e0":{"name":"EVN (Việt Nam)","locationSet":{"include":["vn"]},"geometry":["point","vertex"],"matchScore":2,"terms":["evn"],"tags":{"operator:wikidata":"Q3558046","power":"transformer"},"addTags":{"operator":"EVN","operator:wikidata":"Q3558046","power":"transformer"}},"type/route/power/evn-2a64cf":{"name":"EVN (Việt Nam)","locationSet":{"include":["vn"]},"geometry":["relation"],"matchScore":2,"terms":["evn","vietnam energy"],"reference":{"key":"route","value":"power"},"tags":{"operator:wikidata":"Q3558046","route":"power","type":"route"},"addTags":{"operator":"EVN","operator:official":"Vietnam Energy","operator:wikidata":"Q3558046","route":"power","type":"route"}}}