{"amenity/atm/absolutbank-18595f":{"name":"Абсолютбанк","locationSet":{"include":["by"]},"geometry":["point","vertex"],"matchScore":2,"terms":["absolutbank","абсалютбанк","абсолютбанк"],"fields":["name","brand","{amenity/atm}"],"tags":{"amenity":"atm","brand:wikidata":"Q13028148"},"addTags":{"amenity":"atm","brand":"Абсолютбанк","brand:be":"Абсалютбанк","brand:en":"Absolutbank","brand:ru":"Абсолютбанк","brand:wikidata":"Q13028148","name:be":"Абсалютбанк","name:en":"Absolutbank","name:ru":"Абсолютбанк","operator":"Абсолютбанк","operator:wikidata":"Q13028148"}},"amenity/atm/alfabank-18595f":{"name":"Альфа-Банк (Беларусь)","locationSet":{"include":["by"]},"geometry":["point","vertex"],"matchScore":2,"terms":["alfa-bank","альфа-банк"],"fields":["name","brand","{amenity/atm}"],"tags":{"amenity":"atm","brand:wikidata":"Q3919652"},"addTags":{"amenity":"atm","brand":"Альфа-Банк","brand:be":"Альфа-Банк","brand:en":"Alfa-Bank","brand:ru":"Альфа-Банк","brand:wikidata":"Q3919652","name:be":"Альфа-Банк","name:en":"Alfa-Bank","name:ru":"Альфа-Банк","operator":"Альфа-Банк","operator:wikidata":"Q3919652"}},"amenity/atm/vtbbank-18595f":{"name":"Банк ВТБ (Беларусь)","locationSet":{"include":["by"]},"geometry":["point","vertex"],"matchScore":2,"terms":["vtb bank","банк втб","втб","втб банк"],"fields":["name","brand","{amenity/atm}"],"tags":{"amenity":"atm","brand:wikidata":"Q6703916"},"addTags":{"amenity":"atm","brand":"Банк ВТБ","brand:be":"Банк ВТБ","brand:en":"VTB Bank","brand:ru":"Банк ВТБ","brand:wikidata":"Q6703916","name:be":"Банк ВТБ","name:en":"VTB Bank","name:ru":"Банк ВТБ","operator":"Банк ВТБ","operator:wikidata":"Q6703916"}},"amenity/atm/bankdabrabyt-18595f":{"name":"Банк Дабрабыт","locationSet":{"include":["by"]},"geometry":["point","vertex"],"matchScore":2,"terms":["bank dabrabyt","банк дабрабыт","дабрабыт"],"fields":["name","brand","{amenity/atm}"],"tags":{"amenity":"atm","brand:wikidata":"Q13028634"},"addTags":{"amenity":"atm","brand":"Банк Дабрабыт","brand:be":"Банк Дабрабыт","brand:en":"Bank Dabrabyt","brand:ru":"Банк Дабрабыт","brand:wikidata":"Q13028634","name:be":"Банк Дабрабыт","name:en":"Bank Dabrabyt","name:ru":"Банк Дабрабыт","operator":"Банк Дабрабыт","operator:wikidata":"Q13028634"}},"amenity/atm/resheniebank-18595f":{"name":"Банк Решение","locationSet":{"include":["by"]},"geometry":["point","vertex"],"matchScore":2,"terms":["reshenie bank","банк рашэнне","банк решение"],"fields":["name","brand","{amenity/atm}"],"tags":{"amenity":"atm","brand:wikidata":"Q13033027"},"addTags":{"amenity":"atm","brand":"Банк Решение","brand:be":"Банк Рашэнне","brand:en":"Reshenie Bank","brand:ru":"Банк Решение","brand:wikidata":"Q13033027","name:be":"Банк Рашэнне","name:en":"Reshenie Bank","name:ru":"Банк Решение","operator":"Банк Решение","operator:wikidata":"Q13033027"}},"amenity/atm/belagroprombank-18595f":{"name":"Белагропромбанк","locationSet":{"include":["by"]},"geometry":["point","vertex"],"matchScore":2,"terms":["belagroprom bank","белаграпрамбанк","белагропромбанк"],"fields":["name","brand","{amenity/atm}"],"tags":{"amenity":"atm","brand:wikidata":"Q1991373"},"addTags":{"amenity":"atm","brand":"Белагропромбанк","brand:be":"Белаграпрамбанк","brand:en":"Belagroprom Bank","brand:ru":"Белагропромбанк","brand:wikidata":"Q1991373","name:be":"Белаграпрамбанк","name:en":"Belagroprom Bank","name:ru":"Белагропромбанк","operator":"Белагропромбанк","operator:wikidata":"Q1991373"}},"amenity/atm/belarusbank-18595f":{"name":"Беларусбанк","locationSet":{"include":["by"]},"geometry":["point","vertex"],"matchScore":2,"terms":["belarusbank","беларусбанк","беларусьбанк","белорусбанк"],"fields":["name","brand","{amenity/atm}"],"tags":{"amenity":"atm","brand:wikidata":"Q1997334"},"addTags":{"amenity":"atm","brand":"Беларусбанк","brand:be":"Беларусбанк","brand:en":"Belarusbank","brand:ru":"Беларусбанк","brand:wikidata":"Q1997334","name:be":"Беларусбанк","name:en":"Belarusbank","name:ru":"Беларусбанк","operator":"Беларусбанк","operator:wikidata":"Q1997334"}},"amenity/atm/belveb-18595f":{"name":"БелВЭБ","locationSet":{"include":["by"]},"geometry":["point","vertex"],"matchScore":2,"terms":["belveb","белвнешэкономбанк","белвэб"],"fields":["name","brand","{amenity/atm}"],"tags":{"amenity":"atm","brand:wikidata":"Q3919664"},"addTags":{"alt_name:ru":"Белвнешэкономбанк","amenity":"atm","brand":"БелВЭБ","brand:be":"БелВЭБ","brand:en":"BelVEB","brand:ru":"БелВЭБ","brand:wikidata":"Q3919664","name:be":"БелВЭБ","name:en":"BelVEB","name:ru":"БелВЭБ","operator":"БелВЭБ","operator:wikidata":"Q3919664"}},"amenity/atm/belgazprombank-18595f":{"name":"Белгазпромбанк","locationSet":{"include":["by"]},"geometry":["point","vertex"],"matchScore":2,"terms":["belgazprombank","белгазпрамбанк","белгазпромбанк"],"fields":["name","brand","{amenity/atm}"],"tags":{"amenity":"atm","brand:wikidata":"Q3919670"},"addTags":{"amenity":"atm","brand":"Белгазпромбанк","brand:be":"Белгазпрамбанк","brand:en":"Belgazprombank","brand:ru":"Белгазпромбанк","brand:wikidata":"Q3919670","name:be":"Белгазпрамбанк","name:en":"Belgazprombank","name:ru":"Белгазпромбанк","operator":"Белгазпромбанк","operator:wikidata":"Q3919670"}},"amenity/atm/belinvestbank-18595f":{"name":"Белинвестбанк","locationSet":{"include":["by"]},"geometry":["point","vertex"],"matchScore":2,"terms":["belinvestbank","белинвестбанк","белінвестбанк"],"fields":["name","brand","{amenity/atm}"],"tags":{"amenity":"atm","brand:wikidata":"Q4081940"},"addTags":{"amenity":"atm","brand":"Белинвестбанк","brand:be":"Белінвестбанк","brand:en":"Belinvestbank","brand:ru":"Белинвестбанк","brand:wikidata":"Q4081940","name:be":"Белінвестбанк","name:en":"Belinvestbank","name:ru":"Белинвестбанк","operator":"Белинвестбанк","operator:wikidata":"Q4081940"}},"amenity/atm/bnbbank-18595f":{"name":"БНБ-Банк","locationSet":{"include":["by"]},"geometry":["point","vertex"],"matchScore":2,"terms":["bnb-bank","бнб-банк"],"fields":["name","brand","{amenity/atm}"],"tags":{"amenity":"atm","brand:wikidata":"Q3920002"},"addTags":{"amenity":"atm","brand":"БНБ-Банк","brand:be":"БНБ-Банк","brand:en":"BNB-Bank","brand:ru":"БНБ-Банк","brand:wikidata":"Q3920002","name:be":"БНБ-Банк","name:en":"BNB-Bank","name:ru":"БНБ-Банк","operator":"БНБ-Банк","operator:wikidata":"Q3920002"}},"amenity/atm/bsbbank-18595f":{"name":"БСБ Банк","locationSet":{"include":["by"]},"geometry":["point","vertex"],"matchScore":2,"terms":["bsb bank","белсвиссбанк","бсб банк"],"fields":["name","brand","{amenity/atm}"],"tags":{"amenity":"atm","brand:wikidata":"Q3919666"},"addTags":{"amenity":"atm","brand":"БСБ Банк","brand:be":"БСБ Банк","brand:en":"BSB Bank","brand:ru":"БСБ Банк","brand:wikidata":"Q3919666","name:be":"БСБ Банк","name:en":"BSB Bank","name:ru":"БСБ Банк","operator":"БСБ Банк","operator:wikidata":"Q3919666"}},"amenity/atm/btabank-18595f":{"name":"БТА Банк (Беларусь)","locationSet":{"include":["by"]},"geometry":["point","vertex"],"matchScore":2,"terms":["bta bank","бта банк"],"fields":["name","brand","{amenity/atm}"],"tags":{"amenity":"atm","brand:wikidata":"Q13028600"},"addTags":{"amenity":"atm","brand":"БТА Банк","brand:be":"БТА Банк","brand:en":"BTA Bank","brand:ru":"БТА Банк","brand:wikidata":"Q13028600","name:be":"БТА Банк","name:en":"BTA Bank","name:ru":"БТА Банк","operator":"БТА Банк","operator:wikidata":"Q13028600"}},"amenity/atm/deltabank-18595f":{"name":"Дельта Банк","locationSet":{"include":["by"]},"geometry":["point","vertex"],"matchScore":2,"terms":["delta bank","дельта банк","дэльта банк"],"fields":["name","brand","{amenity/atm}"],"tags":{"amenity":"atm","brand:wikidata":"Q13030724"},"addTags":{"amenity":"atm","brand":"Дельта Банк","brand:be":"Дэльта Банк","brand:en":"Delta Bank","brand:ru":"Дельта Банк","brand:wikidata":"Q13030724","name:be":"Дэльта Банк","name:en":"Delta Bank","name:ru":"Дельта Банк","operator":"Дельта Банк","operator:wikidata":"Q13030724"}},"amenity/atm/ideabank-18595f":{"name":"Идея Банк","locationSet":{"include":["by"]},"geometry":["point","vertex"],"matchScore":2,"terms":["idea bank","идея банк","ідэя банк"],"fields":["name","brand","{amenity/atm}"],"searchable":false,"tags":{"amenity":"atm","brand:wikidata":"Q18408334"},"addTags":{"amenity":"atm","brand":"Идея Банк","brand:be":"Ідэя Банк","brand:en":"Idea Bank","brand:ru":"Идея Банк","brand:wikidata":"Q18408334","name:be":"Ідэя Банк","name:en":"Idea Bank","name:ru":"Идея Банк","operator":"Идея Банк","operator:wikidata":"Q18408334"}},"amenity/atm/mtbank-18595f":{"name":"МТБанк","locationSet":{"include":["by"]},"geometry":["point","vertex"],"matchScore":2,"terms":["mtbank","мтбанк"],"fields":["name","brand","{amenity/atm}"],"tags":{"amenity":"atm","brand:wikidata":"Q13031624"},"addTags":{"amenity":"atm","brand":"МТБанк","brand:be":"МТБанк","brand:en":"MTBank","brand:ru":"МТБанк","brand:wikidata":"Q13031624","name:be":"МТБанк","name:en":"MTBank","name:ru":"МТБанк","operator":"МТБанк","operator:wikidata":"Q13031624"}},"amenity/atm/paritetbank-18595f":{"name":"Паритетбанк","locationSet":{"include":["by"]},"geometry":["point","vertex"],"matchScore":2,"terms":["paritetbank","паритетбанк","парытэтбанк"],"fields":["name","brand","{amenity/atm}"],"tags":{"amenity":"atm","brand:wikidata":"Q13031909"},"addTags":{"amenity":"atm","brand":"Паритетбанк","brand:be":"Парытэтбанк","brand:en":"Paritetbank","brand:ru":"Паритетбанк","brand:wikidata":"Q13031909","name:be":"Парытэтбанк","name:en":"Paritetbank","name:ru":"Паритетбанк","operator":"Паритетбанк","operator:wikidata":"Q13031909"}},"amenity/atm/priorbank-18595f":{"name":"Приорбанк","locationSet":{"include":["by"]},"geometry":["point","vertex"],"matchScore":2,"terms":["priorbank","приорбанк","пріорбанк"],"fields":["name","brand","{amenity/atm}"],"tags":{"amenity":"atm","brand:wikidata":"Q3919658"},"addTags":{"amenity":"atm","brand":"Приорбанк","brand:be":"Пріорбанк","brand:be-tarask":"Прыёрбанк","brand:en":"PriorBank","brand:ru":"Приорбанк","brand:wikidata":"Q3919658","name:be":"Пріорбанк","name:be-tarask":"Прыёрбанк","name:en":"PriorBank","name:ru":"Приорбанк","operator":"Приорбанк","operator:wikidata":"Q3919658"}},"amenity/atm/gbdbank-18595f":{"name":"РРБ-Банк","locationSet":{"include":["by"]},"geometry":["point","vertex"],"matchScore":2,"terms":["gbd-bank","банк роста и развития бизнеса","ррб-банк"],"fields":["name","brand","{amenity/atm}"],"tags":{"amenity":"atm","brand:wikidata":"Q13032120"},"addTags":{"alt_name:ru":"Банк роста и развития бизнеса","amenity":"atm","brand":"РРБ-Банк","brand:be":"РРБ-Банк","brand:en":"GBD-Bank","brand:ru":"РРБ-Банк","brand:wikidata":"Q13032120","name:be":"РРБ-Банк","name:en":"GBD-Bank","name:ru":"РРБ-Банк","operator":"РРБ-Банк","operator:wikidata":"Q13032120"}},"amenity/atm/sberbank-18595f":{"name":"Сбер Банк (Беларусь)","locationSet":{"include":["by"]},"geometry":["point","vertex"],"matchScore":2,"terms":["sber bank","бпс-сбербанк","сбер банк"],"fields":["name","brand","{amenity/atm}"],"tags":{"amenity":"atm","brand:wikidata":"Q2074915"},"addTags":{"amenity":"atm","brand":"Сбер Банк","brand:en":"Sber Bank","brand:wikidata":"Q2074915","name:be":"Сбер Банк","name:en":"Sber Bank","name:ru":"Сбер Банк","operator":"Сбер Банк","operator:wikidata":"Q2074915"}},"amenity/atm/statusbank-18595f":{"name":"СтатусБанк","locationSet":{"include":["by"]},"geometry":["point","vertex"],"matchScore":2,"terms":["statusbank","статусбанк"],"fields":["name","brand","{amenity/atm}"],"tags":{"amenity":"atm","brand:wikidata":"Q13134338"},"addTags":{"amenity":"atm","brand":"СтатусБанк","brand:be":"СтатусБанк","brand:en":"StatusBank","brand:ru":"СтатусБанк","brand:wikidata":"Q13134338","name:be":"СтатусБанк","name:en":"StatusBank","name:ru":"СтатусБанк","operator":"СтатусБанк","operator:wikidata":"Q13134338"}},"amenity/atm/technobank-18595f":{"name":"Технобанк","locationSet":{"include":["by"]},"geometry":["point","vertex"],"matchScore":2,"terms":["technobank","технобанк","тэхнабанк"],"fields":["name","brand","{amenity/atm}"],"tags":{"amenity":"atm","brand:wikidata":"Q13033069"},"addTags":{"amenity":"atm","brand":"Технобанк","brand:be":"Тэхнабанк","brand:en":"Technobank","brand:ru":"Технобанк","brand:wikidata":"Q13033069","name:be":"Тэхнабанк","name:en":"Technobank","name:ru":"Технобанк","operator":"Технобанк","operator:wikidata":"Q13033069"}},"amenity/atm/2cdec5-18595f":{"name":"ТК Банк","locationSet":{"include":["by"]},"geometry":["point","vertex"],"matchScore":2,"terms":["банк торговый капитал","гк банк","тк банк","тс bank"],"fields":["name","brand","{amenity/atm}"],"tags":{"amenity":"atm","brand:wikidata":"Q13028633"},"addTags":{"alt_name:ru":"Банк торговый капитал","amenity":"atm","brand":"ТК Банк","brand:be":"ГК Банк","brand:en":"ТС Bank","brand:ru":"ТК Банк","brand:wikidata":"Q13028633","name:be":"ГК Банк","name:en":"ТС Bank","name:ru":"ТК Банк","operator":"ТК Банк","operator:wikidata":"Q13028633"}},"amenity/atm/fransabank-18595f":{"name":"Франсабанк","locationSet":{"include":["by"]},"geometry":["point","vertex"],"matchScore":2,"terms":["fransabank","франсабанк"],"fields":["name","brand","{amenity/atm}"],"searchable":false,"tags":{"amenity":"atm","brand:wikidata":"Q13033234"},"addTags":{"amenity":"atm","brand":"Франсабанк","brand:be":"Франсабанк","brand:en":"Fransabank","brand:ru":"Франсабанк","brand:wikidata":"Q13033234","name:be":"Франсабанк","name:en":"Fransabank","name:ru":"Франсабанк","operator":"Франсабанк","operator:wikidata":"Q13033234"}},"amenity/atm/zepterbank-18595f":{"name":"Цептер Банк","locationSet":{"include":["by"]},"geometry":["point","vertex"],"matchScore":2,"terms":["zepter bank","цептер банк","цэптар банк"],"fields":["name","brand","{amenity/atm}"],"tags":{"amenity":"atm","brand:wikidata":"Q13033367"},"addTags":{"amenity":"atm","brand":"Цептер Банк","brand:be":"Цэптар Банк","brand:en":"Zepter Bank","brand:ru":"Цептер Банк","brand:wikidata":"Q13033367","name:be":"Цэптар Банк","name:en":"Zepter Bank","name:ru":"Цептер Банк","operator":"Цептер Банк","operator:wikidata":"Q13033367"}},"amenity/bank/absolutbank-4aad73":{"name":"Абсолютбанк","locationSet":{"include":["by"]},"geometry":["point","area"],"matchScore":2,"terms":["absolutbank","абсалютбанк","абсолютбанк"],"tags":{"amenity":"bank","brand:wikidata":"Q13028148"},"addTags":{"amenity":"bank","brand":"Абсолютбанк","brand:be":"Абсалютбанк","brand:en":"Absolutbank","brand:ru":"Абсолютбанк","brand:wikidata":"Q13028148","name":"Абсолютбанк","name:be":"Абсалютбанк","name:en":"Absolutbank","name:ru":"Абсолютбанк"}},"amenity/bank/alfabank-4aad73":{"name":"Альфа-Банк (Беларусь)","locationSet":{"include":["by"]},"geometry":["point","area"],"matchScore":2,"terms":["alfa-bank","альфа-банк"],"tags":{"amenity":"bank","brand:wikidata":"Q3919652"},"addTags":{"amenity":"bank","brand":"Альфа-Банк","brand:be":"Альфа-Банк","brand:en":"Alfa-Bank","brand:ru":"Альфа-Банк","brand:wikidata":"Q3919652","name":"Альфа-Банк","name:be":"Альфа-Банк","name:en":"Alfa-Bank","name:ru":"Альфа-Банк"}},"amenity/bank/vtbbank-4aad73":{"name":"Банк ВТБ (Беларусь)","locationSet":{"include":["by"]},"geometry":["point","area"],"matchScore":2,"terms":["vtb bank","банк втб","втб","втб банк"],"tags":{"amenity":"bank","brand:wikidata":"Q6703916"},"addTags":{"amenity":"bank","brand":"Банк ВТБ","brand:be":"Банк ВТБ","brand:en":"VTB Bank","brand:ru":"Банк ВТБ","brand:wikidata":"Q6703916","name":"Банк ВТБ","name:be":"Банк ВТБ","name:en":"VTB Bank","name:ru":"Банк ВТБ"}},"amenity/bank/bankdabrabyt-4aad73":{"name":"Банк Дабрабыт","locationSet":{"include":["by"]},"geometry":["point","area"],"matchScore":2,"terms":["bank dabrabyt","банк дабрабыт","дабрабыт"],"tags":{"amenity":"bank","brand:wikidata":"Q13028634"},"addTags":{"amenity":"bank","brand":"Банк Дабрабыт","brand:be":"Банк Дабрабыт","brand:en":"Bank Dabrabyt","brand:ru":"Банк Дабрабыт","brand:wikidata":"Q13028634","name":"Банк Дабрабыт","name:be":"Банк Дабрабыт","name:en":"Bank Dabrabyt","name:ru":"Банк Дабрабыт"}},"amenity/bank/resheniebank-4aad73":{"name":"Банк Решение","locationSet":{"include":["by"]},"geometry":["point","area"],"matchScore":2,"terms":["reshenie bank","банк рашэнне","банк решение"],"tags":{"amenity":"bank","brand:wikidata":"Q13033027"},"addTags":{"amenity":"bank","brand":"Банк Решение","brand:be":"Банк Рашэнне","brand:en":"Reshenie Bank","brand:ru":"Банк Решение","brand:wikidata":"Q13033027","name":"Банк Решение","name:be":"Банк Рашэнне","name:en":"Reshenie Bank","name:ru":"Банк Решение"}},"amenity/bank/belagroprombank-4aad73":{"name":"Белагропромбанк","locationSet":{"include":["by"]},"geometry":["point","area"],"matchScore":2,"terms":["belagroprom bank","белаграпрамбанк","белагропромбанк"],"tags":{"amenity":"bank","brand:wikidata":"Q1991373"},"addTags":{"amenity":"bank","brand":"Белагропромбанк","brand:be":"Белаграпрамбанк","brand:en":"Belagroprom Bank","brand:ru":"Белагропромбанк","brand:wikidata":"Q1991373","name":"Белагропромбанк","name:be":"Белаграпрамбанк","name:en":"Belagroprom Bank","name:ru":"Белагропромбанк"}},"amenity/bank/belarusbank-4aad73":{"name":"Беларусбанк","locationSet":{"include":["by"]},"geometry":["point","area"],"matchScore":2,"terms":["belarusbank","беларусбанк","беларусьбанк","белорусбанк"],"tags":{"amenity":"bank","brand:wikidata":"Q1997334"},"addTags":{"amenity":"bank","brand":"Беларусбанк","brand:be":"Беларусбанк","brand:en":"Belarusbank","brand:ru":"Беларусбанк","brand:wikidata":"Q1997334","name":"Беларусбанк","name:be":"Беларусбанк","name:en":"Belarusbank","name:ru":"Беларусбанк"}},"amenity/bank/belveb-4aad73":{"name":"БелВЭБ","locationSet":{"include":["by"]},"geometry":["point","area"],"matchScore":2,"terms":["belveb","белвнешэкономбанк","белвэб"],"tags":{"amenity":"bank","brand:wikidata":"Q3919664"},"addTags":{"alt_name:ru":"Белвнешэкономбанк","amenity":"bank","brand":"БелВЭБ","brand:be":"БелВЭБ","brand:en":"BelVEB","brand:ru":"БелВЭБ","brand:wikidata":"Q3919664","name":"БелВЭБ","name:be":"БелВЭБ","name:en":"BelVEB","name:ru":"БелВЭБ"}},"amenity/bank/belgazprombank-4aad73":{"name":"Белгазпромбанк","locationSet":{"include":["by"]},"geometry":["point","area"],"matchScore":2,"terms":["belgazprombank","белгазпрамбанк","белгазпромбанк"],"tags":{"amenity":"bank","brand:wikidata":"Q3919670"},"addTags":{"amenity":"bank","brand":"Белгазпромбанк","brand:be":"Белгазпрамбанк","brand:en":"Belgazprombank","brand:ru":"Белгазпромбанк","brand:wikidata":"Q3919670","name":"Белгазпромбанк","name:be":"Белгазпрамбанк","name:en":"Belgazprombank","name:ru":"Белгазпромбанк"}},"amenity/bank/belinvestbank-4aad73":{"name":"Белинвестбанк","locationSet":{"include":["by"]},"geometry":["point","area"],"matchScore":2,"terms":["belinvestbank","белинвестбанк","белінвестбанк"],"tags":{"amenity":"bank","brand:wikidata":"Q4081940"},"addTags":{"amenity":"bank","brand":"Белинвестбанк","brand:be":"Белінвестбанк","brand:en":"Belinvestbank","brand:ru":"Белинвестбанк","brand:wikidata":"Q4081940","name":"Белинвестбанк","name:be":"Белінвестбанк","name:en":"Belinvestbank","name:ru":"Белинвестбанк"}},"amenity/bank/bnbbank-4aad73":{"name":"БНБ-Банк","locationSet":{"include":["by"]},"geometry":["point","area"],"matchScore":2,"terms":["bnb-bank","бнб-банк"],"tags":{"amenity":"bank","brand:wikidata":"Q3920002"},"addTags":{"amenity":"bank","brand":"БНБ-Банк","brand:be":"БНБ-Банк","brand:en":"BNB-Bank","brand:ru":"БНБ-Банк","brand:wikidata":"Q3920002","name":"БНБ-Банк","name:be":"БНБ-Банк","name:en":"BNB-Bank","name:ru":"БНБ-Банк"}},"amenity/bank/bsbbank-4aad73":{"name":"БСБ Банк","locationSet":{"include":["by"]},"geometry":["point","area"],"matchScore":2,"terms":["bsb bank","белсвиссбанк","бсб банк"],"tags":{"amenity":"bank","brand:wikidata":"Q3919666"},"addTags":{"amenity":"bank","brand":"БСБ Банк","brand:be":"БСБ Банк","brand:en":"BSB Bank","brand:ru":"БСБ Банк","brand:wikidata":"Q3919666","name":"БСБ Банк","name:be":"БСБ Банк","name:en":"BSB Bank","name:ru":"БСБ Банк"}},"amenity/bank/btabank-4aad73":{"name":"БТА Банк (Беларусь)","locationSet":{"include":["by"]},"geometry":["point","area"],"matchScore":2,"terms":["bta bank","бта банк"],"tags":{"amenity":"bank","brand:wikidata":"Q13028600"},"addTags":{"amenity":"bank","brand":"БТА Банк","brand:be":"БТА Банк","brand:en":"BTA Bank","brand:ru":"БТА Банк","brand:wikidata":"Q13028600","name":"БТА Банк","name:be":"БТА Банк","name:en":"BTA Bank","name:ru":"БТА Банк"}},"amenity/bank/deltabank-4aad73":{"name":"Дельта Банк","locationSet":{"include":["by"]},"geometry":["point","area"],"matchScore":2,"terms":["delta bank","дельта банк","дэльта банк"],"tags":{"amenity":"bank","brand:wikidata":"Q13030724"},"addTags":{"amenity":"bank","brand":"Дельта Банк","brand:be":"Дэльта Банк","brand:en":"Delta Bank","brand:ru":"Дельта Банк","brand:wikidata":"Q13030724","name":"Дельта Банк","name:be":"Дэльта Банк","name:en":"Delta Bank","name:ru":"Дельта Банк"}},"amenity/bank/ideabank-4aad73":{"name":"Идея Банк","locationSet":{"include":["by"]},"geometry":["point","area"],"matchScore":2,"terms":["idea bank","идея банк","ідэя банк"],"searchable":false,"tags":{"amenity":"bank","brand:wikidata":"Q18408334"},"addTags":{"amenity":"bank","brand":"Идея Банк","brand:be":"Ідэя Банк","brand:en":"Idea Bank","brand:ru":"Идея Банк","brand:wikidata":"Q18408334","name":"Идея Банк","name:be":"Ідэя Банк","name:en":"Idea Bank","name:ru":"Идея Банк"}},"amenity/bank/mtbank-4aad73":{"name":"МТБанк","locationSet":{"include":["by"]},"geometry":["point","area"],"matchScore":2,"terms":["mtbank","мтбанк"],"tags":{"amenity":"bank","brand:wikidata":"Q13031624"},"addTags":{"amenity":"bank","brand":"МТБанк","brand:be":"МТБанк","brand:en":"MTBank","brand:ru":"МТБанк","brand:wikidata":"Q13031624","name":"МТБанк","name:be":"МТБанк","name:en":"MTBank","name:ru":"МТБанк"}},"amenity/bank/paritetbank-4aad73":{"name":"Паритетбанк","locationSet":{"include":["by"]},"geometry":["point","area"],"matchScore":2,"terms":["paritetbank","паритетбанк","парытэтбанк"],"tags":{"amenity":"bank","brand:wikidata":"Q13031909"},"addTags":{"amenity":"bank","brand":"Паритетбанк","brand:be":"Парытэтбанк","brand:en":"Paritetbank","brand:ru":"Паритетбанк","brand:wikidata":"Q13031909","name":"Паритетбанк","name:be":"Парытэтбанк","name:en":"Paritetbank","name:ru":"Паритетбанк"}},"amenity/bank/priorbank-4aad73":{"name":"Приорбанк","locationSet":{"include":["by"]},"geometry":["point","area"],"matchScore":2,"terms":["priorbank","приорбанк","пріорбанк"],"tags":{"amenity":"bank","brand:wikidata":"Q3919658"},"addTags":{"amenity":"bank","brand":"Приорбанк","brand:be":"Пріорбанк","brand:be-tarask":"Прыёрбанк","brand:en":"PriorBank","brand:ru":"Приорбанк","brand:wikidata":"Q3919658","name":"Приорбанк","name:be":"Пріорбанк","name:be-tarask":"Прыёрбанк","name:en":"PriorBank","name:ru":"Приорбанк"}},"amenity/bank/gbdbank-4aad73":{"name":"РРБ-Банк","locationSet":{"include":["by"]},"geometry":["point","area"],"matchScore":2,"terms":["gbd-bank","банк роста и развития бизнеса","ррб-банк"],"tags":{"amenity":"bank","brand:wikidata":"Q13032120"},"addTags":{"alt_name:ru":"Банк роста и развития бизнеса","amenity":"bank","brand":"РРБ-Банк","brand:be":"РРБ-Банк","brand:en":"GBD-Bank","brand:ru":"РРБ-Банк","brand:wikidata":"Q13032120","name":"РРБ-Банк","name:be":"РРБ-Банк","name:en":"GBD-Bank","name:ru":"РРБ-Банк"}},"amenity/bank/sberbank-4aad73":{"name":"Сбер Банк (Беларусь)","locationSet":{"include":["by"]},"geometry":["point","area"],"matchScore":2,"terms":["sber bank","бпс-сбербанк","сбер банк"],"tags":{"amenity":"bank","brand:wikidata":"Q2074915"},"addTags":{"amenity":"bank","brand":"Сбер Банк","brand:en":"Sber Bank","brand:wikidata":"Q2074915","name":"Сбер Банк","name:be":"Сбер Банк","name:en":"Sber Bank","name:ru":"Сбер Банк"}},"amenity/bank/statusbank-4aad73":{"name":"СтатусБанк","locationSet":{"include":["by"]},"geometry":["point","area"],"matchScore":2,"terms":["statusbank","статусбанк"],"tags":{"amenity":"bank","brand:wikidata":"Q13134338"},"addTags":{"amenity":"bank","brand":"СтатусБанк","brand:be":"СтатусБанк","brand:en":"StatusBank","brand:ru":"СтатусБанк","brand:wikidata":"Q13134338","name":"СтатусБанк","name:be":"СтатусБанк","name:en":"StatusBank","name:ru":"СтатусБанк"}},"amenity/bank/technobank-4aad73":{"name":"Технобанк","locationSet":{"include":["by"]},"geometry":["point","area"],"matchScore":2,"terms":["technobank","технобанк","тэхнабанк"],"tags":{"amenity":"bank","brand:wikidata":"Q13033069"},"addTags":{"amenity":"bank","brand":"Технобанк","brand:be":"Тэхнабанк","brand:en":"Technobank","brand:ru":"Технобанк","brand:wikidata":"Q13033069","name":"Технобанк","name:be":"Тэхнабанк","name:en":"Technobank","name:ru":"Технобанк"}},"amenity/bank/415f99-4aad73":{"name":"ТК Банк","locationSet":{"include":["by"]},"geometry":["point","area"],"matchScore":2,"terms":["банк торговый капитал","гк банк","тк банк","тс bank"],"tags":{"amenity":"bank","brand:wikidata":"Q13028633"},"addTags":{"alt_name:ru":"Банк торговый капитал","amenity":"bank","brand":"ТК Банк","brand:be":"ГК Банк","brand:en":"ТС Bank","brand:ru":"ТК Банк","brand:wikidata":"Q13028633","name":"ТК Банк","name:be":"ГК Банк","name:en":"ТС Bank","name:ru":"ТК Банк"}},"amenity/bank/fransabank-4aad73":{"name":"Франсабанк","locationSet":{"include":["by"]},"geometry":["point","area"],"matchScore":2,"terms":["fransabank","франсабанк"],"searchable":false,"tags":{"amenity":"bank","brand:wikidata":"Q13033234"},"addTags":{"amenity":"bank","brand":"Франсабанк","brand:be":"Франсабанк","brand:en":"Fransabank","brand:ru":"Франсабанк","brand:wikidata":"Q13033234","name":"Франсабанк","name:be":"Франсабанк","name:en":"Fransabank","name:ru":"Франсабанк"}},"amenity/bank/zepterbank-4aad73":{"name":"Цептер Банк","locationSet":{"include":["by"]},"geometry":["point","area"],"matchScore":2,"terms":["zepter bank","цептер банк","цэптар банк"],"tags":{"amenity":"bank","brand:wikidata":"Q13033367"},"addTags":{"amenity":"bank","brand":"Цептер Банк","brand:be":"Цэптар Банк","brand:en":"Zepter Bank","brand:ru":"Цептер Банк","brand:wikidata":"Q13033367","name":"Цептер Банк","name:be":"Цэптар Банк","name:en":"Zepter Bank","name:ru":"Цептер Банк"}},"amenity/bureau_de_change/belarusbank-126d17":{"name":"Беларусбанк","locationSet":{"include":["by"]},"geometry":["point","area"],"matchScore":2,"terms":["belarusbank","беларусбанк"],"tags":{"amenity":"bureau_de_change","brand:wikidata":"Q1997334"},"addTags":{"amenity":"bureau_de_change","brand":"Беларусбанк","brand:en":"Belarusbank","brand:wikidata":"Q1997334","name":"Беларусбанк","name:en":"Belarusbank"}},"amenity/cafe/coffee_shop/stolle-d874f4":{"name":"Штолле","locationSet":{"include":["by","ru"]},"geometry":["point","area"],"matchScore":2,"terms":["stolle","штолле"],"reference":{"key":"cuisine","value":"coffee_shop"},"tags":{"amenity":"cafe","brand:wikidata":"Q62502236","cuisine":"coffee_shop"},"addTags":{"amenity":"cafe","brand":"Штолле","brand:en":"Stolle","brand:wikidata":"Q62502236","cuisine":"coffee_shop","name":"Штолле","name:en":"Stolle","takeaway":"yes"}},"amenity/charging_station/ionity-b625d6":{"name":"Ionity","locationSet":{"include":["by","bg","cz","hu","pl","md","ro","ru","sk","ua","ax","gg","je","cq","dk","ee","fo","fi","is","ie","im","lv","lt","no","sj","se","gb","al","ad","ba","hr","gi","gr","va","it","mt","me","mk","pt","sm","rs","si","es","xk","at","be","fr","de","li","lu","mc","nl","ch"]},"geometry":["point","vertex","area"],"matchScore":2,"terms":["ionity","ionity gmbh"],"fields":["name","brand","{amenity/charging_station}"],"tags":{"amenity":"charging_station","brand:wikidata":"Q42717773"},"addTags":{"amenity":"charging_station","brand":"Ionity","brand:wikidata":"Q42717773"}},"amenity/charging_station/malanka-f2a4c9":{"name":"Белоруснефть Malanka","locationSet":{"include":["by"]},"geometry":["point","vertex","area"],"matchScore":2,"terms":["malanka","белоруснефть","маланка"],"fields":["name","brand","{amenity/charging_station}"],"tags":{"amenity":"charging_station","brand:wikidata":"Q110634998"},"addTags":{"amenity":"charging_station","brand":"Malanka","brand:be":"Маланка","brand:ru":"Маланка","brand:wikidata":"Q110634998","name":"Malanka","name:be":"Маланка","name:ru":"Маланка","operator":"Белоруснефть","operator:wikidata":"Q4082693"}},"amenity/fast_food/burger/makby-381458":{"name":"Mak.by","locationSet":{"include":["by"]},"geometry":["point","area"],"matchScore":2,"terms":["mak.by","mcdonald's","мак.by","макдоналдс"],"reference":{"key":"cuisine","value":"burger"},"tags":{"amenity":"fast_food","brand:wikidata":"Q118149500","cuisine":"burger"},"addTags":{"amenity":"fast_food","brand":"Mak.by","brand:wikidata":"Q118149500","cuisine":"burger","name":"Mak.by","takeaway":"yes"}},"amenity/fast_food/burger/burgerking-e25654":{"name":"Бургер Кинг","locationSet":{"include":["by","kz","ru"]},"geometry":["point","area"],"matchScore":2,"terms":["burger king","бургер кинг"],"reference":{"key":"cuisine","value":"burger"},"tags":{"amenity":"fast_food","brand:wikidata":"Q177054","cuisine":"burger"},"addTags":{"amenity":"fast_food","brand":"Бургер Кинг","brand:en":"Burger King","brand:ru":"Бургер Кинг","brand:wikidata":"Q177054","cuisine":"burger","name":"Бургер Кинг","name:en":"Burger King","name:ru":"Бургер Кинг","takeaway":"yes"}},"amenity/fast_food/pizza/dodopizza-e25654":{"name":"Додо Пицца","locationSet":{"include":["by","kz","ru"]},"geometry":["point","area"],"matchScore":2,"terms":["dodo pizza","dodo пицца","до-до","додо пица","додо пицца"],"reference":{"key":"cuisine","value":"pizza"},"tags":{"amenity":"fast_food","brand:wikidata":"Q61949318","cuisine":"pizza"},"addTags":{"amenity":"fast_food","brand":"Додо Пицца","brand:en":"Dodo Pizza","brand:ru":"Додо Пицца","brand:wikidata":"Q61949318","cuisine":"pizza","name":"Додо Пицца","name:en":"Dodo Pizza","name:ru":"Додо Пицца","takeaway":"yes"}},"amenity/fast_food/pizza/dominos-23683e":{"name":"Домино'c","locationSet":{"include":["by","ru"]},"geometry":["point","area"],"matchScore":2,"terms":["domino's","домино'c","доминоc пицца"],"reference":{"key":"cuisine","value":"pizza"},"tags":{"amenity":"fast_food","brand:wikidata":"Q839466","cuisine":"pizza"},"addTags":{"amenity":"fast_food","brand":"Домино'c","brand:en":"Domino's","brand:ru":"Домино'c","brand:wikidata":"Q839466","cuisine":"pizza","name":"Домино'c","name:en":"Domino's","name:ru":"Домино'c","takeaway":"yes"}},"amenity/fast_food/pizza/papajohns-23683e":{"name":"Папа Джонс","locationSet":{"include":["by","ru"]},"geometry":["point","area"],"matchScore":2,"terms":["papa john's","папа джонс"],"reference":{"key":"cuisine","value":"pizza"},"tags":{"amenity":"fast_food","brand:wikidata":"Q2759586","cuisine":"pizza"},"addTags":{"amenity":"fast_food","brand":"Папа Джонс","brand:en":"Papa John's","brand:ru":"Папа Джонс","brand:wikidata":"Q2759586","cuisine":"pizza","name":"Папа Джонс","name:en":"Papa John's","name:ru":"Папа Джонс","takeaway":"yes"}},"amenity/fuel/auchan-fcb99f":{"name":"Auchan","locationSet":{"include":["al","ad","ba","hr","gi","gr","va","it","mt","me","mk","pt","sm","rs","si","es","xk","by","bg","cz","hu","pl","md","ro","ru","sk","ua","at","be","fr","de","li","lu","mc","nl","ch"]},"geometry":["point","area"],"matchScore":2,"terms":["auchan"],"fields":["name","brand","{amenity/fuel}"],"tags":{"amenity":"fuel","brand:wikidata":"Q758603"},"addTags":{"amenity":"fuel","brand":"Auchan","brand:wikidata":"Q758603","name":"Auchan"}},"amenity/fuel/ed92ce-3aaa6d":{"name":"Белоруснефть","locationSet":{"include":["by"]},"geometry":["point","area"],"matchScore":2,"terms":["белоруснефть"],"fields":["name","brand","{amenity/fuel}"],"tags":{"amenity":"fuel","brand:wikidata":"Q4082693"},"addTags":{"amenity":"fuel","brand":"Белоруснефть","brand:wikidata":"Q4082693","name":"Белоруснефть"}},"amenity/fuel/0b910f-bb6729":{"name":"Газпромнефть","locationSet":{"include":["by","kg","kz","ru","tj"]},"geometry":["point","area"],"matchScore":2,"terms":["газпром","газпромнефть"],"fields":["name","brand","{amenity/fuel}"],"tags":{"amenity":"fuel","brand:wikidata":"Q1461799"},"addTags":{"amenity":"fuel","brand":"Газпромнефть","brand:wikidata":"Q1461799","name":"Газпромнефть"}},"amenity/fuel/lukoil-0962f2":{"name":"Лукойл","locationSet":{"include":["by","kz","ru"]},"geometry":["point","area"],"matchScore":2,"terms":["lukoil","лукоил","лукойл"],"fields":["name","brand","{amenity/fuel}"],"tags":{"amenity":"fuel","brand:wikidata":"Q329347"},"addTags":{"amenity":"fuel","brand":"Лукойл","brand:en":"Lukoil","brand:ru":"Лукойл","brand:wikidata":"Q329347","name":"Лукойл","name:en":"Lukoil","name:ru":"Лукойл"}},"amenity/ice_cream/fd1d7e-3c9560":{"name":"33 пингвина","locationSet":{"include":["by","kg","kz","ru","uz"]},"geometry":["point","area"],"matchScore":2,"terms":["33 пингвина"],"tags":{"amenity":"ice_cream","brand:wikidata":"Q110147993"},"addTags":{"amenity":"ice_cream","brand":"33 пингвина","brand:wikidata":"Q110147993","name":"33 пингвина"}},"amenity/parcel_locker/zbox-5a86e9":{"name":"Packeta","locationSet":{"include":["by","bg","cz","hu","pl","md","ro","ru","sk","ua","ax","gg","je","cq","dk","ee","fo","fi","is","ie","im","lv","lt","no","sj","se","gb","al","ad","ba","hr","gi","gr","va","it","mt","me","mk","pt","sm","rs","si","es","xk","at","be","fr","de","li","lu","mc","nl","ch"]},"geometry":["point","vertex","area"],"matchScore":2,"terms":["packeta"],"fields":["name","brand","{amenity/parcel_locker}"],"reference":{"key":"amenity","value":"parcel_locker"},"tags":{"amenity":"parcel_locker","brand:wikidata":"Q67809905"},"addTags":{"amenity":"parcel_locker","brand":"Packeta","brand:wikidata":"Q67809905","name":"Z-Box"}},"amenity/pharmacy/minskayapharmacia-c16414":{"name":"Минская Фармация","locationSet":{"include":["by"]},"geometry":["point","area"],"matchScore":2,"terms":["minskaya pharmacia","минская фармация","мінская фармацыя"],"fields":["name","brand","{amenity/pharmacy}"],"reference":{"key":"amenity","value":"pharmacy"},"tags":{"amenity":"pharmacy","brand:wikidata":"Q108553370"},"addTags":{"amenity":"pharmacy","brand":"Минская Фармация","brand:be":"Мінская Фармацыя","brand:en":"Minskaya Pharmacia","brand:ru":"Минская Фармация","brand:wikidata":"Q108553370","healthcare":"pharmacy","name":"Минская Фармация","name:be":"Мінская Фармацыя","name:en":"Minskaya Pharmacia","name:ru":"Минская Фармация"}},"amenity/pharmacy/healthplanet-c16414":{"name":"Планета здоровья (Беларусь)","locationSet":{"include":["by"]},"geometry":["point","area"],"matchScore":2,"terms":["health planet","планета здароўя","планета здоровья"],"fields":["name","brand","{amenity/pharmacy}"],"reference":{"key":"amenity","value":"pharmacy"},"tags":{"amenity":"pharmacy","brand:wikidata":"Q107231230"},"addTags":{"amenity":"pharmacy","brand":"Планета Здоровья","brand:be":"Планета Здароўя","brand:be-tarask":"Плянэта Здароўя","brand:en":"Health Planet","brand:ru":"Планета Здоровья","brand:wikidata":"Q107231230","healthcare":"pharmacy","name":"Планета здоровья","name:be":"Планета Здароўя","name:be-tarask":"Плянэта Здароўя","name:en":"Health Planet","name:ru":"Планета Здоровья"}},"amenity/social_centre/ahepahall-30ca27":{"name":"AHEPA Hall","locationSet":{"include":["by","bg","cz","hu","pl","md","ro","ru","sk","ua","ax","gg","je","cq","dk","ee","fo","fi","is","ie","im","lv","lt","no","sj","se","gb","al","ad","ba","hr","gi","gr","va","it","mt","me","mk","pt","sm","rs","si","es","xk","at","be","fr","de","li","lu","mc","nl","ch","au","ca","cy","us"],"exclude":["ru"]},"geometry":["point","area"],"matchScore":2,"terms":["ahepa","american hellenic educational progressive association","the order of ahepa"],"fields":["name","brand","{amenity/social_centre}"],"tags":{"amenity":"social_centre","brand:wikidata":"Q4743973"},"addTags":{"amenity":"social_centre","brand":"AHEPA","brand:wikidata":"Q4743973","name":"AHEPA Hall"}},"amenity/vending_machine/bicycle_tube/continental-123edb":{"name":"Continental","locationSet":{"include":["by","bg","cz","hu","pl","md","ro","ru","sk","ua","ax","gg","je","cq","dk","ee","fo","fi","is","ie","im","lv","lt","no","sj","se","gb","al","ad","ba","hr","gi","gr","va","it","mt","me","mk","pt","sm","rs","si","es","xk","at","be","fr","de","li","lu","mc","nl","ch"]},"geometry":["point","vertex"],"matchScore":2,"terms":["continental"],"reference":{"key":"vending","value":"bicycle_tube"},"tags":{"amenity":"vending_machine","brand:wikidata":"Q64739247","vending":"bicycle_tube"},"addTags":{"amenity":"vending_machine","brand":"Continental","brand:wikidata":"Q64739247","name":"Continental","vending":"bicycle_tube"}},"amenity/vending_machine/bicycle_tube/schwalbe-123edb":{"name":"Schwalbe","locationSet":{"include":["by","bg","cz","hu","pl","md","ro","ru","sk","ua","ax","gg","je","cq","dk","ee","fo","fi","is","ie","im","lv","lt","no","sj","se","gb","al","ad","ba","hr","gi","gr","va","it","mt","me","mk","pt","sm","rs","si","es","xk","at","be","fr","de","li","lu","mc","nl","ch"]},"geometry":["point","vertex"],"matchScore":2,"terms":["schwalbe"],"reference":{"key":"vending","value":"bicycle_tube"},"tags":{"amenity":"vending_machine","brand:wikidata":"Q1312213","vending":"bicycle_tube"},"addTags":{"amenity":"vending_machine","brand":"Schwalbe","brand:wikidata":"Q1312213","name":"Schwalbe","vending":"bicycle_tube"}},"healthcare/laboratory/invitro-7c30a4":{"name":"Инвитро","locationSet":{"include":["by","ru"]},"geometry":["point","area"],"matchScore":2,"terms":["invitro","инвитро"],"tags":{"brand:wikidata":"Q4200546","healthcare":"laboratory"},"addTags":{"brand":"Инвитро","brand:wikidata":"Q4200546","healthcare":"laboratory","name":"Инвитро","name:en":"Invitro","name:ru":"Инвитро"}},"leisure/fitness_centre/fitinn-48d938":{"name":"FITINN","locationSet":{"include":["by","bg","cz","hu","pl","md","ro","ru","sk","ua","ax","gg","je","cq","dk","ee","fo","fi","is","ie","im","lv","lt","no","sj","se","gb","al","ad","ba","hr","gi","gr","va","it","mt","me","mk","pt","sm","rs","si","es","xk","at","be","fr","de","li","lu","mc","nl","ch"]},"geometry":["point","area"],"matchScore":2,"terms":["fitinn"],"tags":{"brand:wikidata":"Q1245564","leisure":"fitness_centre"},"addTags":{"brand":"FITINN","brand:wikidata":"Q1245564","leisure":"fitness_centre","name":"FITINN"}},"leisure/fitness_centre/holmesplace-901199":{"name":"Holmes Place","locationSet":{"include":["by","bg","cz","hu","pl","md","ro","ru","sk","ua","ax","gg","je","cq","dk","ee","fo","fi","is","ie","im","lv","lt","no","sj","se","gb","al","ad","ba","hr","gi","gr","va","it","mt","me","mk","pt","sm","rs","si","es","xk","at","be","fr","de","li","lu","mc","nl","ch","il"]},"geometry":["point","area"],"matchScore":2,"terms":["holmes place"],"tags":{"brand:wikidata":"Q15815819","leisure":"fitness_centre"},"addTags":{"brand":"Holmes Place","brand:wikidata":"Q15815819","leisure":"fitness_centre","name":"Holmes Place"}},"man_made/ionity-97d83d":{"name":"Ionity","locationSet":{"include":["by","bg","cz","hu","pl","md","ro","ru","sk","ua","ax","gg","je","cq","dk","ee","fo","fi","is","ie","im","lv","lt","no","sj","se","gb","al","ad","ba","hr","gi","gr","va","it","mt","me","mk","pt","sm","rs","si","es","xk","at","be","fr","de","li","lu","mc","nl","ch"]},"geometry":["point","vertex","line","area"],"matchScore":2,"terms":["ionity","ionity gmbh"],"fields":["name","brand","{man_made}"],"tags":{"brand:wikidata":"Q42717773","man_made":"charge_point"},"addTags":{"brand":"Ionity","brand:wikidata":"Q42717773","man_made":"charge_point"}},"man_made/malanka-03d344":{"name":"Белоруснефть Malanka","locationSet":{"include":["by"]},"geometry":["point","vertex","line","area"],"matchScore":2,"terms":["malanka","белоруснефть","маланка"],"fields":["name","brand","{man_made}"],"tags":{"brand:wikidata":"Q110634998","man_made":"charge_point"},"addTags":{"brand":"Malanka","brand:be":"Маланка","brand:ru":"Маланка","brand:wikidata":"Q110634998","man_made":"charge_point","name:be":"Маланка","name:ru":"Маланка","operator":"Белоруснефть","operator:wikidata":"Q4082693"}},"office/estate_agent/vonpollrealestate-c99072":{"name":"von Poll Real Estate","locationSet":{"include":["by","bg","cz","hu","pl","md","ro","ru","sk","ua","ax","gg","je","cq","dk","ee","fo","fi","is","ie","im","lv","lt","no","sj","se","gb","al","ad","ba","hr","gi","gr","va","it","mt","me","mk","pt","sm","rs","si","es","xk","at","be","fr","de","li","lu","mc","nl","ch"],"exclude":["at","de"]},"geometry":["point","area"],"matchScore":2,"terms":["von poll immobilien","von poll real estate","vonpoll","vonpoll commercial"],"tags":{"brand:wikidata":"Q96026696","office":"estate_agent"},"addTags":{"brand":"von Poll Real Estate","brand:wikidata":"Q96026696","name":"von Poll Real Estate","office":"estate_agent"}},"office/insurance/nn-336e34":{"name":"NN","locationSet":{"include":["by","bg","cz","hu","pl","md","ro","ru","sk","ua","ax","gg","je","cq","dk","ee","fo","fi","is","ie","im","lv","lt","no","sj","se","gb","al","ad","ba","hr","gi","gr","va","it","mt","me","mk","pt","sm","rs","si","es","xk","at","be","fr","de","li","lu","mc","nl","ch"]},"geometry":["point","area"],"matchScore":2,"terms":["nationale-nederlanden","nn"],"fields":["name","brand","{office/insurance}"],"tags":{"brand:wikidata":"Q1834291","office":"insurance"},"addTags":{"brand":"NN","brand:wikidata":"Q1834291","name":"NN","office":"insurance","official_name":"Nationale-Nederlanden"}},"office/insurance/belgosstrakh-fe8e31":{"name":"Белгосстрах","locationSet":{"include":["by"]},"geometry":["point","area"],"matchScore":2,"terms":["belgosstrakh","белгосстрах","белдзяржстрах"],"fields":["name","brand","{office/insurance}"],"tags":{"brand:wikidata":"Q6468822","office":"insurance"},"addTags":{"brand":"Белгосстрах","brand:be":"Белдзяржстрах","brand:en":"Belgosstrakh","brand:ru":"Белгосстрах","brand:wikidata":"Q6468822","name":"Белгосстрах","name:be":"Белдзяржстрах","name:en":"Belgosstrakh","name:ru":"Белгосстрах","office":"insurance"}},"shop/alcohol/minskkristall-b2a55f":{"name":"Минск Кристалл","locationSet":{"include":["by"]},"geometry":["point","area"],"matchScore":2,"terms":["minsk kristall","минск кристалл","мінск крышталь"],"tags":{"brand:wikidata":"Q6869455","shop":"alcohol"},"addTags":{"brand":"Минск Кристалл","brand:be":"Мінск Крышталь","brand:en":"Minsk Kristall","brand:ru":"Минск Кристалл","brand:wikidata":"Q6869455","name":"Минск Кристалл","name:be":"Мінск Крышталь","name:en":"Minsk Kristall","name:ru":"Минск Кристалл","shop":"alcohol"}},"shop/baby_goods/detskiymir-7b1c28":{"name":"Детский мир","locationSet":{"include":["by","kz","ru"]},"geometry":["point","area"],"matchScore":2,"terms":["detskiy mir","детский мир"],"tags":{"brand:wikidata":"Q16643324","shop":"baby_goods"},"addTags":{"brand":"Детский мир","brand:en":"Detskiy Mir","brand:wikidata":"Q16643324","name":"Детский мир","name:en":"Detskiy Mir","shop":"baby_goods"}},"shop/baby_goods/462766-2eddbc":{"name":"Дочки-сыночки","locationSet":{"include":["by","ru"]},"geometry":["point","area"],"matchScore":2,"terms":["дочки-сыночки"],"tags":{"brand:wikidata":"Q110290698","shop":"baby_goods"},"addTags":{"brand":"Дочки-сыночки","brand:wikidata":"Q110290698","name":"Дочки-сыночки","shop":"baby_goods"}},"shop/bakery/paul-652955":{"name":"Paul","locationSet":{"include":["ae","az","be","bh","by","ci","cy","cz","eg","es","fr","ga","gb","ge","gr","id","in","jo","jp","kw","kz","lb","lu","ma","mu","my","om","pa","ph","pl","pt","qa","ro","ru","sa","sg","th","tn","tw","ua","us","uz","vn","za"]},"geometry":["point","area"],"matchScore":2,"terms":["paul"],"tags":{"brand:wikidata":"Q3370417","shop":"bakery"},"addTags":{"brand":"Paul","brand:wikidata":"Q3370417","name":"Paul","shop":"bakery"}},"shop/books/belkniga-9972c8":{"name":"Белкнига","locationSet":{"include":["by"]},"geometry":["point","area"],"matchScore":2,"terms":["belkniga","белкнига"],"tags":{"brand:wikidata":"Q60793563","shop":"books"},"addTags":{"brand":"Белкнига","brand:en":"Belkniga","brand:wikidata":"Q60793563","name":"Белкнига","name:en":"Belkniga","shop":"books"}},"shop/car/smart-b77732":{"name":"Smart","locationSet":{"include":["by","bg","cz","hu","pl","md","ro","ru","sk","ua","ax","gg","je","cq","dk","ee","fo","fi","is","ie","im","lv","lt","no","sj","se","gb","al","ad","ba","hr","gi","gr","va","it","mt","me","mk","pt","sm","rs","si","es","xk","at","be","fr","de","li","lu","mc","nl","ch","cn"]},"geometry":["point","area"],"matchScore":2,"terms":["smart"],"fields":["name","brand","{shop/car}"],"tags":{"brand:wikidata":"Q156490","shop":"car"},"addTags":{"brand":"Smart","brand:wikidata":"Q156490","name":"Smart","shop":"car"}},"shop/chemist/mila-133d36":{"name":"Мила","locationSet":{"include":["by"]},"geometry":["point","area"],"matchScore":2,"terms":["mila","мила","міла"],"tags":{"brand:wikidata":"Q107123038","shop":"chemist"},"addTags":{"brand":"Мила","brand:be":"Міла","brand:en":"Mila","brand:ru":"Мила","brand:wikidata":"Q107123038","name":"Мила","name:be":"Міла","name:en":"Mila","name:ru":"Мила","shop":"chemist"}},"shop/chemist/ostrovchistoty-133d36":{"name":"Остров чистоты и вкуса","locationSet":{"include":["by"]},"geometry":["point","area"],"matchScore":2,"terms":["ostrov chistoty","востраў чысціні і смаку","остров чистоты","остров чистоты и вкуса"],"tags":{"brand:wikidata":"Q64606280","shop":"chemist"},"addTags":{"brand":"Остров чистоты и вкуса","brand:be":"Востраў чысціні і смаку","brand:en":"Ostrov Chistoty","brand:ru":"Остров чистоты и вкуса","brand:wikidata":"Q64606280","name":"Остров чистоты и вкуса","name:be":"Востраў чысціні і смаку","name:en":"Ostrov Chistoty","name:ru":"Остров чистоты и вкуса","shop":"chemist"}},"shop/clothes/bigstar-de8f01":{"name":"Big Star","locationSet":{"include":["by","pl"]},"geometry":["point","area"],"matchScore":2,"terms":["big star"],"tags":{"brand:wikidata":"Q9171569","shop":"clothes"},"addTags":{"brand":"Big Star","brand:wikidata":"Q9171569","name":"Big Star","shop":"clothes"}},"shop/clothes/coccodrillo-571709":{"name":"Coccodrillo","locationSet":{"include":["at","bg","by","cz","de","ee","fi","hu","lt","lv","me","pl","ro","rs","ru","sk","ua"]},"geometry":["point","area"],"matchScore":2,"terms":["coccodrillo"],"tags":{"brand:wikidata":"Q9195224","shop":"clothes"},"addTags":{"brand":"Coccodrillo","brand:wikidata":"Q9195224","clothes":"children","name":"Coccodrillo","shop":"clothes"}},"shop/clothes/loverepublic-54fe8d":{"name":"LOVE REPUBLIC","locationSet":{"include":["am","by","kz","ru"]},"geometry":["point","area"],"matchScore":2,"terms":["love republic"],"tags":{"brand:wikidata":"Q103848331","shop":"clothes"},"addTags":{"brand":"LOVE REPUBLIC","brand:wikidata":"Q103848331","clothes":"women","name":"LOVE REPUBLIC","shop":"clothes"}},"shop/clothes/maje-99ba8f":{"name":"Maje","locationSet":{"include":["by","bg","cz","hu","pl","md","ro","ru","sk","ua","ax","gg","je","cq","dk","ee","fo","fi","is","ie","im","lv","lt","no","sj","se","gb","al","ad","ba","hr","gi","gr","va","it","mt","me","mk","pt","sm","rs","si","es","xk","at","be","fr","de","li","lu","mc","nl","ch","cn","hk","sg","tw","us"]},"geometry":["point","area"],"matchScore":2,"terms":["maje"],"tags":{"brand:wikidata":"Q3280458","shop":"clothes"},"addTags":{"brand":"Maje","brand:wikidata":"Q3280458","clothes":"women","name":"Maje","shop":"clothes"}},"shop/clothes/markformelle-1c3486":{"name":"Mark Formelle","locationSet":{"include":["by","kz","ru"]},"geometry":["point","area"],"matchScore":2,"terms":["mark formelle"],"tags":{"brand:wikidata":"Q25381083","shop":"clothes"},"addTags":{"brand":"Mark Formelle","brand:wikidata":"Q25381083","name":"Mark Formelle","shop":"clothes"}},"shop/clothes/underwear/milavitsa-e4d922":{"name":"Milavitsa","locationSet":{"include":["by"]},"geometry":["point","area"],"matchScore":2,"terms":["milavitsa","милавица","мілавіца"],"reference":{"key":"clothes","value":"underwear"},"tags":{"brand:wikidata":"Q3575265","clothes":"underwear","shop":"clothes"},"addTags":{"brand":"Milavitsa","brand:be":"Мілавіца","brand:ru":"Милавица","brand:wikidata":"Q3575265","clothes":"underwear","name":"Milavitsa","name:be":"Мілавіца","name:ru":"Милавица","shop":"clothes"}},"shop/clothes/soliver-fb408e":{"name":"s.Oliver","locationSet":{"include":["by","bg","cz","hu","pl","md","ro","ru","sk","ua","ax","gg","je","cq","dk","ee","fo","fi","is","ie","im","lv","lt","no","sj","se","gb","al","ad","ba","hr","gi","gr","va","it","mt","me","mk","pt","sm","rs","si","es","xk","at","be","fr","de","li","lu","mc","nl","ch","cn","in"]},"geometry":["point","area"],"matchScore":2,"terms":["s.oliver"],"tags":{"brand:wikidata":"Q265056","shop":"clothes"},"addTags":{"brand":"s.Oliver","brand:wikidata":"Q265056","name":"s.Oliver","shop":"clothes"}},"shop/clothes/weekday-b5590c":{"name":"Weekday","locationSet":{"include":["by","bg","cz","hu","pl","md","ro","ru","sk","ua","ax","gg","je","cq","dk","ee","fo","fi","is","ie","im","lv","lt","no","sj","se","gb","al","ad","ba","hr","gi","gr","va","it","mt","me","mk","pt","sm","rs","si","es","xk","at","be","fr","de","li","lu","mc","nl","ch"]},"geometry":["point","area"],"matchScore":2,"terms":["weekday"],"tags":{"brand:wikidata":"Q10719514","shop":"clothes"},"addTags":{"brand":"Weekday","brand:wikidata":"Q10719514","name":"Weekday","shop":"clothes"}},"shop/clothes/zarina-54fe8d":{"name":"Zarina","locationSet":{"include":["am","by","kz","ru"]},"geometry":["point","area"],"matchScore":2,"terms":["zarina"],"tags":{"brand:wikidata":"Q103847517","shop":"clothes"},"addTags":{"brand":"Zarina","brand:wikidata":"Q103847517","clothes":"women","name":"Zarina","shop":"clothes"}},"shop/clothes/svitanak-e4d922":{"name":"Свiтанак","locationSet":{"include":["by"]},"geometry":["point","area"],"matchScore":2,"terms":["svitanak","свiтанак","свитанак","світанак"],"tags":{"brand:wikidata":"Q65124308","shop":"clothes"},"addTags":{"brand":"Свiтанак","brand:be":"Свiтанак","brand:en":"Svitanak","brand:ru":"Свитанак","brand:wikidata":"Q65124308","name":"Свiтанак","name:be":"Свiтанак","name:en":"Svitanak","name:ru":"Свитанак","shop":"clothes"}},"shop/clothes/tvoe-1c3486":{"name":"ТВОЕ","locationSet":{"include":["by","kz","ru"]},"geometry":["point","area"],"matchScore":2,"terms":["tvoe","твое"],"tags":{"brand:wikidata":"Q110034939","shop":"clothes"},"addTags":{"brand":"ТВОЕ","brand:en":"TVOE","brand:ru":"ТВОЕ","brand:wikidata":"Q110034939","name":"ТВОЕ","name:en":"TVOE","name:ru":"ТВОЕ","shop":"clothes"}},"shop/confectionery/4742ac-ceb7f9":{"name":"Красный пищевик","locationSet":{"include":["by"]},"geometry":["point","area"],"matchScore":2,"terms":["красный пищевик"],"tags":{"brand:wikidata":"Q61742027","shop":"confectionery"},"addTags":{"brand":"Красный пищевик","brand:wikidata":"Q61742027","name":"Красный пищевик","shop":"confectionery"}},"shop/convenience/viva-856fe1":{"name":"Viva","locationSet":{"include":["by","bg","cz","hu","pl","md","ro","ru","sk","ua","ax","gg","je","cq","dk","ee","fo","fi","is","ie","im","lv","lt","no","sj","se","gb","al","ad","ba","hr","gi","gr","va","it","mt","me","mk","pt","sm","rs","si","es","xk","at","be","fr","de","li","lu","mc","nl","ch"]},"geometry":["point","area"],"matchScore":2,"terms":["viva"],"tags":{"brand:wikidata":"Q168238","shop":"convenience"},"addTags":{"brand":"Viva","brand:wikidata":"Q168238","name":"Viva","shop":"convenience"}},"shop/convenience/ed92ce-e64bef":{"name":"Белоруснефть","locationSet":{"include":["by"]},"geometry":["point","area"],"matchScore":2,"terms":["белоруснефть"],"tags":{"brand:wikidata":"Q4082693","shop":"convenience"},"addTags":{"brand":"Белоруснефть","brand:wikidata":"Q4082693","name":"Белоруснефть","shop":"convenience"}},"shop/convenience/67d62e-065292":{"name":"Доброном","locationSet":{"include":["by","ru"]},"geometry":["point","area"],"matchScore":2,"terms":["доброном"],"tags":{"brand:wikidata":"Q97312362","shop":"convenience"},"addTags":{"brand":"Доброном","brand:wikidata":"Q97312362","name":"Доброном","shop":"convenience"}},"shop/convenience/3fdc6e-e64bef":{"name":"Евроопт Market","locationSet":{"include":["by"]},"geometry":["point","area"],"matchScore":2,"terms":["евроопт market","евроопт маркет"],"tags":{"brand:wikidata":"Q65455869","shop":"convenience"},"addTags":{"brand":"Евроопт Market","brand:wikidata":"Q65455869","name":"Евроопт Market","name:ru":"Евроопт Маркет","shop":"convenience"}},"shop/convenience/f94c48-e64bef":{"name":"Евроопт Минимаркет","locationSet":{"include":["by"]},"geometry":["point","area"],"matchScore":2,"terms":["евроопт минимаркет"],"tags":{"brand:wikidata":"Q65455911","shop":"convenience"},"addTags":{"brand":"Евроопт Минимаркет","brand:wikidata":"Q65455911","name":"Евроопт Минимаркет","shop":"convenience"}},"shop/convenience/347595-e64bef":{"name":"Копеечка","locationSet":{"include":["by"]},"geometry":["point","area"],"matchScore":2,"terms":["копеечка"],"tags":{"brand:wikidata":"Q97346327","shop":"convenience"},"addTags":{"brand":"Копеечка","brand:wikidata":"Q97346327","name":"Копеечка","shop":"convenience"}},"shop/cosmetics/mixit-8126fc":{"name":"Mixit","locationSet":{"include":["by","kz","ru"]},"geometry":["point","area"],"matchScore":2,"terms":["mixit"],"tags":{"brand:wikidata":"Q110291123","shop":"cosmetics"},"addTags":{"brand":"Mixit","brand:wikidata":"Q110291123","name":"Mixit","shop":"cosmetics"}},"shop/craft/f57608-3615c7":{"name":"Леонардо","locationSet":{"include":["by","kz","ru"]},"geometry":["point","area"],"matchScore":2,"terms":["леонардо"],"tags":{"brand:wikidata":"Q110138162","shop":"craft"},"addTags":{"brand":"Леонардо","brand:wikidata":"Q110138162","name":"Леонардо","shop":"craft"}},"shop/electronics/bork-138e7e":{"name":"Bork","locationSet":{"include":["am","by","kz","ru"]},"geometry":["point","area"],"matchScore":2,"terms":["bork"],"tags":{"brand:wikidata":"Q4035327","shop":"electronics"},"addTags":{"brand":"Bork","brand:wikidata":"Q4035327","name":"Bork","shop":"electronics"}},"shop/furniture/bolia-a18722":{"name":"Bolia","locationSet":{"include":["by","bg","cz","hu","pl","md","ro","ru","sk","ua","ax","gg","je","cq","dk","ee","fo","fi","is","ie","im","lv","lt","no","sj","se","gb","al","ad","ba","hr","gi","gr","va","it","mt","me","mk","pt","sm","rs","si","es","xk","at","be","fr","de","li","lu","mc","nl","ch"]},"geometry":["point","area"],"matchScore":2,"terms":["bolia"],"tags":{"brand:wikidata":"Q11961809","shop":"furniture"},"addTags":{"brand":"Bolia","brand:wikidata":"Q11961809","name":"Bolia","shop":"furniture"}},"shop/furniture/momax-a18722":{"name":"Mömax","locationSet":{"include":["by","bg","cz","hu","pl","md","ro","ru","sk","ua","ax","gg","je","cq","dk","ee","fo","fi","is","ie","im","lv","lt","no","sj","se","gb","al","ad","ba","hr","gi","gr","va","it","mt","me","mk","pt","sm","rs","si","es","xk","at","be","fr","de","li","lu","mc","nl","ch"]},"geometry":["point","area"],"matchScore":2,"terms":["mömax"],"tags":{"brand:wikidata":"Q56388481","shop":"furniture"},"addTags":{"brand":"Mömax","brand:wikidata":"Q56388481","name":"Mömax","shop":"furniture"}},"shop/furniture/xxxlutz-5acc6e":{"name":"XXXLutz","locationSet":{"include":["by","bg","cz","hu","pl","md","ro","ru","sk","ua","ax","gg","je","cq","dk","ee","fo","fi","is","ie","im","lv","lt","no","sj","se","gb","al","ad","ba","hr","gi","gr","va","it","mt","me","mk","pt","sm","rs","si","es","xk","at","be","fr","de","li","lu","mc","nl","ch"],"exclude":["bg"]},"geometry":["point","area"],"matchScore":2,"terms":["xxxlutz"],"tags":{"brand:wikidata":"Q70339467","shop":"furniture"},"addTags":{"brand":"XXXLutz","brand:wikidata":"Q70339467","name":"XXXLutz","shop":"furniture"}},"shop/hardware/220volt-8cf3c0":{"name":"220 вольт","locationSet":{"include":["by","ru"]},"geometry":["point","area"],"matchScore":2,"terms":["220 volt","220 вольт"],"tags":{"brand:wikidata":"Q18635304","shop":"hardware"},"addTags":{"brand":"220 вольт","brand:en":"220 Volt","brand:ru":"220 вольт","brand:wikidata":"Q18635304","name":"220 вольт","name:en":"220 Volt","name:ru":"220 вольт","shop":"hardware"}},"shop/mobile_phone/carphonewarehouse-eb0c8f":{"name":"Carphone Warehouse","locationSet":{"include":["by","gb"]},"geometry":["point","area"],"matchScore":2,"terms":["carphone warehouse","the carphone warehouse"],"tags":{"brand:wikidata":"Q118046","shop":"mobile_phone"},"addTags":{"brand":"Carphone Warehouse","brand:wikidata":"Q118046","name":"Carphone Warehouse","shop":"mobile_phone"}},"shop/mobile_phone/euroset-62982a":{"name":"Евросеть","locationSet":{"include":["by","kz","ru"]},"geometry":["point","area"],"matchScore":2,"terms":["euroset","евросеть"],"searchable":false,"tags":{"brand:wikidata":"Q65310","shop":"mobile_phone"},"addTags":{"brand":"Евросеть","brand:en":"Euroset","brand:wikidata":"Q65310","name":"Евросеть","name:en":"Euroset","shop":"mobile_phone"}},"shop/mobile_phone/mts-3162ba":{"name":"МТС","locationSet":{"include":["by","ru"]},"geometry":["point","area"],"matchScore":2,"terms":["mts","мтс"],"tags":{"brand:wikidata":"Q1368919","shop":"mobile_phone"},"addTags":{"brand":"МТС","brand:en":"MTS","brand:wikidata":"Q1368919","name":"МТС","name:en":"MTS","shop":"mobile_phone"}},"shop/mobile_phone/svyaznoy-fee8f4":{"name":"Связной","locationSet":{"include":["by","ru","uz"]},"geometry":["point","area"],"matchScore":2,"terms":["svyaznoy","связной"],"tags":{"brand:wikidata":"Q65371","shop":"mobile_phone"},"addTags":{"brand":"Связной","brand:en":"Svyaznoy","brand:wikidata":"Q65371","name":"Связной","name:en":"Svyaznoy","shop":"mobile_phone"}},"shop/newsagent/b6fe6a-e86250":{"name":"БелДрук","locationSet":{"include":["by"]},"geometry":["point","area"],"matchScore":2,"terms":["белдрук","белсоюзпечать","витебскоблсоюзпечать"],"tags":{"brand:wikidata":"Q63986228","shop":"newsagent"},"addTags":{"brand":"БелДрук","brand:wikidata":"Q63986228","name":"БелДрук","shop":"newsagent"}},"shop/optician/fielmann-f003f4":{"name":"fielmann","locationSet":{"include":["at","by","ch","de","it","lt","lu","lv","nl","pl","ru","ua"]},"geometry":["point","area"],"matchScore":2,"terms":["fielmann"],"fields":["name","brand","{shop/optician}"],"tags":{"brand:wikidata":"Q457822","shop":"optician"},"addTags":{"brand":"Fielmann","brand:wikidata":"Q457822","name":"Fielmann","shop":"optician"}},"shop/outpost/wildberries-2f7b99":{"name":"Wildberries","locationSet":{"include":["by","ru"]},"geometry":["point","area"],"matchScore":2,"terms":["wildberries"],"tags":{"brand:wikidata":"Q24933714","shop":"outpost"},"addTags":{"brand":"Wildberries","brand:wikidata":"Q24933714","name":"Wildberries","shop":"outpost"}},"shop/shoes/belwest-886255":{"name":"Belwest","locationSet":{"include":["by","ru"]},"geometry":["point","area"],"matchScore":2,"terms":["belwest","белвест"],"tags":{"brand:wikidata":"Q4081686","shop":"shoes"},"addTags":{"brand":"Belwest","brand:wikidata":"Q4081686","name":"Belwest","shop":"shoes"}},"shop/shoes/marko-886255":{"name":"Marko","locationSet":{"include":["by","ru"]},"geometry":["point","area"],"matchScore":2,"terms":["marko","марко"],"tags":{"brand:wikidata":"Q4281995","shop":"shoes"},"addTags":{"brand":"Marko","brand:wikidata":"Q4281995","name":"Marko","name:ru":"Марко","shop":"shoes"}},"shop/shoes/wojas-db04aa":{"name":"Wojas","locationSet":{"include":["by","cz","pl","sk"]},"geometry":["point","area"],"matchScore":2,"terms":["wojas"],"tags":{"brand:wikidata":"Q9376325","shop":"shoes"},"addTags":{"brand":"Wojas","brand:wikidata":"Q9376325","name":"Wojas","shop":"shoes"}},"shop/shoes/6c57c6-886255":{"name":"ЦентрОбувь","locationSet":{"include":["by","ru"]},"geometry":["point","area"],"matchScore":2,"terms":["центробувь"],"searchable":false,"tags":{"brand:wikidata":"Q4504072","shop":"shoes"},"addTags":{"brand":"ЦентрОбувь","brand:wikidata":"Q4504072","name":"ЦентрОбувь","shop":"shoes"}},"shop/sports/sportmaster-1e138a":{"name":"Спортмастер","locationSet":{"include":["by","kz","ru"]},"geometry":["point","area"],"matchScore":2,"terms":["sportmaster","спортмастер","спортмастер гипер"],"tags":{"brand:wikidata":"Q4438176","shop":"sports"},"addTags":{"brand":"Спортмастер","brand:en":"Sportmaster","brand:ru":"Спортмастер","brand:wikidata":"Q4438176","name":"Спортмастер","name:en":"Sportmaster","name:ru":"Спортмастер","shop":"sports"}},"shop/supermarket/auchan-925d9b":{"name":"Auchan","locationSet":{"include":["al","ad","ba","hr","gi","gr","va","it","mt","me","mk","pt","sm","rs","si","es","xk","by","bg","cz","hu","pl","md","ro","ru","sk","ua","at","be","fr","de","li","lu","mc","nl","ch","cn"],"exclude":["ru"]},"geometry":["point","area"],"matchScore":2,"terms":["auchan"],"tags":{"brand:wikidata":"Q758603","shop":"supermarket"},"addTags":{"brand":"Auchan","brand:wikidata":"Q758603","name":"Auchan","shop":"supermarket"}},"shop/supermarket/eurospar-4b5e11":{"name":"Eurospar","locationSet":{"include":["by","bg","cz","hu","pl","md","ro","ru","sk","ua","ax","gg","je","cq","dk","ee","fo","fi","is","ie","im","lv","lt","no","sj","se","gb","al","ad","ba","hr","gi","gr","va","it","mt","me","mk","pt","sm","rs","si","es","xk","at","be","fr","de","li","lu","mc","nl","ch"]},"geometry":["point","area"],"matchScore":2,"terms":["eurospar"],"tags":{"brand:wikidata":"Q12309283","shop":"supermarket"},"addTags":{"brand":"Eurospar","brand:wikidata":"Q12309283","name":"Eurospar","shop":"supermarket"}},"shop/supermarket/ccbce1-a384d0":{"name":"Виталюр","locationSet":{"include":["by"]},"geometry":["point","area"],"matchScore":2,"terms":["виталюр"],"tags":{"brand:wikidata":"Q55663075","shop":"supermarket"},"addTags":{"brand":"Виталюр","brand:wikidata":"Q55663075","name":"Виталюр","shop":"supermarket"}},"shop/supermarket/euroopt-a384d0":{"name":"Евроопт","locationSet":{"include":["by"]},"geometry":["point","area"],"matchScore":2,"terms":["euroopt","евроопт"],"tags":{"brand:wikidata":"Q108489016","shop":"supermarket"},"addTags":{"brand":"Евроопт","brand:en":"Euroopt","brand:ru":"Евроопт","brand:wikidata":"Q108489016","name":"Евроопт","name:en":"Euroopt","name:ru":"Евроопт","shop":"supermarket"}},"shop/supermarket/dc3845-a384d0":{"name":"Евроопт Hyper","locationSet":{"include":["by"]},"geometry":["point","area"],"matchScore":2,"terms":["евроопт hyper","евроопт гипер"],"tags":{"brand:wikidata":"Q65455975","shop":"supermarket"},"addTags":{"brand":"Евроопт Hyper","brand:wikidata":"Q65455975","name":"Евроопт Hyper","shop":"supermarket"}},"shop/supermarket/ba6617-a384d0":{"name":"Евроопт Super","locationSet":{"include":["by"]},"geometry":["point","area"],"matchScore":2,"terms":["евроопт super","евроопт супер"],"tags":{"brand:wikidata":"Q65455960","shop":"supermarket"},"addTags":{"brand":"Евроопт Super","brand:wikidata":"Q65455960","name":"Евроопт Super","shop":"supermarket"}},"shop/tattoo/veantattoo-eea007":{"name":"VeAn Tattoo","locationSet":{"include":["by","bg","cz","hu","pl","md","ro","ru","sk","ua","ax","gg","je","cq","dk","ee","fo","fi","is","ie","im","lv","lt","no","sj","se","gb","al","ad","ba","hr","gi","gr","va","it","mt","me","mk","pt","sm","rs","si","es","xk","at","be","fr","de","li","lu","mc","nl","ch"]},"geometry":["point","area"],"matchScore":2,"terms":["vean tattoo"],"tags":{"brand:wikidata":"Q116871240","shop":"tattoo"},"addTags":{"brand":"VeAn Tattoo","brand:wikidata":"Q116871240","name":"VeAn Tattoo","shop":"tattoo"}},"shop/telecommunication/a1-5b3624":{"name":"A1","locationSet":{"include":["at","by","hr","si"]},"geometry":["point","area"],"matchScore":2,"terms":["a1","velcom","velcom|a1","велком"],"tags":{"brand:wikidata":"Q688755","shop":"telecommunication"},"addTags":{"brand":"A1","brand:wikidata":"Q688755","name":"A1","shop":"telecommunication"}},"shop/telecommunication/mts-53a4f1":{"name":"МТС","locationSet":{"include":["by","ru"]},"geometry":["point","area"],"matchScore":2,"terms":["mts","мтс"],"tags":{"brand:wikidata":"Q1368919","shop":"telecommunication"},"addTags":{"brand":"МТС","brand:en":"MTS","brand:wikidata":"Q1368919","name":"МТС","name:en":"MTS","shop":"telecommunication"}},"shop/tyres/belshina-250571":{"name":"Белшина","locationSet":{"include":["by"]},"geometry":["point","area"],"matchScore":2,"terms":["belshina","белшина"],"tags":{"brand:wikidata":"Q443129","shop":"tyres"},"addTags":{"brand":"Белшина","brand:wikidata":"Q443129","name":"Белшина","name:en":"Belshina","name:ru":"Белшина","shop":"tyres"}},"shop/tyres/koleso-c15d58":{"name":"Колесо","locationSet":{"include":["by","ru"]},"geometry":["point","area"],"matchScore":2,"terms":["koleso","колесо"],"tags":{"brand:wikidata":"Q110959636","shop":"tyres"},"addTags":{"brand":"Колесо","brand:wikidata":"Q110959636","name":"Колесо","name:en":"Koleso","name:ru":"Колесо","shop":"tyres"}},"shop/variety_store/fixprice-95635e":{"name":"Fix Price","locationSet":{"include":["by","ru"]},"geometry":["point","area"],"matchScore":2,"terms":["fix price"],"tags":{"brand:wikidata":"Q4038791","shop":"variety_store"},"addTags":{"brand":"Fix Price","brand:wikidata":"Q4038791","name":"Fix Price","shop":"variety_store"}},"tourism/hotel/bandbhotel-fc8c2c":{"name":"B&B Hotel","locationSet":{"include":["by","bg","cz","hu","pl","md","ro","ru","sk","ua","ax","gg","je","cq","dk","ee","fo","fi","is","ie","im","lv","lt","no","sj","se","gb","al","ad","ba","hr","gi","gr","va","it","mt","me","mk","pt","sm","rs","si","es","xk","at","be","fr","de","li","lu","mc","nl","ch","br"]},"geometry":["point","area"],"matchScore":2,"terms":["b&b hotels"],"fields":["name","brand","{tourism/hotel}"],"tags":{"brand:wikidata":"Q794939","tourism":"hotel"},"addTags":{"brand":"B&B Hotels","brand:wikidata":"Q794939","name":"B&B Hotel","tourism":"hotel"}},"tourism/hotel/greet-046fe6":{"name":"greet","locationSet":{"include":["by","bg","cz","hu","pl","md","ro","ru","sk","ua","ax","gg","je","cq","dk","ee","fo","fi","is","ie","im","lv","lt","no","sj","se","gb","al","ad","ba","hr","gi","gr","va","it","mt","me","mk","pt","sm","rs","si","es","xk","at","be","fr","de","li","lu","mc","nl","ch"]},"geometry":["point","area"],"matchScore":2,"terms":["greet"],"fields":["name","brand","{tourism/hotel}"],"tags":{"brand:wikidata":"Q115489066","tourism":"hotel"},"addTags":{"brand":"greet","brand:wikidata":"Q115489066","name":"Greet","tourism":"hotel"}},"tourism/hotel/motelone-046fe6":{"name":"Motel One","locationSet":{"include":["by","bg","cz","hu","pl","md","ro","ru","sk","ua","ax","gg","je","cq","dk","ee","fo","fi","is","ie","im","lv","lt","no","sj","se","gb","al","ad","ba","hr","gi","gr","va","it","mt","me","mk","pt","sm","rs","si","es","xk","at","be","fr","de","li","lu","mc","nl","ch"]},"geometry":["point","area"],"matchScore":2,"terms":["motel one"],"fields":["name","brand","{tourism/hotel}"],"tags":{"brand:wikidata":"Q391080","tourism":"hotel"},"addTags":{"brand":"Motel One","brand:wikidata":"Q391080","name":"Motel One","tourism":"hotel"}},"amenity/charging_station/eon-7f623e":{"name":"E.ON","locationSet":{"include":["by","bg","cz","hu","pl","md","ro","ru","sk","ua","ax","gg","je","cq","dk","ee","fo","fi","is","ie","im","lv","lt","no","sj","se","gb","al","ad","ba","hr","gi","gr","va","it","mt","me","mk","pt","sm","rs","si","es","xk","at","be","fr","de","li","lu","mc","nl","ch"]},"geometry":["point","vertex","area"],"matchScore":2,"terms":["e-on drive","e.on"],"fields":["name","operator","{amenity/charging_station}"],"tags":{"amenity":"charging_station","operator:wikidata":"Q270223"},"addTags":{"amenity":"charging_station","operator":"E.ON","operator:wikidata":"Q270223"}},"amenity/charging_station/evbox-7f623e":{"name":"EVBox","locationSet":{"include":["by","bg","cz","hu","pl","md","ro","ru","sk","ua","ax","gg","je","cq","dk","ee","fo","fi","is","ie","im","lv","lt","no","sj","se","gb","al","ad","ba","hr","gi","gr","va","it","mt","me","mk","pt","sm","rs","si","es","xk","at","be","fr","de","li","lu","mc","nl","ch"]},"geometry":["point","vertex","area"],"matchScore":2,"terms":["evbox"],"fields":["name","operator","{amenity/charging_station}"],"tags":{"amenity":"charging_station","operator:wikidata":"Q28406392"},"addTags":{"amenity":"charging_station","operator":"EVBox","operator:wikidata":"Q28406392"}},"amenity/charging_station/qpark-7f623e":{"name":"Q-Park","locationSet":{"include":["by","bg","cz","hu","pl","md","ro","ru","sk","ua","ax","gg","je","cq","dk","ee","fo","fi","is","ie","im","lv","lt","no","sj","se","gb","al","ad","ba","hr","gi","gr","va","it","mt","me","mk","pt","sm","rs","si","es","xk","at","be","fr","de","li","lu","mc","nl","ch"]},"geometry":["point","vertex","area"],"matchScore":2,"terms":["q-park"],"fields":["name","operator","{amenity/charging_station}"],"tags":{"amenity":"charging_station","operator:wikidata":"Q1127798"},"addTags":{"amenity":"charging_station","operator":"Q-Park","operator:wikidata":"Q1127798"}},"amenity/post_box/belposhta-f30b90":{"name":"Белпошта","locationSet":{"include":["by"]},"geometry":["point","vertex"],"matchScore":2,"terms":["belposhta","белпочта","белпошта","руп белпочта"],"tags":{"amenity":"post_box","operator:wikidata":"Q2662336"},"addTags":{"amenity":"post_box","operator":"Белпошта","operator:be":"Белпошта","operator:en":"Belposhta","operator:ru":"Белпочта","operator:wikidata":"Q2662336"}},"amenity/post_office/belposhta-4d7a9f":{"name":"Белпошта","locationSet":{"include":["by"]},"geometry":["point","area"],"matchScore":2,"terms":["belposhta","белпочта","белпошта","руп белпочта"],"fields":["name","operator","{amenity/post_office}"],"tags":{"amenity":"post_office","operator:wikidata":"Q2662336"},"addTags":{"amenity":"post_office","operator":"Белпошта","operator:be":"Белпошта","operator:en":"Belposhta","operator:ru":"Белпочта","operator:wikidata":"Q2662336"}},"amenity/telephone/672155-ab9526":{"name":"Белтелеком","locationSet":{"include":["by"]},"geometry":["point","vertex"],"matchScore":2,"terms":["белтелеком","руп «белтелеком»"],"fields":["name","operator","{amenity/telephone}"],"tags":{"amenity":"telephone","operator:wikidata":"Q4082979"},"addTags":{"amenity":"telephone","operator":"Белтелеком","operator:wikidata":"Q4082979"}},"man_made/eon-22bfb3":{"name":"E.ON","locationSet":{"include":["by","bg","cz","hu","pl","md","ro","ru","sk","ua","ax","gg","je","cq","dk","ee","fo","fi","is","ie","im","lv","lt","no","sj","se","gb","al","ad","ba","hr","gi","gr","va","it","mt","me","mk","pt","sm","rs","si","es","xk","at","be","fr","de","li","lu","mc","nl","ch"]},"geometry":["point","vertex","line","area"],"matchScore":2,"terms":["e-on drive","e.on"],"fields":["name","operator","{man_made}"],"tags":{"man_made":"charge_point","operator:wikidata":"Q270223"},"addTags":{"man_made":"charge_point","operator":"E.ON","operator:wikidata":"Q270223"}},"man_made/evbox-22bfb3":{"name":"EVBox","locationSet":{"include":["by","bg","cz","hu","pl","md","ro","ru","sk","ua","ax","gg","je","cq","dk","ee","fo","fi","is","ie","im","lv","lt","no","sj","se","gb","al","ad","ba","hr","gi","gr","va","it","mt","me","mk","pt","sm","rs","si","es","xk","at","be","fr","de","li","lu","mc","nl","ch"]},"geometry":["point","vertex","line","area"],"matchScore":2,"terms":["evbox"],"fields":["name","operator","{man_made}"],"tags":{"man_made":"charge_point","operator:wikidata":"Q28406392"},"addTags":{"man_made":"charge_point","operator":"EVBox","operator:wikidata":"Q28406392"}},"man_made/qpark-22bfb3":{"name":"Q-Park","locationSet":{"include":["by","bg","cz","hu","pl","md","ro","ru","sk","ua","ax","gg","je","cq","dk","ee","fo","fi","is","ie","im","lv","lt","no","sj","se","gb","al","ad","ba","hr","gi","gr","va","it","mt","me","mk","pt","sm","rs","si","es","xk","at","be","fr","de","li","lu","mc","nl","ch"]},"geometry":["point","vertex","line","area"],"matchScore":2,"terms":["q-park"],"fields":["name","operator","{man_made}"],"tags":{"man_made":"charge_point","operator:wikidata":"Q1127798"},"addTags":{"man_made":"charge_point","operator":"Q-Park","operator:wikidata":"Q1127798"}},"power/generator/innogy-16c9d0":{"name":"Innogy","locationSet":{"include":["by","bg","cz","hu","pl","md","ro","ru","sk","ua","ax","gg","je","cq","dk","ee","fo","fi","is","ie","im","lv","lt","no","sj","se","gb","al","ad","ba","hr","gi","gr","va","it","mt","me","mk","pt","sm","rs","si","es","xk","at","be","fr","de","li","lu","mc","nl","ch"]},"geometry":["point","vertex","area"],"matchScore":2,"terms":["innogy"],"tags":{"operator:wikidata":"Q2124721","power":"generator"},"addTags":{"operator":"Innogy","operator:wikidata":"Q2124721","power":"generator"}},"power/generator/rwe-16c9d0":{"name":"RWE","locationSet":{"include":["by","bg","cz","hu","pl","md","ro","ru","sk","ua","ax","gg","je","cq","dk","ee","fo","fi","is","ie","im","lv","lt","no","sj","se","gb","al","ad","ba","hr","gi","gr","va","it","mt","me","mk","pt","sm","rs","si","es","xk","at","be","fr","de","li","lu","mc","nl","ch"]},"geometry":["point","vertex","area"],"matchScore":2,"terms":["rwe"],"tags":{"operator:wikidata":"Q138133","power":"generator"},"addTags":{"operator":"RWE","operator:wikidata":"Q138133","power":"generator"}},"power/generator/statkraft-16c9d0":{"name":"Statkraft","locationSet":{"include":["by","bg","cz","hu","pl","md","ro","ru","sk","ua","ax","gg","je","cq","dk","ee","fo","fi","is","ie","im","lv","lt","no","sj","se","gb","al","ad","ba","hr","gi","gr","va","it","mt","me","mk","pt","sm","rs","si","es","xk","at","be","fr","de","li","lu","mc","nl","ch"]},"geometry":["point","vertex","area"],"matchScore":2,"terms":["statkraft"],"tags":{"operator:wikidata":"Q1681145","power":"generator"},"addTags":{"operator":"Statkraft","operator:wikidata":"Q1681145","power":"generator"}},"power/generator/uniper-16c9d0":{"name":"Uniper","locationSet":{"include":["by","bg","cz","hu","pl","md","ro","ru","sk","ua","ax","gg","je","cq","dk","ee","fo","fi","is","ie","im","lv","lt","no","sj","se","gb","al","ad","ba","hr","gi","gr","va","it","mt","me","mk","pt","sm","rs","si","es","xk","at","be","fr","de","li","lu","mc","nl","ch"]},"geometry":["point","vertex","area"],"matchScore":2,"terms":["uniper"],"tags":{"operator:wikidata":"Q19839259","power":"generator"},"addTags":{"operator":"Uniper","operator:wikidata":"Q19839259","power":"generator"}},"power/generator/wpo-16c9d0":{"name":"WPO","locationSet":{"include":["by","bg","cz","hu","pl","md","ro","ru","sk","ua","ax","gg","je","cq","dk","ee","fo","fi","is","ie","im","lv","lt","no","sj","se","gb","al","ad","ba","hr","gi","gr","va","it","mt","me","mk","pt","sm","rs","si","es","xk","at","be","fr","de","li","lu","mc","nl","ch"]},"geometry":["point","vertex","area"],"matchScore":2,"terms":["wpo"],"tags":{"operator:wikidata":"Q64755627","power":"generator"},"addTags":{"operator":"WPO","operator:wikidata":"Q64755627","power":"generator"}},"power/substation/vitebskenergo-1d411a":{"name":"Витебскэнерго","locationSet":{"include":["by"]},"geometry":["area","point"],"matchScore":2,"terms":["vitebskenergo","витебскэнерго","руп «витебскэнерго»"],"tags":{"operator:wikidata":"Q25386678","power":"substation"},"addTags":{"operator":"Витебскэнерго","operator:en":"Vitebskenergo","operator:ru":"Витебскэнерго","operator:wikidata":"Q25386678","power":"substation"}},"power/transformer/vitebskenergo-4e3767":{"name":"Витебскэнерго","locationSet":{"include":["by"]},"geometry":["point","vertex"],"matchScore":2,"terms":["vitebskenergo","витебскэнерго","руп «витебскэнерго»"],"tags":{"operator:wikidata":"Q25386678","power":"transformer"},"addTags":{"operator":"Витебскэнерго","operator:en":"Vitebskenergo","operator:ru":"Витебскэнерго","operator:wikidata":"Q25386678","power":"transformer"}},"telecom/exchange/interoute-58ec5d":{"name":"Interoute","locationSet":{"include":["by","bg","cz","hu","pl","md","ro","ru","sk","ua","ax","gg","je","cq","dk","ee","fo","fi","is","ie","im","lv","lt","no","sj","se","gb","al","ad","ba","hr","gi","gr","va","it","mt","me","mk","pt","sm","rs","si","es","xk","at","be","fr","de","li","lu","mc","nl","ch"]},"geometry":["point","area"],"matchScore":2,"terms":["interoute"],"fields":["name","operator","{telecom/exchange}"],"tags":{"operator:wikidata":"Q1668090","telecom":"exchange"},"addTags":{"operator":"Interoute","operator:wikidata":"Q1668090","telecom":"exchange"}},"public_transport/platform/bus_point/flixbus-f5b4b3":{"name":"Flixbus","locationSet":{"include":["by","bg","cz","hu","pl","md","ro","ru","sk","ua","ax","gg","je","cq","dk","ee","fo","fi","is","ie","im","lv","lt","no","sj","se","gb","al","ad","ba","hr","gi","gr","va","it","mt","me","mk","pt","sm","rs","si","es","xk","at","be","fr","de","li","lu","mc","nl","ch","br","ca","us"]},"geometry":["point","vertex"],"matchScore":2,"terms":["flixbus"],"reference":{"key":"public_transport","value":"platform"},"tags":{"bus":"yes","network:wikidata":"Q15712258","public_transport":"platform"},"addTags":{"bus":"yes","highway":"bus_stop","network":"Flixbus","network:wikidata":"Q15712258","public_transport":"platform"}},"railway/station/eurocity-170b77":{"name":"EuroCity","locationSet":{"include":["by","bg","cz","hu","pl","md","ro","ru","sk","ua","ax","gg","je","cq","dk","ee","fo","fi","is","ie","im","lv","lt","no","sj","se","gb","al","ad","ba","hr","gi","gr","va","it","mt","me","mk","pt","sm","rs","si","es","xk","at","be","fr","de","li","lu","mc","nl","ch"]},"geometry":["point","vertex","area"],"matchScore":2,"terms":["eurocity"],"tags":{"network:wikidata":"Q753050","railway":"station"},"addTags":{"network":"EuroCity","network:wikidata":"Q753050","public_transport":"station","railway":"station","train":"yes"}},"railway/station/euronight-170b77":{"name":"EuroNight","locationSet":{"include":["by","bg","cz","hu","pl","md","ro","ru","sk","ua","ax","gg","je","cq","dk","ee","fo","fi","is","ie","im","lv","lt","no","sj","se","gb","al","ad","ba","hr","gi","gr","va","it","mt","me","mk","pt","sm","rs","si","es","xk","at","be","fr","de","li","lu","mc","nl","ch"]},"geometry":["point","vertex","area"],"matchScore":2,"terms":["euronight"],"tags":{"network:wikidata":"Q257307","railway":"station"},"addTags":{"network":"EuroNight","network:wikidata":"Q257307","public_transport":"station","railway":"station","train":"yes"}},"type/route/bus/flixbus-8cc9ca":{"name":"Flixbus","locationSet":{"include":["by","bg","cz","hu","pl","md","ro","ru","sk","ua","ax","gg","je","cq","dk","ee","fo","fi","is","ie","im","lv","lt","no","sj","se","gb","al","ad","ba","hr","gi","gr","va","it","mt","me","mk","pt","sm","rs","si","es","xk","at","be","fr","de","li","lu","mc","nl","ch","br","ca","us"]},"geometry":["relation"],"matchScore":2,"terms":["flixbus"],"reference":{"key":"route","value":"bus"},"tags":{"network:wikidata":"Q15712258","route":"bus","type":"route"},"addTags":{"network":"Flixbus","network:wikidata":"Q15712258","route":"bus","type":"route"}},"type/route/train/eurocity-6b9d23":{"name":"EuroCity","locationSet":{"include":["by","bg","cz","hu","pl","md","ro","ru","sk","ua","ax","gg","je","cq","dk","ee","fo","fi","is","ie","im","lv","lt","no","sj","se","gb","al","ad","ba","hr","gi","gr","va","it","mt","me","mk","pt","sm","rs","si","es","xk","at","be","fr","de","li","lu","mc","nl","ch"]},"geometry":["relation"],"matchScore":2,"terms":["eurocity"],"reference":{"key":"route","value":"train"},"tags":{"network:wikidata":"Q753050","route":"train","type":"route"},"addTags":{"network":"EuroCity","network:wikidata":"Q753050","route":"train","type":"route"}},"type/route/train/euronight-6b9d23":{"name":"EuroNight","locationSet":{"include":["by","bg","cz","hu","pl","md","ro","ru","sk","ua","ax","gg","je","cq","dk","ee","fo","fi","is","ie","im","lv","lt","no","sj","se","gb","al","ad","ba","hr","gi","gr","va","it","mt","me","mk","pt","sm","rs","si","es","xk","at","be","fr","de","li","lu","mc","nl","ch"]},"geometry":["relation"],"matchScore":2,"terms":["euronight"],"reference":{"key":"route","value":"train"},"tags":{"network:wikidata":"Q257307","route":"train","type":"route"},"addTags":{"network":"EuroNight","network:wikidata":"Q257307","route":"train","type":"route"}}}