{"amenity/atm/bni-d4d2b6":{"name":"BNI","locationSet":{"include":["au","ca","gb","hk","id","jp","kr","mm","sg","us"]},"geometry":["point","vertex"],"matchScore":2,"terms":["bank bni","bank negara indonesia","bni"],"fields":["name","brand","{amenity/atm}"],"tags":{"amenity":"atm","brand:wikidata":"Q2882611"},"addTags":{"amenity":"atm","brand":"BNI","brand:wikidata":"Q2882611","official_name":"Bank Negara Indonesia","operator":"BNI","operator:wikidata":"Q2882611"}},"amenity/atm/ocbcbank-2b05e9":{"name":"OCBC Bank","locationSet":{"include":["my","sg"]},"geometry":["point","vertex"],"matchScore":2,"terms":["ocbc bank","华侨银行"],"fields":["name","brand","{amenity/atm}"],"tags":{"amenity":"atm","brand:wikidata":"Q2042423"},"addTags":{"amenity":"atm","brand":"OCBC Bank","brand:wikidata":"Q2042423","brand:zh":"华侨银行","name:zh":"华侨银行","operator":"OCBC Bank","operator:wikidata":"Q2042423"}},"amenity/atm/rhbbank-309a65":{"name":"RHB Bank","locationSet":{"include":["bn","my","sg","th","vn"]},"geometry":["point","vertex"],"matchScore":2,"terms":["rhb bank"],"fields":["name","brand","{amenity/atm}"],"tags":{"amenity":"atm","brand:wikidata":"Q4207443"},"addTags":{"amenity":"atm","brand":"RHB Bank","brand:wikidata":"Q4207443","operator":"RHB Bank","operator:wikidata":"Q4207443"}},"amenity/atm/uob-441a96":{"name":"UOB","locationSet":{"include":["au","bn","ca","cn","gb","hk","id","in","jp","kr","mm","my","ph","sg","th","us","vn"]},"geometry":["point","vertex"],"matchScore":2,"terms":["united overseas bank","uob","大华银行"],"fields":["name","brand","{amenity/atm}"],"tags":{"amenity":"atm","brand:wikidata":"Q2064074"},"addTags":{"amenity":"atm","brand":"UOB","brand:wikidata":"Q2064074","brand:zh":"大华银行","name:zh":"大华银行","operator":"UOB","operator:wikidata":"Q2064074"}},"amenity/bank/bni-27dfb6":{"name":"BNI","locationSet":{"include":["au","ca","gb","hk","id","jp","kr","mm","sg","us"]},"geometry":["point","area"],"matchScore":2,"terms":["bank bni","bank negara indonesia","bni"],"tags":{"amenity":"bank","brand:wikidata":"Q2882611"},"addTags":{"amenity":"bank","brand":"BNI","brand:wikidata":"Q2882611","name":"BNI","official_name":"Bank Negara Indonesia"}},"amenity/bank/ocbcbank-ae45e2":{"name":"OCBC Bank","locationSet":{"include":["my","sg"]},"geometry":["point","area"],"matchScore":2,"terms":["ocbc bank","华侨银行"],"tags":{"amenity":"bank","brand:wikidata":"Q2042423"},"addTags":{"amenity":"bank","brand":"OCBC Bank","brand:wikidata":"Q2042423","brand:zh":"华侨银行","name":"OCBC Bank","name:zh":"华侨银行"}},"amenity/bank/rhbbank-ea52df":{"name":"RHB Bank","locationSet":{"include":["bn","my","sg","th","vn"]},"geometry":["point","area"],"matchScore":2,"terms":["rhb bank"],"tags":{"amenity":"bank","brand:wikidata":"Q4207443"},"addTags":{"amenity":"bank","brand":"RHB Bank","brand:wikidata":"Q4207443","name":"RHB Bank"}},"amenity/bank/uob-dadccc":{"name":"UOB","locationSet":{"include":["au","bn","ca","cn","gb","hk","id","in","jp","kr","mm","my","ph","sg","th","us","vn"]},"geometry":["point","area"],"matchScore":2,"terms":["united overseas bank","uob","大华银行"],"tags":{"amenity":"bank","brand:wikidata":"Q2064074"},"addTags":{"amenity":"bank","brand":"UOB","brand:wikidata":"Q2064074","brand:zh":"大华银行","name":"UOB","name:zh":"大华银行"}},"amenity/cafe/bubble_tea/gongcha-17742a":{"name":"Gong Cha (worldwide)","locationSet":{"include":["au","bn","ca","mm","my","nz","ph","sg","us"]},"geometry":["point","area"],"matchScore":2,"terms":["gong cha","貢茶"],"reference":{"key":"cuisine","value":"bubble_tea"},"tags":{"amenity":"cafe","brand:wikidata":"Q5581670","cuisine":"bubble_tea"},"addTags":{"amenity":"cafe","brand":"Gong Cha","brand:wikidata":"Q5581670","brand:zh":"貢茶","cuisine":"bubble_tea","int_name":"Gong Cha","name":"Gong Cha","name:zh":"貢茶","takeaway":"yes"}},"amenity/cafe/coffee_shop/hudsonscoffee-f5c0bd":{"name":"Hudsons Coffee","locationSet":{"include":["au","nz","sg"]},"geometry":["point","area"],"matchScore":2,"terms":["hudsons coffee"],"reference":{"key":"cuisine","value":"coffee_shop"},"tags":{"amenity":"cafe","brand:wikidata":"Q5929076","cuisine":"coffee_shop"},"addTags":{"amenity":"cafe","brand":"Hudsons Coffee","brand:wikidata":"Q5929076","cuisine":"coffee_shop","name":"Hudsons Coffee","takeaway":"yes"}},"amenity/cafe/coffee_shop/jamaicablue-941da9":{"name":"Jamaica Blue","locationSet":{"include":["ae","au","cn","gb","my","nz","sg"]},"geometry":["point","area"],"matchScore":2,"terms":["jamaica blue"],"reference":{"key":"cuisine","value":"coffee_shop"},"tags":{"amenity":"cafe","brand:wikidata":"Q24965819","cuisine":"coffee_shop"},"addTags":{"amenity":"cafe","brand":"Jamaica Blue","brand:wikidata":"Q24965819","cuisine":"coffee_shop","name":"Jamaica Blue","takeaway":"yes"}},"amenity/cafe/maxbrenner-15f3f0":{"name":"Max Brenner","locationSet":{"include":["au","il","ru","sg","us"]},"geometry":["point","area"],"matchScore":2,"terms":["max brenner","מקס ברנר"],"tags":{"amenity":"cafe","brand:wikidata":"Q955687"},"addTags":{"amenity":"cafe","brand":"Max Brenner","brand:wikidata":"Q955687","cuisine":"chocolate","name":"Max Brenner","name:en":"Max Brenner","name:he":"מקס ברנר","takeaway":"yes"}},"amenity/cafe/obriens-20e9d6":{"name":"O'Briens Café","locationSet":{"include":["ae","au","cn","gb","ie","my","nz","sg","th"]},"geometry":["point","area"],"matchScore":2,"terms":["o'briens"],"tags":{"amenity":"cafe","brand:wikidata":"Q7071686"},"addTags":{"amenity":"cafe","brand":"O'Briens","brand:wikidata":"Q7071686","cuisine":"sandwich","name":"O'Briens","takeaway":"yes"}},"amenity/cafe/coffee_shop/toastbox-ccae53":{"name":"Toast Box","locationSet":{"include":["sg"]},"geometry":["point","area"],"matchScore":2,"terms":["toast box"],"reference":{"key":"cuisine","value":"coffee_shop"},"tags":{"amenity":"cafe","brand:wikidata":"Q100285490","cuisine":"coffee_shop"},"addTags":{"amenity":"cafe","brand":"Toast Box","brand:wikidata":"Q100285490","cuisine":"coffee_shop","name":"Toast Box","takeaway":"yes"}},"amenity/cafe/coffee_shop/tobysestate-5dc2d4":{"name":"Toby's Estate","locationSet":{"include":["au","id","kw","ph","sg"]},"geometry":["point","area"],"matchScore":2,"terms":["toby's estate"],"reference":{"key":"cuisine","value":"coffee_shop"},"tags":{"amenity":"cafe","brand:wikidata":"Q117006060","cuisine":"coffee_shop"},"addTags":{"amenity":"cafe","brand":"Toby's Estate","brand:wikidata":"Q117006060","cuisine":"coffee_shop","name":"Toby's Estate","takeaway":"yes"}},"amenity/cafe/coffee_shop/tomntoms-16c022":{"name":"Tom N Toms","locationSet":{"include":["au","ch","hk","kr","mn","mo","my","ph","sg","th","us"]},"geometry":["point","area"],"matchScore":2,"terms":["tom n toms","탐앤탐스"],"reference":{"key":"cuisine","value":"coffee_shop"},"tags":{"amenity":"cafe","brand:wikidata":"Q18142418","cuisine":"coffee_shop;pretzel;smoothie;tea;bread"},"addTags":{"amenity":"cafe","brand":"Tom N Toms","brand:en":"Tom N Toms","brand:ko":"탐앤탐스","brand:wikidata":"Q18142418","cuisine":"coffee_shop;pretzel;smoothie;tea;bread","name":"Tom N Toms","takeaway":"yes"}},"amenity/cafe/coffee_shop/yakunkayatoast-ccae53":{"name":"Ya Kun Kaya Toast","locationSet":{"include":["sg"]},"geometry":["point","area"],"matchScore":2,"terms":["ya kun kaya toast"],"reference":{"key":"cuisine","value":"coffee_shop"},"tags":{"amenity":"cafe","brand:wikidata":"Q8046237","cuisine":"coffee_shop"},"addTags":{"amenity":"cafe","brand":"Ya Kun Kaya Toast","brand:wikidata":"Q8046237","cuisine":"coffee_shop","name":"Ya Kun Kaya Toast","takeaway":"yes"}},"amenity/cafe/bubble_tea/heytea-4472b7":{"name":"喜茶","locationSet":{"include":["cn","sg"]},"geometry":["point","area"],"matchScore":2,"terms":["heytea","喜茶"],"reference":{"key":"cuisine","value":"bubble_tea"},"tags":{"amenity":"cafe","brand:wikidata":"Q60875376","cuisine":"bubble_tea"},"addTags":{"amenity":"cafe","brand":"喜茶","brand:en":"Heytea","brand:wikidata":"Q60875376","brand:zh":"喜茶","cuisine":"bubble_tea","name":"喜茶","name:en":"Heytea","name:zh":"喜茶","takeaway":"yes"}},"amenity/cafe/coffee_shop/pacificcoffee-2d7d61":{"name":"太平洋咖啡","locationSet":{"include":["cn","my","sg"],"exclude":["hk","mo"]},"geometry":["point","area"],"matchScore":2,"terms":["pacific coffee","太平洋咖啡"],"reference":{"key":"cuisine","value":"coffee_shop"},"tags":{"amenity":"cafe","brand:wikidata":"Q7122398","cuisine":"coffee_shop"},"addTags":{"amenity":"cafe","brand":"太平洋咖啡","brand:en":"Pacific Coffee","brand:wikidata":"Q7122398","brand:zh":"太平洋咖啡","cuisine":"coffee_shop","name":"太平洋咖啡","name:en":"Pacific Coffee","name:zh":"太平洋咖啡","takeaway":"yes"}},"amenity/fast_food/burger/fiveguys-ffd618":{"name":"Five Guys","locationSet":{"include":["ae","au","be","ca","de","es","fr","gb","hk","ie","it","kw","lu","nl","qa","sa","sg","us"]},"geometry":["point","area"],"matchScore":2,"terms":["five guys","five guys burgers and fries"],"reference":{"key":"cuisine","value":"burger"},"tags":{"amenity":"fast_food","brand:wikidata":"Q1131810","cuisine":"burger"},"addTags":{"amenity":"fast_food","brand":"Five Guys","brand:wikidata":"Q1131810","cuisine":"burger","name":"Five Guys","official_name":"Five Guys Burgers and Fries","takeaway":"yes"}},"amenity/fast_food/sandwich/pretamanger-4f61b1":{"name":"Pret A Manger","locationSet":{"include":["ae","cn","de","dk","es","fr","gb","hk","ie","in","nl","pt","sg","us"]},"geometry":["point","area"],"matchScore":2,"terms":["pret","pret a manger"],"reference":{"key":"cuisine","value":"sandwich"},"tags":{"amenity":"fast_food","brand:wikidata":"Q2109109","cuisine":"sandwich"},"addTags":{"amenity":"fast_food","brand":"Pret A Manger","brand:wikidata":"Q2109109","cuisine":"sandwich","name":"Pret A Manger","short_name":"Pret","takeaway":"yes"}},"amenity/fast_food/secretrecipe-541408":{"name":"Secret Recipe","locationSet":{"include":["bd","bn","cn","id","kh","mm","mv","my","sg","th"]},"geometry":["point","area"],"matchScore":2,"terms":["secret recipe"],"tags":{"amenity":"fast_food","brand:wikidata":"Q7444079"},"addTags":{"amenity":"fast_food","brand":"Secret Recipe","brand:wikidata":"Q7444079","cuisine":"cake;malaysian","name":"Secret Recipe","takeaway":"yes"}},"amenity/fast_food/sumosalad-474d0a":{"name":"Sumo Salad","locationSet":{"include":["ae","au","br","nz","sg","us"]},"geometry":["point","area"],"matchScore":2,"terms":["sumo salad"],"tags":{"amenity":"fast_food","brand:wikidata":"Q16951700"},"addTags":{"amenity":"fast_food","brand":"Sumo Salad","brand:wikidata":"Q16951700","cuisine":"salad","name":"Sumo Salad","takeaway":"yes"}},"amenity/fast_food/thaiexpress-6f8102":{"name":"Thai Express (Singapore)","locationSet":{"include":["sg"]},"geometry":["point","area"],"matchScore":2,"terms":["thai express"],"tags":{"amenity":"fast_food","brand:wikidata":"Q7709119"},"addTags":{"amenity":"fast_food","brand":"Thai Express","brand:wikidata":"Q7709119","cuisine":"thai","name":"Thai Express","takeaway":"yes"}},"amenity/fast_food/wingstop-72c67c":{"name":"Wingstop","locationSet":{"include":["ae","ca","es","fx","gb","id","mx","sg","us"]},"geometry":["point","area"],"matchScore":2,"terms":["wingstop"],"tags":{"amenity":"fast_food","brand:wikidata":"Q8025339"},"addTags":{"amenity":"fast_food","brand":"Wingstop","brand:wikidata":"Q8025339","cuisine":"wings","name":"Wingstop","takeaway":"yes"}},"amenity/fast_food/yoshinoya-ffe475":{"name":"Yoshinoya","locationSet":{"include":["id","my","ph","sg","us"]},"geometry":["point","area"],"matchScore":2,"terms":["yoshinoya","吉野家"],"tags":{"amenity":"fast_food","brand:wikidata":"Q776272"},"addTags":{"amenity":"fast_food","brand":"Yoshinoya","brand:en":"Yoshinoya","brand:wikidata":"Q776272","cuisine":"beef_bowl","name":"Yoshinoya","name:en":"Yoshinoya","name:ja":"吉野家","takeaway":"yes"}},"amenity/fast_food/burger/mosburger-64dc13":{"name":"摩斯漢堡","locationSet":{"include":["cn","sg","tw"],"exclude":["hk","mo"]},"geometry":["point","area"],"matchScore":2,"terms":["mos burger","摩斯漢堡"],"reference":{"key":"cuisine","value":"burger"},"tags":{"amenity":"fast_food","brand:wikidata":"Q1204169","cuisine":"burger"},"addTags":{"amenity":"fast_food","brand":"摩斯漢堡","brand:en":"MOS Burger","brand:wikidata":"Q1204169","brand:zh":"摩斯漢堡","cuisine":"burger","name":"摩斯漢堡","name:en":"MOS Burger","name:zh":"摩斯漢堡","takeaway":"yes"}},"amenity/fast_food/matsuya-992e2a":{"name":"松屋","locationSet":{"include":["cn","jp","sg","tw"],"exclude":["hk","mo"]},"geometry":["point","area"],"matchScore":2,"terms":["matsuya","matsuya foods","松屋","松屋フーズ"],"tags":{"amenity":"fast_food","brand:wikidata":"Q848773"},"addTags":{"amenity":"fast_food","brand":"松屋","brand:en":"Matsuya","brand:ja":"松屋","brand:wikidata":"Q848773","brand:zh":"松屋","cuisine":"beef_bowl","name":"松屋","name:en":"Matsuya","name:ja":"松屋","name:zh":"松屋","operator":"松屋フーズ","operator:en":"Matsuya Foods","operator:ja":"松屋フーズ","takeaway":"yes"}},"amenity/fast_food/sakaesushi-1ef1da":{"name":"栄寿司","locationSet":{"include":["cn","id","my","pi","sg","th"]},"geometry":["point","area"],"matchScore":2,"terms":["sakae sushi","栄寿司"],"tags":{"amenity":"fast_food","brand:wikidata":"Q14955169"},"addTags":{"amenity":"fast_food","brand":"栄寿司","brand:en":"Sakae Sushi","brand:ja":"栄寿司","brand:wikidata":"Q14955169","cuisine":"japanese","name":"栄寿司","name:en":"Sakae Sushi","name:ja":"栄寿司","takeaway":"yes"}},"amenity/fast_food/tsuiwahrestaurant-0711fa":{"name":"翠华餐厅","locationSet":{"include":["cn","sg"],"exclude":["hk","mo"]},"geometry":["point","area"],"matchScore":2,"terms":["tsui wah restaurant","翠华餐厅"],"tags":{"amenity":"fast_food","brand:wikidata":"Q7850018"},"addTags":{"amenity":"fast_food","brand":"翠华餐厅","brand:en":"Tsui Wah Restaurant","brand:wikidata":"Q7850018","brand:zh":"翠华餐厅","cuisine":"cantonese","name":"翠华餐厅","name:en":"Tsui Wah Restaurant","name:zh":"翠华餐厅","takeaway":"yes"}},"amenity/fast_food/oldchangkee-ff7eca":{"name":"老曾记","locationSet":{"include":["cn","gb","id","my","ph","sg"]},"geometry":["point","area"],"matchScore":2,"terms":["old chang kee","老曾记"],"tags":{"amenity":"fast_food","brand:wikidata":"Q17005286"},"addTags":{"amenity":"fast_food","brand":"老曾记","brand:en":"Old Chang Kee","brand:wikidata":"Q17005286","brand:zh":"老曾记","cuisine":"snacks","name":"老曾记","name:en":"Old Chang Kee","name:zh":"老曾记","takeaway":"yes"}},"amenity/fast_food/chicken/kfc-64dc13":{"name":"肯德基","locationSet":{"include":["cn","sg","tw"],"exclude":["hk","mo"]},"geometry":["point","area"],"matchScore":2,"terms":["kfc","肯德基"],"reference":{"key":"cuisine","value":"chicken"},"tags":{"amenity":"fast_food","brand:wikidata":"Q524757","cuisine":"chicken"},"addTags":{"amenity":"fast_food","brand":"肯德基","brand:en":"KFC","brand:wikidata":"Q524757","brand:zh":"肯德基","cuisine":"chicken","name":"肯德基","name:en":"KFC","name:zh":"肯德基","takeaway":"yes"}},"amenity/fast_food/burger/mcdonalds-0711fa":{"name":"麦当劳","locationSet":{"include":["cn","sg"],"exclude":["hk","mo"]},"geometry":["point","area"],"matchScore":2,"terms":["mcdonald's","麦当劳"],"reference":{"key":"cuisine","value":"burger"},"tags":{"amenity":"fast_food","brand:wikidata":"Q38076","cuisine":"burger"},"addTags":{"amenity":"fast_food","brand":"麦当劳","brand:en":"McDonald's","brand:wikidata":"Q38076","brand:zh":"麦当劳","brand:zh-Hans":"麦当劳","cuisine":"burger","name":"麦当劳","name:en":"McDonald's","name:zh":"麦当劳","name:zh-Hans":"麦当劳","takeaway":"yes"}},"amenity/fuel/caltex-a02c05":{"name":"Caltex","locationSet":{"include":["ae","au","eg","hk","id","kh","kr","lk","my","nz","ph","pk","sa","sg","th","vn","za"]},"geometry":["point","area"],"matchScore":2,"terms":["caltex"],"fields":["name","brand","{amenity/fuel}"],"tags":{"amenity":"fuel","brand:wikidata":"Q277470"},"addTags":{"amenity":"fuel","brand":"Caltex","brand:wikidata":"Q277470","name":"Caltex"}},"amenity/ice_cream/gelatissimo-17af97":{"name":"Gelatissimo","locationSet":{"include":["au","bd","cn","in","ph","sa","sg"]},"geometry":["point","area"],"matchScore":2,"terms":["gelatissimo"],"tags":{"amenity":"ice_cream","brand:wikidata":"Q105270111"},"addTags":{"amenity":"ice_cream","brand":"Gelatissimo","brand:wikidata":"Q105270111","cuisine":"ice_cream","name":"Gelatissimo","takeaway":"yes"}},"amenity/ice_cream/llaollao-dd9462":{"name":"Llaollao","locationSet":{"include":["au","ch","cl","co","ec","es","fr","gt","hr","id","iq","kw","ma","my","ph","pt","sa","sg","si","sv","us","vn"]},"geometry":["point","area"],"matchScore":2,"terms":["llaollao"],"tags":{"amenity":"ice_cream","brand:wikidata":"Q12163048"},"addTags":{"amenity":"ice_cream","brand":"Llaollao","brand:wikidata":"Q12163048","cuisine":"frozen_yogurt","name":"Llaollao"}},"amenity/ice_cream/yogurtland-4111ef":{"name":"Yogurtland","locationSet":{"include":["ae","au","bh","kw","mm","qa","sa","sg","th","us","ve"]},"geometry":["point","area"],"matchScore":2,"terms":["yogurtland"],"tags":{"amenity":"ice_cream","brand:wikidata":"Q8054428"},"addTags":{"amenity":"ice_cream","brand":"Yogurtland","brand:wikidata":"Q8054428","cuisine":"frozen_yogurt","name":"Yogurtland","takeaway":"yes"}},"amenity/pharmacy/guardian-c3738d":{"name":"Guardian (Asia)","locationSet":{"include":["bn","id","kh","my","sg","vn"]},"geometry":["point","area"],"matchScore":2,"terms":["guardian"],"reference":{"key":"amenity","value":"pharmacy"},"tags":{"amenity":"pharmacy","brand:wikidata":"Q63371124"},"addTags":{"amenity":"pharmacy","brand":"Guardian","brand:wikidata":"Q63371124","healthcare":"pharmacy","name":"Guardian"}},"amenity/post_office/bestexpress-047f43":{"name":"Best Express","locationSet":{"include":["in","my","sg","th"],"exclude":["cn"]},"geometry":["point","area"],"matchScore":2,"terms":["best express","百世快递"],"fields":["name","brand","{amenity/post_office}"],"tags":{"amenity":"post_office","brand:wikidata":"Q22099540"},"addTags":{"amenity":"post_office","brand":"Best Express","brand:en":"Best Express","brand:wikidata":"Q22099540","brand:zh":"百世快递","operator":"Best Express","operator:en":"Best Express","operator:wikidata":"Q22099540","operator:zh":"百世快递"}},"amenity/restaurant/afuri-9b358b":{"name":"AFURI","locationSet":{"include":["ca","hk","jp","pt","sg","us"]},"geometry":["point","area"],"matchScore":2,"terms":["afuri"],"fields":["name","brand","{amenity/restaurant}"],"tags":{"amenity":"restaurant","brand:wikidata":"Q109237427"},"addTags":{"amenity":"restaurant","brand":"AFURI","brand:wikidata":"Q109237427","cuisine":"ramen","name":"AFURI"}},"amenity/restaurant/sushi/bonchonchicken-b76b63":{"name":"Bonchon Chicken","locationSet":{"include":["bh","kh","kr","kw","my","ph","sg","th","us"]},"geometry":["point","area"],"matchScore":2,"terms":["bonchon","bonchon chicken","bonchon fried chicken"],"reference":{"key":"cuisine","value":"sushi"},"tags":{"amenity":"restaurant","brand:wikidata":"Q4941248","cuisine":"chicken;korean;sushi"},"addTags":{"amenity":"restaurant","brand":"Bonchon Chicken","brand:wikidata":"Q4941248","cuisine":"chicken;korean;sushi","name":"Bonchon Chicken"}},"amenity/restaurant/japanese/cocoichibanya-365649":{"name":"CoCo Ichibanya","locationSet":{"include":["cn","hk","id","in","kr","ph","sg","th","tw","uk","us","vn"]},"geometry":["point","area"],"matchScore":2,"terms":["coco ichibanya","coco壱番屋"],"reference":{"key":"cuisine","value":"japanese"},"tags":{"amenity":"restaurant","brand:wikidata":"Q5986105","cuisine":"japanese"},"addTags":{"amenity":"restaurant","brand":"CoCo Ichibanya","brand:en":"CoCo Ichibanya","brand:ja":"CoCo壱番屋","brand:wikidata":"Q5986105","cuisine":"japanese","name":"CoCo Ichibanya","name:en":"CoCo Ichibanya","name:ja":"CoCo壱番屋","takeaway":"yes"}},"amenity/restaurant/dintaifung-65890f":{"name":"Din Tai Fung","locationSet":{"include":["ae","au","cn","gb","id","jp","kr","mo","my","ph","sg","th","us"]},"geometry":["point","area"],"matchScore":2,"terms":["din tai fung","鼎泰豐"],"tags":{"amenity":"restaurant","brand:wikidata":"Q699142"},"addTags":{"amenity":"restaurant","brand":"Din Tai Fung","brand:en":"Din Tai Fung","brand:wikidata":"Q699142","brand:zh":"鼎泰豐","cuisine":"taiwanese","name":"Din Tai Fung","name:en":"Din Tai Fung","name:zh":"鼎泰豐"}},"amenity/restaurant/mexican/guzmanygomez-688cfd":{"name":"Guzman y Gomez","locationSet":{"include":["au","jp","sg"]},"geometry":["point","area"],"matchScore":2,"terms":["guzman y gomez"],"reference":{"key":"cuisine","value":"mexican"},"tags":{"amenity":"restaurant","brand:wikidata":"Q23019759","cuisine":"mexican"},"addTags":{"amenity":"restaurant","brand":"Guzman y Gomez","brand:wikidata":"Q23019759","cuisine":"mexican","name":"Guzman y Gomez"}},"amenity/restaurant/hansimgluck-a53895":{"name":"Hans im Glück","locationSet":{"include":["at","ch","de","sg"]},"geometry":["point","area"],"matchScore":2,"terms":["hans im glück"],"tags":{"amenity":"restaurant","brand:wikidata":"Q22569868"},"addTags":{"amenity":"restaurant","brand":"Hans im Glück","brand:wikidata":"Q22569868","cuisine":"burger","name":"Hans im Glück"}},"amenity/restaurant/nandos-32ebee":{"name":"Nando's","locationSet":{"include":["ae","au","bd","bh","bw","ca","fj","gb","ie","in","mu","my","nz","om","pk","qa","sa","sg","sz","us","za","zm","zw"]},"geometry":["point","area"],"matchScore":2,"terms":["nando's"],"tags":{"amenity":"restaurant","brand:wikidata":"Q3472954"},"addTags":{"amenity":"restaurant","brand":"Nando's","brand:wikidata":"Q3472954","cuisine":"chicken;portuguese","name":"Nando's"}},"amenity/restaurant/chinese/zhangliangspicyhotpot-789436":{"name":"张亮麻辣烫","locationSet":{"include":["au","cn","gb","jp","nz","sg","us"]},"geometry":["point","area"],"matchScore":2,"terms":["zhangliang spicy hot pot","张亮麻辣烫"],"reference":{"key":"cuisine","value":"chinese"},"tags":{"amenity":"restaurant","brand:wikidata":"Q108210279","cuisine":"chinese;malatang"},"addTags":{"amenity":"restaurant","brand":"张亮麻辣烫","brand:en":"Zhangliang Spicy Hot Pot","brand:wikidata":"Q108210279","brand:zh":"张亮麻辣烫","cuisine":"chinese;malatang","name":"张亮麻辣烫","name:en":"Zhangliang Spicy Hot Pot","name:zh":"张亮麻辣烫"}},"amenity/restaurant/chinese/yangguofuspicyhotpot-c61f2f":{"name":"杨国福麻辣烫","locationSet":{"include":["au","ca","cn","jp","kr","sg"]},"geometry":["point","area"],"matchScore":2,"terms":["yangguofu spicy hot pot","杨国福麻辣烫"],"reference":{"key":"cuisine","value":"chinese"},"tags":{"amenity":"restaurant","brand:wikidata":"Q108210209","cuisine":"chinese;malatang"},"addTags":{"amenity":"restaurant","brand":"杨国福麻辣烫","brand:en":"Yangguofu Spicy Hot Pot","brand:wikidata":"Q108210209","brand:zh":"杨国福麻辣烫","cuisine":"chinese;malatang","name":"杨国福麻辣烫","name:en":"Yangguofu Spicy Hot Pot","name:zh":"杨国福麻辣烫"}},"amenity/school/maplebear-101006":{"name":"Maple Bear","locationSet":{"include":["ae","al","ar","au","bd","bg","br","ca","gt","hk","hr","in","ke","kr","lk","ma","mx","my","np","om","pe","ph","py","ro","rs","sg","th","tk","ua","us","vn"]},"geometry":["area","point"],"matchScore":2,"terms":["maple bear"],"fields":["name","brand","{amenity/school}"],"tags":{"amenity":"school","brand:wikidata":"Q10324823"},"addTags":{"amenity":"school","brand":"Maple Bear","brand:wikidata":"Q10324823","name":"Maple Bear","operator:type":"private"}},"amenity/golftec-804fd8":{"name":"GOLFTEC","locationSet":{"include":["ca","cn","jp","sg","us"]},"geometry":["point","vertex","line","area"],"matchScore":2,"terms":["golftec"],"fields":["name","brand","{amenity}"],"tags":{"amenity":"training","brand:wikidata":"Q5580658"},"addTags":{"amenity":"training","brand":"GOLFTEC","brand:wikidata":"Q5580658","name":"GOLFTEC","training":"golf"}},"amenity/madscience-0435a3":{"name":"Mad Science","locationSet":{"include":["bh","br","ca","cn","es","gb","kw","ma","nl","om","pe","sa","sg","th","tr","tt","us"]},"geometry":["point","vertex","line","area"],"matchScore":2,"terms":["mad science"],"fields":["name","brand","{amenity}"],"tags":{"amenity":"training","brand:wikidata":"Q17009137"},"addTags":{"amenity":"training","brand":"Mad Science","brand:wikidata":"Q17009137","name":"Mad Science","training":"science"}},"leisure/amusement_arcade/timezone-bbc11e":{"name":"Timezone","locationSet":{"include":["au","id","in","nz","ph","sg","vn"]},"geometry":["point","area"],"matchScore":2,"terms":["timezone"],"tags":{"brand:wikidata":"Q12521502","leisure":"amusement_arcade"},"addTags":{"brand":"Timezone","brand:wikidata":"Q12521502","leisure":"amusement_arcade","name":"Timezone"}},"leisure/fitness_centre/barrys-1b6d66":{"name":"Barry's","locationSet":{"include":["ae","au","ca","de","dk","es","fr","gb","it","mx","no","qa","se","sg","us"]},"geometry":["point","area"],"matchScore":2,"terms":["barry's"],"tags":{"brand:wikidata":"Q96373178","leisure":"fitness_centre"},"addTags":{"brand":"Barry's","brand:wikidata":"Q96373178","leisure":"fitness_centre","name":"Barry's"}},"leisure/fitness_centre/celebrityfitness-412a8d":{"name":"Celebrity Fitness","locationSet":{"include":["id","my","ph","sg","th"]},"geometry":["point","area"],"matchScore":2,"terms":["celebrity fitness"],"tags":{"brand:wikidata":"Q5057734","leisure":"fitness_centre"},"addTags":{"brand":"Celebrity Fitness","brand:wikidata":"Q5057734","leisure":"fitness_centre","name":"Celebrity Fitness"}},"leisure/fitness_centre/purefitness-4ac78e":{"name":"Pure Fitness","locationSet":{"include":["cn","sg"]},"geometry":["point","area"],"matchScore":2,"terms":["pure fitness"],"tags":{"brand:wikidata":"Q10852204","leisure":"fitness_centre"},"addTags":{"brand":"Pure Fitness","brand:en":"Pure Fitness","brand:wikidata":"Q10852204","leisure":"fitness_centre","name":"Pure Fitness","name:en":"Pure Fitness"}},"leisure/fitness_centre/virginactive-4a682e":{"name":"Virgin Active","locationSet":{"include":["au","bw","gb","it","na","sg","th","za"]},"geometry":["point","area"],"matchScore":2,"terms":["virgin active"],"tags":{"brand:wikidata":"Q4013942","leisure":"fitness_centre"},"addTags":{"brand":"Virgin Active","brand:wikidata":"Q4013942","leisure":"fitness_centre","name":"Virgin Active"}},"leisure/miniature_golf/holeymoley-936f06":{"name":"Holey Moley","locationSet":{"include":["au","nz","sg"]},"geometry":["area","point"],"matchScore":2,"terms":["holey moley"],"tags":{"brand:wikidata":"Q85766991","leisure":"miniature_golf"},"addTags":{"bar":"yes","brand":"Holey Moley","brand:wikidata":"Q85766991","food":"yes","leisure":"miniature_golf","name":"Holey Moley","sport":"miniature_golf"}},"leisure/playground/biba-d25aa3":{"name":"Biba Smart Playground","locationSet":{"include":["au","ca","de","gb","hr","il","mx","nz","sg","us"]},"geometry":["area","point"],"matchScore":2,"terms":["biba"],"tags":{"brand:wikidata":"Q116211938","leisure":"playground"},"addTags":{"brand":"Biba","brand:wikidata":"Q116211938","leisure":"playground"}},"office/coworking/ucommune-a6089e":{"name":"Ucommune (Singapore)","locationSet":{"include":["sg"]},"geometry":["point","area"],"matchScore":2,"terms":["ucommune","优客工场"],"tags":{"brand:wikidata":"Q60785187","office":"coworking"},"addTags":{"brand":"Ucommune","brand:en":"Ucommune","brand:wikidata":"Q60785187","brand:zh":"优客工场","brand:zh-Hans":"优客工场","fee":"yes","name":"Ucommune","name:en":"Ucommune","name:zh":"优客工场","name:zh-Hans":"优客工场","office":"coworking"}},"office/insurance/allianz-332499":{"name":"Allianz","locationSet":{"include":["ae","ar","at","au","be","bg","bh","bm","bn","br","ca","cg","ch","ci","cm","cn","co","cy","cz","de","dk","ee","eg","es","fi","fr","gb","gf","gg","gh","gp","gr","hk","hr","hu","id","ie","in","is","it","ja","ke","kr","kw","la","li","lk","lt","lu","lv","ma","mg","mx","my","ng","nl","no","nz","om","ph","pk","pl","pt","qa","ro","ru","sa","se","sg","si","sk","sn","th","tr","tw","ua","us","za"]},"geometry":["point","area"],"matchScore":2,"terms":["allianz","allianz versicherung"],"fields":["name","brand","{office/insurance}"],"tags":{"brand:wikidata":"Q487292","office":"insurance"},"addTags":{"brand":"Allianz","brand:wikidata":"Q487292","name":"Allianz","office":"insurance"}},"office/insurance/axa-2e7672":{"name":"AXA","locationSet":{"include":["ae","ar","au","be","bh","bm","br","ca","ch","ci","cl","cm","cn","co","cz","de","dk","dz","eg","es","fi","fr","ga","gb","gr","hk","id","ie","in","it","jp","kr","lb","lu","ma","mu","mx","my","ng","nl","no","om","pa","pe","ph","pl","pt","qa","sa","se","sg","sk","sn","th","tr","tw","us"]},"geometry":["point","area"],"matchScore":2,"terms":["axa"],"fields":["name","brand","{office/insurance}"],"tags":{"brand:wikidata":"Q160054","office":"insurance"},"addTags":{"brand":"AXA","brand:wikidata":"Q160054","name":"AXA","office":"insurance"}},"office/insurance/ergo-38191f":{"name":"Ergo","locationSet":{"include":["at","be","ch","cn","cz","de","dk","ee","es","fr","gb","gr","hu","in","it","kr","lt","lu","lv","nl","pl","se","sg","th"]},"geometry":["point","area"],"matchScore":2,"terms":["ergo","ergo direkt","ergo direktversicherung","ergo versicherung"],"fields":["name","brand","{office/insurance}"],"tags":{"brand:wikidata":"Q541909","office":"insurance"},"addTags":{"brand":"Ergo","brand:wikidata":"Q541909","name":"Ergo","office":"insurance"}},"office/insurance/zurich-2d6c95":{"name":"Zurich","locationSet":{"include":["ae","at","au","be","bh","br","ca","ch","cl","cn","co","de","ec","es","fi","fr","gb","hk","id","ie","it","ja","kw","lb","li","lu","mx","my","nl","no","nz","om","pt","qa","se","sg","sk","tr","us"]},"geometry":["point","area"],"matchScore":2,"terms":["zurich"],"fields":["name","brand","{office/insurance}"],"tags":{"brand:wikidata":"Q230426","office":"insurance"},"addTags":{"brand":"Zurich","brand:wikidata":"Q230426","name":"Zurich","office":"insurance"}},"shop/bakery/breadtalk-96a6b3":{"name":"BreadTalk","locationSet":{"include":["sg"]},"geometry":["point","area"],"matchScore":2,"terms":["breadtalk"],"tags":{"brand:wikidata":"Q1106640","shop":"bakery"},"addTags":{"brand":"BreadTalk","brand:wikidata":"Q1106640","name":"BreadTalk","shop":"bakery"}},"shop/bakery/parisbaguette-e1a226":{"name":"Paris Baguette (worldwide)","locationSet":{"include":["sg","us","vn"]},"geometry":["point","area"],"matchScore":2,"terms":["paris baguette","paris baguette cafe"],"tags":{"brand:wikidata":"Q62605260","shop":"bakery"},"addTags":{"brand":"Paris Baguette","brand:wikidata":"Q62605260","name":"Paris Baguette","shop":"bakery"}},"shop/bakery/paul-652955":{"name":"Paul","locationSet":{"include":["ae","az","be","bh","by","ci","cy","cz","eg","es","fr","ga","gb","ge","gr","id","in","jo","jp","kw","kz","lb","lu","ma","mu","my","om","pa","ph","pl","pt","qa","ro","ru","sa","sg","th","tn","tw","ua","us","uz","vn","za"]},"geometry":["point","area"],"matchScore":2,"terms":["paul"],"tags":{"brand:wikidata":"Q3370417","shop":"bakery"},"addTags":{"brand":"Paul","brand:wikidata":"Q3370417","name":"Paul","shop":"bakery"}},"shop/books/popular-0df755":{"name":"Popular","locationSet":{"include":["hk","my","sg"]},"geometry":["point","area"],"matchScore":2,"terms":["popular","大众书局"],"tags":{"brand:wikidata":"Q4167785","shop":"books"},"addTags":{"brand":"Popular","brand:wikidata":"Q4167785","brand:zh":"大众书局","name":"Popular","name:zh":"大众书局","shop":"books"}},"shop/car/koenigsegg-45c2de":{"name":"Koenigsegg","locationSet":{"include":["ae","au","ca","ch","cn","de","es","gb","jp","kr","lb","mx","my","om","pl","se","sg","th","tw","us","za"]},"geometry":["point","area"],"matchScore":2,"terms":["koenigsegg"],"fields":["name","brand","{shop/car}"],"tags":{"brand:wikidata":"Q35594","shop":"car"},"addTags":{"brand":"Koenigsegg","brand:wikidata":"Q35594","name":"Koenigsegg","shop":"car"}},"shop/car/perodua-fca759":{"name":"Perodua","locationSet":{"include":["my","sg","uk"]},"geometry":["point","area"],"matchScore":2,"terms":["perodua"],"fields":["name","brand","{shop/car}"],"tags":{"brand:wikidata":"Q1476369","shop":"car"},"addTags":{"brand":"Perodua","brand:wikidata":"Q1476369","name":"Perodua","shop":"car"}},"shop/car/proton-576082":{"name":"Proton","locationSet":{"include":["cl","eg","id","my","sg","th"]},"geometry":["point","area"],"matchScore":2,"terms":["proton"],"fields":["name","brand","{shop/car}"],"tags":{"brand:wikidata":"Q827306","shop":"car"},"addTags":{"brand":"Proton","brand:wikidata":"Q827306","name":"Proton","shop":"car"}},"shop/car/rimac-0f1e04":{"name":"Rimac","locationSet":{"include":["ae","ca","cn","de","es","gb","jp","mx","sg","us"]},"geometry":["point","area"],"matchScore":2,"terms":["rimac"],"fields":["name","brand","{shop/car}"],"tags":{"brand:wikidata":"Q7334368","shop":"car"},"addTags":{"brand":"Rimac","brand:wikidata":"Q7334368","name":"Rimac","shop":"car"}},"shop/clothes/abercrombieandfitch-c69677":{"name":"Abercrombie & Fitch","locationSet":{"include":["ae","be","ca","cn","de","es","fr","gb","hk","ie","it","jp","kw","mx","nl","qa","sa","sg","us"]},"geometry":["point","area"],"matchScore":2,"terms":["abercrombie & fitch"],"tags":{"brand:wikidata":"Q319344","shop":"clothes"},"addTags":{"brand":"Abercrombie & Fitch","brand:wikidata":"Q319344","clothes":"men;women","name":"Abercrombie & Fitch","shop":"clothes"}},"shop/clothes/abercrombiekids-a75dc9":{"name":"Abercrombie Kids","locationSet":{"include":["ae","ca","cn","de","gb","it","nl","sg","us"]},"geometry":["point","area"],"matchScore":2,"terms":["abercrombie kids"],"tags":{"brand:wikidata":"Q429856","shop":"clothes"},"addTags":{"brand":"Abercrombie Kids","brand:wikidata":"Q429856","clothes":"children","name":"Abercrombie Kids","shop":"clothes"}},"shop/clothes/agnesb-600d6e":{"name":"Agnès B.","locationSet":{"include":["cn","de","fr","jp","ne","sg","tw","uk","us"]},"geometry":["point","area"],"matchScore":2,"terms":["agnès b."],"tags":{"brand:wikidata":"Q282967","shop":"clothes"},"addTags":{"brand":"Agnès B.","brand:wikidata":"Q282967","name":"Agnès B.","shop":"clothes"}},"shop/clothes/aliceolivia-b99316":{"name":"Alice + Olivia","locationSet":{"include":["cn","gb","jp","kr","sg","th","tw","us"]},"geometry":["point","area"],"matchScore":2,"terms":["alice + olivia"],"tags":{"brand:wikidata":"Q4725705","shop":"clothes"},"addTags":{"brand":"Alice + Olivia","brand:wikidata":"Q4725705","clothes":"women","name":"Alice + Olivia","shop":"clothes"}},"shop/clothes/jackwills-75e7ba":{"name":"Jack Wills","locationSet":{"include":["ae","gb","hk","ie","kw","lb","mo","sg","us"]},"geometry":["point","area"],"matchScore":2,"terms":["jack wills"],"tags":{"brand:wikidata":"Q6115814","shop":"clothes"},"addTags":{"brand":"Jack Wills","brand:wikidata":"Q6115814","name":"Jack Wills","shop":"clothes"}},"shop/clothes/maje-99ba8f":{"name":"Maje","locationSet":{"include":["by","bg","cz","hu","pl","md","ro","ru","sk","ua","ax","gg","je","cq","dk","ee","fo","fi","is","ie","im","lv","lt","no","sj","se","gb","al","ad","ba","hr","gi","gr","va","it","mt","me","mk","pt","sm","rs","si","es","xk","at","be","fr","de","li","lu","mc","nl","ch","cn","hk","sg","tw","uk","us"]},"geometry":["point","area"],"matchScore":2,"terms":["maje"],"tags":{"brand:wikidata":"Q3280458","shop":"clothes"},"addTags":{"brand":"Maje","brand:wikidata":"Q3280458","clothes":"women","name":"Maje","shop":"clothes"}},"shop/clothes/sweatybetty-81ce8b":{"name":"Sweaty Betty","locationSet":{"include":["ca","de","gb","hk","ie","sg","us"]},"geometry":["point","area"],"matchScore":2,"terms":["sweaty betty"],"tags":{"brand:wikidata":"Q7654224","shop":"clothes"},"addTags":{"brand":"Sweaty Betty","brand:wikidata":"Q7654224","clothes":"women;sports","name":"Sweaty Betty","shop":"clothes"}},"shop/confectionery/chateraise-c520ad":{"name":"Châteraisé","locationSet":{"include":["hk","sg","th","tw"]},"geometry":["point","area"],"matchScore":2,"terms":["chateraise","châteraisé","シャトレーゼ"],"tags":{"brand:wikidata":"Q11307696","shop":"confectionery"},"addTags":{"brand":"Châteraisé","brand:en":"Chateraise","brand:ja":"シャトレーゼ","brand:wikidata":"Q11307696","name":"Châteraisé","name:en":"Chateraise","name:ja":"シャトレーゼ","shop":"confectionery"}},"shop/convenience/cheers-a4ab31":{"name":"Cheers","locationSet":{"include":["sg","vn"]},"geometry":["point","area"],"matchScore":2,"terms":["cheers"],"tags":{"brand:wikidata":"Q64154066","shop":"convenience"},"addTags":{"brand":"Cheers","brand:wikidata":"Q64154066","name":"Cheers","opening_hours":"24/7","shop":"convenience"}},"shop/deli/vomfass-a3c745":{"name":"vomFASS","locationSet":{"include":["at","be","br","ca","ch","cz","de","dk","es","fr","gb","hk","hr","hu","il","it","jp","lv","mx","my","ph","sg","th","us"]},"geometry":["point","area"],"matchScore":2,"terms":["vomfass"],"tags":{"brand:wikidata":"Q2533008","shop":"deli"},"addTags":{"brand":"vomFASS","brand:wikidata":"Q2533008","name":"vomFASS","shop":"deli"}},"shop/department_store/muji-54e85b":{"name":"無印良品","locationSet":{"include":["my","sg","tw"]},"geometry":["point","area"],"matchScore":2,"terms":["muji","ryohin keikaku","無印良品","良品計画"],"tags":{"brand:wikidata":"Q708789","shop":"department_store"},"addTags":{"brand":"無印良品","brand:en":"Muji","brand:ja":"無印良品","brand:wikidata":"Q708789","name":"無印良品","name:en":"Muji","name:ja":"無印良品","official_name:en":"Ryohin Keikaku","shop":"department_store"}},"shop/doityourself/mrdiy-85e32f":{"name":"MR.DIY","locationSet":{"include":["bn","id","in","kn","my","ph","sg","th"]},"geometry":["point","area"],"matchScore":2,"terms":["mr.diy"],"tags":{"brand:wikidata":"Q105044323","shop":"doityourself"},"addTags":{"brand":"MR.DIY","brand:wikidata":"Q105044323","name":"MR.DIY","shop":"doityourself"}},"shop/fabric/spotlight-0e32f9":{"name":"Spotlight","locationSet":{"include":["au","my","nz","sg"]},"geometry":["point","area"],"matchScore":2,"terms":["spotlight"],"tags":{"brand:wikidata":"Q105960982","shop":"fabric"},"addTags":{"brand":"Spotlight","brand:wikidata":"Q105960982","name":"Spotlight","shop":"fabric"}},"shop/fashion_accessories/mulberry-e1f087":{"name":"Mulberry","locationSet":{"include":["ae","au","ca","ch","cn","de","dk","fi","gb","ie","jp","kr","my","nl","no","se","sg","th","us"]},"geometry":["point","area"],"matchScore":2,"terms":["mulberry"],"tags":{"brand:wikidata":"Q3866987","shop":"fashion_accessories"},"addTags":{"brand":"Mulberry","brand:wikidata":"Q3866987","name":"Mulberry","shop":"fashion_accessories"}},"shop/furniture/chateaudax-c96b56":{"name":"Chateau d'Ax","locationSet":{"include":["ao","be","ca","ch","cn","de","es","fx","gp","hk","hr","it","ma","mq","mt","mu","mz","pt","re","sg","si","tn","tw","us","vn"]},"geometry":["point","area"],"matchScore":2,"terms":["chateau d'ax"],"tags":{"brand:wikidata":"Q100249791","shop":"furniture"},"addTags":{"brand":"Chateau d'Ax","brand:wikidata":"Q100249791","name":"Chateau d'Ax","shop":"furniture"}},"shop/furniture/courts-cfdd43":{"name":"Courts (Singapore)","locationSet":{"include":["sg"]},"geometry":["point","area"],"matchScore":2,"terms":["courts"],"tags":{"brand:wikidata":"Q24942673","shop":"furniture"},"addTags":{"brand":"Courts","brand:wikidata":"Q24942673","name":"Courts","shop":"furniture"}},"shop/herbalist/euyansang-7be159":{"name":"Eu Yan Sang","locationSet":{"include":["au","ca","my","sg","us"]},"geometry":["point","area"],"matchScore":2,"terms":["eu yan sang","余仁生"],"tags":{"brand:wikidata":"Q4207246","shop":"herbalist"},"addTags":{"brand":"Eu Yan Sang","brand:en":"Eu Yan Sang","brand:wikidata":"Q4207246","brand:zh":"余仁生","name":"Eu Yan Sang","name:en":"Eu Yan Sang","name:zh":"余仁生","shop":"herbalist"}},"shop/jewelry/joyalukkas-534941":{"name":"Joyalukkas","locationSet":{"include":["ae","bh","gb","in","kw","my","om","qa","sa","sg","us"]},"geometry":["point","area"],"matchScore":2,"terms":["joyalukkas"],"tags":{"brand:wikidata":"Q6297357","shop":"jewelry"},"addTags":{"brand":"Joyalukkas","brand:wikidata":"Q6297357","name":"Joyalukkas","shop":"jewelry"}},"shop/jewelry/malabargoldanddiamonds-9fa2ef":{"name":"Malabar Gold and Diamonds","locationSet":{"include":["ae","bh","in","kw","my","om","qa","sa","sg","us"]},"geometry":["point","area"],"matchScore":2,"terms":["malabar gold and diamonds"],"tags":{"brand:wikidata":"Q60748883","shop":"jewelry"},"addTags":{"brand":"Malabar Gold and Diamonds","brand:wikidata":"Q60748883","name":"Malabar Gold and Diamonds","shop":"jewelry"}},"shop/jewelry/lukfookjewellery-7fe408":{"name":"六福珠宝","locationSet":{"include":["au","ca","cn","kh","my","sg","us"],"exclude":["hk","mo"]},"geometry":["point","area"],"matchScore":2,"terms":["lukfook jewellery","六福珠宝"],"tags":{"brand:wikidata":"Q10893397","shop":"jewelry"},"addTags":{"brand":"六福珠宝","brand:en":"Lukfook Jewellery","brand:wikidata":"Q10893397","brand:zh":"六福珠宝","name":"六福珠宝","name:en":"Lukfook Jewellery","name:zh":"六福珠宝","shop":"jewelry"}},"shop/jewelry/chowtaifook-4629af":{"name":"周大福","locationSet":{"include":["cn","jp","kr","my","sg","tw","us"],"exclude":["hk","mo"]},"geometry":["point","area"],"matchScore":2,"terms":["chow tai fook","周大福"],"tags":{"brand:wikidata":"Q48880993","shop":"jewelry"},"addTags":{"brand":"周大福","brand:en":"Chow Tai Fook","brand:wikidata":"Q48880993","brand:zh":"周大福","name":"周大福","name:en":"Chow Tai Fook","name:zh":"周大福","shop":"jewelry"}},"shop/pawnbroker/cashconverters-1c62e9":{"name":"Cash Converters","locationSet":{"include":["ae","au","be","ch","es","fr","lu","my","na","nz","pt","sg","uk","za"]},"geometry":["point","area"],"matchScore":2,"terms":["cash converters"],"tags":{"brand:wikidata":"Q5048645","shop":"pawnbroker"},"addTags":{"brand":"Cash Converters","brand:wikidata":"Q5048645","name":"Cash Converters","shop":"pawnbroker"}},"shop/shoes/drkong-2bd793":{"name":"Dr. Kong","locationSet":{"include":["az","bn","bu","cn","es","id","mn","my","ph","sg","th","uz"]},"geometry":["point","area"],"matchScore":2,"terms":["dr. kong","江博士"],"tags":{"brand:wikidata":"Q116547631","shop":"shoes"},"addTags":{"brand":"Dr. Kong","brand:wikidata":"Q116547631","name":"Dr. Kong","name:en":"Dr. Kong","shop":"shoes"}},"shop/stationery/smiggle-d7e848":{"name":"Smiggle","locationSet":{"include":["at","gb","hk","ie","my","nz","sg"]},"geometry":["point","area"],"matchScore":2,"terms":["smiggle"],"tags":{"brand:wikidata":"Q7544536","shop":"stationery"},"addTags":{"brand":"Smiggle","brand:wikidata":"Q7544536","name":"Smiggle","shop":"stationery"}},"shop/supermarket/99speedmart-bfc07b":{"name":"99 Speedmart","locationSet":{"include":["my","sg"]},"geometry":["point","area"],"matchScore":2,"terms":["99 speedmart"],"tags":{"brand:wikidata":"Q62075061","shop":"supermarket"},"addTags":{"brand":"99 Speedmart","brand:wikidata":"Q62075061","name":"99 Speedmart","shop":"supermarket"}},"shop/supermarket/gianthypermarket-e1160b":{"name":"Giant Hypermarket","locationSet":{"include":["id","my","sg","vn"]},"geometry":["point","area"],"matchScore":2,"terms":["giant hypermarket"],"tags":{"brand:wikidata":"Q4217013","shop":"supermarket"},"addTags":{"brand":"Giant Hypermarket","brand:wikidata":"Q4217013","name":"Giant Hypermarket","shop":"supermarket"}},"shop/supermarket/ntucfairprice-07d9e1":{"name":"NTUC Fairprice","locationSet":{"include":["sg"]},"geometry":["point","area"],"matchScore":2,"terms":["ntuc fairprice"],"tags":{"brand:wikidata":"Q6955519","shop":"supermarket"},"addTags":{"brand":"NTUC Fairprice","brand:wikidata":"Q6955519","name":"NTUC Fairprice","shop":"supermarket"}},"shop/supermarket/shengsiong-07d9e1":{"name":"Sheng Siong","locationSet":{"include":["sg"]},"geometry":["point","area"],"matchScore":2,"terms":["sheng siong"],"tags":{"brand:wikidata":"Q3481878","shop":"supermarket"},"addTags":{"brand":"Sheng Siong","brand:wikidata":"Q3481878","name":"Sheng Siong","shop":"supermarket"}},"shop/ticket/ticketmaster-9f0b74":{"name":"Ticketmaster","locationSet":{"include":["ae","at","au","be","ca","ch","cy","cz","de","dk","es","fi","fr","gr","ie","it","mx","nl","no","nz","pl","se","sg","tr","tw","uk","za"]},"geometry":["point","area"],"matchScore":2,"terms":["live nation","ticketmaster"],"fields":["name","brand","{shop/ticket}"],"tags":{"brand:wikidata":"Q2609162","shop":"ticket"},"addTags":{"brand":"Ticketmaster","brand:wikidata":"Q2609162","name":"Ticketmaster","shop":"ticket"}},"shop/tyres/tyreplus-99cc81":{"name":"Tyreplus","locationSet":{"include":["ae","au","bh","cn","id","kh","kw","my","om","ph","qa","ru","sa","sg","th","tw"]},"geometry":["point","area"],"matchScore":2,"terms":["tyreplus"],"tags":{"brand:wikidata":"Q110959120","shop":"tyres"},"addTags":{"brand":"Tyreplus","brand:wikidata":"Q110959120","name":"Tyreplus","shop":"tyres"}},"shop/variety_store/dondondonki-717fd7":{"name":"Don Don Donki","locationSet":{"include":["hk","my","sg","th","tw","us-hi"]},"geometry":["point","area"],"matchScore":2,"terms":["don don donki"],"tags":{"brand:wikidata":"Q1185381","shop":"variety_store"},"addTags":{"brand":"Don Don Donki","brand:wikidata":"Q1185381","name":"Don Don Donki","shop":"variety_store"}},"shop/watches/longines-691196":{"name":"Longines","locationSet":{"include":["ar","au","be","ca","ch","cl","cn","de","dk","es","fi","fr","gr","in","it","jp","kr","mx","my","nl","no","pt","se","sg","th","tr","tw","uk","us","za"]},"geometry":["point","area"],"matchScore":2,"terms":["longines"],"tags":{"brand:wikidata":"Q603698","shop":"watches"},"addTags":{"brand":"Longines","brand:wikidata":"Q603698","name":"Longines","shop":"watches"}},"tourism/hotel/adinaapartmenthotel-a6b67a":{"name":"Adina Hotels","locationSet":{"include":["at","au","ch","de","dk","hu","nz","sg"]},"geometry":["point","area"],"matchScore":2,"terms":["adina","adina hotels"],"fields":["name","brand","{tourism/hotel}"],"tags":{"brand:wikidata":"Q50406079","tourism":"hotel"},"addTags":{"brand":"Adina Hotels","brand:wikidata":"Q50406079","name":"Adina Apartment Hotel","tourism":"hotel"}},"tourism/hotel/conrad-ee1a43":{"name":"Conrad Hotels & Resorts","locationSet":{"include":["ae","ca","cn","eg","gb","id","ie","in","jp","kr","mv","pf","ph","pt","sa","sg","th","tr","us"]},"geometry":["point","area"],"matchScore":2,"terms":["conrad"],"fields":["name","brand","{tourism/hotel}"],"tags":{"brand:wikidata":"Q855525","tourism":"hotel"},"addTags":{"brand":"Conrad","brand:wikidata":"Q855525","name":"Conrad","tourism":"hotel"}},"tourism/hotel/daysinn-a89235":{"name":"Days Inn","locationSet":{"include":["ca","ch","gb","id","in","kr","mx","my","ph","sg","sn","th","us"]},"geometry":["point","area"],"matchScore":2,"terms":["days inn"],"fields":["name","brand","{tourism/hotel}"],"tags":{"brand:wikidata":"Q1047239","tourism":"hotel"},"addTags":{"brand":"Days Inn","brand:wikidata":"Q1047239","name":"Days Inn","tourism":"hotel"}},"tourism/hotel/edition-24940c":{"name":"Edition","locationSet":{"include":["ae","cn","es","gb","is","it","jp","mx","my","qa","sg","tr","us"]},"geometry":["point","area"],"matchScore":2,"terms":["edition"],"fields":["name","brand","{tourism/hotel}"],"tags":{"brand:wikidata":"Q91218404","tourism":"hotel"},"addTags":{"brand":"Edition","brand:wikidata":"Q91218404","name":"Edition","tourism":"hotel"}},"tourism/hotel/raffles-771760":{"name":"Raffles","locationSet":{"include":["ae","bh","cn","fr","gb","id","in","kh","mv","ph","pl","qa","ru","sa","sc","sg","us"]},"geometry":["point","area"],"matchScore":2,"terms":["raffles"],"fields":["name","brand","{tourism/hotel}"],"tags":{"brand:wikidata":"Q4306661","tourism":"hotel"},"addTags":{"brand":"Raffles","brand:wikidata":"Q4306661","name":"Raffles","tourism":"hotel"}},"tourism/hotel/travelodge-2e0dc6":{"name":"Travelodge (Asia/Oceania)","locationSet":{"include":["au","hk","id","kr","my","nz","sg","th"]},"geometry":["point","area"],"matchScore":2,"terms":["travelodge"],"fields":["name","brand","{tourism/hotel}"],"tags":{"brand:wikidata":"Q24997583","tourism":"hotel"},"addTags":{"brand":"Travelodge","brand:wikidata":"Q24997583","name":"Travelodge","tourism":"hotel"}},"tourism/hotel/yotel-ebcca5":{"name":"YOTEL","locationSet":{"include":["ae","ch","fx","gb","nl","pt","sg","tr","us-ca","us-dc","us-fl","us-ma","us-ny"]},"geometry":["point","area"],"matchScore":2,"terms":["yotel"],"fields":["name","brand","{tourism/hotel}"],"tags":{"brand:wikidata":"Q8046002","tourism":"hotel"},"addTags":{"brand":"YOTEL","brand:wikidata":"Q8046002","name":"YOTEL","tourism":"hotel"}},"amenity/parking/wilsonparking-7fb8ab":{"name":"Wilson Parking","locationSet":{"include":["au","kr","nz","sg"]},"geometry":["area","point","vertex"],"matchScore":2,"terms":["wilson","wilson parking"],"fields":["name","operator","{amenity/parking}"],"tags":{"amenity":"parking","operator:wikidata":"Q28448427"},"addTags":{"amenity":"parking","brand":"Wilson Parking","brand:wikidata":"Q28448427","fee":"yes","name":"Wilson Parking","operator":"Wilson Parking","operator:wikidata":"Q28448427"}},"amenity/post_box/bestexpress-fc1a2a":{"name":"Best Express","locationSet":{"include":["in","my","sg","th"],"exclude":["cn"]},"geometry":["point","vertex"],"matchScore":2,"terms":["best express","百世快递"],"tags":{"amenity":"post_box","operator:wikidata":"Q22099540"},"addTags":{"amenity":"post_box","brand":"Best Express","brand:en":"Best Express","brand:wikidata":"Q22099540","brand:zh":"百世快递","operator":"Best Express","operator:en":"Best Express","operator:wikidata":"Q22099540","operator:zh":"百世快递"}},"amenity/post_box/singaporepost-7412de":{"name":"Singapore Post","locationSet":{"include":["sg"]},"geometry":["point","vertex"],"matchScore":2,"terms":["singapore post"],"tags":{"amenity":"post_box","operator:wikidata":"Q4049531"},"addTags":{"amenity":"post_box","operator":"Singapore Post","operator:wikidata":"Q4049531"}},"amenity/post_office/singaporepost-5f2b0a":{"name":"Singapore Post","locationSet":{"include":["sg"]},"geometry":["point","area"],"matchScore":2,"terms":["singapore post"],"fields":["name","operator","{amenity/post_office}"],"tags":{"amenity":"post_office","operator:wikidata":"Q4049531"},"addTags":{"amenity":"post_office","operator":"Singapore Post","operator:wikidata":"Q4049531"}},"leisure/nature_reserve/nationalparksboard-96e2ce":{"name":"National Parks Board","locationSet":{"include":["sg"]},"geometry":["area","point"],"matchScore":2,"terms":["national parks board","nparks"],"tags":{"leisure":"nature_reserve","operator:wikidata":"Q6974762"},"addTags":{"leisure":"nature_reserve","operator":"National Parks Board","operator:short":"NParks","operator:wikidata":"Q6974762"}},"leisure/park/nationalparksboard-671a98":{"name":"National Parks Board","locationSet":{"include":["sg"]},"geometry":["area","point"],"matchScore":2,"terms":["national parks board","nparks"],"tags":{"leisure":"park","operator:wikidata":"Q6974762"},"addTags":{"leisure":"park","operator":"National Parks Board","operator:short":"NParks","operator:wikidata":"Q6974762"}},"office/energy_supplier/naturgy-e15d8a":{"name":"Naturgy","locationSet":{"include":["ar","au","be","br","cl","cn","cr","de","do","dz","eg","es","fr","gb","ie","in","jm","jo","jp","lu","ma","mx","nl","om","pa","pe","pk","pr","pt","sg"]},"geometry":["point","area"],"matchScore":2,"terms":["naturgy"],"tags":{"office":"energy_supplier","operator:wikidata":"Q474690"},"addTags":{"name":"Naturgy","office":"energy_supplier","operator":"Naturgy","operator:wikidata":"Q474690"}},"telecom/data_center/nextdc-2d5c42":{"name":"NextDC","locationSet":{"include":["au","jp","sg"]},"geometry":["point","area"],"matchScore":2,"terms":["nextdc"],"fields":["name","operator","{telecom/data_center}"],"tags":{"operator:wikidata":"Q55696290","telecom":"data_center"},"addTags":{"name":"NextDC","operator":"NextDC","operator:wikidata":"Q55696290","telecom":"data_center"}},"public_transport/platform/bus_point/landtransportauthority-999925":{"name":"Land Transport Authority","locationSet":{"include":["my","sg"]},"geometry":["point","vertex"],"matchScore":2,"terms":["land transport authority","lta"],"reference":{"key":"public_transport","value":"platform"},"tags":{"bus":"yes","network:wikidata":"Q3299279","public_transport":"platform"},"addTags":{"bus":"yes","highway":"bus_stop","network":"Land Transport Authority","network:short":"LTA","network:wikidata":"Q3299279","public_transport":"platform"}},"public_transport/platform/bus_point/sbs-999925":{"name":"SBS","locationSet":{"include":["my","sg"]},"geometry":["point","vertex"],"matchScore":2,"terms":["sbs"],"reference":{"key":"public_transport","value":"platform"},"tags":{"bus":"yes","network:wikidata":"Q2661305","public_transport":"platform"},"addTags":{"bus":"yes","highway":"bus_stop","network":"SBS","network:wikidata":"Q2661305","public_transport":"platform"}},"public_transport/platform/bus_point/smrt-83dcfb":{"name":"SMRT","locationSet":{"include":["sg"]},"geometry":["point","vertex"],"matchScore":2,"terms":["smrt"],"reference":{"key":"public_transport","value":"platform"},"tags":{"bus":"yes","network:wikidata":"Q3267863","public_transport":"platform"},"addTags":{"bus":"yes","highway":"bus_stop","network":"SMRT","network:wikidata":"Q3267863","public_transport":"platform"}},"type/route/bus/landtransportauthority-b310fc":{"name":"Land Transport Authority","locationSet":{"include":["my","sg"]},"geometry":["relation"],"matchScore":2,"terms":["land transport authority","lta"],"reference":{"key":"route","value":"bus"},"tags":{"network:wikidata":"Q3299279","route":"bus","type":"route"},"addTags":{"network":"Land Transport Authority","network:short":"LTA","network:wikidata":"Q3299279","route":"bus","type":"route"}},"type/route/bus/sbs-b310fc":{"name":"SBS","locationSet":{"include":["my","sg"]},"geometry":["relation"],"matchScore":2,"terms":["sbs"],"reference":{"key":"route","value":"bus"},"tags":{"network:wikidata":"Q2661305","route":"bus","type":"route"},"addTags":{"network":"SBS","network:wikidata":"Q2661305","route":"bus","type":"route"}},"type/route/bus/smrt-a5e36d":{"name":"SMRT","locationSet":{"include":["sg"]},"geometry":["relation"],"matchScore":2,"terms":["smrt"],"reference":{"key":"route","value":"bus"},"tags":{"network:wikidata":"Q3267863","route":"bus","type":"route"},"addTags":{"network":"SMRT","network:wikidata":"Q3267863","route":"bus","type":"route"}}}