{"amenity/atm/citizensbank-0bad27":{"name":"Citizens Bank (Eastern USA)","locationSet":{"include":["us-ct","us-de","us-ma","us-mi","us-nh","us-nj","us-ny","us-oh","us-pa","us-ri","us-va","us-vt"]},"geometry":["point","vertex"],"matchScore":2,"terms":["citizens","citizens bank"],"tags":{"amenity":"atm","brand:wikidata":"Q5122694"},"addTags":{"amenity":"atm","brand":"Citizens Bank","brand:wikidata":"Q5122694","name":"Citizens Bank","operator":"Citizens Bank","operator:wikidata":"Q5122694","short_name":"Citizens"}},"amenity/bank/citizensbank-8621dd":{"name":"Citizens Bank (Eastern USA)","locationSet":{"include":["us-ct","us-de","us-ma","us-mi","us-nh","us-nj","us-ny","us-oh","us-pa","us-ri","us-va","us-vt"]},"geometry":["point","area"],"matchScore":2,"terms":["citizens","citizens bank"],"tags":{"amenity":"bank","brand:wikidata":"Q5122694"},"addTags":{"amenity":"bank","brand":"Citizens Bank","brand:wikidata":"Q5122694","name":"Citizens Bank","short_name":"Citizens"}},"amenity/fast_food/pokebros-eebea8":{"name":"Poke Bros.","locationSet":{"include":["us-de","us-fl","us-il","us-in","us-ky","us-nc","us-nj","us-ny","us-oh","us-pa","us-ri","us-sc","us-tn"]},"geometry":["point","area"],"matchScore":2,"terms":["poke bros."],"tags":{"amenity":"fast_food","brand:wikidata":"Q113640421"},"addTags":{"amenity":"fast_food","brand":"Poke Bros.","brand:wikidata":"Q113640421","cuisine":"poke","name":"Poke Bros.","takeaway":"yes"}},"leisure/fitness_centre/theedgefitnessclub-773501":{"name":"The Edge Fitness Club","locationSet":{"include":["us-ct","us-de","us-il","us-mi","us-mo","us-nj","us-pa","us-ri"]},"geometry":["point","area"],"matchScore":2,"terms":["the edge fitness club"],"tags":{"brand:wikidata":"Q109339519","leisure":"fitness_centre"},"addTags":{"brand":"The Edge Fitness Club","brand:wikidata":"Q109339519","leisure":"fitness_centre","name":"The Edge Fitness Club"}},"leisure/sports_centre/xgolf-8a88af":{"name":"X Golf","locationSet":{"include":["us-al","us-co","us-ga","us-il","us-in","us-ks","us-ma","us-me","us-mi","us-mn","us-mo","us-nd","us-ne","us-ny","us-oh","us-or","us-pa","us-ri","us-sc","us-sd","us-ut","us-va","us-wa","us-wi"]},"geometry":["point","area"],"matchScore":2,"terms":["x golf"],"fields":["name","brand","{leisure/sports_centre}"],"tags":{"brand:wikidata":"Q111585369","leisure":"sports_centre"},"addTags":{"brand":"X Golf","brand:wikidata":"Q111585369","indoor":"yes","leisure":"sports_centre","name":"X Golf","sport":"golf"}},"public_transport/platform/bus_point/ripta-bf94d2":{"name":"RIPTA","locationSet":{"include":["us-ri"]},"geometry":["point","vertex"],"matchScore":2,"terms":["rhode island public transit authority","ripta"],"reference":{"key":"public_transport","value":"platform"},"tags":{"bus":"yes","network:wikidata":"Q7320944","public_transport":"platform"},"addTags":{"bus":"yes","highway":"bus_stop","network":"RIPTA","network:wikidata":"Q7320944","operator":"Rhode Island Public Transit Authority","public_transport":"platform"}},"type/route/bus/ripta-5f41db":{"name":"RIPTA","locationSet":{"include":["us-ri"]},"geometry":["relation"],"matchScore":2,"terms":["rhode island public transit authority","ripta"],"reference":{"key":"route","value":"bus"},"tags":{"network:wikidata":"Q7320944","route":"bus","type":"route"},"addTags":{"network":"RIPTA","network:wikidata":"Q7320944","operator":"Rhode Island Public Transit Authority","route":"bus","type":"route"}}}