{"advertising/totem/axion-2a066e":{"name":"Axion","locationSet":{"include":["ar","py","uy"]},"geometry":["point","line"],"matchScore":2,"terms":["axion"],"tags":{"advertising":"totem","brand:wikidata":"Q62131749"},"addTags":{"advertising":"totem","brand":"Axion","brand:wikidata":"Q62131749"}},"advertising/totem/copetrol-b51e06":{"name":"Copetrol","locationSet":{"include":["py"]},"geometry":["point","line"],"matchScore":2,"terms":["copetrol"],"tags":{"advertising":"totem","brand:wikidata":"Q62274431"},"addTags":{"advertising":"totem","brand":"Copetrol","brand:wikidata":"Q62274431"}},"amenity/atm/bancocontinental-d0d073":{"name":"Banco Continental (Paraguay)","locationSet":{"include":["py"]},"geometry":["point","vertex"],"matchScore":2,"terms":["banco continental"],"fields":["name","brand","{amenity/atm}"],"tags":{"amenity":"atm","brand:wikidata":"Q62054564"},"addTags":{"amenity":"atm","brand":"Banco Continental","brand:wikidata":"Q62054564","operator":"Banco Continental","operator:wikidata":"Q62054564"}},"amenity/atm/itauunibanco-bbb1a4":{"name":"Itaú","locationSet":{"include":["ar","br","py"]},"geometry":["point","vertex"],"matchScore":2,"terms":["banco itau","itaú unibanco","itaú unibanco sá"],"fields":["name","brand","{amenity/atm}"],"tags":{"amenity":"atm","brand:wikidata":"Q1424293"},"addTags":{"amenity":"atm","brand":"Itaú Unibanco","brand:wikidata":"Q1424293","operator":"Itaú Unibanco","operator:wikidata":"Q1424293"}},"amenity/bank/bancocontinental-82a931":{"name":"Banco Continental (Paraguay)","locationSet":{"include":["py"]},"geometry":["point","area"],"matchScore":2,"terms":["banco continental"],"tags":{"amenity":"bank","brand:wikidata":"Q62054564"},"addTags":{"amenity":"bank","brand":"Banco Continental","brand:wikidata":"Q62054564","name":"Banco Continental"}},"amenity/bank/itau-1923f1":{"name":"Itaú","locationSet":{"include":["ar","br","py"]},"geometry":["point","area"],"matchScore":2,"terms":["banco itau","itaú unibanco","itaú unibanco sá"],"tags":{"amenity":"bank","brand:wikidata":"Q1424293"},"addTags":{"amenity":"bank","brand":"Itaú Unibanco","brand:wikidata":"Q1424293","name":"Itaú"}},"amenity/fast_food/oakberryacaibowls-5bb50d":{"name":"Oakberry Açaí bowls","locationSet":{"include":["ae","at","au","be","bh","br","ca","ch","cl","co","cy","de","dk","ec","ee","es","fr","gb","gr","hr","ie","il","it","mt","mx","nl","pe","pl","pt","py","qa","ro","sa","si","th","us"]},"geometry":["point","area"],"matchScore":2,"terms":["oakberry açaí bowls"],"tags":{"amenity":"fast_food","brand:wikidata":"Q104870840"},"addTags":{"amenity":"fast_food","brand":"Oakberry Açaí bowls","brand:wikidata":"Q104870840","cuisine":"açaí","name":"Oakberry Açaí bowls","takeaway":"yes"}},"amenity/fuel/axion-b21aa1":{"name":"Axion","locationSet":{"include":["ar","py","uy"]},"geometry":["point","area"],"matchScore":2,"terms":["axion"],"fields":["name","brand","{amenity/fuel}"],"tags":{"amenity":"fuel","brand:wikidata":"Q62131749"},"addTags":{"amenity":"fuel","brand":"Axion","brand:wikidata":"Q62131749","name":"Axion"}},"amenity/fuel/copetrol-c4a95f":{"name":"Copetrol","locationSet":{"include":["py"]},"geometry":["point","area"],"matchScore":2,"terms":["copetrol"],"fields":["name","brand","{amenity/fuel}"],"tags":{"amenity":"fuel","brand:wikidata":"Q62274431"},"addTags":{"amenity":"fuel","brand":"Copetrol","brand:wikidata":"Q62274431","name":"Copetrol"}},"amenity/music_school/schoolofrock-aecfc9":{"name":"School of Rock","locationSet":{"include":["au","br","ca","cl","co","es","mx","pe","ph","py","us","za"]},"geometry":["point","area"],"matchScore":2,"terms":["school of rock"],"fields":["name","brand","{amenity/music_school}"],"tags":{"amenity":"music_school","brand:wikidata":"Q7756376"},"addTags":{"amenity":"music_school","brand":"School of Rock","brand:wikidata":"Q7756376","name":"School of Rock"}},"amenity/pharmacy/farmacenter-0e462a":{"name":"Farmacenter (Paraguay)","locationSet":{"include":["py"]},"geometry":["point","area"],"matchScore":2,"terms":["farmacenter"],"reference":{"key":"amenity","value":"pharmacy"},"tags":{"amenity":"pharmacy","brand:wikidata":"Q62563868"},"addTags":{"amenity":"pharmacy","brand":"Farmacenter","brand:wikidata":"Q62563868","healthcare":"pharmacy","name":"Farmacenter"}},"amenity/pharmacy/puntofarma-0e462a":{"name":"Punto Farma (Paraguay)","locationSet":{"include":["py"]},"geometry":["point","area"],"matchScore":2,"terms":["punto farma"],"reference":{"key":"amenity","value":"pharmacy"},"tags":{"amenity":"pharmacy","brand:wikidata":"Q62595220"},"addTags":{"amenity":"pharmacy","brand":"Punto Farma","brand:wikidata":"Q62595220","healthcare":"pharmacy","name":"Punto Farma"}},"amenity/school/maplebear-101006":{"name":"Maple Bear","locationSet":{"include":["ae","al","ar","au","bd","bg","br","ca","gt","hk","hr","in","ke","kr","lk","ma","mx","my","np","om","pe","ph","py","ro","rs","sg","th","tk","ua","us","vn"]},"geometry":["area","point"],"matchScore":2,"terms":["maple bear"],"fields":["name","brand","{amenity/school}"],"tags":{"amenity":"school","brand:wikidata":"Q10324823"},"addTags":{"amenity":"school","brand":"Maple Bear","brand:wikidata":"Q10324823","name":"Maple Bear","operator:type":"private"}},"emergency/ambulance_station/cruzrojaparaguaya-d62a2b":{"name":"Cruz Roja Paraguaya","locationSet":{"include":["py"]},"geometry":["point","area"],"matchScore":2,"terms":["crp","cruz roja","cruz roja paraguaya"],"fields":["name","brand","{emergency/ambulance_station}"],"tags":{"brand:wikidata":"Q104778842","emergency":"ambulance_station"},"addTags":{"brand":"Cruz Roja Paraguaya","brand:wikidata":"Q104778842","emergency":"ambulance_station","name":"Cruz Roja Paraguaya"}},"shop/clothes/underwear/hope-0b7e74":{"name":"Hope","locationSet":{"include":["ao","br","py"]},"geometry":["point","area"],"matchScore":2,"terms":["hope"],"reference":{"key":"clothes","value":"underwear"},"tags":{"brand:wikidata":"Q116222673","clothes":"underwear","shop":"clothes"},"addTags":{"brand":"Hope","brand:wikidata":"Q116222673","clothes":"underwear","name":"Hope","shop":"clothes"}},"shop/mobile_phone/claro-1c9651":{"name":"Claro","locationSet":{"include":["ar","br","cl","co","cr","do","ec","gt","hn","ni","pa","pe","pr","py","sv","uy"]},"geometry":["point","area"],"matchScore":2,"terms":["claro","claro brasil"],"tags":{"brand:wikidata":"Q1770208","shop":"mobile_phone"},"addTags":{"brand":"Claro","brand:wikidata":"Q1770208","name":"Claro","shop":"mobile_phone"}},"shop/mobile_phone/personal-3c681b":{"name":"Personal","locationSet":{"include":["ar","py"]},"geometry":["point","area"],"matchScore":2,"terms":["personal"],"tags":{"brand:wikidata":"Q10933021","shop":"mobile_phone"},"addTags":{"brand":"Personal","brand:wikidata":"Q10933021","name":"Personal","shop":"mobile_phone"}},"shop/perfumery/oboticario-40d28a":{"name":"O Boticário","locationSet":{"include":["ao","br","co","jp","mz","pt","py","sa","us","ve"]},"geometry":["point","area"],"matchScore":2,"terms":["o boticário"],"tags":{"brand:wikidata":"Q7073219","shop":"perfumery"},"addTags":{"brand":"O Boticário","brand:wikidata":"Q7073219","name":"O Boticário","shop":"perfumery"}},"amenity/hospital/ministeriodesaludpublicaybienestarsocial-4add5c":{"name":"Ministerio de Salud Pública y Bienestar Social (Paraguay)","locationSet":{"include":["py"]},"geometry":["area","point"],"matchScore":2,"terms":["ministerio de salud","ministerio de salud pública","ministerio de salud pública y bienestar social"],"fields":["name","operator","{amenity/hospital}"],"reference":{"key":"amenity","value":"hospital"},"tags":{"amenity":"hospital","operator:wikidata":"Q84498729"},"addTags":{"amenity":"hospital","healthcare":"hospital","operator":"Ministerio de Salud Pública y Bienestar Social","operator:wikidata":"Q84498729"}},"amenity/police/policianacionaldeparaguay-fe76ea":{"name":"Policía Nacional de Paraguay","locationSet":{"include":["py"]},"geometry":["point","area"],"matchScore":2,"terms":["ministerio de interior","ministerio del interior","pnp","policía nacional de paraguay"],"tags":{"amenity":"police","operator:wikidata":"Q9061404"},"addTags":{"amenity":"police","operator":"Policía Nacional de Paraguay","operator:short":"PNP","operator:wikidata":"Q9061404"}},"amenity/telephone/claro-6490cd":{"name":"Claro","locationSet":{"include":["ai","ag","aw","bs","bb","bq","vg","ky","cu","cw","dm","do","gd","gp","ht","jm","mq","ms","pr","bl","kn","lc","mf","vc","sx","tt","tc","vi","bz","cr","sv","gt","hn","mx","ni","pa","ar","bo","bv","br","cl","co","ec","fk","gf","gy","py","pe","gs","sr","uy","ve"]},"geometry":["point","vertex"],"matchScore":2,"terms":["claro"],"fields":["name","operator","{amenity/telephone}"],"tags":{"amenity":"telephone","operator:wikidata":"Q1770208"},"addTags":{"amenity":"telephone","operator":"Claro","operator:wikidata":"Q1770208"}},"power/generator/itaipubinacional-635f5b":{"name":"ITAIPU Binacional","locationSet":{"include":["br","py"]},"geometry":["point","vertex","area"],"matchScore":2,"terms":["itaipu binacional"],"tags":{"operator:wikidata":"Q244169","power":"generator"},"addTags":{"operator":"ITAIPU Binacional","operator:wikidata":"Q244169","power":"generator"}},"power/line/ande-101239":{"name":"ANDE","locationSet":{"include":["py"]},"geometry":["line"],"matchScore":2,"terms":["ande"],"tags":{"operator:wikidata":"Q5657818","power":"line"},"addTags":{"operator":"ANDE","operator:wikidata":"Q5657818","power":"line"}},"power/line/itaipubinacional-e91c3a":{"name":"ITAIPU Binacional","locationSet":{"include":["br","py"]},"geometry":["line"],"matchScore":2,"terms":["itaipu binacional"],"tags":{"operator:wikidata":"Q244169","power":"line"},"addTags":{"operator":"ITAIPU Binacional","operator:wikidata":"Q244169","power":"line"}},"power/minor_line/ande-221939":{"name":"ANDE","locationSet":{"include":["py"]},"geometry":["line"],"matchScore":2,"terms":["ande"],"tags":{"operator:wikidata":"Q5657818","power":"minor_line"},"addTags":{"operator":"ANDE","operator:wikidata":"Q5657818","power":"minor_line"}},"power/minor_line/itaipubinacional-a71f9d":{"name":"ITAIPU Binacional","locationSet":{"include":["br","py"]},"geometry":["line"],"matchScore":2,"terms":["itaipu binacional"],"tags":{"operator:wikidata":"Q244169","power":"minor_line"},"addTags":{"operator":"ITAIPU Binacional","operator:wikidata":"Q244169","power":"minor_line"}},"power/pole/ande-839b81":{"name":"ANDE","locationSet":{"include":["py"]},"geometry":["point","vertex"],"matchScore":2,"terms":["ande"],"tags":{"operator:wikidata":"Q5657818","power":"pole"},"addTags":{"operator":"ANDE","operator:wikidata":"Q5657818","power":"pole"}},"power/pole/itaipubinacional-881e0f":{"name":"ITAIPU Binacional","locationSet":{"include":["br","py"]},"geometry":["point","vertex"],"matchScore":2,"terms":["itaipu binacional"],"tags":{"operator:wikidata":"Q244169","power":"pole"},"addTags":{"operator":"ITAIPU Binacional","operator:wikidata":"Q244169","power":"pole"}},"power/substation/ande-2b7b09":{"name":"ANDE","locationSet":{"include":["py"]},"geometry":["area","point"],"matchScore":2,"terms":["ande"],"tags":{"operator:wikidata":"Q5657818","power":"substation"},"addTags":{"operator":"ANDE","operator:wikidata":"Q5657818","power":"substation"}},"power/tower/ande-f310f5":{"name":"ANDE","locationSet":{"include":["py"]},"geometry":["point","vertex"],"matchScore":2,"terms":["ande"],"tags":{"operator:wikidata":"Q5657818","power":"tower"},"addTags":{"operator":"ANDE","operator:wikidata":"Q5657818","power":"tower"}},"power/tower/itaipubinacional-dc71bc":{"name":"ITAIPU Binacional","locationSet":{"include":["br","py"]},"geometry":["point","vertex"],"matchScore":2,"terms":["itaipu binacional"],"tags":{"operator:wikidata":"Q244169","power":"tower"},"addTags":{"operator":"ITAIPU Binacional","operator:wikidata":"Q244169","power":"tower"}},"power/transformer/ande-1b412c":{"name":"ANDE","locationSet":{"include":["py"]},"geometry":["point","vertex"],"matchScore":2,"terms":["ande"],"tags":{"operator:wikidata":"Q5657818","power":"transformer"},"addTags":{"operator":"ANDE","operator:wikidata":"Q5657818","power":"transformer"}},"type/route/power/itaipubinacional-89347b":{"name":"ITAIPU Binacional","locationSet":{"include":["br","py"]},"geometry":["relation"],"matchScore":2,"terms":["itaipu binacional"],"reference":{"key":"route","value":"power"},"tags":{"operator:wikidata":"Q244169","route":"power","type":"route"},"addTags":{"operator":"ITAIPU Binacional","operator:wikidata":"Q244169","route":"power","type":"route"}}}