{"advertising/totem/sol-688308":{"name":"Sol","locationSet":{"include":["ai","ag","aw","bs","bb","bq","vg","ky","cu","cw","dm","do","gd","gp","ht","jm","mq","ms","pr","bl","kn","lc","mf","vc","sx","tt","tc","vi","gf","gy","sr"]},"geometry":["point","line"],"matchScore":2,"terms":["sol"],"tags":{"advertising":"totem","brand:wikidata":"Q99939344"},"addTags":{"advertising":"totem","brand":"Sol","brand:wikidata":"Q99939344"}},"amenity/atm/firstbank-2e2bd2":{"name":"First Bank (Puerto Rico)","locationSet":{"include":["pr"]},"geometry":["point","vertex"],"matchScore":2,"terms":["1st bancorp","1st bank","first bancorp","first bank"],"fields":["name","brand","{amenity/atm}"],"tags":{"amenity":"atm","brand:wikidata":"Q5452333"},"addTags":{"amenity":"atm","brand":"First Bank","brand:wikidata":"Q5452333","operator":"First Bank","operator:wikidata":"Q5452333"}},"amenity/bank/firstbank-9794e6":{"name":"First Bank (Puerto Rico)","locationSet":{"include":["pr"]},"geometry":["point","area"],"matchScore":2,"terms":["1st bancorp","1st bank","first bancorp","first bank"],"tags":{"amenity":"bank","brand:wikidata":"Q5452333"},"addTags":{"amenity":"bank","brand":"First Bank","brand:wikidata":"Q5452333","name":"First Bank"}},"amenity/fast_food/pizza/marcospizza-70373b":{"name":"Marco's Pizza","locationSet":{"include":["bs","pr","us"]},"geometry":["point","area"],"matchScore":2,"terms":["marco's pizza","marcos"],"reference":{"key":"cuisine","value":"pizza"},"tags":{"amenity":"fast_food","brand:wikidata":"Q6757382","cuisine":"pizza"},"addTags":{"amenity":"fast_food","brand":"Marco's Pizza","brand:wikidata":"Q6757382","cuisine":"pizza","name":"Marco's Pizza","takeaway":"yes"}},"amenity/fast_food/mrpretzels-c5a4fb":{"name":"Mr. Pretzels","locationSet":{"include":["br","ca","cl","eg","fr","gb","il","kw","pr","us","ve"]},"geometry":["point","area"],"matchScore":2,"terms":["mr. pretzels"],"tags":{"amenity":"fast_food","brand:wikidata":"Q115728208"},"addTags":{"amenity":"fast_food","brand":"Mr. Pretzels","brand:wikidata":"Q115728208","cuisine":"pretzel","name":"Mr. Pretzels","takeaway":"yes"}},"amenity/fuel/sol-6e9b5c":{"name":"Sol","locationSet":{"include":["ai","ag","aw","bs","bb","bq","vg","ky","cu","cw","dm","do","gd","gp","ht","jm","mq","ms","pr","bl","kn","lc","mf","vc","sx","tt","tc","vi","gf","gy","sr"]},"geometry":["point","area"],"matchScore":2,"terms":["sol"],"fields":["name","brand","{amenity/fuel}"],"tags":{"amenity":"fuel","brand:wikidata":"Q99939344"},"addTags":{"amenity":"fuel","brand":"Sol","brand:wikidata":"Q99939344","name":"Sol"}},"amenity/restaurant/japanese/udon-faebb3":{"name":"UDON","locationSet":{"include":["do","es","it","pr","us"]},"geometry":["point","area"],"matchScore":2,"terms":["udon"],"reference":{"key":"cuisine","value":"japanese"},"tags":{"amenity":"restaurant","brand:wikidata":"Q115679798","cuisine":"japanese"},"addTags":{"amenity":"restaurant","brand":"UDON","brand:wikidata":"Q115679798","cuisine":"japanese","name":"UDON"}},"shop/clothes/express-e10c9b":{"name":"Express","locationSet":{"include":["cr","gt","mx","pa","pr","sv","us"]},"geometry":["point","area"],"matchScore":2,"terms":["express"],"tags":{"brand:wikidata":"Q1384784","shop":"clothes"},"addTags":{"brand":"Express","brand:wikidata":"Q1384784","name":"Express","shop":"clothes"}},"shop/clothes/expressmen-e10c9b":{"name":"Express Men","locationSet":{"include":["cr","gt","mx","pa","pr","sv","us"]},"geometry":["point","area"],"matchScore":2,"terms":["express"],"tags":{"brand:wikidata":"Q1384784","shop":"clothes"},"addTags":{"brand":"Express","brand:wikidata":"Q1384784","name":"Express Men","shop":"clothes"}},"shop/clothes/loft-0dc75b":{"name":"Loft","locationSet":{"include":["ca","mx","pr","us"]},"geometry":["point","area"],"matchScore":2,"terms":["ann taylor loft","loft","the loft"],"tags":{"brand:wikidata":"Q62075137","shop":"clothes"},"addTags":{"brand":"Loft","brand:wikidata":"Q62075137","clothes":"women","name":"Loft","shop":"clothes"}},"shop/clothes/perryellis-a07a3d":{"name":"Perry Ellis","locationSet":{"include":["mx","pr","tt","us"]},"geometry":["point","area"],"matchScore":2,"terms":["perry ellis"],"tags":{"brand:wikidata":"Q7169774","shop":"clothes"},"addTags":{"brand":"Perry Ellis","brand:wikidata":"Q7169774","clothes":"men","name":"Perry Ellis","shop":"clothes"}},"shop/department_store/burlington-bed633":{"name":"Burlington","locationSet":{"include":["pr","us"]},"geometry":["point","area"],"matchScore":2,"terms":["burlington","burlington coat factory","burlington stores"],"tags":{"brand:wikidata":"Q4999220","shop":"department_store"},"addTags":{"alt_name":"Burlington Coat Factory","brand":"Burlington","brand:wikidata":"Q4999220","name":"Burlington","shop":"department_store"}},"shop/gift/hickoryfarms-436c43":{"name":"Hickory Farms","locationSet":{"include":["ca","pr","us"]},"geometry":["point","area"],"matchScore":2,"terms":["hickory farms"],"fields":["name","brand","{shop/gift}"],"tags":{"brand:wikidata":"Q16995331","shop":"gift"},"addTags":{"brand":"Hickory Farms","brand:wikidata":"Q16995331","name":"Hickory Farms","shop":"gift"}},"shop/hairdresser_supply/sallybeauty-0c832a":{"name":"Sally Beauty","locationSet":{"include":["be","ca","cl","de","es","fr","gb","ie","mx","nl","pe","pr","us"]},"geometry":["point","area"],"matchScore":2,"terms":["sally beauty","sally beauty supply"],"tags":{"brand:wikidata":"Q7405065","shop":"hairdresser_supply"},"addTags":{"alt_name":"Sally Beauty Supply","brand":"Sally Beauty","brand:wikidata":"Q7405065","name":"Sally Beauty","shop":"hairdresser_supply"}},"shop/mobile_phone/claro-1c9651":{"name":"Claro","locationSet":{"include":["ar","br","cl","co","cr","do","ec","gt","hn","ni","pa","pe","pr","py","sv","uy"]},"geometry":["point","area"],"matchScore":2,"terms":["claro","claro brasil"],"tags":{"brand:wikidata":"Q1770208","shop":"mobile_phone"},"addTags":{"brand":"Claro","brand:wikidata":"Q1770208","name":"Claro","shop":"mobile_phone"}},"shop/shoes/footaction-dfc4ed":{"name":"Footaction","locationSet":{"include":["ca","pr","us"]},"geometry":["point","area"],"matchScore":2,"terms":["footaction"],"tags":{"brand:wikidata":"Q71022064","shop":"shoes"},"addTags":{"brand":"Footaction","brand:wikidata":"Q71022064","name":"Footaction","shop":"shoes"}},"shop/sports/champssports-82fdfb":{"name":"Champs Sports","locationSet":{"include":["ca","pr","us"]},"geometry":["point","area"],"matchScore":2,"terms":["champs sports"],"tags":{"brand:wikidata":"Q2955924","shop":"sports"},"addTags":{"brand":"Champs Sports","brand:wikidata":"Q2955924","name":"Champs Sports","shop":"sports"}},"tourism/hotel/embassysuites-7ef1cc":{"name":"Embassy Suites","locationSet":{"include":["aw","ca","co","do","pr","qa","us"]},"geometry":["point","area"],"matchScore":2,"terms":["embassy suites","embassy suites by hilton"],"fields":["name","brand","{tourism/hotel}"],"tags":{"brand:wikidata":"Q5369524","tourism":"hotel"},"addTags":{"brand":"Embassy Suites","brand:wikidata":"Q5369524","name":"Embassy Suites","official_name":"Embassy Suites by Hilton","tourism":"hotel"}},"amenity/school/departamentodeeducacion-cd2b47":{"name":"Departamento de Educación","locationSet":{"include":["pr"]},"geometry":["area","point"],"matchScore":2,"terms":["departamento de educación"],"tags":{"amenity":"school","operator:wikidata":"Q4294526"},"addTags":{"amenity":"school","operator":"Departamento de Educación","operator:wikidata":"Q4294526"}},"amenity/telephone/claro-6490cd":{"name":"Claro","locationSet":{"include":["ai","ag","aw","bs","bb","bq","vg","ky","cu","cw","dm","do","gd","gp","ht","jm","mq","ms","pr","bl","kn","lc","mf","vc","sx","tt","tc","vi","bz","cr","sv","gt","hn","mx","ni","pa","ar","bo","bv","br","cl","co","ec","fk","gf","gy","py","pe","gs","sr","uy","ve"]},"geometry":["point","vertex"],"matchScore":2,"terms":["claro"],"fields":["name","operator","{amenity/telephone}"],"tags":{"amenity":"telephone","operator:wikidata":"Q1770208"},"addTags":{"amenity":"telephone","operator":"Claro","operator:wikidata":"Q1770208"}},"office/energy_supplier/naturgy-e15d8a":{"name":"Naturgy","locationSet":{"include":["ar","au","be","br","cl","cn","cr","de","do","dz","eg","es","fr","gb","ie","in","jm","jo","jp","lu","ma","mx","nl","om","pa","pe","pk","pr","pt","sg"]},"geometry":["point","area"],"matchScore":2,"terms":["naturgy"],"tags":{"office":"energy_supplier","operator:wikidata":"Q474690"},"addTags":{"name":"Naturgy","office":"energy_supplier","operator":"Naturgy","operator:wikidata":"Q474690"}},"power/generator/valero-7654ee":{"name":"Valero","locationSet":{"include":["ai","ag","aw","bs","bb","bq","vg","ky","cu","cw","dm","do","gd","gp","ht","jm","mq","ms","pr","bl","kn","lc","mf","vc","sx","tt","tc","vi","ca","us"]},"geometry":["point","vertex","area"],"matchScore":2,"terms":["valero"],"tags":{"operator:wikidata":"Q1283291","power":"generator"},"addTags":{"operator":"Valero","operator:wikidata":"Q1283291","power":"generator"}},"power/line/prepa-58ac50":{"name":"PREPA","locationSet":{"include":["pr"]},"geometry":["line"],"matchScore":2,"terms":["prepa"],"tags":{"operator:wikidata":"Q7258708","power":"line"},"addTags":{"operator":"PREPA","operator:wikidata":"Q7258708","power":"line"}},"power/minor_line/prepa-d5140c":{"name":"PREPA","locationSet":{"include":["pr"]},"geometry":["line"],"matchScore":2,"terms":["prepa"],"tags":{"operator:wikidata":"Q7258708","power":"minor_line"},"addTags":{"operator":"PREPA","operator:wikidata":"Q7258708","power":"minor_line"}},"power/pole/prepa-637829":{"name":"PREPA","locationSet":{"include":["pr"]},"geometry":["point","vertex"],"matchScore":2,"terms":["prepa"],"tags":{"operator:wikidata":"Q7258708","power":"pole"},"addTags":{"operator":"PREPA","operator:wikidata":"Q7258708","power":"pole"}},"power/substation/prepa-a8f137":{"name":"PREPA","locationSet":{"include":["pr"]},"geometry":["area","point"],"matchScore":2,"terms":["prepa"],"tags":{"operator:wikidata":"Q7258708","power":"substation"},"addTags":{"operator":"PREPA","operator:wikidata":"Q7258708","power":"substation"}},"power/tower/prepa-a167d5":{"name":"PREPA","locationSet":{"include":["pr"]},"geometry":["point","vertex"],"matchScore":2,"terms":["prepa"],"tags":{"operator:wikidata":"Q7258708","power":"tower"},"addTags":{"operator":"PREPA","operator:wikidata":"Q7258708","power":"tower"}},"power/transformer/prepa-3edc24":{"name":"PREPA","locationSet":{"include":["pr"]},"geometry":["point","vertex"],"matchScore":2,"terms":["prepa"],"tags":{"operator:wikidata":"Q7258708","power":"transformer"},"addTags":{"operator":"PREPA","operator:wikidata":"Q7258708","power":"transformer"}},"public_transport/platform/bus_point/ama-c6acc6":{"name":"AMA (Autoridad Metropolitana de Autobuses)","locationSet":{"include":["pr"]},"geometry":["point","vertex"],"matchScore":2,"terms":["ama","autoridad metropolitana de autobuses"],"reference":{"key":"public_transport","value":"platform"},"tags":{"bus":"yes","network:wikidata":"Q129909","public_transport":"platform"},"addTags":{"bus":"yes","highway":"bus_stop","network":"AMA","network:wikidata":"Q129909","operator":"Autoridad Metropolitana de Autobuses","public_transport":"platform"}},"type/route/bus/ama-2bc80b":{"name":"AMA (Autoridad Metropolitana de Autobuses)","locationSet":{"include":["pr"]},"geometry":["relation"],"matchScore":2,"terms":["ama","autoridad metropolitana de autobuses"],"reference":{"key":"route","value":"bus"},"tags":{"network:wikidata":"Q129909","route":"bus","type":"route"},"addTags":{"network":"AMA","network:wikidata":"Q129909","operator":"Autoridad Metropolitana de Autobuses","route":"bus","type":"route"}}}