{"advertising/totem/shiptech-960b09":{"name":"Shiptech","locationSet":{"include":["cd","mw","za","zm","zw"]},"geometry":["point","line"],"matchScore":2,"terms":["shiptech"],"tags":{"advertising":"totem","brand:wikidata":"Q116894475"},"addTags":{"advertising":"totem","brand":"Shiptech","brand:wikidata":"Q116894475"}},"amenity/atm/oldmutual-ff45b4":{"name":"Old Mutual","locationSet":{"include":["bw","cn","gh","ke","mw","na","ng","rw","ss","sz","tz","ug","za","zw"]},"geometry":["point","vertex"],"matchScore":2,"terms":["old mutual"],"fields":["name","brand","{amenity/atm}"],"tags":{"amenity":"atm","brand:wikidata":"Q289704"},"addTags":{"amenity":"atm","brand":"Old Mutual","brand:wikidata":"Q289704"}},"amenity/atm/agribank-7adf11":{"name":"Agribank (Zimbabwe)","locationSet":{"include":["zw"]},"geometry":["point","vertex"],"matchScore":2,"terms":["agribank"],"fields":["name","brand","{amenity/atm}"],"tags":{"amenity":"atm","brand:wikidata":"Q4693887"},"addTags":{"amenity":"atm","brand":"Agribank","brand:wikidata":"Q4693887","operator":"Agribank","operator:wikidata":"Q4693887"}},"amenity/atm/nmbbank-7adf11":{"name":"NMB Bank (Zimbabwe)","locationSet":{"include":["zw"]},"geometry":["point","vertex"],"matchScore":2,"terms":["nmb","nmb bank"],"fields":["name","brand","{amenity/atm}"],"tags":{"amenity":"atm","brand:wikidata":"Q13179664"},"addTags":{"amenity":"atm","brand":"NMB Bank","brand:wikidata":"Q13179664","operator":"NMB Bank","operator:wikidata":"Q13179664","short_name":"NMB"}},"amenity/bank/agribank-ce50d7":{"name":"Agribank (Zimbabwe)","locationSet":{"include":["zw"]},"geometry":["point","area"],"matchScore":2,"terms":["agribank"],"tags":{"amenity":"bank","brand:wikidata":"Q4693887"},"addTags":{"amenity":"bank","brand":"Agribank","brand:wikidata":"Q4693887","name":"Agribank"}},"amenity/bank/nmbbank-ce50d7":{"name":"NMB Bank (Zimbabwe)","locationSet":{"include":["zw"]},"geometry":["point","area"],"matchScore":2,"terms":["nmb","nmb bank"],"tags":{"amenity":"bank","brand:wikidata":"Q13179664"},"addTags":{"amenity":"bank","brand":"NMB Bank","brand:wikidata":"Q13179664","name":"NMB Bank","short_name":"NMB"}},"amenity/fuel/shiptech-ddc474":{"name":"Shiptech","locationSet":{"include":["cd","mw","za","zm","zw"]},"geometry":["point","area"],"matchScore":2,"terms":["shiptech"],"fields":["name","brand","{amenity/fuel}"],"tags":{"amenity":"fuel","brand:wikidata":"Q116894475"},"addTags":{"amenity":"fuel","brand":"Shiptech","brand:wikidata":"Q116894475","name":"Shiptech"}},"amenity/restaurant/nandos-32ebee":{"name":"Nando's","locationSet":{"include":["ae","au","bd","bh","bw","ca","fj","gb","ie","in","mu","my","nz","om","pk","qa","sa","sg","sz","us","za","zm","zw"]},"geometry":["point","area"],"matchScore":2,"terms":["nando's"],"tags":{"amenity":"restaurant","brand:wikidata":"Q3472954"},"addTags":{"amenity":"restaurant","brand":"Nando's","brand:wikidata":"Q3472954","cuisine":"chicken;portuguese","name":"Nando's"}},"amenity/restaurant/seafood/oceanbasket-5d9698":{"name":"Ocean Basket","locationSet":{"include":["ae","bw","cy","gb","ke","kw","kz","mt","mu","na","ng","qa","ru","sa","sz","za","zw"]},"geometry":["point","area"],"matchScore":2,"terms":["ocean basket"],"reference":{"key":"cuisine","value":"seafood"},"tags":{"amenity":"restaurant","brand:wikidata":"Q62075311","cuisine":"seafood"},"addTags":{"amenity":"restaurant","brand":"Ocean Basket","brand:wikidata":"Q62075311","cuisine":"seafood","name":"Ocean Basket"}},"amenity/restaurant/rocomamas-a7acfa":{"name":"RocoMamas","locationSet":{"include":["au","bw","cd","gh","ke","na","sa","sz","za","zm","zw"]},"geometry":["point","area"],"matchScore":2,"terms":["rocomamas"],"tags":{"amenity":"restaurant","brand:wikidata":"Q123034964"},"addTags":{"amenity":"restaurant","brand":"RocoMamas","brand:wikidata":"Q123034964","cuisine":"burger","name":"RocoMamas"}},"amenity/restaurant/steakhouse/spur-efd5c1":{"name":"Spur","locationSet":{"include":["au","bw","ke","mu","na","ng","sz","za","zm","zw"]},"geometry":["point","area"],"matchScore":2,"terms":["spur","spur steak ranches"],"fields":["name","brand","{amenity/restaurant/steakhouse}"],"reference":{"key":"cuisine","value":"steak_house"},"tags":{"amenity":"restaurant","brand:wikidata":"Q7581546","cuisine":"steak_house"},"addTags":{"amenity":"restaurant","brand":"Spur","brand:wikidata":"Q7581546","cuisine":"steak_house","name":"Spur"}},"office/estate_agent/pamgoldingproperties-80530e":{"name":"Pam Golding Properties","locationSet":{"include":["bw","ke","mz","na","sz","za","zm","zw"]},"geometry":["point","area"],"matchScore":2,"terms":["pam golding properties"],"tags":{"brand:wikidata":"Q65051429","office":"estate_agent"},"addTags":{"brand":"Pam Golding Properties","brand:wikidata":"Q65051429","name":"Pam Golding Properties","office":"estate_agent"}},"office/financial/oldmutualfinance-38693f":{"name":"Old Mutual Finance","locationSet":{"include":["bw","cn","gh","ke","mw","na","ng","rw","ss","sz","tz","ug","za","zw"]},"geometry":["point","area"],"matchScore":2,"terms":["old mutual finance"],"tags":{"brand:wikidata":"Q289704","office":"financial"},"addTags":{"brand":"Old Mutual Finance","brand:wikidata":"Q289704","name":"Old Mutual Finance","office":"financial"}},"office/insurance/oldmutualinsure-170662":{"name":"Old Mutual Insure","locationSet":{"include":["bw","cn","gh","ke","mw","na","ng","rw","ss","sz","tz","ug","za","zw"]},"geometry":["point","area"],"matchScore":2,"terms":["old mutual insure"],"fields":["name","brand","{office/insurance}"],"tags":{"brand:wikidata":"Q289704","office":"insurance"},"addTags":{"brand":"Old Mutual Insure","brand:wikidata":"Q289704","name":"Old Mutual Insure","office":"insurance"}},"shop/mobile_phone/airtel-62d34e":{"name":"Airtel","locationSet":{"include":["io","bi","km","dj","er","et","tf","ke","mg","mw","mu","yt","mz","re","rw","sc","so","ss","ug","tz","zm","zw","ao","cm","cf","td","cg","cd","gq","ga","st","bw","sz","ls","na","za","bj","bf","cv","ci","gm","gh","gn","gw","lr","ml","mr","ne","ng","sn","sl","tg","sh","in"]},"geometry":["point","area"],"matchScore":2,"terms":["airtel"],"tags":{"brand:wikidata":"Q854867","shop":"mobile_phone"},"addTags":{"brand":"Airtel","brand:wikidata":"Q854867","name":"Airtel","shop":"mobile_phone"}},"shop/supermarket/choppies-8c44d4":{"name":"Choppies","locationSet":{"include":["bw","zm","zw"]},"geometry":["point","area"],"matchScore":2,"terms":["choppies"],"tags":{"brand:wikidata":"Q5104860","shop":"supermarket"},"addTags":{"brand":"Choppies","brand:wikidata":"Q5104860","name":"Choppies","shop":"supermarket"}},"shop/supermarket/game-910aca":{"name":"Game","locationSet":{"include":["io","bi","km","dj","er","et","tf","ke","mg","mw","mu","yt","mz","re","rw","sc","so","ss","ug","tz","zm","zw","ao","cm","cf","td","cg","cd","gq","ga","st","bw","sz","ls","na","za","bj","bf","cv","ci","gm","gh","gn","gw","lr","ml","mr","ne","ng","sn","sl","tg","sh"]},"geometry":["point","area"],"matchScore":2,"terms":["game"],"tags":{"brand:wikidata":"Q129263113","shop":"supermarket"},"addTags":{"brand":"Game","brand:wikidata":"Q129263113","name":"Game","shop":"supermarket"}}}