{"amenity/atm/cardtronics-d0c754":{"name":"Cardtronics","locationSet":{"include":["au","ca","de","es","gb","ie","mx","nz","us","za"]},"geometry":["point","vertex"],"matchScore":2,"terms":["cardtronics"],"fields":["name","brand","{amenity/atm}"],"tags":{"amenity":"atm","brand:wikidata":"Q50239180"},"addTags":{"amenity":"atm","brand":"Cardtronics","brand:wikidata":"Q50239180"}},"amenity/atm/aib-e569c1":{"name":"AIB","locationSet":{"include":["gb","ie"]},"geometry":["point","vertex"],"matchScore":2,"terms":["aib","aib bank","allied irish bank","allied irish banks"],"fields":["name","brand","{amenity/atm}"],"tags":{"amenity":"atm","brand:wikidata":"Q1642179"},"addTags":{"amenity":"atm","brand":"AIB","brand:wikidata":"Q1642179","official_name":"Allied Irish Banks","operator":"AIB","operator:wikidata":"Q1642179"}},"amenity/atm/bankofireland-e569c1":{"name":"Bank of Ireland","locationSet":{"include":["gb","ie"]},"geometry":["point","vertex"],"matchScore":2,"terms":["bank of ireland"],"fields":["name","brand","{amenity/atm}"],"tags":{"amenity":"atm","brand:wikidata":"Q806689"},"addTags":{"amenity":"atm","brand":"Bank of Ireland","brand:wikidata":"Q806689","operator":"Bank of Ireland","operator:wikidata":"Q806689"}},"amenity/atm/bnpparibas-6b438a":{"name":"BNP Paribas","locationSet":{"include":["ae","af","ar","at","bf","bg","bh","br","ca","ch","ci","cl","co","cz","de","dk","dz","es","fi","fr","gb","gf","gp","hu","ie","il","it","kw","lu","ma","ml","mq","mx","nl","no","pe","pt","qa","re","ro","ru","sa","se","sk","sn","tn","tr","us"]},"geometry":["point","vertex"],"matchScore":2,"terms":["bnp paribas"],"fields":["name","brand","{amenity/atm}"],"tags":{"amenity":"atm","brand:wikidata":"Q499707"},"addTags":{"amenity":"atm","brand":"BNP Paribas","brand:wikidata":"Q499707","operator":"BNP Paribas","operator:wikidata":"Q499707"}},"amenity/atm/kbc-a224e8":{"name":"KBC","locationSet":{"include":["be","ie"]},"geometry":["point","vertex"],"matchScore":2,"terms":["kbc"],"fields":["name","brand","{amenity/atm}"],"tags":{"amenity":"atm","brand:wikidata":"Q941020"},"addTags":{"amenity":"atm","brand":"KBC","brand:wikidata":"Q941020","operator":"KBC","operator:wikidata":"Q941020"}},"amenity/atm/permanenttsb-7aac0a":{"name":"Permanent TSB","locationSet":{"include":["ie"]},"geometry":["point","vertex"],"matchScore":2,"terms":["permanent tsb"],"fields":["name","brand","{amenity/atm}"],"tags":{"amenity":"atm","brand:wikidata":"Q3154461"},"addTags":{"amenity":"atm","brand":"Permanent TSB","brand:wikidata":"Q3154461","operator":"Permanent TSB","operator:wikidata":"Q3154461"}},"amenity/atm/ulsterbank-e569c1":{"name":"Ulster Bank","locationSet":{"include":["gb","ie"]},"geometry":["point","vertex"],"matchScore":2,"terms":["ulster bank"],"fields":["name","brand","{amenity/atm}"],"tags":{"amenity":"atm","brand:wikidata":"Q2613366"},"addTags":{"amenity":"atm","brand":"Ulster Bank","brand:wikidata":"Q2613366","operator":"Ulster Bank","operator:wikidata":"Q2613366"}},"amenity/bank/aib-018fb8":{"name":"AIB","locationSet":{"include":["gb","ie"]},"geometry":["point","area"],"matchScore":2,"terms":["aib","aib bank","allied irish bank","allied irish banks"],"tags":{"amenity":"bank","brand:wikidata":"Q1642179"},"addTags":{"amenity":"bank","brand":"AIB","brand:wikidata":"Q1642179","name":"AIB","official_name":"Allied Irish Banks"}},"amenity/bank/bankofireland-018fb8":{"name":"Bank of Ireland","locationSet":{"include":["gb","ie"]},"geometry":["point","area"],"matchScore":2,"terms":["bank of ireland"],"tags":{"amenity":"bank","brand:wikidata":"Q806689"},"addTags":{"amenity":"bank","brand":"Bank of Ireland","brand:wikidata":"Q806689","name":"Bank of Ireland"}},"amenity/bank/bnpparibas-42efac":{"name":"BNP Paribas","locationSet":{"include":["ae","af","ar","at","bf","bg","bh","br","ca","ch","ci","cl","co","cz","de","dk","dz","es","fi","fr","gb","gf","gp","hu","ie","il","it","kw","lu","ma","ml","mq","mx","nl","no","pe","pt","qa","re","ro","ru","sa","se","sk","sn","tn","tr","us"]},"geometry":["point","area"],"matchScore":2,"terms":["bnp paribas"],"tags":{"amenity":"bank","brand:wikidata":"Q499707"},"addTags":{"amenity":"bank","brand":"BNP Paribas","brand:wikidata":"Q499707","name":"BNP Paribas"}},"amenity/bank/kbc-09ee8b":{"name":"KBC","locationSet":{"include":["be","ie"]},"geometry":["point","area"],"matchScore":2,"terms":["kbc"],"tags":{"amenity":"bank","brand:wikidata":"Q941020"},"addTags":{"amenity":"bank","brand":"KBC","brand:wikidata":"Q941020","name":"KBC"}},"amenity/bank/permanenttsb-030d9e":{"name":"Permanent TSB","locationSet":{"include":["ie"]},"geometry":["point","area"],"matchScore":2,"terms":["permanent tsb"],"tags":{"amenity":"bank","brand:wikidata":"Q3154461"},"addTags":{"amenity":"bank","brand":"Permanent TSB","brand:wikidata":"Q3154461","name":"Permanent TSB"}},"amenity/bank/ulsterbank-018fb8":{"name":"Ulster Bank","locationSet":{"include":["gb","ie"]},"geometry":["point","area"],"matchScore":2,"terms":["ulster bank"],"tags":{"amenity":"bank","brand:wikidata":"Q2613366"},"addTags":{"amenity":"bank","brand":"Ulster Bank","brand:wikidata":"Q2613366","name":"Ulster Bank"}},"amenity/bicycle_rental/dublinbikes-afbce7":{"name":"dublinbikes","locationSet":{"include":["ie"]},"geometry":["point","vertex","area"],"matchScore":2,"terms":["dublinbikes","jcdecaux"],"fields":["name","brand","{amenity/bicycle_rental}"],"tags":{"amenity":"bicycle_rental","brand:wikidata":"Q5311025"},"addTags":{"amenity":"bicycle_rental","brand":"dublinbikes","brand:wikidata":"Q5311025","network":"dublinbikes","network:wikidata":"Q5311025","operator":"JCDecaux","operator:wikidata":"Q74877"}},"amenity/bicycle_rental/tfibikes-afbce7":{"name":"TFI Bikes","locationSet":{"include":["ie"]},"geometry":["point","vertex","area"],"matchScore":2,"terms":["an rothar nua","coca-cola zero bikes","coca-cola zero® bikes","tfi bikes"],"fields":["name","brand","{amenity/bicycle_rental}"],"tags":{"amenity":"bicycle_rental","brand:wikidata":"Q111223030"},"addTags":{"amenity":"bicycle_rental","brand":"TFI Bikes","brand:wikidata":"Q111223030","network":"TFI Bikes","operator":"An Rothar Nua"}},"amenity/bureau_de_change/no1currency-f53601":{"name":"No1 Currency","locationSet":{"include":["gb","ie"]},"geometry":["point","area"],"matchScore":2,"terms":["no1 currency"],"tags":{"amenity":"bureau_de_change","brand:wikidata":"Q87139463"},"addTags":{"amenity":"bureau_de_change","brand":"No1 Currency","brand:wikidata":"Q87139463","name":"No1 Currency"}},"amenity/cafe/coffee_shop/amtcoffee-ff9b1e":{"name":"AMT Coffee","locationSet":{"include":["gb","ie"]},"geometry":["point","area"],"matchScore":2,"terms":["amt coffee"],"reference":{"key":"cuisine","value":"coffee_shop"},"tags":{"amenity":"cafe","brand:wikidata":"Q80229","cuisine":"coffee_shop"},"addTags":{"amenity":"cafe","brand":"AMT Coffee","brand:wikidata":"Q80229","cuisine":"coffee_shop","name":"AMT Coffee","takeaway":"yes"}},"amenity/cafe/coffee_shop/bakersbaristas-ff9b1e":{"name":"Bakers + Baristas","locationSet":{"include":["gb","ie"]},"geometry":["point","area"],"matchScore":2,"terms":["bakers + baristas"],"reference":{"key":"cuisine","value":"coffee_shop"},"tags":{"amenity":"cafe","brand:wikidata":"Q85199581","cuisine":"coffee_shop"},"addTags":{"amenity":"cafe","brand":"Bakers + Baristas","brand:wikidata":"Q85199581","cuisine":"coffee_shop","name":"Bakers + Baristas","takeaway":"yes"}},"amenity/cafe/coffee_shop/bobandberts-ff9b1e":{"name":"Bob & Berts","locationSet":{"include":["gb","ie"]},"geometry":["point","area"],"matchScore":2,"terms":["bob & berts"],"reference":{"key":"cuisine","value":"coffee_shop"},"tags":{"amenity":"cafe","brand:wikidata":"Q113494662","cuisine":"coffee_shop"},"addTags":{"amenity":"cafe","brand":"Bob & Berts","brand:wikidata":"Q113494662","cuisine":"coffee_shop","name":"Bob & Berts","takeaway":"yes"}},"amenity/cafe/coffee_shop/caffenero-0d98f2":{"name":"Caffè Nero","locationSet":{"include":["ae","cy","gb","hr","ie","om","pl","se","tr","us"]},"geometry":["point","area"],"matchScore":2,"terms":["cafe nero","caffè nero"],"reference":{"key":"cuisine","value":"coffee_shop"},"tags":{"amenity":"cafe","brand:wikidata":"Q675808","cuisine":"coffee_shop"},"addTags":{"amenity":"cafe","brand":"Caffè Nero","brand:wikidata":"Q675808","cuisine":"coffee_shop","name":"Caffè Nero","takeaway":"yes"}},"amenity/cafe/coffee_shop/insomnia-180c7a":{"name":"Insomnia","locationSet":{"include":["ie"]},"geometry":["point","area"],"matchScore":2,"terms":["insomnia"],"reference":{"key":"cuisine","value":"coffee_shop"},"tags":{"amenity":"cafe","brand:wikidata":"Q6038271","cuisine":"coffee_shop"},"addTags":{"amenity":"cafe","brand":"Insomnia","brand:wikidata":"Q6038271","cuisine":"coffee_shop","name":"Insomnia","takeaway":"yes"}},"amenity/cafe/coffee_shop/neroexpress-4a2ca5":{"name":"Nero Express (Caffè Nero)","locationSet":{"include":["gb","ie","tr","us"]},"geometry":["point","area"],"matchScore":2,"terms":["caffè nero"],"reference":{"key":"cuisine","value":"coffee_shop"},"tags":{"amenity":"cafe","brand:wikidata":"Q675808","cuisine":"coffee_shop"},"addTags":{"amenity":"cafe","brand":"Caffè Nero","brand:wikidata":"Q675808","cuisine":"coffee_shop","name":"Nero Express","takeaway":"yes"}},"amenity/cafe/coffee_shop/obriens-20e9d6":{"name":"O'Briens Café","locationSet":{"include":["ae","au","cn","gb","ie","my","nz","sg","th"]},"geometry":["point","area"],"matchScore":2,"terms":["o'briens"],"reference":{"key":"cuisine","value":"coffee_shop"},"tags":{"amenity":"cafe","brand:wikidata":"Q7071686","cuisine":"coffee_shop"},"addTags":{"amenity":"cafe","brand":"O'Briens","brand:wikidata":"Q7071686","cuisine":"coffee_shop","cusine":"sandwich","name":"O'Briens","takeaway":"yes"}},"amenity/charging_station/ionity-b625d6":{"name":"Ionity","locationSet":{"include":["by","bg","cz","hu","pl","md","ro","ru","sk","ua","ax","gg","je","cq","dk","ee","fo","fi","is","ie","im","lv","lt","no","sj","se","gb","al","ad","ba","hr","gi","gr","va","it","mt","me","mk","pt","sm","rs","si","es","xk","at","be","fr","de","li","lu","mc","nl","ch"]},"geometry":["point","vertex","area"],"matchScore":2,"terms":["ionity","ionity gmbh"],"fields":["name","brand","{amenity/charging_station}"],"tags":{"amenity":"charging_station","brand:wikidata":"Q42717773"},"addTags":{"amenity":"charging_station","brand":"Ionity","brand:wikidata":"Q42717773"}},"amenity/cinema/imc-668c40":{"name":"Irish Multiplex Cinemas","locationSet":{"include":["ie"]},"geometry":["point","area"],"matchScore":2,"terms":["irish multiplex cinemas"],"fields":["name","brand","{amenity/cinema}"],"tags":{"amenity":"cinema","brand:wikidata":"Q17087433"},"addTags":{"amenity":"cinema","brand":"Irish Multiplex Cinemas","brand:wikidata":"Q17087433","name":"IMC"}},"amenity/cinema/odeon-031144":{"name":"Odeon","locationSet":{"include":["gb","gr","ie","it"]},"geometry":["point","area"],"matchScore":2,"terms":["odeon","odeon cinema"],"fields":["name","brand","{amenity/cinema}"],"tags":{"amenity":"cinema","brand:wikidata":"Q6127470"},"addTags":{"amenity":"cinema","brand":"Odeon","brand:wikidata":"Q6127470","name":"Odeon"}},"amenity/cinema/omniplex-668c40":{"name":"Omniplex Cinemas","locationSet":{"include":["ie"]},"geometry":["point","area"],"matchScore":2,"terms":["omniplex cinemas"],"fields":["name","brand","{amenity/cinema}"],"tags":{"amenity":"cinema","brand:wikidata":"Q17101050"},"addTags":{"amenity":"cinema","brand":"Omniplex Cinemas","brand:wikidata":"Q17101050","name":"Omniplex"}},"amenity/cinema/vue-05c111":{"name":"Vue (IrelandAndUK)","locationSet":{"include":["gb","ie"]},"geometry":["point","area"],"matchScore":2,"terms":["vue","vue cinema","vue cinemas"],"fields":["name","brand","{amenity/cinema}"],"tags":{"amenity":"cinema","brand:wikidata":"Q2535134"},"addTags":{"amenity":"cinema","brand":"Vue","brand:wikidata":"Q2535134","name":"Vue"}},"amenity/fast_food/pizza/apachepizza-1b23ec":{"name":"Apache Pizza","locationSet":{"include":["gb","ie"]},"geometry":["point","area"],"matchScore":2,"terms":["apache pizza"],"reference":{"key":"cuisine","value":"pizza"},"tags":{"amenity":"fast_food","brand:wikidata":"Q22031794","cuisine":"pizza"},"addTags":{"amenity":"fast_food","brand":"Apache Pizza","brand:wikidata":"Q22031794","cuisine":"pizza","name":"Apache Pizza","takeaway":"yes"}},"amenity/fast_food/mexican/boojum-1b23ec":{"name":"Boojum","locationSet":{"include":["gb","ie"]},"geometry":["point","area"],"matchScore":2,"terms":["boojum"],"reference":{"key":"cuisine","value":"mexican"},"tags":{"amenity":"fast_food","brand:wikidata":"Q111973095","cuisine":"mexican"},"addTags":{"amenity":"fast_food","brand":"Boojum","brand:wikidata":"Q111973095","cuisine":"mexican","name":"Boojum","takeaway":"yes"}},"amenity/fast_food/chopstix-2dcf5d":{"name":"Chopstix","locationSet":{"include":["gb","ie"]},"geometry":["point","area"],"matchScore":2,"terms":["chopstix","chopstix noodle bar","chopstix noodles"],"tags":{"amenity":"fast_food","brand:wikidata":"Q115327253"},"addTags":{"amenity":"fast_food","brand":"Chopstix","brand:wikidata":"Q115327253","cuisine":"noodle","name":"Chopstix","takeaway":"yes"}},"amenity/fast_food/eddierockets-f334ca":{"name":"Eddie Rocket's","locationSet":{"include":["ie"]},"geometry":["point","area"],"matchScore":2,"terms":["eddie rocket's"],"tags":{"amenity":"fast_food","brand:wikidata":"Q1007312"},"addTags":{"amenity":"fast_food","brand":"Eddie Rocket's","brand:wikidata":"Q1007312","cuisine":"american","name":"Eddie Rocket's","takeaway":"yes"}},"amenity/fast_food/burger/fiveguys-ffd618":{"name":"Five Guys","locationSet":{"include":["ae","au","be","ca","de","es","fr","gb","hk","ie","it","kw","lu","nl","qa","sa","sg","us"]},"geometry":["point","area"],"matchScore":2,"terms":["five guys","five guys burgers and fries"],"reference":{"key":"cuisine","value":"burger"},"tags":{"amenity":"fast_food","brand:wikidata":"Q1131810","cuisine":"burger"},"addTags":{"amenity":"fast_food","brand":"Five Guys","brand:wikidata":"Q1131810","cuisine":"burger","name":"Five Guys","official_name":"Five Guys Burgers and Fries","takeaway":"yes"}},"amenity/fast_food/pizza/fourstarpizza-f334ca":{"name":"Four Star Pizza","locationSet":{"include":["ie"]},"geometry":["point","area"],"matchScore":2,"terms":["four star pizza"],"reference":{"key":"cuisine","value":"pizza"},"tags":{"amenity":"fast_food","brand:wikidata":"Q5475559","cuisine":"pizza"},"addTags":{"amenity":"fast_food","brand":"Four Star Pizza","brand:wikidata":"Q5475559","cuisine":"pizza","name":"Four Star Pizza","takeaway":"yes"}},"amenity/fast_food/burger/gourmetburgerkitchen-2db3d2":{"name":"Gourmet Burger Kitchen","locationSet":{"include":["gb","gr","ie"]},"geometry":["point","area"],"matchScore":2,"terms":["gbk","gourmet burger kitchen"],"reference":{"key":"cuisine","value":"burger"},"tags":{"amenity":"fast_food","brand:wikidata":"Q5588445","cuisine":"burger"},"addTags":{"amenity":"fast_food","brand":"Gourmet Burger Kitchen","brand:wikidata":"Q5588445","cuisine":"burger","name":"Gourmet Burger Kitchen","short_name":"GBK","takeaway":"yes"}},"amenity/fast_food/fish_and_chips/harryramsdens-2dcf5d":{"name":"Harry Ramsden's","locationSet":{"include":["gb","ie"]},"geometry":["point","area"],"matchScore":2,"terms":["harry ramsden's"],"reference":{"key":"cuisine","value":"fish_and_chips"},"tags":{"amenity":"fast_food","brand:wikidata":"Q5671849","cuisine":"fish_and_chips"},"addTags":{"amenity":"fast_food","brand":"Harry Ramsden's","brand:wikidata":"Q5671849","cuisine":"fish_and_chips","name":"Harry Ramsden's","takeaway":"yes"}},"amenity/fast_food/pizza/hell-6fb486":{"name":"Hell Pizza","locationSet":{"include":["ca","ie","in","kr","nz","uk"]},"geometry":["point","area"],"matchScore":2,"terms":["hell pizza"],"reference":{"key":"cuisine","value":"pizza"},"tags":{"amenity":"fast_food","brand:wikidata":"Q1602607","cuisine":"pizza"},"addTags":{"amenity":"fast_food","brand":"Hell Pizza","brand:wikidata":"Q1602607","cuisine":"pizza","name":"Hell","takeaway":"yes"}},"amenity/fast_food/burger/leon-04566a":{"name":"LEON","locationSet":{"include":["ch","gb","ie","nl"]},"geometry":["point","area"],"matchScore":2,"terms":["leon"],"reference":{"key":"cuisine","value":"burger"},"tags":{"amenity":"fast_food","brand:wikidata":"Q6524851","cuisine":"burger;sandwich"},"addTags":{"amenity":"fast_food","brand":"LEON","brand:wikidata":"Q6524851","cuisine":"burger;sandwich","name":"LEON","takeaway":"yes"}},"amenity/fast_food/pizza/mizzonispizza-f334ca":{"name":"Mizzoni's Pizza","locationSet":{"include":["ie"]},"geometry":["point","area"],"matchScore":2,"terms":["mizzoni's pizza"],"reference":{"key":"cuisine","value":"pizza"},"tags":{"amenity":"fast_food","brand:wikidata":"Q113637632","cuisine":"pizza"},"addTags":{"amenity":"fast_food","brand":"Mizzoni's Pizza","brand:wikidata":"Q113637632","cuisine":"pizza","name":"Mizzoni's Pizza","takeaway":"yes"}},"amenity/fast_food/pizza/pizzamax-f334ca":{"name":"Pizza Max (Ireland)","locationSet":{"include":["ie"]},"geometry":["point","area"],"matchScore":2,"terms":["pizza max"],"reference":{"key":"cuisine","value":"pizza"},"tags":{"amenity":"fast_food","brand:wikidata":"Q113637535","cuisine":"pizza"},"addTags":{"amenity":"fast_food","brand":"Pizza Max","brand:wikidata":"Q113637535","cuisine":"pizza","name":"Pizza Max","takeaway":"yes"}},"amenity/fast_food/sandwich/pretamanger-4f61b1":{"name":"Pret A Manger","locationSet":{"include":["ae","cn","de","dk","es","fr","gb","hk","ie","in","nl","pt","sg","us"]},"geometry":["point","area"],"matchScore":2,"terms":["pret","pret a manger"],"reference":{"key":"cuisine","value":"sandwich"},"tags":{"amenity":"fast_food","brand:wikidata":"Q2109109","cuisine":"sandwich"},"addTags":{"amenity":"fast_food","brand":"Pret A Manger","brand:wikidata":"Q2109109","cuisine":"sandwich","name":"Pret A Manger","short_name":"Pret","takeaway":"yes"}},"amenity/fast_food/burger/supermacs-2dcf5d":{"name":"Supermac's","locationSet":{"include":["gb","ie"]},"geometry":["point","area"],"matchScore":2,"terms":["supermac's"],"reference":{"key":"cuisine","value":"burger"},"tags":{"amenity":"fast_food","brand:wikidata":"Q7643750","cuisine":"burger"},"addTags":{"amenity":"fast_food","brand":"Supermac's","brand:wikidata":"Q7643750","cuisine":"burger","name":"Supermac's","takeaway":"yes"}},"amenity/fast_food/sandwich/uppercrust-167d3f":{"name":"Upper Crust","locationSet":{"include":["de","dk","eg","es","fi","gb","ie","no","se"]},"geometry":["point","area"],"matchScore":2,"terms":["upper crust"],"reference":{"key":"cuisine","value":"sandwich"},"tags":{"amenity":"fast_food","brand:wikidata":"Q7898585","cuisine":"sandwich"},"addTags":{"amenity":"fast_food","brand":"Upper Crust","brand:wikidata":"Q7898585","cuisine":"sandwich","name":"Upper Crust","takeaway":"yes"}},"amenity/fast_food/mexican/zambrero-ee9f0e":{"name":"Zambrero","locationSet":{"include":["au","ie","nz","us"]},"geometry":["point","area"],"matchScore":2,"terms":["zambrero"],"reference":{"key":"cuisine","value":"mexican"},"tags":{"amenity":"fast_food","brand:wikidata":"Q18636431","cuisine":"mexican"},"addTags":{"amenity":"fast_food","brand":"Zambrero","brand:wikidata":"Q18636431","cuisine":"mexican","name":"Zambrero","takeaway":"yes"}},"amenity/fuel/applegreen-08ff39":{"name":"Applegreen","locationSet":{"include":["gb","ie","us"]},"geometry":["point","area"],"matchScore":2,"terms":["applegreen"],"fields":["name","brand","{amenity/fuel}"],"tags":{"amenity":"fuel","brand:wikidata":"Q7178908"},"addTags":{"amenity":"fuel","brand":"Applegreen","brand:wikidata":"Q7178908","name":"Applegreen"}},"amenity/fuel/as24-3463db":{"name":"AS 24","locationSet":{"include":["at","be","bg","cz","de","dk","es","fr","gb","ge","gr","hr","hu","ie","it","lt","lu","mk","nl","pl","pt","ro","rs","se","si","sk","ua"]},"geometry":["point","area"],"matchScore":2,"terms":["as 24"],"fields":["name","brand","{amenity/fuel}"],"tags":{"amenity":"fuel","brand:wikidata":"Q2819394"},"addTags":{"amenity":"fuel","brand":"AS 24","brand:wikidata":"Q2819394","hgv":"only","name":"AS 24"}},"amenity/fuel/inver-f499fc":{"name":"Inver","locationSet":{"include":["ca","ie"]},"geometry":["point","area"],"matchScore":2,"terms":["inver"],"fields":["name","brand","{amenity/fuel}"],"tags":{"amenity":"fuel","brand:wikidata":"Q112579016"},"addTags":{"amenity":"fuel","brand":"Inver","brand:wikidata":"Q112579016","name":"Inver"}},"amenity/fuel/maxol-9c7c7c":{"name":"Maxol","locationSet":{"include":["gb","ie"]},"geometry":["point","area"],"matchScore":2,"terms":["maxol"],"fields":["name","brand","{amenity/fuel}"],"tags":{"amenity":"fuel","brand:wikidata":"Q3302837"},"addTags":{"amenity":"fuel","brand":"Maxol","brand:wikidata":"Q3302837","name":"Maxol"}},"amenity/fuel/statoil-442e61":{"name":"Statoil","locationSet":{"include":["dk","ee","ie","pl","ru","se"]},"geometry":["point","area"],"matchScore":2,"terms":["statoil"],"fields":["name","brand","{amenity/fuel}"],"tags":{"amenity":"fuel","brand:wikidata":"Q1776022"},"addTags":{"amenity":"fuel","brand":"Statoil","brand:wikidata":"Q1776022","name":"Statoil"}},"amenity/fuel/top-5afa7a":{"name":"Top","locationSet":{"include":["ie"]},"geometry":["point","area"],"matchScore":2,"terms":["tedcastles oil products","top","top oil"],"fields":["name","brand","{amenity/fuel}"],"tags":{"amenity":"fuel","brand:wikidata":"Q7693933"},"addTags":{"amenity":"fuel","brand":"Top","brand:wikidata":"Q7693933","name":"Top","official_name":"Tedcastles Oil Products"}},"amenity/ice_cream/amorino-6cf168":{"name":"Amorino","locationSet":{"include":["ae","ch","cz","de","es","fr","gb","gr","ie","it","lu","ma","mt","mx","nc","pt","qa","re","us"]},"geometry":["point","area"],"matchScore":2,"terms":["amorino"],"tags":{"amenity":"ice_cream","brand:wikidata":"Q2843884"},"addTags":{"amenity":"ice_cream","brand":"Amorino","brand:wikidata":"Q2843884","name":"Amorino"}},"amenity/parcel_locker/zbox-5a86e9":{"name":"Packeta","locationSet":{"include":["by","bg","cz","hu","pl","md","ro","ru","sk","ua","ax","gg","je","cq","dk","ee","fo","fi","is","ie","im","lv","lt","no","sj","se","gb","al","ad","ba","hr","gi","gr","va","it","mt","me","mk","pt","sm","rs","si","es","xk","at","be","fr","de","li","lu","mc","nl","ch"]},"geometry":["point","vertex","area"],"matchScore":2,"terms":["packeta"],"fields":["name","brand","{amenity/parcel_locker}"],"reference":{"key":"amenity","value":"parcel_locker"},"tags":{"amenity":"parcel_locker","brand:wikidata":"Q67809905"},"addTags":{"amenity":"parcel_locker","brand":"Packeta","brand:wikidata":"Q67809905","name":"Z-Box"}},"amenity/payment_terminal/coinstar-8dd7cb":{"name":"Coinstar","locationSet":{"include":["ca","de","es","fr","gb","ie","it","jp","us"]},"geometry":["point"],"matchScore":2,"terms":["coinstar"],"tags":{"amenity":"payment_terminal","brand:wikidata":"Q5141641"},"addTags":{"amenity":"payment_terminal","brand":"Coinstar","brand:wikidata":"Q5141641","name":"Coinstar"}},"amenity/pharmacy/boots-4847be":{"name":"Boots","locationSet":{"include":["gb","ie","th"]},"geometry":["point","area"],"matchScore":2,"terms":["boots","boots pharmacy"],"reference":{"key":"amenity","value":"pharmacy"},"tags":{"amenity":"pharmacy","brand:wikidata":"Q6123139"},"addTags":{"amenity":"pharmacy","brand":"Boots","brand:wikidata":"Q6123139","healthcare":"pharmacy","name":"Boots"}},"amenity/pharmacy/lloydspharmacy-ab6db1":{"name":"Lloyds Pharmacy","locationSet":{"include":["be","gb","ie","im"]},"geometry":["point","area"],"matchScore":2,"terms":["lloyds","lloyds pharmacy"],"reference":{"key":"amenity","value":"pharmacy"},"tags":{"amenity":"pharmacy","brand:wikidata":"Q6662870"},"addTags":{"amenity":"pharmacy","brand":"Lloyds Pharmacy","brand:wikidata":"Q6662870","healthcare":"pharmacy","name":"Lloyds Pharmacy"}},"amenity/pharmacy/superdrug-956ac7":{"name":"Superdrug","locationSet":{"include":["gb","ie"]},"geometry":["point","area"],"matchScore":2,"terms":["superdrug"],"reference":{"key":"amenity","value":"pharmacy"},"tags":{"amenity":"pharmacy","brand:wikidata":"Q7643261"},"addTags":{"amenity":"pharmacy","brand":"Superdrug","brand:wikidata":"Q7643261","healthcare":"pharmacy","name":"Superdrug"}},"amenity/restaurant/cosmo-bd06d9":{"name":"Cosmo","locationSet":{"include":["gb","ie"]},"geometry":["point","area"],"matchScore":2,"terms":["cosmo"],"tags":{"amenity":"restaurant","brand:wikidata":"Q5174239"},"addTags":{"amenity":"restaurant","brand":"Cosmo","brand:wikidata":"Q5174239","cuisine":"international","name":"Cosmo"}},"amenity/restaurant/freshii-2d261b":{"name":"Freshii","locationSet":{"include":["ca","ie","us"]},"geometry":["point","area"],"matchScore":2,"terms":["freshii"],"tags":{"amenity":"restaurant","brand:wikidata":"Q5503051"},"addTags":{"amenity":"restaurant","brand":"Freshii","brand:wikidata":"Q5503051","cuisine":"salad","name":"Freshii"}},"amenity/restaurant/nandos-32ebee":{"name":"Nando's","locationSet":{"include":["ae","au","bd","bh","bw","ca","fj","gb","ie","in","mu","my","nz","om","pk","qa","sa","sg","sz","us","za","zm","zw"]},"geometry":["point","area"],"matchScore":2,"terms":["nando's"],"tags":{"amenity":"restaurant","brand:wikidata":"Q3472954"},"addTags":{"amenity":"restaurant","brand":"Nando's","brand:wikidata":"Q3472954","cuisine":"chicken;portuguese","name":"Nando's"}},"amenity/restaurant/theivy-bd06d9":{"name":"The Ivy Collection","locationSet":{"include":["gb","ie"]},"geometry":["point","area"],"matchScore":2,"terms":["the ivy collection"],"tags":{"amenity":"restaurant","brand:wikidata":"Q108197462"},"addTags":{"amenity":"restaurant","brand":"The Ivy Collection","brand:wikidata":"Q108197462","cuisine":"british","name":"The Ivy"}},"amenity/social_centre/ahepahall-30ca27":{"name":"AHEPA Hall","locationSet":{"include":["by","bg","cz","hu","pl","md","ro","ru","sk","ua","ax","gg","je","cq","dk","ee","fo","fi","is","ie","im","lv","lt","no","sj","se","gb","al","ad","ba","hr","gi","gr","va","it","mt","me","mk","pt","sm","rs","si","es","xk","at","be","fr","de","li","lu","mc","nl","ch","au","ca","cy","us"],"exclude":["ru"]},"geometry":["point","area"],"matchScore":2,"terms":["ahepa","american hellenic educational progressive association","the order of ahepa"],"fields":["name","brand","{amenity/social_centre}"],"tags":{"amenity":"social_centre","brand:wikidata":"Q4743973"},"addTags":{"amenity":"social_centre","brand":"AHEPA","brand:wikidata":"Q4743973","name":"AHEPA Hall"}},"amenity/vending_machine/bicycle_tube/continental-123edb":{"name":"Continental","locationSet":{"include":["by","bg","cz","hu","pl","md","ro","ru","sk","ua","ax","gg","je","cq","dk","ee","fo","fi","is","ie","im","lv","lt","no","sj","se","gb","al","ad","ba","hr","gi","gr","va","it","mt","me","mk","pt","sm","rs","si","es","xk","at","be","fr","de","li","lu","mc","nl","ch"]},"geometry":["point","vertex"],"matchScore":2,"terms":["continental"],"reference":{"key":"vending","value":"bicycle_tube"},"tags":{"amenity":"vending_machine","brand:wikidata":"Q64739247","vending":"bicycle_tube"},"addTags":{"amenity":"vending_machine","brand":"Continental","brand:wikidata":"Q64739247","name":"Continental","vending":"bicycle_tube"}},"amenity/vending_machine/coffee/costaexpress-37500c":{"name":"Costa Express","locationSet":{"include":["gb","ie"]},"geometry":["point","vertex"],"matchScore":2,"terms":["costa express"],"reference":{"key":"vending","value":"coffee"},"tags":{"amenity":"vending_machine","brand:wikidata":"Q608845","vending":"coffee"},"addTags":{"amenity":"vending_machine","brand":"Costa Express","brand:wikidata":"Q608845","name":"Costa Express","vending":"coffee"}},"amenity/vending_machine/excrement_bags/muttmitt-89b7c8":{"name":"Mutt Mitt","locationSet":{"include":["ca","ie","us"]},"geometry":["point","vertex"],"matchScore":2,"terms":["mutt mitt"],"reference":{"key":"vending","value":"excrement_bags"},"tags":{"amenity":"vending_machine","brand:wikidata":"Q6944063","vending":"excrement_bags"},"addTags":{"amenity":"vending_machine","brand":"Mutt Mitt","brand:wikidata":"Q6944063","vending":"excrement_bags"}},"amenity/vending_machine/bicycle_tube/schwalbe-123edb":{"name":"Schwalbe","locationSet":{"include":["by","bg","cz","hu","pl","md","ro","ru","sk","ua","ax","gg","je","cq","dk","ee","fo","fi","is","ie","im","lv","lt","no","sj","se","gb","al","ad","ba","hr","gi","gr","va","it","mt","me","mk","pt","sm","rs","si","es","xk","at","be","fr","de","li","lu","mc","nl","ch"]},"geometry":["point","vertex"],"matchScore":2,"terms":["schwalbe"],"reference":{"key":"vending","value":"bicycle_tube"},"tags":{"amenity":"vending_machine","brand:wikidata":"Q1312213","vending":"bicycle_tube"},"addTags":{"amenity":"vending_machine","brand":"Schwalbe","brand:wikidata":"Q1312213","name":"Schwalbe","vending":"bicycle_tube"}},"amenity/vending_machine/selecta-ed4d31":{"name":"Selecta","locationSet":{"include":["at","be","ch","de","dk","es","fi","fr","ie","it","li","lu","nl","no","se","uk"]},"geometry":["point","vertex"],"matchScore":2,"terms":["selecta"],"tags":{"amenity":"vending_machine","brand:wikidata":"Q472153"},"addTags":{"amenity":"vending_machine","brand":"Selecta","brand:wikidata":"Q472153"}},"leisure/fitness_centre/energiefitness-db9195":{"name":"énergie Fitness","locationSet":{"include":["bh","es","gb","ie"]},"geometry":["point","area"],"matchScore":2,"terms":["énergie fitness"],"tags":{"brand:wikidata":"Q109855553","leisure":"fitness_centre"},"addTags":{"brand":"énergie Fitness","brand:wikidata":"Q109855553","leisure":"fitness_centre","name":"énergie Fitness"}},"leisure/fitness_centre/holmesplace-901199":{"name":"Holmes Place","locationSet":{"include":["by","bg","cz","hu","pl","md","ro","ru","sk","ua","ax","gg","je","cq","dk","ee","fo","fi","is","ie","im","lv","lt","no","sj","se","gb","al","ad","ba","hr","gi","gr","va","it","mt","me","mk","pt","sm","rs","si","es","xk","at","be","fr","de","li","lu","mc","nl","ch","il"]},"geometry":["point","area"],"matchScore":2,"terms":["holmes place"],"tags":{"brand:wikidata":"Q15815819","leisure":"fitness_centre"},"addTags":{"brand":"Holmes Place","brand:wikidata":"Q15815819","leisure":"fitness_centre","name":"Holmes Place"}},"leisure/fitness_centre/hotworx-cee411":{"name":"Hotworx","locationSet":{"include":["au","ie","us"]},"geometry":["point","area"],"matchScore":2,"terms":["hotworx"],"tags":{"brand:wikidata":"Q115527690","leisure":"fitness_centre"},"addTags":{"brand":"Hotworx","brand:wikidata":"Q115527690","leisure":"fitness_centre","name":"Hotworx"}},"leisure/fitness_centre/snapfitness-551086":{"name":"Snap Fitness","locationSet":{"include":["ae","au","be","ca","es","gb","hk","id","ie","jp","mx","nl","nz","ph","tr","tw","us"]},"geometry":["point","area"],"matchScore":2,"terms":["snap fitness"],"tags":{"brand:wikidata":"Q7547254","leisure":"fitness_centre"},"addTags":{"brand":"Snap Fitness","brand:wikidata":"Q7547254","leisure":"fitness_centre","name":"Snap Fitness"}},"office/estate_agent/dng-307938":{"name":"DNG","locationSet":{"include":["ie"]},"geometry":["point","area"],"matchScore":2,"terms":["dng"],"tags":{"brand:wikidata":"Q116646713","office":"estate_agent"},"addTags":{"brand":"DNG","brand:wikidata":"Q116646713","name":"DNG","office":"estate_agent"}},"office/estate_agent/sherryfitzgerald-307938":{"name":"Sherry FitzGerald","locationSet":{"include":["ie"]},"geometry":["point","area"],"matchScore":2,"terms":["sherry fitzgerald"],"tags":{"brand:wikidata":"Q116646140","office":"estate_agent"},"addTags":{"brand":"Sherry FitzGerald","brand:wikidata":"Q116646140","name":"Sherry FitzGerald","office":"estate_agent"}},"office/estate_agent/vonpollrealestate-c99072":{"name":"von Poll Real Estate","locationSet":{"include":["by","bg","cz","hu","pl","md","ro","ru","sk","ua","ax","gg","je","cq","dk","ee","fo","fi","is","ie","im","lv","lt","no","sj","se","gb","al","ad","ba","hr","gi","gr","va","it","mt","me","mk","pt","sm","rs","si","es","xk","at","be","fr","de","li","lu","mc","nl","ch"],"exclude":["at","de"]},"geometry":["point","area"],"matchScore":2,"terms":["von poll immobilien","von poll real estate","vonpoll","vonpoll commercial"],"tags":{"brand:wikidata":"Q96026696","office":"estate_agent"},"addTags":{"brand":"von Poll Real Estate","brand:wikidata":"Q96026696","name":"von Poll Real Estate","office":"estate_agent"}},"office/insurance/allianz-332499":{"name":"Allianz","locationSet":{"include":["ae","ar","at","au","be","bg","bh","bm","bn","br","ca","cg","ch","ci","cm","cn","co","cy","cz","de","dk","ee","eg","es","fi","fr","gb","gf","gg","gh","gp","gr","hk","hr","hu","id","ie","in","is","it","ja","ke","kr","kw","la","li","lk","lt","lu","lv","ma","mg","mx","my","ng","nl","no","nz","om","ph","pk","pl","pt","qa","ro","ru","sa","se","sg","si","sk","sn","th","tr","tw","ua","us","za"]},"geometry":["point","area"],"matchScore":2,"terms":["allianz"],"fields":["name","brand","{office/insurance}"],"tags":{"brand:wikidata":"Q487292","office":"insurance"},"addTags":{"brand":"Allianz","brand:wikidata":"Q487292","name":"Allianz","office":"insurance"}},"office/insurance/aviva-851fcf":{"name":"Aviva","locationSet":{"include":["fr","ie","pl"]},"geometry":["point","area"],"matchScore":2,"terms":["aviva"],"fields":["name","brand","{office/insurance}"],"tags":{"brand:wikidata":"Q791179","office":"insurance"},"addTags":{"brand":"Aviva","brand:wikidata":"Q791179","name":"Aviva","office":"insurance"}},"office/insurance/axa-2e7672":{"name":"AXA","locationSet":{"include":["ae","ar","au","be","bh","bm","br","ca","ch","ci","cl","cm","cn","co","cz","de","dk","dz","eg","es","fi","fr","ga","gb","gr","hk","id","ie","in","it","jp","kr","lb","lu","ma","mu","mx","my","ng","nl","no","om","pa","pe","ph","pl","pt","qa","sa","se","sg","sk","sn","th","tr","tw","us"]},"geometry":["point","area"],"matchScore":2,"terms":["axa"],"fields":["name","brand","{office/insurance}"],"tags":{"brand:wikidata":"Q160054","office":"insurance"},"addTags":{"brand":"AXA","brand:wikidata":"Q160054","name":"AXA","office":"insurance"}},"office/insurance/zurich-2d6c95":{"name":"Zurich","locationSet":{"include":["ae","at","au","be","bh","br","ca","ch","cl","cn","co","de","ec","es","fi","fr","gb","hk","id","ie","it","ja","kw","lb","li","lu","mx","my","nl","no","nz","om","pt","qa","se","sg","sk","tr","us"]},"geometry":["point","area"],"matchScore":2,"terms":["zurich"],"fields":["name","brand","{office/insurance}"],"tags":{"brand:wikidata":"Q230426","office":"insurance"},"addTags":{"brand":"Zurich","brand:wikidata":"Q230426","name":"Zurich","office":"insurance"}},"shop/alcohol/carryout-986e1f":{"name":"Carry Out","locationSet":{"include":["ie"]},"geometry":["point","area"],"matchScore":2,"terms":["carry out"],"tags":{"brand:wikidata":"Q116645699","shop":"alcohol"},"addTags":{"brand":"Carry Out","brand:wikidata":"Q116645699","name":"Carry Out","shop":"alcohol"}},"shop/alcohol/obriens-986e1f":{"name":"O'Briens Wine","locationSet":{"include":["ie"]},"geometry":["point","area"],"matchScore":2,"terms":["o'briens"],"tags":{"brand:wikidata":"Q113151266","shop":"alcohol"},"addTags":{"brand":"O'Briens","brand:wikidata":"Q113151266","name":"O'Briens","shop":"alcohol"}},"shop/bookmaker/baroneracing-15bf4d":{"name":"Bar One Racing","locationSet":{"include":["gb","ie"]},"geometry":["point","area"],"matchScore":2,"terms":["bar one","bar one racing"],"tags":{"brand:wikidata":"Q113045943","shop":"bookmaker"},"addTags":{"brand":"Bar One Racing","brand:wikidata":"Q113045943","name":"Bar One Racing","shop":"bookmaker"}},"shop/bookmaker/boylesports-afd1fc":{"name":"BoyleSports","locationSet":{"include":["gb","ie"]},"geometry":["point","area"],"matchScore":2,"terms":["boylesports"],"tags":{"brand:wikidata":"Q56760280","shop":"bookmaker"},"addTags":{"brand":"BoyleSports","brand:wikidata":"Q56760280","name":"BoyleSports","shop":"bookmaker"}},"shop/bookmaker/ladbrokes-afd1fc":{"name":"Ladbrokes","locationSet":{"include":["gb","ie"]},"geometry":["point","area"],"matchScore":2,"terms":["ladbrokes"],"tags":{"brand:wikidata":"Q1799875","shop":"bookmaker"},"addTags":{"brand":"Ladbrokes","brand:wikidata":"Q1799875","name":"Ladbrokes","shop":"bookmaker"}},"shop/bookmaker/paddypower-afd1fc":{"name":"Paddy Power","locationSet":{"include":["gb","ie"]},"geometry":["point","area"],"matchScore":2,"terms":["paddy power"],"searchable":false,"tags":{"brand:wikidata":"Q3888718","shop":"bookmaker"},"addTags":{"brand":"Paddy Power","brand:wikidata":"Q3888718","name":"Paddy Power","shop":"bookmaker"}},"shop/books/eason-202425":{"name":"Eason","locationSet":{"include":["ie"]},"geometry":["point","area"],"matchScore":2,"terms":["eason"],"tags":{"brand:wikidata":"Q3046482","shop":"books"},"addTags":{"brand":"Eason","brand:wikidata":"Q3046482","name":"Eason","shop":"books"}},"shop/books/theworks-b448ba":{"name":"The Works","locationSet":{"include":["gb","ie"]},"geometry":["point","area"],"matchScore":2,"terms":["the works"],"tags":{"brand:wikidata":"Q7775853","shop":"books"},"addTags":{"brand":"The Works","brand:wikidata":"Q7775853","name":"The Works","shop":"books"}},"shop/books/waterstones-3a34ca":{"name":"Waterstones","locationSet":{"include":["be","gb","ie","je","nl"]},"geometry":["point","area"],"matchScore":2,"terms":["waterstones"],"tags":{"brand:wikidata":"Q151779","shop":"books"},"addTags":{"brand":"Waterstones","brand:wikidata":"Q151779","name":"Waterstones","shop":"books"}},"shop/car/smart-f30ed8":{"name":"Smart","locationSet":{"include":["by","bg","cz","hu","pl","md","ro","ru","sk","ua","ax","gg","je","cq","dk","ee","fo","fi","is","ie","im","lv","lt","no","sj","se","gb","al","ad","ba","hr","gi","gr","va","it","mt","me","mk","pt","sm","rs","si","es","xk","at","be","fr","de","li","lu","mc","nl","ch"]},"geometry":["point","area"],"matchScore":2,"terms":["smart"],"fields":["name","brand","{shop/car}"],"tags":{"brand:wikidata":"Q156490","shop":"car"},"addTags":{"brand":"Smart","brand:wikidata":"Q156490","name":"Smart","shop":"car"}},"shop/car_parts/eurocarparts-078f70":{"name":"Euro Car Parts","locationSet":{"include":["gb","ie"]},"geometry":["point","area"],"matchScore":2,"terms":["euro car parts"],"tags":{"brand:wikidata":"Q23782692","shop":"car_parts"},"addTags":{"brand":"Euro Car Parts","brand:wikidata":"Q23782692","name":"Euro Car Parts","shop":"car_parts"}},"shop/car_parts/gsfcarparts-078f70":{"name":"GSF Car Parts","locationSet":{"include":["gb","ie"]},"geometry":["point","area"],"matchScore":2,"terms":["gsf car parts","parts alliance","the parts alliance"],"tags":{"brand:wikidata":"Q80963064","shop":"car_parts"},"addTags":{"brand":"GSF Car Parts","brand:wikidata":"Q80963064","name":"GSF Car Parts","shop":"car_parts"}},"shop/car_parts/halfords-078f70":{"name":"Halfords","locationSet":{"include":["gb","ie"]},"geometry":["point","area"],"matchScore":2,"terms":["halfords"],"tags":{"brand:wikidata":"Q3398786","shop":"car_parts"},"addTags":{"brand":"Halfords","brand:wikidata":"Q3398786","name":"Halfords","service:bicycle:repair":"yes","service:bicycle:retail":"yes","shop":"car_parts"}},"shop/car_repair/kwikfit-df570c":{"name":"Kwik Fit","locationSet":{"include":["gb","ie"]},"geometry":["point","area"],"matchScore":2,"terms":["kwik fit"],"fields":["name","brand","{shop/car_repair}"],"tags":{"brand:wikidata":"Q958053","shop":"car_repair"},"addTags":{"brand":"Kwik Fit","brand:wikidata":"Q958053","name":"Kwik Fit","shop":"car_repair"}},"shop/carpet/carpetright-68566f":{"name":"Carpetright","locationSet":{"include":["be","gb","ie","nl"]},"geometry":["point","area"],"matchScore":2,"terms":["carpetright"],"tags":{"brand:wikidata":"Q5045782","shop":"carpet"},"addTags":{"brand":"Carpetright","brand:wikidata":"Q5045782","name":"Carpetright","shop":"carpet"}},"shop/catalogue/argos-3930ea":{"name":"Argos","locationSet":{"include":["gb","ie"]},"geometry":["point","area"],"matchScore":2,"terms":["argos"],"tags":{"brand:wikidata":"Q4789707","shop":"catalogue"},"addTags":{"brand":"Argos","brand:wikidata":"Q4789707","name":"Argos","shop":"catalogue"}},"shop/charity/barnardos-f84d6b":{"name":"Barnardo's","locationSet":{"include":["gb","ie"]},"geometry":["point","area"],"matchScore":2,"terms":["barnardo's"],"tags":{"brand:wikidata":"Q2884670","shop":"charity"},"addTags":{"brand":"Barnardo's","brand:wikidata":"Q2884670","name":"Barnardo's","shop":"charity"}},"shop/charity/oxfam-70fc14":{"name":"Oxfam","locationSet":{"include":["be","de","gb","ie","im"]},"geometry":["point","area"],"matchScore":2,"terms":["oxfam"],"tags":{"brand:wikidata":"Q267941","shop":"charity"},"addTags":{"brand":"Oxfam","brand:wikidata":"Q267941","name":"Oxfam","shop":"charity"}},"shop/charity/rnlishop-f84d6b":{"name":"RNLI Shop","locationSet":{"include":["gb","ie"]},"geometry":["point","area"],"matchScore":2,"terms":["rnli shop","royal national lifeboat institution"],"tags":{"brand:wikidata":"Q2166873","shop":"charity"},"addTags":{"brand":"RNLI Shop","brand:wikidata":"Q2166873","name":"RNLI Shop","shop":"charity"}},"shop/charity/samaritans-f84d6b":{"name":"Samaritans","locationSet":{"include":["gb","ie"]},"geometry":["point","area"],"matchScore":2,"terms":["samaritans"],"tags":{"brand:wikidata":"Q7408851","shop":"charity"},"addTags":{"brand":"Samaritans","brand:wikidata":"Q7408851","name":"Samaritans","shop":"charity"}},"shop/charity/sueryder-f84d6b":{"name":"Sue Ryder","locationSet":{"include":["gb","ie"]},"geometry":["point","area"],"matchScore":2,"terms":["sue ryder"],"tags":{"brand:wikidata":"Q7634271","shop":"charity"},"addTags":{"brand":"Sue Ryder","brand:wikidata":"Q7634271","name":"Sue Ryder","shop":"charity"}},"shop/chemist/boots-b67e62":{"name":"Boots","locationSet":{"include":["gb","ie"]},"geometry":["point","area"],"matchScore":2,"terms":["boots"],"tags":{"brand:wikidata":"Q6123139","shop":"chemist"},"addTags":{"brand":"Boots","brand:wikidata":"Q6123139","name":"Boots","shop":"chemist"}},"shop/chemist/superdrug-b67e62":{"name":"Superdrug","locationSet":{"include":["gb","ie"]},"geometry":["point","area"],"matchScore":2,"terms":["superdrug"],"tags":{"brand:wikidata":"Q7643261","shop":"chemist"},"addTags":{"brand":"Superdrug","brand:wikidata":"Q7643261","name":"Superdrug","shop":"chemist"}},"shop/clothes/abercrombieandfitch-c69677":{"name":"Abercrombie & Fitch","locationSet":{"include":["ae","be","ca","cn","de","es","fr","gb","hk","ie","it","jp","kw","mx","nl","qa","sa","sg","us"]},"geometry":["point","area"],"matchScore":2,"terms":["abercrombie & fitch"],"tags":{"brand:wikidata":"Q319344","shop":"clothes"},"addTags":{"brand":"Abercrombie & Fitch","brand:wikidata":"Q319344","clothes":"men;women","name":"Abercrombie & Fitch","shop":"clothes"}},"shop/clothes/allsaints-37f446":{"name":"AllSaints","locationSet":{"include":["cn","fr","gb","ie","kr","mx","ru","us"]},"geometry":["point","area"],"matchScore":2,"terms":["allsaints"],"tags":{"brand:wikidata":"Q4728473","shop":"clothes"},"addTags":{"brand":"AllSaints","brand:wikidata":"Q4728473","name":"AllSaints","shop":"clothes"}},"shop/clothes/badrhino-94f7c8":{"name":"BadRhino","locationSet":{"include":["gb","ie"]},"geometry":["point","area"],"matchScore":2,"terms":["badrhino"],"tags":{"brand:wikidata":"Q84161924","shop":"clothes"},"addTags":{"brand":"BadRhino","brand:wikidata":"Q84161924","clothes":"men","name":"BadRhino","shop":"clothes"}},"shop/clothes/dorothyperkins-907b92":{"name":"Dorothy Perkins","locationSet":{"include":["gb","gg","ie","im"]},"geometry":["point","area"],"matchScore":2,"terms":["dorothy perkins"],"tags":{"brand:wikidata":"Q5298588","shop":"clothes"},"addTags":{"brand":"Dorothy Perkins","brand:wikidata":"Q5298588","name":"Dorothy Perkins","shop":"clothes"}},"shop/clothes/fatface-5e4c8e":{"name":"Fat Face","locationSet":{"include":["gb","gg","ie"]},"geometry":["point","area"],"matchScore":2,"terms":["fat face"],"tags":{"brand:wikidata":"Q5437186","shop":"clothes"},"addTags":{"brand":"Fat Face","brand:wikidata":"Q5437186","name":"Fat Face","shop":"clothes"}},"shop/clothes/jackwills-75e7ba":{"name":"Jack Wills","locationSet":{"include":["ae","gb","hk","ie","kw","lb","mo","sg","us"]},"geometry":["point","area"],"matchScore":2,"terms":["jack wills"],"tags":{"brand:wikidata":"Q6115814","shop":"clothes"},"addTags":{"brand":"Jack Wills","brand:wikidata":"Q6115814","name":"Jack Wills","shop":"clothes"}},"shop/clothes/joules-5e4c8e":{"name":"Joules","locationSet":{"include":["gb","gg","ie"]},"geometry":["point","area"],"matchScore":2,"terms":["joules"],"tags":{"brand:wikidata":"Q25351738","shop":"clothes"},"addTags":{"brand":"Joules","brand:wikidata":"Q25351738","name":"Joules","shop":"clothes"}},"shop/clothes/katespadenewyork-bbae42":{"name":"Kate Spade New York","locationSet":{"include":["at","be","ca","de","gb","ie","in","it","nl","us"]},"geometry":["point","area"],"matchScore":2,"terms":["kate spade","kate spade new york","kate spade ny"],"tags":{"brand:wikidata":"Q6375797","shop":"clothes"},"addTags":{"brand":"Kate Spade New York","brand:wikidata":"Q6375797","name":"Kate Spade New York","shop":"clothes","short_name":"Kate Spade"}},"shop/clothes/maje-99ba8f":{"name":"Maje","locationSet":{"include":["by","bg","cz","hu","pl","md","ro","ru","sk","ua","ax","gg","je","cq","dk","ee","fo","fi","is","ie","im","lv","lt","no","sj","se","gb","al","ad","ba","hr","gi","gr","va","it","mt","me","mk","pt","sm","rs","si","es","xk","at","be","fr","de","li","lu","mc","nl","ch","cn","hk","sg","tw","uk","us"]},"geometry":["point","area"],"matchScore":2,"terms":["maje"],"tags":{"brand:wikidata":"Q3280458","shop":"clothes"},"addTags":{"brand":"Maje","brand:wikidata":"Q3280458","clothes":"women","name":"Maje","shop":"clothes"}},"shop/clothes/monsoon-5e4c8e":{"name":"Monsoon","locationSet":{"include":["gb","gg","ie"]},"geometry":["point","area"],"matchScore":2,"terms":["monsoon"],"tags":{"brand:wikidata":"Q65007501","shop":"clothes"},"addTags":{"brand":"Monsoon","brand:wikidata":"Q65007501","name":"Monsoon","shop":"clothes"}},"shop/clothes/newlook-c8149e":{"name":"New Look","locationSet":{"include":["be","de","fr","gb","ie","pl"]},"geometry":["point","area"],"matchScore":2,"terms":["new look"],"tags":{"brand:wikidata":"Q12063852","shop":"clothes"},"addTags":{"brand":"New Look","brand:wikidata":"Q12063852","name":"New Look","shop":"clothes"}},"shop/clothes/oasis-cefcc8":{"name":"Oasis","locationSet":{"include":["es","gb","ie"]},"geometry":["point","area"],"matchScore":2,"terms":["oasis"],"tags":{"brand:wikidata":"Q64532852","shop":"clothes"},"addTags":{"brand":"Oasis","brand:wikidata":"Q64532852","name":"Oasis","shop":"clothes"}},"shop/clothes/patagonia-7718c5":{"name":"Patagonia","locationSet":{"include":["ar","at","au","ca","cl","cn","cz","de","fx","gb","hk","ie","it","jp","kr","pe","tw","us"]},"geometry":["point","area"],"matchScore":2,"terms":["patagonia"],"tags":{"brand:wikidata":"Q1660552","shop":"clothes"},"addTags":{"brand":"Patagonia","brand:wikidata":"Q1660552","clothes":"outdoor","name":"Patagonia","shop":"clothes"}},"shop/clothes/penneys-b30dbb":{"name":"Penneys","locationSet":{"include":["ie"]},"geometry":["point","area"],"matchScore":2,"terms":["primark"],"tags":{"brand:wikidata":"Q137023","shop":"clothes"},"addTags":{"brand":"Primark","brand:wikidata":"Q137023","name":"Penneys","shop":"clothes"}},"shop/clothes/pepandco-94f7c8":{"name":"Pep&Co","locationSet":{"include":["gb","ie"]},"geometry":["point","area"],"matchScore":2,"terms":["pep&co"],"tags":{"brand:wikidata":"Q24908166","shop":"clothes"},"addTags":{"brand":"Pep&Co","brand:wikidata":"Q24908166","name":"Pep&Co","shop":"clothes"}},"shop/clothes/quiz-94f7c8":{"name":"Quiz","locationSet":{"include":["gb","ie"]},"geometry":["point","area"],"matchScore":2,"terms":["quiz"],"tags":{"brand:wikidata":"Q29995941","shop":"clothes"},"addTags":{"brand":"Quiz","brand:wikidata":"Q29995941","clothes":"women","name":"Quiz","shop":"clothes"}},"shop/clothes/riverisland-a754e7":{"name":"River Island","locationSet":{"include":["gb","ie","im","nl","pl"]},"geometry":["point","area"],"matchScore":2,"terms":["river island"],"tags":{"brand:wikidata":"Q2670328","shop":"clothes"},"addTags":{"brand":"River Island","brand:wikidata":"Q2670328","name":"River Island","shop":"clothes"}},"shop/clothes/sweatybetty-81ce8b":{"name":"Sweaty Betty","locationSet":{"include":["ca","de","gb","hk","ie","sg","us"]},"geometry":["point","area"],"matchScore":2,"terms":["sweaty betty"],"tags":{"brand:wikidata":"Q7654224","shop":"clothes"},"addTags":{"brand":"Sweaty Betty","brand:wikidata":"Q7654224","clothes":"women;sports","name":"Sweaty Betty","shop":"clothes"}},"shop/clothes/usc-94f7c8":{"name":"USC","locationSet":{"include":["gb","ie"]},"geometry":["point","area"],"matchScore":2,"terms":["usc"],"tags":{"brand:wikidata":"Q7866331","shop":"clothes"},"addTags":{"brand":"USC","brand:wikidata":"Q7866331","name":"USC","shop":"clothes"}},"shop/clothes/wallis-94f7c8":{"name":"Wallis","locationSet":{"include":["gb","ie"]},"geometry":["point","area"],"matchScore":2,"terms":["wallis"],"tags":{"brand:wikidata":"Q7963123","shop":"clothes"},"addTags":{"brand":"Wallis","brand:wikidata":"Q7963123","name":"Wallis","shop":"clothes"}},"shop/clothes/yoursclothing-811b8c":{"name":"Yours Clothing","locationSet":{"include":["de","gb","gg","ie"]},"geometry":["point","area"],"matchScore":2,"terms":["yours clothing"],"tags":{"brand:wikidata":"Q84163322","shop":"clothes"},"addTags":{"brand":"Yours Clothing","brand:wikidata":"Q84163322","clothes":"women","name":"Yours Clothing","shop":"clothes"}},"shop/convenience/applegreen-cc2a33":{"name":"Applegreen","locationSet":{"include":["gb","ie","us"]},"geometry":["point","area"],"matchScore":2,"terms":["applegreen"],"tags":{"brand:wikidata":"Q7178908","shop":"convenience"},"addTags":{"brand":"Applegreen","brand:wikidata":"Q7178908","name":"Applegreen","shop":"convenience"}},"shop/convenience/centra-0b7623":{"name":"Centra","locationSet":{"include":["gb","ie"]},"geometry":["point","area"],"matchScore":2,"terms":["centra"],"tags":{"brand:wikidata":"Q747678","shop":"convenience"},"addTags":{"brand":"Centra","brand:wikidata":"Q747678","name":"Centra","shop":"convenience"}},"shop/convenience/costcutter-31620e":{"name":"Costcutter","locationSet":{"include":["gb","ie"]},"geometry":["point","area"],"matchScore":2,"terms":["costcutter","costcutters"],"tags":{"brand:wikidata":"Q5175072","shop":"convenience"},"addTags":{"brand":"Costcutter","brand:wikidata":"Q5175072","name":"Costcutter","shop":"convenience"}},"shop/convenience/daybreak-cb4625":{"name":"Daybreak","locationSet":{"include":["ie"]},"geometry":["point","area"],"matchScore":2,"terms":["daybreak"],"tags":{"brand:wikidata":"Q112901144","shop":"convenience"},"addTags":{"brand":"Daybreak","brand:wikidata":"Q112901144","name":"Daybreak","shop":"convenience"}},"shop/convenience/gala-cb4625":{"name":"Gala","locationSet":{"include":["ie"]},"geometry":["point","area"],"matchScore":2,"terms":["gala"],"tags":{"brand:wikidata":"Q5517749","shop":"convenience"},"addTags":{"brand":"Gala","brand:wikidata":"Q5517749","name":"Gala","shop":"convenience"}},"shop/convenience/londis-cb4625":{"name":"Londis (Ireland)","locationSet":{"include":["ie"]},"geometry":["point","area"],"matchScore":2,"terms":["londis"],"tags":{"brand:wikidata":"Q21015800","shop":"convenience"},"addTags":{"brand":"Londis","brand:wikidata":"Q21015800","name":"Londis","shop":"convenience"}},"shop/convenience/mace-cb4625":{"name":"Mace (Ireland)","locationSet":{"include":["ie"]},"geometry":["point","area"],"matchScore":2,"terms":["mace"],"tags":{"brand:wikidata":"Q75236910","shop":"convenience"},"addTags":{"brand":"Mace","brand:wikidata":"Q75236910","name":"Mace","shop":"convenience"}},"shop/convenience/maxol-0b7623":{"name":"Maxol","locationSet":{"include":["gb","ie"]},"geometry":["point","area"],"matchScore":2,"terms":["maxol"],"tags":{"brand:wikidata":"Q3302837","shop":"convenience"},"addTags":{"brand":"Maxol","brand:wikidata":"Q3302837","name":"Maxol","shop":"convenience"}},"shop/convenience/viva-856fe1":{"name":"Viva","locationSet":{"include":["by","bg","cz","hu","pl","md","ro","ru","sk","ua","ax","gg","je","cq","dk","ee","fo","fi","is","ie","im","lv","lt","no","sj","se","gb","al","ad","ba","hr","gi","gr","va","it","mt","me","mk","pt","sm","rs","si","es","xk","at","be","fr","de","li","lu","mc","nl","ch"]},"geometry":["point","area"],"matchScore":2,"terms":["viva"],"tags":{"brand:wikidata":"Q168238","shop":"convenience"},"addTags":{"brand":"Viva","brand:wikidata":"Q168238","name":"Viva","shop":"convenience"}},"shop/cosmetics/bareminerals-fdc7bb":{"name":"bareMinerals","locationSet":{"include":["au","ca","dk","gb","ie","us"]},"geometry":["point","area"],"matchScore":2,"terms":["bareminerals"],"tags":{"brand:wikidata":"Q66740659","shop":"cosmetics"},"addTags":{"brand":"bareMinerals","brand:wikidata":"Q66740659","name":"bareMinerals","shop":"cosmetics"}},"shop/department_store/debenhams-a29e63":{"name":"Debenhams","locationSet":{"include":["gb","ie"]},"geometry":["point","area"],"matchScore":2,"terms":["debenhams"],"tags":{"brand:wikidata":"Q1181484","shop":"department_store"},"addTags":{"brand":"Debenhams","brand:wikidata":"Q1181484","name":"Debenhams","shop":"department_store"}},"shop/department_store/dunnesstores-a29e63":{"name":"Dunnes Stores","locationSet":{"include":["gb","ie"]},"geometry":["point","area"],"matchScore":2,"terms":["dunnes stores"],"tags":{"brand:wikidata":"Q1266203","shop":"department_store"},"addTags":{"brand":"Dunnes Stores","brand:wikidata":"Q1266203","name":"Dunnes Stores","shop":"department_store"}},"shop/department_store/harveynorman-b73e73":{"name":"Harvey Norman","locationSet":{"include":["au","gb","ie","nz"]},"geometry":["point","area"],"matchScore":2,"terms":["harvey norman"],"tags":{"brand:wikidata":"Q4040441","shop":"department_store"},"addTags":{"brand":"Harvey Norman","brand:wikidata":"Q4040441","name":"Harvey Norman","shop":"department_store"}},"shop/department_store/marksandspencer-679c9d":{"name":"Marks & Spencer","locationSet":{"include":["gb","gr","ie","ru"]},"geometry":["point","area"],"matchScore":2,"terms":["m and s","marks & spencer","маркс и спенсер"],"tags":{"brand:wikidata":"Q714491","shop":"department_store"},"addTags":{"brand":"Marks & Spencer","brand:wikidata":"Q714491","name":"Marks & Spencer","shop":"department_store"}},"shop/department_store/muji-b9b204":{"name":"Muji","locationSet":{"include":["au","ca","ch","de","es","fi","fr","gb","ie","it","pl","pt","se","tr"]},"geometry":["point","area"],"matchScore":2,"terms":["muji","無印良品"],"tags":{"brand:wikidata":"Q708789","shop":"department_store"},"addTags":{"brand":"Muji","brand:en":"Muji","brand:ja":"無印良品","brand:wikidata":"Q708789","name":"Muji","name:en":"Muji","name:ja":"無印良品","shop":"department_store"}},"shop/department_store/tkmaxx-d02268":{"name":"TK Maxx","locationSet":{"include":["at","au","de","ie","nl","pl","uk"]},"geometry":["point","area"],"matchScore":2,"terms":["tk maxx"],"tags":{"brand:wikidata":"Q23823668","shop":"department_store"},"addTags":{"brand":"TK Maxx","brand:wikidata":"Q23823668","name":"TK Maxx","shop":"department_store"}},"shop/doityourself/homebase-0c42e1":{"name":"Homebase","locationSet":{"include":["gb","ie"]},"geometry":["point","area"],"matchScore":2,"terms":["homebase"],"tags":{"brand:wikidata":"Q9293447","shop":"doityourself"},"addTags":{"brand":"Homebase","brand:wikidata":"Q9293447","name":"Homebase","shop":"doityourself"}},"shop/doityourself/woodies-4f5e7a":{"name":"Woodie's","locationSet":{"include":["ie"]},"geometry":["point","area"],"matchScore":2,"terms":["atlantic homecare","woodie's","woodies diy"],"tags":{"brand:wikidata":"Q25344847","shop":"doityourself"},"addTags":{"brand":"Woodie's","brand:wikidata":"Q25344847","name":"Woodie's","shop":"doityourself"}},"shop/electrical/rexel-091354":{"name":"Rexel","locationSet":{"include":["at","au","be","ca","ch","cn","de","es","fi","fr","gb","ie","in","it","lu","me","nl","no","nz","pt","se","si","us"]},"geometry":["point","area"],"matchScore":2,"terms":["rexel"],"tags":{"brand:wikidata":"Q962489","shop":"electrical"},"addTags":{"brand":"Rexel","brand:wikidata":"Q962489","name":"Rexel","shop":"electrical"}},"shop/electronics/cex-75e32e":{"name":"CeX","locationSet":{"include":["au","es","gb","ie","in","it","mx","nl","pl","pt"]},"geometry":["point","area"],"matchScore":2,"terms":["cex"],"tags":{"brand:wikidata":"Q5055676","shop":"electronics"},"addTags":{"brand":"CeX","brand:wikidata":"Q5055676","name":"CeX","shop":"electronics"}},"shop/electronics/currys-5f4e0b":{"name":"Currys","locationSet":{"include":["gb","ie"]},"geometry":["point","area"],"matchScore":2,"terms":["currys","currys pc world","pc world"],"tags":{"brand:wikidata":"Q3246464","shop":"electronics"},"addTags":{"brand":"currys","brand:wikidata":"Q3246464","name":"Currys","shop":"electronics"}},"shop/electronics/didelectrical-4873ea":{"name":"DID Electrical","locationSet":{"include":["ie"]},"geometry":["point","area"],"matchScore":2,"terms":["did electrical"],"tags":{"brand:wikidata":"Q113471741","shop":"electronics"},"addTags":{"brand":"DID Electrical","brand:wikidata":"Q113471741","name":"DID Electrical","shop":"electronics"}},"shop/erotic/annsummers-d8134e":{"name":"Ann Summers","locationSet":{"include":["gb","ie"]},"geometry":["point","area"],"matchScore":2,"terms":["ann summers"],"tags":{"brand:wikidata":"Q579524","shop":"erotic"},"addTags":{"brand":"Ann Summers","brand:wikidata":"Q579524","name":"Ann Summers","shop":"erotic"}},"shop/fashion_accessories/mulberry-e1f087":{"name":"Mulberry","locationSet":{"include":["ae","au","ca","ch","cn","de","dk","fi","gb","ie","jp","kr","my","nl","no","se","sg","th","us"]},"geometry":["point","area"],"matchScore":2,"terms":["mulberry"],"tags":{"brand:wikidata":"Q3866987","shop":"fashion_accessories"},"addTags":{"brand":"Mulberry","brand:wikidata":"Q3866987","name":"Mulberry","shop":"fashion_accessories"}},"shop/frozen_food/iceland-0c2cb7":{"name":"Iceland","locationSet":{"include":["cz","gb","ie"]},"geometry":["point","area"],"matchScore":2,"terms":["iceland"],"tags":{"brand:wikidata":"Q721810","shop":"frozen_food"},"addTags":{"brand":"Iceland","brand:wikidata":"Q721810","name":"Iceland","shop":"frozen_food"}},"shop/furniture/bolia-a18722":{"name":"Bolia","locationSet":{"include":["by","bg","cz","hu","pl","md","ro","ru","sk","ua","ax","gg","je","cq","dk","ee","fo","fi","is","ie","im","lv","lt","no","sj","se","gb","al","ad","ba","hr","gi","gr","va","it","mt","me","mk","pt","sm","rs","si","es","xk","at","be","fr","de","li","lu","mc","nl","ch"]},"geometry":["point","area"],"matchScore":2,"terms":["bolia"],"tags":{"brand:wikidata":"Q11961809","shop":"furniture"},"addTags":{"brand":"Bolia","brand:wikidata":"Q11961809","name":"Bolia","shop":"furniture"}},"shop/furniture/ezlivingfurniture-53f64f":{"name":"EZ Living Furniture","locationSet":{"include":["ie"]},"geometry":["point","area"],"matchScore":2,"terms":["ez living furniture"],"tags":{"brand:wikidata":"Q113472646","shop":"furniture"},"addTags":{"brand":"EZ Living Furniture","brand:wikidata":"Q113472646","name":"EZ Living Furniture","shop":"furniture"}},"shop/furniture/momax-a18722":{"name":"Mömax","locationSet":{"include":["by","bg","cz","hu","pl","md","ro","ru","sk","ua","ax","gg","je","cq","dk","ee","fo","fi","is","ie","im","lv","lt","no","sj","se","gb","al","ad","ba","hr","gi","gr","va","it","mt","me","mk","pt","sm","rs","si","es","xk","at","be","fr","de","li","lu","mc","nl","ch"]},"geometry":["point","area"],"matchScore":2,"terms":["mömax"],"tags":{"brand:wikidata":"Q56388481","shop":"furniture"},"addTags":{"brand":"Mömax","brand:wikidata":"Q56388481","name":"Mömax","shop":"furniture"}},"shop/furniture/xxxlutz-5acc6e":{"name":"XXXLutz","locationSet":{"include":["by","bg","cz","hu","pl","md","ro","ru","sk","ua","ax","gg","je","cq","dk","ee","fo","fi","is","ie","im","lv","lt","no","sj","se","gb","al","ad","ba","hr","gi","gr","va","it","mt","me","mk","pt","sm","rs","si","es","xk","at","be","fr","de","li","lu","mc","nl","ch"],"exclude":["bg"]},"geometry":["point","area"],"matchScore":2,"terms":["xxxlutz"],"tags":{"brand:wikidata":"Q70339467","shop":"furniture"},"addTags":{"brand":"XXXLutz","brand:wikidata":"Q70339467","name":"XXXLutz","shop":"furniture"}},"shop/hairdresser_supply/sallybeauty-0c832a":{"name":"Sally Beauty","locationSet":{"include":["be","ca","cl","de","es","fr","gb","ie","mx","nl","pe","pr","us"]},"geometry":["point","area"],"matchScore":2,"terms":["sally beauty","sally beauty supply"],"tags":{"brand:wikidata":"Q7405065","shop":"hairdresser_supply"},"addTags":{"alt_name":"Sally Beauty Supply","brand":"Sally Beauty","brand:wikidata":"Q7405065","name":"Sally Beauty","shop":"hairdresser_supply"}},"shop/health_food/hollandandbarrett-7483d3":{"name":"Holland & Barrett","locationSet":{"include":["gb","ie","nl"]},"geometry":["point","area"],"matchScore":2,"terms":["holland & barrett"],"tags":{"brand:wikidata":"Q5880870","shop":"health_food"},"addTags":{"brand":"Holland & Barrett","brand:wikidata":"Q5880870","name":"Holland & Barrett","shop":"health_food"}},"shop/hearing_aids/hiddenhearing-edbe38":{"name":"Hidden Hearing","locationSet":{"include":["gb","ie"]},"geometry":["point","area"],"matchScore":2,"terms":["hidden hearing"],"tags":{"brand:wikidata":"Q107301478","shop":"hearing_aids"},"addTags":{"brand":"Hidden Hearing","brand:wikidata":"Q107301478","name":"Hidden Hearing","shop":"hearing_aids"}},"shop/houseware/bssgroup-81bc6e":{"name":"BSS Group","locationSet":{"include":["gb","ie"]},"geometry":["point","area"],"matchScore":2,"terms":["bss group"],"tags":{"brand:wikidata":"Q4836629","shop":"houseware"},"addTags":{"brand":"BSS Group","brand:wikidata":"Q4836629","name":"BSS Group","shop":"houseware"}},"shop/houseware/homestoremore-b52391":{"name":"Home Store + More","locationSet":{"include":["ie"]},"geometry":["point","area"],"matchScore":2,"terms":["home store + more"],"tags":{"brand:wikidata":"Q113471802","shop":"houseware"},"addTags":{"brand":"Home Store + More","brand:wikidata":"Q113471802","name":"Home Store + More","shop":"houseware"}},"shop/houseware/therange-81bc6e":{"name":"The Range","locationSet":{"include":["gb","ie"]},"geometry":["point","area"],"matchScore":2,"terms":["the range"],"tags":{"brand:wikidata":"Q7759409","shop":"houseware"},"addTags":{"brand":"The Range","brand:wikidata":"Q7759409","name":"The Range","shop":"houseware"}},"shop/interior_decoration/harrycorry-567cc8":{"name":"Harry Corry","locationSet":{"include":["gb","ie"]},"geometry":["point","area"],"matchScore":2,"terms":["harry corry"],"tags":{"brand:wikidata":"Q5668069","shop":"interior_decoration"},"addTags":{"brand":"Harry Corry","brand:wikidata":"Q5668069","name":"Harry Corry","shop":"interior_decoration"}},"shop/interior_decoration/homesense-d842e9":{"name":"HomeSense","locationSet":{"include":["ca","gb","ie","us"]},"geometry":["point","area"],"matchScore":2,"terms":["homesense"],"tags":{"brand:wikidata":"Q16844433","shop":"interior_decoration"},"addTags":{"brand":"HomeSense","brand:wikidata":"Q16844433","name":"HomeSense","shop":"interior_decoration"}},"shop/jewelry/fastfix-025704":{"name":"Fast-Fix","locationSet":{"include":["ie","us"]},"geometry":["point","area"],"matchScore":2,"terms":["fast-fix","fast-fix jewelry and watch repairs"],"tags":{"brand:wikidata":"Q108411186","shop":"jewelry"},"addTags":{"brand":"Fast-Fix","brand:wikidata":"Q108411186","name":"Fast-Fix","official_name":"Fast-Fix Jewelry and Watch Repairs","shop":"jewelry"}},"shop/locksmith/timpson-5c571a":{"name":"Timpson","locationSet":{"include":["gb","ie"]},"geometry":["point","area"],"matchScore":2,"terms":["timpson","timpsons"],"tags":{"brand:wikidata":"Q7807658","shop":"locksmith"},"addTags":{"brand":"Timpson","brand:wikidata":"Q7807658","name":"Timpson","shop":"locksmith"}},"shop/mobile_phone/3store-dbafb9":{"name":"3 Store (Ireland)","locationSet":{"include":["ie"]},"geometry":["point","area"],"matchScore":2,"terms":["3","3 store","three","three store"],"tags":{"brand:wikidata":"Q19840921","shop":"mobile_phone"},"addTags":{"brand":"3 Store","brand:wikidata":"Q19840921","name":"3 Store","shop":"mobile_phone"}},"shop/mobile_phone/eir-dbafb9":{"name":"Eir","locationSet":{"include":["ie"]},"geometry":["point","area"],"matchScore":2,"terms":["eir"],"tags":{"brand:wikidata":"Q3049473","shop":"mobile_phone"},"addTags":{"brand":"Eir","brand:wikidata":"Q3049473","name":"Eir","shop":"mobile_phone"}},"shop/mobile_phone/o2-8befd0":{"name":"O2","locationSet":{"include":["cz","de","gb","ie","sk"]},"geometry":["point","area"],"matchScore":2,"terms":["o2"],"tags":{"brand:wikidata":"Q1759255","shop":"mobile_phone"},"addTags":{"brand":"O2","brand:wikidata":"Q1759255","name":"O2","shop":"mobile_phone"}},"shop/music/goldendiscs-bbd6e8":{"name":"Golden Discs","locationSet":{"include":["ie"]},"geometry":["point","area"],"matchScore":2,"terms":["golden discs"],"tags":{"brand:wikidata":"Q5579324","shop":"music"},"addTags":{"brand":"Golden Discs","brand:wikidata":"Q5579324","name":"Golden Discs","shop":"music"}},"shop/optician/aceandtate-b2ee21":{"name":"Ace & Tate","locationSet":{"include":["at","be","ch","de","dk","es","gb","ie","nl","se"]},"geometry":["point","area"],"matchScore":2,"terms":["ace & tate"],"fields":["name","brand","{shop/optician}"],"tags":{"brand:wikidata":"Q110516413","shop":"optician"},"addTags":{"brand":"Ace & Tate","brand:wikidata":"Q110516413","name":"Ace & Tate","shop":"optician"}},"shop/optician/rayban-ace229":{"name":"Ray-Ban","locationSet":{"include":["ae","at","au","br","ca","de","es","fr","ie","it","jp","my","ne","tr","uk","us"]},"geometry":["point","area"],"matchScore":2,"terms":["ray-ban"],"fields":["name","brand","{shop/optician}"],"tags":{"brand:wikidata":"Q653941","shop":"optician"},"addTags":{"brand":"Ray-Ban","brand:wikidata":"Q653941","name":"Ray-Ban","shop":"optician"}},"shop/outdoor/mountainwarehouse-19caf6":{"name":"Mountain Warehouse","locationSet":{"include":["at","ca","de","gb","ie","nz","pl","us"]},"geometry":["point","area"],"matchScore":2,"terms":["mountain warehouse"],"tags":{"brand:wikidata":"Q6925414","shop":"outdoor"},"addTags":{"brand":"Mountain Warehouse","brand:wikidata":"Q6925414","name":"Mountain Warehouse","shop":"outdoor"}},"shop/outdoor/trespass-290058":{"name":"Trespass","locationSet":{"include":["fr","gb","ie"]},"geometry":["point","area"],"matchScore":2,"terms":["trespass"],"tags":{"brand:wikidata":"Q17035733","shop":"outdoor"},"addTags":{"brand":"Trespass","brand:wikidata":"Q17035733","name":"Trespass","shop":"outdoor"}},"shop/perfumery/equivalenza-59ad61":{"name":"Equivalenza","locationSet":{"include":["ad","ao","at","be","ca","cv","de","do","es","fr","gr","gt","ie","it","mx","mz","nl","pe","pt","ro","tn","uk"]},"geometry":["point","area"],"matchScore":2,"terms":["equivalenza"],"tags":{"brand:wikidata":"Q104649798","shop":"perfumery"},"addTags":{"brand":"Equivalenza","brand:wikidata":"Q104649798","name":"Equivalenza","shop":"perfumery"}},"shop/pet/maxizoo-3e2920":{"name":"Maxi Zoo","locationSet":{"include":["be","ch","dk","fr","ie","it","pl"]},"geometry":["point","area"],"matchScore":2,"terms":["maxi zoo"],"tags":{"brand:wikidata":"Q108403242","shop":"pet"},"addTags":{"brand":"Maxi Zoo","brand:wikidata":"Q108403242","name":"Maxi Zoo","shop":"pet"}},"shop/pet/petmania-7c67e0":{"name":"Petmania","locationSet":{"include":["ie"]},"geometry":["point","area"],"matchScore":2,"terms":["petmania"],"tags":{"brand:wikidata":"Q113281278","shop":"pet"},"addTags":{"brand":"Petmania","brand:wikidata":"Q113281278","name":"Petmania","shop":"pet"}},"shop/pet/petstop-7c67e0":{"name":"Petstop","locationSet":{"include":["ie"]},"geometry":["point","area"],"matchScore":2,"terms":["petstop"],"tags":{"brand:wikidata":"Q113197342","shop":"pet"},"addTags":{"brand":"Petstop","brand:wikidata":"Q113197342","name":"Petstop","shop":"pet"}},"shop/sunbeltrentals-a70a22":{"name":"Sunbelt Rentals","locationSet":{"include":["ca","de","gb","ie","us"]},"geometry":["point","area"],"matchScore":2,"terms":["sunbelt rentals"],"tags":{"brand:wikidata":"Q102396721","shop":"plant_hire"},"addTags":{"brand":"Sunbelt Rentals","brand:wikidata":"Q102396721","name":"Sunbelt Rentals","shop":"plant_hire"}},"shop/shoes/office-b22ec7":{"name":"Office","locationSet":{"include":["de","gb","ie","ro"]},"geometry":["point","area"],"matchScore":2,"terms":["office"],"tags":{"brand:wikidata":"Q7079121","shop":"shoes"},"addTags":{"brand":"Office","brand:wikidata":"Q7079121","name":"Office","shop":"shoes"}},"shop/shoes/schuh-a4f363":{"name":"Schuh","locationSet":{"include":["gb","gg","ie"]},"geometry":["point","area"],"matchScore":2,"terms":["schuh"],"tags":{"brand:wikidata":"Q7432952","shop":"shoes"},"addTags":{"brand":"Schuh","brand:wikidata":"Q7432952","name":"Schuh","shop":"shoes"}},"shop/shoes/shoezone-c06ee3":{"name":"Shoe Zone","locationSet":{"include":["gb","ie"]},"geometry":["point","area"],"matchScore":2,"terms":["shoe zone"],"tags":{"brand:wikidata":"Q7500016","shop":"shoes"},"addTags":{"brand":"Shoe Zone","brand:wikidata":"Q7500016","name":"Shoe Zone","shop":"shoes"}},"shop/sports/americangolf-03b7aa":{"name":"American Golf","locationSet":{"include":["gb","ie"]},"geometry":["point","area"],"matchScore":2,"terms":["american golf"],"tags":{"brand:wikidata":"Q62657494","shop":"sports"},"addTags":{"brand":"American Golf","brand:wikidata":"Q62657494","name":"American Golf","shop":"sports","sport":"golf"}},"shop/sports/intersportelverys-6fd3c0":{"name":"Intersport Elverys","locationSet":{"include":["ie"]},"geometry":["point","area"],"matchScore":2,"terms":["intersport elverys"],"tags":{"brand:wikidata":"Q5368026","shop":"sports"},"addTags":{"brand":"Intersport Elverys","brand:wikidata":"Q5368026","name":"Intersport Elverys","shop":"sports"}},"shop/sports/jdsports-b01dfc":{"name":"JD Sports","locationSet":{"include":["au","de","es","fr","gb","ie","nl","pt"]},"geometry":["point","area"],"matchScore":2,"terms":["jd","jd sports"],"tags":{"brand:wikidata":"Q6108019","shop":"sports"},"addTags":{"brand":"JD Sports","brand:wikidata":"Q6108019","name":"JD Sports","shop":"sports"}},"shop/sports/lifestylesports-6fd3c0":{"name":"Life Style Sports","locationSet":{"include":["ie"]},"geometry":["point","area"],"matchScore":2,"terms":["life style sports"],"tags":{"brand:wikidata":"Q6545495","shop":"sports"},"addTags":{"brand":"Life Style Sports","brand:wikidata":"Q6545495","name":"Life Style Sports","shop":"sports"}},"shop/sports/runnersneed-03b7aa":{"name":"Runners Need","locationSet":{"include":["gb","ie"]},"geometry":["point","area"],"matchScore":2,"terms":["runners need"],"tags":{"brand:wikidata":"Q110549513","shop":"sports"},"addTags":{"brand":"Runners Need","brand:wikidata":"Q110549513","name":"Runners Need","recycling:shoes":"yes","shop":"sports","sport":"running"}},"shop/stationery/smiggle-d7e848":{"name":"Smiggle","locationSet":{"include":["at","gb","hk","ie","my","nz","sg"]},"geometry":["point","area"],"matchScore":2,"terms":["smiggle"],"tags":{"brand:wikidata":"Q7544536","shop":"stationery"},"addTags":{"brand":"Smiggle","brand:wikidata":"Q7544536","name":"Smiggle","shop":"stationery"}},"shop/supermarket/aldi-0d26d7":{"name":"ALDI (ALDI Süd group)","locationSet":{"include":["au","ch","cn","gb","hu","ie","it","us"],"exclude":["de"]},"geometry":["point","area"],"matchScore":2,"terms":["aldi"],"tags":{"brand:wikidata":"Q41171672","shop":"supermarket"},"addTags":{"brand":"ALDI","brand:wikidata":"Q41171672","name":"ALDI","shop":"supermarket"}},"shop/supermarket/centra-b7087f":{"name":"Centra","locationSet":{"include":["gb","ie"]},"geometry":["point","area"],"matchScore":2,"terms":["centra"],"tags":{"brand:wikidata":"Q747678","shop":"supermarket"},"addTags":{"brand":"Centra","brand:wikidata":"Q747678","name":"Centra","shop":"supermarket"}},"shop/supermarket/dunnesstores-b7087f":{"name":"Dunnes Stores","locationSet":{"include":["gb","ie"]},"geometry":["point","area"],"matchScore":2,"terms":["dunnes stores"],"tags":{"brand:wikidata":"Q1266203","shop":"supermarket"},"addTags":{"brand":"Dunnes Stores","brand:wikidata":"Q1266203","name":"Dunnes Stores","shop":"supermarket"}},"shop/supermarket/eurospar-4b5e11":{"name":"Eurospar","locationSet":{"include":["by","bg","cz","hu","pl","md","ro","ru","sk","ua","ax","gg","je","cq","dk","ee","fo","fi","is","ie","im","lv","lt","no","sj","se","gb","al","ad","ba","hr","gi","gr","va","it","mt","me","mk","pt","sm","rs","si","es","xk","at","be","fr","de","li","lu","mc","nl","ch"]},"geometry":["point","area"],"matchScore":2,"terms":["eurospar"],"tags":{"brand:wikidata":"Q12309283","shop":"supermarket"},"addTags":{"brand":"Eurospar","brand:wikidata":"Q12309283","name":"Eurospar","shop":"supermarket"}},"shop/supermarket/londis-23ec32":{"name":"Londis (Ireland)","locationSet":{"include":["ie"]},"geometry":["point","area"],"matchScore":2,"terms":["londis"],"tags":{"brand:wikidata":"Q21015800","shop":"supermarket"},"addTags":{"brand":"Londis","brand:wikidata":"Q21015800","name":"Londis","shop":"supermarket"}},"shop/supermarket/supervalu-b7087f":{"name":"SuperValu","locationSet":{"include":["gb","ie"]},"geometry":["point","area"],"matchScore":2,"terms":["supervalu"],"tags":{"brand:wikidata":"Q7642081","shop":"supermarket"},"addTags":{"brand":"SuperValu","brand:wikidata":"Q7642081","name":"SuperValu","shop":"supermarket"}},"shop/supermarket/tescometro-23ec32":{"name":"Tesco Metro","locationSet":{"include":["ie"]},"geometry":["point","area"],"matchScore":2,"terms":["tesco metro"],"tags":{"brand:wikidata":"Q57551648","shop":"supermarket"},"addTags":{"brand":"Tesco Metro","brand:wikidata":"Q57551648","name":"Tesco Metro","shop":"supermarket"}},"shop/ticket/ticketmaster-9f0b74":{"name":"Ticketmaster","locationSet":{"include":["ae","at","au","be","ca","ch","cy","cz","de","dk","es","fi","fr","gr","ie","it","mx","nl","no","nz","pl","se","sg","tr","tw","uk","za"]},"geometry":["point","area"],"matchScore":2,"terms":["live nation","ticketmaster"],"fields":["name","brand","{shop/ticket}"],"tags":{"brand:wikidata":"Q2609162","shop":"ticket"},"addTags":{"brand":"Ticketmaster","brand:wikidata":"Q2609162","name":"Ticketmaster","shop":"ticket"}},"shop/tool_hire/hsshire-a3cdb3":{"name":"HSS Hire","locationSet":{"include":["gb","ie"]},"geometry":["point","area"],"matchScore":2,"terms":["hss hire"],"tags":{"brand:wikidata":"Q5636000","shop":"tool_hire"},"addTags":{"brand":"HSS Hire","brand:wikidata":"Q5636000","name":"HSS Hire","shop":"tool_hire"}},"shop/tool_hire/loxam-33fef8":{"name":"Loxam","locationSet":{"include":["ae","be","bh","br","ch","co","cz","de","dk","ee","es","fi","fr","gb","ie","it","kw","lt","lu","lv","ma","nl","no","om","pl","pt","qa","sa","se","sk"]},"geometry":["point","area"],"matchScore":2,"terms":["loxam"],"tags":{"brand:wikidata":"Q3264407","shop":"tool_hire"},"addTags":{"brand":"Loxam","brand:wikidata":"Q3264407","name":"Loxam","shop":"tool_hire"}},"shop/toys/smyths-468a3c":{"name":"Smyths","locationSet":{"include":["at","ch","de","gb","ie"]},"geometry":["point","area"],"matchScore":2,"terms":["smyths","smyths toys"],"tags":{"brand:wikidata":"Q7546779","shop":"toys"},"addTags":{"brand":"Smyths","brand:wikidata":"Q7546779","name":"Smyths","shop":"toys"}},"shop/variety_store/dealz-01f38b":{"name":"Dealz","locationSet":{"include":["es","ie","pl"]},"geometry":["point","area"],"matchScore":2,"terms":["dealz"],"tags":{"brand:wikidata":"Q16942585","shop":"variety_store"},"addTags":{"brand":"Dealz","brand:wikidata":"Q16942585","name":"Dealz","shop":"variety_store"}},"shop/variety_store/eurogiant-d3831c":{"name":"EuroGiant","locationSet":{"include":["ie"]},"geometry":["point","area"],"matchScore":2,"terms":["eurogiant"],"tags":{"brand:wikidata":"Q113197596","shop":"variety_store"},"addTags":{"brand":"EuroGiant","brand:wikidata":"Q113197596","name":"EuroGiant","shop":"variety_store"}},"shop/variety_store/flyingtigercopenhagen-37d726":{"name":"Flying Tiger Copenhagen","locationSet":{"include":["at","be","ch","cy","cz","de","dk","ee","es","fi","fr","gb","gr","hu","ie","is","it","jp","kr","lt","lv","mt","nl","no","pl","pt","se","sk"]},"geometry":["point","area"],"matchScore":2,"terms":["flying tiger","flying tiger copenhagen","tgr","tiger"],"tags":{"brand:wikidata":"Q2786319","shop":"variety_store"},"addTags":{"brand":"Flying Tiger Copenhagen","brand:wikidata":"Q2786319","name":"Flying Tiger Copenhagen","shop":"variety_store","short_name":"Flying Tiger"}},"shop/variety_store/mrprice-d3831c":{"name":"Mr. Price","locationSet":{"include":["ie"]},"geometry":["point","area"],"matchScore":2,"terms":["mr. price"],"tags":{"brand:wikidata":"Q113197454","shop":"variety_store"},"addTags":{"brand":"Mr. Price","brand:wikidata":"Q113197454","name":"Mr. Price","shop":"variety_store"}},"shop/variety_store/poundworld-d988bd":{"name":"Poundworld","locationSet":{"include":["gb","ie"]},"geometry":["point","area"],"matchScore":2,"terms":["poundworld"],"searchable":false,"tags":{"brand:wikidata":"Q16967516","shop":"variety_store"},"addTags":{"brand":"Poundworld","brand:wikidata":"Q16967516","name":"Poundworld","shop":"variety_store"}},"tourism/hotel/anantara-e8534c":{"name":"Anantara","locationSet":{"include":["ae","br","cn","es","fr","hu","id","ie","it","kh","mu","mv","my","mz","nl","om","pt","qa","sc","th","tn","vn","zm"]},"geometry":["point","area"],"matchScore":2,"terms":["anantara"],"fields":["name","brand","{tourism/hotel}"],"tags":{"brand:wikidata":"Q112671781","tourism":"hotel"},"addTags":{"brand":"Anantara","brand:wikidata":"Q112671781","name":"Anantara","tourism":"hotel"}},"tourism/hotel/bandbhotel-fc8c2c":{"name":"B&B Hotel","locationSet":{"include":["by","bg","cz","hu","pl","md","ro","ru","sk","ua","ax","gg","je","cq","dk","ee","fo","fi","is","ie","im","lv","lt","no","sj","se","gb","al","ad","ba","hr","gi","gr","va","it","mt","me","mk","pt","sm","rs","si","es","xk","at","be","fr","de","li","lu","mc","nl","ch","br"]},"geometry":["point","area"],"matchScore":2,"terms":["b&b hotels"],"fields":["name","brand","{tourism/hotel}"],"tags":{"brand:wikidata":"Q794939","tourism":"hotel"},"addTags":{"brand":"B&B Hotels","brand:wikidata":"Q794939","name":"B&B Hotel","tourism":"hotel"}},"tourism/hotel/conrad-ee1a43":{"name":"Conrad Hotels & Resorts","locationSet":{"include":["ae","ca","cn","eg","gb","id","ie","in","jp","kr","mv","pf","ph","pt","sa","sg","th","tr","us"]},"geometry":["point","area"],"matchScore":2,"terms":["conrad"],"fields":["name","brand","{tourism/hotel}"],"tags":{"brand:wikidata":"Q855525","tourism":"hotel"},"addTags":{"brand":"Conrad","brand:wikidata":"Q855525","name":"Conrad","tourism":"hotel"}},"tourism/hotel/leonardohotels-0fd00b":{"name":"Leonardo Hotels","locationSet":{"include":["at","be","de","es","gb","hu","ie","it","nl"]},"geometry":["point","area"],"matchScore":2,"terms":["jurys","jurys inn","leonardo hotels"],"fields":["name","brand","{tourism/hotel}"],"tags":{"brand:wikidata":"Q1819101","tourism":"hotel"},"addTags":{"brand":"Leonardo Hotels","brand:wikidata":"Q1819101","name":"Leonardo Hotels","tourism":"hotel"}},"tourism/hotel/locke-34f092":{"name":"Locke","locationSet":{"include":["de","gb","ie"]},"geometry":["point","area"],"matchScore":2,"terms":["locke"],"fields":["name","brand","{tourism/hotel}"],"tags":{"brand:wikidata":"Q111363127","tourism":"hotel"},"addTags":{"brand":"Locke","brand:wikidata":"Q111363127","name":"Locke","tourism":"hotel"}},"tourism/hotel/motelone-046fe6":{"name":"Motel One","locationSet":{"include":["by","bg","cz","hu","pl","md","ro","ru","sk","ua","ax","gg","je","cq","dk","ee","fo","fi","is","ie","im","lv","lt","no","sj","se","gb","al","ad","ba","hr","gi","gr","va","it","mt","me","mk","pt","sm","rs","si","es","xk","at","be","fr","de","li","lu","mc","nl","ch"]},"geometry":["point","area"],"matchScore":2,"terms":["motel one"],"fields":["name","brand","{tourism/hotel}"],"tags":{"brand:wikidata":"Q391080","tourism":"hotel"},"addTags":{"brand":"Motel One","brand:wikidata":"Q391080","name":"Motel One","tourism":"hotel"}},"tourism/hotel/travelodge-dec11e":{"name":"Travelodge (Europe)","locationSet":{"include":["es","gb","ie"]},"geometry":["point","area"],"matchScore":2,"terms":["travelodge"],"fields":["name","brand","{tourism/hotel}"],"tags":{"brand:wikidata":"Q9361374","tourism":"hotel"},"addTags":{"brand":"Travelodge","brand:wikidata":"Q9361374","internet_access":"wlan","internet_access:fee":"customers","internet_access:ssid":"Travelodge WiFi","name":"Travelodge","tourism":"hotel"}},"amenity/bicycle_parking/bikeaway-46d76d":{"name":"BikeAway","locationSet":{"include":["gb","ie"]},"geometry":["point","vertex","area"],"matchScore":2,"terms":["bikeaway"],"tags":{"amenity":"bicycle_parking","operator:wikidata":"Q112136998"},"addTags":{"amenity":"bicycle_parking","bicycle_parking":"lockers","fee":"yes","name":"BikeAway","operator":"BikeAway","operator:wikidata":"Q112136998"}},"amenity/car_sharing/gocar-084dbd":{"name":"GoCar","locationSet":{"include":["ie"]},"geometry":["point","area"],"matchScore":2,"terms":["gocar"],"tags":{"amenity":"car_sharing","operator:wikidata":"Q5574615"},"addTags":{"amenity":"car_sharing","operator":"GoCar","operator:wikidata":"Q5574615"}},"amenity/charging_station/daemobil-ff4fbd":{"name":"da emobil","locationSet":{"include":["at","ch","de","dk","fr","gb","hu","ie","it"]},"geometry":["point","vertex","area"],"matchScore":2,"terms":["da emobil"],"fields":["name","operator","{amenity/charging_station}"],"tags":{"amenity":"charging_station","operator:wikidata":"Q114946167"},"addTags":{"amenity":"charging_station","operator":"da emobil","operator:wikidata":"Q114946167"}},"amenity/charging_station/eon-7f623e":{"name":"E.ON","locationSet":{"include":["by","bg","cz","hu","pl","md","ro","ru","sk","ua","ax","gg","je","cq","dk","ee","fo","fi","is","ie","im","lv","lt","no","sj","se","gb","al","ad","ba","hr","gi","gr","va","it","mt","me","mk","pt","sm","rs","si","es","xk","at","be","fr","de","li","lu","mc","nl","ch"]},"geometry":["point","vertex","area"],"matchScore":2,"terms":["e-on drive","e.on"],"fields":["name","operator","{amenity/charging_station}"],"tags":{"amenity":"charging_station","operator:wikidata":"Q270223"},"addTags":{"amenity":"charging_station","operator":"E.ON","operator:wikidata":"Q270223"}},"amenity/charging_station/easygo-179e3e":{"name":"EasyGo","locationSet":{"include":["ie"]},"geometry":["point","vertex","area"],"matchScore":2,"terms":["easygo"],"fields":["name","operator","{amenity/charging_station}"],"tags":{"amenity":"charging_station","operator:wikidata":"Q110158632"},"addTags":{"amenity":"charging_station","operator":"EasyGo","operator:wikidata":"Q110158632"}},"amenity/charging_station/eo-f6fe0b":{"name":"EO","locationSet":{"include":["gb","ie"]},"geometry":["point","vertex","area"],"matchScore":2,"terms":["eo","eo charging"],"fields":["name","operator","{amenity/charging_station}"],"tags":{"amenity":"charging_station","operator:wikidata":"Q112262159"},"addTags":{"amenity":"charging_station","operator":"EO","operator:wikidata":"Q112262159"}},"amenity/charging_station/esbecars-179e3e":{"name":"ESB ecars","locationSet":{"include":["ie"]},"geometry":["point","vertex","area"],"matchScore":2,"terms":["esb","esb ecars"],"fields":["name","operator","{amenity/charging_station}"],"tags":{"amenity":"charging_station","operator:wikidata":"Q3050566"},"addTags":{"amenity":"charging_station","operator":"ESB ecars","operator:wikidata":"Q3050566"}},"amenity/charging_station/evbox-7f623e":{"name":"EVBox","locationSet":{"include":["by","bg","cz","hu","pl","md","ro","ru","sk","ua","ax","gg","je","cq","dk","ee","fo","fi","is","ie","im","lv","lt","no","sj","se","gb","al","ad","ba","hr","gi","gr","va","it","mt","me","mk","pt","sm","rs","si","es","xk","at","be","fr","de","li","lu","mc","nl","ch"]},"geometry":["point","vertex","area"],"matchScore":2,"terms":["evbox"],"fields":["name","operator","{amenity/charging_station}"],"tags":{"amenity":"charging_station","operator:wikidata":"Q28406392"},"addTags":{"amenity":"charging_station","operator":"EVBox","operator:wikidata":"Q28406392"}},"amenity/charging_station/gocharge-179e3e":{"name":"GOcharge","locationSet":{"include":["ie"]},"geometry":["point","vertex","area"],"matchScore":2,"terms":["gocharge"],"fields":["name","operator","{amenity/charging_station}"],"tags":{"amenity":"charging_station","operator:wikidata":"Q111724598"},"addTags":{"amenity":"charging_station","operator":"GOcharge","operator:wikidata":"Q111724598"}},"amenity/charging_station/qpark-7f623e":{"name":"Q-Park","locationSet":{"include":["by","bg","cz","hu","pl","md","ro","ru","sk","ua","ax","gg","je","cq","dk","ee","fo","fi","is","ie","im","lv","lt","no","sj","se","gb","al","ad","ba","hr","gi","gr","va","it","mt","me","mk","pt","sm","rs","si","es","xk","at","be","fr","de","li","lu","mc","nl","ch"]},"geometry":["point","vertex","area"],"matchScore":2,"terms":["q-park"],"fields":["name","operator","{amenity/charging_station}"],"tags":{"amenity":"charging_station","operator:wikidata":"Q1127798"},"addTags":{"amenity":"charging_station","operator":"Q-Park","operator:wikidata":"Q1127798"}},"amenity/clinic/healthserviceexecutive-049286":{"name":"Health Service Executive","locationSet":{"include":["ie"]},"geometry":["point","area"],"matchScore":2,"terms":["health service executive","hse"],"fields":["name","operator","{amenity/clinic}"],"reference":{"key":"amenity","value":"clinic"},"tags":{"amenity":"clinic","operator:wikidata":"Q5690681"},"addTags":{"amenity":"clinic","healthcare":"clinic","operator":"Health Service Executive","operator:short":"HSE","operator:wikidata":"Q5690681"}},"amenity/courthouse/courtsoftherepublicofireland-920af5":{"name":"Courts of the Republic of Ireland","locationSet":{"include":["ie"]},"geometry":["point","area"],"matchScore":2,"terms":["courts of the republic of ireland","courts service of ireland","cri"],"tags":{"amenity":"courthouse","operator:wikidata":"Q204829"},"addTags":{"amenity":"courthouse","operator":"Courts of the Republic of Ireland","operator:type":"government","operator:wikidata":"Q204829"}},"amenity/fire_station/dublinfirebrigade-85eae0":{"name":"Dublin Fire Brigade","locationSet":{"include":["ie"]},"geometry":["point","area"],"matchScore":2,"terms":["dublin fire brigade"],"tags":{"amenity":"fire_station","operator:wikidata":"Q5310892"},"addTags":{"amenity":"fire_station","operator":"Dublin Fire Brigade","operator:wikidata":"Q5310892"}},"amenity/hospital/healthserviceexecutive-467fad":{"name":"Health Service Executive","locationSet":{"include":["ie"]},"geometry":["area","point"],"matchScore":2,"terms":["health service executive","hse"],"fields":["name","operator","{amenity/hospital}"],"reference":{"key":"amenity","value":"hospital"},"tags":{"amenity":"hospital","operator:wikidata":"Q5690681"},"addTags":{"amenity":"hospital","healthcare":"hospital","operator":"Health Service Executive","operator:short":"HSE","operator:wikidata":"Q5690681"}},"amenity/library/clarecountylibrary-283172":{"name":"Clare County Library","locationSet":{"include":["ie"]},"geometry":["point","area"],"matchScore":2,"terms":["clare county library","leabharlann chontae an chláir"],"tags":{"amenity":"library","operator:wikidata":"Q56033590"},"addTags":{"amenity":"library","operator":"Clare County Library","operator:ga":"Leabharlann Chontae an Chláir","operator:wikidata":"Q56033590"}},"amenity/library/dublincitycouncil-f8622f":{"name":"Dublin City Council","locationSet":{"include":["ie"]},"geometry":["point","area"],"matchScore":2,"terms":["comhairle cathrach bhaile átha cliath","dublin city council","dublin corporation"],"tags":{"amenity":"library","operator:wikidata":"Q4810766"},"addTags":{"amenity":"library","operator":"Dublin City Council","operator:ga":"Comhairle Cathrach Bhaile Átha Cliath","operator:wikidata":"Q4810766"}},"amenity/library/dunlaoghairerathdowncountycouncil-f8622f":{"name":"Dún Laoghaire-Rathdown County Council","locationSet":{"include":["ie"]},"geometry":["point","area"],"matchScore":2,"terms":["comhairle contae dhún laoghaire\u2013ráth an dúin","dún laoghaire-rathdown county council"],"tags":{"amenity":"library","operator:wikidata":"Q5320425"},"addTags":{"amenity":"library","operator":"Dún Laoghaire-Rathdown County Council","operator:ga":"Comhairle Contae Dhún Laoghaire\u2013Ráth an Dúin","operator:wikidata":"Q5320425"}},"amenity/parking/apcoaparking-e752ad":{"name":"Apcoa Parking","locationSet":{"include":["at","be","ch","de","dk","gb","ie","it","nl","no","pl","se"]},"geometry":["area","point","vertex"],"matchScore":2,"terms":["apcoa parking"],"fields":["name","operator","{amenity/parking}"],"tags":{"amenity":"parking","operator:wikidata":"Q296108"},"addTags":{"amenity":"parking","operator":"APCOA Parking","operator:wikidata":"Q296108"}},"amenity/parking/qpark-99dc74":{"name":"Q-Park","locationSet":{"include":["be","de","dk","fr","gb","ie","nl"]},"geometry":["area","point","vertex"],"matchScore":2,"terms":["q-park"],"fields":["name","operator","{amenity/parking}"],"tags":{"amenity":"parking","operator:wikidata":"Q1127798"},"addTags":{"amenity":"parking","brand":"Q-Park","brand:wikidata":"Q1127798","fee":"yes","operator":"Q-Park","operator:wikidata":"Q1127798"}},"amenity/police/gardasiochana-82aa2a":{"name":"Garda Síochána","locationSet":{"include":["ie"]},"geometry":["point","area"],"matchScore":2,"terms":["an garda síochána","garda síochána"],"tags":{"amenity":"police","operator:wikidata":"Q1366959"},"addTags":{"amenity":"police","operator":"Garda Síochána","operator:wikidata":"Q1366959"}},"amenity/post_box/anpost-389524":{"name":"An Post","locationSet":{"include":["ie"]},"geometry":["point","vertex"],"matchScore":2,"terms":["an post"],"tags":{"amenity":"post_box","operator:wikidata":"Q482490"},"addTags":{"amenity":"post_box","operator":"An Post","operator:wikidata":"Q482490"}},"amenity/post_depot/anpost-2f7b40":{"name":"An Post","locationSet":{"include":["ie"]},"geometry":["point","area"],"matchScore":2,"terms":["an post"],"fields":["name","operator","{amenity/post_depot}"],"tags":{"amenity":"post_depot","operator:wikidata":"Q482490"},"addTags":{"amenity":"post_depot","name":"An Post","operator":"An Post","operator:type":"public","operator:wikidata":"Q482490"}},"amenity/post_office/anpost-a056d1":{"name":"An Post","locationSet":{"include":["ie"]},"geometry":["point","area"],"matchScore":2,"terms":["an post"],"fields":["name","operator","{amenity/post_office}"],"tags":{"amenity":"post_office","operator:wikidata":"Q482490"},"addTags":{"amenity":"post_office","operator":"An Post","operator:wikidata":"Q482490"}},"amenity/prison/irishprisonservice-324cac":{"name":"Irish Prison Service","locationSet":{"include":["ie"]},"geometry":["area","point"],"matchScore":2,"terms":["ips","irish prison service"],"fields":["name","operator","{amenity/prison}"],"tags":{"amenity":"prison","operator:wikidata":"Q6071108"},"addTags":{"amenity":"prison","operator":"Irish Prison Service","operator:type":"government","operator:wikidata":"Q6071108"}},"amenity/school/churchofireland-1a051e":{"name":"Church of Ireland","locationSet":{"include":["ie"]},"geometry":["area","point"],"matchScore":2,"terms":["church of ireland"],"tags":{"amenity":"school","operator:wikidata":"Q875668"},"addTags":{"amenity":"school","operator":"Church of Ireland","operator:type":"religious","operator:wikidata":"Q875668"}},"amenity/school/educatetogether-1a051e":{"name":"Educate Together","locationSet":{"include":["ie"]},"geometry":["area","point"],"matchScore":2,"terms":["educate together"],"tags":{"amenity":"school","operator:wikidata":"Q5340837"},"addTags":{"amenity":"school","operator":"Educate Together","operator:wikidata":"Q5340837"}},"amenity/social_facility/healthserviceexecutive-b5f0b6":{"name":"Health Service Executive","locationSet":{"include":["ie"]},"geometry":["point","area"],"matchScore":2,"terms":["health service executive","hse"],"tags":{"amenity":"social_facility","operator:wikidata":"Q5690681"},"addTags":{"amenity":"social_facility","operator":"Health Service Executive","operator:short":"HSE","operator:wikidata":"Q5690681"}},"amenity/telephone/eir-c8bb0f":{"name":"Eir","locationSet":{"include":["ie"]},"geometry":["point","vertex"],"matchScore":2,"terms":["eir"],"fields":["name","operator","{amenity/telephone}"],"tags":{"amenity":"telephone","operator:wikidata":"Q3049473"},"addTags":{"amenity":"telephone","operator":"Eir","operator:wikidata":"Q3049473"}},"emergency/ambulance_station/hsenationalambulanceservice-55b9ac":{"name":"HSE National Ambulance Service","locationSet":{"include":["ie"]},"geometry":["point","area"],"matchScore":2,"terms":["hse national ambulance service"],"tags":{"emergency":"ambulance_station","operator:wikidata":"Q5635955"},"addTags":{"emergency":"ambulance_station","operator":"HSE National Ambulance Service","operator:wikidata":"Q5635955"}},"emergency/ambulance_station/stjohnambulance-55b9ac":{"name":"St John Ambulance (Ireland)","locationSet":{"include":["ie"]},"geometry":["point","area"],"matchScore":2,"terms":["st john ambulance"],"tags":{"emergency":"ambulance_station","operator:wikidata":"Q7588873"},"addTags":{"emergency":"ambulance_station","operator":"St John Ambulance","operator:wikidata":"Q7588873"}},"emergency/lifeboat_station/royalnationallifeboatinstitution-0db384":{"name":"Royal National Lifeboat Institution","locationSet":{"include":["gb","ie"]},"geometry":["point","area"],"matchScore":2,"terms":["rnli","royal national lifeboat institution"],"tags":{"emergency":"lifeboat_station","operator:wikidata":"Q2166873"},"addTags":{"emergency":"lifeboat_station","operator":"Royal National Lifeboat Institution","operator:short":"RNLI","operator:wikidata":"Q2166873"}},"emergency/lifeguard/royalnationallifeboatinstitution-d799df":{"name":"Royal National Lifeboat Institution","locationSet":{"include":["gg","je","cq","gb","ie","im"]},"geometry":["point","area"],"matchScore":2,"terms":["rnli","royal national lifeboat institution"],"tags":{"emergency":"lifeguard","operator:wikidata":"Q2166873"},"addTags":{"emergency":"lifeguard","operator":"Royal National Lifeboat Institution","operator:short":"RNLI","operator:wikidata":"Q2166873"}},"emergency/phone/tii-ee7ba4":{"name":"TII","locationSet":{"include":["ie"]},"geometry":["point","vertex"],"matchScore":2,"terms":["bonneagar iompair éireann","tii","transport infrastructure ireland"],"tags":{"emergency":"phone","operator:wikidata":"Q26838200"},"addTags":{"emergency":"phone","operator":"TII","operator:type":"government","operator:wikidata":"Q26838200"}},"man_made/pipeline/gasnetworksireland-d9b47c":{"name":"Gas Networks Ireland","locationSet":{"include":["ie"]},"geometry":["line"],"matchScore":2,"terms":["gas networks ireland"],"tags":{"man_made":"pipeline","operator:wikidata":"Q116192448"},"addTags":{"man_made":"pipeline","operator":"Gas Networks Ireland","operator:wikidata":"Q116192448"}},"man_made/pipeline/irishwater-d9b47c":{"name":"Irish Water","locationSet":{"include":["ie"]},"geometry":["line"],"matchScore":2,"terms":["irish water","uisce éireann"],"tags":{"man_made":"pipeline","operator:wikidata":"Q18352148"},"addTags":{"man_made":"pipeline","operator":"Irish Water","operator:ga":"Uisce Éireann","operator:wikidata":"Q18352148"}},"man_made/wastewater_plant/irishwater-cd7865":{"name":"Irish Water","locationSet":{"include":["ie"]},"geometry":["point","area"],"matchScore":2,"terms":["irish water","uisce éireann"],"tags":{"man_made":"wastewater_plant","operator:wikidata":"Q18352148"},"addTags":{"man_made":"wastewater_plant","operator":"Irish Water","operator:ga":"Uisce Éireann","operator:wikidata":"Q18352148"}},"man_made/water_works/irishwater-7da298":{"name":"Irish Water","locationSet":{"include":["ie"]},"geometry":["point","area"],"matchScore":2,"terms":["irish water","uisce éireann"],"tags":{"man_made":"water_works","operator:wikidata":"Q18352148"},"addTags":{"man_made":"water_works","operator":"Irish Water","operator:ga":"Uisce Éireann","operator:wikidata":"Q18352148"}},"natural/water/irishwater-48be47":{"name":"Irish Water","locationSet":{"include":["ie"]},"geometry":["area"],"matchScore":2,"terms":["irish water","uisce éireann"],"tags":{"natural":"water","operator:wikidata":"Q18352148"},"addTags":{"natural":"water","operator":"Irish Water","operator:ga":"Uisce Éireann","operator:wikidata":"Q18352148","water":"reservoir"}},"office/energy_supplier/naturgy-e15d8a":{"name":"Naturgy","locationSet":{"include":["ar","au","be","br","cl","cn","cr","de","do","dz","eg","es","fr","gb","ie","in","jm","jo","jp","lu","ma","mx","nl","om","pa","pe","pk","pr","pt","sg"]},"geometry":["point","area"],"matchScore":2,"terms":["naturgy"],"tags":{"office":"energy_supplier","operator:wikidata":"Q474690"},"addTags":{"name":"Naturgy","office":"energy_supplier","operator":"Naturgy","operator:wikidata":"Q474690"}},"office/government/healthserviceexecutive-7f4a2e":{"name":"Health Service Executive","locationSet":{"include":["ie"]},"geometry":["point","area"],"matchScore":2,"terms":["health service executive"],"fields":["name","operator","{office/government}"],"tags":{"office":"government","operator:wikidata":"Q5690681"},"addTags":{"office":"government","operator":"Health Service Executive","operator:wikidata":"Q5690681"}},"pipeline/substation/gasnetworksireland-00086a":{"name":"Gas Networks Ireland","locationSet":{"include":["ie"]},"geometry":["area","point"],"matchScore":2,"terms":["gas networks ireland"],"tags":{"operator:wikidata":"Q116192448","pipeline":"substation"},"addTags":{"operator":"Gas Networks Ireland","operator:wikidata":"Q116192448","pipeline":"substation"}},"pipeline/substation/irishwater-00086a":{"name":"Irish Water","locationSet":{"include":["ie"]},"geometry":["area","point"],"matchScore":2,"terms":["irish water","uisce éireann"],"tags":{"operator:wikidata":"Q18352148","pipeline":"substation"},"addTags":{"operator":"Irish Water","operator:ga":"Uisce Éireann","operator:wikidata":"Q18352148","pipeline":"substation"}},"power/generator/bordgaisenergy-1f8ba0":{"name":"Bord Gáis Energy","locationSet":{"include":["ie"]},"geometry":["point","vertex","area"],"matchScore":2,"terms":["bord gáis energy","bord gáis energy limited"],"tags":{"operator:wikidata":"Q23038143","power":"generator"},"addTags":{"operator":"Bord Gáis Energy","operator:wikidata":"Q23038143","power":"generator"}},"power/generator/bordnamona-1f8ba0":{"name":"Bord na Móna","locationSet":{"include":["ie"]},"geometry":["point","vertex","area"],"matchScore":2,"terms":["bord na móna","bord na móna powergen limited"],"tags":{"operator:wikidata":"Q893380","power":"generator"},"addTags":{"operator":"Bord na Móna","operator:wikidata":"Q893380","power":"generator"}},"power/generator/coillte-1f8ba0":{"name":"Coillte","locationSet":{"include":["ie"]},"geometry":["point","vertex","area"],"matchScore":2,"terms":["coillte"],"tags":{"operator:wikidata":"Q5141484","power":"generator"},"addTags":{"operator":"Coillte","operator:wikidata":"Q5141484","power":"generator"}},"power/generator/energia-1f8ba0":{"name":"Energia","locationSet":{"include":["ie"]},"geometry":["point","vertex","area"],"matchScore":2,"terms":["energia"],"tags":{"operator:wikidata":"Q7934801","power":"generator"},"addTags":{"operator":"Energia","operator:wikidata":"Q7934801","power":"generator"}},"power/generator/esbgenerationandwholesalemarkets-8a255d":{"name":"ESB Generation and Wholesale Markets","locationSet":{"include":["gb","ie"]},"geometry":["point","vertex","area"],"matchScore":2,"terms":["esb generation and wholesale markets"],"tags":{"operator:wikidata":"Q3050566","power":"generator"},"addTags":{"operator":"ESB Generation and Wholesale Markets","operator:wikidata":"Q3050566","power":"generator"}},"power/generator/greencoatrenewables-1f8ba0":{"name":"Greencoat Renewables","locationSet":{"include":["ie"]},"geometry":["point","vertex","area"],"matchScore":2,"terms":["greencoat renewables"],"tags":{"operator:wikidata":"Q97354365","power":"generator"},"addTags":{"operator":"Greencoat Renewables","operator:wikidata":"Q97354365","power":"generator"}},"power/generator/innogy-16c9d0":{"name":"Innogy","locationSet":{"include":["by","bg","cz","hu","pl","md","ro","ru","sk","ua","ax","gg","je","cq","dk","ee","fo","fi","is","ie","im","lv","lt","no","sj","se","gb","al","ad","ba","hr","gi","gr","va","it","mt","me","mk","pt","sm","rs","si","es","xk","at","be","fr","de","li","lu","mc","nl","ch"]},"geometry":["point","vertex","area"],"matchScore":2,"terms":["innogy"],"tags":{"operator:wikidata":"Q2124721","power":"generator"},"addTags":{"operator":"Innogy","operator:wikidata":"Q2124721","power":"generator"}},"power/generator/rwe-16c9d0":{"name":"RWE","locationSet":{"include":["by","bg","cz","hu","pl","md","ro","ru","sk","ua","ax","gg","je","cq","dk","ee","fo","fi","is","ie","im","lv","lt","no","sj","se","gb","al","ad","ba","hr","gi","gr","va","it","mt","me","mk","pt","sm","rs","si","es","xk","at","be","fr","de","li","lu","mc","nl","ch"]},"geometry":["point","vertex","area"],"matchScore":2,"terms":["rwe"],"tags":{"operator:wikidata":"Q138133","power":"generator"},"addTags":{"operator":"RWE","operator:wikidata":"Q138133","power":"generator"}},"power/generator/sserenewables-8d3bcf":{"name":"SSE Renewables","locationSet":{"include":["gb","ie"]},"geometry":["point","vertex","area"],"matchScore":2,"terms":["sse renewables"],"tags":{"operator:wikidata":"Q7392992","power":"generator"},"addTags":{"operator":"SSE Renewables","operator:wikidata":"Q7392992","power":"generator"}},"power/generator/ssethermal-8d3bcf":{"name":"SSE Thermal","locationSet":{"include":["gb","ie"]},"geometry":["point","vertex","area"],"matchScore":2,"terms":["sse thermal"],"tags":{"operator:wikidata":"Q105078879","power":"generator"},"addTags":{"operator":"SSE Thermal","operator:wikidata":"Q105078879","power":"generator"}},"power/generator/statkraft-16c9d0":{"name":"Statkraft","locationSet":{"include":["by","bg","cz","hu","pl","md","ro","ru","sk","ua","ax","gg","je","cq","dk","ee","fo","fi","is","ie","im","lv","lt","no","sj","se","gb","al","ad","ba","hr","gi","gr","va","it","mt","me","mk","pt","sm","rs","si","es","xk","at","be","fr","de","li","lu","mc","nl","ch"]},"geometry":["point","vertex","area"],"matchScore":2,"terms":["statkraft"],"tags":{"operator:wikidata":"Q1681145","power":"generator"},"addTags":{"operator":"Statkraft","operator:wikidata":"Q1681145","power":"generator"}},"power/generator/uniper-16c9d0":{"name":"Uniper","locationSet":{"include":["by","bg","cz","hu","pl","md","ro","ru","sk","ua","ax","gg","je","cq","dk","ee","fo","fi","is","ie","im","lv","lt","no","sj","se","gb","al","ad","ba","hr","gi","gr","va","it","mt","me","mk","pt","sm","rs","si","es","xk","at","be","fr","de","li","lu","mc","nl","ch"]},"geometry":["point","vertex","area"],"matchScore":2,"terms":["uniper"],"tags":{"operator:wikidata":"Q19839259","power":"generator"},"addTags":{"operator":"Uniper","operator:wikidata":"Q19839259","power":"generator"}},"power/generator/wpo-16c9d0":{"name":"WPO","locationSet":{"include":["by","bg","cz","hu","pl","md","ro","ru","sk","ua","ax","gg","je","cq","dk","ee","fo","fi","is","ie","im","lv","lt","no","sj","se","gb","al","ad","ba","hr","gi","gr","va","it","mt","me","mk","pt","sm","rs","si","es","xk","at","be","fr","de","li","lu","mc","nl","ch"]},"geometry":["point","vertex","area"],"matchScore":2,"terms":["wpo"],"tags":{"operator:wikidata":"Q64755627","power":"generator"},"addTags":{"operator":"WPO","operator:wikidata":"Q64755627","power":"generator"}},"power/line/eirgrid-1057b0":{"name":"EirGrid","locationSet":{"include":["ie"]},"geometry":["line"],"matchScore":2,"terms":["eirgrid"],"tags":{"operator:wikidata":"Q1310503","power":"line"},"addTags":{"operator":"EirGrid","operator:wikidata":"Q1310503","power":"line"}},"power/line/esbnetworks-1057b0":{"name":"ESB Networks","locationSet":{"include":["ie"]},"geometry":["line"],"matchScore":2,"terms":["esb","esb networks"],"tags":{"operator:wikidata":"Q115224013","power":"line"},"addTags":{"operator":"ESB Networks","operator:wikidata":"Q115224013","power":"line"}},"power/minor_line/eirgrid-9084ae":{"name":"EirGrid","locationSet":{"include":["ie"]},"geometry":["line"],"matchScore":2,"terms":["eirgrid"],"tags":{"operator:wikidata":"Q1310503","power":"minor_line"},"addTags":{"operator":"EirGrid","operator:wikidata":"Q1310503","power":"minor_line"}},"power/minor_line/esbnetworks-9084ae":{"name":"ESB Networks","locationSet":{"include":["ie"]},"geometry":["line"],"matchScore":2,"terms":["esb","esb networks"],"tags":{"operator:wikidata":"Q115224013","power":"minor_line"},"addTags":{"operator":"ESB Networks","operator:wikidata":"Q115224013","power":"minor_line"}},"power/plant/energia-d7adcb":{"name":"Energia","locationSet":{"include":["gb","ie"]},"geometry":["area"],"matchScore":2,"terms":["energia"],"tags":{"operator:wikidata":"Q7934801","power":"plant"},"addTags":{"operator":"Energia","operator:wikidata":"Q7934801","power":"plant"}},"power/plant/esbgenerationandwholesalemarkets-d7adcb":{"name":"ESB Generation and Wholesale Markets","locationSet":{"include":["gb","ie"]},"geometry":["area"],"matchScore":2,"terms":["esb generation and wholesale markets"],"tags":{"operator:wikidata":"Q3050566","power":"plant"},"addTags":{"operator":"ESB Generation and Wholesale Markets","operator:wikidata":"Q3050566","power":"plant"}},"power/plant/sserenewables-6adf37":{"name":"SSE Renewables","locationSet":{"include":["gb","ie"]},"geometry":["area"],"matchScore":2,"terms":["scottish & southern energy","sse renewables"],"tags":{"operator:wikidata":"Q7392992","power":"plant"},"addTags":{"operator":"SSE Renewables","operator:wikidata":"Q7392992","power":"plant"}},"power/plant/ssethermal-6adf37":{"name":"SSE Thermal","locationSet":{"include":["gb","ie"]},"geometry":["area"],"matchScore":2,"terms":["scottish & southern energy","sse thermal"],"tags":{"operator:wikidata":"Q105078879","power":"plant"},"addTags":{"operator":"SSE Thermal","operator:wikidata":"Q105078879","power":"plant"}},"power/pole/eirgrid-90059a":{"name":"EirGrid","locationSet":{"include":["ie"]},"geometry":["point","vertex"],"matchScore":2,"terms":["eirgrid"],"tags":{"operator:wikidata":"Q1310503","power":"pole"},"addTags":{"operator":"EirGrid","operator:wikidata":"Q1310503","power":"pole"}},"power/pole/esbnetworks-90059a":{"name":"ESB Networks","locationSet":{"include":["ie"]},"geometry":["point","vertex"],"matchScore":2,"terms":["esb","esb networks"],"tags":{"operator:wikidata":"Q115224013","power":"pole"},"addTags":{"operator":"ESB Networks","operator:wikidata":"Q115224013","power":"pole"}},"power/substation/eirgrid-705ceb":{"name":"EirGrid","locationSet":{"include":["ie"]},"geometry":["area","point"],"matchScore":2,"terms":["eirgrid"],"tags":{"operator:wikidata":"Q1310503","power":"substation"},"addTags":{"operator":"EirGrid","operator:wikidata":"Q1310503","power":"substation"}},"power/substation/esbnetworks-705ceb":{"name":"ESB Networks","locationSet":{"include":["ie"]},"geometry":["area","point"],"matchScore":2,"terms":["esb","esb networks"],"tags":{"operator:wikidata":"Q115224013","power":"substation"},"addTags":{"operator":"ESB Networks","operator:wikidata":"Q115224013","power":"substation"}},"power/substation/irishrail-705ceb":{"name":"Irish Rail","locationSet":{"include":["ie"]},"geometry":["area","point"],"matchScore":2,"terms":["iarnród éireann","irish rail"],"tags":{"operator:wikidata":"Q73043","power":"substation"},"addTags":{"operator":"Irish Rail","operator:en":"Irish Rail","operator:ga":"Iarnród Éireann","operator:wikidata":"Q73043","power":"substation"}},"power/substation/luastransdevdublinlightraillimited-705ceb":{"name":"Luas - Transdev Dublin Light Rail Limited","locationSet":{"include":["ie"]},"geometry":["area","point"],"matchScore":2,"terms":["luas - transdev dublin light rail limited"],"tags":{"operator:wikidata":"Q612560","power":"substation"},"addTags":{"operator":"Luas - Transdev Dublin Light Rail Limited","operator:wikidata":"Q612560","power":"substation"}},"power/tower/eirgrid-ace1ec":{"name":"EirGrid","locationSet":{"include":["ie"]},"geometry":["point","vertex"],"matchScore":2,"terms":["eirgrid"],"tags":{"operator:wikidata":"Q1310503","power":"tower"},"addTags":{"operator":"EirGrid","operator:wikidata":"Q1310503","power":"tower"}},"power/tower/esbnetworks-ace1ec":{"name":"ESB Networks","locationSet":{"include":["ie"]},"geometry":["point","vertex"],"matchScore":2,"terms":["esb","esb networks"],"tags":{"operator:wikidata":"Q115224013","power":"tower"},"addTags":{"operator":"ESB Networks","operator:wikidata":"Q115224013","power":"tower"}},"power/transformer/eirgrid-fddd7d":{"name":"EirGrid","locationSet":{"include":["ie"]},"geometry":["point","vertex"],"matchScore":2,"terms":["eirgrid"],"tags":{"operator:wikidata":"Q1310503","power":"transformer"},"addTags":{"operator":"EirGrid","operator:wikidata":"Q1310503","power":"transformer"}},"power/transformer/esbnetworks-fddd7d":{"name":"ESB Networks","locationSet":{"include":["ie"]},"geometry":["point","vertex"],"matchScore":2,"terms":["esb","esb networks"],"tags":{"operator:wikidata":"Q115224013","power":"transformer"},"addTags":{"operator":"ESB Networks","operator:wikidata":"Q115224013","power":"transformer"}},"power/transformer/irishrail-fddd7d":{"name":"Irish Rail","locationSet":{"include":["ie"]},"geometry":["point","vertex"],"matchScore":2,"terms":["iarnród éireann","irish rail"],"tags":{"operator:wikidata":"Q73043","power":"transformer"},"addTags":{"operator":"Irish Rail","operator:en":"Irish Rail","operator:ga":"Iarnród Éireann","operator:wikidata":"Q73043","power":"transformer"}},"power/transformer/luastransdevdublinlightraillimited-fddd7d":{"name":"Luas - Transdev Dublin Light Rail Limited","locationSet":{"include":["ie"]},"geometry":["point","vertex"],"matchScore":2,"terms":["luas - transdev dublin light rail limited"],"tags":{"operator:wikidata":"Q612560","power":"transformer"},"addTags":{"operator":"Luas - Transdev Dublin Light Rail Limited","operator:wikidata":"Q612560","power":"transformer"}},"type/route/power/eirgrid-0db0d4":{"name":"EirGrid","locationSet":{"include":["ie"]},"geometry":["relation"],"matchScore":2,"terms":["eirgrid"],"reference":{"key":"route","value":"power"},"tags":{"operator:wikidata":"Q1310503","route":"power","type":"route"},"addTags":{"operator":"EirGrid","operator:wikidata":"Q1310503","route":"power","type":"route"}},"type/route/power/esbnetworks-0db0d4":{"name":"ESB Networks","locationSet":{"include":["ie"]},"geometry":["relation"],"matchScore":2,"terms":["esb","esb networks"],"reference":{"key":"route","value":"power"},"tags":{"operator:wikidata":"Q115224013","route":"power","type":"route"},"addTags":{"operator":"ESB Networks","operator:wikidata":"Q115224013","route":"power","type":"route"}},"telecom/exchange/eir-09e566":{"name":"Eir","locationSet":{"include":["ie"]},"geometry":["point","area"],"matchScore":2,"terms":["eir"],"fields":["name","operator","{telecom/exchange}"],"tags":{"operator:wikidata":"Q3049473","telecom":"exchange"},"addTags":{"operator":"Eir","operator:wikidata":"Q3049473","telecom":"exchange"}},"telecom/exchange/interoute-58ec5d":{"name":"Interoute","locationSet":{"include":["by","bg","cz","hu","pl","md","ro","ru","sk","ua","ax","gg","je","cq","dk","ee","fo","fi","is","ie","im","lv","lt","no","sj","se","gb","al","ad","ba","hr","gi","gr","va","it","mt","me","mk","pt","sm","rs","si","es","xk","at","be","fr","de","li","lu","mc","nl","ch"]},"geometry":["point","area"],"matchScore":2,"terms":["interoute"],"fields":["name","operator","{telecom/exchange}"],"tags":{"operator:wikidata":"Q1668090","telecom":"exchange"},"addTags":{"operator":"Interoute","operator:wikidata":"Q1668090","telecom":"exchange"}},"telecom/exchange/zayo-cae76b":{"name":"Zayo","locationSet":{"include":["fx","gb","ie","us"]},"geometry":["point","area"],"matchScore":2,"terms":["zayo"],"fields":["name","operator","{telecom/exchange}"],"tags":{"operator:wikidata":"Q8067574","telecom":"exchange"},"addTags":{"operator":"Zayo","operator:wikidata":"Q8067574","telecom":"exchange"}},"public_transport/platform/bus_point/aircoach-e9966f":{"name":"Aircoach","locationSet":{"include":["gb","ie"]},"geometry":["point","vertex"],"matchScore":2,"terms":["aircoach"],"reference":{"key":"public_transport","value":"platform"},"tags":{"bus":"yes","network:wikidata":"Q4698488","public_transport":"platform"},"addTags":{"bus":"yes","highway":"bus_stop","network":"Aircoach","network:wikidata":"Q4698488","public_transport":"platform"}},"public_transport/platform/bus_point/dublinbus-7c4ebb":{"name":"Dublin Bus","locationSet":{"include":["ie"]},"geometry":["point","vertex"],"matchScore":2,"terms":["dublin bus"],"reference":{"key":"public_transport","value":"platform"},"tags":{"bus":"yes","network:wikidata":"Q1263090","public_transport":"platform"},"addTags":{"bus":"yes","highway":"bus_stop","network":"Dublin Bus","network:wikidata":"Q1263090","public_transport":"platform"}},"public_transport/platform/bus_point/expressway-7c4ebb":{"name":"Expressway","locationSet":{"include":["ie"]},"geometry":["point","vertex"],"matchScore":2,"terms":["bus éireann","bus éireann expressway","expressway"],"reference":{"key":"public_transport","value":"platform"},"tags":{"bus":"yes","network:wikidata":"Q111326049","public_transport":"platform"},"addTags":{"bus":"yes","highway":"bus_stop","network":"Expressway","network:wikidata":"Q111326049","operator":"Bus Éireann","operator:wikidata":"Q1017233","public_transport":"platform"}},"public_transport/platform/bus_point/irishcitylink-7c4ebb":{"name":"Irish Citylink","locationSet":{"include":["ie"]},"geometry":["point","vertex"],"matchScore":2,"terms":["irish citylink"],"reference":{"key":"public_transport","value":"platform"},"tags":{"bus":"yes","network:wikidata":"Q15712847","public_transport":"platform"},"addTags":{"bus":"yes","highway":"bus_stop","network":"Irish Citylink","network:wikidata":"Q15712847","public_transport":"platform"}},"public_transport/platform/bus_point/transportforireland-7c4ebb":{"name":"Transport for Ireland","locationSet":{"include":["ie"]},"geometry":["point","vertex"],"matchScore":2,"terms":["transport for ireland"],"reference":{"key":"public_transport","value":"platform"},"tags":{"bus":"yes","network:wikidata":"Q17100681","public_transport":"platform"},"addTags":{"bus":"yes","highway":"bus_stop","network":"Transport for Ireland","network:wikidata":"Q17100681","public_transport":"platform"}},"type/route/bus/aircoach-583f22":{"name":"Aircoach","locationSet":{"include":["gb","ie"]},"geometry":["relation"],"matchScore":2,"terms":["aircoach"],"reference":{"key":"route","value":"bus"},"tags":{"network:wikidata":"Q4698488","route":"bus","type":"route"},"addTags":{"network":"Aircoach","network:wikidata":"Q4698488","route":"bus","type":"route"}},"type/route/bus/dublinbus-23677d":{"name":"Dublin Bus","locationSet":{"include":["ie"]},"geometry":["relation"],"matchScore":2,"terms":["dublin bus"],"reference":{"key":"route","value":"bus"},"tags":{"network:wikidata":"Q1263090","route":"bus","type":"route"},"addTags":{"network":"Dublin Bus","network:wikidata":"Q1263090","route":"bus","type":"route"}},"type/route/bus/expressway-23677d":{"name":"Expressway","locationSet":{"include":["ie"]},"geometry":["relation"],"matchScore":2,"terms":["bus éireann","bus éireann expressway","expressway"],"reference":{"key":"route","value":"bus"},"tags":{"network:wikidata":"Q111326049","route":"bus","type":"route"},"addTags":{"network":"Expressway","network:wikidata":"Q111326049","operator":"Bus Éireann","operator:wikidata":"Q1017233","route":"bus","type":"route"}},"type/route/bus/irishcitylink-23677d":{"name":"Irish Citylink","locationSet":{"include":["ie"]},"geometry":["relation"],"matchScore":2,"terms":["irish citylink"],"reference":{"key":"route","value":"bus"},"tags":{"network:wikidata":"Q15712847","route":"bus","type":"route"},"addTags":{"network":"Irish Citylink","network:wikidata":"Q15712847","route":"bus","type":"route"}},"type/route/bus/transportforireland-23677d":{"name":"Transport for Ireland","locationSet":{"include":["ie"]},"geometry":["relation"],"matchScore":2,"terms":["transport for ireland"],"reference":{"key":"route","value":"bus"},"tags":{"network:wikidata":"Q17100681","route":"bus","type":"route"},"addTags":{"network":"Transport for Ireland","network:wikidata":"Q17100681","route":"bus","type":"route"}},"type/route/light_rail/dublinarearapidtransit-37caf4":{"name":"Dublin Area Rapid Transit","locationSet":{"include":["ie"]},"geometry":["relation"],"matchScore":2,"terms":["dart","dublin area rapid transit","iarnród éireann","irish rail"],"reference":{"key":"route","value":"light_rail"},"tags":{"network:wikidata":"Q839815","route":"light_rail","type":"route"},"addTags":{"network":"Dublin Area Rapid Transit","network:short":"DART","network:wikidata":"Q839815","operator":"Iarnród Éireann","operator:en":"Irish Rail","operator:ga":"Iarnród Éireann","operator:wikidata":"Q73043","route":"light_rail","type":"route"}},"type/route/train/commuter-73b98a":{"name":"Commuter","locationSet":{"include":["ie"]},"geometry":["relation"],"matchScore":2,"terms":["commuter","dublin commuter","iarnród éireann","irish rail"],"reference":{"key":"route","value":"train"},"tags":{"network:wikidata":"Q5155093","route":"train","type":"route"},"addTags":{"network":"Commuter","network:wikidata":"Q5155093","operator":"Iarnród Éireann","operator:en":"Irish Rail","operator:ga":"Iarnród Éireann","operator:wikidata":"Q73043","route":"train","type":"route"}},"type/route/train/eurocity-6b9d23":{"name":"EuroCity","locationSet":{"include":["by","bg","cz","hu","pl","md","ro","ru","sk","ua","ax","gg","je","cq","dk","ee","fo","fi","is","ie","im","lv","lt","no","sj","se","gb","al","ad","ba","hr","gi","gr","va","it","mt","me","mk","pt","sm","rs","si","es","xk","at","be","fr","de","li","lu","mc","nl","ch"]},"geometry":["relation"],"matchScore":2,"terms":["eurocity"],"reference":{"key":"route","value":"train"},"tags":{"network:wikidata":"Q753050","route":"train","type":"route"},"addTags":{"network":"EuroCity","network:wikidata":"Q753050","route":"train","type":"route"}},"type/route/train/euronight-6b9d23":{"name":"EuroNight","locationSet":{"include":["by","bg","cz","hu","pl","md","ro","ru","sk","ua","ax","gg","je","cq","dk","ee","fo","fi","is","ie","im","lv","lt","no","sj","se","gb","al","ad","ba","hr","gi","gr","va","it","mt","me","mk","pt","sm","rs","si","es","xk","at","be","fr","de","li","lu","mc","nl","ch"]},"geometry":["relation"],"matchScore":2,"terms":["euronight"],"reference":{"key":"route","value":"train"},"tags":{"network:wikidata":"Q257307","route":"train","type":"route"},"addTags":{"network":"EuroNight","network:wikidata":"Q257307","route":"train","type":"route"}},"type/route/train/intercity-73b98a":{"name":"InterCity","locationSet":{"include":["ie"]},"geometry":["relation"],"matchScore":2,"terms":["iarnród éireann","intercity","irish rail"],"reference":{"key":"route","value":"train"},"tags":{"network:wikidata":"Q6044834","route":"train","type":"route"},"addTags":{"network":"InterCity","network:wikidata":"Q6044834","operator":"Iarnród Éireann","operator:en":"Irish Rail","operator:ga":"Iarnród Éireann","operator:wikidata":"Q73043","route":"train","type":"route"}},"type/route/tram/luas-5d9a26":{"name":"Luas","locationSet":{"include":["ie"]},"geometry":["relation"],"matchScore":2,"terms":["luas","transdev ireland"],"reference":{"key":"route","value":"tram"},"tags":{"network:wikidata":"Q612560","route":"tram","type":"route"},"addTags":{"network":"Luas","network:wikidata":"Q612560","operator":"Transdev Ireland","operator:wikidata":"Q442637","route":"tram","type":"route"}}}