{"amenity/atm/bankaustria-fc110f":{"name":"Bank Austria","locationSet":{"include":["at"]},"geometry":["point","vertex"],"matchScore":2,"terms":["bank austria"],"tags":{"amenity":"atm","brand:wikidata":"Q697619"},"addTags":{"amenity":"atm","brand":"Bank Austria","brand:wikidata":"Q697619","brand:wikipedia":"en:Bank Austria","name":"Bank Austria","operator":"Bank Austria","operator:wikidata":"Q697619","operator:wikipedia":"en:Bank Austria"}},"amenity/atm/bank99-fc110f":{"name":"bank99","locationSet":{"include":["at"]},"geometry":["point","vertex"],"matchScore":2,"terms":["bank99"],"tags":{"amenity":"atm","brand:wikidata":"Q91200481"},"addTags":{"amenity":"atm","brand":"bank99","brand:wikidata":"Q91200481","brand:wikipedia":"de:Bank99","name":"bank99","operator":"bank99","operator:wikidata":"Q91200481","operator:wikipedia":"de:Bank99"}},"amenity/atm/bawagpsk-fc110f":{"name":"BAWAG PSK","locationSet":{"include":["at"]},"geometry":["point","vertex"],"matchScore":2,"terms":["bawag psk"],"tags":{"amenity":"atm","brand:wikidata":"Q379938"},"addTags":{"amenity":"atm","brand":"BAWAG PSK","brand:wikidata":"Q379938","brand:wikipedia":"en:BAWAG P.S.K.","name":"BAWAG PSK","operator":"BAWAG PSK","operator:wikidata":"Q379938","operator:wikipedia":"en:BAWAG P.S.K."}},"amenity/atm/erstebank-1343ca":{"name":"Erste Bank","locationSet":{"include":["at","hr","hu","rs"]},"geometry":["point","vertex"],"matchScore":2,"terms":["erste bank"],"tags":{"amenity":"atm","brand:wikidata":"Q696867"},"addTags":{"amenity":"atm","brand":"Erste Bank","brand:wikidata":"Q696867","brand:wikipedia":"de:Erste Bank","name":"Erste Bank","operator":"Erste Bank","operator:wikidata":"Q696867","operator:wikipedia":"de:Erste Bank"}},"amenity/atm/oberbank-54e4c0":{"name":"Oberbank","locationSet":{"include":["at","cz","de","hu","sk"]},"geometry":["point","vertex"],"matchScore":2,"terms":["oberbank"],"tags":{"amenity":"atm","brand:wikidata":"Q2009139"},"addTags":{"amenity":"atm","brand":"Oberbank","brand:wikidata":"Q2009139","brand:wikipedia":"de:Oberbank","name":"Oberbank","operator":"Oberbank","operator:wikidata":"Q2009139","operator:wikipedia":"de:Oberbank"}},"amenity/atm/spardabank-fc110f":{"name":"Sparda-Bank (Österreich)","locationSet":{"include":["at"]},"geometry":["point","vertex"],"matchScore":2,"terms":["sparda bank austria","sparda-bank"],"searchable":false,"tags":{"amenity":"atm","brand:wikidata":"Q2307139"},"addTags":{"amenity":"atm","brand":"Sparda-Bank","brand:wikidata":"Q2307139","brand:wikipedia":"de:Sparda-Bank Austria","name":"Sparda-Bank","operator":"Sparda-Bank","operator:wikidata":"Q2307139","operator:wikipedia":"de:Sparda-Bank Austria"}},"amenity/atm/steiermarkischesparkasse-fc110f":{"name":"Steiermärkische Sparkasse","locationSet":{"include":["at"]},"geometry":["point","vertex"],"matchScore":2,"terms":["steiermärkische sparkasse"],"tags":{"amenity":"atm","brand:wikidata":"Q1555572"},"addTags":{"amenity":"atm","brand":"Steiermärkische Sparkasse","brand:wikidata":"Q1555572","brand:wikipedia":"de:Steiermärkische Sparkasse","name":"Steiermärkische Sparkasse","operator":"Steiermärkische Sparkasse","operator:wikidata":"Q1555572","operator:wikipedia":"de:Steiermärkische Sparkasse"}},"amenity/bank/bankaustria-694ab5":{"name":"Bank Austria","locationSet":{"include":["at"]},"geometry":["point","area"],"matchScore":2,"terms":["bank austria"],"tags":{"amenity":"bank","brand:wikidata":"Q697619"},"addTags":{"amenity":"bank","brand":"Bank Austria","brand:wikidata":"Q697619","brand:wikipedia":"en:Bank Austria","name":"Bank Austria"}},"amenity/bank/bank99-694ab5":{"name":"bank99","locationSet":{"include":["at"]},"geometry":["point","area"],"matchScore":2,"terms":["bank99"],"tags":{"amenity":"bank","brand:wikidata":"Q91200481"},"addTags":{"amenity":"bank","brand":"bank99","brand:wikidata":"Q91200481","brand:wikipedia":"de:Bank99","name":"bank99"}},"amenity/bank/bawagpsk-694ab5":{"name":"BAWAG PSK","locationSet":{"include":["at"]},"geometry":["point","area"],"matchScore":2,"terms":["bawag psk"],"tags":{"amenity":"bank","brand:wikidata":"Q379938"},"addTags":{"amenity":"bank","brand":"BAWAG PSK","brand:wikidata":"Q379938","brand:wikipedia":"en:BAWAG P.S.K.","name":"BAWAG PSK"}},"amenity/bank/erstebank-d01b30":{"name":"Erste Bank","locationSet":{"include":["at","hr","hu","rs"]},"geometry":["point","area"],"matchScore":2,"terms":["erste bank"],"tags":{"amenity":"bank","brand:wikidata":"Q696867"},"addTags":{"amenity":"bank","brand":"Erste Bank","brand:wikidata":"Q696867","brand:wikipedia":"de:Erste Bank","name":"Erste Bank"}},"amenity/bank/oberbank-f71288":{"name":"Oberbank","locationSet":{"include":["at","cz","de","hu","sk"]},"geometry":["point","area"],"matchScore":2,"terms":["oberbank"],"tags":{"amenity":"bank","brand:wikidata":"Q2009139"},"addTags":{"amenity":"bank","brand":"Oberbank","brand:wikidata":"Q2009139","brand:wikipedia":"de:Oberbank","name":"Oberbank"}},"amenity/bank/spardabank-694ab5":{"name":"Sparda-Bank (Österreich)","locationSet":{"include":["at"]},"geometry":["point","area"],"matchScore":2,"terms":["sparda bank austria","sparda-bank"],"searchable":false,"tags":{"amenity":"bank","brand:wikidata":"Q2307139"},"addTags":{"amenity":"bank","brand":"Sparda-Bank","brand:wikidata":"Q2307139","brand:wikipedia":"de:Sparda-Bank Austria","name":"Sparda-Bank"}},"amenity/bank/steiermarkischesparkasse-694ab5":{"name":"Steiermärkische Sparkasse","locationSet":{"include":["at"]},"geometry":["point","area"],"matchScore":2,"terms":["steiermärkische sparkasse"],"tags":{"amenity":"bank","brand:wikidata":"Q1555572"},"addTags":{"amenity":"bank","brand":"Steiermärkische Sparkasse","brand:wikidata":"Q1555572","brand:wikipedia":"de:Steiermärkische Sparkasse","name":"Steiermärkische Sparkasse"}},"amenity/bicycle_rental/citybikewien-cda769":{"name":"Citybike Wien","locationSet":{"include":["at"]},"geometry":["point","vertex","area"],"matchScore":2,"terms":["citybike wien"],"fields":["name","brand","{amenity/bicycle_rental}"],"tags":{"amenity":"bicycle_rental","brand:wikidata":"Q14541491"},"addTags":{"amenity":"bicycle_rental","brand":"Citybike Wien","brand:wikidata":"Q14541491","brand:wikipedia":"de:Citybike Wien","network":"Citybike Wien","network:wikidata":"Q14541491","network:wikipedia":"de:Citybike Wien","operator":"Citybike Wien"}},"amenity/cafe/coffee_shop/aida-42834c":{"name":"aïda","locationSet":{"include":["at"]},"geometry":["point","area"],"matchScore":2,"terms":["aïda"],"reference":{"key":"cuisine","value":"coffee_shop"},"tags":{"amenity":"cafe","brand:wikidata":"Q794636","cuisine":"coffee_shop"},"addTags":{"amenity":"cafe","brand":"aïda","brand:wikidata":"Q794636","brand:wikipedia":"de:Aida (Unternehmen)","cuisine":"coffee_shop","name":"aïda","takeaway":"yes"}},"amenity/car_rental/buchbinder-407895":{"name":"Buchbinder","locationSet":{"include":["at","de"]},"geometry":["point","area"],"matchScore":2,"terms":["buchbinder"],"tags":{"amenity":"car_rental","brand:wikidata":"Q89432097"},"addTags":{"amenity":"car_rental","brand":"Buchbinder","brand:wikidata":"Q89432097","name":"Buchbinder"}},"amenity/cinema/cineplexx-8f1bb5":{"name":"Cineplexx","locationSet":{"include":["al","at","ba","gr","hr","it","me","mk","ro","rs","si","xk"]},"geometry":["point","area"],"matchScore":2,"terms":["cineplexx"],"fields":["name","brand","{amenity/cinema}"],"tags":{"amenity":"cinema","brand:wikidata":"Q873340"},"addTags":{"amenity":"cinema","brand":"Cineplexx","brand:wikidata":"Q873340","brand:wikipedia":"en:Cineplexx Cinemas","name":"Cineplexx"}},"amenity/fast_food/nordsee-db642f":{"name":"Nordsee","locationSet":{"include":["at","ch","cz","de","sk"]},"geometry":["point","area"],"matchScore":2,"terms":["nordsee"],"tags":{"amenity":"fast_food","brand:wikidata":"Q74866"},"addTags":{"amenity":"fast_food","brand":"Nordsee","brand:wikidata":"Q74866","brand:wikipedia":"de:Nordsee (Restaurantkette)","cuisine":"seafood","name":"Nordsee","takeaway":"yes"}},"amenity/fuel/amic-4797a1":{"name":"Amic","locationSet":{"include":["at","lt","lv","pl","ua"]},"geometry":["point","area"],"matchScore":2,"terms":["amic","amic energy"],"fields":["name","brand","{amenity/fuel}"],"tags":{"amenity":"fuel","brand:wikidata":"Q96047373"},"addTags":{"amenity":"fuel","brand":"Amic","brand:wikidata":"Q96047373","brand:wikipedia":"pl:Amic Energy","name":"Amic"}},"amenity/fuel/as24-3463db":{"name":"AS 24","locationSet":{"include":["at","be","bg","cz","de","dk","es","fr","gb","ge","gr","hr","hu","ie","it","lt","lu","mk","nl","pl","pt","ro","rs","se","si","sk","ua"]},"geometry":["point","area"],"matchScore":2,"terms":["as 24"],"fields":["name","brand","{amenity/fuel}"],"tags":{"amenity":"fuel","brand:wikidata":"Q2819394"},"addTags":{"amenity":"fuel","brand":"AS 24","brand:wikidata":"Q2819394","brand:wikipedia":"fr:AS 24 (entreprise)","hgv":"only","name":"AS 24"}},"amenity/fuel/auchan-fcb99f":{"name":"Auchan","locationSet":{"include":["al","ad","ba","hr","gi","gr","va","it","mt","me","mk","pt","sm","rs","si","es","xk","by","bg","cz","hu","pl","md","ro","ru","sk","ua","at","be","fr","de","li","lu","mc","nl","ch"]},"geometry":["point","area"],"matchScore":2,"terms":["auchan"],"fields":["name","brand","{amenity/fuel}"],"tags":{"amenity":"fuel","brand:wikidata":"Q758603"},"addTags":{"amenity":"fuel","brand":"Auchan","brand:wikidata":"Q758603","brand:wikipedia":"en:Auchan","name":"Auchan"}},"amenity/fuel/avanti-565075":{"name":"Avanti","locationSet":{"include":["at"]},"geometry":["point","area"],"matchScore":2,"terms":["avanti"],"fields":["name","brand","{amenity/fuel}"],"tags":{"amenity":"fuel","brand:wikidata":"Q168238"},"addTags":{"amenity":"fuel","brand":"Avanti","brand:wikidata":"Q168238","brand:wikipedia":"en:OMV","name":"Avanti"}},"amenity/fuel/avia-e0aaf8":{"name":"Avia","locationSet":{"include":["at","be","bg","ch","cz","de","es","fr","hu","it","nl","pl","pt","rs","ua"]},"geometry":["point","area"],"matchScore":2,"terms":["avia","station avia"],"fields":["name","brand","{amenity/fuel}"],"tags":{"amenity":"fuel","brand:wikidata":"Q300147"},"addTags":{"amenity":"fuel","brand":"Avia","brand:wikidata":"Q300147","brand:wikipedia":"de:Avia International","name":"Avia"}},"amenity/fuel/eni-4e932a":{"name":"Eni","locationSet":{"include":["at","ch","fr","it"]},"geometry":["point","area"],"matchScore":2,"terms":["eni"],"fields":["name","brand","{amenity/fuel}"],"tags":{"amenity":"fuel","brand:wikidata":"Q565594"},"addTags":{"amenity":"fuel","brand":"Eni","brand:wikidata":"Q565594","brand:wikipedia":"en:Eni","name":"Eni"}},"amenity/fuel/hoferdiskont-3baa0f":{"name":"Hofer Diskont","locationSet":{"include":["at","si"]},"geometry":["point","area"],"matchScore":2,"terms":["diskont","hofer","hofer diskont"],"fields":["name","brand","{amenity/fuel}"],"tags":{"amenity":"fuel","brand:wikidata":"Q107803455"},"addTags":{"amenity":"fuel","brand":"Hofer Diskont","brand:wikidata":"Q107803455","name":"Hofer Diskont"}},"amenity/fuel/turmol-565075":{"name":"Turmöl","locationSet":{"include":["at"]},"geometry":["point","area"],"matchScore":2,"terms":["turmöl"],"fields":["name","brand","{amenity/fuel}"],"tags":{"amenity":"fuel","brand:wikidata":"Q1473279"},"addTags":{"amenity":"fuel","brand":"Turmöl","brand:wikidata":"Q1473279","brand:wikipedia":"de:Turmöl","name":"Turmöl"}},"amenity/ice_cream/veganista-131346":{"name":"Veganista","locationSet":{"include":["at"]},"geometry":["point","area"],"matchScore":2,"terms":["veganista"],"tags":{"amenity":"ice_cream","brand:wikidata":"Q106351886"},"addTags":{"amenity":"ice_cream","brand":"Veganista","brand:wikidata":"Q106351886","diet:vegan":"only","name":"Veganista"}},"amenity/parcel_locker/alzabox-bee63b":{"name":"AlzaBox","locationSet":{"include":["at","cz","hu","sk"]},"geometry":["point","vertex"],"matchScore":2,"terms":["alzabox"],"reference":{"key":"amenity","value":"parcel_locker"},"tags":{"amenity":"parcel_locker","brand:wikidata":"Q10786832"},"addTags":{"amenity":"parcel_locker","brand":"AlzaBox","brand:wikidata":"Q10786832","brand:wikipedia":"de:Alza","name":"AlzaBox"}},"amenity/parcel_locker/postabholstation-82dce7":{"name":"Post Abholstation","locationSet":{"include":["at"]},"geometry":["point","vertex"],"matchScore":2,"terms":["österreichische post","post abholstation"],"reference":{"key":"amenity","value":"parcel_locker"},"tags":{"amenity":"parcel_locker","brand:wikidata":"Q110748491"},"addTags":{"amenity":"parcel_locker","brand":"Post Abholstation","brand:wikidata":"Q110748491","name":"Post Abholstation","operator":"Österreichische Post","operator:wikidata":"Q1763505","operator:wikipedia":"de:Österreichische Post","parcel_mail_in":"yes"}},"amenity/prep_school/schulerhilfe-089158":{"name":"Schülerhilfe","locationSet":{"include":["at","de"]},"geometry":["point","area"],"matchScore":2,"terms":["schülerhilfe"],"fields":["name","brand","{amenity/prep_school}"],"tags":{"amenity":"prep_school","brand:wikidata":"Q2259702"},"addTags":{"amenity":"prep_school","brand":"Schülerhilfe","brand:wikidata":"Q2259702","brand:wikipedia":"de:Schülerhilfe","name":"Schülerhilfe"}},"amenity/prep_school/studienkreis-fce332":{"name":"Studienkreis","locationSet":{"include":["at","ch","de","lu"]},"geometry":["point","area"],"matchScore":2,"terms":["studienkreis"],"fields":["name","brand","{amenity/prep_school}"],"tags":{"amenity":"prep_school","brand:wikidata":"Q2358555"},"addTags":{"amenity":"prep_school","brand":"Studienkreis","brand:wikidata":"Q2358555","brand:wikipedia":"de:Studienkreis","name":"Studienkreis"}},"amenity/restaurant/italian/autogrill-4c0f72":{"name":"Autogrill","locationSet":{"include":["at","es","fr","it"]},"geometry":["point","area"],"matchScore":2,"terms":["autogrill"],"reference":{"key":"cuisine","value":"italian"},"tags":{"amenity":"restaurant","brand:wikidata":"Q786790","cuisine":"italian;regional"},"addTags":{"amenity":"restaurant","brand":"Autogrill","brand:wikidata":"Q786790","brand:wikipedia":"en:Autogrill","cuisine":"italian;regional","name":"Autogrill"}},"amenity/restaurant/blockhouse-12455c":{"name":"BLOCK HOUSE","locationSet":{"include":["at","de","es","pt"]},"geometry":["point","area"],"matchScore":2,"terms":["block house"],"tags":{"amenity":"restaurant","brand:wikidata":"Q320430"},"addTags":{"amenity":"restaurant","brand":"BLOCK HOUSE","brand:wikidata":"Q320430","brand:wikipedia":"de:Block House","cuisine":"steak_house","name":"BLOCK HOUSE"}},"amenity/restaurant/deananddavid-813198":{"name":"dean&david","locationSet":{"include":["at","ch","de","lu","qa"]},"geometry":["point","area"],"matchScore":2,"terms":["dean&david"],"tags":{"amenity":"restaurant","brand:wikidata":"Q66132404"},"addTags":{"amenity":"restaurant","brand":"dean&david","brand:wikidata":"Q66132404","cuisine":"salad;sandwich","name":"dean&david"}},"amenity/restaurant/hansimgluck-a53895":{"name":"Hans im Glück","locationSet":{"include":["at","ch","de","sg"]},"geometry":["point","area"],"matchScore":2,"terms":["hans im glück"],"tags":{"amenity":"restaurant","brand:wikidata":"Q22569868"},"addTags":{"amenity":"restaurant","brand":"Hans im Glück","brand:wikidata":"Q22569868","brand:wikipedia":"de:Hans im Glück (Restaurantkette)","cuisine":"burger","name":"Hans im Glück"}},"amenity/restaurant/italian/losteria-454d96":{"name":"L'Osteria","locationSet":{"include":["at","ch","cz","de","fr","gb","nl"]},"geometry":["point","area"],"matchScore":2,"terms":["l'osteria"],"reference":{"key":"cuisine","value":"italian"},"tags":{"amenity":"restaurant","brand:wikidata":"Q17323478","cuisine":"italian"},"addTags":{"amenity":"restaurant","brand":"L'Osteria","brand:wikidata":"Q17323478","brand:wikipedia":"de:L\u2019Osteria","cuisine":"italian","name":"L'Osteria"}},"amenity/restaurant/peterpane-b8cc79":{"name":"Peter Pane","locationSet":{"include":["at","de"]},"geometry":["point","area"],"matchScore":2,"terms":["peter pane"],"tags":{"amenity":"restaurant","brand:wikidata":"Q66084419"},"addTags":{"amenity":"restaurant","brand":"Peter Pane","brand:wikidata":"Q66084419","brand:wikipedia":"nl:Peter Pane","cuisine":"burger","name":"Peter Pane"}},"amenity/social_facility/bahnhofsozialdienst-257965":{"name":"Bahnhofsozialdienst","locationSet":{"include":["at"]},"geometry":["point","area"],"matchScore":2,"terms":["bahnhofsozialdienst"],"tags":{"amenity":"social_facility","brand:wikidata":"Q801713"},"addTags":{"amenity":"social_facility","brand":"Bahnhofsozialdienst","brand:wikidata":"Q801713","brand:wikipedia":"de:Bahnhofsmission","name":"Bahnhofsozialdienst","social_facility":"outreach","social_facility:for":"homeless;underprivileged"}},"amenity/social_facility/caritas-257965":{"name":"Caritas (Österreich)","locationSet":{"include":["at"]},"geometry":["point","area"],"matchScore":2,"terms":["caritas","caritas diözese graz-seckau","caritas st.pölten"],"fields":["name","brand","{amenity/social_facility}"],"tags":{"amenity":"social_facility","brand:wikidata":"Q1036350"},"addTags":{"amenity":"social_facility","brand":"Caritas","brand:wikidata":"Q1036350","brand:wikipedia":"de:Caritas Österreich"}},"amenity/vending_machine/continental-123edb":{"name":"Continental","locationSet":{"include":["by","bg","cz","hu","pl","md","ro","ru","sk","ua","ax","gg","je","cq","dk","ee","fo","fi","is","ie","im","lv","lt","no","sj","se","gb","al","ad","ba","hr","gi","gr","va","it","mt","me","mk","pt","sm","rs","si","es","xk","at","be","fr","de","li","lu","mc","nl","ch"]},"geometry":["point","vertex"],"matchScore":2,"terms":["continental"],"tags":{"amenity":"vending_machine","brand:wikidata":"Q64739247"},"addTags":{"amenity":"vending_machine","brand":"Continental","brand:wikidata":"Q64739247","brand:wikipedia":"de:Continental Reifen GmbH","name":"Continental","vending":"bicycle_tube"}},"amenity/vending_machine/excrement_bags/dogstation-15a18a":{"name":"Dog-Station","locationSet":{"include":["at","de","dk"]},"geometry":["point","vertex"],"matchScore":2,"terms":["dog-station"],"reference":{"key":"vending","value":"excrement_bags"},"tags":{"amenity":"vending_machine","brand:wikidata":"Q63720061","vending":"excrement_bags"},"addTags":{"amenity":"vending_machine","brand":"Dog-Station","brand:wikidata":"Q63720061","name":"Dog-Station","vending":"excrement_bags"}},"amenity/vending_machine/schwalbe-123edb":{"name":"Schwalbe","locationSet":{"include":["by","bg","cz","hu","pl","md","ro","ru","sk","ua","ax","gg","je","cq","dk","ee","fo","fi","is","ie","im","lv","lt","no","sj","se","gb","al","ad","ba","hr","gi","gr","va","it","mt","me","mk","pt","sm","rs","si","es","xk","at","be","fr","de","li","lu","mc","nl","ch"]},"geometry":["point","vertex"],"matchScore":2,"terms":["schwalbe"],"tags":{"amenity":"vending_machine","brand:wikidata":"Q1312213"},"addTags":{"amenity":"vending_machine","brand":"Schwalbe","brand:wikidata":"Q1312213","brand:wikipedia":"de:Ralf Bohle GmbH","name":"Schwalbe","vending":"bicycle_tube"}},"amenity/vending_machine/selecta-ed4d31":{"name":"Selecta","locationSet":{"include":["at","be","ch","de","dk","es","fi","fr","ie","it","li","lu","nl","no","se","uk"]},"geometry":["point","vertex"],"matchScore":2,"terms":["selecta"],"tags":{"amenity":"vending_machine","brand:wikidata":"Q472153"},"addTags":{"amenity":"vending_machine","brand":"Selecta","brand:wikidata":"Q472153","brand:wikipedia":"en:Selecta (company)"}},"emergency/ambulance_station/arbeitersamariterbund-0c07b2":{"name":"Arbeiter-Samariter-Bund (Österreichs)","locationSet":{"include":["at"]},"geometry":["point","area"],"matchScore":2,"terms":["arbeiter-samariter-bund österreichs","asb","asbö","samariterbund"],"fields":["name","brand","{emergency/ambulance_station}"],"tags":{"brand:wikidata":"Q627072","emergency":"ambulance_station"},"addTags":{"brand":"Arbeiter-Samariter-Bund Österreichs","brand:wikidata":"Q627072","brand:wikipedia":"de:Arbeiter-Samariter-Bund Österreichs","emergency":"ambulance_station","name":"Arbeiter-Samariter-Bund"}},"emergency/ambulance_station/osterreichischesroteskreuz-0c07b2":{"name":"Österreichisches Rotes Kreuz","locationSet":{"include":["at"]},"geometry":["point","area"],"matchScore":2,"terms":["örk","österreichisches rotes kreuz","österreichisches rotes kreuz, landesverband oberösterreich","rotes kreuz","rotes kreuz vorarlberg"],"fields":["name","brand","{emergency/ambulance_station}"],"tags":{"brand:wikidata":"Q168276","emergency":"ambulance_station"},"addTags":{"brand":"Österreichisches Rotes Kreuz","brand:wikidata":"Q168276","brand:wikipedia":"de:Österreichisches Rotes Kreuz","emergency":"ambulance_station","name":"Österreichisches Rotes Kreuz","short_name":"ÖRK"}},"leisure/fitness_centre/cleverfit-1d011d":{"name":"Clever fit","locationSet":{"include":["at","ch","de"]},"geometry":["point","area"],"matchScore":2,"terms":["clever fit"],"tags":{"brand:wikidata":"Q27909675","leisure":"fitness_centre"},"addTags":{"brand":"Clever fit","brand:wikidata":"Q27909675","brand:wikipedia":"de:Clever fit","leisure":"fitness_centre","name":"Clever fit"}},"leisure/fitness_centre/kiesertraining-a70e35":{"name":"Kieser Training","locationSet":{"include":["at","au","ch","de","lu"]},"geometry":["point","area"],"matchScore":2,"terms":["kieser training"],"tags":{"brand:wikidata":"Q1112367","leisure":"fitness_centre"},"addTags":{"brand":"Kieser Training","brand:wikidata":"Q1112367","brand:wikipedia":"de:Kieser Training","leisure":"fitness_centre","name":"Kieser Training"}},"leisure/fitness_centre/mcfit-0ebac9":{"name":"McFit","locationSet":{"include":["at","de","es","it","pl"]},"geometry":["point","area"],"matchScore":2,"terms":["mcfit"],"tags":{"brand:wikidata":"Q871302","leisure":"fitness_centre"},"addTags":{"brand":"McFit","brand:wikidata":"Q871302","brand:wikipedia":"en:McFit","leisure":"fitness_centre","name":"McFit"}},"leisure/fitness_centre/mrssporty-658820":{"name":"Mrs. Sporty","locationSet":{"include":["at","ch","de","es","it","pl","sk"]},"geometry":["point","area"],"matchScore":2,"terms":["mrs. sporty"],"tags":{"brand:wikidata":"Q100718953","leisure":"fitness_centre"},"addTags":{"brand":"Mrs. Sporty","brand:wikidata":"Q100718953","leisure":"fitness_centre","name":"Mrs. Sporty"}},"leisure/trampoline_park/urbanair-569d04":{"name":"Urban Air","locationSet":{"include":["at","ca","us"]},"geometry":["point","area"],"matchScore":2,"terms":["urban air","urban air trampoline and adventure park"],"tags":{"brand:wikidata":"Q110172893","leisure":"trampoline_park"},"addTags":{"brand":"Urban Air","brand:wikidata":"Q110172893","leisure":"trampoline_park","name":"Urban Air","official_name":"Urban Air Trampoline and Adventure Park"}},"office/estate_agent/vonpollimmobilien-0fbcd3":{"name":"von Poll Immobilien","locationSet":{"include":["at","de"]},"geometry":["point","area"],"matchScore":2,"terms":["von poll immobilien","von poll real estate","vonpoll","vonpoll commercial"],"tags":{"brand:wikidata":"Q96026696","office":"estate_agent"},"addTags":{"brand":"Von Poll Immobilien","brand:wikidata":"Q96026696","brand:wikipedia":"de:Von Poll Immobilien","name":"Von Poll Immobilien","office":"estate_agent"}},"office/estate_agent/vonpollrealestate-c99072":{"name":"von Poll Real Estate","locationSet":{"include":["by","bg","cz","hu","pl","md","ro","ru","sk","ua","ax","gg","je","cq","dk","ee","fo","fi","is","ie","im","lv","lt","no","sj","se","gb","al","ad","ba","hr","gi","gr","va","it","mt","me","mk","pt","sm","rs","si","es","xk","at","be","fr","de","li","lu","mc","nl","ch"],"exclude":["at","de"]},"geometry":["point","area"],"matchScore":2,"terms":["von poll immobilien","von poll real estate","vonpoll","vonpoll commercial"],"tags":{"brand:wikidata":"Q96026696","office":"estate_agent"},"addTags":{"brand":"von Poll Real Estate","brand:wikidata":"Q96026696","brand:wikipedia":"de:Von Poll Immobilien","name":"von Poll Real Estate","office":"estate_agent"}},"office/insurance/helvetia-f9490e":{"name":"Helvetia","locationSet":{"include":["at","ch","de","es","fr","it"]},"geometry":["point","area"],"matchScore":2,"terms":["helvetia"],"fields":["name","brand","{office/insurance}"],"tags":{"brand:wikidata":"Q933766","office":"insurance"},"addTags":{"brand":"Helvetia","brand:wikidata":"Q933766","brand:wikipedia":"it:Helvetia Assicurazioni","name":"Helvetia","office":"insurance"}},"office/insurance/wustenrot-6f527a":{"name":"Wüstenrot","locationSet":{"include":["at","cz","de","sk"]},"geometry":["point","area"],"matchScore":2,"terms":["wüstenrot"],"fields":["name","brand","{office/insurance}"],"tags":{"brand:wikidata":"Q2597123","office":"insurance"},"addTags":{"brand":"Wüstenrot","brand:wikidata":"Q2597123","brand:wikipedia":"en:Wüstenrot-Gruppe","name":"Wüstenrot","office":"insurance"}},"shop/art/lumas-60f999":{"name":"Lumas","locationSet":{"include":["at","au","ca","ch","de","fr","gb","hu","us"]},"geometry":["point","area"],"matchScore":2,"terms":["lumas"],"tags":{"brand:wikidata":"Q1452381","shop":"art"},"addTags":{"brand":"Lumas","brand:wikidata":"Q1452381","brand:wikipedia":"de:Lumas (Galerie)","name":"Lumas","shop":"art"}},"shop/bakery/anker-4c6659":{"name":"Anker","locationSet":{"include":["at","sk"]},"geometry":["point","area"],"matchScore":2,"terms":["anker"],"tags":{"brand:wikidata":"Q557116","shop":"bakery"},"addTags":{"brand":"Anker","brand:wikidata":"Q557116","brand:wikipedia":"de:Ankerbrot","name":"Anker","shop":"bakery"}},"shop/bakery/backwerk-5fc8b1":{"name":"Backwerk","locationSet":{"include":["at","ch","de","gb","nl"]},"geometry":["point","area"],"matchScore":2,"terms":["backwerk"],"tags":{"brand:wikidata":"Q798298","shop":"bakery"},"addTags":{"brand":"BackWerk","brand:wikidata":"Q798298","brand:wikipedia":"de:BackWerk","name":"Backwerk","shop":"bakery"}},"shop/bakery/baguette-2e087b":{"name":"Baguette","locationSet":{"include":["at"]},"geometry":["point","area"],"matchScore":2,"terms":["baguette"],"tags":{"brand:wikidata":"Q82512635","shop":"bakery"},"addTags":{"brand":"Baguette","brand:wikidata":"Q82512635","name":"Baguette","shop":"bakery"}},"shop/bakery/lecrobag-367eb3":{"name":"Le Crobag","locationSet":{"include":["at","de","pl","ru"]},"geometry":["point","area"],"matchScore":2,"terms":["le crobag"],"tags":{"brand:wikidata":"Q1558025","shop":"bakery"},"addTags":{"brand":"Le Crobag","brand:wikidata":"Q1558025","brand:wikipedia":"de:Le Crobag","name":"Le Crobag","shop":"bakery"}},"shop/bakery/martinauer-2e087b":{"name":"Martin Auer","locationSet":{"include":["at"]},"geometry":["point","area"],"matchScore":2,"terms":["auer","martin auer"],"tags":{"brand:wikidata":"Q55523880","shop":"bakery"},"addTags":{"brand":"Martin Auer","brand:wikidata":"Q55523880","brand:wikipedia":"de:Martin Auer (Unternehmen)","name":"Martin Auer","shop":"bakery"}},"shop/bakery/strock-2e087b":{"name":"Ströck","locationSet":{"include":["at"]},"geometry":["point","area"],"matchScore":2,"terms":["ströck"],"tags":{"brand:wikidata":"Q2357607","shop":"bakery"},"addTags":{"brand":"Ströck","brand:wikidata":"Q2357607","brand:wikipedia":"de:Ströck-Brot","name":"Ströck","shop":"bakery"}},"shop/bakery/wienerroither-2e087b":{"name":"Wienerroither","locationSet":{"include":["at"]},"geometry":["point","area"],"matchScore":2,"terms":["wienerroither"],"tags":{"brand:wikidata":"Q110474658","shop":"bakery"},"addTags":{"brand":"Wienerroither","brand:wikidata":"Q110474658","name":"Wienerroither","shop":"bakery"}},"shop/bed/matratzenconcord-795ce0":{"name":"Matratzen Concord","locationSet":{"include":["at","ch","de"]},"geometry":["point","area"],"matchScore":2,"terms":["matratzen concord"],"tags":{"brand:wikidata":"Q18629057","shop":"bed"},"addTags":{"brand":"Matratzen Concord","brand:wikidata":"Q18629057","brand:wikipedia":"de:Matratzen Concord","name":"Matratzen Concord","shop":"bed"}},"shop/beverages/fristo-650acc":{"name":"Fristo","locationSet":{"include":["at","de"]},"geometry":["point","area"],"matchScore":2,"terms":["fristo","fristo getränkemarkt"],"tags":{"brand:wikidata":"Q1465151","shop":"beverages"},"addTags":{"brand":"Fristo","brand:wikidata":"Q1465151","brand:wikipedia":"de:Fristo","name":"Fristo","shop":"beverages"}},"shop/bicycle/zweiradcenterstadler-d06ca0":{"name":"Zweirad-Center Stadler","locationSet":{"include":["at","de"]},"geometry":["point","area"],"matchScore":2,"terms":["stadler","zweirad-center stadler"],"tags":{"brand:wikidata":"Q27225809","shop":"bicycle"},"addTags":{"brand":"Zweirad-Center Stadler","brand:wikidata":"Q27225809","brand:wikipedia":"de:Zweirad-Center Stadler","name":"Zweirad-Center Stadler","shop":"bicycle"}},"shop/bookmaker/tipico-7054e9":{"name":"Tipico","locationSet":{"include":["at","co","de","gi","hr","mt"]},"geometry":["point","area"],"matchScore":2,"terms":["tipico"],"tags":{"brand:wikidata":"Q15851003","shop":"bookmaker"},"addTags":{"brand":"Tipico","brand:wikidata":"Q15851003","brand:wikipedia":"en:Tipico","name":"Tipico","shop":"bookmaker"}},"shop/books/buchhandlungwaltherkonig-bb573d":{"name":"Buchhandlung Walther König","locationSet":{"include":["at","be","de","fr","gb","it","nl"]},"geometry":["point","area"],"matchScore":2,"terms":["buchhandlung könig","buchhandlung walther könig","könig","walther könig"],"tags":{"brand:wikidata":"Q998441","shop":"books"},"addTags":{"brand":"Buchhandlung Walther König","brand:wikidata":"Q998441","brand:wikipedia":"de:Buchhandlung Walther König","name":"Buchhandlung Walther König","shop":"books"}},"shop/books/libro-95302b":{"name":"Libro","locationSet":{"include":["at"]},"geometry":["point","area"],"matchScore":2,"terms":["libro"],"tags":{"brand:wikidata":"Q1823138","shop":"books"},"addTags":{"brand":"Libro","brand:wikidata":"Q1823138","brand:wikipedia":"de:Libro","name":"Libro","shop":"books"}},"shop/books/morawa-95302b":{"name":"Morawa","locationSet":{"include":["at"]},"geometry":["point","area"],"matchScore":2,"terms":["morawa"],"tags":{"brand:wikidata":"Q1947238","shop":"books"},"addTags":{"brand":"Morawa","brand:wikidata":"Q1947238","brand:wikipedia":"de:Morawa","name":"Morawa","shop":"books"}},"shop/books/thalia-5cfe4f":{"name":"Thalia","locationSet":{"include":["at","de"]},"geometry":["point","area"],"matchScore":2,"terms":["thalia"],"tags":{"brand:wikidata":"Q2408854","shop":"books"},"addTags":{"brand":"Thalia","brand:wikidata":"Q2408854","brand:wikipedia":"de:Thalia Bücher","name":"Thalia","shop":"books"}},"shop/car/smart-f30ed8":{"name":"Smart","locationSet":{"include":["by","bg","cz","hu","pl","md","ro","ru","sk","ua","ax","gg","je","cq","dk","ee","fo","fi","is","ie","im","lv","lt","no","sj","se","gb","al","ad","ba","hr","gi","gr","va","it","mt","me","mk","pt","sm","rs","si","es","xk","at","be","fr","de","li","lu","mc","nl","ch"]},"geometry":["point","area"],"matchScore":2,"terms":["smart"],"fields":["name","brand","{shop/car}"],"tags":{"brand:wikidata":"Q156490","shop":"car"},"addTags":{"brand":"Smart","brand:wikidata":"Q156490","brand:wikipedia":"en:Smart (marque)","name":"Smart","shop":"car"}},"shop/car_repair/1aautoservice-4c8afc":{"name":"1a autoservice","locationSet":{"include":["at","ch","de"]},"geometry":["point","area"],"matchScore":2,"terms":["1a autoservice"],"fields":["name","brand","{shop/car_repair}"],"tags":{"brand:wikidata":"Q109558465","shop":"car_repair"},"addTags":{"brand":"1a autoservice","brand:wikidata":"Q109558465","name":"1a autoservice","shop":"car_repair"}},"shop/car_repair/atu-6db7c0":{"name":"A.T.U","locationSet":{"include":["at","de"]},"geometry":["point","area"],"matchScore":2,"terms":["a.t.u","auto-teile-unger"],"fields":["name","brand","{shop/car_repair}"],"tags":{"brand:wikidata":"Q784721","shop":"car_repair"},"addTags":{"brand":"A.T.U","brand:wikidata":"Q784721","brand:wikipedia":"de:Auto-Teile-Unger","name":"A.T.U","shop":"car_repair"}},"shop/car_repair/oamtc-d1144d":{"name":"ÖAMTC","locationSet":{"include":["at"]},"geometry":["point","area"],"matchScore":2,"terms":["öamtc"],"fields":["name","brand","{shop/car_repair}"],"tags":{"brand:wikidata":"Q306057","shop":"car_repair"},"addTags":{"brand":"ÖAMTC","brand:wikidata":"Q306057","brand:wikipedia":"de:Österreichischer Automobil-, Motorrad- und Touring Club","name":"ÖAMTC","shop":"car_repair"}},"shop/chemist/bipa-07ba5a":{"name":"Bipa","locationSet":{"include":["at","hr"]},"geometry":["point","area"],"matchScore":2,"terms":["bipa"],"tags":{"brand:wikidata":"Q864933","shop":"chemist"},"addTags":{"brand":"Bipa","brand:wikidata":"Q864933","brand:wikipedia":"de:Bipa","name":"Bipa","shop":"chemist"}},"shop/chemist/dm-64e7ae":{"name":"dm","locationSet":{"include":["at","ba","bg","cz","de","hr","hu","it","mk","ro","rs","si","sk"]},"geometry":["point","area"],"matchScore":2,"terms":["dm","dm drogerie markt"],"tags":{"brand:wikidata":"Q266572","shop":"chemist"},"addTags":{"brand":"dm","brand:wikidata":"Q266572","brand:wikipedia":"en:Dm-drogerie markt","name":"dm","shop":"chemist"}},"shop/chemist/muller-7b8da2":{"name":"Müller","locationSet":{"include":["at","ch","de","es","hr","hu"]},"geometry":["point","area"],"matchScore":2,"terms":["drogeriemarkt müller","müller"],"tags":{"brand:wikidata":"Q1958759","shop":"chemist"},"addTags":{"brand":"Müller","brand:wikidata":"Q1958759","brand:wikipedia":"en:Müller (German trade company)","name":"Müller","shop":"chemist"}},"shop/clothes/adler-108da6":{"name":"Adler","locationSet":{"include":["at","de","lu"]},"geometry":["point","area"],"matchScore":2,"terms":["adler"],"tags":{"brand:wikidata":"Q358196","shop":"clothes"},"addTags":{"brand":"Adler","brand:wikidata":"Q358196","brand:wikipedia":"de:Adler Modemärkte","name":"Adler","shop":"clothes"}},"shop/clothes/bluetomato-fa8f79":{"name":"Blue Tomato","locationSet":{"include":["at","ch","de","fi","nl"]},"geometry":["point","area"],"matchScore":2,"terms":["blue tomato"],"tags":{"brand:wikidata":"Q107637238","shop":"clothes"},"addTags":{"brand":"Blue Tomato","brand:wikidata":"Q107637238","name":"Blue Tomato","shop":"clothes"}},"shop/clothes/bonita-51c18f":{"name":"BONITA","locationSet":{"include":["at","ch","de","nl"]},"geometry":["point","area"],"matchScore":2,"terms":["bonita"],"tags":{"brand:wikidata":"Q892598","shop":"clothes"},"addTags":{"brand":"BONITA","brand:wikidata":"Q892598","brand:wikipedia":"de:Bonita (Unternehmen)","clothes":"women","name":"BONITA","shop":"clothes"}},"shop/clothes/bonitamen-51c18f":{"name":"BONITA men","locationSet":{"include":["at","ch","de","nl"]},"geometry":["point","area"],"matchScore":2,"terms":["bonita men"],"tags":{"brand:wikidata":"Q892598","shop":"clothes"},"addTags":{"brand":"BONITA men","brand:wikidata":"Q892598","brand:wikipedia":"de:Bonita (Unternehmen)","clothes":"men","name":"BONITA men","shop":"clothes"}},"shop/clothes/calida-8b5460":{"name":"CALIDA","locationSet":{"include":["at","ch","de","fr","lu","nl","us"]},"geometry":["point","area"],"matchScore":2,"terms":["calida"],"tags":{"brand:wikidata":"Q693344","shop":"clothes"},"addTags":{"brand":"CALIDA","brand:wikidata":"Q693344","brand:wikipedia":"sv:Calida","name":"CALIDA","shop":"clothes"}},"shop/clothes/campdavid-0a34da":{"name":"Camp David","locationSet":{"include":["at","de","ee","sk"]},"geometry":["point","area"],"matchScore":2,"terms":["camp david"],"tags":{"brand:wikidata":"Q50540636","shop":"clothes"},"addTags":{"brand":"Camp David","brand:wikidata":"Q50540636","brand:wikipedia":"en:Camp David (fashion)","name":"Camp David","shop":"clothes"}},"shop/clothes/carlings-89d713":{"name":"Carlings","locationSet":{"include":["at","fi","no","se"]},"geometry":["point","area"],"matchScore":2,"terms":["carlings"],"fields":["name","brand","{shop/clothes}"],"tags":{"brand:wikidata":"Q10443115","shop":"clothes"},"addTags":{"brand":"Carlings","brand:wikidata":"Q10443115","brand:wikipedia":"no:Carlings","name":"Carlings","shop":"clothes"}},"shop/clothes/cecil-bfd647":{"name":"Cecil","locationSet":{"include":["at","de","nl"]},"geometry":["point","area"],"matchScore":2,"terms":["cecil"],"tags":{"brand:wikidata":"Q101246192","shop":"clothes"},"addTags":{"brand":"Cecil","brand:wikidata":"Q101246192","name":"Cecil","shop":"clothes"}},"shop/clothes/charlesvogele-900aa6":{"name":"Charles Vögele","locationSet":{"include":["at","be","ch","de","hu","nl"]},"geometry":["point","area"],"matchScore":2,"terms":["charles vögele","vögele"],"searchable":false,"tags":{"brand:wikidata":"Q1066326","shop":"clothes"},"addTags":{"brand":"Charles Vögele","brand:wikidata":"Q1066326","brand:wikipedia":"de:Charles Vögele Holding","name":"Charles Vögele","shop":"clothes","short_name":"Vögele"}},"shop/clothes/coccodrillo-571709":{"name":"Coccodrillo","locationSet":{"include":["at","bg","by","cz","de","ee","fi","hu","lt","lv","me","pl","ro","rs","ru","sk","ua"]},"geometry":["point","area"],"matchScore":2,"terms":["coccodrillo"],"tags":{"brand:wikidata":"Q9195224","shop":"clothes"},"addTags":{"brand":"Coccodrillo","brand:wikidata":"Q9195224","brand:wikipedia":"pl:Coccodrillo","clothes":"children","name":"Coccodrillo","shop":"clothes"}},"shop/clothes/colloseum-3648e4":{"name":"Colloseum","locationSet":{"include":["at","cz","de","gr","lv","pl","ru","sk"]},"geometry":["point","area"],"matchScore":2,"terms":["colloseum"],"tags":{"brand:wikidata":"Q15794685","shop":"clothes"},"addTags":{"brand":"Colloseum","brand:wikidata":"Q15794685","brand:wikipedia":"de:Colloseum","name":"Colloseum","shop":"clothes"}},"shop/clothes/dressmann-89d713":{"name":"Dressmann","locationSet":{"include":["at","fi","no","se"]},"geometry":["point","area"],"matchScore":2,"terms":["dressmann"],"fields":["name","brand","{shop/clothes}"],"tags":{"brand:wikidata":"Q3357081","shop":"clothes"},"addTags":{"brand":"Dressmann","brand:wikidata":"Q3357081","brand:wikipedia":"en:Dressmann","clothes":"men","name":"Dressmann","shop":"clothes"}},"shop/clothes/engbers-96f120":{"name":"Engbers","locationSet":{"include":["at","de"]},"geometry":["point","area"],"matchScore":2,"terms":["engbers"],"tags":{"brand:wikidata":"Q1290088","shop":"clothes"},"addTags":{"brand":"engbers","brand:wikidata":"Q1290088","brand:wikipedia":"de:Engbers","name":"engbers","shop":"clothes"}},"shop/clothes/ericbompard-745fe9":{"name":"Éric Bompard","locationSet":{"include":["at","be","de","fr","lu"]},"geometry":["point","area"],"matchScore":2,"terms":["éric bompard"],"tags":{"brand:wikidata":"Q3590998","shop":"clothes"},"addTags":{"brand":"Éric Bompard","brand:wikidata":"Q3590998","brand:wikipedia":"en:Éric Bompard","name":"Éric Bompard","shop":"clothes"}},"shop/clothes/ernstingsfamily-96f120":{"name":"Ernsting's family","locationSet":{"include":["at","de"]},"geometry":["point","area"],"matchScore":2,"terms":["ernsting's family"],"tags":{"brand:wikidata":"Q1361016","shop":"clothes"},"addTags":{"brand":"Ernsting's family","brand:wikidata":"Q1361016","brand:wikipedia":"de:Ernsting\u2019s family","name":"Ernsting's family","shop":"clothes"}},"shop/clothes/eterna-96f120":{"name":"ETERNA","locationSet":{"include":["at","de"]},"geometry":["point","area"],"matchScore":2,"terms":["eterna"],"tags":{"brand:wikidata":"Q1371030","shop":"clothes"},"addTags":{"brand":"ETERNA","brand:wikidata":"Q1371030","brand:wikipedia":"de:Eterna Mode","name":"ETERNA","shop":"clothes"}},"shop/clothes/fussl-96f120":{"name":"Fussl","locationSet":{"include":["at","de"]},"geometry":["point","area"],"matchScore":2,"terms":["fussl","fussl modestraße"],"tags":{"brand:wikidata":"Q24266366","shop":"clothes"},"addTags":{"alt_name":"Fussl Modestraße","brand":"Fussl","brand:wikidata":"Q24266366","brand:wikipedia":"de:Fussl Modestraße","name":"Fussl","shop":"clothes"}},"shop/clothes/ginalaura-96f120":{"name":"Gina Laura","locationSet":{"include":["at","de"]},"geometry":["point","area"],"matchScore":2,"terms":["gina laura"],"tags":{"brand:wikidata":"Q2700576","shop":"clothes"},"addTags":{"brand":"Gina Laura","brand:wikidata":"Q2700576","brand:wikipedia":"de:Gina Laura","clothes":"women","name":"Gina Laura","shop":"clothes"}},"shop/clothes/hallhuber-20ae39":{"name":"Hallhuber","locationSet":{"include":["at","ch","de","lu","nl"]},"geometry":["point","area"],"matchScore":2,"terms":["hallhuber"],"tags":{"brand:wikidata":"Q1571714","shop":"clothes"},"addTags":{"brand":"Hallhuber","brand:wikidata":"Q1571714","brand:wikipedia":"de:Hallhuber (Bekleidungshaus)","name":"Hallhuber","shop":"clothes"}},"shop/clothes/underwear/hunkemoller-4950a4":{"name":"Hunkemöller","locationSet":{"include":["at","be","de","dk","es","lu","nl"]},"geometry":["point","area"],"matchScore":2,"terms":["hunkemöller"],"reference":{"key":"clothes","value":"underwear"},"tags":{"brand:wikidata":"Q2604175","clothes":"underwear","shop":"clothes"},"addTags":{"brand":"Hunkemöller","brand:wikidata":"Q2604175","brand:wikipedia":"en:Hunkemöller","clothes":"underwear","name":"Hunkemöller","shop":"clothes"}},"shop/clothes/kando-daa173":{"name":"K&Ö","locationSet":{"include":["at"]},"geometry":["point","area"],"matchScore":2,"terms":["k&ö","kastner & öhler"],"tags":{"brand:wikidata":"Q1735474","shop":"clothes"},"addTags":{"alt_name":"Kastner & Öhler","brand":"K&Ö","brand:wikidata":"Q1735474","brand:wikipedia":"de:Kastner & Öhler","name":"K&Ö","shop":"clothes"}},"shop/clothes/kik-97626d":{"name":"KiK","locationSet":{"include":["at","cz","de","hr","hu","it","nl","pl","ro","si","sk"]},"geometry":["point","area"],"matchScore":2,"terms":["kik"],"tags":{"brand:wikidata":"Q883965","shop":"clothes"},"addTags":{"brand":"KiK","brand:wikidata":"Q883965","brand:wikipedia":"de:KiK","name":"KiK","shop":"clothes"}},"shop/clothes/maje-99ba8f":{"name":"Maje","locationSet":{"include":["by","bg","cz","hu","pl","md","ro","ru","sk","ua","ax","gg","je","cq","dk","ee","fo","fi","is","ie","im","lv","lt","no","sj","se","gb","al","ad","ba","hr","gi","gr","va","it","mt","me","mk","pt","sm","rs","si","es","xk","at","be","fr","de","li","lu","mc","nl","ch","cn","hk","sg","tw","uk","us"]},"geometry":["point","area"],"matchScore":2,"terms":["maje"],"tags":{"brand:wikidata":"Q3280458","shop":"clothes"},"addTags":{"brand":"Maje","brand:wikidata":"Q3280458","brand:wikipedia":"fr:Maje","clothes":"women","name":"Maje","shop":"clothes"}},"shop/clothes/marcopolo-3cd4a4":{"name":"Marc O'Polo","locationSet":{"include":["at","be","ch","de","nl","pl"]},"geometry":["point","area"],"matchScore":2,"terms":["marc o'polo"],"tags":{"brand:wikidata":"Q1892752","shop":"clothes"},"addTags":{"brand":"Marc O'Polo","brand:wikidata":"Q1892752","brand:wikipedia":"en:Marc O'Polo","name":"Marc O'Polo","shop":"clothes"}},"shop/clothes/misterlady-96f120":{"name":"mister*lady","locationSet":{"include":["at","de"]},"geometry":["point","area"],"matchScore":2,"terms":["mister*lady"],"tags":{"brand:wikidata":"Q18640136","shop":"clothes"},"addTags":{"brand":"mister*lady","brand:wikidata":"Q18640136","brand:wikipedia":"de:Mister*lady","name":"mister*lady","shop":"clothes"}},"shop/clothes/modeparkrother-96f120":{"name":"Modepark Röther","locationSet":{"include":["at","de"]},"geometry":["point","area"],"matchScore":2,"terms":["modepark röther"],"tags":{"brand:wikidata":"Q19296579","shop":"clothes"},"addTags":{"brand":"Modepark Röther","brand:wikidata":"Q19296579","brand:wikipedia":"de:Modepark Röther","name":"Modepark Röther","shop":"clothes"}},"shop/clothes/napapijri-8d1144":{"name":"Napapijri","locationSet":{"include":["at","de","fr","it","sk"]},"geometry":["point","area"],"matchScore":2,"terms":["napapijri"],"tags":{"brand:wikidata":"Q2782017","shop":"clothes"},"addTags":{"brand":"Napapijri","brand:wikidata":"Q2782017","brand:wikipedia":"en:Napapijri","name":"Napapijri","shop":"clothes"}},"shop/clothes/nkd-9a8fb8":{"name":"NKD","locationSet":{"include":["at","de","it","si"]},"geometry":["point","area"],"matchScore":2,"terms":["nkd"],"tags":{"brand:wikidata":"Q927272","shop":"clothes"},"addTags":{"brand":"NKD","brand:wikidata":"Q927272","brand:wikipedia":"de:NKD","name":"NKD","shop":"clothes"}},"shop/clothes/olymp-96f120":{"name":"OLYMP","locationSet":{"include":["at","de"]},"geometry":["point","area"],"matchScore":2,"terms":["olymp"],"tags":{"brand:wikidata":"Q1415523","shop":"clothes"},"addTags":{"brand":"OLYMP","brand:wikidata":"Q1415523","brand:wikipedia":"de:Olymp Bezner","clothes":"men","name":"OLYMP","shop":"clothes"}},"shop/clothes/ovs-8c6a50":{"name":"OVS","locationSet":{"include":["at","ch","fr","it","si"]},"geometry":["point","area"],"matchScore":2,"terms":["ovs"],"tags":{"brand:wikidata":"Q2042514","shop":"clothes"},"addTags":{"brand":"OVS","brand:wikidata":"Q2042514","brand:wikipedia":"en:OVS (company)","name":"OVS","shop":"clothes"}},"shop/clothes/palmers-96f120":{"name":"Palmers","locationSet":{"include":["at","de"]},"geometry":["point","area"],"matchScore":2,"terms":["palmers"],"tags":{"brand:wikidata":"Q1509985","shop":"clothes"},"addTags":{"brand":"Palmers","brand:wikidata":"Q1509985","brand:wikipedia":"de:Palmers (Unternehmen)","name":"Palmers","shop":"clothes"}},"shop/clothes/patagonia-7718c5":{"name":"Patagonia","locationSet":{"include":["ar","at","au","ca","cl","cn","cz","de","fx","gb","hk","ie","it","jp","kr","pe","tw","us"]},"geometry":["point","area"],"matchScore":2,"terms":["patagonia"],"tags":{"brand:wikidata":"Q1660552","shop":"clothes"},"addTags":{"brand":"Patagonia","brand:wikidata":"Q1660552","brand:wikipedia":"en:Patagonia, Inc.","clothes":"outdoor","name":"Patagonia","shop":"clothes"}},"shop/clothes/peekandcloppenburg-65e711":{"name":"Peek & Cloppenburg","locationSet":{"include":["at","be","de","nl","pl","sk"]},"geometry":["point","area"],"matchScore":2,"terms":["peek & cloppenburg"],"tags":{"brand:wikidata":"Q2066959","shop":"clothes"},"addTags":{"brand":"Peek & Cloppenburg","brand:wikidata":"Q2066959","brand:wikipedia":"en:Peek & Cloppenburg","name":"Peek & Cloppenburg","shop":"clothes"}},"shop/clothes/pimkie-c56deb":{"name":"Pimkie","locationSet":{"include":["at","be","de","es","fr","it"]},"geometry":["point","area"],"matchScore":2,"terms":["pimkie"],"tags":{"brand:wikidata":"Q1758066","shop":"clothes"},"addTags":{"brand":"Pimkie","brand:wikidata":"Q1758066","brand:wikipedia":"en:Pimkie","name":"Pimkie","shop":"clothes"}},"shop/clothes/soliver-618b05":{"name":"s.Oliver","locationSet":{"include":["at","be","de","fr","hr"]},"geometry":["point","area"],"matchScore":2,"terms":["s.oliver"],"tags":{"brand:wikidata":"Q265056","shop":"clothes"},"addTags":{"brand":"s.Oliver","brand:wikidata":"Q265056","brand:wikipedia":"en:S.Oliver","name":"s.Oliver","shop":"clothes"}},"shop/clothes/seidensticker-a4dacd":{"name":"Seidensticker","locationSet":{"include":["at","be","ch","cz","de","fr","it","lu","nl","pl"]},"geometry":["point","area"],"matchScore":2,"terms":["seidensticker"],"tags":{"brand:wikidata":"Q1797834","shop":"clothes"},"addTags":{"brand":"Seidensticker","brand:wikidata":"Q1797834","brand:wikipedia":"de:Seidensticker (Unternehmen)","name":"Seidensticker","shop":"clothes"}},"shop/clothes/sisley-9d6d32":{"name":"Sisley","locationSet":{"include":["at","ch","de","hr","it","ru"]},"geometry":["point","area"],"matchScore":2,"terms":["sisley"],"tags":{"brand:wikidata":"Q12054325","shop":"clothes"},"addTags":{"brand":"Sisley","brand:wikidata":"Q12054325","brand:wikipedia":"cs:Sisley","name":"Sisley","shop":"clothes"}},"shop/clothes/stefanel-b6b3bf":{"name":"Stefanel","locationSet":{"include":["at","de","fr","it"]},"geometry":["point","area"],"matchScore":2,"terms":["stefanel"],"tags":{"brand:wikidata":"Q2338087","shop":"clothes"},"addTags":{"brand":"Stefanel","brand:wikidata":"Q2338087","brand:wikipedia":"ro:Stefanel (companie)","name":"Stefanel","shop":"clothes"}},"shop/clothes/streetone-1c3d1b":{"name":"Street One","locationSet":{"include":["at","be","ch","de","dk","nl"]},"geometry":["point","area"],"matchScore":2,"terms":["street one"],"tags":{"brand:wikidata":"Q61997265","shop":"clothes"},"addTags":{"brand":"Street One","brand:wikidata":"Q61997265","name":"Street One","shop":"clothes"}},"shop/clothes/takko-475eda":{"name":"Takko","locationSet":{"include":["at","cz","de","hu","nl","sk"]},"geometry":["point","area"],"matchScore":2,"terms":["takko","takko fashion"],"tags":{"brand:wikidata":"Q1371302","shop":"clothes"},"addTags":{"brand":"Takko","brand:wikidata":"Q1371302","brand:wikipedia":"de:Takko","name":"Takko","shop":"clothes"}},"shop/clothes/ullapopken-db652c":{"name":"Ulla Popken","locationSet":{"include":["at","be","ch","de","fr","nl"]},"geometry":["point","area"],"matchScore":2,"terms":["ulla popken"],"tags":{"brand:wikidata":"Q2475146","shop":"clothes"},"addTags":{"brand":"Ulla Popken","brand:wikidata":"Q2475146","brand:wikipedia":"en:Ulla Popken","name":"Ulla Popken","shop":"clothes"}},"shop/clothes/wolford-13402e":{"name":"Wolford","locationSet":{"include":["at","de","fr","gb","it","nl"]},"geometry":["point","area"],"matchScore":2,"terms":["wolford"],"tags":{"brand:wikidata":"Q431607","shop":"clothes"},"addTags":{"brand":"Wolford","brand:wikidata":"Q431607","brand:wikipedia":"en:Wolford","name":"Wolford","shop":"clothes"}},"shop/clothes/zero-9393a9":{"name":"zero","locationSet":{"include":["at","ch","de"]},"geometry":["point","area"],"matchScore":2,"terms":["zero"],"tags":{"brand:wikidata":"Q191896","shop":"clothes"},"addTags":{"brand":"zero","brand:wikidata":"Q191896","brand:wikipedia":"de:Zero (Unternehmen)","clothes":"women","name":"zero","shop":"clothes"}},"shop/coffee/tchibo-8e6167":{"name":"Tchibo","locationSet":{"include":["at","ch","cz","de","pl","sk"]},"geometry":["point","area"],"matchScore":2,"terms":["tchibo"],"tags":{"brand:wikidata":"Q564213","shop":"coffee"},"addTags":{"brand":"Tchibo","brand:wikidata":"Q564213","brand:wikipedia":"de:Tchibo","name":"Tchibo","shop":"coffee"}},"shop/computer/cyberport-a9f92a":{"name":"cyberport","locationSet":{"include":["at","de"]},"geometry":["point","area"],"matchScore":2,"terms":["cyberport"],"tags":{"brand:wikidata":"Q1147187","shop":"computer"},"addTags":{"brand":"cyberport","brand:wikidata":"Q1147187","brand:wikipedia":"de:Cyberport","name":"cyberport","shop":"computer"}},"shop/confectionery/barenland-f63894":{"name":"Bärenland","locationSet":{"include":["at","de","lu"]},"geometry":["point","area"],"matchScore":2,"terms":["bärenland"],"tags":{"brand:wikidata":"Q99510395","shop":"confectionery"},"addTags":{"brand":"Bärenland","brand:wikidata":"Q99510395","name":"Bärenland","shop":"confectionery"}},"shop/confectionery/bearsandfriends-e5aed3":{"name":"Bears & Friends","locationSet":{"include":["at","cz","de","hk","hr","hu"]},"geometry":["point","area"],"matchScore":2,"terms":["bears & friends"],"tags":{"brand:wikidata":"Q99510345","shop":"confectionery"},"addTags":{"brand":"Bears & Friends","brand:wikidata":"Q99510345","name":"Bears & Friends","shop":"confectionery"}},"shop/confectionery/hussel-c45342":{"name":"Hussel","locationSet":{"include":["at","de","pt"]},"geometry":["point","area"],"matchScore":2,"terms":["hussel"],"tags":{"brand:wikidata":"Q17123688","shop":"confectionery"},"addTags":{"brand":"Hussel","brand:wikidata":"Q17123688","brand:wikipedia":"de:Hussel","name":"Hussel","shop":"confectionery"}},"shop/confectionery/husselconfiserie-ce6a87":{"name":"Hussel Confiserie","locationSet":{"include":["at","de"]},"geometry":["point","area"],"matchScore":2,"terms":["hussel"],"tags":{"brand:wikidata":"Q17123688","shop":"confectionery"},"addTags":{"brand":"Hussel","brand:wikidata":"Q17123688","brand:wikipedia":"de:Hussel","name":"Hussel Confiserie","shop":"confectionery"}},"shop/convenience/avia-3fdfc9":{"name":"Avia","locationSet":{"include":["at","be","bg","ch","cz","de","es","fr","hu","it","nl","pl","pt","rs","ua"]},"geometry":["point","area"],"matchScore":2,"terms":["avia"],"tags":{"brand:wikidata":"Q300147","shop":"convenience"},"addTags":{"brand":"Avia","brand:wikidata":"Q300147","brand:wikipedia":"de:Avia International","name":"Avia","shop":"convenience"}},"shop/convenience/minimix-57794c":{"name":"Mini Mix","locationSet":{"include":["at","be","cy","cz","de","es","fr","gb","gr","it","me","nl","pt"]},"geometry":["point","area"],"matchScore":2,"terms":["mini mix","mini mix markt"],"tags":{"brand:wikidata":"Q327854","shop":"convenience"},"addTags":{"brand":"Mini Mix","brand:wikidata":"Q327854","brand:wikipedia":"de:Mix Markt","name":"Mini Mix","shop":"convenience"}},"shop/convenience/minim-d41f40":{"name":"miniM","locationSet":{"include":["at"]},"geometry":["point","area"],"matchScore":2,"terms":["mpreis"],"tags":{"brand:wikidata":"Q873491","shop":"convenience"},"addTags":{"brand":"MPreis","brand:wikidata":"Q873491","brand:wikipedia":"de:MPreis","name":"miniM","shop":"convenience"}},"shop/convenience/viva-856fe1":{"name":"Viva","locationSet":{"include":["by","bg","cz","hu","pl","md","ro","ru","sk","ua","ax","gg","je","cq","dk","ee","fo","fi","is","ie","im","lv","lt","no","sj","se","gb","al","ad","ba","hr","gi","gr","va","it","mt","me","mk","pt","sm","rs","si","es","xk","at","be","fr","de","li","lu","mc","nl","ch"]},"geometry":["point","area"],"matchScore":2,"terms":["viva"],"tags":{"brand:wikidata":"Q168238","shop":"convenience"},"addTags":{"brand":"Viva","brand:wikidata":"Q168238","brand:wikipedia":"en:OMV","name":"Viva","shop":"convenience"}},"shop/craft/boesner-1cc9f4":{"name":"Boesner","locationSet":{"include":["at","ch","de","dk","fr","se"]},"geometry":["point","area"],"matchScore":2,"terms":["boesner"],"tags":{"brand:wikidata":"Q890317","shop":"craft"},"addTags":{"brand":"Boesner","brand:wikidata":"Q890317","brand:wikipedia":"de:Boesner-Unternehmensgruppe","name":"Boesner","shop":"craft"}},"shop/deli/oilandvinegar-0e839f":{"name":"Oil & Vinegar","locationSet":{"include":["at","be","ch","de","jp","nl","ru","us"]},"geometry":["point","area"],"matchScore":2,"terms":["oil & vinegar"],"tags":{"brand:wikidata":"Q107987188","shop":"deli"},"addTags":{"brand":"Oil & Vinegar","brand:wikidata":"Q107987188","name":"Oil & Vinegar","shop":"deli"}},"shop/deli/vomfass-a3c745":{"name":"vomFASS","locationSet":{"include":["at","be","br","ca","ch","cz","de","dk","es","fr","gb","hk","hr","hu","il","it","jp","lv","mx","my","ph","sg","th","us"]},"geometry":["point","area"],"matchScore":2,"terms":["vomfass"],"tags":{"brand:wikidata":"Q2533008","shop":"deli"},"addTags":{"brand":"vomFASS","brand:wikidata":"Q2533008","brand:wikipedia":"de:Vom Fass","name":"vomFASS","shop":"deli"}},"shop/department_store/hema-e99f95":{"name":"HEMA","locationSet":{"include":["ae","at","be","de","es","fr","gb","lu","nl","qa"]},"geometry":["point","area"],"matchScore":2,"terms":["hema"],"tags":{"brand:wikidata":"Q903805","shop":"department_store"},"addTags":{"brand":"HEMA","brand:wikidata":"Q903805","brand:wikipedia":"en:HEMA (store)","name":"HEMA","shop":"department_store"}},"shop/department_store/tkmaxx-d02268":{"name":"TK Maxx","locationSet":{"include":["at","au","de","ie","nl","pl","uk"]},"geometry":["point","area"],"matchScore":2,"terms":["tk maxx"],"tags":{"brand:wikidata":"Q23823668","shop":"department_store"},"addTags":{"brand":"TK Maxx","brand:wikidata":"Q23823668","brand:wikipedia":"en:TK Maxx","name":"TK Maxx","shop":"department_store"}},"shop/doityourself/bauhaus-6847b5":{"name":"Bauhaus","locationSet":{"include":["at","bg","ch","cz","de","dk","ee","es","fi","hr","hu","is","lu","nl","no","se","si","sk","tr"]},"geometry":["point","area"],"matchScore":2,"terms":["bauhaus"],"tags":{"brand:wikidata":"Q672043","shop":"doityourself"},"addTags":{"brand":"Bauhaus","brand:wikidata":"Q672043","brand:wikipedia":"en:Bauhaus (company)","name":"Bauhaus","shop":"doityourself"}},"shop/doityourself/baumax-bc270a":{"name":"Baumax","locationSet":{"include":["at","cz","si","sk"]},"geometry":["point","area"],"matchScore":2,"terms":["baumax"],"searchable":false,"tags":{"brand:wikidata":"Q310499","shop":"doityourself"},"addTags":{"brand":"Baumax","brand:wikidata":"Q310499","brand:wikipedia":"de:Baumax","name":"Baumax","shop":"doityourself"}},"shop/doityourself/hagebaumarkt-f009fa":{"name":"Hagebaumarkt","locationSet":{"include":["at","be","ch","de","es","fr","lu","nl"]},"geometry":["point","area"],"matchScore":2,"terms":["hagebau","hagebaumarkt"],"tags":{"brand:wikidata":"Q1568279","shop":"doityourself"},"addTags":{"brand":"Hagebaumarkt","brand:wikidata":"Q1568279","brand:wikipedia":"de:Hagebau","name":"Hagebaumarkt","shop":"doityourself"}},"shop/doityourself/hellweg-601db4":{"name":"Hellweg","locationSet":{"include":["at","de"]},"geometry":["point","area"],"matchScore":2,"terms":["hellweg"],"tags":{"brand:wikidata":"Q1603084","shop":"doityourself"},"addTags":{"brand":"Hellweg","brand:wikidata":"Q1603084","brand:wikipedia":"de:Hellweg (Baumarkt)","name":"Hellweg","shop":"doityourself"}},"shop/doityourself/hornbach-92b1c1":{"name":"HORNBACH","locationSet":{"include":["at","ch","cz","de","lu","nl","ro","se","sk"]},"geometry":["point","area"],"matchScore":2,"terms":["hornbach"],"tags":{"brand:wikidata":"Q685926","shop":"doityourself"},"addTags":{"brand":"HORNBACH","brand:wikidata":"Q685926","brand:wikipedia":"en:Hornbach (retailer)","name":"HORNBACH","shop":"doityourself"}},"shop/doityourself/lagerhaus-5a91e1":{"name":"Lagerhaus (Österreich)","locationSet":{"include":["at"]},"geometry":["point","area"],"matchScore":2,"terms":["lagerhaus"],"tags":{"brand:wikidata":"Q1232873","shop":"doityourself"},"addTags":{"brand":"Lagerhaus","brand:wikidata":"Q1232873","brand:wikipedia":"de:RWA Raiffeisen Ware Austria","name":"Lagerhaus","shop":"doityourself"}},"shop/doityourself/obi-d5381e":{"name":"OBI","locationSet":{"include":["at","ba","ch","cz","de","hu","it","pl","ru","si","sk"]},"geometry":["point","area"],"matchScore":2,"terms":["obi"],"tags":{"brand:wikidata":"Q300518","shop":"doityourself"},"addTags":{"brand":"OBI","brand:wikidata":"Q300518","brand:wikipedia":"de:Obi (Baumarkt)","name":"OBI","shop":"doityourself"}},"shop/electronics/conrad-a3c660":{"name":"Conrad","locationSet":{"include":["at","ch","de","hu"]},"geometry":["point","area"],"matchScore":2,"terms":["conrad"],"tags":{"brand:wikidata":"Q467136","shop":"electronics"},"addTags":{"brand":"Conrad","brand:wikidata":"Q467136","brand:wikipedia":"de:Conrad Electronic","name":"Conrad","shop":"electronics"}},"shop/electronics/ep-a53b66":{"name":"EP:","locationSet":{"include":["at","ch","de","nl"]},"geometry":["point","area"],"matchScore":2,"terms":["electronicpartner","ep:"],"tags":{"brand:wikidata":"Q110271192","shop":"electronics"},"addTags":{"brand":"EP:","brand:wikidata":"Q110271192","shop":"electronics"}},"shop/electronics/hartlauer-7212ef":{"name":"Hartlauer","locationSet":{"include":["at"]},"geometry":["point","area"],"matchScore":2,"terms":["hartlauer"],"tags":{"brand:wikidata":"Q1587223","shop":"electronics"},"addTags":{"brand":"Hartlauer","brand:wikidata":"Q1587223","brand:wikipedia":"de:Hartlauer","name":"Hartlauer","shop":"electronics"}},"shop/electronics/mediamarkt-51d852":{"name":"MediaMarkt","locationSet":{"include":["at","be","ch","de","es","gr","hu","it","nl","pl","pt","se","tr"]},"geometry":["point","area"],"matchScore":2,"terms":["mediamarkt"],"tags":{"brand:wikidata":"Q2381223","shop":"electronics"},"addTags":{"brand":"MediaMarkt","brand:wikidata":"Q2381223","brand:wikipedia":"en:Media Markt","name":"MediaMarkt","shop":"electronics"}},"shop/electronics/saturn-cc2119":{"name":"Saturn","locationSet":{"include":["at","de","lu","pl"]},"geometry":["point","area"],"matchScore":2,"terms":["saturn"],"tags":{"brand:wikidata":"Q2543504","shop":"electronics"},"addTags":{"brand":"Saturn","brand:wikidata":"Q2543504","brand:wikipedia":"en:Saturn (store)","name":"Saturn","shop":"electronics"}},"shop/erotic/orion-161155":{"name":"Orion","locationSet":{"include":["at","de"]},"geometry":["point","area"],"matchScore":2,"terms":["orion"],"tags":{"brand:wikidata":"Q1609577","shop":"erotic"},"addTags":{"brand":"Orion","brand:wikidata":"Q1609577","brand:wikipedia":"de:Orion (Erotik)","name":"Orion","shop":"erotic"}},"shop/florist/hollandblumenmark-bec75c":{"name":"Holland Blumen Mark","locationSet":{"include":["at"]},"geometry":["point","area"],"matchScore":2,"terms":["holland blumen","holland blumen mark"],"searchable":false,"tags":{"brand:wikidata":"Q1624739","shop":"florist"},"addTags":{"brand":"Holland Blumen Mark","brand:wikidata":"Q1624739","brand:wikipedia":"de:Holland Blumen Mark","name":"Holland Blumen Mark","shop":"florist"}},"shop/furniture/kika-153ef8":{"name":"Kika","locationSet":{"include":["at"]},"geometry":["point","area"],"matchScore":2,"terms":["kika"],"tags":{"brand:wikidata":"Q256456","shop":"furniture"},"addTags":{"brand":"Kika","brand:wikidata":"Q256456","brand:wikipedia":"de:Kika (Möbelhaus)","name":"Kika","shop":"furniture"}},"shop/furniture/leiner-153ef8":{"name":"Leiner","locationSet":{"include":["at"]},"geometry":["point","area"],"matchScore":2,"terms":["leiner"],"tags":{"brand:wikidata":"Q1661472","shop":"furniture"},"addTags":{"brand":"Leiner","brand:wikidata":"Q1661472","brand:wikipedia":"de:Rudolf Leiner (Unternehmen)","name":"Leiner","shop":"furniture"}},"shop/furniture/mobelix-0d6d80":{"name":"Möbelix","locationSet":{"include":["at","cz","hu","sk"]},"geometry":["point","area"],"matchScore":2,"terms":["möbelix"],"tags":{"brand:wikidata":"Q877547","shop":"furniture"},"addTags":{"brand":"Möbelix","brand:wikidata":"Q877547","brand:wikipedia":"hu:Möbelix","name":"Möbelix","shop":"furniture"}},"shop/furniture/momax-a18722":{"name":"Mömax","locationSet":{"include":["by","bg","cz","hu","pl","md","ro","ru","sk","ua","ax","gg","je","cq","dk","ee","fo","fi","is","ie","im","lv","lt","no","sj","se","gb","al","ad","ba","hr","gi","gr","va","it","mt","me","mk","pt","sm","rs","si","es","xk","at","be","fr","de","li","lu","mc","nl","ch"]},"geometry":["point","area"],"matchScore":2,"terms":["mömax"],"tags":{"brand:wikidata":"Q56388481","shop":"furniture"},"addTags":{"brand":"Mömax","brand:wikidata":"Q56388481","brand:wikipedia":"hu:Mömax (nemzetközi cég)","name":"Mömax","shop":"furniture"}},"shop/furniture/rutar-153ef8":{"name":"Rutar","locationSet":{"include":["at"]},"geometry":["point","area"],"matchScore":2,"terms":["rutar"],"tags":{"brand:wikidata":"Q22910157","shop":"furniture"},"addTags":{"brand":"Rutar","brand:wikidata":"Q22910157","brand:wikipedia":"de:RUTAR Group","name":"Rutar","shop":"furniture"}},"shop/furniture/xxxlutz-5acc6e":{"name":"XXXLutz","locationSet":{"include":["by","bg","cz","hu","pl","md","ro","ru","sk","ua","ax","gg","je","cq","dk","ee","fo","fi","is","ie","im","lv","lt","no","sj","se","gb","al","ad","ba","hr","gi","gr","va","it","mt","me","mk","pt","sm","rs","si","es","xk","at","be","fr","de","li","lu","mc","nl","ch"],"exclude":["bg"]},"geometry":["point","area"],"matchScore":2,"terms":["xxxlutz"],"tags":{"brand:wikidata":"Q70339467","shop":"furniture"},"addTags":{"brand":"XXXLutz","brand:wikidata":"Q70339467","brand:wikipedia":"de:XXXLutz","name":"XXXLutz","shop":"furniture"}},"shop/garden_centre/bellaflora-fd70bd":{"name":"Bellaflora","locationSet":{"include":["at"]},"geometry":["point","area"],"matchScore":2,"terms":["bellaflora"],"tags":{"brand:wikidata":"Q815787","shop":"garden_centre"},"addTags":{"brand":"Bellaflora","brand:wikidata":"Q815787","brand:wikipedia":"de:Bellaflora","name":"Bellaflora","shop":"garden_centre"}},"shop/garden_centre/dehner-ca7541":{"name":"Dehner","locationSet":{"include":["at","de"]},"geometry":["point","area"],"matchScore":2,"terms":["dehner"],"tags":{"brand:wikidata":"Q1183029","shop":"garden_centre"},"addTags":{"brand":"Dehner","brand:wikidata":"Q1183029","brand:wikipedia":"de:Dehner (Unternehmen)","name":"Dehner","shop":"garden_centre"}},"shop/gift/nanunana-ff9593":{"name":"Nanu-Nana","locationSet":{"include":["at","de"]},"geometry":["point","area"],"matchScore":2,"terms":["nanu-nana"],"tags":{"brand:wikidata":"Q1720245","shop":"gift"},"addTags":{"brand":"Nanu-Nana","brand:wikidata":"Q1720245","brand:wikipedia":"de:Nanu-Nana","name":"Nanu-Nana","shop":"gift"}},"shop/hairdresser/hairkiller-173527":{"name":"Hairkiller","locationSet":{"include":["at","de","lu"]},"geometry":["point","area"],"matchScore":2,"terms":["hairkiller"],"tags":{"brand:wikidata":"Q58305998","shop":"hairdresser"},"addTags":{"brand":"Hairkiller","brand:wikidata":"Q58305998","name":"Hairkiller","shop":"hairdresser"}},"shop/hairdresser/klier-03dd74":{"name":"Klier","locationSet":{"include":["at","cz","de","sk"]},"geometry":["point","area"],"matchScore":2,"terms":["klier"],"tags":{"brand:wikidata":"Q1465159","shop":"hairdresser"},"addTags":{"brand":"Klier","brand:wikidata":"Q1465159","brand:wikipedia":"de:Klier Hair Group","name":"Klier","shop":"hairdresser"}},"shop/hairdresser/klipp-8c968f":{"name":"Klipp","locationSet":{"include":["at"]},"geometry":["point","area"],"matchScore":2,"terms":["klipp"],"tags":{"brand:wikidata":"Q1737304","shop":"hairdresser"},"addTags":{"brand":"Klipp","brand:wikidata":"Q1737304","brand:wikipedia":"de:Klipp Frisör","name":"Klipp","shop":"hairdresser"}},"shop/hearing_aids/neuroth-fc24ac":{"name":"Neuroth","locationSet":{"include":["at","de"]},"geometry":["point","area"],"matchScore":2,"terms":["neuroth"],"tags":{"brand:wikidata":"Q15836645","shop":"hearing_aids"},"addTags":{"brand":"Neuroth","brand:wikidata":"Q15836645","brand:wikipedia":"de:Neuroth International","name":"Neuroth","shop":"hearing_aids"}},"shop/hifi/teufel-bbb902":{"name":"Teufel","locationSet":{"include":["at","de"]},"geometry":["point","area"],"matchScore":2,"terms":["teufel"],"tags":{"brand:wikidata":"Q1351741","shop":"hifi"},"addTags":{"brand":"Teufel","brand:wikidata":"Q1351741","brand:wikipedia":"de:Lautsprecher Teufel","name":"Teufel","shop":"hifi"}},"shop/houseware/wmf-7553f4":{"name":"WMF","locationSet":{"include":["at","de"]},"geometry":["point","area"],"matchScore":2,"terms":["wmf"],"tags":{"brand:wikidata":"Q451423","shop":"houseware"},"addTags":{"brand":"WMF","brand:wikidata":"Q451423","brand:wikipedia":"en:WMF Group","name":"WMF","shop":"houseware"}},"shop/interior_decoration/butlers-85b078":{"name":"Butlers","locationSet":{"include":["at","ch","de","es","gb","hu","lu","mt","ua"]},"geometry":["point","area"],"matchScore":2,"terms":["butlers"],"tags":{"brand:wikidata":"Q1017972","shop":"interior_decoration"},"addTags":{"brand":"Butlers","brand:wikidata":"Q1017972","brand:wikipedia":"de:Butlers (Unternehmen)","name":"Butlers","shop":"interior_decoration"}},"shop/interior_decoration/depot-5f264c":{"name":"Depot","locationSet":{"include":["at","ch","de"]},"geometry":["point","area"],"matchScore":2,"terms":["depot"],"tags":{"brand:wikidata":"Q1191740","shop":"interior_decoration"},"addTags":{"brand":"Depot","brand:wikidata":"Q1191740","brand:wikipedia":"de:Gries Deco Holding","name":"Depot","shop":"interior_decoration"}},"shop/jewelry/wempe-5678fa":{"name":"Wempe","locationSet":{"include":["at","de","es","fr","gb","us"]},"geometry":["point","area"],"matchScore":2,"terms":["wempe"],"tags":{"brand:wikidata":"Q1483424","shop":"jewelry"},"addTags":{"brand":"Wempe","brand:wikidata":"Q1483424","brand:wikipedia":"de:Gerhard D. Wempe","name":"Wempe","shop":"jewelry"}},"shop/mobile_phone/a1-5dbae3":{"name":"A1","locationSet":{"include":["at","bg","by","hr","si"]},"geometry":["point","area"],"matchScore":2,"terms":["a1","velcom","velcom|a1","велком"],"tags":{"brand:wikidata":"Q688755","shop":"mobile_phone"},"addTags":{"brand":"A1","brand:wikidata":"Q688755","brand:wikipedia":"en:A1 Telekom Austria Group","name":"A1","shop":"mobile_phone"}},"shop/motorcycle/louismotorrad-5a4a1c":{"name":"Louis Motorrad","locationSet":{"include":["at","ch","de","nl"]},"geometry":["point","area"],"matchScore":2,"terms":["louis motorrad"],"fields":["name","brand","{shop/motorcycle}"],"tags":{"brand:wikidata":"Q1659681","shop":"motorcycle"},"addTags":{"brand":"Louis Motorrad","brand:wikidata":"Q1659681","brand:wikipedia":"de:Louis Motorrad","motorcycle:clothes":"yes","motorcycle:parts":"yes","shop":"motorcycle"}},"shop/motorcycle/polomotorrad-85371d":{"name":"Polo Motorrad","locationSet":{"include":["at","ch","de"]},"geometry":["point","area"],"matchScore":2,"terms":["polo motorrad"],"fields":["name","brand","{shop/motorcycle}"],"tags":{"brand:wikidata":"Q2102562","shop":"motorcycle"},"addTags":{"brand":"Polo Motorrad","brand:wikidata":"Q2102562","brand:wikipedia":"de:Polo (Unternehmen)","motorcycle:clothes":"yes","motorcycle:parts":"yes","shop":"motorcycle"}},"shop/optician/aceandtate-b2ee21":{"name":"Ace & Tate","locationSet":{"include":["at","be","ch","de","dk","es","gb","ie","nl","se"]},"geometry":["point","area"],"matchScore":2,"terms":["ace & tate"],"tags":{"brand:wikidata":"Q110516413","shop":"optician"},"addTags":{"brand":"Ace & Tate","brand:wikidata":"Q110516413","name":"Ace & Tate","shop":"optician"}},"shop/optician/eyesandmore-60ec72":{"name":"eyes and more","locationSet":{"include":["at","be","de","nl"]},"geometry":["point","area"],"matchScore":2,"terms":["eyes and more","eyes+more"],"tags":{"brand:wikidata":"Q1385775","shop":"optician"},"addTags":{"brand":"eyes and more","brand:wikidata":"Q1385775","brand:wikipedia":"de:Eyes and more","name":"eyes and more","shop":"optician"}},"shop/optician/fielmann-f003f4":{"name":"fielmann","locationSet":{"include":["at","by","ch","de","it","lt","lu","lv","nl","pl","ru","ua"]},"geometry":["point","area"],"matchScore":2,"terms":["fielmann"],"tags":{"brand:wikidata":"Q457822","shop":"optician"},"addTags":{"brand":"Fielmann","brand:wikidata":"Q457822","brand:wikipedia":"de:Fielmann","name":"Fielmann","shop":"optician"}},"shop/optician/misterspex-a59c89":{"name":"Mister Spex","locationSet":{"include":["at","ch","de","es","fr","gb","nl"]},"geometry":["point","area"],"matchScore":2,"terms":["mister spex"],"tags":{"brand:wikidata":"Q27313697","shop":"optician"},"addTags":{"brand":"Mister Spex","brand:wikidata":"Q27313697","brand:wikipedia":"de:Mister Spex","name":"Mister Spex","shop":"optician"}},"shop/optician/pearle-603e63":{"name":"Pearle","locationSet":{"include":["at","be","nl"]},"geometry":["point","area"],"matchScore":2,"terms":["pearle"],"tags":{"brand:wikidata":"Q2231148","shop":"optician"},"addTags":{"brand":"Pearle","brand:wikidata":"Q2231148","brand:wikipedia":"nl:Pearle","name":"Pearle","shop":"optician"}},"shop/outdoor/jackwolfskin-5feed5":{"name":"Jack Wolfskin","locationSet":{"include":["at","be","ch","de","fr","gb","it","nl","pl","ru","ua"]},"geometry":["point","area"],"matchScore":2,"terms":["jack wolfskin"],"tags":{"brand:wikidata":"Q536133","shop":"outdoor"},"addTags":{"brand":"Jack Wolfskin","brand:wikidata":"Q536133","brand:wikipedia":"en:Jack Wolfskin","name":"Jack Wolfskin","shop":"outdoor"}},"shop/paint/brillux-7853a1":{"name":"Brillux","locationSet":{"include":["at","ch","de","it","nl","pl"]},"geometry":["point","area"],"matchScore":2,"terms":["brillux"],"tags":{"brand:wikidata":"Q917229","shop":"paint"},"addTags":{"brand":"Brillux","brand:wikidata":"Q917229","brand:wikipedia":"de:Brillux","name":"Brillux","shop":"paint"}},"shop/perfumery/douglas-4a1f51":{"name":"Douglas","locationSet":{"include":["at","ch","cz","de","es","it","nl","pl","sk"]},"geometry":["point","area"],"matchScore":2,"terms":["douglas"],"tags":{"brand:wikidata":"Q2052213","shop":"perfumery"},"addTags":{"brand":"Douglas","brand:wikidata":"Q2052213","brand:wikipedia":"de:Parfümerie Douglas","name":"Douglas","shop":"perfumery"}},"shop/perfumery/equivalenza-59ad61":{"name":"Equivalenza","locationSet":{"include":["ad","ao","at","be","ca","cv","de","do","es","fr","gr","gt","ie","it","mx","mz","nl","pe","pt","ro","tn","uk"]},"geometry":["point","area"],"matchScore":2,"terms":["equivalenza"],"tags":{"brand:wikidata":"Q104649798","shop":"perfumery"},"addTags":{"brand":"Equivalenza","brand:wikidata":"Q104649798","name":"Equivalenza","shop":"perfumery"}},"shop/perfumery/marionnaud-d22512":{"name":"Marionnaud","locationSet":{"include":["at","ch","es","fr","it","sk"]},"geometry":["point","area"],"matchScore":2,"terms":["marionnaud"],"tags":{"brand:wikidata":"Q1129073","shop":"perfumery"},"addTags":{"brand":"Marionnaud","brand:wikidata":"Q1129073","brand:wikipedia":"fr:Marionnaud","name":"Marionnaud","shop":"perfumery"}},"shop/pet/dasfutterhaus-f5d6d7":{"name":"Das Futterhaus","locationSet":{"include":["at","de"]},"geometry":["point","area"],"matchScore":2,"terms":["das futterhaus","futterhaus"],"tags":{"brand:wikidata":"Q1167914","shop":"pet"},"addTags":{"brand":"Das Futterhaus","brand:wikidata":"Q1167914","brand:wikipedia":"de:Das Futterhaus","name":"Das Futterhaus","shop":"pet"}},"shop/pet/fressnapf-d58bba":{"name":"Fressnapf","locationSet":{"include":["at","ch","de","hu","lu"]},"geometry":["point","area"],"matchScore":2,"terms":["fressnapf"],"tags":{"brand:wikidata":"Q875796","shop":"pet"},"addTags":{"brand":"Fressnapf","brand:wikidata":"Q875796","brand:wikipedia":"de:Fressnapf","name":"Fressnapf","shop":"pet"}},"shop/pet/zooandco-f5d6d7":{"name":"Zoo & Co.","locationSet":{"include":["at","de"]},"geometry":["point","area"],"matchScore":2,"terms":["zoo & co."],"tags":{"brand:wikidata":"Q219979","shop":"pet"},"addTags":{"brand":"Zoo & Co.","brand:wikidata":"Q219979","brand:wikipedia":"de:Zoo & Co.","name":"Zoo & Co.","shop":"pet"}},"shop/shoes/ara-59c06d":{"name":"ara","locationSet":{"include":["at","de"]},"geometry":["point","area"],"matchScore":2,"terms":["ara","ara schuhe","ara shoes"],"tags":{"brand:wikidata":"Q623598","shop":"shoes"},"addTags":{"brand":"ara","brand:wikidata":"Q623598","brand:wikipedia":"de:Ara AG","name":"ara","shop":"shoes"}},"shop/shoes/humanic-07d535":{"name":"Humanic","locationSet":{"include":["at","cz","de","hu","ro","sk"]},"geometry":["point","area"],"matchScore":2,"terms":["humanic"],"tags":{"brand:wikidata":"Q1636668","shop":"shoes"},"addTags":{"brand":"Humanic","brand:wikidata":"Q1636668","brand:wikipedia":"en:Humanic","name":"Humanic","shop":"shoes"}},"shop/shoes/lloyd-928d17":{"name":"Lloyd","locationSet":{"include":["at","be","cz","de","dk","nl"]},"geometry":["point","area"],"matchScore":2,"terms":["lloyd"],"tags":{"brand:wikidata":"Q1866944","shop":"shoes"},"addTags":{"brand":"Lloyd","brand:wikidata":"Q1866944","brand:wikipedia":"de:Lloyd Shoes","name":"Lloyd","shop":"shoes"}},"shop/shoes/omoda-14cd03":{"name":"Omoda","locationSet":{"include":["at","be","de","dk","nl"]},"geometry":["point","area"],"matchScore":2,"terms":["omoda"],"tags":{"brand:wikidata":"Q64139027","shop":"shoes"},"addTags":{"brand":"Omoda","brand:wikidata":"Q64139027","brand:wikipedia":"nl:Omoda","name":"Omoda","shop":"shoes"}},"shop/shoes/quickschuh-59c06d":{"name":"Quick Schuh","locationSet":{"include":["at","de"]},"geometry":["point","area"],"matchScore":2,"terms":["quick schuh"],"tags":{"brand:wikidata":"Q2123069","shop":"shoes"},"addTags":{"brand":"Quick Schuh","brand:wikidata":"Q2123069","brand:wikipedia":"de:Quick Schuh","name":"Quick Schuh","shop":"shoes"}},"shop/shoes/reno-647f57":{"name":"Reno","locationSet":{"include":["at","ch","de","hu","sk"]},"geometry":["point","area"],"matchScore":2,"terms":["reno"],"tags":{"brand:wikidata":"Q2144204","shop":"shoes"},"addTags":{"brand":"Reno","brand:wikidata":"Q2144204","brand:wikipedia":"de:Reno (Schuhhandel)","name":"Reno","shop":"shoes"}},"shop/shoes/sizeer-a67893":{"name":"Sizeer","locationSet":{"include":["at","cz","de","hu","lt","pl","ro","sk"]},"geometry":["point","area"],"matchScore":2,"terms":["sizeer"],"tags":{"brand:wikidata":"Q93982889","shop":"shoes"},"addTags":{"brand":"Sizeer","brand:wikidata":"Q93982889","name":"Sizeer","shop":"shoes"}},"shop/shoes/snipes-679af4":{"name":"Snipes","locationSet":{"include":["at","ch","de","es","fr","it","nl","us"]},"geometry":["point","area"],"matchScore":2,"terms":["snipes"],"tags":{"brand:wikidata":"Q42306166","shop":"shoes"},"addTags":{"brand":"Snipes","brand:wikidata":"Q42306166","brand:wikipedia":"de:Snipes (Unternehmen)","name":"Snipes","shop":"shoes"}},"shop/shoes/tamaris-e95100":{"name":"Tamaris","locationSet":{"include":["at","be","de","fr","nl"]},"geometry":["point","area"],"matchScore":2,"terms":["tamaris"],"tags":{"brand:wikidata":"Q61994827","shop":"shoes"},"addTags":{"brand":"Tamaris","brand:wikidata":"Q61994827","name":"Tamaris","shop":"shoes"}},"shop/shoes/vogeleshoes-10cc84":{"name":"Vögele Shoes","locationSet":{"include":["at","ch"]},"geometry":["point","area"],"matchScore":2,"terms":["vögele shoes"],"tags":{"brand:wikidata":"Q1389021","shop":"shoes"},"addTags":{"brand":"Vögele Shoes","brand:wikidata":"Q1389021","brand:wikipedia":"de:Karl Vögele AG","name":"Vögele Shoes","shop":"shoes"}},"shop/sports/equiva-081602":{"name":"EQUIVA","locationSet":{"include":["at","de"]},"geometry":["point","area"],"matchScore":2,"terms":["equiva"],"tags":{"brand:wikidata":"Q107677634","shop":"sports"},"addTags":{"brand":"EQUIVA","brand:wikidata":"Q107677634","name":"EQUIVA","shop":"sports","sport":"equestrian"}},"shop/sports/gigasport-f4008b":{"name":"Gigasport","locationSet":{"include":["at"]},"geometry":["point","area"],"matchScore":2,"terms":["gigasport"],"tags":{"brand:wikidata":"Q101000846","shop":"sports"},"addTags":{"brand":"Gigasport","brand:wikidata":"Q101000846","name":"Gigasport","shop":"sports"}},"shop/sports/hervis-38a747":{"name":"Hervis","locationSet":{"include":["at","cz","de","hr","hu","ro","si"]},"geometry":["point","area"],"matchScore":2,"terms":["hervis","hervis sport","hervis sports"],"tags":{"brand:wikidata":"Q1614816","shop":"sports"},"addTags":{"brand":"Hervis","brand:wikidata":"Q1614816","brand:wikipedia":"de:Hervis","name":"Hervis","shop":"sports"}},"shop/sports/kramerpferdesport-081602":{"name":"Krämer Pferdesport","locationSet":{"include":["at","de"]},"geometry":["point","area"],"matchScore":2,"terms":["krämer pferdesport"],"tags":{"brand:wikidata":"Q107983500","shop":"sports"},"addTags":{"brand":"Krämer Pferdesport","brand:wikidata":"Q107983500","name":"Krämer Pferdesport","shop":"sports","sport":"equestrian"}},"shop/sports/sport2000-44fadc":{"name":"Sport 2000","locationSet":{"include":["at","de","fr","nl"]},"geometry":["point","area"],"matchScore":2,"terms":["sport 2000"],"tags":{"brand:wikidata":"Q262394","shop":"sports"},"addTags":{"brand":"Sport 2000","brand:wikidata":"Q262394","brand:wikipedia":"de:Sport 2000","name":"Sport 2000","shop":"sports"}},"shop/sports/sporttiedje-b06acf":{"name":"Sport-Tiedje","locationSet":{"include":["at","be","ch","de","dk","fr","gb","nl","pl"]},"geometry":["point","area"],"matchScore":2,"terms":["sport-tiedje"],"tags":{"brand:wikidata":"Q15848204","shop":"sports"},"addTags":{"brand":"Sport-Tiedje","brand:wikidata":"Q15848204","brand:wikipedia":"de:Sport-Tiedje","name":"Sport-Tiedje","shop":"sports"}},"shop/sports/sportler-14f94f":{"name":"Sportler","locationSet":{"include":["at","it"]},"geometry":["point","area"],"matchScore":2,"terms":["sportler"],"tags":{"brand:wikidata":"Q109336458","shop":"sports"},"addTags":{"brand":"Sportler","brand:wikidata":"Q109336458","name":"Sportler","shop":"sports"}},"shop/stationery/pagro-42cd24":{"name":"Pagro","locationSet":{"include":["at"]},"geometry":["point","area"],"matchScore":2,"terms":["pagro"],"tags":{"brand:wikidata":"Q57550022","shop":"stationery"},"addTags":{"brand":"Pagro","brand:wikidata":"Q57550022","name":"Pagro","shop":"stationery"}},"shop/stationery/smiggle-d7e848":{"name":"Smiggle","locationSet":{"include":["at","gb","hk","ie","my","nz","sg"]},"geometry":["point","area"],"matchScore":2,"terms":["smiggle"],"tags":{"brand:wikidata":"Q7544536","shop":"stationery"},"addTags":{"brand":"Smiggle","brand:wikidata":"Q7544536","brand:wikipedia":"en:Smiggle","name":"Smiggle","shop":"stationery"}},"shop/storage_rental/myplaceselfstorage-7d575b":{"name":"MyPlace-SelfStorage","locationSet":{"include":["at","ch","de"]},"geometry":["point","area"],"matchScore":2,"terms":["my place","myplace-selfstorage"],"tags":{"brand:wikidata":"Q109659129","shop":"storage_rental"},"addTags":{"brand":"MyPlace-SelfStorage","brand:wikidata":"Q109659129","name":"MyPlace-SelfStorage","shop":"storage_rental"}},"shop/supermarket/adeg-1eef1d":{"name":"ADEG","locationSet":{"include":["at"]},"geometry":["point","area"],"matchScore":2,"terms":["adeg"],"tags":{"brand:wikidata":"Q290211","shop":"supermarket"},"addTags":{"brand":"ADEG","brand:wikidata":"Q290211","brand:wikipedia":"de:ADEG Österreich","name":"ADEG","shop":"supermarket"}},"shop/supermarket/auchan-925d9b":{"name":"Auchan","locationSet":{"include":["al","ad","ba","hr","gi","gr","va","it","mt","me","mk","pt","sm","rs","si","es","xk","by","bg","cz","hu","pl","md","ro","ru","sk","ua","at","be","fr","de","li","lu","mc","nl","ch","cn"],"exclude":["ru"]},"geometry":["point","area"],"matchScore":2,"terms":["auchan"],"tags":{"brand:wikidata":"Q758603","shop":"supermarket"},"addTags":{"brand":"Auchan","brand:wikidata":"Q758603","brand:wikipedia":"en:Auchan","name":"Auchan","shop":"supermarket"}},"shop/supermarket/billa-260f39":{"name":"Billa","locationSet":{"include":["by","bg","cz","hu","pl","md","ro","ru","sk","ua","at"]},"geometry":["point","area"],"matchScore":2,"terms":["billa"],"tags":{"brand:wikidata":"Q537781","shop":"supermarket"},"addTags":{"brand":"Billa","brand:wikidata":"Q537781","brand:wikipedia":"de:Billa","name":"Billa","shop":"supermarket"}},"shop/supermarket/dennsbiomarkt-6367d0":{"name":"denn's Biomarkt","locationSet":{"include":["at","de"]},"geometry":["point","area"],"matchScore":2,"terms":["denn's biomarkt"],"tags":{"brand:wikidata":"Q48883773","shop":"supermarket"},"addTags":{"brand":"denn's Biomarkt","brand:wikidata":"Q48883773","brand:wikipedia":"de:Denn\u2019s Biomarkt","name":"denn's Biomarkt","organic":"only","shop":"supermarket"}},"shop/supermarket/etsan-1eef1d":{"name":"ETSAN","locationSet":{"include":["at"]},"geometry":["point","area"],"matchScore":2,"terms":["etsan"],"tags":{"brand:wikidata":"Q25916921","shop":"supermarket"},"addTags":{"brand":"ETSAN","brand:wikidata":"Q25916921","brand:wikipedia":"de:ETSAN","diet:halal":"only","name":"ETSAN","shop":"supermarket"}},"shop/supermarket/eurospar-4b5e11":{"name":"Eurospar","locationSet":{"include":["by","bg","cz","hu","pl","md","ro","ru","sk","ua","ax","gg","je","cq","dk","ee","fo","fi","is","ie","im","lv","lt","no","sj","se","gb","al","ad","ba","hr","gi","gr","va","it","mt","me","mk","pt","sm","rs","si","es","xk","at","be","fr","de","li","lu","mc","nl","ch"]},"geometry":["point","area"],"matchScore":2,"terms":["eurospar"],"tags":{"brand:wikidata":"Q12309283","shop":"supermarket"},"addTags":{"brand":"Eurospar","brand:wikidata":"Q12309283","brand:wikipedia":"da:Eurospar","name":"Eurospar","shop":"supermarket"}},"shop/supermarket/feneberg-6367d0":{"name":"Feneberg","locationSet":{"include":["at","de"]},"geometry":["point","area"],"matchScore":2,"terms":["feneberg"],"tags":{"brand:wikidata":"Q5345378","shop":"supermarket"},"addTags":{"brand":"Feneberg","brand:wikidata":"Q5345378","brand:wikipedia":"de:Feneberg Lebensmittel","name":"Feneberg","shop":"supermarket"}},"shop/supermarket/hofer-83285c":{"name":"Hofer","locationSet":{"include":["at","si"]},"geometry":["point","area"],"matchScore":2,"terms":["hofer"],"tags":{"brand:wikidata":"Q15815751","shop":"supermarket"},"addTags":{"brand":"Hofer","brand:wikidata":"Q15815751","brand:wikipedia":"de:Hofer KG","name":"Hofer","shop":"supermarket"}},"shop/supermarket/interspar-1eef1d":{"name":"Interspar","locationSet":{"include":["at"]},"geometry":["point","area"],"matchScore":2,"terms":["interspar"],"tags":{"brand:wikidata":"Q15820339","shop":"supermarket"},"addTags":{"brand":"Interspar","brand:wikidata":"Q15820339","brand:wikipedia":"de:Interspar (Österreich)","name":"Interspar","shop":"supermarket"}},"shop/supermarket/maximarkt-1eef1d":{"name":"Maximarkt","locationSet":{"include":["at"]},"geometry":["point","area"],"matchScore":2,"terms":["maximarkt"],"tags":{"brand:wikidata":"Q55524814","shop":"supermarket"},"addTags":{"brand":"Maximarkt","brand:wikidata":"Q55524814","brand:wikipedia":"de:Maximarkt","name":"Maximarkt","shop":"supermarket"}},"shop/supermarket/mixmarkt-3f43e2":{"name":"Mix Markt","locationSet":{"include":["at","be","cy","cz","de","es","fr","gb","gr","it","me","nl","pt"]},"geometry":["point","area"],"matchScore":2,"terms":["mix markt"],"tags":{"brand:wikidata":"Q327854","shop":"supermarket"},"addTags":{"brand":"Mix Markt","brand:wikidata":"Q327854","brand:wikipedia":"de:Mix Markt","name":"Mix Markt","shop":"supermarket"}},"shop/supermarket/mpreis-eeb4e5":{"name":"MPREIS","locationSet":{"include":["at","it"]},"geometry":["point","area"],"matchScore":2,"terms":["mpreis"],"tags":{"brand:wikidata":"Q873491","shop":"supermarket"},"addTags":{"brand":"MPREIS","brand:wikidata":"Q873491","brand:wikipedia":"de:MPreis","name":"MPREIS","shop":"supermarket"}},"shop/supermarket/nahandfrisch-6367d0":{"name":"Nah & Frisch","locationSet":{"include":["at","de"]},"geometry":["point","area"],"matchScore":2,"terms":["nah & frisch","nah und frisch"],"tags":{"brand:wikidata":"Q1963643","shop":"supermarket"},"addTags":{"brand":"Nah & Frisch","brand:wikidata":"Q1963643","brand:wikipedia":"de:Nah & Frisch","name":"Nah & Frisch","shop":"supermarket"}},"shop/supermarket/norma-c1eeeb":{"name":"NORMA","locationSet":{"include":["at","cz","de","fr"]},"geometry":["point","area"],"matchScore":2,"terms":["norma"],"tags":{"brand:wikidata":"Q450180","shop":"supermarket"},"addTags":{"brand":"NORMA","brand:wikidata":"Q450180","brand:wikipedia":"de:Norma (Supermarkt)","name":"NORMA","shop":"supermarket"}},"shop/supermarket/penny-55dfd6":{"name":"PENNY","locationSet":{"include":["at","cz","de","hu","it","ro"]},"geometry":["point","area"],"matchScore":2,"terms":["penny","penny market","penny markt"],"tags":{"brand:wikidata":"Q284688","shop":"supermarket"},"addTags":{"brand":"PENNY","brand:wikidata":"Q284688","brand:wikipedia":"en:Penny (supermarket)","name":"PENNY","shop":"supermarket"}},"shop/supermarket/unimarkt-1eef1d":{"name":"Unimarkt","locationSet":{"include":["at"]},"geometry":["point","area"],"matchScore":2,"terms":["unimarkt"],"tags":{"brand:wikidata":"Q1169599","shop":"supermarket"},"addTags":{"brand":"Unimarkt","brand:wikidata":"Q1169599","brand:wikipedia":"de:Unimarkt","name":"Unimarkt","shop":"supermarket"}},"shop/tea/sonnentor-8b9919":{"name":"Sonnentor","locationSet":{"include":["at","cz","de"]},"geometry":["point","area"],"matchScore":2,"terms":["sonnentor"],"tags":{"brand:wikidata":"Q1651649","shop":"tea"},"addTags":{"brand":"Sonnentor","brand:wikidata":"Q1651649","brand:wikipedia":"de:Sonnentor","name":"Sonnentor","shop":"tea"}},"shop/telecommunication/a1-7cd52f":{"name":"A1","locationSet":{"include":["at","bg","by","hr","si"]},"geometry":["point","area"],"matchScore":2,"terms":["a1","velcom","velcom|a1","велком"],"tags":{"brand:wikidata":"Q688755","shop":"telecommunication"},"addTags":{"brand":"A1","brand:wikidata":"Q688755","brand:wikipedia":"en:A1 Telekom Austria Group","name":"A1","shop":"telecommunication"}},"shop/tool_hire/boels-d0c09f":{"name":"Boels","locationSet":{"include":["at","be","ch","cz","de","gb","it","lu","nl","pl","sk"]},"geometry":["point","area"],"matchScore":2,"terms":["boels","boels rental"],"tags":{"brand:wikidata":"Q19901961","shop":"tool_hire"},"addTags":{"brand":"Boels","brand:wikidata":"Q19901961","brand:wikipedia":"en:Boels Rental","name":"Boels","shop":"tool_hire"}},"shop/toys/smyths-468a3c":{"name":"Smyths","locationSet":{"include":["at","ch","de","gb","ie"]},"geometry":["point","area"],"matchScore":2,"terms":["smyths","smyths toys"],"tags":{"brand:wikidata":"Q7546779","shop":"toys"},"addTags":{"brand":"Smyths","brand:wikidata":"Q7546779","brand:wikipedia":"en:Smyths","name":"Smyths","shop":"toys"}},"shop/variety_store/action-98734c":{"name":"Action","locationSet":{"include":["at","be","cz","de","fr","it","lu","nl","pl"]},"geometry":["point","area"],"matchScore":2,"terms":["action"],"tags":{"brand:wikidata":"Q2634111","shop":"variety_store"},"addTags":{"brand":"Action","brand:wikidata":"Q2634111","brand:wikipedia":"nl:Action (winkel)","name":"Action","shop":"variety_store"}},"shop/variety_store/flyingtigercopenhagen-37d726":{"name":"Flying Tiger Copenhagen","locationSet":{"include":["at","be","ch","cy","cz","de","dk","ee","es","fi","fr","gb","gr","hu","ie","is","it","jp","kr","lt","lv","mt","nl","no","pl","pt","se","sk"]},"geometry":["point","area"],"matchScore":2,"terms":["flying tiger","flying tiger copenhagen","tgr","tiger"],"tags":{"brand:wikidata":"Q2786319","shop":"variety_store"},"addTags":{"brand":"Flying Tiger Copenhagen","brand:wikidata":"Q2786319","brand:wikipedia":"en:Flying Tiger Copenhagen","name":"Flying Tiger Copenhagen","shop":"variety_store","short_name":"Flying Tiger"}},"shop/variety_store/tedi-588ea3":{"name":"TEDi","locationSet":{"include":["at","de","es","hr","it","si","sk"]},"geometry":["point","area"],"matchScore":2,"terms":["t\u20acdi","tedi"],"tags":{"brand:wikidata":"Q1364603","shop":"variety_store"},"addTags":{"brand":"TEDi","brand:wikidata":"Q1364603","brand:wikipedia":"de:TEDi","name":"TEDi","shop":"variety_store"}},"shop/wine/jacquesweindepot-f93b7c":{"name":"Jacques\u2019 Wein-Depot","locationSet":{"include":["at","de"]},"geometry":["point","area"],"matchScore":2,"terms":["jacques\u2019 wein-depot"],"tags":{"brand:wikidata":"Q1678150","shop":"wine"},"addTags":{"brand":"Jacques\u2019 Wein-Depot","brand:wikidata":"Q1678150","brand:wikipedia":"de:Jacques\u2019 Wein-Depot","name":"Jacques\u2019 Wein-Depot","shop":"wine"}},"tourism/hostel/aando-a930a5":{"name":"A&O","locationSet":{"include":["at","cz","de","dk","hu","it","nl","pl","uk"]},"geometry":["point","area"],"matchScore":2,"terms":["a&o"],"fields":["name","brand","{tourism/hostel}"],"tags":{"brand:wikidata":"Q15890910","tourism":"hostel"},"addTags":{"brand":"A&O","brand:wikidata":"Q15890910","brand:wikipedia":"de:A&O Hotels and Hostels","name":"A&O","tourism":"hostel"}},"tourism/hotel/aando-7ebc01":{"name":"A&O","locationSet":{"include":["at","cz","de","dk","hu","it","nl","pl","uk"]},"geometry":["point","area"],"matchScore":2,"terms":["a&o"],"fields":["name","brand","{tourism/hotel}"],"tags":{"brand:wikidata":"Q15890910","tourism":"hotel"},"addTags":{"brand":"A&O","brand:wikidata":"Q15890910","brand:wikipedia":"de:A&O Hotels and Hostels","name":"A&O","tourism":"hotel"}},"tourism/hotel/bandbhotel-fc8c2c":{"name":"B&B Hotel","locationSet":{"include":["by","bg","cz","hu","pl","md","ro","ru","sk","ua","ax","gg","je","cq","dk","ee","fo","fi","is","ie","im","lv","lt","no","sj","se","gb","al","ad","ba","hr","gi","gr","va","it","mt","me","mk","pt","sm","rs","si","es","xk","at","be","fr","de","li","lu","mc","nl","ch","br"]},"geometry":["point","area"],"matchScore":2,"terms":["b&b hotels"],"fields":["name","brand","{tourism/hotel}"],"tags":{"brand:wikidata":"Q794939","tourism":"hotel"},"addTags":{"brand":"B&B Hotels","brand:wikidata":"Q794939","brand:wikipedia":"en:B&B Hotels","name":"B&B Hotel","tourism":"hotel"}},"tourism/hotel/dorint-be5b30":{"name":"Dorint","locationSet":{"include":["at","ch","de"]},"geometry":["point","area"],"matchScore":2,"terms":["dorint"],"fields":["name","brand","{tourism/hotel}"],"tags":{"brand:wikidata":"Q1700015","tourism":"hotel"},"addTags":{"brand":"Dorint","brand:wikidata":"Q1700015","brand:wikipedia":"de:Dorint","name":"Dorint","tourism":"hotel"}},"tourism/hotel/intercityhotel-360354":{"name":"IntercityHotel","locationSet":{"include":["at","ch","cn","de","nl","om","sa"]},"geometry":["point","area"],"matchScore":2,"terms":["intercityhotel"],"fields":["name","brand","{tourism/hotel}"],"tags":{"brand:wikidata":"Q73642490","tourism":"hotel"},"addTags":{"brand":"IntercityHotel","brand:wikidata":"Q73642490","name":"IntercityHotel","tourism":"hotel"}},"tourism/hotel/leonardohotel-596e41":{"name":"Leonardo Hotel","locationSet":{"include":["at","be","de","es","gb","hu","it","nl"]},"geometry":["point","area"],"matchScore":2,"terms":["leonardo hotel"],"fields":["name","brand","{tourism/hotel}"],"tags":{"brand:wikidata":"Q1819101","tourism":"hotel"},"addTags":{"brand":"Leonardo Hotel","brand:wikidata":"Q1819101","brand:wikipedia":"de:Leonardo Hotels","name":"Leonardo Hotel","tourism":"hotel"}},"tourism/hotel/motelone-046fe6":{"name":"Motel One","locationSet":{"include":["by","bg","cz","hu","pl","md","ro","ru","sk","ua","ax","gg","je","cq","dk","ee","fo","fi","is","ie","im","lv","lt","no","sj","se","gb","al","ad","ba","hr","gi","gr","va","it","mt","me","mk","pt","sm","rs","si","es","xk","at","be","fr","de","li","lu","mc","nl","ch"]},"geometry":["point","area"],"matchScore":2,"terms":["motel one"],"fields":["name","brand","{tourism/hotel}"],"tags":{"brand:wikidata":"Q391080","tourism":"hotel"},"addTags":{"brand":"Motel One","brand:wikidata":"Q391080","brand:wikipedia":"en:Motel One","name":"Motel One","tourism":"hotel"}},"amenity/charging_station/bauhaus-a5756d":{"name":"Bauhaus","locationSet":{"include":["at","de"]},"geometry":["point","area"],"matchScore":2,"terms":["bauhaus"],"fields":["name","operator","{amenity/charging_station}"],"tags":{"amenity":"charging_station","operator:wikidata":"Q672043"},"addTags":{"amenity":"charging_station","operator":"Bauhaus","operator:wikidata":"Q672043","operator:wikipedia":"de:Bauhaus (Baumarkt)"}},"amenity/charging_station/bikeenergy-9f519a":{"name":"bike-energy","locationSet":{"include":["at","ch","de","fr","it","lu"]},"geometry":["point","area"],"matchScore":2,"terms":["bike-energy","bike-energy ladestation"],"fields":["name","operator","{amenity/charging_station}"],"tags":{"amenity":"charging_station","operator:wikidata":"Q67770877"},"addTags":{"amenity":"charging_station","brand":"bike-energy","brand:wikidata":"Q67770877","name":"bike-energy","operator":"bike-energy","operator:wikidata":"Q67770877"}},"amenity/charging_station/eon-7f623e":{"name":"E.ON","locationSet":{"include":["by","bg","cz","hu","pl","md","ro","ru","sk","ua","ax","gg","je","cq","dk","ee","fo","fi","is","ie","im","lv","lt","no","sj","se","gb","al","ad","ba","hr","gi","gr","va","it","mt","me","mk","pt","sm","rs","si","es","xk","at","be","fr","de","li","lu","mc","nl","ch"]},"geometry":["point","area"],"matchScore":2,"terms":["e-on drive","e.on"],"fields":["name","operator","{amenity/charging_station}"],"tags":{"amenity":"charging_station","operator:wikidata":"Q270223"},"addTags":{"amenity":"charging_station","operator":"E.ON","operator:wikidata":"Q270223","operator:wikipedia":"de:E.ON"}},"amenity/charging_station/energieag-3f60da":{"name":"Energie AG","locationSet":{"include":["at"]},"geometry":["point","area"],"matchScore":2,"terms":["energie ag"],"fields":["name","operator","{amenity/charging_station}"],"tags":{"amenity":"charging_station","operator:wikidata":"Q1231542"},"addTags":{"amenity":"charging_station","operator":"Energie AG","operator:wikidata":"Q1231542","operator:wikipedia":"de:Energie AG Oberösterreich"}},"amenity/charging_station/energieburgenland-3f60da":{"name":"Energie Burgenland","locationSet":{"include":["at"]},"geometry":["point","area"],"matchScore":2,"terms":["energie burgenland"],"fields":["name","operator","{amenity/charging_station}"],"tags":{"amenity":"charging_station","operator:wikidata":"Q15808094"},"addTags":{"amenity":"charging_station","operator":"Energie Burgenland","operator:wikidata":"Q15808094","operator:wikipedia":"de:Energie Burgenland"}},"amenity/charging_station/energiesteiermark-3f60da":{"name":"Energie Steiermark","locationSet":{"include":["at"]},"geometry":["point","area"],"matchScore":2,"terms":["energie steiermark"],"fields":["name","operator","{amenity/charging_station}"],"tags":{"amenity":"charging_station","operator:wikidata":"Q1341214"},"addTags":{"amenity":"charging_station","operator":"Energie Steiermark","operator:wikidata":"Q1341214","operator:wikipedia":"de:Energie Steiermark"}},"amenity/charging_station/evbox-7f623e":{"name":"EVBOX","locationSet":{"include":["by","bg","cz","hu","pl","md","ro","ru","sk","ua","ax","gg","je","cq","dk","ee","fo","fi","is","ie","im","lv","lt","no","sj","se","gb","al","ad","ba","hr","gi","gr","va","it","mt","me","mk","pt","sm","rs","si","es","xk","at","be","fr","de","li","lu","mc","nl","ch"]},"geometry":["point","area"],"matchScore":2,"terms":["evbox"],"fields":["name","operator","{amenity/charging_station}"],"tags":{"amenity":"charging_station","operator:wikidata":"Q28406392"},"addTags":{"amenity":"charging_station","operator":"EVBOX","operator:wikidata":"Q28406392","operator:wikipedia":"en:EVBox"}},"amenity/charging_station/ionity-7f623e":{"name":"Ionity","locationSet":{"include":["by","bg","cz","hu","pl","md","ro","ru","sk","ua","ax","gg","je","cq","dk","ee","fo","fi","is","ie","im","lv","lt","no","sj","se","gb","al","ad","ba","hr","gi","gr","va","it","mt","me","mk","pt","sm","rs","si","es","xk","at","be","fr","de","li","lu","mc","nl","ch"]},"geometry":["point","area"],"matchScore":2,"terms":["ionity","ionity gmbh"],"fields":["name","operator","{amenity/charging_station}"],"tags":{"amenity":"charging_station","operator:wikidata":"Q42717773"},"addTags":{"amenity":"charging_station","operator":"Ionity","operator:wikidata":"Q42717773","operator:wikipedia":"en:IONITY"}},"amenity/charging_station/kelag-3f60da":{"name":"Kelag","locationSet":{"include":["at"]},"geometry":["point","area"],"matchScore":2,"terms":["kelag"],"fields":["name","operator","{amenity/charging_station}"],"tags":{"amenity":"charging_station","operator:wikidata":"Q1453452"},"addTags":{"amenity":"charging_station","operator":"Kelag","operator:wikidata":"Q1453452","operator:wikipedia":"de:Kelag"}},"amenity/charging_station/linzag-3f60da":{"name":"Linz AG","locationSet":{"include":["at"]},"geometry":["point","area"],"matchScore":2,"terms":["linz ag"],"fields":["name","operator","{amenity/charging_station}"],"tags":{"amenity":"charging_station","operator:wikidata":"Q1827148"},"addTags":{"amenity":"charging_station","operator":"Linz AG","operator:wikidata":"Q1827148","operator:wikipedia":"de:Linz AG"}},"amenity/charging_station/qpark-7f623e":{"name":"Q-Park","locationSet":{"include":["by","bg","cz","hu","pl","md","ro","ru","sk","ua","ax","gg","je","cq","dk","ee","fo","fi","is","ie","im","lv","lt","no","sj","se","gb","al","ad","ba","hr","gi","gr","va","it","mt","me","mk","pt","sm","rs","si","es","xk","at","be","fr","de","li","lu","mc","nl","ch"]},"geometry":["point","area"],"matchScore":2,"terms":["q-park"],"fields":["name","operator","{amenity/charging_station}"],"tags":{"amenity":"charging_station","operator:wikidata":"Q1127798"},"addTags":{"amenity":"charging_station","operator":"Q-Park","operator:wikidata":"Q1127798","operator:wikipedia":"en:Q-Park"}},"amenity/charging_station/salzburgag-3f60da":{"name":"Salzburg AG","locationSet":{"include":["at"]},"geometry":["point","area"],"matchScore":2,"terms":["salzburg ag"],"fields":["name","operator","{amenity/charging_station}"],"tags":{"amenity":"charging_station","operator:wikidata":"Q2215905"},"addTags":{"amenity":"charging_station","operator":"Salzburg AG","operator:wikidata":"Q2215905","operator:wikipedia":"de:Salzburg AG"}},"amenity/charging_station/smatrics-3f60da":{"name":"SMATRICS","locationSet":{"include":["at"]},"geometry":["point","area"],"matchScore":2,"terms":["smatrics"],"fields":["name","operator","{amenity/charging_station}"],"tags":{"amenity":"charging_station","operator:wikidata":"Q87212466"},"addTags":{"amenity":"charging_station","operator":"SMATRICS","operator:wikidata":"Q87212466","operator:wikipedia":"de:SMATRICS"}},"amenity/charging_station/tiwag-3f60da":{"name":"TIWAG","locationSet":{"include":["at"]},"geometry":["point","area"],"matchScore":2,"terms":["tiroler wasserkraft ag","tiwag"],"fields":["name","operator","{amenity/charging_station}"],"tags":{"amenity":"charging_station","operator:wikidata":"Q1271744"},"addTags":{"amenity":"charging_station","operator":"TIWAG","operator:wikidata":"Q1271744","operator:wikipedia":"de:TIWAG"}},"amenity/charging_station/vorarlbergerkraftwerke-3f60da":{"name":"Vorarlberger Kraftwerke","locationSet":{"include":["at"]},"geometry":["point","area"],"matchScore":2,"terms":["vorarlberger kraftwerke"],"fields":["name","operator","{amenity/charging_station}"],"searchable":false,"tags":{"amenity":"charging_station","operator:wikidata":"Q1267084"},"addTags":{"amenity":"charging_station","operator":"Vorarlberger Kraftwerke","operator:wikidata":"Q1267084","operator:wikipedia":"de:Vorarlberger Kraftwerke"}},"amenity/charging_station/wienenergie-3f60da":{"name":"Wien Energie","locationSet":{"include":["at"]},"geometry":["point","area"],"matchScore":2,"terms":["wien energie","wien energie gmbh"],"fields":["name","operator","{amenity/charging_station}"],"tags":{"amenity":"charging_station","operator:wikidata":"Q2568787"},"addTags":{"amenity":"charging_station","operator":"Wien Energie","operator:wikidata":"Q2568787","operator:wikipedia":"de:Wien Energie"}},"amenity/hospital/ameos-98b222":{"name":"Ameos","locationSet":{"include":["at","ch","de"]},"geometry":["area","point"],"matchScore":2,"terms":["ameos"],"fields":["name","operator","{amenity/hospital}"],"reference":{"key":"amenity","value":"hospital"},"tags":{"amenity":"hospital","operator:wikidata":"Q462865"},"addTags":{"amenity":"hospital","healthcare":"hospital","operator":"Ameos","operator:wikidata":"Q462865","operator:wikipedia":"de:Ameos"}},"amenity/hospital/steiermarkischekrankenanstaltengesellschaftmbh-7f2aa5":{"name":"Steiermärkische Krankenanstaltengesellschaft m.b.H.","locationSet":{"include":["at"]},"geometry":["area","point"],"matchScore":2,"terms":["steiermärkische krankenanstaltengesellschaft m.b.h."],"fields":["name","operator","{amenity/hospital}"],"reference":{"key":"amenity","value":"hospital"},"tags":{"amenity":"hospital","operator:wikidata":"Q15849047"},"addTags":{"amenity":"hospital","healthcare":"hospital","operator":"Steiermärkische Krankenanstaltengesellschaft m.b.H.","operator:wikidata":"Q15849047","operator:wikipedia":"de:Steiermärkische Krankenanstaltengesellschaft"}},"amenity/library/universitatwien-3f5de0":{"name":"Universität Wien","locationSet":{"include":["at"]},"geometry":["point","area"],"matchScore":2,"terms":["universität wien"],"tags":{"amenity":"library","operator:wikidata":"Q165980"},"addTags":{"amenity":"library","operator":"Universität Wien","operator:type":"university","operator:wikidata":"Q165980","operator:wikipedia":"de:Universität Wien"}},"amenity/parking/apcoaparking-e752ad":{"name":"Apcoa Parking","locationSet":{"include":["at","be","ch","de","dk","gb","ie","it","nl","no","pl","se"]},"geometry":["area","point","vertex"],"matchScore":2,"terms":["apcoa parking"],"fields":["name","operator","{amenity/parking}"],"tags":{"amenity":"parking","operator:wikidata":"Q296108"},"addTags":{"amenity":"parking","operator":"APCOA Parking","operator:wikidata":"Q296108","operator:wikipedia":"en:APCOA Parking"}},"amenity/police/bundeskriminalamt-6671a8":{"name":"Bundeskriminalamt (Österreich)","locationSet":{"include":["at"]},"geometry":["point","area"],"matchScore":2,"terms":["bk","bundeskriminalamt"],"tags":{"amenity":"police","operator:wikidata":"Q876535"},"addTags":{"amenity":"police","operator":"Bundeskriminalamt","operator:short":"BK","operator:wikidata":"Q876535","operator:wikipedia":"de:Bundeskriminalamt (Österreich)"}},"amenity/police/bundespolizei-6671a8":{"name":"Bundespolizei (Österreich)","locationSet":{"include":["at"]},"geometry":["point","area"],"matchScore":2,"terms":["bundespolizei"],"tags":{"amenity":"police","operator:wikidata":"Q700124"},"addTags":{"amenity":"police","operator":"Bundespolizei","operator:wikidata":"Q700124","operator:wikipedia":"de:Bundespolizei (Österreich)"}},"amenity/post_box/osterreichischepostag-99c20d":{"name":"Österreichische Post AG","locationSet":{"include":["at"]},"geometry":["point","vertex"],"matchScore":2,"terms":["österreichische post ag"],"tags":{"amenity":"post_box","operator:wikidata":"Q1763505"},"addTags":{"amenity":"post_box","operator":"Österreichische Post AG","operator:wikidata":"Q1763505","operator:wikipedia":"de:Österreichische Post"}},"amenity/post_office/osterreichischepostag-bb5e7f":{"name":"Österreichische Post AG","locationSet":{"include":["at"]},"geometry":["point","area"],"matchScore":2,"terms":["österreichische post ag"],"fields":["name","operator","{amenity/post_office}"],"tags":{"amenity":"post_office","operator:wikidata":"Q1763505"},"addTags":{"amenity":"post_office","operator":"Österreichische Post AG","operator:wikidata":"Q1763505","operator:wikipedia":"de:Österreichische Post"}},"emergency/ambulance_station/wienerberufsrettung-8c385a":{"name":"Wiener Berufsrettung","locationSet":{"include":["at"]},"geometry":["point","area"],"matchScore":2,"terms":["wiener berufsrettung"],"tags":{"emergency":"ambulance_station","operator:wikidata":"Q74346929"},"addTags":{"emergency":"ambulance_station","operator":"Wiener Berufsrettung","operator:wikidata":"Q74346929","operator:wikipedia":"de:Berufsrettung Wien"}},"emergency/phone/asfinag-ed5273":{"name":"Asfinag","locationSet":{"include":["at"]},"geometry":["point","vertex"],"matchScore":2,"terms":["asfinag"],"tags":{"emergency":"phone","operator:wikidata":"Q297650"},"addTags":{"emergency":"phone","operator":"Asfinag","operator:wikidata":"Q297650","operator:wikipedia":"de:ASFINAG"}},"power/generator/energieag-7d0c03":{"name":"Energie AG","locationSet":{"include":["at"]},"geometry":["point","vertex","area"],"matchScore":2,"terms":["energie ag"],"tags":{"operator:wikidata":"Q1231542","power":"generator"},"addTags":{"operator":"Energie AG","operator:wikidata":"Q1231542","operator:wikipedia":"de:Energie AG Oberösterreich","power":"generator"}},"power/generator/evn-7d0c03":{"name":"EVN (Österreich)","locationSet":{"include":["at"]},"geometry":["point","vertex","area"],"matchScore":2,"terms":["evn","evn naturkraft"],"tags":{"operator:wikidata":"Q872140","power":"generator"},"addTags":{"operator":"EVN","operator:wikidata":"Q872140","operator:wikipedia":"de:EVN AG","power":"generator"}},"power/generator/ikbag-7d0c03":{"name":"IKB AG","locationSet":{"include":["at"]},"geometry":["point","vertex","area"],"matchScore":2,"terms":["ikb ag"],"tags":{"operator:wikidata":"Q1275183","power":"generator"},"addTags":{"operator":"IKB AG","operator:wikidata":"Q1275183","operator:wikipedia":"de:Innsbrucker Kommunalbetriebe","power":"generator"}},"power/generator/innogy-16c9d0":{"name":"Innogy","locationSet":{"include":["by","bg","cz","hu","pl","md","ro","ru","sk","ua","ax","gg","je","cq","dk","ee","fo","fi","is","ie","im","lv","lt","no","sj","se","gb","al","ad","ba","hr","gi","gr","va","it","mt","me","mk","pt","sm","rs","si","es","xk","at","be","fr","de","li","lu","mc","nl","ch"]},"geometry":["point","vertex","area"],"matchScore":2,"terms":["innogy"],"tags":{"operator:wikidata":"Q2124721","power":"generator"},"addTags":{"operator":"Innogy","operator:wikidata":"Q2124721","operator:wikipedia":"en:Innogy","power":"generator"}},"power/generator/kelag-7d0c03":{"name":"KELAG","locationSet":{"include":["at"]},"geometry":["point","vertex","area"],"matchScore":2,"terms":["kelag"],"tags":{"operator:wikidata":"Q1453452","power":"generator"},"addTags":{"operator":"KELAG","operator:wikidata":"Q1453452","operator:wikipedia":"de:Kelag","power":"generator"}},"power/generator/obb-7d0c03":{"name":"ÖBB","locationSet":{"include":["at"]},"geometry":["point","vertex","area"],"matchScore":2,"terms":["öbb"],"tags":{"operator:wikidata":"Q83822","power":"generator"},"addTags":{"operator":"ÖBB","operator:wikidata":"Q83822","operator:wikipedia":"de:Österreichische Bundesbahnen","power":"generator"}},"power/generator/rwe-16c9d0":{"name":"RWE","locationSet":{"include":["by","bg","cz","hu","pl","md","ro","ru","sk","ua","ax","gg","je","cq","dk","ee","fo","fi","is","ie","im","lv","lt","no","sj","se","gb","al","ad","ba","hr","gi","gr","va","it","mt","me","mk","pt","sm","rs","si","es","xk","at","be","fr","de","li","lu","mc","nl","ch"]},"geometry":["point","vertex","area"],"matchScore":2,"terms":["rwe"],"tags":{"operator:wikidata":"Q138133","power":"generator"},"addTags":{"operator":"RWE","operator:wikidata":"Q138133","operator:wikipedia":"en:RWE","power":"generator"}},"power/generator/salzburgag-7d0c03":{"name":"Salzburg AG","locationSet":{"include":["at"]},"geometry":["point","vertex","area"],"matchScore":2,"terms":["salzburg ag"],"tags":{"operator:wikidata":"Q2215905","power":"generator"},"addTags":{"operator":"Salzburg AG","operator:wikidata":"Q2215905","operator:wikipedia":"de:Salzburg AG","power":"generator"}},"power/generator/statkraft-16c9d0":{"name":"Statkraft","locationSet":{"include":["by","bg","cz","hu","pl","md","ro","ru","sk","ua","ax","gg","je","cq","dk","ee","fo","fi","is","ie","im","lv","lt","no","sj","se","gb","al","ad","ba","hr","gi","gr","va","it","mt","me","mk","pt","sm","rs","si","es","xk","at","be","fr","de","li","lu","mc","nl","ch"]},"geometry":["point","vertex","area"],"matchScore":2,"terms":["statkraft"],"tags":{"operator:wikidata":"Q1681145","power":"generator"},"addTags":{"operator":"Statkraft","operator:wikidata":"Q1681145","operator:wikipedia":"en:Statkraft","power":"generator"}},"power/generator/trianel-0e2731":{"name":"Trianel","locationSet":{"include":["at","ch","de","nl"]},"geometry":["point","vertex","area"],"matchScore":2,"terms":["trianel"],"tags":{"operator:wikidata":"Q1517876","power":"generator"},"addTags":{"operator":"Trianel","operator:wikidata":"Q1517876","operator:wikipedia":"de:Trianel","power":"generator"}},"power/generator/uniper-16c9d0":{"name":"Uniper","locationSet":{"include":["by","bg","cz","hu","pl","md","ro","ru","sk","ua","ax","gg","je","cq","dk","ee","fo","fi","is","ie","im","lv","lt","no","sj","se","gb","al","ad","ba","hr","gi","gr","va","it","mt","me","mk","pt","sm","rs","si","es","xk","at","be","fr","de","li","lu","mc","nl","ch"]},"geometry":["point","vertex","area"],"matchScore":2,"terms":["uniper"],"tags":{"operator:wikidata":"Q19839259","power":"generator"},"addTags":{"operator":"Uniper","operator:wikidata":"Q19839259","operator:wikipedia":"en:Uniper","power":"generator"}},"power/generator/verbundhydropowergmbh-7d0c03":{"name":"Verbund Hydro Power GmbH","locationSet":{"include":["at"]},"geometry":["point","vertex","area"],"matchScore":2,"terms":["verbund hydro power ag","verbund hydro power gmbh"],"tags":{"operator:wikidata":"Q688816","power":"generator"},"addTags":{"operator":"Verbund Hydro Power GmbH","operator:wikidata":"Q688816","operator:wikipedia":"de:Verbund AG","power":"generator"}},"power/generator/webwindenergieag-7d0c03":{"name":"WEB Windenergie AG","locationSet":{"include":["at"]},"geometry":["point","vertex","area"],"matchScore":2,"terms":["web windenergie ag"],"tags":{"operator:wikidata":"Q2537048","power":"generator"},"addTags":{"operator":"WEB Windenergie AG","operator:wikidata":"Q2537048","operator:wikipedia":"de:WEB Windenergie","power":"generator"}},"power/generator/wienenergie-7d0c03":{"name":"Wien Energie","locationSet":{"include":["at"]},"geometry":["point","vertex","area"],"matchScore":2,"terms":["wien energie"],"tags":{"operator:wikidata":"Q2568787","power":"generator"},"addTags":{"operator":"Wien Energie","operator:wikidata":"Q2568787","operator:wikipedia":"de:Wien Energie","power":"generator"}},"power/line/austrianpowergridag-7a29cb":{"name":"Austrian Power Grid AG","locationSet":{"include":["at"]},"geometry":["line"],"matchScore":2,"terms":["austrian power grid ag"],"tags":{"operator:wikidata":"Q783723","power":"line"},"addTags":{"operator":"Austrian Power Grid AG","operator:wikidata":"Q783723","operator:wikipedia":"de:Austrian Power Grid","power":"line"}},"power/line/evn-7a29cb":{"name":"EVN (Austria)","locationSet":{"include":["at"]},"geometry":["line"],"matchScore":2,"terms":["evn","evn ag"],"tags":{"operator:wikidata":"Q872140","power":"line"},"addTags":{"operator":"EVN","operator:wikidata":"Q872140","operator:wikipedia":"de:EVN AG","power":"line"}},"power/line/illwerkevkw-7a29cb":{"name":"illwerke vkw","locationSet":{"include":["at"]},"geometry":["line"],"matchScore":2,"terms":["illwerke vkw","vkw","vorarlberger illwerke","vorarlberger kraftwerke","vorarlberger kraftwerke ag","vorarlberger kraftwerke aktiengesellschaft"],"tags":{"operator:wikidata":"Q97012080","power":"line"},"addTags":{"operator":"illwerke vkw","operator:wikidata":"Q97012080","operator:wikipedia":"de:Illwerke vkw","power":"line"}},"power/line/linzag-7a29cb":{"name":"Linz AG","locationSet":{"include":["at"]},"geometry":["line"],"matchScore":2,"terms":["linz ag","linz ag strom","linz netz","linz strom ag"],"tags":{"operator:wikidata":"Q1827148","power":"line"},"addTags":{"operator":"Linz AG","operator:wikidata":"Q1827148","operator:wikipedia":"de:Linz AG","power":"line"}},"power/line/obbinfrastrukturag-7a29cb":{"name":"ÖBB-Infrastruktur AG","locationSet":{"include":["at"]},"geometry":["line"],"matchScore":2,"terms":["öbb infra","öbb-infrastruktur ag"],"tags":{"operator:wikidata":"Q56425426","power":"line"},"addTags":{"operator":"ÖBB-Infrastruktur AG","operator:short":"ÖBB Infra","operator:wikidata":"Q56425426","operator:wikipedia":"de:ÖBB Infra","power":"line"}},"power/line/salzburgag-7a29cb":{"name":"Salzburg AG","locationSet":{"include":["at"]},"geometry":["line"],"matchScore":2,"terms":["salzburg ag","salzburg netz"],"tags":{"operator:wikidata":"Q2215905","power":"line"},"addTags":{"operator":"Salzburg AG","operator:wikidata":"Q2215905","operator:wikipedia":"de:Salzburg AG","power":"line"}},"power/line/wienenergie-7a29cb":{"name":"Wien Energie","locationSet":{"include":["at"]},"geometry":["line"],"matchScore":2,"terms":["wien energie","wien energie gmbh"],"tags":{"operator:wikidata":"Q2568787","power":"line"},"addTags":{"operator":"Wien Energie","operator:wikidata":"Q2568787","operator:wikipedia":"de:Wien Energie","power":"line"}},"power/line/wienernetze-7a29cb":{"name":"Wiener Netze","locationSet":{"include":["at"]},"geometry":["line"],"matchScore":2,"terms":["wiener netze","wiener netze gmbh"],"tags":{"operator:wikidata":"Q15854358","power":"line"},"addTags":{"operator":"Wiener Netze","operator:wikidata":"Q15854358","operator:wikipedia":"de:Wiener Netze","power":"line"}},"power/minor_line/austrianpowergridag-877aa7":{"name":"Austrian Power Grid AG","locationSet":{"include":["at"]},"geometry":["line"],"matchScore":2,"terms":["austrian power grid ag"],"tags":{"operator:wikidata":"Q783723","power":"minor_line"},"addTags":{"operator":"Austrian Power Grid AG","operator:wikidata":"Q783723","operator:wikipedia":"de:Austrian Power Grid","power":"minor_line"}},"power/minor_line/evn-877aa7":{"name":"EVN (Austria)","locationSet":{"include":["at"]},"geometry":["line"],"matchScore":2,"terms":["evn","evn ag"],"tags":{"operator:wikidata":"Q872140","power":"minor_line"},"addTags":{"operator":"EVN","operator:wikidata":"Q872140","operator:wikipedia":"de:EVN AG","power":"minor_line"}},"power/minor_line/illwerkevkw-877aa7":{"name":"illwerke vkw","locationSet":{"include":["at"]},"geometry":["line"],"matchScore":2,"terms":["illwerke vkw","vkw","vorarlberger illwerke","vorarlberger kraftwerke","vorarlberger kraftwerke ag","vorarlberger kraftwerke aktiengesellschaft"],"tags":{"operator:wikidata":"Q97012080","power":"minor_line"},"addTags":{"operator":"illwerke vkw","operator:wikidata":"Q97012080","operator:wikipedia":"de:Illwerke vkw","power":"minor_line"}},"power/minor_line/linzag-877aa7":{"name":"Linz AG","locationSet":{"include":["at"]},"geometry":["line"],"matchScore":2,"terms":["linz ag","linz ag strom","linz netz","linz strom ag"],"tags":{"operator:wikidata":"Q1827148","power":"minor_line"},"addTags":{"operator":"Linz AG","operator:wikidata":"Q1827148","operator:wikipedia":"de:Linz AG","power":"minor_line"}},"power/minor_line/obbinfrastrukturag-877aa7":{"name":"ÖBB-Infrastruktur AG","locationSet":{"include":["at"]},"geometry":["line"],"matchScore":2,"terms":["öbb infra","öbb-infrastruktur ag"],"tags":{"operator:wikidata":"Q56425426","power":"minor_line"},"addTags":{"operator":"ÖBB-Infrastruktur AG","operator:short":"ÖBB Infra","operator:wikidata":"Q56425426","operator:wikipedia":"de:ÖBB Infra","power":"minor_line"}},"power/minor_line/salzburgag-877aa7":{"name":"Salzburg AG","locationSet":{"include":["at"]},"geometry":["line"],"matchScore":2,"terms":["salzburg ag","salzburg netz"],"tags":{"operator:wikidata":"Q2215905","power":"minor_line"},"addTags":{"operator":"Salzburg AG","operator:wikidata":"Q2215905","operator:wikipedia":"de:Salzburg AG","power":"minor_line"}},"power/minor_line/wienenergie-877aa7":{"name":"Wien Energie","locationSet":{"include":["at"]},"geometry":["line"],"matchScore":2,"terms":["wien energie","wien energie gmbh"],"tags":{"operator:wikidata":"Q2568787","power":"minor_line"},"addTags":{"operator":"Wien Energie","operator:wikidata":"Q2568787","operator:wikipedia":"de:Wien Energie","power":"minor_line"}},"power/minor_line/wienernetze-877aa7":{"name":"Wiener Netze","locationSet":{"include":["at"]},"geometry":["line"],"matchScore":2,"terms":["wiener netze","wiener netze gmbh"],"tags":{"operator:wikidata":"Q15854358","power":"minor_line"},"addTags":{"operator":"Wiener Netze","operator:wikidata":"Q15854358","operator:wikipedia":"de:Wiener Netze","power":"minor_line"}},"power/plant/ennskraftwerkeag-e28236":{"name":"Ennskraftwerke AG","locationSet":{"include":["at"]},"geometry":["area"],"matchScore":2,"terms":["ennskraftwerke ag"],"tags":{"operator:wikidata":"Q1343462","power":"plant"},"addTags":{"operator":"Ennskraftwerke AG","operator:wikidata":"Q1343462","operator:wikipedia":"de:Ennskraftwerke AG","power":"plant"}},"power/plant/evn-e28236":{"name":"EVN (Österreich)","locationSet":{"include":["at"]},"geometry":["area"],"matchScore":2,"terms":["evn"],"tags":{"operator:wikidata":"Q872140","power":"plant"},"addTags":{"operator":"EVN","operator:wikidata":"Q872140","operator:wikipedia":"de:EVN AG","power":"plant"}},"power/plant/illwerkevkw-e28236":{"name":"illwerke vkw","locationSet":{"include":["at"]},"geometry":["area"],"matchScore":2,"terms":["illwerke vkw","vorarlberger illwerke ag","vorarlberger kraftwerke ag"],"tags":{"operator:wikidata":"Q97012080","power":"plant"},"addTags":{"operator":"illwerke vkw","operator:wikidata":"Q97012080","operator:wikipedia":"de:Illwerke vkw","power":"plant"}},"power/plant/kelag-e28236":{"name":"KELAG","locationSet":{"include":["at"]},"geometry":["area"],"matchScore":2,"terms":["kelag"],"tags":{"operator:wikidata":"Q1453452","power":"plant"},"addTags":{"operator":"KELAG","operator:wikidata":"Q1453452","operator:wikipedia":"de:Kelag","power":"plant"}},"power/plant/salzburgag-e28236":{"name":"Salzburg AG","locationSet":{"include":["at"]},"geometry":["area"],"matchScore":2,"terms":["salzburg ag"],"tags":{"operator:wikidata":"Q2215905","power":"plant"},"addTags":{"operator":"Salzburg AG","operator:wikidata":"Q2215905","operator:wikipedia":"de:Salzburg AG","power":"plant"}},"power/plant/wienenergie-e28236":{"name":"Wien Energie","locationSet":{"include":["at"]},"geometry":["area"],"matchScore":2,"terms":["wien energie"],"tags":{"operator:wikidata":"Q2568787","power":"plant"},"addTags":{"operator":"Wien Energie","operator:wikidata":"Q2568787","operator:wikipedia":"de:Wien Energie","power":"plant"}},"power/pole/austrianpowergridag-3edee5":{"name":"Austrian Power Grid AG","locationSet":{"include":["at"]},"geometry":["point","vertex"],"matchScore":2,"terms":["austrian power grid ag"],"tags":{"operator:wikidata":"Q783723","power":"pole"},"addTags":{"operator":"Austrian Power Grid AG","operator:wikidata":"Q783723","operator:wikipedia":"de:Austrian Power Grid","power":"pole"}},"power/pole/evn-3edee5":{"name":"EVN (Austria)","locationSet":{"include":["at"]},"geometry":["point","vertex"],"matchScore":2,"terms":["evn","evn ag"],"tags":{"operator:wikidata":"Q872140","power":"pole"},"addTags":{"operator":"EVN","operator:wikidata":"Q872140","operator:wikipedia":"de:EVN AG","power":"pole"}},"power/pole/illwerkevkw-3edee5":{"name":"illwerke vkw","locationSet":{"include":["at"]},"geometry":["point","vertex"],"matchScore":2,"terms":["illwerke vkw","vkw","vorarlberger illwerke","vorarlberger kraftwerke","vorarlberger kraftwerke ag","vorarlberger kraftwerke aktiengesellschaft"],"tags":{"operator:wikidata":"Q97012080","power":"pole"},"addTags":{"operator":"illwerke vkw","operator:wikidata":"Q97012080","operator:wikipedia":"de:Illwerke vkw","power":"pole"}},"power/pole/linzag-3edee5":{"name":"Linz AG","locationSet":{"include":["at"]},"geometry":["point","vertex"],"matchScore":2,"terms":["linz ag","linz ag strom","linz netz","linz strom ag"],"tags":{"operator:wikidata":"Q1827148","power":"pole"},"addTags":{"operator":"Linz AG","operator:wikidata":"Q1827148","operator:wikipedia":"de:Linz AG","power":"pole"}},"power/pole/obbinfrastrukturag-3edee5":{"name":"ÖBB-Infrastruktur AG","locationSet":{"include":["at"]},"geometry":["point","vertex"],"matchScore":2,"terms":["öbb infra","öbb-infrastruktur ag"],"tags":{"operator:wikidata":"Q56425426","power":"pole"},"addTags":{"operator":"ÖBB-Infrastruktur AG","operator:short":"ÖBB Infra","operator:wikidata":"Q56425426","operator:wikipedia":"de:ÖBB Infra","power":"pole"}},"power/pole/salzburgag-3edee5":{"name":"Salzburg AG","locationSet":{"include":["at"]},"geometry":["point","vertex"],"matchScore":2,"terms":["salzburg ag","salzburg netz"],"tags":{"operator:wikidata":"Q2215905","power":"pole"},"addTags":{"operator":"Salzburg AG","operator:wikidata":"Q2215905","operator:wikipedia":"de:Salzburg AG","power":"pole"}},"power/pole/wienenergie-3edee5":{"name":"Wien Energie","locationSet":{"include":["at"]},"geometry":["point","vertex"],"matchScore":2,"terms":["wien energie","wien energie gmbh"],"tags":{"operator:wikidata":"Q2568787","power":"pole"},"addTags":{"operator":"Wien Energie","operator:wikidata":"Q2568787","operator:wikipedia":"de:Wien Energie","power":"pole"}},"power/pole/wienernetze-3edee5":{"name":"Wiener Netze","locationSet":{"include":["at"]},"geometry":["point","vertex"],"matchScore":2,"terms":["wiener netze","wiener netze gmbh"],"tags":{"operator:wikidata":"Q15854358","power":"pole"},"addTags":{"operator":"Wiener Netze","operator:wikidata":"Q15854358","operator:wikipedia":"de:Wiener Netze","power":"pole"}},"power/substation/allgaueruberlandwerk-91a493":{"name":"Allgäuer Überlandwerk","locationSet":{"include":["at","de"]},"geometry":["area","point"],"matchScore":2,"terms":["allgäuer überlandwerk"],"tags":{"operator:wikidata":"Q994822","power":"substation"},"addTags":{"operator":"Allgäuer Überlandwerk","operator:wikidata":"Q994822","operator:wikipedia":"de:Allgäuer Überlandwerk","power":"substation"}},"power/substation/austrianpowergridag-3e6be9":{"name":"Austrian Power Grid AG","locationSet":{"include":["at"]},"geometry":["area","point"],"matchScore":2,"terms":["austrian power grid ag"],"tags":{"operator:wikidata":"Q783723","power":"substation"},"addTags":{"operator":"Austrian Power Grid AG","operator:wikidata":"Q783723","operator:wikipedia":"de:Austrian Power Grid","power":"substation"}},"power/substation/esteiermark-3e6be9":{"name":"E-Steiermark","locationSet":{"include":["at"]},"geometry":["area","point"],"matchScore":2,"terms":["e-steiermark"],"tags":{"operator:wikidata":"Q1341214","power":"substation"},"addTags":{"operator":"E-Steiermark","operator:wikidata":"Q1341214","operator:wikipedia":"de:Energie Steiermark","power":"substation"}},"power/substation/energieag-3e6be9":{"name":"Energie AG","locationSet":{"include":["at"]},"geometry":["area","point"],"matchScore":2,"terms":["energie ag","energie ag oberösterreich"],"tags":{"operator:wikidata":"Q1231542","power":"substation"},"addTags":{"operator":"Energie AG","operator:wikidata":"Q1231542","operator:wikipedia":"de:Energie AG Oberösterreich","power":"substation"}},"power/substation/energiegraz-3e6be9":{"name":"Energie Graz","locationSet":{"include":["at"]},"geometry":["area","point"],"matchScore":2,"terms":["energie graz"],"tags":{"operator:wikidata":"Q1341216","power":"substation"},"addTags":{"operator":"Energie Graz","operator:wikidata":"Q1341216","operator:wikipedia":"de:Energie Graz","power":"substation"}},"power/substation/energieklagenfurtgmbh-3e6be9":{"name":"Energie Klagenfurt GmbH","locationSet":{"include":["at"]},"geometry":["area","point"],"matchScore":2,"terms":["energie klagenfurt gmbh"],"tags":{"operator:wikidata":"Q1341212","power":"substation"},"addTags":{"operator":"Energie Klagenfurt GmbH","operator:wikidata":"Q1341212","operator:wikipedia":"de:Energie Klagenfurt","power":"substation"}},"power/substation/energiesteiermark-3e6be9":{"name":"Energie Steiermark","locationSet":{"include":["at"]},"geometry":["area","point"],"matchScore":2,"terms":["energie netze steiermark","energie steiermark"],"tags":{"operator:wikidata":"Q1341214","power":"substation"},"addTags":{"operator":"Energie Steiermark","operator:wikidata":"Q1341214","operator:wikipedia":"de:Energie Steiermark","power":"substation"}},"power/substation/evn-3e6be9":{"name":"EVN (Österreich)","locationSet":{"include":["at"]},"geometry":["area","point"],"matchScore":2,"terms":["evn","evn ag"],"tags":{"operator:wikidata":"Q872140","power":"substation"},"addTags":{"operator":"EVN","operator:wikidata":"Q872140","operator:wikipedia":"de:EVN AG","power":"substation"}},"power/substation/eww-3e6be9":{"name":"EWW (Österreich)","locationSet":{"include":["at"]},"geometry":["area","point"],"matchScore":2,"terms":["eww"],"tags":{"operator:wikidata":"Q105762315","power":"substation"},"addTags":{"operator":"eww","operator:wikidata":"Q105762315","operator:wikipedia":"de:Eww Gruppe","power":"substation"}},"power/substation/illwerkevkw-3e6be9":{"name":"illwerke vkw","locationSet":{"include":["at"]},"geometry":["area","point"],"matchScore":2,"terms":["illwerke vkw","vkw"],"tags":{"operator:wikidata":"Q97012080","power":"substation"},"addTags":{"operator":"illwerke vkw","operator:wikidata":"Q97012080","operator:wikipedia":"de:Illwerke vkw","power":"substation"}},"power/substation/linzag-3e6be9":{"name":"Linz AG","locationSet":{"include":["at"]},"geometry":["area","point"],"matchScore":2,"terms":["linz ag","linz ag strom","linz netz","linz strom ag"],"tags":{"operator:wikidata":"Q1827148","power":"substation"},"addTags":{"operator":"Linz AG","operator:wikidata":"Q1827148","operator:wikipedia":"de:Linz AG","power":"substation"}},"power/substation/obbinfrastrukturag-3e6be9":{"name":"ÖBB-Infrastruktur AG","locationSet":{"include":["at"]},"geometry":["area","point"],"matchScore":2,"terms":["öbb infra","öbb-infrastruktur ag"],"tags":{"operator:wikidata":"Q56425426","power":"substation"},"addTags":{"operator":"ÖBB-Infrastruktur AG","operator:short":"ÖBB Infra","operator:wikidata":"Q56425426","operator:wikipedia":"de:ÖBB Infra","power":"substation"}},"power/substation/salzburgag-3e6be9":{"name":"Salzburg AG","locationSet":{"include":["at"]},"geometry":["area","point"],"matchScore":2,"terms":["salzburg ag","salzburg netz"],"tags":{"operator:wikidata":"Q2215905","power":"substation"},"addTags":{"operator":"Salzburg AG","operator:wikidata":"Q2215905","operator:wikipedia":"de:Salzburg AG","power":"substation"}},"power/substation/stadtwerkekufstein-3e6be9":{"name":"Stadtwerke Kufstein","locationSet":{"include":["at"]},"geometry":["area","point"],"matchScore":2,"terms":["stadtwerke kufstein"],"tags":{"operator:wikidata":"Q2328548","power":"substation"},"addTags":{"operator":"Stadtwerke Kufstein","operator:wikidata":"Q2328548","operator:wikipedia":"de:Stadtwerke Kufstein","power":"substation"}},"power/substation/tinetztirolernetzegmbh-3e6be9":{"name":"TINETZ-Tiroler Netze GmbH","locationSet":{"include":["at"]},"geometry":["area","point"],"matchScore":2,"terms":["tinetz-stromnetz tirol ag","tinetz-tiroler netze gmbh"],"tags":{"operator:wikidata":"Q2384377","power":"substation"},"addTags":{"operator":"TINETZ-Tiroler Netze GmbH","operator:wikidata":"Q2384377","operator:wikipedia":"de:TINETZ-Tiroler Netze GmbH","power":"substation"}},"power/substation/tiwag-3e6be9":{"name":"TIWAG","locationSet":{"include":["at"]},"geometry":["area","point"],"matchScore":2,"terms":["tiwag"],"tags":{"operator:wikidata":"Q1271744","power":"substation"},"addTags":{"operator":"TIWAG","operator:wikidata":"Q1271744","operator:wikipedia":"de:TIWAG","power":"substation"}},"power/substation/wienenergie-3e6be9":{"name":"Wien Energie","locationSet":{"include":["at"]},"geometry":["area","point"],"matchScore":2,"terms":["wien energie","wien energie gmbh"],"tags":{"operator:wikidata":"Q2568787","power":"substation"},"addTags":{"operator":"Wien Energie","operator:wikidata":"Q2568787","operator:wikipedia":"de:Wien Energie","power":"substation"}},"power/substation/wienernetze-3e6be9":{"name":"Wiener Netze","locationSet":{"include":["at"]},"geometry":["area","point"],"matchScore":2,"terms":["wiener netze"],"tags":{"operator:wikidata":"Q15854358","power":"substation"},"addTags":{"operator":"Wiener Netze","operator:wikidata":"Q15854358","operator:wikipedia":"de:Wiener Netze","power":"substation"}},"power/tower/austrianpowergridag-9e91b2":{"name":"Austrian Power Grid AG","locationSet":{"include":["at"]},"geometry":["point","vertex"],"matchScore":2,"terms":["austrian power grid ag"],"tags":{"operator:wikidata":"Q783723","power":"tower"},"addTags":{"operator":"Austrian Power Grid AG","operator:wikidata":"Q783723","operator:wikipedia":"de:Austrian Power Grid","power":"tower"}},"power/tower/evn-9e91b2":{"name":"EVN (Austria)","locationSet":{"include":["at"]},"geometry":["point","vertex"],"matchScore":2,"terms":["evn","evn ag"],"tags":{"operator:wikidata":"Q872140","power":"tower"},"addTags":{"operator":"EVN","operator:wikidata":"Q872140","operator:wikipedia":"de:EVN AG","power":"tower"}},"power/tower/illwerkevkw-9e91b2":{"name":"illwerke vkw","locationSet":{"include":["at"]},"geometry":["point","vertex"],"matchScore":2,"terms":["illwerke vkw","vkw","vorarlberger illwerke","vorarlberger kraftwerke","vorarlberger kraftwerke ag","vorarlberger kraftwerke aktiengesellschaft"],"tags":{"operator:wikidata":"Q97012080","power":"tower"},"addTags":{"operator":"illwerke vkw","operator:wikidata":"Q97012080","operator:wikipedia":"de:Illwerke vkw","power":"tower"}},"power/tower/linzag-9e91b2":{"name":"Linz AG","locationSet":{"include":["at"]},"geometry":["point","vertex"],"matchScore":2,"terms":["linz ag","linz ag strom","linz netz","linz strom ag"],"tags":{"operator:wikidata":"Q1827148","power":"tower"},"addTags":{"operator":"Linz AG","operator:wikidata":"Q1827148","operator:wikipedia":"de:Linz AG","power":"tower"}},"power/tower/obbinfrastrukturag-9e91b2":{"name":"ÖBB-Infrastruktur AG","locationSet":{"include":["at"]},"geometry":["point","vertex"],"matchScore":2,"terms":["öbb infra","öbb-infrastruktur ag"],"tags":{"operator:wikidata":"Q56425426","power":"tower"},"addTags":{"operator":"ÖBB-Infrastruktur AG","operator:short":"ÖBB Infra","operator:wikidata":"Q56425426","operator:wikipedia":"de:ÖBB Infra","power":"tower"}},"power/tower/salzburgag-9e91b2":{"name":"Salzburg AG","locationSet":{"include":["at"]},"geometry":["point","vertex"],"matchScore":2,"terms":["salzburg ag","salzburg netz"],"tags":{"operator:wikidata":"Q2215905","power":"tower"},"addTags":{"operator":"Salzburg AG","operator:wikidata":"Q2215905","operator:wikipedia":"de:Salzburg AG","power":"tower"}},"power/tower/wienenergie-9e91b2":{"name":"Wien Energie","locationSet":{"include":["at"]},"geometry":["point","vertex"],"matchScore":2,"terms":["wien energie","wien energie gmbh"],"tags":{"operator:wikidata":"Q2568787","power":"tower"},"addTags":{"operator":"Wien Energie","operator:wikidata":"Q2568787","operator:wikipedia":"de:Wien Energie","power":"tower"}},"power/tower/wienernetze-9e91b2":{"name":"Wiener Netze","locationSet":{"include":["at"]},"geometry":["point","vertex"],"matchScore":2,"terms":["wiener netze","wiener netze gmbh"],"tags":{"operator:wikidata":"Q15854358","power":"tower"},"addTags":{"operator":"Wiener Netze","operator:wikidata":"Q15854358","operator:wikipedia":"de:Wiener Netze","power":"tower"}},"power/transformer/allgaueruberlandwerk-8d0d0d":{"name":"Allgäuer Überlandwerk","locationSet":{"include":["at","de"]},"geometry":["point","vertex"],"matchScore":2,"terms":["allgäuer überlandwerk"],"tags":{"operator:wikidata":"Q994822","power":"transformer"},"addTags":{"operator":"Allgäuer Überlandwerk","operator:wikidata":"Q994822","operator:wikipedia":"de:Allgäuer Überlandwerk","power":"transformer"}},"power/transformer/austrianpowergridag-c84cac":{"name":"Austrian Power Grid AG","locationSet":{"include":["at"]},"geometry":["point","vertex"],"matchScore":2,"terms":["austrian power grid ag"],"tags":{"operator:wikidata":"Q783723","power":"transformer"},"addTags":{"operator":"Austrian Power Grid AG","operator:wikidata":"Q783723","operator:wikipedia":"de:Austrian Power Grid","power":"transformer"}},"power/transformer/esteiermark-c84cac":{"name":"E-Steiermark","locationSet":{"include":["at"]},"geometry":["point","vertex"],"matchScore":2,"terms":["e-steiermark"],"tags":{"operator:wikidata":"Q1341214","power":"transformer"},"addTags":{"operator":"E-Steiermark","operator:wikidata":"Q1341214","operator:wikipedia":"de:Energie Steiermark","power":"transformer"}},"power/transformer/energieag-c84cac":{"name":"Energie AG","locationSet":{"include":["at"]},"geometry":["point","vertex"],"matchScore":2,"terms":["energie ag","energie ag oberösterreich"],"tags":{"operator:wikidata":"Q1231542","power":"transformer"},"addTags":{"operator":"Energie AG","operator:wikidata":"Q1231542","operator:wikipedia":"de:Energie AG Oberösterreich","power":"transformer"}},"power/transformer/energiegraz-c84cac":{"name":"Energie Graz","locationSet":{"include":["at"]},"geometry":["point","vertex"],"matchScore":2,"terms":["energie graz"],"tags":{"operator:wikidata":"Q1341216","power":"transformer"},"addTags":{"operator":"Energie Graz","operator:wikidata":"Q1341216","operator:wikipedia":"de:Energie Graz","power":"transformer"}},"power/transformer/energieklagenfurtgmbh-c84cac":{"name":"Energie Klagenfurt GmbH","locationSet":{"include":["at"]},"geometry":["point","vertex"],"matchScore":2,"terms":["energie klagenfurt gmbh"],"tags":{"operator:wikidata":"Q1341212","power":"transformer"},"addTags":{"operator":"Energie Klagenfurt GmbH","operator:wikidata":"Q1341212","operator:wikipedia":"de:Energie Klagenfurt","power":"transformer"}},"power/transformer/energiesteiermark-c84cac":{"name":"Energie Steiermark","locationSet":{"include":["at"]},"geometry":["point","vertex"],"matchScore":2,"terms":["energie netze steiermark","energie steiermark"],"tags":{"operator:wikidata":"Q1341214","power":"transformer"},"addTags":{"operator":"Energie Steiermark","operator:wikidata":"Q1341214","operator:wikipedia":"de:Energie Steiermark","power":"transformer"}},"power/transformer/evn-c84cac":{"name":"EVN (Österreich)","locationSet":{"include":["at"]},"geometry":["point","vertex"],"matchScore":2,"terms":["evn","evn ag"],"tags":{"operator:wikidata":"Q872140","power":"transformer"},"addTags":{"operator":"EVN","operator:wikidata":"Q872140","operator:wikipedia":"de:EVN AG","power":"transformer"}},"power/transformer/eww-c84cac":{"name":"EWW (Österreich)","locationSet":{"include":["at"]},"geometry":["point","vertex"],"matchScore":2,"terms":["eww"],"tags":{"operator:wikidata":"Q105762315","power":"transformer"},"addTags":{"operator":"eww","operator:wikidata":"Q105762315","operator:wikipedia":"de:Eww Gruppe","power":"transformer"}},"power/transformer/illwerkevkw-c84cac":{"name":"illwerke vkw","locationSet":{"include":["at"]},"geometry":["point","vertex"],"matchScore":2,"terms":["illwerke vkw","vkw"],"tags":{"operator:wikidata":"Q97012080","power":"transformer"},"addTags":{"operator":"illwerke vkw","operator:wikidata":"Q97012080","operator:wikipedia":"de:Illwerke vkw","power":"transformer"}},"power/transformer/linzag-c84cac":{"name":"Linz AG","locationSet":{"include":["at"]},"geometry":["point","vertex"],"matchScore":2,"terms":["linz ag","linz ag strom","linz netz","linz strom ag"],"tags":{"operator:wikidata":"Q1827148","power":"transformer"},"addTags":{"operator":"Linz AG","operator:wikidata":"Q1827148","operator:wikipedia":"de:Linz AG","power":"transformer"}},"power/transformer/obbinfrastrukturag-c84cac":{"name":"ÖBB-Infrastruktur AG","locationSet":{"include":["at"]},"geometry":["point","vertex"],"matchScore":2,"terms":["öbb infra","öbb-infrastruktur ag"],"tags":{"operator:wikidata":"Q56425426","power":"transformer"},"addTags":{"operator":"ÖBB-Infrastruktur AG","operator:short":"ÖBB Infra","operator:wikidata":"Q56425426","operator:wikipedia":"de:ÖBB Infra","power":"transformer"}},"power/transformer/salzburgag-c84cac":{"name":"Salzburg AG","locationSet":{"include":["at"]},"geometry":["point","vertex"],"matchScore":2,"terms":["salzburg ag","salzburg netz"],"tags":{"operator:wikidata":"Q2215905","power":"transformer"},"addTags":{"operator":"Salzburg AG","operator:wikidata":"Q2215905","operator:wikipedia":"de:Salzburg AG","power":"transformer"}},"power/transformer/stadtwerkekufstein-c84cac":{"name":"Stadtwerke Kufstein","locationSet":{"include":["at"]},"geometry":["point","vertex"],"matchScore":2,"terms":["stadtwerke kufstein"],"tags":{"operator:wikidata":"Q2328548","power":"transformer"},"addTags":{"operator":"Stadtwerke Kufstein","operator:wikidata":"Q2328548","operator:wikipedia":"de:Stadtwerke Kufstein","power":"transformer"}},"power/transformer/tinetztirolernetzegmbh-c84cac":{"name":"TINETZ-Tiroler Netze GmbH","locationSet":{"include":["at"]},"geometry":["point","vertex"],"matchScore":2,"terms":["tinetz-stromnetz tirol ag","tinetz-tiroler netze gmbh"],"tags":{"operator:wikidata":"Q2384377","power":"transformer"},"addTags":{"operator":"TINETZ-Tiroler Netze GmbH","operator:wikidata":"Q2384377","operator:wikipedia":"de:TINETZ-Tiroler Netze GmbH","power":"transformer"}},"power/transformer/tiwag-c84cac":{"name":"TIWAG","locationSet":{"include":["at"]},"geometry":["point","vertex"],"matchScore":2,"terms":["tiwag"],"tags":{"operator:wikidata":"Q1271744","power":"transformer"},"addTags":{"operator":"TIWAG","operator:wikidata":"Q1271744","operator:wikipedia":"de:TIWAG","power":"transformer"}},"power/transformer/wienenergie-c84cac":{"name":"Wien Energie","locationSet":{"include":["at"]},"geometry":["point","vertex"],"matchScore":2,"terms":["wien energie","wien energie gmbh"],"tags":{"operator:wikidata":"Q2568787","power":"transformer"},"addTags":{"operator":"Wien Energie","operator:wikidata":"Q2568787","operator:wikipedia":"de:Wien Energie","power":"transformer"}},"power/transformer/wienernetze-c84cac":{"name":"Wiener Netze","locationSet":{"include":["at"]},"geometry":["point","vertex"],"matchScore":2,"terms":["wiener netze"],"tags":{"operator:wikidata":"Q15854358","power":"transformer"},"addTags":{"operator":"Wiener Netze","operator:wikidata":"Q15854358","operator:wikipedia":"de:Wiener Netze","power":"transformer"}},"type/route/power/obb-eee531":{"name":"ÖBB","locationSet":{"include":["at"]},"geometry":["relation"],"matchScore":2,"terms":["öbb"],"reference":{"key":"route","value":"power"},"tags":{"operator:wikidata":"Q83822","route":"power","type":"route"},"addTags":{"operator":"ÖBB","operator:wikidata":"Q83822","operator:wikipedia":"de:Österreichische Bundesbahnen","route":"power","type":"route"}},"telecom/exchange/a1telekomaustria-72cd8b":{"name":"A1 Telekom Austria","locationSet":{"include":["at"]},"geometry":["point","area"],"matchScore":2,"terms":["a1 telekom austria"],"fields":["name","operator","{telecom/exchange}"],"tags":{"operator:wikidata":"Q279847","telecom":"exchange"},"addTags":{"operator":"A1 Telekom Austria","operator:wikidata":"Q279847","operator:wikipedia":"de:A1 Telekom Austria","telecom":"exchange"}},"public_transport/platform/bus_point/idsbk-5f8357":{"name":"IDS BK","locationSet":{"include":["at","cz","sk"]},"geometry":["point","vertex"],"matchScore":2,"terms":["ids bk"],"reference":{"key":"public_transport","value":"platform"},"tags":{"bus":"yes","network:wikidata":"Q4241634","public_transport":"platform"},"addTags":{"bus":"yes","highway":"bus_stop","network":"IDS BK","network:wikidata":"Q4241634","network:wikipedia":"cs:Bratislavská integrovaná doprava","public_transport":"platform"}},"public_transport/platform/bus_point/idsjmk-5f8357":{"name":"IDS JMK","locationSet":{"include":["at","cz","sk"]},"geometry":["point","vertex"],"matchScore":2,"terms":["ids jmk"],"reference":{"key":"public_transport","value":"platform"},"tags":{"bus":"yes","network:wikidata":"Q12020731","public_transport":"platform"},"addTags":{"bus":"yes","highway":"bus_stop","network":"IDS JMK","network:wikidata":"Q12020731","network:wikipedia":"cs:Integrovaný dopravní systém Jihomoravského kraje","public_transport":"platform"}},"public_transport/platform/bus_point/karntnerlinien-65afe6":{"name":"Kärntner Linien","locationSet":{"include":["at"]},"geometry":["point","vertex"],"matchScore":2,"terms":["kärnter linien","kärntner linien","verkehrsverbund kärnten","vkg"],"reference":{"key":"public_transport","value":"platform"},"tags":{"bus":"yes","network:wikidata":"Q2516465","public_transport":"platform"},"addTags":{"bus":"yes","highway":"bus_stop","network":"Kärntner Linien","network:short":"VKG","network:wikidata":"Q2516465","network:wikipedia":"de:Verkehrsverbund Kärnten","public_transport":"platform"}},"public_transport/platform/bus_point/liechtensteinbus-318594":{"name":"Liechtenstein Bus","locationSet":{"include":["at","ch","li"]},"geometry":["point","vertex"],"matchScore":2,"terms":["liechtenstein bus","liemobil","vlm"],"reference":{"key":"public_transport","value":"platform"},"tags":{"bus":"yes","network:wikidata":"Q172652","public_transport":"platform"},"addTags":{"bus":"yes","highway":"bus_stop","network":"Liechtenstein Bus","network:short":"VLM","network:wikidata":"Q172652","network:wikipedia":"de:Verkehrsbetrieb LIECHTENSTEINmobil","public_transport":"platform"}},"public_transport/platform/bus_point/mhdbratislava-78b59b":{"name":"MHD Bratislava","locationSet":{"include":["at","hu","sk"]},"geometry":["point","vertex"],"matchScore":2,"terms":["mhd bratislava"],"reference":{"key":"public_transport","value":"platform"},"tags":{"bus":"yes","network:wikidata":"Q7258005","public_transport":"platform"},"addTags":{"bus":"yes","highway":"bus_stop","network":"MHD Bratislava","network:wikidata":"Q7258005","network:wikipedia":"en:Public transport in Bratislava","public_transport":"platform"}},"public_transport/platform/bus_point/oberosterreichischerverkehrsverbund-4ec599":{"name":"Oberösterreichischer Verkehrsverbund","locationSet":{"include":["at","de"]},"geometry":["point","vertex"],"matchScore":2,"terms":["oberösterreichischer verkehrsverbund"],"reference":{"key":"public_transport","value":"platform"},"tags":{"bus":"yes","network:wikidata":"Q2011605","public_transport":"platform"},"addTags":{"bus":"yes","highway":"bus_stop","network":"Oberösterreichischer Verkehrsverbund","network:wikidata":"Q2011605","network:wikipedia":"de:Oberösterreichischer Verkehrsverbund","public_transport":"platform"}},"public_transport/platform/bus_point/oovv-4ec599":{"name":"OÖVV","locationSet":{"include":["at","de"]},"geometry":["point","vertex"],"matchScore":2,"terms":["oövv"],"reference":{"key":"public_transport","value":"platform"},"tags":{"bus":"yes","network:wikidata":"Q2011605","public_transport":"platform"},"addTags":{"bus":"yes","highway":"bus_stop","network":"OÖVV","network:wikidata":"Q2011605","network:wikipedia":"de:Oberösterreichischer Verkehrsverbund","public_transport":"platform"}},"public_transport/platform/bus_point/ostwind-6ea317":{"name":"Ostwind","locationSet":{"include":["at","ch","de","li"]},"geometry":["point","vertex"],"matchScore":2,"terms":["ostwind"],"reference":{"key":"public_transport","value":"platform"},"tags":{"bus":"yes","network:wikidata":"Q2394207","public_transport":"platform"},"addTags":{"bus":"yes","highway":"bus_stop","network":"Ostwind","network:wikidata":"Q2394207","network:wikipedia":"de:Tarifverbund Ostwind","public_transport":"platform"}},"public_transport/platform/bus_point/regionalverkehroberbayern-4ec599":{"name":"Regionalverkehr Oberbayern","locationSet":{"include":["at","de"]},"geometry":["point","vertex"],"matchScore":2,"terms":["regionalverkehr oberbayern"],"reference":{"key":"public_transport","value":"platform"},"tags":{"bus":"yes","network:wikidata":"Q2138493","public_transport":"platform"},"addTags":{"bus":"yes","highway":"bus_stop","network":"Regionalverkehr Oberbayern","network:wikidata":"Q2138493","network:wikipedia":"de:Regionalverkehr Oberbayern","public_transport":"platform"}},"public_transport/platform/bus_point/salzburgerverkehrsverbund-4ec599":{"name":"Salzburger Verkehrsverbund","locationSet":{"include":["at","de"]},"geometry":["point","vertex"],"matchScore":2,"terms":["salzburger verkehrsverbund","svv"],"reference":{"key":"public_transport","value":"platform"},"tags":{"bus":"yes","network:wikidata":"Q1254319","public_transport":"platform"},"addTags":{"bus":"yes","highway":"bus_stop","network":"Salzburger Verkehrsverbund","network:short":"SVV","network:wikidata":"Q1254319","network:wikipedia":"de:Salzburger Verkehrsverbund","public_transport":"platform"}},"public_transport/platform/bus_point/verkehrsverbundostregion-65afe6":{"name":"Verkehrsverbund Ost-Region","locationSet":{"include":["at"]},"geometry":["point","vertex"],"matchScore":2,"terms":["verkehrsverbund ost-region"],"reference":{"key":"public_transport","value":"platform"},"tags":{"bus":"yes","network:wikidata":"Q2516485","public_transport":"platform"},"addTags":{"bus":"yes","highway":"bus_stop","network":"Verkehrsverbund Ost-Region","network:wikidata":"Q2516485","network:wikipedia":"de:Verkehrsverbund Ost-Region","public_transport":"platform"}},"public_transport/platform/bus_point/verkehrsverbundsteiermark-65afe6":{"name":"Verkehrsverbund Steiermark","locationSet":{"include":["at"]},"geometry":["point","vertex"],"matchScore":2,"terms":["steirischer verkehrsverbund","verbund linie","verkehrsverbund steiermark","vvst"],"reference":{"key":"public_transport","value":"platform"},"tags":{"bus":"yes","network:wikidata":"Q2341954","public_transport":"platform"},"addTags":{"bus":"yes","highway":"bus_stop","network":"Verkehrsverbund Steiermark","network:short":"VVSt","network:wikidata":"Q2341954","network:wikipedia":"de:Steirischer Verkehrsverbund","public_transport":"platform"}},"public_transport/platform/bus_point/verkehrsverbundtirol-4ec599":{"name":"Verkehrsverbund Tirol","locationSet":{"include":["at","de"]},"geometry":["point","vertex"],"matchScore":2,"terms":["ivb","verkehrsverbund tirol"],"reference":{"key":"public_transport","value":"platform"},"tags":{"bus":"yes","network:wikidata":"Q1668732","public_transport":"platform"},"addTags":{"bus":"yes","highway":"bus_stop","network":"Verkehrsverbund Tirol","network:wikidata":"Q1668732","network:wikipedia":"de:Verkehrsverbund Tirol","public_transport":"platform"}},"public_transport/platform/bus_point/vor-f355a5":{"name":"VOR","locationSet":{"include":["at","cz","hu","sk"]},"geometry":["point","vertex"],"matchScore":2,"terms":["vor"],"reference":{"key":"public_transport","value":"platform"},"tags":{"bus":"yes","network:wikidata":"Q2516485","public_transport":"platform"},"addTags":{"bus":"yes","highway":"bus_stop","network":"VOR","network:wikidata":"Q2516485","network:wikipedia":"de:Verkehrsverbund Ost-Region","public_transport":"platform"}},"public_transport/platform/bus_point/vvt-16a1b1":{"name":"VVT","locationSet":{"include":["at","ch","de","it"]},"geometry":["point","vertex"],"matchScore":2,"terms":["vvt"],"reference":{"key":"public_transport","value":"platform"},"tags":{"bus":"yes","network:wikidata":"Q1668732","public_transport":"platform"},"addTags":{"bus":"yes","highway":"bus_stop","network":"VVT","network:wikidata":"Q1668732","network:wikipedia":"de:Verkehrsverbund Tirol","public_transport":"platform"}},"type/route/bus/idsbk-151bbe":{"name":"IDS BK","locationSet":{"include":["at","cz","sk"]},"geometry":["relation"],"matchScore":2,"terms":["ids bk"],"reference":{"key":"route","value":"bus"},"tags":{"network:wikidata":"Q4241634","route":"bus","type":"route"},"addTags":{"network":"IDS BK","network:wikidata":"Q4241634","network:wikipedia":"cs:Bratislavská integrovaná doprava","route":"bus","type":"route"}},"type/route/bus/idsjmk-151bbe":{"name":"IDS JMK","locationSet":{"include":["at","cz","sk"]},"geometry":["relation"],"matchScore":2,"terms":["ids jmk"],"reference":{"key":"route","value":"bus"},"tags":{"network:wikidata":"Q12020731","route":"bus","type":"route"},"addTags":{"network":"IDS JMK","network:wikidata":"Q12020731","network:wikipedia":"cs:Integrovaný dopravní systém Jihomoravského kraje","route":"bus","type":"route"}},"type/route/bus/karntnerlinien-2dfba8":{"name":"Kärntner Linien","locationSet":{"include":["at"]},"geometry":["relation"],"matchScore":2,"terms":["kärnter linien","kärntner linien","verkehrsverbund kärnten","vkg"],"reference":{"key":"route","value":"bus"},"tags":{"network:wikidata":"Q2516465","route":"bus","type":"route"},"addTags":{"network":"Kärntner Linien","network:short":"VKG","network:wikidata":"Q2516465","network:wikipedia":"de:Verkehrsverbund Kärnten","route":"bus","type":"route"}},"type/route/bus/liechtensteinbus-471f75":{"name":"Liechtenstein Bus","locationSet":{"include":["at","ch","li"]},"geometry":["relation"],"matchScore":2,"terms":["liechtenstein bus","liemobil","vlm"],"reference":{"key":"route","value":"bus"},"tags":{"network:wikidata":"Q172652","route":"bus","type":"route"},"addTags":{"network":"Liechtenstein Bus","network:short":"VLM","network:wikidata":"Q172652","network:wikipedia":"de:Verkehrsbetrieb LIECHTENSTEINmobil","route":"bus","type":"route"}},"type/route/bus/mhdbratislava-5363ca":{"name":"MHD Bratislava","locationSet":{"include":["at","hu","sk"]},"geometry":["relation"],"matchScore":2,"terms":["mhd bratislava"],"reference":{"key":"route","value":"bus"},"tags":{"network:wikidata":"Q7258005","route":"bus","type":"route"},"addTags":{"network":"MHD Bratislava","network:wikidata":"Q7258005","network:wikipedia":"en:Public transport in Bratislava","route":"bus","type":"route"}},"type/route/bus/oberosterreichischerverkehrsverbund-14c6fb":{"name":"Oberösterreichischer Verkehrsverbund","locationSet":{"include":["at","de"]},"geometry":["relation"],"matchScore":2,"terms":["oberösterreichischer verkehrsverbund"],"reference":{"key":"route","value":"bus"},"tags":{"network:wikidata":"Q2011605","route":"bus","type":"route"},"addTags":{"network":"Oberösterreichischer Verkehrsverbund","network:wikidata":"Q2011605","network:wikipedia":"de:Oberösterreichischer Verkehrsverbund","route":"bus","type":"route"}},"type/route/bus/oovv-14c6fb":{"name":"OÖVV","locationSet":{"include":["at","de"]},"geometry":["relation"],"matchScore":2,"terms":["oövv"],"reference":{"key":"route","value":"bus"},"tags":{"network:wikidata":"Q2011605","route":"bus","type":"route"},"addTags":{"network":"OÖVV","network:wikidata":"Q2011605","network:wikipedia":"de:Oberösterreichischer Verkehrsverbund","route":"bus","type":"route"}},"type/route/bus/ostwind-ff6344":{"name":"Ostwind","locationSet":{"include":["at","ch","de","li"]},"geometry":["relation"],"matchScore":2,"terms":["ostwind"],"reference":{"key":"route","value":"bus"},"tags":{"network:wikidata":"Q2394207","route":"bus","type":"route"},"addTags":{"network":"Ostwind","network:wikidata":"Q2394207","network:wikipedia":"de:Tarifverbund Ostwind","route":"bus","type":"route"}},"type/route/bus/regionalverkehroberbayern-14c6fb":{"name":"Regionalverkehr Oberbayern","locationSet":{"include":["at","de"]},"geometry":["relation"],"matchScore":2,"terms":["regionalverkehr oberbayern"],"reference":{"key":"route","value":"bus"},"tags":{"network:wikidata":"Q2138493","route":"bus","type":"route"},"addTags":{"network":"Regionalverkehr Oberbayern","network:wikidata":"Q2138493","network:wikipedia":"de:Regionalverkehr Oberbayern","route":"bus","type":"route"}},"type/route/bus/salzburgerverkehrsverbund-14c6fb":{"name":"Salzburger Verkehrsverbund","locationSet":{"include":["at","de"]},"geometry":["relation"],"matchScore":2,"terms":["salzburger verkehrsverbund","svv"],"reference":{"key":"route","value":"bus"},"tags":{"network:wikidata":"Q1254319","route":"bus","type":"route"},"addTags":{"network":"Salzburger Verkehrsverbund","network:short":"SVV","network:wikidata":"Q1254319","network:wikipedia":"de:Salzburger Verkehrsverbund","route":"bus","type":"route"}},"type/route/bus/verkehrsverbundostregion-2dfba8":{"name":"Verkehrsverbund Ost-Region","locationSet":{"include":["at"]},"geometry":["relation"],"matchScore":2,"terms":["verkehrsverbund ost-region"],"reference":{"key":"route","value":"bus"},"tags":{"network:wikidata":"Q2516485","route":"bus","type":"route"},"addTags":{"network":"Verkehrsverbund Ost-Region","network:wikidata":"Q2516485","network:wikipedia":"de:Verkehrsverbund Ost-Region","route":"bus","type":"route"}},"type/route/bus/verkehrsverbundsteiermark-2dfba8":{"name":"Verkehrsverbund Steiermark","locationSet":{"include":["at"]},"geometry":["relation"],"matchScore":2,"terms":["steirischer verkehrsverbund","verbund linie","verkehrsverbund steiermark","vvst"],"reference":{"key":"route","value":"bus"},"tags":{"network:wikidata":"Q2341954","route":"bus","type":"route"},"addTags":{"network":"Verkehrsverbund Steiermark","network:short":"VVSt","network:wikidata":"Q2341954","network:wikipedia":"de:Steirischer Verkehrsverbund","route":"bus","type":"route"}},"type/route/bus/verkehrsverbundtirol-14c6fb":{"name":"Verkehrsverbund Tirol","locationSet":{"include":["at","de"]},"geometry":["relation"],"matchScore":2,"terms":["ivb","verkehrsverbund tirol"],"reference":{"key":"route","value":"bus"},"tags":{"network:wikidata":"Q1668732","route":"bus","type":"route"},"addTags":{"network":"Verkehrsverbund Tirol","network:wikidata":"Q1668732","network:wikipedia":"de:Verkehrsverbund Tirol","route":"bus","type":"route"}},"type/route/bus/vor-df49c7":{"name":"VOR","locationSet":{"include":["at","cz","hu","sk"]},"geometry":["relation"],"matchScore":2,"terms":["vor"],"reference":{"key":"route","value":"bus"},"tags":{"network:wikidata":"Q2516485","route":"bus","type":"route"},"addTags":{"network":"VOR","network:wikidata":"Q2516485","network:wikipedia":"de:Verkehrsverbund Ost-Region","route":"bus","type":"route"}},"type/route/bus/vvt-4160f4":{"name":"VVT","locationSet":{"include":["at","ch","de","it"]},"geometry":["relation"],"matchScore":2,"terms":["vvt"],"reference":{"key":"route","value":"bus"},"tags":{"network:wikidata":"Q1668732","route":"bus","type":"route"},"addTags":{"network":"VVT","network:wikidata":"Q1668732","network:wikipedia":"de:Verkehrsverbund Tirol","route":"bus","type":"route"}},"type/route/train/dbintercityexpress-9473ac":{"name":"DB InterCityExpress","locationSet":{"include":["at","be","ch","de","fx","nl"]},"geometry":["relation"],"matchScore":2,"terms":["db fernverkehr","db intercityexpress"],"reference":{"key":"route","value":"train"},"tags":{"network:wikidata":"Q129172","route":"train","type":"route"},"addTags":{"network":"DB InterCityExpress","network:wikidata":"Q129172","network:wikipedia":"de:Intercity-Express","operator":"DB Fernverkehr","operator:wikidata":"Q452140","operator:wikipedia":"de:DB Fernverkehr","route":"train","type":"route"}},"type/route/train/eurocity-6b9d23":{"name":"EuroCity","locationSet":{"include":["by","bg","cz","hu","pl","md","ro","ru","sk","ua","ax","gg","je","cq","dk","ee","fo","fi","is","ie","im","lv","lt","no","sj","se","gb","al","ad","ba","hr","gi","gr","va","it","mt","me","mk","pt","sm","rs","si","es","xk","at","be","fr","de","li","lu","mc","nl","ch"]},"geometry":["relation"],"matchScore":2,"terms":["eurocity"],"reference":{"key":"route","value":"train"},"tags":{"network:wikidata":"Q753050","route":"train","type":"route"},"addTags":{"network":"EuroCity","network:wikidata":"Q753050","network:wikipedia":"en:EuroCity","route":"train","type":"route"}},"type/route/train/euronight-6b9d23":{"name":"EuroNight","locationSet":{"include":["by","bg","cz","hu","pl","md","ro","ru","sk","ua","ax","gg","je","cq","dk","ee","fo","fi","is","ie","im","lv","lt","no","sj","se","gb","al","ad","ba","hr","gi","gr","va","it","mt","me","mk","pt","sm","rs","si","es","xk","at","be","fr","de","li","lu","mc","nl","ch"]},"geometry":["relation"],"matchScore":2,"terms":["euronight"],"reference":{"key":"route","value":"train"},"tags":{"network:wikidata":"Q257307","route":"train","type":"route"},"addTags":{"network":"EuroNight","network:wikidata":"Q257307","network:wikipedia":"en:EuroNight","route":"train","type":"route"}},"type/route/train/karntnerlinien-70a9a9":{"name":"Kärntner Linien","locationSet":{"include":["at"]},"geometry":["relation"],"matchScore":2,"terms":["kärntner linien","vvk"],"reference":{"key":"route","value":"train"},"tags":{"network:wikidata":"Q2516465","route":"train","type":"route"},"addTags":{"network":"Kärntner Linien","network:short":"VVK","network:wikidata":"Q2516465","network:wikipedia":"de:Verkehrsverbund Kärnten","route":"train","type":"route"}},"type/route/train/oberosterreichischerverkehrsverbund-70a9a9":{"name":"Oberösterreichischer Verkehrsverbund","locationSet":{"include":["at"]},"geometry":["relation"],"matchScore":2,"terms":["oberösterreichischer verkehrsverbund","oövv"],"reference":{"key":"route","value":"train"},"tags":{"network:wikidata":"Q2011605","route":"train","type":"route"},"addTags":{"network":"Oberösterreichischer Verkehrsverbund","network:short":"OÖVV","network:wikidata":"Q2011605","network:wikipedia":"de:Oberösterreichischer Verkehrsverbund","route":"train","type":"route"}},"type/route/train/ostwind-aa6868":{"name":"Ostwind","locationSet":{"include":["at","ch","de","li"]},"geometry":["relation"],"matchScore":2,"terms":["ostwind"],"reference":{"key":"route","value":"train"},"tags":{"network:wikidata":"Q2394207","route":"train","type":"route"},"addTags":{"network":"Ostwind","network:wikidata":"Q2394207","network:wikipedia":"de:Tarifverbund Ostwind","route":"train","type":"route"}},"type/route/train/sbahnsteiermark-70a9a9":{"name":"S-Bahn Steiermark","locationSet":{"include":["at"]},"geometry":["relation"],"matchScore":2,"terms":["s-bahn steiermark"],"reference":{"key":"route","value":"train"},"tags":{"network:wikidata":"Q163036","route":"train","type":"route"},"addTags":{"network":"S-Bahn Steiermark","network:wikidata":"Q163036","network:wikipedia":"de:S-Bahn Steiermark","route":"train","type":"route"}},"type/route/train/salzburgerverkehrsverbund-bba518":{"name":"Salzburger Verkehrsverbund","locationSet":{"include":["at","de"]},"geometry":["relation"],"matchScore":2,"terms":["salzburger verkehrsverbund","svv"],"reference":{"key":"route","value":"train"},"tags":{"network:wikidata":"Q1254319","route":"train","type":"route"},"addTags":{"network":"Salzburger Verkehrsverbund","network:short":"SVV","network:wikidata":"Q1254319","network:wikipedia":"de:Salzburger Verkehrsverbund","route":"train","type":"route"}},"type/route/train/verkehrsverbundkarnten-70a9a9":{"name":"Verkehrsverbund Kärnten","locationSet":{"include":["at"]},"geometry":["relation"],"matchScore":2,"terms":["verkehrsverbund kärnten","vvk"],"reference":{"key":"route","value":"train"},"tags":{"network:wikidata":"Q2516465","route":"train","type":"route"},"addTags":{"network":"Verkehrsverbund Kärnten","network:short":"VVK","network:wikidata":"Q2516465","network:wikipedia":"de:Verkehrsverbund Kärnten","route":"train","type":"route"}},"type/route/train/verkehrsverbundtirol-872add":{"name":"Verkehrsverbund Tirol","locationSet":{"include":["at","ch","de","it"]},"geometry":["relation"],"matchScore":2,"terms":["verkehrsverbund tirol","vvt"],"reference":{"key":"route","value":"train"},"tags":{"network:wikidata":"Q1668732","route":"train","type":"route"},"addTags":{"network":"Verkehrsverbund Tirol","network:short":"VVT","network:wikidata":"Q1668732","network:wikipedia":"de:Verkehrsverbund Tirol","route":"train","type":"route"}},"type/route/tram/ivb-af7fcf":{"name":"IVB","locationSet":{"include":["at"]},"geometry":["relation"],"matchScore":2,"terms":["ivb"],"reference":{"key":"route","value":"tram"},"tags":{"network:wikidata":"Q1664245","route":"tram","type":"route"},"addTags":{"network":"IVB","network:wikidata":"Q1664245","network:wikipedia":"de:Innsbrucker Verkehrsbetriebe und Stubaitalbahn","route":"tram","type":"route"}},"type/route/tram/oovv-af7fcf":{"name":"OÖVV","locationSet":{"include":["at"]},"geometry":["relation"],"matchScore":2,"terms":["linz linien gmbh","oövv"],"reference":{"key":"route","value":"tram"},"tags":{"network:wikidata":"Q2011605","route":"tram","type":"route"},"addTags":{"network":"OÖVV","network:wikidata":"Q2011605","network:wikipedia":"de:Oberösterreichischer Verkehrsverbund","operator":"Linz Linien GmbH","route":"tram","type":"route"}},"type/route/tram/verkehrsverbundtirol-af7fcf":{"name":"Verkehrsverbund Tirol","locationSet":{"include":["at"]},"geometry":["relation"],"matchScore":2,"terms":["innsbrucker verkehrsbetriebe und stubaitalbahn","ivb","verkehrsverbund tirol","vvt"],"reference":{"key":"route","value":"tram"},"tags":{"network:wikidata":"Q1668732","route":"tram","type":"route"},"addTags":{"network":"Verkehrsverbund Tirol","network:short":"VVT","network:wikidata":"Q1668732","network:wikipedia":"de:Verkehrsverbund Tirol","operator":"Innsbrucker Verkehrsbetriebe und Stubaitalbahn","operator:short":"IVB","operator:wikidata":"Q1664245","operator:wikipedia":"de:Innsbrucker Verkehrsbetriebe und Stubaitalbahn","route":"tram","type":"route"}},"type/route/tram/vor-af7fcf":{"name":"VOR","locationSet":{"include":["at"]},"geometry":["relation"],"matchScore":2,"terms":["vor","wiener linien","wl"],"reference":{"key":"route","value":"tram"},"tags":{"network:wikidata":"Q2516485","route":"tram","type":"route"},"addTags":{"network":"VOR","network:wikidata":"Q2516485","network:wikipedia":"de:Verkehrsverbund Ost-Region","operator":"Wiener Linien","operator:short":"WL","operator:wikidata":"Q668849","operator:wikipedia":"de:Wiener Linien","route":"tram","type":"route"}},"type/route/trolleybus/salzburgerverkehrsverbund-0d37d5":{"name":"Salzburger Verkehrsverbund","locationSet":{"include":["at"]},"geometry":["relation"],"matchScore":2,"terms":["salzburg ag","salzburger verkehrsverbund"],"reference":{"key":"route","value":"trolleybus"},"tags":{"network:wikidata":"Q1254319","route":"trolleybus","type":"route"},"addTags":{"network":"Salzburger Verkehrsverbund","network:wikidata":"Q1254319","network:wikipedia":"de:Salzburger Verkehrsverbund","operator":"Salzburg AG","operator:wikidata":"Q2215905","operator:wikipedia":"de:Salzburg AG","route":"trolleybus","type":"route"}}}