{"advertising/totem/engen-be6bfd":{"name":"Engen","locationSet":{"include":["dz","eg","ly","ma","sd","tn","eh","io","bi","km","dj","er","et","tf","ke","mg","mw","mu","yt","mz","re","rw","sc","so","ss","ug","tz","zm","zw","ao","cm","cf","td","cg","cd","gq","ga","st","bw","sz","ls","na","za","bj","bf","cv","ci","gm","gh","gn","gw","lr","ml","mr","ne","ng","sn","sl","tg","sh"]},"geometry":["point","line"],"matchScore":2,"terms":["engen","engen petroleum"],"tags":{"advertising":"totem","brand:wikidata":"Q3054251"},"addTags":{"advertising":"totem","brand":"Engen","brand:wikidata":"Q3054251"}},"amenity/atm/bankofafrica-0517a4":{"name":"Bank of Africa","locationSet":{"include":["bf","bi","bj","cd","ci","dj","et","fr","gh","ke","mg","ml","ne","rw","sn","tg","tz","ug"]},"geometry":["point","vertex"],"matchScore":2,"terms":["bank of africa","boa"],"fields":["name","brand","{amenity/atm}"],"tags":{"amenity":"atm","brand:wikidata":"Q2882627"},"addTags":{"amenity":"atm","brand":"Bank of Africa","brand:wikidata":"Q2882627","operator":"Bank of Africa","operator:wikidata":"Q2882627","short_name":"BOA"}},"amenity/atm/banqueatlantique-d61c57":{"name":"Banque Atlantique","locationSet":{"include":["bf","bj","ci","cm","ml","ne","sn","tg"]},"geometry":["point","vertex"],"matchScore":2,"terms":["banque atlantique"],"fields":["name","brand","{amenity/atm}"],"tags":{"amenity":"atm","brand:wikidata":"Q2882890"},"addTags":{"amenity":"atm","brand":"Banque Atlantique","brand:wikidata":"Q2882890","operator":"Banque Atlantique","operator:wikidata":"Q2882890"}},"amenity/atm/banquedelhabitatdumali-3ba76d":{"name":"Banque de l'Habitat du Mali","locationSet":{"include":["ml"]},"geometry":["point","vertex"],"matchScore":2,"terms":["banque de l'habitat du mali"],"fields":["name","brand","{amenity/atm}"],"tags":{"amenity":"atm","brand:wikidata":"Q4857076"},"addTags":{"amenity":"atm","brand":"Banque de l'Habitat du Mali","brand:wikidata":"Q4857076","operator":"Banque de l'Habitat du Mali","operator:wikidata":"Q4857076"}},"amenity/atm/bdm-3ba76d":{"name":"BDM","locationSet":{"include":["ml"]},"geometry":["point","vertex"],"matchScore":2,"terms":["banque du développement du mali","bdm"],"fields":["name","brand","{amenity/atm}"],"tags":{"amenity":"atm","brand:wikidata":"Q2883022"},"addTags":{"amenity":"atm","brand":"BDM","brand:wikidata":"Q2883022","official_name":"Banque du Développement du Mali","operator":"BDM","operator:wikidata":"Q2883022"}},"amenity/atm/bnda-3ba76d":{"name":"BNDA","locationSet":{"include":["ml"]},"geometry":["point","vertex"],"matchScore":2,"terms":["banque nationale de développement agricole","bnda"],"fields":["name","brand","{amenity/atm}"],"tags":{"amenity":"atm","brand:wikidata":"Q30594734"},"addTags":{"amenity":"atm","brand":"BNDA","brand:wikidata":"Q30594734","official_name":"Banque Nationale de Développement Agricole","operator":"BNDA","operator:wikidata":"Q30594734"}},"amenity/atm/bnpparibas-4ed91f":{"name":"BNP Paribas","locationSet":{"include":["ae","af","ar","at","bf","bg","bh","br","ca","ch","ci","cl","co","cz","de","dk","dz","es","fi","fr","gb","gf","gp","hu","ie","il","it","kw","ma","ml","mq","mx","nl","no","pe","pt","qa","re","ro","ru","sa","se","sk","sn","tn","tr","us"]},"geometry":["point","vertex"],"matchScore":2,"terms":["bnp paribas"],"fields":["name","brand","{amenity/atm}"],"tags":{"amenity":"atm","brand:wikidata":"Q499707"},"addTags":{"amenity":"atm","brand":"BNP Paribas","brand:wikidata":"Q499707","operator":"BNP Paribas","operator:wikidata":"Q499707"}},"amenity/atm/uba-69edd8":{"name":"UBA","locationSet":{"include":["bf","bj","cd","cg","ci","cm","fr","ga","gb","gh","gn","ke","lr","ml","mz","ng","sl","sn","td","tz","ug","us","zm"]},"geometry":["point","vertex"],"matchScore":2,"terms":["uba","united bank for africa"],"fields":["name","brand","{amenity/atm}"],"tags":{"amenity":"atm","brand:wikidata":"Q513457"},"addTags":{"amenity":"atm","brand":"UBA","brand:wikidata":"Q513457","official_name":"United Bank for Africa","operator":"UBA","operator:wikidata":"Q513457"}},"amenity/bank/bankofafrica-0bcfcb":{"name":"Bank of Africa","locationSet":{"include":["bf","bi","bj","cd","ci","dj","et","fr","gh","ke","mg","ml","ne","rw","sn","tg","tz","ug"]},"geometry":["point","area"],"matchScore":2,"terms":["bank of africa","boa"],"tags":{"amenity":"bank","brand:wikidata":"Q2882627"},"addTags":{"amenity":"bank","brand":"Bank of Africa","brand:wikidata":"Q2882627","name":"Bank of Africa","short_name":"BOA"}},"amenity/bank/banqueatlantique-dc0023":{"name":"Banque Atlantique","locationSet":{"include":["bf","bj","ci","cm","ml","ne","sn","tg"]},"geometry":["point","area"],"matchScore":2,"terms":["banque atlantique"],"tags":{"amenity":"bank","brand:wikidata":"Q2882890"},"addTags":{"amenity":"bank","brand":"Banque Atlantique","brand:wikidata":"Q2882890","name":"Banque Atlantique"}},"amenity/bank/banquedelhabitatdumali-edd991":{"name":"Banque de l'Habitat du Mali","locationSet":{"include":["ml"]},"geometry":["point","area"],"matchScore":2,"terms":["banque de l'habitat du mali"],"tags":{"amenity":"bank","brand:wikidata":"Q4857076"},"addTags":{"amenity":"bank","brand":"Banque de l'Habitat du Mali","brand:wikidata":"Q4857076","name":"Banque de l'Habitat du Mali"}},"amenity/bank/bdm-edd991":{"name":"BDM","locationSet":{"include":["ml"]},"geometry":["point","area"],"matchScore":2,"terms":["banque du développement du mali","bdm"],"tags":{"amenity":"bank","brand:wikidata":"Q2883022"},"addTags":{"amenity":"bank","brand":"BDM","brand:wikidata":"Q2883022","name":"BDM","official_name":"Banque du Développement du Mali"}},"amenity/bank/bnda-edd991":{"name":"BNDA","locationSet":{"include":["ml"]},"geometry":["point","area"],"matchScore":2,"terms":["banque nationale de développement agricole","bnda"],"tags":{"amenity":"bank","brand:wikidata":"Q30594734"},"addTags":{"amenity":"bank","brand":"BNDA","brand:wikidata":"Q30594734","name":"BNDA","official_name":"Banque Nationale de Développement Agricole"}},"amenity/bank/bnpparibas-f7d855":{"name":"BNP Paribas","locationSet":{"include":["ae","af","ar","at","bf","bg","bh","br","ca","ch","ci","cl","co","cz","de","dk","dz","es","fi","fr","gb","gf","gp","hu","ie","il","it","kw","ma","ml","mq","mx","nl","no","pe","pt","qa","re","ro","ru","sa","se","sk","sn","tn","tr","us"]},"geometry":["point","area"],"matchScore":2,"terms":["bnp paribas"],"tags":{"amenity":"bank","brand:wikidata":"Q499707"},"addTags":{"amenity":"bank","brand":"BNP Paribas","brand:wikidata":"Q499707","name":"BNP Paribas"}},"amenity/bank/uba-95540f":{"name":"UBA","locationSet":{"include":["bf","bj","cd","cg","ci","cm","fr","ga","gb","gh","gn","ke","lr","ml","mz","ng","sl","sn","td","tz","ug","us","zm"]},"geometry":["point","area"],"matchScore":2,"terms":["uba","united bank for africa"],"tags":{"amenity":"bank","brand:wikidata":"Q513457"},"addTags":{"amenity":"bank","brand":"UBA","brand:wikidata":"Q513457","name":"UBA","official_name":"United Bank for Africa"}},"amenity/fuel/engen-b7f522":{"name":"Engen","locationSet":{"include":["dz","eg","ly","ma","sd","tn","eh","io","bi","km","dj","er","et","tf","ke","mg","mw","mu","yt","mz","re","rw","sc","so","ss","ug","tz","zm","zw","ao","cm","cf","td","cg","cd","gq","ga","st","bw","sz","ls","na","za","bj","bf","cv","ci","gm","gh","gn","gw","lr","ml","mr","ne","ng","sn","sl","tg","sh"]},"geometry":["point","area"],"matchScore":2,"terms":["engen","engen petroleum"],"fields":["name","brand","{amenity/fuel}"],"tags":{"amenity":"fuel","brand:wikidata":"Q3054251"},"addTags":{"amenity":"fuel","brand":"Engen","brand:wikidata":"Q3054251","name":"Engen"}},"amenity/money_transfer/orangemoney-b39c4d":{"name":"Orange Money","locationSet":{"include":["ml"]},"geometry":["point","area"],"matchScore":2,"terms":["orange money"],"tags":{"amenity":"money_transfer","brand:wikidata":"Q16668220"},"addTags":{"amenity":"money_transfer","brand":"Orange Money","brand:wikidata":"Q16668220","name":"Orange Money"}},"shop/mobile_phone/airtel-62d34e":{"name":"Airtel","locationSet":{"include":["io","bi","km","dj","er","et","tf","ke","mg","mw","mu","yt","mz","re","rw","sc","so","ss","ug","tz","zm","zw","ao","cm","cf","td","cg","cd","gq","ga","st","bw","sz","ls","na","za","bj","bf","cv","ci","gm","gh","gn","gw","lr","ml","mr","ne","ng","sn","sl","tg","sh","in"]},"geometry":["point","area"],"matchScore":2,"terms":["airtel"],"tags":{"brand:wikidata":"Q854867","shop":"mobile_phone"},"addTags":{"brand":"Airtel","brand:wikidata":"Q854867","name":"Airtel","shop":"mobile_phone"}},"shop/telecommunication/malitel-478897":{"name":"Malitel","locationSet":{"include":["ml"]},"geometry":["point","area"],"matchScore":2,"terms":["malitel"],"tags":{"brand:wikidata":"Q6743829","shop":"telecommunication"},"addTags":{"brand":"Malitel","brand:wikidata":"Q6743829","name":"Malitel","shop":"telecommunication"}},"shop/telecommunication/orangemali-478897":{"name":"Orange Mali","locationSet":{"include":["ml"]},"geometry":["point","area"],"matchScore":2,"terms":["orange mali"],"tags":{"brand:wikidata":"Q3355061","shop":"telecommunication"},"addTags":{"brand":"Orange Mali","brand:wikidata":"Q3355061","name":"Orange Mali","shop":"telecommunication"}},"public_transport/platform/bus_point/sotrama-3ae922":{"name":"sotrama","locationSet":{"include":["ml"]},"geometry":["point","vertex"],"matchScore":2,"terms":["sotrama"],"reference":{"key":"public_transport","value":"platform"},"tags":{"bus":"yes","network:wikidata":"Q94379013","public_transport":"platform"},"addTags":{"bus":"yes","highway":"bus_stop","network":"sotrama","network:wikidata":"Q94379013","public_transport":"platform"}},"type/route/bus/sotrama-db086a":{"name":"sotrama","locationSet":{"include":["ml"]},"geometry":["relation"],"matchScore":2,"terms":["sotrama"],"reference":{"key":"route","value":"bus"},"tags":{"network:wikidata":"Q94379013","route":"bus","type":"route"},"addTags":{"network":"sotrama","network:wikidata":"Q94379013","route":"bus","type":"route"}}}