{"amenity/atm/attijariwafabank-e568eb":{"name":"Attijariwafa Bank (التجاري وفا بنك)","locationSet":{"include":["ae","be","bf","bj","ca","cd","cg","ch","ci","cm","eg","es","fr","ga","gb","it","ma","mr","nl","sa","sn","tg","tn"]},"geometry":["point","vertex"],"matchScore":2,"terms":["attijariwafa bank","attijariwafa bank التجاري وفا بنك","التجاري وفا بنك"],"fields":["name","brand","{amenity/atm}"],"tags":{"amenity":"atm","brand:wikidata":"Q758052"},"addTags":{"amenity":"atm","brand":"Attijariwafa Bank","brand:ar":"التجاري وفا بنك","brand:en":"Attijariwafa Bank","brand:wikidata":"Q758052","name:ar":"التجاري وفا بنك","name:en":"Attijariwafa Bank","operator":"Attijariwafa Bank","operator:wikidata":"Q758052"}},"amenity/atm/bankalfalah-d0578d":{"name":"Bank Alfalah (بینک الفلاح)","locationSet":{"include":["ae","af","bd","bh","pk"]},"geometry":["point","vertex"],"matchScore":2,"terms":["bank alfalah","bank alfalah limited","habib credit and exchange bank","بینک الفلاح","بینک الفلاح لمیٹڈ"],"fields":["name","brand","{amenity/atm}"],"tags":{"amenity":"atm","brand:wikidata":"Q4855895"},"addTags":{"amenity":"atm","brand":"Bank Alfalah","brand:en":"Bank Alfalah","brand:ur":"بینک الفلاح","brand:wikidata":"Q4855895","name:en":"Bank Alfalah","name:ur":"بینک الفلاح","operator":"Bank Alfalah","operator:wikidata":"Q4855895"}},"amenity/atm/bnpparibas-6b438a":{"name":"BNP Paribas","locationSet":{"include":["ae","af","ar","at","bf","bg","bh","br","ca","ch","ci","cl","co","cz","de","dk","dz","es","fi","fr","gb","gf","gp","hu","ie","il","it","kw","lu","ma","ml","mq","mx","nl","no","pe","pt","qa","re","ro","ru","sa","se","sk","sn","tn","tr","us"]},"geometry":["point","vertex"],"matchScore":2,"terms":["bnp paribas"],"fields":["name","brand","{amenity/atm}"],"tags":{"amenity":"atm","brand:wikidata":"Q499707"},"addTags":{"amenity":"atm","brand":"BNP Paribas","brand:wikidata":"Q499707","operator":"BNP Paribas","operator:wikidata":"Q499707"}},"amenity/atm/emiratesnbd-a44f4b":{"name":"Emirates NBD","locationSet":{"include":["ae"]},"geometry":["point","vertex"],"matchScore":2,"terms":["emirates nbd"],"fields":["name","brand","{amenity/atm}"],"tags":{"amenity":"atm","brand:wikidata":"Q5372575"},"addTags":{"amenity":"atm","brand":"Emirates NBD","brand:wikidata":"Q5372575","operator":"Emirates NBD","operator:wikidata":"Q5372575"}},"amenity/atm/mcb-a8db09":{"name":"MCB (Pakistan)","locationSet":{"include":["ae","bh","lk","pk"]},"geometry":["point","vertex"],"matchScore":2,"terms":["mcb","mcb bank","ایم سی بی بینک"],"fields":["name","brand","{amenity/atm}"],"tags":{"amenity":"atm","brand:wikidata":"Q15982510"},"addTags":{"amenity":"atm","brand":"MCB","brand:en":"MCB","brand:ur":"ایم سی بی بینک","brand:wikidata":"Q15982510","name:en":"MCB","name:ur":"ایم سی بی بینک","operator":"MCB","operator:wikidata":"Q15982510"}},"amenity/atm/societegenerale-de4691":{"name":"سوسيتيه جنرال","locationSet":{"include":["ae","qa","sa"]},"geometry":["point","vertex"],"matchScore":2,"terms":["societé génerale","سوسيتيه جنرال"],"fields":["name","brand","{amenity/atm}"],"tags":{"amenity":"atm","brand:wikidata":"Q270363"},"addTags":{"amenity":"atm","brand":"سوسيتيه جنرال","brand:ar":"سوسيتيه جنرال","brand:en":"Societé Génerale","brand:wikidata":"Q270363","name:ar":"سوسيتيه جنرال","name:en":"Societé Génerale","operator":"سوسيتيه جنرال","operator:wikidata":"Q270363"}},"amenity/bank/attijariwafabank-c1cae6":{"name":"Attijariwafa Bank (التجاري وفا بنك)","locationSet":{"include":["ae","be","bf","bj","ca","cd","cg","ch","ci","cm","eg","es","fr","ga","gb","it","ma","mr","nl","sa","sn","tg","tn"]},"geometry":["point","area"],"matchScore":2,"terms":["attijariwafa bank","attijariwafa bank التجاري وفا بنك","التجاري وفا بنك"],"tags":{"amenity":"bank","brand:wikidata":"Q758052"},"addTags":{"amenity":"bank","brand":"Attijariwafa Bank","brand:ar":"التجاري وفا بنك","brand:en":"Attijariwafa Bank","brand:wikidata":"Q758052","name:ar":"التجاري وفا بنك","name:en":"Attijariwafa Bank"}},"amenity/bank/bankalfalah-a78d37":{"name":"Bank Alfalah (بینک الفلاح)","locationSet":{"include":["ae","af","bd","bh","pk"]},"geometry":["point","area"],"matchScore":2,"terms":["bank alfalah","bank alfalah limited","habib credit and exchange bank","بینک الفلاح","بینک الفلاح لمیٹڈ"],"tags":{"amenity":"bank","brand:wikidata":"Q4855895"},"addTags":{"amenity":"bank","brand":"Bank Alfalah","brand:en":"Bank Alfalah","brand:ur":"بینک الفلاح","brand:wikidata":"Q4855895","name:en":"Bank Alfalah","name:ur":"بینک الفلاح"}},"amenity/bank/bnpparibas-42efac":{"name":"BNP Paribas","locationSet":{"include":["ae","af","ar","at","bf","bg","bh","br","ca","ch","ci","cl","co","cz","de","dk","dz","es","fi","fr","gb","gf","gp","hu","ie","il","it","kw","lu","ma","ml","mq","mx","nl","no","pe","pt","qa","re","ro","ru","sa","se","sk","sn","tn","tr","us"]},"geometry":["point","area"],"matchScore":2,"terms":["bnp paribas"],"tags":{"amenity":"bank","brand:wikidata":"Q499707"},"addTags":{"amenity":"bank","brand":"BNP Paribas","brand:wikidata":"Q499707","name":"BNP Paribas"}},"amenity/bank/emiratesnbd-d9ce9c":{"name":"Emirates NBD","locationSet":{"include":["ae"]},"geometry":["point","area"],"matchScore":2,"terms":["emirates nbd"],"tags":{"amenity":"bank","brand:wikidata":"Q5372575"},"addTags":{"amenity":"bank","brand":"Emirates NBD","brand:wikidata":"Q5372575","name":"Emirates NBD"}},"amenity/bank/mcb-57526d":{"name":"MCB (Pakistan)","locationSet":{"include":["ae","bh","lk","pk"]},"geometry":["point","area"],"matchScore":2,"terms":["mcb","mcb bank","ایم سی بی بینک"],"tags":{"amenity":"bank","brand:wikidata":"Q15982510"},"addTags":{"amenity":"bank","brand":"MCB","brand:en":"MCB","brand:ur":"ایم سی بی بینک","brand:wikidata":"Q15982510","name":"MCB","name:en":"MCB","name:ur":"ایم سی بی بینک"}},"amenity/bank/societegenerale-3601cd":{"name":"سوسيتيه جنرال","locationSet":{"include":["ae","qa","sa"]},"geometry":["point","area"],"matchScore":2,"terms":["societé génerale","سوسيتيه جنرال"],"tags":{"amenity":"bank","brand:wikidata":"Q270363"},"addTags":{"amenity":"bank","brand":"سوسيتيه جنرال","brand:ar":"سوسيتيه جنرال","brand:en":"Societé Génerale","brand:wikidata":"Q270363","name":"سوسيتيه جنرال","name:ar":"سوسيتيه جنرال","name:en":"Societé Génerale"}},"amenity/cafe/coffee_shop/cafefrei-b37b54":{"name":"Cafe Frei","locationSet":{"include":["ae","ch","fr","hr","hu","ro","sa","sk"]},"geometry":["point","area"],"matchScore":2,"terms":["cafe frei"],"reference":{"key":"cuisine","value":"coffee_shop"},"tags":{"amenity":"cafe","brand:wikidata":"Q105210995","cuisine":"coffee_shop"},"addTags":{"amenity":"cafe","brand":"Cafe Frei","brand:wikidata":"Q105210995","cuisine":"coffee_shop","name":"Cafe Frei","takeaway":"yes"}},"amenity/cafe/coffee_shop/caffenero-0d98f2":{"name":"Caffè Nero","locationSet":{"include":["ae","cy","gb","hr","ie","om","pl","se","tr","us"]},"geometry":["point","area"],"matchScore":2,"terms":["cafe nero","caffè nero"],"reference":{"key":"cuisine","value":"coffee_shop"},"tags":{"amenity":"cafe","brand:wikidata":"Q675808","cuisine":"coffee_shop"},"addTags":{"amenity":"cafe","brand":"Caffè Nero","brand:wikidata":"Q675808","cuisine":"coffee_shop","name":"Caffè Nero","takeaway":"yes"}},"amenity/cafe/coffee_shop/jamaicablue-941da9":{"name":"Jamaica Blue","locationSet":{"include":["ae","au","cn","gb","my","nz","sg"]},"geometry":["point","area"],"matchScore":2,"terms":["jamaica blue"],"reference":{"key":"cuisine","value":"coffee_shop"},"tags":{"amenity":"cafe","brand:wikidata":"Q24965819","cuisine":"coffee_shop"},"addTags":{"amenity":"cafe","brand":"Jamaica Blue","brand:wikidata":"Q24965819","cuisine":"coffee_shop","name":"Jamaica Blue","takeaway":"yes"}},"amenity/cafe/coffee_shop/juliusmeinl-d9fed5":{"name":"Julius Meinl","locationSet":{"include":["ae","at","ba","bg","cz","de","fx","hr","hu","it","md","pl","ro","rs","si","sk","tr","us"]},"geometry":["point","area"],"matchScore":2,"terms":["julius meinl"],"reference":{"key":"cuisine","value":"coffee_shop"},"tags":{"amenity":"cafe","brand:wikidata":"Q670154","cuisine":"coffee_shop"},"addTags":{"amenity":"cafe","brand":"Julius Meinl","brand:wikidata":"Q670154","cuisine":"coffee_shop","name":"Julius Meinl","takeaway":"yes"}},"amenity/cafe/coffee_shop/kahvedunyasi-9278bc":{"name":"Kahve Dünyası","locationSet":{"include":["ae","gb","kw","ro","sa","tr"]},"geometry":["point","area"],"matchScore":2,"terms":["kahve dünyası"],"reference":{"key":"cuisine","value":"coffee_shop"},"tags":{"amenity":"cafe","brand:wikidata":"Q28008050","cuisine":"coffee_shop"},"addTags":{"amenity":"cafe","brand":"Kahve Dünyası","brand:wikidata":"Q28008050","cuisine":"coffee_shop","name":"Kahve Dünyası","takeaway":"yes"}},"amenity/cafe/coffee_shop/mikel-349bad":{"name":"Mikel","locationSet":{"include":["ae","au","cy","de","eg","gb","gr","sa","us"]},"geometry":["point","area"],"matchScore":2,"terms":["mikel"],"reference":{"key":"cuisine","value":"coffee_shop"},"tags":{"amenity":"cafe","brand:wikidata":"Q16952021","cuisine":"coffee_shop"},"addTags":{"amenity":"cafe","brand":"Mikel","brand:wikidata":"Q16952021","cuisine":"coffee_shop","name":"Mikel","takeaway":"yes"}},"amenity/cafe/coffee_shop/muggandbean-72fcd2":{"name":"Mugg & Bean","locationSet":{"include":["ae","bw","ke","za"]},"geometry":["point","area"],"matchScore":2,"terms":["mugg & bean"],"reference":{"key":"cuisine","value":"coffee_shop"},"tags":{"amenity":"cafe","brand:wikidata":"Q6932113","cuisine":"coffee_shop"},"addTags":{"amenity":"cafe","brand":"Mugg & Bean","brand:wikidata":"Q6932113","cuisine":"coffee_shop","name":"Mugg & Bean","takeaway":"yes"}},"amenity/cafe/obriens-20e9d6":{"name":"O'Briens Café","locationSet":{"include":["ae","au","cn","gb","ie","my","nz","sg","th"]},"geometry":["point","area"],"matchScore":2,"terms":["o'briens"],"tags":{"amenity":"cafe","brand:wikidata":"Q7071686"},"addTags":{"amenity":"cafe","brand":"O'Briens","brand:wikidata":"Q7071686","cuisine":"sandwich","name":"O'Briens","takeaway":"yes"}},"amenity/cafe/coffee_shop/thebarn-72cbb9":{"name":"The Barn","locationSet":{"include":["ae","de","kr"]},"geometry":["point","area"],"matchScore":2,"terms":["the barn"],"reference":{"key":"cuisine","value":"coffee_shop"},"tags":{"amenity":"cafe","brand:wikidata":"Q110545264","cuisine":"coffee_shop"},"addTags":{"amenity":"cafe","brand":"The Barn","brand:wikidata":"Q110545264","cuisine":"coffee_shop","name":"The Barn","takeaway":"yes"}},"amenity/cafe/coffee_shop/timhortons-2ad4e1":{"name":"تيم هورتونز","locationSet":{"include":["ae","bh","jo","kw","om","qa","sa"]},"geometry":["point","area"],"matchScore":2,"terms":["tim hortons","تيم هورتونز"],"reference":{"key":"cuisine","value":"coffee_shop"},"tags":{"amenity":"cafe","brand:wikidata":"Q175106","cuisine":"coffee_shop"},"addTags":{"amenity":"cafe","brand":"تيم هورتونز","brand:ar":"تيم هورتونز","brand:en":"Tim Hortons","brand:wikidata":"Q175106","cuisine":"coffee_shop","name":"تيم هورتونز","name:ar":"تيم هورتونز","name:en":"Tim Hortons","takeaway":"yes"}},"amenity/cafe/coffee_shop/starbucks-0dcee5":{"name":"ستاربكس","locationSet":{"include":["ae","bh","dz","eg","iq","jo","kw","lb","ly","ma","om","qa","sa","tn"]},"geometry":["point","area"],"matchScore":2,"terms":["starbucks","starbucks coffee","ستاربكس","ستاربكس كافية"],"reference":{"key":"cuisine","value":"coffee_shop"},"tags":{"amenity":"cafe","brand:wikidata":"Q37158","cuisine":"coffee_shop"},"addTags":{"amenity":"cafe","brand":"ستاربكس","brand:ar":"ستاربكس","brand:en":"Starbucks","brand:wikidata":"Q37158","cuisine":"coffee_shop","name":"ستاربكس","name:ar":"ستاربكس","name:en":"Starbucks","official_name":"ستاربكس كافية","official_name:ar":"ستاربكس كافية","official_name:en":"Starbucks Coffee","takeaway":"yes"}},"amenity/cafe/coffee_shop/cariboucoffee-9bd633":{"name":"كاريبو كوفي","locationSet":{"include":["ae","bh","eg","kw","om","qa","sa"]},"geometry":["point","area"],"matchScore":2,"terms":["caribou coffee","كاريبو كوفي"],"reference":{"key":"cuisine","value":"coffee_shop"},"tags":{"amenity":"cafe","brand:wikidata":"Q5039494","cuisine":"coffee_shop"},"addTags":{"amenity":"cafe","brand":"كاريبو كوفي","brand:ar":"كاريبو كوفي","brand:en":"Caribou Coffee","brand:wikidata":"Q5039494","cuisine":"coffee_shop","name":"كاريبو كوفي","name:ar":"كاريبو كوفي","name:en":"Caribou Coffee","takeaway":"yes"}},"amenity/college/saeinstitute-7a11fb":{"name":"SAE Institute","locationSet":{"include":["ae","at","au","be","ca","ch","de","es","fr","gb","gr","id","it","jo","mx","nl","nz","rs","us","za"]},"geometry":["area","point"],"matchScore":2,"terms":["sae institute"],"fields":["name","brand","{amenity/college}"],"tags":{"amenity":"college","brand:wikidata":"Q201438"},"addTags":{"amenity":"college","brand":"SAE Institute","brand:wikidata":"Q201438","name":"SAE Institute"}},"amenity/fast_food/sandwich/bageterieboulevard-57c7d8":{"name":"Bageterie Boulevard","locationSet":{"include":["ae","cz","de","sk"]},"geometry":["point","area"],"matchScore":2,"terms":["bageterie boulevard"],"reference":{"key":"cuisine","value":"sandwich"},"tags":{"amenity":"fast_food","brand:wikidata":"Q10859823","cuisine":"sandwich"},"addTags":{"amenity":"fast_food","brand":"Bageterie Boulevard","brand:wikidata":"Q10859823","cuisine":"sandwich","name":"Bageterie Boulevard","takeaway":"yes"}},"amenity/fast_food/burger/bigfernand-8ddd61":{"name":"Big Fernand","locationSet":{"include":["ae","fr","lu"]},"geometry":["point","area"],"matchScore":2,"terms":["big fernand"],"reference":{"key":"cuisine","value":"burger"},"tags":{"amenity":"fast_food","brand:wikidata":"Q19521346","cuisine":"burger"},"addTags":{"amenity":"fast_food","brand":"Big Fernand","brand:wikidata":"Q19521346","cuisine":"burger","name":"Big Fernand","takeaway":"yes"}},"amenity/fast_food/burger/burgerfuel-ba88db":{"name":"BurgerFuel","locationSet":{"include":["ae","iq","nz","sa","us"]},"geometry":["point","area"],"matchScore":2,"terms":["burgerfuel"],"reference":{"key":"cuisine","value":"burger"},"tags":{"amenity":"fast_food","brand:wikidata":"Q4998537","cuisine":"burger"},"addTags":{"amenity":"fast_food","brand":"BurgerFuel","brand:wikidata":"Q4998537","cuisine":"burger","name":"BurgerFuel","takeaway":"yes"}},"amenity/fast_food/sandwich/cookdoor-5f7df6":{"name":"Cook Door","locationSet":{"include":["ae","eg"]},"geometry":["point","area"],"matchScore":2,"terms":["cook door"],"reference":{"key":"cuisine","value":"sandwich"},"tags":{"amenity":"fast_food","brand:wikidata":"Q12236500","cuisine":"sandwich"},"addTags":{"amenity":"fast_food","brand":"Cook Door","brand:wikidata":"Q12236500","cuisine":"sandwich","name":"Cook Door","takeaway":"yes"}},"amenity/fast_food/pizza/debonairspizza-10dad6":{"name":"Debonairs Pizza","locationSet":{"include":["ae","bw","ke","ls","mu","mw","mz","na","ng","sd","ss","sz","za","zm"]},"geometry":["point","area"],"matchScore":2,"terms":["debonairs","debonairs pizza"],"reference":{"key":"cuisine","value":"pizza"},"tags":{"amenity":"fast_food","brand:wikidata":"Q65079407","cuisine":"pizza"},"addTags":{"amenity":"fast_food","brand":"Debonairs Pizza","brand:wikidata":"Q65079407","cuisine":"pizza","name":"Debonairs Pizza","takeaway":"yes"}},"amenity/fast_food/burger/fiveguys-ffd618":{"name":"Five Guys","locationSet":{"include":["ae","au","be","ca","de","es","fr","gb","hk","ie","it","kw","lu","nl","qa","sa","sg","us"]},"geometry":["point","area"],"matchScore":2,"terms":["five guys","five guys burgers and fries"],"reference":{"key":"cuisine","value":"burger"},"tags":{"amenity":"fast_food","brand:wikidata":"Q1131810","cuisine":"burger"},"addTags":{"amenity":"fast_food","brand":"Five Guys","brand:wikidata":"Q1131810","cuisine":"burger","name":"Five Guys","official_name":"Five Guys Burgers and Fries","takeaway":"yes"}},"amenity/fast_food/chicken/galitos-00ffa4":{"name":"Galito's","locationSet":{"include":["ae","ca","cd","gh","in","ke","ls","mu","mw","pk","rs","sz","us","za","zm"]},"geometry":["point","area"],"matchScore":2,"terms":["galito's"],"reference":{"key":"cuisine","value":"chicken"},"tags":{"amenity":"fast_food","brand:wikidata":"Q116619555","cuisine":"chicken"},"addTags":{"amenity":"fast_food","brand":"Galito's","brand:wikidata":"Q116619555","cuisine":"chicken","name":"Galito's","takeaway":"yes"}},"amenity/fast_food/kebab/germandonerkebab-85aed8":{"name":"German Doner Kebab","locationSet":{"include":["ae","ca","gb","se","us"]},"geometry":["point","area"],"matchScore":2,"terms":["german doner kebab"],"reference":{"key":"cuisine","value":"kebab"},"tags":{"amenity":"fast_food","brand:wikidata":"Q112913418","cuisine":"kebab"},"addTags":{"amenity":"fast_food","brand":"German Doner Kebab","brand:wikidata":"Q112913418","cuisine":"kebab","name":"German Doner Kebab","takeaway":"yes"}},"amenity/fast_food/burger/giraffestop-c9a924":{"name":"Giraffe Stop","locationSet":{"include":["ae","es","gb"]},"geometry":["point","area"],"matchScore":2,"terms":["giraffe"],"reference":{"key":"cuisine","value":"burger"},"tags":{"amenity":"fast_food","brand:wikidata":"Q5564102","cuisine":"international;burger"},"addTags":{"amenity":"fast_food","brand":"Giraffe","brand:wikidata":"Q5564102","cuisine":"international;burger","name":"Giraffe Stop","takeaway":"yes"}},"amenity/fast_food/jimmythegreek-bf41de":{"name":"Jimmy the Greek","locationSet":{"include":["ae","ca"]},"geometry":["point","area"],"matchScore":2,"terms":["jimmy the greek"],"tags":{"amenity":"fast_food","brand:wikidata":"Q17077817"},"addTags":{"amenity":"fast_food","brand":"Jimmy the Greek","brand:wikidata":"Q17077817","cuisine":"greek","name":"Jimmy the Greek","takeaway":"yes"}},"amenity/fast_food/oakberryacaibowls-df46eb":{"name":"Oakberry Açaí bowls","locationSet":{"include":["ae","au","bh","br","ch","cl","co","de","es","gr","hr","il","mt","mx","pe","pt","py","sa","th","us"]},"geometry":["point","area"],"matchScore":2,"terms":["oakberry açaí bowls"],"tags":{"amenity":"fast_food","brand:wikidata":"Q104870840"},"addTags":{"amenity":"fast_food","brand":"Oakberry Açaí bowls","brand:wikidata":"Q104870840","cuisine":"açaí","name":"Oakberry Açaí bowls","takeaway":"yes"}},"amenity/fast_food/sandwich/panos-f9b8a7":{"name":"Panos","locationSet":{"include":["ae","be","cz","nl","sk","tw"]},"geometry":["point","area"],"matchScore":2,"terms":["panos"],"reference":{"key":"cuisine","value":"sandwich"},"tags":{"amenity":"fast_food","brand:wikidata":"Q3384496","cuisine":"sandwich"},"addTags":{"amenity":"fast_food","brand":"Panos","brand:wikidata":"Q3384496","cuisine":"sandwich","name":"Panos","takeaway":"yes"}},"amenity/fast_food/pitaya-0966cc":{"name":"Pitaya","locationSet":{"include":["ae","es","fx","gb","it","tn"]},"geometry":["point","area"],"matchScore":2,"terms":["pitaya"],"tags":{"amenity":"fast_food","brand:wikidata":"Q114970230"},"addTags":{"amenity":"fast_food","brand":"Pitaya","brand:wikidata":"Q114970230","cuisine":"thai","delivery":"yes","name":"Pitaya","takeaway":"yes"}},"amenity/fast_food/sandwich/pretamanger-4f61b1":{"name":"Pret A Manger","locationSet":{"include":["ae","cn","de","dk","es","fr","gb","hk","ie","in","nl","pt","sg","us"]},"geometry":["point","area"],"matchScore":2,"terms":["pret","pret a manger"],"reference":{"key":"cuisine","value":"sandwich"},"tags":{"amenity":"fast_food","brand:wikidata":"Q2109109","cuisine":"sandwich"},"addTags":{"amenity":"fast_food","brand":"Pret A Manger","brand:wikidata":"Q2109109","cuisine":"sandwich","name":"Pret A Manger","short_name":"Pret","takeaway":"yes"}},"amenity/fast_food/sumosalad-474d0a":{"name":"Sumo Salad","locationSet":{"include":["ae","au","br","nz","sg","us"]},"geometry":["point","area"],"matchScore":2,"terms":["sumo salad"],"tags":{"amenity":"fast_food","brand:wikidata":"Q16951700"},"addTags":{"amenity":"fast_food","brand":"Sumo Salad","brand:wikidata":"Q16951700","cuisine":"salad","name":"Sumo Salad","takeaway":"yes"}},"amenity/fast_food/sushishop-ac545e":{"name":"Sushi Shop (Europe)","locationSet":{"include":["ae","be","ch","de","es","fr","gb","it","lu","pt","sa"]},"geometry":["point","area"],"matchScore":2,"terms":["sushi shop"],"tags":{"amenity":"fast_food","brand:wikidata":"Q3505657"},"addTags":{"amenity":"fast_food","brand":"Sushi Shop","brand:wikidata":"Q3505657","cuisine":"sushi","name":"Sushi Shop","takeaway":"yes"}},"amenity/fast_food/pizza/thepizzacompany-abbb1f":{"name":"The Pizza Company","locationSet":{"include":["ae","bh","cn","jo","kh","la","mm","my","sa","th","vn"]},"geometry":["point","area"],"matchScore":2,"terms":["pizza company","the pizza company"],"reference":{"key":"cuisine","value":"pizza"},"tags":{"amenity":"fast_food","brand:wikidata":"Q2413520","cuisine":"pizza"},"addTags":{"alt_name":"Pizza Company","amenity":"fast_food","brand":"The Pizza Company","brand:wikidata":"Q2413520","cuisine":"pizza","name":"The Pizza Company","takeaway":"yes"}},"amenity/fast_food/tortilla-99527b":{"name":"Tortilla","locationSet":{"include":["ae","gb","sa"]},"geometry":["point","area"],"matchScore":2,"terms":["tortilla"],"tags":{"amenity":"fast_food","brand:wikidata":"Q21006828"},"addTags":{"amenity":"fast_food","brand":"Tortilla","brand:wikidata":"Q21006828","cuisine":"tex-mex","name":"Tortilla","takeaway":"yes"}},"amenity/fast_food/sandwich/whichwich-536de9":{"name":"Which Wich?","locationSet":{"include":["ae","gb","gt","mx","om","qa","sa","us"]},"geometry":["point","area"],"matchScore":2,"terms":["which wich?"],"reference":{"key":"cuisine","value":"sandwich"},"tags":{"amenity":"fast_food","brand:wikidata":"Q7993556","cuisine":"sandwich"},"addTags":{"amenity":"fast_food","brand":"Which Wich?","brand:wikidata":"Q7993556","cuisine":"sandwich","name":"Which Wich?","takeaway":"yes"}},"amenity/fast_food/wingstop-72c67c":{"name":"Wingstop","locationSet":{"include":["ae","ca","es","fx","gb","id","mx","sg","us"]},"geometry":["point","area"],"matchScore":2,"terms":["wingstop"],"tags":{"amenity":"fast_food","brand:wikidata":"Q8025339"},"addTags":{"amenity":"fast_food","brand":"Wingstop","brand:wikidata":"Q8025339","cuisine":"wings","name":"Wingstop","takeaway":"yes"}},"amenity/fast_food/woktowalk-f5ada9":{"name":"Wok to Walk","locationSet":{"include":["ae","bg","co","cy","ec","ee","es","fx","gb","il","in","it","lt","lv","ma","mt","mx","nl","om","pa","pt","qa","sa","us"]},"geometry":["point","area"],"matchScore":2,"terms":["wok to walk"],"tags":{"amenity":"fast_food","brand:wikidata":"Q4020634"},"addTags":{"amenity":"fast_food","brand":"Wok to Walk","brand:wikidata":"Q4020634","cuisine":"asian","name":"Wok to Walk","takeaway":"yes"}},"amenity/fast_food/chicken/altazaj-7c76bb":{"name":"الطازج","locationSet":{"include":["ae","bh","eg","jo","kw","lb","my","om","qa","sa","td","ye"]},"geometry":["point","area"],"matchScore":2,"terms":["al tazaj","الطازج"],"reference":{"key":"cuisine","value":"chicken"},"tags":{"amenity":"fast_food","brand:wikidata":"Q4704878","cuisine":"chicken"},"addTags":{"amenity":"fast_food","brand":"الطازج","brand:ar":"الطازج","brand:en":"Al Tazaj","brand:wikidata":"Q4704878","cuisine":"chicken","name":"الطازج","name:ar":"الطازج","name:en":"Al Tazaj","takeaway":"yes"}},"amenity/fast_food/donut/dunkindonuts-07d3e5":{"name":"دانكن دونتس'","locationSet":{"include":["ae","bh","eg","kw","lb","om","qa","sa"]},"geometry":["point","area"],"matchScore":2,"terms":["dunkin'","dunkin' donuts","dunkin's","دانكن","دانكن دونتس"],"reference":{"key":"cuisine","value":"donut"},"tags":{"amenity":"fast_food","brand:wikidata":"Q847743","cuisine":"donut;coffee_shop"},"addTags":{"amenity":"fast_food","brand":"دانكن","brand:ar":"دانكن","brand:en":"Dunkin'","brand:wikidata":"Q847743","cuisine":"donut;coffee_shop","name":"دانكن دونتس","name:ar":"دانكن دونتس","name:en":"Dunkin' Donuts","takeaway":"yes"}},"amenity/fast_food/chicken/kfc-15a250":{"name":"دجاج كنتاكي","locationSet":{"include":["ae","bh","eg","iq","jo","kw","lb","ly","ma","om","qa","sa","sd","sy","tn","ye"]},"geometry":["point","area"],"matchScore":2,"terms":["kfc","دجاج كنتاكي"],"reference":{"key":"cuisine","value":"chicken"},"tags":{"amenity":"fast_food","brand:wikidata":"Q524757","cuisine":"chicken"},"addTags":{"amenity":"fast_food","brand":"دجاج كنتاكي","brand:ar":"دجاج كنتاكي","brand:en":"KFC","brand:wikidata":"Q524757","cuisine":"chicken","name":"دجاج كنتاكي","name:ar":"دجاج كنتاكي","name:en":"KFC","takeaway":"yes"}},"amenity/fast_food/donut/krispykrem-e5f89b":{"name":"كرسبي كريم","locationSet":{"include":["ae","bh","eg","kw","lb","qa","sa"]},"geometry":["point","area"],"matchScore":2,"terms":["krispy krem","كرسبي كريم"],"reference":{"key":"cuisine","value":"donut"},"tags":{"amenity":"fast_food","brand:wikidata":"Q1192805","cuisine":"donut"},"addTags":{"amenity":"fast_food","brand":"كرسبي كريم","brand:ar":"كرسبي كريم","brand:en":"Krispy Krem","brand:wikidata":"Q1192805","cuisine":"donut","name":"كرسبي كريم","name:ar":"كرسبي كريم","name:en":"Krispy Krem","takeaway":"yes"}},"amenity/fast_food/sandwich/kudu-1b3be3":{"name":"كودو","locationSet":{"include":["ae","bh","jo","sa","sd"]},"geometry":["point","area"],"matchScore":2,"terms":["kudu","كودو"],"reference":{"key":"cuisine","value":"sandwich"},"tags":{"amenity":"fast_food","brand:wikidata":"Q6441777","cuisine":"sandwich"},"addTags":{"amenity":"fast_food","brand":"كودو","brand:ar":"كودو","brand:en":"Kudu","brand:wikidata":"Q6441777","cuisine":"sandwich","name":"كودو","name:ar":"كودو","name:en":"Kudu","takeaway":"yes"}},"amenity/fast_food/burger/mcdonalds-19c993":{"name":"ماكدونالدز","locationSet":{"include":["ae","bh","eg","iq","jo","kw","lb","ma","om","qa","sa","sy","tn"]},"geometry":["point","area"],"matchScore":2,"terms":["mcdonald's","ماكدونالدز"],"reference":{"key":"cuisine","value":"burger"},"tags":{"amenity":"fast_food","brand:wikidata":"Q38076","cuisine":"burger"},"addTags":{"amenity":"fast_food","brand":"ماكدونالدز","brand:ar":"ماكدونالدز","brand:en":"McDonald's","brand:wikidata":"Q38076","cuisine":"burger","name":"ماكدونالدز","name:ar":"ماكدونالدز","name:en":"McDonald's","takeaway":"yes"}},"amenity/fast_food/burger/herfy-5a6b9f":{"name":"هرفي","locationSet":{"include":["ae","bd","bh","eg","kw","sa"]},"geometry":["point","area"],"matchScore":2,"terms":["herfy","هرفي"],"reference":{"key":"cuisine","value":"burger"},"tags":{"amenity":"fast_food","brand:wikidata":"Q5738371","cuisine":"burger"},"addTags":{"amenity":"fast_food","brand":"هرفي","brand:ar":"هرفي","brand:en":"Herfy","brand:wikidata":"Q5738371","cuisine":"burger","name":"هرفي","name:ar":"هرفي","name:en":"Herfy","takeaway":"yes"}},"amenity/fuel/caltex-a02c05":{"name":"Caltex","locationSet":{"include":["ae","au","eg","hk","id","kh","kr","lk","my","nz","ph","pk","sa","sg","th","vn","za"]},"geometry":["point","area"],"matchScore":2,"terms":["caltex"],"fields":["name","brand","{amenity/fuel}"],"tags":{"amenity":"fuel","brand:wikidata":"Q277470"},"addTags":{"amenity":"fuel","brand":"Caltex","brand:wikidata":"Q277470","name":"Caltex"}},"amenity/fuel/adnoc-cfa330":{"name":"أدنوك","locationSet":{"include":["ae","sa"]},"geometry":["point","area"],"matchScore":2,"terms":["adnoc","أدنوك","ادنوك"],"fields":["name","brand","{amenity/fuel}"],"tags":{"amenity":"fuel","brand:wikidata":"Q166729"},"addTags":{"amenity":"fuel","brand":"أدنوك","brand:ar":"أدنوك","brand:en":"ADNOC","brand:wikidata":"Q166729","name":"أدنوك","name:ar":"أدنوك","name:en":"ADNOC"}},"amenity/fuel/enoc-7d34dd":{"name":"اينوك","locationSet":{"include":["ae","bh","kw","om","qa","sa","ye"]},"geometry":["point","area"],"matchScore":2,"terms":["enoc","اينوك"],"fields":["name","brand","{amenity/fuel}"],"tags":{"amenity":"fuel","brand:wikidata":"Q3045998"},"addTags":{"amenity":"fuel","brand":"اينوك","brand:ar":"اينوك","brand:en":"ENOC","brand:wikidata":"Q3045998","name":"اينوك","name:ar":"اينوك","name:en":"ENOC"}},"amenity/fuel/total-7d34dd":{"name":"توتال","locationSet":{"include":["ae","bh","kw","om","qa","sa","ye"]},"geometry":["point","area"],"matchScore":2,"terms":["total","توتال"],"fields":["name","brand","{amenity/fuel}"],"tags":{"amenity":"fuel","brand:wikidata":"Q154037"},"addTags":{"amenity":"fuel","brand":"توتال","brand:ar":"توتال","brand:en":"Total","brand:wikidata":"Q154037","name":"توتال","name:ar":"توتال","name:en":"Total"}},"amenity/ice_cream/aftersoriginal-22b8b7":{"name":"Afters Original","locationSet":{"include":["ae","gb"]},"geometry":["point","area"],"matchScore":2,"terms":["afters"],"tags":{"amenity":"ice_cream","brand:wikidata":"Q111811913"},"addTags":{"amenity":"ice_cream","brand":"Afters","brand:wikidata":"Q111811913","name":"Afters Original"}},"amenity/ice_cream/amorino-6cf168":{"name":"Amorino","locationSet":{"include":["ae","ch","cz","de","es","fr","gb","gr","ie","it","lu","ma","mt","mx","nc","pt","qa","re","us"]},"geometry":["point","area"],"matchScore":2,"terms":["amorino"],"tags":{"amenity":"ice_cream","brand:wikidata":"Q2843884"},"addTags":{"amenity":"ice_cream","brand":"Amorino","brand:wikidata":"Q2843884","name":"Amorino"}},"amenity/ice_cream/menchies-411174":{"name":"Menchie's","locationSet":{"include":["ae","bh","bs","ca","cn","gb","in","jp","kw","qa","sa","us"]},"geometry":["point","area"],"matchScore":2,"terms":["menchie's","menchie's frozen yoghurt","menchie's frozen yogurt"],"tags":{"amenity":"ice_cream","brand:wikidata":"Q6816528"},"addTags":{"amenity":"ice_cream","brand":"Menchie's","brand:wikidata":"Q6816528","cuisine":"frozen_yogurt","name":"Menchie's"}},"amenity/ice_cream/redmango-73fcc9":{"name":"Red Mango","locationSet":{"include":["ae","bh","eg","kw","mx","qa","sa","sv","us"]},"geometry":["point","area"],"matchScore":2,"terms":["red mango"],"tags":{"amenity":"ice_cream","brand:wikidata":"Q7304565"},"addTags":{"amenity":"ice_cream","brand":"Red Mango","brand:wikidata":"Q7304565","name":"Red Mango"}},"amenity/ice_cream/yogurtland-4111ef":{"name":"Yogurtland","locationSet":{"include":["ae","au","bh","kw","mm","qa","sa","sg","th","us","ve"]},"geometry":["point","area"],"matchScore":2,"terms":["yogurtland"],"tags":{"amenity":"ice_cream","brand:wikidata":"Q8054428"},"addTags":{"amenity":"ice_cream","brand":"Yogurtland","brand:wikidata":"Q8054428","cuisine":"frozen_yogurt","name":"Yogurtland","takeaway":"yes"}},"amenity/kindergarten/kido-0883b2":{"name":"Kïdo","locationSet":{"include":["ae","gb","hk","in","us"]},"geometry":["area","point"],"matchScore":2,"terms":["kido","kïdo","kïdo international preschool"],"fields":["name","brand","{amenity/kindergarten}"],"tags":{"amenity":"kindergarten","brand:wikidata":"Q104849185"},"addTags":{"alt_name":"Kido","amenity":"kindergarten","brand":"Kïdo","brand:wikidata":"Q104849185","fee":"yes","isced:level":"0","name":"Kïdo","nursery":"yes","official_name":"Kïdo International Preschool","preschool":"yes"}},"amenity/restaurant/dintaifung-65890f":{"name":"Din Tai Fung","locationSet":{"include":["ae","au","cn","gb","id","jp","kr","mo","my","ph","sg","th","us"]},"geometry":["point","area"],"matchScore":2,"terms":["din tai fung","鼎泰豐"],"tags":{"amenity":"restaurant","brand:wikidata":"Q699142"},"addTags":{"amenity":"restaurant","brand":"Din Tai Fung","brand:en":"Din Tai Fung","brand:wikidata":"Q699142","brand:zh":"鼎泰豐","cuisine":"taiwanese","name":"Din Tai Fung","name:en":"Din Tai Fung","name:zh":"鼎泰豐"}},"amenity/restaurant/giraffe-c20144":{"name":"Giraffe","locationSet":{"include":["ae","es","gb"]},"geometry":["point","area"],"matchScore":2,"terms":["giraffe"],"tags":{"amenity":"restaurant","brand:wikidata":"Q5564102"},"addTags":{"amenity":"restaurant","brand":"Giraffe","brand:wikidata":"Q5564102","cuisine":"international;burger","name":"Giraffe"}},"amenity/restaurant/nandos-32ebee":{"name":"Nando's","locationSet":{"include":["ae","au","bd","bh","bw","ca","fj","gb","ie","in","mu","my","nz","om","pk","qa","sa","sg","sz","us","za","zm","zw"]},"geometry":["point","area"],"matchScore":2,"terms":["nando's"],"tags":{"amenity":"restaurant","brand:wikidata":"Q3472954"},"addTags":{"amenity":"restaurant","brand":"Nando's","brand:wikidata":"Q3472954","cuisine":"chicken;portuguese","name":"Nando's"}},"amenity/restaurant/seafood/oceanbasket-5d9698":{"name":"Ocean Basket","locationSet":{"include":["ae","bw","cy","gb","ke","kw","kz","mt","mu","na","ng","qa","ru","sa","sz","za","zw"]},"geometry":["point","area"],"matchScore":2,"terms":["ocean basket"],"reference":{"key":"cuisine","value":"seafood"},"tags":{"amenity":"restaurant","brand:wikidata":"Q62075311","cuisine":"seafood"},"addTags":{"amenity":"restaurant","brand":"Ocean Basket","brand:wikidata":"Q62075311","cuisine":"seafood","name":"Ocean Basket"}},"amenity/restaurant/american/ponderosasteakhouse-56c3a6":{"name":"Ponderosa Steakhouse","locationSet":{"include":["ae","eg","qa","us"]},"geometry":["point","area"],"matchScore":2,"terms":["ponderosa","ponderosa steakhouse","龐德羅莎"],"reference":{"key":"cuisine","value":"american"},"tags":{"amenity":"restaurant","brand:wikidata":"Q64038204","cuisine":"american;steak;buffet"},"addTags":{"amenity":"restaurant","brand":"Ponderosa Steakhouse","brand:en":"Ponderosa Steakhouse","brand:wikidata":"Q64038204","brand:zh":"龐德羅莎","cuisine":"american;steak;buffet","name":"Ponderosa Steakhouse","name:en":"Ponderosa Steakhouse","name:zh":"龐德羅莎"}},"amenity/school/maplebear-101006":{"name":"Maple Bear","locationSet":{"include":["ae","al","ar","au","bd","bg","br","ca","gt","hk","hr","in","ke","kr","lk","ma","mx","my","np","om","pe","ph","py","ro","rs","sg","th","tk","ua","us","vn"]},"geometry":["area","point"],"matchScore":2,"terms":["maple bear"],"fields":["name","brand","{amenity/school}"],"tags":{"amenity":"school","brand:wikidata":"Q10324823"},"addTags":{"amenity":"school","brand":"Maple Bear","brand:wikidata":"Q10324823","name":"Maple Bear","operator:type":"private"}},"craft/signmaker/fastsigns-4c87b7":{"name":"Fastsigns","locationSet":{"include":["ae","ca","cl","gb","ky","mx","sa","us"]},"geometry":["point","area"],"matchScore":2,"terms":["fastsigns"],"tags":{"brand:wikidata":"Q5437127","craft":"signmaker"},"addTags":{"brand":"Fastsigns","brand:wikidata":"Q5437127","craft":"signmaker","name":"Fastsigns"}},"leisure/fitness_centre/barrys-1b6d66":{"name":"Barry's","locationSet":{"include":["ae","au","ca","de","dk","es","fr","gb","it","mx","no","qa","se","sg","us"]},"geometry":["point","area"],"matchScore":2,"terms":["barry's"],"tags":{"brand:wikidata":"Q96373178","leisure":"fitness_centre"},"addTags":{"brand":"Barry's","brand:wikidata":"Q96373178","leisure":"fitness_centre","name":"Barry's"}},"leisure/fitness_centre/fitnessfirst-6ff977":{"name":"Fitness First","locationSet":{"include":["ae","au","de","gb","ph","th"]},"geometry":["point","area"],"matchScore":2,"terms":["fitness first"],"tags":{"brand:wikidata":"Q127120","leisure":"fitness_centre"},"addTags":{"brand":"Fitness First","brand:wikidata":"Q127120","leisure":"fitness_centre","name":"Fitness First"}},"leisure/fitness_centre/goldsgym-72c4b8":{"name":"Gold's Gym","locationSet":{"include":["ae","ca","in","ph","us"]},"geometry":["point","area"],"matchScore":2,"terms":["gold's gym"],"tags":{"brand:wikidata":"Q1536234","leisure":"fitness_centre"},"addTags":{"brand":"Gold's Gym","brand:wikidata":"Q1536234","leisure":"fitness_centre","name":"Gold's Gym"}},"leisure/fitness_centre/snapfitness-551086":{"name":"Snap Fitness","locationSet":{"include":["ae","au","be","ca","es","gb","hk","id","ie","jp","mx","nl","nz","ph","tr","tw","us"]},"geometry":["point","area"],"matchScore":2,"terms":["snap fitness"],"tags":{"brand:wikidata":"Q7547254","leisure":"fitness_centre"},"addTags":{"brand":"Snap Fitness","brand:wikidata":"Q7547254","leisure":"fitness_centre","name":"Snap Fitness"}},"leisure/fitness_centre/fitnesstime-2210cf":{"name":"وقت اللياقة","locationSet":{"include":["ae","sa"]},"geometry":["point","area"],"matchScore":2,"terms":["fitness time","وقت اللياقة"],"tags":{"brand:wikidata":"Q105710068","leisure":"fitness_centre"},"addTags":{"brand":"وقت اللياقة","brand:ar":"وقت اللياقة","brand:en":"Fitness Time","brand:wikidata":"Q105710068","leisure":"fitness_centre","name":"وقت اللياقة","name:ar":"وقت اللياقة","name:en":"Fitness Time"}},"leisure/sports_centre/topgolf-9025ef":{"name":"Topgolf","locationSet":{"include":["ae","au","cn","de","gb","mx","th","us"]},"geometry":["point","area"],"matchScore":2,"terms":["topgolf"],"fields":["name","brand","{leisure/sports_centre}"],"tags":{"brand:wikidata":"Q7824379","leisure":"sports_centre"},"addTags":{"brand":"Topgolf","brand:wikidata":"Q7824379","leisure":"sports_centre","name":"Topgolf","sport":"golf"}},"leisure/trampoline_park/skyzone-746047":{"name":"Sky Zone","locationSet":{"include":["ae","ca","co","gb","gt","in","mx","no","om","pk","sa","us"]},"geometry":["point","area"],"matchScore":2,"terms":["sky zone"],"tags":{"brand:wikidata":"Q7537557","leisure":"trampoline_park"},"addTags":{"brand":"Sky Zone","brand:wikidata":"Q7537557","leisure":"trampoline_park","name":"Sky Zone"}},"office/financial/muthootfinance-47d4e7":{"name":"Muthoot Finance","locationSet":{"include":["ae","gb","in","us"]},"geometry":["point","area"],"matchScore":2,"terms":["muthoot finance"],"tags":{"brand:wikidata":"Q6943861","office":"financial"},"addTags":{"brand":"Muthoot Finance","brand:wikidata":"Q6943861","name":"Muthoot Finance","office":"financial"}},"office/insurance/allianz-332499":{"name":"Allianz","locationSet":{"include":["ae","ar","at","au","be","bg","bh","bm","bn","br","ca","cg","ch","ci","cm","cn","co","cy","cz","de","dk","ee","eg","es","fi","fr","gb","gf","gg","gh","gp","gr","hk","hr","hu","id","ie","in","is","it","ja","ke","kr","kw","la","li","lk","lt","lu","lv","ma","mg","mx","my","ng","nl","no","nz","om","ph","pk","pl","pt","qa","ro","ru","sa","se","sg","si","sk","sn","th","tr","tw","ua","us","za"]},"geometry":["point","area"],"matchScore":2,"terms":["allianz","allianz versicherung"],"fields":["name","brand","{office/insurance}"],"tags":{"brand:wikidata":"Q487292","office":"insurance"},"addTags":{"brand":"Allianz","brand:wikidata":"Q487292","name":"Allianz","office":"insurance"}},"office/insurance/axa-2e7672":{"name":"AXA","locationSet":{"include":["ae","ar","au","be","bh","bm","br","ca","ch","ci","cl","cm","cn","co","cz","de","dk","dz","eg","es","fi","fr","ga","gb","gr","hk","id","ie","in","it","jp","kr","lb","lu","ma","mu","mx","my","ng","nl","no","om","pa","pe","ph","pl","pt","qa","sa","se","sg","sk","sn","th","tr","tw","us"]},"geometry":["point","area"],"matchScore":2,"terms":["axa"],"fields":["name","brand","{office/insurance}"],"tags":{"brand:wikidata":"Q160054","office":"insurance"},"addTags":{"brand":"AXA","brand:wikidata":"Q160054","name":"AXA","office":"insurance"}},"office/insurance/zurich-2d6c95":{"name":"Zurich","locationSet":{"include":["ae","at","au","be","bh","br","ca","ch","cl","cn","co","de","ec","es","fi","fr","gb","hk","id","ie","it","ja","kw","lb","li","lu","mx","my","nl","no","nz","om","pt","qa","se","sg","sk","tr","us"]},"geometry":["point","area"],"matchScore":2,"terms":["zurich"],"fields":["name","brand","{office/insurance}"],"tags":{"brand:wikidata":"Q230426","office":"insurance"},"addTags":{"brand":"Zurich","brand:wikidata":"Q230426","name":"Zurich","office":"insurance"}},"shop/bakery/paul-652955":{"name":"Paul","locationSet":{"include":["ae","az","be","bh","by","ci","cy","cz","eg","es","fr","ga","gb","ge","gr","id","in","jo","jp","kw","kz","lb","lu","ma","mu","my","om","pa","ph","pl","pt","qa","ro","ru","sa","sg","th","tn","tw","ua","us","uz","vn","za"]},"geometry":["point","area"],"matchScore":2,"terms":["paul"],"tags":{"brand:wikidata":"Q3370417","shop":"bakery"},"addTags":{"brand":"Paul","brand:wikidata":"Q3370417","name":"Paul","shop":"bakery"}},"shop/beauty/skinlaundry-85c569":{"name":"Skin Laundry","locationSet":{"include":["ae","gb","hk","kw","us"]},"geometry":["point","area"],"matchScore":2,"terms":["skin laundry"],"tags":{"brand:wikidata":"Q113513202","shop":"beauty"},"addTags":{"beauty":"skin_care","brand":"Skin Laundry","brand:wikidata":"Q113513202","name":"Skin Laundry","shop":"beauty"}},"shop/books/jarirbookstore-e19842":{"name":"مكتبة جرير","locationSet":{"include":["ae","kw","qa","sa"]},"geometry":["point","area"],"matchScore":2,"terms":["jarir bookstore","جرير","مكتبة جرير"],"tags":{"brand:wikidata":"Q6160243","shop":"books"},"addTags":{"brand":"مكتبة جرير","brand:ar":"مكتبة جرير","brand:en":"Jarir Bookstore","brand:wikidata":"Q6160243","name":"مكتبة جرير","name:ar":"مكتبة جرير","name:en":"Jarir Bookstore","shop":"books"}},"shop/car/koenigsegg-45c2de":{"name":"Koenigsegg","locationSet":{"include":["ae","au","ca","ch","cn","de","es","gb","jp","kr","lb","mx","my","om","pl","se","sg","th","tw","us","za"]},"geometry":["point","area"],"matchScore":2,"terms":["koenigsegg"],"fields":["name","brand","{shop/car}"],"tags":{"brand:wikidata":"Q35594","shop":"car"},"addTags":{"brand":"Koenigsegg","brand:wikidata":"Q35594","name":"Koenigsegg","shop":"car"}},"shop/car/rimac-0f1e04":{"name":"Rimac","locationSet":{"include":["ae","ca","cn","de","es","gb","jp","mx","sg","us"]},"geometry":["point","area"],"matchScore":2,"terms":["rimac"],"fields":["name","brand","{shop/car}"],"tags":{"brand:wikidata":"Q7334368","shop":"car"},"addTags":{"brand":"Rimac","brand:wikidata":"Q7334368","name":"Rimac","shop":"car"}},"shop/clothes/abercrombieandfitch-c69677":{"name":"Abercrombie & Fitch","locationSet":{"include":["ae","be","ca","cn","de","es","fr","gb","hk","ie","it","jp","kw","mx","nl","qa","sa","sg","us"]},"geometry":["point","area"],"matchScore":2,"terms":["abercrombie & fitch"],"tags":{"brand:wikidata":"Q319344","shop":"clothes"},"addTags":{"brand":"Abercrombie & Fitch","brand:wikidata":"Q319344","clothes":"men;women","name":"Abercrombie & Fitch","shop":"clothes"}},"shop/clothes/abercrombiekids-a75dc9":{"name":"Abercrombie Kids","locationSet":{"include":["ae","ca","cn","de","gb","it","nl","sg","us"]},"geometry":["point","area"],"matchScore":2,"terms":["abercrombie kids"],"tags":{"brand:wikidata":"Q429856","shop":"clothes"},"addTags":{"brand":"Abercrombie Kids","brand:wikidata":"Q429856","clothes":"children","name":"Abercrombie Kids","shop":"clothes"}},"shop/clothes/ardene-d1f154":{"name":"Ardene","locationSet":{"include":["ae","ca","om","sn","us"]},"geometry":["point","area"],"matchScore":2,"terms":["ardene"],"tags":{"brand:wikidata":"Q2860764","shop":"clothes"},"addTags":{"brand":"Ardene","brand:wikidata":"Q2860764","name":"Ardene","shop":"clothes"}},"shop/clothes/falke-d93616":{"name":"FALKE","locationSet":{"include":["ae","be","ch","de","nl","ru"]},"geometry":["point","area"],"matchScore":2,"terms":["falke"],"tags":{"brand:wikidata":"Q1394122","shop":"clothes"},"addTags":{"brand":"FALKE","brand:wikidata":"Q1394122","name":"FALKE","shop":"clothes"}},"shop/clothes/jackwills-75e7ba":{"name":"Jack Wills","locationSet":{"include":["ae","gb","hk","ie","kw","lb","mo","sg","us"]},"geometry":["point","area"],"matchScore":2,"terms":["jack wills"],"tags":{"brand:wikidata":"Q6115814","shop":"clothes"},"addTags":{"brand":"Jack Wills","brand:wikidata":"Q6115814","name":"Jack Wills","shop":"clothes"}},"shop/clothes/lechateau-f2752c":{"name":"Le Château","locationSet":{"include":["ae","ca","sa"]},"geometry":["point","area"],"matchScore":2,"terms":["le château"],"tags":{"brand:wikidata":"Q6506731","shop":"clothes"},"addTags":{"brand":"Le Château","brand:wikidata":"Q6506731","name":"Le Château","shop":"clothes"}},"shop/clothes/matalan-1132a1":{"name":"Matalan","locationSet":{"include":["ae","gb"]},"geometry":["point","area"],"matchScore":2,"terms":["matalan"],"tags":{"brand:wikidata":"Q12061509","shop":"clothes"},"addTags":{"brand":"Matalan","brand:wikidata":"Q12061509","name":"Matalan","shop":"clothes"}},"shop/clothes/mossbros-b36645":{"name":"Moss Bros","locationSet":{"include":["ae","gb","gg","je"]},"geometry":["point","area"],"matchScore":2,"terms":["moss bros"],"tags":{"brand:wikidata":"Q6916538","shop":"clothes"},"addTags":{"brand":"Moss Bros","brand:wikidata":"Q6916538","clothes":"men","name":"Moss Bros","shop":"clothes"}},"shop/clothes/underwear/undiz-15b970":{"name":"Undiz","locationSet":{"include":["ae","be","ch","es","fr","gf","gp","lb","ma","mq","nc","pf","qa","re","sa","za"]},"geometry":["point","area"],"matchScore":2,"terms":["undiz"],"reference":{"key":"clothes","value":"underwear"},"tags":{"brand:wikidata":"Q105306275","clothes":"underwear","shop":"clothes"},"addTags":{"brand":"Undiz","brand:wikidata":"Q105306275","clothes":"underwear","name":"Undiz","shop":"clothes"}},"shop/cosmetics/merlenorman-f96c07":{"name":"Merle Norman Cosmetics","locationSet":{"include":["ae","bh","ca","gt","hk","tw","us"]},"geometry":["point","area"],"matchScore":2,"terms":["merle norman cosmetic studio","merle norman cosmetics"],"tags":{"brand:wikidata":"Q104844059","shop":"cosmetics"},"addTags":{"brand":"Merle Norman Cosmetics","brand:wikidata":"Q104844059","full_name":"Merle Norman Cosmetic Studio","name":"Merle Norman","shop":"cosmetics"}},"shop/department_store/galerieslafayette-b7f45a":{"name":"Galeries Lafayette","locationSet":{"include":["ae","cn","de","fr","id","lu","qa","tr"]},"geometry":["point","area"],"matchScore":2,"terms":["galeries lafayette"],"tags":{"brand:wikidata":"Q3094686","shop":"department_store"},"addTags":{"brand":"Galeries Lafayette","brand:wikidata":"Q3094686","name":"Galeries Lafayette","shop":"department_store"}},"shop/department_store/hema-e99f95":{"name":"HEMA","locationSet":{"include":["ae","at","be","de","es","fr","gb","lu","nl","qa"]},"geometry":["point","area"],"matchScore":2,"terms":["hema"],"tags":{"brand:wikidata":"Q903805","shop":"department_store"},"addTags":{"brand":"HEMA","brand:wikidata":"Q903805","name":"HEMA","shop":"department_store"}},"shop/fashion_accessories/mulberry-e1f087":{"name":"Mulberry","locationSet":{"include":["ae","au","ca","ch","cn","de","dk","fi","gb","ie","jp","kr","my","nl","no","se","sg","th","us"]},"geometry":["point","area"],"matchScore":2,"terms":["mulberry"],"tags":{"brand:wikidata":"Q3866987","shop":"fashion_accessories"},"addTags":{"brand":"Mulberry","brand:wikidata":"Q3866987","name":"Mulberry","shop":"fashion_accessories"}},"shop/furniture/pbteen-736374":{"name":"PBteen","locationSet":{"include":["ae","kw","mx","us"]},"geometry":["point","area"],"matchScore":2,"terms":["pottery barn","pottery barn teen"],"tags":{"brand:wikidata":"Q3400126","shop":"furniture"},"addTags":{"brand":"Pottery Barn","brand:wikidata":"Q3400126","name":"PBteen","shop":"furniture"}},"shop/jewelry/chemmanurinternationaljewellers-0ef1f6":{"name":"Chemmanur International Jewellers","locationSet":{"include":["ae","in","kw","my","us"]},"geometry":["point","area"],"matchScore":2,"terms":["chemmanur international jewellers"],"tags":{"brand:wikidata":"Q99520996","shop":"jewelry"},"addTags":{"brand":"Chemmanur International Jewellers","brand:wikidata":"Q99520996","name":"Chemmanur International Jewellers","shop":"jewelry"}},"shop/jewelry/joyalukkas-534941":{"name":"Joyalukkas","locationSet":{"include":["ae","bh","gb","in","kw","my","om","qa","sa","sg","us"]},"geometry":["point","area"],"matchScore":2,"terms":["joyalukkas"],"tags":{"brand:wikidata":"Q6297357","shop":"jewelry"},"addTags":{"brand":"Joyalukkas","brand:wikidata":"Q6297357","name":"Joyalukkas","shop":"jewelry"}},"shop/jewelry/malabargoldanddiamonds-9fa2ef":{"name":"Malabar Gold and Diamonds","locationSet":{"include":["ae","bh","in","kw","my","om","qa","sa","sg","us"]},"geometry":["point","area"],"matchScore":2,"terms":["malabar gold and diamonds"],"tags":{"brand:wikidata":"Q60748883","shop":"jewelry"},"addTags":{"brand":"Malabar Gold and Diamonds","brand:wikidata":"Q60748883","name":"Malabar Gold and Diamonds","shop":"jewelry"}},"shop/kitchen/ixina-d089d8":{"name":"Ixina","locationSet":{"include":["ae","au","be","bf","bh","bj","ca","ci","cm","cn","cz","dz","ee","eg","fr","gh","hr","ke","kw","lu","ly","ma","mu","nl","pl","qa","ro","ru","sa","se","sn","tg","th","tn","vn"]},"geometry":["point","area"],"matchScore":2,"terms":["ixina"],"tags":{"brand:wikidata":"Q3156424","shop":"kitchen"},"addTags":{"brand":"Ixina","brand:wikidata":"Q3156424","name":"Ixina","shop":"kitchen"}},"shop/optician/rayban-ace229":{"name":"Ray-Ban","locationSet":{"include":["ae","at","au","br","ca","de","es","fr","gb","ie","it","jp","my","ne","tr","us"]},"geometry":["point","area"],"matchScore":2,"terms":["ray-ban"],"fields":["name","brand","{shop/optician}"],"tags":{"brand:wikidata":"Q653941","shop":"optician"},"addTags":{"brand":"Ray-Ban","brand:wikidata":"Q653941","name":"Ray-Ban","shop":"optician"}},"shop/paint/nationalpaints-6ced54":{"name":"National Paints","locationSet":{"include":["ae","qa"]},"geometry":["point","area"],"matchScore":2,"terms":["national paints"],"tags":{"brand:wikidata":"Q62073521","shop":"paint"},"addTags":{"brand":"National Paints","brand:wikidata":"Q62073521","name":"National Paints","shop":"paint"}},"shop/pawnbroker/cashconverters-1c62e9":{"name":"Cash Converters","locationSet":{"include":["ae","au","be","ch","es","fr","gb","lu","my","na","nz","pt","sg","za"]},"geometry":["point","area"],"matchScore":2,"terms":["cash converters"],"tags":{"brand:wikidata":"Q5048645","shop":"pawnbroker"},"addTags":{"brand":"Cash Converters","brand:wikidata":"Q5048645","name":"Cash Converters","shop":"pawnbroker"}},"shop/supermarket/luluhypermarket-7e55ed":{"name":"Lulu Hypermarket","locationSet":{"include":["ae","bh","eg","id","in","kw","my","om","qa"]},"geometry":["point","area"],"matchScore":2,"terms":["lulu hypermarket"],"tags":{"brand:wikidata":"Q6702930","shop":"supermarket"},"addTags":{"brand":"Lulu Hypermarket","brand:wikidata":"Q6702930","name":"Lulu Hypermarket","shop":"supermarket"}},"shop/supermarket/panda-709c58":{"name":"بنده","locationSet":{"include":["ae","bh","sa"]},"geometry":["point","area"],"matchScore":2,"terms":["hyperpanda","panda","بنده","شركة بنده للتجزئة","هايبربنده"],"tags":{"brand:wikidata":"Q4832749","shop":"supermarket"},"addTags":{"alt_name:ar":"هايبربنده","alt_name:en":"HyperPanda","brand":"بنده","brand:ar":"بنده","brand:en":"Panda","brand:wikidata":"Q4832749","name":"بنده","name:ar":"بنده","name:en":"Panda","official_name":"شركة بنده للتجزئة","shop":"supermarket"}},"shop/ticket/ticketmaster-9f0b74":{"name":"Ticketmaster","locationSet":{"include":["ae","at","au","be","ca","ch","cy","cz","de","dk","es","fi","fr","gb","gr","ie","it","mx","nl","no","nz","pl","se","sg","tr","tw","za"]},"geometry":["point","area"],"matchScore":2,"terms":["live nation","ticketmaster"],"fields":["name","brand","{shop/ticket}"],"tags":{"brand:wikidata":"Q2609162","shop":"ticket"},"addTags":{"brand":"Ticketmaster","brand:wikidata":"Q2609162","name":"Ticketmaster","shop":"ticket"}},"shop/tool_hire/loxam-33fef8":{"name":"Loxam","locationSet":{"include":["ae","be","bh","br","ch","co","cz","de","dk","ee","es","fi","fr","gb","ie","it","kw","lt","lu","lv","ma","nl","no","om","pl","pt","qa","sa","se","sk"]},"geometry":["point","area"],"matchScore":2,"terms":["loxam"],"tags":{"brand:wikidata":"Q3264407","shop":"tool_hire"},"addTags":{"brand":"Loxam","brand:wikidata":"Q3264407","name":"Loxam","shop":"tool_hire"}},"shop/tyres/tyreplus-99cc81":{"name":"Tyreplus","locationSet":{"include":["ae","au","bh","cn","id","kh","kw","my","om","ph","qa","ru","sa","sg","th","tw"]},"geometry":["point","area"],"matchScore":2,"terms":["tyreplus"],"tags":{"brand:wikidata":"Q110959120","shop":"tyres"},"addTags":{"brand":"Tyreplus","brand:wikidata":"Q110959120","name":"Tyreplus","shop":"tyres"}},"tourism/hotel/anantara-e8534c":{"name":"Anantara","locationSet":{"include":["ae","br","cn","es","fr","hu","id","ie","it","kh","mu","mv","my","mz","nl","om","pt","qa","sc","th","tn","vn","zm"]},"geometry":["point","area"],"matchScore":2,"terms":["anantara"],"fields":["name","brand","{tourism/hotel}"],"tags":{"brand:wikidata":"Q112671781","tourism":"hotel"},"addTags":{"brand":"Anantara","brand:wikidata":"Q112671781","name":"Anantara","tourism":"hotel"}},"tourism/hotel/avanihotelsandresorts-e9c192":{"name":"AVANI","locationSet":{"include":["ae","au","bw","id","kh","kr","la","lk","ls","my","mz","na","nz","om","pt","sc","th","vn","zm"]},"geometry":["point","area"],"matchScore":2,"terms":["avani hotels & resorts"],"fields":["name","brand","{tourism/hotel}"],"tags":{"brand:wikidata":"Q48989823","tourism":"hotel"},"addTags":{"brand":"Avani Hotels & Resorts","brand:wikidata":"Q48989823","name":"Avani Hotels & Resorts","tourism":"hotel"}},"tourism/hotel/barcelohotelsandresorts-302c40":{"name":"Barceló","locationSet":{"include":["ae","aw","bg","cr","cu","cz","de","do","eg","es","gr","gt","hu","it","ma","mv","mx","ni","om","pt","sv","tn","tr","us"]},"geometry":["point","area"],"matchScore":2,"terms":["barceló hotels & resorts"],"fields":["name","brand","{tourism/hotel}"],"tags":{"brand:wikidata":"Q15148996","tourism":"hotel"},"addTags":{"brand":"Barceló Hotels & Resorts","brand:wikidata":"Q15148996","name":"Barceló Hotels & Resorts","tourism":"hotel"}},"tourism/hotel/bulgari-a1f85a":{"name":"Bulgari","locationSet":{"include":["ae","cn","fx","gb","id","it","jp","ru","us"]},"geometry":["point","area"],"matchScore":2,"terms":["bulgari"],"fields":["name","brand","{tourism/hotel}"],"tags":{"brand:wikidata":"Q752515","tourism":"hotel"},"addTags":{"brand":"Bulgari","brand:wikidata":"Q752515","name":"Bulgari","tourism":"hotel"}},"tourism/hotel/canopy-523ceb":{"name":"Canopy","locationSet":{"include":["ae","br","cn","es","fx","gb","hr","is","us"]},"geometry":["point","area"],"matchScore":2,"terms":["canopy","canopy by hilton"],"fields":["name","brand","{tourism/hotel}"],"tags":{"brand:wikidata":"Q30632909","tourism":"hotel"},"addTags":{"brand":"Canopy","brand:wikidata":"Q30632909","name":"Canopy","official_name":"Canopy by Hilton","tourism":"hotel"}},"tourism/hotel/conrad-ee1a43":{"name":"Conrad Hotels & Resorts","locationSet":{"include":["ae","ca","cn","eg","gb","id","ie","in","jp","kr","mv","pf","ph","pt","sa","sg","th","tr","us"]},"geometry":["point","area"],"matchScore":2,"terms":["conrad"],"fields":["name","brand","{tourism/hotel}"],"tags":{"brand:wikidata":"Q855525","tourism":"hotel"},"addTags":{"brand":"Conrad","brand:wikidata":"Q855525","name":"Conrad","tourism":"hotel"}},"tourism/hotel/deltahotels-c8d055":{"name":"Delta Hotels","locationSet":{"include":["ae","ca","cn","de","gb","tr","us"]},"geometry":["point","area"],"matchScore":2,"terms":["delta","delta hotels"],"fields":["name","brand","{tourism/hotel}"],"tags":{"brand:wikidata":"Q5254663","tourism":"hotel"},"addTags":{"brand":"Delta Hotels","brand:wikidata":"Q5254663","name":"Delta Hotels","tourism":"hotel"}},"tourism/hotel/edition-24940c":{"name":"Edition","locationSet":{"include":["ae","cn","es","gb","is","it","jp","mx","my","qa","sg","tr","us"]},"geometry":["point","area"],"matchScore":2,"terms":["edition"],"fields":["name","brand","{tourism/hotel}"],"tags":{"brand:wikidata":"Q91218404","tourism":"hotel"},"addTags":{"brand":"Edition","brand:wikidata":"Q91218404","name":"Edition","tourism":"hotel"}},"tourism/hotel/element-6dd642":{"name":"Element by Westin","locationSet":{"include":["ae","au","ca","cn","id","my","nl","tz","us"]},"geometry":["point","area"],"matchScore":2,"terms":["element"],"fields":["name","brand","{tourism/hotel}"],"tags":{"brand:wikidata":"Q91948072","tourism":"hotel"},"addTags":{"brand":"Element","brand:wikidata":"Q91948072","name":"Element","tourism":"hotel"}},"tourism/hotel/lxr-c9a464":{"name":"LXR Hotels & Resorts","locationSet":{"include":["ae","ai","gb","jp","sc","tr","us"]},"geometry":["point","area"],"matchScore":2,"terms":["lxr"],"fields":["name","brand","{tourism/hotel}"],"tags":{"brand:wikidata":"Q64605184","tourism":"hotel"},"addTags":{"brand":"LXR","brand:wikidata":"Q64605184","name":"LXR","tourism":"hotel"}},"tourism/hotel/marriottexecutiveapartments-b2f419":{"name":"Marriott Executive Apartments","locationSet":{"include":["ae","be","bh","br","cn","et","gb","hu","id","in","kr","kz","pa","sa","th","za"]},"geometry":["point","area"],"matchScore":2,"terms":["marriott executive apartments"],"fields":["name","brand","{tourism/hotel}"],"tags":{"brand:wikidata":"Q72636824","tourism":"hotel"},"addTags":{"brand":"Marriott Executive Apartments","brand:wikidata":"Q72636824","name":"Marriott Executive Apartments","tourism":"hotel"}},"tourism/hotel/oakshotelsresortsandsuites-bc2db3":{"name":"Oaks Hotels","locationSet":{"include":["ae","au","cn","in","nz","qa"]},"geometry":["point","area"],"matchScore":2,"terms":["oaks hotels, resorts & suites"],"fields":["name","brand","{tourism/hotel}"],"tags":{"brand:wikidata":"Q23073772","tourism":"hotel"},"addTags":{"brand":"Oaks Hotels, Resorts & Suites","brand:wikidata":"Q23073772","name":"Oaks Hotels, Resorts & Suites","tourism":"hotel"}},"tourism/hotel/occidental-e4b4d8":{"name":"Occidental","locationSet":{"include":["ae","cr","cu","cz","do","es","it","mx","tn","tr"]},"geometry":["point","area"],"matchScore":2,"terms":["occidental"],"fields":["name","brand","{tourism/hotel}"],"tags":{"brand:wikidata":"Q15148996","tourism":"hotel"},"addTags":{"brand":"Occidental","brand:wikidata":"Q15148996","name":"Occidental","tourism":"hotel"}},"tourism/hotel/raffles-771760":{"name":"Raffles","locationSet":{"include":["ae","bh","cn","fr","gb","id","in","kh","mv","ph","pl","qa","ru","sa","sc","sg","us"]},"geometry":["point","area"],"matchScore":2,"terms":["raffles"],"fields":["name","brand","{tourism/hotel}"],"tags":{"brand:wikidata":"Q4306661","tourism":"hotel"},"addTags":{"brand":"Raffles","brand:wikidata":"Q4306661","name":"Raffles","tourism":"hotel"}},"tourism/hotel/royalhideaway-1a48d0":{"name":"Royal Hideaway","locationSet":{"include":["ae","do","es","id","mx"]},"geometry":["point","area"],"matchScore":2,"terms":["royal hideaway"],"fields":["name","brand","{tourism/hotel}"],"tags":{"brand:wikidata":"Q15148996","tourism":"hotel"},"addTags":{"brand":"Royal Hideaway","brand:wikidata":"Q15148996","name":"Royal Hideaway","tourism":"hotel"}},"tourism/hotel/tapestrycollection-1c7927":{"name":"Tapestry Collection by Hilton","locationSet":{"include":["ae","br","ca","cn","es","fx","gb","mx","pt","tw","us"]},"geometry":["point","area"],"matchScore":2,"terms":["tapestry collection","tapestry collection by hilton"],"fields":["name","brand","{tourism/hotel}"],"tags":{"brand:wikidata":"Q109275422","tourism":"hotel"},"addTags":{"brand":"Tapestry Collection","brand:wikidata":"Q109275422","tourism":"hotel"}},"tourism/hotel/waldorfastoria-665f74":{"name":"Waldorf Astoria","locationSet":{"include":["ae","au","cn","de","eg","fx","gb","il","it","kw","mv","mx","nl","pa","sa","th","us"]},"geometry":["point","area"],"matchScore":2,"terms":["waldorf astoria"],"fields":["name","brand","{tourism/hotel}"],"tags":{"brand:wikidata":"Q3239392","tourism":"hotel"},"addTags":{"brand":"Waldorf Astoria","brand:wikidata":"Q3239392","name":"Waldorf Astoria","tourism":"hotel"}},"tourism/hotel/yotel-ebcca5":{"name":"YOTEL","locationSet":{"include":["ae","ch","fx","gb","nl","pt","sg","tr","us-ca","us-dc","us-fl","us-ma","us-ny"]},"geometry":["point","area"],"matchScore":2,"terms":["yotel"],"fields":["name","brand","{tourism/hotel}"],"tags":{"brand:wikidata":"Q8046002","tourism":"hotel"},"addTags":{"brand":"YOTEL","brand:wikidata":"Q8046002","name":"YOTEL","tourism":"hotel"}},"amenity/hospital/mediclinic-97e588":{"name":"Mediclinic","locationSet":{"include":["ae","ch","na","za"]},"geometry":["area","point"],"matchScore":2,"terms":["mediclinic"],"fields":["name","operator","{amenity/hospital}"],"reference":{"key":"amenity","value":"hospital"},"tags":{"amenity":"hospital","operator:wikidata":"Q1916123"},"addTags":{"amenity":"hospital","healthcare":"hospital","operator":"Mediclinic","operator:wikidata":"Q1916123"}},"amenity/post_box/emiratespost-4c01d7":{"name":"Emirates Post","locationSet":{"include":["ae"]},"geometry":["point","vertex"],"matchScore":2,"terms":["emirates post"],"tags":{"amenity":"post_box","operator:wikidata":"Q5372577"},"addTags":{"amenity":"post_box","operator":"Emirates Post","operator:wikidata":"Q5372577"}},"amenity/post_office/emiratespost-c6764e":{"name":"Emirates Post","locationSet":{"include":["ae"]},"geometry":["point","area"],"matchScore":2,"terms":["emirates post"],"fields":["name","operator","{amenity/post_office}"],"tags":{"amenity":"post_office","operator:wikidata":"Q5372577"},"addTags":{"amenity":"post_office","operator":"Emirates Post","operator:wikidata":"Q5372577"}},"amenity/recycling/soex-a3d9bb":{"name":"SOEX","locationSet":{"include":["ae","de","es","fx","gb","ru"]},"geometry":["point","area"],"matchScore":2,"terms":["soex"],"tags":{"amenity":"recycling","operator:wikidata":"Q1497749"},"addTags":{"amenity":"recycling","operator":"SOEX","operator:wikidata":"Q1497749"}},"power/substation/dewa-4ca958":{"name":"DEWA","locationSet":{"include":["ae"]},"geometry":["area","point"],"matchScore":2,"terms":["dewa"],"tags":{"operator:wikidata":"Q1262868","power":"substation"},"addTags":{"operator":"DEWA","operator:wikidata":"Q1262868","power":"substation"}},"power/transformer/dewa-c74d02":{"name":"DEWA","locationSet":{"include":["ae"]},"geometry":["point","vertex"],"matchScore":2,"terms":["dewa"],"tags":{"operator:wikidata":"Q1262868","power":"transformer"},"addTags":{"operator":"DEWA","operator:wikidata":"Q1262868","power":"transformer"}},"public_transport/platform/bus_point/rta-d3b856":{"name":"RTA (Roads and Transport Authority (Dubai))","locationSet":{"include":["ae"]},"geometry":["point","vertex"],"matchScore":2,"terms":["roads and transport authority (dubai)","rta"],"reference":{"key":"public_transport","value":"platform"},"tags":{"bus":"yes","network:wikidata":"Q22101985","public_transport":"platform"},"addTags":{"bus":"yes","highway":"bus_stop","network":"RTA","network:wikidata":"Q22101985","operator":"Roads and Transport Authority (Dubai)","public_transport":"platform"}},"type/route/bus/rta-b78b85":{"name":"RTA (Roads and Transport Authority (Dubai))","locationSet":{"include":["ae"]},"geometry":["relation"],"matchScore":2,"terms":["roads and transport authority (dubai)","rta"],"reference":{"key":"route","value":"bus"},"tags":{"network:wikidata":"Q22101985","route":"bus","type":"route"},"addTags":{"network":"RTA","network:wikidata":"Q22101985","operator":"Roads and Transport Authority (Dubai)","route":"bus","type":"route"}}}