{"amenity/atm/centralbank-5249e2":{"name":"Central Bank","locationSet":{"include":["us-fl","us-il","us-ks","us-mo","us-nc","us-ok","us-tn"]},"geometry":["point","vertex"],"matchScore":2,"terms":["central bank"],"fields":["name","brand","{amenity/atm}"],"tags":{"amenity":"atm","brand:wikidata":"Q113482320"},"addTags":{"amenity":"atm","brand":"Central Bank","brand:wikidata":"Q113482320","operator":"Central Bank","operator:wikidata":"Q113482320"}},"amenity/atm/fidelitybank-6623a1":{"name":"Fidelity Bank (Kansas)","locationSet":{"include":["us-ks"]},"geometry":["point","vertex"],"matchScore":2,"terms":["fidelity bank"],"fields":["name","brand","{amenity/atm}"],"tags":{"amenity":"atm","brand:wikidata":"Q27883293"},"addTags":{"amenity":"atm","brand":"Fidelity Bank","brand:wikidata":"Q27883293","operator":"Fidelity Bank","operator:wikidata":"Q27883293"}},"amenity/atm/pinnaclebank-495a05":{"name":"Pinnacle Bank (Midwest & Southwest USA)","locationSet":{"include":["us-az","us-co","us-ks","us-mo","us-ne","us-nm","us-tx","us-wy"]},"geometry":["point","vertex"],"matchScore":2,"terms":["pinnacle bank"],"fields":["name","brand","{amenity/atm}"],"tags":{"amenity":"atm","brand:wikidata":"Q124021658"},"addTags":{"amenity":"atm","brand":"Pinnacle Bank","brand:wikidata":"Q124021658","operator":"Pinnacle Bank","operator:wikidata":"Q124021658"}},"amenity/atm/rcbbank-5341f5":{"name":"RCB Bank (Midwestern USA)","locationSet":{"include":["us-ks","us-ok"]},"geometry":["point","vertex"],"matchScore":2,"terms":["rcb bank"],"fields":["name","brand","{amenity/atm}"],"tags":{"amenity":"atm","brand:wikidata":"Q131427051"},"addTags":{"amenity":"atm","brand":"RCB Bank","brand:wikidata":"Q131427051","operator":"RCB Bank","operator:wikidata":"Q131427051"}},"amenity/atm/southernbank-39c83a":{"name":"Southern Bank (Midwest USA)","locationSet":{"include":["us-ar","us-il","us-ks","us-mo"]},"geometry":["point","vertex"],"matchScore":2,"terms":["southern bank"],"fields":["name","brand","{amenity/atm}"],"tags":{"amenity":"atm","brand:wikidata":"Q130551561"},"addTags":{"amenity":"atm","brand":"Southern Bank","brand:wikidata":"Q130551561","operator":"Southern Bank","operator:wikidata":"Q130551561"}},"amenity/bank/centralbank-43524a":{"name":"Central Bank","locationSet":{"include":["us-fl","us-il","us-ks","us-mo","us-nc","us-ok","us-tn"]},"geometry":["point","area"],"matchScore":2,"terms":["central bank"],"tags":{"amenity":"bank","brand:wikidata":"Q113482320"},"addTags":{"amenity":"bank","brand":"Central Bank","brand:wikidata":"Q113482320","name":"Central Bank"}},"amenity/bank/fidelitybank-40cba0":{"name":"Fidelity Bank (Kansas)","locationSet":{"include":["us-ks"]},"geometry":["point","area"],"matchScore":2,"terms":["fidelity bank"],"tags":{"amenity":"bank","brand:wikidata":"Q27883293"},"addTags":{"amenity":"bank","brand":"Fidelity Bank","brand:wikidata":"Q27883293","name":"Fidelity Bank"}},"amenity/bank/pinnaclebank-ebf4c6":{"name":"Pinnacle Bank (Midwest & Southwest USA)","locationSet":{"include":["us-az","us-co","us-ks","us-mo","us-ne","us-nm","us-tx","us-wy"]},"geometry":["point","area"],"matchScore":2,"terms":["pinnacle bank"],"tags":{"amenity":"bank","brand:wikidata":"Q124021658"},"addTags":{"amenity":"bank","brand":"Pinnacle Bank","brand:wikidata":"Q124021658","name":"Pinnacle Bank"}},"amenity/bank/rcbbank-9aacd6":{"name":"RCB Bank (Midwestern USA)","locationSet":{"include":["us-ks","us-ok"]},"geometry":["point","area"],"matchScore":2,"terms":["rcb bank"],"tags":{"amenity":"bank","brand:wikidata":"Q131427051"},"addTags":{"amenity":"bank","brand":"RCB Bank","brand:wikidata":"Q131427051","name":"RCB Bank"}},"amenity/bank/southernbank-c8bf03":{"name":"Southern Bank (Midwest USA)","locationSet":{"include":["us-ar","us-il","us-ks","us-mo"]},"geometry":["point","area"],"matchScore":2,"terms":["southern bank"],"tags":{"amenity":"bank","brand:wikidata":"Q130551561"},"addTags":{"amenity":"bank","brand":"Southern Bank","brand:wikidata":"Q130551561","name":"Southern Bank"}},"amenity/clinic/carbonhealth-a594ec":{"name":"Carbon Health","locationSet":{"include":["us-ca","us-co","us-ks","us-ma","us-nj","us-tx","us-wa"]},"geometry":["point","area"],"matchScore":2,"terms":["carbon health"],"reference":{"key":"amenity","value":"clinic"},"tags":{"amenity":"clinic","brand:wikidata":"Q110076263"},"addTags":{"amenity":"clinic","brand":"Carbon Health","brand:wikidata":"Q110076263","healthcare":"clinic","operator":"Carbon Health","operator:type":"private","operator:wikidata":"Q110076263"}},"amenity/clinic/veinclinicsofamerica-12a747":{"name":"Vein Clinics of America","locationSet":{"include":["us-ct","us-ga","us-il","us-in","us-ks","us-md","us-mn","us-mo","us-nc","us-oh","us-tn","us-tx","us-va","us-wi"]},"geometry":["point","area"],"matchScore":2,"terms":["vein clinics of america"],"reference":{"key":"amenity","value":"clinic"},"tags":{"amenity":"clinic","brand:wikidata":"Q113712355"},"addTags":{"amenity":"clinic","brand":"Vein Clinics of America","brand:wikidata":"Q113712355","healthcare":"clinic"}},"amenity/fast_food/donut/duckdonuts-6333a9":{"name":"Duck Donuts","locationSet":{"include":["ca-on","eg","sa","us-ar","us-az","us-ca","us-co","us-fl","us-ga","us-id","us-il","us-ks","us-ky","us-md","us-mi","us-mn","us-mo","us-nc","us-nj","us-ny","us-oh","us-pa","us-sc","us-tn","us-tx","us-ut","us-va"]},"geometry":["point","area"],"matchScore":2,"terms":["duck donuts","duck doughnuts"],"reference":{"key":"cuisine","value":"donut"},"tags":{"amenity":"fast_food","brand:wikidata":"Q54958282","cuisine":"donut"},"addTags":{"amenity":"fast_food","brand":"Duck Donuts","brand:wikidata":"Q54958282","cuisine":"donut","name":"Duck Donuts","takeaway":"yes"}},"amenity/restaurant/american/54thstreetgrillandbar-28ad39":{"name":"54th Street Grill and Bar","locationSet":{"include":["us-il","us-ks","us-mo","us-tx"]},"geometry":["point","area"],"matchScore":2,"terms":["54th street","54th street grill and bar"],"reference":{"key":"cuisine","value":"american"},"tags":{"amenity":"restaurant","brand:wikidata":"Q131290500","cuisine":"american;bar&grill"},"addTags":{"amenity":"restaurant","brand":"54th Street Grill and Bar","brand:wikidata":"Q131290500","cuisine":"american;bar&grill","name":"54th Street Grill and Bar"}},"amenity/restaurant/italian/maggianoslittleitaly-acf8ec":{"name":"Maggiano's Little Italy","locationSet":{"include":["us-az","us-ca","us-co","us-dc","us-fl","us-ga","us-il","us-in","us-ks","us-ma","us-md","us-mi","us-mo","us-nc","us-nj","us-nv","us-ny","us-oh","us-pa","us-tn","us-tx","us-va","us-wa","us-wi"]},"geometry":["point","area"],"matchScore":2,"terms":["maggiano's little italy"],"reference":{"key":"cuisine","value":"italian"},"tags":{"amenity":"restaurant","brand:wikidata":"Q6730149","cuisine":"italian"},"addTags":{"amenity":"restaurant","brand":"Maggiano's Little Italy","brand:wikidata":"Q6730149","cuisine":"italian","name":"Maggiano's Little Italy"}},"amenity/restaurant/snooze-62450c":{"name":"Snooze","locationSet":{"include":["us-az","us-ca","us-co","us-ga","us-ks","us-mo","us-nc","us-tn","us-tx"]},"geometry":["point","area"],"matchScore":2,"terms":["snooze","snooze, an a.m. eatery"],"tags":{"amenity":"restaurant","brand:wikidata":"Q111304345"},"addTags":{"amenity":"restaurant","brand":"Snooze","brand:wikidata":"Q111304345","cuisine":"breakfast","name":"Snooze","official_name":"Snooze, an A.M. Eatery"}},"leisure/sports_centre/xgolf-8a88af":{"name":"X Golf","locationSet":{"include":["us-al","us-co","us-ga","us-il","us-in","us-ks","us-ma","us-me","us-mi","us-mn","us-mo","us-nd","us-ne","us-ny","us-oh","us-or","us-pa","us-ri","us-sc","us-sd","us-ut","us-va","us-wa","us-wi"]},"geometry":["point","area"],"matchScore":2,"terms":["x golf"],"fields":["name","brand","{leisure/sports_centre}"],"tags":{"brand:wikidata":"Q111585369","leisure":"sports_centre"},"addTags":{"brand":"X Golf","brand:wikidata":"Q111585369","indoor":"yes","leisure":"sports_centre","name":"X Golf","sport":"golf"}},"shop/gift/atticsalt-ae6503":{"name":"Attic Salt","locationSet":{"include":["us-az","us-ca","us-co","us-id","us-il","us-in","us-ks","us-la","us-mo","us-ne","us-nv","us-ok","us-or","us-tx","us-ut","us-wa"]},"geometry":["point","area"],"matchScore":2,"terms":["attic salt"],"tags":{"brand:wikidata":"Q108409773","shop":"gift"},"addTags":{"brand":"Attic Salt","brand:wikidata":"Q108409773","name":"Attic Salt","shop":"gift"}},"shop/pastry/mrsfields-839ebf":{"name":"Mrs. Fields","locationSet":{"include":["au","ph","us-ak","us-al","us-az","us-ca","us-co","us-de","us-fl","us-ga","us-hi","us-id","us-il","us-in","us-ks","us-la","us-ma","us-md","us-me","us-mi","us-mo","us-ms","us-nc","us-nj","us-nv","us-ny","us-oh","us-ok","us-pa","us-tx","us-ut","us-wi"]},"geometry":["point","area"],"matchScore":2,"terms":["mrs. fields"],"tags":{"brand:wikidata":"Q3866841","shop":"pastry"},"addTags":{"brand":"Mrs. Fields","brand:wikidata":"Q3866841","name":"Mrs. Fields","shop":"pastry"}},"shop/supermarket/pricechopper-8741a7":{"name":"Price Chopper (Kansas City)","locationSet":{"include":["us-ks","us-mo"]},"geometry":["point","area"],"matchScore":2,"terms":["price chopper"],"tags":{"brand:wikidata":"Q7242572","shop":"supermarket"},"addTags":{"brand":"Price Chopper","brand:wikidata":"Q7242572","name":"Price Chopper","shop":"supermarket"}},"amenity/police/kansashighwaypatrol-9e9805":{"name":"Kansas Highway Patrol","locationSet":{"include":["us-ks"]},"geometry":["point","area"],"matchScore":2,"terms":["kansas highway patrol","khp"],"tags":{"amenity":"police","operator:wikidata":"Q6364990"},"addTags":{"amenity":"police","operator":"Kansas Highway Patrol","operator:short":"KHP","operator:wikidata":"Q6364990"}},"amenity/recycling/cityoflawrence-d780f0":{"name":"City of Lawrence","locationSet":{"include":["us-ks"]},"geometry":["point","area"],"matchScore":2,"terms":["city of lawrence"],"tags":{"amenity":"recycling","operator:wikidata":"Q493840"},"addTags":{"amenity":"recycling","operator":"City of Lawrence","operator:wikidata":"Q493840"}},"amenity/recycling/goodwillindustriesofkansas-d780f0":{"name":"Goodwill Industries of Kansas","locationSet":{"include":["us-ks"]},"geometry":["point","area"],"matchScore":2,"terms":["goodwill","goodwill industries of kansas"],"tags":{"amenity":"recycling","operator:wikidata":"Q126850348"},"addTags":{"amenity":"recycling","brand":"Goodwill","brand:wikidata":"Q5583655","operator":"Goodwill Industries of Kansas","operator:wikidata":"Q126850348"}},"amenity/recycling/goodwillofwesternmissouriandeasternkansas-a67e1b":{"name":"Goodwill of Western Missouri and Eastern Kansas","locationSet":{"include":["us-ks","us-mo"]},"geometry":["point","area"],"matchScore":2,"terms":["goodwill","goodwill of western missouri and eastern kansas"],"tags":{"amenity":"recycling","operator:wikidata":"Q126898783"},"addTags":{"amenity":"recycling","brand":"Goodwill","brand:wikidata":"Q5583655","operator":"Goodwill of Western Missouri and Eastern Kansas","operator:wikidata":"Q126898783"}},"amenity/school/lawrencepublicschools-43eeb8":{"name":"Lawrence Public Schools (Kansas)","locationSet":{"include":["us-ks"]},"geometry":["area","point"],"matchScore":2,"terms":["lawrence public schools","lawrence unified school district 497","lawrence usd 497","unified school district 497","usd407"],"tags":{"amenity":"school","operator:wikidata":"Q6504687"},"addTags":{"amenity":"school","operator":"Lawrence Public Schools","operator:short":"USD407","operator:type":"public","operator:wikidata":"Q6504687"}},"amenity/school/olathepublicschools-43eeb8":{"name":"Olathe Public Schools","locationSet":{"include":["us-ks"]},"geometry":["area","point"],"matchScore":2,"terms":["olathe public schools","olathe school district","olathe usd 233"],"tags":{"amenity":"school","operator:wikidata":"Q7083128"},"addTags":{"amenity":"school","operator":"Olathe Public Schools","operator:type":"public","operator:wikidata":"Q7083128"}},"amenity/school/wichitapublicschools-43eeb8":{"name":"Wichita Public Schools","locationSet":{"include":["us-ks"]},"geometry":["area","point"],"matchScore":2,"terms":["wichita public schools","wps"],"tags":{"amenity":"school","operator:wikidata":"Q7998154"},"addTags":{"amenity":"school","operator":"Wichita Public Schools","operator:short":"WPS","operator:type":"public","operator:wikidata":"Q7998154"}},"boundary/kansasdepartmentofwildlifeandparks-34586e":{"name":"Kansas Department of Wildlife & Parks","locationSet":{"include":["us-ks"]},"geometry":["line"],"matchScore":2,"terms":["kansas department of wildlife & parks","kansas state parks","kansas wildlife & parks","kdwp"],"tags":{"boundary":"protected_area","operator:wikidata":"Q14689717"},"addTags":{"boundary":"protected_area","operator":"Kansas Department of Wildlife & Parks","operator:short":"KDWP","operator:type":"government","operator:wikidata":"Q14689717"}},"highway/street_lamp/kansascityboardofpublicutilities-26592d":{"name":"Kansas City BPU","locationSet":{"include":["us-ks"]},"geometry":["point","vertex"],"matchScore":2,"terms":["bpu","kansas city board of public utilities"],"tags":{"highway":"street_lamp","operator:wikidata":"Q29641882"},"addTags":{"highway":"street_lamp","operator":"Kansas City Board of Public Utilities","operator:short":"BPU","operator:wikidata":"Q29641882"}},"leisure/nature_reserve/cityofwichita-e424b1":{"name":"City of Wichita","locationSet":{"include":["us-ks"]},"geometry":["area","point"],"matchScore":2,"terms":["city of wichita"],"tags":{"leisure":"nature_reserve","operator:wikidata":"Q49266"},"addTags":{"leisure":"nature_reserve","operator":"City of Wichita","operator:type":"government","operator:wikidata":"Q49266"}},"leisure/nature_reserve/johnsoncountyparkandrecreationdistrict-e424b1":{"name":"Johnson County Park and Recreation District","locationSet":{"include":["us-ks"]},"geometry":["area","point"],"matchScore":2,"terms":["jcprd","johnson county park and recreation district"],"tags":{"leisure":"nature_reserve","operator:wikidata":"Q111943500"},"addTags":{"leisure":"nature_reserve","operator":"Johnson County Park and Recreation District","operator:short":"JCPRD","operator:type":"public","operator:wikidata":"Q111943500"}},"leisure/nature_reserve/kansasdepartmentofwildlifeandparks-e424b1":{"name":"Kansas Department of Wildlife & Parks","locationSet":{"include":["us-ks"]},"geometry":["area","point"],"matchScore":2,"terms":["kansas department of wildlife & parks","kansas state parks","kansas wildlife & parks","kdwp"],"tags":{"leisure":"nature_reserve","operator:wikidata":"Q14689717"},"addTags":{"leisure":"nature_reserve","operator":"Kansas Department of Wildlife & Parks","operator:short":"KDWP","operator:type":"government","operator:wikidata":"Q14689717"}},"leisure/park/cityofwichita-3287b4":{"name":"City of Wichita","locationSet":{"include":["us-ks"]},"geometry":["area","point"],"matchScore":2,"terms":["city of wichita"],"tags":{"leisure":"park","operator:wikidata":"Q49266"},"addTags":{"leisure":"park","operator":"City of Wichita","operator:type":"government","operator:wikidata":"Q49266"}},"leisure/park/johnsoncountyparkandrecreationdistrict-3287b4":{"name":"Johnson County Park and Recreation District","locationSet":{"include":["us-ks"]},"geometry":["area","point"],"matchScore":2,"terms":["jcprd","johnson county park and recreation district"],"tags":{"leisure":"park","operator:wikidata":"Q111943500"},"addTags":{"leisure":"park","operator":"Johnson County Park and Recreation District","operator:short":"JCPRD","operator:type":"public","operator:wikidata":"Q111943500"}},"leisure/park/kansasdepartmentofwildlifeandparks-3287b4":{"name":"Kansas Department of Wildlife & Parks","locationSet":{"include":["us-ks"]},"geometry":["area","point"],"matchScore":2,"terms":["kansas department of wildlife & parks","kansas state parks","kansas wildlife & parks","kdwp"],"tags":{"leisure":"park","operator:wikidata":"Q14689717"},"addTags":{"leisure":"park","operator":"Kansas Department of Wildlife & Parks","operator:short":"KDWP","operator:type":"government","operator:wikidata":"Q14689717"}},"man_made/surveillance/kansasdepartmentoftransportation-ab554c":{"name":"Kansas Department of Transportation","locationSet":{"include":["us-ks"]},"geometry":["point","vertex"],"matchScore":2,"terms":["kansas department of transportation","kdot"],"tags":{"man_made":"surveillance","operator:wikidata":"Q4925916"},"addTags":{"man_made":"surveillance","operator":"Kansas Department of Transportation","operator:short":"KDOT","operator:type":"government","operator:wikidata":"Q4925916"}},"man_made/surveillance/lawrencepolicedepartment-ab554c":{"name":"Lawrence Police Department","locationSet":{"include":["us-ks"]},"geometry":["point","vertex"],"matchScore":2,"terms":["lawrence police department"],"tags":{"man_made":"surveillance","operator:wikidata":"Q116178983"},"addTags":{"man_made":"surveillance","operator":"Lawrence Police Department","operator:wikidata":"Q116178983"}},"power/generator/evergy-e9dfd9":{"name":"Evergy","locationSet":{"include":["us-ks","us-mo"]},"geometry":["point","vertex","area"],"matchScore":2,"terms":["evergy"],"tags":{"operator:wikidata":"Q7987107","power":"generator"},"addTags":{"operator":"Evergy","operator:wikidata":"Q7987107","power":"generator"}},"power/line/evergy-b4cc40":{"name":"Evergy","locationSet":{"include":["us-ks","us-mo"]},"geometry":["line"],"matchScore":2,"terms":["evergy","great plains energy","kansas city power & light","kcp&l","kcpl","westar energy"],"tags":{"operator:wikidata":"Q7987107","power":"line"},"addTags":{"frequency":"60","operator":"Evergy","operator:wikidata":"Q7987107","power":"line"}},"power/line/kansascityboardofpublicutilities-beff6d":{"name":"Kansas City BPU","locationSet":{"include":["us-ks"]},"geometry":["line"],"matchScore":2,"terms":["bpu","kansas city board of public utilities"],"tags":{"operator:wikidata":"Q29641882","power":"line"},"addTags":{"operator":"Kansas City Board of Public Utilities","operator:short":"BPU","operator:wikidata":"Q29641882","power":"line"}},"power/line/midwestenergy-beff6d":{"name":"Midwest Energy","locationSet":{"include":["us-ks"]},"geometry":["line"],"matchScore":2,"terms":["midwest energy"],"tags":{"operator:wikidata":"Q130232407","power":"line"},"addTags":{"operator":"Midwest Energy","operator:wikidata":"Q130232407","power":"line"}},"power/line/sunflowerelectricpowercorporation-beff6d":{"name":"Sunflower Electric Power Corporation","locationSet":{"include":["us-ks"]},"geometry":["line"],"matchScore":2,"terms":["sunflower electric power corp","sunflower electric power corporation"],"tags":{"operator:wikidata":"Q130223893","power":"line"},"addTags":{"operator":"Sunflower Electric Power Corporation","operator:wikidata":"Q130223893","power":"line"}},"power/minor_line/evergy-a8490b":{"name":"Evergy","locationSet":{"include":["us-ks","us-mo"]},"geometry":["line"],"matchScore":2,"terms":["evergy","great plains energy","kansas city power & light","kcp&l","kcpl","westar energy"],"tags":{"operator:wikidata":"Q7987107","power":"minor_line"},"addTags":{"frequency":"60","operator":"Evergy","operator:wikidata":"Q7987107","power":"minor_line"}},"power/minor_line/kansascityboardofpublicutilities-4c7c55":{"name":"Kansas City BPU","locationSet":{"include":["us-ks"]},"geometry":["line"],"matchScore":2,"terms":["bpu","kansas city board of public utilities"],"tags":{"operator:wikidata":"Q29641882","power":"minor_line"},"addTags":{"operator":"Kansas City Board of Public Utilities","operator:short":"BPU","operator:wikidata":"Q29641882","power":"minor_line"}},"power/minor_line/midwestenergy-4c7c55":{"name":"Midwest Energy","locationSet":{"include":["us-ks"]},"geometry":["line"],"matchScore":2,"terms":["midwest energy"],"tags":{"operator:wikidata":"Q130232407","power":"minor_line"},"addTags":{"operator":"Midwest Energy","operator:wikidata":"Q130232407","power":"minor_line"}},"power/minor_line/sunflowerelectricpowercorporation-4c7c55":{"name":"Sunflower Electric Power Corporation","locationSet":{"include":["us-ks"]},"geometry":["line"],"matchScore":2,"terms":["sunflower electric power corp","sunflower electric power corporation"],"tags":{"operator:wikidata":"Q130223893","power":"minor_line"},"addTags":{"operator":"Sunflower Electric Power Corporation","operator:wikidata":"Q130223893","power":"minor_line"}},"power/plant/evergy-7ad0e6":{"name":"Evergy","locationSet":{"include":["us-ks","us-mo"]},"geometry":["area"],"matchScore":2,"terms":["evergy"],"tags":{"operator:wikidata":"Q7987107","power":"plant"},"addTags":{"operator":"Evergy","operator:wikidata":"Q7987107","power":"plant"}},"power/plant/mcpowercompanies-7ad0e6":{"name":"MC Power Companies","locationSet":{"include":["us-ks","us-mo"]},"geometry":["area"],"matchScore":2,"terms":["mc power companies"],"tags":{"operator:wikidata":"Q64141964","power":"plant"},"addTags":{"operator":"MC Power Companies","operator:wikidata":"Q64141964","power":"plant"}},"power/pole/evergy-fbf835":{"name":"Evergy","locationSet":{"include":["us-ks","us-mo"]},"geometry":["point","vertex"],"matchScore":2,"terms":["evergy","great plains energy","kansas city power & light","kcp&l","kcpl","westar energy"],"tags":{"operator:wikidata":"Q7987107","power":"pole"},"addTags":{"frequency":"60","operator":"Evergy","operator:wikidata":"Q7987107","power":"pole"}},"power/pole/kansascityboardofpublicutilities-25219f":{"name":"Kansas City BPU","locationSet":{"include":["us-ks"]},"geometry":["point","vertex"],"matchScore":2,"terms":["bpu","kansas city board of public utilities"],"tags":{"operator:wikidata":"Q29641882","power":"pole"},"addTags":{"operator":"Kansas City Board of Public Utilities","operator:short":"BPU","operator:wikidata":"Q29641882","power":"pole"}},"power/pole/midwestenergy-25219f":{"name":"Midwest Energy","locationSet":{"include":["us-ks"]},"geometry":["point","vertex"],"matchScore":2,"terms":["midwest energy"],"tags":{"operator:wikidata":"Q130232407","power":"pole"},"addTags":{"operator":"Midwest Energy","operator:wikidata":"Q130232407","power":"pole"}},"power/pole/sunflowerelectricpowercorporation-25219f":{"name":"Sunflower Electric Power Corporation","locationSet":{"include":["us-ks"]},"geometry":["point","vertex"],"matchScore":2,"terms":["sunflower electric power corp","sunflower electric power corporation"],"tags":{"operator:wikidata":"Q130223893","power":"pole"},"addTags":{"operator":"Sunflower Electric Power Corporation","operator:wikidata":"Q130223893","power":"pole"}},"power/substation/evergy-44a6c7":{"name":"Evergy","locationSet":{"include":["us-ks","us-mo"]},"geometry":["area","point"],"matchScore":2,"terms":["evergy","great plains energy","kansas city power & light","kcp&l","kcpl","westar energy"],"tags":{"operator:wikidata":"Q7987107","power":"substation"},"addTags":{"operator":"Evergy","operator:wikidata":"Q7987107","power":"substation"}},"power/substation/kansascityboardofpublicutilities-2b5e72":{"name":"Kansas City BPU","locationSet":{"include":["us-ks"]},"geometry":["area","point"],"matchScore":2,"terms":["bpu","kansas city board of public utilities"],"tags":{"operator:wikidata":"Q29641882","power":"substation"},"addTags":{"operator":"Kansas City Board of Public Utilities","operator:short":"BPU","operator:wikidata":"Q29641882","power":"substation"}},"power/substation/midwestenergy-2b5e72":{"name":"Midwest Energy","locationSet":{"include":["us-ks"]},"geometry":["area","point"],"matchScore":2,"terms":["midwest energy"],"tags":{"operator:wikidata":"Q130232407","power":"substation"},"addTags":{"operator":"Midwest Energy","operator:wikidata":"Q130232407","power":"substation"}},"power/substation/sunflowerelectricpowercorporation-2b5e72":{"name":"Sunflower Electric Power Corporation","locationSet":{"include":["us-ks"]},"geometry":["area","point"],"matchScore":2,"terms":["sunflower electric power corp","sunflower electric power corporation"],"tags":{"operator:wikidata":"Q130223893","power":"substation"},"addTags":{"operator":"Sunflower Electric Power Corporation","operator:wikidata":"Q130223893","power":"substation"}},"power/tower/evergy-c44c9e":{"name":"Evergy","locationSet":{"include":["us-ks","us-mo"]},"geometry":["point","vertex"],"matchScore":2,"terms":["evergy","great plains energy","kansas city power & light","kcp&l","kcpl","westar energy"],"tags":{"operator:wikidata":"Q7987107","power":"tower"},"addTags":{"frequency":"60","operator":"Evergy","operator:wikidata":"Q7987107","power":"tower"}},"power/tower/kansascityboardofpublicutilities-f0bd87":{"name":"Kansas City BPU","locationSet":{"include":["us-ks"]},"geometry":["point","vertex"],"matchScore":2,"terms":["bpu","kansas city board of public utilities"],"tags":{"operator:wikidata":"Q29641882","power":"tower"},"addTags":{"operator":"Kansas City Board of Public Utilities","operator:short":"BPU","operator:wikidata":"Q29641882","power":"tower"}},"power/tower/midwestenergy-f0bd87":{"name":"Midwest Energy","locationSet":{"include":["us-ks"]},"geometry":["point","vertex"],"matchScore":2,"terms":["midwest energy"],"tags":{"operator:wikidata":"Q130232407","power":"tower"},"addTags":{"operator":"Midwest Energy","operator:wikidata":"Q130232407","power":"tower"}},"power/tower/sunflowerelectricpowercorporation-f0bd87":{"name":"Sunflower Electric Power Corporation","locationSet":{"include":["us-ks"]},"geometry":["point","vertex"],"matchScore":2,"terms":["sunflower electric power corp","sunflower electric power corporation"],"tags":{"operator:wikidata":"Q130223893","power":"tower"},"addTags":{"operator":"Sunflower Electric Power Corporation","operator:wikidata":"Q130223893","power":"tower"}},"power/transformer/evergy-7e4526":{"name":"Evergy","locationSet":{"include":["us-ks","us-mo"]},"geometry":["point","vertex"],"matchScore":2,"terms":["evergy","great plains energy","kansas city power & light","kcp&l","kcpl","westar energy"],"tags":{"operator:wikidata":"Q7987107","power":"transformer"},"addTags":{"operator":"Evergy","operator:wikidata":"Q7987107","power":"transformer"}},"power/transformer/kansascityboardofpublicutilities-5fb284":{"name":"Kansas City BPU","locationSet":{"include":["us-ks"]},"geometry":["point","vertex"],"matchScore":2,"terms":["bpu","kansas city board of public utilities"],"tags":{"operator:wikidata":"Q29641882","power":"transformer"},"addTags":{"operator":"Kansas City Board of Public Utilities","operator:short":"BPU","operator:wikidata":"Q29641882","power":"transformer"}},"power/transformer/midwestenergy-5fb284":{"name":"Midwest Energy","locationSet":{"include":["us-ks"]},"geometry":["point","vertex"],"matchScore":2,"terms":["midwest energy"],"tags":{"operator:wikidata":"Q130232407","power":"transformer"},"addTags":{"operator":"Midwest Energy","operator:wikidata":"Q130232407","power":"transformer"}},"power/transformer/sunflowerelectricpowercorporation-5fb284":{"name":"Sunflower Electric Power Corporation","locationSet":{"include":["us-ks"]},"geometry":["point","vertex"],"matchScore":2,"terms":["sunflower electric power corp","sunflower electric power corporation"],"tags":{"operator:wikidata":"Q130223893","power":"transformer"},"addTags":{"operator":"Sunflower Electric Power Corporation","operator:wikidata":"Q130223893","power":"transformer"}},"type/route/power/evergy-ba6e22":{"name":"Evergy","locationSet":{"include":["us-ks","us-mo"]},"geometry":["relation"],"matchScore":2,"terms":["evergy","kansas city power and light company","kcp&l","westar energy"],"reference":{"key":"route","value":"power"},"tags":{"operator:wikidata":"Q7987107","route":"power","type":"route"},"addTags":{"operator":"Evergy","operator:wikidata":"Q7987107","route":"power","type":"route"}},"type/route/power/sunflowerelectricpowercorporation-0a1228":{"name":"Sunflower Electric Power Corporation","locationSet":{"include":["us-ks"]},"geometry":["relation"],"matchScore":2,"terms":["sunflower electric power corp","sunflower electric power corporation"],"reference":{"key":"route","value":"power"},"tags":{"operator:wikidata":"Q130223893","route":"power","type":"route"},"addTags":{"operator":"Sunflower Electric Power Corporation","operator:wikidata":"Q130223893","route":"power","type":"route"}},"shop/charity/goodwillindustriesofkansas-557a0a":{"name":"Goodwill Industries of Kansas","locationSet":{"include":["us-ks"]},"geometry":["point","area"],"matchScore":2,"terms":["goodwill","goodwill industries of kansas"],"tags":{"operator:wikidata":"Q126850348","shop":"charity"},"addTags":{"brand":"Goodwill","brand:wikidata":"Q5583655","name":"Goodwill","operator":"Goodwill Industries of Kansas","operator:wikidata":"Q126850348","shop":"charity"}},"shop/charity/goodwillofwesternmissouriandeasternkansas-9827d9":{"name":"Goodwill of Western Missouri and Eastern Kansas","locationSet":{"include":["us-ks","us-mo"]},"geometry":["point","area"],"matchScore":2,"terms":["goodwill","goodwill of western missouri and eastern kansas"],"tags":{"operator:wikidata":"Q126898783","shop":"charity"},"addTags":{"brand":"Goodwill","brand:wikidata":"Q5583655","name":"Goodwill","operator":"Goodwill of Western Missouri and Eastern Kansas","operator:wikidata":"Q126898783","shop":"charity"}},"public_transport/platform/bus_point/kcata-92dff7":{"name":"KCATA","locationSet":{"include":["us-ks","us-mo"]},"geometry":["point","vertex"],"matchScore":2,"terms":["kcata"],"reference":{"key":"public_transport","value":"platform"},"tags":{"bus":"yes","network:wikidata":"Q6364652","public_transport":"platform"},"addTags":{"bus":"yes","highway":"bus_stop","network":"KCATA","network:wikidata":"Q6364652","public_transport":"platform"}},"public_transport/platform/bus_point/ridekc-92dff7":{"name":"RideKC","locationSet":{"include":["us-ks","us-mo"]},"geometry":["point","vertex"],"matchScore":2,"terms":["kansas city area transportation authority","ridekc"],"reference":{"key":"public_transport","value":"platform"},"tags":{"bus":"yes","network:wikidata":"Q25004934","public_transport":"platform"},"addTags":{"bus":"yes","highway":"bus_stop","network":"RideKC","network:wikidata":"Q25004934","operator":"Kansas City Area Transportation Authority","public_transport":"platform"}},"public_transport/platform/bus_point/topekametro-48c74c":{"name":"Topeka Metro","locationSet":{"include":["us-ks"]},"geometry":["point","vertex"],"matchScore":2,"terms":["topeka metro"],"reference":{"key":"public_transport","value":"platform"},"tags":{"bus":"yes","network:wikidata":"Q7824819","public_transport":"platform"},"addTags":{"bus":"yes","highway":"bus_stop","network":"Topeka Metro","network:wikidata":"Q7824819","public_transport":"platform"}},"public_transport/platform/bus_point/wichitatransit-48c74c":{"name":"Wichita Transit","locationSet":{"include":["us-ks"]},"geometry":["point","vertex"],"matchScore":2,"terms":["wichita transit"],"reference":{"key":"public_transport","value":"platform"},"tags":{"bus":"yes","network:wikidata":"Q7998172","public_transport":"platform"},"addTags":{"bus":"yes","highway":"bus_stop","network":"Wichita Transit","network:wikidata":"Q7998172","public_transport":"platform"}},"type/route/bus/kcata-d86bef":{"name":"KCATA","locationSet":{"include":["us-ks","us-mo"]},"geometry":["relation"],"matchScore":2,"terms":["kcata"],"reference":{"key":"route","value":"bus"},"tags":{"network:wikidata":"Q6364652","route":"bus","type":"route"},"addTags":{"network":"KCATA","network:wikidata":"Q6364652","route":"bus","type":"route"}},"type/route/bus/ridekc-d86bef":{"name":"RideKC","locationSet":{"include":["us-ks","us-mo"]},"geometry":["relation"],"matchScore":2,"terms":["kansas city area transportation authority","ridekc"],"reference":{"key":"route","value":"bus"},"tags":{"network:wikidata":"Q25004934","route":"bus","type":"route"},"addTags":{"network":"RideKC","network:wikidata":"Q25004934","operator":"Kansas City Area Transportation Authority","route":"bus","type":"route"}},"type/route/bus/topekametro-47dbb7":{"name":"Topeka Metro","locationSet":{"include":["us-ks"]},"geometry":["relation"],"matchScore":2,"terms":["topeka metro"],"reference":{"key":"route","value":"bus"},"tags":{"network:wikidata":"Q7824819","route":"bus","type":"route"},"addTags":{"network":"Topeka Metro","network:wikidata":"Q7824819","route":"bus","type":"route"}},"type/route/bus/wichitatransit-47dbb7":{"name":"Wichita Transit","locationSet":{"include":["us-ks"]},"geometry":["relation"],"matchScore":2,"terms":["wichita transit"],"reference":{"key":"route","value":"bus"},"tags":{"network:wikidata":"Q7998172","route":"bus","type":"route"},"addTags":{"network":"Wichita Transit","network:wikidata":"Q7998172","route":"bus","type":"route"}}}