{"advertising/totem/enoc-a1d67d":{"name":"اينوك","locationSet":{"include":["ae","bh","kw","om","qa","sa","ye"]},"geometry":["point","line"],"matchScore":2,"terms":["enoc","اينوك"],"tags":{"advertising":"totem","brand:wikidata":"Q3045998"},"addTags":{"advertising":"totem","brand":"اينوك","brand:ar":"اينوك","brand:en":"ENOC","brand:wikidata":"Q3045998","name:ar":"اينوك","name:en":"ENOC"}},"advertising/totem/total-a1d67d":{"name":"توتال","locationSet":{"include":["ae","bh","kw","om","qa","sa","ye"]},"geometry":["point","line"],"matchScore":2,"terms":["total","توتال"],"tags":{"advertising":"totem","brand:wikidata":"Q154037"},"addTags":{"advertising":"totem","brand":"توتال","brand:ar":"توتال","brand:en":"Total","brand:wikidata":"Q154037","name:ar":"توتال","name:en":"Total"}},"amenity/fast_food/chicken/altazaj-7c76bb":{"name":"الطازج","locationSet":{"include":["ae","bh","eg","jo","kw","lb","my","om","qa","sa","td","ye"]},"geometry":["point","area"],"matchScore":2,"terms":["al tazaj","الطازج"],"reference":{"key":"cuisine","value":"chicken"},"tags":{"amenity":"fast_food","brand:wikidata":"Q4704878","cuisine":"chicken"},"addTags":{"amenity":"fast_food","brand":"الطازج","brand:ar":"الطازج","brand:en":"Al Tazaj","brand:wikidata":"Q4704878","cuisine":"chicken","name":"الطازج","name:ar":"الطازج","name:en":"Al Tazaj","takeaway":"yes"}},"amenity/fast_food/chicken/kfc-15a250":{"name":"دجاج كنتاكي","locationSet":{"include":["ae","bh","eg","iq","jo","kw","lb","ly","ma","om","qa","sa","sd","sy","tn","ye"]},"geometry":["point","area"],"matchScore":2,"terms":["kfc","دجاج كنتاكي"],"reference":{"key":"cuisine","value":"chicken"},"tags":{"amenity":"fast_food","brand:wikidata":"Q524757","cuisine":"chicken"},"addTags":{"amenity":"fast_food","brand":"دجاج كنتاكي","brand:ar":"دجاج كنتاكي","brand:en":"KFC","brand:wikidata":"Q524757","cuisine":"chicken","name":"دجاج كنتاكي","name:ar":"دجاج كنتاكي","name:en":"KFC","takeaway":"yes"}},"amenity/fuel/enoc-7d34dd":{"name":"اينوك","locationSet":{"include":["ae","bh","kw","om","qa","sa","ye"]},"geometry":["point","area"],"matchScore":2,"terms":["enoc","اينوك"],"fields":["name","brand","{amenity/fuel}"],"tags":{"amenity":"fuel","brand:wikidata":"Q3045998"},"addTags":{"amenity":"fuel","brand":"اينوك","brand:ar":"اينوك","brand:en":"ENOC","brand:wikidata":"Q3045998","name":"اينوك","name:ar":"اينوك","name:en":"ENOC"}},"amenity/fuel/total-7d34dd":{"name":"توتال","locationSet":{"include":["ae","bh","kw","om","qa","sa","ye"]},"geometry":["point","area"],"matchScore":2,"terms":["total","توتال"],"fields":["name","brand","{amenity/fuel}"],"tags":{"amenity":"fuel","brand:wikidata":"Q154037"},"addTags":{"amenity":"fuel","brand":"توتال","brand:ar":"توتال","brand:en":"Total","brand:wikidata":"Q154037","name":"توتال","name:ar":"توتال","name:en":"Total"}},"amenity/pharmacy/nahdi-3cfaa8":{"name":"صيدلية النهدي","locationSet":{"include":["sa","ye"]},"geometry":["point","area"],"matchScore":2,"terms":["nahdi","صيدلية النهدي"],"reference":{"key":"amenity","value":"pharmacy"},"tags":{"amenity":"pharmacy","brand:wikidata":"Q98582564"},"addTags":{"amenity":"pharmacy","brand":"صيدلية النهدي","brand:ar":"صيدلية النهدي","brand:en":"Nahdi","brand:wikidata":"Q98582564","healthcare":"pharmacy","name":"صيدلية النهدي","name:ar":"صيدلية النهدي","name:en":"Nahdi"}},"shop/mobile_phone/mtn-fe03c5":{"name":"MTN","locationSet":{"include":["af","bj","bw","cg","ci","cm","gn","gw","ir","lr","ni","rw","sd","ss","sy","ug","ye","za","zm"]},"geometry":["point","area"],"matchScore":2,"terms":["agence mtn","mtn"],"tags":{"brand:wikidata":"Q1813361","shop":"mobile_phone"},"addTags":{"brand":"MTN","brand:wikidata":"Q1813361","name":"MTN","shop":"mobile_phone"}},"man_made/mast/communication/mtn-a5a5e8":{"name":"MTN","locationSet":{"include":["af","bj","bw","cg","ci","cm","gn","gw","ir","lr","ni","rw","sd","ss","sy","ug","ye","za","zm"]},"geometry":["point","vertex"],"matchScore":2,"terms":["agence mtn","mtn"],"reference":{"key":"tower:type","value":"communication"},"tags":{"man_made":"mast","operator:wikidata":"Q1813361","tower:type":"communication"},"addTags":{"man_made":"mast","operator":"MTN","operator:wikidata":"Q1813361","tower:type":"communication"}},"man_made/tower/communication/mtn-a1bc20":{"name":"MTN","locationSet":{"include":["af","bj","bw","cg","ci","cm","gn","gw","ir","lr","ni","rw","sd","ss","sy","ug","ye","za","zm"]},"geometry":["point","vertex","area"],"matchScore":2,"terms":["agence mtn","mtn"],"reference":{"key":"tower:type","value":"communication"},"tags":{"man_made":"tower","operator:wikidata":"Q1813361","tower:type":"communication"},"addTags":{"man_made":"tower","operator":"MTN","operator:wikidata":"Q1813361","tower:type":"communication"}}}