{"advertising/totem/global-2f5b89":{"name":"Global","locationSet":{"include":["us-ct","us-ma","us-me","us-nh","us-nj","us-ny","us-pa","us-ri","us-vt"]},"geometry":["point","line"],"matchScore":2,"terms":["global"],"tags":{"advertising":"totem","brand:wikidata":"Q121160135"},"addTags":{"advertising":"totem","brand":"Global","brand:wikidata":"Q121160135"}},"advertising/totem/xtrafuels-2f5b89":{"name":"Xtra Fuels","locationSet":{"include":["us-ct","us-ma","us-me","us-nh","us-nj","us-ny","us-pa","us-ri","us-vt"]},"geometry":["point","line"],"matchScore":2,"terms":["xtra fuels","xtramart"],"tags":{"advertising":"totem","brand:wikidata":"Q121160101"},"addTags":{"advertising":"totem","brand":"Xtra Fuels","brand:wikidata":"Q121160101"}},"amenity/atm/citizensbank-0bad27":{"name":"Citizens Bank (Eastern USA)","locationSet":{"include":["us-ct","us-de","us-ma","us-mi","us-nh","us-nj","us-ny","us-oh","us-pa","us-ri","us-va","us-vt"]},"geometry":["point","vertex"],"matchScore":2,"terms":["citizens","citizens bank"],"fields":["name","brand","{amenity/atm}"],"tags":{"amenity":"atm","brand:wikidata":"Q5122694"},"addTags":{"amenity":"atm","brand":"Citizens Bank","brand:wikidata":"Q5122694","operator":"Citizens Bank","operator:wikidata":"Q5122694","short_name":"Citizens"}},"amenity/bank/citizensbank-8621dd":{"name":"Citizens Bank (Eastern USA)","locationSet":{"include":["us-ct","us-de","us-ma","us-mi","us-nh","us-nj","us-ny","us-oh","us-pa","us-ri","us-va","us-vt"]},"geometry":["point","area"],"matchScore":2,"terms":["citizens","citizens bank"],"tags":{"amenity":"bank","brand:wikidata":"Q5122694"},"addTags":{"amenity":"bank","brand":"Citizens Bank","brand:wikidata":"Q5122694","name":"Citizens Bank","short_name":"Citizens"}},"amenity/fast_food/sandwich/amatos-862b87":{"name":"Amato's","locationSet":{"include":["us-ma","us-me","us-nh","us-vt"]},"geometry":["point","area"],"matchScore":2,"terms":["amato's"],"reference":{"key":"cuisine","value":"sandwich"},"tags":{"amenity":"fast_food","brand:wikidata":"Q4740614","cuisine":"sandwich;italian"},"addTags":{"amenity":"fast_food","brand":"Amato's","brand:wikidata":"Q4740614","cuisine":"sandwich;italian","name":"Amato's","takeaway":"yes"}},"amenity/fuel/global-c2b77c":{"name":"Global","locationSet":{"include":["us-ct","us-ma","us-me","us-nh","us-nj","us-ny","us-pa","us-ri","us-vt"]},"geometry":["point","area"],"matchScore":2,"terms":["global"],"fields":["name","brand","{amenity/fuel}"],"tags":{"amenity":"fuel","brand:wikidata":"Q121160135"},"addTags":{"amenity":"fuel","brand":"Global","brand:wikidata":"Q121160135","name":"Global"}},"amenity/fuel/xtrafuels-c2b77c":{"name":"Xtra Fuels","locationSet":{"include":["us-ct","us-ma","us-me","us-nh","us-nj","us-ny","us-pa","us-ri","us-vt"]},"geometry":["point","area"],"matchScore":2,"terms":["xtra fuels","xtramart"],"fields":["name","brand","{amenity/fuel}"],"tags":{"amenity":"fuel","brand:wikidata":"Q121160101"},"addTags":{"amenity":"fuel","brand":"Xtra Fuels","brand:wikidata":"Q121160101","name":"Xtra Fuels"}},"craft/glaziery/portlandglass-57b99e":{"name":"Portland Glass","locationSet":{"include":["us-me","us-nh","us-vt"]},"geometry":["point","area"],"matchScore":2,"terms":["portland glass"],"tags":{"brand:wikidata":"Q123649435","craft":"glaziery"},"addTags":{"brand":"Portland Glass","brand:wikidata":"Q123649435","craft":"glaziery","name":"Portland Glass"}},"shop/cannabis/curaleaf-4b9e8a":{"name":"Curaleaf","locationSet":{"include":["us-az","us-ct","us-fl","us-il","us-ma","us-md","us-me","us-mi","us-nd","us-nj","us-nv","us-ny","us-oh","us-or","us-pa","us-ut","us-vt"]},"geometry":["point","area"],"matchScore":2,"terms":["curaleaf"],"tags":{"brand:wikidata":"Q85754829","shop":"cannabis"},"addTags":{"brand":"Curaleaf","brand:wikidata":"Q85754829","name":"Curaleaf","shop":"cannabis"}},"shop/car_parts/sanelnapa-a1190a":{"name":"Sanel NAPA","locationSet":{"include":["us-ma","us-me","us-nh","us-vt"]},"geometry":["point","area"],"matchScore":2,"terms":["sanel auto parts","sanel napa"],"tags":{"brand:wikidata":"Q122564780","shop":"car_parts"},"addTags":{"brand":"Sanel NAPA","brand:wikidata":"Q122564780","name":"Sanel NAPA","shop":"car_parts"}},"shop/car_repair/viptiresandservice-451c51":{"name":"VIP Tires and Service","locationSet":{"include":["us-ma","us-me","us-nh","us-vt"]},"geometry":["point","area"],"matchScore":2,"terms":["vip tires","vip tires and service"],"fields":["name","brand","{shop/car_repair}"],"tags":{"brand:wikidata":"Q7907052","shop":"car_repair"},"addTags":{"brand":"VIP Tires and Service","brand:wikidata":"Q7907052","name":"VIP Tires and Service","service:vehicle:car_repair":"yes","service:vehicle:tyres":"yes","shop":"car_repair"}},"shop/convenience/jiffymart-fe2c5d":{"name":"Jiffy Mart","locationSet":{"include":["us-nh","us-vt"]},"geometry":["point","area"],"matchScore":2,"terms":["jiffy mart"],"tags":{"brand:wikidata":"Q119592174","shop":"convenience"},"addTags":{"brand":"Jiffy Mart","brand:wikidata":"Q119592174","name":"Jiffy Mart","shop":"convenience"}},"shop/outdoor/easternmountainsports-d32658":{"name":"Eastern Mountain Sports","locationSet":{"include":["us-ct","us-ma","us-me","us-nh","us-nj","us-ny","us-pa","us-vt"]},"geometry":["point","area"],"matchScore":2,"terms":["eastern mountain sports","ems"],"tags":{"brand:wikidata":"Q5330322","shop":"outdoor"},"addTags":{"brand":"Eastern Mountain Sports","brand:wikidata":"Q5330322","name":"Eastern Mountain Sports","shop":"outdoor","short_name":"EMS"}},"shop/supermarket/pricechopper-7d1b36":{"name":"Price Chopper (New England)","locationSet":{"include":["us-ct","us-ma","us-nh","us-ny","us-pa","us-vt"]},"geometry":["point","area"],"matchScore":2,"terms":["price chopper"],"tags":{"brand:wikidata":"Q7242574","shop":"supermarket"},"addTags":{"brand":"Price Chopper","brand:wikidata":"Q7242574","name":"Price Chopper","shop":"supermarket"}},"shop/tyres/tirewarehouse-26b73d":{"name":"Tire Warehouse","locationSet":{"include":["us-ma","us-me","us-nh","us-ri","us-vt"]},"geometry":["point","area"],"matchScore":2,"terms":["tire warehouse"],"tags":{"brand:wikidata":"Q123618491","shop":"tyres"},"addTags":{"brand":"Tire Warehouse","brand:wikidata":"Q123618491","name":"Tire Warehouse","shop":"tyres"}},"shop/tyres/townfairtire-f05d93":{"name":"Town Fair Tire","locationSet":{"include":["us-ct","us-ma","us-me","us-nh","us-ny","us-ri","us-vt"]},"geometry":["point","area"],"matchScore":2,"terms":["town fair tire"],"tags":{"brand:wikidata":"Q121300374","shop":"tyres"},"addTags":{"brand":"Town Fair Tire","brand:wikidata":"Q121300374","name":"Town Fair Tire","shop":"tyres"}},"office/government/vermontdepartmentofmotorvehicles-e8b2d3":{"name":"Vermont DMV","locationSet":{"include":["us-vt"]},"geometry":["point","area"],"matchScore":2,"terms":["dmv","vermont department of motor vehicles","vermont dmv"],"fields":["name","operator","{office/government}"],"tags":{"office":"government","operator:wikidata":"Q7921710"},"addTags":{"government":"transportation","office":"government","operator":"Vermont Department of Motor Vehicles","operator:short":"Vermont DMV","operator:wikidata":"Q7921710"}},"shop/charity/goodwillindustriesofnorthernnewengland-8706d7":{"name":"Goodwill Northern New England","locationSet":{"include":["us-me","us-nh","us-vt"]},"geometry":["point","area"],"matchScore":2,"terms":["goodwill","goodwill industries of northern new england"],"tags":{"operator:wikidata":"Q123682911","shop":"charity"},"addTags":{"brand":"Goodwill","brand:wikidata":"Q5583655","name":"Goodwill","operator":"Goodwill Industries of Northern New England","operator:wikidata":"Q123682911","shop":"charity"}},"public_transport/platform/bus_point/at-8a81ee":{"name":"AT (Advance Transit)","locationSet":{"include":["us-nh","us-vt"]},"geometry":["point","vertex"],"matchScore":2,"terms":["advance transit","at"],"reference":{"key":"public_transport","value":"platform"},"tags":{"bus":"yes","network:wikidata":"Q17084449","public_transport":"platform"},"addTags":{"bus":"yes","highway":"bus_stop","network":"AT","network:wikidata":"Q17084449","operator":"Advance Transit","public_transport":"platform"}},"public_transport/platform/bus_point/greenmountaintransit-300372":{"name":"Green Mountain Transit","locationSet":{"include":["us-vt"]},"geometry":["point","vertex"],"matchScore":2,"terms":["gmt","green mountain transit"],"reference":{"key":"public_transport","value":"platform"},"tags":{"bus":"yes","network:wikidata":"Q28404107","public_transport":"platform"},"addTags":{"bus":"yes","highway":"bus_stop","network":"Green Mountain Transit","network:short":"GMT","network:wikidata":"Q28404107","public_transport":"platform"}},"type/route/bus/at-f86d2b":{"name":"AT (Advance Transit)","locationSet":{"include":["us-nh","us-vt"]},"geometry":["relation"],"matchScore":2,"terms":["advance transit","at"],"reference":{"key":"route","value":"bus"},"tags":{"network:wikidata":"Q17084449","route":"bus","type":"route"},"addTags":{"network":"AT","network:wikidata":"Q17084449","operator":"Advance Transit","route":"bus","type":"route"}},"type/route/bus/greenmountaintransit-347676":{"name":"Green Mountain Transit","locationSet":{"include":["us-vt"]},"geometry":["relation"],"matchScore":2,"terms":["gmt","green mountain transit"],"reference":{"key":"route","value":"bus"},"tags":{"network:wikidata":"Q28404107","route":"bus","type":"route"},"addTags":{"network":"Green Mountain Transit","network:short":"GMT","network:wikidata":"Q28404107","route":"bus","type":"route"}}}