{"amenity/atm/bancobisa-caae63":{"name":"Banco BISA","locationSet":{"include":["bo"]},"geometry":["point","vertex"],"matchScore":2,"terms":["banco bisa","bisa"],"fields":["name","brand","{amenity/atm}"],"tags":{"amenity":"atm","brand:wikidata":"Q21044225"},"addTags":{"amenity":"atm","brand":"Banco BISA","brand:wikidata":"Q21044225","operator":"Banco BISA","operator:wikidata":"Q21044225"}},"amenity/atm/bancoeconomico-caae63":{"name":"Banco Económico","locationSet":{"include":["bo"]},"geometry":["point","vertex"],"matchScore":2,"terms":["banco económico"],"fields":["name","brand","{amenity/atm}"],"tags":{"amenity":"atm","brand:wikidata":"Q4854087"},"addTags":{"amenity":"atm","brand":"Banco Económico","brand:wikidata":"Q4854087","operator":"Banco Económico","operator:wikidata":"Q4854087"}},"amenity/atm/bancofassil-caae63":{"name":"Banco Fassil","locationSet":{"include":["bo"]},"geometry":["point","vertex"],"matchScore":2,"terms":["banco fassil"],"fields":["name","brand","{amenity/atm}"],"tags":{"amenity":"atm","brand:wikidata":"Q62118592"},"addTags":{"amenity":"atm","brand":"Banco Fassil","brand:wikidata":"Q62118592","operator":"Banco Fassil","operator:wikidata":"Q62118592"}},"amenity/atm/bancofie-caae63":{"name":"Banco Fie","locationSet":{"include":["bo"]},"geometry":["point","vertex"],"matchScore":2,"terms":["banco fie","banco para el fomento a iniciativas económicas"],"fields":["name","brand","{amenity/atm}"],"tags":{"amenity":"atm","brand:wikidata":"Q81782924"},"addTags":{"amenity":"atm","brand":"Banco Fie","brand:wikidata":"Q81782924","official_name":"Banco para el Fomento a Iniciativas Económicas","operator":"Banco Fie","operator:wikidata":"Q81782924"}},"amenity/atm/bancofortaleza-caae63":{"name":"Banco Fortaleza","locationSet":{"include":["bo"]},"geometry":["point","vertex"],"matchScore":2,"terms":["banco fortaleza"],"fields":["name","brand","{amenity/atm}"],"tags":{"amenity":"atm","brand:wikidata":"Q81787643"},"addTags":{"amenity":"atm","brand":"Banco Fortaleza","brand:wikidata":"Q81787643","operator":"Banco Fortaleza","operator:wikidata":"Q81787643"}},"amenity/atm/bancoganadero-caae63":{"name":"Banco Ganadero","locationSet":{"include":["bo"]},"geometry":["point","vertex"],"matchScore":2,"terms":["banco ganadero","bg"],"fields":["name","brand","{amenity/atm}"],"tags":{"amenity":"atm","brand:wikidata":"Q81788241"},"addTags":{"amenity":"atm","brand":"Banco Ganadero","brand:wikidata":"Q81788241","operator":"Banco Ganadero","operator:wikidata":"Q81788241","short_name":"BG"}},"amenity/atm/bancomercantilsantacruz-caae63":{"name":"Banco Mercantil","locationSet":{"include":["bo"]},"geometry":["point","vertex"],"matchScore":2,"terms":["banco mercantil","banco mercantil santa cruz","bmsc"],"fields":["name","brand","{amenity/atm}"],"tags":{"amenity":"atm","brand:wikidata":"Q26250269"},"addTags":{"amenity":"atm","brand":"Banco Mercantil Santa Cruz","brand:wikidata":"Q26250269","operator":"Banco Mercantil Santa Cruz","operator:wikidata":"Q26250269","short_name":"BMSC"}},"amenity/atm/banconacionaldebolivia-caae63":{"name":"Banco Nacional de Bolivia","locationSet":{"include":["bo"]},"geometry":["point","vertex"],"matchScore":2,"terms":["banco nacional de bolivia","bnb"],"fields":["name","brand","{amenity/atm}"],"tags":{"amenity":"atm","brand:wikidata":"Q21044226"},"addTags":{"amenity":"atm","brand":"Banco Nacional de Bolivia","brand:wikidata":"Q21044226","operator":"Banco Nacional de Bolivia","operator:wikidata":"Q21044226","short_name":"BNB"}},"amenity/atm/bancosol-caae63":{"name":"Banco Sol (Bolivia)","locationSet":{"include":["bo"]},"geometry":["point","vertex"],"matchScore":2,"terms":["banco sol","banco solidario"],"fields":["name","brand","{amenity/atm}"],"tags":{"amenity":"atm","brand:wikidata":"Q62118746"},"addTags":{"amenity":"atm","brand":"Banco Sol","brand:wikidata":"Q62118746","official_name":"Banco Solidario","operator":"Banco Sol","operator:wikidata":"Q62118746"}},"amenity/atm/bancounion-caae63":{"name":"Banco Unión","locationSet":{"include":["bo"]},"geometry":["point","vertex"],"matchScore":2,"terms":["banco de la unión","banco unión"],"fields":["name","brand","{amenity/atm}"],"tags":{"amenity":"atm","brand:wikidata":"Q72315494"},"addTags":{"amenity":"atm","brand":"Banco Unión","brand:wikidata":"Q72315494","official_name":"Banco de la Unión","operator":"Banco Unión","operator:wikidata":"Q72315494"}},"amenity/atm/bcp-caae63":{"name":"BCP (Bolivia)","locationSet":{"include":["bo"]},"geometry":["point","vertex"],"matchScore":2,"terms":["banco de crédito","banco de crédito de bolivia","bcp"],"fields":["name","brand","{amenity/atm}"],"tags":{"amenity":"atm","brand:wikidata":"Q16826675"},"addTags":{"amenity":"atm","brand":"BCP","brand:wikidata":"Q16826675","official_name":"Banco de Crédito de Bolivia","operator":"BCP","operator:wikidata":"Q16826675"}},"amenity/bank/bancobisa-66977e":{"name":"Banco BISA","locationSet":{"include":["bo"]},"geometry":["point","area"],"matchScore":2,"terms":["banco bisa","bisa"],"tags":{"amenity":"bank","brand:wikidata":"Q21044225"},"addTags":{"amenity":"bank","brand":"Banco BISA","brand:wikidata":"Q21044225","name":"Banco BISA"}},"amenity/bank/bancoeconomico-66977e":{"name":"Banco Económico","locationSet":{"include":["bo"]},"geometry":["point","area"],"matchScore":2,"terms":["banco económico"],"tags":{"amenity":"bank","brand:wikidata":"Q4854087"},"addTags":{"amenity":"bank","brand":"Banco Económico","brand:wikidata":"Q4854087","name":"Banco Económico"}},"amenity/bank/bancofassil-66977e":{"name":"Banco Fassil","locationSet":{"include":["bo"]},"geometry":["point","area"],"matchScore":2,"terms":["banco fassil"],"tags":{"amenity":"bank","brand:wikidata":"Q62118592"},"addTags":{"amenity":"bank","brand":"Banco Fassil","brand:wikidata":"Q62118592","name":"Banco Fassil"}},"amenity/bank/bancofie-66977e":{"name":"Banco Fie","locationSet":{"include":["bo"]},"geometry":["point","area"],"matchScore":2,"terms":["banco fie","banco para el fomento a iniciativas económicas"],"tags":{"amenity":"bank","brand:wikidata":"Q81782924"},"addTags":{"amenity":"bank","brand":"Banco Fie","brand:wikidata":"Q81782924","name":"Banco Fie","official_name":"Banco para el Fomento a Iniciativas Económicas"}},"amenity/bank/bancofortaleza-66977e":{"name":"Banco Fortaleza","locationSet":{"include":["bo"]},"geometry":["point","area"],"matchScore":2,"terms":["banco fortaleza"],"tags":{"amenity":"bank","brand:wikidata":"Q81787643"},"addTags":{"amenity":"bank","brand":"Banco Fortaleza","brand:wikidata":"Q81787643","name":"Banco Fortaleza"}},"amenity/bank/bancoganadero-66977e":{"name":"Banco Ganadero","locationSet":{"include":["bo"]},"geometry":["point","area"],"matchScore":2,"terms":["banco ganadero","bg"],"tags":{"amenity":"bank","brand:wikidata":"Q81788241"},"addTags":{"amenity":"bank","brand":"Banco Ganadero","brand:wikidata":"Q81788241","name":"Banco Ganadero","short_name":"BG"}},"amenity/bank/bancomercantilsantacruz-66977e":{"name":"Banco Mercantil","locationSet":{"include":["bo"]},"geometry":["point","area"],"matchScore":2,"terms":["banco mercantil","banco mercantil santa cruz","bmsc"],"tags":{"amenity":"bank","brand:wikidata":"Q26250269"},"addTags":{"amenity":"bank","brand":"Banco Mercantil Santa Cruz","brand:wikidata":"Q26250269","name":"Banco Mercantil Santa Cruz","short_name":"BMSC"}},"amenity/bank/banconacionaldebolivia-66977e":{"name":"Banco Nacional de Bolivia","locationSet":{"include":["bo"]},"geometry":["point","area"],"matchScore":2,"terms":["banco nacional de bolivia","bnb"],"tags":{"amenity":"bank","brand:wikidata":"Q21044226"},"addTags":{"amenity":"bank","brand":"Banco Nacional de Bolivia","brand:wikidata":"Q21044226","name":"Banco Nacional de Bolivia","short_name":"BNB"}},"amenity/bank/bancosol-66977e":{"name":"Banco Sol (Bolivia)","locationSet":{"include":["bo"]},"geometry":["point","area"],"matchScore":2,"terms":["banco sol","banco solidario"],"tags":{"amenity":"bank","brand:wikidata":"Q62118746"},"addTags":{"amenity":"bank","brand":"Banco Sol","brand:wikidata":"Q62118746","name":"Banco Sol","official_name":"Banco Solidario"}},"amenity/bank/bancounion-66977e":{"name":"Banco Unión","locationSet":{"include":["bo"]},"geometry":["point","area"],"matchScore":2,"terms":["banco de la unión","banco unión"],"tags":{"amenity":"bank","brand:wikidata":"Q72315494"},"addTags":{"amenity":"bank","brand":"Banco Unión","brand:wikidata":"Q72315494","name":"Banco Unión","official_name":"Banco de la Unión"}},"amenity/bank/bcp-66977e":{"name":"BCP (Bolivia)","locationSet":{"include":["bo"]},"geometry":["point","area"],"matchScore":2,"terms":["banco de crédito","banco de crédito de bolivia","bcp"],"tags":{"amenity":"bank","brand:wikidata":"Q16826675"},"addTags":{"amenity":"bank","brand":"BCP","brand:wikidata":"Q16826675","name":"BCP","official_name":"Banco de Crédito de Bolivia"}},"amenity/cinema/cinecenter-276738":{"name":"Cine Center","locationSet":{"include":["bo"]},"geometry":["point","area"],"matchScore":2,"terms":["cine center"],"fields":["name","brand","{amenity/cinema}"],"tags":{"amenity":"cinema","brand:wikidata":"Q81962395"},"addTags":{"amenity":"cinema","brand":"Cine Center","brand:wikidata":"Q81962395","name":"Cine Center"}},"amenity/cinema/multicine-276738":{"name":"MultiCine","locationSet":{"include":["bo"]},"geometry":["point","area"],"matchScore":2,"terms":["multicine"],"fields":["name","brand","{amenity/cinema}"],"tags":{"amenity":"cinema","brand:wikidata":"Q81963200"},"addTags":{"amenity":"cinema","brand":"MultiCine","brand:wikidata":"Q81963200","name":"MultiCine"}},"amenity/ice_cream/freddo-3a94a6":{"name":"Freddo","locationSet":{"include":["ar","bo","br","cl","gb","it","us","uy"]},"geometry":["point","area"],"matchScore":2,"terms":["freddo"],"tags":{"amenity":"ice_cream","brand:wikidata":"Q28823999"},"addTags":{"amenity":"ice_cream","brand":"Freddo","brand:wikidata":"Q28823999","cuisine":"ice_cream","name":"Freddo"}},"amenity/pharmacy/farmaciachavez-552afd":{"name":"Farmacia Chávez","locationSet":{"include":["bo"]},"geometry":["point","area"],"matchScore":2,"terms":["farmacia chávez"],"reference":{"key":"amenity","value":"pharmacy"},"tags":{"amenity":"pharmacy","brand:wikidata":"Q81969919"},"addTags":{"amenity":"pharmacy","brand":"Farmacia Chávez","brand:wikidata":"Q81969919","healthcare":"pharmacy","name":"Farmacia Chávez"}},"amenity/pharmacy/farmaciahipermaxi-552afd":{"name":"Farmacia Hipermaxi","locationSet":{"include":["bo"]},"geometry":["point","area"],"matchScore":2,"terms":["farmacia hipermaxi"],"reference":{"key":"amenity","value":"pharmacy"},"tags":{"amenity":"pharmacy","brand:wikidata":"Q81970238"},"addTags":{"amenity":"pharmacy","brand":"Farmacia Hipermaxi","brand:wikidata":"Q81970238","healthcare":"pharmacy","name":"Farmacia Hipermaxi"}},"amenity/pharmacy/farmaciasbolivia-552afd":{"name":"Farmacias Bolivia","locationSet":{"include":["bo"]},"geometry":["point","area"],"matchScore":2,"terms":["farmacias bolivia"],"reference":{"key":"amenity","value":"pharmacy"},"tags":{"amenity":"pharmacy","brand:wikidata":"Q81970584"},"addTags":{"amenity":"pharmacy","brand":"Farmacias Bolivia","brand:wikidata":"Q81970584","healthcare":"pharmacy","name":"Farmacias Bolivia"}},"amenity/pharmacy/farmacorp-552afd":{"name":"Farmacorp","locationSet":{"include":["bo"]},"geometry":["point","area"],"matchScore":2,"terms":["farmacorp"],"reference":{"key":"amenity","value":"pharmacy"},"tags":{"amenity":"pharmacy","brand:wikidata":"Q81968937"},"addTags":{"amenity":"pharmacy","brand":"Farmacorp","brand:wikidata":"Q81968937","healthcare":"pharmacy","name":"Farmacorp"}},"amenity/pharmacy/farmaelias-552afd":{"name":"FarmaElías","locationSet":{"include":["bo"]},"geometry":["point","area"],"matchScore":2,"terms":["farmaelías"],"reference":{"key":"amenity","value":"pharmacy"},"tags":{"amenity":"pharmacy","brand:wikidata":"Q81969487"},"addTags":{"amenity":"pharmacy","brand":"FarmaElías","brand:wikidata":"Q81969487","healthcare":"pharmacy","name":"FarmaElías"}},"emergency/ambulance_station/cruzrojaboliviana-97b2ba":{"name":"Cruz Roja Boliviana","locationSet":{"include":["bo"]},"geometry":["point","area"],"matchScore":2,"terms":["crb","cruz roja","cruz roja boliviana"],"fields":["name","brand","{emergency/ambulance_station}"],"tags":{"brand:wikidata":"Q4939585","emergency":"ambulance_station"},"addTags":{"brand":"Cruz Roja Boliviana","brand:wikidata":"Q4939585","emergency":"ambulance_station","name":"Cruz Roja Boliviana"}},"shop/clothes/underwear/lupo-a63afb":{"name":"Lupo","locationSet":{"include":["bo","br","pe","ve"]},"geometry":["point","area"],"matchScore":2,"terms":["lupo"],"reference":{"key":"clothes","value":"underwear"},"tags":{"brand:wikidata":"Q48855225","clothes":"underwear;sports","shop":"clothes"},"addTags":{"brand":"Lupo","brand:wikidata":"Q48855225","clothes":"underwear;sports","name":"Lupo","shop":"clothes"}},"shop/shoes/manaco-c1b94b":{"name":"Manaco","locationSet":{"include":["bo"]},"geometry":["point","area"],"matchScore":2,"terms":["calzados manaco","manaco"],"tags":{"brand:wikidata":"Q81964197","shop":"shoes"},"addTags":{"brand":"Manaco","brand:wikidata":"Q81964197","name":"Manaco","shop":"shoes"}},"shop/sports/marathonsports-ce6e12":{"name":"Marathon Sports (Ecuador)","locationSet":{"include":["bo","ec","pe"]},"geometry":["point","area"],"matchScore":2,"terms":["marathon sports"],"tags":{"brand:wikidata":"Q3027516","shop":"sports"},"addTags":{"brand":"Marathon Sports","brand:wikidata":"Q3027516","name":"Marathon Sports","shop":"sports"}},"shop/supermarket/hipermaxi-cbfbb4":{"name":"Hipermaxi","locationSet":{"include":["bo"]},"geometry":["point","area"],"matchScore":2,"terms":["hipermaxi"],"tags":{"brand:wikidata":"Q81968262","shop":"supermarket"},"addTags":{"brand":"Hipermaxi","brand:wikidata":"Q81968262","name":"Hipermaxi","shop":"supermarket"}},"shop/supermarket/icnorte-cbfbb4":{"name":"IC Norte","locationSet":{"include":["bo"]},"geometry":["point","area"],"matchScore":2,"terms":["ic norte"],"tags":{"brand:wikidata":"Q81967653","shop":"supermarket"},"addTags":{"brand":"IC Norte","brand:wikidata":"Q81967653","name":"IC Norte","shop":"supermarket"}},"shop/supermarket/ketal-cbfbb4":{"name":"Ketal","locationSet":{"include":["bo"]},"geometry":["point","area"],"matchScore":2,"terms":["ketal"],"tags":{"brand:wikidata":"Q81967299","shop":"supermarket"},"addTags":{"brand":"Ketal","brand:wikidata":"Q81967299","name":"Ketal","shop":"supermarket"}},"amenity/hospital/ministeriodesaludydeportes-bdc341":{"name":"Ministerio de Salud y Deportes (Bolivia)","locationSet":{"include":["bo"]},"geometry":["area","point"],"matchScore":2,"terms":["ministerio de salud","ministerio de salud y deportes","minsalud"],"fields":["name","operator","{amenity/hospital}"],"reference":{"key":"amenity","value":"hospital"},"tags":{"amenity":"hospital","operator:wikidata":"Q44225411"},"addTags":{"amenity":"hospital","healthcare":"hospital","operator":"Ministerio de Salud y Deportes","operator:short":"MinSalud","operator:wikidata":"Q44225411"}},"amenity/police/policianacionaldebolivia-23a32a":{"name":"Policía Nacional de Bolivia","locationSet":{"include":["bo"]},"geometry":["point","area"],"matchScore":2,"terms":["pnb","policia boliviana","policia nacional","policia nacional boliviana","policia nacional boliviana (pnb)","policía nacional de bolivia","policia nacional de bolivia (pnb)"],"tags":{"amenity":"police","operator:wikidata":"Q3065571"},"addTags":{"amenity":"police","operator":"Policía Nacional de Bolivia","operator:short":"PNB","operator:wikidata":"Q3065571"}},"amenity/telephone/claro-6490cd":{"name":"Claro","locationSet":{"include":["ai","ag","aw","bs","bb","bq","vg","ky","cu","cw","dm","do","gd","gp","ht","jm","mq","ms","pr","bl","kn","lc","mf","vc","sx","tt","tc","vi","bz","cr","sv","gt","hn","mx","ni","pa","ar","bo","bv","br","cl","co","ec","fk","gf","gy","py","pe","gs","sr","uy","ve"]},"geometry":["point","vertex"],"matchScore":2,"terms":["claro"],"fields":["name","operator","{amenity/telephone}"],"tags":{"amenity":"telephone","operator:wikidata":"Q1770208"},"addTags":{"amenity":"telephone","operator":"Claro","operator:wikidata":"Q1770208"}},"boundary/servicionacionaldeareasprotegidas-3c2a1d":{"name":"Servicio Nacional de Áreas Protegidas (Bolivia)","locationSet":{"include":["bo"]},"geometry":["line"],"matchScore":2,"terms":["sernap","servicio nacional de áreas protegidas"],"tags":{"boundary":"national_park","operator:wikidata":"Q6126064"},"addTags":{"boundary":"national_park","operator":"Servicio Nacional de Áreas Protegidas","operator:short":"SERNAP","operator:wikidata":"Q6126064"}},"boundary/servicionacionaldeareasprotegidas-7260ed":{"name":"Servicio Nacional de Áreas Protegidas","locationSet":{"include":["bo"]},"geometry":["line"],"matchScore":2,"terms":["sernap","servicio nacional de áreas protegidas"],"tags":{"boundary":"protected_area","operator:wikidata":"Q6126064"},"addTags":{"boundary":"protected_area","operator":"Servicio Nacional de Áreas Protegidas","operator:short":"SERNAP","operator:wikidata":"Q6126064"}},"leisure/nature_reserve/emaverde-a93914":{"name":"Emaverde","locationSet":{"include":["bo"]},"geometry":["area","point"],"matchScore":2,"terms":["emaverde"],"tags":{"leisure":"nature_reserve","operator:wikidata":"Q110064027"},"addTags":{"leisure":"nature_reserve","operator":"Emaverde","operator:type":"public","operator:wikidata":"Q110064027"}},"leisure/nature_reserve/emavra-a93914":{"name":"Emavra","locationSet":{"include":["bo"]},"geometry":["area","point"],"matchScore":2,"terms":["emavra"],"tags":{"leisure":"nature_reserve","operator:wikidata":"Q110064070"},"addTags":{"leisure":"nature_reserve","operator":"Emavra","operator:type":"public","operator:wikidata":"Q110064070"}},"leisure/nature_reserve/gamlp-a93914":{"name":"GAMLP","locationSet":{"include":["bo"]},"geometry":["area","point"],"matchScore":2,"terms":["gamlp"],"tags":{"leisure":"nature_reserve","operator:wikidata":"Q25410165"},"addTags":{"leisure":"nature_reserve","operator":"GAMLP","operator:type":"government","operator:wikidata":"Q25410165"}},"leisure/nature_reserve/gams-a93914":{"name":"GAMS","locationSet":{"include":["bo"]},"geometry":["area","point"],"matchScore":2,"terms":["gams"],"tags":{"leisure":"nature_reserve","operator:wikidata":"Q110064087"},"addTags":{"leisure":"nature_reserve","operator":"GAMS","operator:type":"government","operator:wikidata":"Q110064087"}},"leisure/park/emaverde-14104f":{"name":"Emaverde","locationSet":{"include":["bo"]},"geometry":["area","point"],"matchScore":2,"terms":["emaverde"],"tags":{"leisure":"park","operator:wikidata":"Q110064027"},"addTags":{"leisure":"park","operator":"Emaverde","operator:type":"public","operator:wikidata":"Q110064027"}},"leisure/park/emavra-14104f":{"name":"Emavra","locationSet":{"include":["bo"]},"geometry":["area","point"],"matchScore":2,"terms":["emavra"],"tags":{"leisure":"park","operator:wikidata":"Q110064070"},"addTags":{"leisure":"park","operator":"Emavra","operator:type":"public","operator:wikidata":"Q110064070"}},"leisure/park/gamlp-14104f":{"name":"GAMLP","locationSet":{"include":["bo"]},"geometry":["area","point"],"matchScore":2,"terms":["gamlp"],"tags":{"leisure":"park","operator:wikidata":"Q25410165"},"addTags":{"leisure":"park","operator":"GAMLP","operator:type":"government","operator:wikidata":"Q25410165"}},"leisure/park/gams-14104f":{"name":"GAMS","locationSet":{"include":["bo"]},"geometry":["area","point"],"matchScore":2,"terms":["gams"],"tags":{"leisure":"park","operator:wikidata":"Q110064087"},"addTags":{"leisure":"park","operator":"GAMS","operator:type":"government","operator:wikidata":"Q110064087"}},"type/route/aerialway/miteleferico-8c83d5":{"name":"Mi Teleférico","locationSet":{"include":["bo"]},"geometry":["relation"],"matchScore":2,"terms":["mi teleférico"],"reference":{"key":"route","value":"aerialway"},"tags":{"network:wikidata":"Q16472522","route":"aerialway","type":"route"},"addTags":{"network":"Mi Teleférico","network:wikidata":"Q16472522","route":"aerialway","type":"route"}}}