{"amenity/atm/citizensbank-0bad27":{"name":"Citizens Bank (Eastern USA)","locationSet":{"include":["us-ct","us-de","us-ma","us-mi","us-nh","us-nj","us-ny","us-oh","us-pa","us-ri","us-va","us-vt"]},"geometry":["point","vertex"],"matchScore":2,"terms":["citizens","citizens bank"],"fields":["name","brand","{amenity/atm}"],"tags":{"amenity":"atm","brand:wikidata":"Q5122694"},"addTags":{"amenity":"atm","brand":"Citizens Bank","brand:wikidata":"Q5122694","operator":"Citizens Bank","operator:wikidata":"Q5122694","short_name":"Citizens"}},"amenity/atm/citynationalbank-97e06e":{"name":"City National Bank (California)","locationSet":{"include":["us-ca","us-dc","us-de","us-fl","us-ga","us-ma","us-mn","us-nv","us-ny","us-tn","us-va"]},"geometry":["point","vertex"],"matchScore":2,"terms":["city national bank"],"fields":["name","brand","{amenity/atm}"],"tags":{"amenity":"atm","brand:wikidata":"Q5123314"},"addTags":{"amenity":"atm","brand":"City National Bank","brand:wikidata":"Q5123314","operator":"City National Bank","operator:wikidata":"Q5123314"}},"amenity/atm/citynationalbank-12b850":{"name":"City National Bank (West Virginia)","locationSet":{"include":["us-ky","us-oh","us-va","us-wv"]},"geometry":["point","vertex"],"matchScore":2,"terms":["city national bank"],"fields":["name","brand","{amenity/atm}"],"tags":{"amenity":"atm","brand:wikidata":"Q90937436"},"addTags":{"amenity":"atm","brand":"City National Bank","brand:wikidata":"Q90937436","operator":"City National Bank","operator:wikidata":"Q90937436"}},"amenity/atm/communitybankofthechesapeake-4f636c":{"name":"Community Bank of the Chesapeake","locationSet":{"include":["us-md","us-va"]},"geometry":["point","vertex"],"matchScore":2,"terms":["community bank of the chesapeake"],"fields":["name","brand","{amenity/atm}"],"tags":{"amenity":"atm","brand:wikidata":"Q110588647"},"addTags":{"amenity":"atm","brand":"Community Bank of the Chesapeake","brand:wikidata":"Q110588647","operator":"Community Bank of the Chesapeake","operator:wikidata":"Q110588647"}},"amenity/atm/dollarbank-425d54":{"name":"Dollar Bank","locationSet":{"include":["us-oh","us-pa","us-va"]},"geometry":["point","vertex"],"matchScore":2,"terms":["dollar bank"],"fields":["name","brand","{amenity/atm}"],"tags":{"amenity":"atm","brand:wikidata":"Q5289205"},"addTags":{"amenity":"atm","brand":"Dollar Bank","brand:wikidata":"Q5289205","operator":"Dollar Bank","operator:wikidata":"Q5289205"}},"amenity/atm/firstnationalbank-571c0f":{"name":"First National Bank (US)","locationSet":{"include":["us-dc","us-md","us-nc","us-oh","us-pa","us-sc","us-va","us-wv"]},"geometry":["point","vertex"],"matchScore":2,"terms":["first national bank","fnb"],"fields":["name","brand","{amenity/atm}"],"tags":{"amenity":"atm","brand:wikidata":"Q5426765"},"addTags":{"amenity":"atm","brand":"First National Bank","brand:wikidata":"Q5426765","operator":"First National Bank","operator:wikidata":"Q5426765"}},"amenity/atm/selfhelpcreditunion-f893c2":{"name":"Self-Help Credit Union","locationSet":{"include":["us-fl","us-nc","us-sc","us-va"]},"geometry":["point","vertex"],"matchScore":2,"terms":["self-help credit union"],"fields":["name","brand","{amenity/atm}"],"tags":{"amenity":"atm","brand:wikidata":"Q111381769"},"addTags":{"amenity":"atm","brand":"Self-Help Credit Union","brand:wikidata":"Q111381769","operator":"Self-Help Credit Union","operator:wikidata":"Q111381769"}},"amenity/atm/unitedbank-b1562d":{"name":"United Bank (West Virginia)","locationSet":{"include":["us-dc","us-md","us-nc","us-pa","us-sc","us-va","us-wv"]},"geometry":["point","vertex"],"matchScore":2,"terms":["united bank"],"fields":["name","brand","{amenity/atm}"],"tags":{"amenity":"atm","brand:wikidata":"Q16920636"},"addTags":{"amenity":"atm","brand":"United Bank","brand:wikidata":"Q16920636","operator":"United Bank","operator:wikidata":"Q16920636"}},"amenity/atm/wsfsbank-21e4b8":{"name":"WSFS Bank","locationSet":{"include":["us-de","us-nj","us-nv","us-pa","us-va"]},"geometry":["point","vertex"],"matchScore":2,"terms":["wsfs bank"],"fields":["name","brand","{amenity/atm}"],"tags":{"amenity":"atm","brand:wikidata":"Q7955609"},"addTags":{"amenity":"atm","brand":"WSFS Bank","brand:wikidata":"Q7955609","operator":"WSFS Bank","operator:wikidata":"Q7955609"}},"amenity/bank/citizensbank-8621dd":{"name":"Citizens Bank (Eastern USA)","locationSet":{"include":["us-ct","us-de","us-ma","us-mi","us-nh","us-nj","us-ny","us-oh","us-pa","us-ri","us-va","us-vt"]},"geometry":["point","area"],"matchScore":2,"terms":["citizens","citizens bank"],"tags":{"amenity":"bank","brand:wikidata":"Q5122694"},"addTags":{"amenity":"bank","brand":"Citizens Bank","brand:wikidata":"Q5122694","name":"Citizens Bank","short_name":"Citizens"}},"amenity/bank/citynationalbank-0b143b":{"name":"City National Bank (California)","locationSet":{"include":["us-ca","us-dc","us-de","us-fl","us-ga","us-ma","us-mn","us-nv","us-ny","us-tn","us-va"]},"geometry":["point","area"],"matchScore":2,"terms":["city national bank"],"tags":{"amenity":"bank","brand:wikidata":"Q5123314"},"addTags":{"amenity":"bank","brand":"City National Bank","brand:wikidata":"Q5123314","name":"City National Bank"}},"amenity/bank/citynationalbank-3abc7d":{"name":"City National Bank (West Virginia)","locationSet":{"include":["us-ky","us-oh","us-va","us-wv"]},"geometry":["point","area"],"matchScore":2,"terms":["city national bank"],"tags":{"amenity":"bank","brand:wikidata":"Q90937436"},"addTags":{"amenity":"bank","brand":"City National Bank","brand:wikidata":"Q90937436","name":"City National Bank"}},"amenity/bank/communitybankofthechesapeake-04ea9b":{"name":"Community Bank of the Chesapeake","locationSet":{"include":["us-md","us-va"]},"geometry":["point","area"],"matchScore":2,"terms":["community bank of the chesapeake"],"tags":{"amenity":"bank","brand:wikidata":"Q110588647"},"addTags":{"amenity":"bank","brand":"Community Bank of the Chesapeake","brand:wikidata":"Q110588647","name":"Community Bank of the Chesapeake"}},"amenity/bank/dollarbank-824f9e":{"name":"Dollar Bank","locationSet":{"include":["us-oh","us-pa","us-va"]},"geometry":["point","area"],"matchScore":2,"terms":["dollar bank"],"tags":{"amenity":"bank","brand:wikidata":"Q5289205"},"addTags":{"amenity":"bank","brand":"Dollar Bank","brand:wikidata":"Q5289205","name":"Dollar Bank"}},"amenity/bank/firstnationalbank-fdc31a":{"name":"First National Bank (US)","locationSet":{"include":["us-dc","us-md","us-nc","us-oh","us-pa","us-sc","us-va","us-wv"]},"geometry":["point","area"],"matchScore":2,"terms":["first national bank","fnb"],"tags":{"amenity":"bank","brand:wikidata":"Q5426765"},"addTags":{"amenity":"bank","brand":"First National Bank","brand:wikidata":"Q5426765","name":"First National Bank"}},"amenity/bank/selfhelpcreditunion-2b62fb":{"name":"Self-Help Credit Union","locationSet":{"include":["us-fl","us-nc","us-sc","us-va"]},"geometry":["point","area"],"matchScore":2,"terms":["self-help credit union"],"tags":{"amenity":"bank","brand:wikidata":"Q111381769"},"addTags":{"amenity":"bank","brand":"Self-Help Credit Union","brand:wikidata":"Q111381769","name":"Self-Help Credit Union"}},"amenity/bank/unitedbank-d6a32a":{"name":"United Bank (West Virginia)","locationSet":{"include":["us-dc","us-md","us-nc","us-pa","us-sc","us-va","us-wv"]},"geometry":["point","area"],"matchScore":2,"terms":["united bank"],"tags":{"amenity":"bank","brand:wikidata":"Q16920636"},"addTags":{"amenity":"bank","brand":"United Bank","brand:wikidata":"Q16920636","name":"United Bank"}},"amenity/bank/wsfsbank-ecc1eb":{"name":"WSFS Bank","locationSet":{"include":["us-de","us-nj","us-nv","us-pa","us-va"]},"geometry":["point","area"],"matchScore":2,"terms":["wsfs bank"],"tags":{"amenity":"bank","brand:wikidata":"Q7955609"},"addTags":{"amenity":"bank","brand":"WSFS Bank","brand:wikidata":"Q7955609","name":"WSFS Bank"}},"amenity/bicycle_rental/capialbikeshare-f7b29d":{"name":"Capital Bikeshare","locationSet":{"include":["us-dc","us-md","us-va"]},"geometry":["point","vertex","area"],"matchScore":2,"terms":["cabi","capital bikeshare","lyft","lyft bike"],"fields":["name","brand","{amenity/bicycle_rental}"],"tags":{"amenity":"bicycle_rental","brand:wikidata":"Q1034635"},"addTags":{"amenity":"bicycle_rental","brand":"Capital Bikeshare","brand:wikidata":"Q1034635","fee":"yes","name":"Capial Bikeshare","network":"Capital Bikeshare","network:wikidata":"Q1034635","operator":"Lyft","operator:type":"private","operator:wikidata":"Q17077936"}},"amenity/clinic/gohealthurgentcare-610c16":{"name":"Novant-GoHealth Urgent Care","locationSet":{"include":["us-ga","us-nc","us-sc","us-va"]},"geometry":["point","area"],"matchScore":2,"terms":["gohealth urgent care","novant health"],"reference":{"key":"amenity","value":"clinic"},"tags":{"amenity":"clinic","brand:wikidata":"Q110282081"},"addTags":{"amenity":"clinic","brand":"GoHealth Urgent Care","brand:wikidata":"Q110282081","healthcare":"clinic","operator":"Novant Health","operator:wikidata":"Q14956815"}},"amenity/clinic/veinclinicsofamerica-12a747":{"name":"Vein Clinics of America","locationSet":{"include":["us-ct","us-ga","us-il","us-in","us-ks","us-md","us-mn","us-mo","us-nc","us-oh","us-tn","us-tx","us-va","us-wi"]},"geometry":["point","area"],"matchScore":2,"terms":["vein clinics of america"],"reference":{"key":"amenity","value":"clinic"},"tags":{"amenity":"clinic","brand:wikidata":"Q113712355"},"addTags":{"amenity":"clinic","brand":"Vein Clinics of America","brand:wikidata":"Q113712355","healthcare":"clinic"}},"amenity/fuel/gomart-8a82f2":{"name":"GoMart","locationSet":{"include":["us-ky","us-oh","us-va","us-wv"]},"geometry":["point","area"],"matchScore":2,"terms":["gomart"],"fields":["name","brand","{amenity/fuel}"],"tags":{"amenity":"fuel","brand:wikidata":"Q5574575"},"addTags":{"amenity":"fuel","brand":"GoMart","brand:wikidata":"Q5574575","name":"GoMart"}},"amenity/fuel/sheetz-7c9a51":{"name":"Sheetz","locationSet":{"include":["us-md","us-nc","us-oh","us-pa","us-va","us-wv"]},"geometry":["point","area"],"matchScore":2,"terms":["sheetz"],"fields":["name","brand","{amenity/fuel}"],"tags":{"amenity":"fuel","brand:wikidata":"Q7492551"},"addTags":{"amenity":"fuel","brand":"Sheetz","brand:wikidata":"Q7492551","name":"Sheetz"}},"amenity/fuel/wawa-f5bad4":{"name":"Wawa","locationSet":{"include":["us-dc","us-de","us-fl","us-md","us-nj","us-pa","us-va"]},"geometry":["point","area"],"matchScore":2,"terms":["wawa"],"fields":["name","brand","{amenity/fuel}"],"tags":{"amenity":"fuel","brand:wikidata":"Q5936320"},"addTags":{"amenity":"fuel","brand":"Wawa","brand:wikidata":"Q5936320","name":"Wawa"}},"amenity/restaurant/seafood/joescrabshack-c6bbaa":{"name":"Joe's Crab Shack","locationSet":{"include":["us-az","us-ca","us-co","us-fl","us-ga","us-ky","us-la","us-mo","us-nc","us-nj","us-pa","us-sc","us-tn","us-tx","us-ut","us-va"]},"geometry":["point","area"],"matchScore":2,"terms":["joe's crab shack"],"reference":{"key":"cuisine","value":"seafood"},"tags":{"amenity":"restaurant","brand:wikidata":"Q6208210","cuisine":"seafood"},"addTags":{"amenity":"restaurant","brand":"Joe's Crab Shack","brand:wikidata":"Q6208210","cuisine":"seafood","name":"Joe's Crab Shack"}},"amenity/restaurant/american/lazydog-f4f1ab":{"name":"Lazy Dog","locationSet":{"include":["us-ca","us-co","us-fl","us-ga","us-il","us-nv","us-tx","us-va"]},"geometry":["point","area"],"matchScore":2,"terms":["lazy dog"],"reference":{"key":"cuisine","value":"american"},"tags":{"amenity":"restaurant","brand:wikidata":"Q111304278","cuisine":"american"},"addTags":{"amenity":"restaurant","brand":"Lazy Dog","brand:wikidata":"Q111304278","cuisine":"american","name":"Lazy Dog"}},"amenity/restaurant/maplestreetbiscuitcompany-d344e2":{"name":"Maple Street Biscuit Company","locationSet":{"include":["us-al","us-fl","us-ga","us-ky","us-nc","us-sc","us-tn","us-tx","us-va"]},"geometry":["point","area"],"matchScore":2,"terms":["maple street biscuit company"],"tags":{"amenity":"restaurant","brand:wikidata":"Q97104481"},"addTags":{"amenity":"restaurant","brand":"Maple Street Biscuit Company","brand:wikidata":"Q97104481","cuisine":"breakfast","name":"Maple Street Biscuit Company"}},"leisure/sports_centre/xgolf-8a88af":{"name":"X Golf","locationSet":{"include":["us-al","us-co","us-ga","us-il","us-in","us-ks","us-ma","us-me","us-mi","us-mn","us-mo","us-nd","us-ne","us-ny","us-oh","us-or","us-pa","us-ri","us-sc","us-sd","us-ut","us-va","us-wa","us-wi"]},"geometry":["point","area"],"matchScore":2,"terms":["x golf"],"fields":["name","brand","{leisure/sports_centre}"],"tags":{"brand:wikidata":"Q111585369","leisure":"sports_centre"},"addTags":{"brand":"X Golf","brand:wikidata":"Q111585369","indoor":"yes","leisure":"sports_centre","name":"X Golf","sport":"golf"}},"shop/alcohol/virginiaabc-85cc28":{"name":"Virginia ABC","locationSet":{"include":["us-va"]},"geometry":["point","area"],"matchScore":2,"terms":["virginia abc"],"tags":{"brand:wikidata":"Q7934236","shop":"alcohol"},"addTags":{"brand":"Virginia ABC","brand:wikidata":"Q7934236","name":"Virginia ABC","shop":"alcohol"}},"shop/cannabis/cannabist-c9b3a7":{"name":"Cannabist","locationSet":{"include":["us-az","us-ca","us-fl","us-il","us-ma","us-mo","us-nj","us-ny","us-ut","us-va","us-wv"]},"geometry":["point","area"],"matchScore":2,"terms":["cannabist"],"tags":{"brand:wikidata":"Q114896590","shop":"cannabis"},"addTags":{"brand":"Cannabist","brand:wikidata":"Q114896590","name":"Cannabist","shop":"cannabis"}},"shop/cannabis/rise-ce371d":{"name":"RISE","locationSet":{"include":["us-fl","us-il","us-ma","us-md","us-nj","us-nv","us-oh","us-pa","us-va"]},"geometry":["point","area"],"matchScore":2,"terms":["rise"],"tags":{"brand:wikidata":"Q108911841","shop":"cannabis"},"addTags":{"brand":"RISE","brand:wikidata":"Q108911841","name":"RISE","shop":"cannabis"}},"shop/convenience/gomart-07a9fd":{"name":"GoMart","locationSet":{"include":["us-ky","us-oh","us-va","us-wv"]},"geometry":["point","area"],"matchScore":2,"terms":["gomart"],"tags":{"brand:wikidata":"Q5574575","shop":"convenience"},"addTags":{"brand":"GoMart","brand:wikidata":"Q5574575","name":"GoMart","shop":"convenience"}},"shop/convenience/sheetz-ab596a":{"name":"Sheetz","locationSet":{"include":["us-md","us-nc","us-oh","us-pa","us-va","us-wv"]},"geometry":["point","area"],"matchScore":2,"terms":["sheetz"],"tags":{"brand:wikidata":"Q7492551","shop":"convenience"},"addTags":{"brand":"Sheetz","brand:wikidata":"Q7492551","name":"Sheetz","shop":"convenience"}},"shop/convenience/wawa-dad45f":{"name":"Wawa","locationSet":{"include":["us-dc","us-de","us-fl","us-md","us-nj","us-pa","us-va"]},"geometry":["point","area"],"matchScore":2,"terms":["wawa"],"tags":{"brand:wikidata":"Q5936320","shop":"convenience"},"addTags":{"brand":"Wawa","brand:wikidata":"Q5936320","name":"Wawa","shop":"convenience"}},"shop/supermarket/giant-fc203b":{"name":"Giant (Landover)","locationSet":{"include":["us-dc","us-de","us-md","us-va"]},"geometry":["point","area"],"matchScore":2,"terms":["giant","giant food"],"tags":{"brand:wikidata":"Q5558336","shop":"supermarket"},"addTags":{"brand":"Giant","brand:wikidata":"Q5558336","name":"Giant","official_name":"Giant Food","shop":"supermarket"}},"shop/supermarket/unitedgroceryoutlet-aecdaf":{"name":"United Grocery Outlet","locationSet":{"include":["us-al","us-ga","us-ky","us-nc","us-tn","us-va"]},"geometry":["point","area"],"matchScore":2,"terms":["united grocery outlet"],"tags":{"brand:wikidata":"Q23074318","shop":"supermarket"},"addTags":{"brand":"United Grocery Outlet","brand:wikidata":"Q23074318","name":"United Grocery Outlet","shop":"supermarket"}},"amenity/prison/virginiadepartmentofcorrections-03430d":{"name":"Virginia Department of Corrections","locationSet":{"include":["us-va"]},"geometry":["area","point"],"matchScore":2,"terms":["vadoc","virginia department of corrections"],"fields":["name","operator","{amenity/prison}"],"tags":{"amenity":"prison","operator:wikidata":"Q3560672"},"addTags":{"amenity":"prison","operator":"Virginia Department of Corrections","operator:wikidata":"Q3560672"}},"amenity/school/alexandriacitypublicschools-3cf7e1":{"name":"Alexandria City Public Schools","locationSet":{"include":["us-va"]},"geometry":["area","point"],"matchScore":2,"terms":["acps","alexandria city public schools"],"tags":{"amenity":"school","operator:wikidata":"Q4720962"},"addTags":{"amenity":"school","operator":"Alexandria City Public Schools","operator:short":"ACPS","operator:type":"public","operator:wikidata":"Q4720962"}},"amenity/school/arlingtonpublicschools-3cf7e1":{"name":"Arlington Public Schools (Virginia)","locationSet":{"include":["us-va"]},"geometry":["area","point"],"matchScore":2,"terms":["aps","arlington county public schools","arlington public schools"],"tags":{"amenity":"school","operator:wikidata":"Q4792391"},"addTags":{"amenity":"school","operator":"Arlington Public Schools","operator:short":"APS","operator:type":"public","operator:wikidata":"Q4792391"}},"amenity/school/fairfaxcountypublicschools-3cf7e1":{"name":"Fairfax County Public Schools","locationSet":{"include":["us-va"]},"geometry":["area","point"],"matchScore":2,"terms":["fairfax county public schools","fcps"],"tags":{"amenity":"school","operator:wikidata":"Q408109"},"addTags":{"amenity":"school","operator":"Fairfax County Public Schools","operator:short":"FCPS","operator:type":"public","operator:wikidata":"Q408109"}},"amenity/school/hamptoncityschools-3cf7e1":{"name":"Hampton City Schools","locationSet":{"include":["us-va"]},"geometry":["area","point"],"matchScore":2,"terms":["hampton (city)","hampton city schools"],"tags":{"amenity":"school","operator:wikidata":"Q104848906"},"addTags":{"amenity":"school","operator":"Hampton City Schools","operator:type":"public","operator:wikidata":"Q104848906"}},"amenity/school/loudouncountypublicschools-3cf7e1":{"name":"Loudoun County Public Schools","locationSet":{"include":["us-va"]},"geometry":["area","point"],"matchScore":2,"terms":["lcps","loudoun county public schools"],"tags":{"amenity":"school","operator:wikidata":"Q6686038"},"addTags":{"amenity":"school","operator":"Loudoun County Public Schools","operator:short":"LCPS","operator:type":"public","operator:wikidata":"Q6686038"}},"amenity/school/montgomerycountypublicschools-3cf7e1":{"name":"Montgomery County Public Schools (Virginia)","locationSet":{"include":["us-va"]},"geometry":["area","point"],"matchScore":2,"terms":["mcps","montgomery county public schools"],"tags":{"amenity":"school","operator:wikidata":"Q6905709"},"addTags":{"amenity":"school","operator":"Montgomery County Public Schools","operator:short":"MCPS","operator:type":"public","operator:wikidata":"Q6905709"}},"amenity/school/virginiabeachcitypublicschools-3cf7e1":{"name":"Virginia Beach City Public Schools","locationSet":{"include":["us-va"]},"geometry":["area","point"],"matchScore":2,"terms":["vbcps","virginia beach city public schools","virginia beach public schools"],"tags":{"amenity":"school","operator:wikidata":"Q7934131"},"addTags":{"amenity":"school","operator":"Virginia Beach City Public Schools","operator:short":"VBCPS","operator:type":"public","operator:wikidata":"Q7934131"}},"leisure/nature_reserve/blacksburgparksandrecreation-d70331":{"name":"Blacksburg Parks and Recreation","locationSet":{"include":["us-va"]},"geometry":["area","point"],"matchScore":2,"terms":["blacksburg parks and recreation"],"tags":{"leisure":"nature_reserve","operator:wikidata":"Q110062985"},"addTags":{"leisure":"nature_reserve","operator":"Blacksburg Parks and Recreation","operator:type":"public","operator:wikidata":"Q110062985"}},"leisure/nature_reserve/cityofnorfolk-d70331":{"name":"City of Norfolk (Virginia)","locationSet":{"include":["us-va"]},"geometry":["area","point"],"matchScore":2,"terms":["city of norfolk"],"tags":{"leisure":"nature_reserve","operator:wikidata":"Q49231"},"addTags":{"leisure":"nature_reserve","operator":"City of Norfolk","operator:type":"public","operator:wikidata":"Q49231"}},"leisure/nature_reserve/cityofrichmond-d70331":{"name":"City of Richmond (Virginia)","locationSet":{"include":["us-va"]},"geometry":["area","point"],"matchScore":2,"terms":["city of richmond"],"tags":{"leisure":"nature_reserve","operator:wikidata":"Q43421"},"addTags":{"leisure":"nature_reserve","operator":"City of Richmond","operator:type":"public","operator:wikidata":"Q43421"}},"leisure/nature_reserve/cityofstaunton-d70331":{"name":"City of Staunton","locationSet":{"include":["us-va"]},"geometry":["area","point"],"matchScore":2,"terms":["city of staunton"],"tags":{"leisure":"nature_reserve","operator:wikidata":"Q502250"},"addTags":{"leisure":"nature_reserve","operator":"City of Staunton","operator:type":"public","operator:wikidata":"Q502250"}},"leisure/nature_reserve/fairfaxcountyparkauthority-d70331":{"name":"Fairfax County Park Authority","locationSet":{"include":["us-va"]},"geometry":["area","point"],"matchScore":2,"terms":["fairfax county park authority"],"tags":{"leisure":"nature_reserve","operator:wikidata":"Q5430163"},"addTags":{"leisure":"nature_reserve","operator":"Fairfax County Park Authority","operator:type":"public","operator:wikidata":"Q5430163"}},"leisure/nature_reserve/newportnewsgreenfoundation-d70331":{"name":"Newport News Green Foundation","locationSet":{"include":["us-va"]},"geometry":["area","point"],"matchScore":2,"terms":["newport news green foundation"],"tags":{"leisure":"nature_reserve","operator:wikidata":"Q110072942"},"addTags":{"leisure":"nature_reserve","operator":"Newport News Green Foundation","operator:type":"public","operator:wikidata":"Q110072942"}},"leisure/nature_reserve/townofabingdon-d70331":{"name":"Town of Abingdon","locationSet":{"include":["us-va"]},"geometry":["area","point"],"matchScore":2,"terms":["town of abingdon"],"tags":{"leisure":"nature_reserve","operator:wikidata":"Q137919"},"addTags":{"leisure":"nature_reserve","operator":"Town of Abingdon","operator:type":"public","operator:wikidata":"Q137919"}},"leisure/nature_reserve/townofvienna-d70331":{"name":"Town of Vienna","locationSet":{"include":["us-va"]},"geometry":["area","point"],"matchScore":2,"terms":["town of vienna"],"tags":{"leisure":"nature_reserve","operator:wikidata":"Q1002926"},"addTags":{"leisure":"nature_reserve","operator":"Town of Vienna","operator:type":"public","operator:wikidata":"Q1002926"}},"leisure/nature_reserve/virginiadepartmentoftransportation-d70331":{"name":"Virginia Department of Transportation","locationSet":{"include":["us-va"]},"geometry":["area","point"],"matchScore":2,"terms":["vdot","virginia department of transportation"],"tags":{"leisure":"nature_reserve","operator:wikidata":"Q7934247"},"addTags":{"leisure":"nature_reserve","operator":"Virginia Department of Transportation","operator:short":"VDOT","operator:type":"government","operator:wikidata":"Q7934247"}},"leisure/park/blacksburgparksandrecreation-414f19":{"name":"Blacksburg Parks and Recreation","locationSet":{"include":["us-va"]},"geometry":["area","point"],"matchScore":2,"terms":["blacksburg parks and recreation"],"tags":{"leisure":"park","operator:wikidata":"Q110062985"},"addTags":{"leisure":"park","operator":"Blacksburg Parks and Recreation","operator:type":"public","operator:wikidata":"Q110062985"}},"leisure/park/cityofnorfolk-414f19":{"name":"City of Norfolk (Virginia)","locationSet":{"include":["us-va"]},"geometry":["area","point"],"matchScore":2,"terms":["city of norfolk"],"tags":{"leisure":"park","operator:wikidata":"Q49231"},"addTags":{"leisure":"park","operator":"City of Norfolk","operator:type":"public","operator:wikidata":"Q49231"}},"leisure/park/cityofrichmond-414f19":{"name":"City of Richmond (Virginia)","locationSet":{"include":["us-va"]},"geometry":["area","point"],"matchScore":2,"terms":["city of richmond"],"tags":{"leisure":"park","operator:wikidata":"Q43421"},"addTags":{"leisure":"park","operator":"City of Richmond","operator:type":"public","operator:wikidata":"Q43421"}},"leisure/park/cityofstaunton-414f19":{"name":"City of Staunton","locationSet":{"include":["us-va"]},"geometry":["area","point"],"matchScore":2,"terms":["city of staunton"],"tags":{"leisure":"park","operator:wikidata":"Q502250"},"addTags":{"leisure":"park","operator":"City of Staunton","operator:type":"public","operator:wikidata":"Q502250"}},"leisure/park/fairfaxcountyparkauthority-414f19":{"name":"Fairfax County Park Authority","locationSet":{"include":["us-va"]},"geometry":["area","point"],"matchScore":2,"terms":["fairfax county park authority"],"tags":{"leisure":"park","operator:wikidata":"Q5430163"},"addTags":{"leisure":"park","operator":"Fairfax County Park Authority","operator:type":"public","operator:wikidata":"Q5430163"}},"leisure/park/newportnewsgreenfoundation-414f19":{"name":"Newport News Green Foundation","locationSet":{"include":["us-va"]},"geometry":["area","point"],"matchScore":2,"terms":["newport news green foundation"],"tags":{"leisure":"park","operator:wikidata":"Q110072942"},"addTags":{"leisure":"park","operator":"Newport News Green Foundation","operator:type":"public","operator:wikidata":"Q110072942"}},"leisure/park/townofabingdon-414f19":{"name":"Town of Abingdon","locationSet":{"include":["us-va"]},"geometry":["area","point"],"matchScore":2,"terms":["town of abingdon"],"tags":{"leisure":"park","operator:wikidata":"Q137919"},"addTags":{"leisure":"park","operator":"Town of Abingdon","operator:type":"public","operator:wikidata":"Q137919"}},"leisure/park/townofvienna-414f19":{"name":"Town of Vienna","locationSet":{"include":["us-va"]},"geometry":["area","point"],"matchScore":2,"terms":["town of vienna"],"tags":{"leisure":"park","operator:wikidata":"Q1002926"},"addTags":{"leisure":"park","operator":"Town of Vienna","operator:type":"public","operator:wikidata":"Q1002926"}},"leisure/park/virginiadepartmentoftransportation-414f19":{"name":"Virginia Department of Transportation","locationSet":{"include":["us-va"]},"geometry":["area","point"],"matchScore":2,"terms":["vdot","virginia department of transportation"],"tags":{"leisure":"park","operator:wikidata":"Q7934247"},"addTags":{"leisure":"park","operator":"Virginia Department of Transportation","operator:short":"VDOT","operator:type":"government","operator:wikidata":"Q7934247"}},"office/government/virginiadepartmentofmotorvehicles-74923a":{"name":"Virginia DMV","locationSet":{"include":["us-va"]},"geometry":["point","area"],"matchScore":2,"terms":["dmv","virginia department of motor vehicles","virginia dmv"],"fields":["name","operator","{office/government}"],"tags":{"office":"government","operator:wikidata":"Q7934244"},"addTags":{"government":"transportation","office":"government","operator":"Virginia Department of Motor Vehicles","operator:short":"Virginia DMV","operator:wikidata":"Q7934244"}},"power/line/appalachianpower-33137a":{"name":"APCO","locationSet":{"include":["us-tn","us-va","us-wv"]},"geometry":["line"],"matchScore":2,"terms":["apco","appalachian power","appalachian power company"],"tags":{"operator:wikidata":"Q109013941","power":"line"},"addTags":{"operator":"Appalachian Power","operator:short":"APCO","operator:wikidata":"Q109013941","power":"line"}},"power/minor_line/appalachianpower-a249c6":{"name":"APCO","locationSet":{"include":["us-tn","us-va","us-wv"]},"geometry":["line"],"matchScore":2,"terms":["apco","appalachian power","appalachian power company"],"tags":{"operator:wikidata":"Q109013941","power":"minor_line"},"addTags":{"operator":"Appalachian Power","operator:short":"APCO","operator:wikidata":"Q109013941","power":"minor_line"}},"power/pole/appalachianpower-a9fd36":{"name":"APCO","locationSet":{"include":["us-tn","us-va","us-wv"]},"geometry":["point","vertex"],"matchScore":2,"terms":["apco","appalachian power","appalachian power company"],"tags":{"operator:wikidata":"Q109013941","power":"pole"},"addTags":{"operator":"Appalachian Power","operator:short":"APCO","operator:wikidata":"Q109013941","power":"pole"}},"power/substation/appalachianpower-0f82b9":{"name":"APCO","locationSet":{"include":["us-tn","us-va","us-wv"]},"geometry":["area","point"],"matchScore":2,"terms":["apco","appalachian power","appalachian power company"],"tags":{"operator:wikidata":"Q109013941","power":"substation"},"addTags":{"operator":"Appalachian Power","operator:short":"APCO","operator:wikidata":"Q109013941","power":"substation"}},"power/tower/appalachianpower-ea1744":{"name":"APCO","locationSet":{"include":["us-tn","us-va","us-wv"]},"geometry":["point","vertex"],"matchScore":2,"terms":["apco","appalachian power","appalachian power company"],"tags":{"operator:wikidata":"Q109013941","power":"tower"},"addTags":{"operator":"Appalachian Power","operator:short":"APCO","operator:wikidata":"Q109013941","power":"tower"}},"power/transformer/appalachianpower-9aaa69":{"name":"APCO","locationSet":{"include":["us-tn","us-va","us-wv"]},"geometry":["point","vertex"],"matchScore":2,"terms":["apco","appalachian power","appalachian power company"],"tags":{"operator:wikidata":"Q109013941","power":"transformer"},"addTags":{"operator":"Appalachian Power","operator:short":"APCO","operator:wikidata":"Q109013941","power":"transformer"}},"shop/charity/goodwillindustriesofthevalleys-8ffb7c":{"name":"Goodwill Industries of the Valleys","locationSet":{"include":["us-va"]},"geometry":["point","area"],"matchScore":2,"terms":["goodwill","goodwill industries of the valleys"],"tags":{"operator:wikidata":"Q54624114","shop":"charity"},"addTags":{"brand":"Goodwill","brand:wikidata":"Q5583655","name":"Goodwill","operator":"Goodwill Industries of the Valleys","operator:wikidata":"Q54624114","shop":"charity"}},"public_transport/platform/bus_point/arlingtontransit-8b5bdd":{"name":"Arlington Transit","locationSet":{"include":["us-va"]},"geometry":["point","vertex"],"matchScore":2,"terms":["arlington transit"],"reference":{"key":"public_transport","value":"platform"},"tags":{"bus":"yes","network:wikidata":"Q4792406","public_transport":"platform"},"addTags":{"bus":"yes","highway":"bus_stop","network":"Arlington Transit","network:wikidata":"Q4792406","public_transport":"platform"}},"public_transport/platform/bus_point/bt-8b5bdd":{"name":"BT (Blacksburg)","locationSet":{"include":["us-va"]},"geometry":["point","vertex"],"matchScore":2,"terms":["blacksburg transit","bt"],"reference":{"key":"public_transport","value":"platform"},"tags":{"bus":"yes","network:wikidata":"Q4923343","public_transport":"platform"},"addTags":{"bus":"yes","highway":"bus_stop","network":"BT","network:wikidata":"Q4923343","operator":"Blacksburg Transit","public_transport":"platform"}},"public_transport/platform/bus_point/dash-8b5bdd":{"name":"DASH (Alexandria)","locationSet":{"include":["us-va"]},"geometry":["point","vertex"],"matchScore":2,"terms":["alexandria transit company","dash"],"reference":{"key":"public_transport","value":"platform"},"tags":{"bus":"yes","network:wikidata":"Q5204322","public_transport":"platform"},"addTags":{"bus":"yes","highway":"bus_stop","network":"DASH","network:wikidata":"Q5204322","operator":"Alexandria Transit Company","public_transport":"platform"}},"public_transport/platform/bus_point/fairfaxconnector-8b5bdd":{"name":"Fairfax Connector","locationSet":{"include":["us-va"]},"geometry":["point","vertex"],"matchScore":2,"terms":["fairfax connector"],"reference":{"key":"public_transport","value":"platform"},"tags":{"bus":"yes","network:wikidata":"Q5430155","public_transport":"platform"},"addTags":{"bus":"yes","highway":"bus_stop","network":"Fairfax Connector","network:wikidata":"Q5430155","public_transport":"platform"}},"public_transport/platform/bus_point/greaterlynchburgtransitcompany-8b5bdd":{"name":"Greater Lynchburg Transit Company","locationSet":{"include":["us-va"]},"geometry":["point","vertex"],"matchScore":2,"terms":["gltc","greater lynchburg transit company"],"reference":{"key":"public_transport","value":"platform"},"tags":{"bus":"yes","network:wikidata":"Q5600625","public_transport":"platform"},"addTags":{"bus":"yes","highway":"bus_stop","network":"Greater Lynchburg Transit Company","network:short":"GLTC","network:wikidata":"Q5600625","public_transport":"platform"}},"public_transport/platform/bus_point/grtc-8b5bdd":{"name":"GRTC","locationSet":{"include":["us-va"]},"geometry":["point","vertex"],"matchScore":2,"terms":["grtc"],"reference":{"key":"public_transport","value":"platform"},"tags":{"bus":"yes","network:wikidata":"Q5600732","public_transport":"platform"},"addTags":{"bus":"yes","highway":"bus_stop","network":"GRTC","network:wikidata":"Q5600732","public_transport":"platform"}},"public_transport/platform/bus_point/hrt-8b5bdd":{"name":"HRT","locationSet":{"include":["us-va"]},"geometry":["point","vertex"],"matchScore":2,"terms":["hrt"],"reference":{"key":"public_transport","value":"platform"},"tags":{"bus":"yes","network:wikidata":"Q5646293","public_transport":"platform"},"addTags":{"bus":"yes","highway":"bus_stop","network":"HRT","network:wikidata":"Q5646293","public_transport":"platform"}},"public_transport/platform/bus_point/omniride-8b5bdd":{"name":"OmniRide","locationSet":{"include":["us-va"]},"geometry":["point","vertex"],"matchScore":2,"terms":["omniride","potomac and rappahannock transportation commission"],"reference":{"key":"public_transport","value":"platform"},"tags":{"bus":"yes","network:wikidata":"Q7235095","public_transport":"platform"},"addTags":{"bus":"yes","highway":"bus_stop","network":"OmniRide","network:wikidata":"Q7235095","operator":"Potomac and Rappahannock Transportation Commission","public_transport":"platform"}},"type/route/bus/arlingtontransit-281aaa":{"name":"Arlington Transit","locationSet":{"include":["us-va"]},"geometry":["relation"],"matchScore":2,"terms":["arlington transit"],"reference":{"key":"route","value":"bus"},"tags":{"network:wikidata":"Q4792406","route":"bus","type":"route"},"addTags":{"network":"Arlington Transit","network:wikidata":"Q4792406","route":"bus","type":"route"}},"type/route/bus/bt-281aaa":{"name":"BT (Blacksburg)","locationSet":{"include":["us-va"]},"geometry":["relation"],"matchScore":2,"terms":["blacksburg transit","bt"],"reference":{"key":"route","value":"bus"},"tags":{"network:wikidata":"Q4923343","route":"bus","type":"route"},"addTags":{"network":"BT","network:wikidata":"Q4923343","operator":"Blacksburg Transit","route":"bus","type":"route"}},"type/route/bus/dash-281aaa":{"name":"DASH (Alexandria)","locationSet":{"include":["us-va"]},"geometry":["relation"],"matchScore":2,"terms":["alexandria transit company","dash"],"reference":{"key":"route","value":"bus"},"tags":{"network:wikidata":"Q5204322","route":"bus","type":"route"},"addTags":{"network":"DASH","network:wikidata":"Q5204322","operator":"Alexandria Transit Company","route":"bus","type":"route"}},"type/route/bus/fairfaxconnector-281aaa":{"name":"Fairfax Connector","locationSet":{"include":["us-va"]},"geometry":["relation"],"matchScore":2,"terms":["fairfax connector"],"reference":{"key":"route","value":"bus"},"tags":{"network:wikidata":"Q5430155","route":"bus","type":"route"},"addTags":{"network":"Fairfax Connector","network:wikidata":"Q5430155","route":"bus","type":"route"}},"type/route/bus/greaterlynchburgtransitcompany-281aaa":{"name":"Greater Lynchburg Transit Company","locationSet":{"include":["us-va"]},"geometry":["relation"],"matchScore":2,"terms":["gltc","greater lynchburg transit company"],"reference":{"key":"route","value":"bus"},"tags":{"network:wikidata":"Q5600625","route":"bus","type":"route"},"addTags":{"network":"Greater Lynchburg Transit Company","network:short":"GLTC","network:wikidata":"Q5600625","route":"bus","type":"route"}},"type/route/bus/grtc-281aaa":{"name":"GRTC","locationSet":{"include":["us-va"]},"geometry":["relation"],"matchScore":2,"terms":["grtc"],"reference":{"key":"route","value":"bus"},"tags":{"network:wikidata":"Q5600732","route":"bus","type":"route"},"addTags":{"network":"GRTC","network:wikidata":"Q5600732","route":"bus","type":"route"}},"type/route/bus/hrt-281aaa":{"name":"HRT","locationSet":{"include":["us-va"]},"geometry":["relation"],"matchScore":2,"terms":["hrt"],"reference":{"key":"route","value":"bus"},"tags":{"network:wikidata":"Q5646293","route":"bus","type":"route"},"addTags":{"network":"HRT","network:wikidata":"Q5646293","route":"bus","type":"route"}},"type/route/bus/omniride-281aaa":{"name":"OmniRide","locationSet":{"include":["us-va"]},"geometry":["relation"],"matchScore":2,"terms":["omniride","potomac and rappahannock transportation commission"],"reference":{"key":"route","value":"bus"},"tags":{"network:wikidata":"Q7235095","route":"bus","type":"route"},"addTags":{"network":"OmniRide","network:wikidata":"Q7235095","operator":"Potomac and Rappahannock Transportation Commission","route":"bus","type":"route"}}}