{"amenity/payment_terminal/southdakotadmvnow-662cce":{"name":"South Dakota DMV Now","locationSet":{"include":["us-sd"]},"geometry":["point"],"matchScore":2,"terms":["south dakota dmv now","south dakota motor vehicle division"],"tags":{"amenity":"payment_terminal","brand:wikidata":"Q115417103"},"addTags":{"amenity":"payment_terminal","brand":"South Dakota DMV Now","brand:wikidata":"Q115417103","name":"South Dakota DMV Now","operator":"South Dakota Motor Vehicle Division"}},"leisure/sports_centre/xgolf-8a88af":{"name":"X Golf","locationSet":{"include":["us-al","us-co","us-ga","us-il","us-in","us-ks","us-ma","us-me","us-mi","us-mn","us-mo","us-nd","us-ne","us-ny","us-oh","us-or","us-pa","us-ri","us-sc","us-sd","us-ut","us-va","us-wa","us-wi"]},"geometry":["point","area"],"matchScore":2,"terms":["x golf"],"fields":["name","brand","{leisure/sports_centre}"],"tags":{"brand:wikidata":"Q111585369","leisure":"sports_centre"},"addTags":{"brand":"X Golf","brand:wikidata":"Q111585369","indoor":"yes","leisure":"sports_centre","name":"X Golf","sport":"golf"}},"shop/trade/americanroofingsupply-930674":{"name":"American Roofing Supply","locationSet":{"include":["us-az","us-co","us-id","us-il","us-in","us-mn","us-nd","us-ne","us-sd","us-wi"]},"geometry":["point","area"],"matchScore":2,"terms":["american roofing supply"],"tags":{"brand:wikidata":"Q114515313","shop":"trade"},"addTags":{"brand":"American Roofing Supply","brand:wikidata":"Q114515313","name":"American Roofing Supply","shop":"trade","trade":"roofing"}},"shop/trade/butlercat-39aa46":{"name":"Butler CAT","locationSet":{"include":["us-nd","us-ne","us-sd"]},"geometry":["point","area"],"matchScore":2,"terms":["butler cat"],"tags":{"brand:wikidata":"Q109619534","shop":"trade"},"addTags":{"brand":"Butler CAT","brand:wikidata":"Q109619534","name":"Butler CAT","shop":"trade","trade":"construction_equipment"}},"amenity/police/southdakotahighwaypatrol-ce37ff":{"name":"South Dakota Highway Patrol","locationSet":{"include":["us-sd"]},"geometry":["point","area"],"matchScore":2,"terms":["sdhp","south dakota highway patrol"],"tags":{"amenity":"police","operator:wikidata":"Q7566968"},"addTags":{"amenity":"police","operator":"South Dakota Highway Patrol","operator:short":"SDHP","operator:wikidata":"Q7566968"}},"amenity/school/rapidcityareaschools-e06b31":{"name":"Rapid City Area Schools","locationSet":{"include":["us-sd"]},"geometry":["area","point"],"matchScore":2,"terms":["rapid city area schools","rcas"],"tags":{"amenity":"school","operator:wikidata":"Q7294137"},"addTags":{"amenity":"school","operator":"Rapid City Area Schools","operator:short":"RCAS","operator:type":"public","operator:wikidata":"Q7294137"}},"leisure/nature_reserve/southdakotadepartmentofgamefishandparks-4e700d":{"name":"South Dakota Game, Fish, & Parks","locationSet":{"include":["us-sd"]},"geometry":["area","point"],"matchScore":2,"terms":["gfp","south dakota department of game, fish, and parks","south dakota game, fish, and parks","south dakota state parks"],"tags":{"leisure":"nature_reserve","operator:wikidata":"Q55633565"},"addTags":{"leisure":"nature_reserve","operator":"South Dakota Department of Game, Fish, and Parks","operator:short":"GFP","operator:type":"public","operator:wikidata":"Q55633565"}},"leisure/park/southdakotadepartmentofgamefishandparks-2c4d84":{"name":"South Dakota Game, Fish, & Parks","locationSet":{"include":["us-sd"]},"geometry":["area","point"],"matchScore":2,"terms":["gfp","south dakota department of game, fish, and parks","south dakota game, fish, and parks","south dakota state parks"],"tags":{"leisure":"park","operator:wikidata":"Q55633565"},"addTags":{"leisure":"park","operator":"South Dakota Department of Game, Fish, and Parks","operator:short":"GFP","operator:type":"public","operator:wikidata":"Q55633565"}},"office/government/southdakotadepartmentofpublicsafety-b4f9cc":{"name":"South Dakota DPS","locationSet":{"include":["us-sd"]},"geometry":["point","area"],"matchScore":2,"terms":["dps","driver exam","driver exam station","south dakota department of public safety","south dakota dps"],"fields":["name","operator","{office/government}"],"tags":{"office":"government","operator:wikidata":"Q17108253"},"addTags":{"office":"government","operator":"South Dakota Department of Public Safety","operator:short":"South Dakota DPS","operator:wikidata":"Q17108253"}},"shop/charity/goodwillofthegreatplains-830112":{"name":"Goodwill of the Great Plains","locationSet":{"include":["us-ia","us-mn","us-ne","us-sd"]},"geometry":["point","area"],"matchScore":2,"terms":["goodwill","goodwill of the great plains"],"tags":{"operator:wikidata":"Q109722223","shop":"charity"},"addTags":{"brand":"Goodwill","brand:wikidata":"Q5583655","name":"Goodwill","operator":"Goodwill of the Great Plains","operator:wikidata":"Q109722223","shop":"charity"}}}