{"advertising/totem/0b910f-dec76e":{"name":"Газпромнефть","locationSet":{"include":["by","kg","kz","ru","tj"]},"geometry":["point","line"],"matchScore":2,"terms":["газпром","газпромнефть"],"tags":{"advertising":"totem","brand:wikidata":"Q1461799"},"addTags":{"advertising":"totem","brand":"Газпромнефть","brand:wikidata":"Q1461799"}},"amenity/atm/halykbank-89b827":{"name":"Halyk Bank","locationSet":{"include":["ge","kg","kz","ru","tj","uz"]},"geometry":["point","vertex"],"matchScore":2,"terms":["«қазақстан халық банкі» ақ","halyk bank","ао «народный банк казахстана»","казкоммерцбанк","народный банк","халык банк","халық банкі"],"fields":["name","brand","{amenity/atm}"],"tags":{"amenity":"atm","brand:wikidata":"Q1046186"},"addTags":{"amenity":"atm","brand":"Halyk Bank","brand:wikidata":"Q1046186","name:kk":"Халық Банкі","name:ru":"Халык банк","official_name:kk":"«Қазақстан Халық Банкі» АҚ","official_name:ru":"АО «Народный Банк Казахстана»","old_name":"Народный банк","operator":"Halyk Bank","operator:wikidata":"Q1046186"}},"amenity/bank/halykbank-93fd52":{"name":"Halyk Bank","locationSet":{"include":["ge","kg","kz","ru","tj","uz"]},"geometry":["point","area"],"matchScore":2,"terms":["«қазақстан халық банкі» ақ","halyk bank","ао «народный банк казахстана»","казкоммерцбанк","народный банк","халык банк","халық банкі"],"tags":{"amenity":"bank","brand:wikidata":"Q1046186"},"addTags":{"amenity":"bank","brand":"Halyk Bank","brand:wikidata":"Q1046186","name":"Halyk Bank","name:kk":"Халық Банкі","name:ru":"Халык банк","official_name:kk":"«Қазақстан Халық Банкі» АҚ","official_name:ru":"АО «Народный Банк Казахстана»","old_name":"Народный банк"}},"amenity/fuel/0b910f-bb6729":{"name":"Газпромнефть","locationSet":{"include":["by","kg","kz","ru","tj"]},"geometry":["point","area"],"matchScore":2,"terms":["газпром","газпромнефть"],"fields":["name","brand","{amenity/fuel}"],"tags":{"amenity":"fuel","brand:wikidata":"Q1461799"},"addTags":{"amenity":"fuel","brand":"Газпромнефть","brand:wikidata":"Q1461799","name":"Газпромнефть"}},"shop/mobile_phone/megafon-18f86b":{"name":"Мегафон","locationSet":{"include":["ru","tj"]},"geometry":["point","area"],"matchScore":2,"terms":["megafon","мегафон"],"tags":{"brand:wikidata":"Q1720713","shop":"mobile_phone"},"addTags":{"brand":"Мегафон","brand:en":"MegaFon","brand:wikidata":"Q1720713","name":"Мегафон","name:en":"MegaFon","shop":"mobile_phone"}}}