{"amenity/atm/bnpparibas-6b438a":{"name":"BNP Paribas","locationSet":{"include":["ae","af","ar","at","bf","bg","bh","br","ca","ch","ci","cl","co","cz","de","dk","dz","es","fi","fr","gb","gf","gp","hu","ie","il","it","kw","lu","ma","ml","mq","mx","nl","no","pe","pt","qa","re","ro","ru","sa","se","sk","sn","tn","tr","us"]},"geometry":["point","vertex"],"matchScore":2,"terms":["bnp paribas"],"tags":{"amenity":"atm","brand:wikidata":"Q499707"},"addTags":{"amenity":"atm","brand":"BNP Paribas","brand:wikidata":"Q499707","name":"BNP Paribas","operator":"BNP Paribas","operator:wikidata":"Q499707"}},"amenity/atm/333979-5b8686":{"name":"مصرف الراجحي","locationSet":{"include":["jo","kw","sa"]},"geometry":["point","vertex"],"matchScore":2,"terms":["مصرف الراجحي"],"tags":{"amenity":"atm","brand:wikidata":"Q1761176"},"addTags":{"amenity":"atm","brand":"مصرف الراجحي","brand:wikidata":"Q1761176","name":"مصرف الراجحي","operator":"مصرف الراجحي","operator:wikidata":"Q1761176"}},"amenity/bank/bnpparibas-42efac":{"name":"BNP Paribas","locationSet":{"include":["ae","af","ar","at","bf","bg","bh","br","ca","ch","ci","cl","co","cz","de","dk","dz","es","fi","fr","gb","gf","gp","hu","ie","il","it","kw","lu","ma","ml","mq","mx","nl","no","pe","pt","qa","re","ro","ru","sa","se","sk","sn","tn","tr","us"]},"geometry":["point","area"],"matchScore":2,"terms":["bnp paribas"],"tags":{"amenity":"bank","brand:wikidata":"Q499707"},"addTags":{"amenity":"bank","brand":"BNP Paribas","brand:wikidata":"Q499707","name":"BNP Paribas"}},"amenity/bank/333979-c05ba5":{"name":"مصرف الراجحي","locationSet":{"include":["jo","kw","sa"]},"geometry":["point","area"],"matchScore":2,"terms":["مصرف الراجحي"],"tags":{"amenity":"bank","brand:wikidata":"Q1761176"},"addTags":{"amenity":"bank","brand":"مصرف الراجحي","brand:wikidata":"Q1761176","name":"مصرف الراجحي"}},"amenity/cafe/coffee_shop/kahvedunyasi-9278bc":{"name":"Kahve Dünyası","locationSet":{"include":["ae","kw","ro","sa","tr","uk"]},"geometry":["point","area"],"matchScore":2,"terms":["kahve dünyası"],"reference":{"key":"cuisine","value":"coffee_shop"},"tags":{"amenity":"cafe","brand:wikidata":"Q28008050","cuisine":"coffee_shop"},"addTags":{"amenity":"cafe","brand":"Kahve Dünyası","brand:wikidata":"Q28008050","cuisine":"coffee_shop","name":"Kahve Dünyası","takeaway":"yes"}},"amenity/cafe/coffee_shop/timhortons-2ad4e1":{"name":"تيم هورتونز","locationSet":{"include":["ae","bh","jo","kw","om","qa","sa"]},"geometry":["point","area"],"matchScore":2,"terms":["tim hortons","تيم هورتونز"],"reference":{"key":"cuisine","value":"coffee_shop"},"tags":{"amenity":"cafe","brand:wikidata":"Q175106","cuisine":"coffee_shop"},"addTags":{"amenity":"cafe","brand":"تيم هورتونز","brand:ar":"تيم هورتونز","brand:en":"Tim Hortons","brand:wikidata":"Q175106","cuisine":"coffee_shop","name":"تيم هورتونز","name:ar":"تيم هورتونز","name:en":"Tim Hortons","takeaway":"yes"}},"amenity/cafe/coffee_shop/starbucks-0dcee5":{"name":"ستاربكس","locationSet":{"include":["ae","bh","dz","eg","iq","jo","kw","lb","ly","ma","om","qa","sa","tn"]},"geometry":["point","area"],"matchScore":2,"terms":["starbucks","starbucks coffee","ستاربكس","ستاربكس كافية"],"reference":{"key":"cuisine","value":"coffee_shop"},"tags":{"amenity":"cafe","brand:wikidata":"Q37158","cuisine":"coffee_shop"},"addTags":{"amenity":"cafe","brand":"ستاربكس","brand:ar":"ستاربكس","brand:en":"Starbucks","brand:wikidata":"Q37158","cuisine":"coffee_shop","name":"ستاربكس","name:ar":"ستاربكس","name:en":"Starbucks","official_name":"ستاربكس كافية","official_name:ar":"ستاربكس كافية","official_name:en":"Starbucks Coffee","takeaway":"yes"}},"amenity/cafe/coffee_shop/cariboucoffee-9bd633":{"name":"كاريبو كوفي","locationSet":{"include":["ae","bh","eg","kw","om","qa","sa"]},"geometry":["point","area"],"matchScore":2,"terms":["caribou coffee","كاريبو كوفي"],"reference":{"key":"cuisine","value":"coffee_shop"},"tags":{"amenity":"cafe","brand:wikidata":"Q5039494","cuisine":"coffee_shop"},"addTags":{"amenity":"cafe","brand":"كاريبو كوفي","brand:ar":"كاريبو كوفي","brand:en":"Caribou Coffee","brand:wikidata":"Q5039494","cuisine":"coffee_shop","name":"كاريبو كوفي","name:ar":"كاريبو كوفي","name:en":"Caribou Coffee","takeaway":"yes"}},"amenity/fast_food/burger/eggslut-26c4d5":{"name":"Eggslut","locationSet":{"include":["gb","jp","kr","kw","us"]},"geometry":["point","area"],"matchScore":2,"terms":["eggslut"],"reference":{"key":"cuisine","value":"burger"},"tags":{"amenity":"fast_food","brand:wikidata":"Q17239262","cuisine":"burger"},"addTags":{"amenity":"fast_food","brand":"Eggslut","brand:wikidata":"Q17239262","cuisine":"burger","name":"Eggslut","takeaway":"yes"}},"amenity/fast_food/burger/elevationburger-203491":{"name":"Elevation Burger","locationSet":{"include":["bh","kw","qa","us"]},"geometry":["point","area"],"matchScore":2,"terms":["elevation burger"],"reference":{"key":"cuisine","value":"burger"},"tags":{"amenity":"fast_food","brand:wikidata":"Q15291092","cuisine":"burger"},"addTags":{"amenity":"fast_food","brand":"Elevation Burger","brand:wikidata":"Q15291092","cuisine":"burger","name":"Elevation Burger","takeaway":"yes"}},"amenity/fast_food/burger/fiveguys-ffd618":{"name":"Five Guys","locationSet":{"include":["ae","au","be","ca","de","es","fr","gb","hk","ie","it","kw","lu","nl","qa","sa","sg","us"]},"geometry":["point","area"],"matchScore":2,"terms":["five guys","five guys burgers and fries"],"reference":{"key":"cuisine","value":"burger"},"tags":{"amenity":"fast_food","brand:wikidata":"Q1131810","cuisine":"burger"},"addTags":{"amenity":"fast_food","brand":"Five Guys","brand:wikidata":"Q1131810","cuisine":"burger","name":"Five Guys","official_name":"Five Guys Burgers and Fries","takeaway":"yes"}},"amenity/fast_food/sandwich/momen-f39225":{"name":"Mo'men","locationSet":{"include":["bh","eg","kw","ly","my","sa","sd"]},"geometry":["point","area"],"matchScore":2,"terms":["mo'men"],"reference":{"key":"cuisine","value":"sandwich"},"tags":{"amenity":"fast_food","brand:wikidata":"Q3317535","cuisine":"sandwich"},"addTags":{"amenity":"fast_food","brand":"Mo'men","brand:wikidata":"Q3317535","cuisine":"sandwich","name":"Mo'men","takeaway":"yes"}},"amenity/fast_food/chicken/slimchickens-5b2e82":{"name":"Slim Chickens","locationSet":{"include":["gb","kw","us"]},"geometry":["point","area"],"matchScore":2,"terms":["slim chickens"],"reference":{"key":"cuisine","value":"chicken"},"tags":{"amenity":"fast_food","brand:wikidata":"Q30647224","cuisine":"chicken"},"addTags":{"amenity":"fast_food","brand":"Slim Chickens","brand:wikidata":"Q30647224","cuisine":"chicken","name":"Slim Chickens","takeaway":"yes"}},"amenity/fast_food/chicken/altazaj-7c76bb":{"name":"الطازج","locationSet":{"include":["ae","bh","eg","jo","kw","lb","my","om","qa","sa","td","ye"]},"geometry":["point","area"],"matchScore":2,"terms":["al tazaj","الطازج"],"reference":{"key":"cuisine","value":"chicken"},"tags":{"amenity":"fast_food","brand:wikidata":"Q4704878","cuisine":"chicken"},"addTags":{"amenity":"fast_food","brand":"الطازج","brand:ar":"الطازج","brand:en":"Al Tazaj","brand:wikidata":"Q4704878","cuisine":"chicken","name":"الطازج","name:ar":"الطازج","name:en":"Al Tazaj","takeaway":"yes"}},"amenity/fast_food/donut/dunkindonuts-07d3e5":{"name":"دانكن دونتس'","locationSet":{"include":["ae","bh","eg","kw","lb","om","qa","sa"]},"geometry":["point","area"],"matchScore":2,"terms":["dunkin'","dunkin' donuts","dunkin's","دانكن","دانكن دونتس"],"reference":{"key":"cuisine","value":"donut"},"tags":{"amenity":"fast_food","brand:wikidata":"Q847743","cuisine":"donut;coffee_shop"},"addTags":{"amenity":"fast_food","brand":"دانكن","brand:ar":"دانكن","brand:en":"Dunkin'","brand:wikidata":"Q847743","cuisine":"donut;coffee_shop","name":"دانكن دونتس","name:ar":"دانكن دونتس","name:en":"Dunkin' Donuts","takeaway":"yes"}},"amenity/fast_food/chicken/kfc-15a250":{"name":"دجاج كنتاكي","locationSet":{"include":["ae","bh","eg","iq","jo","kw","lb","ly","ma","om","qa","sa","sd","sy","tn","ye"]},"geometry":["point","area"],"matchScore":2,"terms":["kfc","دجاج كنتاكي"],"reference":{"key":"cuisine","value":"chicken"},"tags":{"amenity":"fast_food","brand:wikidata":"Q524757","cuisine":"chicken"},"addTags":{"amenity":"fast_food","brand":"دجاج كنتاكي","brand:ar":"دجاج كنتاكي","brand:en":"KFC","brand:wikidata":"Q524757","cuisine":"chicken","name":"دجاج كنتاكي","name:ar":"دجاج كنتاكي","name:en":"KFC","takeaway":"yes"}},"amenity/fast_food/donut/krispykrem-e5f89b":{"name":"كرسبي كريم","locationSet":{"include":["ae","bh","eg","kw","lb","qa","sa"]},"geometry":["point","area"],"matchScore":2,"terms":["krispy krem","كرسبي كريم"],"reference":{"key":"cuisine","value":"donut"},"tags":{"amenity":"fast_food","brand:wikidata":"Q1192805","cuisine":"donut"},"addTags":{"amenity":"fast_food","brand":"كرسبي كريم","brand:ar":"كرسبي كريم","brand:en":"Krispy Krem","brand:wikidata":"Q1192805","cuisine":"donut","name":"كرسبي كريم","name:ar":"كرسبي كريم","name:en":"Krispy Krem","takeaway":"yes"}},"amenity/fast_food/burger/mcdonalds-19c993":{"name":"ماكدونالدز","locationSet":{"include":["ae","bh","eg","iq","jo","kw","lb","ma","om","qa","sa","sy","tn"]},"geometry":["point","area"],"matchScore":2,"terms":["mcdonald's","ماكدونالدز"],"reference":{"key":"cuisine","value":"burger"},"tags":{"amenity":"fast_food","brand:wikidata":"Q38076","cuisine":"burger"},"addTags":{"amenity":"fast_food","brand":"ماكدونالدز","brand:ar":"ماكدونالدز","brand:en":"McDonald's","brand:wikidata":"Q38076","cuisine":"burger","name":"ماكدونالدز","name:ar":"ماكدونالدز","name:en":"McDonald's","takeaway":"yes"}},"amenity/fast_food/burger/herfy-5a6b9f":{"name":"هرفي","locationSet":{"include":["ae","bd","bh","eg","kw","sa"]},"geometry":["point","area"],"matchScore":2,"terms":["herfy","هرفي"],"reference":{"key":"cuisine","value":"burger"},"tags":{"amenity":"fast_food","brand:wikidata":"Q5738371","cuisine":"burger"},"addTags":{"amenity":"fast_food","brand":"هرفي","brand:ar":"هرفي","brand:en":"Herfy","brand:wikidata":"Q5738371","cuisine":"burger","name":"هرفي","name:ar":"هرفي","name:en":"Herfy","takeaway":"yes"}},"amenity/fuel/enoc-7d34dd":{"name":"اينوك","locationSet":{"include":["ae","bh","kw","om","qa","sa","ye"]},"geometry":["point","area"],"matchScore":2,"terms":["enoc","اينوك"],"fields":["name","brand","{amenity/fuel}"],"tags":{"amenity":"fuel","brand:wikidata":"Q3045998"},"addTags":{"amenity":"fuel","brand":"اينوك","brand:ar":"اينوك","brand:en":"ENOC","brand:wikidata":"Q3045998","name":"اينوك","name:ar":"اينوك","name:en":"ENOC"}},"amenity/fuel/total-7d34dd":{"name":"توتال","locationSet":{"include":["ae","bh","kw","om","qa","sa","ye"]},"geometry":["point","area"],"matchScore":2,"terms":["total","توتال"],"fields":["name","brand","{amenity/fuel}"],"tags":{"amenity":"fuel","brand:wikidata":"Q154037"},"addTags":{"amenity":"fuel","brand":"توتال","brand:ar":"توتال","brand:en":"Total","brand:wikidata":"Q154037","name":"توتال","name:ar":"توتال","name:en":"Total"}},"amenity/ice_cream/llaollao-dd9462":{"name":"Llaollao","locationSet":{"include":["au","ch","cl","co","ec","es","fr","gt","hr","id","iq","kw","ma","my","ph","pt","sa","sg","si","sv","us","vn"]},"geometry":["point","area"],"matchScore":2,"terms":["llaollao"],"tags":{"amenity":"ice_cream","brand:wikidata":"Q12163048"},"addTags":{"amenity":"ice_cream","brand":"Llaollao","brand:wikidata":"Q12163048","cuisine":"frozen_yogurt","name":"Llaollao"}},"amenity/ice_cream/menchies-411174":{"name":"Menchie's","locationSet":{"include":["ae","bh","bs","ca","cn","gb","in","jp","kw","qa","sa","us"]},"geometry":["point","area"],"matchScore":2,"terms":["menchie's","menchie's frozen yoghurt","menchie's frozen yogurt"],"tags":{"amenity":"ice_cream","brand:wikidata":"Q6816528"},"addTags":{"amenity":"ice_cream","brand":"Menchie's","brand:wikidata":"Q6816528","cuisine":"frozen_yogurt","name":"Menchie's"}},"amenity/ice_cream/redmango-73fcc9":{"name":"Red Mango","locationSet":{"include":["ae","bh","eg","kw","mx","qa","sa","sv","us"]},"geometry":["point","area"],"matchScore":2,"terms":["red mango"],"tags":{"amenity":"ice_cream","brand:wikidata":"Q7304565"},"addTags":{"amenity":"ice_cream","brand":"Red Mango","brand:wikidata":"Q7304565","name":"Red Mango"}},"amenity/ice_cream/yogurtland-4111ef":{"name":"Yogurtland","locationSet":{"include":["ae","au","bh","kw","mm","qa","sa","sg","th","us","ve"]},"geometry":["point","area"],"matchScore":2,"terms":["yogurtland"],"tags":{"amenity":"ice_cream","brand:wikidata":"Q8054428"},"addTags":{"amenity":"ice_cream","brand":"Yogurtland","brand:wikidata":"Q8054428","cuisine":"frozen_yogurt","name":"Yogurtland","takeaway":"yes"}},"amenity/restaurant/pizza/blazepizza-902636":{"name":"Blaze Pizza","locationSet":{"include":["bh","ca","kw","sa","us"]},"geometry":["point","area"],"matchScore":2,"terms":["blaze pizza"],"reference":{"key":"cuisine","value":"pizza"},"tags":{"amenity":"restaurant","brand:wikidata":"Q23016666","cuisine":"pizza"},"addTags":{"amenity":"restaurant","brand":"Blaze Pizza","brand:wikidata":"Q23016666","cuisine":"pizza","name":"Blaze Pizza"}},"amenity/restaurant/sushi/bonchonchicken-b76b63":{"name":"Bonchon Chicken","locationSet":{"include":["bh","kh","kr","kw","my","ph","sg","th","us"]},"geometry":["point","area"],"matchScore":2,"terms":["bonchon","bonchon chicken","bonchon fried chicken"],"reference":{"key":"cuisine","value":"sushi"},"tags":{"amenity":"restaurant","brand:wikidata":"Q4941248","cuisine":"chicken;korean;sushi"},"addTags":{"amenity":"restaurant","brand":"Bonchon Chicken","brand:wikidata":"Q4941248","cuisine":"chicken;korean;sushi","name":"Bonchon Chicken"}},"amenity/restaurant/seafood/oceanbasket-5d9698":{"name":"Ocean Basket","locationSet":{"include":["ae","bw","cy","gb","ke","kw","kz","mt","mu","na","ng","qa","ru","sa","sz","za","zw"]},"geometry":["point","area"],"matchScore":2,"terms":["ocean basket"],"reference":{"key":"cuisine","value":"seafood"},"tags":{"amenity":"restaurant","brand:wikidata":"Q62075311","cuisine":"seafood"},"addTags":{"amenity":"restaurant","brand":"Ocean Basket","brand:wikidata":"Q62075311","cuisine":"seafood","name":"Ocean Basket"}},"amenity/madscience-0435a3":{"name":"Mad Science","locationSet":{"include":["bh","br","ca","cn","es","gb","kw","ma","nl","om","pe","sa","sg","th","tr","tt","us"]},"geometry":["point","vertex","line","area"],"matchScore":2,"terms":["mad science"],"fields":["name","brand","{amenity}"],"tags":{"amenity":"training","brand:wikidata":"Q17009137"},"addTags":{"amenity":"training","brand":"Mad Science","brand:wikidata":"Q17009137","name":"Mad Science","training":"science"}},"leisure/sports_centre/k1speed-fb63c7":{"name":"K1 Speed","locationSet":{"include":["ca","cn","do","fx","it","kr","kw","mx","us"]},"geometry":["point","area"],"matchScore":2,"terms":["k1 speed"],"fields":["name","brand","{leisure/sports_centre}"],"tags":{"brand:wikidata":"Q105615897","leisure":"sports_centre"},"addTags":{"brand":"K1 Speed","brand:wikidata":"Q105615897","leisure":"sports_centre","name":"K1 Speed","sport":"karting"}},"office/insurance/allianz-332499":{"name":"Allianz","locationSet":{"include":["ae","ar","at","au","be","bg","bh","bm","bn","br","ca","cg","ch","ci","cm","cn","co","cy","cz","de","dk","ee","eg","es","fi","fr","gb","gf","gg","gh","gp","gr","hk","hr","hu","id","ie","in","is","it","ja","ke","kr","kw","la","li","lk","lt","lu","lv","ma","mg","mx","my","ng","nl","no","nz","om","ph","pk","pl","pt","qa","ro","ru","sa","se","sg","si","sk","sn","th","tr","tw","ua","us","za"]},"geometry":["point","area"],"matchScore":2,"terms":["allianz"],"fields":["name","brand","{office/insurance}"],"tags":{"brand:wikidata":"Q487292","office":"insurance"},"addTags":{"brand":"Allianz","brand:wikidata":"Q487292","name":"Allianz","office":"insurance"}},"office/insurance/zurich-2d6c95":{"name":"Zurich","locationSet":{"include":["ae","at","au","be","bh","br","ca","ch","cl","cn","co","de","ec","es","fi","fr","gb","hk","id","ie","it","ja","kw","lb","li","lu","mx","my","nl","no","nz","om","pt","qa","se","sg","sk","tr","us"]},"geometry":["point","area"],"matchScore":2,"terms":["zurich"],"fields":["name","brand","{office/insurance}"],"tags":{"brand:wikidata":"Q230426","office":"insurance"},"addTags":{"brand":"Zurich","brand:wikidata":"Q230426","name":"Zurich","office":"insurance"}},"shop/bakery/paul-652955":{"name":"Paul","locationSet":{"include":["ae","az","be","bh","by","ci","cy","cz","eg","es","fr","ga","gb","ge","gr","id","in","jo","jp","kw","kz","lb","lu","ma","mu","my","om","pa","ph","pl","pt","qa","ro","ru","sa","sg","th","tn","tw","ua","us","uz","vn","za"]},"geometry":["point","area"],"matchScore":2,"terms":["paul"],"tags":{"brand:wikidata":"Q3370417","shop":"bakery"},"addTags":{"brand":"Paul","brand:wikidata":"Q3370417","name":"Paul","shop":"bakery"}},"shop/beauty/skinlaundry-85c569":{"name":"Skin Laundry","locationSet":{"include":["ae","gb","hk","kw","us"]},"geometry":["point","area"],"matchScore":2,"terms":["skin laundry"],"tags":{"brand:wikidata":"Q113513202","shop":"beauty"},"addTags":{"beauty":"skin_care","brand":"Skin Laundry","brand:wikidata":"Q113513202","name":"Skin Laundry","shop":"beauty"}},"shop/books/jarirbookstore-e19842":{"name":"مكتبة جرير","locationSet":{"include":["ae","kw","qa","sa"]},"geometry":["point","area"],"matchScore":2,"terms":["jarir bookstore","جرير","مكتبة جرير"],"tags":{"brand:wikidata":"Q6160243","shop":"books"},"addTags":{"brand":"مكتبة جرير","brand:ar":"مكتبة جرير","brand:en":"Jarir Bookstore","brand:wikidata":"Q6160243","name":"مكتبة جرير","name:ar":"مكتبة جرير","name:en":"Jarir Bookstore","shop":"books"}},"shop/clothes/abercrombieandfitch-c69677":{"name":"Abercrombie & Fitch","locationSet":{"include":["ae","be","ca","cn","de","es","fr","gb","hk","ie","it","jp","kw","mx","nl","qa","sa","sg","us"]},"geometry":["point","area"],"matchScore":2,"terms":["abercrombie & fitch"],"tags":{"brand:wikidata":"Q319344","shop":"clothes"},"addTags":{"brand":"Abercrombie & Fitch","brand:wikidata":"Q319344","clothes":"men;women","name":"Abercrombie & Fitch","shop":"clothes"}},"shop/clothes/elganso-bf6c2f":{"name":"El Ganso","locationSet":{"include":["cl","es","fr","kw","mx","pt"]},"geometry":["point","area"],"matchScore":2,"terms":["el ganso"],"tags":{"brand:wikidata":"Q51955203","shop":"clothes"},"addTags":{"brand":"El Ganso","brand:wikidata":"Q51955203","name":"El Ganso","shop":"clothes"}},"shop/clothes/jackwills-75e7ba":{"name":"Jack Wills","locationSet":{"include":["ae","gb","hk","ie","kw","lb","mo","sg","us"]},"geometry":["point","area"],"matchScore":2,"terms":["jack wills"],"tags":{"brand:wikidata":"Q6115814","shop":"clothes"},"addTags":{"brand":"Jack Wills","brand:wikidata":"Q6115814","name":"Jack Wills","shop":"clothes"}},"shop/fashion_accessories/chillibeans-a3a9e0":{"name":"Chilli Beans","locationSet":{"include":["br","co","kw","pe","pt","us"]},"geometry":["point","area"],"matchScore":2,"terms":["chilli beans"],"tags":{"brand:wikidata":"Q18463851","shop":"fashion_accessories"},"addTags":{"brand":"Chilli Beans","brand:wikidata":"Q18463851","name":"Chilli Beans","shop":"fashion_accessories"}},"shop/furniture/pbteen-736374":{"name":"PBteen","locationSet":{"include":["ae","kw","mx","us"]},"geometry":["point","area"],"matchScore":2,"terms":["pottery barn","pottery barn teen"],"tags":{"brand:wikidata":"Q3400126","shop":"furniture"},"addTags":{"brand":"Pottery Barn","brand:wikidata":"Q3400126","name":"PBteen","shop":"furniture"}},"shop/jewelry/chemmanurinternationaljewellers-0ef1f6":{"name":"Chemmanur International Jewellers","locationSet":{"include":["ae","in","kw","my","us"]},"geometry":["point","area"],"matchScore":2,"terms":["chemmanur international jewellers"],"tags":{"brand:wikidata":"Q99520996","shop":"jewelry"},"addTags":{"brand":"Chemmanur International Jewellers","brand:wikidata":"Q99520996","name":"Chemmanur International Jewellers","shop":"jewelry"}},"shop/jewelry/joyalukkas-534941":{"name":"Joyalukkas","locationSet":{"include":["ae","bh","gb","in","kw","my","om","qa","sa","sg","us"]},"geometry":["point","area"],"matchScore":2,"terms":["joyalukkas"],"tags":{"brand:wikidata":"Q6297357","shop":"jewelry"},"addTags":{"brand":"Joyalukkas","brand:wikidata":"Q6297357","name":"Joyalukkas","shop":"jewelry"}},"shop/jewelry/malabargoldanddiamonds-9fa2ef":{"name":"Malabar Gold and Diamonds","locationSet":{"include":["ae","bh","in","kw","my","om","qa","sa","sg","us"]},"geometry":["point","area"],"matchScore":2,"terms":["malabar gold and diamonds"],"tags":{"brand:wikidata":"Q60748883","shop":"jewelry"},"addTags":{"brand":"Malabar Gold and Diamonds","brand:wikidata":"Q60748883","name":"Malabar Gold and Diamonds","shop":"jewelry"}},"shop/kitchen/ixina-d089d8":{"name":"Ixina","locationSet":{"include":["ae","au","be","bf","bh","bj","ca","ci","cm","cn","cz","dz","ee","eg","fr","gh","hr","ke","kw","lu","ly","ma","mu","nl","pl","qa","ro","ru","sa","se","sn","tg","th","tn","vn"]},"geometry":["point","area"],"matchScore":2,"terms":["ixina"],"tags":{"brand:wikidata":"Q3156424","shop":"kitchen"},"addTags":{"brand":"Ixina","brand:wikidata":"Q3156424","name":"Ixina","shop":"kitchen"}},"shop/tool_hire/loxam-33fef8":{"name":"Loxam","locationSet":{"include":["ae","be","bh","br","ch","co","cz","de","dk","ee","es","fi","fr","gb","ie","it","kw","lt","lu","lv","ma","nl","no","om","pl","pt","qa","sa","se","sk"]},"geometry":["point","area"],"matchScore":2,"terms":["loxam"],"tags":{"brand:wikidata":"Q3264407","shop":"tool_hire"},"addTags":{"brand":"Loxam","brand:wikidata":"Q3264407","name":"Loxam","shop":"tool_hire"}},"shop/tyres/tyreplus-99cc81":{"name":"Tyreplus","locationSet":{"include":["ae","au","bh","cn","id","kh","kw","my","om","ph","qa","ru","sa","sg","th","tw"]},"geometry":["point","area"],"matchScore":2,"terms":["tyreplus"],"tags":{"brand:wikidata":"Q110959120","shop":"tyres"},"addTags":{"brand":"Tyreplus","brand:wikidata":"Q110959120","name":"Tyreplus","shop":"tyres"}},"tourism/hotel/waldorfastoria-665f74":{"name":"Waldorf Astoria","locationSet":{"include":["ae","au","cn","de","eg","fx","gb","il","it","kw","mv","mx","nl","pa","sa","th","us"]},"geometry":["point","area"],"matchScore":2,"terms":["waldorf astoria"],"fields":["name","brand","{tourism/hotel}"],"tags":{"brand:wikidata":"Q3239392","tourism":"hotel"},"addTags":{"brand":"Waldorf Astoria","brand:wikidata":"Q3239392","name":"Waldorf Astoria","tourism":"hotel"}}}