{"amenity/atm/meps-bc168a":{"name":"MEPS","locationSet":{"include":["my"]},"geometry":["point","vertex"],"matchScore":2,"terms":["meps"],"fields":["name","brand","{amenity/atm}"],"tags":{"amenity":"atm","brand:wikidata":"Q6741957"},"addTags":{"amenity":"atm","brand":"MEPS","brand:wikidata":"Q6741957","operator":"MEPS","operator:wikidata":"Q6741957"}},"amenity/atm/affinbank-bc168a":{"name":"Affin Bank","locationSet":{"include":["my"]},"geometry":["point","vertex"],"matchScore":2,"terms":["affin bank"],"fields":["name","brand","{amenity/atm}"],"tags":{"amenity":"atm","brand:wikidata":"Q4688929"},"addTags":{"amenity":"atm","brand":"Affin Bank","brand:wikidata":"Q4688929","operator":"Affin Bank","operator:wikidata":"Q4688929"}},"amenity/atm/agrobank-bc168a":{"name":"Agrobank","locationSet":{"include":["my"]},"geometry":["point","vertex"],"matchScore":2,"terms":["agrobank"],"fields":["name","brand","{amenity/atm}"],"tags":{"amenity":"atm","brand:wikidata":"Q4694216"},"addTags":{"amenity":"atm","brand":"Agrobank","brand:wikidata":"Q4694216","operator":"Agrobank","operator:wikidata":"Q4694216"}},"amenity/atm/alliancebank-bc168a":{"name":"Alliance Bank","locationSet":{"include":["my"]},"geometry":["point","vertex"],"matchScore":2,"terms":["alliance bank"],"fields":["name","brand","{amenity/atm}"],"tags":{"amenity":"atm","brand:wikidata":"Q16827441"},"addTags":{"amenity":"atm","brand":"Alliance Bank","brand:wikidata":"Q16827441","operator":"Alliance Bank","operator:wikidata":"Q16827441"}},"amenity/atm/ambank-bc168a":{"name":"AmBank","locationSet":{"include":["my"]},"geometry":["point","vertex"],"matchScore":2,"terms":["ambank"],"fields":["name","brand","{amenity/atm}"],"tags":{"amenity":"atm","brand:wikidata":"Q4132947"},"addTags":{"amenity":"atm","brand":"AmBank","brand:wikidata":"Q4132947","operator":"AmBank","operator:wikidata":"Q4132947"}},"amenity/atm/bankislam-bc168a":{"name":"Bank Islam","locationSet":{"include":["my"]},"geometry":["point","vertex"],"matchScore":2,"terms":["bank islam"],"fields":["name","brand","{amenity/atm}"],"tags":{"amenity":"atm","brand:wikidata":"Q4115279"},"addTags":{"amenity":"atm","brand":"Bank Islam","brand:wikidata":"Q4115279","operator":"Bank Islam","operator:wikidata":"Q4115279"}},"amenity/atm/bankmuamalat-465f88":{"name":"Bank Muamalat","locationSet":{"include":["id","my"]},"geometry":["point","vertex"],"matchScore":2,"terms":["bank muamalat"],"fields":["name","brand","{amenity/atm}"],"tags":{"amenity":"atm","brand:wikidata":"Q4855949"},"addTags":{"amenity":"atm","brand":"Bank Muamalat","brand:wikidata":"Q4855949","operator":"Bank Muamalat","operator:wikidata":"Q4855949"}},"amenity/atm/bankrakyat-bc168a":{"name":"Bank Rakyat","locationSet":{"include":["my"]},"geometry":["point","vertex"],"matchScore":2,"terms":["bank rakyat"],"fields":["name","brand","{amenity/atm}"],"tags":{"amenity":"atm","brand:wikidata":"Q4855964"},"addTags":{"amenity":"atm","brand":"Bank Rakyat","brand:wikidata":"Q4855964","operator":"Bank Rakyat","operator:wikidata":"Q4855964"}},"amenity/atm/banksimpanannasional-bc168a":{"name":"Bank Simpanan Nasional","locationSet":{"include":["my"]},"geometry":["point","vertex"],"matchScore":2,"terms":["bank simpanan nasional","bsn"],"fields":["name","brand","{amenity/atm}"],"tags":{"amenity":"atm","brand:wikidata":"Q4855972"},"addTags":{"amenity":"atm","brand":"Bank Simpanan Nasional","brand:wikidata":"Q4855972","operator":"Bank Simpanan Nasional","operator:wikidata":"Q4855972","short_name":"BSN"}},"amenity/atm/cimbbank-bc168a":{"name":"CIMB Bank","locationSet":{"include":["my"]},"geometry":["point","vertex"],"matchScore":2,"terms":["cimb bank"],"fields":["name","brand","{amenity/atm}"],"tags":{"amenity":"atm","brand:wikidata":"Q3045976"},"addTags":{"amenity":"atm","brand":"CIMB Bank","brand:wikidata":"Q3045976","operator":"CIMB Bank","operator:wikidata":"Q3045976"}},"amenity/atm/hongleongbank-bc168a":{"name":"Hong Leong Bank","locationSet":{"include":["my"]},"geometry":["point","vertex"],"matchScore":2,"terms":["hong leong bank","丰隆银行"],"fields":["name","brand","{amenity/atm}"],"tags":{"amenity":"atm","brand:wikidata":"Q4383943"},"addTags":{"amenity":"atm","brand":"Hong Leong Bank","brand:wikidata":"Q4383943","brand:zh":"丰隆银行","name:zh":"丰隆银行","operator":"Hong Leong Bank","operator:wikidata":"Q4383943"}},"amenity/atm/ocbcbank-2b05e9":{"name":"OCBC Bank","locationSet":{"include":["my","sg"]},"geometry":["point","vertex"],"matchScore":2,"terms":["ocbc bank","华侨银行"],"fields":["name","brand","{amenity/atm}"],"tags":{"amenity":"atm","brand:wikidata":"Q2042423"},"addTags":{"amenity":"atm","brand":"OCBC Bank","brand:wikidata":"Q2042423","brand:zh":"华侨银行","name:zh":"华侨银行","operator":"OCBC Bank","operator:wikidata":"Q2042423"}},"amenity/atm/publicbank-bc168a":{"name":"Public Bank (Malaysia)","locationSet":{"include":["my"]},"geometry":["point","vertex"],"matchScore":2,"terms":["public bank","public bank berhad","大众银行"],"fields":["name","brand","{amenity/atm}"],"tags":{"amenity":"atm","brand:wikidata":"Q3046561"},"addTags":{"amenity":"atm","brand":"Public Bank","brand:wikidata":"Q3046561","brand:zh":"大众银行","name:zh":"大众银行","operator":"Public Bank","operator:wikidata":"Q3046561"}},"amenity/atm/rhbbank-309a65":{"name":"RHB Bank","locationSet":{"include":["bn","my","sg","th","vn"]},"geometry":["point","vertex"],"matchScore":2,"terms":["rhb bank"],"fields":["name","brand","{amenity/atm}"],"tags":{"amenity":"atm","brand:wikidata":"Q4207443"},"addTags":{"amenity":"atm","brand":"RHB Bank","brand:wikidata":"Q4207443","operator":"RHB Bank","operator:wikidata":"Q4207443"}},"amenity/atm/uob-441a96":{"name":"UOB","locationSet":{"include":["au","bn","ca","cn","gb","hk","id","in","jp","kr","mm","my","ph","sg","th","us","vn"]},"geometry":["point","vertex"],"matchScore":2,"terms":["united overseas bank","uob","大华银行"],"fields":["name","brand","{amenity/atm}"],"tags":{"amenity":"atm","brand:wikidata":"Q2064074"},"addTags":{"amenity":"atm","brand":"UOB","brand:wikidata":"Q2064074","brand:zh":"大华银行","name:zh":"大华银行","operator":"UOB","operator:wikidata":"Q2064074"}},"amenity/bank/affinbank-8ab35f":{"name":"Affin Bank","locationSet":{"include":["my"]},"geometry":["point","area"],"matchScore":2,"terms":["affin bank"],"tags":{"amenity":"bank","brand:wikidata":"Q4688929"},"addTags":{"amenity":"bank","brand":"Affin Bank","brand:wikidata":"Q4688929","name":"Affin Bank"}},"amenity/bank/agrobank-8ab35f":{"name":"Agrobank","locationSet":{"include":["my"]},"geometry":["point","area"],"matchScore":2,"terms":["agrobank"],"tags":{"amenity":"bank","brand:wikidata":"Q4694216"},"addTags":{"amenity":"bank","brand":"Agrobank","brand:wikidata":"Q4694216","name":"Agrobank"}},"amenity/bank/alliancebank-8ab35f":{"name":"Alliance Bank","locationSet":{"include":["my"]},"geometry":["point","area"],"matchScore":2,"terms":["alliance bank"],"tags":{"amenity":"bank","brand:wikidata":"Q16827441"},"addTags":{"amenity":"bank","brand":"Alliance Bank","brand:wikidata":"Q16827441","name":"Alliance Bank"}},"amenity/bank/ambank-8ab35f":{"name":"AmBank","locationSet":{"include":["my"]},"geometry":["point","area"],"matchScore":2,"terms":["ambank"],"tags":{"amenity":"bank","brand:wikidata":"Q4132947"},"addTags":{"amenity":"bank","brand":"AmBank","brand:wikidata":"Q4132947","name":"AmBank"}},"amenity/bank/bankislam-8ab35f":{"name":"Bank Islam","locationSet":{"include":["my"]},"geometry":["point","area"],"matchScore":2,"terms":["bank islam"],"tags":{"amenity":"bank","brand:wikidata":"Q4115279"},"addTags":{"amenity":"bank","brand":"Bank Islam","brand:wikidata":"Q4115279","name":"Bank Islam"}},"amenity/bank/bankmuamalat-74c287":{"name":"Bank Muamalat","locationSet":{"include":["id","my"]},"geometry":["point","area"],"matchScore":2,"terms":["bank muamalat"],"tags":{"amenity":"bank","brand:wikidata":"Q4855949"},"addTags":{"amenity":"bank","brand":"Bank Muamalat","brand:wikidata":"Q4855949","name":"Bank Muamalat"}},"amenity/bank/bankrakyat-8ab35f":{"name":"Bank Rakyat","locationSet":{"include":["my"]},"geometry":["point","area"],"matchScore":2,"terms":["bank rakyat"],"tags":{"amenity":"bank","brand:wikidata":"Q4855964"},"addTags":{"amenity":"bank","brand":"Bank Rakyat","brand:wikidata":"Q4855964","name":"Bank Rakyat"}},"amenity/bank/banksimpanannasional-8ab35f":{"name":"Bank Simpanan Nasional","locationSet":{"include":["my"]},"geometry":["point","area"],"matchScore":2,"terms":["bank simpanan nasional","bsn"],"tags":{"amenity":"bank","brand:wikidata":"Q4855972"},"addTags":{"amenity":"bank","brand":"Bank Simpanan Nasional","brand:wikidata":"Q4855972","name":"Bank Simpanan Nasional","short_name":"BSN"}},"amenity/bank/cimbbank-8ab35f":{"name":"CIMB Bank","locationSet":{"include":["my"]},"geometry":["point","area"],"matchScore":2,"terms":["cimb bank"],"tags":{"amenity":"bank","brand:wikidata":"Q3045976"},"addTags":{"amenity":"bank","brand":"CIMB Bank","brand:wikidata":"Q3045976","name":"CIMB Bank"}},"amenity/bank/hongleongbank-8ab35f":{"name":"Hong Leong Bank","locationSet":{"include":["my"]},"geometry":["point","area"],"matchScore":2,"terms":["hong leong bank","丰隆银行"],"tags":{"amenity":"bank","brand:wikidata":"Q4383943"},"addTags":{"amenity":"bank","brand":"Hong Leong Bank","brand:wikidata":"Q4383943","brand:zh":"丰隆银行","name":"Hong Leong Bank","name:zh":"丰隆银行"}},"amenity/bank/ocbcbank-ae45e2":{"name":"OCBC Bank","locationSet":{"include":["my","sg"]},"geometry":["point","area"],"matchScore":2,"terms":["ocbc bank","华侨银行"],"tags":{"amenity":"bank","brand:wikidata":"Q2042423"},"addTags":{"amenity":"bank","brand":"OCBC Bank","brand:wikidata":"Q2042423","brand:zh":"华侨银行","name":"OCBC Bank","name:zh":"华侨银行"}},"amenity/bank/publicbank-8ab35f":{"name":"Public Bank (Malaysia)","locationSet":{"include":["my"]},"geometry":["point","area"],"matchScore":2,"terms":["public bank","public bank berhad","大众银行"],"tags":{"amenity":"bank","brand:wikidata":"Q3046561"},"addTags":{"amenity":"bank","brand":"Public Bank","brand:wikidata":"Q3046561","brand:zh":"大众银行","name":"Public Bank","name:zh":"大众银行"}},"amenity/bank/rhbbank-ea52df":{"name":"RHB Bank","locationSet":{"include":["bn","my","sg","th","vn"]},"geometry":["point","area"],"matchScore":2,"terms":["rhb bank"],"tags":{"amenity":"bank","brand:wikidata":"Q4207443"},"addTags":{"amenity":"bank","brand":"RHB Bank","brand:wikidata":"Q4207443","name":"RHB Bank"}},"amenity/bank/uob-dadccc":{"name":"UOB","locationSet":{"include":["au","bn","ca","cn","gb","hk","id","in","jp","kr","mm","my","ph","sg","th","us","vn"]},"geometry":["point","area"],"matchScore":2,"terms":["united overseas bank","uob","大华银行"],"tags":{"amenity":"bank","brand:wikidata":"Q2064074"},"addTags":{"amenity":"bank","brand":"UOB","brand:wikidata":"Q2064074","brand:zh":"大华银行","name":"UOB","name:zh":"大华银行"}},"amenity/cafe/coffee_shop/flashcoffee-a38c5d":{"name":"Flash Coffee","locationSet":{"include":["hk","id","jp","kr","my","sg","th"]},"geometry":["point","area"],"matchScore":2,"terms":["flash coffee"],"reference":{"key":"cuisine","value":"coffee_shop"},"tags":{"amenity":"cafe","brand:wikidata":"Q118627777","cuisine":"coffee_shop"},"addTags":{"amenity":"cafe","brand":"Flash Coffee","brand:wikidata":"Q118627777","cuisine":"coffee_shop","name":"Flash Coffee","takeaway":"yes"}},"amenity/cafe/bubble_tea/gongcha-17742a":{"name":"Gong Cha (worldwide)","locationSet":{"include":["au","bn","ca","mm","my","nz","ph","sg","us"]},"geometry":["point","area"],"matchScore":2,"terms":["gong cha","貢茶"],"reference":{"key":"cuisine","value":"bubble_tea"},"tags":{"amenity":"cafe","brand:wikidata":"Q5581670","cuisine":"bubble_tea"},"addTags":{"amenity":"cafe","brand":"Gong Cha","brand:wikidata":"Q5581670","brand:zh":"貢茶","cuisine":"bubble_tea","int_name":"Gong Cha","name":"Gong Cha","name:zh":"貢茶","takeaway":"yes"}},"amenity/cafe/coffee_shop/jamaicablue-941da9":{"name":"Jamaica Blue","locationSet":{"include":["ae","au","cn","gb","my","nz","sg"]},"geometry":["point","area"],"matchScore":2,"terms":["jamaica blue"],"reference":{"key":"cuisine","value":"coffee_shop"},"tags":{"amenity":"cafe","brand:wikidata":"Q24965819","cuisine":"coffee_shop"},"addTags":{"amenity":"cafe","brand":"Jamaica Blue","brand:wikidata":"Q24965819","cuisine":"coffee_shop","name":"Jamaica Blue","takeaway":"yes"}},"amenity/cafe/obriens-20e9d6":{"name":"O'Briens Café","locationSet":{"include":["ae","au","cn","gb","ie","my","nz","sg","th"]},"geometry":["point","area"],"matchScore":2,"terms":["o'briens"],"tags":{"amenity":"cafe","brand:wikidata":"Q7071686"},"addTags":{"amenity":"cafe","brand":"O'Briens","brand:wikidata":"Q7071686","cuisine":"sandwich","name":"O'Briens","takeaway":"yes"}},"amenity/cafe/coffee_shop/tealive-2aa1ef":{"name":"Tealive","locationSet":{"include":["my"]},"geometry":["point","area"],"matchScore":2,"terms":["tealive"],"reference":{"key":"cuisine","value":"coffee_shop"},"tags":{"amenity":"cafe","brand:wikidata":"Q95722097","cuisine":"tea;coffee_shop"},"addTags":{"amenity":"cafe","brand":"Tealive","brand:wikidata":"Q95722097","cuisine":"tea;coffee_shop","name":"Tealive","takeaway":"yes"}},"amenity/cafe/coffee_shop/tomntoms-16c022":{"name":"Tom N Toms","locationSet":{"include":["au","ch","hk","kr","mn","mo","my","ph","sg","th","us"]},"geometry":["point","area"],"matchScore":2,"terms":["tom n toms","탐앤탐스"],"reference":{"key":"cuisine","value":"coffee_shop"},"tags":{"amenity":"cafe","brand:wikidata":"Q18142418","cuisine":"coffee_shop;pretzel;smoothie;tea;bread"},"addTags":{"amenity":"cafe","brand":"Tom N Toms","brand:en":"Tom N Toms","brand:ko":"탐앤탐스","brand:wikidata":"Q18142418","cuisine":"coffee_shop;pretzel;smoothie;tea;bread","name":"Tom N Toms","takeaway":"yes"}},"amenity/cafe/coffee_shop/zuscoffee-2aa1ef":{"name":"ZUS Coffee","locationSet":{"include":["my"]},"geometry":["point","area"],"matchScore":2,"terms":["zus coffee"],"reference":{"key":"cuisine","value":"coffee_shop"},"tags":{"amenity":"cafe","brand:wikidata":"Q110811473","cuisine":"coffee_shop"},"addTags":{"amenity":"cafe","brand":"ZUS Coffee","brand:wikidata":"Q110811473","cuisine":"coffee_shop","name":"ZUS Coffee","takeaway":"yes"}},"amenity/cafe/coffee_shop/pacificcoffee-2d7d61":{"name":"太平洋咖啡","locationSet":{"include":["cn","my","sg"],"exclude":["hk","mo"]},"geometry":["point","area"],"matchScore":2,"terms":["pacific coffee","太平洋咖啡"],"reference":{"key":"cuisine","value":"coffee_shop"},"tags":{"amenity":"cafe","brand:wikidata":"Q7122398","cuisine":"coffee_shop"},"addTags":{"amenity":"cafe","brand":"太平洋咖啡","brand:en":"Pacific Coffee","brand:wikidata":"Q7122398","brand:zh":"太平洋咖啡","cuisine":"coffee_shop","name":"太平洋咖啡","name:en":"Pacific Coffee","name:zh":"太平洋咖啡","takeaway":"yes"}},"amenity/cinema/goldenscreencinemas-ee5a85":{"name":"Golden Screen Cinemas","locationSet":{"include":["my"]},"geometry":["point","area"],"matchScore":2,"terms":["golden screen cinemas","gsc"],"fields":["name","brand","{amenity/cinema}"],"tags":{"amenity":"cinema","brand:wikidata":"Q5579784"},"addTags":{"amenity":"cinema","brand":"Golden Screen Cinemas","brand:wikidata":"Q5579784","name":"Golden Screen Cinemas","short_name":"GSC"}},"amenity/cinema/lotusfivestar-ee5a85":{"name":"Lotus Five Star","locationSet":{"include":["my"]},"geometry":["point","area"],"matchScore":2,"terms":["lfs","lotus five star"],"fields":["name","brand","{amenity/cinema}"],"tags":{"amenity":"cinema","brand:wikidata":"Q17053165"},"addTags":{"amenity":"cinema","brand":"Lotus Five Star","brand:wikidata":"Q17053165","name":"Lotus Five Star","short_name":"LFS"}},"amenity/cinema/mbocinemas-ee5a85":{"name":"MBO Cinemas","locationSet":{"include":["my"]},"geometry":["point","area"],"matchScore":2,"terms":["mbo","mbo cinemas"],"fields":["name","brand","{amenity/cinema}"],"tags":{"amenity":"cinema","brand:wikidata":"Q17053599"},"addTags":{"amenity":"cinema","brand":"MBO Cinemas","brand:wikidata":"Q17053599","name":"MBO Cinemas","short_name":"MBO"}},"amenity/cinema/tgvcinemas-ee5a85":{"name":"TGV Cinemas","locationSet":{"include":["my"]},"geometry":["point","area"],"matchScore":2,"terms":["tgv","tgv cinemas"],"fields":["name","brand","{amenity/cinema}"],"tags":{"amenity":"cinema","brand:wikidata":"Q7670188"},"addTags":{"amenity":"cinema","brand":"TGV Cinemas","brand:wikidata":"Q7670188","name":"TGV Cinemas","short_name":"TGV"}},"amenity/fast_food/sandwich/momen-f39225":{"name":"Mo'men","locationSet":{"include":["bh","eg","kw","ly","my","sa","sd"]},"geometry":["point","area"],"matchScore":2,"terms":["mo'men"],"reference":{"key":"cuisine","value":"sandwich"},"tags":{"amenity":"fast_food","brand:wikidata":"Q3317535","cuisine":"sandwich"},"addTags":{"amenity":"fast_food","brand":"Mo'men","brand:wikidata":"Q3317535","cuisine":"sandwich","name":"Mo'men","takeaway":"yes"}},"amenity/fast_food/secretrecipe-541408":{"name":"Secret Recipe","locationSet":{"include":["bd","bn","cn","id","kh","mm","mv","my","sg","th"]},"geometry":["point","area"],"matchScore":2,"terms":["secret recipe"],"tags":{"amenity":"fast_food","brand:wikidata":"Q7444079"},"addTags":{"amenity":"fast_food","brand":"Secret Recipe","brand:wikidata":"Q7444079","cuisine":"cake;malaysian","name":"Secret Recipe","takeaway":"yes"}},"amenity/fast_food/pizza/thepizzacompany-abbb1f":{"name":"The Pizza Company","locationSet":{"include":["ae","bh","cn","jo","kh","la","mm","my","sa","th","vn"]},"geometry":["point","area"],"matchScore":2,"terms":["pizza company","the pizza company"],"reference":{"key":"cuisine","value":"pizza"},"tags":{"amenity":"fast_food","brand:wikidata":"Q2413520","cuisine":"pizza"},"addTags":{"alt_name":"Pizza Company","amenity":"fast_food","brand":"The Pizza Company","brand:wikidata":"Q2413520","cuisine":"pizza","name":"The Pizza Company","takeaway":"yes"}},"amenity/fast_food/yoshinoya-ffe475":{"name":"Yoshinoya","locationSet":{"include":["id","my","ph","sg","us"]},"geometry":["point","area"],"matchScore":2,"terms":["yoshinoya","吉野家"],"tags":{"amenity":"fast_food","brand:wikidata":"Q776272"},"addTags":{"amenity":"fast_food","brand":"Yoshinoya","brand:en":"Yoshinoya","brand:wikidata":"Q776272","cuisine":"beef_bowl","name":"Yoshinoya","name:en":"Yoshinoya","name:ja":"吉野家","takeaway":"yes"}},"amenity/fast_food/chicken/altazaj-7c76bb":{"name":"الطازج","locationSet":{"include":["ae","bh","eg","jo","kw","lb","my","om","qa","sa","td","ye"]},"geometry":["point","area"],"matchScore":2,"terms":["al tazaj","الطازج"],"reference":{"key":"cuisine","value":"chicken"},"tags":{"amenity":"fast_food","brand:wikidata":"Q4704878","cuisine":"chicken"},"addTags":{"amenity":"fast_food","brand":"الطازج","brand:ar":"الطازج","brand:en":"Al Tazaj","brand:wikidata":"Q4704878","cuisine":"chicken","name":"الطازج","name:ar":"الطازج","name:en":"Al Tazaj","takeaway":"yes"}},"amenity/fast_food/sakaesushi-1ef1da":{"name":"栄寿司","locationSet":{"include":["cn","id","my","pi","sg","th"]},"geometry":["point","area"],"matchScore":2,"terms":["sakae sushi","栄寿司"],"tags":{"amenity":"fast_food","brand:wikidata":"Q14955169"},"addTags":{"amenity":"fast_food","brand":"栄寿司","brand:en":"Sakae Sushi","brand:ja":"栄寿司","brand:wikidata":"Q14955169","cuisine":"japanese","name":"栄寿司","name:en":"Sakae Sushi","name:ja":"栄寿司","takeaway":"yes"}},"amenity/fast_food/oldchangkee-ff7eca":{"name":"老曾记","locationSet":{"include":["cn","gb","id","my","ph","sg"]},"geometry":["point","area"],"matchScore":2,"terms":["old chang kee","老曾记"],"tags":{"amenity":"fast_food","brand:wikidata":"Q17005286"},"addTags":{"amenity":"fast_food","brand":"老曾记","brand:en":"Old Chang Kee","brand:wikidata":"Q17005286","brand:zh":"老曾记","cuisine":"snacks","name":"老曾记","name:en":"Old Chang Kee","name:zh":"老曾记","takeaway":"yes"}},"amenity/fuel/bhpetrol-d13f8d":{"name":"BHPetrol","locationSet":{"include":["my"]},"geometry":["point","area"],"matchScore":2,"terms":["bhpetrol"],"fields":["name","brand","{amenity/fuel}"],"tags":{"amenity":"fuel","brand:wikidata":"Q62274381"},"addTags":{"amenity":"fuel","brand":"BHPetrol","brand:wikidata":"Q62274381","name":"BHPetrol"}},"amenity/fuel/caltex-a02c05":{"name":"Caltex","locationSet":{"include":["ae","au","eg","hk","id","kh","kr","lk","my","nz","ph","pk","sa","sg","th","vn","za"]},"geometry":["point","area"],"matchScore":2,"terms":["caltex"],"fields":["name","brand","{amenity/fuel}"],"tags":{"amenity":"fuel","brand:wikidata":"Q277470"},"addTags":{"amenity":"fuel","brand":"Caltex","brand:wikidata":"Q277470","name":"Caltex"}},"amenity/fuel/petron-21bb35":{"name":"Petron","locationSet":{"include":["my","ph"]},"geometry":["point","area"],"matchScore":2,"terms":["petron","petron gas station"],"fields":["name","brand","{amenity/fuel}"],"tags":{"amenity":"fuel","brand:wikidata":"Q7179011"},"addTags":{"amenity":"fuel","brand":"Petron","brand:wikidata":"Q7179011","name":"Petron"}},"amenity/ice_cream/llaollao-dd9462":{"name":"Llaollao","locationSet":{"include":["au","ch","cl","co","ec","es","fr","gt","hr","id","iq","kw","ma","my","ph","pt","sa","sg","si","sv","us","vn"]},"geometry":["point","area"],"matchScore":2,"terms":["llaollao"],"tags":{"amenity":"ice_cream","brand:wikidata":"Q12163048"},"addTags":{"amenity":"ice_cream","brand":"Llaollao","brand:wikidata":"Q12163048","cuisine":"frozen_yogurt","name":"Llaollao"}},"amenity/karaoke_box/neway-8df299":{"name":"Neway","locationSet":{"include":["cn","my"]},"geometry":["point","area"],"matchScore":2,"terms":["neway"],"tags":{"amenity":"karaoke_box","brand:wikidata":"Q7265439"},"addTags":{"amenity":"karaoke_box","brand":"Neway","brand:en":"Neway","brand:wikidata":"Q7265439","fee":"yes","name":"Neway","name:en":"Neway"}},"amenity/language_school/els-89568f":{"name":"ELS","locationSet":{"include":["ca","in","my","pa","sa","tr","us","vn"]},"geometry":["point","area"],"matchScore":2,"terms":["els","els language centers"],"fields":["name","brand","{amenity/language_school}"],"tags":{"amenity":"language_school","brand:wikidata":"Q5323325"},"addTags":{"amenity":"language_school","brand":"ELS","brand:en":"ELS","brand:wikidata":"Q5323325","language:en":"main","name":"ELS","name:en":"ELS","official_name":"ELS Language Centers","official_name:en":"ELS Language Centers"}},"amenity/pharmacy/guardian-c3738d":{"name":"Guardian (Asia)","locationSet":{"include":["bn","id","kh","my","sg","vn"]},"geometry":["point","area"],"matchScore":2,"terms":["guardian"],"reference":{"key":"amenity","value":"pharmacy"},"tags":{"amenity":"pharmacy","brand:wikidata":"Q63371124"},"addTags":{"amenity":"pharmacy","brand":"Guardian","brand:wikidata":"Q63371124","healthcare":"pharmacy","name":"Guardian"}},"amenity/post_office/bestexpress-047f43":{"name":"Best Express","locationSet":{"include":["in","my","sg","th"],"exclude":["cn"]},"geometry":["point","area"],"matchScore":2,"terms":["best express","百世快递"],"fields":["name","brand","{amenity/post_office}"],"tags":{"amenity":"post_office","brand:wikidata":"Q22099540"},"addTags":{"amenity":"post_office","brand":"Best Express","brand:en":"Best Express","brand:wikidata":"Q22099540","brand:zh":"百世快递","operator":"Best Express","operator:en":"Best Express","operator:wikidata":"Q22099540","operator:zh":"百世快递"}},"amenity/restaurant/sushi/bonchonchicken-b76b63":{"name":"Bonchon Chicken","locationSet":{"include":["bh","kh","kr","kw","my","ph","sg","th","us"]},"geometry":["point","area"],"matchScore":2,"terms":["bonchon","bonchon chicken","bonchon fried chicken"],"reference":{"key":"cuisine","value":"sushi"},"tags":{"amenity":"restaurant","brand:wikidata":"Q4941248","cuisine":"chicken;korean;sushi"},"addTags":{"amenity":"restaurant","brand":"Bonchon Chicken","brand:wikidata":"Q4941248","cuisine":"chicken;korean;sushi","name":"Bonchon Chicken"}},"amenity/restaurant/dintaifung-65890f":{"name":"Din Tai Fung","locationSet":{"include":["ae","au","cn","gb","id","jp","kr","mo","my","ph","sg","th","us"]},"geometry":["point","area"],"matchScore":2,"terms":["din tai fung","鼎泰豐"],"tags":{"amenity":"restaurant","brand:wikidata":"Q699142"},"addTags":{"amenity":"restaurant","brand":"Din Tai Fung","brand:en":"Din Tai Fung","brand:wikidata":"Q699142","brand:zh":"鼎泰豐","cuisine":"taiwanese","name":"Din Tai Fung","name:en":"Din Tai Fung","name:zh":"鼎泰豐"}},"amenity/restaurant/nandos-32ebee":{"name":"Nando's","locationSet":{"include":["ae","au","bd","bh","bw","ca","fj","gb","ie","in","mu","my","nz","om","pk","qa","sa","sg","sz","us","za","zm","zw"]},"geometry":["point","area"],"matchScore":2,"terms":["nando's"],"tags":{"amenity":"restaurant","brand:wikidata":"Q3472954"},"addTags":{"amenity":"restaurant","brand":"Nando's","brand:wikidata":"Q3472954","cuisine":"chicken;portuguese","name":"Nando's"}},"amenity/school/maplebear-101006":{"name":"Maple Bear","locationSet":{"include":["ae","al","ar","au","bd","bg","br","ca","gt","hk","hr","in","ke","kr","lk","ma","mx","my","np","om","pe","ph","py","ro","rs","sg","th","tk","ua","us","vn"]},"geometry":["area","point"],"matchScore":2,"terms":["maple bear"],"fields":["name","brand","{amenity/school}"],"tags":{"amenity":"school","brand:wikidata":"Q10324823"},"addTags":{"amenity":"school","brand":"Maple Bear","brand:wikidata":"Q10324823","name":"Maple Bear","operator:type":"private"}},"leisure/fitness_centre/celebrityfitness-412a8d":{"name":"Celebrity Fitness","locationSet":{"include":["id","my","ph","sg","th"]},"geometry":["point","area"],"matchScore":2,"terms":["celebrity fitness"],"tags":{"brand:wikidata":"Q5057734","leisure":"fitness_centre"},"addTags":{"brand":"Celebrity Fitness","brand:wikidata":"Q5057734","leisure":"fitness_centre","name":"Celebrity Fitness"}},"office/insurance/allianz-332499":{"name":"Allianz","locationSet":{"include":["ae","ar","at","au","be","bg","bh","bm","bn","br","ca","cg","ch","ci","cm","cn","co","cy","cz","de","dk","ee","eg","es","fi","fr","gb","gf","gg","gh","gp","gr","hk","hr","hu","id","ie","in","is","it","ja","ke","kr","kw","la","li","lk","lt","lu","lv","ma","mg","mx","my","ng","nl","no","nz","om","ph","pk","pl","pt","qa","ro","ru","sa","se","sg","si","sk","sn","th","tr","tw","ua","us","za"]},"geometry":["point","area"],"matchScore":2,"terms":["allianz","allianz versicherung"],"fields":["name","brand","{office/insurance}"],"tags":{"brand:wikidata":"Q487292","office":"insurance"},"addTags":{"brand":"Allianz","brand:wikidata":"Q487292","name":"Allianz","office":"insurance"}},"office/insurance/axa-2e7672":{"name":"AXA","locationSet":{"include":["ae","ar","au","be","bh","bm","br","ca","ch","ci","cl","cm","cn","co","cz","de","dk","dz","eg","es","fi","fr","ga","gb","gr","hk","id","ie","in","it","jp","kr","lb","lu","ma","mu","mx","my","ng","nl","no","om","pa","pe","ph","pl","pt","qa","sa","se","sg","sk","sn","th","tr","tw","us"]},"geometry":["point","area"],"matchScore":2,"terms":["axa"],"fields":["name","brand","{office/insurance}"],"tags":{"brand:wikidata":"Q160054","office":"insurance"},"addTags":{"brand":"AXA","brand:wikidata":"Q160054","name":"AXA","office":"insurance"}},"office/insurance/generali-cb13d1":{"name":"Generali","locationSet":{"include":["ar","at","bg","br","ch","cl","cn","cz","de","es","fr","gr","hr","hu","id","in","it","me","my","ph","pl","pt","ro","rs","si","sk","tr","vn"]},"geometry":["point","area"],"matchScore":2,"terms":["generali"],"fields":["name","brand","{office/insurance}"],"tags":{"brand:wikidata":"Q670482","office":"insurance"},"addTags":{"brand":"Generali","brand:wikidata":"Q670482","name":"Generali","office":"insurance"}},"office/insurance/zurich-2d6c95":{"name":"Zurich","locationSet":{"include":["ae","at","au","be","bh","br","ca","ch","cl","cn","co","de","ec","es","fi","fr","gb","hk","id","ie","it","ja","kw","lb","li","lu","mx","my","nl","no","nz","om","pt","qa","se","sg","sk","tr","us"]},"geometry":["point","area"],"matchScore":2,"terms":["zurich"],"fields":["name","brand","{office/insurance}"],"tags":{"brand:wikidata":"Q230426","office":"insurance"},"addTags":{"brand":"Zurich","brand:wikidata":"Q230426","name":"Zurich","office":"insurance"}},"shop/bakery/bakerscottage-146b0c":{"name":"Baker's Cottage","locationSet":{"include":["my"]},"geometry":["point","area"],"matchScore":2,"terms":["baker's cottage"],"tags":{"brand:wikidata":"Q107801364","shop":"bakery"},"addTags":{"brand":"Baker's Cottage","brand:wikidata":"Q107801364","name":"Baker's Cottage","shop":"bakery"}},"shop/bakery/paul-652955":{"name":"Paul","locationSet":{"include":["ae","az","be","bh","by","ci","cy","cz","eg","es","fr","ga","gb","ge","gr","id","in","jo","jp","kw","kz","lb","lu","ma","mu","my","om","pa","ph","pl","pt","qa","ro","ru","sa","sg","th","tn","tw","ua","us","uz","vn","za"]},"geometry":["point","area"],"matchScore":2,"terms":["paul"],"tags":{"brand:wikidata":"Q3370417","shop":"bakery"},"addTags":{"brand":"Paul","brand:wikidata":"Q3370417","name":"Paul","shop":"bakery"}},"shop/bakery/touslesjours-e39ddb":{"name":"Tous les Jours","locationSet":{"include":["id","kh","my","ph","us","vn"]},"geometry":["point","area"],"matchScore":2,"terms":["tous les jours"],"tags":{"brand:wikidata":"Q3535609","shop":"bakery"},"addTags":{"brand":"Tous les Jours","brand:wikidata":"Q3535609","name":"Tous les Jours","shop":"bakery"}},"shop/books/popular-0df755":{"name":"Popular","locationSet":{"include":["hk","my","sg"]},"geometry":["point","area"],"matchScore":2,"terms":["popular","大众书局"],"tags":{"brand:wikidata":"Q4167785","shop":"books"},"addTags":{"brand":"Popular","brand:wikidata":"Q4167785","brand:zh":"大众书局","name":"Popular","name:zh":"大众书局","shop":"books"}},"shop/car/koenigsegg-45c2de":{"name":"Koenigsegg","locationSet":{"include":["ae","au","ca","ch","cn","de","es","gb","jp","kr","lb","mx","my","om","pl","se","sg","th","tw","us","za"]},"geometry":["point","area"],"matchScore":2,"terms":["koenigsegg"],"fields":["name","brand","{shop/car}"],"tags":{"brand:wikidata":"Q35594","shop":"car"},"addTags":{"brand":"Koenigsegg","brand:wikidata":"Q35594","name":"Koenigsegg","shop":"car"}},"shop/car/perodua-fca759":{"name":"Perodua","locationSet":{"include":["gb","my","sg"]},"geometry":["point","area"],"matchScore":2,"terms":["perodua"],"fields":["name","brand","{shop/car}"],"tags":{"brand:wikidata":"Q1476369","shop":"car"},"addTags":{"brand":"Perodua","brand:wikidata":"Q1476369","name":"Perodua","shop":"car"}},"shop/car/proton-576082":{"name":"Proton","locationSet":{"include":["cl","eg","id","my","sg","th"]},"geometry":["point","area"],"matchScore":2,"terms":["proton"],"fields":["name","brand","{shop/car}"],"tags":{"brand:wikidata":"Q827306","shop":"car"},"addTags":{"brand":"Proton","brand:wikidata":"Q827306","name":"Proton","shop":"car"}},"shop/clothes/edwin-5c8cd9":{"name":"EDWIN","locationSet":{"include":["de","fr","gb","it","jp","my"]},"geometry":["point","area"],"matchScore":2,"terms":["edwin","エドウィン","エドウイン"],"tags":{"brand:wikidata":"Q5346176","shop":"clothes"},"addTags":{"alt_name:ja":"エドウィン","brand":"EDWIN","brand:en":"EDWIN","brand:ja":"エドウイン","brand:wikidata":"Q5346176","clothes":"denim","name":"EDWIN","name:en":"EDWIN","name:ja":"エドウイン","shop":"clothes"}},"shop/convenience/cu-3b6392":{"name":"CU","locationSet":{"include":["kr","my"]},"geometry":["point","area"],"matchScore":2,"terms":["cu"],"tags":{"brand:wikidata":"Q12580836","shop":"convenience"},"addTags":{"brand":"CU","brand:wikidata":"Q12580836","name":"CU","shop":"convenience"}},"shop/convenience/familymart-52fb27":{"name":"FamilyMart","locationSet":{"include":["cn","id","jp","my","ph","th","tw","vn"]},"geometry":["point","area"],"matchScore":2,"terms":["familymart"],"tags":{"brand:wikidata":"Q1191685","shop":"convenience"},"addTags":{"brand":"FamilyMart","brand:wikidata":"Q1191685","name":"FamilyMart","shop":"convenience"}},"shop/convenience/kksupermart-3e5671":{"name":"KK Super Mart","locationSet":{"include":["my"]},"geometry":["point","area"],"matchScore":2,"terms":["kk","kk mart","kk super mart"],"tags":{"brand:wikidata":"Q95721993","shop":"convenience"},"addTags":{"brand":"KK Super Mart","brand:wikidata":"Q95721993","name":"KK Super Mart","shop":"convenience","short_name":"KK"}},"shop/convenience/mynewscom-3e5671":{"name":"myNEWS.com","locationSet":{"include":["my"]},"geometry":["point","area"],"matchScore":2,"terms":["mynews","mynews.com"],"tags":{"brand:wikidata":"Q17147574","shop":"convenience"},"addTags":{"brand":"myNEWS.com","brand:wikidata":"Q17147574","name":"myNEWS.com","shop":"convenience"}},"shop/deli/vomfass-a3c745":{"name":"vomFASS","locationSet":{"include":["at","be","br","ca","ch","cz","de","dk","es","fr","gb","hk","hr","hu","il","it","jp","lv","mx","my","ph","sg","th","us"]},"geometry":["point","area"],"matchScore":2,"terms":["vomfass"],"tags":{"brand:wikidata":"Q2533008","shop":"deli"},"addTags":{"brand":"vomFASS","brand:wikidata":"Q2533008","name":"vomFASS","shop":"deli"}},"shop/department_store/billion-4d0884":{"name":"Billion","locationSet":{"include":["my"]},"geometry":["point","area"],"matchScore":2,"terms":["billion","万顺"],"tags":{"brand:wikidata":"Q106989381","shop":"department_store"},"addTags":{"brand":"Billion","brand:wikidata":"Q106989381","brand:zh":"万顺","name":"Billion","name:zh":"万顺","shop":"department_store"}},"shop/department_store/pantaitimor-4d0884":{"name":"Pantai Timor","locationSet":{"include":["my"]},"geometry":["point","area"],"matchScore":2,"terms":["billion","pantai timor","东海岸"],"tags":{"brand:wikidata":"Q106989381","shop":"department_store"},"addTags":{"alt_name":"Billion","brand":"Pantai Timor","brand:ms-Arab":"ڤنتاي تيمور","brand:wikidata":"Q106989381","brand:zh":"东海岸","name":"Pantai Timor","name:ms-Arab":"ڤنتاي تيمور","name:zh":"东海岸","shop":"department_store"}},"shop/department_store/parkson-6dcedc":{"name":"Parkson","locationSet":{"include":["id","la","mm","my","vn"]},"geometry":["point","area"],"matchScore":2,"terms":["parkson","百盛"],"tags":{"brand:wikidata":"Q835145","shop":"department_store"},"addTags":{"brand":"Parkson","brand:en":"Parkson","brand:wikidata":"Q835145","brand:zh":"百盛","name":"Parkson","name:en":"Parkson","name:zh":"百盛","shop":"department_store"}},"shop/department_store/muji-54e85b":{"name":"無印良品","locationSet":{"include":["my","sg","tw"]},"geometry":["point","area"],"matchScore":2,"terms":["muji","ryohin keikaku","無印良品","良品計画"],"tags":{"brand:wikidata":"Q708789","shop":"department_store"},"addTags":{"brand":"無印良品","brand:en":"Muji","brand:ja":"無印良品","brand:wikidata":"Q708789","name":"無印良品","name:en":"Muji","name:ja":"無印良品","official_name:en":"Ryohin Keikaku","shop":"department_store"}},"shop/doityourself/mrdiy-85e32f":{"name":"MR.DIY","locationSet":{"include":["bn","id","in","kn","my","ph","sg","th"]},"geometry":["point","area"],"matchScore":2,"terms":["mr.diy"],"tags":{"brand:wikidata":"Q105044323","shop":"doityourself"},"addTags":{"brand":"MR.DIY","brand:wikidata":"Q105044323","name":"MR.DIY","shop":"doityourself"}},"shop/electronics/senheng-5d0e2e":{"name":"Senheng","locationSet":{"include":["my"]},"geometry":["point","area"],"matchScore":2,"terms":["senheng"],"tags":{"brand:wikidata":"Q55632855","shop":"electronics"},"addTags":{"brand":"Senheng","brand:wikidata":"Q55632855","name":"Senheng","shop":"electronics"}},"shop/fabric/spotlight-0e32f9":{"name":"Spotlight","locationSet":{"include":["au","my","nz","sg"]},"geometry":["point","area"],"matchScore":2,"terms":["spotlight"],"tags":{"brand:wikidata":"Q105960982","shop":"fabric"},"addTags":{"brand":"Spotlight","brand:wikidata":"Q105960982","name":"Spotlight","shop":"fabric"}},"shop/fashion_accessories/mulberry-e1f087":{"name":"Mulberry","locationSet":{"include":["ae","au","ca","ch","cn","de","dk","fi","gb","ie","jp","kr","my","nl","no","se","sg","th","us"]},"geometry":["point","area"],"matchScore":2,"terms":["mulberry"],"tags":{"brand:wikidata":"Q3866987","shop":"fashion_accessories"},"addTags":{"brand":"Mulberry","brand:wikidata":"Q3866987","name":"Mulberry","shop":"fashion_accessories"}},"shop/furniture/courts-0c6e04":{"name":"Courts (Malaysia)","locationSet":{"include":["my"]},"geometry":["point","area"],"matchScore":2,"terms":["courts"],"tags":{"brand:wikidata":"Q5178707","shop":"furniture"},"addTags":{"brand":"Courts","brand:wikidata":"Q5178707","name":"Courts","shop":"furniture"}},"shop/herbalist/euyansang-7be159":{"name":"Eu Yan Sang","locationSet":{"include":["au","ca","my","sg","us"]},"geometry":["point","area"],"matchScore":2,"terms":["eu yan sang","余仁生"],"tags":{"brand:wikidata":"Q4207246","shop":"herbalist"},"addTags":{"brand":"Eu Yan Sang","brand:en":"Eu Yan Sang","brand:wikidata":"Q4207246","brand:zh":"余仁生","name":"Eu Yan Sang","name:en":"Eu Yan Sang","name:zh":"余仁生","shop":"herbalist"}},"shop/jewelry/chemmanurinternationaljewellers-0ef1f6":{"name":"Chemmanur International Jewellers","locationSet":{"include":["ae","in","kw","my","us"]},"geometry":["point","area"],"matchScore":2,"terms":["chemmanur international jewellers"],"tags":{"brand:wikidata":"Q99520996","shop":"jewelry"},"addTags":{"brand":"Chemmanur International Jewellers","brand:wikidata":"Q99520996","name":"Chemmanur International Jewellers","shop":"jewelry"}},"shop/jewelry/joyalukkas-534941":{"name":"Joyalukkas","locationSet":{"include":["ae","bh","gb","in","kw","my","om","qa","sa","sg","us"]},"geometry":["point","area"],"matchScore":2,"terms":["joyalukkas"],"tags":{"brand:wikidata":"Q6297357","shop":"jewelry"},"addTags":{"brand":"Joyalukkas","brand:wikidata":"Q6297357","name":"Joyalukkas","shop":"jewelry"}},"shop/jewelry/malabargoldanddiamonds-9fa2ef":{"name":"Malabar Gold and Diamonds","locationSet":{"include":["ae","bh","in","kw","my","om","qa","sa","sg","us"]},"geometry":["point","area"],"matchScore":2,"terms":["malabar gold and diamonds"],"tags":{"brand:wikidata":"Q60748883","shop":"jewelry"},"addTags":{"brand":"Malabar Gold and Diamonds","brand:wikidata":"Q60748883","name":"Malabar Gold and Diamonds","shop":"jewelry"}},"shop/jewelry/lukfookjewellery-7fe408":{"name":"六福珠宝","locationSet":{"include":["au","ca","cn","kh","my","sg","us"],"exclude":["hk","mo"]},"geometry":["point","area"],"matchScore":2,"terms":["lukfook jewellery","六福珠宝"],"tags":{"brand:wikidata":"Q10893397","shop":"jewelry"},"addTags":{"brand":"六福珠宝","brand:en":"Lukfook Jewellery","brand:wikidata":"Q10893397","brand:zh":"六福珠宝","name":"六福珠宝","name:en":"Lukfook Jewellery","name:zh":"六福珠宝","shop":"jewelry"}},"shop/jewelry/chowtaifook-4629af":{"name":"周大福","locationSet":{"include":["cn","jp","kr","my","sg","tw","us"],"exclude":["hk","mo"]},"geometry":["point","area"],"matchScore":2,"terms":["chow tai fook","周大福"],"tags":{"brand:wikidata":"Q48880993","shop":"jewelry"},"addTags":{"brand":"周大福","brand:en":"Chow Tai Fook","brand:wikidata":"Q48880993","brand:zh":"周大福","name":"周大福","name:en":"Chow Tai Fook","name:zh":"周大福","shop":"jewelry"}},"shop/jewelry/tsl-7fb071":{"name":"谢瑞麟珠宝","locationSet":{"include":["cn","my"],"exclude":["hk","mo"]},"geometry":["point","area"],"matchScore":2,"terms":["tsl","謝瑞麟","谢瑞麟珠宝"],"tags":{"brand:wikidata":"Q13164530","shop":"jewelry"},"addTags":{"brand":"谢瑞麟珠宝","brand:en":"TSL","brand:wikidata":"Q13164530","brand:zh":"谢瑞麟珠宝","brand:zh-Hans":"谢瑞麟珠宝","brand:zh-Hant":"謝瑞麟珠寶","name":"谢瑞麟","name:en":"TSL","name:zh-Hans":"谢瑞麟","name:zh-Hant":"謝瑞麟","shop":"jewelry"}},"shop/optician/rayban-ace229":{"name":"Ray-Ban","locationSet":{"include":["ae","at","au","br","ca","de","es","fr","gb","ie","it","jp","my","ne","tr","us"]},"geometry":["point","area"],"matchScore":2,"terms":["ray-ban"],"fields":["name","brand","{shop/optician}"],"tags":{"brand:wikidata":"Q653941","shop":"optician"},"addTags":{"brand":"Ray-Ban","brand:wikidata":"Q653941","name":"Ray-Ban","shop":"optician"}},"shop/pawnbroker/cashconverters-1c62e9":{"name":"Cash Converters","locationSet":{"include":["ae","au","be","ch","es","fr","gb","lu","my","na","nz","pt","sg","za"]},"geometry":["point","area"],"matchScore":2,"terms":["cash converters"],"tags":{"brand:wikidata":"Q5048645","shop":"pawnbroker"},"addTags":{"brand":"Cash Converters","brand:wikidata":"Q5048645","name":"Cash Converters","shop":"pawnbroker"}},"shop/shoes/drkong-2bd793":{"name":"Dr. Kong","locationSet":{"include":["az","bn","bu","cn","es","id","mn","my","ph","sg","th","uz"]},"geometry":["point","area"],"matchScore":2,"terms":["dr. kong","江博士"],"tags":{"brand:wikidata":"Q116547631","shop":"shoes"},"addTags":{"brand":"Dr. Kong","brand:wikidata":"Q116547631","name":"Dr. Kong","name:en":"Dr. Kong","shop":"shoes"}},"shop/stationery/smiggle-d7e848":{"name":"Smiggle","locationSet":{"include":["at","gb","hk","ie","my","nz","sg"]},"geometry":["point","area"],"matchScore":2,"terms":["smiggle"],"tags":{"brand:wikidata":"Q7544536","shop":"stationery"},"addTags":{"brand":"Smiggle","brand:wikidata":"Q7544536","name":"Smiggle","shop":"stationery"}},"shop/supermarket/99speedmart-bfc07b":{"name":"99 Speedmart","locationSet":{"include":["my","sg"]},"geometry":["point","area"],"matchScore":2,"terms":["99 speedmart"],"tags":{"brand:wikidata":"Q62075061","shop":"supermarket"},"addTags":{"brand":"99 Speedmart","brand:wikidata":"Q62075061","name":"99 Speedmart","shop":"supermarket"}},"shop/supermarket/aeonbig-80e9ee":{"name":"AEON BiG","locationSet":{"include":["my"]},"geometry":["point","area"],"matchScore":2,"terms":["aeon big","æon big"],"tags":{"brand:wikidata":"Q8077280","shop":"supermarket"},"addTags":{"alt_name":"ÆON BiG","brand":"AEON BiG","brand:wikidata":"Q8077280","name":"AEON BiG","shop":"supermarket"}},"shop/supermarket/econsave-80e9ee":{"name":"Econsave","locationSet":{"include":["my"]},"geometry":["point","area"],"matchScore":2,"terms":["econsave","宜康省"],"tags":{"brand:wikidata":"Q61776608","shop":"supermarket"},"addTags":{"brand":"Econsave","brand:en":"Econsave","brand:wikidata":"Q61776608","brand:zh":"宜康省","name":"Econsave","name:en":"Econsave","name:zh":"宜康省","shop":"supermarket"}},"shop/supermarket/gianthypermarket-e1160b":{"name":"Giant Hypermarket","locationSet":{"include":["id","my","sg","vn"]},"geometry":["point","area"],"matchScore":2,"terms":["giant hypermarket"],"tags":{"brand:wikidata":"Q4217013","shop":"supermarket"},"addTags":{"brand":"Giant Hypermarket","brand:wikidata":"Q4217013","name":"Giant Hypermarket","shop":"supermarket"}},"shop/supermarket/lotuss-a5f134":{"name":"Lotus's","locationSet":{"include":["my","th"]},"geometry":["point","area"],"matchScore":2,"terms":["lotus's","tesco lotus"],"tags":{"brand:wikidata":"Q2378901","shop":"supermarket"},"addTags":{"alt_name":"Tesco Lotus","brand":"Lotus's","brand:wikidata":"Q2378901","name":"Lotus's","shop":"supermarket"}},"shop/supermarket/luluhypermarket-7e55ed":{"name":"Lulu Hypermarket","locationSet":{"include":["ae","bh","eg","id","in","kw","my","om","qa"]},"geometry":["point","area"],"matchScore":2,"terms":["lulu hypermarket"],"tags":{"brand:wikidata":"Q6702930","shop":"supermarket"},"addTags":{"brand":"Lulu Hypermarket","brand:wikidata":"Q6702930","name":"Lulu Hypermarket","shop":"supermarket"}},"shop/supermarket/maxvalu-f485f2":{"name":"MaxValu","locationSet":{"include":["cn","my","th"]},"geometry":["point","area"],"matchScore":2,"terms":["maxvalu"],"tags":{"brand:wikidata":"Q11340427","shop":"supermarket"},"addTags":{"brand":"MaxValu","brand:wikidata":"Q11340427","name":"MaxValu","shop":"supermarket"}},"shop/supermarket/mydin-80e9ee":{"name":"Mydin","locationSet":{"include":["my"]},"geometry":["point","area"],"matchScore":2,"terms":["mydin"],"tags":{"brand:wikidata":"Q6947269","shop":"supermarket"},"addTags":{"brand":"Mydin","brand:wikidata":"Q6947269","name":"Mydin","shop":"supermarket"}},"shop/supermarket/nsktradecity-80e9ee":{"name":"NSK Trade City","locationSet":{"include":["my"]},"geometry":["point","area"],"matchScore":2,"terms":["nsk","nsk trade city"],"tags":{"brand:wikidata":"Q106978506","shop":"supermarket"},"addTags":{"brand":"NSK Trade City","brand:wikidata":"Q106978506","name":"NSK Trade City","shop":"supermarket"}},"shop/supermarket/tfvaluemart-80e9ee":{"name":"TF Value-Mart","locationSet":{"include":["my"]},"geometry":["point","area"],"matchScore":2,"terms":["tf value-mart"],"tags":{"brand:wikidata":"Q96679744","shop":"supermarket"},"addTags":{"brand":"TF Value-Mart","brand:wikidata":"Q96679744","name":"TF Value-Mart","shop":"supermarket"}},"shop/supermarket/thestore-80e9ee":{"name":"The Store","locationSet":{"include":["my"]},"geometry":["point","area"],"matchScore":2,"terms":["the store"],"tags":{"brand:wikidata":"Q96679754","shop":"supermarket"},"addTags":{"brand":"The Store","brand:wikidata":"Q96679754","name":"The Store","shop":"supermarket"}},"shop/telecommunication/celcom-c82acb":{"name":"Celcom","locationSet":{"include":["my"]},"geometry":["point","area"],"matchScore":2,"terms":["celcom"],"tags":{"brand:wikidata":"Q836827","shop":"telecommunication"},"addTags":{"brand":"Celcom","brand:wikidata":"Q836827","name":"Celcom","shop":"telecommunication"}},"shop/telecommunication/digistore-c82acb":{"name":"Digi Store","locationSet":{"include":["my"]},"geometry":["point","area"],"matchScore":2,"terms":["digi"],"tags":{"brand:wikidata":"Q3268530","shop":"telecommunication"},"addTags":{"brand":"Digi","brand:wikidata":"Q3268530","name":"Digi Store","shop":"telecommunication"}},"shop/telecommunication/maxis-c82acb":{"name":"Maxis","locationSet":{"include":["my"]},"geometry":["point","area"],"matchScore":2,"terms":["maxis"],"tags":{"brand:wikidata":"Q2627330","shop":"telecommunication"},"addTags":{"brand":"Maxis","brand:wikidata":"Q2627330","name":"Maxis","shop":"telecommunication"}},"shop/telecommunication/tmpoint-c82acb":{"name":"TMpoint","locationSet":{"include":["my"]},"geometry":["point","area"],"matchScore":2,"terms":["telekom malaysia"],"tags":{"brand:wikidata":"Q1640639","shop":"telecommunication"},"addTags":{"brand":"Telekom Malaysia","brand:wikidata":"Q1640639","name":"TMpoint","shop":"telecommunication"}},"shop/telecommunication/umobile-c82acb":{"name":"U Mobile","locationSet":{"include":["my"]},"geometry":["point","area"],"matchScore":2,"terms":["u mobile"],"tags":{"brand:wikidata":"Q7876226","shop":"telecommunication"},"addTags":{"brand":"U Mobile","brand:wikidata":"Q7876226","name":"U Mobile","shop":"telecommunication"}},"shop/telecommunication/yes4g-c82acb":{"name":"Yes 4G","locationSet":{"include":["my"]},"geometry":["point","area"],"matchScore":2,"terms":["yes 4g"],"tags":{"brand:wikidata":"Q8052735","shop":"telecommunication"},"addTags":{"brand":"Yes 4G","brand:wikidata":"Q8052735","name":"Yes 4G","shop":"telecommunication"}},"shop/tyres/tyreplus-99cc81":{"name":"Tyreplus","locationSet":{"include":["ae","au","bh","cn","id","kh","kw","my","om","ph","qa","ru","sa","sg","th","tw"]},"geometry":["point","area"],"matchScore":2,"terms":["tyreplus"],"tags":{"brand:wikidata":"Q110959120","shop":"tyres"},"addTags":{"brand":"Tyreplus","brand:wikidata":"Q110959120","name":"Tyreplus","shop":"tyres"}},"shop/variety_store/99speedmart-14cb81":{"name":"99 Speedmart","locationSet":{"include":["my"]},"geometry":["point","area"],"matchScore":2,"terms":["99 speedmart"],"tags":{"brand:wikidata":"Q62075061","shop":"variety_store"},"addTags":{"brand":"99 Speedmart","brand:wikidata":"Q62075061","name":"99 Speedmart","shop":"variety_store"}},"shop/variety_store/daiso-80c116":{"name":"Daiso","locationSet":{"include":["ca","my"]},"geometry":["point","area"],"matchScore":2,"terms":["daiso"],"tags":{"brand:wikidata":"Q866991","shop":"variety_store"},"addTags":{"brand":"Daiso","brand:wikidata":"Q866991","name":"Daiso","shop":"variety_store"}},"shop/variety_store/dondondonki-717fd7":{"name":"Don Don Donki","locationSet":{"include":["hk","my","sg","th","tw","us-hi"]},"geometry":["point","area"],"matchScore":2,"terms":["don don donki"],"tags":{"brand:wikidata":"Q1185381","shop":"variety_store"},"addTags":{"brand":"Don Don Donki","brand:wikidata":"Q1185381","name":"Don Don Donki","shop":"variety_store"}},"shop/variety_store/ecoshop-14cb81":{"name":"eco-shop","locationSet":{"include":["my"]},"geometry":["point","area"],"matchScore":2,"terms":["eco-shop"],"tags":{"brand:wikidata":"Q95721269","shop":"variety_store"},"addTags":{"brand":"eco-shop","brand:wikidata":"Q95721269","name":"eco-shop","shop":"variety_store"}},"shop/variety_store/giantmini-14cb81":{"name":"Giant Mini","locationSet":{"include":["my"]},"geometry":["point","area"],"matchScore":2,"terms":["giant mini"],"tags":{"brand:wikidata":"Q4217013","shop":"variety_store"},"addTags":{"brand":"Giant Mini","brand:wikidata":"Q4217013","name":"Giant Mini","shop":"variety_store"}},"shop/variety_store/mrdollar-14cb81":{"name":"MR.DOLLAR","locationSet":{"include":["my"]},"geometry":["point","area"],"matchScore":2,"terms":["mr.dollar"],"tags":{"brand:wikidata":"Q106959890","shop":"variety_store"},"addTags":{"brand":"MR.DOLLAR","brand:wikidata":"Q106959890","name":"MR.DOLLAR","shop":"variety_store"}},"shop/variety_store/ninso-14cb81":{"name":"Ninso","locationSet":{"include":["my"]},"geometry":["point","area"],"matchScore":2,"terms":["ninso"],"tags":{"brand:wikidata":"Q106959816","shop":"variety_store"},"addTags":{"brand":"Ninso","brand:wikidata":"Q106959816","name":"Ninso","shop":"variety_store"}},"shop/variety_store/pantaitimormart-14cb81":{"name":"Pantai Timor Mart","locationSet":{"include":["my"]},"geometry":["point","area"],"matchScore":2,"terms":["billion","pantai timor mart"],"tags":{"brand:wikidata":"Q106989381","shop":"variety_store"},"addTags":{"alt_name":"Billion","brand":"Pantai Timor Mart","brand:wikidata":"Q106989381","name":"Pantai Timor Mart","shop":"variety_store"}},"shop/variety_store/pasarekonomieconsave-14cb81":{"name":"Pasar Ekonomi Econsave","locationSet":{"include":["my"]},"geometry":["point","area"],"matchScore":2,"terms":["econsave express","pasar ekonomi econsave","宜康省经济市场"],"tags":{"brand:wikidata":"Q61776608","shop":"variety_store"},"addTags":{"brand":"Pasar Ekonomi Econsave","brand:en":"Econsave Express","brand:wikidata":"Q61776608","brand:zh":"宜康省经济市场","name":"Pasar Ekonomi Econsave","name:en":"Econsave Express","name:zh":"宜康省经济市场","shop":"variety_store"}},"shop/watches/longines-691196":{"name":"Longines","locationSet":{"include":["ar","au","be","ca","ch","cl","cn","de","dk","es","fi","fr","gb","gr","in","it","jp","kr","mx","my","nl","no","pt","se","sg","th","tr","tw","us","za"]},"geometry":["point","area"],"matchScore":2,"terms":["longines"],"tags":{"brand:wikidata":"Q603698","shop":"watches"},"addTags":{"brand":"Longines","brand:wikidata":"Q603698","name":"Longines","shop":"watches"}},"tourism/hotel/anantara-e8534c":{"name":"Anantara","locationSet":{"include":["ae","br","cn","es","fr","hu","id","ie","it","kh","mu","mv","my","mz","nl","om","pt","qa","sc","th","tn","vn","zm"]},"geometry":["point","area"],"matchScore":2,"terms":["anantara"],"fields":["name","brand","{tourism/hotel}"],"tags":{"brand:wikidata":"Q112671781","tourism":"hotel"},"addTags":{"brand":"Anantara","brand:wikidata":"Q112671781","name":"Anantara","tourism":"hotel"}},"tourism/hotel/avanihotelsandresorts-e9c192":{"name":"AVANI","locationSet":{"include":["ae","au","bw","id","kh","kr","la","lk","ls","my","mz","na","nz","om","pt","sc","th","vn","zm"]},"geometry":["point","area"],"matchScore":2,"terms":["avani hotels & resorts"],"fields":["name","brand","{tourism/hotel}"],"tags":{"brand:wikidata":"Q48989823","tourism":"hotel"},"addTags":{"brand":"Avani Hotels & Resorts","brand:wikidata":"Q48989823","name":"Avani Hotels & Resorts","tourism":"hotel"}},"tourism/hotel/citizenm-b4d29c":{"name":"citizenM","locationSet":{"include":["ch","dk","fr","gb","it","my","nl","tw","us"]},"geometry":["point","area"],"matchScore":2,"terms":["citizenm"],"fields":["name","brand","{tourism/hotel}"],"tags":{"brand:wikidata":"Q5122531","tourism":"hotel"},"addTags":{"brand":"citizenM","brand:wikidata":"Q5122531","name":"citizenM","tourism":"hotel"}},"tourism/hotel/daysinn-a89235":{"name":"Days Inn","locationSet":{"include":["ca","ch","gb","id","in","kr","mx","my","ph","sg","sn","th","us"]},"geometry":["point","area"],"matchScore":2,"terms":["days inn"],"fields":["name","brand","{tourism/hotel}"],"tags":{"brand:wikidata":"Q1047239","tourism":"hotel"},"addTags":{"brand":"Days Inn","brand:wikidata":"Q1047239","name":"Days Inn","tourism":"hotel"}},"tourism/hotel/edition-24940c":{"name":"Edition","locationSet":{"include":["ae","cn","es","gb","is","it","jp","mx","my","qa","sg","tr","us"]},"geometry":["point","area"],"matchScore":2,"terms":["edition"],"fields":["name","brand","{tourism/hotel}"],"tags":{"brand:wikidata":"Q91218404","tourism":"hotel"},"addTags":{"brand":"Edition","brand:wikidata":"Q91218404","name":"Edition","tourism":"hotel"}},"tourism/hotel/element-6dd642":{"name":"Element by Westin","locationSet":{"include":["ae","au","ca","cn","id","my","nl","tz","us"]},"geometry":["point","area"],"matchScore":2,"terms":["element"],"fields":["name","brand","{tourism/hotel}"],"tags":{"brand:wikidata":"Q91948072","tourism":"hotel"},"addTags":{"brand":"Element","brand:wikidata":"Q91948072","name":"Element","tourism":"hotel"}},"tourism/hotel/fairfieldinn-b80dae":{"name":"Fairfield Inn","locationSet":{"include":["ca","cn","id","in","jp","kr","mx","my","sv","us"]},"geometry":["point","area"],"matchScore":2,"terms":["fairfield by marriott","fairfield inn"],"fields":["name","brand","{tourism/hotel}"],"tags":{"brand:wikidata":"Q5430314","tourism":"hotel"},"addTags":{"brand":"Fairfield Inn","brand:wikidata":"Q5430314","name":"Fairfield Inn","official_name":"Fairfield by Marriott","tourism":"hotel"}},"tourism/hotel/hotelserimalaysia-fd56b0":{"name":"Hotel Seri Malaysia","locationSet":{"include":["my"]},"geometry":["point","area"],"matchScore":2,"terms":["hotel seri malaysia"],"fields":["name","brand","{tourism/hotel}"],"tags":{"brand:wikidata":"Q107295543","tourism":"hotel"},"addTags":{"brand":"Hotel Seri Malaysia","brand:wikidata":"Q107295543","name":"Hotel Seri Malaysia","tourism":"hotel"}},"tourism/hotel/travelodge-2e0dc6":{"name":"Travelodge (Asia/Oceania)","locationSet":{"include":["au","hk","id","kr","my","nz","sg","th"]},"geometry":["point","area"],"matchScore":2,"terms":["travelodge"],"fields":["name","brand","{tourism/hotel}"],"tags":{"brand:wikidata":"Q24997583","tourism":"hotel"},"addTags":{"brand":"Travelodge","brand:wikidata":"Q24997583","name":"Travelodge","tourism":"hotel"}},"amenity/clinic/kementeriankesihatanmalaysia-7765cf":{"name":"Kementerian Kesihatan Malaysia","locationSet":{"include":["my"]},"geometry":["point","area"],"matchScore":2,"terms":["kementerian kesihatan malaysia","kkm"],"fields":["name","operator","{amenity/clinic}"],"reference":{"key":"amenity","value":"clinic"},"tags":{"amenity":"clinic","operator:wikidata":"Q4294352"},"addTags":{"amenity":"clinic","healthcare":"clinic","operator":"Kementerian Kesihatan Malaysia","operator:short":"KKM","operator:wikidata":"Q4294352"}},"amenity/clinic/klinikmediviron-7765cf":{"name":"Klinik Mediviron","locationSet":{"include":["my"]},"geometry":["point","area"],"matchScore":2,"terms":["klinik mediviron","mediveron","马安药房"],"fields":["name","operator","{amenity/clinic}"],"reference":{"key":"amenity","value":"clinic"},"tags":{"amenity":"clinic","operator:wikidata":"Q97498892"},"addTags":{"amenity":"clinic","healthcare":"clinic","name":"Klinik Mediviron","name:ms":"Klinik Mediviron","name:zh":"马安药房","operator":"Klinik Mediviron","operator:wikidata":"Q97498892"}},"amenity/hospital/columbiaasia-fcf381":{"name":"Columbia Asia Hospital","locationSet":{"include":["id","my","vn"]},"geometry":["area","point"],"matchScore":2,"terms":["columbia asia"],"fields":["name","operator","{amenity/hospital}"],"reference":{"key":"amenity","value":"hospital"},"tags":{"amenity":"hospital","operator:wikidata":"Q5149612"},"addTags":{"amenity":"hospital","healthcare":"hospital","name":"Columbia Asia Hospital","operator":"Columbia Asia","operator:wikidata":"Q5149612"}},"amenity/hospital/kementeriankesihatanmalaysia-a918ec":{"name":"Kementerian Kesihatan Malaysia","locationSet":{"include":["my"]},"geometry":["area","point"],"matchScore":2,"terms":["kementerian kesihatan malaysia"],"fields":["name","operator","{amenity/hospital}"],"reference":{"key":"amenity","value":"hospital"},"tags":{"amenity":"hospital","operator:wikidata":"Q4294352"},"addTags":{"amenity":"hospital","healthcare":"hospital","operator":"Kementerian Kesihatan Malaysia","operator:wikidata":"Q4294352"}},"amenity/parking/carepark-e0a745":{"name":"Care Park","locationSet":{"include":["au","my","nz"]},"geometry":["area","point","vertex"],"matchScore":2,"terms":["care park"],"fields":["name","operator","{amenity/parking}"],"tags":{"amenity":"parking","operator:wikidata":"Q106625352"},"addTags":{"amenity":"parking","brand":"Care Park","brand:wikidata":"Q106625352","fee":"yes","name":"Care Park","operator":"Care Park","operator:wikidata":"Q106625352"}},"amenity/police/polisdirajamalaysia-6c0ab9":{"name":"Polis Diraja Malaysia","locationSet":{"include":["my"]},"geometry":["point","area"],"matchScore":2,"terms":["polis diraja malaysia"],"tags":{"amenity":"police","operator:wikidata":"Q1664804"},"addTags":{"amenity":"police","operator":"Polis Diraja Malaysia","operator:wikidata":"Q1664804"}},"amenity/post_box/bestexpress-fc1a2a":{"name":"Best Express","locationSet":{"include":["in","my","sg","th"],"exclude":["cn"]},"geometry":["point","vertex"],"matchScore":2,"terms":["best express","百世快递"],"tags":{"amenity":"post_box","operator:wikidata":"Q22099540"},"addTags":{"amenity":"post_box","brand":"Best Express","brand:en":"Best Express","brand:wikidata":"Q22099540","brand:zh":"百世快递","operator":"Best Express","operator:en":"Best Express","operator:wikidata":"Q22099540","operator:zh":"百世快递"}},"amenity/post_box/jandtexpress-21508a":{"name":"J&T Express","locationSet":{"include":["id","my","ph"]},"geometry":["point","vertex"],"matchScore":2,"terms":["j&t express"],"tags":{"amenity":"post_box","operator:wikidata":"Q95690344"},"addTags":{"amenity":"post_box","operator":"J&T Express","operator:wikidata":"Q95690344"}},"amenity/post_box/posmalaysia-083009":{"name":"Pos Malaysia","locationSet":{"include":["my"]},"geometry":["point","vertex"],"matchScore":2,"terms":["pos malaysia"],"tags":{"amenity":"post_box","operator:wikidata":"Q6112623"},"addTags":{"amenity":"post_box","operator":"Pos Malaysia","operator:wikidata":"Q6112623"}},"amenity/post_office/jandtexpress-b78fda":{"name":"J&T Express","locationSet":{"include":["id","my","ph"]},"geometry":["point","area"],"matchScore":2,"terms":["j&t express"],"fields":["name","operator","{amenity/post_office}"],"tags":{"amenity":"post_office","operator:wikidata":"Q95690344"},"addTags":{"amenity":"post_office","operator":"J&T Express","operator:wikidata":"Q95690344"}},"amenity/post_office/posmalaysia-1e070a":{"name":"Pos Malaysia","locationSet":{"include":["my"]},"geometry":["point","area"],"matchScore":2,"terms":["pos malaysia"],"fields":["name","operator","{amenity/post_office}"],"tags":{"amenity":"post_office","operator:wikidata":"Q6112623"},"addTags":{"amenity":"post_office","operator":"Pos Malaysia","operator:wikidata":"Q6112623"}},"amenity/telephone/telecommalaysia-f8aa27":{"name":"Telecom Malaysia","locationSet":{"include":["my"]},"geometry":["point","vertex"],"matchScore":2,"terms":["telecom malaysia","tm"],"fields":["name","operator","{amenity/telephone}"],"tags":{"amenity":"telephone","operator:wikidata":"Q1640639"},"addTags":{"amenity":"telephone","operator":"Telecom Malaysia","operator:short":"TM","operator:wikidata":"Q1640639"}},"man_made/wastewater_plant/indahwater-36d0a3":{"name":"Indah Water","locationSet":{"include":["my"]},"geometry":["point","area"],"matchScore":2,"terms":["indah water","iwk"],"tags":{"man_made":"wastewater_plant","operator:wikidata":"Q6015650"},"addTags":{"man_made":"wastewater_plant","operator":"Indah Water","operator:short":"IWK","operator:wikidata":"Q6015650"}},"power/generator/sabahelectricity-ce71c9":{"name":"Sabah Electricity","locationSet":{"include":["my"]},"geometry":["point","vertex","area"],"matchScore":2,"terms":["sabah electricity","sabah electricity sdn. bhd.","sesb"],"tags":{"operator:wikidata":"Q7420551","power":"generator"},"addTags":{"operator":"Sabah Electricity","operator:short":"SESB","operator:wikidata":"Q7420551","power":"generator"}},"power/line/tenaganasional-97fc17":{"name":"Tenaga Nasional","locationSet":{"include":["my"]},"geometry":["line"],"matchScore":2,"terms":["tenaga nasional","tenaga nasional berhad","tenaga national berhad"],"tags":{"operator:wikidata":"Q1584297","power":"line"},"addTags":{"operator":"Tenaga Nasional","operator:wikidata":"Q1584297","power":"line"}},"power/minor_line/tenaganasional-7478eb":{"name":"Tenaga Nasional","locationSet":{"include":["my"]},"geometry":["line"],"matchScore":2,"terms":["tenaga nasional","tenaga nasional berhad","tenaga national berhad"],"tags":{"operator:wikidata":"Q1584297","power":"minor_line"},"addTags":{"operator":"Tenaga Nasional","operator:wikidata":"Q1584297","power":"minor_line"}},"power/pole/tenaganasional-c8ef55":{"name":"Tenaga Nasional","locationSet":{"include":["my"]},"geometry":["point","vertex"],"matchScore":2,"terms":["tenaga nasional","tenaga nasional berhad","tenaga national berhad"],"tags":{"operator:wikidata":"Q1584297","power":"pole"},"addTags":{"operator":"Tenaga Nasional","operator:wikidata":"Q1584297","power":"pole"}},"power/substation/sabahelectricity-fb8dd8":{"name":"Sabah Electricity","locationSet":{"include":["my"]},"geometry":["area","point"],"matchScore":2,"terms":["sabah electricity","sesb"],"tags":{"operator:wikidata":"Q7420551","power":"substation"},"addTags":{"operator":"Sabah Electricity","operator:short":"SESB","operator:wikidata":"Q7420551","power":"substation"}},"power/substation/sarawakenergy-fb8dd8":{"name":"Sarawak Energy","locationSet":{"include":["my"]},"geometry":["area","point"],"matchScore":2,"terms":["sarawak energy"],"tags":{"operator:wikidata":"Q7659479","power":"substation"},"addTags":{"operator":"Sarawak Energy","operator:wikidata":"Q7659479","power":"substation"}},"power/substation/tenaganasional-fb8dd8":{"name":"Tenaga Nasional","locationSet":{"include":["my"]},"geometry":["area","point"],"matchScore":2,"terms":["tenaga nasional","tenaga nasional berhad","tenaga national berhad"],"tags":{"operator:wikidata":"Q1584297","power":"substation"},"addTags":{"operator":"Tenaga Nasional","operator:wikidata":"Q1584297","power":"substation"}},"power/substation/tnb-fb8dd8":{"name":"TNB","locationSet":{"include":["my"]},"geometry":["area","point"],"matchScore":2,"terms":["tnb"],"tags":{"operator:wikidata":"Q1584297","power":"substation"},"addTags":{"operator":"TNB","operator:wikidata":"Q1584297","power":"substation"}},"power/tower/tenaganasional-da9bd2":{"name":"Tenaga Nasional","locationSet":{"include":["my"]},"geometry":["point","vertex"],"matchScore":2,"terms":["tenaga nasional","tenaga nasional berhad","tenaga national berhad"],"tags":{"operator:wikidata":"Q1584297","power":"tower"},"addTags":{"operator":"Tenaga Nasional","operator:wikidata":"Q1584297","power":"tower"}},"power/transformer/sabahelectricity-ff1f66":{"name":"Sabah Electricity","locationSet":{"include":["my"]},"geometry":["point","vertex"],"matchScore":2,"terms":["sabah electricity","sesb"],"tags":{"operator:wikidata":"Q7420551","power":"transformer"},"addTags":{"operator":"Sabah Electricity","operator:short":"SESB","operator:wikidata":"Q7420551","power":"transformer"}},"power/transformer/sarawakenergy-ff1f66":{"name":"Sarawak Energy","locationSet":{"include":["my"]},"geometry":["point","vertex"],"matchScore":2,"terms":["sarawak energy"],"tags":{"operator:wikidata":"Q7659479","power":"transformer"},"addTags":{"operator":"Sarawak Energy","operator:wikidata":"Q7659479","power":"transformer"}},"power/transformer/tenaganasional-ff1f66":{"name":"Tenaga Nasional","locationSet":{"include":["my"]},"geometry":["point","vertex"],"matchScore":2,"terms":["tenaga nasional","tenaga nasional berhad","tenaga national berhad"],"tags":{"operator:wikidata":"Q1584297","power":"transformer"},"addTags":{"operator":"Tenaga Nasional","operator:wikidata":"Q1584297","power":"transformer"}},"power/transformer/tnb-ff1f66":{"name":"TNB","locationSet":{"include":["my"]},"geometry":["point","vertex"],"matchScore":2,"terms":["tnb"],"tags":{"operator:wikidata":"Q1584297","power":"transformer"},"addTags":{"operator":"TNB","operator:wikidata":"Q1584297","power":"transformer"}},"public_transport/platform/bus_point/brt-4b286a":{"name":"BRT (Malaysia)","locationSet":{"include":["my"]},"geometry":["point","vertex"],"matchScore":2,"terms":["brt"],"reference":{"key":"public_transport","value":"platform"},"tags":{"bus":"yes","network:wikidata":"Q16255640","public_transport":"platform"},"addTags":{"bus":"yes","highway":"bus_stop","network":"BRT","network:wikidata":"Q16255640","public_transport":"platform"}},"public_transport/platform/bus_point/causewaylink-4b286a":{"name":"Causeway Link","locationSet":{"include":["my"]},"geometry":["point","vertex"],"matchScore":2,"terms":["causeway link"],"reference":{"key":"public_transport","value":"platform"},"tags":{"bus":"yes","network:wikidata":"Q5054648","public_transport":"platform"},"addTags":{"bus":"yes","highway":"bus_stop","network":"Causeway Link","network:wikidata":"Q5054648","public_transport":"platform"}},"public_transport/platform/bus_point/landtransportauthority-999925":{"name":"Land Transport Authority","locationSet":{"include":["my","sg"]},"geometry":["point","vertex"],"matchScore":2,"terms":["land transport authority","lta"],"reference":{"key":"public_transport","value":"platform"},"tags":{"bus":"yes","network:wikidata":"Q3299279","public_transport":"platform"},"addTags":{"bus":"yes","highway":"bus_stop","network":"Land Transport Authority","network:short":"LTA","network:wikidata":"Q3299279","public_transport":"platform"}},"public_transport/platform/bus_point/rapidkl-4b286a":{"name":"Rapid KL","locationSet":{"include":["my"]},"geometry":["point","vertex"],"matchScore":2,"terms":["prasarana malaysia","rapid kl"],"reference":{"key":"public_transport","value":"platform"},"tags":{"bus":"yes","network:wikidata":"Q3271384","public_transport":"platform"},"addTags":{"bus":"yes","highway":"bus_stop","network":"Rapid KL","network:wikidata":"Q3271384","operator":"Prasarana Malaysia","operator:wikidata":"Q4209298","public_transport":"platform"}},"public_transport/platform/bus_point/rapidpenang-4b286a":{"name":"Rapid Penang","locationSet":{"include":["my"]},"geometry":["point","vertex"],"matchScore":2,"terms":["prasarana malaysia","rapid penang"],"reference":{"key":"public_transport","value":"platform"},"tags":{"bus":"yes","network:wikidata":"Q4259055","public_transport":"platform"},"addTags":{"bus":"yes","highway":"bus_stop","network":"Rapid Penang","network:wikidata":"Q4259055","operator":"Prasarana Malaysia","operator:wikidata":"Q4209298","public_transport":"platform"}},"public_transport/platform/bus_point/sbs-999925":{"name":"SBS","locationSet":{"include":["my","sg"]},"geometry":["point","vertex"],"matchScore":2,"terms":["sbs"],"reference":{"key":"public_transport","value":"platform"},"tags":{"bus":"yes","network:wikidata":"Q2661305","public_transport":"platform"},"addTags":{"bus":"yes","highway":"bus_stop","network":"SBS","network:wikidata":"Q2661305","public_transport":"platform"}},"railway/station/ktmets-729591":{"name":"KTM ETS","locationSet":{"include":["my"]},"geometry":["point","vertex","area"],"matchScore":2,"terms":["keretapi tanah melayu","ktm ets"],"tags":{"network:wikidata":"Q5357521","railway":"station"},"addTags":{"network":"KTM ETS","network:wikidata":"Q5357521","operator":"Keretapi Tanah Melayu","operator:wikidata":"Q1187590","public_transport":"station","railway":"station","train":"yes"}},"railway/station/ktmintercity-729591":{"name":"KTM Intercity","locationSet":{"include":["my"]},"geometry":["point","vertex","area"],"matchScore":2,"terms":["keretapi tanah melayu","ktm intercity"],"tags":{"network:wikidata":"Q4384005","railway":"station"},"addTags":{"network":"KTM Intercity","network:wikidata":"Q4384005","operator":"Keretapi Tanah Melayu","operator:wikidata":"Q1187590","public_transport":"station","railway":"station","train":"yes"}},"railway/station/ktmkomuter-729591":{"name":"KTM Komuter","locationSet":{"include":["my"]},"geometry":["point","vertex","area"],"matchScore":2,"terms":["keretapi tanah melayu","ktm komuter"],"tags":{"network:wikidata":"Q4383987","railway":"station"},"addTags":{"network":"KTM Komuter","network:wikidata":"Q4383987","operator":"Keretapi Tanah Melayu","operator:wikidata":"Q1187590","public_transport":"station","railway":"station","train":"yes"}},"type/route/bus/brt-9c952e":{"name":"BRT (Malaysia)","locationSet":{"include":["my"]},"geometry":["relation"],"matchScore":2,"terms":["brt"],"reference":{"key":"route","value":"bus"},"tags":{"network:wikidata":"Q16255640","route":"bus","type":"route"},"addTags":{"network":"BRT","network:wikidata":"Q16255640","route":"bus","type":"route"}},"type/route/bus/causewaylink-9c952e":{"name":"Causeway Link","locationSet":{"include":["my"]},"geometry":["relation"],"matchScore":2,"terms":["causeway link"],"reference":{"key":"route","value":"bus"},"tags":{"network:wikidata":"Q5054648","route":"bus","type":"route"},"addTags":{"network":"Causeway Link","network:wikidata":"Q5054648","route":"bus","type":"route"}},"type/route/bus/landtransportauthority-b310fc":{"name":"Land Transport Authority","locationSet":{"include":["my","sg"]},"geometry":["relation"],"matchScore":2,"terms":["land transport authority","lta"],"reference":{"key":"route","value":"bus"},"tags":{"network:wikidata":"Q3299279","route":"bus","type":"route"},"addTags":{"network":"Land Transport Authority","network:short":"LTA","network:wikidata":"Q3299279","route":"bus","type":"route"}},"type/route/bus/rapidkl-9c952e":{"name":"Rapid KL","locationSet":{"include":["my"]},"geometry":["relation"],"matchScore":2,"terms":["prasarana malaysia","rapid kl"],"reference":{"key":"route","value":"bus"},"tags":{"network:wikidata":"Q3271384","route":"bus","type":"route"},"addTags":{"network":"Rapid KL","network:wikidata":"Q3271384","operator":"Prasarana Malaysia","operator:wikidata":"Q4209298","route":"bus","type":"route"}},"type/route/bus/rapidpenang-9c952e":{"name":"Rapid Penang","locationSet":{"include":["my"]},"geometry":["relation"],"matchScore":2,"terms":["prasarana malaysia","rapid penang"],"reference":{"key":"route","value":"bus"},"tags":{"network:wikidata":"Q4259055","route":"bus","type":"route"},"addTags":{"network":"Rapid Penang","network:wikidata":"Q4259055","operator":"Prasarana Malaysia","operator:wikidata":"Q4209298","route":"bus","type":"route"}},"type/route/bus/sbs-b310fc":{"name":"SBS","locationSet":{"include":["my","sg"]},"geometry":["relation"],"matchScore":2,"terms":["sbs"],"reference":{"key":"route","value":"bus"},"tags":{"network:wikidata":"Q2661305","route":"bus","type":"route"},"addTags":{"network":"SBS","network:wikidata":"Q2661305","route":"bus","type":"route"}},"type/route/light_rail/rapidkl-48ca06":{"name":"Rapid KL","locationSet":{"include":["my"]},"geometry":["relation"],"matchScore":2,"terms":["prasarana malaysia","rapid kl"],"reference":{"key":"route","value":"light_rail"},"tags":{"network:wikidata":"Q3271384","route":"light_rail","type":"route"},"addTags":{"network":"Rapid KL","network:wikidata":"Q3271384","operator":"Prasarana Malaysia","operator:wikidata":"Q4209298","route":"light_rail","type":"route"}},"type/route/subway/rapidkl-23c854":{"name":"Rapid KL","locationSet":{"include":["my"]},"geometry":["relation"],"matchScore":2,"terms":["prasarana malaysia","rapid kl"],"reference":{"key":"route","value":"subway"},"tags":{"network:wikidata":"Q3271384","route":"subway","type":"route"},"addTags":{"network":"Rapid KL","network:wikidata":"Q3271384","operator":"Prasarana Malaysia","operator:wikidata":"Q4209298","route":"subway","type":"route"}},"type/route/train/ktmets-2be500":{"name":"KTM ETS","locationSet":{"include":["my"]},"geometry":["relation"],"matchScore":2,"terms":["keretapi tanah melayu","ktm ets"],"reference":{"key":"route","value":"train"},"tags":{"network:wikidata":"Q5357521","route":"train","type":"route"},"addTags":{"network":"KTM ETS","network:wikidata":"Q5357521","operator":"Keretapi Tanah Melayu","operator:wikidata":"Q1187590","route":"train","type":"route"}},"type/route/train/ktmintercity-2be500":{"name":"KTM Intercity","locationSet":{"include":["my"]},"geometry":["relation"],"matchScore":2,"terms":["keretapi tanah melayu","ktm intercity"],"reference":{"key":"route","value":"train"},"tags":{"network:wikidata":"Q4384005","route":"train","type":"route"},"addTags":{"network":"KTM Intercity","network:wikidata":"Q4384005","operator":"Keretapi Tanah Melayu","operator:wikidata":"Q1187590","route":"train","type":"route"}},"type/route/train/ktmkomuter-2be500":{"name":"KTM Komuter","locationSet":{"include":["my"]},"geometry":["relation"],"matchScore":2,"terms":["keretapi tanah melayu","ktm komuter"],"reference":{"key":"route","value":"train"},"tags":{"network:wikidata":"Q4383987","route":"train","type":"route"},"addTags":{"network":"KTM Komuter","network:wikidata":"Q4383987","operator":"Keretapi Tanah Melayu","operator:wikidata":"Q1187590","route":"train","type":"route"}}}