{"advertising/totem/inglesgasexpress-8d7006":{"name":"Ingles Gas Express","locationSet":{"include":["us-ga","us-nc","us-sc","us-tn"]},"geometry":["point","line"],"matchScore":2,"terms":["ingles gas express"],"tags":{"advertising":"totem","brand:wikidata":"Q6032595"},"addTags":{"advertising":"totem","brand":"Ingles Gas Express","brand:wikidata":"Q6032595"}},"amenity/atm/amerisbank-42e885":{"name":"Ameris Bank","locationSet":{"include":["us-al","us-fl","us-ga","us-nc","us-sc"]},"geometry":["point","vertex"],"matchScore":2,"terms":["ameris bancorp","ameris bank","fidelity bank"],"fields":["name","brand","{amenity/atm}"],"tags":{"amenity":"atm","brand:wikidata":"Q124102372"},"addTags":{"amenity":"atm","brand":"Ameris Bank","brand:wikidata":"Q124102372","operator":"Ameris Bank","operator:wikidata":"Q124102372"}},"amenity/atm/fidelitybank-bfc54c":{"name":"Fidelity Bank (NC/SC/VA)","locationSet":{"include":["us-nc","us-sc","us-va"]},"geometry":["point","vertex"],"matchScore":2,"terms":["fidelity bank"],"fields":["name","brand","{amenity/atm}"],"tags":{"amenity":"atm","brand:wikidata":"Q124104925"},"addTags":{"amenity":"atm","brand":"Fidelity Bank","brand:wikidata":"Q124104925","operator":"Fidelity Bank","operator:wikidata":"Q124104925"}},"amenity/atm/firstnationalbank-571c0f":{"name":"First National Bank (US)","locationSet":{"include":["us-dc","us-md","us-nc","us-oh","us-pa","us-sc","us-va","us-wv"]},"geometry":["point","vertex"],"matchScore":2,"terms":["first national bank","fnb"],"fields":["name","brand","{amenity/atm}"],"tags":{"amenity":"atm","brand:wikidata":"Q5426765"},"addTags":{"amenity":"atm","brand":"First National Bank","brand:wikidata":"Q5426765","operator":"First National Bank","operator:wikidata":"Q5426765"}},"amenity/atm/pinnaclebank-849a40":{"name":"Pinnacle Bank (US Southeast)","locationSet":{"include":["us-al","us-ga","us-nc","us-sc","us-tn","us-wv"]},"geometry":["point","vertex"],"matchScore":2,"terms":["pinnacle bank","pinnacle financial partners"],"fields":["name","brand","{amenity/atm}"],"tags":{"amenity":"atm","brand:wikidata":"Q7196294"},"addTags":{"amenity":"atm","brand":"Pinnacle Bank","brand:wikidata":"Q7196294","official_name":"Pinnacle Financial Partners","operator":"Pinnacle Bank","operator:wikidata":"Q7196294"}},"amenity/atm/selfhelpcreditunion-f893c2":{"name":"Self-Help Credit Union","locationSet":{"include":["us-fl","us-nc","us-sc","us-va"]},"geometry":["point","vertex"],"matchScore":2,"terms":["self-help credit union"],"fields":["name","brand","{amenity/atm}"],"tags":{"amenity":"atm","brand:wikidata":"Q111381769"},"addTags":{"amenity":"atm","brand":"Self-Help Credit Union","brand:wikidata":"Q111381769","operator":"Self-Help Credit Union","operator:wikidata":"Q111381769"}},"amenity/atm/unitedbank-b1562d":{"name":"United Bank (West Virginia)","locationSet":{"include":["us-dc","us-md","us-nc","us-pa","us-sc","us-va","us-wv"]},"geometry":["point","vertex"],"matchScore":2,"terms":["united bank"],"fields":["name","brand","{amenity/atm}"],"tags":{"amenity":"atm","brand:wikidata":"Q16920636"},"addTags":{"amenity":"atm","brand":"United Bank","brand:wikidata":"Q16920636","operator":"United Bank","operator:wikidata":"Q16920636"}},"amenity/bank/amerisbank-246182":{"name":"Ameris Bank","locationSet":{"include":["us-al","us-fl","us-ga","us-nc","us-sc"]},"geometry":["point","area"],"matchScore":2,"terms":["ameris bancorp","ameris bank","fidelity bank"],"tags":{"amenity":"bank","brand:wikidata":"Q124102372"},"addTags":{"amenity":"bank","brand":"Ameris Bank","brand:wikidata":"Q124102372","name":"Ameris Bank"}},"amenity/bank/fidelitybank-5f055b":{"name":"Fidelity Bank (NC/SC/VA)","locationSet":{"include":["us-nc","us-sc","us-va"]},"geometry":["point","area"],"matchScore":2,"terms":["fidelity bank"],"tags":{"amenity":"bank","brand:wikidata":"Q124104925"},"addTags":{"amenity":"bank","brand":"Fidelity Bank","brand:wikidata":"Q124104925","name":"Fidelity Bank"}},"amenity/bank/firstnationalbank-fdc31a":{"name":"First National Bank (US)","locationSet":{"include":["us-dc","us-md","us-nc","us-oh","us-pa","us-sc","us-va","us-wv"]},"geometry":["point","area"],"matchScore":2,"terms":["first national bank","fnb"],"tags":{"amenity":"bank","brand:wikidata":"Q5426765"},"addTags":{"amenity":"bank","brand":"First National Bank","brand:wikidata":"Q5426765","name":"First National Bank"}},"amenity/bank/pinnaclebank-1187bc":{"name":"Pinnacle Bank (US Southeast)","locationSet":{"include":["us-al","us-ga","us-nc","us-sc","us-tn","us-wv"]},"geometry":["point","area"],"matchScore":2,"terms":["pinnacle bank","pinnacle financial partners"],"tags":{"amenity":"bank","brand:wikidata":"Q7196294"},"addTags":{"amenity":"bank","brand":"Pinnacle Bank","brand:wikidata":"Q7196294","name":"Pinnacle Bank","official_name":"Pinnacle Financial Partners"}},"amenity/bank/selfhelpcreditunion-2b62fb":{"name":"Self-Help Credit Union","locationSet":{"include":["us-fl","us-nc","us-sc","us-va"]},"geometry":["point","area"],"matchScore":2,"terms":["self-help credit union"],"tags":{"amenity":"bank","brand:wikidata":"Q111381769"},"addTags":{"amenity":"bank","brand":"Self-Help Credit Union","brand:wikidata":"Q111381769","name":"Self-Help Credit Union"}},"amenity/bank/unitedbank-d6a32a":{"name":"United Bank (West Virginia)","locationSet":{"include":["us-dc","us-md","us-nc","us-pa","us-sc","us-va","us-wv"]},"geometry":["point","area"],"matchScore":2,"terms":["united bank"],"tags":{"amenity":"bank","brand:wikidata":"Q16920636"},"addTags":{"amenity":"bank","brand":"United Bank","brand:wikidata":"Q16920636","name":"United Bank"}},"amenity/dentist/dentalworks-f3d61f":{"name":"DentalWorks","locationSet":{"include":["us-az","us-co","us-il","us-in","us-ky","us-mi","us-nc","us-oh","us-pa","us-sc","us-tn","us-tx","us-wi"]},"geometry":["point","area"],"matchScore":2,"terms":["dentalworks"],"reference":{"key":"amenity","value":"dentist"},"tags":{"amenity":"dentist","brand:wikidata":"Q113712187"},"addTags":{"amenity":"dentist","brand":"DentalWorks","brand:wikidata":"Q113712187","healthcare":"dentist","name":"DentalWorks"}},"amenity/fast_food/donut/duckdonuts-6333a9":{"name":"Duck Donuts","locationSet":{"include":["ca-on","eg","sa","us-ar","us-az","us-ca","us-co","us-fl","us-ga","us-id","us-il","us-ks","us-ky","us-md","us-mi","us-mn","us-mo","us-nc","us-nj","us-ny","us-oh","us-pa","us-sc","us-tn","us-tx","us-ut","us-va"]},"geometry":["point","area"],"matchScore":2,"terms":["duck donuts","duck doughnuts"],"reference":{"key":"cuisine","value":"donut"},"tags":{"amenity":"fast_food","brand:wikidata":"Q54958282","cuisine":"donut"},"addTags":{"amenity":"fast_food","brand":"Duck Donuts","brand:wikidata":"Q54958282","cuisine":"donut","name":"Duck Donuts","takeaway":"yes"}},"amenity/fast_food/chicken/pdq-f02697":{"name":"PDQ","locationSet":{"include":["us-fl","us-nc","us-nj","us-ny","us-sc"]},"geometry":["point","area"],"matchScore":2,"terms":["pdq"],"reference":{"key":"cuisine","value":"chicken"},"tags":{"amenity":"fast_food","brand:wikidata":"Q87675367","cuisine":"chicken"},"addTags":{"amenity":"fast_food","brand":"PDQ","brand:wikidata":"Q87675367","cuisine":"chicken","name":"PDQ","takeaway":"yes"}},"amenity/fast_food/pokebros-eebea8":{"name":"Poke Bros.","locationSet":{"include":["us-de","us-fl","us-il","us-in","us-ky","us-nc","us-nj","us-ny","us-oh","us-pa","us-ri","us-sc","us-tn"]},"geometry":["point","area"],"matchScore":2,"terms":["poke bros."],"tags":{"amenity":"fast_food","brand:wikidata":"Q113640421"},"addTags":{"amenity":"fast_food","brand":"Poke Bros.","brand:wikidata":"Q113640421","cuisine":"poke","name":"Poke Bros.","takeaway":"yes"}},"amenity/fuel/inglesgasexpress-b3451c":{"name":"Ingles Gas Express","locationSet":{"include":["us-ga","us-nc","us-sc","us-tn"]},"geometry":["point","area"],"matchScore":2,"terms":["ingles gas express"],"fields":["name","brand","{amenity/fuel}"],"tags":{"amenity":"fuel","brand:wikidata":"Q6032595"},"addTags":{"amenity":"fuel","brand":"Ingles Gas Express","brand:wikidata":"Q6032595","name":"Ingles Gas Express"}},"amenity/ice_cream/jenissplendidicecreams-53b2e0":{"name":"Jeni's Splendid Ice Cream","locationSet":{"include":["us-al","us-ca","us-dc","us-fl","us-ga","us-il","us-mo","us-nc","us-oh","us-pa","us-sc","us-tn","us-tx"]},"geometry":["point","area"],"matchScore":2,"terms":["jeni's","jeni's splendid ice creams"],"tags":{"amenity":"ice_cream","brand:wikidata":"Q16851196"},"addTags":{"amenity":"ice_cream","brand":"Jeni's Splendid Ice Creams","brand:wikidata":"Q16851196","name":"Jeni's Splendid Ice Creams","short_name":"Jeni's"}},"amenity/restaurant/seafood/joescrabshack-c6bbaa":{"name":"Joe's Crab Shack","locationSet":{"include":["us-az","us-ca","us-co","us-fl","us-ga","us-ky","us-la","us-mo","us-nc","us-nj","us-pa","us-sc","us-tn","us-tx","us-ut","us-va"]},"geometry":["point","area"],"matchScore":2,"terms":["joe's crab shack"],"reference":{"key":"cuisine","value":"seafood"},"tags":{"amenity":"restaurant","brand:wikidata":"Q6208210","cuisine":"seafood"},"addTags":{"amenity":"restaurant","brand":"Joe's Crab Shack","brand:wikidata":"Q6208210","cuisine":"seafood","name":"Joe's Crab Shack"}},"amenity/restaurant/maplestreetbiscuitcompany-d344e2":{"name":"Maple Street Biscuit Company","locationSet":{"include":["us-al","us-fl","us-ga","us-ky","us-nc","us-sc","us-tn","us-tx","us-va"]},"geometry":["point","area"],"matchScore":2,"terms":["maple street biscuit company"],"tags":{"amenity":"restaurant","brand:wikidata":"Q97104481"},"addTags":{"amenity":"restaurant","brand":"Maple Street Biscuit Company","brand:wikidata":"Q97104481","cuisine":"breakfast","name":"Maple Street Biscuit Company"}},"amenity/restaurant/nafnafgrill-8ff1c6":{"name":"Naf Naf Grill","locationSet":{"include":["us-fl","us-ga","us-il","us-in","us-mn","us-nj","us-oh","us-pa","us-sc","us-tn","us-tx","us-wi"]},"geometry":["point","area"],"matchScore":2,"terms":["naf naf grill"],"tags":{"amenity":"restaurant","brand:wikidata":"Q111901442"},"addTags":{"amenity":"restaurant","brand":"Naf Naf Grill","brand:wikidata":"Q111901442","cuisine":"middle_eastern","name":"Naf Naf Grill"}},"leisure/sports_centre/xgolf-8a88af":{"name":"X Golf","locationSet":{"include":["us-al","us-co","us-ga","us-il","us-in","us-ks","us-ma","us-me","us-mi","us-mn","us-mo","us-nd","us-ne","us-ny","us-oh","us-or","us-pa","us-ri","us-sc","us-sd","us-ut","us-va","us-wa","us-wi"]},"geometry":["point","area"],"matchScore":2,"terms":["x golf"],"fields":["name","brand","{leisure/sports_centre}"],"tags":{"brand:wikidata":"Q111585369","leisure":"sports_centre"},"addTags":{"brand":"X Golf","brand:wikidata":"Q111585369","indoor":"yes","leisure":"sports_centre","name":"X Golf","sport":"golf"}},"office/amerisbank-477daa":{"name":"Ameris Bank","locationSet":{"include":["us-al","us-fl","us-ga","us-md","us-nc","us-sc","us-tn","us-va"]},"geometry":["point","vertex","area"],"matchScore":2,"terms":["ameris bank"],"tags":{"brand:wikidata":"Q124102372","office":"mortgage"},"addTags":{"brand":"Ameris Bank","brand:wikidata":"Q124102372","name":"Ameris Bank","office":"mortgage"}},"shop/hairdresser/imagestudios-0d42d5":{"name":"Image Studios","locationSet":{"include":["us-ca","us-co","us-fl","us-ga","us-ky","us-mo","us-nc","us-nj","us-nv","us-ny","us-oh","us-or","us-sc","us-tn","us-tx","us-ut"]},"geometry":["point","area"],"matchScore":2,"terms":["image studios"],"tags":{"brand:wikidata":"Q110998819","shop":"hairdresser"},"addTags":{"brand":"Image Studios","brand:wikidata":"Q110998819","name":"Image Studios","shop":"hairdresser"}},"shop/money_lender/1stheritagecredit-453289":{"name":"1st Heritage Credit","locationSet":{"include":["us-al","us-la","us-ms","us-sc","us-tn"]},"geometry":["point","area"],"matchScore":2,"terms":["1st heritage credit"],"tags":{"brand:wikidata":"Q121084523","shop":"money_lender"},"addTags":{"brand":"1st Heritage Credit","brand:wikidata":"Q121084523","name":"1st Heritage Credit","shop":"money_lender"}},"amenity/clinic/novanthealth-524bbb":{"name":"Novant Health","locationSet":{"include":["us-ga","us-nc","us-sc","us-va"]},"geometry":["point","area"],"matchScore":2,"terms":["novant health"],"fields":["name","operator","{amenity/clinic}"],"reference":{"key":"amenity","value":"clinic"},"tags":{"amenity":"clinic","operator:wikidata":"Q14956815"},"addTags":{"amenity":"clinic","healthcare":"clinic","operator":"Novant Health","operator:wikidata":"Q14956815"}},"amenity/fire_station/horrycounty-104978":{"name":"Horry County","locationSet":{"include":["us-sc"]},"geometry":["point","area"],"matchScore":2,"terms":["horry county"],"tags":{"amenity":"fire_station","operator:wikidata":"Q502288"},"addTags":{"amenity":"fire_station","operator":"Horry County","operator:wikidata":"Q502288"}},"amenity/school/beaufortcountyschooldistrict-b0049f":{"name":"Beaufort County School District","locationSet":{"include":["us-sc"]},"geometry":["area","point"],"matchScore":2,"terms":["bcsd","beaufort county school district"],"tags":{"amenity":"school","operator:wikidata":"Q4877467"},"addTags":{"amenity":"school","operator":"Beaufort County School District","operator:short":"BCSD","operator:type":"public","operator:wikidata":"Q4877467"}},"amenity/school/richlandcountyschooldistricttwo-b0049f":{"name":"Richland County School District Two","locationSet":{"include":["us-sc"]},"geometry":["area","point"],"matchScore":2,"terms":["richland county school district two"],"tags":{"amenity":"school","operator:wikidata":"Q7330621"},"addTags":{"amenity":"school","operator":"Richland County School District Two","operator:type":"public","operator:wikidata":"Q7330621"}},"amenity/school/unioncountyschools-b0049f":{"name":"Union County Schools (South Carolina)","locationSet":{"include":["us-sc"]},"geometry":["area","point"],"matchScore":2,"terms":["union county schools"],"tags":{"amenity":"school","operator:wikidata":"Q16917917"},"addTags":{"amenity":"school","operator":"Union County Schools","operator:type":"public","operator:wikidata":"Q16917917"}},"leisure/nature_reserve/cityofcharleston-0d235d":{"name":"City of Charleston (South Carolina)","locationSet":{"include":["us-sc"]},"geometry":["area","point"],"matchScore":2,"terms":["city of charleston"],"tags":{"leisure":"nature_reserve","operator:wikidata":"Q47716"},"addTags":{"leisure":"nature_reserve","operator":"City of Charleston","operator:type":"public","operator:wikidata":"Q47716"}},"leisure/nature_reserve/southcarolinastateparks-0d235d":{"name":"South Carolina State Parks","locationSet":{"include":["us-sc"]},"geometry":["area","point"],"matchScore":2,"terms":["south carolina state parks"],"tags":{"leisure":"nature_reserve","operator:wikidata":"Q109328518"},"addTags":{"leisure":"nature_reserve","operator":"South Carolina State Parks","operator:type":"public","operator:wikidata":"Q109328518"}},"leisure/park/cityofcharleston-35a23d":{"name":"City of Charleston (South Carolina)","locationSet":{"include":["us-sc"]},"geometry":["area","point"],"matchScore":2,"terms":["city of charleston"],"tags":{"leisure":"park","operator:wikidata":"Q47716"},"addTags":{"leisure":"park","operator":"City of Charleston","operator:type":"public","operator:wikidata":"Q47716"}},"leisure/park/southcarolinastateparks-35a23d":{"name":"South Carolina State Parks","locationSet":{"include":["us-sc"]},"geometry":["area","point"],"matchScore":2,"terms":["south carolina state parks"],"tags":{"leisure":"park","operator:wikidata":"Q109328518"},"addTags":{"leisure":"park","operator":"South Carolina State Parks","operator:type":"public","operator:wikidata":"Q109328518"}},"public_transport/platform/bus_point/carta-dcedc1":{"name":"CARTA (South Carolina)","locationSet":{"include":["us-sc"]},"geometry":["point","vertex"],"matchScore":2,"terms":["carta","charleston area regional transportation authority"],"reference":{"key":"public_transport","value":"platform"},"tags":{"bus":"yes","network:wikidata":"Q5084103","public_transport":"platform"},"addTags":{"bus":"yes","highway":"bus_stop","network":"CARTA","network:wikidata":"Q5084103","operator":"Charleston Area Regional Transportation Authority","public_transport":"platform"}},"public_transport/platform/bus_point/coastrta-dcedc1":{"name":"Coast RTA","locationSet":{"include":["us-sc"]},"geometry":["point","vertex"],"matchScore":2,"terms":["coast rta"],"reference":{"key":"public_transport","value":"platform"},"tags":{"bus":"yes","network:wikidata":"Q5138200","public_transport":"platform"},"addTags":{"bus":"yes","highway":"bus_stop","network":"Coast RTA","network:wikidata":"Q5138200","public_transport":"platform"}},"type/route/bus/carta-65f758":{"name":"CARTA (South Carolina)","locationSet":{"include":["us-sc"]},"geometry":["relation"],"matchScore":2,"terms":["carta","charleston area regional transportation authority"],"reference":{"key":"route","value":"bus"},"tags":{"network:wikidata":"Q5084103","route":"bus","type":"route"},"addTags":{"network":"CARTA","network:wikidata":"Q5084103","operator":"Charleston Area Regional Transportation Authority","route":"bus","type":"route"}},"type/route/bus/coastrta-65f758":{"name":"Coast RTA","locationSet":{"include":["us-sc"]},"geometry":["relation"],"matchScore":2,"terms":["coast rta"],"reference":{"key":"route","value":"bus"},"tags":{"network:wikidata":"Q5138200","route":"bus","type":"route"},"addTags":{"network":"Coast RTA","network:wikidata":"Q5138200","route":"bus","type":"route"}}}