{"amenity/fuel/engen-b7f522":{"name":"Engen","locationSet":{"include":["dz","eg","ly","ma","sd","tn","eh","io","bi","km","dj","er","et","tf","ke","mg","mw","mu","yt","mz","re","rw","sc","so","ss","ug","tz","zm","zw","ao","cm","cf","td","cg","cd","gq","ga","st","bw","sz","ls","na","za","bj","bf","cv","ci","gm","gh","gn","gw","lr","ml","mr","ne","ng","sn","sl","tg","sh"]},"geometry":["point","area"],"matchScore":2,"terms":["engen","engen petroleum"],"fields":["name","brand","{amenity/fuel}"],"tags":{"amenity":"fuel","brand:wikidata":"Q3054251"},"addTags":{"amenity":"fuel","brand":"Engen","brand:wikidata":"Q3054251","name":"Engen"}},"amenity/ice_cream/amorino-6cf168":{"name":"Amorino","locationSet":{"include":["ae","ch","cz","de","es","fr","gb","gr","ie","it","lu","ma","mt","mx","nc","pt","qa","re","us"]},"geometry":["point","area"],"matchScore":2,"terms":["amorino"],"tags":{"amenity":"ice_cream","brand:wikidata":"Q2843884"},"addTags":{"amenity":"ice_cream","brand":"Amorino","brand:wikidata":"Q2843884","name":"Amorino"}},"amenity/ice_cream/smooy-bac155":{"name":"smöoy","locationSet":{"include":["ao","ci","cn","dz","ec","es","fr","gb","gn","it","ma","pa","pe","pt","re","sa"]},"geometry":["point","area"],"matchScore":2,"terms":["smöoy","softy cream"],"tags":{"amenity":"ice_cream","brand:wikidata":"Q21573945"},"addTags":{"amenity":"ice_cream","brand":"smöoy","brand:wikidata":"Q21573945","name":"smöoy","official_name":"Softy Cream"}},"shop/clothes/underwear/undiz-f30927":{"name":"Undiz","locationSet":{"include":["ae","ch","es","fr","gf","gp","lb","ma","mq","nc","pf","qa","re","sa","za"]},"geometry":["point","area"],"matchScore":2,"terms":["undiz"],"reference":{"key":"clothes","value":"underwear"},"tags":{"brand:wikidata":"Q105306275","clothes":"underwear","shop":"clothes"},"addTags":{"brand":"Undiz","brand:wikidata":"Q105306275","clothes":"underwear","name":"Undiz","shop":"clothes"}},"shop/furniture/chateaudax-c96b56":{"name":"Chateau d'Ax","locationSet":{"include":["ao","be","ca","ch","cn","de","es","fx","gp","hk","hr","it","ma","mq","mt","mu","mz","pt","re","sg","si","tn","tw","us","vn"]},"geometry":["point","area"],"matchScore":2,"terms":["chateau d'ax"],"tags":{"brand:wikidata":"Q100249791","shop":"furniture"},"addTags":{"brand":"Chateau d'Ax","brand:wikidata":"Q100249791","name":"Chateau d'Ax","shop":"furniture"}},"shop/optician/opticalcenter-02cbb2":{"name":"Optical Center","locationSet":{"include":["be","ca","es","fr","gp","il","lu","mq","re"]},"geometry":["point","area"],"matchScore":2,"terms":["optical center"],"fields":["name","brand","{shop/optician}"],"tags":{"brand:wikidata":"Q3354448","shop":"optician"},"addTags":{"brand":"Optical Center","brand:wikidata":"Q3354448","name":"Optical Center","shop":"optician"}},"public_transport/platform/bus_point/alterneo-cc7cf9":{"name":"Alternéo","locationSet":{"include":["re"]},"geometry":["point","vertex"],"matchScore":2,"terms":["alternéo"],"reference":{"key":"public_transport","value":"platform"},"tags":{"bus":"yes","network:wikidata":"Q2840428","public_transport":"platform"},"addTags":{"bus":"yes","highway":"bus_stop","network":"Alternéo","network:wikidata":"Q2840428","public_transport":"platform"}},"type/route/bus/alterneo-6f2389":{"name":"Alternéo","locationSet":{"include":["re"]},"geometry":["relation"],"matchScore":2,"terms":["alternéo"],"reference":{"key":"route","value":"bus"},"tags":{"network:wikidata":"Q2840428","route":"bus","type":"route"},"addTags":{"network":"Alternéo","network:wikidata":"Q2840428","route":"bus","type":"route"}}}