{"amenity/atm/selfhelpfederalcreditunion-f52673":{"name":"Self-Help Federal Credit Union","locationSet":{"include":["us-ca","us-il","us-wa","us-wi"]},"geometry":["point","vertex"],"matchScore":2,"terms":["self-help federal credit union"],"fields":["name","brand","{amenity/atm}"],"tags":{"amenity":"atm","brand:wikidata":"Q111381724"},"addTags":{"amenity":"atm","brand":"Self-Help Federal Credit Union","brand:wikidata":"Q111381724","operator":"Self-Help Federal Credit Union","operator:wikidata":"Q111381724"}},"amenity/bank/selfhelpfederalcreditunion-8dbd99":{"name":"Self-Help Federal Credit Union","locationSet":{"include":["us-ca","us-il","us-wa","us-wi"]},"geometry":["point","area"],"matchScore":2,"terms":["self-help federal credit union"],"tags":{"amenity":"bank","brand:wikidata":"Q111381724"},"addTags":{"amenity":"bank","brand":"Self-Help Federal Credit Union","brand:wikidata":"Q111381724","name":"Self-Help Federal Credit Union"}},"amenity/clinic/veinclinicsofamerica-12a747":{"name":"Vein Clinics of America","locationSet":{"include":["us-ct","us-ga","us-il","us-in","us-ks","us-md","us-mn","us-mo","us-nc","us-oh","us-tn","us-tx","us-va","us-wi"]},"geometry":["point","area"],"matchScore":2,"terms":["vein clinics of america"],"reference":{"key":"amenity","value":"clinic"},"tags":{"amenity":"clinic","brand:wikidata":"Q113712355"},"addTags":{"amenity":"clinic","brand":"Vein Clinics of America","brand:wikidata":"Q113712355","healthcare":"clinic"}},"amenity/dentist/dentalworks-f3d61f":{"name":"DentalWorks","locationSet":{"include":["us-az","us-co","us-il","us-in","us-ky","us-mi","us-nc","us-oh","us-pa","us-sc","us-tn","us-tx","us-wi"]},"geometry":["point","area"],"matchScore":2,"terms":["dentalworks"],"reference":{"key":"amenity","value":"dentist"},"tags":{"amenity":"dentist","brand:wikidata":"Q113712187"},"addTags":{"amenity":"dentist","brand":"DentalWorks","brand:wikidata":"Q113712187","healthcare":"dentist","name":"DentalWorks"}},"amenity/fast_food/alohapokeco-6b3f2b":{"name":"Aloha Pok Co","locationSet":{"include":["us-dc","us-fl","us-ga","us-il","us-mn","us-tx","us-wi"]},"geometry":["point","area"],"matchScore":2,"terms":["aloha pok co"],"tags":{"amenity":"fast_food","brand:wikidata":"Q111231031"},"addTags":{"amenity":"fast_food","brand":"Aloha Pok Co","brand:wikidata":"Q111231031","cuisine":"poke","name":"Aloha Pok Co","takeaway":"yes"}},"amenity/fuel/faststop-13feb8":{"name":"FAST STOP","locationSet":{"include":["us-ia","us-il","us-mi","us-mo","us-ne","us-wi"]},"geometry":["point","area"],"matchScore":2,"terms":["fast stop"],"fields":["name","brand","{amenity/fuel}"],"tags":{"amenity":"fuel","brand:wikidata":"Q116734101"},"addTags":{"amenity":"fuel","brand":"FAST STOP","brand:wikidata":"Q116734101","name":"FAST STOP"}},"amenity/payment_terminal/eztab-4d36cf":{"name":"EZ-TAB","locationSet":{"include":["us-wi"]},"geometry":["point"],"matchScore":2,"terms":["ez-tab","wisconsin division of motor vehicles"],"tags":{"amenity":"payment_terminal","brand:wikidata":"Q110265731"},"addTags":{"amenity":"payment_terminal","brand":"EZ-TAB","brand:wikidata":"Q110265731","name":"EZ-TAB","operator":"Wisconsin Division of Motor Vehicles","operator:wikidata":"Q115413096"}},"amenity/restaurant/italian/maggianoslittleitaly-acf8ec":{"name":"Maggiano's Little Italy","locationSet":{"include":["us-az","us-ca","us-co","us-dc","us-fl","us-ga","us-il","us-in","us-ks","us-ma","us-md","us-mi","us-mo","us-nc","us-nj","us-nv","us-ny","us-oh","us-pa","us-tn","us-tx","us-va","us-wa","us-wi"]},"geometry":["point","area"],"matchScore":2,"terms":["maggiano's little italy"],"reference":{"key":"cuisine","value":"italian"},"tags":{"amenity":"restaurant","brand:wikidata":"Q6730149","cuisine":"italian"},"addTags":{"amenity":"restaurant","brand":"Maggiano's Little Italy","brand:wikidata":"Q6730149","cuisine":"italian","name":"Maggiano's Little Italy"}},"amenity/restaurant/pizza/monicalspizza-18638b":{"name":"Monical's Pizza","locationSet":{"include":["us-il","us-in","us-mo","us-wi"]},"geometry":["point","area"],"matchScore":2,"terms":["monical's pizza"],"reference":{"key":"cuisine","value":"pizza"},"tags":{"amenity":"restaurant","brand:wikidata":"Q6900121","cuisine":"pizza"},"addTags":{"amenity":"restaurant","brand":"Monical's Pizza","brand:wikidata":"Q6900121","cuisine":"pizza","name":"Monical's Pizza"}},"leisure/sports_centre/xgolf-8a88af":{"name":"X Golf","locationSet":{"include":["us-al","us-co","us-ga","us-il","us-in","us-ks","us-ma","us-me","us-mi","us-mn","us-mo","us-nd","us-ne","us-ny","us-oh","us-or","us-pa","us-ri","us-sc","us-sd","us-ut","us-va","us-wa","us-wi"]},"geometry":["point","area"],"matchScore":2,"terms":["x golf"],"fields":["name","brand","{leisure/sports_centre}"],"tags":{"brand:wikidata":"Q111585369","leisure":"sports_centre"},"addTags":{"brand":"X Golf","brand:wikidata":"Q111585369","indoor":"yes","leisure":"sports_centre","name":"X Golf","sport":"golf"}},"shop/pastry/mrsfields-e944b6":{"name":"Mrs. Fields","locationSet":{"include":["au","ph","us-ak","us-al","us-az","us-ca","us-co","us-de","us-fl","us-ga","us-hi","us-id","us-il","us-in","us-ks","us-la","us-ma","us-md","us-me","us-mi","us-mo","us-ms","us-nc","us-nj","us-nv","us-ny","us-oh","us-ok","us-pa","us-tx","us-ut","us-wi"]},"geometry":["point","area"],"matchScore":2,"terms":["mrs. fields"],"tags":{"brand:wikidata":"Q3866841","shop":"pastry"},"addTags":{"brand":"Mrs. Fields","brand:wikidata":"Q3866841","name":"Mrs. Fields","shop":"pastry"}},"shop/storage_rental/metroselfstorage-5b962b":{"name":"Metro Self Storage","locationSet":{"include":["us-al","us-ct","us-fl","us-ga","us-il","us-mn","us-nj","us-ny","us-pa","us-tn","us-tx","us-wi"]},"geometry":["point","area"],"matchScore":2,"terms":["metro self storage"],"tags":{"brand:wikidata":"Q114515454","shop":"storage_rental"},"addTags":{"brand":"Metro Self Storage","brand:wikidata":"Q114515454","name":"Metro Self Storage","shop":"storage_rental"}},"shop/supermarket/picknsave-905e35":{"name":"Pick 'n Save","locationSet":{"include":["us-wi"]},"geometry":["point","area"],"matchScore":2,"terms":["pick 'n save"],"tags":{"brand:wikidata":"Q7371288","shop":"supermarket"},"addTags":{"brand":"Pick 'n Save","brand:wikidata":"Q7371288","name":"Pick 'n Save","shop":"supermarket"}},"shop/supermarket/woodmansmarkets-5dc7ba":{"name":"Woodman's Markets","locationSet":{"include":["us-il","us-wi"]},"geometry":["point","area"],"matchScore":2,"terms":["woodman's markets"],"tags":{"brand:wikidata":"Q8033073","shop":"supermarket"},"addTags":{"brand":"Woodman's Markets","brand:wikidata":"Q8033073","name":"Woodman's Markets","shop":"supermarket"}},"shop/trade/americanroofingsupply-930674":{"name":"American Roofing Supply","locationSet":{"include":["us-az","us-co","us-id","us-il","us-in","us-mn","us-nd","us-ne","us-sd","us-wi"]},"geometry":["point","area"],"matchScore":2,"terms":["american roofing supply"],"tags":{"brand:wikidata":"Q114515313","shop":"trade"},"addTags":{"brand":"American Roofing Supply","brand:wikidata":"Q114515313","name":"American Roofing Supply","shop":"trade","trade":"roofing"}},"shop/trade/fabickcat-755a12":{"name":"Fabick CAT","locationSet":{"include":["us-il","us-mi","us-mo","us-wi"]},"geometry":["point","area"],"matchScore":2,"terms":["fabick cat"],"tags":{"brand:wikidata":"Q109619462","shop":"trade"},"addTags":{"brand":"Fabick CAT","brand:wikidata":"Q109619462","name":"Fabick CAT","shop":"trade","trade":"construction_equipment"}},"shop/trade/rplumber-ab5d0f":{"name":"RP Lumber","locationSet":{"include":["us-ia","us-il","us-mo","us-wi","us-wy"]},"geometry":["point","area"],"matchScore":2,"terms":["rp lumber"],"tags":{"brand:wikidata":"Q116671972","shop":"trade"},"addTags":{"brand":"RP Lumber","brand:wikidata":"Q116671972","name":"RP Lumber","shop":"trade","trade":"building_supplies"}},"shop/trade/zieglercat-b606bc":{"name":"Ziegler CAT","locationSet":{"include":["us-ia","us-mn","us-mo","us-wi"]},"geometry":["point","area"],"matchScore":2,"terms":["ziegler cat"],"tags":{"brand:wikidata":"Q109619444","shop":"trade"},"addTags":{"brand":"Ziegler CAT","brand:wikidata":"Q109619444","name":"Ziegler CAT","shop":"trade","trade":"construction_equipment"}},"amenity/clinic/unitypointhealth-37d845":{"name":"UnityPoint Health","locationSet":{"include":["us-ia","us-il","us-wi"]},"geometry":["point","area"],"matchScore":2,"terms":["unitypoint health"],"fields":["name","operator","{amenity/clinic}"],"reference":{"key":"amenity","value":"clinic"},"searchable":false,"tags":{"amenity":"clinic","operator:wikidata":"Q17078774"},"addTags":{"amenity":"clinic","healthcare":"clinic","operator":"UnityPoint Health","operator:wikidata":"Q17078774"}},"amenity/hospital/unitypointhealth-ac6cc4":{"name":"UnityPoint Health","locationSet":{"include":["us-ia","us-il","us-wi"]},"geometry":["area","point"],"matchScore":2,"terms":["unitypoint health"],"fields":["name","operator","{amenity/hospital}"],"reference":{"key":"amenity","value":"hospital"},"searchable":false,"tags":{"amenity":"hospital","operator:wikidata":"Q17078774"},"addTags":{"amenity":"hospital","healthcare":"hospital","operator":"UnityPoint Health","operator:wikidata":"Q17078774"}},"amenity/library/milwaukeepubliclibrary-b285d6":{"name":"Milwaukee Public Library","locationSet":{"include":["us-wi"]},"geometry":["point","area"],"matchScore":2,"terms":["milwaukee public library","mpl"],"tags":{"amenity":"library","operator:wikidata":"Q69494788"},"addTags":{"amenity":"library","operator":"Milwaukee Public Library","operator:short":"MPL","operator:type":"public","operator:wikidata":"Q69494788"}},"amenity/prison/wisconsindepartmentofcorrections-d538ac":{"name":"Wisconsin Department of Corrections","locationSet":{"include":["us-wi"]},"geometry":["area","point"],"matchScore":2,"terms":["widoc","wisconsin department of corrections"],"fields":["name","operator","{amenity/prison}"],"tags":{"amenity":"prison","operator:wikidata":"Q8027155"},"addTags":{"amenity":"prison","operator":"Wisconsin Department of Corrections","operator:wikidata":"Q8027155"}},"amenity/school/abbotsfordschooldistrict-ac5479":{"name":"Abbotsford School District","locationSet":{"include":["us-wi"]},"geometry":["area","point"],"matchScore":2,"terms":["abbotsford school district","asd"],"tags":{"amenity":"school","operator:wikidata":"Q4664312"},"addTags":{"amenity":"school","operator":"Abbotsford School District","operator:short":"ASD","operator:type":"public","operator:wikidata":"Q4664312"}},"amenity/school/appletonareaschooldistrict-ac5479":{"name":"Appleton Area School District","locationSet":{"include":["us-wi"]},"geometry":["area","point"],"matchScore":2,"terms":["aasd","appleton area school district"],"tags":{"amenity":"school","operator:wikidata":"Q4781388"},"addTags":{"amenity":"school","operator":"Appleton Area School District","operator:short":"AASD","operator:type":"public","operator:wikidata":"Q4781388"}},"amenity/school/eauclaireareaschooldistrict-ac5479":{"name":"Eau Claire Area School District","locationSet":{"include":["us-wi"]},"geometry":["area","point"],"matchScore":2,"terms":["eau claire area school district","ecasd"],"tags":{"amenity":"school","operator:wikidata":"Q5331426"},"addTags":{"amenity":"school","operator":"Eau Claire Area School District","operator:short":"ECASD","operator:type":"public","operator:wikidata":"Q5331426"}},"amenity/school/kenoshaunifiedschooldistrict-ac5479":{"name":"Kenosha Unified School District","locationSet":{"include":["us-wi"]},"geometry":["area","point"],"matchScore":2,"terms":["kenosha unified school district","kusd"],"tags":{"amenity":"school","operator:wikidata":"Q6391322"},"addTags":{"amenity":"school","operator":"Kenosha Unified School District","operator:short":"KUSD","operator:type":"public","operator:wikidata":"Q6391322"}},"amenity/school/madisonmetropolitanschooldistrict-ac5479":{"name":"Madison Metropolitan School District","locationSet":{"include":["us-wi"]},"geometry":["area","point"],"matchScore":2,"terms":["madison metropolitan school district","mmsd"],"tags":{"amenity":"school","operator:wikidata":"Q6728047"},"addTags":{"amenity":"school","operator":"Madison Metropolitan School District","operator:short":"MMSD","operator:type":"public","operator:wikidata":"Q6728047"}},"amenity/school/milwaukeepublicschools-ac5479":{"name":"Milwaukee Public Schools","locationSet":{"include":["us-wi"]},"geometry":["area","point"],"matchScore":2,"terms":["milwaukee public schools","mps"],"tags":{"amenity":"school","operator:wikidata":"Q5483185"},"addTags":{"amenity":"school","operator":"Milwaukee Public Schools","operator:short":"MPS","operator:type":"public","operator:wikidata":"Q5483185"}},"amenity/school/racineunifiedschooldistrict-ac5479":{"name":"Racine Unified School District","locationSet":{"include":["us-wi"]},"geometry":["area","point"],"matchScore":2,"terms":["racine unified school district","rusd"],"tags":{"amenity":"school","operator:wikidata":"Q7279664"},"addTags":{"amenity":"school","operator":"Racine Unified School District","operator:short":"RUSD","operator:type":"public","operator:wikidata":"Q7279664"}},"amenity/school/wausauschooldistrict-ac5479":{"name":"Wausau School District","locationSet":{"include":["us-wi"]},"geometry":["area","point"],"matchScore":2,"terms":["wausau school district","wsd"],"tags":{"amenity":"school","operator:wikidata":"Q7975223"},"addTags":{"amenity":"school","operator":"Wausau School District","operator:short":"WSD","operator:type":"public","operator:wikidata":"Q7975223"}},"leisure/nature_reserve/cityofashland-d8ec11":{"name":"City of Ashland (Wisconsin)","locationSet":{"include":["us-wi"]},"geometry":["area","point"],"matchScore":2,"terms":["city of ashland"],"tags":{"leisure":"nature_reserve","operator:wikidata":"Q725594"},"addTags":{"leisure":"nature_reserve","operator":"City of Ashland","operator:type":"public","operator:wikidata":"Q725594"}},"leisure/nature_reserve/cityofhartford-d8ec11":{"name":"City of Hartford (Wisconsin)","locationSet":{"include":["us-wi"]},"geometry":["area","point"],"matchScore":2,"terms":["city of hartford"],"tags":{"leisure":"nature_reserve","operator:wikidata":"Q1569368"},"addTags":{"leisure":"nature_reserve","operator":"City of Hartford","operator:type":"public","operator:wikidata":"Q1569368"}},"leisure/nature_reserve/jeffersoncounty-d8ec11":{"name":"Jefferson County (Wisconsin)","locationSet":{"include":["us-wi"]},"geometry":["area","point"],"matchScore":2,"terms":["jefferson county"],"tags":{"leisure":"nature_reserve","operator:wikidata":"Q500958"},"addTags":{"leisure":"nature_reserve","operator":"Jefferson County","operator:type":"public","operator:wikidata":"Q500958"}},"leisure/nature_reserve/milwaukeecountyparks-d8ec11":{"name":"Milwaukee County Parks","locationSet":{"include":["us-wi"]},"geometry":["area","point"],"matchScore":2,"terms":["milwaukee county park system","milwaukee county parks"],"tags":{"leisure":"nature_reserve","operator:wikidata":"Q110072573"},"addTags":{"leisure":"nature_reserve","operator":"Milwaukee County Parks","operator:type":"public","operator:wikidata":"Q110072573"}},"leisure/nature_reserve/villageofwaunakee-d8ec11":{"name":"Village of Waunakee","locationSet":{"include":["us-wi"]},"geometry":["area","point"],"matchScore":2,"terms":["village of waunakee"],"tags":{"leisure":"nature_reserve","operator:wikidata":"Q1246532"},"addTags":{"leisure":"nature_reserve","operator":"Village of Waunakee","operator:type":"public","operator:wikidata":"Q1246532"}},"leisure/nature_reserve/wisconsindepartmentofnaturalresources-d8ec11":{"name":"Wisconsin DNR","locationSet":{"include":["us-wi"]},"geometry":["area","point"],"matchScore":2,"terms":["wisconsin department of natural resources","wisconsin dnr","wisconsin state parks"],"tags":{"leisure":"nature_reserve","operator:wikidata":"Q1467508"},"addTags":{"leisure":"nature_reserve","operator":"Wisconsin Department of Natural Resources","operator:short":"Wisconsin DNR","operator:type":"public","operator:wikidata":"Q1467508"}},"leisure/park/cityofashland-ef1d28":{"name":"City of Ashland (Wisconsin)","locationSet":{"include":["us-wi"]},"geometry":["area","point"],"matchScore":2,"terms":["city of ashland"],"tags":{"leisure":"park","operator:wikidata":"Q725594"},"addTags":{"leisure":"park","operator":"City of Ashland","operator:type":"public","operator:wikidata":"Q725594"}},"leisure/park/cityofhartford-ef1d28":{"name":"City of Hartford (Wisconsin)","locationSet":{"include":["us-wi"]},"geometry":["area","point"],"matchScore":2,"terms":["city of hartford"],"tags":{"leisure":"park","operator:wikidata":"Q1569368"},"addTags":{"leisure":"park","operator":"City of Hartford","operator:type":"public","operator:wikidata":"Q1569368"}},"leisure/park/jeffersoncounty-ef1d28":{"name":"Jefferson County (Wisconsin)","locationSet":{"include":["us-wi"]},"geometry":["area","point"],"matchScore":2,"terms":["jefferson county"],"tags":{"leisure":"park","operator:wikidata":"Q500958"},"addTags":{"leisure":"park","operator":"Jefferson County","operator:type":"public","operator:wikidata":"Q500958"}},"leisure/park/milwaukeecountyparks-ef1d28":{"name":"Milwaukee County Parks","locationSet":{"include":["us-wi"]},"geometry":["area","point"],"matchScore":2,"terms":["milwaukee county park system","milwaukee county parks"],"tags":{"leisure":"park","operator:wikidata":"Q110072573"},"addTags":{"leisure":"park","operator":"Milwaukee County Parks","operator:type":"public","operator:wikidata":"Q110072573"}},"leisure/park/villageofwaunakee-ef1d28":{"name":"Village of Waunakee","locationSet":{"include":["us-wi"]},"geometry":["area","point"],"matchScore":2,"terms":["village of waunakee"],"tags":{"leisure":"park","operator:wikidata":"Q1246532"},"addTags":{"leisure":"park","operator":"Village of Waunakee","operator:type":"public","operator:wikidata":"Q1246532"}},"leisure/park/wisconsindepartmentofnaturalresources-ef1d28":{"name":"Wisconsin DNR","locationSet":{"include":["us-wi"]},"geometry":["area","point"],"matchScore":2,"terms":["wisconsin department of natural resources","wisconsin dnr","wisconsin state parks"],"tags":{"leisure":"park","operator:wikidata":"Q1467508"},"addTags":{"leisure":"park","operator":"Wisconsin Department of Natural Resources","operator:short":"Wisconsin DNR","operator:type":"public","operator:wikidata":"Q1467508"}},"shop/charity/goodwillindustriesofsoutheasternwisconsin-fd97cd":{"name":"Goodwill Industries of Southeastern Wisconsin","locationSet":{"include":["us-il","us-wi"]},"geometry":["point","area"],"matchScore":2,"terms":["goodwill","goodwill industries of southeastern wisconsin","goodwill industries of southeastern wisconsin and metropolitan chicago"],"tags":{"operator:wikidata":"Q54624107","shop":"charity"},"addTags":{"brand":"Goodwill","brand:wikidata":"Q5583655","name":"Goodwill","operator":"Goodwill Industries of Southeastern Wisconsin","operator:wikidata":"Q54624107","shop":"charity"}},"shop/charity/goodwillofnorthernillinois-fd97cd":{"name":"Goodwill of Northern Illinois","locationSet":{"include":["us-il","us-wi"]},"geometry":["point","area"],"matchScore":2,"terms":["goodwill","goodwill of north illinois","goodwill of northern illinois"],"tags":{"operator:wikidata":"Q109722460","shop":"charity"},"addTags":{"brand":"Goodwill","brand:wikidata":"Q5583655","name":"Goodwill","operator":"Goodwill of Northern Illinois","operator:wikidata":"Q109722460","shop":"charity"}},"public_transport/platform/bus_point/duluthtransitauthority-d21fd8":{"name":"Duluth Transit Authority","locationSet":{"include":["us-mn","us-wi"]},"geometry":["point","vertex"],"matchScore":2,"terms":["dta","duluth transit authority"],"reference":{"key":"public_transport","value":"platform"},"tags":{"bus":"yes","network:wikidata":"Q16967413","public_transport":"platform"},"addTags":{"bus":"yes","highway":"bus_stop","network":"Duluth Transit Authority","network:short":"DTA","network:wikidata":"Q16967413","public_transport":"platform"}},"public_transport/platform/bus_point/kenoshaareatransit-6be363":{"name":"Kenosha Area Transit","locationSet":{"include":["us-wi"]},"geometry":["point","vertex"],"matchScore":2,"terms":["kat","kenosha area transit"],"reference":{"key":"public_transport","value":"platform"},"tags":{"bus":"yes","network:wikidata":"Q6391318","public_transport":"platform"},"addTags":{"bus":"yes","highway":"bus_stop","network":"Kenosha Area Transit","network:short":"KAT","network:wikidata":"Q6391318","public_transport":"platform"}},"public_transport/platform/bus_point/waukeshametro-6be363":{"name":"Waukesha Metro","locationSet":{"include":["us-wi"]},"geometry":["point","vertex"],"matchScore":2,"terms":["waukesha metro"],"reference":{"key":"public_transport","value":"platform"},"tags":{"bus":"yes","network:wikidata":"Q7975163","public_transport":"platform"},"addTags":{"bus":"yes","highway":"bus_stop","network":"Waukesha Metro","network:wikidata":"Q7975163","public_transport":"platform"}},"railway/tram_stop/kenoshaareatransit-b3d588":{"name":"Kenosha Area Transit","locationSet":{"include":["us-wi"]},"geometry":["vertex"],"matchScore":2,"terms":["kat","kenosha area transit"],"tags":{"network:wikidata":"Q6391318","railway":"tram_stop"},"addTags":{"network":"Kenosha Area Transit","network:short":"KAT","network:wikidata":"Q6391318","railway":"tram_stop"}},"type/route/bus/duluthtransitauthority-e35a87":{"name":"Duluth Transit Authority","locationSet":{"include":["us-mn","us-wi"]},"geometry":["relation"],"matchScore":2,"terms":["dta","duluth transit authority"],"reference":{"key":"route","value":"bus"},"tags":{"network:wikidata":"Q16967413","route":"bus","type":"route"},"addTags":{"network":"Duluth Transit Authority","network:short":"DTA","network:wikidata":"Q16967413","route":"bus","type":"route"}},"type/route/bus/kenoshaareatransit-28c67e":{"name":"Kenosha Area Transit","locationSet":{"include":["us-wi"]},"geometry":["relation"],"matchScore":2,"terms":["kat","kenosha area transit"],"reference":{"key":"route","value":"bus"},"tags":{"network:wikidata":"Q6391318","route":"bus","type":"route"},"addTags":{"network":"Kenosha Area Transit","network:short":"KAT","network:wikidata":"Q6391318","route":"bus","type":"route"}},"type/route/bus/waukeshametro-28c67e":{"name":"Waukesha Metro","locationSet":{"include":["us-wi"]},"geometry":["relation"],"matchScore":2,"terms":["waukesha metro"],"reference":{"key":"route","value":"bus"},"tags":{"network:wikidata":"Q7975163","route":"bus","type":"route"},"addTags":{"network":"Waukesha Metro","network:wikidata":"Q7975163","route":"bus","type":"route"}},"type/route/train/metra-bffe2a":{"name":"Metra","locationSet":{"include":["us-il","us-wi"]},"geometry":["relation"],"matchScore":2,"terms":["metra"],"reference":{"key":"route","value":"train"},"tags":{"network:wikidata":"Q1814208","route":"train","type":"route"},"addTags":{"network":"Metra","network:wikidata":"Q1814208","route":"train","type":"route"}},"type/route/tram/kenoshaareatransit-4b3525":{"name":"Kenosha Area Transit","locationSet":{"include":["us-wi"]},"geometry":["relation"],"matchScore":2,"terms":["kat","kenosha area transit"],"reference":{"key":"route","value":"tram"},"tags":{"network:wikidata":"Q6391318","route":"tram","type":"route"},"addTags":{"network":"Kenosha Area Transit","network:short":"KAT","network:wikidata":"Q6391318","route":"tram","type":"route"}}}