{"advertising/totem/engen-be6bfd":{"name":"Engen","locationSet":{"include":["dz","eg","ly","ma","sd","tn","eh","io","bi","km","dj","er","et","tf","ke","mg","mw","mu","yt","mz","re","rw","sc","so","ss","ug","tz","zm","zw","ao","cm","cf","td","cg","cd","gq","ga","st","bw","sz","ls","na","za","bj","bf","cv","ci","gm","gh","gn","gw","lr","ml","mr","ne","ng","sn","sl","tg","sh"]},"geometry":["point","line"],"matchScore":2,"terms":["engen","engen petroleum"],"tags":{"advertising":"totem","brand:wikidata":"Q3054251"},"addTags":{"advertising":"totem","brand":"Engen","brand:wikidata":"Q3054251"}},"amenity/fast_food/pizza/debonairspizza-10dad6":{"name":"Debonairs Pizza","locationSet":{"include":["ae","bw","ke","ls","mu","mw","mz","na","ng","sd","ss","sz","za","zm"]},"geometry":["point","area"],"matchScore":2,"terms":["debonairs","debonairs pizza"],"reference":{"key":"cuisine","value":"pizza"},"tags":{"amenity":"fast_food","brand:wikidata":"Q65079407","cuisine":"pizza"},"addTags":{"amenity":"fast_food","brand":"Debonairs Pizza","brand:wikidata":"Q65079407","cuisine":"pizza","name":"Debonairs Pizza","takeaway":"yes"}},"amenity/fast_food/chicken/galitos-00ffa4":{"name":"Galito's","locationSet":{"include":["ae","ca","cd","gh","in","ke","ls","mu","mw","pk","rs","sz","us","za","zm"]},"geometry":["point","area"],"matchScore":2,"terms":["galito's"],"reference":{"key":"cuisine","value":"chicken"},"tags":{"amenity":"fast_food","brand:wikidata":"Q116619555","cuisine":"chicken"},"addTags":{"amenity":"fast_food","brand":"Galito's","brand:wikidata":"Q116619555","cuisine":"chicken","name":"Galito's","takeaway":"yes"}},"amenity/fast_food/chicken/hungrylion-f0dc80":{"name":"Hungry Lion","locationSet":{"include":["ao","bw","ls","na","sz","za","zm"]},"geometry":["point","area"],"matchScore":2,"terms":["hungry lion"],"reference":{"key":"cuisine","value":"chicken"},"tags":{"amenity":"fast_food","brand:wikidata":"Q115636930","cuisine":"chicken"},"addTags":{"amenity":"fast_food","brand":"Hungry Lion","brand:wikidata":"Q115636930","cuisine":"chicken","name":"Hungry Lion","takeaway":"yes"}},"amenity/fuel/engen-b7f522":{"name":"Engen","locationSet":{"include":["dz","eg","ly","ma","sd","tn","eh","io","bi","km","dj","er","et","tf","ke","mg","mw","mu","yt","mz","re","rw","sc","so","ss","ug","tz","zm","zw","ao","cm","cf","td","cg","cd","gq","ga","st","bw","sz","ls","na","za","bj","bf","cv","ci","gm","gh","gn","gw","lr","ml","mr","ne","ng","sn","sl","tg","sh"]},"geometry":["point","area"],"matchScore":2,"terms":["engen","engen petroleum"],"fields":["name","brand","{amenity/fuel}"],"tags":{"amenity":"fuel","brand:wikidata":"Q3054251"},"addTags":{"amenity":"fuel","brand":"Engen","brand:wikidata":"Q3054251","name":"Engen"}},"shop/alcohol/picknpayliquor-fa6f87":{"name":"Pick n Pay Liquor","locationSet":{"include":["bw","ls","na","ng","sz","za","zm"]},"geometry":["point","area"],"matchScore":2,"terms":["pick n pay liquor"],"tags":{"brand:wikidata":"Q122764458","shop":"alcohol"},"addTags":{"brand":"Pick n Pay Liquor","brand:wikidata":"Q122764458","name":"Pick n Pay Liquor","shop":"alcohol"}},"shop/alcohol/shopriteliquorshop-af1a8e":{"name":"Shoprite LiquorShop","locationSet":{"include":["ls","mz","na","za"]},"geometry":["point","area"],"matchScore":2,"terms":["shoprite liquorshop"],"tags":{"brand:wikidata":"Q1857639","shop":"alcohol"},"addTags":{"brand":"Shoprite LiquorShop","brand:wikidata":"Q1857639","name":"Shoprite LiquorShop","shop":"alcohol"}},"shop/alcohol/usaveliquorshop-3d1ece":{"name":"Usave Liquorshop","locationSet":{"include":["ls","na","za"]},"geometry":["point","area"],"matchScore":2,"terms":["usave liquorshop"],"tags":{"brand:wikidata":"Q115696368","shop":"alcohol"},"addTags":{"brand":"Usave Liquorshop","brand:wikidata":"Q115696368","name":"Usave Liquorshop","shop":"alcohol"}},"shop/clothes/ackermans-c712e2":{"name":"Ackermans","locationSet":{"include":["bw","ls","na","sz","za"]},"geometry":["point","area"],"matchScore":2,"terms":["ackermans"],"tags":{"brand:wikidata":"Q4674255","shop":"clothes"},"addTags":{"brand":"Ackermans","brand:wikidata":"Q4674255","name":"Ackermans","shop":"clothes"}},"shop/clothes/dunns-c712e2":{"name":"Dunns","locationSet":{"include":["bw","ls","na","sz","za"]},"geometry":["point","area"],"matchScore":2,"terms":["dunns"],"tags":{"brand:wikidata":"Q116619823","shop":"clothes"},"addTags":{"brand":"Dunns","brand:wikidata":"Q116619823","name":"Dunns","shop":"clothes"}},"shop/clothes/foschini-560ac2":{"name":"Foschini","locationSet":{"include":["bw","ke","ls","na","sz","za","zm"]},"geometry":["point","area"],"matchScore":2,"terms":["foschini"],"tags":{"brand:wikidata":"Q116391780","shop":"clothes"},"addTags":{"brand":"Foschini","brand:wikidata":"Q116391780","clothes":"women","name":"Foschini","shop":"clothes"}},"shop/clothes/markham-b23c0b":{"name":"Markham","locationSet":{"include":["bw","gh","ls","na","sz","za","zm"]},"geometry":["point","area"],"matchScore":2,"terms":["markham"],"tags":{"brand:wikidata":"Q116378583","shop":"clothes"},"addTags":{"brand":"Markham","brand:wikidata":"Q116378583","name":"Markham","shop":"clothes"}},"shop/clothes/pep-f0ab19":{"name":"Pep","locationSet":{"include":["ao","bw","ls","mw","mz","na","sz","za","zm"]},"geometry":["point","area"],"matchScore":2,"terms":["pep"],"tags":{"brand:wikidata":"Q7166182","shop":"clothes"},"addTags":{"brand":"Pep","brand:wikidata":"Q7166182","name":"Pep","shop":"clothes"}},"shop/clothes/studio88-40af4d":{"name":"Studio 88","locationSet":{"include":["bw","ls","mz","na","sz","za","zm"]},"geometry":["point","area"],"matchScore":2,"terms":["studio 88"],"tags":{"brand:wikidata":"Q116498145","shop":"clothes"},"addTags":{"brand":"Studio 88","brand:wikidata":"Q116498145","name":"Studio 88","shop":"clothes"}},"shop/department_store/edgars-34fd38":{"name":"Edgars","locationSet":{"include":["bw","gh","ls","na","sz","za","zm"]},"geometry":["point","area"],"matchScore":2,"terms":["edgars"],"tags":{"brand:wikidata":"Q97276073","shop":"department_store"},"addTags":{"brand":"Edgars","brand:wikidata":"Q97276073","name":"Edgars","shop":"department_store"}},"shop/doityourself/buildit-aadd8a":{"name":"Build it","locationSet":{"include":["ls","mz","na","sz","za"]},"geometry":["point","area"],"matchScore":2,"terms":["build it"],"tags":{"brand:wikidata":"Q116755810","shop":"doityourself"},"addTags":{"brand":"Build it","brand:wikidata":"Q116755810","name":"Build it","shop":"doityourself"}},"shop/doityourself/cashbuild-c5a717":{"name":"Cashbuild","locationSet":{"include":["bw","ls","mw","na","sz","za"]},"geometry":["point","area"],"matchScore":2,"terms":["cashbuild"],"tags":{"brand:wikidata":"Q116474606","shop":"doityourself"},"addTags":{"brand":"Cashbuild","brand:wikidata":"Q116474606","name":"Cashbuild","shop":"doityourself"}},"shop/furniture/beares-084a8f":{"name":"Beares","locationSet":{"include":["bw","ls","na","sz","za"]},"geometry":["point","area"],"matchScore":2,"terms":["beares"],"tags":{"brand:wikidata":"Q116474908","shop":"furniture"},"addTags":{"brand":"Beares","brand:wikidata":"Q116474908","name":"Beares","shop":"furniture"}},"shop/furniture/lewis-084a8f":{"name":"Lewis","locationSet":{"include":["bw","ls","na","sz","za"]},"geometry":["point","area"],"matchScore":2,"terms":["lewis stores"],"tags":{"brand:wikidata":"Q116474928","shop":"furniture"},"addTags":{"brand":"Lewis Stores","brand:wikidata":"Q116474928","name":"Lewis","shop":"furniture"}},"shop/furniture/okfurniture-e98456":{"name":"OK Furniture","locationSet":{"include":["ao","bw","ls","mz","na","sz","za","zm"]},"geometry":["point","area"],"matchScore":2,"terms":["ok furniture"],"tags":{"brand:wikidata":"Q116474866","shop":"furniture"},"addTags":{"brand":"OK Furniture","brand:wikidata":"Q116474866","name":"OK Furniture","shop":"furniture"}},"shop/hairdresser/legendsbarber-5e2ac6":{"name":"Legends Barber","locationSet":{"include":["bw","ls","na","za"]},"geometry":["point","area"],"matchScore":2,"terms":["legends barber","legends barbershop"],"tags":{"brand:wikidata":"Q116895407","shop":"hairdresser"},"addTags":{"brand":"Legends Barber","brand:wikidata":"Q116895407","male":"yes","name":"Legends Barber","shop":"hairdresser"}},"shop/hardware/mica-ce9fcd":{"name":"Mica Hardware","locationSet":{"include":["ls","na","sz","za"]},"geometry":["point","area"],"matchScore":2,"terms":["mica hardware"],"fields":["name","brand","{shop/hardware}"],"tags":{"brand:wikidata":"Q116771560","shop":"hardware"},"addTags":{"brand":"Mica Hardware","brand:wikidata":"Q116771560","name":"Mica","shop":"hardware"}},"shop/jewelry/americanswiss-45575e":{"name":"American Swiss","locationSet":{"include":["bw","ls","na","za","zm"]},"geometry":["point","area"],"matchScore":2,"terms":["american swiss"],"tags":{"brand:wikidata":"Q116430764","shop":"jewelry"},"addTags":{"brand":"American Swiss","brand:wikidata":"Q116430764","name":"American Swiss","shop":"jewelry"}},"shop/mobile_phone/airtel-62d34e":{"name":"Airtel","locationSet":{"include":["io","bi","km","dj","er","et","tf","ke","mg","mw","mu","yt","mz","re","rw","sc","so","ss","ug","tz","zm","zw","ao","cm","cf","td","cg","cd","gq","ga","st","bw","sz","ls","na","za","bj","bf","cv","ci","gm","gh","gn","gw","lr","ml","mr","ne","ng","sn","sl","tg","sh","in"]},"geometry":["point","area"],"matchScore":2,"terms":["airtel"],"tags":{"brand:wikidata":"Q854867","shop":"mobile_phone"},"addTags":{"brand":"Airtel","brand:wikidata":"Q854867","name":"Airtel","shop":"mobile_phone"}},"shop/mobile_phone/vodacom-12caeb":{"name":"Vodacom","locationSet":{"include":["cd","et","ke","ls","mz","tz","za"]},"geometry":["point","area"],"matchScore":2,"terms":["vodacom","vodacom shop"],"tags":{"brand:wikidata":"Q1856518","shop":"mobile_phone"},"addTags":{"brand":"Vodacom","brand:wikidata":"Q1856518","name":"Vodacom","shop":"mobile_phone"}},"shop/pawnbroker/cashcrusaders-de6587":{"name":"Cash Crusaders","locationSet":{"include":["bw","ls","na","za"]},"geometry":["point","area"],"matchScore":2,"terms":["cash crusaders"],"tags":{"brand:wikidata":"Q116895402","shop":"pawnbroker"},"addTags":{"brand":"Cash Crusaders","brand:wikidata":"Q116895402","name":"Cash Crusaders","shop":"pawnbroker"}},"shop/shoes/sidestep-76fee2":{"name":"Side Step","locationSet":{"include":["bw","ls","na","za"]},"geometry":["point","area"],"matchScore":2,"terms":["side step"],"tags":{"brand:wikidata":"Q116894527","shop":"shoes"},"addTags":{"brand":"Side Step","brand:wikidata":"Q116894527","name":"Side Step","shop":"shoes"}},"shop/shoes/tekkietown-bf67c5":{"name":"Tekkie Town","locationSet":{"include":["ls","na","za"]},"geometry":["point","area"],"matchScore":2,"terms":["tekkie town"],"tags":{"brand:wikidata":"Q116620895","shop":"shoes"},"addTags":{"brand":"Tekkie Town","brand:wikidata":"Q116620895","name":"Tekkie Town","shop":"shoes"}},"shop/supermarket/picknpay-978c99":{"name":"Pick n Pay","locationSet":{"include":["bw","ls","na","ng","sz","za","zm"]},"geometry":["point","area"],"matchScore":2,"terms":["pick and pay","pick and pay family","pick n pay","pick n pay family"],"tags":{"brand:wikidata":"Q7190735","shop":"supermarket"},"addTags":{"brand":"Pick n Pay","brand:wikidata":"Q7190735","name":"Pick n Pay","shop":"supermarket"}},"shop/supermarket/shoprite-56f959":{"name":"Shoprite (Africa)","locationSet":{"include":["ao","bw","cd","gh","ls","mg","mu","mw","mz","na","ng","sz","ug","za","zm"]},"geometry":["point","area"],"matchScore":2,"terms":["shoprite"],"tags":{"brand:wikidata":"Q1857639","shop":"supermarket"},"addTags":{"brand":"Shoprite","brand:wikidata":"Q1857639","name":"Shoprite","shop":"supermarket"}},"shop/supermarket/usave-1d4ed7":{"name":"Usave","locationSet":{"include":["ao","bw","ls","mw","mz","na","sz","za"]},"geometry":["point","area"],"matchScore":2,"terms":["usave"],"tags":{"brand:wikidata":"Q115696368","shop":"supermarket"},"addTags":{"brand":"Usave","brand:wikidata":"Q115696368","name":"Usave","shop":"supermarket"}},"tourism/hotel/avanihotelsandresorts-e9c192":{"name":"AVANI","locationSet":{"include":["ae","au","bw","id","kh","kr","la","lk","ls","my","mz","na","nz","om","pt","sc","th","vn","zm"]},"geometry":["point","area"],"matchScore":2,"terms":["avani hotels & resorts"],"fields":["name","brand","{tourism/hotel}"],"tags":{"brand:wikidata":"Q48989823","tourism":"hotel"},"addTags":{"brand":"Avani Hotels & Resorts","brand:wikidata":"Q48989823","name":"Avani Hotels & Resorts","tourism":"hotel"}},"amenity/school/lesothoevangelicalchurch-889426":{"name":"Lesotho Evangelical Church","locationSet":{"include":["ls"]},"geometry":["area","point"],"matchScore":2,"terms":["lesotho evangelical church"],"tags":{"amenity":"school","operator:wikidata":"Q15825714"},"addTags":{"amenity":"school","operator":"Lesotho Evangelical Church","operator:type":"religious","operator:wikidata":"Q15825714"}},"man_made/mast/communication/vodacom-02eecb":{"name":"Vodacom","locationSet":{"include":["cd","et","ke","ls","mz","tz","za"]},"geometry":["point","vertex"],"matchScore":2,"terms":["vodacom"],"reference":{"key":"tower:type","value":"communication"},"tags":{"man_made":"mast","operator:wikidata":"Q1856518","tower:type":"communication"},"addTags":{"man_made":"mast","operator":"Vodacom","operator:wikidata":"Q1856518","tower:type":"communication"}},"man_made/tower/communication/vodacom-7f20fe":{"name":"Vodacom","locationSet":{"include":["cd","et","ke","ls","mz","tz","za"]},"geometry":["point","vertex","area"],"matchScore":2,"terms":["vodacom"],"reference":{"key":"tower:type","value":"communication"},"tags":{"man_made":"tower","operator:wikidata":"Q1856518","tower:type":"communication"},"addTags":{"man_made":"tower","operator":"Vodacom","operator:wikidata":"Q1856518","tower:type":"communication"}}}