{"advertising/totem/kwiktrip-fa9947":{"name":"Kwik Trip","locationSet":{"include":["us-mi","us-mn","us-wi"]},"geometry":["point","line"],"matchScore":2,"terms":["kwik trip"],"tags":{"advertising":"totem","brand:wikidata":"Q6450420"},"addTags":{"advertising":"totem","brand":"Kwik Trip","brand:wikidata":"Q6450420"}},"amenity/atm/citynationalbank-97e06e":{"name":"City National Bank (California)","locationSet":{"include":["us-ca","us-dc","us-de","us-fl","us-ga","us-ma","us-mn","us-nv","us-ny","us-tn","us-va"]},"geometry":["point","vertex"],"matchScore":2,"terms":["city national bank"],"fields":["name","brand","{amenity/atm}"],"tags":{"amenity":"atm","brand:wikidata":"Q5123314"},"addTags":{"amenity":"atm","brand":"City National Bank","brand:wikidata":"Q5123314","operator":"City National Bank","operator:wikidata":"Q5123314"}},"amenity/atm/nicoletnationalbank-54f474":{"name":"Nicolet National Bank","locationSet":{"include":["us-mi","us-mn","us-wi"]},"geometry":["point","vertex"],"matchScore":2,"terms":["mbank","nicolet national bank"],"fields":["name","brand","{amenity/atm}"],"tags":{"amenity":"atm","brand:wikidata":"Q124021408"},"addTags":{"amenity":"atm","brand":"Nicolet National Bank","brand:wikidata":"Q124021408","operator":"Nicolet National Bank","operator:wikidata":"Q124021408"}},"amenity/bank/citynationalbank-0b143b":{"name":"City National Bank (California)","locationSet":{"include":["us-ca","us-dc","us-de","us-fl","us-ga","us-ma","us-mn","us-nv","us-ny","us-tn","us-va"]},"geometry":["point","area"],"matchScore":2,"terms":["city national bank"],"tags":{"amenity":"bank","brand:wikidata":"Q5123314"},"addTags":{"amenity":"bank","brand":"City National Bank","brand:wikidata":"Q5123314","name":"City National Bank"}},"amenity/bank/nicoletnationalbank-625518":{"name":"Nicolet National Bank","locationSet":{"include":["us-mi","us-mn","us-wi"]},"geometry":["point","area"],"matchScore":2,"terms":["mbank","nicolet national bank"],"tags":{"amenity":"bank","brand:wikidata":"Q124021408"},"addTags":{"amenity":"bank","brand":"Nicolet National Bank","brand:wikidata":"Q124021408","name":"Nicolet National Bank"}},"amenity/bicycle_rental/nicerideminnesota-231188":{"name":"Nice Ride Minnesota","locationSet":{"include":["us-mn"]},"geometry":["point","vertex","area"],"matchScore":2,"terms":["lyft","lyft bike","nice ride minnesota"],"fields":["name","brand","{amenity/bicycle_rental}"],"searchable":false,"tags":{"amenity":"bicycle_rental","brand:wikidata":"Q16982804"},"addTags":{"amenity":"bicycle_rental","brand":"Nice Ride Minnesota","brand:wikidata":"Q16982804","fee":"yes","name":"Nice Ride Minnesota","network":"Nice Ride Minnesota","network:wikidata":"Q16982804","operator":"Lyft","operator:type":"private","operator:wikidata":"Q17077936"}},"amenity/car_wash/kwiktrip-3ffd21":{"name":"Kwik Trip","locationSet":{"include":["us-mi","us-mn","us-wi"]},"geometry":["point","area"],"matchScore":2,"terms":["kwik trip"],"tags":{"amenity":"car_wash","brand:wikidata":"Q6450420"},"addTags":{"amenity":"car_wash","brand":"Kwik Trip","brand:wikidata":"Q6450420","name":"Kwik Trip"}},"amenity/clinic/veinclinicsofamerica-12a747":{"name":"Vein Clinics of America","locationSet":{"include":["us-ct","us-ga","us-il","us-in","us-ks","us-md","us-mn","us-mo","us-nc","us-oh","us-tn","us-tx","us-va","us-wi"]},"geometry":["point","area"],"matchScore":2,"terms":["vein clinics of america"],"reference":{"key":"amenity","value":"clinic"},"tags":{"amenity":"clinic","brand:wikidata":"Q113712355"},"addTags":{"amenity":"clinic","brand":"Vein Clinics of America","brand:wikidata":"Q113712355","healthcare":"clinic"}},"amenity/fast_food/alohapokeco-6b3f2b":{"name":"Aloha Pok Co","locationSet":{"include":["us-dc","us-fl","us-ga","us-il","us-mn","us-tx","us-wi"]},"geometry":["point","area"],"matchScore":2,"terms":["aloha pok co"],"tags":{"amenity":"fast_food","brand:wikidata":"Q111231031"},"addTags":{"amenity":"fast_food","brand":"Aloha Pok Co","brand:wikidata":"Q111231031","cuisine":"poke","name":"Aloha Pok Co","takeaway":"yes"}},"amenity/fast_food/donut/duckdonuts-6333a9":{"name":"Duck Donuts","locationSet":{"include":["ca-on","eg","sa","us-ar","us-az","us-ca","us-co","us-fl","us-ga","us-id","us-il","us-ks","us-ky","us-md","us-mi","us-mn","us-mo","us-nc","us-nj","us-ny","us-oh","us-pa","us-sc","us-tn","us-tx","us-ut","us-va"]},"geometry":["point","area"],"matchScore":2,"terms":["duck donuts","duck doughnuts"],"reference":{"key":"cuisine","value":"donut"},"tags":{"amenity":"fast_food","brand:wikidata":"Q54958282","cuisine":"donut"},"addTags":{"amenity":"fast_food","brand":"Duck Donuts","brand:wikidata":"Q54958282","cuisine":"donut","name":"Duck Donuts","takeaway":"yes"}},"amenity/fuel/kwiktrip-076225":{"name":"Kwik Trip","locationSet":{"include":["us-mi","us-mn","us-wi"]},"geometry":["point","area"],"matchScore":2,"terms":["kwik trip"],"fields":["name","brand","{amenity/fuel}"],"tags":{"amenity":"fuel","brand:wikidata":"Q6450420"},"addTags":{"amenity":"fuel","brand":"Kwik Trip","brand:wikidata":"Q6450420","name":"Kwik Trip"}},"amenity/restaurant/nafnafgrill-8ff1c6":{"name":"Naf Naf Grill","locationSet":{"include":["us-fl","us-ga","us-il","us-in","us-mn","us-nj","us-oh","us-pa","us-sc","us-tn","us-tx","us-wi"]},"geometry":["point","area"],"matchScore":2,"terms":["naf naf grill"],"tags":{"amenity":"restaurant","brand:wikidata":"Q111901442"},"addTags":{"amenity":"restaurant","brand":"Naf Naf Grill","brand:wikidata":"Q111901442","cuisine":"middle_eastern","name":"Naf Naf Grill"}},"leisure/sports_centre/xgolf-8a88af":{"name":"X Golf","locationSet":{"include":["us-al","us-co","us-ga","us-il","us-in","us-ks","us-ma","us-me","us-mi","us-mn","us-mo","us-nd","us-ne","us-ny","us-oh","us-or","us-pa","us-ri","us-sc","us-sd","us-ut","us-va","us-wa","us-wi"]},"geometry":["point","area"],"matchScore":2,"terms":["x golf"],"fields":["name","brand","{leisure/sports_centre}"],"tags":{"brand:wikidata":"Q111585369","leisure":"sports_centre"},"addTags":{"brand":"X Golf","brand:wikidata":"Q111585369","indoor":"yes","leisure":"sports_centre","name":"X Golf","sport":"golf"}},"shop/convenience/kwiktrip-345f5f":{"name":"Kwik Trip","locationSet":{"include":["us-mi","us-mn","us-wi"]},"geometry":["point","area"],"matchScore":2,"terms":["kwik trip"],"tags":{"brand:wikidata":"Q6450420","shop":"convenience"},"addTags":{"brand":"Kwik Trip","brand:wikidata":"Q6450420","name":"Kwik Trip","shop":"convenience"}},"shop/storage_rental/metroselfstorage-5b962b":{"name":"Metro Self Storage","locationSet":{"include":["us-al","us-ct","us-fl","us-ga","us-il","us-mn","us-nj","us-ny","us-pa","us-tn","us-tx","us-wi"]},"geometry":["point","area"],"matchScore":2,"terms":["metro self storage"],"tags":{"brand:wikidata":"Q114515454","shop":"storage_rental"},"addTags":{"brand":"Metro Self Storage","brand:wikidata":"Q114515454","name":"Metro Self Storage","shop":"storage_rental"}},"shop/storage_rental/thelockup-913626":{"name":"The Lock Up","locationSet":{"include":["us-ct","us-fl","us-hi","us-il","us-ma","us-mn","us-nj","us-ny"]},"geometry":["point","area"],"matchScore":2,"terms":["the lock up"],"tags":{"brand:wikidata":"Q17089825","shop":"storage_rental"},"addTags":{"brand":"The Lock Up","brand:wikidata":"Q17089825","name":"The Lock Up","shop":"storage_rental"}},"shop/trade/americanroofingsupply-930674":{"name":"American Roofing Supply","locationSet":{"include":["us-az","us-co","us-id","us-il","us-in","us-mn","us-nd","us-ne","us-sd","us-wi"]},"geometry":["point","area"],"matchScore":2,"terms":["american roofing supply"],"tags":{"brand:wikidata":"Q114515313","shop":"trade"},"addTags":{"brand":"American Roofing Supply","brand:wikidata":"Q114515313","name":"American Roofing Supply","shop":"trade","trade":"roofing"}},"shop/trade/zieglercat-b606bc":{"name":"Ziegler CAT","locationSet":{"include":["us-ia","us-mn","us-mo","us-wi"]},"geometry":["point","area"],"matchScore":2,"terms":["ziegler cat"],"tags":{"brand:wikidata":"Q109619444","shop":"trade"},"addTags":{"brand":"Ziegler CAT","brand:wikidata":"Q109619444","name":"Ziegler CAT","shop":"trade","trade":"construction_equipment"}},"amenity/fire_station/saintpaulfiredepartment-6b79bb":{"name":"Saint Paul Fire Department","locationSet":{"include":["us-mn"]},"geometry":["point","area"],"matchScore":2,"terms":["saint paul fire department"],"tags":{"amenity":"fire_station","operator:wikidata":"Q17108712"},"addTags":{"amenity":"fire_station","operator":"Saint Paul Fire Department","operator:wikidata":"Q17108712"}},"amenity/library/hennepincountylibrary-8eb121":{"name":"Hennepin County Library","locationSet":{"include":["us-mn"]},"geometry":["point","area"],"matchScore":2,"terms":["hcl","hennepin county library"],"tags":{"amenity":"library","operator:wikidata":"Q530512"},"addTags":{"amenity":"library","operator":"Hennepin County Library","operator:short":"HCL","operator:type":"public","operator:wikidata":"Q530512"}},"amenity/library/lakeagassizregionallibrary-8eb121":{"name":"Lake Agassiz Regional Library","locationSet":{"include":["us-mn"]},"geometry":["point","area"],"matchScore":2,"terms":["lake agassiz regional library","lake agassiz regional library system","larl"],"tags":{"amenity":"library","operator:wikidata":"Q69480699"},"addTags":{"amenity":"library","operator":"Lake Agassiz Regional Library","operator:short":"LARL","operator:type":"public","operator:wikidata":"Q69480699"}},"amenity/school/centennialschooldistrict-177d23":{"name":"Centennial School District (Minnesota)","locationSet":{"include":["us-mn"]},"geometry":["area","point"],"matchScore":2,"terms":["centennial school district","csd","independent school district 12","isd12"],"tags":{"amenity":"school","operator:wikidata":"Q5059209"},"addTags":{"amenity":"school","operator":"Centennial School District","operator:short":"CSD","operator:type":"public","operator:wikidata":"Q5059209"}},"amenity/school/minneapolispublicschools-177d23":{"name":"Minneapolis Public Schools","locationSet":{"include":["us-mn"]},"geometry":["area","point"],"matchScore":2,"terms":["minneapolis public schools","mps"],"tags":{"amenity":"school","operator:wikidata":"Q6868026"},"addTags":{"amenity":"school","operator":"Minneapolis Public Schools","operator:short":"MPS","operator:type":"public","operator:wikidata":"Q6868026"}},"amenity/school/osseoareaschools-177d23":{"name":"Osseo Area Schools","locationSet":{"include":["us-mn"]},"geometry":["area","point"],"matchScore":2,"terms":["isd 279","osseo area schools","osseo area schools district 279"],"tags":{"amenity":"school","operator:wikidata":"Q7107427"},"addTags":{"amenity":"school","operator":"Osseo Area Schools","operator:short":"ISD 279","operator:type":"public","operator:wikidata":"Q7107427"}},"amenity/school/robbinsdaleareaschools-177d23":{"name":"Robbinsdale Area Schools","locationSet":{"include":["us-mn"]},"geometry":["area","point"],"matchScore":2,"terms":["robbinsdale area schools","robbinsdale area schools district 281"],"tags":{"amenity":"school","operator:wikidata":"Q7341072"},"addTags":{"amenity":"school","operator":"Robbinsdale Area Schools","operator:type":"public","operator:wikidata":"Q7341072"}},"amenity/school/saintpaulpublicschools-177d23":{"name":"Saint Paul Public Schools","locationSet":{"include":["us-mn"]},"geometry":["area","point"],"matchScore":2,"terms":["saint paul public schools","spps"],"tags":{"amenity":"school","operator:wikidata":"Q5555108"},"addTags":{"amenity":"school","operator":"Saint Paul Public Schools","operator:short":"SPPS","operator:type":"public","operator:wikidata":"Q5555108"}},"boundary/minnesotadepartmentofnaturalresources-24a567":{"name":"Minnesota DNR","locationSet":{"include":["us-mn"]},"geometry":["line"],"matchScore":2,"terms":["minnesota department of natural resources"],"tags":{"boundary":"protected_area","operator:wikidata":"Q6868223"},"addTags":{"boundary":"protected_area","operator":"Minnesota Department of Natural Resources","operator:wikidata":"Q6868223"}},"emergency/siren/cityofbloomington-639ea2":{"name":"City of Bloomington","locationSet":{"include":["us-mn"]},"geometry":["point","vertex"],"matchScore":2,"terms":["city of bloomington"],"tags":{"emergency":"siren","operator:wikidata":"Q490737"},"addTags":{"emergency":"siren","operator":"City of Bloomington","operator:wikidata":"Q490737"}},"emergency/siren/cityofbrooklynpark-639ea2":{"name":"City of Brooklyn Park","locationSet":{"include":["us-mn"]},"geometry":["point","vertex"],"matchScore":2,"terms":["city of brooklyn park"],"tags":{"emergency":"siren","operator:wikidata":"Q864128"},"addTags":{"emergency":"siren","operator":"City of Brooklyn Park","operator:wikidata":"Q864128"}},"emergency/siren/cityofedenprairie-639ea2":{"name":"City of Eden Prairie","locationSet":{"include":["us-mn"]},"geometry":["point","vertex"],"matchScore":2,"terms":["city of eden prairie"],"tags":{"emergency":"siren","operator:wikidata":"Q985558"},"addTags":{"emergency":"siren","operator":"City of Eden Prairie","operator:wikidata":"Q985558"}},"emergency/siren/cityofminneapolis-639ea2":{"name":"City of Minneapolis","locationSet":{"include":["us-mn"]},"geometry":["point","vertex"],"matchScore":2,"terms":["city of minneapolis"],"tags":{"emergency":"siren","operator:wikidata":"Q36091"},"addTags":{"emergency":"siren","operator":"City of Minneapolis","operator:wikidata":"Q36091"}},"emergency/siren/cityofplymouth-639ea2":{"name":"City of Plymouth","locationSet":{"include":["us-mn"]},"geometry":["point","vertex"],"matchScore":2,"terms":["city of plymouth"],"tags":{"emergency":"siren","operator:wikidata":"Q936753"},"addTags":{"emergency":"siren","operator":"City of Plymouth","operator:wikidata":"Q936753"}},"emergency/siren/universityofminnesota-639ea2":{"name":"University of Minnesota","locationSet":{"include":["us-mn"]},"geometry":["point","vertex"],"matchScore":2,"terms":["university of minnesota"],"tags":{"emergency":"siren","operator:wikidata":"Q238101"},"addTags":{"emergency":"siren","operator":"University of Minnesota","operator:wikidata":"Q238101"}},"leisure/nature_reserve/cityofandover-19fc0b":{"name":"City of Andover","locationSet":{"include":["us-mn"]},"geometry":["area","point"],"matchScore":2,"terms":["city of andover"],"tags":{"leisure":"nature_reserve","operator:wikidata":"Q492833"},"addTags":{"leisure":"nature_reserve","operator":"City of Andover","operator:wikidata":"Q492833"}},"leisure/nature_reserve/cityofblaine-19fc0b":{"name":"City of Blaine (Minnesota)","locationSet":{"include":["us-mn"]},"geometry":["area","point"],"matchScore":2,"terms":["city of blaine"],"tags":{"leisure":"nature_reserve","operator:wikidata":"Q881140"},"addTags":{"leisure":"nature_reserve","operator":"City of Blaine","operator:type":"public","operator:wikidata":"Q881140"}},"leisure/nature_reserve/cityofmahtomedi-19fc0b":{"name":"City of Mahtomedi","locationSet":{"include":["us-mn"]},"geometry":["area","point"],"matchScore":2,"terms":["city of mahtomedi"],"tags":{"leisure":"nature_reserve","operator:wikidata":"Q1924308"},"addTags":{"leisure":"nature_reserve","operator":"City of Mahtomedi","operator:type":"public","operator:wikidata":"Q1924308"}},"leisure/nature_reserve/cityofrochester-19fc0b":{"name":"City of Rochester (Minnesota)","locationSet":{"include":["us-mn"]},"geometry":["area","point"],"matchScore":2,"terms":["city of rochester"],"tags":{"leisure":"nature_reserve","operator:wikidata":"Q486479"},"addTags":{"leisure":"nature_reserve","operator":"City of Rochester","operator:type":"public","operator:wikidata":"Q486479"}},"leisure/nature_reserve/cityofrogers-19fc0b":{"name":"City of Rogers","locationSet":{"include":["us-mn"]},"geometry":["area","point"],"matchScore":2,"terms":["city of rogers"],"tags":{"leisure":"nature_reserve","operator:wikidata":"Q1924299"},"addTags":{"leisure":"nature_reserve","operator":"City of Rogers","operator:wikidata":"Q1924299"}},"leisure/nature_reserve/cityofwarren-19fc0b":{"name":"City of Warren (Minnesota)","locationSet":{"include":["us-mn"]},"geometry":["area","point"],"matchScore":2,"terms":["city of warren"],"tags":{"leisure":"nature_reserve","operator:wikidata":"Q1903308"},"addTags":{"leisure":"nature_reserve","operator":"City of Warren","operator:wikidata":"Q1903308"}},"leisure/nature_reserve/cityofwoodbury-19fc0b":{"name":"City of Woodbury (Minnesota)","locationSet":{"include":["us-mn"]},"geometry":["area","point"],"matchScore":2,"terms":["city of woodbury"],"tags":{"leisure":"nature_reserve","operator:wikidata":"Q862672"},"addTags":{"leisure":"nature_reserve","operator":"City of Woodbury","operator:type":"public","operator:wikidata":"Q862672"}},"leisure/nature_reserve/jacksoncounty-19fc0b":{"name":"Jackson County (Minnesota)","locationSet":{"include":["us-mn"]},"geometry":["area","point"],"matchScore":2,"terms":["jackson county"],"tags":{"leisure":"nature_reserve","operator:wikidata":"Q486215"},"addTags":{"leisure":"nature_reserve","operator":"Jackson County","operator:wikidata":"Q486215"}},"leisure/nature_reserve/maplegroveparksandrecreation-19fc0b":{"name":"Maple Grove Parks and Recreation","locationSet":{"include":["us-mn"]},"geometry":["area","point"],"matchScore":2,"terms":["city of maple grove parks & recreation","maple grove parks and recreation"],"tags":{"leisure":"nature_reserve","operator:wikidata":"Q110063767"},"addTags":{"leisure":"nature_reserve","operator":"Maple Grove Parks and Recreation","operator:type":"public","operator:wikidata":"Q110063767"}},"leisure/nature_reserve/minneapolisparkandrecreationboard-19fc0b":{"name":"Minneapolis Park and Recreation Board","locationSet":{"include":["us-mn"]},"geometry":["area","point"],"matchScore":2,"terms":["minneapolis park and recreation board"],"tags":{"leisure":"nature_reserve","operator:wikidata":"Q46750735"},"addTags":{"leisure":"nature_reserve","operator":"Minneapolis Park and Recreation Board","operator:type":"public","operator:wikidata":"Q46750735"}},"leisure/nature_reserve/minnesotadepartmentofnaturalresources-19fc0b":{"name":"Minnesota DNR","locationSet":{"include":["us-mn"]},"geometry":["area","point"],"matchScore":2,"terms":["minnesota department of natural resources","minnesota dnr","minnesota state parks"],"tags":{"leisure":"nature_reserve","operator:wikidata":"Q6868223"},"addTags":{"leisure":"nature_reserve","operator":"Minnesota Department of Natural Resources","operator:short":"Minnesota DNR","operator:type":"public","operator:wikidata":"Q6868223"}},"leisure/nature_reserve/saintpauldepartmentofparksandrecreation-19fc0b":{"name":"Saint Paul Department of Parks and Recreation","locationSet":{"include":["us-mn"]},"geometry":["area","point"],"matchScore":2,"terms":["saint paul department of parks and recreation"],"tags":{"leisure":"nature_reserve","operator:wikidata":"Q123583563"},"addTags":{"leisure":"nature_reserve","operator":"Saint Paul Department of Parks and Recreation","operator:type":"public","operator:wikidata":"Q123583563"}},"leisure/park/cityofandover-853554":{"name":"City of Andover","locationSet":{"include":["us-mn"]},"geometry":["area","point"],"matchScore":2,"terms":["city of andover"],"tags":{"leisure":"park","operator:wikidata":"Q492833"},"addTags":{"leisure":"park","operator":"City of Andover","operator:wikidata":"Q492833"}},"leisure/park/cityofblaine-853554":{"name":"City of Blaine (Minnesota)","locationSet":{"include":["us-mn"]},"geometry":["area","point"],"matchScore":2,"terms":["city of blaine"],"tags":{"leisure":"park","operator:wikidata":"Q881140"},"addTags":{"leisure":"park","operator":"City of Blaine","operator:type":"public","operator:wikidata":"Q881140"}},"leisure/park/cityofmahtomedi-853554":{"name":"City of Mahtomedi","locationSet":{"include":["us-mn"]},"geometry":["area","point"],"matchScore":2,"terms":["city of mahtomedi"],"tags":{"leisure":"park","operator:wikidata":"Q1924308"},"addTags":{"leisure":"park","operator":"City of Mahtomedi","operator:type":"public","operator:wikidata":"Q1924308"}},"leisure/park/cityofrochester-853554":{"name":"City of Rochester (Minnesota)","locationSet":{"include":["us-mn"]},"geometry":["area","point"],"matchScore":2,"terms":["city of rochester"],"tags":{"leisure":"park","operator:wikidata":"Q486479"},"addTags":{"leisure":"park","operator":"City of Rochester","operator:type":"public","operator:wikidata":"Q486479"}},"leisure/park/cityofrogers-853554":{"name":"City of Rogers","locationSet":{"include":["us-mn"]},"geometry":["area","point"],"matchScore":2,"terms":["city of rogers"],"tags":{"leisure":"park","operator:wikidata":"Q1924299"},"addTags":{"leisure":"park","operator":"City of Rogers","operator:wikidata":"Q1924299"}},"leisure/park/cityofwarren-853554":{"name":"City of Warren (Minnesota)","locationSet":{"include":["us-mn"]},"geometry":["area","point"],"matchScore":2,"terms":["city of warren"],"tags":{"leisure":"park","operator:wikidata":"Q1903308"},"addTags":{"leisure":"park","operator":"City of Warren","operator:wikidata":"Q1903308"}},"leisure/park/cityofwoodbury-853554":{"name":"City of Woodbury (Minnesota)","locationSet":{"include":["us-mn"]},"geometry":["area","point"],"matchScore":2,"terms":["city of woodbury"],"tags":{"leisure":"park","operator:wikidata":"Q862672"},"addTags":{"leisure":"park","operator":"City of Woodbury","operator:type":"public","operator:wikidata":"Q862672"}},"leisure/park/jacksoncounty-853554":{"name":"Jackson County (Minnesota)","locationSet":{"include":["us-mn"]},"geometry":["area","point"],"matchScore":2,"terms":["jackson county"],"tags":{"leisure":"park","operator:wikidata":"Q486215"},"addTags":{"leisure":"park","operator":"Jackson County","operator:wikidata":"Q486215"}},"leisure/park/maplegroveparksandrecreation-853554":{"name":"Maple Grove Parks and Recreation","locationSet":{"include":["us-mn"]},"geometry":["area","point"],"matchScore":2,"terms":["city of maple grove parks & recreation","maple grove parks and recreation"],"tags":{"leisure":"park","operator:wikidata":"Q110063767"},"addTags":{"leisure":"park","operator":"Maple Grove Parks and Recreation","operator:type":"public","operator:wikidata":"Q110063767"}},"leisure/park/minneapolisparkandrecreationboard-853554":{"name":"Minneapolis Park and Recreation Board","locationSet":{"include":["us-mn"]},"geometry":["area","point"],"matchScore":2,"terms":["minneapolis park and recreation board"],"tags":{"leisure":"park","operator:wikidata":"Q46750735"},"addTags":{"leisure":"park","operator":"Minneapolis Park and Recreation Board","operator:type":"public","operator:wikidata":"Q46750735"}},"leisure/park/minnesotadepartmentofnaturalresources-853554":{"name":"Minnesota DNR","locationSet":{"include":["us-mn"]},"geometry":["area","point"],"matchScore":2,"terms":["minnesota department of natural resources","minnesota dnr","minnesota state parks"],"tags":{"leisure":"park","operator:wikidata":"Q6868223"},"addTags":{"leisure":"park","operator":"Minnesota Department of Natural Resources","operator:short":"Minnesota DNR","operator:type":"public","operator:wikidata":"Q6868223"}},"leisure/park/saintpauldepartmentofparksandrecreation-853554":{"name":"Saint Paul Department of Parks and Recreation","locationSet":{"include":["us-mn"]},"geometry":["area","point"],"matchScore":2,"terms":["saint paul department of parks and recreation"],"tags":{"leisure":"park","operator:wikidata":"Q123583563"},"addTags":{"leisure":"park","operator":"Saint Paul Department of Parks and Recreation","operator:type":"public","operator:wikidata":"Q123583563"}},"leisure/pitch/universityofminnesota-8586be":{"name":"University of Minnesota","locationSet":{"include":["us-mn"]},"geometry":["area","point"],"matchScore":2,"terms":["university of minnesota"],"tags":{"leisure":"pitch","operator:wikidata":"Q238101"},"addTags":{"leisure":"pitch","operator":"University of Minnesota","operator:wikidata":"Q238101"}},"man_made/monitoring_station/northdakotaagriculturalweathernetwork-72daba":{"name":"North Dakota Agricultural Weather Network","locationSet":{"include":["us-mn","us-mt","us-nd"]},"geometry":["point","vertex","area"],"matchScore":2,"terms":["ndawn","north dakota agricultural weather network"],"fields":["name","operator","{man_made/monitoring_station}"],"tags":{"man_made":"monitoring_station","operator:wikidata":"Q128430471"},"addTags":{"man_made":"monitoring_station","operator":"North Dakota Agricultural Weather Network","operator:short":"NDAWN","operator:type":"university","operator:wikidata":"Q128430471"}},"power/line/eastriverelectricpowercooperative-389441":{"name":"East River Electric Power Cooperative","locationSet":{"include":["us-mn","us-sd"]},"geometry":["line"],"matchScore":2,"terms":["east river electric power cooperative"],"tags":{"operator:wikidata":"Q115691208","power":"line"},"addTags":{"operator":"East River Electric Power Cooperative","operator:wikidata":"Q115691208","power":"line"}},"power/line/marshallmunicipalutilities-16a6a1":{"name":"Marshall Municipal Utilities","locationSet":{"include":["us-mn"]},"geometry":["line"],"matchScore":2,"terms":["marshall municipal utilities"],"tags":{"operator:wikidata":"Q115691708","power":"line"},"addTags":{"operator":"Marshall Municipal Utilities","operator:wikidata":"Q115691708","power":"line"}},"power/line/minnesotavalleycooperativelightandpowerassociation-16a6a1":{"name":"Minnesota Valley Cooperative Light & Power Association","locationSet":{"include":["us-mn"]},"geometry":["line"],"matchScore":2,"terms":["minnesota valley cooperative light & power association"],"tags":{"operator:wikidata":"Q115691727","power":"line"},"addTags":{"operator":"Minnesota Valley Cooperative Light & Power Association","operator:wikidata":"Q115691727","power":"line"}},"power/line/minnkotapowercooperative-982f8f":{"name":"Minnkota Power Cooperative","locationSet":{"include":["us-mn","us-nd"]},"geometry":["line"],"matchScore":2,"terms":["minnkota power cooperative"],"tags":{"operator:wikidata":"Q6868862","power":"line"},"addTags":{"operator":"Minnkota Power Cooperative","operator:wikidata":"Q6868862","power":"line"}},"power/line/ottertailpowercompany-59ff21":{"name":"Otter Tail Power Company","locationSet":{"include":["us-mn","us-nd","us-sd"]},"geometry":["line"],"matchScore":2,"terms":["otter tail power company"],"tags":{"operator:wikidata":"Q7109415","power":"line"},"addTags":{"operator":"Otter Tail Power Company","operator:wikidata":"Q7109415","power":"line"}},"power/minor_line/eastriverelectricpowercooperative-0861a1":{"name":"East River Electric Power Cooperative","locationSet":{"include":["us-mn","us-sd"]},"geometry":["line"],"matchScore":2,"terms":["east river electric power cooperative"],"tags":{"operator:wikidata":"Q115691208","power":"minor_line"},"addTags":{"operator":"East River Electric Power Cooperative","operator:wikidata":"Q115691208","power":"minor_line"}},"power/minor_line/marshallmunicipalutilities-7acf5a":{"name":"Marshall Municipal Utilities","locationSet":{"include":["us-mn"]},"geometry":["line"],"matchScore":2,"terms":["marshall municipal utilities"],"tags":{"operator:wikidata":"Q115691708","power":"minor_line"},"addTags":{"operator":"Marshall Municipal Utilities","operator:wikidata":"Q115691708","power":"minor_line"}},"power/minor_line/minnesotavalleycooperativelightandpowerassociation-7acf5a":{"name":"Minnesota Valley Cooperative Light & Power Association","locationSet":{"include":["us-mn"]},"geometry":["line"],"matchScore":2,"terms":["minnesota valley cooperative light & power association"],"tags":{"operator:wikidata":"Q115691727","power":"minor_line"},"addTags":{"operator":"Minnesota Valley Cooperative Light & Power Association","operator:wikidata":"Q115691727","power":"minor_line"}},"power/minor_line/minnkotapowercooperative-93f57a":{"name":"Minnkota Power Cooperative","locationSet":{"include":["us-mn","us-nd"]},"geometry":["line"],"matchScore":2,"terms":["minnkota power cooperative"],"tags":{"operator:wikidata":"Q6868862","power":"minor_line"},"addTags":{"operator":"Minnkota Power Cooperative","operator:wikidata":"Q6868862","power":"minor_line"}},"power/minor_line/ottertailpowercompany-a52be3":{"name":"Otter Tail Power Company","locationSet":{"include":["us-mn","us-nd","us-sd"]},"geometry":["line"],"matchScore":2,"terms":["otter tail power company"],"tags":{"operator:wikidata":"Q7109415","power":"minor_line"},"addTags":{"operator":"Otter Tail Power Company","operator:wikidata":"Q7109415","power":"minor_line"}},"power/pole/eastriverelectricpowercooperative-62cd2a":{"name":"East River Electric Power Cooperative","locationSet":{"include":["us-mn","us-sd"]},"geometry":["point","vertex"],"matchScore":2,"terms":["east river electric power cooperative"],"tags":{"operator:wikidata":"Q115691208","power":"pole"},"addTags":{"operator":"East River Electric Power Cooperative","operator:wikidata":"Q115691208","power":"pole"}},"power/pole/marshallmunicipalutilities-a6a90b":{"name":"Marshall Municipal Utilities","locationSet":{"include":["us-mn"]},"geometry":["point","vertex"],"matchScore":2,"terms":["marshall municipal utilities"],"tags":{"operator:wikidata":"Q115691708","power":"pole"},"addTags":{"operator":"Marshall Municipal Utilities","operator:wikidata":"Q115691708","power":"pole"}},"power/pole/minnesotavalleycooperativelightandpowerassociation-a6a90b":{"name":"Minnesota Valley Cooperative Light & Power Association","locationSet":{"include":["us-mn"]},"geometry":["point","vertex"],"matchScore":2,"terms":["minnesota valley cooperative light & power association"],"tags":{"operator:wikidata":"Q115691727","power":"pole"},"addTags":{"operator":"Minnesota Valley Cooperative Light & Power Association","operator:wikidata":"Q115691727","power":"pole"}},"power/pole/minnkotapowercooperative-add366":{"name":"Minnkota Power Cooperative","locationSet":{"include":["us-mn","us-nd"]},"geometry":["point","vertex"],"matchScore":2,"terms":["minnkota power cooperative"],"tags":{"operator:wikidata":"Q6868862","power":"pole"},"addTags":{"operator":"Minnkota Power Cooperative","operator:wikidata":"Q6868862","power":"pole"}},"power/pole/ottertailpowercompany-940dba":{"name":"Otter Tail Power Company","locationSet":{"include":["us-mn","us-nd","us-sd"]},"geometry":["point","vertex"],"matchScore":2,"terms":["otter tail power company"],"tags":{"operator:wikidata":"Q7109415","power":"pole"},"addTags":{"operator":"Otter Tail Power Company","operator:wikidata":"Q7109415","power":"pole"}},"power/substation/eastriverelectricpowercooperative-148f21":{"name":"East River Electric Power Cooperative","locationSet":{"include":["us-mn","us-sd"]},"geometry":["area","point"],"matchScore":2,"terms":["east river electric power cooperative"],"tags":{"operator:wikidata":"Q115691208","power":"substation"},"addTags":{"operator":"East River Electric Power Cooperative","operator:wikidata":"Q115691208","power":"substation"}},"power/substation/marshallmunicipalutilities-2f1b0a":{"name":"Marshall Municipal Utilities","locationSet":{"include":["us-mn"]},"geometry":["area","point"],"matchScore":2,"terms":["marshall municipal utilities"],"tags":{"operator:wikidata":"Q115691708","power":"substation"},"addTags":{"operator":"Marshall Municipal Utilities","operator:wikidata":"Q115691708","power":"substation"}},"power/substation/minnesotavalleycooperativelightandpowerassociation-2f1b0a":{"name":"Minnesota Valley Cooperative Light & Power Association","locationSet":{"include":["us-mn"]},"geometry":["area","point"],"matchScore":2,"terms":["minnesota valley cooperative light & power association"],"tags":{"operator:wikidata":"Q115691727","power":"substation"},"addTags":{"operator":"Minnesota Valley Cooperative Light & Power Association","operator:wikidata":"Q115691727","power":"substation"}},"power/substation/minnkotapowercooperative-d70eed":{"name":"Minnkota Power Cooperative","locationSet":{"include":["us-mn","us-nd"]},"geometry":["area","point"],"matchScore":2,"terms":["minnkota power cooperative"],"tags":{"operator:wikidata":"Q6868862","power":"substation"},"addTags":{"operator":"Minnkota Power Cooperative","operator:wikidata":"Q6868862","power":"substation"}},"power/substation/ottertailpowercompany-18f2a7":{"name":"Otter Tail Power Company","locationSet":{"include":["us-mn","us-nd","us-sd"]},"geometry":["area","point"],"matchScore":2,"terms":["otter tail power company"],"tags":{"operator:wikidata":"Q7109415","power":"substation"},"addTags":{"operator":"Otter Tail Power Company","operator:wikidata":"Q7109415","power":"substation"}},"power/tower/eastriverelectricpowercooperative-4ce78d":{"name":"East River Electric Power Cooperative","locationSet":{"include":["us-mn","us-sd"]},"geometry":["point","vertex"],"matchScore":2,"terms":["east river electric power cooperative"],"tags":{"operator:wikidata":"Q115691208","power":"tower"},"addTags":{"operator":"East River Electric Power Cooperative","operator:wikidata":"Q115691208","power":"tower"}},"power/tower/marshallmunicipalutilities-02d934":{"name":"Marshall Municipal Utilities","locationSet":{"include":["us-mn"]},"geometry":["point","vertex"],"matchScore":2,"terms":["marshall municipal utilities"],"tags":{"operator:wikidata":"Q115691708","power":"tower"},"addTags":{"operator":"Marshall Municipal Utilities","operator:wikidata":"Q115691708","power":"tower"}},"power/tower/minnesotavalleycooperativelightandpowerassociation-02d934":{"name":"Minnesota Valley Cooperative Light & Power Association","locationSet":{"include":["us-mn"]},"geometry":["point","vertex"],"matchScore":2,"terms":["minnesota valley cooperative light & power association"],"tags":{"operator:wikidata":"Q115691727","power":"tower"},"addTags":{"operator":"Minnesota Valley Cooperative Light & Power Association","operator:wikidata":"Q115691727","power":"tower"}},"power/tower/minnkotapowercooperative-5a1a5f":{"name":"Minnkota Power Cooperative","locationSet":{"include":["us-mn","us-nd"]},"geometry":["point","vertex"],"matchScore":2,"terms":["minnkota power cooperative"],"tags":{"operator:wikidata":"Q6868862","power":"tower"},"addTags":{"operator":"Minnkota Power Cooperative","operator:wikidata":"Q6868862","power":"tower"}},"power/tower/ottertailpowercompany-435ecb":{"name":"Otter Tail Power Company","locationSet":{"include":["us-mn","us-nd","us-sd"]},"geometry":["point","vertex"],"matchScore":2,"terms":["otter tail power company"],"tags":{"operator:wikidata":"Q7109415","power":"tower"},"addTags":{"operator":"Otter Tail Power Company","operator:wikidata":"Q7109415","power":"tower"}},"power/transformer/eastriverelectricpowercooperative-06599d":{"name":"East River Electric Power Cooperative","locationSet":{"include":["us-mn","us-sd"]},"geometry":["point","vertex"],"matchScore":2,"terms":["east river electric power cooperative"],"tags":{"operator:wikidata":"Q115691208","power":"transformer"},"addTags":{"operator":"East River Electric Power Cooperative","operator:wikidata":"Q115691208","power":"transformer"}},"power/transformer/marshallmunicipalutilities-c7fa5f":{"name":"Marshall Municipal Utilities","locationSet":{"include":["us-mn"]},"geometry":["point","vertex"],"matchScore":2,"terms":["marshall municipal utilities"],"tags":{"operator:wikidata":"Q115691708","power":"transformer"},"addTags":{"operator":"Marshall Municipal Utilities","operator:wikidata":"Q115691708","power":"transformer"}},"power/transformer/minnesotavalleycooperativelightandpowerassociation-c7fa5f":{"name":"Minnesota Valley Cooperative Light & Power Association","locationSet":{"include":["us-mn"]},"geometry":["point","vertex"],"matchScore":2,"terms":["minnesota valley cooperative light & power association"],"tags":{"operator:wikidata":"Q115691727","power":"transformer"},"addTags":{"operator":"Minnesota Valley Cooperative Light & Power Association","operator:wikidata":"Q115691727","power":"transformer"}},"power/transformer/minnkotapowercooperative-47dd8c":{"name":"Minnkota Power Cooperative","locationSet":{"include":["us-mn","us-nd"]},"geometry":["point","vertex"],"matchScore":2,"terms":["minnkota power cooperative"],"tags":{"operator:wikidata":"Q6868862","power":"transformer"},"addTags":{"operator":"Minnkota Power Cooperative","operator:wikidata":"Q6868862","power":"transformer"}},"power/transformer/ottertailpowercompany-88d76c":{"name":"Otter Tail Power Company","locationSet":{"include":["us-mn","us-nd","us-sd"]},"geometry":["point","vertex"],"matchScore":2,"terms":["otter tail power company"],"tags":{"operator:wikidata":"Q7109415","power":"transformer"},"addTags":{"operator":"Otter Tail Power Company","operator:wikidata":"Q7109415","power":"transformer"}},"shop/charity/goodwillofthegreatplains-830112":{"name":"Goodwill of the Great Plains","locationSet":{"include":["us-ia","us-mn","us-ne","us-sd"]},"geometry":["point","area"],"matchScore":2,"terms":["goodwill","goodwill of the great plains"],"tags":{"operator:wikidata":"Q109722223","shop":"charity"},"addTags":{"brand":"Goodwill","brand:wikidata":"Q5583655","name":"Goodwill","operator":"Goodwill of the Great Plains","operator:wikidata":"Q109722223","shop":"charity"}},"shop/charity/goodwilleastersealsminnesota-d58266":{"name":"Goodwill-Easter Seals Minnesota","locationSet":{"include":["us-mn","us-wi"]},"geometry":["point","area"],"matchScore":2,"terms":["goodwill","goodwill-easter seals minnesota"],"tags":{"operator:wikidata":"Q126898825","shop":"charity"},"addTags":{"brand":"Goodwill","brand:wikidata":"Q5583655","name":"Goodwill","operator":"Goodwill-Easter Seals Minnesota","operator:wikidata":"Q126898825","shop":"charity"}},"shop/charity/truenorthgoodwill-d58266":{"name":"True North Goodwill","locationSet":{"include":["us-mn","us-wi"]},"geometry":["point","area"],"matchScore":2,"terms":["goodwill","true north goodwill"],"tags":{"operator:wikidata":"Q126898900","shop":"charity"},"addTags":{"brand":"Goodwill","brand:wikidata":"Q5583655","name":"Goodwill","operator":"True North Goodwill","operator:wikidata":"Q126898900","shop":"charity"}},"public_transport/platform/bus_point/duluthtransitauthority-d21fd8":{"name":"Duluth Transit Authority","locationSet":{"include":["us-mn","us-wi"]},"geometry":["point","vertex"],"matchScore":2,"terms":["dta","duluth transit authority"],"reference":{"key":"public_transport","value":"platform"},"tags":{"bus":"yes","network:wikidata":"Q16967413","public_transport":"platform"},"addTags":{"bus":"yes","highway":"bus_stop","network":"Duluth Transit Authority","network:short":"DTA","network:wikidata":"Q16967413","public_transport":"platform"}},"public_transport/platform/bus_point/maplegrovetransit-18f843":{"name":"Maple Grove Transit","locationSet":{"include":["us-mn"]},"geometry":["point","vertex"],"matchScore":2,"terms":["maple grove transit"],"reference":{"key":"public_transport","value":"platform"},"tags":{"bus":"yes","network:wikidata":"Q6753895","public_transport":"platform"},"addTags":{"bus":"yes","highway":"bus_stop","network":"Maple Grove Transit","network:wikidata":"Q6753895","public_transport":"platform"}},"public_transport/platform/bus_point/matbus-428833":{"name":"MATBUS","locationSet":{"include":["us-mn","us-nd"]},"geometry":["point","vertex"],"matchScore":2,"terms":["matbus"],"reference":{"key":"public_transport","value":"platform"},"tags":{"bus":"yes","network:wikidata":"Q5435113","public_transport":"platform"},"addTags":{"bus":"yes","highway":"bus_stop","network":"MATBUS","network:wikidata":"Q5435113","public_transport":"platform"}},"public_transport/platform/bus_point/mvta-18f843":{"name":"MVTA","locationSet":{"include":["us-mn"]},"geometry":["point","vertex"],"matchScore":2,"terms":["mvta"],"reference":{"key":"public_transport","value":"platform"},"tags":{"bus":"yes","network:wikidata":"Q6868609","public_transport":"platform"},"addTags":{"bus":"yes","highway":"bus_stop","network":"MVTA","network:wikidata":"Q6868609","public_transport":"platform"}},"public_transport/platform/bus_point/rpt-18f843":{"name":"RPT","locationSet":{"include":["us-mn"]},"geometry":["point","vertex"],"matchScore":2,"terms":["rochester public transit","rpt"],"reference":{"key":"public_transport","value":"platform"},"tags":{"bus":"yes","network:wikidata":"Q115803984","public_transport":"platform"},"addTags":{"bus":"yes","highway":"bus_stop","network":"RPT","network:wikidata":"Q115803984","operator":"Rochester Public Transit","public_transport":"platform"}},"type/route/bus/duluthtransitauthority-e35a87":{"name":"Duluth Transit Authority","locationSet":{"include":["us-mn","us-wi"]},"geometry":["relation"],"matchScore":2,"terms":["dta","duluth transit authority"],"reference":{"key":"route","value":"bus"},"tags":{"network:wikidata":"Q16967413","route":"bus","type":"route"},"addTags":{"network":"Duluth Transit Authority","network:short":"DTA","network:wikidata":"Q16967413","route":"bus","type":"route"}},"type/route/bus/maplegrovetransit-f73eb3":{"name":"Maple Grove Transit","locationSet":{"include":["us-mn"]},"geometry":["relation"],"matchScore":2,"terms":["maple grove transit"],"reference":{"key":"route","value":"bus"},"tags":{"network:wikidata":"Q6753895","route":"bus","type":"route"},"addTags":{"network":"Maple Grove Transit","network:wikidata":"Q6753895","route":"bus","type":"route"}},"type/route/bus/matbus-8bb3d6":{"name":"MATBUS","locationSet":{"include":["us-mn","us-nd"]},"geometry":["relation"],"matchScore":2,"terms":["matbus"],"reference":{"key":"route","value":"bus"},"tags":{"network:wikidata":"Q5435113","route":"bus","type":"route"},"addTags":{"network":"MATBUS","network:wikidata":"Q5435113","route":"bus","type":"route"}},"type/route/bus/mvta-f73eb3":{"name":"MVTA","locationSet":{"include":["us-mn"]},"geometry":["relation"],"matchScore":2,"terms":["mvta"],"reference":{"key":"route","value":"bus"},"tags":{"network:wikidata":"Q6868609","route":"bus","type":"route"},"addTags":{"network":"MVTA","network:wikidata":"Q6868609","route":"bus","type":"route"}},"type/route/bus/rpt-f73eb3":{"name":"RPT","locationSet":{"include":["us-mn"]},"geometry":["relation"],"matchScore":2,"terms":["rochester public transit","rpt"],"reference":{"key":"route","value":"bus"},"tags":{"network:wikidata":"Q115803984","route":"bus","type":"route"},"addTags":{"network":"RPT","network:wikidata":"Q115803984","operator":"Rochester Public Transit","route":"bus","type":"route"}}}