{"advertising/totem/oilibya-11febf":{"name":"Oilibya","locationSet":{"include":["dz","eg","ly","ma","sd","tn","eh","io","bi","km","dj","er","et","tf","ke","mg","mw","mu","yt","mz","re","rw","sc","so","ss","ug","tz","zm","zw","ao","cm","cf","td","cg","cd","gq","ga","st","bw","sz","ls","na","za","bj","bf","cv","ci","gm","gh","gn","gw","lr","ml","mr","ne","ng","sn","sl","tg","sh","bd"]},"geometry":["point","line"],"matchScore":2,"terms":["oilibia","oilibiya","oilibya","oillibia","oilliby","oillibya","oillybia","oilybia","olibya","olybia","أويليبيا"],"tags":{"advertising":"totem","brand:wikidata":"Q7081491"},"addTags":{"advertising":"totem","brand":"Oilibya","brand:wikidata":"Q7081491","name:ar":"أويليبيا","name:en":"Oilibya"}},"amenity/atm/stanbicbank-71787f":{"name":"Stanbic Bank","locationSet":{"include":["dz","eg","ly","ma","sd","tn","eh","io","bi","km","dj","er","et","tf","ke","mg","mw","mu","yt","mz","re","rw","sc","so","ss","ug","tz","zm","zw","ao","cm","cf","td","cg","cd","gq","ga","st","bw","sz","ls","na","za","bj","bf","cv","ci","gm","gh","gn","gw","lr","ml","mr","ne","ng","sn","sl","tg","sh"],"exclude":["gh"]},"geometry":["point","vertex"],"matchScore":2,"terms":["stanbic bank"],"fields":["name","brand","{amenity/atm}"],"tags":{"amenity":"atm","brand:wikidata":"Q7597999"},"addTags":{"amenity":"atm","brand":"Stanbic Bank","brand:wikidata":"Q7597999","operator":"Stanbic Bank","operator:wikidata":"Q7597999"}},"amenity/bank/stanbicbank-b79c2d":{"name":"Stanbic Bank","locationSet":{"include":["dz","eg","ly","ma","sd","tn","eh","io","bi","km","dj","er","et","tf","ke","mg","mw","mu","yt","mz","re","rw","sc","so","ss","ug","tz","zm","zw","ao","cm","cf","td","cg","cd","gq","ga","st","bw","sz","ls","na","za","bj","bf","cv","ci","gm","gh","gn","gw","lr","ml","mr","ne","ng","sn","sl","tg","sh"],"exclude":["gh"]},"geometry":["point","area"],"matchScore":2,"terms":["stanbic bank"],"tags":{"amenity":"bank","brand:wikidata":"Q7597999"},"addTags":{"amenity":"bank","brand":"Stanbic Bank","brand:wikidata":"Q7597999","name":"Stanbic Bank"}},"amenity/cafe/coffee_shop/starbucks-0dcee5":{"name":"ستاربكس","locationSet":{"include":["ae","bh","dz","eg","iq","jo","kw","lb","ly","ma","om","qa","sa","tn"]},"geometry":["point","area"],"matchScore":2,"terms":["starbucks","starbucks coffee","starbucks middle east","ستاربكس","ستاربكس كافية"],"reference":{"key":"cuisine","value":"coffee_shop"},"tags":{"amenity":"cafe","brand:wikidata":"Q37158","cuisine":"coffee_shop"},"addTags":{"amenity":"cafe","brand":"ستاربكس","brand:ar":"ستاربكس","brand:en":"Starbucks","brand:wikidata":"Q37158","cuisine":"coffee_shop","name":"ستاربكس","name:ar":"ستاربكس","name:en":"Starbucks","official_name":"ستاربكس كافية","official_name:ar":"ستاربكس كافية","official_name:en":"Starbucks Coffee","takeaway":"yes"}},"amenity/fast_food/sandwich/momen-f39225":{"name":"Mo'men","locationSet":{"include":["bh","eg","kw","ly","my","sa","sd"]},"geometry":["point","area"],"matchScore":2,"terms":["mo'men"],"reference":{"key":"cuisine","value":"sandwich"},"tags":{"amenity":"fast_food","brand:wikidata":"Q3317535","cuisine":"sandwich"},"addTags":{"amenity":"fast_food","brand":"Mo'men","brand:wikidata":"Q3317535","cuisine":"sandwich","name":"Mo'men","takeaway":"yes"}},"amenity/fast_food/chicken/kfc-15a250":{"name":"دجاج كنتاكي","locationSet":{"include":["ae","bh","eg","iq","jo","kw","lb","ly","ma","om","qa","sa","sd","sy","tn","ye"]},"geometry":["point","area"],"matchScore":2,"terms":["kfc","دجاج كنتاكي"],"reference":{"key":"cuisine","value":"chicken"},"tags":{"amenity":"fast_food","brand:wikidata":"Q524757","cuisine":"chicken"},"addTags":{"amenity":"fast_food","brand":"دجاج كنتاكي","brand:ar":"دجاج كنتاكي","brand:en":"KFC","brand:wikidata":"Q524757","cuisine":"chicken","name":"دجاج كنتاكي","name:ar":"دجاج كنتاكي","name:en":"KFC","takeaway":"yes"}},"amenity/fuel/oilibya-5288c9":{"name":"Oilibya","locationSet":{"include":["dz","eg","ly","ma","sd","tn","eh","io","bi","km","dj","er","et","tf","ke","mg","mw","mu","yt","mz","re","rw","sc","so","ss","ug","tz","zm","zw","ao","cm","cf","td","cg","cd","gq","ga","st","bw","sz","ls","na","za","bj","bf","cv","ci","gm","gh","gn","gw","lr","ml","mr","ne","ng","sn","sl","tg","sh","bd"]},"geometry":["point","area"],"matchScore":2,"terms":["oilibia","oilibiya","oilibya","oillibia","oilliby","oillibya","oillybia","oilybia","olibya","olybia","أويليبيا"],"fields":["name","brand","{amenity/fuel}"],"tags":{"amenity":"fuel","brand:wikidata":"Q7081491"},"addTags":{"amenity":"fuel","brand":"Oilibya","brand:wikidata":"Q7081491","name":"Oilibya","name:ar":"أويليبيا","name:en":"Oilibya"}},"shop/kitchen/ixina-d089d8":{"name":"Ixina","locationSet":{"include":["ae","au","be","bf","bh","bj","ca","ci","cm","cn","cz","dz","ee","eg","fr","gh","hr","ke","kw","lu","ly","ma","mu","nl","pl","qa","ro","ru","sa","se","sn","tg","th","tn","vn"]},"geometry":["point","area"],"matchScore":2,"terms":["ixina"],"tags":{"brand:wikidata":"Q3156424","shop":"kitchen"},"addTags":{"brand":"Ixina","brand:wikidata":"Q3156424","name":"Ixina","shop":"kitchen"}}}