{"amenity/atm/cotacommercialbank-9a6797":{"name":"三信商業銀行","locationSet":{"include":["tw"]},"geometry":["point","vertex"],"matchScore":2,"terms":["cota bank","cota commercial bank","sam-sìn siong-gia̍p gîn-hâng","三信","三信商業銀行","三信商銀","三信銀行"],"tags":{"amenity":"atm","brand:wikidata":"Q10865324"},"addTags":{"amenity":"atm","brand":"三信商業銀行","brand:en":"COTA Commercial Bank","brand:wikidata":"Q10865324","brand:zh":"三信商業銀行","name":"三信商業銀行","name:en":"COTA Commercial Bank","name:nan":"Sam-sìn Siong-gia̍p Gîn-hâng","name:nan-HJ":"三信商業銀行","name:nan-POJ":"Sam-sìn Siong-gia̍p Gîn-hâng","name:nan-TL":"Sam-sìn Siong-gia̍p Gîn-hâng","name:zh":"三信商業銀行","operator":"三信商業銀行","operator:wikidata":"Q10865324"}},"amenity/atm/shanghaicommercialandsavingsbank-9a6797":{"name":"上海商業儲蓄銀行","locationSet":{"include":["tw"]},"geometry":["point","vertex"],"matchScore":2,"terms":["scsb","shanghai commercial and savings bank","siōng-hái siong-gia̍p lia̍p-chek gûn-hâng","上海商業儲蓄銀行","上海商銀","上海銀行","上銀"],"tags":{"amenity":"atm","brand:wikidata":"Q4207208"},"addTags":{"amenity":"atm","brand":"上海商業儲蓄銀行","brand:en":"Shanghai Commercial and Savings Bank","brand:wikidata":"Q4207208","brand:zh":"上海商業儲蓄銀行","name":"上海商業儲蓄銀行","name:en":"Shanghai Commercial and Savings Bank","name:nan":"Siōng-hái Siong-gia̍p Lia̍p-chek Gûn-hâng","name:nan-HJ":"上海商業粒積銀行","name:nan-POJ":"Siōng-hái Siong-gia̍p Lia̍p-chek Gûn-hâng","name:nan-TL":"Siōng-hái Siong-gia̍p Lia̍p-tsik Gûn-hâng","name:zh":"上海商業儲蓄銀行","operator":"上海商業儲蓄銀行","operator:wikidata":"Q4207208"}},"amenity/atm/ctbcbank-9a6797":{"name":"中國信託商業銀行","locationSet":{"include":["tw"]},"geometry":["point","vertex"],"matchScore":2,"terms":["ctbc","ctbc bank","ctcb","tiong-kok sìn-thok siong-gia̍p gûn-hâng","中信商銀","中信銀","中信銀行","中國信託","中國信託商業銀行"],"tags":{"amenity":"atm","brand:wikidata":"Q5100191"},"addTags":{"amenity":"atm","brand":"中國信託商業銀行","brand:en":"CTBC Bank","brand:wikidata":"Q5100191","brand:zh":"中國信託商業銀行","name":"中國信託商業銀行","name:en":"CTBC Bank","name:nan":"Tiong-kok Sìn-thok Siong-gia̍p Gûn-hâng","name:nan-HJ":"中國信託商業銀行","name:nan-POJ":"Tiong-kok Sìn-thok Siong-gia̍p Gûn-hâng","name:nan-TL":"Tiong-kok Sìn-thok Siong-gia̍p Gûn-hâng","name:zh":"中國信託商業銀行","operator":"中國信託商業銀行","operator:wikidata":"Q5100191"}},"amenity/atm/kingstownbank-9a6797":{"name":"京城商業銀行","locationSet":{"include":["tw"]},"geometry":["point","vertex"],"matchScore":2,"terms":["kia\u207f-siâ\u207f siong-gia̍p gûn-hâng","king's town bank","ktb","京城商業銀行","京城商銀","京城銀","京城銀行"],"tags":{"amenity":"atm","brand:wikidata":"Q10883132"},"addTags":{"amenity":"atm","brand":"京城商業銀行","brand:wikidata":"Q10883132","brand:zh":"京城商業銀行","name":"京城商業銀行","name:en":"King's Town Bank","name:nan":"Kia\u207f-siâ\u207f Siong-gia̍p Gûn-hâng","name:nan-HJ":"京城商業銀行","name:nan-POJ":"Kia\u207f-siâ\u207f Siong-gia̍p Gûn-hâng","name:nan-TL":"Kiann-siânn Siong-gia̍p Gûn-hâng","name:zh":"京城商業銀行","operator":"京城商業銀行","operator:wikidata":"Q10883132"}},"amenity/atm/yuantacommercialbank-9a6797":{"name":"元大商業銀行","locationSet":{"include":["tw"]},"geometry":["point","vertex"],"matchScore":2,"terms":["goân-tāi siong-gia̍p gûn-hâng","tc bank","yuanta bank","yuanta commercial bank","元大商業銀行","元大商銀","元大銀行","大眾商業銀行","大眾商銀","大眾銀行"],"tags":{"amenity":"atm","brand:wikidata":"Q10889602"},"addTags":{"amenity":"atm","brand":"元大商業銀行","brand:en":"Yuanta Commercial Bank","brand:wikidata":"Q10889602","brand:zh":"元大商業銀行","name":"元大商業銀行","name:en":"Yuanta Commercial Bank","name:nan":"Goân-tāi Siong-gia̍p Gûn-hâng","name:nan-HJ":"元大商業銀行","name:nan-POJ":"Goân-tāi Siong-gia̍p Gûn-hâng","name:nan-TL":"Guân-tāi Siong-gia̍p Gûn-hâng","name:zh":"元大商業銀行","operator":"元大商業銀行","operator:wikidata":"Q10889602"}},"amenity/atm/megainternationalcommercialbank-9a6797":{"name":"兆豐國際商業銀行","locationSet":{"include":["tw"]},"geometry":["point","vertex"],"matchScore":2,"terms":["mega bank","mega international commercial bank","tiāu-hong kok-chè siong-gia̍p gîn-hâng","兆豐","兆豐商銀","兆豐國際商業銀行","兆豐銀","兆豐銀行"],"tags":{"amenity":"atm","brand:wikidata":"Q709757"},"addTags":{"amenity":"atm","brand":"兆豐國際商業銀行","brand:en":"Mega International Commercial Bank","brand:wikidata":"Q709757","brand:zh":"兆豐國際商業銀行","name":"兆豐國際商業銀行","name:en":"Mega International Commercial Bank","name:nan":"Tiāu-hong Kok-chè Siong-gia̍p Gîn-hâng","name:nan-HJ":"兆豐國際商業銀行","name:nan-POJ":"Tiāu-hong Kok-chè Siong-gia̍p Gîn-hâng","name:nan-TL":"Tiāu-hong Kok-tsè Siong-gia̍p Gîn-hâng","name:zh":"兆豐國際商業銀行","operator":"兆豐國際商業銀行","operator:wikidata":"Q709757"}},"amenity/atm/kgicommercialbank-9a6797":{"name":"凱基商業銀行","locationSet":{"include":["tw"]},"geometry":["point","vertex"],"matchScore":2,"terms":["cosmos bank","kgi bank","kgi commercial bank","khái-ki siong-gia̍p gîn-hâng","凱基","凱基商業銀行","凱基商銀","凱基銀","凱基銀行","萬泰","萬泰商業銀行","萬泰商銀","萬泰銀","萬泰銀行"],"tags":{"amenity":"atm","brand:wikidata":"Q19851918"},"addTags":{"amenity":"atm","brand":"凱基商業銀行","brand:en":"KGI Commercial Bank","brand:wikidata":"Q19851918","brand:zh":"凱基商業銀行","name":"凱基商業銀行","name:en":"KGI Commercial Bank","name:nan":"Khái-ki Siong-gia̍p Gîn-hâng","name:nan-HJ":"凱基商業銀行","name:nan-POJ":"Khái-ki Siong-gia̍p Gîn-hâng","name:nan-TL":"Khái-ki Siong-gia̍p Gîn-hâng","name:zh":"凱基商業銀行","operator":"凱基商業銀行","operator:wikidata":"Q19851918"}},"amenity/atm/taichungbank-9a6797":{"name":"台中商業銀行","locationSet":{"include":["tw"]},"geometry":["point","vertex"],"matchScore":2,"terms":["tâi-tiong siong-gia̍p gûn-hâng","taichung bank","台中商業銀行","台中商銀","台中銀","台中銀行"],"tags":{"amenity":"atm","brand:wikidata":"Q6136958"},"addTags":{"amenity":"atm","brand":"台中商業銀行","brand:en":"Taichung Bank","brand:wikidata":"Q6136958","brand:zh":"台中商業銀行","name":"台中商業銀行","name:en":"Taichung Bank","name:nan":"Tâi-tiong Siong-gia̍p Gûn-hâng","name:nan-HJ":"台中商業銀行","name:nan-POJ":"Tâi-tiong Siong-gia̍p Gûn-hâng","name:nan-TL":"Tâi-tiong Siong-gia̍p Gûn-hâng","name:zh":"台中商業銀行","operator":"台中商業銀行","operator:wikidata":"Q6136958"}},"amenity/atm/taipeifubonbank-9a6797":{"name":"台北富邦商業銀行","locationSet":{"include":["tw"]},"geometry":["point","vertex"],"matchScore":2,"terms":["tâi-pak hù-pang siong-gia̍p gîn-hâng","taipei fubon bank","tfc","台北富邦","台北富邦商業銀行","台北富邦銀","台北富邦銀行","台北銀","台北銀行","富邦銀","富邦銀行"],"tags":{"amenity":"atm","brand:wikidata":"Q697293"},"addTags":{"amenity":"atm","brand":"台北富邦商業銀行","brand:en":"Taipei Fubon Bank","brand:wikidata":"Q697293","brand:zh":"台北富邦商業銀行","name":"台北富邦商業銀行","name:en":"Taipei Fubon Bank","name:nan":"Tâi-pak Hù-pang Siong-gia̍p Gîn-hâng","name:nan-HJ":"台北富邦商業銀行","name:nan-POJ":"Tâi-pak Hù-pang Siong-gia̍p Gîn-hâng","name:nan-TL":"Tâi-pak Hù-pang Siong-gia̍p Gîn-hâng","name:zh":"台北富邦商業銀行","operator":"台北富邦商業銀行","operator:wikidata":"Q697293"}},"amenity/atm/taishininternationalbank-9a6797":{"name":"台新國際商業銀行","locationSet":{"include":["tw"]},"geometry":["point","vertex"],"matchScore":2,"terms":["tâi-sin kok-chè siong-gia̍p gîn-hâng","taishin bank","taishin international bank","tsib","台新國際商業銀行","台新銀","台新銀行"],"tags":{"amenity":"atm","brand:wikidata":"Q7676420"},"addTags":{"amenity":"atm","brand":"台新國際商業銀行","brand:en":"Taishin International Bank","brand:wikidata":"Q7676420","brand:zh":"台新國際商業銀行","name":"台新國際商業銀行","name:en":"Taishin International Bank","name:nan":"Tâi-sin Kok-chè Siong-gia̍p Gîn-hâng","name:nan-HJ":"台新國際商業銀行","name:nan-POJ":"Tâi-sin Kok-chè Siong-gia̍p Gîn-hâng","name:nan-TL":"Tâi-sin Kok-tsè Siong-gia̍p Gîn-hâng","name:zh":"台新國際商業銀行","operator":"台新國際商業銀行","operator:wikidata":"Q7676420"}},"amenity/atm/taiwancooperativebank-9a6797":{"name":"合作金庫商業銀行","locationSet":{"include":["tw"]},"geometry":["point","vertex"],"matchScore":2,"terms":["ha̍p-chok kim-khò͘ siong-gia̍p gîn-hâng","taiwan cooperative bank","合作金庫","合作金庫商業銀行","合作金庫銀行","合庫","合庫商銀","合庫銀","合庫銀行"],"tags":{"amenity":"atm","brand:wikidata":"Q701540"},"addTags":{"amenity":"atm","brand":"合作金庫商業銀行","brand:en":"Taiwan Cooperative Bank","brand:wikidata":"Q701540","brand:zh":"合作金庫商業銀行","name":"合作金庫商業銀行","name:en":"Taiwan Cooperative Bank","name:nan":"Ha̍p-chok Kim-khò͘ Siong-gia̍p Gîn-hâng","name:nan-HJ":"合作金庫商業銀行","name:nan-POJ":"Ha̍p-chok Kim-khò͘ Siong-gia̍p Gîn-hâng","name:nan-TL":"Ha̍p-tsok Kim-khòo Siong-gia̍p Gîn-hâng","name:zh":"合作金庫商業銀行","operator":"合作金庫商業銀行","operator:wikidata":"Q701540"}},"amenity/atm/cathaybank-5a3a19":{"name":"国泰银行","locationSet":{"include":["cn","tw"]},"geometry":["point","vertex"],"matchScore":2,"terms":["cathay bank","国泰银行"],"tags":{"amenity":"atm","brand:wikidata":"Q4189507"},"addTags":{"amenity":"atm","brand":"国泰银行","brand:en":"Cathay Bank","brand:wikidata":"Q4189507","brand:zh":"国泰银行","name":"国泰银行","name:en":"Cathay Bank","name:zh":"国泰银行","operator":"国泰银行","operator:wikidata":"Q4189507"}},"amenity/atm/cathayunitedbank-9a6797":{"name":"國泰世華商業銀行","locationSet":{"include":["tw"]},"geometry":["point","vertex"],"matchScore":2,"terms":["cathay united bank","cub","kok-thài sè-hoâ siong-gia̍p gîn-hâng","國泰世華","國泰世華商業銀行","國泰世華銀行"],"tags":{"amenity":"atm","brand:wikidata":"Q702656"},"addTags":{"amenity":"atm","brand":"國泰世華商業銀行","brand:en":"Cathay United Bank","brand:wikidata":"Q702656","brand:zh":"國泰世華商業銀行","name":"國泰世華商業銀行","name:en":"Cathay United Bank","name:nan":"Kok-thài Sè-hoâ Siong-gia̍p Gîn-hâng","name:nan-HJ":"國泰世華商業銀行","name:nan-POJ":"Kok-thài Sè-hoâ Siong-gia̍p Gîn-hâng","name:nan-TL":"Kok-thài Sè-huâ Siong-gia̍p Gîn-hâng","name:zh":"國泰世華商業銀行","operator":"國泰世華商業銀行","operator:wikidata":"Q702656"}},"amenity/atm/entiecommercialbank-9a6797":{"name":"安泰商業銀行","locationSet":{"include":["tw"]},"geometry":["point","vertex"],"matchScore":2,"terms":["an-thài siong-gia̍p gîn-hâng","entie bank","entie commercial bank","安泰商業銀行","安泰商銀","安泰銀行"],"tags":{"amenity":"atm","brand:wikidata":"Q10946952"},"addTags":{"amenity":"atm","brand":"安泰商業銀行","brand:en":"Entie Commercial Bank","brand:wikidata":"Q10946952","brand:zh":"安泰商業銀行","name":"安泰商業銀行","name:en":"Entie Commercial Bank","name:nan":"An-thài Siong-gia̍p Gîn-hâng","name:nan-HJ":"安泰商業銀行","name:nan-POJ":"An-thài Siong-gia̍p Gîn-hâng","name:nan-TL":"An-thài Siong-gia̍p Gîn-hâng","name:zh":"安泰商業銀行","operator":"安泰商業銀行","operator:wikidata":"Q10946952"}},"amenity/atm/changhwabank-9a6797":{"name":"彰化商業銀行","locationSet":{"include":["tw"]},"geometry":["point","vertex"],"matchScore":2,"terms":["ccb","chang hwa bank","chb","chiong-hòa siong-gia̍p gîn-hâng","彰化商業銀行","彰化商銀","彰化銀行","彰銀"],"tags":{"amenity":"atm","brand:wikidata":"Q5071627"},"addTags":{"amenity":"atm","brand":"彰化商業銀行","brand:en":"Chang Hwa Bank","brand:wikidata":"Q5071627","brand:zh":"彰化商業銀行","name":"彰化商業銀行","name:en":"Chang Hwa Bank","name:nan":"Chiong-hòa Siong-gia̍p Gîn-hâng","name:nan-HJ":"彰化商業銀行","name:nan-POJ":"Chiong-hòa Siong-gia̍p Gîn-hâng","name:nan-TL":"Tsiong-huà Siong-gia̍p Gîn-hâng","name:zh":"彰化商業銀行","operator":"彰化商業銀行","operator:wikidata":"Q5071627"}},"amenity/atm/jihsuninternationalcommercialbank-9a6797":{"name":"日盛國際商業銀行","locationSet":{"include":["tw"]},"geometry":["point","vertex"],"matchScore":2,"terms":["baodao bank","baodao commercial bank","jih sun international commercial bank","jihsun bank","ji̍t-sēng kok-chè siong-gia̍p gîn-hâng","寶島商業銀行","寶島商銀","寶島銀行","日盛","日盛商銀","日盛國際商業銀行","日盛銀行"],"tags":{"amenity":"atm","brand:wikidata":"Q11086841"},"addTags":{"amenity":"atm","brand":"日盛國際商業銀行","brand:en":"Jih Sun International Commercial Bank","brand:wikidata":"Q11086841","brand:zh":"日盛國際商業銀行","name":"日盛國際商業銀行","name:en":"Jih Sun International Commercial Bank","name:nan":"Ji̍t-sēng Kok-chè Siong-gia̍p Gîn-hâng","name:nan-HJ":"日盛國際商業銀行","name:nan-POJ":"Ji̍t-sēng Kok-chè Siong-gia̍p Gîn-hâng","name:nan-TL":"Ji̍t-sīng Kok-tsè Siong-gia̍p Gîn-hâng","name:zh":"日盛國際商業銀行","operator":"日盛國際商業銀行","operator:wikidata":"Q11086841"}},"amenity/atm/dbsbanktaiwan-9a6797":{"name":"星展（台灣）商業銀行","locationSet":{"include":["tw"]},"geometry":["point","vertex"],"matchScore":2,"terms":["dbs","dbs bank","dbs bank taiwan","台灣星展","星展（台灣）商業銀行","星展台灣","星展銀行"],"tags":{"amenity":"atm","brand:wikidata":"Q705417"},"addTags":{"amenity":"atm","brand":"星展銀行","brand:en":"DBS Bank","brand:wikidata":"Q705417","brand:zh":"星展銀行","name":"星展（台灣）商業銀行","name:en":"DBS Bank Taiwan","name:zh":"星展（台灣）商業銀行","operator":"星展銀行","operator:wikidata":"Q705417"}},"amenity/atm/bankofpanshin-9a6797":{"name":"板信商業銀行","locationSet":{"include":["tw"]},"geometry":["point","vertex"],"matchScore":2,"terms":["bank of panshin","pán-sìn siong-gia̍p gîn-hâng","板信商業銀行","板信商銀","板信銀行"],"tags":{"amenity":"atm","brand:wikidata":"Q11104946"},"addTags":{"amenity":"atm","brand":"板信商業銀行","brand:en":"Bank of Panshin","brand:wikidata":"Q11104946","brand:zh":"板信商業銀行","name":"板信商業銀行","name:en":"Bank of Panshin","name:nan":"Pán-sìn Siong-gia̍p Gîn-hâng","name:nan-HJ":"板信商業銀行","name:nan-POJ":"Pán-sìn Siong-gia̍p Gîn-hâng","name:nan-TL":"Pán-sìn Siong-gia̍p Gîn-hâng","name:zh":"板信商業銀行","operator":"板信商業銀行","operator:wikidata":"Q11104946"}},"amenity/atm/banksinopac-9a6797":{"name":"永豐商業銀行","locationSet":{"include":["tw"]},"geometry":["point","vertex"],"matchScore":2,"terms":["bank sinopac","éng-hong siong-gia̍p gîn-hâng","北商銀","台北商銀","台北國際商銀行","建華商業銀行","建華商銀","建華銀行","永豐商業銀行","永豐商銀","永豐銀","永豐銀行","華信商業銀行","華信商銀","華信銀行"],"tags":{"amenity":"atm","brand:wikidata":"Q11132721"},"addTags":{"amenity":"atm","brand":"永豐商業銀行","brand:en":"Bank SinoPac","brand:wikidata":"Q11132721","brand:zh":"永豐商業銀行","name":"永豐商業銀行","name:en":"Bank SinoPac","name:nan":"Éng-hong Siong-gia̍p Gîn-hâng","name:nan-HJ":"永豐商業銀行","name:nan-POJ":"Éng-hong Siong-gia̍p Gîn-hâng","name:nan-TL":"Íng-hong Siong-gia̍p Gîn-hâng","name:zh":"永豐商業銀行","operator":"永豐商業銀行","operator:wikidata":"Q11132721"}},"amenity/atm/standardcharteredtaiwan-9a6797":{"name":"渣打國際商業銀行","locationSet":{"include":["tw"]},"geometry":["point","vertex"],"matchScore":2,"terms":["scb","standard chartered taiwan","新竹國際商業銀行","新竹銀行","渣打","渣打國際商業銀行","渣打銀行"],"tags":{"amenity":"atm","brand:wikidata":"Q62267023"},"addTags":{"amenity":"atm","brand":"渣打國際商業銀行","brand:en":"Standard Chartered Taiwan","brand:wikidata":"Q62267023","brand:zh":"渣打國際商業銀行","name":"渣打國際商業銀行","name:en":"Standard Chartered Taiwan","name:zh":"渣打國際商業銀行","operator":"渣打國際商業銀行","operator:wikidata":"Q62267023"}},"amenity/atm/hsbcbanktaiwan-9a6797":{"name":"滙豐（台灣）商業銀行","locationSet":{"include":["tw"]},"geometry":["point","vertex"],"matchScore":2,"terms":["hbtw","hsbc","hsbc bank taiwan","hsbc taiwan","中華商業銀行","中華商銀","中華銀行","匯豐","匯豐台灣","匯豐商銀","匯豐銀行","台灣匯豐","台灣滙豐","滙豐","滙豐（台灣）商業銀行","滙豐台灣","滙豐商銀","滙豐銀行"],"tags":{"amenity":"atm","brand:wikidata":"Q190464"},"addTags":{"amenity":"atm","brand":"HSBC","brand:en":"HSBC","brand:wikidata":"Q190464","brand:zh":"滙豐","brand:zh-Hans":"汇丰","brand:zh-Hant":"滙豐","name":"滙豐（台灣）商業銀行","name:en":"HSBC Bank Taiwan","name:zh":"滙豐（台灣）商業銀行","operator":"HSBC","operator:wikidata":"Q190464"}},"amenity/atm/esuncommercialbank-9a6797":{"name":"玉山商業銀行","locationSet":{"include":["tw"]},"geometry":["point","vertex"],"matchScore":2,"terms":["e.sun commercial bank","gio̍k-san siong-gia̍p gîn-hâng","玉山商業銀行","玉山銀","玉山銀行"],"tags":{"amenity":"atm","brand:wikidata":"Q5321663"},"addTags":{"amenity":"atm","brand":"玉山商業銀行","brand:en":"E.SUN Commercial Bank","brand:wikidata":"Q5321663","name":"玉山商業銀行","name:en":"E.SUN Commercial Bank","name:nan":"Gio̍k-san Siong-gia̍p Gîn-hâng","name:nan-HJ":"玉山商業銀行","name:nan-POJ":"Gio̍k-san Siong-gia̍p Gîn-hâng","name:nan-TL":"Gio̍k-san Siong-gia̍p Gîn-hâng","name:zh":"玉山商業銀行","operator":"玉山商業銀行","operator:wikidata":"Q5321663"}},"amenity/atm/taipeistarbank-9a6797":{"name":"瑞興商業銀行","locationSet":{"include":["tw"]},"geometry":["point","vertex"],"matchScore":2,"terms":["bank of taipei","sūi-heng siong-gia̍p gîn-hâng","taipei star bank","大台北商業銀行","大台北銀行","瑞興商業銀行","瑞興商銀","瑞興銀","瑞興銀行","稻江商業銀行","稻江商銀","稻江銀行"],"tags":{"amenity":"atm","brand:wikidata":"Q10933886"},"addTags":{"amenity":"atm","brand":"瑞興商業銀行","brand:en":"Taipei Star Bank","brand:wikidata":"Q10933886","brand:zh":"瑞興商業銀行","name":"瑞興商業銀行","name:en":"Taipei Star Bank","name:nan":"Sūi-heng Siong-gia̍p Gîn-hâng","name:nan-HJ":"瑞興商業銀行","name:nan-POJ":"Sūi-heng Siong-gia̍p Gîn-hâng","name:nan-TL":"Suī-hing Siong-gia̍p Gîn-hâng","name:zh":"瑞興商業銀行","operator":"瑞興商業銀行","operator:wikidata":"Q10933886"}},"amenity/atm/firstcommercialbank-9a6797":{"name":"第一商業銀行","locationSet":{"include":["tw"]},"geometry":["point","vertex"],"matchScore":2,"terms":["fcb","first bank","first commercial bank","tē-it siong-gia̍p gîn-hâng","一銀","第一商業銀行","第一商銀","第一銀","第一銀行"],"tags":{"amenity":"atm","brand:wikidata":"Q11602128"},"addTags":{"amenity":"atm","brand":"第一商業銀行","brand:en":"First Commercial Bank","brand:wikidata":"Q11602128","name":"第一商業銀行","name:en":"First Commercial Bank","name:nan":"Tē-it Siong-gia̍p Gîn-hâng","name:nan-HJ":"第一商業銀行","name:nan-POJ":"Tē-it Siong-gia̍p Gîn-hâng","name:nan-TL":"Tē-it Siong-gia̍p Gîn-hâng","name:zh":"第一商業銀行","operator":"第一商業銀行","operator:wikidata":"Q11602128"}},"amenity/atm/unionbankoftaiwan-9a6797":{"name":"聯邦商業銀行","locationSet":{"include":["tw"]},"geometry":["point","vertex"],"matchScore":2,"terms":["liân-pang siong-gia̍p gîn-hâng","ubot","union bank of taiwan","聯邦商業銀行","聯邦商銀","聯邦銀","聯邦銀行"],"tags":{"amenity":"atm","brand:wikidata":"Q15927195"},"addTags":{"amenity":"atm","brand":"聯邦商業銀行","brand:en":"Union Bank of Taiwan","brand:wikidata":"Q15927195","name":"聯邦商業銀行","name:en":"Union Bank of Taiwan","name:nan":"Liân-pang Siong-gia̍p Gîn-hâng","name:nan-HJ":"聯邦商業銀行","name:nan-POJ":"Liân-pang Siong-gia̍p Gîn-hâng","name:nan-TL":"Liân-pang Siong-gia̍p Gîn-hâng","name:zh":"聯邦商業銀行","operator":"聯邦商業銀行","operator:wikidata":"Q15927195"}},"amenity/atm/taiwanbusinessbank-9a6797":{"name":"臺灣中小企業銀行","locationSet":{"include":["tw"]},"geometry":["point","vertex"],"matchScore":2,"terms":["tâi-oân tiong-sió khì-gia̍p gîn-hâng","taiwan business bank","tbb","台企銀","台灣中小企業銀行","台灣中小企銀","台灣企銀","臺企銀","臺灣中小企業銀行","臺灣中小企銀","臺灣企銀"],"tags":{"amenity":"atm","brand:wikidata":"Q15913812"},"addTags":{"amenity":"atm","brand":"臺灣中小企業銀行","brand:en":"Taiwan Business Bank","brand:wikidata":"Q15913812","name":"臺灣中小企業銀行","name:en":"Taiwan Business Bank","name:nan":"Tâi-oân Tiong-sió Khì-gia̍p Gîn-hâng","name:nan-HJ":"臺灣中小企業銀行","name:nan-POJ":"Tâi-oân Tiong-sió Khì-gia̍p Gîn-hâng","name:nan-TL":"Tâi-uân Tiong-sió Khì-gia̍p Gîn-hâng","name:zh":"臺灣中小企業銀行","operator":"臺灣中小企業銀行","operator:wikidata":"Q15913812"}},"amenity/atm/landbankoftaiwan-9a6797":{"name":"臺灣土地銀行","locationSet":{"include":["tw"]},"geometry":["point","vertex"],"matchScore":2,"terms":["land bank of taiwan","tâi-oân thó͘-tē gîn-hâng","thòi-vân thú-thi ngiùn-hòng","台灣土地銀行","土地銀行","土銀","臺灣土地銀行"],"tags":{"amenity":"atm","brand:wikidata":"Q717592"},"addTags":{"amenity":"atm","brand":"臺灣土地銀行","brand:en":"Land Bank of Taiwan","brand:wikidata":"Q717592","brand:zh":"臺灣土地銀行","name":"臺灣土地銀行","name:en":"Land Bank of Taiwan","name:hak":"Thòi-vân Thú-thi Ngiùn-hòng","name:nan":"Tâi-oân Thó͘-tē Gîn-hâng","name:nan-HJ":"臺灣土地銀行","name:nan-POJ":"Tâi-oân Thó͘-tē Gîn-hâng","name:nan-TL":"Tâi-uân Thóo-tē Gîn-hâng","name:zh":"臺灣土地銀行","operator":"臺灣土地銀行","operator:wikidata":"Q717592"}},"amenity/atm/shinkongcommercialbank-9a6797":{"name":"臺灣新光商業銀行","locationSet":{"include":["tw"]},"geometry":["point","vertex"],"matchScore":2,"terms":["shin kong commercial bank","sk bank","skcb","tâi-oân sin-kong siong-gia̍p gîn-hâng","台灣新光商業銀行","新光商銀","新光銀","新光銀行","臺灣新光商業銀行"],"tags":{"amenity":"atm","brand:wikidata":"Q15909616"},"addTags":{"amenity":"atm","brand":"臺灣新光商業銀行","brand:en":"Shin Kong Commercial Bank","brand:wikidata":"Q15909616","brand:zh":"臺灣新光商業銀行","name":"臺灣新光商業銀行","name:en":"Shin Kong Commercial Bank","name:nan":"Tâi-oân Sin-kong Siong-gia̍p Gîn-hâng","name:nan-HJ":"臺灣新光商業銀行","name:nan-POJ":"Tâi-oân Sin-kong Siong-gia̍p Gîn-hâng","name:nan-TL":"Tâi-uân Sin-kong Siong-gia̍p Gîn-hâng","name:zh":"臺灣新光商業銀行","operator":"臺灣新光商業銀行","operator:wikidata":"Q15909616"}},"amenity/atm/bankoftaiwan-9a6797":{"name":"臺灣銀行","locationSet":{"include":["tw"]},"geometry":["point","vertex"],"matchScore":2,"terms":["bank of taiwan","bot","tâi-oân gîn-hâng","taiwan bank","thòi-vân ngiùn-hòng","台灣銀行","台銀","臺灣銀行","臺銀"],"tags":{"amenity":"atm","brand:wikidata":"Q706533"},"addTags":{"amenity":"atm","brand":"臺灣銀行","brand:en":"Bank of Taiwan","brand:wikidata":"Q706533","brand:zh":"臺灣銀行","name":"臺灣銀行","name:en":"Bank of Taiwan","name:hak":"Thòi-vân Ngiùn-hòng","name:nan":"Tâi-oân Gîn-hâng","name:nan-HJ":"臺灣銀行","name:nan-POJ":"Tâi-oân Gîn-hâng","name:nan-TL":"Tâi-uân Gîn-hâng","name:zh":"臺灣銀行","operator":"臺灣銀行","operator:wikidata":"Q706533"}},"amenity/atm/citibanktaiwan-9a6797":{"name":"花旗（台灣）商業銀行","locationSet":{"include":["tw"]},"geometry":["point","vertex"],"matchScore":2,"terms":["citibank","citibank taiwan","occb","僑銀","台灣花旗","花旗（台灣）商業銀行","花旗台灣","花旗銀行","華僑商業銀行","華僑銀行"],"tags":{"amenity":"atm","brand:wikidata":"Q857063"},"addTags":{"amenity":"atm","brand":"花旗銀行","brand:en":"Citibank","brand:wikidata":"Q857063","brand:zh":"花旗銀行","name":"花旗（台灣）商業銀行","name:en":"Citibank Taiwan","name:zh":"花旗（台灣）商業銀行","operator":"花旗銀行","operator:wikidata":"Q857063"}},"amenity/atm/huanancommercialbank-9a6797":{"name":"華南商業銀行","locationSet":{"include":["tw"]},"geometry":["point","vertex"],"matchScore":2,"terms":["hoâ-lâm siong-gia̍p gîn-hâng","hua nan bank","hua nan commercial bank","華南商業銀行","華南商銀","華南銀行","華銀"],"tags":{"amenity":"atm","brand:wikidata":"Q11620043"},"addTags":{"amenity":"atm","brand":"華南商業銀行","brand:en":"Hua Nan Commercial Bank","brand:wikidata":"Q11620043","brand:zh":"華南商業銀行","name":"華南商業銀行","name:en":"Hua Nan Commercial Bank","name:nan":"Hoâ-lâm Siong-gia̍p Gîn-hâng","name:nan-HJ":"華南商業銀行","name:nan-POJ":"Hoâ-lâm Siong-gia̍p Gîn-hâng","name:nan-TL":"Huâ-lâm Siong-gia̍p Gîn-hâng","name:zh":"華南商業銀行","operator":"華南商業銀行","operator:wikidata":"Q11620043"}},"amenity/atm/hwataicommercialbank-9a6797":{"name":"華泰商業銀行","locationSet":{"include":["tw"]},"geometry":["point","vertex"],"matchScore":2,"terms":["hoâ-thài siong-gia̍p gîn-hâng","hwatai bank","hwatai commercial bank","華泰商業銀行","華泰商銀","華泰銀行"],"tags":{"amenity":"atm","brand:wikidata":"Q17500686"},"addTags":{"amenity":"atm","brand":"華泰商業銀行","brand:en":"Hwatai Commercial Bank","brand:wikidata":"Q17500686","brand:zh":"華泰商業銀行","name":"華泰商業銀行","name:en":"Hwatai Commercial Bank","name:nan":"Hoâ-thài Siong-gia̍p Gîn-hâng","name:nan-HJ":"華泰商業銀行","name:nan-POJ":"Hoâ-thài Siong-gia̍p Gîn-hâng","name:nan-TL":"Huâ-thài Siong-gia̍p Gîn-hâng","name:zh":"華泰商業銀行","operator":"華泰商業銀行","operator:wikidata":"Q17500686"}},"amenity/atm/fareasterninternationalbank-9a6797":{"name":"遠東國際商業銀行","locationSet":{"include":["tw"]},"geometry":["point","vertex"],"matchScore":2,"terms":["far eastern international bank","feib","oán-tong kok-chè siong-gia̍p gîn-hâng","遠東商銀","遠東國際商業銀行","遠東銀","遠東銀行","遠銀"],"tags":{"amenity":"atm","brand:wikidata":"Q15911143"},"addTags":{"amenity":"atm","brand":"遠東國際商業銀行","brand:en":"Far Eastern International Bank","brand:wikidata":"Q15911143","brand:zh":"遠東國際商業銀行","name":"遠東國際商業銀行","name:en":"Far Eastern International Bank","name:nan":"Oán-tong Kok-chè Siong-gia̍p Gîn-hâng","name:nan-HJ":"遠東國際商業銀行","name:nan-POJ":"Oán-tong Kok-chè Siong-gia̍p Gîn-hâng","name:nan-TL":"Uán-tong Kok-tsè Siong-gia̍p Gîn-hâng","name:zh":"遠東國際商業銀行","operator":"遠東國際商業銀行","operator:wikidata":"Q15911143"}},"amenity/atm/sunnycommercialbank-9a6797":{"name":"陽信商業銀行","locationSet":{"include":["tw"]},"geometry":["point","vertex"],"matchScore":2,"terms":["iông-sìn siong-gia̍p gîn-hâng","sunny bank","sunny commercial bank","陽信商業銀行","陽信商銀","陽信銀行"],"tags":{"amenity":"atm","brand:wikidata":"Q11658759"},"addTags":{"amenity":"atm","brand":"陽信商業銀行","brand:en":"Sunny Commercial Bank","brand:wikidata":"Q11658759","brand:zh":"陽信商業銀行","name":"陽信商業銀行","name:en":"Sunny Commercial Bank","name:nan":"Iông-sìn Siong-gia̍p Gîn-hâng","name:nan-HJ":"陽信商業銀行","name:nan-POJ":"Iông-sìn Siong-gia̍p Gîn-hâng","name:nan-TL":"Iông-sìn Siong-gia̍p Gîn-hâng","name:zh":"陽信商業銀行","operator":"陽信商業銀行","operator:wikidata":"Q11658759"}},"amenity/atm/bankofkaohsiung-9a6797":{"name":"高雄銀行","locationSet":{"include":["tw"]},"geometry":["point","vertex"],"matchScore":2,"terms":["bank of kaohsiung","bok","ko-hiông gîn-hâng","高銀","高雄市銀行","高雄銀","高雄銀行"],"tags":{"amenity":"atm","brand:wikidata":"Q11673248"},"addTags":{"amenity":"atm","brand":"高雄銀行","brand:en":"Bank of Kaohsiung","brand:wikidata":"Q11673248","brand:zh":"高雄銀行","name":"高雄銀行","name:en":"Bank of Kaohsiung","name:nan":"Ko-hiông Gîn-hâng","name:nan-HJ":"高雄銀行","name:nan-POJ":"Ko-hiông Gîn-hâng","name:nan-TL":"Ko-hiông Gîn-hâng","name:zh":"高雄銀行","operator":"高雄銀行","operator:wikidata":"Q11673248"}},"amenity/bank/cotacommercialbank-47d9e2":{"name":"三信商業銀行","locationSet":{"include":["tw"]},"geometry":["point","area"],"matchScore":2,"terms":["cota bank","cota commercial bank","sam-sìn siong-gia̍p gîn-hâng","三信","三信商業銀行","三信商銀","三信銀行"],"tags":{"amenity":"bank","brand:wikidata":"Q10865324"},"addTags":{"amenity":"bank","brand":"三信商業銀行","brand:en":"COTA Commercial Bank","brand:wikidata":"Q10865324","brand:zh":"三信商業銀行","name":"三信商業銀行","name:en":"COTA Commercial Bank","name:nan":"Sam-sìn Siong-gia̍p Gîn-hâng","name:nan-HJ":"三信商業銀行","name:nan-POJ":"Sam-sìn Siong-gia̍p Gîn-hâng","name:nan-TL":"Sam-sìn Siong-gia̍p Gîn-hâng","name:zh":"三信商業銀行"}},"amenity/bank/shanghaicommercialandsavingsbank-47d9e2":{"name":"上海商業儲蓄銀行","locationSet":{"include":["tw"]},"geometry":["point","area"],"matchScore":2,"terms":["scsb","shanghai commercial and savings bank","siōng-hái siong-gia̍p lia̍p-chek gûn-hâng","上海商業儲蓄銀行","上海商銀","上海銀行","上銀"],"tags":{"amenity":"bank","brand:wikidata":"Q4207208"},"addTags":{"amenity":"bank","brand":"上海商業儲蓄銀行","brand:en":"Shanghai Commercial and Savings Bank","brand:wikidata":"Q4207208","brand:zh":"上海商業儲蓄銀行","name":"上海商業儲蓄銀行","name:en":"Shanghai Commercial and Savings Bank","name:nan":"Siōng-hái Siong-gia̍p Lia̍p-chek Gûn-hâng","name:nan-HJ":"上海商業粒積銀行","name:nan-POJ":"Siōng-hái Siong-gia̍p Lia̍p-chek Gûn-hâng","name:nan-TL":"Siōng-hái Siong-gia̍p Lia̍p-tsik Gûn-hâng","name:zh":"上海商業儲蓄銀行"}},"amenity/bank/ctbcbank-47d9e2":{"name":"中國信託商業銀行","locationSet":{"include":["tw"]},"geometry":["point","area"],"matchScore":2,"terms":["ctbc","ctbc bank","ctcb","tiong-kok sìn-thok siong-gia̍p gûn-hâng","中信商銀","中信銀","中信銀行","中國信託","中國信託商業銀行"],"tags":{"amenity":"bank","brand:wikidata":"Q5100191"},"addTags":{"amenity":"bank","brand":"中國信託商業銀行","brand:en":"CTBC Bank","brand:wikidata":"Q5100191","brand:zh":"中國信託商業銀行","name":"中國信託商業銀行","name:en":"CTBC Bank","name:nan":"Tiong-kok Sìn-thok Siong-gia̍p Gûn-hâng","name:nan-HJ":"中國信託商業銀行","name:nan-POJ":"Tiong-kok Sìn-thok Siong-gia̍p Gûn-hâng","name:nan-TL":"Tiong-kok Sìn-thok Siong-gia̍p Gûn-hâng","name:zh":"中國信託商業銀行"}},"amenity/bank/kingstownbank-47d9e2":{"name":"京城商業銀行","locationSet":{"include":["tw"]},"geometry":["point","area"],"matchScore":2,"terms":["kia\u207f-siâ\u207f siong-gia̍p gûn-hâng","king's town bank","ktb","京城商業銀行","京城商銀","京城銀","京城銀行"],"tags":{"amenity":"bank","brand:wikidata":"Q10883132"},"addTags":{"amenity":"bank","brand":"京城商業銀行","brand:wikidata":"Q10883132","brand:zh":"京城商業銀行","name":"京城商業銀行","name:en":"King's Town Bank","name:nan":"Kia\u207f-siâ\u207f Siong-gia̍p Gûn-hâng","name:nan-HJ":"京城商業銀行","name:nan-POJ":"Kia\u207f-siâ\u207f Siong-gia̍p Gûn-hâng","name:nan-TL":"Kiann-siânn Siong-gia̍p Gûn-hâng","name:zh":"京城商業銀行"}},"amenity/bank/yuantacommercialbank-47d9e2":{"name":"元大商業銀行","locationSet":{"include":["tw"]},"geometry":["point","area"],"matchScore":2,"terms":["goân-tāi siong-gia̍p gûn-hâng","tc bank","yuanta bank","yuanta commercial bank","元大商業銀行","元大商銀","元大銀行","大眾商業銀行","大眾商銀","大眾銀行"],"tags":{"amenity":"bank","brand:wikidata":"Q10889602"},"addTags":{"amenity":"bank","brand":"元大商業銀行","brand:en":"Yuanta Commercial Bank","brand:wikidata":"Q10889602","brand:zh":"元大商業銀行","name":"元大商業銀行","name:en":"Yuanta Commercial Bank","name:nan":"Goân-tāi Siong-gia̍p Gûn-hâng","name:nan-HJ":"元大商業銀行","name:nan-POJ":"Goân-tāi Siong-gia̍p Gûn-hâng","name:nan-TL":"Guân-tāi Siong-gia̍p Gûn-hâng","name:zh":"元大商業銀行"}},"amenity/bank/megainternationalcommercialbank-47d9e2":{"name":"兆豐國際商業銀行","locationSet":{"include":["tw"]},"geometry":["point","area"],"matchScore":2,"terms":["mega bank","mega international commercial bank","tiāu-hong kok-chè siong-gia̍p gîn-hâng","兆豐","兆豐商銀","兆豐國際商業銀行","兆豐銀","兆豐銀行"],"tags":{"amenity":"bank","brand:wikidata":"Q709757"},"addTags":{"amenity":"bank","brand":"兆豐國際商業銀行","brand:en":"Mega International Commercial Bank","brand:wikidata":"Q709757","brand:zh":"兆豐國際商業銀行","name":"兆豐國際商業銀行","name:en":"Mega International Commercial Bank","name:nan":"Tiāu-hong Kok-chè Siong-gia̍p Gîn-hâng","name:nan-HJ":"兆豐國際商業銀行","name:nan-POJ":"Tiāu-hong Kok-chè Siong-gia̍p Gîn-hâng","name:nan-TL":"Tiāu-hong Kok-tsè Siong-gia̍p Gîn-hâng","name:zh":"兆豐國際商業銀行"}},"amenity/bank/kgicommercialbank-47d9e2":{"name":"凱基商業銀行","locationSet":{"include":["tw"]},"geometry":["point","area"],"matchScore":2,"terms":["cosmos bank","kgi bank","kgi commercial bank","khái-ki siong-gia̍p gîn-hâng","凱基","凱基商業銀行","凱基商銀","凱基銀","凱基銀行","萬泰","萬泰商業銀行","萬泰商銀","萬泰銀","萬泰銀行"],"tags":{"amenity":"bank","brand:wikidata":"Q19851918"},"addTags":{"amenity":"bank","brand":"凱基商業銀行","brand:en":"KGI Commercial Bank","brand:wikidata":"Q19851918","brand:zh":"凱基商業銀行","name":"凱基商業銀行","name:en":"KGI Commercial Bank","name:nan":"Khái-ki Siong-gia̍p Gîn-hâng","name:nan-HJ":"凱基商業銀行","name:nan-POJ":"Khái-ki Siong-gia̍p Gîn-hâng","name:nan-TL":"Khái-ki Siong-gia̍p Gîn-hâng","name:zh":"凱基商業銀行"}},"amenity/bank/taichungbank-47d9e2":{"name":"台中商業銀行","locationSet":{"include":["tw"]},"geometry":["point","area"],"matchScore":2,"terms":["tâi-tiong siong-gia̍p gûn-hâng","taichung bank","台中商業銀行","台中商銀","台中銀","台中銀行"],"tags":{"amenity":"bank","brand:wikidata":"Q6136958"},"addTags":{"amenity":"bank","brand":"台中商業銀行","brand:en":"Taichung Bank","brand:wikidata":"Q6136958","brand:zh":"台中商業銀行","name":"台中商業銀行","name:en":"Taichung Bank","name:nan":"Tâi-tiong Siong-gia̍p Gûn-hâng","name:nan-HJ":"台中商業銀行","name:nan-POJ":"Tâi-tiong Siong-gia̍p Gûn-hâng","name:nan-TL":"Tâi-tiong Siong-gia̍p Gûn-hâng","name:zh":"台中商業銀行"}},"amenity/bank/taipeifubonbank-47d9e2":{"name":"台北富邦商業銀行","locationSet":{"include":["tw"]},"geometry":["point","area"],"matchScore":2,"terms":["tâi-pak hù-pang siong-gia̍p gîn-hâng","taipei fubon bank","tfc","台北富邦","台北富邦商業銀行","台北富邦銀","台北富邦銀行","台北銀","台北銀行","富邦銀","富邦銀行"],"tags":{"amenity":"bank","brand:wikidata":"Q697293"},"addTags":{"amenity":"bank","brand":"台北富邦商業銀行","brand:en":"Taipei Fubon Bank","brand:wikidata":"Q697293","brand:zh":"台北富邦商業銀行","name":"台北富邦商業銀行","name:en":"Taipei Fubon Bank","name:nan":"Tâi-pak Hù-pang Siong-gia̍p Gîn-hâng","name:nan-HJ":"台北富邦商業銀行","name:nan-POJ":"Tâi-pak Hù-pang Siong-gia̍p Gîn-hâng","name:nan-TL":"Tâi-pak Hù-pang Siong-gia̍p Gîn-hâng","name:zh":"台北富邦商業銀行"}},"amenity/bank/taishininternationalbank-47d9e2":{"name":"台新國際商業銀行","locationSet":{"include":["tw"]},"geometry":["point","area"],"matchScore":2,"terms":["tâi-sin kok-chè siong-gia̍p gîn-hâng","taishin bank","taishin international bank","tsib","台新國際商業銀行","台新銀","台新銀行"],"tags":{"amenity":"bank","brand:wikidata":"Q7676420"},"addTags":{"amenity":"bank","brand":"台新國際商業銀行","brand:en":"Taishin International Bank","brand:wikidata":"Q7676420","brand:zh":"台新國際商業銀行","name":"台新國際商業銀行","name:en":"Taishin International Bank","name:nan":"Tâi-sin Kok-chè Siong-gia̍p Gîn-hâng","name:nan-HJ":"台新國際商業銀行","name:nan-POJ":"Tâi-sin Kok-chè Siong-gia̍p Gîn-hâng","name:nan-TL":"Tâi-sin Kok-tsè Siong-gia̍p Gîn-hâng","name:zh":"台新國際商業銀行"}},"amenity/bank/taiwancooperativebank-47d9e2":{"name":"合作金庫商業銀行","locationSet":{"include":["tw"]},"geometry":["point","area"],"matchScore":2,"terms":["ha̍p-chok kim-khò͘ siong-gia̍p gîn-hâng","taiwan cooperative bank","合作金庫","合作金庫商業銀行","合作金庫銀行","合庫","合庫商銀","合庫銀","合庫銀行"],"tags":{"amenity":"bank","brand:wikidata":"Q701540"},"addTags":{"amenity":"bank","brand":"合作金庫商業銀行","brand:en":"Taiwan Cooperative Bank","brand:wikidata":"Q701540","brand:zh":"合作金庫商業銀行","name":"合作金庫商業銀行","name:en":"Taiwan Cooperative Bank","name:nan":"Ha̍p-chok Kim-khò͘ Siong-gia̍p Gîn-hâng","name:nan-HJ":"合作金庫商業銀行","name:nan-POJ":"Ha̍p-chok Kim-khò͘ Siong-gia̍p Gîn-hâng","name:nan-TL":"Ha̍p-tsok Kim-khòo Siong-gia̍p Gîn-hâng","name:zh":"合作金庫商業銀行"}},"amenity/bank/cathaybank-f11880":{"name":"国泰银行","locationSet":{"include":["cn","tw"]},"geometry":["point","area"],"matchScore":2,"terms":["cathay bank","国泰银行"],"tags":{"amenity":"bank","brand:wikidata":"Q4189507"},"addTags":{"amenity":"bank","brand":"国泰银行","brand:en":"Cathay Bank","brand:wikidata":"Q4189507","brand:zh":"国泰银行","name":"国泰银行","name:en":"Cathay Bank","name:zh":"国泰银行"}},"amenity/bank/cathayunitedbank-47d9e2":{"name":"國泰世華商業銀行","locationSet":{"include":["tw"]},"geometry":["point","area"],"matchScore":2,"terms":["cathay united bank","cub","kok-thài sè-hoâ siong-gia̍p gîn-hâng","國泰世華","國泰世華商業銀行","國泰世華銀行"],"tags":{"amenity":"bank","brand:wikidata":"Q702656"},"addTags":{"amenity":"bank","brand":"國泰世華商業銀行","brand:en":"Cathay United Bank","brand:wikidata":"Q702656","brand:zh":"國泰世華商業銀行","name":"國泰世華商業銀行","name:en":"Cathay United Bank","name:nan":"Kok-thài Sè-hoâ Siong-gia̍p Gîn-hâng","name:nan-HJ":"國泰世華商業銀行","name:nan-POJ":"Kok-thài Sè-hoâ Siong-gia̍p Gîn-hâng","name:nan-TL":"Kok-thài Sè-huâ Siong-gia̍p Gîn-hâng","name:zh":"國泰世華商業銀行"}},"amenity/bank/entiecommercialbank-47d9e2":{"name":"安泰商業銀行","locationSet":{"include":["tw"]},"geometry":["point","area"],"matchScore":2,"terms":["an-thài siong-gia̍p gîn-hâng","entie bank","entie commercial bank","安泰商業銀行","安泰商銀","安泰銀行"],"tags":{"amenity":"bank","brand:wikidata":"Q10946952"},"addTags":{"amenity":"bank","brand":"安泰商業銀行","brand:en":"Entie Commercial Bank","brand:wikidata":"Q10946952","brand:zh":"安泰商業銀行","name":"安泰商業銀行","name:en":"Entie Commercial Bank","name:nan":"An-thài Siong-gia̍p Gîn-hâng","name:nan-HJ":"安泰商業銀行","name:nan-POJ":"An-thài Siong-gia̍p Gîn-hâng","name:nan-TL":"An-thài Siong-gia̍p Gîn-hâng","name:zh":"安泰商業銀行"}},"amenity/bank/changhwabank-47d9e2":{"name":"彰化商業銀行","locationSet":{"include":["tw"]},"geometry":["point","area"],"matchScore":2,"terms":["ccb","chang hwa bank","chb","chiong-hòa siong-gia̍p gîn-hâng","彰化商業銀行","彰化商銀","彰化銀行","彰銀"],"tags":{"amenity":"bank","brand:wikidata":"Q5071627"},"addTags":{"amenity":"bank","brand":"彰化商業銀行","brand:en":"Chang Hwa Bank","brand:wikidata":"Q5071627","brand:zh":"彰化商業銀行","name":"彰化商業銀行","name:en":"Chang Hwa Bank","name:nan":"Chiong-hòa Siong-gia̍p Gîn-hâng","name:nan-HJ":"彰化商業銀行","name:nan-POJ":"Chiong-hòa Siong-gia̍p Gîn-hâng","name:nan-TL":"Tsiong-huà Siong-gia̍p Gîn-hâng","name:zh":"彰化商業銀行"}},"amenity/bank/jihsuninternationalcommercialbank-47d9e2":{"name":"日盛國際商業銀行","locationSet":{"include":["tw"]},"geometry":["point","area"],"matchScore":2,"terms":["baodao bank","baodao commercial bank","jih sun international commercial bank","jihsun bank","ji̍t-sēng kok-chè siong-gia̍p gîn-hâng","寶島商業銀行","寶島商銀","寶島銀行","日盛","日盛商銀","日盛國際商業銀行","日盛銀行"],"tags":{"amenity":"bank","brand:wikidata":"Q11086841"},"addTags":{"amenity":"bank","brand":"日盛國際商業銀行","brand:en":"Jih Sun International Commercial Bank","brand:wikidata":"Q11086841","brand:zh":"日盛國際商業銀行","name":"日盛國際商業銀行","name:en":"Jih Sun International Commercial Bank","name:nan":"Ji̍t-sēng Kok-chè Siong-gia̍p Gîn-hâng","name:nan-HJ":"日盛國際商業銀行","name:nan-POJ":"Ji̍t-sēng Kok-chè Siong-gia̍p Gîn-hâng","name:nan-TL":"Ji̍t-sīng Kok-tsè Siong-gia̍p Gîn-hâng","name:zh":"日盛國際商業銀行"}},"amenity/bank/dbsbanktaiwan-47d9e2":{"name":"星展（台灣）商業銀行","locationSet":{"include":["tw"]},"geometry":["point","area"],"matchScore":2,"terms":["dbs","dbs bank","dbs bank taiwan","台灣星展","星展（台灣）商業銀行","星展台灣","星展銀行"],"tags":{"amenity":"bank","brand:wikidata":"Q705417"},"addTags":{"amenity":"bank","brand":"星展銀行","brand:en":"DBS Bank","brand:wikidata":"Q705417","brand:zh":"星展銀行","name":"星展（台灣）商業銀行","name:en":"DBS Bank Taiwan","name:zh":"星展（台灣）商業銀行"}},"amenity/bank/bankofpanshin-47d9e2":{"name":"板信商業銀行","locationSet":{"include":["tw"]},"geometry":["point","area"],"matchScore":2,"terms":["bank of panshin","pán-sìn siong-gia̍p gîn-hâng","板信商業銀行","板信商銀","板信銀行"],"tags":{"amenity":"bank","brand:wikidata":"Q11104946"},"addTags":{"amenity":"bank","brand":"板信商業銀行","brand:en":"Bank of Panshin","brand:wikidata":"Q11104946","brand:zh":"板信商業銀行","name":"板信商業銀行","name:en":"Bank of Panshin","name:nan":"Pán-sìn Siong-gia̍p Gîn-hâng","name:nan-HJ":"板信商業銀行","name:nan-POJ":"Pán-sìn Siong-gia̍p Gîn-hâng","name:nan-TL":"Pán-sìn Siong-gia̍p Gîn-hâng","name:zh":"板信商業銀行"}},"amenity/bank/banksinopac-47d9e2":{"name":"永豐商業銀行","locationSet":{"include":["tw"]},"geometry":["point","area"],"matchScore":2,"terms":["bank sinopac","éng-hong siong-gia̍p gîn-hâng","北商銀","台北商銀","台北國際商銀行","建華商業銀行","建華商銀","建華銀行","永豐商業銀行","永豐商銀","永豐銀","永豐銀行","華信商業銀行","華信商銀","華信銀行"],"tags":{"amenity":"bank","brand:wikidata":"Q11132721"},"addTags":{"amenity":"bank","brand":"永豐商業銀行","brand:en":"Bank SinoPac","brand:wikidata":"Q11132721","brand:zh":"永豐商業銀行","name":"永豐商業銀行","name:en":"Bank SinoPac","name:nan":"Éng-hong Siong-gia̍p Gîn-hâng","name:nan-HJ":"永豐商業銀行","name:nan-POJ":"Éng-hong Siong-gia̍p Gîn-hâng","name:nan-TL":"Íng-hong Siong-gia̍p Gîn-hâng","name:zh":"永豐商業銀行"}},"amenity/bank/standardcharteredtaiwan-47d9e2":{"name":"渣打國際商業銀行","locationSet":{"include":["tw"]},"geometry":["point","area"],"matchScore":2,"terms":["scb","standard chartered taiwan","新竹國際商業銀行","新竹銀行","渣打","渣打國際商業銀行","渣打銀行"],"tags":{"amenity":"bank","brand:wikidata":"Q62267023"},"addTags":{"amenity":"bank","brand":"渣打國際商業銀行","brand:en":"Standard Chartered Taiwan","brand:wikidata":"Q62267023","brand:zh":"渣打國際商業銀行","name":"渣打國際商業銀行","name:en":"Standard Chartered Taiwan","name:zh":"渣打國際商業銀行"}},"amenity/bank/hsbcbanktaiwan-47d9e2":{"name":"滙豐（台灣）商業銀行","locationSet":{"include":["tw"]},"geometry":["point","area"],"matchScore":2,"terms":["hbtw","hsbc","hsbc bank taiwan","hsbc taiwan","中華商業銀行","中華商銀","中華銀行","匯豐","匯豐台灣","匯豐商銀","匯豐銀行","台灣匯豐","台灣滙豐","滙豐","滙豐（台灣）商業銀行","滙豐台灣","滙豐商銀","滙豐銀行"],"tags":{"amenity":"bank","brand:wikidata":"Q190464"},"addTags":{"amenity":"bank","brand":"HSBC","brand:en":"HSBC","brand:wikidata":"Q190464","brand:zh":"滙豐","brand:zh-Hans":"汇丰","brand:zh-Hant":"滙豐","name":"滙豐（台灣）商業銀行","name:en":"HSBC Bank Taiwan","name:zh":"滙豐（台灣）商業銀行"}},"amenity/bank/esuncommercialbank-47d9e2":{"name":"玉山商業銀行","locationSet":{"include":["tw"]},"geometry":["point","area"],"matchScore":2,"terms":["e.sun commercial bank","gio̍k-san siong-gia̍p gîn-hâng","玉山商業銀行","玉山銀","玉山銀行"],"tags":{"amenity":"bank","brand:wikidata":"Q5321663"},"addTags":{"amenity":"bank","brand":"玉山商業銀行","brand:en":"E.SUN Commercial Bank","brand:wikidata":"Q5321663","name":"玉山商業銀行","name:en":"E.SUN Commercial Bank","name:nan":"Gio̍k-san Siong-gia̍p Gîn-hâng","name:nan-HJ":"玉山商業銀行","name:nan-POJ":"Gio̍k-san Siong-gia̍p Gîn-hâng","name:nan-TL":"Gio̍k-san Siong-gia̍p Gîn-hâng","name:zh":"玉山商業銀行"}},"amenity/bank/taipeistarbank-47d9e2":{"name":"瑞興商業銀行","locationSet":{"include":["tw"]},"geometry":["point","area"],"matchScore":2,"terms":["bank of taipei","sūi-heng siong-gia̍p gîn-hâng","taipei star bank","大台北商業銀行","大台北銀行","瑞興商業銀行","瑞興商銀","瑞興銀","瑞興銀行","稻江商業銀行","稻江商銀","稻江銀行"],"tags":{"amenity":"bank","brand:wikidata":"Q10933886"},"addTags":{"amenity":"bank","brand":"瑞興商業銀行","brand:en":"Taipei Star Bank","brand:wikidata":"Q10933886","brand:zh":"瑞興商業銀行","name":"瑞興商業銀行","name:en":"Taipei Star Bank","name:nan":"Sūi-heng Siong-gia̍p Gîn-hâng","name:nan-HJ":"瑞興商業銀行","name:nan-POJ":"Sūi-heng Siong-gia̍p Gîn-hâng","name:nan-TL":"Suī-hing Siong-gia̍p Gîn-hâng","name:zh":"瑞興商業銀行"}},"amenity/bank/firstcommercialbank-47d9e2":{"name":"第一商業銀行","locationSet":{"include":["tw"]},"geometry":["point","area"],"matchScore":2,"terms":["fcb","first bank","first commercial bank","tē-it siong-gia̍p gîn-hâng","一銀","第一商業銀行","第一商銀","第一銀","第一銀行"],"tags":{"amenity":"bank","brand:wikidata":"Q11602128"},"addTags":{"amenity":"bank","brand":"第一商業銀行","brand:en":"First Commercial Bank","brand:wikidata":"Q11602128","name":"第一商業銀行","name:en":"First Commercial Bank","name:nan":"Tē-it Siong-gia̍p Gîn-hâng","name:nan-HJ":"第一商業銀行","name:nan-POJ":"Tē-it Siong-gia̍p Gîn-hâng","name:nan-TL":"Tē-it Siong-gia̍p Gîn-hâng","name:zh":"第一商業銀行"}},"amenity/bank/unionbankoftaiwan-47d9e2":{"name":"聯邦商業銀行","locationSet":{"include":["tw"]},"geometry":["point","area"],"matchScore":2,"terms":["liân-pang siong-gia̍p gîn-hâng","ubot","union bank of taiwan","聯邦商業銀行","聯邦商銀","聯邦銀","聯邦銀行"],"tags":{"amenity":"bank","brand:wikidata":"Q15927195"},"addTags":{"amenity":"bank","brand":"聯邦商業銀行","brand:en":"Union Bank of Taiwan","brand:wikidata":"Q15927195","name":"聯邦商業銀行","name:en":"Union Bank of Taiwan","name:nan":"Liân-pang Siong-gia̍p Gîn-hâng","name:nan-HJ":"聯邦商業銀行","name:nan-POJ":"Liân-pang Siong-gia̍p Gîn-hâng","name:nan-TL":"Liân-pang Siong-gia̍p Gîn-hâng","name:zh":"聯邦商業銀行"}},"amenity/bank/taiwanbusinessbank-47d9e2":{"name":"臺灣中小企業銀行","locationSet":{"include":["tw"]},"geometry":["point","area"],"matchScore":2,"terms":["tâi-oân tiong-sió khì-gia̍p gîn-hâng","taiwan business bank","tbb","台企銀","台灣中小企業銀行","台灣中小企銀","台灣企銀","臺企銀","臺灣中小企業銀行","臺灣中小企銀","臺灣企銀"],"tags":{"amenity":"bank","brand:wikidata":"Q15913812"},"addTags":{"amenity":"bank","brand":"臺灣中小企業銀行","brand:en":"Taiwan Business Bank","brand:wikidata":"Q15913812","name":"臺灣中小企業銀行","name:en":"Taiwan Business Bank","name:nan":"Tâi-oân Tiong-sió Khì-gia̍p Gîn-hâng","name:nan-HJ":"臺灣中小企業銀行","name:nan-POJ":"Tâi-oân Tiong-sió Khì-gia̍p Gîn-hâng","name:nan-TL":"Tâi-uân Tiong-sió Khì-gia̍p Gîn-hâng","name:zh":"臺灣中小企業銀行"}},"amenity/bank/landbankoftaiwan-47d9e2":{"name":"臺灣土地銀行","locationSet":{"include":["tw"]},"geometry":["point","area"],"matchScore":2,"terms":["land bank of taiwan","tâi-oân thó͘-tē gîn-hâng","thòi-vân thú-thi ngiùn-hòng","台灣土地銀行","土地銀行","土銀","臺灣土地銀行"],"tags":{"amenity":"bank","brand:wikidata":"Q717592"},"addTags":{"amenity":"bank","brand":"臺灣土地銀行","brand:en":"Land Bank of Taiwan","brand:wikidata":"Q717592","brand:zh":"臺灣土地銀行","name":"臺灣土地銀行","name:en":"Land Bank of Taiwan","name:hak":"Thòi-vân Thú-thi Ngiùn-hòng","name:nan":"Tâi-oân Thó͘-tē Gîn-hâng","name:nan-HJ":"臺灣土地銀行","name:nan-POJ":"Tâi-oân Thó͘-tē Gîn-hâng","name:nan-TL":"Tâi-uân Thóo-tē Gîn-hâng","name:zh":"臺灣土地銀行"}},"amenity/bank/shinkongcommercialbank-47d9e2":{"name":"臺灣新光商業銀行","locationSet":{"include":["tw"]},"geometry":["point","area"],"matchScore":2,"terms":["shin kong commercial bank","sk bank","skcb","tâi-oân sin-kong siong-gia̍p gîn-hâng","台灣新光商業銀行","新光商銀","新光銀","新光銀行","臺灣新光商業銀行"],"tags":{"amenity":"bank","brand:wikidata":"Q15909616"},"addTags":{"amenity":"bank","brand":"臺灣新光商業銀行","brand:en":"Shin Kong Commercial Bank","brand:wikidata":"Q15909616","brand:zh":"臺灣新光商業銀行","name":"臺灣新光商業銀行","name:en":"Shin Kong Commercial Bank","name:nan":"Tâi-oân Sin-kong Siong-gia̍p Gîn-hâng","name:nan-HJ":"臺灣新光商業銀行","name:nan-POJ":"Tâi-oân Sin-kong Siong-gia̍p Gîn-hâng","name:nan-TL":"Tâi-uân Sin-kong Siong-gia̍p Gîn-hâng","name:zh":"臺灣新光商業銀行"}},"amenity/bank/bankoftaiwan-47d9e2":{"name":"臺灣銀行","locationSet":{"include":["tw"]},"geometry":["point","area"],"matchScore":2,"terms":["bank of taiwan","bot","tâi-oân gîn-hâng","taiwan bank","thòi-vân ngiùn-hòng","台灣銀行","台銀","臺灣銀行","臺銀"],"tags":{"amenity":"bank","brand:wikidata":"Q706533"},"addTags":{"amenity":"bank","brand":"臺灣銀行","brand:en":"Bank of Taiwan","brand:wikidata":"Q706533","brand:zh":"臺灣銀行","name":"臺灣銀行","name:en":"Bank of Taiwan","name:hak":"Thòi-vân Ngiùn-hòng","name:nan":"Tâi-oân Gîn-hâng","name:nan-HJ":"臺灣銀行","name:nan-POJ":"Tâi-oân Gîn-hâng","name:nan-TL":"Tâi-uân Gîn-hâng","name:zh":"臺灣銀行"}},"amenity/bank/citibanktaiwan-47d9e2":{"name":"花旗（台灣）商業銀行","locationSet":{"include":["tw"]},"geometry":["point","area"],"matchScore":2,"terms":["citibank","citibank taiwan","occb","僑銀","台灣花旗","花旗（台灣）商業銀行","花旗台灣","花旗銀行","華僑商業銀行","華僑銀行"],"tags":{"amenity":"bank","brand:wikidata":"Q857063"},"addTags":{"amenity":"bank","brand":"花旗銀行","brand:en":"Citibank","brand:wikidata":"Q857063","brand:zh":"花旗銀行","name":"花旗（台灣）商業銀行","name:en":"Citibank Taiwan","name:zh":"花旗（台灣）商業銀行"}},"amenity/bank/huanancommercialbank-47d9e2":{"name":"華南商業銀行","locationSet":{"include":["tw"]},"geometry":["point","area"],"matchScore":2,"terms":["hoâ-lâm siong-gia̍p gîn-hâng","hua nan bank","hua nan commercial bank","華南商業銀行","華南商銀","華南銀行","華銀"],"tags":{"amenity":"bank","brand:wikidata":"Q11620043"},"addTags":{"amenity":"bank","brand":"華南商業銀行","brand:en":"Hua Nan Commercial Bank","brand:wikidata":"Q11620043","brand:zh":"華南商業銀行","name":"華南商業銀行","name:en":"Hua Nan Commercial Bank","name:nan":"Hoâ-lâm Siong-gia̍p Gîn-hâng","name:nan-HJ":"華南商業銀行","name:nan-POJ":"Hoâ-lâm Siong-gia̍p Gîn-hâng","name:nan-TL":"Huâ-lâm Siong-gia̍p Gîn-hâng","name:zh":"華南商業銀行"}},"amenity/bank/hwataicommercialbank-47d9e2":{"name":"華泰商業銀行","locationSet":{"include":["tw"]},"geometry":["point","area"],"matchScore":2,"terms":["hoâ-thài siong-gia̍p gîn-hâng","hwatai bank","hwatai commercial bank","華泰商業銀行","華泰商銀","華泰銀行"],"tags":{"amenity":"bank","brand:wikidata":"Q17500686"},"addTags":{"amenity":"bank","brand":"華泰商業銀行","brand:en":"Hwatai Commercial Bank","brand:wikidata":"Q17500686","brand:zh":"華泰商業銀行","name":"華泰商業銀行","name:en":"Hwatai Commercial Bank","name:nan":"Hoâ-thài Siong-gia̍p Gîn-hâng","name:nan-HJ":"華泰商業銀行","name:nan-POJ":"Hoâ-thài Siong-gia̍p Gîn-hâng","name:nan-TL":"Huâ-thài Siong-gia̍p Gîn-hâng","name:zh":"華泰商業銀行"}},"amenity/bank/fareasterninternationalbank-47d9e2":{"name":"遠東國際商業銀行","locationSet":{"include":["tw"]},"geometry":["point","area"],"matchScore":2,"terms":["far eastern international bank","feib","oán-tong kok-chè siong-gia̍p gîn-hâng","遠東商銀","遠東國際商業銀行","遠東銀","遠東銀行","遠銀"],"tags":{"amenity":"bank","brand:wikidata":"Q15911143"},"addTags":{"amenity":"bank","brand":"遠東國際商業銀行","brand:en":"Far Eastern International Bank","brand:wikidata":"Q15911143","brand:zh":"遠東國際商業銀行","name":"遠東國際商業銀行","name:en":"Far Eastern International Bank","name:nan":"Oán-tong Kok-chè Siong-gia̍p Gîn-hâng","name:nan-HJ":"遠東國際商業銀行","name:nan-POJ":"Oán-tong Kok-chè Siong-gia̍p Gîn-hâng","name:nan-TL":"Uán-tong Kok-tsè Siong-gia̍p Gîn-hâng","name:zh":"遠東國際商業銀行"}},"amenity/bank/sunnycommercialbank-47d9e2":{"name":"陽信商業銀行","locationSet":{"include":["tw"]},"geometry":["point","area"],"matchScore":2,"terms":["iông-sìn siong-gia̍p gîn-hâng","sunny bank","sunny commercial bank","陽信商業銀行","陽信商銀","陽信銀行"],"tags":{"amenity":"bank","brand:wikidata":"Q11658759"},"addTags":{"amenity":"bank","brand":"陽信商業銀行","brand:en":"Sunny Commercial Bank","brand:wikidata":"Q11658759","brand:zh":"陽信商業銀行","name":"陽信商業銀行","name:en":"Sunny Commercial Bank","name:nan":"Iông-sìn Siong-gia̍p Gîn-hâng","name:nan-HJ":"陽信商業銀行","name:nan-POJ":"Iông-sìn Siong-gia̍p Gîn-hâng","name:nan-TL":"Iông-sìn Siong-gia̍p Gîn-hâng","name:zh":"陽信商業銀行"}},"amenity/bank/bankofkaohsiung-47d9e2":{"name":"高雄銀行","locationSet":{"include":["tw"]},"geometry":["point","area"],"matchScore":2,"terms":["bank of kaohsiung","bok","ko-hiông gîn-hâng","高銀","高雄市銀行","高雄銀","高雄銀行"],"tags":{"amenity":"bank","brand:wikidata":"Q11673248"},"addTags":{"amenity":"bank","brand":"高雄銀行","brand:en":"Bank of Kaohsiung","brand:wikidata":"Q11673248","brand:zh":"高雄銀行","name":"高雄銀行","name:en":"Bank of Kaohsiung","name:nan":"Ko-hiông Gîn-hâng","name:nan-HJ":"高雄銀行","name:nan-POJ":"Ko-hiông Gîn-hâng","name:nan-TL":"Ko-hiông Gîn-hâng","name:zh":"高雄銀行"}},"amenity/bicycle_rental/kbike-1bb859":{"name":"K Bike","locationSet":{"include":["tw"]},"geometry":["point","vertex","area"],"matchScore":2,"terms":["k-bike","金門公共自行車","金門縣政府"],"fields":["name","brand","{amenity/bicycle_rental}"],"tags":{"amenity":"bicycle_rental","brand:wikidata":"Q30942379"},"addTags":{"amenity":"bicycle_rental","brand":"金門公共自行車","brand:en":"K-Bike","brand:wikidata":"Q30942379","brand:zh":"金門公共自行車","name":"金門公共自行車","name:en":"K-Bike","name:zh":"金門公共自行車","network":"K-Bike","operator":"金門縣政府","operator:type":"government"}},"amenity/bicycle_rental/youbike20-1bb859":{"name":"YouBike 2.0","locationSet":{"include":["tw"]},"geometry":["point","vertex","area"],"matchScore":2,"terms":["giant","youbike 2.0"],"fields":["name","brand","{amenity/bicycle_rental}"],"tags":{"amenity":"bicycle_rental","brand:wikidata":"Q20687952"},"addTags":{"amenity":"bicycle_rental","brand":"YouBike 2.0","brand:wikidata":"Q20687952","network":"YouBike 2.0","network:wikidata":"Q20687952","operator":"Giant","operator:wikidata":"Q703557"}},"amenity/bicycle_rental/youbike-1bb859":{"name":"YouBike 微笑單車","locationSet":{"include":["tw"]},"geometry":["point","vertex","area"],"matchScore":2,"terms":["giant","youbike","youbike 微笑單車","微笑單車"],"fields":["name","brand","{amenity/bicycle_rental}"],"tags":{"amenity":"bicycle_rental","brand:wikidata":"Q20687952"},"addTags":{"amenity":"bicycle_rental","brand":"YouBike 微笑單車","brand:en":"YouBike","brand:wikidata":"Q20687952","brand:zh":"微笑單車","network":"YouBike 微笑單車","network:en":"YouBike","network:wikidata":"Q20687952","network:zh":"微笑單車","operator":"Giant","operator:wikidata":"Q703557"}},"amenity/bureau_de_change/pocketchange-f742ee":{"name":"PocketChange","locationSet":{"include":["jp","tw"]},"geometry":["point","area"],"matchScore":2,"terms":["pocketchange","ポケットチェンジ"],"tags":{"amenity":"bureau_de_change","brand:wikidata":"Q96182316"},"addTags":{"amenity":"bureau_de_change","brand":"PocketChange","brand:ja":"ポケットチェンジ","brand:wikidata":"Q96182316","name":"PocketChange","name:ja":"ポケットチェンジ"}},"amenity/cafe/bubble_tea/50lan-7d270d":{"name":"50嵐","locationSet":{"include":["tw"]},"geometry":["point","area"],"matchScore":2,"terms":["50 lan","50嵐"],"reference":{"key":"cuisine","value":"bubble_tea"},"tags":{"amenity":"cafe","brand:wikidata":"Q106926258","cuisine":"bubble_tea"},"addTags":{"amenity":"cafe","brand":"50嵐","brand:en":"50 Lan","brand:wikidata":"Q106926258","brand:zh":"50嵐","cuisine":"bubble_tea","name":"50嵐","name:en":"50 Lan","name:zh":"50嵐","takeaway":"yes"}},"amenity/cafe/coffee_shop/85cbakerycafe-aa349e":{"name":"85度C","locationSet":{"include":["cn","tw"]},"geometry":["point","area"],"matchScore":2,"terms":["85c bakery cafe","85度c"],"reference":{"key":"cuisine","value":"coffee_shop"},"tags":{"amenity":"cafe","brand:wikidata":"Q4644852","cuisine":"coffee_shop"},"addTags":{"amenity":"cafe","brand":"85度C","brand:en":"85C Bakery Cafe","brand:wikidata":"Q4644852","brand:zh":"85度C","cuisine":"coffee_shop","name":"85度C","name:en":"85C Bakery Cafe","name:zh":"85度C","takeaway":"yes"}},"amenity/cafe/bubble_tea/cocofreshteaandjuice-60211c":{"name":"CoCo都可","locationSet":{"include":["cn","hk","tw"]},"geometry":["point","area"],"matchScore":2,"terms":["coco fresh tea & juice","coco奶茶","coco都可","都可茶飲","都可茶饮"],"reference":{"key":"cuisine","value":"bubble_tea"},"tags":{"amenity":"cafe","brand:wikidata":"Q65084369","cuisine":"bubble_tea"},"addTags":{"amenity":"cafe","brand":"CoCo都可","brand:en":"CoCo Fresh Tea & Juice","brand:wikidata":"Q65084369","brand:zh":"CoCo都可","cuisine":"bubble_tea","name":"CoCo都可","name:en":"CoCo Fresh Tea & Juice","name:zh":"CoCo都可","takeaway":"yes"}},"amenity/cafe/bubble_tea/yifangtea-7d270d":{"name":"一芳水果茶(台灣)","locationSet":{"include":["tw"]},"geometry":["point","area"],"matchScore":2,"terms":["yi fang tea","一芳","一芳台灣水果茶","一芳水果茶","墨力國際股份有限公司"],"reference":{"key":"cuisine","value":"bubble_tea"},"tags":{"amenity":"cafe","brand:wikidata":"Q66196395","cuisine":"bubble_tea"},"addTags":{"amenity":"cafe","brand":"一芳水果茶","brand:en":"Yi Fang Tea","brand:wikidata":"Q66196395","brand:zh":"一芳水果茶","cuisine":"bubble_tea","name":"一芳水果茶","name:en":"Yi Fang Tea","name:zh":"一芳水果茶","operator":"墨力國際股份有限公司","takeaway":"yes"}},"amenity/cafe/coffee_shop/ueshimacoffeehouse-7f2f5a":{"name":"上島珈琲店","locationSet":{"include":["jp","tw"]},"geometry":["point","area"],"matchScore":2,"terms":["ueshima coffee house","上島珈琲","上島珈琲店"],"reference":{"key":"cuisine","value":"coffee_shop"},"tags":{"amenity":"cafe","brand:wikidata":"Q96152143","cuisine":"coffee_shop"},"addTags":{"amenity":"cafe","brand":"上島珈琲店","brand:en":"Ueshima Coffee House","brand:ja":"上島珈琲店","brand:wikidata":"Q96152143","cuisine":"coffee_shop","name":"上島珈琲店","name:en":"Ueshima Coffee House","name:ja":"上島珈琲店","takeaway":"yes"}},"amenity/cafe/bubble_tea/onezotapioca-783c92":{"name":"丸作食茶","locationSet":{"include":["hk","mo","tw"]},"geometry":["point","area"],"matchScore":2,"terms":["onezo","onezo tapioca","onezo tea","丸作","丸作食茶"],"reference":{"key":"cuisine","value":"bubble_tea"},"tags":{"amenity":"cafe","brand:wikidata":"Q111537052","cuisine":"bubble_tea"},"addTags":{"amenity":"cafe","brand":"丸作食茶","brand:en":"OneZo Tapioca","brand:wikidata":"Q111537052","brand:zh":"丸作食茶","cuisine":"bubble_tea","name":"丸作食茶","name:en":"OneZo Tapioca","name:zh":"丸作食茶","takeaway":"yes"}},"amenity/cafe/bubble_tea/kebuke-7d270d":{"name":"可不可熟成紅茶","locationSet":{"include":["tw"]},"geometry":["point","area"],"matchScore":2,"terms":["kebuke","可不可","可不可熟成紅茶"],"reference":{"key":"cuisine","value":"bubble_tea"},"tags":{"amenity":"cafe","brand:wikidata":"Q45572389","cuisine":"bubble_tea"},"addTags":{"amenity":"cafe","brand":"可不可熟成紅茶","brand:en":"Kebuke","brand:wikidata":"Q45572389","brand:zh":"可不可熟成紅茶","cuisine":"bubble_tea","name":"可不可熟成紅茶","name:en":"Kebuke","name:zh":"可不可熟成紅茶","short_name":"可不可","takeaway":"only"}},"amenity/cafe/bubble_tea/dayungs-7d270d":{"name":"大苑子","locationSet":{"include":["tw"]},"geometry":["point","area"],"matchScore":2,"terms":["dayung's","大苑子"],"reference":{"key":"cuisine","value":"bubble_tea"},"tags":{"amenity":"cafe","brand:wikidata":"Q67934123","cuisine":"bubble_tea"},"addTags":{"amenity":"cafe","brand":"大苑子","brand:en":"DaYung's","brand:wikidata":"Q67934123","brand:zh":"大苑子","cuisine":"bubble_tea","name":"大苑子","name:en":"DaYung's","name:zh":"大苑子","takeaway":"yes"}},"amenity/cafe/bubble_tea/tenrenstea-7d270d":{"name":"天仁茗茶","locationSet":{"include":["tw"]},"geometry":["point","area"],"matchScore":2,"terms":["tenren's tea","天仁茗茶"],"reference":{"key":"cuisine","value":"bubble_tea"},"tags":{"amenity":"cafe","brand:wikidata":"Q10939065","cuisine":"bubble_tea"},"addTags":{"amenity":"cafe","brand":"天仁茗茶","brand:en":"TenRen's Tea","brand:wikidata":"Q10939065","brand:zh":"天仁茗茶","cuisine":"bubble_tea","name":"天仁茗茶","name:en":"TenRen's Tea","name:zh":"天仁茗茶","takeaway":"yes"}},"amenity/cafe/bubble_tea/xingfutang-7d270d":{"name":"幸福堂","locationSet":{"include":["tw"]},"geometry":["point","area"],"matchScore":2,"terms":["xing fu tang","幸福堂"],"reference":{"key":"cuisine","value":"bubble_tea"},"tags":{"amenity":"cafe","brand:wikidata":"Q95720330","cuisine":"bubble_tea"},"addTags":{"amenity":"cafe","brand":"幸福堂","brand:en":"Xing Fu Tang","brand:wikidata":"Q95720330","brand:zh":"幸福堂","cuisine":"bubble_tea","int_name":"Xing Fu Tang","name":"幸福堂","name:en":"Xing Fu Tang","name:zh":"幸福堂","takeaway":"yes"}},"amenity/cafe/bubble_tea/happylemon-aa349e":{"name":"快乐柠檬","locationSet":{"include":["cn","tw"]},"geometry":["point","area"],"matchScore":2,"terms":["happy lemon","快乐柠檬"],"reference":{"key":"cuisine","value":"bubble_tea"},"tags":{"amenity":"cafe","brand:wikidata":"Q109968422","cuisine":"bubble_tea"},"addTags":{"amenity":"cafe","brand":"快乐柠檬","brand:en":"Happy Lemon","brand:wikidata":"Q109968422","brand:zh":"快乐柠檬","cuisine":"bubble_tea","name":"快乐柠檬","name:en":"Happy Lemon","name:zh":"快乐柠檬","takeaway":"yes"}},"amenity/cafe/bubble_tea/quickly-7d270d":{"name":"快可立","locationSet":{"include":["tw"]},"geometry":["point","area"],"matchScore":2,"terms":["quickly","快可立"],"reference":{"key":"cuisine","value":"bubble_tea"},"tags":{"amenity":"cafe","brand:wikidata":"Q3771463","cuisine":"bubble_tea"},"addTags":{"amenity":"cafe","brand":"快可立","brand:en":"Quickly","brand:wikidata":"Q3771463","brand:zh":"快可立","cuisine":"bubble_tea","name":"快可立","name:en":"Quickly","name:zh":"快可立","takeaway":"yes"}},"amenity/cafe/bubble_tea/chatime-7d270d":{"name":"日出茶太(Taiwan)","locationSet":{"include":["tw"]},"geometry":["point","area"],"matchScore":2,"terms":["chatime","日出茶太"],"reference":{"key":"cuisine","value":"bubble_tea"},"tags":{"amenity":"cafe","brand:wikidata":"Q16829306","cuisine":"bubble_tea"},"addTags":{"amenity":"cafe","brand":"日出茶太","brand:en":"Chatime","brand:wikidata":"Q16829306","brand:zh":"日出茶太","cuisine":"bubble_tea","name":"日出茶太","name:en":"Chatime","name:zh":"日出茶太","takeaway":"yes"}},"amenity/cafe/coffee_shop/hoshinocoffee-7f2f5a":{"name":"星乃珈琲店","locationSet":{"include":["jp","tw"]},"geometry":["point","area"],"matchScore":2,"terms":["hoshino coffee","星乃咖啡店","星乃珈琲店"],"reference":{"key":"cuisine","value":"coffee_shop"},"tags":{"amenity":"cafe","brand:wikidata":"Q88396880","cuisine":"coffee_shop"},"addTags":{"alt_name:zh":"星乃咖啡店","amenity":"cafe","brand":"星乃珈琲店","brand:en":"Hoshino Coffee","brand:ja":"星乃珈琲店","brand:wikidata":"Q88396880","cuisine":"coffee_shop","name":"星乃珈琲店","name:en":"Hoshino Coffee","name:ja":"星乃珈琲店","name:zh":"星乃珈琲店","takeaway":"yes"}},"amenity/cafe/coffee_shop/starbucks-7d270d":{"name":"星巴克(台灣)","locationSet":{"include":["tw"]},"geometry":["point","area"],"matchScore":2,"terms":["starbucks","悠旅生活事業股份有限公司","星巴克"],"reference":{"key":"cuisine","value":"coffee_shop"},"tags":{"amenity":"cafe","brand:wikidata":"Q37158","cuisine":"coffee_shop"},"addTags":{"amenity":"cafe","brand":"星巴克","brand:en":"Starbucks","brand:wikidata":"Q37158","brand:zh":"星巴克","cuisine":"coffee_shop","name":"星巴克","name:en":"Starbucks","name:zh":"星巴克","operator":"悠旅生活事業股份有限公司","takeaway":"yes"}},"amenity/cafe/bubble_tea/chingshin-7d270d":{"name":"清心福全","locationSet":{"include":["tw"]},"geometry":["point","area"],"matchScore":2,"terms":["ching shin","清心福全"],"reference":{"key":"cuisine","value":"bubble_tea"},"tags":{"amenity":"cafe","brand:wikidata":"Q10391229","cuisine":"bubble_tea"},"addTags":{"amenity":"cafe","brand":"清心福全","brand:en":"Ching Shin","brand:wikidata":"Q10391229","brand:zh":"清心福全","cuisine":"bubble_tea","name":"清心福全","name:en":"Ching Shin","name:zh":"清心福全","takeaway":"yes"}},"amenity/cafe/bubble_tea/truedan-7f2f5a":{"name":"珍煮丹","locationSet":{"include":["jp","tw"]},"geometry":["point","area"],"matchScore":2,"terms":["truedan","トゥルーダン","珍煮丹"],"reference":{"key":"cuisine","value":"bubble_tea"},"tags":{"amenity":"cafe","brand:wikidata":"Q108168889","cuisine":"bubble_tea"},"addTags":{"alt_name:ja":"トゥルーダン","amenity":"cafe","brand":"珍煮丹","brand:en":"Truedan","brand:ja":"珍煮丹","brand:wikidata":"Q108168889","brand:zh":"珍煮丹","cuisine":"bubble_tea","name":"珍煮丹","name:en":"Truedan","name:ja":"珍煮丹","name:zh":"珍煮丹","takeaway":"only"}},"amenity/cafe/bubble_tea/tigersugar-2851bb":{"name":"老虎堂","locationSet":{"include":["cn","tw"],"exclude":["hk"]},"geometry":["point","area"],"matchScore":2,"terms":["tiger sugar","老虎堂"],"reference":{"key":"cuisine","value":"bubble_tea"},"tags":{"amenity":"cafe","brand:wikidata":"Q76099070","cuisine":"bubble_tea"},"addTags":{"amenity":"cafe","brand":"老虎堂","brand:en":"Tiger Sugar","brand:wikidata":"Q76099070","brand:zh":"老虎堂","cuisine":"bubble_tea","name":"老虎堂","name:en":"Tiger Sugar","name:zh":"老虎堂","takeaway":"yes"}},"amenity/cafe/bubble_tea/tptea-7d270d":{"name":"茶湯會","locationSet":{"include":["tw"]},"geometry":["point","area"],"matchScore":2,"terms":["tp tea","茶湯會"],"reference":{"key":"cuisine","value":"bubble_tea"},"tags":{"amenity":"cafe","brand:wikidata":"Q108166023","cuisine":"bubble_tea"},"addTags":{"amenity":"cafe","brand":"茶湯會","brand:en":"TP Tea","brand:wikidata":"Q108166023","brand:zh":"茶湯會","cuisine":"bubble_tea","name":"茶湯會","name:en":"TP Tea","name:zh":"茶湯會","takeaway":"yes"}},"amenity/cafe/bubble_tea/teaandmagichand-7d270d":{"name":"茶的魔手","locationSet":{"include":["tw"]},"geometry":["point","area"],"matchScore":2,"terms":["tea & magic hand","茶的魔手"],"reference":{"key":"cuisine","value":"bubble_tea"},"tags":{"amenity":"cafe","brand:wikidata":"Q67933727","cuisine":"bubble_tea"},"addTags":{"amenity":"cafe","brand":"茶的魔手","brand:en":"Tea & Magic Hand","brand:wikidata":"Q67933727","brand:zh":"茶的魔手","cuisine":"bubble_tea","name":"茶的魔手","name:en":"Tea & Magic Hand","name:zh":"茶的魔手","takeaway":"yes"}},"amenity/cafe/bubble_tea/dingtea-f1b18f":{"name":"薡茶","locationSet":{"include":["cn","tw"],"exclude":["hk","mo"]},"geometry":["point","area"],"matchScore":2,"terms":["ding tea","薡茶"],"reference":{"key":"cuisine","value":"bubble_tea"},"tags":{"amenity":"cafe","brand:wikidata":"Q112123475","cuisine":"bubble_tea"},"addTags":{"amenity":"cafe","brand":"薡茶","brand:en":"Ding Tea","brand:wikidata":"Q112123475","brand:zh":"薡茶","cuisine":"bubble_tea","name":"薡茶","name:en":"Ding Tea","name:zh":"薡茶","takeaway":"yes"}},"amenity/cafe/bubble_tea/gongcha-7d270d":{"name":"貢茶 (Taiwan)","locationSet":{"include":["tw"]},"geometry":["point","area"],"matchScore":2,"terms":["gong cha","貢茶"],"reference":{"key":"cuisine","value":"bubble_tea"},"tags":{"amenity":"cafe","brand:wikidata":"Q5581670","cuisine":"bubble_tea"},"addTags":{"amenity":"cafe","brand":"貢茶","brand:en":"Gong Cha","brand:wikidata":"Q5581670","brand:zh":"貢茶","brand:zh-Hans":"贡茶","brand:zh-Hant":"貢茶","cuisine":"bubble_tea","int_name":"Gong Cha","name":"貢茶","name:en":"Gong Cha","name:zh":"貢茶","name:zh-Hans":"贡茶","name:zh-Hant":"貢茶","takeaway":"yes"}},"amenity/cafe/coffee_shop/louisacoffee-7d270d":{"name":"路易莎咖啡","locationSet":{"include":["tw"]},"geometry":["point","area"],"matchScore":2,"terms":["louisa coffee","路易莎咖啡"],"reference":{"key":"cuisine","value":"coffee_shop"},"tags":{"amenity":"cafe","brand:wikidata":"Q67933328","cuisine":"coffee_shop"},"addTags":{"amenity":"cafe","brand":"路易莎咖啡","brand:en":"Louisa Coffee","brand:wikidata":"Q67933328","brand:zh":"路易莎咖啡","cuisine":"coffee_shop","name":"路易莎咖啡","name:en":"Louisa Coffee","name:zh":"路易莎咖啡","takeaway":"yes"}},"amenity/cafe/bubble_tea/milkshop-7d270d":{"name":"迷客夏","locationSet":{"include":["tw"]},"geometry":["point","area"],"matchScore":2,"terms":["milkshop","迷客夏"],"reference":{"key":"cuisine","value":"bubble_tea"},"tags":{"amenity":"cafe","brand:wikidata":"Q67934215","cuisine":"bubble_tea"},"addTags":{"amenity":"cafe","brand":"迷客夏","brand:en":"Milkshop","brand:wikidata":"Q67934215","brand:zh":"迷客夏","cuisine":"bubble_tea","name":"迷客夏","name:en":"Milkshop","name:zh":"迷客夏","takeaway":"yes"}},"amenity/cafe/bubble_tea/e7db71-7d270d":{"name":"鮮茶道","locationSet":{"include":["tw"]},"geometry":["point","area"],"matchScore":2,"terms":["鮮茶道"],"reference":{"key":"cuisine","value":"bubble_tea"},"tags":{"amenity":"cafe","brand:wikidata":"Q108166223","cuisine":"bubble_tea"},"addTags":{"amenity":"cafe","brand":"鮮茶道","brand:wikidata":"Q108166223","cuisine":"bubble_tea","name":"鮮茶道","takeaway":"yes"}},"amenity/cafe/bubble_tea/hechaloutea-7d270d":{"name":"鶴茶樓","locationSet":{"include":["tw"]},"geometry":["point","area"],"matchScore":2,"terms":["hechalou","hechalou tea","鶴茶樓"],"reference":{"key":"cuisine","value":"bubble_tea"},"tags":{"amenity":"cafe","brand:wikidata":"Q108168889","cuisine":"bubble_tea"},"addTags":{"alt_name:en":"Hechalou","amenity":"cafe","brand":"鶴茶樓","brand:en":"Hechalou Tea","brand:wikidata":"Q108168889","brand:zh":"鶴茶樓","cuisine":"bubble_tea","name":"鶴茶樓","name:en":"Hechalou Tea","name:zh":"鶴茶樓","takeaway":"only"}},"amenity/fast_food/hot_dog/costcofoodcourt-2909a2":{"name":"Costco Food Court","locationSet":{"include":["au","ca","jp","kr","mx","tw","uk","us"]},"geometry":["point","area"],"matchScore":2,"terms":["costco"],"reference":{"key":"cuisine","value":"hot_dog"},"tags":{"amenity":"fast_food","brand:wikidata":"Q715583","cuisine":"hot_dog;pizza;sandwich"},"addTags":{"amenity":"fast_food","brand":"Costco","brand:wikidata":"Q715583","cuisine":"hot_dog;pizza;sandwich","name":"Costco Food Court","takeaway":"yes"}},"amenity/fast_food/sandwich/panos-f9b8a7":{"name":"Panos","locationSet":{"include":["ae","be","cz","nl","sk","tw"]},"geometry":["point","area"],"matchScore":2,"terms":["panos"],"reference":{"key":"cuisine","value":"sandwich"},"tags":{"amenity":"fast_food","brand:wikidata":"Q3384496","cuisine":"sandwich"},"addTags":{"amenity":"fast_food","brand":"Panos","brand:wikidata":"Q3384496","cuisine":"sandwich","name":"Panos","takeaway":"yes"}},"amenity/fast_food/marugameseimen-f9a382":{"name":"丸亀製麺","locationSet":{"include":["hk","jp","tw"]},"geometry":["point","area"],"matchScore":2,"terms":["marugame seimen","丸亀製麵","丸亀製麺"],"tags":{"amenity":"fast_food","brand:wikidata":"Q10877253"},"addTags":{"amenity":"fast_food","brand":"丸亀製麺","brand:en":"Marugame Seimen","brand:ja":"丸亀製麺","brand:wikidata":"Q10877253","brand:zh":"丸亀製麵","cuisine":"noodle","name":"丸亀製麺","name:en":"Marugame Seimen","name:ja":"丸亀製麺","name:zh":"丸亀製麵","takeaway":"yes"}},"amenity/fast_food/eightway-2ee3fc":{"name":"八方雲集","locationSet":{"include":["cn","tw"],"exclude":["hk"]},"geometry":["point","area"],"matchScore":2,"terms":["eight way","八方雲集"],"tags":{"amenity":"fast_food","brand:wikidata":"Q28417381"},"addTags":{"amenity":"fast_food","brand":"八方雲集","brand:en":"Eight Way","brand:wikidata":"Q28417381","brand:zh":"八方雲集","cuisine":"dumplings","name":"八方雲集","name:en":"Eight Way","name:zh":"八方雲集","takeaway":"yes"}},"amenity/fast_food/yoshinoya-83b137":{"name":"吉野家","locationSet":{"include":["cn","jp","tw"]},"geometry":["point","area"],"matchScore":2,"terms":["yoshinoya","吉野家","吉野家 yoshinoya"],"tags":{"amenity":"fast_food","brand:wikidata":"Q776272"},"addTags":{"amenity":"fast_food","brand":"吉野家","brand:en":"Yoshinoya","brand:ja":"吉野家","brand:wikidata":"Q776272","brand:zh":"吉野家","cuisine":"beef_bowl","name":"吉野家","name:en":"Yoshinoya","name:ja":"吉野家","name:zh":"吉野家","takeaway":"yes"}},"amenity/fast_food/burger/jsp-60a4d5":{"name":"呷尚寶","locationSet":{"include":["tw"]},"geometry":["point","area"],"matchScore":2,"terms":["jsp","呷尚寶"],"reference":{"key":"cuisine","value":"burger"},"tags":{"amenity":"fast_food","brand:wikidata":"Q109996570","cuisine":"burger"},"addTags":{"amenity":"fast_food","brand":"呷尚寶","brand:en":"JSP","brand:wikidata":"Q109996570","brand:zh":"呷尚寶","cuisine":"burger","name":"呷尚寶","name:en":"JSP","name:zh":"呷尚寶","takeaway":"yes"}},"amenity/fast_food/jyulinmeiandmei-60a4d5":{"name":"巨林美而美","locationSet":{"include":["tw"]},"geometry":["point","area"],"matchScore":2,"terms":["jyulin mei & mei","巨林美而美","巨林食品企業有限公司"],"tags":{"amenity":"fast_food","brand:wikidata":"Q105722219"},"addTags":{"amenity":"fast_food","brand":"巨林美而美","brand:en":"Jyulin Mei & Mei","brand:wikidata":"Q105722219","brand:zh":"巨林美而美","cuisine":"breakfast","name":"巨林美而美","name:en":"Jyulin Mei & Mei","name:zh":"巨林美而美","operator":"巨林食品企業有限公司","takeaway":"yes"}},"amenity/fast_food/hongyahambuger-60a4d5":{"name":"弘爺漢堡","locationSet":{"include":["tw"]},"geometry":["point","area"],"matchScore":2,"terms":["hong ya hambuger","弘爺國際企業股份有限公司","弘爺漢堡"],"tags":{"amenity":"fast_food","brand:wikidata":"Q105377817"},"addTags":{"amenity":"fast_food","brand":"弘爺漢堡","brand:en":"Hong Ya Hambuger","brand:wikidata":"Q105377817","brand:zh":"弘爺漢堡","cuisine":"american;breakfast","name":"弘爺漢堡","name:en":"Hong Ya Hambuger","name:zh":"弘爺漢堡","operator":"弘爺國際企業股份有限公司","takeaway":"yes"}},"amenity/fast_food/burger/dicos-9ca0ff":{"name":"德克士","locationSet":{"include":["cn","tw"]},"geometry":["point","area"],"matchScore":2,"terms":["dicos","德克士"],"reference":{"key":"cuisine","value":"burger"},"tags":{"amenity":"fast_food","brand:wikidata":"Q5273883","cuisine":"burger;chicken"},"addTags":{"amenity":"fast_food","brand":"德克士","brand:en":"Dicos","brand:wikidata":"Q5273883","brand:zh":"德克士","cuisine":"burger;chicken","name":"德克士","name:en":"Dicos","name:zh":"德克士","takeaway":"yes"}},"amenity/fast_food/burger/layaburger-60a4d5":{"name":"拉亞漢堡","locationSet":{"include":["tw"]},"geometry":["point","area"],"matchScore":2,"terms":["laya burger","拉亞漢堡"],"reference":{"key":"cuisine","value":"burger"},"tags":{"amenity":"fast_food","brand:wikidata":"Q67933743","cuisine":"burger;breakfast"},"addTags":{"amenity":"fast_food","brand":"拉亞漢堡","brand:en":"Laya Burger","brand:wikidata":"Q67933743","brand:zh":"拉亞漢堡","cuisine":"burger;breakfast","name":"拉亞漢堡","name:en":"Laya Burger","name:zh":"拉亞漢堡","takeaway":"yes"}},"amenity/fast_food/burger/mosburger-dffce8":{"name":"摩斯漢堡","locationSet":{"include":["cn","sg","tw"]},"geometry":["point","area"],"matchScore":2,"terms":["mos burger","摩斯漢堡"],"reference":{"key":"cuisine","value":"burger"},"tags":{"amenity":"fast_food","brand:wikidata":"Q1204169","cuisine":"burger"},"addTags":{"amenity":"fast_food","brand":"摩斯漢堡","brand:en":"MOS Burger","brand:wikidata":"Q1204169","brand:zh":"摩斯漢堡","cuisine":"burger","name":"摩斯漢堡","name:en":"MOS Burger","name:zh":"摩斯漢堡","takeaway":"yes"}},"amenity/fast_food/goodmorningmacc-60a4d5":{"name":"早安美芝城","locationSet":{"include":["tw"]},"geometry":["point","area"],"matchScore":2,"terms":["good morning macc","早安美芝城","美芝城實業股份有限公司"],"tags":{"amenity":"fast_food","brand:wikidata":"Q30941219"},"addTags":{"amenity":"fast_food","brand":"早安美芝城","brand:en":"Good Morning MACC","brand:wikidata":"Q30941219","brand:zh":"早安美芝城","cuisine":"breakfast","name":"早安美芝城","name:en":"Good Morning MACC","name:zh":"早安美芝城","operator":"美芝城實業股份有限公司","takeaway":"yes"}},"amenity/fast_food/matsuya-992e2a":{"name":"松屋","locationSet":{"include":["cn","jp","sg","tw"],"exclude":["hk","mo"]},"geometry":["point","area"],"matchScore":2,"terms":["matsuya","matsuya foods","松屋","松屋フーズ"],"tags":{"amenity":"fast_food","brand:wikidata":"Q848773"},"addTags":{"amenity":"fast_food","brand":"松屋","brand:en":"Matsuya","brand:ja":"松屋","brand:wikidata":"Q848773","cuisine":"japanese","name":"松屋","name:en":"Matsuya","name:ja":"松屋","name:zh":"松屋","official_name":"松屋フーズ","official_name:en":"Matsuya Foods","official_name:ja":"松屋フーズ","takeaway":"yes"}},"amenity/fast_food/burger/burgerking-60a4d5":{"name":"漢堡王","locationSet":{"include":["tw"]},"geometry":["point","area"],"matchScore":2,"terms":["burger king","家城股份有限公司","漢堡王"],"reference":{"key":"cuisine","value":"burger"},"tags":{"amenity":"fast_food","brand:wikidata":"Q177054","cuisine":"burger"},"addTags":{"amenity":"fast_food","brand":"漢堡王","brand:en":"Burger King","brand:wikidata":"Q177054","brand:zh":"漢堡王","cuisine":"burger","name":"漢堡王","name:en":"Burger King","name:zh":"漢堡王","operator":"家城股份有限公司","ref:vatin":"TW23309178","takeaway":"yes"}},"amenity/fast_food/rueilinmeiandmei-60a4d5":{"name":"瑞麟美而美","locationSet":{"include":["tw"]},"geometry":["point","area"],"matchScore":2,"terms":["rueilin mei & mei","瑞麟美而美","美而美餐飲連鎖企業集團"],"tags":{"amenity":"fast_food","brand:wikidata":"Q56197246"},"addTags":{"amenity":"fast_food","brand":"瑞麟美而美","brand:en":"Rueilin Mei & Mei","brand:wikidata":"Q56197246","brand:zh":"瑞麟美而美","cuisine":"breakfast","name":"瑞麟美而美","name:en":"Rueilin Mei & Mei","name:zh":"瑞麟美而美","operator":"美而美餐飲連鎖企業集團","takeaway":"yes"}},"amenity/fast_food/jandgfriedchicken-60a4d5":{"name":"繼光香香雞","locationSet":{"include":["tw"]},"geometry":["point","area"],"matchScore":2,"terms":["j&g fried chicken","繼光香香雞"],"tags":{"amenity":"fast_food","brand:wikidata":"Q110256533"},"addTags":{"amenity":"fast_food","brand":"繼光香香雞","brand:en":"J&G Fried Chicken","brand:wikidata":"Q110256533","brand:zh":"繼光香香雞","cuisine":"fried_food","name":"繼光香香雞","name:en":"J&G Fried Chicken","name:zh":"繼光香香雞","takeaway":"yes"}},"amenity/fast_food/chicken/kfc-64dc13":{"name":"肯德基","locationSet":{"include":["cn","sg","tw"],"exclude":["hk","mo"]},"geometry":["point","area"],"matchScore":2,"terms":["kfc","肯德基"],"reference":{"key":"cuisine","value":"chicken"},"tags":{"amenity":"fast_food","brand:wikidata":"Q524757","cuisine":"chicken"},"addTags":{"amenity":"fast_food","brand":"肯德基","brand:en":"KFC","brand:wikidata":"Q524757","brand:zh":"肯德基","cuisine":"chicken","name":"肯德基","name:en":"KFC","name:zh":"肯德基","takeaway":"yes"}},"amenity/fast_food/kurasushi-60a4d5":{"name":"藏壽司","locationSet":{"include":["tw"]},"geometry":["point","area"],"matchScore":2,"terms":["kura sushi","藏壽司"],"tags":{"amenity":"fast_food","brand:wikidata":"Q6445491"},"addTags":{"amenity":"fast_food","brand":"藏壽司","brand:en":"Kura Sushi","brand:wikidata":"Q6445491","brand:zh":"藏壽司","cuisine":"sushi","name":"藏壽司","name:en":"Kura Sushi","name:zh":"藏壽司","takeaway":"yes"}},"amenity/fast_food/chicken/tkkfriedchicken-60a4d5":{"name":"頂呱呱","locationSet":{"include":["tw"]},"geometry":["point","area"],"matchScore":2,"terms":["tkk fried chicken","頂呱呱"],"reference":{"key":"cuisine","value":"chicken"},"tags":{"amenity":"fast_food","brand:wikidata":"Q15715284","cuisine":"chicken"},"addTags":{"amenity":"fast_food","brand":"頂呱呱","brand:en":"TKK Fried Chicken","brand:wikidata":"Q15715284","brand:zh":"頂呱呱","cuisine":"chicken","name":"頂呱呱","name:en":"TKK Fried Chicken","name:zh":"頂呱呱","takeaway":"yes"}},"amenity/fast_food/sukiya-2ee3fc":{"name":"食其家","locationSet":{"include":["cn","tw"],"exclude":["hk"]},"geometry":["point","area"],"matchScore":2,"terms":["sukiya","すき家","食其家"],"tags":{"amenity":"fast_food","brand:wikidata":"Q6137375"},"addTags":{"amenity":"fast_food","brand":"すき家","brand:en":"Sukiya","brand:ja":"すき家","brand:wikidata":"Q6137375","brand:zh":"食其家","cuisine":"beef_bowl","name":"食其家","name:en":"Sukiya","name:ja":"食其家","name:zh":"食其家","takeaway":"yes"}},"amenity/fast_food/burger/mcdonalds-60a4d5":{"name":"麥當勞","locationSet":{"include":["tw"]},"geometry":["point","area"],"matchScore":2,"terms":["mcdonald's","麥當勞"],"reference":{"key":"cuisine","value":"burger"},"tags":{"amenity":"fast_food","brand:wikidata":"Q38076","cuisine":"burger"},"addTags":{"amenity":"fast_food","brand":"麥當勞","brand:en":"McDonald's","brand:wikidata":"Q38076","brand:zh":"麥當勞","brand:zh-Hant":"麥當勞","cuisine":"burger","name":"麥當勞","name:en":"McDonald's","name:zh":"麥當勞","name:zh-Hant":"麥當勞","takeaway":"yes"}},"amenity/fuel/npc-db3418":{"name":"全國加油站","locationSet":{"include":["tw"]},"geometry":["point","area"],"matchScore":2,"terms":["npc","全國加油站"],"fields":["name","brand","{amenity/fuel}"],"tags":{"amenity":"fuel","brand:wikidata":"Q20410455"},"addTags":{"amenity":"fuel","brand":"全國加油站","brand:en":"NPC","brand:wikidata":"Q20410455","brand:zh":"全國加油站","name":"全國加油站","name:en":"NPC","name:zh":"全國加油站"}},"amenity/fuel/cpccorporationtaiwan-db3418":{"name":"台灣中油","locationSet":{"include":["tw"]},"geometry":["point","area"],"matchScore":2,"terms":["cpc corporation, taiwan","中油","台灣中油"],"fields":["name","brand","{amenity/fuel}"],"tags":{"amenity":"fuel","brand:wikidata":"Q698024"},"addTags":{"amenity":"fuel","brand":"台灣中油","brand:en":"CPC Corporation, Taiwan","brand:wikidata":"Q698024","brand:zh":"台灣中油","name":"台灣中油","name:en":"CPC Corporation, Taiwan","name:zh":"台灣中油"}},"amenity/ice_cream/meetfresh-a79c9c":{"name":"鮮芋仙","locationSet":{"include":["cn","tw"],"exclude":["hk","mo"]},"geometry":["point","area"],"matchScore":2,"terms":["meet fresh","鮮芋仙"],"tags":{"amenity":"ice_cream","brand:wikidata":"Q11172707"},"addTags":{"amenity":"ice_cream","brand":"鮮芋仙","brand:en":"Meet Fresh","brand:wikidata":"Q11172707","brand:zh":"鮮芋仙","cuisine":"taiwanese","name":"鮮芋仙","name:en":"Meet Fresh","name:zh":"鮮芋仙"}},"amenity/language_school/shaneenglishschool-85e50b":{"name":"夏恩英語學校","locationSet":{"include":["tw"]},"geometry":["point","area"],"matchScore":2,"terms":["shane english school","夏恩英語學校"],"fields":["name","brand","{amenity/language_school}"],"tags":{"amenity":"language_school","brand:wikidata":"Q17054332"},"addTags":{"amenity":"language_school","brand":"夏恩英語學校","brand:en":"Shane English School","brand:wikidata":"Q17054332","brand:zh":"夏恩英語學校","language:en":"main","name":"夏恩英語學校","name:en":"Shane English School","name:zh":"夏恩英語學校"}},"amenity/music_school/schoolofrock-4e6205":{"name":"School of Rock","locationSet":{"include":["au","br","ca","cl","co","es","mx","pe","ph","py","tw","us","za"]},"geometry":["point","area"],"matchScore":2,"terms":["school of rock"],"fields":["name","brand","{amenity/music_school}"],"tags":{"amenity":"music_school","brand:wikidata":"Q7756376"},"addTags":{"amenity":"music_school","brand":"School of Rock","brand:wikidata":"Q7756376","name":"School of Rock"}},"amenity/parcel_locker/ibox-89f0e2":{"name":"i郵箱","locationSet":{"include":["tw"]},"geometry":["point","vertex","area"],"matchScore":2,"terms":["chunghwa post","ezpost","i-iû-siu\u207f","ibox","i郵箱","tiong-hôa iû-chèng","中華郵政"],"fields":["name","brand","{amenity/parcel_locker}"],"reference":{"key":"amenity","value":"parcel_locker"},"tags":{"amenity":"parcel_locker","brand:wikidata":"Q4375439"},"addTags":{"amenity":"parcel_locker","brand":"i郵箱","brand:en":"iBox","brand:nan":"i-iû-siu\u207f","brand:nan-HJ":"i郵箱","brand:nan-POJ":"i-iû-siu\u207f","brand:nan-TL":"i-iû-siunn","brand:wikidata":"Q4375439","brand:zh":"i郵箱","operator":"中華郵政","operator:en":"Chunghwa Post","operator:nan":"Tiong-hôa Iû-chèng","operator:nan-HJ":"中華郵政","operator:nan-POJ":"Tiong-hôa Iû-chèng","operator:nan-TL":"Tiong-huâ Iû-tsìng","operator:wikidata":"Q709259","operator:zh":"中華郵政","operator:zh-Hans":"中华邮政","operator:zh-Hant":"中華郵政","parcel_mail_in":"yes","parcel_pickup":"yes"}},"amenity/pharmacy/tintindrugstore-53e0d8":{"name":"丁丁藥局","locationSet":{"include":["cn","hk","tw"]},"geometry":["point","area"],"matchScore":2,"terms":["tin tin drugstore","丁丁藥局"],"reference":{"key":"amenity","value":"pharmacy"},"tags":{"amenity":"pharmacy","brand:wikidata":"Q108166589"},"addTags":{"amenity":"pharmacy","brand":"丁丁藥局","brand:en":"Tin Tin Drugstore","brand:wikidata":"Q108166589","brand:zh":"丁丁藥局","healthcare":"pharmacy","name":"丁丁藥局","name:en":"Tin Tin Drugstore","name:zh":"丁丁藥局","shop":"chemist"}},"amenity/restaurant/noodle/ippudo-d30421":{"name":"一風堂","locationSet":{"include":["jp","tw"]},"geometry":["point","area"],"matchScore":2,"terms":["ippudo","一風堂"],"reference":{"key":"cuisine","value":"noodle"},"tags":{"amenity":"restaurant","brand:wikidata":"Q6065417","cuisine":"noodle"},"addTags":{"amenity":"restaurant","brand":"一風堂","brand:en":"Ippudo","brand:wikidata":"Q6065417","brand:zh":"一風堂","cuisine":"noodle","name":"一風堂","name:en":"Ippudo","name:ja":"一風堂","name:zh":"一風堂"}},"amenity/restaurant/mercuriesfood-aafd63":{"name":"三商巧福 (臺灣)","locationSet":{"include":["tw"]},"geometry":["point","area"],"matchScore":2,"terms":["mercuries food","sam-siong kháu-hok","sâm-sông kháu-fuk","三商巧福"],"tags":{"amenity":"restaurant","brand:wikidata":"Q10865579"},"addTags":{"amenity":"restaurant","brand":"三商巧福","brand:wikidata":"Q10865579","brand:zh":"三商巧福","cuisine":"taiwanese","name":"三商巧福","name:en":"Mercuries Food","name:hak":"Sâm-sông Kháu-fuk","name:nan":"Sam-siong Kháu-hok","name:nan-HJ":"三商巧福","name:nan-POJ":"Sam-siong Kháu-hok","name:nan-TL":"Sam-siong Kháu-hok","name:zh":"三商巧福"}},"amenity/restaurant/goldseight-aafd63":{"name":"三媽臭臭鍋","locationSet":{"include":["tw"]},"geometry":["point","area"],"matchScore":2,"terms":["gold seight","三媽臭臭鍋"],"tags":{"amenity":"restaurant","brand:wikidata":"Q108212222"},"addTags":{"amenity":"restaurant","brand":"三媽臭臭鍋","brand:wikidata":"Q108212222","brand:zh":"三媽臭臭鍋","cuisine":"taiwanese","name":"三媽臭臭鍋","name:en":"Gold Seight","name:zh":"三媽臭臭鍋"}},"amenity/restaurant/yuloong-aafd63":{"name":"四海遊龍","locationSet":{"include":["tw"]},"geometry":["point","area"],"matchScore":2,"terms":["yuloong","四海遊龍"],"tags":{"amenity":"restaurant","brand:wikidata":"Q28417394"},"addTags":{"amenity":"restaurant","brand":"四海遊龍","brand:en":"YuLoong","brand:wikidata":"Q28417394","brand:zh":"四海遊龍","cuisine":"dumplings","name":"四海遊龍","name:en":"YuLoong","name:zh":"四海遊龍"}},"amenity/restaurant/sushi/sushiro-aafd63":{"name":"壽司郎","locationSet":{"include":["tw"]},"geometry":["point","area"],"matchScore":2,"terms":["sushiro","スシロー","壽司郎"],"reference":{"key":"cuisine","value":"sushi"},"tags":{"amenity":"restaurant","brand:wikidata":"Q11257037","cuisine":"sushi"},"addTags":{"amenity":"restaurant","brand":"壽司郎","brand:en":"Sushiro","brand:ja":"スシロー","brand:wikidata":"Q11257037","brand:zh":"壽司郎","cuisine":"sushi","name":"壽司郎","name:en":"Sushiro","name:ja":"スシロー","name:zh":"壽司郎"}},"amenity/restaurant/japanese/ootoya-d30421":{"name":"大戸屋","locationSet":{"include":["jp","tw"]},"geometry":["point","area"],"matchScore":2,"terms":["ootoya","大戶屋","大戸屋"],"reference":{"key":"cuisine","value":"japanese"},"tags":{"amenity":"restaurant","brand:wikidata":"Q11435522","cuisine":"japanese"},"addTags":{"amenity":"restaurant","brand":"大戸屋","brand:en":"Ootoya","brand:ja":"大戸屋","brand:wikidata":"Q11435522","brand:zh":"大戶屋","cuisine":"japanese","name":"大戸屋","name:en":"Ootoya","name:ja":"大戸屋","name:zh":"大戶屋"}},"amenity/restaurant/japanese/osakaohsho-d30421":{"name":"大阪王将","locationSet":{"include":["jp","tw"]},"geometry":["point","area"],"matchScore":2,"terms":["osaka ohsho","大叛王將","大阪王将"],"reference":{"key":"cuisine","value":"japanese"},"tags":{"amenity":"restaurant","brand:wikidata":"Q48743717","cuisine":"japanese;chinese"},"addTags":{"amenity":"restaurant","brand":"大阪王将","brand:en":"Osaka Ohsho","brand:ja":"大阪王将","brand:wikidata":"Q48743717","brand:zh":"大叛王將","cuisine":"japanese;chinese","name":"大阪王将","name:en":"Osaka Ohsho","name:ja":"大阪王将","name:zh":"大叛王將"}},"amenity/restaurant/sundongbaobeefsteak-aafd63":{"name":"孫東寶台式牛排","locationSet":{"include":["tw"]},"geometry":["point","area"],"matchScore":2,"terms":["sundongbao beef steak","孫東寶台式牛排"],"tags":{"amenity":"restaurant","brand:wikidata":"Q101084415"},"addTags":{"amenity":"restaurant","brand":"孫東寶台式牛排","brand:en":"SunDongbao Beef Steak","brand:wikidata":"Q101084415","brand:zh":"孫東寶台式牛排","cuisine":"steak","name":"孫東寶台式牛排","name:en":"SunDongbao Beef Steak","name:zh":"孫東寶台式牛排"}},"amenity/restaurant/american/ponderosasteakhouse-aafd63":{"name":"龐德羅莎","locationSet":{"include":["tw"]},"geometry":["point","area"],"matchScore":2,"terms":["ponderosa","ponderosa steakhouse","龐德羅莎"],"reference":{"key":"cuisine","value":"american"},"tags":{"amenity":"restaurant","brand:wikidata":"Q64038204","cuisine":"american;steak;buffet"},"addTags":{"amenity":"restaurant","brand":"龐德羅莎","brand:en":"Ponderosa Steakhouse","brand:wikidata":"Q64038204","brand:zh":"龐德羅莎","cuisine":"american;steak;buffet","name":"龐德羅莎","name:en":"Ponderosa Steakhouse","name:zh":"龐德羅莎"}},"amenity/restaurant/pizza/pizzahut-aafd63":{"name":"必勝客 (臺灣)","locationSet":{"include":["tw"]},"geometry":["point","area"],"matchScore":2,"terms":["jardine food services (taiwan) co., ltd.","pizza hut","富利餐飲股份有限公司","必勝客"],"reference":{"key":"cuisine","value":"pizza"},"tags":{"amenity":"restaurant","brand:wikidata":"Q191615","cuisine":"pizza"},"addTags":{"amenity":"restaurant","brand":"必勝客","brand:en":"Pizza Hut","brand:wikidata":"Q191615","brand:zh":"必勝客","cuisine":"pizza","name":"必勝客","name:en":"Pizza Hut","name:zh":"必勝客","operator":"富利餐飲股份有限公司","operator:en":"JARDINE FOOD SERVICES (TAIWAN) CO., LTD.","operator:zh":"富利餐飲股份有限公司"}},"amenity/restaurant/liangshehanbuyfood-aafd63":{"name":"梁社漢排骨","locationSet":{"include":["tw"]},"geometry":["point","area"],"matchScore":2,"terms":["liang she han buy food","梁社漢排骨"],"tags":{"amenity":"restaurant","brand:wikidata":"Q108204804"},"addTags":{"amenity":"restaurant","brand":"梁社漢排骨","brand:en":"Liang She Han Buy Food","brand:wikidata":"Q108204804","brand:zh":"梁社漢排骨","cuisine":"taiwanese","name":"梁社漢排骨","name:en":"Liang She Han Buy Food","name:zh":"梁社漢排骨"}},"amenity/restaurant/chinese/yonghesoymilk-aafd63":{"name":"永和豆漿 (臺灣)","locationSet":{"include":["tw"]},"geometry":["point","area"],"matchScore":2,"terms":["yonghe soy milk","永和豆漿"],"reference":{"key":"cuisine","value":"chinese"},"tags":{"amenity":"restaurant","brand:wikidata":"Q11131335","cuisine":"chinese;breakfast"},"addTags":{"amenity":"restaurant","brand":"永和豆漿","brand:en":"Yonghe Soy Milk","brand:wikidata":"Q11131335","cuisine":"chinese;breakfast","name":"永和豆漿","name:en":"Yonghe Soy Milk","name:zh":"永和豆漿","name:zh-Hans":"永和豆浆","name:zh-Hant":"永和豆漿"}},"amenity/restaurant/chinese/haidilaohotpot-aafd63":{"name":"海底撈火鍋","locationSet":{"include":["tw"]},"geometry":["point","area"],"matchScore":2,"terms":["haidilao hot pot","海底撈火鍋"],"reference":{"key":"cuisine","value":"chinese"},"tags":{"amenity":"restaurant","brand:wikidata":"Q5638920","cuisine":"chinese;hot_pot"},"addTags":{"amenity":"restaurant","brand":"海底撈火鍋","brand:en":"Haidilao Hot Pot","brand:wikidata":"Q5638920","brand:zh":"海底撈火鍋","brand:zh-Hans":"海底捞火锅","brand:zh-Hant":"海底撈火鍋","cuisine":"chinese;hot_pot","name":"海底撈火鍋","name:en":"Haidilao Hot Pot","name:zh":"海底撈火鍋","name:zh-Hans":"海底捞火锅","name:zh-Hant":"海底撈火鍋"}},"amenity/restaurant/japanese/fish180-aafd63":{"name":"百八魚場","locationSet":{"include":["tw"]},"geometry":["point","area"],"matchScore":2,"terms":["fish 180","百八魚場"],"reference":{"key":"cuisine","value":"japanese"},"tags":{"amenity":"restaurant","brand:wikidata":"Q108199211","cuisine":"japanese"},"addTags":{"amenity":"restaurant","brand":"百八魚場","brand:en":"Fish 180","brand:wikidata":"Q108199211","brand:zh":"百八魚場","cuisine":"japanese","name":"百八魚場","name:en":"Fish 180","name:zh":"百八魚場"}},"amenity/restaurant/italian/saizeriya-aafd63":{"name":"薩莉亞","locationSet":{"include":["tw"]},"geometry":["point","area"],"matchScore":2,"terms":["saizeriya","サイゼリヤ","薩莉亞"],"reference":{"key":"cuisine","value":"italian"},"tags":{"amenity":"restaurant","brand:wikidata":"Q886564","cuisine":"italian"},"addTags":{"amenity":"restaurant","brand":"薩莉亞","brand:en":"Saizeriya","brand:it":"Saizeriya","brand:ja":"サイゼリヤ","brand:wikidata":"Q886564","brand:zh":"薩莉亞","cuisine":"italian","name":"薩莉亞","name:en":"Saizeriya","name:it":"Saizeriya","name:ja":"サイゼリヤ","name:zh":"薩莉亞"}},"amenity/restaurant/noblesteak-aafd63":{"name":"貴族世家","locationSet":{"include":["tw"]},"geometry":["point","area"],"matchScore":2,"terms":["noble steak","貴族世家"],"tags":{"amenity":"restaurant","brand:wikidata":"Q24702031"},"addTags":{"amenity":"restaurant","brand":"貴族世家","brand:en":"Noble Steak","brand:wikidata":"Q24702031","brand:zh":"貴族世家","cuisine":"steak","name":"貴族世家","name:en":"Noble Steak","name:zh":"貴族世家"}},"amenity/restaurant/formosachang-aafd63":{"name":"鬍鬚張","locationSet":{"include":["tw"]},"geometry":["point","area"],"matchScore":2,"terms":["formosa chang","fù-sî chông","hó͘-chhiu tiong","鬍鬚張"],"tags":{"amenity":"restaurant","brand:wikidata":"Q15900479"},"addTags":{"amenity":"restaurant","brand":"鬍鬚張","brand:en":"Formosa Chang","brand:wikidata":"Q15900479","brand:zh":"鬍鬚張","cuisine":"taiwanese","name":"鬍鬚張","name:en":"Formosa Chang","name:hak":"Fù-sî Chông","name:nan":"Hó͘-chhiu Tiong","name:nan-HJ":"鬍鬚張","name:nan-POJ":"Hó͘-chhiu Tiong","name:nan-TL":"Hóo-tshiu Tiong","name:zh":"鬍鬚張","name:zh-Hant":"鬍鬚張"}},"amenity/restaurant/dintaifung-aafd63":{"name":"鼎泰豐","locationSet":{"include":["tw"]},"geometry":["point","area"],"matchScore":2,"terms":["din tai fung","téng-thài-hong","tín-thai-fûng","鼎泰豐"],"tags":{"amenity":"restaurant","brand:wikidata":"Q699142"},"addTags":{"amenity":"restaurant","brand":"鼎泰豐","brand:en":"Din Tai Fung","brand:wikidata":"Q699142","brand:zh":"鼎泰豐","cuisine":"taiwanese","name":"鼎泰豐","name:en":"Din Tai Fung","name:hak":"Tín-thai-fûng","name:nan":"Téng-thài-hong","name:nan-HJ":"鼎泰豐","name:nan-POJ":"Téng-thài-hong","name:nan-TL":"Tíng-thài-hong","name:zh":"鼎泰豐","name:zh-Hans":"鼎泰丰","name:zh-Hant":"鼎泰豐"}},"leisure/fitness_centre/snapfitness-551086":{"name":"Snap Fitness","locationSet":{"include":["ae","au","be","ca","es","gb","hk","id","ie","jp","mx","nl","nz","ph","tr","tw","us"]},"geometry":["point","area"],"matchScore":2,"terms":["snap fitness"],"tags":{"brand:wikidata":"Q7547254","leisure":"fitness_centre"},"addTags":{"brand":"Snap Fitness","brand:wikidata":"Q7547254","leisure":"fitness_centre","name":"Snap Fitness"}},"leisure/fitness_centre/worldgym-4fed0f":{"name":"World Gym (Taiwan)","locationSet":{"include":["tw"]},"geometry":["point","area"],"matchScore":2,"terms":["world gym","world gym健身俱樂部","世界健身俱樂部"],"tags":{"brand:wikidata":"Q8035794","leisure":"fitness_centre"},"addTags":{"brand":"World Gym健身俱樂部","brand:en":"World Gym","brand:wikidata":"Q8035794","brand:zh":"世界健身俱樂部","leisure":"fitness_centre","name":"World Gym健身俱樂部","name:en":"World Gym","name:zh":"世界健身俱樂部"}},"leisure/fitness_centre/fitnessfactory-4fed0f":{"name":"健身工廠","locationSet":{"include":["tw"]},"geometry":["point","area"],"matchScore":2,"terms":["fitness factory","健身工廠"],"tags":{"brand:wikidata":"Q108167311","leisure":"fitness_centre"},"addTags":{"brand":"健身工廠","brand:en":"Fitness Factory","brand:wikidata":"Q108167311","brand:zh":"健身工廠","leisure":"fitness_centre","name":"健身工廠","name:en":"Fitness Factory","name:zh":"健身工廠"}},"leisure/fitness_centre/genghiskhanfitnessclub-4fed0f":{"name":"成吉思汗健身俱樂部","locationSet":{"include":["tw"]},"geometry":["point","area"],"matchScore":2,"terms":["genghis khan fitness club","成吉思汗健身俱樂部"],"tags":{"brand:wikidata":"Q109345206","leisure":"fitness_centre"},"addTags":{"brand":"成吉思汗健身俱樂部","brand:en":"Genghis Khan Fitness Club","brand:wikidata":"Q109345206","brand:zh":"成吉思汗健身俱樂部","leisure":"fitness_centre","name":"成吉思汗健身俱樂部","name:en":"Genghis Khan Fitness Club","name:zh":"成吉思汗健身俱樂部"}},"office/coworking/ucommune-4d61d2":{"name":"Ucommune (Taiwan)","locationSet":{"include":["tw"]},"geometry":["point","area"],"matchScore":2,"terms":["ucommune","優客工場"],"tags":{"brand:wikidata":"Q60785187","office":"coworking"},"addTags":{"brand":"優客工場","brand:en":"Ucommune","brand:wikidata":"Q60785187","brand:zh":"優客工場","brand:zh-Hans":"优客工场","brand:zh-Hant":"優客工場","fee":"yes","name":"優客工場","name:en":"Ucommune","name:zh":"優客工場","name:zh-Hans":"优客工场","name:zh-Hant":"優客工場","office":"coworking"}},"office/estate_agent/century21-dccb44":{"name":"21世紀不動產","locationSet":{"include":["tw"]},"geometry":["point","area"],"matchScore":2,"terms":["21-sè-kí put-tōng-sán","21世紀不動產","century 21"],"tags":{"brand:wikidata":"Q1054480","office":"estate_agent"},"addTags":{"brand":"21世紀不動產","brand:en":"Century 21","brand:wikidata":"Q1054480","brand:zh":"21世紀不動產","name":"21世紀不動產","name:en":"Century 21","name:nan":"21-sè-kí Put-tōng-sán","name:nan-HJ":"21世紀不動產","name:nan-POJ":"21-sè-kí Put-tōng-sán","name:nan-TL":"21-sè-kí Put-tōng-sán","name:zh":"21世紀不動產","office":"estate_agent"}},"office/estate_agent/ctbcrealestate-dccb44":{"name":"中信房屋","locationSet":{"include":["tw"]},"geometry":["point","area"],"matchScore":2,"terms":["ctbc real estate","tiong-sìn pâng-ok","中信房屋"],"tags":{"brand:wikidata":"Q10871742","office":"estate_agent"},"addTags":{"brand":"中信房屋","brand:en":"CTBC Real Estate","brand:wikidata":"Q10871742","brand:zh":"中信房屋","name":"中信房屋","name:en":"CTBC Real Estate","name:nan":"Tiong-sìn Pâng-ok","name:nan-HJ":"中信房屋","name:nan-POJ":"Tiong-sìn Pâng-ok","name:nan-TL":"Tiong-sìn Pâng-ok","name:zh":"中信房屋","office":"estate_agent"}},"office/estate_agent/sinyirealty-dccb44":{"name":"信義房屋","locationSet":{"include":["tw"]},"geometry":["point","area"],"matchScore":2,"terms":["sinyi realty","信義房屋"],"tags":{"brand:wikidata":"Q10888034","office":"estate_agent"},"addTags":{"brand":"信義房屋","brand:en":"Sinyi Realty","brand:wikidata":"Q10888034","brand:zh":"信義房屋","name":"信義房屋","name:en":"Sinyi Realty","name:zh":"信義房屋","office":"estate_agent"}},"office/estate_agent/taiwanrealtyestate-dccb44":{"name":"台灣房屋","locationSet":{"include":["tw"]},"geometry":["point","area"],"matchScore":2,"terms":["tâi-oân pâng-ok","taiwan realty estate","台灣房屋"],"tags":{"brand:wikidata":"Q15934189","office":"estate_agent"},"addTags":{"brand":"台灣房屋","brand:en":"Taiwan Realty Estate","brand:wikidata":"Q15934189","brand:zh":"台灣房屋","name":"台灣房屋","name:en":"Taiwan Realty Estate","name:nan":"Tâi-oân Pâng-ok","name:nan-HJ":"台灣房屋","name:nan-POJ":"Tâi-oân Pâng-ok","name:nan-TL":"Tâi-uân Pâng-ok","name:zh":"台灣房屋","office":"estate_agent"}},"office/estate_agent/easternrealty-dccb44":{"name":"東森房屋","locationSet":{"include":["tw"]},"geometry":["point","area"],"matchScore":2,"terms":["eastern realty","tong-sim pâng-ok","東森房屋"],"tags":{"brand:wikidata":"Q97487263","office":"estate_agent"},"addTags":{"brand":"東森房屋","brand:en":"EASTERN REALTY","brand:wikidata":"Q97487263","brand:zh":"東森房屋","name":"東森房屋","name:en":"EASTERN REALTY","name:nan":"Tong-sim Pâng-ok","name:nan-HJ":"東森房屋","name:nan-POJ":"Tong-sim Pâng-ok","name:nan-TL":"Tong-sim Pâng-ok","name:zh":"東森房屋","office":"estate_agent"}},"office/estate_agent/yungching-dccb44":{"name":"永慶房屋","locationSet":{"include":["tw"]},"geometry":["point","area"],"matchScore":2,"terms":["yung ching","永慶房屋"],"tags":{"brand:wikidata":"Q11132113","office":"estate_agent"},"addTags":{"brand":"永慶房屋","brand:en":"Yung Ching","brand:wikidata":"Q11132113","brand:zh":"永慶房屋","name":"永慶房屋","name:en":"Yung Ching","name:zh":"永慶房屋","office":"estate_agent"}},"office/insurance/chinalifeinsurance-6809cb":{"name":"中國人壽","locationSet":{"include":["tw"]},"geometry":["point","area"],"matchScore":2,"terms":["china life insurance","中國人壽","中國人壽保險"],"fields":["name","brand","{office/insurance}"],"tags":{"brand:wikidata":"Q5099767","office":"insurance"},"addTags":{"alt_name":"中國人壽保險","brand":"中國人壽","brand:en":"China Life Insurance","brand:wikidata":"Q5099767","brand:zh":"中國人壽","name":"中國人壽","name:en":"China Life Insurance","name:zh":"中國人壽","name:zh-Hans":"中国人寿","name:zh-Hant":"中國人壽","office":"insurance"}},"office/insurance/chungkuoinsurance-6809cb":{"name":"兆豐保險","locationSet":{"include":["tw"]},"geometry":["point","area"],"matchScore":2,"terms":["chung kuo insurance","兆豐保險","兆豐產物保險"],"fields":["name","brand","{office/insurance}"],"tags":{"brand:wikidata":"Q107183588","office":"insurance"},"addTags":{"alt_name":"兆豐產物保險","brand":"兆豐保險","brand:en":"Chung Kuo Insurance","brand:wikidata":"Q107183588","brand:zh":"兆豐保險","name":"兆豐保險","name:en":"Chung Kuo Insurance","name:zh":"兆豐保險","office":"insurance"}},"office/insurance/taiwanlifeinsurance-6809cb":{"name":"台灣人壽","locationSet":{"include":["tw"]},"geometry":["point","area"],"matchScore":2,"terms":["taiwan life insurance","台壽","台灣人壽","台灣人壽保險","臺灣人壽"],"fields":["name","brand","{office/insurance}"],"tags":{"brand:wikidata":"Q10874424","office":"insurance"},"addTags":{"alt_name":"台灣人壽保險","brand":"台灣人壽","brand:en":"Taiwan Life Insurance","brand:wikidata":"Q10874424","brand:zh":"台灣人壽","name":"台灣人壽","name:en":"Taiwan Life Insurance","name:zh":"台灣人壽","office":"insurance"}},"office/insurance/taianinsurance-6809cb":{"name":"泰安產物保險","locationSet":{"include":["tw"]},"geometry":["point","area"],"matchScore":2,"terms":["taian insurance","泰安產物保險","泰安產險"],"fields":["name","brand","{office/insurance}"],"tags":{"brand:wikidata":"Q20688715","office":"insurance"},"addTags":{"brand":"泰安產物保險","brand:en":"Taian Insurance","brand:wikidata":"Q20688715","brand:zh":"泰安產物保險","name":"泰安產物保險","name:en":"Taian Insurance","name:zh":"泰安產物保險","office":"insurance"}},"office/insurance/taiwanfireandmarineinsurance-6809cb":{"name":"臺灣產物保險","locationSet":{"include":["tw"]},"geometry":["point","area"],"matchScore":2,"terms":["taiwan fire & marine insurance","台灣產物保險","台灣産物保險","台産","臺灣產物保險"],"fields":["name","brand","{office/insurance}"],"tags":{"brand:wikidata":"Q19853556","office":"insurance"},"addTags":{"brand":"臺灣產物保險","brand:en":"Taiwan Fire & Marine Insurance","brand:wikidata":"Q19853556","brand:zh":"臺灣產物保險","name":"臺灣產物保險","name:en":"Taiwan Fire & Marine Insurance","name:zh":"臺灣產物保險","office":"insurance"}},"office/insurance/southchinainsurance-6809cb":{"name":"華南保險","locationSet":{"include":["tw"]},"geometry":["point","area"],"matchScore":2,"terms":["south china insurance","華南保險","華南產物保險"],"fields":["name","brand","{office/insurance}"],"tags":{"brand:wikidata":"Q16510360","office":"insurance"},"addTags":{"alt_name":"華南產物保險","brand":"華南保險","brand:en":"South China Insurance","brand:wikidata":"Q16510360","brand:zh":"華南保險","name":"華南保險","name:en":"South China Insurance","name:zh":"華南保險","office":"insurance"}},"shop/bakery/paul-652955":{"name":"Paul","locationSet":{"include":["ae","az","be","bh","by","ci","cy","cz","eg","es","fr","ga","gb","ge","gr","id","in","jo","jp","kw","kz","lb","lu","ma","mu","my","om","pa","ph","pl","pt","qa","ro","ru","sa","sg","th","tn","tw","ua","us","uz","vn","za"]},"geometry":["point","area"],"matchScore":2,"terms":["paul"],"tags":{"brand:wikidata":"Q3370417","shop":"bakery"},"addTags":{"brand":"Paul","brand:wikidata":"Q3370417","name":"Paul","shop":"bakery"}},"shop/bakery/semeur-ea5ee6":{"name":"Semeur聖娜","locationSet":{"include":["tw"]},"geometry":["point","area"],"matchScore":2,"terms":["semeur","semeur聖娜","聖娜"],"tags":{"brand:wikidata":"Q108366557","shop":"bakery"},"addTags":{"brand":"Semeur聖娜","brand:en":"Semeur","brand:wikidata":"Q108366557","brand:zh":"聖娜","name":"Semeur聖娜","name:en":"Semeur","name:zh":"聖娜","shop":"bakery"}},"shop/bakery/ijysheng-ea5ee6":{"name":"一之軒","locationSet":{"include":["tw"]},"geometry":["point","area"],"matchScore":2,"terms":["ijysheng","一之軒"],"tags":{"brand:wikidata":"Q57269686","shop":"bakery"},"addTags":{"brand":"一之軒","brand:en":"Ijysheng","brand:wikidata":"Q57269686","brand:zh":"一之軒","name":"一之軒","name:en":"Ijysheng","name:zh":"一之軒","shop":"bakery"}},"shop/bakery/yamazakibaking-ea5ee6":{"name":"山崎麵包","locationSet":{"include":["tw"]},"geometry":["point","area"],"matchScore":2,"terms":["yamazaki baking","山崎製パン","山崎麵包"],"tags":{"brand:wikidata":"Q3138937","shop":"bakery"},"addTags":{"brand":"山崎麵包","brand:en":"Yamazaki Baking","brand:ja":"山崎製パン","brand:wikidata":"Q3138937","brand:zh":"山崎麵包","name":"山崎麵包","name:en":"Yamazaki Baking","name:ja":"山崎製パン","name:zh":"山崎麵包","shop":"bakery"}},"shop/bakery/gakuden-ea5ee6":{"name":"樂田麵包屋","locationSet":{"include":["tw"]},"geometry":["point","area"],"matchScore":2,"terms":["gakuden","樂田麵包屋"],"tags":{"brand:wikidata":"Q108366505","shop":"bakery"},"addTags":{"brand":"樂田麵包屋","brand:en":"GAKUDEN","brand:wikidata":"Q108366505","brand:zh":"樂田麵包屋","name":"樂田麵包屋","name:en":"GAKUDEN","name:zh":"樂田麵包屋","shop":"bakery"}},"shop/bakery/floridabakery-ea5ee6":{"name":"福利麵包","locationSet":{"include":["tw"]},"geometry":["point","area"],"matchScore":2,"terms":["florida bakery","福利麵包"],"tags":{"brand:wikidata":"Q111128271","shop":"bakery"},"addTags":{"brand":"福利麵包","brand:en":"Florida Bakery","brand:wikidata":"Q111128271","brand:zh":"福利麵包","name":"福利麵包","name:en":"Florida Bakery","name:zh":"福利麵包","shop":"bakery"}},"shop/bakery/mrmark-ea5ee6":{"name":"馬可先生","locationSet":{"include":["tw"]},"geometry":["point","area"],"matchScore":2,"terms":["mr. mark","馬可先生"],"tags":{"brand:wikidata":"Q108366217","shop":"bakery"},"addTags":{"brand":"馬可先生","brand:en":"Mr. Mark","brand:wikidata":"Q108366217","brand:zh":"馬可先生","name":"馬可先生","name:en":"Mr. Mark","name:zh":"馬可先生","shop":"bakery"}},"shop/beauty/yvesrocher-9f1489":{"name":"葉露芝","locationSet":{"include":["hk","tw"]},"geometry":["point","area"],"matchScore":2,"terms":["yves rocher","葉露芝"],"tags":{"brand:wikidata":"Q28496595","shop":"beauty"},"addTags":{"beauty":"cosmetics","brand":"葉露芝","brand:en":"Yves Rocher","brand:wikidata":"Q28496595","brand:zh":"葉露芝","name":"葉露芝","name:en":"Yves Rocher","name:zh":"葉露芝","shop":"beauty"}},"shop/books/eslitebookstore-b7aa5f":{"name":"誠品書店","locationSet":{"include":["cn","tw"],"exclude":["hk","mo"]},"geometry":["point","area"],"matchScore":2,"terms":["eslite bookstore","誠品書店"],"tags":{"brand:wikidata":"Q391988","shop":"books"},"addTags":{"brand":"誠品書店","brand:en":"Eslite Bookstore","brand:wikidata":"Q391988","brand:zh":"誠品書店","name":"誠品書店","name:en":"Eslite Bookstore","name:zh":"誠品書店","shop":"books"}},"shop/car/koenigsegg-45c2de":{"name":"Koenigsegg","locationSet":{"include":["ae","au","ca","ch","cn","de","es","gb","jp","kr","lb","mx","my","om","pl","se","sg","th","tw","us","za"]},"geometry":["point","area"],"matchScore":2,"terms":["koenigsegg"],"fields":["name","brand","{shop/car}"],"tags":{"brand:wikidata":"Q35594","shop":"car"},"addTags":{"brand":"Koenigsegg","brand:wikidata":"Q35594","name":"Koenigsegg","shop":"car"}},"shop/car/tesla-085584":{"name":"特斯拉","locationSet":{"include":["cn","tw"]},"geometry":["point","area"],"matchScore":2,"terms":["tesla","特斯拉"],"fields":["name","brand","{shop/car}"],"tags":{"brand:wikidata":"Q478214","shop":"car"},"addTags":{"brand":"特斯拉","brand:en":"Tesla","brand:wikidata":"Q478214","brand:zh":"特斯拉","name":"特斯拉","name:en":"Tesla","name:zh":"特斯拉","shop":"car"}},"shop/chemist/poya-ff929b":{"name":"寶雅","locationSet":{"include":["tw"]},"geometry":["point","area"],"matchScore":2,"terms":["poya","寶雅"],"tags":{"brand:wikidata":"Q15927734","shop":"chemist"},"addTags":{"brand":"寶雅","brand:en":"POYA","brand:wikidata":"Q15927734","brand:zh":"寶雅","name":"寶雅","name:en":"POYA","name:zh":"寶雅","shop":"chemist"}},"shop/chemist/watsons-96d573":{"name":"屈臣氏","locationSet":{"include":["cn","tw"],"exclude":["hk","mo"]},"geometry":["point","area"],"matchScore":2,"terms":["watsons","屈臣氏"],"tags":{"brand:wikidata":"Q7974785","shop":"chemist"},"addTags":{"brand":"屈臣氏","brand:en":"Watsons","brand:wikidata":"Q7974785","brand:zh":"屈臣氏","name":"屈臣氏","name:en":"Watsons","name:zh":"屈臣氏","shop":"chemist"}},"shop/chemist/cosmed-ff929b":{"name":"康是美","locationSet":{"include":["tw"]},"geometry":["point","area"],"matchScore":2,"terms":["cosmed","康是美"],"tags":{"brand:wikidata":"Q11063876","shop":"chemist"},"addTags":{"brand":"康是美","brand:en":"COSMED","brand:wikidata":"Q11063876","brand:zh":"康是美","name":"康是美","name:en":"COSMED","name:zh":"康是美","shop":"chemist"}},"shop/clothes/agnesb-600d6e":{"name":"Agnès B.","locationSet":{"include":["cn","de","fr","jp","ne","sg","tw","uk","us"]},"geometry":["point","area"],"matchScore":2,"terms":["agnès b."],"tags":{"brand:wikidata":"Q282967","shop":"clothes"},"addTags":{"brand":"Agnès B.","brand:wikidata":"Q282967","name":"Agnès B.","shop":"clothes"}},"shop/clothes/gu-bf9db0":{"name":"GU","locationSet":{"include":["cl","jp","tw"]},"geometry":["point","area"],"matchScore":2,"terms":["gu","ジーユー"],"tags":{"brand:wikidata":"Q5512642","shop":"clothes"},"addTags":{"brand":"GU","brand:wikidata":"Q5512642","name":"GU","shop":"clothes"}},"shop/clothes/maje-99ba8f":{"name":"Maje","locationSet":{"include":["by","bg","cz","hu","pl","md","ro","ru","sk","ua","ax","gg","je","cq","dk","ee","fo","fi","is","ie","im","lv","lt","no","sj","se","gb","al","ad","ba","hr","gi","gr","va","it","mt","me","mk","pt","sm","rs","si","es","xk","at","be","fr","de","li","lu","mc","nl","ch","cn","hk","sg","tw","uk","us"]},"geometry":["point","area"],"matchScore":2,"terms":["maje"],"tags":{"brand:wikidata":"Q3280458","shop":"clothes"},"addTags":{"brand":"Maje","brand:wikidata":"Q3280458","clothes":"women","name":"Maje","shop":"clothes"}},"shop/clothes/patagonia-7718c5":{"name":"Patagonia","locationSet":{"include":["ar","at","au","ca","cl","cn","cz","de","fx","gb","hk","ie","it","jp","kr","pe","tw","us"]},"geometry":["point","area"],"matchScore":2,"terms":["patagonia"],"tags":{"brand:wikidata":"Q1660552","shop":"clothes"},"addTags":{"brand":"Patagonia","brand:wikidata":"Q1660552","clothes":"outdoor","name":"Patagonia","shop":"clothes"}},"shop/convenience/familymart-52fb27":{"name":"FamilyMart","locationSet":{"include":["cn","id","jp","my","ph","th","tw","vn"]},"geometry":["point","area"],"matchScore":2,"terms":["familymart"],"tags":{"brand:wikidata":"Q1191685","shop":"convenience"},"addTags":{"brand":"FamilyMart","brand:wikidata":"Q1191685","name":"FamilyMart","shop":"convenience"}},"shop/convenience/okmart-aa89a7":{"name":"OK超商","locationSet":{"include":["tw"]},"geometry":["point","area"],"matchScore":2,"terms":["ok mart","ok超商"],"tags":{"brand:wikidata":"Q10851968","shop":"convenience"},"addTags":{"brand":"OK超商","brand:en":"OK mart","brand:wikidata":"Q10851968","name":"OK超商","name:en":"OK mart","shop":"convenience"}},"shop/convenience/familymart-aa89a7":{"name":"全家便利商店","locationSet":{"include":["tw"]},"geometry":["point","area"],"matchScore":2,"terms":["familymart","全家便利商店"],"tags":{"brand:wikidata":"Q10891564","shop":"convenience"},"addTags":{"brand":"全家便利商店","brand:en":"FamilyMart","brand:wikidata":"Q10891564","name":"全家便利商店","name:en":"FamilyMart","shop":"convenience"}},"shop/convenience/hilife-aa89a7":{"name":"萊爾富","locationSet":{"include":["tw"]},"geometry":["point","area"],"matchScore":2,"terms":["hi-life","萊爾富"],"tags":{"brand:wikidata":"Q11326216","shop":"convenience"},"addTags":{"brand":"萊爾富","brand:en":"Hi-Life","brand:wikidata":"Q11326216","name":"萊爾富","name:en":"Hi-Life","shop":"convenience"}},"shop/cosmetics/merlenorman-f96c07":{"name":"Merle Norman Cosmetics","locationSet":{"include":["ae","bh","ca","gt","hk","tw","us"]},"geometry":["point","area"],"matchScore":2,"terms":["merle norman cosmetic studio","merle norman cosmetics"],"tags":{"brand:wikidata":"Q104844059","shop":"cosmetics"},"addTags":{"brand":"Merle Norman Cosmetics","brand:wikidata":"Q104844059","full_name":"Merle Norman Cosmetic Studio","name":"Merle Norman","shop":"cosmetics"}},"shop/department_store/muji-c72ec8":{"name":"無印良品","locationSet":{"include":["jp","mo","my","sg","tw"]},"geometry":["point","area"],"matchScore":2,"terms":["muji","ryohin keikaku","無印良品","良品計画"],"tags":{"brand:wikidata":"Q708789","shop":"department_store"},"addTags":{"brand":"無印良品","brand:en":"Muji","brand:ja":"無印良品","brand:wikidata":"Q708789","name":"無印良品","name:en":"Muji","name:ja":"無印良品","official_name:en":"Ryohin Keikaku","shop":"department_store"}},"shop/electronics/elifemall-745265":{"name":"全國電子","locationSet":{"include":["tw"]},"geometry":["point","area"],"matchScore":2,"terms":["choân-kok tiān-chú","e-life mall","全國電子"],"tags":{"brand:wikidata":"Q10891540","shop":"electronics"},"addTags":{"brand":"全國電子","brand:en":"E-life Mall","brand:nan":"Choân-kok Tiān-chú","brand:nan-HJ":"全國電子","brand:nan-POJ":"Choân-kok Tiān-chú","brand:nan-TL":"Tsuân-kok Tiān-tsú","brand:wikidata":"Q10891540","brand:zh":"全國電子","name":"全國電子","name:en":"E-life Mall","name:nan":"Choân-kok Tiān-chú","name:nan-HJ":"全國電子","name:nan-POJ":"Choân-kok Tiān-chú","name:nan-TL":"Tsuân-kok Tiān-tsú","name:zh":"全國電子","shop":"electronics"}},"shop/electronics/tatung3c-745265":{"name":"大同3C","locationSet":{"include":["tw"]},"geometry":["point","area"],"matchScore":2,"terms":["tatung 3c","大同3c"],"tags":{"brand:wikidata":"Q108365710","shop":"electronics"},"addTags":{"brand":"大同3C","brand:en":"Tatung 3C","brand:wikidata":"Q108365710","brand:zh":"大同3C","name":"大同3C","name:en":"Tatung 3C","name:zh":"大同3C","shop":"electronics"}},"shop/electronics/tsannkuen3c-745265":{"name":"燦坤3C","locationSet":{"include":["tw"]},"geometry":["point","area"],"matchScore":2,"terms":["tsannkuen 3c","燦坤3c"],"tags":{"brand:wikidata":"Q11569285","shop":"electronics"},"addTags":{"brand":"燦坤3C","brand:en":"Tsannkuen 3C","brand:wikidata":"Q11569285","brand:zh":"燦坤3C","name":"燦坤3C","name:en":"Tsannkuen 3C","name:zh":"燦坤3C","shop":"electronics"}},"shop/electronics/sunfar-745265":{"name":"順發3C","locationSet":{"include":["tw"]},"geometry":["point","area"],"matchScore":2,"terms":["sunfar","順發3c"],"tags":{"brand:wikidata":"Q108365505","shop":"electronics"},"addTags":{"brand":"順發3C","brand:en":"SUNFAR","brand:wikidata":"Q108365505","brand:zh":"順發3C","name":"順發3C","name:en":"SUNFAR","name:zh":"順發3C","shop":"electronics"}},"shop/furniture/chateaudax-c96b56":{"name":"Chateau d'Ax","locationSet":{"include":["ao","be","ca","ch","cn","de","es","fx","gp","hk","hr","it","ma","mq","mt","mu","mz","pt","re","sg","si","tn","tw","us","vn"]},"geometry":["point","area"],"matchScore":2,"terms":["chateau d'ax"],"tags":{"brand:wikidata":"Q100249791","shop":"furniture"},"addTags":{"brand":"Chateau d'Ax","brand:wikidata":"Q100249791","name":"Chateau d'Ax","shop":"furniture"}},"shop/herbalist/euyansang-5606dd":{"name":"余仁生","locationSet":{"include":["cn","tw"],"exclude":["hk","mo"]},"geometry":["point","area"],"matchScore":2,"terms":["eu yan sang","余仁生"],"tags":{"brand:wikidata":"Q4207246","shop":"herbalist"},"addTags":{"brand":"余仁生","brand:en":"Eu Yan Sang","brand:wikidata":"Q4207246","brand:zh":"余仁生","name":"余仁生","name:en":"Eu Yan Sang","name:zh":"余仁生","shop":"herbalist"}},"shop/jewelry/chowtaifook-4629af":{"name":"周大福","locationSet":{"include":["cn","jp","kr","my","sg","tw","us"],"exclude":["hk","mo"]},"geometry":["point","area"],"matchScore":2,"terms":["chow tai fook","周大福"],"tags":{"brand:wikidata":"Q48880993","shop":"jewelry"},"addTags":{"brand":"周大福","brand:en":"Chow Tai Fook","brand:wikidata":"Q48880993","brand:zh":"周大福","name":"周大福","name:en":"Chow Tai Fook","name:zh":"周大福","shop":"jewelry"}},"shop/jewelry/chowsangsang-7fd42c":{"name":"周生生","locationSet":{"include":["cn","tw"],"exclude":["hk","mo"]},"geometry":["point","area"],"matchScore":2,"terms":["chow sang sang","周生生"],"tags":{"brand:wikidata":"Q10920877","shop":"jewelry"},"addTags":{"brand":"周生生","brand:en":"Chow Sang Sang","brand:wikidata":"Q10920877","brand:zh":"周生生","name":"周生生","name:en":"Chow Sang Sang","name:zh":"周生生","shop":"jewelry"}},"shop/lottery/taiwanlottery-e831bc":{"name":"台灣彩券","locationSet":{"include":["tw"]},"geometry":["point","area"],"matchScore":2,"terms":["taiwan lottery","公益彩券","台灣彩券"],"tags":{"brand:wikidata":"Q10915473","shop":"lottery"},"addTags":{"brand":"台灣彩券","brand:en":"Taiwan Lottery","brand:wikidata":"Q10915473","brand:zh-Hans":"台湾彩券","brand:zh-Hant":"台灣彩券","name":"台灣彩券","name:en":"Taiwan Lottery","name:zh-Hans":"台湾彩券","name:zh-Hant":"台灣彩券","shop":"lottery"}},"shop/mobile_phone/taiwanmobile-8aaeb3":{"name":"台灣大哥大","locationSet":{"include":["tw"]},"geometry":["point","area"],"matchScore":2,"terms":["taiwan mobile","台灣大哥大"],"tags":{"brand:wikidata":"Q5943259","shop":"mobile_phone"},"addTags":{"brand":"台灣大哥大","brand:en":"Taiwan Mobile","brand:wikidata":"Q5943259","brand:zh":"台灣大哥大","name":"台灣大哥大","name:en":"Taiwan Mobile","name:zh":"台灣大哥大","shop":"mobile_phone"}},"shop/optician/jins-b2cb2d":{"name":"JINS","locationSet":{"include":["tw"]},"geometry":["point","area"],"matchScore":2,"terms":["jins","ジンズ"],"fields":["name","brand","{shop/optician}"],"tags":{"brand:wikidata":"Q11308974","shop":"optician"},"addTags":{"brand":"JINS","brand:en":"JINS","brand:ja":"ジンズ","brand:wikidata":"Q11308974","name":"JINS","name:en":"JINS","name:ja":"ジンズ","shop":"optician"}},"shop/optician/owndays-b2cb2d":{"name":"OWNDAYS","locationSet":{"include":["tw"]},"geometry":["point","area"],"matchScore":2,"terms":["owndays","オンデーズ"],"fields":["name","brand","{shop/optician}"],"tags":{"brand:wikidata":"Q11293025","shop":"optician"},"addTags":{"brand":"OWNDAYS","brand:en":"OWNDAYS","brand:ja":"オンデーズ","brand:wikidata":"Q11293025","name":"OWNDAYS","name:en":"OWNDAYS","name:ja":"オンデーズ","shop":"optician"}},"shop/optician/eyesmart-b2cb2d":{"name":"寶島眼鏡","locationSet":{"include":["tw"]},"geometry":["point","area"],"matchScore":2,"terms":["eye smart","寶島眼鏡"],"fields":["name","brand","{shop/optician}"],"tags":{"brand:wikidata":"Q62391741","shop":"optician"},"addTags":{"brand":"寶島眼鏡","brand:en":"Eye Smart","brand:wikidata":"Q62391741","brand:zh":"寶島眼鏡","brand:zh-Hans":"宝岛眼镜","brand:zh-Hant":"寶島眼鏡","name":"寶島眼鏡","name:en":"Eye Smart","name:zh":"寶島眼鏡","name:zh-Hans":"宝岛眼镜","name:zh-Hant":"寶島眼鏡","shop":"optician"}},"shop/optician/kobayashioptical-b2cb2d":{"name":"小林眼鏡","locationSet":{"include":["tw"]},"geometry":["point","area"],"matchScore":2,"terms":["kobayashi optical","小林眼鏡"],"fields":["name","brand","{shop/optician}"],"tags":{"brand:wikidata":"Q18652598","shop":"optician"},"addTags":{"brand":"小林眼鏡","brand:en":"Kobayashi Optical","brand:wikidata":"Q18652598","brand:zh":"小林眼鏡","brand:zh-Hans":"小林眼镜","brand:zh-Hant":"小林眼鏡","name":"小林眼鏡","name:en":"Kobayashi Optical","name:zh":"Kobayashi Optical","name:zh-Hans":"小林眼镜","name:zh-Hant":"小林眼鏡","shop":"optician"}},"shop/optician/meganeichiba-b2cb2d":{"name":"眼鏡市場 Megane Ichiba","locationSet":{"include":["tw"]},"geometry":["point","area"],"matchScore":2,"terms":["megane ichiba","眼鏡市場"],"fields":["name","brand","{shop/optician}"],"tags":{"brand:wikidata":"Q11343506","shop":"optician"},"addTags":{"brand":"眼鏡市場","brand:en":"Megane Ichiba","brand:wikidata":"Q11343506","brand:zh":"眼鏡市場","brand:zh-Hans":"眼镜市场","brand:zh-Hant":"眼鏡市場","name":"眼鏡市場","name:en":"Megane Ichiba","name:zh":"眼鏡市場","name:zh-Hans":"眼镜市场","name:zh-Hant":"眼鏡市場","shop":"optician"}},"shop/sports/rapha-e13309":{"name":"Rapha","locationSet":{"include":["au","de","dk","es","gb","hk","jp","kr","nl","tw","us"]},"geometry":["point","area"],"matchScore":2,"terms":["rapha","ラファ"],"tags":{"brand:wikidata":"Q7293931","shop":"sports"},"addTags":{"brand":"Rapha","brand:en":"Rapha","brand:ja":"ラファ","brand:wikidata":"Q7293931","name":"Rapha","name:en":"Rapha","name:ja":"ラファ","shop":"sports","sport":"cycling"}},"shop/supermarket/ctysuper-04b79e":{"name":"C!ty'super","locationSet":{"include":["cn","jp","tw"]},"geometry":["point","area"],"matchScore":2,"terms":["c!ty'super","citysuper"],"tags":{"brand:wikidata":"Q5124105","shop":"supermarket"},"addTags":{"brand":"C!ty'super","brand:en":"C!ty'super","brand:wikidata":"Q5124105","name":"C!ty'super","name:en":"C!ty'super","shop":"supermarket"}},"shop/supermarket/pxmart-14223e":{"name":"全聯福利中心","locationSet":{"include":["tw"]},"geometry":["point","area"],"matchScore":2,"terms":["choân-liân","choân-liân hok-lī tiong-sim","pxmart","全聯","全聯福利中心"],"tags":{"brand:wikidata":"Q7262792","shop":"supermarket"},"addTags":{"brand":"全聯福利中心","brand:en":"Pxmart","brand:nan":"Choân-liân Hok-lī Tiong-sim","brand:nan-HJ":"全聯福利中心","brand:nan-POJ":"Choân-liân Hok-lī Tiong-sim","brand:nan-TL":"Tsuân-liân Hok-lī Tiong-sim","brand:wikidata":"Q7262792","brand:zh":"全聯福利中心","name":"全聯福利中心","name:en":"Pxmart","name:nan":"Choân-liân Hok-lī Tiong-sim","name:nan-HJ":"全聯福利中心","name:nan-POJ":"Choân-liân Hok-lī Tiong-sim","name:nan-TL":"Tsuân-liân Hok-lī Tiong-sim","name:zh":"全聯福利中心","shop":"supermarket","short_name":"全聯","short_name:nan":"Choân-liân","short_name:nan-HJ":"全聯","short_name:nan-POJ":"Choân-liân","short_name:nan-TL":"Tsuân-liân","short_name:zh":"全聯"}},"shop/supermarket/rtmart-14223e":{"name":"大潤發","locationSet":{"include":["tw"]},"geometry":["point","area"],"matchScore":2,"terms":["rt-mart","大潤發"],"tags":{"brand:wikidata":"Q7277802","shop":"supermarket"},"addTags":{"brand":"大潤發","brand:en":"RT-Mart","brand:wikidata":"Q7277802","brand:zh":"大潤發","name":"大潤發","name:en":"RT-Mart","name:zh":"大潤發","shop":"supermarket"}},"shop/supermarket/carrefour-14223e":{"name":"家樂福","locationSet":{"include":["tw"]},"geometry":["point","area"],"matchScore":2,"terms":["carrefour","ka-lo̍k-hok","家樂福"],"tags":{"brand:wikidata":"Q3117359","shop":"supermarket"},"addTags":{"brand":"家樂福","brand:en":"Carrefour","brand:nan":"Ka-lo̍k-hok","brand:nan-HJ":"家樂福","brand:nan-POJ":"Ka-lo̍k-hok","brand:nan-TL":"Ka-lo̍k-hok","brand:wikidata":"Q3117359","brand:zh":"家樂福","name":"家樂福","name:en":"Carrefour","name:nan":"Ka-lo̍k-hok","name:nan-HJ":"家樂福","name:nan-POJ":"Ka-lo̍k-hok","name:nan-TL":"Ka-lo̍k-hok","name:zh":"家樂福","shop":"supermarket"}},"shop/supermarket/carrefourmarket-14223e":{"name":"家樂福超市","locationSet":{"include":["tw"]},"geometry":["point","area"],"matchScore":2,"terms":["carrefour market","ka-lo̍k-hok chhiau-chhī","家樂福超市","頂好","頂好超市"],"tags":{"brand:wikidata":"Q2689639","shop":"supermarket"},"addTags":{"brand":"家樂福超市","brand:en":"Carrefour Market","brand:nan":"Ka-lo̍k-hok Chhiau-chhī","brand:nan-HJ":"家樂福超市","brand:nan-POJ":"Ka-lo̍k-hok Chhiau-chhī","brand:nan-TL":"Ka-lo̍k-hok Tshiau-tshī","brand:wikidata":"Q2689639","brand:zh":"家樂福超市","name":"家樂福超市","name:en":"Carrefour Market","name:nan":"Ka-lo̍k-hok Chhiau-chhī","name:nan-HJ":"家樂福超市","name:nan-POJ":"Ka-lo̍k-hok Chhiau-chhī","name:nan-TL":"Ka-lo̍k-hok Tshiau-tshī","name:zh":"家樂福超市","shop":"supermarket"}},"shop/supermarket/simplemart-14223e":{"name":"美廉社","locationSet":{"include":["tw"]},"geometry":["point","area"],"matchScore":2,"terms":["bí-liâm-siā","simple mart","美廉社"],"tags":{"brand:wikidata":"Q15914017","shop":"supermarket"},"addTags":{"brand":"美廉社","brand:en":"Simple Mart","brand:nan":"Bí-liâm-siā","brand:nan-HJ":"美廉社","brand:nan-POJ":"Bí-liâm-siā","brand:nan-TL":"Bí-liâm-siā","brand:wikidata":"Q15914017","brand:zh":"美廉社","name":"美廉社","name:en":"Simple Mart","name:nan":"Bí-liâm-siā","name:nan-HJ":"美廉社","name:nan-POJ":"Bí-liâm-siā","name:nan-TL":"Bí-liâm-siā","name:zh":"美廉社","shop":"supermarket"}},"shop/telecommunication/chunghwatelecom-4f600a":{"name":"中華電信","locationSet":{"include":["tw"]},"geometry":["point","area"],"matchScore":2,"terms":["chunghwa telecom","中華電信"],"tags":{"brand:wikidata":"Q717531","shop":"telecommunication"},"addTags":{"brand":"中華電信","brand:en":"Chunghwa Telecom","brand:wikidata":"Q717531","brand:zh":"中華電信","name":"中華電信","name:en":"Chunghwa Telecom","name:zh":"中華電信","shop":"telecommunication"}},"shop/telecommunication/asiapacifictelecom-4f600a":{"name":"亞太電信","locationSet":{"include":["tw"]},"geometry":["point","area"],"matchScore":2,"terms":["asia pacific telecom","亞太電信"],"tags":{"brand:wikidata":"Q10882737","shop":"telecommunication"},"addTags":{"brand":"亞太電信","brand:en":"Asia Pacific Telecom","brand:wikidata":"Q10882737","brand:zh":"亞太電信","name":"亞太電信","name:en":"Asia Pacific Telecom","name:zh":"亞太電信","shop":"telecommunication"}},"shop/telecommunication/tstar-4f600a":{"name":"台灣之星","locationSet":{"include":["tw"]},"geometry":["point","area"],"matchScore":2,"terms":["t star","台灣之星"],"tags":{"brand:wikidata":"Q4006966","shop":"telecommunication"},"addTags":{"brand":"台灣之星","brand:en":"T Star","brand:wikidata":"Q4006966","brand:zh":"台灣之星","name":"台灣之星","name:en":"T Star","name:zh":"台灣之星","shop":"telecommunication"}},"shop/telecommunication/taiwanmobile-4f600a":{"name":"台灣大哥大","locationSet":{"include":["tw"]},"geometry":["point","area"],"matchScore":2,"terms":["taiwan mobile","台灣大哥大"],"tags":{"brand:wikidata":"Q5943259","shop":"telecommunication"},"addTags":{"brand":"台灣大哥大","brand:en":"Taiwan Mobile","brand:wikidata":"Q5943259","brand:zh":"台灣大哥大","name":"台灣大哥大","name:en":"Taiwan Mobile","name:zh":"台灣大哥大","shop":"telecommunication"}},"shop/telecommunication/fareastone-4f600a":{"name":"遠傳電信","locationSet":{"include":["tw"]},"geometry":["point","area"],"matchScore":2,"terms":["fareastone","遠傳電信"],"tags":{"brand:wikidata":"Q5434486","shop":"telecommunication"},"addTags":{"brand":"遠傳電信","brand:en":"FarEasTone","brand:wikidata":"Q5434486","brand:zh":"遠傳電信","name":"遠傳電信","name:en":"FarEasTone","name:zh":"遠傳電信","shop":"telecommunication"}},"shop/tyres/tyreplus-99cc81":{"name":"Tyreplus","locationSet":{"include":["ae","au","bh","cn","id","kh","kw","my","om","ph","qa","ru","sa","sg","th","tw"]},"geometry":["point","area"],"matchScore":2,"terms":["tyreplus"],"tags":{"brand:wikidata":"Q110959120","shop":"tyres"},"addTags":{"brand":"Tyreplus","brand:wikidata":"Q110959120","name":"Tyreplus","shop":"tyres"}},"shop/variety_store/dondondonki-717fd7":{"name":"Don Don Donki","locationSet":{"include":["hk","my","sg","th","tw","us-hi"]},"geometry":["point","area"],"matchScore":2,"terms":["don don donki"],"tags":{"brand:wikidata":"Q1185381","shop":"variety_store"},"addTags":{"brand":"Don Don Donki","brand:wikidata":"Q1185381","name":"Don Don Donki","shop":"variety_store"}},"shop/variety_store/miniso-501f06":{"name":"名創優品","locationSet":{"include":["tw"]},"geometry":["point","area"],"matchScore":2,"terms":["miniso","名創優品"],"tags":{"brand:wikidata":"Q20732498","shop":"variety_store"},"addTags":{"brand":"名創優品","brand:en":"Miniso","brand:wikidata":"Q20732498","brand:zh":"名創優品","brand:zh-Hans":"名创优品","brand:zh-Hant":"名創優品","name":"名創優品","name:en":"Miniso","name:zh":"名創優品","name:zh-Hans":"名创优品","name:zh-Hant":"名創優品","shop":"variety_store"}},"tourism/hotel/citizenm-b4d29c":{"name":"citizenM","locationSet":{"include":["ch","dk","fr","gb","it","my","nl","tw","us"]},"geometry":["point","area"],"matchScore":2,"terms":["citizenm"],"fields":["name","brand","{tourism/hotel}"],"tags":{"brand:wikidata":"Q5122531","tourism":"hotel"},"addTags":{"brand":"citizenM","brand:wikidata":"Q5122531","name":"citizenM","tourism":"hotel"}},"tourism/hotel/tapestrycollection-1c7927":{"name":"Tapestry Collection by Hilton","locationSet":{"include":["ae","br","ca","cn","es","fx","gb","mx","pt","tw","us"]},"geometry":["point","area"],"matchScore":2,"terms":["tapestry collection","tapestry collection by hilton"],"fields":["name","brand","{tourism/hotel}"],"tags":{"brand:wikidata":"Q109275422","tourism":"hotel"},"addTags":{"brand":"Tapestry Collection","brand:wikidata":"Q109275422","tourism":"hotel"}},"tourism/hotel/mandarinorientalhotel-e06ce0":{"name":"文華東方酒店集團","locationSet":{"include":["tw"]},"geometry":["point","area"],"matchScore":2,"terms":["mandarin oriental hotel","文華東方酒店集團"],"fields":["name","brand","{tourism/hotel}"],"tags":{"brand:wikidata":"Q1236521","tourism":"hotel"},"addTags":{"brand":"文華東方酒店集團","brand:en":"Mandarin Oriental Hotel","brand:wikidata":"Q1236521","brand:zh":"文華東方酒店集團","tourism":"hotel"}},"amenity/car_sharing/zipcar-aa2ec2":{"name":"Zipcar","locationSet":{"include":["ca","cr","gb","is","tr","tw","us"]},"geometry":["point","area"],"matchScore":2,"terms":["streetcar","zipcar"],"tags":{"amenity":"car_sharing","operator:wikidata":"Q1069924"},"addTags":{"amenity":"car_sharing","operator":"Zipcar","operator:wikidata":"Q1069924"}},"amenity/library/89e2b7-6a5686":{"name":"新北市三重區公所","locationSet":{"include":["tw"]},"geometry":["point","area"],"matchScore":2,"terms":["三重區公所","新北市三重區公所"],"tags":{"amenity":"library","operator:wikidata":"Q113609909"},"addTags":{"amenity":"library","operator":"新北市三重區公所","operator:wikidata":"Q113609909"}},"amenity/library/newtaipeicitylibrary-6a5686":{"name":"新北市立圖書館","locationSet":{"include":["tw"]},"geometry":["point","area"],"matchScore":2,"terms":["new taipei city library","新北市立圖書館"],"tags":{"amenity":"library","operator:wikidata":"Q11081463"},"addTags":{"amenity":"library","operator":"新北市立圖書館","operator:en":"New Taipei City Library","operator:type":"government","operator:wikidata":"Q11081463","operator:zh":"新北市立圖書館"}},"amenity/library/taipeipubliclibrary-6a5686":{"name":"臺北市立圖書館","locationSet":{"include":["tw"]},"geometry":["point","area"],"matchScore":2,"terms":["taipei public library","臺北市立圖書館"],"tags":{"amenity":"library","operator:wikidata":"Q15896397"},"addTags":{"amenity":"library","operator":"臺北市立圖書館","operator:en":"Taipei Public Library","operator:type":"government","operator:wikidata":"Q15896397","operator:zh":"臺北市立圖書館"}},"amenity/library/kaohsiungpubliclibrary-6a5686":{"name":"高雄市立圖書館","locationSet":{"include":["tw"]},"geometry":["point","area"],"matchScore":2,"terms":["kaohsiung public library","高雄市立圖書館"],"tags":{"amenity":"library","operator:wikidata":"Q15900287"},"addTags":{"amenity":"library","operator":"高雄市立圖書館","operator:en":"Kaohsiung Public Library","operator:type":"government","operator:wikidata":"Q15900287","operator:zh":"高雄市立圖書館"}},"amenity/police/criminalinvestigationbureau-c45d37":{"name":"刑事警察局","locationSet":{"include":["tw"]},"geometry":["point","area"],"matchScore":2,"terms":["cib","criminal investigation bureau","刑事警察局","刑警"],"tags":{"amenity":"police","operator:wikidata":"Q10891306"},"addTags":{"amenity":"police","operator":"刑事警察局","operator:en":"Criminal Investigation Bureau","operator:wikidata":"Q10891306","operator:zh":"刑事警察局"}},"amenity/police/nationalhighwaypolicebureau-c45d37":{"name":"國道公路警察局","locationSet":{"include":["tw"]},"geometry":["point","area"],"matchScore":2,"terms":["national highway police bureau","nhp","nhpb","國道公路警察局","國道警察"],"tags":{"amenity":"police","operator:wikidata":"Q10891307"},"addTags":{"amenity":"police","operator":"國道公路警察局","operator:en":"National Highway Police Bureau","operator:wikidata":"Q10891307","operator:zh":"國道公路警察局"}},"amenity/police/newtaipeicitypolicedepartment-c45d37":{"name":"新北市政府警察局","locationSet":{"include":["tw"]},"geometry":["point","area"],"matchScore":2,"terms":["new taipei city police department","ntpc police","ntpd","新北市政府警察局","新北市警察","新北市警局","新北警察","新北警局"],"tags":{"amenity":"police","operator:wikidata":"Q11081385"},"addTags":{"amenity":"police","operator":"新北市政府警察局","operator:en":"New Taipei City Police Department","operator:wikidata":"Q11081385","operator:zh":"新北市政府警察局"}},"amenity/police/taoyuanpolicedepartment-c45d37":{"name":"桃園市政府警察局","locationSet":{"include":["tw"]},"geometry":["point","area"],"matchScore":2,"terms":["taoyuan police","taoyuan police department","typd","桃園市政府警察局","桃園市警察","桃園市警局","桃園警察","桃市警局"],"tags":{"amenity":"police","operator:wikidata":"Q15907660"},"addTags":{"amenity":"police","operator":"桃園市政府警察局","operator:en":"Taoyuan Police Department","operator:wikidata":"Q15907660","operator:zh":"桃園市政府警察局"}},"amenity/police/coastguardadministration-c45d37":{"name":"海巡署","locationSet":{"include":["tw"]},"geometry":["point","area"],"matchScore":2,"terms":["cga","coast guard administration","海巡","海巡署"],"tags":{"amenity":"police","operator:wikidata":"Q698822"},"addTags":{"amenity":"police","operator":"海巡署","operator:en":"Coast Guard Administration","operator:wikidata":"Q698822","operator:zh":"海巡署"}},"amenity/police/taichungcitypolicedepartment-c45d37":{"name":"臺中市政府警察局","locationSet":{"include":["tw"]},"geometry":["point","area"],"matchScore":2,"terms":["taichung city police department","taichung police","tcpb","中市警","中市警察","台中市警察","台中市警局","台中警察","臺中市政府警察局","臺中市警察","臺中市警局","臺中警察"],"tags":{"amenity":"police","operator:wikidata":"Q15897177"},"addTags":{"amenity":"police","operator":"臺中市政府警察局","operator:en":"Taichung City Police Department","operator:wikidata":"Q15897177","operator:zh":"臺中市政府警察局"}},"amenity/police/taipeicitypolicedepartment-c45d37":{"name":"臺北市政府警察局","locationSet":{"include":["tw"]},"geometry":["point","area"],"matchScore":2,"terms":["taipei city police department","taipei police","tcpd","北市警察","北市警局","台北市警察","台北市警局","台北警察","臺北市政府警察局","臺北市警察","臺北市警局","臺北警察"],"tags":{"amenity":"police","operator:wikidata":"Q15903297"},"addTags":{"amenity":"police","operator":"臺北市政府警察局","operator:en":"Taipei City Police Department","operator:wikidata":"Q15903297","operator:zh":"臺北市政府警察局"}},"amenity/police/tainancitypolicedepartment-c45d37":{"name":"臺南市政府警察局","locationSet":{"include":["tw"]},"geometry":["point","area"],"matchScore":2,"terms":["taian police","tainan city police department","tnpd","南市警察","南市警局","台南市警察","台南市警局","台南警察","臺南市政府警察局","臺南市警察","臺南市警局","臺南警察"],"tags":{"amenity":"police","operator:wikidata":"Q15904106"},"addTags":{"amenity":"police","operator":"臺南市政府警察局","operator:en":"Tainan City Police Department","operator:wikidata":"Q15904106","operator:zh":"臺南市政府警察局"}},"amenity/police/aviationpolicebureau-c45d37":{"name":"航空警察局","locationSet":{"include":["tw"]},"geometry":["point","area"],"matchScore":2,"terms":["ap","apb","aviation police bureau","航空警察局","航警"],"tags":{"amenity":"police","operator:wikidata":"Q15912145"},"addTags":{"amenity":"police","operator":"航空警察局","operator:en":"Aviation Police Bureau","operator:wikidata":"Q15912145","operator:zh":"航空警察局"}},"amenity/police/railwaypolicebureau-c45d37":{"name":"鐵路警察局","locationSet":{"include":["tw"]},"geometry":["point","area"],"matchScore":2,"terms":["railway police bureau","rp","rpb","路警","鐵路警察局"],"tags":{"amenity":"police","operator:wikidata":"Q10891310"},"addTags":{"amenity":"police","operator":"鐵路警察局","operator:en":"Railway Police Bureau","operator:wikidata":"Q10891310","operator:zh":"鐵路警察局"}},"amenity/police/kaohsiungcitypolicedepartment-c45d37":{"name":"高雄市政府警察局","locationSet":{"include":["tw"]},"geometry":["point","area"],"matchScore":2,"terms":["kaohsiung city police department","kaohsiung police","kcpd","kmph","高市警察","高市警局","高雄市政府警察局","高雄市警察","高雄市警局","高雄警察"],"tags":{"amenity":"police","operator:wikidata":"Q15900495"},"addTags":{"amenity":"police","operator":"高雄市政府警察局","operator:en":"Kaohsiung City Police Department","operator:wikidata":"Q15900495","operator:zh":"高雄市政府警察局"}},"amenity/post_box/chunghwapost-bed6e8":{"name":"中華郵政","locationSet":{"include":["tw"]},"geometry":["point","vertex"],"matchScore":2,"terms":["chunghwa post","tiong-hôa iû-chèng","中華郵政","中華郵政;郵局","中華郵政公司","中華郵政股份有限公司"],"tags":{"amenity":"post_box","operator:wikidata":"Q709259"},"addTags":{"alt_name":"中華郵政;郵局","amenity":"post_box","operator":"中華郵政","operator:en":"Chunghwa Post","operator:nan":"Tiong-hôa Iû-chèng","operator:nan-HJ":"中華郵政","operator:nan-POJ":"Tiong-hôa Iû-chèng","operator:nan-TL":"Tiong-huâ Iû-tsìng","operator:wikidata":"Q709259","operator:zh":"中華郵政"}},"amenity/post_office/chunghwapost-feb726":{"name":"中華郵政","locationSet":{"include":["tw"]},"geometry":["point","area"],"matchScore":2,"terms":["chunghwa post","tiong-hôa iû-chèng","中華郵政","中華郵政;郵局","中華郵政公司","中華郵政股份有限公司"],"fields":["name","operator","{amenity/post_office}"],"tags":{"amenity":"post_office","operator:wikidata":"Q709259"},"addTags":{"alt_name":"中華郵政;郵局","amenity":"post_office","operator":"中華郵政","operator:en":"Chunghwa Post","operator:nan":"Tiong-hôa Iû-chèng","operator:nan-HJ":"中華郵政","operator:nan-POJ":"Tiong-hôa Iû-chèng","operator:nan-TL":"Tiong-huâ Iû-tsìng","operator:wikidata":"Q709259","operator:zh":"中華郵政"}},"amenity/telephone/chunghwatelecom-ac3b33":{"name":"中華電信","locationSet":{"include":["tw"]},"geometry":["point","vertex"],"matchScore":2,"terms":["chunghwa telecom","中華電信"],"fields":["name","operator","{amenity/telephone}"],"tags":{"amenity":"telephone","operator:wikidata":"Q717531"},"addTags":{"amenity":"telephone","operator":"中華電信","operator:en":"Chunghwa Telecom","operator:wikidata":"Q717531","operator:zh":"中華電信"}},"office/energy_supplier/taipower-cce231":{"name":"台灣電力公司","locationSet":{"include":["tw"]},"geometry":["point","area"],"matchScore":2,"terms":["taipower","台灣電力公司"],"tags":{"office":"energy_supplier","operator:wikidata":"Q711691"},"addTags":{"name":"台灣電力公司","name:en":"Taipower","name:zh":"台灣電力公司","name:zh-Hant":"台灣電力公司","office":"energy_supplier","operator":"台灣電力公司","operator:en":"Taipower","operator:wikidata":"Q711691","operator:zh":"台灣電力公司","operator:zh-Hant":"台灣電力公司"}},"power/generator/taiwanpowercompany-b27929":{"name":"台灣電力公司","locationSet":{"include":["tw"]},"geometry":["point","vertex","area"],"matchScore":2,"terms":["taipower","taiwan power company","台灣電力公司","台電"],"tags":{"operator:wikidata":"Q711691","power":"generator"},"addTags":{"operator":"台灣電力公司","operator:en":"Taiwan Power Company","operator:wikidata":"Q711691","operator:zh":"台灣電力公司","power":"generator"}},"power/plant/taiwanpowercompany-84e908":{"name":"台灣電力公司","locationSet":{"include":["tw"]},"geometry":["area"],"matchScore":2,"terms":["taipower","taiwan power company","台灣電力公司","台電"],"tags":{"operator:wikidata":"Q711691","power":"plant"},"addTags":{"operator":"台灣電力公司","operator:en":"Taiwan Power Company","operator:wikidata":"Q711691","operator:zh":"台灣電力公司","power":"plant"}},"power/substation/taiwanpowercompany-c8f19e":{"name":"台灣電力公司","locationSet":{"include":["tw"]},"geometry":["area","point"],"matchScore":2,"terms":["taiwan power company","台灣電力公司"],"tags":{"operator:wikidata":"Q711691","power":"substation"},"addTags":{"operator":"台灣電力公司","operator:en":"Taiwan Power Company","operator:wikidata":"Q711691","operator:zh":"台灣電力公司","power":"substation"}},"power/transformer/taiwanpowercompany-7d07c2":{"name":"台灣電力公司","locationSet":{"include":["tw"]},"geometry":["point","vertex"],"matchScore":2,"terms":["taiwan power company","台灣電力公司"],"tags":{"operator:wikidata":"Q711691","power":"transformer"},"addTags":{"operator":"台灣電力公司","operator:en":"Taiwan Power Company","operator:wikidata":"Q711691","operator:zh":"台灣電力公司","power":"transformer"}},"type/route/railway/taiwanrailwaysadministration-140976":{"name":"臺灣鐵路管理局","locationSet":{"include":["tw"]},"geometry":["relation"],"matchScore":2,"terms":["tâi-oân thih-lō͘ koán-lí-kio̍k","tâi-thih","taiwan railways administration","thòi-vân thiet-lu kón-lî-khiu̍k","tra","台灣鐵路管理局","台鐵","臺灣鐵路管理局","臺鐵"],"reference":{"key":"route","value":"railway"},"tags":{"operator:wikidata":"Q697926","route":"railway","type":"route"},"addTags":{"operator":"臺灣鐵路管理局","operator:en":"Taiwan Railways Administration","operator:hak":"Thòi-vân Thiet-lu Kón-lî-khiu̍k","operator:nan":"Tâi-oân Thih-lō͘ Koán-lí-kio̍k","operator:nan-HJ":"臺灣鐵路管理局","operator:nan-POJ":"Tâi-oân Thih-lō͘ Koán-lí-kio̍k","operator:nan-TL":"Tâi-uân Thih-lōo Kuán-lí-kio̍k","operator:wikidata":"Q697926","operator:zh":"臺灣鐵路管理局","route":"railway","short_name":"台鐵","short_name:en":"TRA","short_name:nan":"Tâi-thih","short_name:nan-HJ":"台鐵","short_name:nan-POJ":"Tâi-thih","short_name:nan-TL":"Tâi-thih","short_name:zh":"台鐵","type":"route"}},"public_transport/platform/bus_point/keelungcitybus-e531fe":{"name":"基隆市公車","locationSet":{"include":["tw"]},"geometry":["point","vertex"],"matchScore":2,"terms":["ke-lâng-chhī kong-chhia","keelung city bus","基隆市公車","基隆市公車處"],"reference":{"key":"public_transport","value":"platform"},"tags":{"bus":"yes","network:wikidata":"Q109376193","public_transport":"platform"},"addTags":{"bus":"yes","highway":"bus_stop","network":"基隆市公車","network:en":"Keelung City Bus","network:nan":"Ke-lâng-chhī Kong-chhia","network:nan-HJ":"基隆市公車","network:nan-POJ":"Ke-lâng-chhī Kong-chhia","network:nan-TL":"Ke-lâng-tshī Kong-tshia","network:wikidata":"Q109376193","network:zh":"基隆市公車","operator":"基隆市公車處","public_transport":"platform"}},"public_transport/platform/bus_point/tainancitybus-e531fe":{"name":"大台南公車","locationSet":{"include":["tw"]},"geometry":["point","vertex"],"matchScore":2,"terms":["tainan city bus","tōa tâi-lâm kong-chhia","大台南公車"],"reference":{"key":"public_transport","value":"platform"},"tags":{"bus":"yes","network:wikidata":"Q10933889","public_transport":"platform"},"addTags":{"bus":"yes","highway":"bus_stop","network":"大台南公車","network:en":"Tainan City Bus","network:nan":"Tōa Tâi-lâm Kong-chhia","network:nan-HJ":"大台南公車","network:nan-POJ":"Tōa Tâi-lâm Kong-chhia","network:nan-TL":"Tuā Tâi-lâm Kong-tshia","network:wikidata":"Q10933889","network:zh":"大台南公車","public_transport":"platform"}},"public_transport/platform/bus_point/ilancountybus-e531fe":{"name":"宜蘭縣市區公車","locationSet":{"include":["tw"]},"geometry":["point","vertex"],"matchScore":2,"terms":["gî-lân-koān chhī-khu kong-chhia","ilan county bus","宜蘭公車","宜蘭縣市區公車"],"reference":{"key":"public_transport","value":"platform"},"tags":{"bus":"yes","network:wikidata":"Q15903485","public_transport":"platform"},"addTags":{"bus":"yes","highway":"bus_stop","network":"宜蘭縣市區公車","network:en":"Ilan County Bus","network:nan":"Gî-lân-koān Chhī-khu Kong-chhia","network:nan-HJ":"宜蘭縣市區公車","network:nan-POJ":"Gî-lân-koān Chhī-khu Kong-chhia","network:nan-TL":"Gî-lân-kuān Tshī-khu Kong-tshia","network:wikidata":"Q15903485","network:zh":"宜蘭縣市區公車","public_transport":"platform"}},"public_transport/platform/bus_point/pingtungcitybus-e531fe":{"name":"屏東縣市區公車","locationSet":{"include":["tw"]},"geometry":["point","vertex"],"matchScore":2,"terms":["pîn-tong-koān chhī-khu kong-chhia","pingtung city bus","屏東縣市區公車"],"reference":{"key":"public_transport","value":"platform"},"tags":{"bus":"yes","network:wikidata":"Q15903688","public_transport":"platform"},"addTags":{"bus":"yes","highway":"bus_stop","network":"屏東縣市區公車","network:en":"Pingtung City Bus","network:nan":"Pîn-tong-koān Chhī-khu Kong-chhia","network:nan-HJ":"屏東縣市區公車","network:nan-POJ":"Pîn-tong-koān Chhī-khu Kong-chhia","network:nan-TL":"Pîn-tong-kuān Tshī-khu Kong-tshia","network:wikidata":"Q15903688","network:zh":"屏東縣市區公車","public_transport":"platform"}},"public_transport/platform/bus_point/newtaipeicitybus-e531fe":{"name":"新北市公車","locationSet":{"include":["tw"]},"geometry":["point","vertex"],"matchScore":2,"terms":["new taipei city bus","sin-pak-chhī kong-chhia","新北市公車"],"reference":{"key":"public_transport","value":"platform"},"tags":{"bus":"yes","network:wikidata":"Q21652250","public_transport":"platform"},"addTags":{"bus":"yes","highway":"bus_stop","network":"新北市公車","network:en":"New Taipei City Bus","network:nan":"Sin-pak-chhī Kong-chhia","network:nan-HJ":"新北市公車","network:nan-POJ":"Sin-pak-chhī Kong-chhia","network:nan-TL":"Sin-pak-tshī Kong-tshia","network:wikidata":"Q21652250","network:zh":"新北市公車","public_transport":"platform"}},"public_transport/platform/bus_point/hsinzhucitybus-e531fe":{"name":"新竹市市區公車","locationSet":{"include":["tw"]},"geometry":["point","vertex"],"matchScore":2,"terms":["hsinzhu city bus","sin-tek-chhī chhī-khu kong-chhia","新竹市公車","新竹市區公車","新竹市市區公車"],"reference":{"key":"public_transport","value":"platform"},"tags":{"bus":"yes","network:wikidata":"Q11083995","public_transport":"platform"},"addTags":{"bus":"yes","highway":"bus_stop","network":"新竹市市區公車","network:en":"Hsinzhu City Bus","network:nan":"Sin-tek-chhī Chhī-khu Kong-chhia","network:nan-HJ":"新竹市市區公車","network:nan-POJ":"Sin-tek-chhī Chhī-khu Kong-chhia","network:nan-TL":"Sin-tik-tshī Tshī-khu Kong-tshia","network:wikidata":"Q11083995","network:zh":"新竹市市區公車","public_transport":"platform"}},"public_transport/platform/bus_point/tauyuancitybus-e531fe":{"name":"桃園市市區公車","locationSet":{"include":["tw"]},"geometry":["point","vertex"],"matchScore":2,"terms":["tauyuan city bus","thô-hn̂g-chhī chhī-khu kong-chhia","桃園市公車","桃園市市區公車"],"reference":{"key":"public_transport","value":"platform"},"tags":{"bus":"yes","network:wikidata":"Q11112021","public_transport":"platform"},"addTags":{"bus":"yes","highway":"bus_stop","network":"桃園市市區公車","network:en":"Tauyuan City Bus","network:nan":"Thô-hn̂g-chhī Chhī-khu Kong-chhia","network:nan-HJ":"桃園市市區公車","network:nan-POJ":"Thô-hn̂g-chhī Chhī-khu Kong-chhia","network:nan-TL":"Thô-hn̂g-tshī Tshī-khu Kong-tshia","network:wikidata":"Q11112021","network:zh":"桃園市市區公車","public_transport":"platform"}},"public_transport/platform/bus_point/zhubecitizenfreebus-e531fe":{"name":"竹北市免費市民公車","locationSet":{"include":["tw"]},"geometry":["point","vertex"],"matchScore":2,"terms":["tek-pak-chhī bián-hùi chhī-bîn kong-chhia","zhube citizen free bus","竹北市免費市民公車"],"reference":{"key":"public_transport","value":"platform"},"tags":{"bus":"yes","network:wikidata":"Q109375446","public_transport":"platform"},"addTags":{"bus":"yes","highway":"bus_stop","network":"竹北市免費市民公車","network:en":"Zhube Citizen Free Bus","network:nan":"Tek-pak-chhī Bián-hùi Chhī-bîn Kong-chhia","network:nan-HJ":"竹北市免費市民公車","network:nan-POJ":"Tek-pak-chhī Bián-hùi Chhī-bîn Kong-chhia","network:nan-TL":"Tik-pak-tshī Bián-huì Tshī-bîn Kong-tshia","network:wikidata":"Q109375446","network:zh":"竹北市免費市民公車","public_transport":"platform"}},"public_transport/platform/bus_point/taichungcitybus-e531fe":{"name":"臺中市市區公車","locationSet":{"include":["tw"]},"geometry":["point","vertex"],"matchScore":2,"terms":["tâi-tiong-chhī chhī-khu kong-chhia","taichung city bus","臺中市公車","臺中市市區公車"],"reference":{"key":"public_transport","value":"platform"},"tags":{"bus":"yes","network:wikidata":"Q3462238","public_transport":"platform"},"addTags":{"bus":"yes","highway":"bus_stop","network":"臺中市市區公車","network:en":"Taichung City Bus","network:nan":"Tâi-tiong-chhī Chhī-khu Kong-chhia","network:nan-HJ":"臺中市市區公車","network:nan-POJ":"Tâi-tiong-chhī Chhī-khu Kong-chhia","network:nan-TL":"Tâi-tiong-tshī Tshī-khu Kong-tshia","network:wikidata":"Q3462238","network:zh":"臺中市市區公車","public_transport":"platform"}},"public_transport/platform/bus_point/taipeijointbussystem-e531fe":{"name":"臺北市市區公車","locationSet":{"include":["tw"]},"geometry":["point","vertex"],"matchScore":2,"terms":["tâi-pak-chhī chhī-khu kong-chhia","taipei joint bus system","臺北市公車","臺北市市區公車"],"reference":{"key":"public_transport","value":"platform"},"tags":{"bus":"yes","network:wikidata":"Q5972821","public_transport":"platform"},"addTags":{"bus":"yes","highway":"bus_stop","network":"臺北市市區公車","network:en":"Taipei Joint Bus System","network:nan":"Tâi-pak-chhī Chhī-khu Kong-chhia","network:nan-HJ":"臺北市市區公車","network:nan-POJ":"Tâi-pak-chhī Chhī-khu Kong-chhia","network:nan-TL":"Tâi-pak-tshiī Tshī-khu Kong-tshia","network:wikidata":"Q5972821","network:zh":"臺北市市區公車","public_transport":"platform"}},"public_transport/platform/bus_point/kaohsiungcitybus-e531fe":{"name":"高雄市公車","locationSet":{"include":["tw"]},"geometry":["point","vertex"],"matchScore":2,"terms":["kaohsiung city bus","ko-hiông-chhī kong-chhia","高雄市公車"],"reference":{"key":"public_transport","value":"platform"},"tags":{"bus":"yes","network:wikidata":"Q15903688","public_transport":"platform"},"addTags":{"bus":"yes","highway":"bus_stop","network":"高雄市公車","network:en":"Kaohsiung City Bus","network:nan":"Ko-hiông-chhī Kong-chhia","network:nan-HJ":"高雄市公車","network:nan-POJ":"Ko-hiông-chhī Kong-chhia","network:nan-TL":"Ko-hiông-tshī Kong-tshia","network:wikidata":"Q15903688","network:zh":"高雄市公車","public_transport":"platform"}},"type/route/bus/keelungcitybus-a4fa75":{"name":"基隆市公車","locationSet":{"include":["tw"]},"geometry":["relation"],"matchScore":2,"terms":["ke-lâng-chhī kong-chhia","keelung city bus","基隆市公車","基隆市公車處"],"reference":{"key":"route","value":"bus"},"tags":{"network:wikidata":"Q109376193","route":"bus","type":"route"},"addTags":{"network":"基隆市公車","network:en":"Keelung City Bus","network:nan":"Ke-lâng-chhī Kong-chhia","network:nan-HJ":"基隆市公車","network:nan-POJ":"Ke-lâng-chhī Kong-chhia","network:nan-TL":"Ke-lâng-tshī Kong-tshia","network:wikidata":"Q109376193","network:zh":"基隆市公車","operator":"基隆市公車處","route":"bus","type":"route"}},"type/route/bus/tainancitybus-a4fa75":{"name":"大台南公車","locationSet":{"include":["tw"]},"geometry":["relation"],"matchScore":2,"terms":["tainan city bus","tōa tâi-lâm kong-chhia","大台南公車"],"reference":{"key":"route","value":"bus"},"tags":{"network:wikidata":"Q10933889","route":"bus","type":"route"},"addTags":{"network":"大台南公車","network:en":"Tainan City Bus","network:nan":"Tōa Tâi-lâm Kong-chhia","network:nan-HJ":"大台南公車","network:nan-POJ":"Tōa Tâi-lâm Kong-chhia","network:nan-TL":"Tuā Tâi-lâm Kong-tshia","network:wikidata":"Q10933889","network:zh":"大台南公車","route":"bus","type":"route"}},"type/route/bus/ilancountybus-a4fa75":{"name":"宜蘭縣市區公車","locationSet":{"include":["tw"]},"geometry":["relation"],"matchScore":2,"terms":["gî-lân-koān chhī-khu kong-chhia","ilan county bus","宜蘭公車","宜蘭縣市區公車"],"reference":{"key":"route","value":"bus"},"tags":{"network:wikidata":"Q15903485","route":"bus","type":"route"},"addTags":{"network":"宜蘭縣市區公車","network:en":"Ilan County Bus","network:nan":"Gî-lân-koān Chhī-khu Kong-chhia","network:nan-HJ":"宜蘭縣市區公車","network:nan-POJ":"Gî-lân-koān Chhī-khu Kong-chhia","network:nan-TL":"Gî-lân-kuān Tshī-khu Kong-tshia","network:wikidata":"Q15903485","network:zh":"宜蘭縣市區公車","route":"bus","type":"route"}},"type/route/bus/pingtungcitybus-a4fa75":{"name":"屏東縣市區公車","locationSet":{"include":["tw"]},"geometry":["relation"],"matchScore":2,"terms":["pîn-tong-koān chhī-khu kong-chhia","pingtung city bus","屏東縣市區公車"],"reference":{"key":"route","value":"bus"},"tags":{"network:wikidata":"Q15903688","route":"bus","type":"route"},"addTags":{"network":"屏東縣市區公車","network:en":"Pingtung City Bus","network:nan":"Pîn-tong-koān Chhī-khu Kong-chhia","network:nan-HJ":"屏東縣市區公車","network:nan-POJ":"Pîn-tong-koān Chhī-khu Kong-chhia","network:nan-TL":"Pîn-tong-kuān Tshī-khu Kong-tshia","network:wikidata":"Q15903688","network:zh":"屏東縣市區公車","route":"bus","type":"route"}},"type/route/bus/newtaipeicitybus-a4fa75":{"name":"新北市公車","locationSet":{"include":["tw"]},"geometry":["relation"],"matchScore":2,"terms":["new taipei city bus","sin-pak-chhī kong-chhia","新北市公車"],"reference":{"key":"route","value":"bus"},"tags":{"network:wikidata":"Q21652250","route":"bus","type":"route"},"addTags":{"network":"新北市公車","network:en":"New Taipei City Bus","network:nan":"Sin-pak-chhī Kong-chhia","network:nan-HJ":"新北市公車","network:nan-POJ":"Sin-pak-chhī Kong-chhia","network:nan-TL":"Sin-pak-tshī Kong-tshia","network:wikidata":"Q21652250","network:zh":"新北市公車","route":"bus","type":"route"}},"type/route/bus/hsinzhucitybus-a4fa75":{"name":"新竹市市區公車","locationSet":{"include":["tw"]},"geometry":["relation"],"matchScore":2,"terms":["hsinzhu city bus","sin-tek-chhī chhī-khu kong-chhia","新竹市公車","新竹市區公車","新竹市市區公車"],"reference":{"key":"route","value":"bus"},"tags":{"network:wikidata":"Q11083995","route":"bus","type":"route"},"addTags":{"network":"新竹市市區公車","network:en":"Hsinzhu City Bus","network:nan":"Sin-tek-chhī Chhī-khu Kong-chhia","network:nan-HJ":"新竹市市區公車","network:nan-POJ":"Sin-tek-chhī Chhī-khu Kong-chhia","network:nan-TL":"Sin-tik-tshī Tshī-khu Kong-tshia","network:wikidata":"Q11083995","network:zh":"新竹市市區公車","route":"bus","type":"route"}},"type/route/bus/tauyuancitybus-a4fa75":{"name":"桃園市市區公車","locationSet":{"include":["tw"]},"geometry":["relation"],"matchScore":2,"terms":["tauyuan city bus","thô-hn̂g-chhī chhī-khu kong-chhia","桃園市公車","桃園市市區公車"],"reference":{"key":"route","value":"bus"},"tags":{"network:wikidata":"Q11112021","route":"bus","type":"route"},"addTags":{"network":"桃園市市區公車","network:en":"Tauyuan City Bus","network:nan":"Thô-hn̂g-chhī Chhī-khu Kong-chhia","network:nan-HJ":"桃園市市區公車","network:nan-POJ":"Thô-hn̂g-chhī Chhī-khu Kong-chhia","network:nan-TL":"Thô-hn̂g-tshī Tshī-khu Kong-tshia","network:wikidata":"Q11112021","network:zh":"桃園市市區公車","route":"bus","type":"route"}},"type/route/bus/zhubecitizenfreebus-a4fa75":{"name":"竹北市免費市民公車","locationSet":{"include":["tw"]},"geometry":["relation"],"matchScore":2,"terms":["tek-pak-chhī bián-hùi chhī-bîn kong-chhia","zhube citizen free bus","竹北市免費市民公車"],"reference":{"key":"route","value":"bus"},"tags":{"network:wikidata":"Q109375446","route":"bus","type":"route"},"addTags":{"network":"竹北市免費市民公車","network:en":"Zhube Citizen Free Bus","network:nan":"Tek-pak-chhī Bián-hùi Chhī-bîn Kong-chhia","network:nan-HJ":"竹北市免費市民公車","network:nan-POJ":"Tek-pak-chhī Bián-hùi Chhī-bîn Kong-chhia","network:nan-TL":"Tik-pak-tshī Bián-huì Tshī-bîn Kong-tshia","network:wikidata":"Q109375446","network:zh":"竹北市免費市民公車","route":"bus","type":"route"}},"type/route/bus/taichungcitybus-a4fa75":{"name":"臺中市市區公車","locationSet":{"include":["tw"]},"geometry":["relation"],"matchScore":2,"terms":["tâi-tiong-chhī chhī-khu kong-chhia","taichung city bus","臺中市公車","臺中市市區公車"],"reference":{"key":"route","value":"bus"},"tags":{"network:wikidata":"Q3462238","route":"bus","type":"route"},"addTags":{"network":"臺中市市區公車","network:en":"Taichung City Bus","network:nan":"Tâi-tiong-chhī Chhī-khu Kong-chhia","network:nan-HJ":"臺中市市區公車","network:nan-POJ":"Tâi-tiong-chhī Chhī-khu Kong-chhia","network:nan-TL":"Tâi-tiong-tshī Tshī-khu Kong-tshia","network:wikidata":"Q3462238","network:zh":"臺中市市區公車","route":"bus","type":"route"}},"type/route/bus/taipeijointbussystem-a4fa75":{"name":"臺北市市區公車","locationSet":{"include":["tw"]},"geometry":["relation"],"matchScore":2,"terms":["tâi-pak-chhī chhī-khu kong-chhia","taipei joint bus system","臺北市公車","臺北市市區公車"],"reference":{"key":"route","value":"bus"},"tags":{"network:wikidata":"Q5972821","route":"bus","type":"route"},"addTags":{"network":"臺北市市區公車","network:en":"Taipei Joint Bus System","network:nan":"Tâi-pak-chhī Chhī-khu Kong-chhia","network:nan-HJ":"臺北市市區公車","network:nan-POJ":"Tâi-pak-chhī Chhī-khu Kong-chhia","network:nan-TL":"Tâi-pak-tshiī Tshī-khu Kong-tshia","network:wikidata":"Q5972821","network:zh":"臺北市市區公車","route":"bus","type":"route"}},"type/route/bus/kaohsiungcitybus-a4fa75":{"name":"高雄市公車","locationSet":{"include":["tw"]},"geometry":["relation"],"matchScore":2,"terms":["kaohsiung city bus","ko-hiông-chhī kong-chhia","高雄市公車"],"reference":{"key":"route","value":"bus"},"tags":{"network:wikidata":"Q15903688","route":"bus","type":"route"},"addTags":{"network":"高雄市公車","network:en":"Kaohsiung City Bus","network:nan":"Ko-hiông-chhī Kong-chhia","network:nan-HJ":"高雄市公車","network:nan-POJ":"Ko-hiông-chhī Kong-chhia","network:nan-TL":"Ko-hiông-tshī Kong-tshia","network:wikidata":"Q15903688","network:zh":"高雄市公車","route":"bus","type":"route"}},"type/route/subway/taoyuanmetro-f540f4":{"name":"桃園捷運","locationSet":{"include":["tw"]},"geometry":["relation"],"matchScore":2,"terms":["taoyuan metro","taoyuan metro corporation","thô-hn̂g chia̍t-ūn","thô-hn̂g tāi-chiòng chia̍t-ūn kó͘-hūn iú-hān kong-si","桃園大眾捷運股份有限公司","桃園捷運","桃捷"],"reference":{"key":"route","value":"subway"},"tags":{"network:wikidata":"Q7684358","route":"subway","type":"route"},"addTags":{"network":"桃園捷運","network:en":"Taoyuan Metro","network:nan":"Thô-hn̂g Chia̍t-ūn","network:nan-HJ":"桃園捷運","network:nan-POJ":"Thô-hn̂g Chia̍t-ūn","network:nan-TL":"Thô-hn̂g Tsia̍t-ūn","network:wikidata":"Q7684358","network:zh":"桃園捷運","operator":"桃園大眾捷運股份有限公司","operator:en":"Taoyuan Metro Corporation","operator:nan":"Thô-hn̂g Tāi-chiòng Chia̍t-ūn Kó͘-hūn Iú-hān Kong-si","operator:nan-HJ":"桃園大眾捷運股份有限公司","operator:nan-POJ":"Thô-hn̂g Tāi-chiòng Chia̍t-ūn Kó͘-hūn Iú-hān Kong-si","operator:nan-TL":"Thô-hn̂g Tāi-tsiòng Tsia̍t-ūn Kóo-hūn Iú-hān Kong-si","operator:wikidata":"Q11111997","operator:zh":"桃園大眾捷運股份有限公司","route":"subway","type":"route"}},"type/route/subway/taichungmassrapidtransit-f540f4":{"name":"臺中捷運","locationSet":{"include":["tw"]},"geometry":["relation"],"matchScore":2,"terms":["tâi-tiong chia̍t-ūn","tâi-tiong chia̍t-ūn kong-si","taichung mass rapid transit","taichung metro corporation","中捷","台中捷運","臺中捷運","臺中捷運公司"],"reference":{"key":"route","value":"subway"},"tags":{"network:wikidata":"Q5972247","route":"subway","type":"route"},"addTags":{"network":"臺中捷運","network:en":"Taichung Mass Rapid Transit","network:nan":"Tâi-tiong Chia̍t-ūn","network:nan-HJ":"臺中捷運","network:nan-POJ":"Tâi-tiong Chia̍t-ūn","network:nan-TL":"Tâi-tiong Tsia̍t-ūn","network:wikidata":"Q5972247","network:zh":"臺中捷運","network:zh-Hans":"台中捷运","network:zh-Hant":"臺中捷運","operator":"臺中捷運公司","operator:en":"Taichung Metro Corporation","operator:nan":"Tâi-tiong Chia̍t-ūn Kong-si","operator:nan-HJ":"臺中捷運公司","operator:nan-POJ":"Tâi-tiong Chia̍t-ūn Kong-si","operator:nan-TL":"Tâi-tiong Tsia̍t-ūn Kong-si","operator:wikidata":"Q17370558","operator:zh":"臺中捷運公司","route":"subway","type":"route"}},"type/route/subway/taipeimetro-f540f4":{"name":"臺北捷運","locationSet":{"include":["tw"]},"geometry":["relation"],"matchScore":2,"terms":["tâi-pak chia̍t-ūn","tâi-pak tāi-chiòng chia̍t-ūn kó͘-hūn iú-hān kong-si","taipei metro","taipei rapid transit corporation","北捷","台北捷運","臺北大眾捷運股份有限公司","臺北捷運"],"reference":{"key":"route","value":"subway"},"tags":{"network:wikidata":"Q714810","route":"subway","type":"route"},"addTags":{"network":"臺北捷運","network:en":"Taipei Metro","network:nan":"Tâi-pak Chia̍t-ūn","network:nan-HJ":"臺北捷運","network:nan-POJ":"Tâi-pak Chia̍t-ūn","network:nan-TL":"Tâi-pak Tsia̍t-ūn","network:wikidata":"Q714810","network:zh":"臺北捷運","operator":"臺北大眾捷運股份有限公司","operator:en":"Taipei Rapid Transit Corporation","operator:nan":"Tâi-pak Tāi-chiòng Chia̍t-ūn Kó͘-hūn Iú-hān Kong-si","operator:nan-HJ":"臺北大眾捷運股份有限公司","operator:nan-POJ":"Tâi-pak Tāi-chiòng Chia̍t-ūn Kó͘-hūn Iú-hān Kong-si","operator:nan-TL":"Tâi-pak Tāi-tsiòng Tsia̍t-ūn Kóo-hūn Iú-hān Kong-si","operator:wikidata":"Q11411921","operator:zh":"臺北大眾捷運股份有限公司","route":"subway","type":"route"}},"type/route/subway/kaohsiungmetro-f540f4":{"name":"高雄捷運","locationSet":{"include":["tw"]},"geometry":["relation"],"matchScore":2,"terms":["kaohsiung metro","kaohsiung rapid transit corporation","ko-hiông chia̍t-ūn","ko-hiông chia̍t-ūn kó͘-hūn iú-hān kong-si","高捷","高雄捷運","高雄捷運股份有限公司"],"reference":{"key":"route","value":"subway"},"tags":{"network:wikidata":"Q700041","route":"subway","type":"route"},"addTags":{"network":"高雄捷運","network:en":"Kaohsiung Metro","network:nan":"Ko-hiông Chia̍t-ūn","network:nan-HJ":"高雄捷運","network:nan-POJ":"Ko-hiông Chia̍t-ūn","network:nan-TL":"Ko-hiông Tsia̍t-ūn","network:wikidata":"Q700041","network:zh":"高雄捷運","operator":"高雄捷運股份有限公司","operator:en":"Kaohsiung Rapid Transit Corporation","operator:nan":"Ko-hiông Chia̍t-ūn Kó͘-hūn Iú-hān Kong-si","operator:nan-HJ":"高雄捷運股份有限公司","operator:nan-POJ":"Ko-hiông Chia̍t-ūn Kó͘-hūn Iú-hān Kong-si","operator:nan-TL":"Ko-hiông Tsia̍t-ūn Kóo-hūn Iú-hān Kong-si","operator:wikidata":"Q6366134","operator:zh":"高雄捷運股份有限公司","route":"subway","type":"route"}}}