{"advertising/totem/amic-68a939":{"name":"Amic","locationSet":{"include":["at","lt","lv","pl","ua"]},"geometry":["point","line"],"matchScore":2,"terms":["amic","amic energy"],"tags":{"advertising":"totem","brand:wikidata":"Q96047373"},"addTags":{"advertising":"totem","brand":"Amic","brand:wikidata":"Q96047373"}},"advertising/totem/viada-7c2943":{"name":"Viada","locationSet":{"include":["lt","lv"]},"geometry":["point","line"],"matchScore":2,"terms":["viada"],"tags":{"advertising":"totem","brand:wikidata":"Q12663942"},"addTags":{"advertising":"totem","brand":"Viada","brand:wikidata":"Q12663942"}},"amenity/atm/citadelebank-ea222c":{"name":"Citadele","locationSet":{"include":["lv"]},"geometry":["point","vertex"],"matchScore":2,"terms":["citadele bank","citadele banka"],"fields":["name","brand","{amenity/atm}"],"tags":{"amenity":"atm","brand:wikidata":"Q14239556"},"addTags":{"amenity":"atm","brand":"Citadele bank","brand:en":"Citadele bank","brand:lv":"Citadele banka","brand:ru":"Citadele bank","brand:wikidata":"Q14239556","operator":"Citadele bank","operator:wikidata":"Q14239556"}},"amenity/atm/luminorbank-82bd77":{"name":"Luminor Bank","locationSet":{"include":["ee","lt","lv"]},"geometry":["point","vertex"],"matchScore":2,"terms":["dnb","luminor bank"],"fields":["name","brand","{amenity/atm}"],"tags":{"amenity":"atm","brand:wikidata":"Q28966957"},"addTags":{"amenity":"atm","brand":"Luminor Bank","brand:wikidata":"Q28966957","operator":"Luminor Bank","operator:wikidata":"Q28966957"}},"amenity/atm/seb-7527a2":{"name":"SEB","locationSet":{"include":["de","ee","lt","lv","se"]},"geometry":["point","vertex"],"matchScore":2,"terms":["seb"],"fields":["name","brand","{amenity/atm}"],"tags":{"amenity":"atm","brand:wikidata":"Q975655"},"addTags":{"amenity":"atm","brand":"SEB","brand:wikidata":"Q975655","operator":"SEB","operator:wikidata":"Q975655"}},"amenity/atm/swedbank-ab2e60":{"name":"Swedbank","locationSet":{"include":["ee","lt","lv","se"]},"geometry":["point","vertex"],"matchScore":2,"terms":["swedbank"],"fields":["name","brand","{amenity/atm}"],"tags":{"amenity":"atm","brand:wikidata":"Q1145493"},"addTags":{"amenity":"atm","brand":"Swedbank","brand:wikidata":"Q1145493","operator":"Swedbank","operator:wikidata":"Q1145493"}},"amenity/bank/citadele-2d4942":{"name":"Citadele","locationSet":{"include":["lv"]},"geometry":["point","area"],"matchScore":2,"terms":["citadele bank","citadele banka"],"tags":{"amenity":"bank","brand:wikidata":"Q14239556"},"addTags":{"amenity":"bank","brand":"Citadele bank","brand:en":"Citadele bank","brand:lv":"Citadele banka","brand:ru":"Citadele bank","brand:wikidata":"Q14239556","name":"Citadele"}},"amenity/bank/luminorbank-3ce14c":{"name":"Luminor Bank","locationSet":{"include":["ee","lt","lv"]},"geometry":["point","area"],"matchScore":2,"terms":["dnb","luminor bank"],"tags":{"amenity":"bank","brand:wikidata":"Q28966957"},"addTags":{"amenity":"bank","brand":"Luminor Bank","brand:wikidata":"Q28966957","name":"Luminor Bank"}},"amenity/bank/seb-e3cf16":{"name":"SEB","locationSet":{"include":["de","ee","lt","lv","se"]},"geometry":["point","area"],"matchScore":2,"terms":["seb"],"tags":{"amenity":"bank","brand:wikidata":"Q975655"},"addTags":{"amenity":"bank","brand":"SEB","brand:wikidata":"Q975655","name":"SEB"}},"amenity/bank/swedbank-2cd0b2":{"name":"Swedbank","locationSet":{"include":["ee","lt","lv","se"]},"geometry":["point","area"],"matchScore":2,"terms":["swedbank"],"tags":{"amenity":"bank","brand:wikidata":"Q1145493"},"addTags":{"amenity":"bank","brand":"Swedbank","brand:wikidata":"Q1145493","name":"Swedbank"}},"amenity/bar/pianavyshnia-1dc747":{"name":"Piana Vyshnia","locationSet":{"include":["ee","hu","lt","lv","md","ro","sk"]},"geometry":["point","area"],"matchScore":2,"terms":["piana vyshnia"],"fields":["name","brand","{amenity/bar}"],"tags":{"amenity":"bar","brand:wikidata":"Q120651326"},"addTags":{"amenity":"bar","brand":"Piana Vyshnia","brand:wikidata":"Q120651326","name":"Piana Vyshnia"}},"amenity/bicycle_rental/donkeyrepublic-c32b83":{"name":"Donkey Republic","locationSet":{"include":["by","bg","cz","hu","pl","md","ro","ru","sk","ua","ax","gg","je","cq","dk","ee","fo","fi","is","ie","im","lv","lt","no","sj","se","gb","al","ad","ba","hr","gi","gr","va","it","mt","me","mk","pt","sm","rs","si","es","xk","at","be","fr","de","li","lu","mc","nl","ch"]},"geometry":["point","vertex","area"],"matchScore":2,"terms":["donkey republic"],"fields":["name","brand","{amenity/bicycle_rental}"],"tags":{"amenity":"bicycle_rental","brand:wikidata":"Q63753939"},"addTags":{"amenity":"bicycle_rental","brand":"Donkey Republic","brand:wikidata":"Q63753939","name":"Donkey Republic","operator":"Donkey Republic"}},"amenity/casino/olympiccasino-7eadd8":{"name":"Olympic Casino","locationSet":{"include":["ee","it","lt","lv","mt","sk"]},"geometry":["point","area"],"matchScore":2,"terms":["olympic casino"],"tags":{"amenity":"casino","brand:wikidata":"Q11150186"},"addTags":{"amenity":"casino","brand":"Olympic Casino","brand:wikidata":"Q11150186","name":"Olympic Casino"}},"amenity/charging_station/ionity-b625d6":{"name":"Ionity","locationSet":{"include":["by","bg","cz","hu","pl","md","ro","ru","sk","ua","ax","gg","je","cq","dk","ee","fo","fi","is","ie","im","lv","lt","no","sj","se","gb","al","ad","ba","hr","gi","gr","va","it","mt","me","mk","pt","sm","rs","si","es","xk","at","be","fr","de","li","lu","mc","nl","ch"]},"geometry":["point","vertex","area"],"matchScore":2,"terms":["ionity","ionity gmbh"],"fields":["name","brand","{amenity/charging_station}"],"tags":{"amenity":"charging_station","brand:wikidata":"Q42717773"},"addTags":{"amenity":"charging_station","brand":"Ionity","brand:wikidata":"Q42717773"}},"amenity/fast_food/woktowalk-f5ada9":{"name":"Wok to Walk","locationSet":{"include":["ae","bg","co","cy","ec","ee","es","fx","gb","il","in","it","lt","lv","ma","mt","mx","nl","om","pa","pt","qa","sa","us"]},"geometry":["point","area"],"matchScore":2,"terms":["wok to walk"],"tags":{"amenity":"fast_food","brand:wikidata":"Q4020634"},"addTags":{"amenity":"fast_food","brand":"Wok to Walk","brand:wikidata":"Q4020634","cuisine":"asian","name":"Wok to Walk","takeaway":"yes"}},"amenity/fuel/amic-4797a1":{"name":"Amic","locationSet":{"include":["at","lt","lv","pl","ua"]},"geometry":["point","area"],"matchScore":2,"terms":["amic","amic energy"],"fields":["name","brand","{amenity/fuel}"],"tags":{"amenity":"fuel","brand:wikidata":"Q96047373"},"addTags":{"amenity":"fuel","brand":"Amic","brand:wikidata":"Q96047373","name":"Amic"}},"amenity/fuel/viada-86cad0":{"name":"Viada","locationSet":{"include":["lt","lv"]},"geometry":["point","area"],"matchScore":2,"terms":["viada"],"fields":["name","brand","{amenity/fuel}"],"tags":{"amenity":"fuel","brand:wikidata":"Q12663942"},"addTags":{"amenity":"fuel","brand":"Viada","brand:wikidata":"Q12663942","name":"Viada"}},"amenity/parcel_locker/dpd-e45cee":{"name":"DPD","locationSet":{"include":["lv"]},"geometry":["point","vertex","area"],"matchScore":2,"terms":["dpd","dpd latvia"],"fields":["name","brand","{amenity/parcel_locker}"],"reference":{"key":"amenity","value":"parcel_locker"},"tags":{"amenity":"parcel_locker","brand:wikidata":"Q541030"},"addTags":{"amenity":"parcel_locker","brand":"DPD","brand:wikidata":"Q541030","operator":"DPD Latvia","operator:wikidata":"Q125973085","parcel_mail_in":"yes","parcel_pickup":"yes"}},"amenity/parcel_locker/latvijaspasts-e45cee":{"name":"Latvijas Pasts","locationSet":{"include":["lv"]},"geometry":["point","vertex","area"],"matchScore":2,"terms":["latvijas pasts"],"fields":["name","brand","{amenity/parcel_locker}"],"reference":{"key":"amenity","value":"parcel_locker"},"tags":{"amenity":"parcel_locker","brand:wikidata":"Q1807088"},"addTags":{"amenity":"parcel_locker","brand":"Latvijas Pasts","brand:wikidata":"Q1807088","name":"Latvijas Pasts"}},"amenity/parcel_locker/omniva-b4a3f3":{"name":"Omniva","locationSet":{"include":["ee","lt","lv"]},"geometry":["point","vertex","area"],"matchScore":2,"terms":["eesti post","omniva"],"fields":["name","brand","{amenity/parcel_locker}"],"reference":{"key":"amenity","value":"parcel_locker"},"tags":{"amenity":"parcel_locker","brand:wikidata":"Q282457"},"addTags":{"amenity":"parcel_locker","brand":"Omniva","brand:wikidata":"Q282457","name":"Omniva","parcel_mail_in":"yes","parcel_pickup":"yes"}},"amenity/parcel_locker/zbox-5a86e9":{"name":"Packeta","locationSet":{"include":["by","bg","cz","hu","pl","md","ro","ru","sk","ua","ax","gg","je","cq","dk","ee","fo","fi","is","ie","im","lv","lt","no","sj","se","gb","al","ad","ba","hr","gi","gr","va","it","mt","me","mk","pt","sm","rs","si","es","xk","at","be","fr","de","li","lu","mc","nl","ch"]},"geometry":["point","vertex","area"],"matchScore":2,"terms":["packeta"],"fields":["name","brand","{amenity/parcel_locker}"],"reference":{"key":"amenity","value":"parcel_locker"},"tags":{"amenity":"parcel_locker","brand:wikidata":"Q67809905"},"addTags":{"amenity":"parcel_locker","brand":"Packeta","brand:wikidata":"Q67809905","name":"Z-Box"}},"amenity/parcel_locker/venipak-b4a3f3":{"name":"Venipak","locationSet":{"include":["ee","lt","lv"]},"geometry":["point","vertex","area"],"matchScore":2,"terms":["venipak"],"fields":["name","brand","{amenity/parcel_locker}"],"reference":{"key":"amenity","value":"parcel_locker"},"tags":{"amenity":"parcel_locker","brand:wikidata":"Q124379827"},"addTags":{"amenity":"parcel_locker","brand":"Venipak","brand:wikidata":"Q124379827","parcel_mail_in":"yes","parcel_pickup":"yes"}},"amenity/pharmacy/benu-1cd44c":{"name":"Benu","locationSet":{"include":["ch","cz","ee","hu","lt","lv","me","nl","rs","sk"]},"geometry":["point","area"],"matchScore":2,"terms":["benu","benu apotheek","benu aptieka","benu vaistinė"],"reference":{"key":"amenity","value":"pharmacy"},"tags":{"amenity":"pharmacy","brand:wikidata":"Q62562792"},"addTags":{"amenity":"pharmacy","brand":"Benu","brand:wikidata":"Q62562792","healthcare":"pharmacy","name":"Benu"}},"amenity/pharmacy/menessaptieka-0eac7e":{"name":"Mēness aptieka","locationSet":{"include":["lv"]},"geometry":["point","area"],"matchScore":2,"terms":["mēness aptieka"],"reference":{"key":"amenity","value":"pharmacy"},"tags":{"amenity":"pharmacy","brand:wikidata":"Q57583051"},"addTags":{"amenity":"pharmacy","brand":"Mēness aptieka","brand:wikidata":"Q57583051","healthcare":"pharmacy","name":"Mēness aptieka"}},"amenity/recycling_centre/depozitapunkts-831330":{"name":"Depozīta punkts","locationSet":{"include":["lv"]},"geometry":["point","area"],"matchScore":2,"terms":["depozīta punkts"],"reference":{"key":"recycling_type","value":"*"},"tags":{"amenity":"recycling","brand:wikidata":"Q110979381","recycling_type":"centre"},"addTags":{"amenity":"recycling","brand":"Depozīta punkts","brand:wikidata":"Q110979381","name":"Depozīta punkts","recycling_type":"centre","recycling:cans":"yes","recycling:glass_bottles":"yes","recycling:plastic_bottles":"yes"}},"amenity/social_centre/ahepahall-30ca27":{"name":"AHEPA Hall","locationSet":{"include":["by","bg","cz","hu","pl","md","ro","ru","sk","ua","ax","gg","je","cq","dk","ee","fo","fi","is","ie","im","lv","lt","no","sj","se","gb","al","ad","ba","hr","gi","gr","va","it","mt","me","mk","pt","sm","rs","si","es","xk","at","be","fr","de","li","lu","mc","nl","ch","au","ca","cy","us"],"exclude":["ru"]},"geometry":["point","area"],"matchScore":2,"terms":["ahepa","american hellenic educational progressive association","the order of ahepa"],"fields":["name","brand","{amenity/social_centre}"],"tags":{"amenity":"social_centre","brand:wikidata":"Q4743973"},"addTags":{"amenity":"social_centre","brand":"AHEPA","brand:wikidata":"Q4743973","name":"AHEPA Hall"}},"amenity/vending_machine/bicycle_tube/continental-123edb":{"name":"Continental","locationSet":{"include":["by","bg","cz","hu","pl","md","ro","ru","sk","ua","ax","gg","je","cq","dk","ee","fo","fi","is","ie","im","lv","lt","no","sj","se","gb","al","ad","ba","hr","gi","gr","va","it","mt","me","mk","pt","sm","rs","si","es","xk","at","be","fr","de","li","lu","mc","nl","ch"]},"geometry":["point","vertex"],"matchScore":2,"terms":["continental"],"reference":{"key":"vending","value":"bicycle_tube"},"tags":{"amenity":"vending_machine","brand:wikidata":"Q64739247","vending":"bicycle_tube"},"addTags":{"amenity":"vending_machine","brand":"Continental","brand:wikidata":"Q64739247","vending":"bicycle_tube"}},"amenity/vending_machine/bottle_return/depozitapunkts-cc4c61":{"name":"Depozīta punkts","locationSet":{"include":["lv"]},"geometry":["point","vertex"],"matchScore":2,"terms":["depozīta punkts"],"reference":{"key":"vending","value":"bottle_return"},"tags":{"amenity":"vending_machine","brand:wikidata":"Q110979381","vending":"bottle_return"},"addTags":{"amenity":"vending_machine","brand":"Depozīta punkts","brand:wikidata":"Q110979381","name":"Depozīta punkts","recycling:cans":"yes","recycling:glass_bottles":"yes","recycling:plastic_bottles":"yes","vending":"bottle_return"}},"amenity/vending_machine/bicycle_tube/schwalbe-123edb":{"name":"Schwalbe","locationSet":{"include":["by","bg","cz","hu","pl","md","ro","ru","sk","ua","ax","gg","je","cq","dk","ee","fo","fi","is","ie","im","lv","lt","no","sj","se","gb","al","ad","ba","hr","gi","gr","va","it","mt","me","mk","pt","sm","rs","si","es","xk","at","be","fr","de","li","lu","mc","nl","ch"]},"geometry":["point","vertex"],"matchScore":2,"terms":["schwalbe"],"reference":{"key":"vending","value":"bicycle_tube"},"tags":{"amenity":"vending_machine","brand:wikidata":"Q1312213","vending":"bicycle_tube"},"addTags":{"amenity":"vending_machine","brand":"Schwalbe","brand:wikidata":"Q1312213","vending":"bicycle_tube"}},"leisure/fitness_centre/fitinn-48d938":{"name":"FITINN","locationSet":{"include":["by","bg","cz","hu","pl","md","ro","ru","sk","ua","ax","gg","je","cq","dk","ee","fo","fi","is","ie","im","lv","lt","no","sj","se","gb","al","ad","ba","hr","gi","gr","va","it","mt","me","mk","pt","sm","rs","si","es","xk","at","be","fr","de","li","lu","mc","nl","ch"]},"geometry":["point","area"],"matchScore":2,"terms":["fitinn"],"tags":{"brand:wikidata":"Q1245564","leisure":"fitness_centre"},"addTags":{"brand":"FITINN","brand:wikidata":"Q1245564","leisure":"fitness_centre","name":"FITINN"}},"leisure/fitness_centre/holmesplace-901199":{"name":"Holmes Place","locationSet":{"include":["by","bg","cz","hu","pl","md","ro","ru","sk","ua","ax","gg","je","cq","dk","ee","fo","fi","is","ie","im","lv","lt","no","sj","se","gb","al","ad","ba","hr","gi","gr","va","it","mt","me","mk","pt","sm","rs","si","es","xk","at","be","fr","de","li","lu","mc","nl","ch","il"]},"geometry":["point","area"],"matchScore":2,"terms":["holmes place"],"tags":{"brand:wikidata":"Q15815819","leisure":"fitness_centre"},"addTags":{"brand":"Holmes Place","brand:wikidata":"Q15815819","leisure":"fitness_centre","name":"Holmes Place"}},"man_made/charge_point/ionity-97d83d":{"name":"Ionity","locationSet":{"include":["by","bg","cz","hu","pl","md","ro","ru","sk","ua","ax","gg","je","cq","dk","ee","fo","fi","is","ie","im","lv","lt","no","sj","se","gb","al","ad","ba","hr","gi","gr","va","it","mt","me","mk","pt","sm","rs","si","es","xk","at","be","fr","de","li","lu","mc","nl","ch"]},"geometry":["point"],"matchScore":2,"terms":["ionity","ionity gmbh"],"fields":["name","brand","{man_made/charge_point}"],"tags":{"brand:wikidata":"Q42717773","man_made":"charge_point"},"addTags":{"brand":"Ionity","brand:wikidata":"Q42717773","man_made":"charge_point"}},"office/consulting/ecovis-10b2fd":{"name":"Ecovis International","locationSet":{"include":["by","bg","cz","hu","pl","md","ro","ru","sk","ua","ax","gg","je","cq","dk","ee","fo","fi","is","ie","im","lv","lt","no","sj","se","gb","al","ad","ba","hr","gi","gr","va","it","mt","me","mk","pt","sm","rs","si","es","xk","at","be","fr","de","li","lu","mc","nl","ch","tr"]},"geometry":["point","area"],"matchScore":2,"terms":["ecovis international"],"tags":{"brand:wikidata":"Q65509562","office":"consulting"},"addTags":{"brand":"Ecovis International","brand:wikidata":"Q65509562","name":"Ecovis","office":"consulting"}},"office/estate_agent/vonpollrealestate-c99072":{"name":"von Poll Real Estate","locationSet":{"include":["by","bg","cz","hu","pl","md","ro","ru","sk","ua","ax","gg","je","cq","dk","ee","fo","fi","is","ie","im","lv","lt","no","sj","se","gb","al","ad","ba","hr","gi","gr","va","it","mt","me","mk","pt","sm","rs","si","es","xk","at","be","fr","de","li","lu","mc","nl","ch"],"exclude":["at","de"]},"geometry":["point","area"],"matchScore":2,"terms":["von poll immobilien","von poll real estate","vonpoll","vonpoll commercial"],"tags":{"brand:wikidata":"Q96026696","office":"estate_agent"},"addTags":{"brand":"von Poll Real Estate","brand:wikidata":"Q96026696","name":"von Poll Real Estate","office":"estate_agent"}},"office/insurance/allianz-332499":{"name":"Allianz","locationSet":{"include":["ae","ar","at","au","be","bg","bh","bm","bn","br","ca","cg","ch","ci","cm","cn","co","cy","cz","de","dk","ee","eg","es","fi","fr","gb","gf","gg","gh","gp","gr","hk","hr","hu","id","ie","in","is","it","ja","ke","kr","kw","la","li","lk","lt","lu","lv","ma","mg","mx","my","ng","nl","no","nz","om","ph","pk","pl","pt","qa","ro","ru","sa","se","sg","si","sk","sn","th","tr","tw","ua","us","za"]},"geometry":["point","area"],"matchScore":2,"terms":["allianz","allianz versicherung"],"fields":["name","brand","{office/insurance}"],"tags":{"brand:wikidata":"Q487292","office":"insurance"},"addTags":{"brand":"Allianz","brand:wikidata":"Q487292","name":"Allianz","office":"insurance"}},"office/insurance/ergo-38191f":{"name":"Ergo","locationSet":{"include":["at","be","ch","cn","cz","de","dk","ee","es","fr","gb","gr","hu","in","it","kr","lt","lu","lv","nl","pl","se","sg","th"]},"geometry":["point","area"],"matchScore":2,"terms":["ergo","ergo direkt","ergo direktversicherung","ergo versicherung"],"fields":["name","brand","{office/insurance}"],"tags":{"brand:wikidata":"Q541909","office":"insurance"},"addTags":{"brand":"Ergo","brand:wikidata":"Q541909","name":"Ergo","office":"insurance"}},"office/insurance/nn-336e34":{"name":"NN","locationSet":{"include":["by","bg","cz","hu","pl","md","ro","ru","sk","ua","ax","gg","je","cq","dk","ee","fo","fi","is","ie","im","lv","lt","no","sj","se","gb","al","ad","ba","hr","gi","gr","va","it","mt","me","mk","pt","sm","rs","si","es","xk","at","be","fr","de","li","lu","mc","nl","ch"]},"geometry":["point","area"],"matchScore":2,"terms":["nationale-nederlanden","nn"],"fields":["name","brand","{office/insurance}"],"tags":{"brand:wikidata":"Q1834291","office":"insurance"},"addTags":{"brand":"NN","brand:wikidata":"Q1834291","name":"NN","office":"insurance","official_name":"Nationale-Nederlanden"}},"shop/butcher/forevers-00a516":{"name":"Forevers","locationSet":{"include":["lv"]},"geometry":["point","area"],"matchScore":2,"terms":["forevers"],"tags":{"brand:wikidata":"Q65297361","shop":"butcher"},"addTags":{"brand":"Forevers","brand:wikidata":"Q65297361","name":"Forevers","shop":"butcher"}},"shop/car/smart-b77732":{"name":"Smart","locationSet":{"include":["by","bg","cz","hu","pl","md","ro","ru","sk","ua","ax","gg","je","cq","dk","ee","fo","fi","is","ie","im","lv","lt","no","sj","se","gb","al","ad","ba","hr","gi","gr","va","it","mt","me","mk","pt","sm","rs","si","es","xk","at","be","fr","de","li","lu","mc","nl","ch","cn"]},"geometry":["point","area"],"matchScore":2,"terms":["smart"],"fields":["name","brand","{shop/car}"],"tags":{"brand:wikidata":"Q156490","shop":"car"},"addTags":{"brand":"Smart","brand:wikidata":"Q156490","name":"Smart","shop":"car"}},"shop/car_parts/intercars-a4b6c1":{"name":"Inter Cars","locationSet":{"include":["ba","bg","cz","ee","gr","hr","hu","it","la","lv","md","pl","ro","rs","si","sk","ua"]},"geometry":["point","area"],"matchScore":2,"terms":["inter cars"],"tags":{"brand:wikidata":"Q115922509","shop":"car_parts"},"addTags":{"brand":"Inter Cars","brand:wikidata":"Q115922509","name":"Inter Cars","shop":"car_parts"}},"shop/car_repair/smart-102ff2":{"name":"Smart","locationSet":{"include":["by","bg","cz","hu","pl","md","ro","ru","sk","ua","ax","gg","je","cq","dk","ee","fo","fi","is","ie","im","lv","lt","no","sj","se","gb","al","ad","ba","hr","gi","gr","va","it","mt","me","mk","pt","sm","rs","si","es","xk","at","be","fr","de","li","lu","mc","nl","ch","cn"]},"geometry":["point","area"],"matchScore":2,"terms":["smart"],"fields":["name","brand","{shop/car_repair}"],"tags":{"brand:wikidata":"Q156490","shop":"car_repair"},"addTags":{"brand":"Smart","brand:wikidata":"Q156490","name":"Smart","shop":"car_repair"}},"shop/chemist/drogas-1a360a":{"name":"Drogas","locationSet":{"include":["ee","lt","lv"]},"geometry":["point","area"],"matchScore":2,"terms":["drogas"],"tags":{"brand:wikidata":"Q15806753","shop":"chemist"},"addTags":{"brand":"Drogas","brand:wikidata":"Q15806753","name":"Drogas","shop":"chemist"}},"shop/clothes/coccodrillo-571709":{"name":"Coccodrillo","locationSet":{"include":["at","bg","by","cz","de","ee","fi","hu","lt","lv","me","pl","ro","rs","ru","sk","ua"]},"geometry":["point","area"],"matchScore":2,"terms":["coccodrillo"],"tags":{"brand:wikidata":"Q9195224","shop":"clothes"},"addTags":{"brand":"Coccodrillo","brand:wikidata":"Q9195224","clothes":"children","name":"Coccodrillo","shop":"clothes"}},"shop/clothes/colloseum-3648e4":{"name":"Colloseum","locationSet":{"include":["at","cz","de","gr","lv","pl","ru","sk"]},"geometry":["point","area"],"matchScore":2,"terms":["colloseum"],"tags":{"brand:wikidata":"Q15794685","shop":"clothes"},"addTags":{"brand":"Colloseum","brand:wikidata":"Q15794685","name":"Colloseum","shop":"clothes"}},"shop/clothes/cropp-f09482":{"name":"Cropp","locationSet":{"include":["ba","bg","cz","ee","fi","hr","hu","kz","lt","lv","pl","ro","rs","ru","si","sk","ua"]},"geometry":["point","area"],"matchScore":2,"terms":["cropp"],"tags":{"brand:wikidata":"Q9196793","shop":"clothes"},"addTags":{"brand":"Cropp","brand:wikidata":"Q9196793","name":"Cropp","shop":"clothes"}},"shop/clothes/house-f09482":{"name":"House","locationSet":{"include":["ba","bg","cz","ee","fi","hr","hu","kz","lt","lv","pl","ro","rs","ru","si","sk","ua"]},"geometry":["point","area"],"matchScore":2,"terms":["house"],"tags":{"brand:wikidata":"Q9294202","shop":"clothes"},"addTags":{"brand":"House","brand:wikidata":"Q9294202","name":"House","shop":"clothes"}},"shop/clothes/maje-ab7b56":{"name":"Maje","locationSet":{"include":["by","bg","cz","hu","pl","md","ro","ru","sk","ua","ax","gg","je","cq","dk","ee","fo","fi","is","ie","im","lv","lt","no","sj","se","gb","al","ad","ba","hr","gi","gr","va","it","mt","me","mk","pt","sm","rs","si","es","xk","at","be","fr","de","li","lu","mc","nl","ch","cn","sg","tw","us"]},"geometry":["point","area"],"matchScore":2,"terms":["maje"],"tags":{"brand:wikidata":"Q3280458","shop":"clothes"},"addTags":{"brand":"Maje","brand:wikidata":"Q3280458","clothes":"women","name":"Maje","shop":"clothes"}},"shop/clothes/mohito-710e25":{"name":"Mohito","locationSet":{"include":["ba","bg","cz","ee","fi","hu","kz","lt","lv","pl","ro","rs","ru","si","sk","ua"]},"geometry":["point","area"],"matchScore":2,"terms":["mohito"],"tags":{"brand:wikidata":"Q107410616","shop":"clothes"},"addTags":{"brand":"Mohito","brand:wikidata":"Q107410616","clothes":"women","name":"Mohito","shop":"clothes"}},"shop/clothes/pepco-9b55e7":{"name":"Pepco","locationSet":{"include":["at","bg","cz","de","ee","el","es","hr","hu","it","lt","lv","pl","pt","ro","rs","si","sk"]},"geometry":["point","area"],"matchScore":2,"terms":["pepco"],"tags":{"brand:wikidata":"Q11815580","shop":"clothes"},"addTags":{"brand":"Pepco","brand:wikidata":"Q11815580","name":"Pepco","shop":"clothes"}},"shop/clothes/soliver-fb408e":{"name":"s.Oliver","locationSet":{"include":["by","bg","cz","hu","pl","md","ro","ru","sk","ua","ax","gg","je","cq","dk","ee","fo","fi","is","ie","im","lv","lt","no","sj","se","gb","al","ad","ba","hr","gi","gr","va","it","mt","me","mk","pt","sm","rs","si","es","xk","at","be","fr","de","li","lu","mc","nl","ch","cn","in"]},"geometry":["point","area"],"matchScore":2,"terms":["s.oliver"],"tags":{"brand:wikidata":"Q265056","shop":"clothes"},"addTags":{"brand":"s.Oliver","brand:wikidata":"Q265056","name":"s.Oliver","shop":"clothes"}},"shop/clothes/vangraaf-9ef6ea":{"name":"Van Graaf","locationSet":{"include":["ch","cz","hu","lv","pl"]},"geometry":["point","area"],"matchScore":2,"terms":["van graaf"],"tags":{"brand:wikidata":"Q113505161","shop":"clothes"},"addTags":{"brand":"Van Graaf","brand:wikidata":"Q113505161","name":"Van Graaf","shop":"clothes"}},"shop/clothes/weekday-b5590c":{"name":"Weekday","locationSet":{"include":["by","bg","cz","hu","pl","md","ro","ru","sk","ua","ax","gg","je","cq","dk","ee","fo","fi","is","ie","im","lv","lt","no","sj","se","gb","al","ad","ba","hr","gi","gr","va","it","mt","me","mk","pt","sm","rs","si","es","xk","at","be","fr","de","li","lu","mc","nl","ch"]},"geometry":["point","area"],"matchScore":2,"terms":["weekday"],"tags":{"brand:wikidata":"Q10719514","shop":"clothes"},"addTags":{"brand":"Weekday","brand:wikidata":"Q10719514","name":"Weekday","shop":"clothes"}},"shop/convenience/elvi-401681":{"name":"Elvi","locationSet":{"include":["lv"]},"geometry":["point","area"],"matchScore":2,"terms":["elvi"],"tags":{"brand:wikidata":"Q20560513","shop":"convenience"},"addTags":{"brand":"Elvi","brand:wikidata":"Q20560513","name":"Elvi","shop":"convenience"}},"shop/convenience/minitop-401681":{"name":"Mini top!","locationSet":{"include":["lv"]},"geometry":["point","area"],"matchScore":2,"terms":["top!"],"tags":{"brand:wikidata":"Q20803907","shop":"convenience"},"addTags":{"brand":"top!","brand:wikidata":"Q20803907","name":"Mini top!","shop":"convenience"}},"shop/convenience/rimiexpress-495118":{"name":"Rimi Express","locationSet":{"include":["ee","lt","lv"]},"geometry":["point","area"],"matchScore":2,"terms":["rimi"],"tags":{"brand:wikidata":"Q3741108","shop":"convenience"},"addTags":{"brand":"Rimi","brand:wikidata":"Q3741108","name":"Rimi Express","shop":"convenience"}},"shop/convenience/top-401681":{"name":"top!","locationSet":{"include":["lv"]},"geometry":["point","area"],"matchScore":2,"terms":["top!"],"tags":{"brand:wikidata":"Q20803907","shop":"convenience"},"addTags":{"brand":"top!","brand:wikidata":"Q20803907","name":"top!","shop":"convenience"}},"shop/convenience/viva-856fe1":{"name":"Viva","locationSet":{"include":["by","bg","cz","hu","pl","md","ro","ru","sk","ua","ax","gg","je","cq","dk","ee","fo","fi","is","ie","im","lv","lt","no","sj","se","gb","al","ad","ba","hr","gi","gr","va","it","mt","me","mk","pt","sm","rs","si","es","xk","at","be","fr","de","li","lu","mc","nl","ch"]},"geometry":["point","area"],"matchScore":2,"terms":["viva"],"tags":{"brand:wikidata":"Q168238","shop":"convenience"},"addTags":{"brand":"Viva","brand:wikidata":"Q168238","name":"Viva","shop":"convenience"}},"shop/deli/vomfass-a3c745":{"name":"vomFASS","locationSet":{"include":["at","be","br","ca","ch","cz","de","dk","es","fr","gb","hk","hr","hu","il","it","jp","lv","mx","my","ph","sg","th","us"]},"geometry":["point","area"],"matchScore":2,"terms":["vomfass"],"tags":{"brand:wikidata":"Q2533008","shop":"deli"},"addTags":{"brand":"vomFASS","brand:wikidata":"Q2533008","name":"vomFASS","shop":"deli"}},"shop/furniture/bolia-a18722":{"name":"Bolia","locationSet":{"include":["by","bg","cz","hu","pl","md","ro","ru","sk","ua","ax","gg","je","cq","dk","ee","fo","fi","is","ie","im","lv","lt","no","sj","se","gb","al","ad","ba","hr","gi","gr","va","it","mt","me","mk","pt","sm","rs","si","es","xk","at","be","fr","de","li","lu","mc","nl","ch"]},"geometry":["point","area"],"matchScore":2,"terms":["bolia"],"tags":{"brand:wikidata":"Q11961809","shop":"furniture"},"addTags":{"brand":"Bolia","brand:wikidata":"Q11961809","name":"Bolia","shop":"furniture"}},"shop/furniture/momax-a18722":{"name":"Mömax","locationSet":{"include":["by","bg","cz","hu","pl","md","ro","ru","sk","ua","ax","gg","je","cq","dk","ee","fo","fi","is","ie","im","lv","lt","no","sj","se","gb","al","ad","ba","hr","gi","gr","va","it","mt","me","mk","pt","sm","rs","si","es","xk","at","be","fr","de","li","lu","mc","nl","ch"]},"geometry":["point","area"],"matchScore":2,"terms":["mömax"],"tags":{"brand:wikidata":"Q56388481","shop":"furniture"},"addTags":{"brand":"Mömax","brand:wikidata":"Q56388481","name":"Mömax","shop":"furniture"}},"shop/furniture/xxxlutz-5acc6e":{"name":"XXXLutz","locationSet":{"include":["by","bg","cz","hu","pl","md","ro","ru","sk","ua","ax","gg","je","cq","dk","ee","fo","fi","is","ie","im","lv","lt","no","sj","se","gb","al","ad","ba","hr","gi","gr","va","it","mt","me","mk","pt","sm","rs","si","es","xk","at","be","fr","de","li","lu","mc","nl","ch"],"exclude":["bg"]},"geometry":["point","area"],"matchScore":2,"terms":["xxxlutz"],"tags":{"brand:wikidata":"Q70339467","shop":"furniture"},"addTags":{"brand":"XXXLutz","brand:wikidata":"Q70339467","name":"XXXLutz","shop":"furniture"}},"shop/kiosk/narvesen-a42ea8":{"name":"Narvesen","locationSet":{"include":["lt","lv","no"]},"geometry":["point","area"],"matchScore":2,"terms":["narvesen"],"tags":{"brand:wikidata":"Q6514414","shop":"kiosk"},"addTags":{"brand":"Narvesen","brand:wikidata":"Q6514414","name":"Narvesen","shop":"kiosk"}},"shop/optician/fielmann-f003f4":{"name":"fielmann","locationSet":{"include":["at","by","ch","de","it","lt","lu","lv","nl","pl","ru","ua"]},"geometry":["point","area"],"matchScore":2,"terms":["fielmann"],"fields":["name","brand","{shop/optician}"],"tags":{"brand:wikidata":"Q457822","shop":"optician"},"addTags":{"brand":"Fielmann","brand:wikidata":"Q457822","name":"Fielmann","shop":"optician"}},"shop/perfumery/douglas-4ed3c9":{"name":"Douglas","locationSet":{"include":["ad","at","be","bg","ch","cz","de","ee","es","hr","hu","it","lt","lv","nl","pl","pt","ro","si","sk"]},"geometry":["point","area"],"matchScore":2,"terms":["douglas"],"tags":{"brand:wikidata":"Q2052213","shop":"perfumery"},"addTags":{"brand":"Douglas","brand:wikidata":"Q2052213","name":"Douglas","shop":"perfumery"}},"shop/shoes/sizeer-5db2a9":{"name":"Sizeer","locationSet":{"include":["at","bg","cz","de","ee","hr","hu","lt","lv","pl","ro","si","sk"]},"geometry":["point","area"],"matchScore":2,"terms":["sizeer"],"tags":{"brand:wikidata":"Q93982889","shop":"shoes"},"addTags":{"brand":"Sizeer","brand:wikidata":"Q93982889","name":"Sizeer","shop":"shoes"}},"shop/sports/4f-723a68":{"name":"4F","locationSet":{"include":["cz","de","lt","lv","ro","ru","sk","ua"]},"geometry":["point","area"],"matchScore":2,"terms":["4f"],"tags":{"brand:wikidata":"Q16525801","shop":"sports"},"addTags":{"brand":"4F","brand:wikidata":"Q16525801","name":"4F","shop":"sports"}},"shop/supermarket/elvi-858077":{"name":"Elvi","locationSet":{"include":["lv"]},"geometry":["point","area"],"matchScore":2,"terms":["elvi"],"tags":{"brand:wikidata":"Q20560513","shop":"supermarket"},"addTags":{"brand":"Elvi","brand:wikidata":"Q20560513","name":"Elvi","shop":"supermarket"}},"shop/supermarket/eurospar-4b5e11":{"name":"Eurospar","locationSet":{"include":["by","bg","cz","hu","pl","md","ro","ru","sk","ua","ax","gg","je","cq","dk","ee","fo","fi","is","ie","im","lv","lt","no","sj","se","gb","al","ad","ba","hr","gi","gr","va","it","mt","me","mk","pt","sm","rs","si","es","xk","at","be","fr","de","li","lu","mc","nl","ch"]},"geometry":["point","area"],"matchScore":2,"terms":["eurospar"],"tags":{"brand:wikidata":"Q12309283","shop":"supermarket"},"addTags":{"brand":"Eurospar","brand:wikidata":"Q12309283","name":"Eurospar","shop":"supermarket"}},"shop/supermarket/maximax-45f6bc":{"name":"Maxima X","locationSet":{"include":["ee","lt","lv"]},"geometry":["point","area"],"matchScore":2,"terms":["maxima"],"tags":{"brand:wikidata":"Q1881222","shop":"supermarket"},"addTags":{"brand":"Maxima","brand:wikidata":"Q1881222","name":"Maxima X","shop":"supermarket"}},"shop/supermarket/maximaxx-48a198":{"name":"Maxima XX","locationSet":{"include":["ee","lt","lv","pl"]},"geometry":["point","area"],"matchScore":2,"terms":["maxima"],"tags":{"brand:wikidata":"Q1881222","shop":"supermarket"},"addTags":{"brand":"Maxima","brand:wikidata":"Q1881222","name":"Maxima XX","shop":"supermarket"}},"shop/supermarket/maximaxxx-48a198":{"name":"Maxima XXX","locationSet":{"include":["ee","lt","lv","pl"]},"geometry":["point","area"],"matchScore":2,"terms":["maxima"],"tags":{"brand:wikidata":"Q1881222","shop":"supermarket"},"addTags":{"brand":"Maxima","brand:wikidata":"Q1881222","name":"Maxima XXX","shop":"supermarket"}},"shop/supermarket/mego-858077":{"name":"Mego","locationSet":{"include":["lv"]},"geometry":["point","area"],"matchScore":2,"terms":["mego"],"tags":{"brand:wikidata":"Q16363314","shop":"supermarket"},"addTags":{"brand":"Mego","brand:wikidata":"Q16363314","name":"Mego","shop":"supermarket"}},"shop/supermarket/rimihyper-45f6bc":{"name":"Rimi Hyper","locationSet":{"include":["ee","lt","lv"]},"geometry":["point","area"],"matchScore":2,"terms":["rimi"],"tags":{"brand:wikidata":"Q3741108","shop":"supermarket"},"addTags":{"brand":"Rimi","brand:wikidata":"Q3741108","name":"Rimi Hyper","shop":"supermarket"}},"shop/supermarket/rimimini-043b09":{"name":"Rimi Mini","locationSet":{"include":["ee","lv"]},"geometry":["point","area"],"matchScore":2,"terms":["rimi"],"tags":{"brand:wikidata":"Q3741108","shop":"supermarket"},"addTags":{"brand":"Rimi","brand:wikidata":"Q3741108","name":"Rimi Mini","shop":"supermarket"}},"shop/supermarket/rimisuper-45f6bc":{"name":"Rimi Super","locationSet":{"include":["ee","lt","lv"]},"geometry":["point","area"],"matchScore":2,"terms":["rimi"],"tags":{"brand:wikidata":"Q3741108","shop":"supermarket"},"addTags":{"brand":"Rimi","brand:wikidata":"Q3741108","name":"Rimi Super","shop":"supermarket"}},"shop/supermarket/sky-46841a":{"name":"Sky","locationSet":{"include":["de","lv","nl"]},"geometry":["point","area"],"matchScore":2,"terms":["sky"],"tags":{"brand:wikidata":"Q1129779","shop":"supermarket"},"addTags":{"brand":"Sky","brand:wikidata":"Q1129779","name":"Sky","shop":"supermarket"}},"shop/tattoo/veantattoo-eea007":{"name":"VeAn Tattoo","locationSet":{"include":["by","bg","cz","hu","pl","md","ro","ru","sk","ua","ax","gg","je","cq","dk","ee","fo","fi","is","ie","im","lv","lt","no","sj","se","gb","al","ad","ba","hr","gi","gr","va","it","mt","me","mk","pt","sm","rs","si","es","xk","at","be","fr","de","li","lu","mc","nl","ch"]},"geometry":["point","area"],"matchScore":2,"terms":["vean tattoo"],"tags":{"brand:wikidata":"Q116871240","shop":"tattoo"},"addTags":{"brand":"VeAn Tattoo","brand:wikidata":"Q116871240","name":"VeAn Tattoo","shop":"tattoo"}},"shop/tool_hire/loxam-33fef8":{"name":"Loxam","locationSet":{"include":["ae","be","bh","br","ch","co","cz","de","dk","ee","es","fi","fr","gb","ie","it","kw","lt","lu","lv","ma","nl","no","om","pl","pt","qa","sa","se","sk"]},"geometry":["point","area"],"matchScore":2,"terms":["loxam"],"tags":{"brand:wikidata":"Q3264407","shop":"tool_hire"},"addTags":{"brand":"Loxam","brand:wikidata":"Q3264407","name":"Loxam","shop":"tool_hire"}},"shop/variety_store/flyingtigercopenhagen-55ef00":{"name":"Flying Tiger Copenhagen","locationSet":{"include":["at","be","ch","cy","cz","de","dk","ee","es","fi","fr","gb","gr","hu","ie","il","is","it","jp","kr","lt","lv","mt","nl","no","pl","pt","se","sk"]},"geometry":["point","area"],"matchScore":2,"terms":["flying tiger","flying tiger copenhagen","tgr","tiger"],"tags":{"brand:wikidata":"Q2786319","shop":"variety_store"},"addTags":{"brand":"Flying Tiger Copenhagen","brand:wikidata":"Q2786319","name":"Flying Tiger Copenhagen","shop":"variety_store","short_name":"Flying Tiger"}},"shop/variety_store/topshop-f153f8":{"name":"Top Shop","locationSet":{"include":["al","ba","bg","cz","ee","hr","hu","lt","lv","md","me","mk","pl","ro","rs","si","sk","ua","xk"]},"geometry":["point","area"],"matchScore":2,"terms":["top shop"],"tags":{"brand:wikidata":"Q116919675","shop":"variety_store"},"addTags":{"brand":"Top Shop","brand:wikidata":"Q116919675","name":"Top Shop","shop":"variety_store"}},"tourism/hotel/bandbhotel-fc8c2c":{"name":"B&B Hotel","locationSet":{"include":["by","bg","cz","hu","pl","md","ro","ru","sk","ua","ax","gg","je","cq","dk","ee","fo","fi","is","ie","im","lv","lt","no","sj","se","gb","al","ad","ba","hr","gi","gr","va","it","mt","me","mk","pt","sm","rs","si","es","xk","at","be","fr","de","li","lu","mc","nl","ch","br"]},"geometry":["point","area"],"matchScore":2,"terms":["b&b hotels"],"fields":["name","brand","{tourism/hotel}"],"tags":{"brand:wikidata":"Q794939","tourism":"hotel"},"addTags":{"brand":"B&B Hotels","brand:wikidata":"Q794939","name":"B&B Hotel","tourism":"hotel"}},"tourism/hotel/greet-046fe6":{"name":"greet","locationSet":{"include":["by","bg","cz","hu","pl","md","ro","ru","sk","ua","ax","gg","je","cq","dk","ee","fo","fi","is","ie","im","lv","lt","no","sj","se","gb","al","ad","ba","hr","gi","gr","va","it","mt","me","mk","pt","sm","rs","si","es","xk","at","be","fr","de","li","lu","mc","nl","ch"]},"geometry":["point","area"],"matchScore":2,"terms":["greet"],"fields":["name","brand","{tourism/hotel}"],"tags":{"brand:wikidata":"Q115489066","tourism":"hotel"},"addTags":{"brand":"greet","brand:wikidata":"Q115489066","name":"Greet","tourism":"hotel"}},"tourism/hotel/motelone-1fc1b4":{"name":"Motel One","locationSet":{"include":["by","bg","cz","hu","pl","md","ro","ru","sk","ua","ax","gg","je","cq","dk","ee","fo","fi","is","ie","im","lv","lt","no","sj","se","gb","al","ad","ba","hr","gi","gr","va","it","mt","me","mk","pt","sm","rs","si","es","xk","at","be","fr","de","li","lu","mc","nl","ch","us-ny"]},"geometry":["point","area"],"matchScore":2,"terms":["motel one"],"fields":["name","brand","{tourism/hotel}"],"tags":{"brand:wikidata":"Q391080","tourism":"hotel"},"addTags":{"brand":"Motel One","brand:wikidata":"Q391080","name":"Motel One","tourism":"hotel"}},"amenity/charging_station/csdd-94e3c4":{"name":"CSDD","locationSet":{"include":["lv"]},"geometry":["point","vertex","area"],"matchScore":2,"terms":["csdd"],"fields":["name","operator","{amenity/charging_station}"],"tags":{"amenity":"charging_station","operator:wikidata":"Q27055983"},"addTags":{"amenity":"charging_station","operator":"CSDD","operator:wikidata":"Q27055983"}},"amenity/charging_station/eon-7f623e":{"name":"E.ON","locationSet":{"include":["by","bg","cz","hu","pl","md","ro","ru","sk","ua","ax","gg","je","cq","dk","ee","fo","fi","is","ie","im","lv","lt","no","sj","se","gb","al","ad","ba","hr","gi","gr","va","it","mt","me","mk","pt","sm","rs","si","es","xk","at","be","fr","de","li","lu","mc","nl","ch"]},"geometry":["point","vertex","area"],"matchScore":2,"terms":["e-on drive","e.on"],"fields":["name","operator","{amenity/charging_station}"],"tags":{"amenity":"charging_station","operator:wikidata":"Q270223"},"addTags":{"amenity":"charging_station","operator":"E.ON","operator:wikidata":"Q270223"}},"amenity/charging_station/evbox-7f623e":{"name":"EVBox","locationSet":{"include":["by","bg","cz","hu","pl","md","ro","ru","sk","ua","ax","gg","je","cq","dk","ee","fo","fi","is","ie","im","lv","lt","no","sj","se","gb","al","ad","ba","hr","gi","gr","va","it","mt","me","mk","pt","sm","rs","si","es","xk","at","be","fr","de","li","lu","mc","nl","ch"]},"geometry":["point","vertex","area"],"matchScore":2,"terms":["evbox"],"fields":["name","operator","{amenity/charging_station}"],"tags":{"amenity":"charging_station","operator:wikidata":"Q28406392"},"addTags":{"amenity":"charging_station","operator":"EVBox","operator:wikidata":"Q28406392"}},"amenity/charging_station/qpark-7f623e":{"name":"Q-Park","locationSet":{"include":["by","bg","cz","hu","pl","md","ro","ru","sk","ua","ax","gg","je","cq","dk","ee","fo","fi","is","ie","im","lv","lt","no","sj","se","gb","al","ad","ba","hr","gi","gr","va","it","mt","me","mk","pt","sm","rs","si","es","xk","at","be","fr","de","li","lu","mc","nl","ch"]},"geometry":["point","vertex","area"],"matchScore":2,"terms":["q-park"],"fields":["name","operator","{amenity/charging_station}"],"tags":{"amenity":"charging_station","operator:wikidata":"Q1127798"},"addTags":{"amenity":"charging_station","operator":"Q-Park","operator:wikidata":"Q1127798"}},"amenity/post_box/latvijaspasts-7d10cc":{"name":"Latvijas Pasts","locationSet":{"include":["lv"]},"geometry":["point","vertex"],"matchScore":2,"terms":["latvijas pasts"],"tags":{"amenity":"post_box","operator:wikidata":"Q1807088"},"addTags":{"amenity":"post_box","operator":"Latvijas Pasts","operator:wikidata":"Q1807088"}},"amenity/post_office/latvijaspasts-52791c":{"name":"Latvijas Pasts","locationSet":{"include":["lv"]},"geometry":["point","area"],"matchScore":2,"terms":["latvijas pasts"],"fields":["name","operator","{amenity/post_office}"],"tags":{"amenity":"post_office","operator:wikidata":"Q1807088"},"addTags":{"amenity":"post_office","operator":"Latvijas Pasts","operator:wikidata":"Q1807088"}},"amenity/post_office/novapost-fa5273":{"name":"Nova Post","locationSet":{"include":["cz","de","ee","hu","it","lt","lv","pl","ro","sk"]},"geometry":["point","area"],"matchScore":2,"terms":["nova post"],"fields":["name","operator","{amenity/post_office}"],"tags":{"amenity":"post_office","operator:wikidata":"Q118613846"},"addTags":{"amenity":"post_office","operator":"Nova Post","operator:wikidata":"Q118613846"}},"amenity/recycling/remondis-222d99":{"name":"REMONDIS","locationSet":{"include":["by","bg","cz","hu","pl","md","ro","ru","sk","ua","ax","gg","je","cq","dk","ee","fo","fi","is","ie","im","lv","lt","no","sj","se","gb","al","ad","ba","hr","gi","gr","va","it","mt","me","mk","pt","sm","rs","si","es","xk","at","be","fr","de","li","lu","mc","nl","ch"]},"geometry":["point","area"],"matchScore":2,"terms":["remondis"],"tags":{"amenity":"recycling","operator:wikidata":"Q884975"},"addTags":{"amenity":"recycling","operator":"REMONDIS","operator:wikidata":"Q884975"}},"amenity/vending_machine/public_transport_tickets/rigassatiksme-3c36b4":{"name":"Rīgas Satiksme","locationSet":{"include":["lv"]},"geometry":["point","vertex"],"matchScore":2,"terms":["e-talon","rīgas satiksme"],"reference":{"key":"vending","value":"public_transport_tickets"},"tags":{"amenity":"vending_machine","operator:wikidata":"Q2280274","vending":"public_transport_tickets"},"addTags":{"amenity":"vending_machine","operator":"Rīgas Satiksme","operator:wikidata":"Q2280274","vending":"public_transport_tickets"}},"man_made/charge_point/csdd-935738":{"name":"CSDD","locationSet":{"include":["lv"]},"geometry":["point"],"matchScore":2,"terms":["csdd"],"fields":["name","operator","{man_made/charge_point}"],"tags":{"man_made":"charge_point","operator:wikidata":"Q27055983"},"addTags":{"man_made":"charge_point","operator":"CSDD","operator:wikidata":"Q27055983"}},"man_made/charge_point/eon-22bfb3":{"name":"E.ON","locationSet":{"include":["by","bg","cz","hu","pl","md","ro","ru","sk","ua","ax","gg","je","cq","dk","ee","fo","fi","is","ie","im","lv","lt","no","sj","se","gb","al","ad","ba","hr","gi","gr","va","it","mt","me","mk","pt","sm","rs","si","es","xk","at","be","fr","de","li","lu","mc","nl","ch"]},"geometry":["point"],"matchScore":2,"terms":["e-on drive","e.on"],"fields":["name","operator","{man_made/charge_point}"],"tags":{"man_made":"charge_point","operator:wikidata":"Q270223"},"addTags":{"man_made":"charge_point","operator":"E.ON","operator:wikidata":"Q270223"}},"man_made/charge_point/evbox-22bfb3":{"name":"EVBox","locationSet":{"include":["by","bg","cz","hu","pl","md","ro","ru","sk","ua","ax","gg","je","cq","dk","ee","fo","fi","is","ie","im","lv","lt","no","sj","se","gb","al","ad","ba","hr","gi","gr","va","it","mt","me","mk","pt","sm","rs","si","es","xk","at","be","fr","de","li","lu","mc","nl","ch"]},"geometry":["point"],"matchScore":2,"terms":["evbox"],"fields":["name","operator","{man_made/charge_point}"],"tags":{"man_made":"charge_point","operator:wikidata":"Q28406392"},"addTags":{"man_made":"charge_point","operator":"EVBox","operator:wikidata":"Q28406392"}},"man_made/charge_point/qpark-22bfb3":{"name":"Q-Park","locationSet":{"include":["by","bg","cz","hu","pl","md","ro","ru","sk","ua","ax","gg","je","cq","dk","ee","fo","fi","is","ie","im","lv","lt","no","sj","se","gb","al","ad","ba","hr","gi","gr","va","it","mt","me","mk","pt","sm","rs","si","es","xk","at","be","fr","de","li","lu","mc","nl","ch"]},"geometry":["point"],"matchScore":2,"terms":["q-park"],"fields":["name","operator","{man_made/charge_point}"],"tags":{"man_made":"charge_point","operator:wikidata":"Q1127798"},"addTags":{"man_made":"charge_point","operator":"Q-Park","operator:wikidata":"Q1127798"}},"power/generator/innogy-16c9d0":{"name":"Innogy","locationSet":{"include":["by","bg","cz","hu","pl","md","ro","ru","sk","ua","ax","gg","je","cq","dk","ee","fo","fi","is","ie","im","lv","lt","no","sj","se","gb","al","ad","ba","hr","gi","gr","va","it","mt","me","mk","pt","sm","rs","si","es","xk","at","be","fr","de","li","lu","mc","nl","ch"]},"geometry":["point","vertex","area"],"matchScore":2,"terms":["innogy"],"tags":{"operator:wikidata":"Q2124721","power":"generator"},"addTags":{"operator":"Innogy","operator:wikidata":"Q2124721","power":"generator"}},"power/generator/rwe-16c9d0":{"name":"RWE","locationSet":{"include":["by","bg","cz","hu","pl","md","ro","ru","sk","ua","ax","gg","je","cq","dk","ee","fo","fi","is","ie","im","lv","lt","no","sj","se","gb","al","ad","ba","hr","gi","gr","va","it","mt","me","mk","pt","sm","rs","si","es","xk","at","be","fr","de","li","lu","mc","nl","ch"]},"geometry":["point","vertex","area"],"matchScore":2,"terms":["rwe"],"tags":{"operator:wikidata":"Q138133","power":"generator"},"addTags":{"operator":"RWE","operator:wikidata":"Q138133","power":"generator"}},"power/generator/statkraft-16c9d0":{"name":"Statkraft","locationSet":{"include":["by","bg","cz","hu","pl","md","ro","ru","sk","ua","ax","gg","je","cq","dk","ee","fo","fi","is","ie","im","lv","lt","no","sj","se","gb","al","ad","ba","hr","gi","gr","va","it","mt","me","mk","pt","sm","rs","si","es","xk","at","be","fr","de","li","lu","mc","nl","ch"]},"geometry":["point","vertex","area"],"matchScore":2,"terms":["statkraft"],"tags":{"operator:wikidata":"Q1681145","power":"generator"},"addTags":{"operator":"Statkraft","operator:wikidata":"Q1681145","power":"generator"}},"power/generator/uniper-16c9d0":{"name":"Uniper","locationSet":{"include":["by","bg","cz","hu","pl","md","ro","ru","sk","ua","ax","gg","je","cq","dk","ee","fo","fi","is","ie","im","lv","lt","no","sj","se","gb","al","ad","ba","hr","gi","gr","va","it","mt","me","mk","pt","sm","rs","si","es","xk","at","be","fr","de","li","lu","mc","nl","ch"]},"geometry":["point","vertex","area"],"matchScore":2,"terms":["uniper"],"tags":{"operator:wikidata":"Q19839259","power":"generator"},"addTags":{"operator":"Uniper","operator:wikidata":"Q19839259","power":"generator"}},"power/generator/wpo-16c9d0":{"name":"WPO","locationSet":{"include":["by","bg","cz","hu","pl","md","ro","ru","sk","ua","ax","gg","je","cq","dk","ee","fo","fi","is","ie","im","lv","lt","no","sj","se","gb","al","ad","ba","hr","gi","gr","va","it","mt","me","mk","pt","sm","rs","si","es","xk","at","be","fr","de","li","lu","mc","nl","ch"]},"geometry":["point","vertex","area"],"matchScore":2,"terms":["wpo"],"tags":{"operator:wikidata":"Q64755627","power":"generator"},"addTags":{"operator":"WPO","operator:wikidata":"Q64755627","power":"generator"}},"power/line/augstspriegumatikls-e41140":{"name":"Augstsprieguma tīkls","locationSet":{"include":["lv"]},"geometry":["line"],"matchScore":2,"terms":["as \u201eaugstsprieguma tīkls\u201c","augstsprieguma tīkls"],"tags":{"operator:wikidata":"Q16822050","power":"line"},"addTags":{"operator":"Augstsprieguma tīkls","operator:wikidata":"Q16822050","power":"line"}},"power/line/sadalestikls-e41140":{"name":"Sadales tīkls","locationSet":{"include":["lv"]},"geometry":["line"],"matchScore":2,"terms":["as \"sadales tīkls\"","sadales tīkls"],"tags":{"operator:wikidata":"Q21011154","power":"line"},"addTags":{"operator":"Sadales tīkls","operator:wikidata":"Q21011154","power":"line"}},"power/minor_line/augstspriegumatikls-a6ab81":{"name":"Augstsprieguma tīkls","locationSet":{"include":["lv"]},"geometry":["line"],"matchScore":2,"terms":["as \u201eaugstsprieguma tīkls\u201c","augstsprieguma tīkls"],"tags":{"operator:wikidata":"Q16822050","power":"minor_line"},"addTags":{"operator":"Augstsprieguma tīkls","operator:wikidata":"Q16822050","power":"minor_line"}},"power/minor_line/sadalestikls-a6ab81":{"name":"Sadales tīkls","locationSet":{"include":["lv"]},"geometry":["line"],"matchScore":2,"terms":["as \"sadales tīkls\"","sadales tīkls"],"tags":{"operator:wikidata":"Q21011154","power":"minor_line"},"addTags":{"operator":"Sadales tīkls","operator:wikidata":"Q21011154","power":"minor_line"}},"power/pole/augstspriegumatikls-b1384e":{"name":"Augstsprieguma tīkls","locationSet":{"include":["lv"]},"geometry":["point","vertex"],"matchScore":2,"terms":["as \u201eaugstsprieguma tīkls\u201c","augstsprieguma tīkls"],"tags":{"operator:wikidata":"Q16822050","power":"pole"},"addTags":{"operator":"Augstsprieguma tīkls","operator:wikidata":"Q16822050","power":"pole"}},"power/pole/sadalestikls-b1384e":{"name":"Sadales tīkls","locationSet":{"include":["lv"]},"geometry":["point","vertex"],"matchScore":2,"terms":["as \"sadales tīkls\"","sadales tīkls"],"tags":{"operator:wikidata":"Q21011154","power":"pole"},"addTags":{"operator":"Sadales tīkls","operator:wikidata":"Q21011154","power":"pole"}},"power/substation/augstspriegumatikls-b57901":{"name":"Augstsprieguma tīkls","locationSet":{"include":["lv"]},"geometry":["area","point"],"matchScore":2,"terms":["as \u201eaugstsprieguma tīkls\u201c","augstsprieguma tīkls"],"tags":{"operator:wikidata":"Q16822050","power":"substation"},"addTags":{"operator":"Augstsprieguma tīkls","operator:wikidata":"Q16822050","power":"substation"}},"power/substation/sadalestikls-b57901":{"name":"Sadales tīkls","locationSet":{"include":["lv"]},"geometry":["area","point"],"matchScore":2,"terms":["as \"sadales tīkls\"","sadales tīkls"],"tags":{"operator:wikidata":"Q21011154","power":"substation"},"addTags":{"operator":"Sadales tīkls","operator:wikidata":"Q21011154","power":"substation"}},"power/tower/augstspriegumatikls-ea2dda":{"name":"Augstsprieguma tīkls","locationSet":{"include":["lv"]},"geometry":["point","vertex"],"matchScore":2,"terms":["as \u201eaugstsprieguma tīkls\u201c","augstsprieguma tīkls"],"tags":{"operator:wikidata":"Q16822050","power":"tower"},"addTags":{"operator":"Augstsprieguma tīkls","operator:wikidata":"Q16822050","power":"tower"}},"power/tower/sadalestikls-ea2dda":{"name":"Sadales tīkls","locationSet":{"include":["lv"]},"geometry":["point","vertex"],"matchScore":2,"terms":["as \"sadales tīkls\"","sadales tīkls"],"tags":{"operator:wikidata":"Q21011154","power":"tower"},"addTags":{"operator":"Sadales tīkls","operator:wikidata":"Q21011154","power":"tower"}},"power/transformer/augstspriegumatikls-79b2b7":{"name":"Augstsprieguma tīkls","locationSet":{"include":["lv"]},"geometry":["point","vertex"],"matchScore":2,"terms":["as \u201eaugstsprieguma tīkls\u201c","augstsprieguma tīkls"],"tags":{"operator:wikidata":"Q16822050","power":"transformer"},"addTags":{"operator":"Augstsprieguma tīkls","operator:wikidata":"Q16822050","power":"transformer"}},"power/transformer/sadalestikls-79b2b7":{"name":"Sadales tīkls","locationSet":{"include":["lv"]},"geometry":["point","vertex"],"matchScore":2,"terms":["as \"sadales tīkls\"","sadales tīkls"],"tags":{"operator:wikidata":"Q21011154","power":"transformer"},"addTags":{"operator":"Sadales tīkls","operator:wikidata":"Q21011154","power":"transformer"}},"type/route/power/augstspriegumatikls-9b994c":{"name":"Augstsprieguma tīkls","locationSet":{"include":["lv"]},"geometry":["relation"],"matchScore":2,"terms":["as \u201eaugstsprieguma tīkls\u201c","augstsprieguma tīkls"],"reference":{"key":"route","value":"power"},"tags":{"operator:wikidata":"Q16822050","route":"power","type":"route"},"addTags":{"operator":"Augstsprieguma tīkls","operator:wikidata":"Q16822050","route":"power","type":"route"}},"telecom/exchange/interoute-58ec5d":{"name":"Interoute","locationSet":{"include":["by","bg","cz","hu","pl","md","ro","ru","sk","ua","ax","gg","je","cq","dk","ee","fo","fi","is","ie","im","lv","lt","no","sj","se","gb","al","ad","ba","hr","gi","gr","va","it","mt","me","mk","pt","sm","rs","si","es","xk","at","be","fr","de","li","lu","mc","nl","ch"]},"geometry":["point","area"],"matchScore":2,"terms":["interoute"],"fields":["name","operator","{telecom/exchange}"],"tags":{"operator:wikidata":"Q1668090","telecom":"exchange"},"addTags":{"operator":"Interoute","operator:wikidata":"Q1668090","telecom":"exchange"}},"public_transport/platform/bus_point/flixbus-f5b4b3":{"name":"Flixbus","locationSet":{"include":["by","bg","cz","hu","pl","md","ro","ru","sk","ua","ax","gg","je","cq","dk","ee","fo","fi","is","ie","im","lv","lt","no","sj","se","gb","al","ad","ba","hr","gi","gr","va","it","mt","me","mk","pt","sm","rs","si","es","xk","at","be","fr","de","li","lu","mc","nl","ch","br","ca","us"]},"geometry":["point","vertex"],"matchScore":2,"terms":["flixbus"],"reference":{"key":"public_transport","value":"platform"},"tags":{"bus":"yes","network:wikidata":"Q15712258","public_transport":"platform"},"addTags":{"bus":"yes","highway":"bus_stop","network":"Flixbus","network:wikidata":"Q15712258","public_transport":"platform"}},"railway/station/eurocity-170b77":{"name":"EuroCity","locationSet":{"include":["by","bg","cz","hu","pl","md","ro","ru","sk","ua","ax","gg","je","cq","dk","ee","fo","fi","is","ie","im","lv","lt","no","sj","se","gb","al","ad","ba","hr","gi","gr","va","it","mt","me","mk","pt","sm","rs","si","es","xk","at","be","fr","de","li","lu","mc","nl","ch"]},"geometry":["point","vertex","area"],"matchScore":2,"terms":["eurocity"],"tags":{"network:wikidata":"Q753050","railway":"station"},"addTags":{"network":"EuroCity","network:wikidata":"Q753050","public_transport":"station","railway":"station","train":"yes"}},"railway/station/euronight-170b77":{"name":"EuroNight","locationSet":{"include":["by","bg","cz","hu","pl","md","ro","ru","sk","ua","ax","gg","je","cq","dk","ee","fo","fi","is","ie","im","lv","lt","no","sj","se","gb","al","ad","ba","hr","gi","gr","va","it","mt","me","mk","pt","sm","rs","si","es","xk","at","be","fr","de","li","lu","mc","nl","ch"]},"geometry":["point","vertex","area"],"matchScore":2,"terms":["euronight"],"tags":{"network:wikidata":"Q257307","railway":"station"},"addTags":{"network":"EuroNight","network:wikidata":"Q257307","public_transport":"station","railway":"station","train":"yes"}},"type/route/bus/flixbus-8cc9ca":{"name":"Flixbus","locationSet":{"include":["by","bg","cz","hu","pl","md","ro","ru","sk","ua","ax","gg","je","cq","dk","ee","fo","fi","is","ie","im","lv","lt","no","sj","se","gb","al","ad","ba","hr","gi","gr","va","it","mt","me","mk","pt","sm","rs","si","es","xk","at","be","fr","de","li","lu","mc","nl","ch","br","ca","us"]},"geometry":["relation"],"matchScore":2,"terms":["flixbus"],"reference":{"key":"route","value":"bus"},"tags":{"network:wikidata":"Q15712258","route":"bus","type":"route"},"addTags":{"network":"Flixbus","network:wikidata":"Q15712258","route":"bus","type":"route"}},"type/route/train/eurocity-6b9d23":{"name":"EuroCity","locationSet":{"include":["by","bg","cz","hu","pl","md","ro","ru","sk","ua","ax","gg","je","cq","dk","ee","fo","fi","is","ie","im","lv","lt","no","sj","se","gb","al","ad","ba","hr","gi","gr","va","it","mt","me","mk","pt","sm","rs","si","es","xk","at","be","fr","de","li","lu","mc","nl","ch"]},"geometry":["relation"],"matchScore":2,"terms":["eurocity"],"reference":{"key":"route","value":"train"},"tags":{"network:wikidata":"Q753050","route":"train","type":"route"},"addTags":{"network":"EuroCity","network:wikidata":"Q753050","route":"train","type":"route"}},"type/route/train/euronight-6b9d23":{"name":"EuroNight","locationSet":{"include":["by","bg","cz","hu","pl","md","ro","ru","sk","ua","ax","gg","je","cq","dk","ee","fo","fi","is","ie","im","lv","lt","no","sj","se","gb","al","ad","ba","hr","gi","gr","va","it","mt","me","mk","pt","sm","rs","si","es","xk","at","be","fr","de","li","lu","mc","nl","ch"]},"geometry":["relation"],"matchScore":2,"terms":["euronight"],"reference":{"key":"route","value":"train"},"tags":{"network:wikidata":"Q257307","route":"train","type":"route"},"addTags":{"network":"EuroNight","network:wikidata":"Q257307","route":"train","type":"route"}}}