{"amenity/atm/333979-5b8686":{"name":"مصرف الراجحي","locationSet":{"include":["jo","kw","sa"]},"geometry":["point","vertex"],"matchScore":2,"terms":["مصرف الراجحي"],"tags":{"amenity":"atm","brand:wikidata":"Q1761176"},"addTags":{"amenity":"atm","brand":"مصرف الراجحي","brand:wikidata":"Q1761176","name":"مصرف الراجحي","operator":"مصرف الراجحي","operator:wikidata":"Q1761176"}},"amenity/bank/333979-c05ba5":{"name":"مصرف الراجحي","locationSet":{"include":["jo","kw","sa"]},"geometry":["point","area"],"matchScore":2,"terms":["مصرف الراجحي"],"tags":{"amenity":"bank","brand:wikidata":"Q1761176"},"addTags":{"amenity":"bank","brand":"مصرف الراجحي","brand:wikidata":"Q1761176","name":"مصرف الراجحي"}},"amenity/cafe/coffee_shop/timhortons-2ad4e1":{"name":"تيم هورتونز","locationSet":{"include":["ae","bh","jo","kw","om","qa","sa"]},"geometry":["point","area"],"matchScore":2,"terms":["tim hortons","تيم هورتونز"],"reference":{"key":"cuisine","value":"coffee_shop"},"tags":{"amenity":"cafe","brand:wikidata":"Q175106","cuisine":"coffee_shop"},"addTags":{"amenity":"cafe","brand":"تيم هورتونز","brand:ar":"تيم هورتونز","brand:en":"Tim Hortons","brand:wikidata":"Q175106","cuisine":"coffee_shop","name":"تيم هورتونز","name:ar":"تيم هورتونز","name:en":"Tim Hortons","takeaway":"yes"}},"amenity/cafe/coffee_shop/starbucks-0dcee5":{"name":"ستاربكس","locationSet":{"include":["ae","bh","dz","eg","iq","jo","kw","lb","ly","ma","om","qa","sa","tn"]},"geometry":["point","area"],"matchScore":2,"terms":["starbucks","starbucks coffee","ستاربكس","ستاربكس كافية"],"reference":{"key":"cuisine","value":"coffee_shop"},"tags":{"amenity":"cafe","brand:wikidata":"Q37158","cuisine":"coffee_shop"},"addTags":{"amenity":"cafe","brand":"ستاربكس","brand:ar":"ستاربكس","brand:en":"Starbucks","brand:wikidata":"Q37158","cuisine":"coffee_shop","name":"ستاربكس","name:ar":"ستاربكس","name:en":"Starbucks","official_name":"ستاربكس كافية","official_name:ar":"ستاربكس كافية","official_name:en":"Starbucks Coffee","takeaway":"yes"}},"amenity/fast_food/shakeaway-3bfa70":{"name":"ShakeAway","locationSet":{"include":["gb","iq","jo","tl"]},"geometry":["point","area"],"matchScore":2,"terms":["shakeaway"],"tags":{"amenity":"fast_food","brand:wikidata":"Q108443709"},"addTags":{"amenity":"fast_food","brand":"ShakeAway","brand:wikidata":"Q108443709","cuisine":"frozen_yogurt;dessert","name":"ShakeAway","takeaway":"yes"}},"amenity/fast_food/pizza/thepizzacompany-abbb1f":{"name":"The Pizza Company","locationSet":{"include":["ae","bh","cn","jo","kh","la","mm","my","sa","th","vn"]},"geometry":["point","area"],"matchScore":2,"terms":["pizza company","the pizza company"],"reference":{"key":"cuisine","value":"pizza"},"tags":{"amenity":"fast_food","brand:wikidata":"Q2413520","cuisine":"pizza"},"addTags":{"alt_name":"Pizza Company","amenity":"fast_food","brand":"The Pizza Company","brand:wikidata":"Q2413520","cuisine":"pizza","name":"The Pizza Company","takeaway":"yes"}},"amenity/fast_food/chicken/altazaj-7c76bb":{"name":"الطازج","locationSet":{"include":["ae","bh","eg","jo","kw","lb","my","om","qa","sa","td","ye"]},"geometry":["point","area"],"matchScore":2,"terms":["al tazaj","الطازج"],"reference":{"key":"cuisine","value":"chicken"},"tags":{"amenity":"fast_food","brand:wikidata":"Q4704878","cuisine":"chicken"},"addTags":{"amenity":"fast_food","brand":"الطازج","brand:ar":"الطازج","brand:en":"Al Tazaj","brand:wikidata":"Q4704878","cuisine":"chicken","name":"الطازج","name:ar":"الطازج","name:en":"Al Tazaj","takeaway":"yes"}},"amenity/fast_food/chicken/kfc-15a250":{"name":"دجاج كنتاكي","locationSet":{"include":["ae","bh","eg","iq","jo","kw","lb","ly","ma","om","qa","sa","sd","sy","tn","ye"]},"geometry":["point","area"],"matchScore":2,"terms":["kfc","دجاج كنتاكي"],"reference":{"key":"cuisine","value":"chicken"},"tags":{"amenity":"fast_food","brand:wikidata":"Q524757","cuisine":"chicken"},"addTags":{"amenity":"fast_food","brand":"دجاج كنتاكي","brand:ar":"دجاج كنتاكي","brand:en":"KFC","brand:wikidata":"Q524757","cuisine":"chicken","name":"دجاج كنتاكي","name:ar":"دجاج كنتاكي","name:en":"KFC","takeaway":"yes"}},"amenity/fast_food/sandwich/kudu-1b3be3":{"name":"كودو","locationSet":{"include":["ae","bh","jo","sa","sd"]},"geometry":["point","area"],"matchScore":2,"terms":["kudu","كودو"],"reference":{"key":"cuisine","value":"sandwich"},"tags":{"amenity":"fast_food","brand:wikidata":"Q6441777","cuisine":"sandwich"},"addTags":{"amenity":"fast_food","brand":"كودو","brand:ar":"كودو","brand:en":"Kudu","brand:wikidata":"Q6441777","cuisine":"sandwich","name":"كودو","name:ar":"كودو","name:en":"Kudu","takeaway":"yes"}},"amenity/fast_food/burger/mcdonalds-19c993":{"name":"ماكدونالدز","locationSet":{"include":["ae","bh","eg","iq","jo","kw","lb","ma","om","qa","sa","sy","tn"]},"geometry":["point","area"],"matchScore":2,"terms":["mcdonald's","ماكدونالدز"],"reference":{"key":"cuisine","value":"burger"},"tags":{"amenity":"fast_food","brand:wikidata":"Q38076","cuisine":"burger"},"addTags":{"amenity":"fast_food","brand":"ماكدونالدز","brand:ar":"ماكدونالدز","brand:en":"McDonald's","brand:wikidata":"Q38076","cuisine":"burger","name":"ماكدونالدز","name:ar":"ماكدونالدز","name:en":"McDonald's","takeaway":"yes"}},"shop/bakery/paul-652955":{"name":"Paul","locationSet":{"include":["ae","az","be","bh","by","ci","cy","cz","eg","es","fr","ga","gb","ge","gr","id","in","jo","jp","kw","kz","lb","lu","ma","mu","my","om","pa","ph","pl","pt","qa","ro","ru","sa","sg","th","tn","tw","ua","us","uz","vn","za"]},"geometry":["point","area"],"matchScore":2,"terms":["paul"],"tags":{"brand:wikidata":"Q3370417","shop":"bakery"},"addTags":{"brand":"Paul","brand:wikidata":"Q3370417","name":"Paul","shop":"bakery"}},"shop/chocolate/jeffdebruges-d57ca4":{"name":"Jeff de Bruges","locationSet":{"include":["at","bg","ca","cz","de","ee","es","fr","gb","it","jo","lu","ma","om","pf","sa","sk","sn","tn"]},"geometry":["point","area"],"matchScore":2,"terms":["jeff de bruges"],"tags":{"brand:wikidata":"Q3176626","shop":"chocolate"},"addTags":{"brand":"Jeff de Bruges","brand:wikidata":"Q3176626","name":"Jeff de Bruges","shop":"chocolate"}},"shop/clothes/dynamite-aecc8a":{"name":"Dynamite","locationSet":{"include":["ca","jo","sa","us"]},"geometry":["point","area"],"matchScore":2,"terms":["dynamite"],"tags":{"brand:wikidata":"Q3117385","shop":"clothes"},"addTags":{"brand":"Dynamite","brand:wikidata":"Q3117385","clothes":"women","name":"Dynamite","shop":"clothes"}},"shop/clothes/garage-072c62":{"name":"Garage","locationSet":{"include":["am","ca","jo","om","qa","sa","us"]},"geometry":["point","area"],"matchScore":2,"terms":["garage"],"tags":{"brand:wikidata":"Q5521860","shop":"clothes"},"addTags":{"brand":"Garage","brand:wikidata":"Q5521860","clothes":"women","name":"Garage","shop":"clothes"}},"boundary/royalsocietyfortheconservationofnature-33db75":{"name":"Royal Society for the Conservation of Nature","locationSet":{"include":["jo"]},"geometry":["line"],"matchScore":2,"terms":["royal society for the conservation of nature","rscn"],"tags":{"boundary":"protected_area","operator:wikidata":"Q7374841"},"addTags":{"boundary":"protected_area","operator":"Royal Society for the Conservation of Nature","operator:short":"RSCN","operator:wikidata":"Q7374841"}},"office/energy_supplier/naturgy-e15d8a":{"name":"Naturgy","locationSet":{"include":["ar","au","be","br","cl","cn","cr","de","do","dz","eg","es","fr","gb","ie","in","jm","jo","jp","lu","ma","mx","nl","om","pa","pe","pk","pr","pt","sg"]},"geometry":["point","area"],"matchScore":2,"terms":["naturgy"],"tags":{"office":"energy_supplier","operator:wikidata":"Q474690"},"addTags":{"name":"Naturgy","office":"energy_supplier","operator":"Naturgy","operator:wikidata":"Q474690"}}}