{"amenity/atm/geldmaat-5333ab":{"name":"Geldmaat","locationSet":{"include":["nl"]},"geometry":["point","vertex"],"matchScore":2,"terms":["geldmaat"],"tags":{"amenity":"atm","brand:wikidata":"Q74051230"},"addTags":{"amenity":"atm","brand":"Geldmaat","brand:wikidata":"Q74051230","brand:wikipedia":"nl:Geldmaat","name":"Geldmaat","operator":"Geldmaat","operator:wikidata":"Q74051230","operator:wikipedia":"nl:Geldmaat"}},"amenity/atm/abnamro-5333ab":{"name":"ABN AMRO","locationSet":{"include":["nl"]},"geometry":["point","vertex"],"matchScore":2,"terms":["abn amro","abn amro bank n.v."],"tags":{"amenity":"atm","brand:wikidata":"Q287471"},"addTags":{"amenity":"atm","brand":"ABN AMRO","brand:wikidata":"Q287471","brand:wikipedia":"nl:ABN AMRO Bank N.V.","name":"ABN AMRO","official_name":"ABN AMRO Bank N.V.","operator":"ABN AMRO","operator:wikidata":"Q287471","operator:wikipedia":"nl:ABN AMRO Bank N.V."}},"amenity/atm/argenta-854f43":{"name":"Argenta","locationSet":{"include":["be","lu","nl"]},"geometry":["point","vertex"],"matchScore":2,"terms":["argenta"],"tags":{"amenity":"atm","brand:wikidata":"Q932856"},"addTags":{"amenity":"atm","brand":"Argenta","brand:wikidata":"Q932856","brand:wikipedia":"nl:Argenta Groep","name":"Argenta","operator":"Argenta","operator:wikidata":"Q932856","operator:wikipedia":"nl:Argenta Groep"}},"amenity/atm/attijariwafabank-e568eb":{"name":"Attijariwafa Bank (التجاري وفا بنك)","locationSet":{"include":["ae","be","bf","bj","ca","cd","cg","ch","ci","cm","eg","es","fr","ga","gb","it","ma","mr","nl","sa","sn","tg","tn"]},"geometry":["point","vertex"],"matchScore":2,"terms":["attijariwafa bank","attijariwafa bank التجاري وفا بنك","التجاري وفا بنك"],"tags":{"amenity":"atm","brand:wikidata":"Q758052"},"addTags":{"amenity":"atm","brand":"Attijariwafa Bank","brand:ar":"التجاري وفا بنك","brand:en":"Attijariwafa Bank","brand:wikidata":"Q758052","brand:wikipedia":"en:Attijariwafa Bank","name:ar":"التجاري وفا بنك","name:en":"Attijariwafa Bank","operator":"Attijariwafa Bank","operator:wikidata":"Q758052","operator:wikipedia":"en:Attijariwafa Bank"}},"amenity/atm/banquepopulaire-2e486a":{"name":"Banque Populaire (البنك الشعبي)","locationSet":{"include":["de","es","it","ma","nl"]},"geometry":["point","vertex"],"matchScore":2,"terms":["banque populaire","banque populaire البنك الشعبي","البنك الشعبي"],"tags":{"amenity":"atm","brand:wikidata":"Q2883441"},"addTags":{"amenity":"atm","brand":"Banque Populaire","brand:ar":"البنك الشعبي","brand:en":"Banque Populaire","brand:wikidata":"Q2883441","brand:wikipedia":"en:Banque Populaire (Morocco)","name:ar":"البنك الشعبي","name:en":"Banque Populaire","operator":"Banque Populaire","operator:wikidata":"Q2883441","operator:wikipedia":"en:Banque Populaire (Morocco)"}},"amenity/atm/isbank-ceff81":{"name":"İşbank","locationSet":{"include":["de","nl"]},"geometry":["point","vertex"],"matchScore":2,"terms":["i̇şbank","isbank atm"],"tags":{"amenity":"atm","brand:wikidata":"Q2607251"},"addTags":{"amenity":"atm","brand":"İşbank","brand:wikidata":"Q2607251","brand:wikipedia":"de:İşbank","name":"İşbank","operator":"İşbank","operator:wikidata":"Q2607251","operator:wikipedia":"de:İşbank"}},"amenity/atm/rabobank-f970f3":{"name":"Rabobank","locationSet":{"include":["au","id","nl","nz","us"]},"geometry":["point","vertex"],"matchScore":2,"terms":["rabobank"],"tags":{"amenity":"atm","brand:wikidata":"Q252004"},"addTags":{"amenity":"atm","brand":"Rabobank","brand:wikidata":"Q252004","brand:wikipedia":"en:Rabobank","name":"Rabobank","operator":"Rabobank","operator:wikidata":"Q252004","operator:wikipedia":"en:Rabobank"}},"amenity/atm/snsbank-5333ab":{"name":"SNS Bank","locationSet":{"include":["nl"]},"geometry":["point","vertex"],"matchScore":2,"terms":["sns bank"],"tags":{"amenity":"atm","brand:wikidata":"Q1857899"},"addTags":{"amenity":"atm","brand":"SNS Bank","brand:wikidata":"Q1857899","brand:wikipedia":"en:De Volksbank","name":"SNS Bank","operator":"SNS Bank","operator:wikidata":"Q1857899","operator:wikipedia":"en:De Volksbank"}},"amenity/bank/abnamro-fb21a8":{"name":"ABN AMRO","locationSet":{"include":["nl"]},"geometry":["point","area"],"matchScore":2,"terms":["abn amro","abn amro bank n.v."],"tags":{"amenity":"bank","brand:wikidata":"Q287471"},"addTags":{"amenity":"bank","brand":"ABN AMRO","brand:wikidata":"Q287471","brand:wikipedia":"nl:ABN AMRO Bank N.V.","name":"ABN AMRO","official_name":"ABN AMRO Bank N.V."}},"amenity/bank/argenta-c47d60":{"name":"Argenta","locationSet":{"include":["be","lu","nl"]},"geometry":["point","area"],"matchScore":2,"terms":["argenta"],"tags":{"amenity":"bank","brand:wikidata":"Q932856"},"addTags":{"amenity":"bank","brand":"Argenta","brand:wikidata":"Q932856","brand:wikipedia":"nl:Argenta Groep","name":"Argenta"}},"amenity/bank/attijariwafabank-c1cae6":{"name":"Attijariwafa Bank (التجاري وفا بنك)","locationSet":{"include":["ae","be","bf","bj","ca","cd","cg","ch","ci","cm","eg","es","fr","ga","gb","it","ma","mr","nl","sa","sn","tg","tn"]},"geometry":["point","area"],"matchScore":2,"terms":["attijariwafa bank","attijariwafa bank التجاري وفا بنك","التجاري وفا بنك"],"tags":{"amenity":"bank","brand:wikidata":"Q758052"},"addTags":{"amenity":"bank","brand":"Attijariwafa Bank","brand:ar":"التجاري وفا بنك","brand:en":"Attijariwafa Bank","brand:wikidata":"Q758052","brand:wikipedia":"en:Attijariwafa Bank","name:ar":"التجاري وفا بنك","name:en":"Attijariwafa Bank"}},"amenity/bank/banquepopulaire-4fc013":{"name":"Banque Populaire (البنك الشعبي)","locationSet":{"include":["de","es","it","ma","nl"]},"geometry":["point","area"],"matchScore":2,"terms":["banque populaire","banque populaire البنك الشعبي","البنك الشعبي"],"tags":{"amenity":"bank","brand:wikidata":"Q2883441"},"addTags":{"amenity":"bank","brand":"Banque Populaire","brand:ar":"البنك الشعبي","brand:en":"Banque Populaire","brand:wikidata":"Q2883441","brand:wikipedia":"en:Banque Populaire (Morocco)","name:ar":"البنك الشعبي","name:en":"Banque Populaire"}},"amenity/bank/isbank-b4c574":{"name":"İşbank","locationSet":{"include":["de","nl"]},"geometry":["point","area"],"matchScore":2,"terms":["i̇şbank","isbank atm"],"tags":{"amenity":"bank","brand:wikidata":"Q2607251"},"addTags":{"amenity":"bank","brand":"İşbank","brand:wikidata":"Q2607251","brand:wikipedia":"de:İşbank","name":"İşbank"}},"amenity/bank/rabobank-c61987":{"name":"Rabobank","locationSet":{"include":["au","id","nl","nz","us"]},"geometry":["point","area"],"matchScore":2,"terms":["rabobank"],"tags":{"amenity":"bank","brand:wikidata":"Q252004"},"addTags":{"amenity":"bank","brand":"Rabobank","brand:wikidata":"Q252004","brand:wikipedia":"en:Rabobank","name":"Rabobank"}},"amenity/bank/snsbank-fb21a8":{"name":"SNS Bank","locationSet":{"include":["nl"]},"geometry":["point","area"],"matchScore":2,"terms":["sns bank"],"tags":{"amenity":"bank","brand:wikidata":"Q1857899"},"addTags":{"amenity":"bank","brand":"SNS Bank","brand:wikidata":"Q1857899","brand:wikipedia":"en:De Volksbank","name":"SNS Bank"}},"amenity/bicycle_rental/ovfiets-8def75":{"name":"OV-fiets","locationSet":{"include":["nl"]},"geometry":["point","vertex","area"],"matchScore":2,"terms":["nederlandse spoorwegen","ns","ov-fiets"],"fields":["name","brand","{amenity/bicycle_rental}"],"tags":{"amenity":"bicycle_rental","brand:wikidata":"Q2629982"},"addTags":{"amenity":"bicycle_rental","brand":"OV-fiets","brand:wikidata":"Q2629982","brand:wikipedia":"en:OV-fiets","name":"OV-fiets","network":"OV-fiets","network:wikidata":"Q2629982","network:wikipedia":"en:OV-fiets","operator":"Nederlandse Spoorwegen","operator:wikidata":"Q23076","operator:wikipedia":"nl:Nederlandse Spoorwegen"}},"amenity/bicycle_rental/swapfiets-fb0cf5":{"name":"Swapfiets","locationSet":{"include":["be","de","dk","nl"]},"geometry":["point","vertex","area"],"matchScore":2,"terms":["swapfiets"],"fields":["name","brand","{amenity/bicycle_rental}"],"tags":{"amenity":"bicycle_rental","brand:wikidata":"Q62104374"},"addTags":{"amenity":"bicycle_rental","brand":"Swapfiets","brand:wikidata":"Q62104374","name":"Swapfiets","network":"Swapfiets","network:wikidata":"Q62104374","operator":"Swapfiets","operator:wikidata":"Q62104374"}},"amenity/cafe/coffee_shop/bagelsandbeans-4a052f":{"name":"Bagels & Beans","locationSet":{"include":["nl"]},"geometry":["point","area"],"matchScore":2,"terms":["bagels & beans"],"reference":{"key":"cuisine","value":"coffee_shop"},"tags":{"amenity":"cafe","brand:wikidata":"Q5140923","cuisine":"coffee_shop"},"addTags":{"amenity":"cafe","brand":"Bagels & Beans","brand:wikidata":"Q5140923","brand:wikipedia":"nl:Bagels & Beans","cuisine":"coffee_shop","name":"Bagels & Beans","takeaway":"yes"}},"amenity/cafe/coffee_shop/chocolatecompany-4a052f":{"name":"Chocolate Company","locationSet":{"include":["nl"]},"geometry":["point","area"],"matchScore":2,"terms":["chocolate company"],"reference":{"key":"cuisine","value":"coffee_shop"},"tags":{"amenity":"cafe","brand:wikidata":"Q108926938","cuisine":"coffee_shop"},"addTags":{"amenity":"cafe","brand":"Chocolate Company","brand:wikidata":"Q108926938","cuisine":"coffee_shop","name":"Chocolate Company","takeaway":"yes"}},"amenity/cafe/coffee_shop/coffeecompany-4a052f":{"name":"Coffee Company","locationSet":{"include":["nl"]},"geometry":["point","area"],"matchScore":2,"terms":["coffee company"],"reference":{"key":"cuisine","value":"coffee_shop"},"tags":{"amenity":"cafe","brand:wikidata":"Q108927063","cuisine":"coffee_shop"},"addTags":{"amenity":"cafe","brand":"Coffee Company","brand:wikidata":"Q108927063","cuisine":"coffee_shop","name":"Coffee Company","takeaway":"yes"}},"amenity/cafe/coffee_shop/coffeefellows-6873ad":{"name":"Coffee Fellows","locationSet":{"include":["de","lu","nl"]},"geometry":["point","area"],"matchScore":2,"terms":["coffee fellows"],"reference":{"key":"cuisine","value":"coffee_shop"},"tags":{"amenity":"cafe","brand:wikidata":"Q23461429","cuisine":"coffee_shop"},"addTags":{"amenity":"cafe","brand":"Coffee Fellows","brand:wikidata":"Q23461429","brand:wikipedia":"en:Coffee Fellows","cuisine":"coffee_shop","name":"Coffee Fellows","takeaway":"yes"}},"amenity/cafe/coffee_shop/doppioespresso-4a052f":{"name":"Doppio Espresso","locationSet":{"include":["nl"]},"geometry":["point","area"],"matchScore":2,"terms":["doppio espresso"],"reference":{"key":"cuisine","value":"coffee_shop"},"tags":{"amenity":"cafe","brand:wikidata":"Q108927102","cuisine":"coffee_shop"},"addTags":{"amenity":"cafe","brand":"Doppio Espresso","brand:wikidata":"Q108927102","cuisine":"coffee_shop","name":"Doppio Espresso","takeaway":"yes"}},"amenity/casino/fairplaycasino-cf45c0":{"name":"Fair Play Casino","locationSet":{"include":["nl"]},"geometry":["point","area"],"matchScore":2,"terms":["fair play casino"],"fields":["name","brand","{amenity/casino}"],"tags":{"amenity":"casino","brand:wikidata":"Q108923693"},"addTags":{"amenity":"casino","brand":"Fair Play Casino","brand:wikidata":"Q108923693","name":"Fair Play Casino"}},"amenity/casino/flamingocasino-cf45c0":{"name":"Flamingo Casino","locationSet":{"include":["nl"]},"geometry":["point","area"],"matchScore":2,"terms":["flamingo casino"],"tags":{"amenity":"casino","brand:wikidata":"Q108926539"},"addTags":{"amenity":"casino","brand":"Flamingo Casino","brand:wikidata":"Q108926539","name":"Flamingo Casino"}},"amenity/casino/hollandcasino-cf45c0":{"name":"Holland Casino","locationSet":{"include":["nl"]},"geometry":["point","area"],"matchScore":2,"terms":["holland casino"],"fields":["name","brand","{amenity/casino}"],"tags":{"amenity":"casino","brand:wikidata":"Q361554"},"addTags":{"amenity":"casino","brand":"Holland Casino","brand:wikidata":"Q361554","brand:wikipedia":"nl:Holland Casino","name":"Holland Casino"}},"amenity/casino/jackscasino-cf45c0":{"name":"Jack's Casino","locationSet":{"include":["nl"]},"geometry":["point","area"],"matchScore":2,"terms":["jack's casino"],"fields":["name","brand","{amenity/casino}"],"tags":{"amenity":"casino","brand:wikidata":"Q108926684"},"addTags":{"amenity":"casino","brand":"Jack's Casino","brand:wikidata":"Q108926684","name":"Jack's Casino"}},"amenity/cinema/caribbeancinemas-77ba3f":{"name":"Caribbean Cinemas","locationSet":{"include":["ag","do","fr","gy","kn","lc","nl","pa","tt","us"]},"geometry":["point","area"],"matchScore":2,"terms":["caribbean cinemas"],"fields":["name","brand","{amenity/cinema}"],"tags":{"amenity":"cinema","brand:wikidata":"Q5039364"},"addTags":{"amenity":"cinema","brand":"Caribbean Cinemas","brand:wikidata":"Q5039364","brand:wikipedia":"en:Caribbean Cinemas","name":"Caribbean Cinemas"}},"amenity/cinema/kinepolis-bc363a":{"name":"Kinepolis","locationSet":{"include":["be","ch","es","fr","lu","nl"]},"geometry":["point","area"],"matchScore":2,"terms":["kinepolis"],"fields":["name","brand","{amenity/cinema}"],"tags":{"amenity":"cinema","brand:wikidata":"Q1741993"},"addTags":{"amenity":"cinema","brand":"Kinepolis","brand:wikidata":"Q1741993","brand:wikipedia":"en:Kinepolis","name":"Kinepolis"}},"amenity/cinema/pathe-484389":{"name":"Pathé","locationSet":{"include":["nl"]},"geometry":["point","area"],"matchScore":2,"terms":["pathé"],"fields":["name","brand","{amenity/cinema}"],"tags":{"amenity":"cinema","brand:wikidata":"Q61959392"},"addTags":{"amenity":"cinema","brand":"Pathé","brand:wikidata":"Q61959392","brand:wikipedia":"nl:Pathé Nederland","name":"Pathé"}},"amenity/cinema/vue-484389":{"name":"Vue (Netherlands)","locationSet":{"include":["nl"]},"geometry":["point","area"],"matchScore":2,"terms":["vue","vue cinema"],"fields":["name","brand","{amenity/cinema}"],"tags":{"amenity":"cinema","brand:wikidata":"Q2421690"},"addTags":{"amenity":"cinema","brand":"Vue","brand:wikidata":"Q2421690","brand:wikipedia":"nl:Vue (bioscoopketen)","name":"Vue"}},"amenity/fast_food/bramladage-60a83c":{"name":"Bram Ladage","locationSet":{"include":["nl"]},"geometry":["point","area"],"matchScore":2,"terms":["bram ladage"],"tags":{"amenity":"fast_food","brand:wikidata":"Q2216467"},"addTags":{"amenity":"fast_food","brand":"Bram Ladage","brand:wikidata":"Q2216467","brand:wikipedia":"nl:Bram Ladage","cuisine":"friture","name":"Bram Ladage","takeaway":"yes"}},"amenity/fast_food/burger/burgerme-29392a":{"name":"burgerme","locationSet":{"include":["de","nl"]},"geometry":["point","area"],"matchScore":2,"terms":["burgerme"],"reference":{"key":"cuisine","value":"burger"},"tags":{"amenity":"fast_food","brand:wikidata":"Q108866856","cuisine":"burger"},"addTags":{"amenity":"fast_food","brand":"burgerme","brand:wikidata":"Q108866856","cuisine":"burger","delivery":"yes","name":"burgerme","takeaway":"yes"}},"amenity/fast_food/sandwich/exki-a3472e":{"name":"Exki","locationSet":{"include":["be","es","fr","it","lu","nl"]},"geometry":["point","area"],"matchScore":2,"terms":["exki"],"reference":{"key":"cuisine","value":"sandwich"},"tags":{"amenity":"fast_food","brand:wikidata":"Q251760","cuisine":"healthy;sandwich;salad;pie"},"addTags":{"amenity":"fast_food","brand":"Exki","brand:wikidata":"Q251760","brand:wikipedia":"fr:Exki","cuisine":"healthy;sandwich;salad;pie","diet:vegetarian":"yes","name":"Exki","takeaway":"yes"}},"amenity/fast_food/febo-60a83c":{"name":"FEBO","locationSet":{"include":["nl"]},"geometry":["point","area"],"matchScore":2,"terms":["febo"],"tags":{"amenity":"fast_food","brand:wikidata":"Q582245"},"addTags":{"amenity":"fast_food","brand":"FEBO","brand:wikidata":"Q582245","brand:wikipedia":"nl:Febo (snackbar)","cuisine":"friture","name":"FEBO","takeaway":"yes"}},"amenity/fast_food/burger/fiveguys-200282":{"name":"Five Guys","locationSet":{"include":["ae","be","ca","de","es","fr","gb","hk","ie","it","kw","lu","nl","qa","sa","sg","us"]},"geometry":["point","area"],"matchScore":2,"terms":["five guys","five guys burgers and fries"],"reference":{"key":"cuisine","value":"burger"},"tags":{"amenity":"fast_food","brand:wikidata":"Q1131810","cuisine":"burger"},"addTags":{"amenity":"fast_food","brand":"Five Guys","brand:wikidata":"Q1131810","brand:wikipedia":"en:Five Guys","cuisine":"burger","name":"Five Guys","official_name":"Five Guys Burgers and Fries","takeaway":"yes"}},"amenity/fast_food/foodmaster-60a83c":{"name":"Foodmaster","locationSet":{"include":["nl"]},"geometry":["point","area"],"matchScore":2,"terms":["foodmaster"],"tags":{"amenity":"fast_food","brand:wikidata":"Q108920789"},"addTags":{"amenity":"fast_food","brand":"Foodmaster","brand:wikidata":"Q108920789","cuisine":"friture","name":"Foodmaster","takeaway":"yes"}},"amenity/fast_food/chicken/halalfriedchicken-7b9471":{"name":"Halal Fried Chicken","locationSet":{"include":["be","nl"]},"geometry":["point","area"],"matchScore":2,"terms":["halal fried chicken","hfc"],"reference":{"key":"cuisine","value":"chicken"},"tags":{"amenity":"fast_food","brand:wikidata":"Q108133913","cuisine":"chicken"},"addTags":{"amenity":"fast_food","brand":"Halal Fried Chicken","brand:wikidata":"Q108133913","cuisine":"chicken","diet:halal":"only","name":"Halal Fried Chicken","short_name":"HFC","takeaway":"yes"}},"amenity/fast_food/burger/johnnysburgercompany-60a83c":{"name":"Johnny\u2019s Burger Company","locationSet":{"include":["nl"]},"geometry":["point","area"],"matchScore":2,"terms":["johnny\u2019s burger company"],"reference":{"key":"cuisine","value":"burger"},"tags":{"amenity":"fast_food","brand:wikidata":"Q108920805","cuisine":"burger"},"addTags":{"amenity":"fast_food","brand":"Johnny\u2019s Burger Company","brand:wikidata":"Q108920805","cuisine":"burger","name":"Johnny\u2019s Burger Company","takeaway":"yes"}},"amenity/fast_food/chicken/kippie-60a83c":{"name":"Kippie","locationSet":{"include":["nl"]},"geometry":["point","area"],"matchScore":2,"terms":["kippie"],"reference":{"key":"cuisine","value":"chicken"},"tags":{"amenity":"fast_food","brand:wikidata":"Q65970311","cuisine":"chicken"},"addTags":{"amenity":"fast_food","brand":"Kippie","brand:wikidata":"Q65970311","brand:wikipedia":"nl:Kippie","cuisine":"chicken","name":"Kippie","takeaway":"yes"}},"amenity/fast_food/kwalitaria-60a83c":{"name":"Kwalitaria","locationSet":{"include":["nl"]},"geometry":["point","area"],"matchScore":2,"terms":["kwalitaria"],"tags":{"amenity":"fast_food","brand:wikidata":"Q108923597"},"addTags":{"amenity":"fast_food","brand":"Kwalitaria","brand:wikidata":"Q108923597","cuisine":"friture","name":"Kwalitaria","takeaway":"yes"}},"amenity/fast_food/burger/leon-04566a":{"name":"LEON","locationSet":{"include":["ch","gb","ie","nl"]},"geometry":["point","area"],"matchScore":2,"terms":["leon"],"reference":{"key":"cuisine","value":"burger"},"tags":{"amenity":"fast_food","brand:wikidata":"Q6524851","cuisine":"burger;sandwich"},"addTags":{"amenity":"fast_food","brand":"LEON","brand:wikidata":"Q6524851","brand:wikipedia":"en:Leon Restaurants","cuisine":"burger;sandwich","name":"LEON","takeaway":"yes"}},"amenity/fast_food/pizza/newyorkpizza-60a83c":{"name":"New York Pizza","locationSet":{"include":["nl"]},"geometry":["point","area"],"matchScore":2,"terms":["new york pizza"],"reference":{"key":"cuisine","value":"pizza"},"tags":{"amenity":"fast_food","brand:wikidata":"Q2639128","cuisine":"pizza"},"addTags":{"amenity":"fast_food","brand":"New York Pizza","brand:wikidata":"Q2639128","brand:wikipedia":"nl:New York Pizza","cuisine":"pizza","name":"New York Pizza","takeaway":"yes"}},"amenity/fast_food/sandwich/panos-f9b8a7":{"name":"Panos","locationSet":{"include":["ae","be","cz","nl","sk","tw"]},"geometry":["point","area"],"matchScore":2,"terms":["panos"],"reference":{"key":"cuisine","value":"sandwich"},"tags":{"amenity":"fast_food","brand:wikidata":"Q3384496","cuisine":"sandwich"},"addTags":{"amenity":"fast_food","brand":"Panos","brand:wikidata":"Q3384496","brand:wikipedia":"nl:Panos","cuisine":"sandwich","name":"Panos","takeaway":"yes"}},"amenity/fast_food/sandwich/pretamanger-4aea2b":{"name":"Pret A Manger","locationSet":{"include":["ae","cn","de","dk","fr","gb","hk","nl","sg","us"]},"geometry":["point","area"],"matchScore":2,"terms":["pret","pret a manger"],"reference":{"key":"cuisine","value":"sandwich"},"tags":{"amenity":"fast_food","brand:wikidata":"Q2109109","cuisine":"sandwich"},"addTags":{"amenity":"fast_food","brand":"Pret A Manger","brand:wikidata":"Q2109109","brand:wikipedia":"en:Pret a Manger","cuisine":"sandwich","name":"Pret A Manger","short_name":"Pret","takeaway":"yes"}},"amenity/fast_food/smullers-60a83c":{"name":"Smullers","locationSet":{"include":["nl"]},"geometry":["point","area"],"matchScore":2,"terms":["smullers"],"tags":{"amenity":"fast_food","brand:wikidata":"Q92552501"},"addTags":{"amenity":"fast_food","brand":"Smullers","brand:wikidata":"Q92552501","cuisine":"friture","name":"Smullers","takeaway":"yes"}},"amenity/fast_food/spareribexpress-60a83c":{"name":"Spare Rib Express","locationSet":{"include":["nl"]},"geometry":["point","area"],"matchScore":2,"terms":["spare rib express"],"tags":{"amenity":"fast_food","brand:wikidata":"Q108923605"},"addTags":{"amenity":"fast_food","brand":"Spare Rib Express","brand:wikidata":"Q108923605","cuisine":"barbecue","name":"Spare Rib Express","takeaway":"yes"}},"amenity/fast_food/sushipoint-60a83c":{"name":"SushiPoint","locationSet":{"include":["nl"]},"geometry":["point","area"],"matchScore":2,"terms":["sushipoint"],"tags":{"amenity":"fast_food","brand:wikidata":"Q108923610"},"addTags":{"amenity":"fast_food","brand":"SushiPoint","brand:wikidata":"Q108923610","cuisine":"sushi","name":"SushiPoint","takeaway":"yes"}},"amenity/fast_food/mexican/tacomundo-60a83c":{"name":"Taco Mundo","locationSet":{"include":["nl"]},"geometry":["point","area"],"matchScore":2,"terms":["taco mundo"],"reference":{"key":"cuisine","value":"mexican"},"tags":{"amenity":"fast_food","brand:wikidata":"Q108923671","cuisine":"mexican"},"addTags":{"amenity":"fast_food","brand":"Taco Mundo","brand:wikidata":"Q108923671","cuisine":"mexican","name":"Taco Mundo","takeaway":"yes"}},"amenity/fast_food/kebab/thedonercompany-60a83c":{"name":"The Döner Company","locationSet":{"include":["nl"]},"geometry":["point","area"],"matchScore":2,"terms":["doner company","the döner company"],"reference":{"key":"cuisine","value":"kebab"},"tags":{"amenity":"fast_food","brand:wikidata":"Q108923682","cuisine":"kebab"},"addTags":{"amenity":"fast_food","brand":"The Döner Company","brand:wikidata":"Q108923682","cuisine":"kebab","name":"The Döner Company","takeaway":"yes"}},"amenity/fast_food/verhage-60a83c":{"name":"Verhage","locationSet":{"include":["nl"]},"geometry":["point","area"],"matchScore":2,"terms":["verhage"],"tags":{"amenity":"fast_food","brand:wikidata":"Q27169843"},"addTags":{"amenity":"fast_food","brand":"Verhage","brand:wikidata":"Q27169843","brand:wikipedia":"nl:Verhage","cuisine":"friture","name":"Verhage","takeaway":"yes"}},"amenity/fuel/argos-6cdea6":{"name":"Argos","locationSet":{"include":["nl"]},"geometry":["point","area"],"matchScore":2,"terms":["argos"],"fields":["name","brand","{amenity/fuel}"],"tags":{"amenity":"fuel","brand:wikidata":"Q4750477"},"addTags":{"amenity":"fuel","brand":"Argos","brand:wikidata":"Q4750477","brand:wikipedia":"nl:Argos Oil","name":"Argos"}},"amenity/fuel/as24-3463db":{"name":"AS 24","locationSet":{"include":["at","be","bg","cz","de","dk","es","fr","gb","ge","gr","hr","hu","ie","it","lt","lu","mk","nl","pl","pt","ro","rs","se","si","sk","ua"]},"geometry":["point","area"],"matchScore":2,"terms":["as 24"],"fields":["name","brand","{amenity/fuel}"],"tags":{"amenity":"fuel","brand:wikidata":"Q2819394"},"addTags":{"amenity":"fuel","brand":"AS 24","brand:wikidata":"Q2819394","brand:wikipedia":"fr:AS 24 (entreprise)","hgv":"only","name":"AS 24"}},"amenity/fuel/auchan-fcb99f":{"name":"Auchan","locationSet":{"include":["al","ad","ba","hr","gi","gr","va","it","mt","me","mk","pt","sm","rs","si","es","xk","by","bg","cz","hu","pl","md","ro","ru","sk","ua","at","be","fr","de","li","lu","mc","nl","ch"]},"geometry":["point","area"],"matchScore":2,"terms":["auchan"],"fields":["name","brand","{amenity/fuel}"],"tags":{"amenity":"fuel","brand:wikidata":"Q758603"},"addTags":{"amenity":"fuel","brand":"Auchan","brand:wikidata":"Q758603","brand:wikipedia":"en:Auchan","name":"Auchan"}},"amenity/fuel/avia-e0aaf8":{"name":"Avia","locationSet":{"include":["at","be","bg","ch","cz","de","es","fr","hu","it","nl","pl","pt","rs","ua"]},"geometry":["point","area"],"matchScore":2,"terms":["avia","station avia"],"fields":["name","brand","{amenity/fuel}"],"tags":{"amenity":"fuel","brand:wikidata":"Q300147"},"addTags":{"amenity":"fuel","brand":"Avia","brand:wikidata":"Q300147","brand:wikipedia":"de:Avia International","name":"Avia"}},"amenity/fuel/elan-3c75bd":{"name":"Elan","locationSet":{"include":["de","fr","nl"]},"geometry":["point","area"],"matchScore":2,"terms":["elan"],"fields":["name","brand","{amenity/fuel}"],"tags":{"amenity":"fuel","brand:wikidata":"Q57980752"},"addTags":{"amenity":"fuel","brand":"Elan","brand:wikidata":"Q57980752","name":"Elan"}},"amenity/fuel/fietenolie-6cdea6":{"name":"Fieten Olie","locationSet":{"include":["nl"]},"geometry":["point","area"],"matchScore":2,"terms":["fieten olie"],"fields":["name","brand","{amenity/fuel}"],"tags":{"amenity":"fuel","brand:wikidata":"Q98837500"},"addTags":{"amenity":"fuel","brand":"Fieten Olie","brand:wikidata":"Q98837500","name":"Fieten Olie"}},"amenity/fuel/firezone-6cdea6":{"name":"Firezone","locationSet":{"include":["nl"]},"geometry":["point","area"],"matchScore":2,"terms":["firezone"],"fields":["name","brand","{amenity/fuel}"],"tags":{"amenity":"fuel","brand:wikidata":"Q14628080"},"addTags":{"amenity":"fuel","brand":"Firezone","brand:wikidata":"Q14628080","brand:wikipedia":"nl:Firezone","name":"Firezone"}},"amenity/fuel/haan-6cdea6":{"name":"Haan","locationSet":{"include":["nl"]},"geometry":["point","area"],"matchScore":2,"terms":["haan"],"fields":["name","brand","{amenity/fuel}"],"tags":{"amenity":"fuel","brand:wikidata":"Q92553521"},"addTags":{"amenity":"fuel","brand":"Haan","brand:wikidata":"Q92553521","name":"Haan"}},"amenity/fuel/q8-7bb553":{"name":"Q8","locationSet":{"include":["be","dk","es","it","lu","nl","pt"]},"geometry":["point","area"],"matchScore":2,"terms":["q8"],"fields":["name","brand","{amenity/fuel}"],"tags":{"amenity":"fuel","brand:wikidata":"Q1634762"},"addTags":{"amenity":"fuel","brand":"Q8","brand:wikidata":"Q1634762","brand:wikipedia":"en:Kuwait Petroleum Corporation","name":"Q8"}},"amenity/fuel/tamoil-c25a01":{"name":"Tamoil","locationSet":{"include":["ch","de","es","fr","it","nl"]},"geometry":["point","area"],"matchScore":2,"terms":["tamoil"],"fields":["name","brand","{amenity/fuel}"],"tags":{"amenity":"fuel","brand:wikidata":"Q706793"},"addTags":{"amenity":"fuel","brand":"Tamoil","brand:wikidata":"Q706793","brand:wikipedia":"en:Tamoil","name":"Tamoil"}},"amenity/fuel/tango-e5aa28":{"name":"Tango","locationSet":{"include":["be","nl"]},"geometry":["point","area"],"matchScore":2,"terms":["tango"],"fields":["name","brand","{amenity/fuel}"],"tags":{"amenity":"fuel","brand:wikidata":"Q2423920"},"addTags":{"amenity":"fuel","brand":"Tango","brand:wikidata":"Q2423920","brand:wikipedia":"nl:Tango CV","name":"Tango"}},"amenity/fuel/tinq-56839d":{"name":"Tinq","locationSet":{"include":["de","nl"]},"geometry":["point","area"],"matchScore":2,"terms":["tinq"],"fields":["name","brand","{amenity/fuel}"],"tags":{"amenity":"fuel","brand:wikidata":"Q2132028"},"addTags":{"amenity":"fuel","brand":"Tinq","brand:wikidata":"Q2132028","brand:wikipedia":"nl:Tinq","name":"Tinq"}},"amenity/ice_cream/toscana-e6af0f":{"name":"Toscana","locationSet":{"include":["nl"]},"geometry":["point","area"],"matchScore":2,"terms":["toscana"],"tags":{"amenity":"ice_cream","brand:wikidata":"Q92555442"},"addTags":{"amenity":"ice_cream","brand":"Toscana","brand:wikidata":"Q92555442","name":"Toscana"}},"amenity/pharmacy/benu-1cd44c":{"name":"Benu","locationSet":{"include":["ch","cz","ee","hu","lt","lv","me","nl","rs","sk"]},"geometry":["point","area"],"matchScore":2,"terms":["benu","benu aptieka","benu vaistinė"],"reference":{"key":"amenity","value":"pharmacy"},"tags":{"amenity":"pharmacy","brand:wikidata":"Q62562792"},"addTags":{"amenity":"pharmacy","brand":"Benu","brand:wikidata":"Q62562792","healthcare":"pharmacy","name":"Benu"}},"amenity/restaurant/tzusje-2b67bf":{"name":"'t Zusje","locationSet":{"include":["nl"]},"geometry":["point","area"],"matchScore":2,"terms":["'t zusje"],"tags":{"amenity":"restaurant","brand:wikidata":"Q108920510"},"addTags":{"amenity":"restaurant","brand":"'t Zusje","brand:wikidata":"Q108920510","cuisine":"tapas","name":"'t Zusje"}},"amenity/restaurant/french/campanile-ee8eff":{"name":"Campanile","locationSet":{"include":["fr","gb","nl"]},"geometry":["point","area"],"matchScore":2,"terms":["campanile"],"reference":{"key":"cuisine","value":"french"},"tags":{"amenity":"restaurant","brand:wikidata":"Q2412064","cuisine":"french"},"addTags":{"amenity":"restaurant","brand":"Campanile","brand:wikidata":"Q2412064","brand:wikipedia":"fr:Campanile (chaîne d'hôtels)","cuisine":"french","name":"Campanile"}},"amenity/restaurant/deberen-2b67bf":{"name":"De Beren","locationSet":{"include":["nl"]},"geometry":["point","area"],"matchScore":2,"terms":["de beren"],"tags":{"amenity":"restaurant","brand:wikidata":"Q108920524"},"addTags":{"amenity":"restaurant","brand":"De Beren","brand:wikidata":"Q108920524","name":"De Beren"}},"amenity/restaurant/italian/happyitaly-2b67bf":{"name":"Happy Italy","locationSet":{"include":["nl"]},"geometry":["point","area"],"matchScore":2,"terms":["happy italy"],"reference":{"key":"cuisine","value":"italian"},"tags":{"amenity":"restaurant","brand:wikidata":"Q107669916","cuisine":"italian"},"addTags":{"amenity":"restaurant","brand":"Happy Italy","brand:wikidata":"Q107669916","brand:wikipedia":"nl:Happy Italy","cuisine":"italian","name":"Happy Italy"}},"amenity/restaurant/italian/losteria-454d96":{"name":"L'Osteria","locationSet":{"include":["at","ch","cz","de","fr","gb","nl"]},"geometry":["point","area"],"matchScore":2,"terms":["l'osteria"],"reference":{"key":"cuisine","value":"italian"},"tags":{"amenity":"restaurant","brand:wikidata":"Q17323478","cuisine":"italian"},"addTags":{"amenity":"restaurant","brand":"L'Osteria","brand:wikidata":"Q17323478","brand:wikipedia":"de:L\u2019Osteria","cuisine":"italian","name":"L'Osteria"}},"amenity/restaurant/lacubanita-2b67bf":{"name":"La Cubanita","locationSet":{"include":["nl"]},"geometry":["point","area"],"matchScore":2,"terms":["la cubanita"],"tags":{"amenity":"restaurant","brand:wikidata":"Q108920601"},"addTags":{"amenity":"restaurant","brand":"La Cubanita","brand:wikidata":"Q108920601","cuisine":"tapas","name":"La Cubanita"}},"amenity/restaurant/loetje-2b67bf":{"name":"Loetje","locationSet":{"include":["nl"]},"geometry":["point","area"],"matchScore":2,"terms":["loetje"],"tags":{"amenity":"restaurant","brand:wikidata":"Q60729740"},"addTags":{"amenity":"restaurant","brand":"Loetje","brand:wikidata":"Q60729740","brand:wikipedia":"nl:Loetje","cuisine":"steak_house","diet:meat":"yes","diet:vegan":"no","diet:vegetarian":"limited","name":"Loetje","takeaway":"yes"}},"amenity/social_facility/stationswerk-4d2292":{"name":"Stationswerk","locationSet":{"include":["nl"]},"geometry":["point","area"],"matchScore":2,"terms":["stationswerk"],"tags":{"amenity":"social_facility","brand:wikidata":"Q801713"},"addTags":{"amenity":"social_facility","brand":"Stationswerk","brand:wikidata":"Q801713","brand:wikipedia":"nl:Stationswerk","name":"Stationswerk","social_facility":"outreach","social_facility:for":"homeless;underprivileged"}},"amenity/vending_machine/continental-123edb":{"name":"Continental","locationSet":{"include":["by","bg","cz","hu","pl","md","ro","ru","sk","ua","ax","gg","je","cq","dk","ee","fo","fi","is","ie","im","lv","lt","no","sj","se","gb","al","ad","ba","hr","gi","gr","va","it","mt","me","mk","pt","sm","rs","si","es","xk","at","be","fr","de","li","lu","mc","nl","ch"]},"geometry":["point","vertex"],"matchScore":2,"terms":["continental"],"tags":{"amenity":"vending_machine","brand:wikidata":"Q64739247"},"addTags":{"amenity":"vending_machine","brand":"Continental","brand:wikidata":"Q64739247","brand:wikipedia":"de:Continental Reifen GmbH","name":"Continental","vending":"bicycle_tube"}},"amenity/vending_machine/schwalbe-123edb":{"name":"Schwalbe","locationSet":{"include":["by","bg","cz","hu","pl","md","ro","ru","sk","ua","ax","gg","je","cq","dk","ee","fo","fi","is","ie","im","lv","lt","no","sj","se","gb","al","ad","ba","hr","gi","gr","va","it","mt","me","mk","pt","sm","rs","si","es","xk","at","be","fr","de","li","lu","mc","nl","ch"]},"geometry":["point","vertex"],"matchScore":2,"terms":["schwalbe"],"tags":{"amenity":"vending_machine","brand:wikidata":"Q1312213"},"addTags":{"amenity":"vending_machine","brand":"Schwalbe","brand:wikidata":"Q1312213","brand:wikipedia":"de:Ralf Bohle GmbH","name":"Schwalbe","vending":"bicycle_tube"}},"amenity/vending_machine/selecta-ed4d31":{"name":"Selecta","locationSet":{"include":["at","be","ch","de","dk","es","fi","fr","ie","it","li","lu","nl","no","se","uk"]},"geometry":["point","vertex"],"matchScore":2,"terms":["selecta"],"tags":{"amenity":"vending_machine","brand:wikidata":"Q472153"},"addTags":{"amenity":"vending_machine","brand":"Selecta","brand:wikidata":"Q472153","brand:wikipedia":"en:Selecta (company)"}},"leisure/fitness_centre/basicfit-4741dc":{"name":"Basic-Fit","locationSet":{"include":["be","es","fr","lu","nl"]},"geometry":["point","area"],"matchScore":2,"terms":["basic-fit"],"tags":{"brand:wikidata":"Q40165577","leisure":"fitness_centre"},"addTags":{"brand":"Basic-Fit","brand:wikidata":"Q40165577","brand:wikipedia":"nl:Basic-Fit","leisure":"fitness_centre","name":"Basic-Fit"}},"leisure/fitness_centre/snapfitness-551086":{"name":"Snap Fitness","locationSet":{"include":["ae","au","be","ca","es","gb","hk","id","ie","jp","mx","nl","nz","ph","tr","tw","us"]},"geometry":["point","area"],"matchScore":2,"terms":["snap fitness"],"tags":{"brand:wikidata":"Q7547254","leisure":"fitness_centre"},"addTags":{"brand":"Snap Fitness","brand:wikidata":"Q7547254","brand:wikipedia":"en:Snap Fitness","leisure":"fitness_centre","name":"Snap Fitness"}},"office/estate_agent/vonpollrealestate-c99072":{"name":"von Poll Real Estate","locationSet":{"include":["by","bg","cz","hu","pl","md","ro","ru","sk","ua","ax","gg","je","cq","dk","ee","fo","fi","is","ie","im","lv","lt","no","sj","se","gb","al","ad","ba","hr","gi","gr","va","it","mt","me","mk","pt","sm","rs","si","es","xk","at","be","fr","de","li","lu","mc","nl","ch"],"exclude":["at","de"]},"geometry":["point","area"],"matchScore":2,"terms":["von poll immobilien","von poll real estate","vonpoll","vonpoll commercial"],"tags":{"brand:wikidata":"Q96026696","office":"estate_agent"},"addTags":{"brand":"von Poll Real Estate","brand:wikidata":"Q96026696","brand:wikipedia":"de:Von Poll Immobilien","name":"von Poll Real Estate","office":"estate_agent"}},"shop/alcohol/dirckiii-e09280":{"name":"Dirck III","locationSet":{"include":["nl"]},"geometry":["point","area"],"matchScore":2,"terms":["dirck 3","dirck iii"],"tags":{"brand:wikidata":"Q109188079","shop":"alcohol"},"addTags":{"brand":"Dirck III","brand:wikidata":"Q109188079","name":"Dirck III","shop":"alcohol"}},"shop/alcohol/gallandgall-e09280":{"name":"Gall & Gall","locationSet":{"include":["nl"]},"geometry":["point","area"],"matchScore":2,"terms":["gall & gall"],"tags":{"brand:wikidata":"Q13639185","shop":"alcohol"},"addTags":{"brand":"Gall & Gall","brand:wikidata":"Q13639185","brand:wikipedia":"nl:Gall & Gall","name":"Gall & Gall","shop":"alcohol"}},"shop/alcohol/mitra-e09280":{"name":"Mitra","locationSet":{"include":["nl"]},"geometry":["point","area"],"matchScore":2,"terms":["mitra"],"tags":{"brand:wikidata":"Q109186241","shop":"alcohol"},"addTags":{"brand":"Mitra","brand:wikidata":"Q109186241","name":"Mitra","shop":"alcohol"}},"shop/bakery/backwerk-5fc8b1":{"name":"Backwerk","locationSet":{"include":["at","ch","de","gb","nl"]},"geometry":["point","area"],"matchScore":2,"terms":["backwerk"],"tags":{"brand:wikidata":"Q798298","shop":"bakery"},"addTags":{"brand":"BackWerk","brand:wikidata":"Q798298","brand:wikipedia":"de:BackWerk","name":"Backwerk","shop":"bakery"}},"shop/bakery/bakkerbart-8ba7df":{"name":"Bakker Bart","locationSet":{"include":["be","nl"]},"geometry":["point","area"],"matchScore":2,"terms":["bakker bart"],"tags":{"brand:wikidata":"Q2177445","shop":"bakery"},"addTags":{"brand":"Bakker Bart","brand:wikidata":"Q2177445","brand:wikipedia":"nl:Bakker Bart","name":"Bakker Bart","shop":"bakery"}},"shop/bakery/deechtebakker-8eaf6b":{"name":"De Echte Bakker","locationSet":{"include":["nl"]},"geometry":["point","area"],"matchScore":2,"terms":["de echte bakker"],"tags":{"brand:wikidata":"Q16920716","shop":"bakery"},"addTags":{"brand":"De Echte Bakker","brand:wikidata":"Q16920716","brand:wikipedia":"en:De Echte Bakker","name":"De Echte Bakker","shop":"bakery"}},"shop/bed/beterbed-3030e1":{"name":"Beter Bed","locationSet":{"include":["be","nl"]},"geometry":["point","area"],"matchScore":2,"terms":["beter bed"],"tags":{"brand:wikidata":"Q831076","shop":"bed"},"addTags":{"brand":"Beter Bed","brand:wikidata":"Q831076","brand:wikipedia":"nl:Beter Bed","name":"Beter Bed","shop":"bed"}},"shop/bicycle/stella-75e76c":{"name":"Stella","locationSet":{"include":["be","de","nl"]},"geometry":["point","area"],"matchScore":2,"terms":["stella"],"tags":{"brand:wikidata":"Q98299138","shop":"bicycle"},"addTags":{"brand":"Stella","brand:wikidata":"Q98299138","name":"Stella","shop":"bicycle"}},"shop/books/ako-1267b5":{"name":"AKO","locationSet":{"include":["nl"]},"geometry":["point","area"],"matchScore":2,"terms":["ako"],"tags":{"brand:wikidata":"Q2159963","shop":"books"},"addTags":{"brand":"AKO","brand:wikidata":"Q2159963","brand:wikipedia":"nl:Amsterdamsche Kiosk Onderneming","name":"AKO","shop":"books"}},"shop/books/boekenvoordeel-1267b5":{"name":"Boekenvoordeel","locationSet":{"include":["nl"]},"geometry":["point","area"],"matchScore":2,"terms":["boekenvoordeel"],"tags":{"brand:wikidata":"Q3345649","shop":"books"},"addTags":{"brand":"Boekenvoordeel","brand:wikidata":"Q3345649","brand:wikipedia":"nl:Boekenvoordeel","name":"Boekenvoordeel","shop":"books"}},"shop/books/bruna-1267b5":{"name":"Bruna","locationSet":{"include":["nl"]},"geometry":["point","area"],"matchScore":2,"terms":["bruna"],"tags":{"brand:wikidata":"Q3317555","shop":"books"},"addTags":{"brand":"Bruna","brand:wikidata":"Q3317555","brand:wikipedia":"nl:Bruna (winkelketen)","name":"Bruna","shop":"books"}},"shop/books/buchhandlungwaltherkonig-bb573d":{"name":"Buchhandlung Walther König","locationSet":{"include":["at","be","de","fr","gb","it","nl"]},"geometry":["point","area"],"matchScore":2,"terms":["buchhandlung könig","buchhandlung walther könig","könig","walther könig"],"tags":{"brand:wikidata":"Q998441","shop":"books"},"addTags":{"brand":"Buchhandlung Walther König","brand:wikidata":"Q998441","brand:wikipedia":"de:Buchhandlung Walther König","name":"Buchhandlung Walther König","shop":"books"}},"shop/books/fnac-8c3017":{"name":"Fnac","locationSet":{"include":["be","ch","es","fr","nl","pt"]},"geometry":["point","area"],"matchScore":2,"terms":["fnac"],"tags":{"brand:wikidata":"Q676585","shop":"books"},"addTags":{"brand":"Fnac","brand:wikidata":"Q676585","brand:wikipedia":"en:Fnac","name":"Fnac","shop":"books"}},"shop/books/waterstones-3a34ca":{"name":"Waterstones","locationSet":{"include":["be","gb","ie","je","nl"]},"geometry":["point","area"],"matchScore":2,"terms":["waterstones"],"tags":{"brand:wikidata":"Q151779","shop":"books"},"addTags":{"brand":"Waterstones","brand:wikidata":"Q151779","brand:wikipedia":"en:Waterstones","name":"Waterstones","shop":"books"}},"shop/car/karma-40d0fc":{"name":"Karma","locationSet":{"include":["be","ca","cn","ec","es","fr","il","is","nl","pa","se","us"]},"geometry":["point","area"],"matchScore":2,"terms":["karma automotive"],"fields":["name","brand","{shop/car}"],"tags":{"brand:wikidata":"Q22671741","shop":"car"},"addTags":{"brand":"Karma Automotive","brand:wikidata":"Q22671741","brand:wikipedia":"en:Karma Automotive","name":"Karma","shop":"car"}},"shop/car/polestar-adf3f2":{"name":"Polestar Spaces","locationSet":{"include":["be","ca","cn","de","gb","nl","no","se","us"]},"geometry":["point","area"],"matchScore":2,"terms":["polestar","polestar racing"],"fields":["name","brand","{shop/car}"],"tags":{"brand:wikidata":"Q4047174","shop":"car"},"addTags":{"brand":"Polestar","brand:wikidata":"Q4047174","brand:wikipedia":"en:Polestar","name":"Polestar","shop":"car"}},"shop/car/smart-f30ed8":{"name":"Smart","locationSet":{"include":["by","bg","cz","hu","pl","md","ro","ru","sk","ua","ax","gg","je","cq","dk","ee","fo","fi","is","ie","im","lv","lt","no","sj","se","gb","al","ad","ba","hr","gi","gr","va","it","mt","me","mk","pt","sm","rs","si","es","xk","at","be","fr","de","li","lu","mc","nl","ch"]},"geometry":["point","area"],"matchScore":2,"terms":["smart"],"fields":["name","brand","{shop/car}"],"tags":{"brand:wikidata":"Q156490","shop":"car"},"addTags":{"brand":"Smart","brand:wikidata":"Q156490","brand:wikipedia":"en:Smart (marque)","name":"Smart","shop":"car"}},"shop/car_parts/automat-fc79b7":{"name":"Automat","locationSet":{"include":["nl"]},"geometry":["point","area"],"matchScore":2,"terms":["automat"],"tags":{"brand:wikidata":"Q70623238","shop":"car_parts"},"addTags":{"brand":"Automat","brand:wikidata":"Q70623238","name":"Automat","shop":"car_parts"}},"shop/car_parts/brezan-585e8e":{"name":"Brezan","locationSet":{"include":["be","nl"]},"geometry":["point","area"],"matchScore":2,"terms":["brezan"],"tags":{"brand:wikidata":"Q109266156","shop":"car_parts"},"addTags":{"brand":"Brezan","brand:wikidata":"Q109266156","name":"Brezan","shop":"car_parts"}},"shop/car_repair/euromaster-db76b7":{"name":"Euromaster","locationSet":{"include":["ch","de","es","fi","fr","nl","pt"]},"geometry":["point","area"],"matchScore":2,"terms":["euromaster"],"fields":["name","brand","{shop/car_repair}"],"tags":{"brand:wikidata":"Q3060668","shop":"car_repair"},"addTags":{"brand":"Euromaster","brand:wikidata":"Q3060668","brand:wikipedia":"de:Euromaster","name":"Euromaster","shop":"car_repair"}},"shop/car_repair/premio-354273":{"name":"Premio","locationSet":{"include":["be","bg","ch","cz","de","hu","nl","pl","ro","ru","sk"]},"geometry":["point","area"],"matchScore":2,"terms":["premio"],"fields":["name","brand","{shop/car_repair}"],"tags":{"brand:wikidata":"Q100895958","shop":"car_repair"},"addTags":{"brand":"Premio","brand:wikidata":"Q100895958","name":"Premio","shop":"car_repair"}},"shop/carpet/carpetright-68566f":{"name":"Carpetright","locationSet":{"include":["be","gb","ie","nl"]},"geometry":["point","area"],"matchScore":2,"terms":["carpetright"],"tags":{"brand:wikidata":"Q5045782","shop":"carpet"},"addTags":{"brand":"Carpetright","brand:wikidata":"Q5045782","brand:wikipedia":"en:Carpetright","name":"Carpetright","shop":"carpet"}},"shop/chemist/diegrenze-994f1e":{"name":"Die Grenze","locationSet":{"include":["nl"]},"geometry":["point","area"],"matchScore":2,"terms":["die grenze"],"tags":{"brand:wikidata":"Q100278556","shop":"chemist"},"addTags":{"brand":"Die Grenze","brand:wikidata":"Q100278556","brand:wikipedia":"nl:Die Grenze","name":"Die Grenze","shop":"chemist"}},"shop/chemist/etos-994f1e":{"name":"Etos","locationSet":{"include":["nl"]},"geometry":["point","area"],"matchScore":2,"terms":["etos"],"tags":{"brand:wikidata":"Q2609459","shop":"chemist"},"addTags":{"brand":"Etos","brand:wikidata":"Q2609459","brand:wikipedia":"nl:Etos","name":"Etos","shop":"chemist"}},"shop/chemist/kruidvat-9445a8":{"name":"Kruidvat","locationSet":{"include":["be","fr","nl"]},"geometry":["point","area"],"matchScore":2,"terms":["kruidvat"],"tags":{"brand:wikidata":"Q2226366","shop":"chemist"},"addTags":{"brand":"Kruidvat","brand:wikidata":"Q2226366","brand:wikipedia":"en:Kruidvat","name":"Kruidvat","shop":"chemist"}},"shop/chemist/trekpleister-994f1e":{"name":"Trekpleister","locationSet":{"include":["nl"]},"geometry":["point","area"],"matchScore":2,"terms":["trekpleister"],"tags":{"brand:wikidata":"Q2551576","shop":"chemist"},"addTags":{"brand":"Trekpleister","brand:wikidata":"Q2551576","brand:wikipedia":"nl:Trekpleister (drogisterij)","name":"Trekpleister","shop":"chemist"}},"shop/chocolate/leonidas-0e7f90":{"name":"Leonidas","locationSet":{"include":["be","cz","fr","gb","gr","nl"]},"geometry":["point","area"],"matchScore":2,"terms":["leonidas"],"tags":{"brand:wikidata":"Q80335","shop":"chocolate"},"addTags":{"brand":"Leonidas","brand:wikidata":"Q80335","brand:wikipedia":"en:Leonidas (chocolate maker)","name":"Leonidas","shop":"chocolate"}},"shop/clothes/abercrombieandfitch-c69677":{"name":"Abercrombie & Fitch","locationSet":{"include":["ae","be","ca","cn","de","es","fr","gb","hk","ie","it","jp","kw","mx","nl","qa","sa","sg","us"]},"geometry":["point","area"],"matchScore":2,"terms":["abercrombie & fitch"],"tags":{"brand:wikidata":"Q319344","shop":"clothes"},"addTags":{"brand":"Abercrombie & Fitch","brand:wikidata":"Q319344","brand:wikipedia":"en:Abercrombie & Fitch","clothes":"men;women","name":"Abercrombie & Fitch","shop":"clothes"}},"shop/clothes/abercrombiekids-a75dc9":{"name":"Abercrombie Kids","locationSet":{"include":["ae","ca","cn","de","gb","it","nl","sg","us"]},"geometry":["point","area"],"matchScore":2,"terms":["abercrombie kids"],"tags":{"brand:wikidata":"Q429856","shop":"clothes"},"addTags":{"brand":"Abercrombie Kids","brand:wikidata":"Q429856","brand:wikipedia":"en:Abercrombie Kids","clothes":"children","name":"Abercrombie Kids","shop":"clothes"}},"shop/clothes/bluetomato-fa8f79":{"name":"Blue Tomato","locationSet":{"include":["at","ch","de","fi","nl"]},"geometry":["point","area"],"matchScore":2,"terms":["blue tomato"],"tags":{"brand:wikidata":"Q107637238","shop":"clothes"},"addTags":{"brand":"Blue Tomato","brand:wikidata":"Q107637238","name":"Blue Tomato","shop":"clothes"}},"shop/clothes/bonita-51c18f":{"name":"BONITA","locationSet":{"include":["at","ch","de","nl"]},"geometry":["point","area"],"matchScore":2,"terms":["bonita"],"tags":{"brand:wikidata":"Q892598","shop":"clothes"},"addTags":{"brand":"BONITA","brand:wikidata":"Q892598","brand:wikipedia":"de:Bonita (Unternehmen)","clothes":"women","name":"BONITA","shop":"clothes"}},"shop/clothes/bonitamen-51c18f":{"name":"BONITA men","locationSet":{"include":["at","ch","de","nl"]},"geometry":["point","area"],"matchScore":2,"terms":["bonita men"],"tags":{"brand:wikidata":"Q892598","shop":"clothes"},"addTags":{"brand":"BONITA men","brand:wikidata":"Q892598","brand:wikipedia":"de:Bonita (Unternehmen)","clothes":"men","name":"BONITA men","shop":"clothes"}},"shop/clothes/bristol-5eeeb4":{"name":"Bristol","locationSet":{"include":["be","nl"]},"geometry":["point","area"],"matchScore":2,"terms":["bristol"],"tags":{"brand:wikidata":"Q75385157","shop":"clothes"},"addTags":{"brand":"Bristol","brand:wikidata":"Q75385157","name":"Bristol","shop":"clothes"}},"shop/clothes/calida-8b5460":{"name":"CALIDA","locationSet":{"include":["at","ch","de","fr","lu","nl","us"]},"geometry":["point","area"],"matchScore":2,"terms":["calida"],"tags":{"brand:wikidata":"Q693344","shop":"clothes"},"addTags":{"brand":"CALIDA","brand:wikidata":"Q693344","brand:wikipedia":"sv:Calida","name":"CALIDA","shop":"clothes"}},"shop/clothes/cecil-bfd647":{"name":"Cecil","locationSet":{"include":["at","de","nl"]},"geometry":["point","area"],"matchScore":2,"terms":["cecil"],"tags":{"brand:wikidata":"Q101246192","shop":"clothes"},"addTags":{"brand":"Cecil","brand:wikidata":"Q101246192","name":"Cecil","shop":"clothes"}},"shop/clothes/charlesvogele-900aa6":{"name":"Charles Vögele","locationSet":{"include":["at","be","ch","de","hu","nl"]},"geometry":["point","area"],"matchScore":2,"terms":["charles vögele","vögele"],"searchable":false,"tags":{"brand:wikidata":"Q1066326","shop":"clothes"},"addTags":{"brand":"Charles Vögele","brand:wikidata":"Q1066326","brand:wikipedia":"de:Charles Vögele Holding","name":"Charles Vögele","shop":"clothes","short_name":"Vögele"}},"shop/clothes/claudiastrater-5eeeb4":{"name":"Claudia Sträter","locationSet":{"include":["be","nl"]},"geometry":["point","area"],"matchScore":2,"terms":["claudia sträter"],"tags":{"brand:wikidata":"Q52903369","shop":"clothes"},"addTags":{"brand":"Claudia Sträter","brand:wikidata":"Q52903369","brand:wikipedia":"nl:Claudia Sträter","name":"Claudia Sträter","shop":"clothes"}},"shop/clothes/falke-d93616":{"name":"FALKE","locationSet":{"include":["ae","be","ch","de","nl","ru"]},"geometry":["point","area"],"matchScore":2,"terms":["falke"],"tags":{"brand:wikidata":"Q1394122","shop":"clothes"},"addTags":{"brand":"FALKE","brand:wikidata":"Q1394122","brand:wikipedia":"de:Falke (Unternehmen)","name":"FALKE","shop":"clothes"}},"shop/clothes/hallhuber-20ae39":{"name":"Hallhuber","locationSet":{"include":["at","ch","de","lu","nl"]},"geometry":["point","area"],"matchScore":2,"terms":["hallhuber"],"tags":{"brand:wikidata":"Q1571714","shop":"clothes"},"addTags":{"brand":"Hallhuber","brand:wikidata":"Q1571714","brand:wikipedia":"de:Hallhuber (Bekleidungshaus)","name":"Hallhuber","shop":"clothes"}},"shop/clothes/houtbrox-91c4cd":{"name":"HoutBrox","locationSet":{"include":["nl"]},"geometry":["point","area"],"matchScore":2,"terms":["houtbrox"],"tags":{"brand:wikidata":"Q20817421","shop":"clothes"},"addTags":{"brand":"HoutBrox","brand:wikidata":"Q20817421","brand:wikipedia":"nl:HoutBrox","name":"HoutBrox","shop":"clothes"}},"shop/clothes/underwear/hunkemoller-4950a4":{"name":"Hunkemöller","locationSet":{"include":["at","be","de","dk","es","lu","nl"]},"geometry":["point","area"],"matchScore":2,"terms":["hunkemöller"],"reference":{"key":"clothes","value":"underwear"},"tags":{"brand:wikidata":"Q2604175","clothes":"underwear","shop":"clothes"},"addTags":{"brand":"Hunkemöller","brand:wikidata":"Q2604175","brand:wikipedia":"en:Hunkemöller","clothes":"underwear","name":"Hunkemöller","shop":"clothes"}},"shop/clothes/ikks-859ec0":{"name":"Ikks","locationSet":{"include":["be","es","fr","lu","nl"]},"geometry":["point","area"],"matchScore":2,"terms":["ikks"],"tags":{"brand:wikidata":"Q3146711","shop":"clothes"},"addTags":{"brand":"Ikks","brand:wikidata":"Q3146711","brand:wikipedia":"fr:IKKS","name":"Ikks","shop":"clothes"}},"shop/clothes/kik-97626d":{"name":"KiK","locationSet":{"include":["at","cz","de","hr","hu","it","nl","pl","ro","si","sk"]},"geometry":["point","area"],"matchScore":2,"terms":["kik"],"tags":{"brand:wikidata":"Q883965","shop":"clothes"},"addTags":{"brand":"KiK","brand:wikidata":"Q883965","brand:wikipedia":"de:KiK","name":"KiK","shop":"clothes"}},"shop/clothes/maje-99ba8f":{"name":"Maje","locationSet":{"include":["by","bg","cz","hu","pl","md","ro","ru","sk","ua","ax","gg","je","cq","dk","ee","fo","fi","is","ie","im","lv","lt","no","sj","se","gb","al","ad","ba","hr","gi","gr","va","it","mt","me","mk","pt","sm","rs","si","es","xk","at","be","fr","de","li","lu","mc","nl","ch","cn","hk","sg","tw","uk","us"]},"geometry":["point","area"],"matchScore":2,"terms":["maje"],"tags":{"brand:wikidata":"Q3280458","shop":"clothes"},"addTags":{"brand":"Maje","brand:wikidata":"Q3280458","brand:wikipedia":"fr:Maje","clothes":"women","name":"Maje","shop":"clothes"}},"shop/clothes/marcopolo-3cd4a4":{"name":"Marc O'Polo","locationSet":{"include":["at","be","ch","de","nl","pl"]},"geometry":["point","area"],"matchScore":2,"terms":["marc o'polo"],"tags":{"brand:wikidata":"Q1892752","shop":"clothes"},"addTags":{"brand":"Marc O'Polo","brand:wikidata":"Q1892752","brand:wikipedia":"en:Marc O'Polo","name":"Marc O'Polo","shop":"clothes"}},"shop/clothes/msmode-4c46c3":{"name":"MS Mode","locationSet":{"include":["be","de","fr","lu","nl"]},"geometry":["point","area"],"matchScore":2,"terms":["ms mode"],"tags":{"brand:wikidata":"Q6718117","shop":"clothes"},"addTags":{"brand":"MS Mode","brand:wikidata":"Q6718117","brand:wikipedia":"nl:MS Mode","clothes":"women","name":"MS Mode","shop":"clothes"}},"shop/clothes/peekandcloppenburg-65e711":{"name":"Peek & Cloppenburg","locationSet":{"include":["at","be","de","nl","pl","sk"]},"geometry":["point","area"],"matchScore":2,"terms":["peek & cloppenburg"],"tags":{"brand:wikidata":"Q2066959","shop":"clothes"},"addTags":{"brand":"Peek & Cloppenburg","brand:wikidata":"Q2066959","brand:wikipedia":"en:Peek & Cloppenburg","name":"Peek & Cloppenburg","shop":"clothes"}},"shop/clothes/riverisland-a754e7":{"name":"River Island","locationSet":{"include":["gb","ie","im","nl","pl"]},"geometry":["point","area"],"matchScore":2,"terms":["river island"],"tags":{"brand:wikidata":"Q2670328","shop":"clothes"},"addTags":{"brand":"River Island","brand:wikidata":"Q2670328","brand:wikipedia":"en:River Island","name":"River Island","shop":"clothes"}},"shop/clothes/seidensticker-a4dacd":{"name":"Seidensticker","locationSet":{"include":["at","be","ch","cz","de","fr","it","lu","nl","pl"]},"geometry":["point","area"],"matchScore":2,"terms":["seidensticker"],"tags":{"brand:wikidata":"Q1797834","shop":"clothes"},"addTags":{"brand":"Seidensticker","brand:wikidata":"Q1797834","brand:wikipedia":"de:Seidensticker (Unternehmen)","name":"Seidensticker","shop":"clothes"}},"shop/clothes/shoeby-91c4cd":{"name":"Shoeby","locationSet":{"include":["nl"]},"geometry":["point","area"],"matchScore":2,"terms":["shoeby","shoeby fashion"],"tags":{"brand:wikidata":"Q109186138","shop":"clothes"},"addTags":{"brand":"Shoeby","brand:wikidata":"Q109186138","name":"Shoeby","shop":"clothes"}},"shop/clothes/streetone-1c3d1b":{"name":"Street One","locationSet":{"include":["at","be","ch","de","dk","nl"]},"geometry":["point","area"],"matchScore":2,"terms":["street one"],"tags":{"brand:wikidata":"Q61997265","shop":"clothes"},"addTags":{"brand":"Street One","brand:wikidata":"Q61997265","name":"Street One","shop":"clothes"}},"shop/clothes/takko-475eda":{"name":"Takko","locationSet":{"include":["at","cz","de","hu","nl","sk"]},"geometry":["point","area"],"matchScore":2,"terms":["takko","takko fashion"],"tags":{"brand:wikidata":"Q1371302","shop":"clothes"},"addTags":{"brand":"Takko","brand:wikidata":"Q1371302","brand:wikipedia":"de:Takko","name":"Takko","shop":"clothes"}},"shop/clothes/thesting-f7ce4c":{"name":"The Sting","locationSet":{"include":["be","de","gb","nl"]},"geometry":["point","area"],"matchScore":2,"terms":["the sting"],"tags":{"brand:wikidata":"Q2518794","shop":"clothes"},"addTags":{"brand":"The Sting","brand:wikidata":"Q2518794","brand:wikipedia":"nl:The Sting Companies","name":"The Sting","shop":"clothes"}},"shop/clothes/ullapopken-db652c":{"name":"Ulla Popken","locationSet":{"include":["at","be","ch","de","fr","nl"]},"geometry":["point","area"],"matchScore":2,"terms":["ulla popken"],"tags":{"brand:wikidata":"Q2475146","shop":"clothes"},"addTags":{"brand":"Ulla Popken","brand:wikidata":"Q2475146","brand:wikipedia":"en:Ulla Popken","name":"Ulla Popken","shop":"clothes"}},"shop/clothes/we-1dbf87":{"name":"WE","locationSet":{"include":["be","ch","de","nl"]},"geometry":["point","area"],"matchScore":2,"terms":["we","we fashion"],"tags":{"brand:wikidata":"Q1987861","shop":"clothes"},"addTags":{"brand":"WE","brand:wikidata":"Q1987861","brand:wikipedia":"en:WE (clothing)","name":"WE","shop":"clothes"}},"shop/clothes/wibra-5eeeb4":{"name":"Wibra","locationSet":{"include":["be","nl"]},"geometry":["point","area"],"matchScore":2,"terms":["wibra"],"tags":{"brand:wikidata":"Q943405","shop":"clothes"},"addTags":{"brand":"Wibra","brand:wikidata":"Q943405","brand:wikipedia":"en:Wibra","name":"Wibra","shop":"clothes"}},"shop/clothes/wolford-13402e":{"name":"Wolford","locationSet":{"include":["at","de","fr","gb","it","nl"]},"geometry":["point","area"],"matchScore":2,"terms":["wolford"],"tags":{"brand:wikidata":"Q431607","shop":"clothes"},"addTags":{"brand":"Wolford","brand:wikidata":"Q431607","brand:wikipedia":"en:Wolford","name":"Wolford","shop":"clothes"}},"shop/clothes/zeeman-4c46c3":{"name":"Zeeman","locationSet":{"include":["be","de","fr","lu","nl"]},"geometry":["point","area"],"matchScore":2,"terms":["zeeman"],"tags":{"brand:wikidata":"Q184399","shop":"clothes"},"addTags":{"brand":"Zeeman","brand:wikidata":"Q184399","brand:wikipedia":"en:Zeeman (store)","name":"Zeeman","shop":"clothes"}},"shop/computer/amac-0d9307":{"name":"Amac","locationSet":{"include":["nl"]},"geometry":["point","area"],"matchScore":2,"terms":["amac"],"tags":{"brand:wikidata":"Q109187530","shop":"computer"},"addTags":{"brand":"Amac","brand:wikidata":"Q109187530","name":"Amac","shop":"computer"}},"shop/confectionery/jamin-2c00a5":{"name":"Jamin","locationSet":{"include":["nl"]},"geometry":["point","area"],"matchScore":2,"terms":["jamin"],"tags":{"brand:wikidata":"Q2291848","shop":"confectionery"},"addTags":{"brand":"Jamin","brand:wikidata":"Q2291848","brand:wikipedia":"nl:Jamin","name":"Jamin","shop":"confectionery"}},"shop/convenience/albertheijntogo-f85122":{"name":"Albert Heijn to go","locationSet":{"include":["nl"]},"geometry":["point","area"],"matchScore":2,"terms":["ah to go","albert heijn to go"],"tags":{"brand:wikidata":"Q77971185","shop":"convenience"},"addTags":{"brand":"Albert Heijn to go","brand:wikidata":"Q77971185","name":"Albert Heijn to go","official_name":"AH to go","shop":"convenience"}},"shop/convenience/avia-3fdfc9":{"name":"Avia","locationSet":{"include":["at","be","bg","ch","cz","de","es","fr","hu","it","nl","pl","pt","rs","ua"]},"geometry":["point","area"],"matchScore":2,"terms":["avia"],"tags":{"brand:wikidata":"Q300147","shop":"convenience"},"addTags":{"brand":"Avia","brand:wikidata":"Q300147","brand:wikipedia":"de:Avia International","name":"Avia","shop":"convenience"}},"shop/convenience/minimix-57794c":{"name":"Mini Mix","locationSet":{"include":["at","be","cy","cz","de","es","fr","gb","gr","it","me","nl","pt"]},"geometry":["point","area"],"matchScore":2,"terms":["mini mix","mini mix markt"],"tags":{"brand:wikidata":"Q327854","shop":"convenience"},"addTags":{"brand":"Mini Mix","brand:wikidata":"Q327854","brand:wikipedia":"de:Mix Markt","name":"Mini Mix","shop":"convenience"}},"shop/convenience/viva-856fe1":{"name":"Viva","locationSet":{"include":["by","bg","cz","hu","pl","md","ro","ru","sk","ua","ax","gg","je","cq","dk","ee","fo","fi","is","ie","im","lv","lt","no","sj","se","gb","al","ad","ba","hr","gi","gr","va","it","mt","me","mk","pt","sm","rs","si","es","xk","at","be","fr","de","li","lu","mc","nl","ch"]},"geometry":["point","area"],"matchScore":2,"terms":["viva"],"tags":{"brand:wikidata":"Q168238","shop":"convenience"},"addTags":{"brand":"Viva","brand:wikidata":"Q168238","brand:wikipedia":"en:OMV","name":"Viva","shop":"convenience"}},"shop/cosmetics/rituals-6bd843":{"name":"Rituals","locationSet":{"include":["be","ch","de","es","gb","nl","se","us"]},"geometry":["point","area"],"matchScore":2,"terms":["rituals"],"tags":{"brand:wikidata":"Q62874140","shop":"cosmetics"},"addTags":{"brand":"Rituals","brand:wikidata":"Q62874140","name":"Rituals","shop":"cosmetics"}},"shop/craft/pipoos-d918ce":{"name":"pipoos","locationSet":{"include":["be","nl"]},"geometry":["point","area"],"matchScore":2,"terms":["pipoos"],"tags":{"brand:wikidata":"Q106581278","shop":"craft"},"addTags":{"brand":"pipoos","brand:wikidata":"Q106581278","name":"pipoos","shop":"craft"}},"shop/dairy/zuivelhoeve-32e1e2":{"name":"Zuivelhoeve","locationSet":{"include":["nl"]},"geometry":["point","area"],"matchScore":2,"terms":["zuivelhoeve"],"tags":{"brand:wikidata":"Q106581549","shop":"dairy"},"addTags":{"brand":"Zuivelhoeve","brand:wikidata":"Q106581549","name":"Zuivelhoeve","shop":"dairy"}},"shop/deli/oilandvinegar-0e839f":{"name":"Oil & Vinegar","locationSet":{"include":["at","be","ch","de","jp","nl","ru","us"]},"geometry":["point","area"],"matchScore":2,"terms":["oil & vinegar"],"tags":{"brand:wikidata":"Q107987188","shop":"deli"},"addTags":{"brand":"Oil & Vinegar","brand:wikidata":"Q107987188","name":"Oil & Vinegar","shop":"deli"}},"shop/department_store/hema-e99f95":{"name":"HEMA","locationSet":{"include":["ae","at","be","de","es","fr","gb","lu","nl","qa"]},"geometry":["point","area"],"matchScore":2,"terms":["hema"],"tags":{"brand:wikidata":"Q903805","shop":"department_store"},"addTags":{"brand":"HEMA","brand:wikidata":"Q903805","brand:wikipedia":"en:HEMA (store)","name":"HEMA","shop":"department_store"}},"shop/department_store/hudsonsbay-8749a9":{"name":"Hudson's Bay","locationSet":{"include":["ca","nl"]},"geometry":["point","area"],"matchScore":2,"terms":["hudson's bay","the bay"],"tags":{"brand:wikidata":"Q641129","shop":"department_store"},"addTags":{"alt_name":"The Bay","brand":"Hudson's Bay","brand:wikidata":"Q641129","brand:wikipedia":"en:Hudson's Bay (department store)","name":"Hudson's Bay","shop":"department_store"}},"shop/department_store/tkmaxx-d02268":{"name":"TK Maxx","locationSet":{"include":["at","au","de","ie","nl","pl","uk"]},"geometry":["point","area"],"matchScore":2,"terms":["tk maxx"],"tags":{"brand:wikidata":"Q23823668","shop":"department_store"},"addTags":{"brand":"TK Maxx","brand:wikidata":"Q23823668","brand:wikipedia":"en:TK Maxx","name":"TK Maxx","shop":"department_store"}},"shop/doityourself/bauhaus-6847b5":{"name":"Bauhaus","locationSet":{"include":["at","bg","ch","cz","de","dk","ee","es","fi","hr","hu","is","lu","nl","no","se","si","sk","tr"]},"geometry":["point","area"],"matchScore":2,"terms":["bauhaus"],"tags":{"brand:wikidata":"Q672043","shop":"doityourself"},"addTags":{"brand":"Bauhaus","brand:wikidata":"Q672043","brand:wikipedia":"en:Bauhaus (company)","name":"Bauhaus","shop":"doityourself"}},"shop/doityourself/gamma-29070e":{"name":"Gamma","locationSet":{"include":["be","nl"]},"geometry":["point","area"],"matchScore":2,"terms":["gamma"],"tags":{"brand:wikidata":"Q2294120","shop":"doityourself"},"addTags":{"brand":"Gamma","brand:wikidata":"Q2294120","brand:wikipedia":"en:Gamma (store)","name":"Gamma","shop":"doityourself"}},"shop/doityourself/hagebaumarkt-f009fa":{"name":"Hagebaumarkt","locationSet":{"include":["at","be","ch","de","es","fr","lu","nl"]},"geometry":["point","area"],"matchScore":2,"terms":["hagebau","hagebaumarkt"],"tags":{"brand:wikidata":"Q1568279","shop":"doityourself"},"addTags":{"brand":"Hagebaumarkt","brand:wikidata":"Q1568279","brand:wikipedia":"de:Hagebau","name":"Hagebaumarkt","shop":"doityourself"}},"shop/doityourself/hornbach-92b1c1":{"name":"HORNBACH","locationSet":{"include":["at","ch","cz","de","lu","nl","ro","se","sk"]},"geometry":["point","area"],"matchScore":2,"terms":["hornbach"],"tags":{"brand:wikidata":"Q685926","shop":"doityourself"},"addTags":{"brand":"HORNBACH","brand:wikidata":"Q685926","brand:wikipedia":"en:Hornbach (retailer)","name":"HORNBACH","shop":"doityourself"}},"shop/doityourself/hubo-233544":{"name":"Hubo Nederland","locationSet":{"include":["nl"]},"geometry":["point","area"],"matchScore":2,"terms":["hubo"],"tags":{"brand:wikidata":"Q5473953","shop":"doityourself"},"addTags":{"brand":"Hubo","brand:wikidata":"Q5473953","brand:wikipedia":"nl:Hubo Nederland","name":"Hubo","shop":"doityourself"}},"shop/doityourself/karwei-233544":{"name":"Karwei","locationSet":{"include":["nl"]},"geometry":["point","area"],"matchScore":2,"terms":["karwei"],"tags":{"brand:wikidata":"Q2097480","shop":"doityourself"},"addTags":{"brand":"Karwei","brand:wikidata":"Q2097480","brand:wikipedia":"nl:Karwei (winkel)","name":"Karwei","shop":"doityourself"}},"shop/doityourself/kluswijs-233544":{"name":"KlusWijs","locationSet":{"include":["nl"]},"geometry":["point","area"],"matchScore":2,"terms":["kluswijs"],"fields":["name","brand","{shop/doityourself}"],"tags":{"brand:wikidata":"Q60729778","shop":"doityourself"},"addTags":{"brand":"KlusWijs","brand:wikidata":"Q60729778","brand:wikipedia":"nl:KlusWijs","name":"KlusWijs","shop":"doityourself"}},"shop/doityourself/praxis-233544":{"name":"Praxis","locationSet":{"include":["nl"]},"geometry":["point","area"],"matchScore":2,"terms":["praxis"],"tags":{"brand:wikidata":"Q2741995","shop":"doityourself"},"addTags":{"brand":"Praxis","brand:wikidata":"Q2741995","brand:wikipedia":"nl:Praxis (winkel)","name":"Praxis","shop":"doityourself"}},"shop/doityourself/toolstation-49e7ef":{"name":"Toolstation","locationSet":{"include":["fr","gb","nl"]},"geometry":["point","area"],"matchScore":2,"terms":["toolstation"],"tags":{"brand:wikidata":"Q7824103","shop":"doityourself"},"addTags":{"brand":"Toolstation","brand:wikidata":"Q7824103","brand:wikipedia":"en:Toolstation","name":"Toolstation","shop":"doityourself"}},"shop/electrical/yessselectrique-7fad46":{"name":"Yesss Électrique","locationSet":{"include":["fr","mc","nl"]},"geometry":["point","area"],"matchScore":2,"terms":["yesss électrique"],"tags":{"brand:wikidata":"Q91307483","shop":"electrical"},"addTags":{"brand":"Yesss Électrique","brand:wikidata":"Q91307483","name":"Yesss Électrique","shop":"electrical"}},"shop/electronics/bcc-94ba6e":{"name":"BCC","locationSet":{"include":["nl"]},"geometry":["point","area"],"matchScore":2,"terms":["bcc"],"tags":{"brand:wikidata":"Q2375758","shop":"electronics"},"addTags":{"brand":"BCC","brand:wikidata":"Q2375758","brand:wikipedia":"nl:BCC (winkel)","name":"BCC","shop":"electronics"}},"shop/electronics/cex-75e32e":{"name":"CeX","locationSet":{"include":["au","es","gb","ie","in","it","mx","nl","pl","pt"]},"geometry":["point","area"],"matchScore":2,"terms":["cex"],"tags":{"brand:wikidata":"Q5055676","shop":"electronics"},"addTags":{"brand":"CeX","brand:wikidata":"Q5055676","brand:wikipedia":"en:CeX (company)","name":"CeX","shop":"electronics"}},"shop/electronics/coolblue-f2686f":{"name":"Coolblue","locationSet":{"include":["be","nl"]},"geometry":["point","area"],"matchScore":2,"terms":["coolblue"],"tags":{"brand:wikidata":"Q4992516","shop":"electronics"},"addTags":{"brand":"Coolblue","brand:wikidata":"Q4992516","brand:wikipedia":"en:Coolblue","name":"Coolblue","shop":"electronics"}},"shop/electronics/ep-a53b66":{"name":"EP:","locationSet":{"include":["at","ch","de","nl"]},"geometry":["point","area"],"matchScore":2,"terms":["electronicpartner","ep:"],"tags":{"brand:wikidata":"Q110271192","shop":"electronics"},"addTags":{"brand":"EP:","brand:wikidata":"Q110271192","shop":"electronics"}},"shop/electronics/krefel-86b1a0":{"name":"Krëfel","locationSet":{"include":["fr","nl"]},"geometry":["point","area"],"matchScore":2,"terms":["krëfel"],"tags":{"brand:wikidata":"Q3200093","shop":"electronics"},"addTags":{"brand":"Krëfel","brand:wikidata":"Q3200093","brand:wikipedia":"fr:Krëfel","name":"Krëfel","shop":"electronics"}},"shop/electronics/mediamarkt-51d852":{"name":"MediaMarkt","locationSet":{"include":["at","be","ch","de","es","gr","hu","it","nl","pl","pt","se","tr"]},"geometry":["point","area"],"matchScore":2,"terms":["mediamarkt"],"tags":{"brand:wikidata":"Q2381223","shop":"electronics"},"addTags":{"brand":"MediaMarkt","brand:wikidata":"Q2381223","brand:wikipedia":"en:Media Markt","name":"MediaMarkt","shop":"electronics"}},"shop/fashion_accessories/mulberry-e1f087":{"name":"Mulberry","locationSet":{"include":["ae","au","ca","ch","cn","de","dk","fi","gb","ie","jp","kr","my","nl","no","se","sg","th","us"]},"geometry":["point","area"],"matchScore":2,"terms":["mulberry"],"tags":{"brand:wikidata":"Q3866987","shop":"fashion_accessories"},"addTags":{"brand":"Mulberry","brand:wikidata":"Q3866987","brand:wikipedia":"en:Mulberry (company)","name":"Mulberry","shop":"fashion_accessories"}},"shop/fashion_accessories/parfois-87714a":{"name":"Parfois","locationSet":{"include":["be","de","es","fr","gb","hu","ie","it","nl","pl","pt"]},"geometry":["point","area"],"matchScore":2,"terms":["parfois"],"tags":{"brand:wikidata":"Q7136948","shop":"fashion_accessories"},"addTags":{"brand":"Parfois","brand:wikidata":"Q7136948","brand:wikipedia":"en:Parfois","name":"Parfois","shop":"fashion_accessories"}},"shop/furniture/kwantum-e8ade6":{"name":"Kwantum","locationSet":{"include":["nl"]},"geometry":["point","area"],"matchScore":2,"terms":["kwantum"],"tags":{"brand:wikidata":"Q2262591","shop":"furniture"},"addTags":{"brand":"Kwantum","brand:wikidata":"Q2262591","brand:wikipedia":"nl:Kwantum (winkelketen)","name":"Kwantum","shop":"furniture"}},"shop/furniture/leenbakker-e8ade6":{"name":"Leen Bakker","locationSet":{"include":["nl"]},"geometry":["point","area"],"matchScore":2,"terms":["leen bakker"],"tags":{"brand:wikidata":"Q3333662","shop":"furniture"},"addTags":{"brand":"Leen Bakker","brand:wikidata":"Q3333662","brand:wikipedia":"nl:Leen Bakker","name":"Leen Bakker","shop":"furniture"}},"shop/furniture/momax-a18722":{"name":"Mömax","locationSet":{"include":["by","bg","cz","hu","pl","md","ro","ru","sk","ua","ax","gg","je","cq","dk","ee","fo","fi","is","ie","im","lv","lt","no","sj","se","gb","al","ad","ba","hr","gi","gr","va","it","mt","me","mk","pt","sm","rs","si","es","xk","at","be","fr","de","li","lu","mc","nl","ch"]},"geometry":["point","area"],"matchScore":2,"terms":["mömax"],"tags":{"brand:wikidata":"Q56388481","shop":"furniture"},"addTags":{"brand":"Mömax","brand:wikidata":"Q56388481","brand:wikipedia":"hu:Mömax (nemzetközi cég)","name":"Mömax","shop":"furniture"}},"shop/furniture/xxxlutz-5acc6e":{"name":"XXXLutz","locationSet":{"include":["by","bg","cz","hu","pl","md","ro","ru","sk","ua","ax","gg","je","cq","dk","ee","fo","fi","is","ie","im","lv","lt","no","sj","se","gb","al","ad","ba","hr","gi","gr","va","it","mt","me","mk","pt","sm","rs","si","es","xk","at","be","fr","de","li","lu","mc","nl","ch"],"exclude":["bg"]},"geometry":["point","area"],"matchScore":2,"terms":["xxxlutz"],"tags":{"brand:wikidata":"Q70339467","shop":"furniture"},"addTags":{"brand":"XXXLutz","brand:wikidata":"Q70339467","brand:wikipedia":"de:XXXLutz","name":"XXXLutz","shop":"furniture"}},"shop/games/warhammer-acdf54":{"name":"Warhammer","locationSet":{"include":["de","fr","gb","nl","us"]},"geometry":["point","area"],"matchScore":2,"terms":["games workshop","warhammer"],"tags":{"brand:wikidata":"Q587270","shop":"games"},"addTags":{"brand":"Warhammer","brand:wikidata":"Q587270","brand:wikipedia":"en:Games Workshop","name":"Warhammer","shop":"games"}},"shop/garden_centre/intratuin-4760e0":{"name":"Intratuin","locationSet":{"include":["be","nl"]},"geometry":["point","area"],"matchScore":2,"terms":["intratuin"],"tags":{"brand:wikidata":"Q2927176","shop":"garden_centre"},"addTags":{"brand":"Intratuin","brand:wikidata":"Q2927176","brand:wikipedia":"nl:Intratuin","name":"Intratuin","shop":"garden_centre"}},"shop/garden_centre/welkoop-dc6242":{"name":"Welkoop","locationSet":{"include":["nl"]},"geometry":["point","area"],"matchScore":2,"terms":["welkoop"],"tags":{"brand:wikidata":"Q72799253","shop":"garden_centre"},"addTags":{"brand":"Welkoop","brand:wikidata":"Q72799253","name":"Welkoop","shop":"garden_centre"}},"shop/hairdresser_supply/sallybeauty-0c832a":{"name":"Sally Beauty","locationSet":{"include":["be","ca","cl","de","es","fr","gb","ie","mx","nl","pe","pr","us"]},"geometry":["point","area"],"matchScore":2,"terms":["sally beauty","sally beauty supply"],"tags":{"brand:wikidata":"Q7405065","shop":"hairdresser_supply"},"addTags":{"alt_name":"Sally Beauty Supply","brand":"Sally Beauty","brand:wikidata":"Q7405065","brand:wikipedia":"en:Sally Beauty Holdings","name":"Sally Beauty","shop":"hairdresser_supply"}},"shop/hardware/lecot-585c09":{"name":"Lecot","locationSet":{"include":["be","nl"]},"geometry":["point","area"],"matchScore":2,"terms":["https://lecot.be","lecot"],"tags":{"brand:wikidata":"Q108272936","shop":"hardware"},"addTags":{"brand":"Lecot","brand:website":"https://lecot.be","brand:wikidata":"Q108272936","name":"Lecot","shop":"hardware"}},"shop/health_food/hollandandbarrett-7483d3":{"name":"Holland & Barrett","locationSet":{"include":["gb","ie","nl"]},"geometry":["point","area"],"matchScore":2,"terms":["holland & barrett"],"tags":{"brand:wikidata":"Q5880870","shop":"health_food"},"addTags":{"brand":"Holland & Barrett","brand:wikidata":"Q5880870","brand:wikipedia":"en:Holland & Barrett","name":"Holland & Barrett","shop":"health_food"}},"shop/hearing_aids/beterhoren-cec8b0":{"name":"Beter Horen","locationSet":{"include":["nl"]},"geometry":["point","area"],"matchScore":2,"terms":["beter horen"],"tags":{"brand:wikidata":"Q98282942","shop":"hearing_aids"},"addTags":{"brand":"Beter Horen","brand:wikidata":"Q98282942","name":"Beter Horen","shop":"hearing_aids"}},"shop/hearing_aids/schoonenberg-cec8b0":{"name":"Schoonenberg","locationSet":{"include":["nl"]},"geometry":["point","area"],"matchScore":2,"terms":["schoonenberg"],"tags":{"brand:wikidata":"Q109186345","shop":"hearing_aids"},"addTags":{"brand":"Schoonenberg","brand:wikidata":"Q109186345","name":"Schoonenberg","shop":"hearing_aids"}},"shop/houseware/blokker-a48b12":{"name":"Blokker","locationSet":{"include":["be","nl"]},"geometry":["point","area"],"matchScore":2,"terms":["blokker"],"tags":{"brand:wikidata":"Q884934","shop":"houseware"},"addTags":{"brand":"Blokker","brand:wikidata":"Q884934","brand:wikipedia":"en:Mirage Retail Group","name":"Blokker","shop":"houseware"}},"shop/houseware/marskramer-c9ad4a":{"name":"Marskramer","locationSet":{"include":["nl"]},"geometry":["point","area"],"matchScore":2,"terms":["marskramer"],"tags":{"brand:wikidata":"Q2305917","shop":"houseware"},"addTags":{"brand":"Marskramer","brand:wikidata":"Q2305917","brand:wikipedia":"nl:Marskramer (warenhuis)","name":"Marskramer","shop":"houseware"}},"shop/houseware/xenos-06f910":{"name":"Xenos","locationSet":{"include":["de","nl"]},"geometry":["point","area"],"matchScore":2,"terms":["xenos"],"tags":{"brand:wikidata":"Q16547960","shop":"houseware"},"addTags":{"brand":"Xenos","brand:wikidata":"Q16547960","brand:wikipedia":"nl:Xenos","name":"Xenos","shop":"houseware"}},"shop/jewelry/christ-729edb":{"name":"Christ","locationSet":{"include":["ch","de","nl"]},"geometry":["point","area"],"matchScore":2,"terms":["christ"],"tags":{"brand:wikidata":"Q1077957","shop":"jewelry"},"addTags":{"brand":"Christ","brand:wikidata":"Q1077957","brand:wikipedia":"de:Christ (Juwelier)","name":"Christ","shop":"jewelry"}},"shop/jewelry/histoiredor-d59505":{"name":"Histoire d'Or","locationSet":{"include":["be","fr","it","nl"]},"geometry":["point","area"],"matchScore":2,"terms":["histoire d'or"],"tags":{"brand:wikidata":"Q62529245","shop":"jewelry"},"addTags":{"brand":"Histoire d'Or","brand:wikidata":"Q62529245","name":"Histoire d'Or","shop":"jewelry"}},"shop/jewelry/lucardi-0e6622":{"name":"Lucardi","locationSet":{"include":["nl"]},"geometry":["point","area"],"matchScore":2,"terms":["lucardi"],"tags":{"brand:wikidata":"Q13774940","shop":"jewelry"},"addTags":{"brand":"Lucardi","brand:wikidata":"Q13774940","brand:wikipedia":"nl:Lucardi","name":"Lucardi","shop":"jewelry"}},"shop/kiosk/kiosk-c47323":{"name":"Kiosk","locationSet":{"include":["nl"]},"geometry":["point","area"],"matchScore":2,"terms":["kiosk","ns"],"tags":{"brand:wikidata":"Q109186217","shop":"kiosk"},"addTags":{"brand":"Kiosk","brand:wikidata":"Q109186217","name":"Kiosk","operator":"NS","shop":"kiosk"}},"shop/kitchen/ixina-d089d8":{"name":"Ixina","locationSet":{"include":["ae","au","be","bf","bh","bj","ca","ci","cm","cn","cz","dz","ee","eg","fr","gh","hr","ke","kw","lu","ly","ma","mu","nl","pl","qa","ro","ru","sa","se","sn","tg","th","tn","vn"]},"geometry":["point","area"],"matchScore":2,"terms":["ixina"],"tags":{"brand:wikidata":"Q3156424","shop":"kitchen"},"addTags":{"brand":"Ixina","brand:wikidata":"Q3156424","brand:wikipedia":"fr:Ixina","name":"Ixina","shop":"kitchen"}},"shop/mobile_phone/kpn-c7ad94":{"name":"KPN","locationSet":{"include":["nl"]},"geometry":["point","area"],"matchScore":2,"terms":["kpn"],"tags":{"brand:wikidata":"Q338633","shop":"mobile_phone"},"addTags":{"brand":"KPN","brand:wikidata":"Q338633","brand:wikipedia":"nl:Koninklijke KPN","name":"KPN","shop":"mobile_phone"}},"shop/mobile_phone/optie1-c7ad94":{"name":"Optie1","locationSet":{"include":["nl"]},"geometry":["point","area"],"matchScore":2,"terms":["optie1"],"tags":{"brand:wikidata":"Q62393564","shop":"mobile_phone"},"addTags":{"brand":"Optie1","brand:wikidata":"Q62393564","name":"Optie1","shop":"mobile_phone"}},"shop/mobile_phone/phonehouse-3d17eb":{"name":"Phone House","locationSet":{"include":["de","es","fr","nl","pt"]},"geometry":["point","area"],"matchScore":2,"terms":["phone house","the phone house"],"tags":{"brand:wikidata":"Q118046","shop":"mobile_phone"},"addTags":{"brand":"Phone House","brand:wikidata":"Q118046","brand:wikipedia":"en:Carphone Warehouse","name":"Phone House","shop":"mobile_phone"}},"shop/motorcycle/louismotorrad-5a4a1c":{"name":"Louis Motorrad","locationSet":{"include":["at","ch","de","nl"]},"geometry":["point","area"],"matchScore":2,"terms":["louis motorrad"],"fields":["name","brand","{shop/motorcycle}"],"tags":{"brand:wikidata":"Q1659681","shop":"motorcycle"},"addTags":{"brand":"Louis Motorrad","brand:wikidata":"Q1659681","brand:wikipedia":"de:Louis Motorrad","motorcycle:clothes":"yes","motorcycle:parts":"yes","shop":"motorcycle"}},"shop/newsagent/cigo-401e3d":{"name":"Cigo","locationSet":{"include":["de","nl"]},"geometry":["point","area"],"matchScore":2,"terms":["cigo"],"tags":{"brand:wikidata":"Q62391977","shop":"newsagent"},"addTags":{"brand":"Cigo","brand:wikidata":"Q62391977","name":"Cigo","shop":"newsagent"}},"shop/newsagent/primera-308ab8":{"name":"Primera","locationSet":{"include":["nl"]},"geometry":["point","area"],"matchScore":2,"terms":["primera"],"tags":{"brand:wikidata":"Q2176149","shop":"newsagent"},"addTags":{"brand":"Primera","brand:wikidata":"Q2176149","brand:wikipedia":"nl:Primera (winkelketen)","name":"Primera","shop":"newsagent"}},"shop/optician/aceandtate-b2ee21":{"name":"Ace & Tate","locationSet":{"include":["at","be","ch","de","dk","es","gb","ie","nl","se"]},"geometry":["point","area"],"matchScore":2,"terms":["ace & tate"],"tags":{"brand:wikidata":"Q110516413","shop":"optician"},"addTags":{"brand":"Ace & Tate","brand:wikidata":"Q110516413","name":"Ace & Tate","shop":"optician"}},"shop/optician/eyewish-719c83":{"name":"Eye Wish","locationSet":{"include":["nl"]},"geometry":["point","area"],"matchScore":2,"terms":["eye wish"],"tags":{"brand:wikidata":"Q62391641","shop":"optician"},"addTags":{"brand":"Eye Wish","brand:wikidata":"Q62391641","name":"Eye Wish","shop":"optician"}},"shop/optician/eyesandmore-60ec72":{"name":"eyes and more","locationSet":{"include":["at","be","de","nl"]},"geometry":["point","area"],"matchScore":2,"terms":["eyes and more","eyes+more"],"tags":{"brand:wikidata":"Q1385775","shop":"optician"},"addTags":{"brand":"eyes and more","brand:wikidata":"Q1385775","brand:wikipedia":"de:Eyes and more","name":"eyes and more","shop":"optician"}},"shop/optician/fielmann-f003f4":{"name":"fielmann","locationSet":{"include":["at","by","ch","de","it","lt","lu","lv","nl","pl","ru","ua"]},"geometry":["point","area"],"matchScore":2,"terms":["fielmann"],"tags":{"brand:wikidata":"Q457822","shop":"optician"},"addTags":{"brand":"Fielmann","brand:wikidata":"Q457822","brand:wikipedia":"de:Fielmann","name":"Fielmann","shop":"optician"}},"shop/optician/hansanders-9cb396":{"name":"Hans Anders","locationSet":{"include":["be","fr","nl"]},"geometry":["point","area"],"matchScore":2,"terms":["hans anders"],"tags":{"brand:wikidata":"Q1884976","shop":"optician"},"addTags":{"brand":"Hans Anders","brand:wikidata":"Q1884976","brand:wikipedia":"nl:Hans Anders","name":"Hans Anders","shop":"optician"}},"shop/optician/misterspex-a59c89":{"name":"Mister Spex","locationSet":{"include":["at","ch","de","es","fr","gb","nl"]},"geometry":["point","area"],"matchScore":2,"terms":["mister spex"],"tags":{"brand:wikidata":"Q27313697","shop":"optician"},"addTags":{"brand":"Mister Spex","brand:wikidata":"Q27313697","brand:wikipedia":"de:Mister Spex","name":"Mister Spex","shop":"optician"}},"shop/optician/oogwereld-a9a11a":{"name":"Oogwereld","locationSet":{"include":["be","nl"]},"geometry":["point","area"],"matchScore":2,"terms":["oogwereld"],"fields":["name","brand","{shop/optician}"],"tags":{"brand:wikidata":"Q110066228","shop":"optician"},"addTags":{"brand":"Oogwereld","brand:wikidata":"Q110066228","name":"Oogwereld","shop":"optician"}},"shop/optician/pearle-603e63":{"name":"Pearle","locationSet":{"include":["at","be","nl"]},"geometry":["point","area"],"matchScore":2,"terms":["pearle"],"tags":{"brand:wikidata":"Q2231148","shop":"optician"},"addTags":{"brand":"Pearle","brand:wikidata":"Q2231148","brand:wikipedia":"nl:Pearle","name":"Pearle","shop":"optician"}},"shop/outdoor/anwbwinkel-88720f":{"name":"ANWB","locationSet":{"include":["nl"]},"geometry":["point","area"],"matchScore":2,"terms":["anwb"],"tags":{"brand:wikidata":"Q2646455","shop":"outdoor"},"addTags":{"brand":"ANWB","brand:wikidata":"Q2646455","brand:wikipedia":"nl:ANWB","name":"ANWB winkel","shop":"outdoor"}},"shop/outdoor/jackwolfskin-5feed5":{"name":"Jack Wolfskin","locationSet":{"include":["at","be","ch","de","fr","gb","it","nl","pl","ru","ua"]},"geometry":["point","area"],"matchScore":2,"terms":["jack wolfskin"],"tags":{"brand:wikidata":"Q536133","shop":"outdoor"},"addTags":{"brand":"Jack Wolfskin","brand:wikidata":"Q536133","brand:wikipedia":"en:Jack Wolfskin","name":"Jack Wolfskin","shop":"outdoor"}},"shop/paint/brillux-7853a1":{"name":"Brillux","locationSet":{"include":["at","ch","de","it","nl","pl"]},"geometry":["point","area"],"matchScore":2,"terms":["brillux"],"tags":{"brand:wikidata":"Q917229","shop":"paint"},"addTags":{"brand":"Brillux","brand:wikidata":"Q917229","brand:wikipedia":"de:Brillux","name":"Brillux","shop":"paint"}},"shop/perfumery/douglas-4a1f51":{"name":"Douglas","locationSet":{"include":["at","ch","cz","de","es","it","nl","pl","sk"]},"geometry":["point","area"],"matchScore":2,"terms":["douglas"],"tags":{"brand:wikidata":"Q2052213","shop":"perfumery"},"addTags":{"brand":"Douglas","brand:wikidata":"Q2052213","brand:wikipedia":"de:Parfümerie Douglas","name":"Douglas","shop":"perfumery"}},"shop/perfumery/equivalenza-59ad61":{"name":"Equivalenza","locationSet":{"include":["ad","ao","at","be","ca","cv","de","do","es","fr","gr","gt","ie","it","mx","mz","nl","pe","pt","ro","tn","uk"]},"geometry":["point","area"],"matchScore":2,"terms":["equivalenza"],"tags":{"brand:wikidata":"Q104649798","shop":"perfumery"},"addTags":{"brand":"Equivalenza","brand:wikidata":"Q104649798","name":"Equivalenza","shop":"perfumery"}},"shop/perfumery/iciparisxl-07c28e":{"name":"ICI PARIS XL","locationSet":{"include":["be","lu","nl"]},"geometry":["point","area"],"matchScore":2,"terms":["ici paris xl"],"tags":{"brand:wikidata":"Q769749","shop":"perfumery"},"addTags":{"brand":"ICI PARIS XL","brand:wikidata":"Q769749","brand:wikipedia":"en:ICI Paris XL","name":"ICI PARIS XL","shop":"perfumery"}},"shop/pet/jumper-734485":{"name":"Jumper","locationSet":{"include":["nl"]},"geometry":["point","area"],"matchScore":2,"terms":["jumper"],"tags":{"brand:wikidata":"Q87338743","shop":"pet"},"addTags":{"brand":"Jumper","brand:wikidata":"Q87338743","name":"Jumper","shop":"pet"}},"shop/photo/kameraexpress-c0941c":{"name":"Kamera Express","locationSet":{"include":["be","de","nl"]},"geometry":["point","area"],"matchScore":2,"terms":["kamera express"],"tags":{"brand:wikidata":"Q77976400","shop":"photo"},"addTags":{"brand":"Kamera Express","brand:wikidata":"Q77976400","name":"Kamera Express","shop":"photo"}},"shop/second_hand/hetgoed-76cccf":{"name":"Het Goed","locationSet":{"include":["nl"]},"geometry":["point","area"],"matchScore":2,"terms":["het goed"],"tags":{"brand:wikidata":"Q56683074","shop":"second_hand"},"addTags":{"brand":"Het Goed","brand:wikidata":"Q56683074","brand:wikipedia":"nl:Het Goed","shop":"second_hand"}},"shop/second_hand/noppes-76cccf":{"name":"Noppes","locationSet":{"include":["nl"]},"geometry":["point","area"],"matchScore":2,"terms":["noppes"],"tags":{"brand:wikidata":"Q100890364","shop":"second_hand"},"addTags":{"brand":"Noppes","brand:wikidata":"Q100890364","brand:wikipedia":"nl:Noppes (bedrijf)","shop":"second_hand"}},"shop/shoes/dunelondon-95839f":{"name":"Dune London","locationSet":{"include":["ch","de","fr","gb","nl"]},"geometry":["point","area"],"matchScore":2,"terms":["dune","dune london"],"tags":{"brand:wikidata":"Q65557112","shop":"shoes"},"addTags":{"brand":"Dune London","brand:wikidata":"Q65557112","name":"Dune London","shop":"shoes","short_name":"Dune"}},"shop/shoes/lloyd-928d17":{"name":"Lloyd","locationSet":{"include":["at","be","cz","de","dk","nl"]},"geometry":["point","area"],"matchScore":2,"terms":["lloyd"],"tags":{"brand:wikidata":"Q1866944","shop":"shoes"},"addTags":{"brand":"Lloyd","brand:wikidata":"Q1866944","brand:wikipedia":"de:Lloyd Shoes","name":"Lloyd","shop":"shoes"}},"shop/shoes/manfield-0daf51":{"name":"Manfield (Netherlands)","locationSet":{"include":["be","de","nl"]},"geometry":["point","area"],"matchScore":2,"terms":["manfield"],"tags":{"brand:wikidata":"Q58328872","shop":"shoes"},"addTags":{"brand":"Manfield","brand:wikidata":"Q58328872","brand:wikipedia":"nl:Manfield schoenen","name":"Manfield","shop":"shoes"}},"shop/shoes/omoda-14cd03":{"name":"Omoda","locationSet":{"include":["at","be","de","dk","nl"]},"geometry":["point","area"],"matchScore":2,"terms":["omoda"],"tags":{"brand:wikidata":"Q64139027","shop":"shoes"},"addTags":{"brand":"Omoda","brand:wikidata":"Q64139027","brand:wikipedia":"nl:Omoda","name":"Omoda","shop":"shoes"}},"shop/shoes/redwing-1e24e3":{"name":"Red Wing","locationSet":{"include":["de","gb","nl","us"]},"geometry":["point","area"],"matchScore":2,"terms":["red wing","red wing shoes"],"tags":{"brand:wikidata":"Q934096","shop":"shoes"},"addTags":{"brand":"Red Wing","brand:wikidata":"Q934096","brand:wikipedia":"en:Red Wing Shoes","name":"Red Wing","shop":"shoes"}},"shop/shoes/scapino-81951f":{"name":"Scapino","locationSet":{"include":["nl"]},"geometry":["point","area"],"matchScore":2,"terms":["scapino"],"tags":{"brand:wikidata":"Q2298792","shop":"shoes"},"addTags":{"brand":"Scapino","brand:wikidata":"Q2298792","brand:wikipedia":"nl:Scapino (winkelketen)","name":"Scapino","shop":"shoes"}},"shop/shoes/snipes-679af4":{"name":"Snipes","locationSet":{"include":["at","ch","de","es","fr","it","nl","us"]},"geometry":["point","area"],"matchScore":2,"terms":["snipes"],"tags":{"brand:wikidata":"Q42306166","shop":"shoes"},"addTags":{"brand":"Snipes","brand:wikidata":"Q42306166","brand:wikipedia":"de:Snipes (Unternehmen)","name":"Snipes","shop":"shoes"}},"shop/shoes/stuartweitzman-54b0d5":{"name":"Stuart Weitzman","locationSet":{"include":["ca","ch","de","fr","id","nl","uk","us"]},"geometry":["point","area"],"matchScore":2,"terms":["stuart weitzman"],"tags":{"brand:wikidata":"Q75244763","shop":"shoes"},"addTags":{"brand":"Stuart Weitzman","brand:wikidata":"Q75244763","name":"Stuart Weitzman","shop":"shoes"}},"shop/shoes/tamaris-e95100":{"name":"Tamaris","locationSet":{"include":["at","be","de","fr","nl"]},"geometry":["point","area"],"matchScore":2,"terms":["tamaris"],"tags":{"brand:wikidata":"Q61994827","shop":"shoes"},"addTags":{"brand":"Tamaris","brand:wikidata":"Q61994827","name":"Tamaris","shop":"shoes"}},"shop/shoes/vanharen-9b006f":{"name":"vanHaren","locationSet":{"include":["be","nl"]},"geometry":["point","area"],"matchScore":2,"terms":["vanharen"],"tags":{"brand:wikidata":"Q62390668","shop":"shoes"},"addTags":{"brand":"vanHaren","brand:wikidata":"Q62390668","name":"vanHaren","shop":"shoes"}},"shop/shoes/ziengs-81951f":{"name":"Ziengs","locationSet":{"include":["nl"]},"geometry":["point","area"],"matchScore":2,"terms":["ziengs"],"tags":{"brand:wikidata":"Q60887513","shop":"shoes"},"addTags":{"brand":"Ziengs","brand:wikidata":"Q60887513","name":"Ziengs","shop":"shoes"}},"shop/sports/aktiesport-2637e1":{"name":"Aktiesport","locationSet":{"include":["nl"]},"geometry":["point","area"],"matchScore":2,"terms":["aktiesport"],"tags":{"brand:wikidata":"Q57546889","shop":"sports"},"addTags":{"brand":"Aktiesport","brand:wikidata":"Q57546889","name":"Aktiesport","shop":"sports"}},"shop/sports/jdsports-4957ee":{"name":"JD Sports","locationSet":{"include":["au","de","es","fr","gb","ie","nl"]},"geometry":["point","area"],"matchScore":2,"terms":["jd","jd sports"],"tags":{"brand:wikidata":"Q6108019","shop":"sports"},"addTags":{"brand":"JD Sports","brand:wikidata":"Q6108019","brand:wikipedia":"en:JD Sports","name":"JD Sports","shop":"sports"}},"shop/sports/rapha-e13309":{"name":"Rapha","locationSet":{"include":["au","de","dk","es","gb","hk","jp","kr","nl","tw","us"]},"geometry":["point","area"],"matchScore":2,"terms":["rapha","ラファ"],"tags":{"brand:wikidata":"Q7293931","shop":"sports"},"addTags":{"brand":"Rapha","brand:en":"Rapha","brand:ja":"ラファ","brand:wikidata":"Q7293931","brand:wikipedia":"en:Rapha (sportswear)","name":"Rapha","name:en":"Rapha","name:ja":"ラファ","shop":"sports","sport":"cycling"}},"shop/sports/sport2000-44fadc":{"name":"Sport 2000","locationSet":{"include":["at","de","fr","nl"]},"geometry":["point","area"],"matchScore":2,"terms":["sport 2000"],"tags":{"brand:wikidata":"Q262394","shop":"sports"},"addTags":{"brand":"Sport 2000","brand:wikidata":"Q262394","brand:wikipedia":"de:Sport 2000","name":"Sport 2000","shop":"sports"}},"shop/sports/sporttiedje-b06acf":{"name":"Sport-Tiedje","locationSet":{"include":["at","be","ch","de","dk","fr","gb","nl","pl"]},"geometry":["point","area"],"matchScore":2,"terms":["sport-tiedje"],"tags":{"brand:wikidata":"Q15848204","shop":"sports"},"addTags":{"brand":"Sport-Tiedje","brand:wikidata":"Q15848204","brand:wikipedia":"de:Sport-Tiedje","name":"Sport-Tiedje","shop":"sports"}},"shop/storage_rental/allsafeminiopslag-43269c":{"name":"ALLSAFE Mini Opslag","locationSet":{"include":["nl"]},"geometry":["point","area"],"matchScore":2,"terms":["allsafe"],"tags":{"brand:wikidata":"Q106581638","shop":"storage_rental"},"addTags":{"brand":"ALLSAFE","brand:wikidata":"Q106581638","name":"ALLSAFE Mini Opslag","shop":"storage_rental"}},"shop/supermarket/albertheijn-1cf55d":{"name":"Albert Heijn","locationSet":{"include":["be","nl"]},"geometry":["point","area"],"matchScore":2,"terms":["albert heijn"],"tags":{"brand:wikidata":"Q1653985","shop":"supermarket"},"addTags":{"brand":"Albert Heijn","brand:wikidata":"Q1653985","brand:wikipedia":"nl:Albert Heijn (supermarkt)","name":"Albert Heijn","shop":"supermarket"}},"shop/supermarket/albertheijnxl-1cf55d":{"name":"Albert Heijn XL","locationSet":{"include":["be","nl"]},"geometry":["point","area"],"matchScore":2,"terms":["albert heijn xl"],"tags":{"brand:wikidata":"Q78163765","shop":"supermarket"},"addTags":{"brand":"Albert Heijn XL","brand:wikidata":"Q78163765","name":"Albert Heijn XL","shop":"supermarket"}},"shop/supermarket/aldi-b5be76":{"name":"ALDI (ALDI Nord group)","locationSet":{"include":["be","dk","es","fr","lu","nl","pl","pt"],"exclude":["de"]},"geometry":["point","area"],"matchScore":2,"terms":["aldi"],"tags":{"brand:wikidata":"Q41171373","shop":"supermarket"},"addTags":{"brand":"ALDI","brand:wikidata":"Q41171373","brand:wikipedia":"en:Aldi","name":"ALDI","shop":"supermarket"}},"shop/supermarket/auchan-925d9b":{"name":"Auchan","locationSet":{"include":["al","ad","ba","hr","gi","gr","va","it","mt","me","mk","pt","sm","rs","si","es","xk","by","bg","cz","hu","pl","md","ro","ru","sk","ua","at","be","fr","de","li","lu","mc","nl","ch","cn"],"exclude":["ru"]},"geometry":["point","area"],"matchScore":2,"terms":["auchan"],"tags":{"brand:wikidata":"Q758603","shop":"supermarket"},"addTags":{"brand":"Auchan","brand:wikidata":"Q758603","brand:wikipedia":"en:Auchan","name":"Auchan","shop":"supermarket"}},"shop/supermarket/boni-5811b5":{"name":"Boni","locationSet":{"include":["nl"]},"geometry":["point","area"],"matchScore":2,"terms":["boni"],"tags":{"brand:wikidata":"Q4380634","shop":"supermarket"},"addTags":{"brand":"Boni","brand:wikidata":"Q4380634","brand:wikipedia":"nl:Boni (supermarkt)","name":"Boni","shop":"supermarket"}},"shop/supermarket/boonsmarkt-5811b5":{"name":"Boon's Markt","locationSet":{"include":["nl"]},"geometry":["point","area"],"matchScore":2,"terms":["boon's markt"],"tags":{"brand:wikidata":"Q97704873","shop":"supermarket"},"addTags":{"brand":"Boon's Markt","brand:wikidata":"Q97704873","brand:wikipedia":"nl:Boon's Markt","name":"Boon's Markt","shop":"supermarket"}},"shop/supermarket/coop-5811b5":{"name":"Coop (Nederland)","locationSet":{"include":["nl"]},"geometry":["point","area"],"matchScore":2,"terms":["coop"],"tags":{"brand:wikidata":"Q2390074","shop":"supermarket"},"addTags":{"brand":"Coop","brand:wikidata":"Q2390074","brand:wikipedia":"nl:Coop (Nederlandse supermarkt)","name":"Coop","shop":"supermarket"}},"shop/supermarket/coopvandaag-5811b5":{"name":"Coop Vandaag","locationSet":{"include":["nl"]},"geometry":["point","area"],"matchScore":2,"terms":["coop vandaag"],"tags":{"brand:wikidata":"Q98455765","shop":"supermarket"},"addTags":{"brand":"Coop Vandaag","brand:wikidata":"Q98455765","name":"Coop Vandaag","shop":"supermarket"}},"shop/supermarket/coopcompact-5811b5":{"name":"CoopCompact","locationSet":{"include":["nl"]},"geometry":["point","area"],"matchScore":2,"terms":["coopcompact"],"tags":{"brand:wikidata":"Q98454887","shop":"supermarket"},"addTags":{"brand":"CoopCompact","brand:wikidata":"Q98454887","name":"CoopCompact","shop":"supermarket"}},"shop/supermarket/dagwinkel-5811b5":{"name":"Dagwinkel","locationSet":{"include":["nl"]},"geometry":["point","area"],"matchScore":2,"terms":["dagwinkel"],"tags":{"brand:wikidata":"Q2433706","shop":"supermarket"},"addTags":{"brand":"Dagwinkel","brand:wikidata":"Q2433706","brand:wikipedia":"nl:Dagwinkel","name":"Dagwinkel","shop":"supermarket"}},"shop/supermarket/deen-5811b5":{"name":"Deen","locationSet":{"include":["nl"]},"geometry":["point","area"],"matchScore":2,"terms":["deen"],"searchable":false,"tags":{"brand:wikidata":"Q13571727","shop":"supermarket"},"addTags":{"brand":"Deen","brand:wikidata":"Q13571727","brand:wikipedia":"nl:Deen (supermarkt)","name":"Deen","shop":"supermarket"}},"shop/supermarket/dekamarkt-5811b5":{"name":"DekaMarkt","locationSet":{"include":["nl"]},"geometry":["point","area"],"matchScore":2,"terms":["dekamarkt"],"tags":{"brand:wikidata":"Q2489350","shop":"supermarket"},"addTags":{"brand":"DekaMarkt","brand:wikidata":"Q2489350","brand:wikipedia":"nl:DekaMarkt","name":"DekaMarkt","shop":"supermarket"}},"shop/supermarket/dirk-5811b5":{"name":"Dirk","locationSet":{"include":["nl"]},"geometry":["point","area"],"matchScore":2,"terms":["dirk","dirk van den broek"],"tags":{"brand:wikidata":"Q17502722","shop":"supermarket"},"addTags":{"brand":"Dirk","brand:wikidata":"Q17502722","brand:wikipedia":"en:Dirk (supermarket)","name":"Dirk","old_name":"Dirk van den Broek","shop":"supermarket"}},"shop/supermarket/ekoplaza-1cf55d":{"name":"Ekoplaza","locationSet":{"include":["be","nl"]},"geometry":["point","area"],"matchScore":2,"terms":["ekoplaza"],"tags":{"brand:wikidata":"Q47017915","shop":"supermarket"},"addTags":{"brand":"Ekoplaza","brand:wikidata":"Q47017915","brand:wikipedia":"nl:Ekoplaza","name":"Ekoplaza","shop":"supermarket"}},"shop/supermarket/emte-5811b5":{"name":"EMTÉ","locationSet":{"include":["nl"]},"geometry":["point","area"],"matchScore":2,"terms":["emté"],"searchable":false,"tags":{"brand:wikidata":"Q3119122","shop":"supermarket"},"addTags":{"brand":"EMTÉ","brand:wikidata":"Q3119122","brand:wikipedia":"nl:EMTÉ Supermarkten","name":"EMTÉ","shop":"supermarket"}},"shop/supermarket/eurospar-4b5e11":{"name":"Eurospar","locationSet":{"include":["by","bg","cz","hu","pl","md","ro","ru","sk","ua","ax","gg","je","cq","dk","ee","fo","fi","is","ie","im","lv","lt","no","sj","se","gb","al","ad","ba","hr","gi","gr","va","it","mt","me","mk","pt","sm","rs","si","es","xk","at","be","fr","de","li","lu","mc","nl","ch"]},"geometry":["point","area"],"matchScore":2,"terms":["eurospar"],"tags":{"brand:wikidata":"Q12309283","shop":"supermarket"},"addTags":{"brand":"Eurospar","brand:wikidata":"Q12309283","brand:wikipedia":"da:Eurospar","name":"Eurospar","shop":"supermarket"}},"shop/supermarket/hoogvliet-5811b5":{"name":"Hoogvliet","locationSet":{"include":["nl"]},"geometry":["point","area"],"matchScore":2,"terms":["hoogvliet"],"tags":{"brand:wikidata":"Q2770647","shop":"supermarket"},"addTags":{"brand":"Hoogvliet","brand:wikidata":"Q2770647","brand:wikipedia":"nl:Hoogvliet (supermarkt)","name":"Hoogvliet","shop":"supermarket"}},"shop/supermarket/janlinders-5811b5":{"name":"Jan Linders","locationSet":{"include":["nl"]},"geometry":["point","area"],"matchScore":2,"terms":["jan linders"],"tags":{"brand:wikidata":"Q2200982","shop":"supermarket"},"addTags":{"brand":"Jan Linders","brand:wikidata":"Q2200982","brand:wikipedia":"nl:Jan Linders Supermarkten","name":"Jan Linders","shop":"supermarket"}},"shop/supermarket/jumbo-1cf55d":{"name":"Jumbo","locationSet":{"include":["be","nl"]},"geometry":["point","area"],"matchScore":2,"terms":["jumbo","jumbo supermarkt"],"tags":{"brand:wikidata":"Q2262314","shop":"supermarket"},"addTags":{"brand":"Jumbo","brand:wikidata":"Q2262314","brand:wikipedia":"nl:Jumbo Supermarkten","name":"Jumbo","shop":"supermarket"}},"shop/supermarket/marqt-5811b5":{"name":"Marqt","locationSet":{"include":["nl"]},"geometry":["point","area"],"matchScore":2,"terms":["marqt"],"searchable":false,"tags":{"brand:wikidata":"Q55361811","shop":"supermarket"},"addTags":{"brand":"Marqt","brand:wikidata":"Q55361811","brand:wikipedia":"nl:Marqt","name":"Marqt","shop":"supermarket"}},"shop/supermarket/mcd-5811b5":{"name":"MCD","locationSet":{"include":["nl"]},"geometry":["point","area"],"matchScore":2,"terms":["mcd"],"tags":{"brand:wikidata":"Q46936596","shop":"supermarket"},"addTags":{"brand":"MCD","brand:wikidata":"Q46936596","brand:wikipedia":"nl:MCD (supermarkt)","name":"MCD","shop":"supermarket"}},"shop/supermarket/mixmarkt-3f43e2":{"name":"Mix Markt","locationSet":{"include":["at","be","cy","cz","de","es","fr","gb","gr","it","me","nl","pt"]},"geometry":["point","area"],"matchScore":2,"terms":["mix markt"],"tags":{"brand:wikidata":"Q327854","shop":"supermarket"},"addTags":{"brand":"Mix Markt","brand:wikidata":"Q327854","brand:wikipedia":"de:Mix Markt","name":"Mix Markt","shop":"supermarket"}},"shop/supermarket/nettorama-5811b5":{"name":"Nettorama","locationSet":{"include":["nl"]},"geometry":["point","area"],"matchScore":2,"terms":["nettorama"],"tags":{"brand:wikidata":"Q1828639","shop":"supermarket"},"addTags":{"brand":"Nettorama","brand:wikidata":"Q1828639","brand:wikipedia":"nl:Nettorama","name":"Nettorama","shop":"supermarket"}},"shop/supermarket/plus-5811b5":{"name":"PLUS","locationSet":{"include":["nl"]},"geometry":["point","area"],"matchScore":2,"terms":["plus"],"tags":{"brand:wikidata":"Q1978981","shop":"supermarket"},"addTags":{"brand":"PLUS","brand:wikidata":"Q1978981","brand:wikipedia":"nl:PLUS (Nederlandse supermarkt)","name":"PLUS","shop":"supermarket"}},"shop/supermarket/poiesz-5811b5":{"name":"Poiesz","locationSet":{"include":["nl"]},"geometry":["point","area"],"matchScore":2,"terms":["poiesz"],"tags":{"brand:wikidata":"Q2521700","shop":"supermarket"},"addTags":{"brand":"Poiesz","brand:wikidata":"Q2521700","brand:wikipedia":"nl:Poiesz Supermarkten","name":"Poiesz","shop":"supermarket"}},"shop/supermarket/sky-46841a":{"name":"Sky","locationSet":{"include":["de","lv","nl"]},"geometry":["point","area"],"matchScore":2,"terms":["sky"],"tags":{"brand:wikidata":"Q1129779","shop":"supermarket"},"addTags":{"brand":"Sky","brand:wikidata":"Q1129779","brand:wikipedia":"de:Coop eG","name":"Sky","shop":"supermarket"}},"shop/supermarket/vomar-5811b5":{"name":"Vomar","locationSet":{"include":["nl"]},"geometry":["point","area"],"matchScore":2,"terms":["vomar"],"tags":{"brand:wikidata":"Q3202837","shop":"supermarket"},"addTags":{"brand":"Vomar","brand:wikidata":"Q3202837","brand:wikipedia":"nl:Vomar","name":"Vomar","shop":"supermarket"}},"shop/tool_hire/boels-d0c09f":{"name":"Boels","locationSet":{"include":["at","be","ch","cz","de","gb","it","lu","nl","pl","sk"]},"geometry":["point","area"],"matchScore":2,"terms":["boels","boels rental"],"tags":{"brand:wikidata":"Q19901961","shop":"tool_hire"},"addTags":{"brand":"Boels","brand:wikidata":"Q19901961","brand:wikipedia":"en:Boels Rental","name":"Boels","shop":"tool_hire"}},"shop/tool_hire/loxam-33fef8":{"name":"Loxam","locationSet":{"include":["ae","be","bh","br","ch","co","cz","de","dk","ee","es","fi","fr","gb","ie","it","kw","lt","lu","lv","ma","nl","no","om","pl","pt","qa","sa","se","sk"]},"geometry":["point","area"],"matchScore":2,"terms":["loxam"],"tags":{"brand:wikidata":"Q3264407","shop":"tool_hire"},"addTags":{"brand":"Loxam","brand:wikidata":"Q3264407","brand:wikipedia":"fr:Loxam","name":"Loxam","shop":"tool_hire"}},"shop/toys/intertoys-741056":{"name":"Intertoys","locationSet":{"include":["be","de","nl"]},"geometry":["point","area"],"matchScore":2,"terms":["intertoys"],"searchable":false,"tags":{"brand:wikidata":"Q1891407","shop":"toys"},"addTags":{"brand":"Intertoys","brand:wikidata":"Q1891407","brand:wikipedia":"nl:Intertoys","name":"Intertoys","shop":"toys"}},"shop/toys/toychamp-5f5d6c":{"name":"ToyChamp","locationSet":{"include":["be","nl"]},"geometry":["point","area"],"matchScore":2,"terms":["toychamp"],"tags":{"brand:wikidata":"Q64797057","shop":"toys"},"addTags":{"brand":"ToyChamp","brand:wikidata":"Q64797057","brand:wikipedia":"nl:ToyChamp","name":"ToyChamp","shop":"toys"}},"shop/travel_agency/dreizen-9d1680":{"name":"D-reizen","locationSet":{"include":["nl"]},"geometry":["point","area"],"matchScore":2,"terms":["d-reizen"],"tags":{"brand:wikidata":"Q2445498","shop":"travel_agency"},"addTags":{"brand":"D-reizen","brand:wikidata":"Q2445498","brand:wikipedia":"nl:D-reizen","name":"D-reizen","shop":"travel_agency"}},"shop/tyres/eurotyre-eb61ab":{"name":"Eurotyre (Belgium/Netherlands)","locationSet":{"include":["be","nl"]},"geometry":["point","area"],"matchScore":2,"terms":["eurotyre"],"tags":{"brand:wikidata":"Q91309121","shop":"tyres"},"addTags":{"brand":"Eurotyre","brand:wikidata":"Q91309121","name":"Eurotyre","shop":"tyres"}},"shop/variety_store/action-98734c":{"name":"Action","locationSet":{"include":["at","be","cz","de","fr","it","lu","nl","pl"]},"geometry":["point","area"],"matchScore":2,"terms":["action"],"tags":{"brand:wikidata":"Q2634111","shop":"variety_store"},"addTags":{"brand":"Action","brand:wikidata":"Q2634111","brand:wikipedia":"nl:Action (winkel)","name":"Action","shop":"variety_store"}},"shop/variety_store/bigbazar-8a7b93":{"name":"Big Bazar","locationSet":{"include":["be","nl"]},"geometry":["point","area"],"matchScore":2,"terms":["big bazar"],"tags":{"brand:wikidata":"Q15873104","shop":"variety_store"},"addTags":{"brand":"Big Bazar","brand:wikidata":"Q15873104","brand:wikipedia":"nl:Big Bazar","name":"Big Bazar","shop":"variety_store"}},"shop/variety_store/flyingtigercopenhagen-37d726":{"name":"Flying Tiger Copenhagen","locationSet":{"include":["at","be","ch","cy","cz","de","dk","ee","es","fi","fr","gb","gr","hu","ie","is","it","jp","kr","lt","lv","mt","nl","no","pl","pt","se","sk"]},"geometry":["point","area"],"matchScore":2,"terms":["flying tiger","flying tiger copenhagen","tgr","tiger"],"tags":{"brand:wikidata":"Q2786319","shop":"variety_store"},"addTags":{"brand":"Flying Tiger Copenhagen","brand:wikidata":"Q2786319","brand:wikipedia":"en:Flying Tiger Copenhagen","name":"Flying Tiger Copenhagen","shop":"variety_store","short_name":"Flying Tiger"}},"shop/video_games/gamemania-350fba":{"name":"Game Mania","locationSet":{"include":["be","nl"]},"geometry":["point","area"],"matchScore":2,"terms":["game mania"],"tags":{"brand:wikidata":"Q18069429","shop":"video_games"},"addTags":{"brand":"Game Mania","brand:wikidata":"Q18069429","brand:wikipedia":"nl:Game Mania","name":"Game Mania","shop":"video_games"}},"tourism/hostel/aando-a930a5":{"name":"A&O","locationSet":{"include":["at","cz","de","dk","hu","it","nl","pl","uk"]},"geometry":["point","area"],"matchScore":2,"terms":["a&o"],"fields":["name","brand","{tourism/hostel}"],"tags":{"brand:wikidata":"Q15890910","tourism":"hostel"},"addTags":{"brand":"A&O","brand:wikidata":"Q15890910","brand:wikipedia":"de:A&O Hotels and Hostels","name":"A&O","tourism":"hostel"}},"tourism/hotel/aando-7ebc01":{"name":"A&O","locationSet":{"include":["at","cz","de","dk","hu","it","nl","pl","uk"]},"geometry":["point","area"],"matchScore":2,"terms":["a&o"],"fields":["name","brand","{tourism/hotel}"],"tags":{"brand:wikidata":"Q15890910","tourism":"hotel"},"addTags":{"brand":"A&O","brand:wikidata":"Q15890910","brand:wikipedia":"de:A&O Hotels and Hostels","name":"A&O","tourism":"hotel"}},"tourism/hotel/bandbhotel-fc8c2c":{"name":"B&B Hotel","locationSet":{"include":["by","bg","cz","hu","pl","md","ro","ru","sk","ua","ax","gg","je","cq","dk","ee","fo","fi","is","ie","im","lv","lt","no","sj","se","gb","al","ad","ba","hr","gi","gr","va","it","mt","me","mk","pt","sm","rs","si","es","xk","at","be","fr","de","li","lu","mc","nl","ch","br"]},"geometry":["point","area"],"matchScore":2,"terms":["b&b hotels"],"fields":["name","brand","{tourism/hotel}"],"tags":{"brand:wikidata":"Q794939","tourism":"hotel"},"addTags":{"brand":"B&B Hotels","brand:wikidata":"Q794939","brand:wikipedia":"en:B&B Hotels","name":"B&B Hotel","tourism":"hotel"}},"tourism/hotel/bastionhotel-a4f814":{"name":"Bastion Hotel","locationSet":{"include":["nl"]},"geometry":["point","area"],"matchScore":2,"terms":["bastion","bastion hotel"],"fields":["name","brand","{tourism/hotel}"],"tags":{"brand:wikidata":"Q2356460","tourism":"hotel"},"addTags":{"brand":"Bastion Hotel","brand:wikidata":"Q2356460","brand:wikipedia":"nl:Bastion Hotels","name":"Bastion Hotel","tourism":"hotel"}},"tourism/hotel/citizenm-b4d29c":{"name":"citizenM","locationSet":{"include":["ch","dk","fr","gb","it","my","nl","tw","us"]},"geometry":["point","area"],"matchScore":2,"terms":["citizenm"],"fields":["name","brand","{tourism/hotel}"],"tags":{"brand:wikidata":"Q5122531","tourism":"hotel"},"addTags":{"brand":"citizenM","brand:wikidata":"Q5122531","brand:wikipedia":"en:CitizenM","name":"citizenM","tourism":"hotel"}},"tourism/hotel/element-6dd642":{"name":"Element by Westin","locationSet":{"include":["ae","au","ca","cn","id","my","nl","tz","us"]},"geometry":["point","area"],"matchScore":2,"terms":["element"],"fields":["name","brand","{tourism/hotel}"],"tags":{"brand:wikidata":"Q91948072","tourism":"hotel"},"addTags":{"brand":"Element","brand:wikidata":"Q91948072","brand:wikipedia":"pl:Element Hotels","name":"Element","tourism":"hotel"}},"tourism/hotel/intercityhotel-360354":{"name":"IntercityHotel","locationSet":{"include":["at","ch","cn","de","nl","om","sa"]},"geometry":["point","area"],"matchScore":2,"terms":["intercityhotel"],"fields":["name","brand","{tourism/hotel}"],"tags":{"brand:wikidata":"Q73642490","tourism":"hotel"},"addTags":{"brand":"IntercityHotel","brand:wikidata":"Q73642490","name":"IntercityHotel","tourism":"hotel"}},"tourism/hotel/leonardoboutique-97784d":{"name":"Leonardo Boutique","locationSet":{"include":["ch","de","es","hu","il","nl"]},"geometry":["point","area"],"matchScore":2,"terms":["leonardo boutique"],"fields":["name","brand","{tourism/hotel}"],"tags":{"brand:wikidata":"Q1819101","tourism":"hotel"},"addTags":{"brand":"Leonardo Boutique","brand:wikidata":"Q1819101","brand:wikipedia":"de:Leonardo Hotels","name":"Leonardo Boutique","tourism":"hotel"}},"tourism/hotel/leonardohotel-596e41":{"name":"Leonardo Hotel","locationSet":{"include":["at","be","de","es","gb","hu","it","nl"]},"geometry":["point","area"],"matchScore":2,"terms":["leonardo hotel"],"fields":["name","brand","{tourism/hotel}"],"tags":{"brand:wikidata":"Q1819101","tourism":"hotel"},"addTags":{"brand":"Leonardo Hotel","brand:wikidata":"Q1819101","brand:wikipedia":"de:Leonardo Hotels","name":"Leonardo Hotel","tourism":"hotel"}},"tourism/hotel/leonardoroyal-b40680":{"name":"Leonardo Royal","locationSet":{"include":["de","it","nl","pl"]},"geometry":["point","area"],"matchScore":2,"terms":["leonardo royal"],"fields":["name","brand","{tourism/hotel}"],"tags":{"brand:wikidata":"Q1819101","tourism":"hotel"},"addTags":{"brand":"Leonardo Royal","brand:wikidata":"Q1819101","brand:wikipedia":"de:Leonardo Hotels","name":"Leonardo Royal","tourism":"hotel"}},"tourism/hotel/motelone-046fe6":{"name":"Motel One","locationSet":{"include":["by","bg","cz","hu","pl","md","ro","ru","sk","ua","ax","gg","je","cq","dk","ee","fo","fi","is","ie","im","lv","lt","no","sj","se","gb","al","ad","ba","hr","gi","gr","va","it","mt","me","mk","pt","sm","rs","si","es","xk","at","be","fr","de","li","lu","mc","nl","ch"]},"geometry":["point","area"],"matchScore":2,"terms":["motel one"],"fields":["name","brand","{tourism/hotel}"],"tags":{"brand:wikidata":"Q391080","tourism":"hotel"},"addTags":{"brand":"Motel One","brand:wikidata":"Q391080","brand:wikipedia":"en:Motel One","name":"Motel One","tourism":"hotel"}},"tourism/hotel/roommate-a3fb22":{"name":"Room Mate","locationSet":{"include":["es","fr","it","mx","nl","tr","us"]},"geometry":["point","area"],"matchScore":2,"terms":["room mate"],"fields":["name","brand","{tourism/hotel}"],"tags":{"brand:wikidata":"Q26260849","tourism":"hotel"},"addTags":{"brand":"Room Mate","brand:wikidata":"Q26260849","name":"Room Mate","tourism":"hotel"}},"tourism/hotel/vandervalkhotel-1676dc":{"name":"Van der Valk Hotel","locationSet":{"include":["be","de","es","fr","nl","us"]},"geometry":["point","area"],"matchScore":2,"terms":["van der valk"],"fields":["name","brand","{tourism/hotel}"],"tags":{"brand:wikidata":"Q2802214","tourism":"hotel"},"addTags":{"brand":"Van der Valk","brand:wikidata":"Q2802214","brand:wikipedia":"en:Van der Valk (company)","name":"Van der Valk Hotel","tourism":"hotel"}},"tourism/hotel/waldorfastoria-204c06":{"name":"Waldorf Astoria","locationSet":{"include":["ae","cn","de","eg","fx","gb","il","it","kw","mv","mx","nl","pa","sa","th","us"]},"geometry":["point","area"],"matchScore":2,"terms":["waldorf astoria"],"fields":["name","brand","{tourism/hotel}"],"tags":{"brand:wikidata":"Q3239392","tourism":"hotel"},"addTags":{"brand":"Waldorf Astoria","brand:wikidata":"Q3239392","brand:wikipedia":"en:Waldorf Astoria Hotels & Resorts","name":"Waldorf Astoria","tourism":"hotel"}},"tourism/hotel/yotel-ebcca5":{"name":"YOTEL","locationSet":{"include":["ae","ch","fx","gb","nl","pt","sg","tr","us-ca","us-dc","us-fl","us-ma","us-ny"]},"geometry":["point","area"],"matchScore":2,"terms":["yotel"],"fields":["name","brand","{tourism/hotel}"],"tags":{"brand:wikidata":"Q8046002","tourism":"hotel"},"addTags":{"brand":"YOTEL","brand:wikidata":"Q8046002","brand:wikipedia":"en:Yotel","name":"YOTEL","tourism":"hotel"}},"man_made/flagpole/drenthe-e33879":{"name":"NL-DR - Drenthe","locationSet":{"include":["nl"]},"geometry":["point","vertex"],"matchScore":2,"terms":["drenthe"],"tags":{"flag:wikidata":"Q2265085","man_made":"flagpole"},"addTags":{"flag:name":"Drenthe","flag:type":"regional","flag:wikidata":"Q2265085","man_made":"flagpole","subject":"Drenthe","subject:wikidata":"Q772"}},"man_made/flagpole/flevoland-e33879":{"name":"NL-FL - Flevoland","locationSet":{"include":["nl"]},"geometry":["point","vertex"],"matchScore":2,"terms":["flevoland"],"tags":{"flag:wikidata":"Q1882506","man_made":"flagpole"},"addTags":{"flag:name":"Flevoland","flag:type":"regional","flag:wikidata":"Q1882506","man_made":"flagpole","subject":"Flevoland","subject:wikidata":"Q707"}},"man_made/flagpole/friesland-e33879":{"name":"NL-FR - Friesland","locationSet":{"include":["nl"]},"geometry":["point","vertex"],"matchScore":2,"terms":["friesland"],"tags":{"flag:wikidata":"Q1004161","man_made":"flagpole"},"addTags":{"flag:name":"Friesland","flag:type":"regional","flag:wikidata":"Q1004161","man_made":"flagpole","subject":"Friesland","subject:wikidata":"Q770"}},"man_made/flagpole/gelderland-e33879":{"name":"NL-GE - Gelderland","locationSet":{"include":["nl"]},"geometry":["point","vertex"],"matchScore":2,"terms":["gelderland"],"tags":{"flag:wikidata":"Q2586114","man_made":"flagpole"},"addTags":{"flag:name":"Gelderland","flag:type":"regional","flag:wikidata":"Q2586114","man_made":"flagpole","subject":"Gelderland","subject:wikidata":"Q775"}},"man_made/flagpole/groningen-e33879":{"name":"NL-GR - Groningen","locationSet":{"include":["nl"]},"geometry":["point","vertex"],"matchScore":2,"terms":["groningen"],"tags":{"flag:wikidata":"Q2586101","man_made":"flagpole"},"addTags":{"flag:name":"Groningen","flag:type":"regional","flag:wikidata":"Q2586101","man_made":"flagpole","subject":"Groningen","subject:wikidata":"Q752"}},"man_made/flagpole/limburg-e33879":{"name":"NL-LI - Limburg","locationSet":{"include":["nl"]},"geometry":["point","vertex"],"matchScore":2,"terms":["limburg"],"tags":{"flag:wikidata":"Q2133401","man_made":"flagpole"},"addTags":{"flag:name":"Limburg","flag:type":"regional","flag:wikidata":"Q2133401","man_made":"flagpole","subject":"Limburg","subject:wikidata":"Q1093"}},"man_made/flagpole/noordbrabant-e33879":{"name":"NL-NB - Noord-Brabant","locationSet":{"include":["nl"]},"geometry":["point","vertex"],"matchScore":2,"terms":["noord-brabant","north brabant"],"tags":{"flag:wikidata":"Q2250163","man_made":"flagpole"},"addTags":{"flag:name":"Noord-Brabant","flag:type":"regional","flag:wikidata":"Q2250163","man_made":"flagpole","subject":"Noord-Brabant","subject:wikidata":"Q1101"}},"man_made/flagpole/noordholland-e33879":{"name":"NL-NH - Noord-Holland","locationSet":{"include":["nl"]},"geometry":["point","vertex"],"matchScore":2,"terms":["noord-holland","north holland"],"tags":{"flag:wikidata":"Q2616924","man_made":"flagpole"},"addTags":{"flag:name":"Noord-Holland","flag:type":"regional","flag:wikidata":"Q2616924","man_made":"flagpole","subject":"Noord-Holland","subject:wikidata":"Q701"}},"man_made/flagpole/overijssel-e33879":{"name":"NL-OV - Overijssel","locationSet":{"include":["nl"]},"geometry":["point","vertex"],"matchScore":2,"terms":["overijssel"],"tags":{"flag:wikidata":"Q2330297","man_made":"flagpole"},"addTags":{"flag:name":"Overijssel","flag:type":"regional","flag:wikidata":"Q2330297","man_made":"flagpole","subject":"Overijssel","subject:wikidata":"Q773"}},"man_made/flagpole/utrecht-e33879":{"name":"NL-UT - Utrecht","locationSet":{"include":["nl"]},"geometry":["point","vertex"],"matchScore":2,"terms":["utrecht"],"tags":{"flag:wikidata":"Q2132438","man_made":"flagpole"},"addTags":{"flag:name":"Utrecht","flag:type":"regional","flag:wikidata":"Q2132438","man_made":"flagpole","subject":"Utrecht","subject:wikidata":"Q776"}},"man_made/flagpole/zeeland-e33879":{"name":"NL-ZE - Zeeland","locationSet":{"include":["nl"]},"geometry":["point","vertex"],"matchScore":2,"terms":["zeeland"],"tags":{"flag:wikidata":"Q2584616","man_made":"flagpole"},"addTags":{"flag:name":"Zeeland","flag:type":"regional","flag:wikidata":"Q2584616","man_made":"flagpole","subject":"Zeeland","subject:wikidata":"Q705"}},"man_made/flagpole/zuidholland-e33879":{"name":"NL-ZH - Zuid-Holland","locationSet":{"include":["nl"]},"geometry":["point","vertex"],"matchScore":2,"terms":["south holland","zuid-holland"],"tags":{"flag:wikidata":"Q2616930","man_made":"flagpole"},"addTags":{"flag:name":"Zuid-Holland","flag:type":"regional","flag:wikidata":"Q2616930","man_made":"flagpole","subject":"Zuid-Holland","subject:wikidata":"Q694"}},"amenity/car_sharing/greenwheels-96ec63":{"name":"Greenwheels","locationSet":{"include":["de","nl"]},"geometry":["point","area"],"matchScore":2,"terms":["greenwheels"],"tags":{"amenity":"car_sharing","operator:wikidata":"Q316782"},"addTags":{"amenity":"car_sharing","operator":"Greenwheels","operator:wikidata":"Q316782","operator:wikipedia":"en:Greenwheels"}},"amenity/charging_station/allego-17c03e":{"name":"Allego","locationSet":{"include":["be","de","gb","nl"]},"geometry":["point","area"],"matchScore":2,"terms":["allego","allego gmbh","allegro"],"fields":["name","operator","{amenity/charging_station}"],"tags":{"amenity":"charging_station","operator:wikidata":"Q75560554"},"addTags":{"amenity":"charging_station","operator":"Allego","operator:wikidata":"Q75560554"}},"amenity/charging_station/eon-7f623e":{"name":"E.ON","locationSet":{"include":["by","bg","cz","hu","pl","md","ro","ru","sk","ua","ax","gg","je","cq","dk","ee","fo","fi","is","ie","im","lv","lt","no","sj","se","gb","al","ad","ba","hr","gi","gr","va","it","mt","me","mk","pt","sm","rs","si","es","xk","at","be","fr","de","li","lu","mc","nl","ch"]},"geometry":["point","area"],"matchScore":2,"terms":["e-on drive","e.on"],"fields":["name","operator","{amenity/charging_station}"],"tags":{"amenity":"charging_station","operator:wikidata":"Q270223"},"addTags":{"amenity":"charging_station","operator":"E.ON","operator:wikidata":"Q270223","operator:wikipedia":"de:E.ON"}},"amenity/charging_station/engie-a29737":{"name":"Engie","locationSet":{"include":["gb","nl"]},"geometry":["point","area"],"matchScore":2,"terms":["engie"],"fields":["name","operator","{amenity/charging_station}"],"tags":{"amenity":"charging_station","operator:wikidata":"Q13416787"},"addTags":{"amenity":"charging_station","operator":"Engie","operator:wikidata":"Q13416787","operator:wikipedia":"fr:Engie"}},"amenity/charging_station/evbox-7f623e":{"name":"EVBOX","locationSet":{"include":["by","bg","cz","hu","pl","md","ro","ru","sk","ua","ax","gg","je","cq","dk","ee","fo","fi","is","ie","im","lv","lt","no","sj","se","gb","al","ad","ba","hr","gi","gr","va","it","mt","me","mk","pt","sm","rs","si","es","xk","at","be","fr","de","li","lu","mc","nl","ch"]},"geometry":["point","area"],"matchScore":2,"terms":["evbox"],"fields":["name","operator","{amenity/charging_station}"],"tags":{"amenity":"charging_station","operator:wikidata":"Q28406392"},"addTags":{"amenity":"charging_station","operator":"EVBOX","operator:wikidata":"Q28406392","operator:wikipedia":"en:EVBox"}},"amenity/charging_station/fastned-17c03e":{"name":"Fastned","locationSet":{"include":["be","de","gb","nl"]},"geometry":["point","area"],"matchScore":2,"terms":["fastned"],"fields":["name","operator","{amenity/charging_station}"],"tags":{"amenity":"charging_station","operator:wikidata":"Q19935749"},"addTags":{"amenity":"charging_station","operator":"Fastned","operator:wikidata":"Q19935749","operator:wikipedia":"en:Fastned"}},"amenity/charging_station/ionity-7f623e":{"name":"Ionity","locationSet":{"include":["by","bg","cz","hu","pl","md","ro","ru","sk","ua","ax","gg","je","cq","dk","ee","fo","fi","is","ie","im","lv","lt","no","sj","se","gb","al","ad","ba","hr","gi","gr","va","it","mt","me","mk","pt","sm","rs","si","es","xk","at","be","fr","de","li","lu","mc","nl","ch"]},"geometry":["point","area"],"matchScore":2,"terms":["ionity","ionity gmbh"],"fields":["name","operator","{amenity/charging_station}"],"tags":{"amenity":"charging_station","operator:wikidata":"Q42717773"},"addTags":{"amenity":"charging_station","operator":"Ionity","operator:wikidata":"Q42717773","operator:wikipedia":"en:IONITY"}},"amenity/charging_station/newmotion-61ee76":{"name":"NewMotion","locationSet":{"include":["de","gb","nl"]},"geometry":["point","area"],"matchScore":2,"terms":["newmotion"],"fields":["name","operator","{amenity/charging_station}"],"tags":{"amenity":"charging_station","operator:wikidata":"Q105883058"},"addTags":{"amenity":"charging_station","operator":"NewMotion","operator:wikidata":"Q105883058"}},"amenity/charging_station/nuon-fa6152":{"name":"NUON","locationSet":{"include":["nl"]},"geometry":["point","area"],"matchScore":2,"terms":["nuon"],"fields":["name","operator","{amenity/charging_station}"],"tags":{"amenity":"charging_station","operator:wikidata":"Q513830"},"addTags":{"amenity":"charging_station","operator":"NUON","operator:wikidata":"Q513830","operator:wikipedia":"nl:Vattenfall Nederland"}},"amenity/charging_station/qpark-7f623e":{"name":"Q-Park","locationSet":{"include":["by","bg","cz","hu","pl","md","ro","ru","sk","ua","ax","gg","je","cq","dk","ee","fo","fi","is","ie","im","lv","lt","no","sj","se","gb","al","ad","ba","hr","gi","gr","va","it","mt","me","mk","pt","sm","rs","si","es","xk","at","be","fr","de","li","lu","mc","nl","ch"]},"geometry":["point","area"],"matchScore":2,"terms":["q-park"],"fields":["name","operator","{amenity/charging_station}"],"tags":{"amenity":"charging_station","operator:wikidata":"Q1127798"},"addTags":{"amenity":"charging_station","operator":"Q-Park","operator:wikidata":"Q1127798","operator:wikipedia":"en:Q-Park"}},"amenity/charging_station/qbuzz-fa6152":{"name":"Qbuzz","locationSet":{"include":["nl"]},"geometry":["point","area"],"matchScore":2,"terms":["qbuzz"],"fields":["name","operator","{amenity/charging_station}"],"tags":{"amenity":"charging_station","operator:wikidata":"Q3146926"},"addTags":{"amenity":"charging_station","operator":"Qbuzz","operator:wikidata":"Q3146926","operator:wikipedia":"nl:Qbuzz"}},"amenity/drinking_water/brabantwater-0a63fc":{"name":"Brabant Water","locationSet":{"include":["nl"]},"geometry":["point"],"matchScore":2,"terms":["brabant water"],"tags":{"amenity":"drinking_water","operator:wikidata":"Q2458134"},"addTags":{"amenity":"drinking_water","operator":"Brabant Water","operator:wikidata":"Q2458134","operator:wikipedia":"nl:Brabant Water"}},"amenity/drinking_water/dunea-0a63fc":{"name":"Dunea","locationSet":{"include":["nl"]},"geometry":["point"],"matchScore":2,"terms":["dunea"],"tags":{"amenity":"drinking_water","operator:wikidata":"Q2623164"},"addTags":{"amenity":"drinking_water","operator":"Dunea","operator:wikidata":"Q2623164","operator:wikipedia":"nl:Dunea"}},"amenity/drinking_water/evides-0a63fc":{"name":"Evides","locationSet":{"include":["nl"]},"geometry":["point"],"matchScore":2,"terms":["evides"],"tags":{"amenity":"drinking_water","operator:wikidata":"Q2199007"},"addTags":{"amenity":"drinking_water","operator":"Evides","operator:wikidata":"Q2199007","operator:wikipedia":"nl:Evides"}},"amenity/drinking_water/ns-0a63fc":{"name":"NS","locationSet":{"include":["nl"]},"geometry":["point"],"matchScore":2,"terms":["ns"],"tags":{"amenity":"drinking_water","operator:wikidata":"Q23076"},"addTags":{"amenity":"drinking_water","operator":"NS","operator:wikidata":"Q23076","operator:wikipedia":"nl:Nederlandse Spoorwegen"}},"amenity/drinking_water/oasen-0a63fc":{"name":"Oasen","locationSet":{"include":["nl"]},"geometry":["point"],"matchScore":2,"terms":["oasen"],"tags":{"amenity":"drinking_water","operator:wikidata":"Q2594590"},"addTags":{"amenity":"drinking_water","operator":"Oasen","operator:wikidata":"Q2594590","operator:wikipedia":"nl:Oasen"}},"amenity/drinking_water/pwn-0a63fc":{"name":"PWN","locationSet":{"include":["nl"]},"geometry":["point"],"matchScore":2,"terms":["pwn"],"tags":{"amenity":"drinking_water","operator:wikidata":"Q1968432"},"addTags":{"amenity":"drinking_water","operator":"PWN","operator:wikidata":"Q1968432","operator:wikipedia":"nl:PWN Waterleidingbedrijf Noord-Holland"}},"amenity/drinking_water/waterbedrijfgroningen-0a63fc":{"name":"Waterbedrijf Groningen","locationSet":{"include":["nl"]},"geometry":["point"],"matchScore":2,"terms":["waterbedrijf groningen"],"tags":{"amenity":"drinking_water","operator:wikidata":"Q2200078"},"addTags":{"amenity":"drinking_water","operator":"Waterbedrijf Groningen","operator:wikidata":"Q2200078","operator:wikipedia":"nl:Waterbedrijf Groningen"}},"amenity/drinking_water/waternet-0a63fc":{"name":"Waternet","locationSet":{"include":["nl"]},"geometry":["point"],"matchScore":2,"terms":["waternet"],"tags":{"amenity":"drinking_water","operator:wikidata":"Q2137469"},"addTags":{"amenity":"drinking_water","operator":"Waternet","operator:wikidata":"Q2137469","operator:wikipedia":"nl:Waternet (bedrijf)"}},"amenity/fire_station/veiligheidsregiogroningen-0004ee":{"name":"Veiligheidsregio Groningen","locationSet":{"include":["nl"]},"geometry":["point","area"],"matchScore":2,"terms":["veiligheidsregio groningen"],"tags":{"amenity":"fire_station","operator:wikidata":"Q2749099"},"addTags":{"amenity":"fire_station","operator":"Veiligheidsregio Groningen","operator:wikidata":"Q2749099","operator:wikipedia":"nl:Veiligheidsregio Groningen"}},"amenity/hospital/acibadem-007b1e":{"name":"Acıbadem","locationSet":{"include":["bg","de","mk","nl","tr"]},"geometry":["area","point"],"matchScore":2,"terms":["acıbadem"],"fields":["name","operator","{amenity/hospital}"],"reference":{"key":"amenity","value":"hospital"},"tags":{"amenity":"hospital","operator:wikidata":"Q19610384"},"addTags":{"amenity":"hospital","healthcare":"hospital","operator":"Acıbadem","operator:wikidata":"Q19610384","operator:wikipedia":"en:Acıbadem Healthcare Group"}},"amenity/parking/apcoaparking-e752ad":{"name":"Apcoa Parking","locationSet":{"include":["at","be","ch","de","dk","gb","ie","it","nl","no","pl","se"]},"geometry":["area","point","vertex"],"matchScore":2,"terms":["apcoa parking"],"fields":["name","operator","{amenity/parking}"],"tags":{"amenity":"parking","operator:wikidata":"Q296108"},"addTags":{"amenity":"parking","operator":"APCOA Parking","operator:wikidata":"Q296108","operator:wikipedia":"en:APCOA Parking"}},"amenity/parking/qpark-99dc74":{"name":"Q-Park","locationSet":{"include":["be","de","dk","fr","gb","ie","nl"]},"geometry":["area","point","vertex"],"matchScore":2,"terms":["q-park"],"fields":["name","operator","{amenity/parking}"],"tags":{"amenity":"parking","operator:wikidata":"Q1127798"},"addTags":{"amenity":"parking","brand":"Q-Park","brand:wikidata":"Q1127798","brand:wikipedia":"en:Q-Park","fee":"yes","operator":"Q-Park","operator:wikidata":"Q1127798","operator:wikipedia":"en:Q-Park"}},"amenity/police/nationalepolitie-5cfdc8":{"name":"Nationale Politie","locationSet":{"include":["nl"]},"geometry":["point","area"],"matchScore":2,"terms":["nationale politie"],"tags":{"amenity":"police","operator:wikidata":"Q1920305"},"addTags":{"amenity":"police","operator":"Nationale Politie","operator:wikidata":"Q1920305","operator:wikipedia":"nl:Nationale politie (Nederland)"}},"amenity/post_box/postnl-3f4703":{"name":"PostNL","locationSet":{"include":["nl"]},"geometry":["point","vertex"],"matchScore":2,"terms":["postnl"],"tags":{"amenity":"post_box","operator:wikidata":"Q5921598"},"addTags":{"amenity":"post_box","operator":"PostNL","operator:wikidata":"Q5921598","operator:wikipedia":"nl:PostNL"}},"amenity/post_office/postnl-b4b2c0":{"name":"PostNL","locationSet":{"include":["nl"]},"geometry":["point","area"],"matchScore":2,"terms":["postnl"],"fields":["name","operator","{amenity/post_office}"],"tags":{"amenity":"post_office","operator:wikidata":"Q5921598"},"addTags":{"amenity":"post_office","operator":"PostNL","operator:wikidata":"Q5921598","operator:wikipedia":"nl:PostNL"}},"amenity/recycling/irado-fcd61b":{"name":"Irado","locationSet":{"include":["nl"]},"geometry":["point","area"],"matchScore":2,"terms":["irado"],"tags":{"amenity":"recycling","operator:wikidata":"Q57699708"},"addTags":{"amenity":"recycling","operator":"Irado","operator:wikidata":"Q57699708","operator:wikipedia":"nl:Irado"}},"amenity/social_facility/korian-08d104":{"name":"Korian","locationSet":{"include":["be","de","es","fx","it","nl"]},"geometry":["point","area"],"matchScore":2,"terms":["korian"],"tags":{"amenity":"social_facility","operator:wikidata":"Q3198944"},"addTags":{"amenity":"social_facility","operator":"Korian","operator:wikidata":"Q3198944","operator:wikipedia":"fr:Korian"}},"amenity/social_facility/legerdesheils-627b49":{"name":"Leger des Heils","locationSet":{"include":["nl"]},"geometry":["point","area"],"matchScore":2,"terms":["leger des heils"],"tags":{"amenity":"social_facility","operator:wikidata":"Q11688635"},"addTags":{"amenity":"social_facility","operator":"Leger des Heils","operator:wikidata":"Q11688635","operator:wikipedia":"en:Leger des Heils"}},"emergency/ambulance_station/ambulanceijsselland-851507":{"name":"Ambulance IJsselland","locationSet":{"include":["nl"]},"geometry":["point","area"],"matchScore":2,"terms":["ambulance ijsselland"],"tags":{"emergency":"ambulance_station","operator:wikidata":"Q2375981"},"addTags":{"emergency":"ambulance_station","operator":"Ambulance IJsselland","operator:wikidata":"Q2375981","operator:wikipedia":"nl:Veiligheidsregio IJsselland"}},"emergency/ambulance_station/ravhollandsmidden-851507":{"name":"RAV Hollands Midden","locationSet":{"include":["nl"]},"geometry":["point","area"],"matchScore":2,"terms":["rav hollands midden"],"tags":{"emergency":"ambulance_station","operator:wikidata":"Q18089037"},"addTags":{"emergency":"ambulance_station","operator":"RAV Hollands Midden","operator:wikidata":"Q18089037","operator:wikipedia":"nl:RAV Hollands Midden"}},"emergency/lifeboat_station/koninklijkenederlandsereddingmaatschappij-f8cdd5":{"name":"Koninklijke Nederlandse Redding Maatschappij","locationSet":{"include":["nl"]},"geometry":["point","area"],"matchScore":2,"terms":["knrm","koninklijke nederlandse redding maatschappij","rnsri","royal netherlands sea rescue institution"],"tags":{"emergency":"lifeboat_station","operator:wikidata":"Q587175"},"addTags":{"emergency":"lifeboat_station","operator":"Koninklijke Nederlandse Redding Maatschappij","operator:en":"Royal Netherlands Sea Rescue Institution","operator:wikidata":"Q587175","operator:wikipedia":"nl:Koninklijke Nederlandse Redding Maatschappij"}},"emergency/phone/nederlandsespoorwegen-5f7cd9":{"name":"Nederlandse Spoorwegen","locationSet":{"include":["nl"]},"geometry":["point","vertex"],"matchScore":2,"terms":["nederlandse spoorwegen"],"tags":{"emergency":"phone","operator:wikidata":"Q23076"},"addTags":{"emergency":"phone","operator":"Nederlandse Spoorwegen","operator:type":"government","operator:wikidata":"Q23076","operator:wikipedia":"nl:Nederlandse Spoorwegen"}},"office/energy_supplier/naturgy-e15d8a":{"name":"Naturgy","locationSet":{"include":["ar","au","be","br","cl","cn","cr","de","do","dz","eg","es","fr","gb","ie","in","jm","jo","jp","lu","ma","mx","nl","om","pa","pe","pk","pr","pt","sg"]},"geometry":["point","area"],"matchScore":2,"terms":["naturgy"],"tags":{"office":"energy_supplier","operator:wikidata":"Q474690"},"addTags":{"name":"Naturgy","office":"energy_supplier","operator":"Naturgy","operator:wikidata":"Q474690","operator:wikipedia":"es:Naturgy"}},"power/generator/eneco-7c4044":{"name":"Eneco","locationSet":{"include":["nl"]},"geometry":["point","vertex","area"],"matchScore":2,"terms":["eneco","eneco groep n.v."],"tags":{"operator:wikidata":"Q1341079","power":"generator"},"addTags":{"operator":"Eneco","operator:wikidata":"Q1341079","operator:wikipedia":"nl:Eneco","power":"generator"}},"power/generator/energiekontor-b85a3e":{"name":"Energiekontor","locationSet":{"include":["de","gb","nl","pt"]},"geometry":["point","vertex","area"],"matchScore":2,"terms":["energiekontor","energiekontor windkraft gmbh & co wp nl kg"],"tags":{"operator:wikidata":"Q1341306","power":"generator"},"addTags":{"operator":"Energiekontor","operator:wikidata":"Q1341306","operator:wikipedia":"de:Energiekontor","power":"generator"}},"power/generator/innogy-16c9d0":{"name":"Innogy","locationSet":{"include":["by","bg","cz","hu","pl","md","ro","ru","sk","ua","ax","gg","je","cq","dk","ee","fo","fi","is","ie","im","lv","lt","no","sj","se","gb","al","ad","ba","hr","gi","gr","va","it","mt","me","mk","pt","sm","rs","si","es","xk","at","be","fr","de","li","lu","mc","nl","ch"]},"geometry":["point","vertex","area"],"matchScore":2,"terms":["innogy"],"tags":{"operator:wikidata":"Q2124721","power":"generator"},"addTags":{"operator":"Innogy","operator:wikidata":"Q2124721","operator:wikipedia":"en:Innogy","power":"generator"}},"power/generator/rwe-16c9d0":{"name":"RWE","locationSet":{"include":["by","bg","cz","hu","pl","md","ro","ru","sk","ua","ax","gg","je","cq","dk","ee","fo","fi","is","ie","im","lv","lt","no","sj","se","gb","al","ad","ba","hr","gi","gr","va","it","mt","me","mk","pt","sm","rs","si","es","xk","at","be","fr","de","li","lu","mc","nl","ch"]},"geometry":["point","vertex","area"],"matchScore":2,"terms":["rwe"],"tags":{"operator:wikidata":"Q138133","power":"generator"},"addTags":{"operator":"RWE","operator:wikidata":"Q138133","operator:wikipedia":"en:RWE","power":"generator"}},"power/generator/statkraft-16c9d0":{"name":"Statkraft","locationSet":{"include":["by","bg","cz","hu","pl","md","ro","ru","sk","ua","ax","gg","je","cq","dk","ee","fo","fi","is","ie","im","lv","lt","no","sj","se","gb","al","ad","ba","hr","gi","gr","va","it","mt","me","mk","pt","sm","rs","si","es","xk","at","be","fr","de","li","lu","mc","nl","ch"]},"geometry":["point","vertex","area"],"matchScore":2,"terms":["statkraft"],"tags":{"operator:wikidata":"Q1681145","power":"generator"},"addTags":{"operator":"Statkraft","operator:wikidata":"Q1681145","operator:wikipedia":"en:Statkraft","power":"generator"}},"power/generator/trianel-0e2731":{"name":"Trianel","locationSet":{"include":["at","ch","de","nl"]},"geometry":["point","vertex","area"],"matchScore":2,"terms":["trianel"],"tags":{"operator:wikidata":"Q1517876","power":"generator"},"addTags":{"operator":"Trianel","operator:wikidata":"Q1517876","operator:wikipedia":"de:Trianel","power":"generator"}},"power/generator/uniper-16c9d0":{"name":"Uniper","locationSet":{"include":["by","bg","cz","hu","pl","md","ro","ru","sk","ua","ax","gg","je","cq","dk","ee","fo","fi","is","ie","im","lv","lt","no","sj","se","gb","al","ad","ba","hr","gi","gr","va","it","mt","me","mk","pt","sm","rs","si","es","xk","at","be","fr","de","li","lu","mc","nl","ch"]},"geometry":["point","vertex","area"],"matchScore":2,"terms":["uniper"],"tags":{"operator:wikidata":"Q19839259","power":"generator"},"addTags":{"operator":"Uniper","operator:wikidata":"Q19839259","operator:wikipedia":"en:Uniper","power":"generator"}},"power/generator/vattenfallnederland-7c4044":{"name":"Vattenfall (Nederland)","locationSet":{"include":["nl"]},"geometry":["point","vertex","area"],"matchScore":2,"terms":["nuon","vattenfall","vattenfall nederland"],"tags":{"operator:wikidata":"Q513830","power":"generator"},"addTags":{"operator":"Vattenfall Nederland","operator:wikidata":"Q513830","operator:wikipedia":"nl:Vattenfall Nederland","power":"generator"}},"power/line/liander-754f07":{"name":"Liander","locationSet":{"include":["nl"]},"geometry":["line"],"matchScore":2,"terms":["liander"],"tags":{"operator:wikidata":"Q2578819","power":"line"},"addTags":{"operator":"Liander","operator:wikidata":"Q2578819","operator:wikipedia":"nl:Liander","power":"line"}},"power/line/stedin-754f07":{"name":"Stedin","locationSet":{"include":["nl"]},"geometry":["line"],"matchScore":2,"terms":["stedin"],"tags":{"operator:wikidata":"Q1902943","power":"line"},"addTags":{"operator":"Stedin","operator:wikidata":"Q1902943","operator:wikipedia":"nl:Stedin","power":"line"}},"power/line/tennet-754f07":{"name":"TenneT","locationSet":{"include":["nl"]},"geometry":["line"],"matchScore":2,"terms":["tennet"],"tags":{"operator:wikidata":"Q1127569","power":"line"},"addTags":{"operator":"TenneT","operator:wikidata":"Q1127569","operator:wikipedia":"nl:TenneT","power":"line"}},"power/minor_line/liander-bd8f8a":{"name":"Liander","locationSet":{"include":["nl"]},"geometry":["line"],"matchScore":2,"terms":["liander"],"tags":{"operator:wikidata":"Q2578819","power":"minor_line"},"addTags":{"operator":"Liander","operator:wikidata":"Q2578819","operator:wikipedia":"nl:Liander","power":"minor_line"}},"power/minor_line/stedin-bd8f8a":{"name":"Stedin","locationSet":{"include":["nl"]},"geometry":["line"],"matchScore":2,"terms":["stedin"],"tags":{"operator:wikidata":"Q1902943","power":"minor_line"},"addTags":{"operator":"Stedin","operator:wikidata":"Q1902943","operator:wikipedia":"nl:Stedin","power":"minor_line"}},"power/minor_line/tennet-bd8f8a":{"name":"TenneT","locationSet":{"include":["nl"]},"geometry":["line"],"matchScore":2,"terms":["tennet"],"tags":{"operator:wikidata":"Q1127569","power":"minor_line"},"addTags":{"operator":"TenneT","operator:wikidata":"Q1127569","operator:wikipedia":"nl:TenneT","power":"minor_line"}},"power/plant/eneco-473e48":{"name":"Eneco","locationSet":{"include":["be","nl"]},"geometry":["area"],"matchScore":2,"terms":["eneco"],"tags":{"operator:wikidata":"Q1341079","power":"plant"},"addTags":{"operator":"Eneco","operator:wikidata":"Q1341079","operator:wikipedia":"fr:Eneco","power":"plant"}},"power/plant/orsted-67f0f6":{"name":"Ørsted","locationSet":{"include":["de","dk","gb","nl","se","us"]},"geometry":["area"],"matchScore":2,"terms":["ørsted"],"tags":{"operator:wikidata":"Q1241260","power":"plant"},"addTags":{"operator":"Ørsted","operator:wikidata":"Q1241260","operator:wikipedia":"de:Ørsted (Unternehmen)","power":"plant"}},"power/plant/vattenfall-482654":{"name":"Vattenfall","locationSet":{"include":["dk","fi","gb","nl","pl","se"]},"geometry":["area"],"matchScore":2,"terms":["vattenfall","vattenfall ab"],"tags":{"operator:wikidata":"Q157675","power":"plant"},"addTags":{"operator":"Vattenfall","operator:wikidata":"Q157675","operator:wikipedia":"da:Vattenfall","power":"plant"}},"power/pole/liander-42ab8c":{"name":"Liander","locationSet":{"include":["nl"]},"geometry":["point","vertex"],"matchScore":2,"terms":["liander"],"tags":{"operator:wikidata":"Q2578819","power":"pole"},"addTags":{"operator":"Liander","operator:wikidata":"Q2578819","operator:wikipedia":"nl:Liander","power":"pole"}},"power/pole/stedin-42ab8c":{"name":"Stedin","locationSet":{"include":["nl"]},"geometry":["point","vertex"],"matchScore":2,"terms":["stedin"],"tags":{"operator:wikidata":"Q1902943","power":"pole"},"addTags":{"operator":"Stedin","operator:wikidata":"Q1902943","operator:wikipedia":"nl:Stedin","power":"pole"}},"power/pole/tennet-42ab8c":{"name":"TenneT","locationSet":{"include":["nl"]},"geometry":["point","vertex"],"matchScore":2,"terms":["tennet"],"tags":{"operator:wikidata":"Q1127569","power":"pole"},"addTags":{"operator":"TenneT","operator:wikidata":"Q1127569","operator:wikipedia":"nl:TenneT","power":"pole"}},"power/substation/eneco-01f022":{"name":"Eneco","locationSet":{"include":["nl"]},"geometry":["area","point"],"matchScore":2,"terms":["eneco"],"tags":{"operator:wikidata":"Q1341079","power":"substation"},"addTags":{"operator":"Eneco","operator:wikidata":"Q1341079","operator:wikipedia":"nl:Eneco","power":"substation"}},"power/substation/enexis-01f022":{"name":"Enexis","locationSet":{"include":["nl"]},"geometry":["area","point"],"matchScore":2,"terms":["enexis"],"tags":{"operator:wikidata":"Q2036673","power":"substation"},"addTags":{"operator":"Enexis","operator:wikidata":"Q2036673","operator:wikipedia":"nl:Enexis","power":"substation"}},"power/substation/liander-01f022":{"name":"Liander","locationSet":{"include":["nl"]},"geometry":["area","point"],"matchScore":2,"terms":["liander"],"tags":{"operator:wikidata":"Q2578819","power":"substation"},"addTags":{"operator":"Liander","operator:wikidata":"Q2578819","operator:wikipedia":"nl:Liander","power":"substation"}},"power/substation/prorail-01f022":{"name":"ProRail","locationSet":{"include":["nl"]},"geometry":["area","point"],"matchScore":2,"terms":["prorail"],"tags":{"operator:wikidata":"Q2316882","power":"substation"},"addTags":{"operator":"ProRail","operator:wikidata":"Q2316882","operator:wikipedia":"nl:ProRail","power":"substation"}},"power/substation/stedin-01f022":{"name":"Stedin","locationSet":{"include":["nl"]},"geometry":["area","point"],"matchScore":2,"terms":["stedin"],"tags":{"operator:wikidata":"Q1902943","power":"substation"},"addTags":{"operator":"Stedin","operator:wikidata":"Q1902943","operator:wikipedia":"nl:Stedin","power":"substation"}},"power/substation/tennet-01f022":{"name":"TenneT","locationSet":{"include":["nl"]},"geometry":["area","point"],"matchScore":2,"terms":["tennet"],"tags":{"operator:wikidata":"Q1127569","power":"substation"},"addTags":{"operator":"TenneT","operator:wikidata":"Q1127569","operator:wikipedia":"nl:TenneT","power":"substation"}},"power/substation/westlandinfra-01f022":{"name":"Westland Infra","locationSet":{"include":["nl"]},"geometry":["area","point"],"matchScore":2,"terms":["westland infra"],"tags":{"operator:wikidata":"Q3051261","power":"substation"},"addTags":{"operator":"Westland Infra","operator:wikidata":"Q3051261","operator:wikipedia":"nl:Westland Infra","power":"substation"}},"power/tower/liander-858998":{"name":"Liander","locationSet":{"include":["nl"]},"geometry":["point","vertex"],"matchScore":2,"terms":["liander"],"tags":{"operator:wikidata":"Q2578819","power":"tower"},"addTags":{"operator":"Liander","operator:wikidata":"Q2578819","operator:wikipedia":"nl:Liander","power":"tower"}},"power/tower/stedin-858998":{"name":"Stedin","locationSet":{"include":["nl"]},"geometry":["point","vertex"],"matchScore":2,"terms":["stedin"],"tags":{"operator:wikidata":"Q1902943","power":"tower"},"addTags":{"operator":"Stedin","operator:wikidata":"Q1902943","operator:wikipedia":"nl:Stedin","power":"tower"}},"power/tower/tennet-858998":{"name":"TenneT","locationSet":{"include":["nl"]},"geometry":["point","vertex"],"matchScore":2,"terms":["tennet"],"tags":{"operator:wikidata":"Q1127569","power":"tower"},"addTags":{"operator":"TenneT","operator:wikidata":"Q1127569","operator:wikipedia":"nl:TenneT","power":"tower"}},"power/transformer/eneco-dcd896":{"name":"Eneco","locationSet":{"include":["nl"]},"geometry":["point","vertex"],"matchScore":2,"terms":["eneco"],"tags":{"operator:wikidata":"Q1341079","power":"transformer"},"addTags":{"operator":"Eneco","operator:wikidata":"Q1341079","operator:wikipedia":"nl:Eneco","power":"transformer"}},"power/transformer/enexis-dcd896":{"name":"Enexis","locationSet":{"include":["nl"]},"geometry":["point","vertex"],"matchScore":2,"terms":["enexis"],"tags":{"operator:wikidata":"Q2036673","power":"transformer"},"addTags":{"operator":"Enexis","operator:wikidata":"Q2036673","operator:wikipedia":"nl:Enexis","power":"transformer"}},"power/transformer/liander-dcd896":{"name":"Liander","locationSet":{"include":["nl"]},"geometry":["point","vertex"],"matchScore":2,"terms":["liander"],"tags":{"operator:wikidata":"Q2578819","power":"transformer"},"addTags":{"operator":"Liander","operator:wikidata":"Q2578819","operator:wikipedia":"nl:Liander","power":"transformer"}},"power/transformer/prorail-dcd896":{"name":"ProRail","locationSet":{"include":["nl"]},"geometry":["point","vertex"],"matchScore":2,"terms":["prorail"],"tags":{"operator:wikidata":"Q2316882","power":"transformer"},"addTags":{"operator":"ProRail","operator:wikidata":"Q2316882","operator:wikipedia":"nl:ProRail","power":"transformer"}},"power/transformer/stedin-dcd896":{"name":"Stedin","locationSet":{"include":["nl"]},"geometry":["point","vertex"],"matchScore":2,"terms":["stedin"],"tags":{"operator:wikidata":"Q1902943","power":"transformer"},"addTags":{"operator":"Stedin","operator:wikidata":"Q1902943","operator:wikipedia":"nl:Stedin","power":"transformer"}},"power/transformer/tennet-dcd896":{"name":"TenneT","locationSet":{"include":["nl"]},"geometry":["point","vertex"],"matchScore":2,"terms":["tennet"],"tags":{"operator:wikidata":"Q1127569","power":"transformer"},"addTags":{"operator":"TenneT","operator:wikidata":"Q1127569","operator:wikipedia":"nl:TenneT","power":"transformer"}},"power/transformer/westlandinfra-dcd896":{"name":"Westland Infra","locationSet":{"include":["nl"]},"geometry":["point","vertex"],"matchScore":2,"terms":["westland infra"],"tags":{"operator:wikidata":"Q3051261","power":"transformer"},"addTags":{"operator":"Westland Infra","operator:wikidata":"Q3051261","operator:wikipedia":"nl:Westland Infra","power":"transformer"}},"type/route/power/liander-010a98":{"name":"Liander","locationSet":{"include":["nl"]},"geometry":["relation"],"matchScore":2,"terms":["liander"],"reference":{"key":"route","value":"power"},"tags":{"operator:wikidata":"Q2578819","route":"power","type":"route"},"addTags":{"operator":"Liander","operator:wikidata":"Q2578819","operator:wikipedia":"nl:Liander","route":"power","type":"route"}},"type/route/power/tennet-010a98":{"name":"TenneT","locationSet":{"include":["nl"]},"geometry":["relation"],"matchScore":2,"terms":["tennet"],"reference":{"key":"route","value":"power"},"tags":{"operator:wikidata":"Q1127569","route":"power","type":"route"},"addTags":{"operator":"TenneT","operator:wikidata":"Q1127569","operator:wikipedia":"nl:TenneT","route":"power","type":"route"}},"telecom/data_center/qts-e64ccc":{"name":"QTS","locationSet":{"include":["nl","us"]},"geometry":["point","area"],"matchScore":2,"terms":["herakles","qts","quality technology services"],"fields":["name","operator","{telecom/data_center}"],"tags":{"operator:wikidata":"Q18392800","telecom":"data_center"},"addTags":{"name":"QTS","operator":"Quality Technology Services","operator:short":"QTS","operator:wikidata":"Q18392800","operator:wikipedia":"en:Quality Technology Services","telecom":"data_center"}},"telecom/exchange/kpn-2cd407":{"name":"KPN","locationSet":{"include":["nl"]},"geometry":["point","area"],"matchScore":2,"terms":["kpn"],"fields":["name","operator","{telecom/exchange}"],"tags":{"operator:wikidata":"Q338633","telecom":"exchange"},"addTags":{"operator":"KPN","operator:wikidata":"Q338633","operator:wikipedia":"nl:Koninklijke KPN","telecom":"exchange"}},"public_transport/station_ferry/fastferryhoekvanhollandmaasvlakte-afb277":{"name":"Fast Ferry Hoek van Holland - Maasvlakte","locationSet":{"include":["nl"]},"geometry":["vertex","point","area"],"matchScore":2,"terms":["fast ferry hoek van holland - maasvlakte","ret"],"reference":{"key":"amenity","value":"ferry_terminal"},"tags":{"ferry":"yes","network:wikidata":"Q108720466","public_transport":"station"},"addTags":{"amenity":"ferry_terminal","ferry":"yes","network":"Fast Ferry Hoek van Holland - Maasvlakte","network:wikidata":"Q108720466","operator":"RET","public_transport":"station"}},"public_transport/station_ferry/fastferryvlissingenbreskens-afb277":{"name":"Fast Ferry Vlissingen - Breskens","locationSet":{"include":["nl"]},"geometry":["vertex","point","area"],"matchScore":2,"terms":["fast ferry vlissingen - breskens","westerschelde ferry bv"],"reference":{"key":"amenity","value":"ferry_terminal"},"tags":{"ferry":"yes","network:wikidata":"Q108720434","public_transport":"station"},"addTags":{"amenity":"ferry_terminal","ferry":"yes","network":"Fast Ferry Vlissingen - Breskens","network:wikidata":"Q108720434","operator":"Westerschelde Ferry BV","public_transport":"station"}},"public_transport/station_ferry/ijennoordzeekanaalveren-afb277":{"name":"IJ- en Noordzeekanaalveren","locationSet":{"include":["nl"]},"geometry":["vertex","point","area"],"matchScore":2,"terms":["ij- en noordzeekanaalveren"],"reference":{"key":"amenity","value":"ferry_terminal"},"tags":{"ferry":"yes","network:wikidata":"Q108720424","public_transport":"station"},"addTags":{"amenity":"ferry_terminal","ferry":"yes","network":"IJ- en Noordzeekanaalveren","network:wikidata":"Q108720424","public_transport":"station"}},"public_transport/station_ferry/maasveren-afb277":{"name":"Maasveren","locationSet":{"include":["nl"]},"geometry":["vertex","point","area"],"matchScore":2,"terms":["maasveren"],"reference":{"key":"amenity","value":"ferry_terminal"},"tags":{"ferry":"yes","network:wikidata":"Q2674706","public_transport":"station"},"addTags":{"amenity":"ferry_terminal","ferry":"yes","network":"Maasveren","network:wikidata":"Q2674706","network:wikipedia":"nl:Stichting de Maasveren","public_transport":"station"}},"public_transport/station_ferry/veerkopvantland-afb277":{"name":"Veer Kop van 't Land","locationSet":{"include":["nl"]},"geometry":["vertex","point","area"],"matchScore":2,"terms":["swets odv maritiem","veer kop van 't land"],"reference":{"key":"amenity","value":"ferry_terminal"},"tags":{"ferry":"yes","network:wikidata":"Q108742712","public_transport":"station"},"addTags":{"amenity":"ferry_terminal","ferry":"yes","network":"Veer Kop van 't Land","network:wikidata":"Q108742712","operator":"Swets ODV Maritiem","public_transport":"station"}},"public_transport/station_ferry/waterbusrotterdamdrechtsteden-afb277":{"name":"Waterbus Rotterdam-Drechtsteden","locationSet":{"include":["nl"]},"geometry":["vertex","point","area"],"matchScore":2,"terms":["aquabus","waterbus rotterdam-drechtsteden"],"reference":{"key":"amenity","value":"ferry_terminal"},"tags":{"ferry":"yes","network:wikidata":"Q1845402","public_transport":"station"},"addTags":{"amenity":"ferry_terminal","ferry":"yes","network":"Waterbus Rotterdam-Drechtsteden","network:wikidata":"Q1845402","network:wikipedia":"nl:Waterbus Rotterdam-Drechtsteden","operator":"Aquabus","public_transport":"station"}},"public_transport/platform/bus_point/achterhoekrivierenland-0af83a":{"name":"Achterhoek-Rivierenland","locationSet":{"include":["nl"]},"geometry":["point","vertex"],"matchScore":2,"terms":["achterhoek-rivierenland"],"reference":{"key":"public_transport","value":"platform"},"tags":{"bus":"yes","network:wikidata":"Q108716027","public_transport":"platform"},"addTags":{"bus":"yes","highway":"bus_stop","network":"Achterhoek-Rivierenland","network:wikidata":"Q108716027","public_transport":"platform"}},"public_transport/platform/bus_point/amstellandmeerlanden-0af83a":{"name":"Amstelland-Meerlanden","locationSet":{"include":["nl"]},"geometry":["point","vertex"],"matchScore":2,"terms":["amstelland-meerlanden"],"reference":{"key":"public_transport","value":"platform"},"tags":{"bus":"yes","network:wikidata":"Q108716043","public_transport":"platform"},"addTags":{"bus":"yes","highway":"bus_stop","network":"Amstelland-Meerlanden","network:wikidata":"Q108716043","public_transport":"platform"}},"public_transport/platform/bus_point/arnhemnijmegen-0af83a":{"name":"Arnhem-Nijmegen","locationSet":{"include":["nl"]},"geometry":["point","vertex"],"matchScore":2,"terms":["arnhem-nijmegen"],"reference":{"key":"public_transport","value":"platform"},"tags":{"bus":"yes","network:wikidata":"Q108716067","public_transport":"platform"},"addTags":{"bus":"yes","highway":"bus_stop","network":"Arnhem-Nijmegen","network:wikidata":"Q108716067","public_transport":"platform"}},"public_transport/platform/bus_point/busrotterdam-0af83a":{"name":"Bus Rotterdam","locationSet":{"include":["nl"]},"geometry":["point","vertex"],"matchScore":2,"terms":["bus rotterdam"],"reference":{"key":"public_transport","value":"platform"},"tags":{"bus":"yes","network:wikidata":"Q108716132","public_transport":"platform"},"addTags":{"bus":"yes","highway":"bus_stop","network":"Bus Rotterdam","network:wikidata":"Q108716132","public_transport":"platform"}},"public_transport/platform/bus_point/busvervoeralmere-0af83a":{"name":"Busvervoer Almere","locationSet":{"include":["nl"]},"geometry":["point","vertex"],"matchScore":2,"terms":["busvervoer almere"],"reference":{"key":"public_transport","value":"platform"},"tags":{"bus":"yes","network:wikidata":"Q108716136","public_transport":"platform"},"addTags":{"bus":"yes","highway":"bus_stop","network":"Busvervoer Almere","network:wikidata":"Q108716136","public_transport":"platform"}},"public_transport/platform/bus_point/dlan-8ed590":{"name":"DLAn","locationSet":{"include":["be","nl"]},"geometry":["point","vertex"],"matchScore":2,"terms":["de lijn","dlan"],"reference":{"key":"public_transport","value":"platform"},"tags":{"bus":"yes","network:wikidata":"Q614819","public_transport":"platform"},"addTags":{"bus":"yes","highway":"bus_stop","network":"DLAn","network:wikidata":"Q614819","network:wikipedia":"nl:De Lijn (vervoermaatschappij)","operator":"De Lijn","public_transport":"platform"}},"public_transport/platform/bus_point/dlli-8ed590":{"name":"DLLi","locationSet":{"include":["be","nl"]},"geometry":["point","vertex"],"matchScore":2,"terms":["de lijn","dlli"],"reference":{"key":"public_transport","value":"platform"},"tags":{"bus":"yes","network:wikidata":"Q614819","public_transport":"platform"},"addTags":{"bus":"yes","highway":"bus_stop","network":"DLLi","network:wikidata":"Q614819","network:wikipedia":"nl:De Lijn (vervoermaatschappij)","operator":"De Lijn","public_transport":"platform"}},"public_transport/platform/bus_point/dlov-8ed590":{"name":"DLOV","locationSet":{"include":["be","nl"]},"geometry":["point","vertex"],"matchScore":2,"terms":["de lijn","dlov"],"reference":{"key":"public_transport","value":"platform"},"tags":{"bus":"yes","network:wikidata":"Q614819","public_transport":"platform"},"addTags":{"bus":"yes","highway":"bus_stop","network":"DLOV","network:wikidata":"Q614819","network:wikipedia":"nl:De Lijn (vervoermaatschappij)","operator":"De Lijn","public_transport":"platform"}},"public_transport/platform/bus_point/drechtstedenmolenlandenengorinchem-0af83a":{"name":"Drechtsteden, Molenlanden en Gorinchem","locationSet":{"include":["nl"]},"geometry":["point","vertex"],"matchScore":2,"terms":["drechtsteden, molenlanden en gorinchem"],"reference":{"key":"public_transport","value":"platform"},"tags":{"bus":"yes","network:wikidata":"Q108716138","public_transport":"platform"},"addTags":{"bus":"yes","highway":"bus_stop","network":"Drechtsteden, Molenlanden en Gorinchem","network:wikidata":"Q108716138","public_transport":"platform"}},"public_transport/platform/bus_point/gooienvechtstreek-0af83a":{"name":"Gooi- en Vechtstreek","locationSet":{"include":["nl"]},"geometry":["point","vertex"],"matchScore":2,"terms":["gooi- en vechtstreek"],"reference":{"key":"public_transport","value":"platform"},"tags":{"bus":"yes","network:wikidata":"Q108723753","public_transport":"platform"},"addTags":{"bus":"yes","highway":"bus_stop","network":"Gooi- en Vechtstreek","network:wikidata":"Q108723753","public_transport":"platform"}},"public_transport/platform/bus_point/groningendrenthe-0af83a":{"name":"Groningen-Drenthe","locationSet":{"include":["nl"]},"geometry":["point","vertex"],"matchScore":2,"terms":["groningen-drenthe"],"reference":{"key":"public_transport","value":"platform"},"tags":{"bus":"yes","network:wikidata":"Q108742233","public_transport":"platform"},"addTags":{"bus":"yes","highway":"bus_stop","network":"Groningen-Drenthe","network:wikidata":"Q108742233","public_transport":"platform"}},"public_transport/platform/bus_point/haaglandenstad-0af83a":{"name":"Haaglanden Stad","locationSet":{"include":["nl"]},"geometry":["point","vertex"],"matchScore":2,"terms":["haaglanden stad"],"reference":{"key":"public_transport","value":"platform"},"tags":{"bus":"yes","network:wikidata":"Q108718022","public_transport":"platform"},"addTags":{"bus":"yes","highway":"bus_stop","network":"Haaglanden Stad","network:wikidata":"Q108718022","public_transport":"platform"}},"public_transport/platform/bus_point/haaglandenstreek-0af83a":{"name":"Haaglanden Streek","locationSet":{"include":["nl"]},"geometry":["point","vertex"],"matchScore":2,"terms":["haaglanden streek"],"reference":{"key":"public_transport","value":"platform"},"tags":{"bus":"yes","network:wikidata":"Q108709937","public_transport":"platform"},"addTags":{"bus":"yes","highway":"bus_stop","network":"Haaglanden Streek","network:wikidata":"Q108709937","public_transport":"platform"}},"public_transport/platform/bus_point/haarlemijmond-0af83a":{"name":"Haarlem-IJmond","locationSet":{"include":["nl"]},"geometry":["point","vertex"],"matchScore":2,"terms":["haarlem-ijmond"],"reference":{"key":"public_transport","value":"platform"},"tags":{"bus":"yes","network:wikidata":"Q66991285","public_transport":"platform"},"addTags":{"bus":"yes","highway":"bus_stop","network":"Haarlem-IJmond","network:wikidata":"Q66991285","network:wikipedia":"nl:Vervoer in Haarlem-IJmond","public_transport":"platform"}},"public_transport/platform/bus_point/hoekschewaardgoereeoverflakkee-0af83a":{"name":"Hoeksche Waard - Goeree-Overflakkee","locationSet":{"include":["nl"]},"geometry":["point","vertex"],"matchScore":2,"terms":["hoeksche waard - goeree-overflakkee"],"reference":{"key":"public_transport","value":"platform"},"tags":{"bus":"yes","network:wikidata":"Q108721362","public_transport":"platform"},"addTags":{"bus":"yes","highway":"bus_stop","network":"Hoeksche Waard - Goeree-Overflakkee","network:wikidata":"Q108721362","public_transport":"platform"}},"public_transport/platform/bus_point/ijsselvecht-0af83a":{"name":"IJssel-Vecht","locationSet":{"include":["nl"]},"geometry":["point","vertex"],"matchScore":2,"terms":["ijssel-vecht"],"reference":{"key":"public_transport","value":"platform"},"tags":{"bus":"yes","network:wikidata":"Q108721383","public_transport":"platform"},"addTags":{"bus":"yes","highway":"bus_stop","network":"IJssel-Vecht","network:wikidata":"Q108721383","public_transport":"platform"}},"public_transport/platform/bus_point/ijsselmond-0af83a":{"name":"IJsselmond","locationSet":{"include":["nl"]},"geometry":["point","vertex"],"matchScore":2,"terms":["ijsselmond"],"reference":{"key":"public_transport","value":"platform"},"tags":{"bus":"yes","network:wikidata":"Q108742700","public_transport":"platform"},"addTags":{"bus":"yes","highway":"bus_stop","network":"IJsselmond","network:wikidata":"Q108742700","public_transport":"platform"}},"public_transport/platform/bus_point/limburg-a5c21d":{"name":"Limburg","locationSet":{"include":["be","de","nl"]},"geometry":["point","vertex"],"matchScore":2,"terms":["limburg"],"reference":{"key":"public_transport","value":"platform"},"tags":{"bus":"yes","network:wikidata":"Q108713758","public_transport":"platform"},"addTags":{"bus":"yes","highway":"bus_stop","network":"Limburg","network:wikidata":"Q108713758","public_transport":"platform"}},"public_transport/platform/bus_point/noordenzuidwestfryslanenschiermonnikoog-0af83a":{"name":"Noord- en Zuidwest-Fryslân en Schiermonnikoog","locationSet":{"include":["nl"]},"geometry":["point","vertex"],"matchScore":2,"terms":["noord- en zuidwest-friesland en schiermonnikoog","noord- en zuidwest-fryslân en schiermonnikoog"],"reference":{"key":"public_transport","value":"platform"},"tags":{"bus":"yes","network:wikidata":"Q108742235","public_transport":"platform"},"addTags":{"bus":"yes","highway":"bus_stop","network":"Noord- en Zuidwest-Fryslân en Schiermonnikoog","network:wikidata":"Q108742235","public_transport":"platform"}},"public_transport/platform/bus_point/noordhollandnoord-0af83a":{"name":"Noord-Holland Noord","locationSet":{"include":["nl"]},"geometry":["point","vertex"],"matchScore":2,"terms":["noord-holland noord"],"reference":{"key":"public_transport","value":"platform"},"tags":{"bus":"yes","network:wikidata":"Q2271893","public_transport":"platform"},"addTags":{"bus":"yes","highway":"bus_stop","network":"Noord-Holland Noord","network:wikidata":"Q2271893","network:wikipedia":"nl:Concessie Noord-Holland Noord","public_transport":"platform"}},"public_transport/platform/bus_point/oostbrabant-0af83a":{"name":"Oost-Brabant","locationSet":{"include":["nl"]},"geometry":["point","vertex"],"matchScore":2,"terms":["oost-brabant"],"reference":{"key":"public_transport","value":"platform"},"tags":{"bus":"yes","network:wikidata":"Q108712935","public_transport":"platform"},"addTags":{"bus":"yes","highway":"bus_stop","network":"Oost-Brabant","network:wikidata":"Q108712935","public_transport":"platform"}},"public_transport/platform/bus_point/parkshuttlerivium-0af83a":{"name":"Parkshuttle Rivium","locationSet":{"include":["nl"]},"geometry":["point","vertex"],"matchScore":2,"terms":["connexxion","parkshuttle rivium"],"reference":{"key":"public_transport","value":"platform"},"tags":{"bus":"yes","network:wikidata":"Q108721420","public_transport":"platform"},"addTags":{"bus":"yes","highway":"bus_stop","network":"Parkshuttle Rivium","network:wikidata":"Q108721420","operator":"Connexxion","public_transport":"platform"}},"public_transport/platform/bus_point/provincieutrecht-0af83a":{"name":"Provincie Utrecht","locationSet":{"include":["nl"]},"geometry":["point","vertex"],"matchScore":2,"terms":["provincie utrecht"],"reference":{"key":"public_transport","value":"platform"},"tags":{"bus":"yes","network:wikidata":"Q108742249","public_transport":"platform"},"addTags":{"bus":"yes","highway":"bus_stop","network":"Provincie Utrecht","network:wikidata":"Q108742249","public_transport":"platform"}},"public_transport/platform/bus_point/publiekvervoergroningendrenthe-0af83a":{"name":"Publiek Vervoer Groningen-Drenthe","locationSet":{"include":["nl"]},"geometry":["point","vertex"],"matchScore":2,"terms":["publiek vervoer groningen-drenthe"],"reference":{"key":"public_transport","value":"platform"},"tags":{"bus":"yes","network:wikidata":"Q108742243","public_transport":"platform"},"addTags":{"bus":"yes","highway":"bus_stop","network":"Publiek Vervoer Groningen-Drenthe","network:wikidata":"Q108742243","public_transport":"platform"}},"public_transport/platform/bus_point/regioutrecht-0af83a":{"name":"Regio Utrecht","locationSet":{"include":["nl"]},"geometry":["point","vertex"],"matchScore":2,"terms":["regio utrecht"],"reference":{"key":"public_transport","value":"platform"},"tags":{"bus":"yes","network:wikidata":"Q108742251","public_transport":"platform"},"addTags":{"bus":"yes","highway":"bus_stop","network":"Regio Utrecht","network:wikidata":"Q108742251","public_transport":"platform"}},"public_transport/platform/bus_point/schiphollandsideairside-0af83a":{"name":"Schiphol Landside/Airside","locationSet":{"include":["nl"]},"geometry":["point","vertex"],"matchScore":2,"terms":["arriva touring","schiphol landside/airside"],"reference":{"key":"public_transport","value":"platform"},"tags":{"bus":"yes","network:wikidata":"Q108742701","public_transport":"platform"},"addTags":{"bus":"yes","highway":"bus_stop","network":"Schiphol Landside/Airside","network:wikidata":"Q108742701","operator":"Arriva Touring","public_transport":"platform"}},"public_transport/platform/bus_point/stadsvervoeramsterdam-0af83a":{"name":"Stadsvervoer Amsterdam","locationSet":{"include":["nl"]},"geometry":["point","vertex"],"matchScore":2,"terms":["stadsvervoer amsterdam"],"reference":{"key":"public_transport","value":"platform"},"tags":{"bus":"yes","network:wikidata":"Q108742702","public_transport":"platform"},"addTags":{"bus":"yes","highway":"bus_stop","network":"Stadsvervoer Amsterdam","network:wikidata":"Q108742702","public_transport":"platform"}},"public_transport/platform/bus_point/stadsvervoerlelystad-0af83a":{"name":"Stadsvervoer Lelystad","locationSet":{"include":["nl"]},"geometry":["point","vertex"],"matchScore":2,"terms":["stadsvervoer lelystad"],"reference":{"key":"public_transport","value":"platform"},"tags":{"bus":"yes","network:wikidata":"Q108742704","public_transport":"platform"},"addTags":{"bus":"yes","highway":"bus_stop","network":"Stadsvervoer Lelystad","network:wikidata":"Q108742704","public_transport":"platform"}},"public_transport/platform/bus_point/twente-0af83a":{"name":"Twente","locationSet":{"include":["nl"]},"geometry":["point","vertex"],"matchScore":2,"terms":["twente"],"reference":{"key":"public_transport","value":"platform"},"tags":{"bus":"yes","network:wikidata":"Q108741255","public_transport":"platform"},"addTags":{"bus":"yes","highway":"bus_stop","network":"Twente","network:wikidata":"Q108741255","public_transport":"platform"}},"public_transport/platform/bus_point/verkehrsverbundemsjade-b0d006":{"name":"Verkehrsverbund Ems-Jade","locationSet":{"include":["de","nl"]},"geometry":["point","vertex"],"matchScore":2,"terms":["vej","verkehrsverbund ems-jade"],"reference":{"key":"public_transport","value":"platform"},"tags":{"bus":"yes","network:wikidata":"Q1324337","public_transport":"platform"},"addTags":{"bus":"yes","highway":"bus_stop","network":"Verkehrsverbund Ems-Jade","network:short":"VEJ","network:wikidata":"Q1324337","network:wikipedia":"de:Verkehrsverbund Ems-Jade","public_transport":"platform"}},"public_transport/platform/bus_point/vgb-b0d006":{"name":"VGB","locationSet":{"include":["de","nl"]},"geometry":["point","vertex"],"matchScore":2,"terms":["vgb"],"reference":{"key":"public_transport","value":"platform"},"tags":{"bus":"yes","network:wikidata":"Q2516212","public_transport":"platform"},"addTags":{"bus":"yes","highway":"bus_stop","network":"VGB","network:wikidata":"Q2516212","network:wikipedia":"de:Verkehrsgemeinschaft Grafschaft Bentheim","public_transport":"platform"}},"public_transport/platform/bus_point/voorneputtenenrozenburg-0af83a":{"name":"Voorne-Putten en Rozenburg","locationSet":{"include":["nl"]},"geometry":["point","vertex"],"matchScore":2,"terms":["voorne-putten en rozenburg"],"reference":{"key":"public_transport","value":"platform"},"tags":{"bus":"yes","network:wikidata":"Q108718063","public_transport":"platform"},"addTags":{"bus":"yes","highway":"bus_stop","network":"Voorne-Putten en Rozenburg","network:wikidata":"Q108718063","public_transport":"platform"}},"public_transport/platform/bus_point/waterland-0af83a":{"name":"Waterland","locationSet":{"include":["nl"]},"geometry":["point","vertex"],"matchScore":2,"terms":["waterland"],"reference":{"key":"public_transport","value":"platform"},"tags":{"bus":"yes","network:wikidata":"Q108742714","public_transport":"platform"},"addTags":{"bus":"yes","highway":"bus_stop","network":"Waterland","network:wikidata":"Q108742714","public_transport":"platform"}},"public_transport/platform/bus_point/westbrabant-8ed590":{"name":"West-Brabant","locationSet":{"include":["be","nl"]},"geometry":["point","vertex"],"matchScore":2,"terms":["west-brabant"],"reference":{"key":"public_transport","value":"platform"},"tags":{"bus":"yes","network:wikidata":"Q108742718","public_transport":"platform"},"addTags":{"bus":"yes","highway":"bus_stop","network":"West-Brabant","network:wikidata":"Q108742718","public_transport":"platform"}},"public_transport/platform/bus_point/zaanstreek-0af83a":{"name":"Zaanstreek","locationSet":{"include":["nl"]},"geometry":["point","vertex"],"matchScore":2,"terms":["zaanstreek"],"reference":{"key":"public_transport","value":"platform"},"tags":{"bus":"yes","network:wikidata":"Q3519297","public_transport":"platform"},"addTags":{"bus":"yes","highway":"bus_stop","network":"Zaanstreek","network:wikidata":"Q3519297","network:wikipedia":"nl:Concessie Zaanstreek","public_transport":"platform"}},"public_transport/platform/bus_point/zeeland-8ed590":{"name":"Zeeland","locationSet":{"include":["be","nl"]},"geometry":["point","vertex"],"matchScore":2,"terms":["zeeland"],"reference":{"key":"public_transport","value":"platform"},"tags":{"bus":"yes","network:wikidata":"Q108718030","public_transport":"platform"},"addTags":{"bus":"yes","highway":"bus_stop","network":"Zeeland","network:wikidata":"Q108718030","public_transport":"platform"}},"public_transport/platform/bus_point/zuidhollandnoord-0af83a":{"name":"Zuid-Holland Noord","locationSet":{"include":["nl"]},"geometry":["point","vertex"],"matchScore":2,"terms":["zuid-holland noord"],"reference":{"key":"public_transport","value":"platform"},"tags":{"bus":"yes","network:wikidata":"Q108718025","public_transport":"platform"},"addTags":{"bus":"yes","highway":"bus_stop","network":"Zuid-Holland Noord","network:wikidata":"Q108718025","public_transport":"platform"}},"public_transport/platform/bus_point/zuidoostbrabant-8ed590":{"name":"Zuidoost-Brabant","locationSet":{"include":["be","nl"]},"geometry":["point","vertex"],"matchScore":2,"terms":["zuidoost-brabant"],"reference":{"key":"public_transport","value":"platform"},"tags":{"bus":"yes","network:wikidata":"Q108710205","public_transport":"platform"},"addTags":{"bus":"yes","highway":"bus_stop","network":"Zuidoost-Brabant","network:wikidata":"Q108710205","public_transport":"platform"}},"public_transport/platform/bus_point/zuidoostfryslanenwadden-0af83a":{"name":"Zuidoost-Fryslân en Wadden","locationSet":{"include":["nl"]},"geometry":["point","vertex"],"matchScore":2,"terms":["zuidoost-fryslân en wadden"],"reference":{"key":"public_transport","value":"platform"},"tags":{"bus":"yes","network:wikidata":"Q108742721","public_transport":"platform"},"addTags":{"bus":"yes","highway":"bus_stop","network":"Zuidoost-Fryslân en Wadden","network:wikidata":"Q108742721","public_transport":"platform"}},"type/route/bus/achterhoekrivierenland-2f3200":{"name":"Achterhoek-Rivierenland","locationSet":{"include":["nl"]},"geometry":["relation"],"matchScore":2,"terms":["achterhoek-rivierenland"],"reference":{"key":"route","value":"bus"},"tags":{"network:wikidata":"Q108716027","route":"bus","type":"route"},"addTags":{"network":"Achterhoek-Rivierenland","network:wikidata":"Q108716027","route":"bus","type":"route"}},"type/route/bus/amstellandmeerlanden-2f3200":{"name":"Amstelland-Meerlanden","locationSet":{"include":["nl"]},"geometry":["relation"],"matchScore":2,"terms":["amstelland-meerlanden"],"reference":{"key":"route","value":"bus"},"tags":{"network:wikidata":"Q108716043","route":"bus","type":"route"},"addTags":{"network":"Amstelland-Meerlanden","network:wikidata":"Q108716043","route":"bus","type":"route"}},"type/route/bus/arnhemnijmegen-2f3200":{"name":"Arnhem-Nijmegen","locationSet":{"include":["nl"]},"geometry":["relation"],"matchScore":2,"terms":["arnhem-nijmegen"],"reference":{"key":"route","value":"bus"},"tags":{"network:wikidata":"Q108716067","route":"bus","type":"route"},"addTags":{"network":"Arnhem-Nijmegen","network:wikidata":"Q108716067","route":"bus","type":"route"}},"type/route/bus/busrotterdam-2f3200":{"name":"Bus Rotterdam","locationSet":{"include":["nl"]},"geometry":["relation"],"matchScore":2,"terms":["bus rotterdam"],"reference":{"key":"route","value":"bus"},"tags":{"network:wikidata":"Q108716132","route":"bus","type":"route"},"addTags":{"network":"Bus Rotterdam","network:wikidata":"Q108716132","route":"bus","type":"route"}},"type/route/bus/busvervoeralmere-2f3200":{"name":"Busvervoer Almere","locationSet":{"include":["nl"]},"geometry":["relation"],"matchScore":2,"terms":["busvervoer almere"],"reference":{"key":"route","value":"bus"},"tags":{"network:wikidata":"Q108716136","route":"bus","type":"route"},"addTags":{"network":"Busvervoer Almere","network:wikidata":"Q108716136","route":"bus","type":"route"}},"type/route/bus/dlan-a315fc":{"name":"DLAn","locationSet":{"include":["be","nl"]},"geometry":["relation"],"matchScore":2,"terms":["de lijn","dlan"],"reference":{"key":"route","value":"bus"},"tags":{"network:wikidata":"Q614819","route":"bus","type":"route"},"addTags":{"network":"DLAn","network:wikidata":"Q614819","network:wikipedia":"nl:De Lijn (vervoermaatschappij)","operator":"De Lijn","route":"bus","type":"route"}},"type/route/bus/dlli-a315fc":{"name":"DLLi","locationSet":{"include":["be","nl"]},"geometry":["relation"],"matchScore":2,"terms":["de lijn","dlli"],"reference":{"key":"route","value":"bus"},"tags":{"network:wikidata":"Q614819","route":"bus","type":"route"},"addTags":{"network":"DLLi","network:wikidata":"Q614819","network:wikipedia":"nl:De Lijn (vervoermaatschappij)","operator":"De Lijn","route":"bus","type":"route"}},"type/route/bus/dlov-a315fc":{"name":"DLOV","locationSet":{"include":["be","nl"]},"geometry":["relation"],"matchScore":2,"terms":["de lijn","dlov"],"reference":{"key":"route","value":"bus"},"tags":{"network:wikidata":"Q614819","route":"bus","type":"route"},"addTags":{"network":"DLOV","network:wikidata":"Q614819","network:wikipedia":"nl:De Lijn (vervoermaatschappij)","operator":"De Lijn","route":"bus","type":"route"}},"type/route/bus/drechtstedenmolenlandenengorinchem-2f3200":{"name":"Drechtsteden, Molenlanden en Gorinchem","locationSet":{"include":["nl"]},"geometry":["relation"],"matchScore":2,"terms":["drechtsteden, molenlanden en gorinchem"],"reference":{"key":"route","value":"bus"},"tags":{"network:wikidata":"Q108716138","route":"bus","type":"route"},"addTags":{"network":"Drechtsteden, Molenlanden en Gorinchem","network:wikidata":"Q108716138","route":"bus","type":"route"}},"type/route/bus/gooienvechtstreek-2f3200":{"name":"Gooi- en Vechtstreek","locationSet":{"include":["nl"]},"geometry":["relation"],"matchScore":2,"terms":["gooi- en vechtstreek"],"reference":{"key":"route","value":"bus"},"tags":{"network:wikidata":"Q108723753","route":"bus","type":"route"},"addTags":{"network":"Gooi- en Vechtstreek","network:wikidata":"Q108723753","route":"bus","type":"route"}},"type/route/bus/groningendrenthe-2f3200":{"name":"Groningen-Drenthe","locationSet":{"include":["nl"]},"geometry":["relation"],"matchScore":2,"terms":["groningen-drenthe"],"reference":{"key":"route","value":"bus"},"tags":{"network:wikidata":"Q108742233","route":"bus","type":"route"},"addTags":{"network":"Groningen-Drenthe","network:wikidata":"Q108742233","route":"bus","type":"route"}},"type/route/bus/haaglandenstad-2f3200":{"name":"Haaglanden Stad","locationSet":{"include":["nl"]},"geometry":["relation"],"matchScore":2,"terms":["haaglanden stad"],"reference":{"key":"route","value":"bus"},"tags":{"network:wikidata":"Q108718022","route":"bus","type":"route"},"addTags":{"network":"Haaglanden Stad","network:wikidata":"Q108718022","route":"bus","type":"route"}},"type/route/bus/haaglandenstreek-2f3200":{"name":"Haaglanden Streek","locationSet":{"include":["nl"]},"geometry":["relation"],"matchScore":2,"terms":["haaglanden streek"],"reference":{"key":"route","value":"bus"},"tags":{"network:wikidata":"Q108709937","route":"bus","type":"route"},"addTags":{"network":"Haaglanden Streek","network:wikidata":"Q108709937","route":"bus","type":"route"}},"type/route/bus/haarlemijmond-2f3200":{"name":"Haarlem-IJmond","locationSet":{"include":["nl"]},"geometry":["relation"],"matchScore":2,"terms":["haarlem-ijmond"],"reference":{"key":"route","value":"bus"},"tags":{"network:wikidata":"Q66991285","route":"bus","type":"route"},"addTags":{"network":"Haarlem-IJmond","network:wikidata":"Q66991285","network:wikipedia":"nl:Vervoer in Haarlem-IJmond","route":"bus","type":"route"}},"type/route/bus/hoekschewaardgoereeoverflakkee-2f3200":{"name":"Hoeksche Waard - Goeree-Overflakkee","locationSet":{"include":["nl"]},"geometry":["relation"],"matchScore":2,"terms":["hoeksche waard - goeree-overflakkee"],"reference":{"key":"route","value":"bus"},"tags":{"network:wikidata":"Q108721362","route":"bus","type":"route"},"addTags":{"network":"Hoeksche Waard - Goeree-Overflakkee","network:wikidata":"Q108721362","route":"bus","type":"route"}},"type/route/bus/ijsselvecht-2f3200":{"name":"IJssel-Vecht","locationSet":{"include":["nl"]},"geometry":["relation"],"matchScore":2,"terms":["ijssel-vecht"],"reference":{"key":"route","value":"bus"},"tags":{"network:wikidata":"Q108721383","route":"bus","type":"route"},"addTags":{"network":"IJssel-Vecht","network:wikidata":"Q108721383","route":"bus","type":"route"}},"type/route/bus/ijsselmond-2f3200":{"name":"IJsselmond","locationSet":{"include":["nl"]},"geometry":["relation"],"matchScore":2,"terms":["ijsselmond"],"reference":{"key":"route","value":"bus"},"tags":{"network:wikidata":"Q108742700","route":"bus","type":"route"},"addTags":{"network":"IJsselmond","network:wikidata":"Q108742700","route":"bus","type":"route"}},"type/route/bus/limburg-80be78":{"name":"Limburg","locationSet":{"include":["be","de","nl"]},"geometry":["relation"],"matchScore":2,"terms":["limburg"],"reference":{"key":"route","value":"bus"},"tags":{"network:wikidata":"Q108713758","route":"bus","type":"route"},"addTags":{"network":"Limburg","network:wikidata":"Q108713758","route":"bus","type":"route"}},"type/route/bus/noordenzuidwestfryslanenschiermonnikoog-2f3200":{"name":"Noord- en Zuidwest-Fryslân en Schiermonnikoog","locationSet":{"include":["nl"]},"geometry":["relation"],"matchScore":2,"terms":["noord- en zuidwest-friesland en schiermonnikoog","noord- en zuidwest-fryslân en schiermonnikoog"],"reference":{"key":"route","value":"bus"},"tags":{"network:wikidata":"Q108742235","route":"bus","type":"route"},"addTags":{"network":"Noord- en Zuidwest-Fryslân en Schiermonnikoog","network:wikidata":"Q108742235","route":"bus","type":"route"}},"type/route/bus/noordhollandnoord-2f3200":{"name":"Noord-Holland Noord","locationSet":{"include":["nl"]},"geometry":["relation"],"matchScore":2,"terms":["noord-holland noord"],"reference":{"key":"route","value":"bus"},"tags":{"network:wikidata":"Q2271893","route":"bus","type":"route"},"addTags":{"network":"Noord-Holland Noord","network:wikidata":"Q2271893","network:wikipedia":"nl:Concessie Noord-Holland Noord","route":"bus","type":"route"}},"type/route/bus/oostbrabant-2f3200":{"name":"Oost-Brabant","locationSet":{"include":["nl"]},"geometry":["relation"],"matchScore":2,"terms":["oost-brabant"],"reference":{"key":"route","value":"bus"},"tags":{"network:wikidata":"Q108712935","route":"bus","type":"route"},"addTags":{"network":"Oost-Brabant","network:wikidata":"Q108712935","route":"bus","type":"route"}},"type/route/bus/parkshuttlerivium-2f3200":{"name":"Parkshuttle Rivium","locationSet":{"include":["nl"]},"geometry":["relation"],"matchScore":2,"terms":["connexxion","parkshuttle rivium"],"reference":{"key":"route","value":"bus"},"tags":{"network:wikidata":"Q108721420","route":"bus","type":"route"},"addTags":{"network":"Parkshuttle Rivium","network:wikidata":"Q108721420","operator":"Connexxion","route":"bus","type":"route"}},"type/route/bus/provincieutrecht-2f3200":{"name":"Provincie Utrecht","locationSet":{"include":["nl"]},"geometry":["relation"],"matchScore":2,"terms":["provincie utrecht"],"reference":{"key":"route","value":"bus"},"tags":{"network:wikidata":"Q108742249","route":"bus","type":"route"},"addTags":{"network":"Provincie Utrecht","network:wikidata":"Q108742249","route":"bus","type":"route"}},"type/route/bus/publiekvervoergroningendrenthe-2f3200":{"name":"Publiek Vervoer Groningen-Drenthe","locationSet":{"include":["nl"]},"geometry":["relation"],"matchScore":2,"terms":["publiek vervoer groningen-drenthe"],"reference":{"key":"route","value":"bus"},"tags":{"network:wikidata":"Q108742243","route":"bus","type":"route"},"addTags":{"network":"Publiek Vervoer Groningen-Drenthe","network:wikidata":"Q108742243","route":"bus","type":"route"}},"type/route/bus/regioutrecht-2f3200":{"name":"Regio Utrecht","locationSet":{"include":["nl"]},"geometry":["relation"],"matchScore":2,"terms":["regio utrecht"],"reference":{"key":"route","value":"bus"},"tags":{"network:wikidata":"Q108742251","route":"bus","type":"route"},"addTags":{"network":"Regio Utrecht","network:wikidata":"Q108742251","route":"bus","type":"route"}},"type/route/bus/schiphollandsideairside-2f3200":{"name":"Schiphol Landside/Airside","locationSet":{"include":["nl"]},"geometry":["relation"],"matchScore":2,"terms":["arriva touring","schiphol landside/airside"],"reference":{"key":"route","value":"bus"},"tags":{"network:wikidata":"Q108742701","route":"bus","type":"route"},"addTags":{"network":"Schiphol Landside/Airside","network:wikidata":"Q108742701","operator":"Arriva Touring","route":"bus","type":"route"}},"type/route/bus/stadsvervoeramsterdam-2f3200":{"name":"Stadsvervoer Amsterdam","locationSet":{"include":["nl"]},"geometry":["relation"],"matchScore":2,"terms":["stadsvervoer amsterdam"],"reference":{"key":"route","value":"bus"},"tags":{"network:wikidata":"Q108742702","route":"bus","type":"route"},"addTags":{"network":"Stadsvervoer Amsterdam","network:wikidata":"Q108742702","route":"bus","type":"route"}},"type/route/bus/stadsvervoerlelystad-2f3200":{"name":"Stadsvervoer Lelystad","locationSet":{"include":["nl"]},"geometry":["relation"],"matchScore":2,"terms":["stadsvervoer lelystad"],"reference":{"key":"route","value":"bus"},"tags":{"network:wikidata":"Q108742704","route":"bus","type":"route"},"addTags":{"network":"Stadsvervoer Lelystad","network:wikidata":"Q108742704","route":"bus","type":"route"}},"type/route/bus/twente-2f3200":{"name":"Twente","locationSet":{"include":["nl"]},"geometry":["relation"],"matchScore":2,"terms":["twente"],"reference":{"key":"route","value":"bus"},"tags":{"network:wikidata":"Q108741255","route":"bus","type":"route"},"addTags":{"network":"Twente","network:wikidata":"Q108741255","route":"bus","type":"route"}},"type/route/bus/verkehrsverbundemsjade-bd0377":{"name":"Verkehrsverbund Ems-Jade","locationSet":{"include":["de","nl"]},"geometry":["relation"],"matchScore":2,"terms":["vej","verkehrsverbund ems-jade"],"reference":{"key":"route","value":"bus"},"tags":{"network:wikidata":"Q1324337","route":"bus","type":"route"},"addTags":{"network":"Verkehrsverbund Ems-Jade","network:short":"VEJ","network:wikidata":"Q1324337","network:wikipedia":"de:Verkehrsverbund Ems-Jade","route":"bus","type":"route"}},"type/route/bus/vgb-bd0377":{"name":"VGB","locationSet":{"include":["de","nl"]},"geometry":["relation"],"matchScore":2,"terms":["vgb"],"reference":{"key":"route","value":"bus"},"tags":{"network:wikidata":"Q2516212","route":"bus","type":"route"},"addTags":{"network":"VGB","network:wikidata":"Q2516212","network:wikipedia":"de:Verkehrsgemeinschaft Grafschaft Bentheim","route":"bus","type":"route"}},"type/route/bus/voorneputtenenrozenburg-2f3200":{"name":"Voorne-Putten en Rozenburg","locationSet":{"include":["nl"]},"geometry":["relation"],"matchScore":2,"terms":["voorne-putten en rozenburg"],"reference":{"key":"route","value":"bus"},"tags":{"network:wikidata":"Q108718063","route":"bus","type":"route"},"addTags":{"network":"Voorne-Putten en Rozenburg","network:wikidata":"Q108718063","route":"bus","type":"route"}},"type/route/bus/waterland-2f3200":{"name":"Waterland","locationSet":{"include":["nl"]},"geometry":["relation"],"matchScore":2,"terms":["waterland"],"reference":{"key":"route","value":"bus"},"tags":{"network:wikidata":"Q108742714","route":"bus","type":"route"},"addTags":{"network":"Waterland","network:wikidata":"Q108742714","route":"bus","type":"route"}},"type/route/bus/westbrabant-a315fc":{"name":"West-Brabant","locationSet":{"include":["be","nl"]},"geometry":["relation"],"matchScore":2,"terms":["west-brabant"],"reference":{"key":"route","value":"bus"},"tags":{"network:wikidata":"Q108742718","route":"bus","type":"route"},"addTags":{"network":"West-Brabant","network:wikidata":"Q108742718","route":"bus","type":"route"}},"type/route/bus/zaanstreek-2f3200":{"name":"Zaanstreek","locationSet":{"include":["nl"]},"geometry":["relation"],"matchScore":2,"terms":["zaanstreek"],"reference":{"key":"route","value":"bus"},"tags":{"network:wikidata":"Q3519297","route":"bus","type":"route"},"addTags":{"network":"Zaanstreek","network:wikidata":"Q3519297","network:wikipedia":"nl:Concessie Zaanstreek","route":"bus","type":"route"}},"type/route/bus/zeeland-a315fc":{"name":"Zeeland","locationSet":{"include":["be","nl"]},"geometry":["relation"],"matchScore":2,"terms":["zeeland"],"reference":{"key":"route","value":"bus"},"tags":{"network:wikidata":"Q108718030","route":"bus","type":"route"},"addTags":{"network":"Zeeland","network:wikidata":"Q108718030","route":"bus","type":"route"}},"type/route/bus/zuidhollandnoord-2f3200":{"name":"Zuid-Holland Noord","locationSet":{"include":["nl"]},"geometry":["relation"],"matchScore":2,"terms":["zuid-holland noord"],"reference":{"key":"route","value":"bus"},"tags":{"network:wikidata":"Q108718025","route":"bus","type":"route"},"addTags":{"network":"Zuid-Holland Noord","network:wikidata":"Q108718025","route":"bus","type":"route"}},"type/route/bus/zuidoostbrabant-a315fc":{"name":"Zuidoost-Brabant","locationSet":{"include":["be","nl"]},"geometry":["relation"],"matchScore":2,"terms":["zuidoost-brabant"],"reference":{"key":"route","value":"bus"},"tags":{"network:wikidata":"Q108710205","route":"bus","type":"route"},"addTags":{"network":"Zuidoost-Brabant","network:wikidata":"Q108710205","route":"bus","type":"route"}},"type/route/bus/zuidoostfryslanenwadden-2f3200":{"name":"Zuidoost-Fryslân en Wadden","locationSet":{"include":["nl"]},"geometry":["relation"],"matchScore":2,"terms":["zuidoost-fryslân en wadden"],"reference":{"key":"route","value":"bus"},"tags":{"network:wikidata":"Q108742721","route":"bus","type":"route"},"addTags":{"network":"Zuidoost-Fryslân en Wadden","network:wikidata":"Q108742721","route":"bus","type":"route"}},"type/route/ferry/fastferryhoekvanhollandmaasvlakte-6f1a78":{"name":"Fast Ferry Hoek van Holland - Maasvlakte","locationSet":{"include":["nl"]},"geometry":["relation"],"matchScore":2,"terms":["fast ferry hoek van holland - maasvlakte","ret"],"reference":{"key":"route","value":"ferry"},"tags":{"network:wikidata":"Q108720466","route":"ferry","type":"route"},"addTags":{"network":"Fast Ferry Hoek van Holland - Maasvlakte","network:wikidata":"Q108720466","operator":"RET","route":"ferry","type":"route"}},"type/route/ferry/fastferryvlissingenbreskens-6f1a78":{"name":"Fast Ferry Vlissingen - Breskens","locationSet":{"include":["nl"]},"geometry":["relation"],"matchScore":2,"terms":["fast ferry vlissingen - breskens","westerschelde ferry bv"],"reference":{"key":"route","value":"ferry"},"tags":{"network:wikidata":"Q108720434","route":"ferry","type":"route"},"addTags":{"network":"Fast Ferry Vlissingen - Breskens","network:wikidata":"Q108720434","operator":"Westerschelde Ferry BV","route":"ferry","type":"route"}},"type/route/ferry/ijennoordzeekanaalveren-6f1a78":{"name":"IJ- en Noordzeekanaalveren","locationSet":{"include":["nl"]},"geometry":["relation"],"matchScore":2,"terms":["ij- en noordzeekanaalveren"],"reference":{"key":"route","value":"ferry"},"tags":{"network:wikidata":"Q108720424","route":"ferry","type":"route"},"addTags":{"network":"IJ- en Noordzeekanaalveren","network:wikidata":"Q108720424","route":"ferry","type":"route"}},"type/route/ferry/maasveren-6f1a78":{"name":"Maasveren","locationSet":{"include":["nl"]},"geometry":["relation"],"matchScore":2,"terms":["maasveren"],"reference":{"key":"route","value":"ferry"},"tags":{"network:wikidata":"Q2674706","route":"ferry","type":"route"},"addTags":{"network":"Maasveren","network:wikidata":"Q2674706","network:wikipedia":"nl:Stichting de Maasveren","route":"ferry","type":"route"}},"type/route/ferry/veerkopvantland-6f1a78":{"name":"Veer Kop van 't Land","locationSet":{"include":["nl"]},"geometry":["relation"],"matchScore":2,"terms":["swets odv maritiem","veer kop van 't land"],"reference":{"key":"route","value":"ferry"},"tags":{"network:wikidata":"Q108742712","route":"ferry","type":"route"},"addTags":{"network":"Veer Kop van 't Land","network:wikidata":"Q108742712","operator":"Swets ODV Maritiem","route":"ferry","type":"route"}},"type/route/ferry/waterbusrotterdamdrechtsteden-6f1a78":{"name":"Waterbus Rotterdam-Drechtsteden","locationSet":{"include":["nl"]},"geometry":["relation"],"matchScore":2,"terms":["aquabus","waterbus rotterdam-drechtsteden"],"reference":{"key":"route","value":"ferry"},"tags":{"network:wikidata":"Q1845402","route":"ferry","type":"route"},"addTags":{"network":"Waterbus Rotterdam-Drechtsteden","network:wikidata":"Q1845402","network:wikipedia":"nl:Waterbus Rotterdam-Drechtsteden","operator":"Aquabus","route":"ferry","type":"route"}},"route/ferry/fastferryhoekvanhollandmaasvlakte-6f1a78":{"name":"Fast Ferry Hoek van Holland - Maasvlakte","locationSet":{"include":["nl"]},"geometry":["line"],"matchScore":2,"terms":["fast ferry hoek van holland - maasvlakte","ret"],"tags":{"network:wikidata":"Q108720466","route":"ferry"},"addTags":{"network":"Fast Ferry Hoek van Holland - Maasvlakte","network:wikidata":"Q108720466","operator":"RET","route":"ferry"}},"route/ferry/fastferryvlissingenbreskens-6f1a78":{"name":"Fast Ferry Vlissingen - Breskens","locationSet":{"include":["nl"]},"geometry":["line"],"matchScore":2,"terms":["fast ferry vlissingen - breskens","westerschelde ferry bv"],"tags":{"network:wikidata":"Q108720434","route":"ferry"},"addTags":{"network":"Fast Ferry Vlissingen - Breskens","network:wikidata":"Q108720434","operator":"Westerschelde Ferry BV","route":"ferry"}},"route/ferry/ijennoordzeekanaalveren-6f1a78":{"name":"IJ- en Noordzeekanaalveren","locationSet":{"include":["nl"]},"geometry":["line"],"matchScore":2,"terms":["ij- en noordzeekanaalveren"],"tags":{"network:wikidata":"Q108720424","route":"ferry"},"addTags":{"network":"IJ- en Noordzeekanaalveren","network:wikidata":"Q108720424","route":"ferry"}},"route/ferry/maasveren-6f1a78":{"name":"Maasveren","locationSet":{"include":["nl"]},"geometry":["line"],"matchScore":2,"terms":["maasveren"],"tags":{"network:wikidata":"Q2674706","route":"ferry"},"addTags":{"network":"Maasveren","network:wikidata":"Q2674706","network:wikipedia":"nl:Stichting de Maasveren","route":"ferry"}},"route/ferry/veerkopvantland-6f1a78":{"name":"Veer Kop van 't Land","locationSet":{"include":["nl"]},"geometry":["line"],"matchScore":2,"terms":["swets odv maritiem","veer kop van 't land"],"tags":{"network:wikidata":"Q108742712","route":"ferry"},"addTags":{"network":"Veer Kop van 't Land","network:wikidata":"Q108742712","operator":"Swets ODV Maritiem","route":"ferry"}},"route/ferry/waterbusrotterdamdrechtsteden-6f1a78":{"name":"Waterbus Rotterdam-Drechtsteden","locationSet":{"include":["nl"]},"geometry":["line"],"matchScore":2,"terms":["aquabus","waterbus rotterdam-drechtsteden"],"tags":{"network:wikidata":"Q1845402","route":"ferry"},"addTags":{"network":"Waterbus Rotterdam-Drechtsteden","network:wikidata":"Q1845402","network:wikipedia":"nl:Waterbus Rotterdam-Drechtsteden","operator":"Aquabus","route":"ferry"}},"type/route/subway/railrotterdam-a19aa3":{"name":"Rail Rotterdam","locationSet":{"include":["nl"]},"geometry":["relation"],"matchScore":2,"terms":["rail rotterdam","ret"],"reference":{"key":"route","value":"subway"},"tags":{"network:wikidata":"Q108718112","route":"subway","type":"route"},"addTags":{"network":"Rail Rotterdam","network:wikidata":"Q108718112","operator":"RET","operator:wikidata":"Q839557","operator:wikipedia":"nl:RET (Rotterdam)","route":"subway","type":"route"}},"type/route/subway/stadsvervoeramsterdam-a19aa3":{"name":"Stadsvervoer Amsterdam","locationSet":{"include":["nl"]},"geometry":["relation"],"matchScore":2,"terms":["gvb","stadsvervoer amsterdam"],"reference":{"key":"route","value":"subway"},"tags":{"network:wikidata":"Q108742702","route":"subway","type":"route"},"addTags":{"network":"Stadsvervoer Amsterdam","network:wikidata":"Q108742702","operator":"GVB","route":"subway","type":"route"}},"type/route/train/achterhoekrivierenland-948004":{"name":"Achterhoek-Rivierenland","locationSet":{"include":["nl"]},"geometry":["relation"],"matchScore":2,"terms":["achterhoek-rivierenland"],"reference":{"key":"route","value":"train"},"tags":{"network:wikidata":"Q108716027","route":"train","type":"route"},"addTags":{"network":"Achterhoek-Rivierenland","network:wikidata":"Q108716027","route":"train","type":"route"}},"type/route/train/arnhemnijmegen-948004":{"name":"Arnhem-Nijmegen","locationSet":{"include":["nl"]},"geometry":["relation"],"matchScore":2,"terms":["arnhem-nijmegen","breng"],"reference":{"key":"route","value":"train"},"tags":{"network:wikidata":"Q108716067","route":"train","type":"route"},"addTags":{"network":"Arnhem-Nijmegen","network:wikidata":"Q108716067","operator":"Breng","route":"train","type":"route"}},"type/route/train/dbintercityexpress-9473ac":{"name":"DB InterCityExpress","locationSet":{"include":["at","be","ch","de","fx","nl"]},"geometry":["relation"],"matchScore":2,"terms":["db fernverkehr","db intercityexpress"],"reference":{"key":"route","value":"train"},"tags":{"network:wikidata":"Q129172","route":"train","type":"route"},"addTags":{"network":"DB InterCityExpress","network:wikidata":"Q129172","network:wikipedia":"de:Intercity-Express","operator":"DB Fernverkehr","operator:wikidata":"Q452140","operator:wikipedia":"de:DB Fernverkehr","route":"train","type":"route"}},"type/route/train/drechtstedenmolenlandenengorinchem-948004":{"name":"Drechtsteden, Molenlanden en Gorinchem","locationSet":{"include":["nl"]},"geometry":["relation"],"matchScore":2,"terms":["drechtsteden, molenlanden en gorinchem","qbuzz"],"reference":{"key":"route","value":"train"},"tags":{"network:wikidata":"Q108716138","route":"train","type":"route"},"addTags":{"network":"Drechtsteden, Molenlanden en Gorinchem","network:wikidata":"Q108716138","operator":"Qbuzz","route":"train","type":"route"}},"type/route/train/eurobahn-ba45e2":{"name":"Eurobahn","locationSet":{"include":["de","nl"]},"geometry":["relation"],"matchScore":2,"terms":["eurobahn","keolis"],"reference":{"key":"route","value":"train"},"tags":{"network:wikidata":"Q589575","route":"train","type":"route"},"addTags":{"network":"Eurobahn","network:wikidata":"Q589575","network:wikipedia":"de:Eurobahn","operator":"Keolis","operator:wikidata":"Q664399","operator:wikipedia":"de:Keolis","route":"train","type":"route"}},"type/route/train/eurocity-6b9d23":{"name":"EuroCity","locationSet":{"include":["by","bg","cz","hu","pl","md","ro","ru","sk","ua","ax","gg","je","cq","dk","ee","fo","fi","is","ie","im","lv","lt","no","sj","se","gb","al","ad","ba","hr","gi","gr","va","it","mt","me","mk","pt","sm","rs","si","es","xk","at","be","fr","de","li","lu","mc","nl","ch"]},"geometry":["relation"],"matchScore":2,"terms":["eurocity"],"reference":{"key":"route","value":"train"},"tags":{"network:wikidata":"Q753050","route":"train","type":"route"},"addTags":{"network":"EuroCity","network:wikidata":"Q753050","network:wikipedia":"en:EuroCity","route":"train","type":"route"}},"type/route/train/euronight-6b9d23":{"name":"EuroNight","locationSet":{"include":["by","bg","cz","hu","pl","md","ro","ru","sk","ua","ax","gg","je","cq","dk","ee","fo","fi","is","ie","im","lv","lt","no","sj","se","gb","al","ad","ba","hr","gi","gr","va","it","mt","me","mk","pt","sm","rs","si","es","xk","at","be","fr","de","li","lu","mc","nl","ch"]},"geometry":["relation"],"matchScore":2,"terms":["euronight"],"reference":{"key":"route","value":"train"},"tags":{"network:wikidata":"Q257307","route":"train","type":"route"},"addTags":{"network":"EuroNight","network:wikidata":"Q257307","network:wikipedia":"en:EuroNight","route":"train","type":"route"}},"type/route/train/eurostar-8a1522":{"name":"Eurostar","locationSet":{"include":["be","fx","nl","uk"]},"geometry":["relation"],"matchScore":2,"terms":["eurostar"],"reference":{"key":"route","value":"train"},"tags":{"network:wikidata":"Q156013","route":"train","type":"route"},"addTags":{"network":"Eurostar","network:wikidata":"Q156013","network:wikipedia":"fr:Eurostar","route":"train","type":"route"}},"type/route/train/hoofdrailnetnederland-6fd908":{"name":"Hoofdrailnet Nederland","locationSet":{"include":["be","nl"]},"geometry":["relation"],"matchScore":2,"terms":["hoofdrailnet nederland","hrn"],"reference":{"key":"route","value":"train"},"tags":{"network:wikidata":"Q2337464","route":"train","type":"route"},"addTags":{"network":"Hoofdrailnet Nederland","network:short":"HRN","network:wikidata":"Q2337464","network:wikipedia":"nl:Hoofdrailnet","route":"train","type":"route"}},"type/route/train/limburg-948004":{"name":"Limburg","locationSet":{"include":["nl"]},"geometry":["relation"],"matchScore":2,"terms":["limburg"],"reference":{"key":"route","value":"train"},"tags":{"network:wikidata":"Q108713758","route":"train","type":"route"},"addTags":{"network":"Limburg","network:wikidata":"Q108713758","route":"train","type":"route"}},"type/route/train/regionaalspoorvervoerfryslanengroningen-948004":{"name":"Regionaal spoorvervoer Fryslân en Groningen","locationSet":{"include":["nl"]},"geometry":["relation"],"matchScore":2,"terms":["regionaal spoorvervoer fryslân en groningen"],"reference":{"key":"route","value":"train"},"tags":{"network:wikidata":"Q108742239","route":"train","type":"route"},"addTags":{"network":"Regionaal spoorvervoer Fryslân en Groningen","network:wikidata":"Q108742239","route":"train","type":"route"}},"type/route/train/tgv-7d2d57":{"name":"TGV","locationSet":{"include":["be","ch","de","es","fx","it","lu","nl"]},"geometry":["relation"],"matchScore":2,"terms":["sncf","tgv"],"reference":{"key":"route","value":"train"},"tags":{"network:wikidata":"Q129337","route":"train","type":"route"},"addTags":{"network":"TGV","network:wikidata":"Q129337","network:wikipedia":"fr:TGV","operator":"SNCF","operator:wikidata":"Q13646","operator:wikipedia":"fr:Société nationale des chemins de fer français","route":"train","type":"route"}},"type/route/train/treindienstamersfoortedewageningen-948004":{"name":"Treindienst Amersfoort - Ede-Wageningen","locationSet":{"include":["nl"]},"geometry":["relation"],"matchScore":2,"terms":["connexxion","treindienst amersfoort - ede-wageningen"],"reference":{"key":"route","value":"train"},"tags":{"network:wikidata":"Q108742705","route":"train","type":"route"},"addTags":{"network":"Treindienst Amersfoort - Ede-Wageningen","network:wikidata":"Q108742705","operator":"Connexxion","route":"train","type":"route"}},"type/route/train/treindienstgoudaalphenaandenrijn-948004":{"name":"Treindienst Gouda - Alphen aan den Rijn","locationSet":{"include":["nl"]},"geometry":["relation"],"matchScore":2,"terms":["abellio","treindienst gouda - alphen aan den rijn"],"reference":{"key":"route","value":"train"},"tags":{"network:wikidata":"Q108718103","route":"train","type":"route"},"addTags":{"network":"Treindienst Gouda - Alphen aan den Rijn","network:wikidata":"Q108718103","operator":"Abellio","route":"train","type":"route"}},"type/route/train/twente-948004":{"name":"Twente","locationSet":{"include":["nl"]},"geometry":["relation"],"matchScore":2,"terms":["syntus twente","twente"],"reference":{"key":"route","value":"train"},"tags":{"network:wikidata":"Q108741255","route":"train","type":"route"},"addTags":{"network":"Twente","network:wikidata":"Q108741255","operator":"Syntus Twente","route":"train","type":"route"}},"type/route/train/vechtdallijnen-948004":{"name":"Vechtdallijnen","locationSet":{"include":["nl"]},"geometry":["relation"],"matchScore":2,"terms":["arriva","vechtdallijnen"],"reference":{"key":"route","value":"train"},"tags":{"network:wikidata":"Q108742711","route":"train","type":"route"},"addTags":{"network":"Vechtdallijnen","network:wikidata":"Q108742711","operator":"Arriva","route":"train","type":"route"}},"type/route/train/zwollekampenenzwolleenschede-948004":{"name":"Zwolle - Kampen en Zwolle - Enschede","locationSet":{"include":["nl"]},"geometry":["relation"],"matchScore":2,"terms":["keolis","zwolle - kampen en zwolle - enschede"],"reference":{"key":"route","value":"train"},"tags":{"network:wikidata":"Q108742725","route":"train","type":"route"},"addTags":{"network":"Zwolle - Kampen en Zwolle - Enschede","network:wikidata":"Q108742725","operator":"Keolis","route":"train","type":"route"}},"type/route/tram/railhaaglanden-50b0a0":{"name":"Rail Haaglanden","locationSet":{"include":["nl"]},"geometry":["relation"],"matchScore":2,"terms":["htm","rail haaglanden"],"reference":{"key":"route","value":"tram"},"tags":{"network:wikidata":"Q108718111","route":"tram","type":"route"},"addTags":{"network":"Rail Haaglanden","network:wikidata":"Q108718111","operator":"HTM","operator:wikidata":"Q132168","operator:wikipedia":"nl:HTM Personenvervoer","route":"tram","type":"route"}},"type/route/tram/railrotterdam-50b0a0":{"name":"Rail Rotterdam","locationSet":{"include":["nl"]},"geometry":["relation"],"matchScore":2,"terms":["rail rotterdam"],"reference":{"key":"route","value":"tram"},"tags":{"network:wikidata":"Q108718112","route":"tram","type":"route"},"addTags":{"network":"Rail Rotterdam","network:wikidata":"Q108718112","route":"tram","type":"route"}},"type/route/tram/regioutrecht-50b0a0":{"name":"Regio Utrecht","locationSet":{"include":["nl"]},"geometry":["relation"],"matchScore":2,"terms":["regio utrecht"],"reference":{"key":"route","value":"tram"},"tags":{"network:wikidata":"Q108742251","route":"tram","type":"route"},"addTags":{"network":"Regio Utrecht","network:wikidata":"Q108742251","route":"tram","type":"route"}},"type/route/tram/stadsvervoeramsterdam-50b0a0":{"name":"Stadsvervoer Amsterdam","locationSet":{"include":["nl"]},"geometry":["relation"],"matchScore":2,"terms":["gvb","stadsvervoer amsterdam"],"reference":{"key":"route","value":"tram"},"tags":{"network:wikidata":"Q108742702","route":"tram","type":"route"},"addTags":{"network":"Stadsvervoer Amsterdam","network:wikidata":"Q108742702","operator":"GVB","operator:wikidata":"Q1808041","operator:wikipedia":"nl:GVB (Amsterdam)","route":"tram","type":"route"}},"type/route/trolleybus/arnhemnijmegen-90583d":{"name":"Arnhem-Nijmegen","locationSet":{"include":["nl"]},"geometry":["relation"],"matchScore":2,"terms":["arnhem-nijmegen","breng"],"reference":{"key":"route","value":"trolleybus"},"tags":{"network:wikidata":"Q117142","route":"trolleybus","type":"route"},"addTags":{"network":"Arnhem-Nijmegen","network:wikidata":"Q117142","network:wikipedia":"nl:Arnhemse trolleybus","operator":"Breng","operator:wikidata":"Q1968918","operator:wikipedia":"nl:Breng","route":"trolleybus","type":"route"}}}