{"amenity/atm/citizensbank-0bad27":{"name":"Citizens Bank (Eastern USA)","locationSet":{"include":["us-ct","us-de","us-ma","us-mi","us-nh","us-nj","us-ny","us-oh","us-pa","us-ri","us-va","us-vt"]},"geometry":["point","vertex"],"matchScore":2,"terms":["citizens","citizens bank"],"tags":{"amenity":"atm","brand:wikidata":"Q5122694"},"addTags":{"amenity":"atm","brand":"Citizens Bank","brand:wikidata":"Q5122694","name":"Citizens Bank","operator":"Citizens Bank","operator:wikidata":"Q5122694","short_name":"Citizens"}},"amenity/atm/consumerscreditunion-9aa6fc":{"name":"Consumers Credit Union (Michigan)","locationSet":{"include":["us-mi"]},"geometry":["point","vertex"],"matchScore":2,"terms":["consumers credit union"],"tags":{"amenity":"atm","brand:wikidata":"Q56279579"},"addTags":{"amenity":"atm","brand":"Consumers Credit Union","brand:wikidata":"Q56279579","name":"Consumers Credit Union","operator":"Consumers Credit Union","operator:wikidata":"Q56279579"}},"amenity/bank/citizensbank-8621dd":{"name":"Citizens Bank (Eastern USA)","locationSet":{"include":["us-ct","us-de","us-ma","us-mi","us-nh","us-nj","us-ny","us-oh","us-pa","us-ri","us-va","us-vt"]},"geometry":["point","area"],"matchScore":2,"terms":["citizens","citizens bank"],"tags":{"amenity":"bank","brand:wikidata":"Q5122694"},"addTags":{"amenity":"bank","brand":"Citizens Bank","brand:wikidata":"Q5122694","name":"Citizens Bank","short_name":"Citizens"}},"amenity/bank/consumerscreditunion-6ca06a":{"name":"Consumers Credit Union (Michigan)","locationSet":{"include":["us-mi"]},"geometry":["point","area"],"matchScore":2,"terms":["consumers credit union"],"tags":{"amenity":"bank","brand:wikidata":"Q56279579"},"addTags":{"amenity":"bank","brand":"Consumers Credit Union","brand:wikidata":"Q56279579","name":"Consumers Credit Union"}},"amenity/clinic/gohealthurgentcare-7534ce":{"name":"Henry Ford-GoHealth Urgent Care","locationSet":{"include":["us-mi"]},"geometry":["point","area"],"matchScore":2,"terms":["gohealth urgent care","henry ford health system"],"reference":{"key":"amenity","value":"clinic"},"tags":{"amenity":"clinic","brand:wikidata":"Q110282081"},"addTags":{"amenity":"clinic","brand":"GoHealth Urgent Care","brand:wikidata":"Q110282081","healthcare":"clinic","operator":"Henry Ford Health System","operator:wikidata":"Q5721418"}},"leisure/fitness_centre/theedgefitnessclub-773501":{"name":"The Edge Fitness Club","locationSet":{"include":["us-ct","us-de","us-il","us-mi","us-mo","us-nj","us-pa","us-ri"]},"geometry":["point","area"],"matchScore":2,"terms":["the edge fitness club"],"tags":{"brand:wikidata":"Q109339519","leisure":"fitness_centre"},"addTags":{"brand":"The Edge Fitness Club","brand:wikidata":"Q109339519","leisure":"fitness_centre","name":"The Edge Fitness Club"}},"leisure/sports_centre/xgolf-8a88af":{"name":"X Golf","locationSet":{"include":["us-al","us-co","us-ga","us-il","us-in","us-ks","us-ma","us-me","us-mi","us-mn","us-mo","us-nd","us-ne","us-ny","us-oh","us-or","us-pa","us-ri","us-sc","us-sd","us-ut","us-va","us-wa","us-wi"]},"geometry":["point","area"],"matchScore":2,"terms":["x golf"],"fields":["name","brand","{leisure/sports_centre}"],"tags":{"brand:wikidata":"Q111585369","leisure":"sports_centre"},"addTags":{"brand":"X Golf","brand:wikidata":"Q111585369","indoor":"yes","leisure":"sports_centre","name":"X Golf","sport":"golf"}},"shop/cannabis/zenleaf-65d11e":{"name":"Zen Leaf","locationSet":{"include":["us-ar","us-az","us-il","us-ma","us-md","us-mi","us-nj","us-nv","us-oh","us-pa"]},"geometry":["point","area"],"matchScore":2,"terms":["zen leaf"],"tags":{"brand:wikidata":"Q108911834","shop":"cannabis"},"addTags":{"brand":"Zen Leaf","brand:wikidata":"Q108911834","name":"Zen Leaf","shop":"cannabis"}},"shop/optician/svsvision-2166b2":{"name":"SVS Vision","locationSet":{"include":["us-mi"]},"geometry":["point","area"],"matchScore":2,"terms":["svs vision"],"fields":["name","brand","{shop/optician}"],"tags":{"brand:wikidata":"Q110706101","shop":"optician"},"addTags":{"brand":"SVS Vision","brand:wikidata":"Q110706101","name":"SVS Vision","shop":"optician"}},"shop/trade/fabickcat-755a12":{"name":"Fabick CAT","locationSet":{"include":["us-il","us-mi","us-mo","us-wi"]},"geometry":["point","area"],"matchScore":2,"terms":["fabick cat"],"tags":{"brand:wikidata":"Q109619462","shop":"trade"},"addTags":{"brand":"Fabick CAT","brand:wikidata":"Q109619462","name":"Fabick CAT","shop":"trade","trade":"construction_equipment"}},"shop/trade/michigancat-1363ee":{"name":"Michigan CAT","locationSet":{"include":["us-mi"]},"geometry":["point","area"],"matchScore":2,"terms":["michigan cat"],"tags":{"brand:wikidata":"Q109616101","shop":"trade"},"addTags":{"brand":"Michigan CAT","brand:wikidata":"Q109616101","name":"Michigan CAT","shop":"trade","trade":"construction_equipment"}},"amenity/clinic/michiganmedicine-5a0195":{"name":"Michigan Medicine","locationSet":{"include":["us-mi"]},"geometry":["point","area"],"matchScore":2,"terms":["michigan medicine","umhs","university of michigan"],"fields":["name","operator","{amenity/clinic}"],"reference":{"key":"amenity","value":"clinic"},"tags":{"amenity":"clinic","operator:wikidata":"Q7895758"},"addTags":{"amenity":"clinic","healthcare":"clinic","operator":"Michigan Medicine","operator:wikidata":"Q7895758"}},"amenity/library/detroitpubliclibrary-dccdd9":{"name":"Detroit Public Library","locationSet":{"include":["us-mi"]},"geometry":["point","area"],"matchScore":2,"terms":["detroit public library","dpl"],"tags":{"amenity":"library","operator:wikidata":"Q5265986"},"addTags":{"amenity":"library","operator":"Detroit Public Library","operator:short":"DPL","operator:type":"public","operator:wikidata":"Q5265986"}},"amenity/library/monroecountylibrarysystem-dccdd9":{"name":"Monroe County Library System (Michigan)","locationSet":{"include":["us-mi"]},"geometry":["point","area"],"matchScore":2,"terms":["mcls","monroe county library system"],"tags":{"amenity":"library","operator:wikidata":"Q69480012"},"addTags":{"amenity":"library","operator":"Monroe County Library System","operator:short":"MCLS","operator:type":"public","operator:wikidata":"Q69480012"}},"amenity/school/annarborpublicschools-aa6f23":{"name":"Ann Arbor Public Schools","locationSet":{"include":["us-mi"]},"geometry":["area","point"],"matchScore":2,"terms":["aaps","ann arbor public schools"],"tags":{"amenity":"school","operator:wikidata":"Q4766227"},"addTags":{"amenity":"school","operator":"Ann Arbor Public Schools","operator:short":"AAPS","operator:type":"public","operator:wikidata":"Q4766227"}},"amenity/school/dearbornpublicschools-aa6f23":{"name":"Dearborn Public Schools","locationSet":{"include":["us-mi"]},"geometry":["area","point"],"matchScore":2,"terms":["dearborn public schools","dps"],"tags":{"amenity":"school","operator:wikidata":"Q5246973"},"addTags":{"amenity":"school","operator":"Dearborn Public Schools","operator:short":"DPS","operator:type":"public","operator:wikidata":"Q5246973"}},"amenity/school/detroitpublicschools-aa6f23":{"name":"Detroit Public Schools","locationSet":{"include":["us-mi"]},"geometry":["area","point"],"matchScore":2,"terms":["detroit public schools","dps"],"tags":{"amenity":"school","operator:wikidata":"Q2497108"},"addTags":{"amenity":"school","operator":"Detroit Public Schools","operator:short":"DPS","operator:type":"public","operator:wikidata":"Q2497108"}},"amenity/school/hartfordpublicschools-aa6f23":{"name":"Hartford Public Schools (Michigan)","locationSet":{"include":["us-mi"]},"geometry":["area","point"],"matchScore":2,"terms":["hartford public schools","hps"],"tags":{"amenity":"school","operator:wikidata":"Q5674524"},"addTags":{"amenity":"school","operator":"Hartford Public Schools","operator:short":"HPS","operator:type":"public","operator:wikidata":"Q5674524"}},"amenity/school/jacksonpublicschools-aa6f23":{"name":"Jackson Public Schools (Michigan)","locationSet":{"include":["us-mi"]},"geometry":["area","point"],"matchScore":2,"terms":["jackson public schools","jps"],"tags":{"amenity":"school","operator:wikidata":"Q6117339"},"addTags":{"amenity":"school","operator":"Jackson Public Schools","operator:short":"JPS","operator:type":"public","operator:wikidata":"Q6117339"}},"amenity/school/kalamazoopublicschools-aa6f23":{"name":"Kalamazoo Public Schools","locationSet":{"include":["us-mi"]},"geometry":["area","point"],"matchScore":2,"terms":["kalamazoo public schools","kps"],"tags":{"amenity":"school","operator:wikidata":"Q6350407"},"addTags":{"amenity":"school","operator":"Kalamazoo Public Schools","operator:short":"KPS","operator:type":"public","operator:wikidata":"Q6350407"}},"amenity/school/lansecreusepublicschools-aa6f23":{"name":"L'Anse Creuse Public Schools","locationSet":{"include":["us-mi"]},"geometry":["area","point"],"matchScore":2,"terms":["l'anse creuse public schools","lcps"],"tags":{"amenity":"school","operator:wikidata":"Q6455571"},"addTags":{"amenity":"school","operator":"L'Anse Creuse Public Schools","operator:short":"LCPS","operator:type":"public","operator:wikidata":"Q6455571"}},"amenity/school/marshallpublicschools-aa6f23":{"name":"Marshall Public Schools","locationSet":{"include":["us-mi"]},"geometry":["area","point"],"matchScore":2,"terms":["marshall public schools","mps"],"tags":{"amenity":"school","operator:wikidata":"Q6773746"},"addTags":{"amenity":"school","operator":"Marshall Public Schools","operator:short":"MPS","operator:type":"public","operator:wikidata":"Q6773746"}},"amenity/school/northvillepublicschools-aa6f23":{"name":"Northville Public Schools","locationSet":{"include":["us-mi"]},"geometry":["area","point"],"matchScore":2,"terms":["northville public schools","nps"],"tags":{"amenity":"school","operator:wikidata":"Q7059882"},"addTags":{"amenity":"school","operator":"Northville Public Schools","operator:short":"NPS","operator:type":"public","operator:wikidata":"Q7059882"}},"amenity/school/novicommunityschooldistrict-aa6f23":{"name":"Novi Community School District","locationSet":{"include":["us-mi"]},"geometry":["area","point"],"matchScore":2,"terms":["ncsd","novi community school district"],"tags":{"amenity":"school","operator:wikidata":"Q7064840"},"addTags":{"amenity":"school","operator":"Novi Community School District","operator:short":"NCSD","operator:type":"public","operator:wikidata":"Q7064840"}},"amenity/school/oxfordcommunityschools-aa6f23":{"name":"Oxford Community Schools","locationSet":{"include":["us-mi"]},"geometry":["area","point"],"matchScore":2,"terms":["ocs","oxford community schools"],"tags":{"amenity":"school","operator:wikidata":"Q109916238"},"addTags":{"amenity":"school","operator":"Oxford Community Schools","operator:short":"OCS","operator:type":"public","operator:wikidata":"Q109916238"}},"amenity/school/plymouthcantoncommunityschools-aa6f23":{"name":"Plymouth-Canton Community Schools","locationSet":{"include":["us-mi"]},"geometry":["area","point"],"matchScore":2,"terms":["p-ccs","plymouth-canton community schools"],"tags":{"amenity":"school","operator:wikidata":"Q7205751"},"addTags":{"amenity":"school","operator":"Plymouth-Canton Community Schools","operator:short":"P-CCS","operator:type":"public","operator:wikidata":"Q7205751"}},"amenity/school/porthuronareaschooldistrict-aa6f23":{"name":"Port Huron Area School District","locationSet":{"include":["us-mi"]},"geometry":["area","point"],"matchScore":2,"terms":["phasd","port huron area school district"],"tags":{"amenity":"school","operator:wikidata":"Q18706017"},"addTags":{"amenity":"school","operator":"Port Huron Area School District","operator:short":"PHASD","operator:type":"public","operator:wikidata":"Q18706017"}},"amenity/school/portagepublicschools-aa6f23":{"name":"Portage Public Schools","locationSet":{"include":["us-mi"]},"geometry":["area","point"],"matchScore":2,"terms":["portage public schools","pps"],"tags":{"amenity":"school","operator:wikidata":"Q7231433"},"addTags":{"amenity":"school","operator":"Portage Public Schools","operator:short":"PPS","operator:type":"public","operator:wikidata":"Q7231433"}},"amenity/school/taylorschooldistrict-aa6f23":{"name":"Taylor School District","locationSet":{"include":["us-mi"]},"geometry":["area","point"],"matchScore":2,"terms":["taylor school district","tsd"],"tags":{"amenity":"school","operator:wikidata":"Q7690125"},"addTags":{"amenity":"school","operator":"Taylor School District","operator:short":"TSD","operator:type":"public","operator:wikidata":"Q7690125"}},"amenity/school/traversecityareapublicschools-aa6f23":{"name":"Traverse City Area Public Schools","locationSet":{"include":["us-mi"]},"geometry":["area","point"],"matchScore":2,"terms":["tcaps","traverse city area public schools"],"tags":{"amenity":"school","operator:wikidata":"Q24040237"},"addTags":{"amenity":"school","operator":"Traverse City Area Public Schools","operator:short":"TCAPS","operator:type":"public","operator:wikidata":"Q24040237"}},"amenity/school/troyschooldistrict-aa6f23":{"name":"Troy School District (Michigan)","locationSet":{"include":["us-mi"]},"geometry":["area","point"],"matchScore":2,"terms":["troy school district","tsd"],"tags":{"amenity":"school","operator:wikidata":"Q7846944"},"addTags":{"amenity":"school","operator":"Troy School District","operator:short":"TSD","operator:type":"public","operator:wikidata":"Q7846944"}},"amenity/school/uticacommunityschools-aa6f23":{"name":"Utica Community Schools","locationSet":{"include":["us-mi"]},"geometry":["area","point"],"matchScore":2,"terms":["utica community schools"],"tags":{"amenity":"school","operator:wikidata":"Q7902783"},"addTags":{"amenity":"school","operator":"Utica Community Schools","operator:type":"public","operator:wikidata":"Q7902783"}},"amenity/school/ypsilanticommunityschools-aa6f23":{"name":"Ypsilanti Community Schools","locationSet":{"include":["us-mi"]},"geometry":["area","point"],"matchScore":2,"terms":["ypsilanti community schools"],"tags":{"amenity":"school","operator:wikidata":"Q22059829"},"addTags":{"amenity":"school","operator":"Ypsilanti Community Schools","operator:type":"public","operator:wikidata":"Q22059829"}},"leisure/nature_reserve/cityofannarbor-101c18":{"name":"City of Ann Arbor","locationSet":{"include":["us-mi"]},"geometry":["area","point"],"matchScore":2,"terms":["city of ann arbor"],"tags":{"leisure":"nature_reserve","operator:wikidata":"Q485172"},"addTags":{"leisure":"nature_reserve","operator":"City of Ann Arbor","operator:type":"public","operator:wikidata":"Q485172"}},"leisure/nature_reserve/cityofdetroit-101c18":{"name":"City of Detroit","locationSet":{"include":["us-mi"]},"geometry":["area","point"],"matchScore":2,"terms":["city of detroit"],"tags":{"leisure":"nature_reserve","operator:wikidata":"Q12439"},"addTags":{"leisure":"nature_reserve","operator":"City of Detroit","operator:type":"public","operator:wikidata":"Q12439"}},"leisure/nature_reserve/cityofgrandledge-101c18":{"name":"City of Grand Ledge","locationSet":{"include":["us-mi"]},"geometry":["area","point"],"matchScore":2,"terms":["city of grand ledge"],"tags":{"leisure":"nature_reserve","operator:wikidata":"Q3295695"},"addTags":{"leisure":"nature_reserve","operator":"City of Grand Ledge","operator:type":"public","operator:wikidata":"Q3295695"}},"leisure/nature_reserve/cityoflansing-101c18":{"name":"City of Lansing","locationSet":{"include":["us-mi"]},"geometry":["area","point"],"matchScore":2,"terms":["city of lansing"],"tags":{"leisure":"nature_reserve","operator:wikidata":"Q28237"},"addTags":{"leisure":"nature_reserve","operator":"City of Lansing","operator:type":"public","operator:wikidata":"Q28237"}},"leisure/nature_reserve/cityofporthuron-101c18":{"name":"City of Port Huron","locationSet":{"include":["us-mi"]},"geometry":["area","point"],"matchScore":2,"terms":["city of port huron"],"tags":{"leisure":"nature_reserve","operator:wikidata":"Q1000222"},"addTags":{"leisure":"nature_reserve","operator":"City of Port Huron","operator:type":"public","operator:wikidata":"Q1000222"}},"leisure/nature_reserve/cityofrochester-101c18":{"name":"City of Rochester (Michigan)","locationSet":{"include":["us-mi"]},"geometry":["area","point"],"matchScore":2,"terms":["city of rochester"],"tags":{"leisure":"nature_reserve","operator:wikidata":"Q1018266"},"addTags":{"leisure":"nature_reserve","operator":"City of Rochester","operator:type":"public","operator:wikidata":"Q1018266"}},"leisure/nature_reserve/michigandepartmentofnaturalresources-101c18":{"name":"Michigan DNR","locationSet":{"include":["us-mi"]},"geometry":["area","point"],"matchScore":2,"terms":["michigan department of natural resources","michigan dnr"],"tags":{"leisure":"nature_reserve","operator:wikidata":"Q6837532"},"addTags":{"leisure":"nature_reserve","operator":"Michigan Department of Natural Resources","operator:short":"Michigan DNR","operator:type":"public","operator:wikidata":"Q6837532"}},"leisure/park/cityofannarbor-b9c410":{"name":"City of Ann Arbor","locationSet":{"include":["us-mi"]},"geometry":["area","point"],"matchScore":2,"terms":["city of ann arbor"],"tags":{"leisure":"park","operator:wikidata":"Q485172"},"addTags":{"leisure":"park","operator":"City of Ann Arbor","operator:type":"public","operator:wikidata":"Q485172"}},"leisure/park/cityofdetroit-b9c410":{"name":"City of Detroit","locationSet":{"include":["us-mi"]},"geometry":["area","point"],"matchScore":2,"terms":["city of detroit"],"tags":{"leisure":"park","operator:wikidata":"Q12439"},"addTags":{"leisure":"park","operator":"City of Detroit","operator:type":"public","operator:wikidata":"Q12439"}},"leisure/park/cityofgrandledge-b9c410":{"name":"City of Grand Ledge","locationSet":{"include":["us-mi"]},"geometry":["area","point"],"matchScore":2,"terms":["city of grand ledge"],"tags":{"leisure":"park","operator:wikidata":"Q3295695"},"addTags":{"leisure":"park","operator":"City of Grand Ledge","operator:type":"public","operator:wikidata":"Q3295695"}},"leisure/park/cityoflansing-b9c410":{"name":"City of Lansing","locationSet":{"include":["us-mi"]},"geometry":["area","point"],"matchScore":2,"terms":["city of lansing"],"tags":{"leisure":"park","operator:wikidata":"Q28237"},"addTags":{"leisure":"park","operator":"City of Lansing","operator:type":"public","operator:wikidata":"Q28237"}},"leisure/park/cityofporthuron-b9c410":{"name":"City of Port Huron","locationSet":{"include":["us-mi"]},"geometry":["area","point"],"matchScore":2,"terms":["city of port huron"],"tags":{"leisure":"park","operator:wikidata":"Q1000222"},"addTags":{"leisure":"park","operator":"City of Port Huron","operator:type":"public","operator:wikidata":"Q1000222"}},"leisure/park/cityofrochester-b9c410":{"name":"City of Rochester (Michigan)","locationSet":{"include":["us-mi"]},"geometry":["area","point"],"matchScore":2,"terms":["city of rochester"],"tags":{"leisure":"park","operator:wikidata":"Q1018266"},"addTags":{"leisure":"park","operator":"City of Rochester","operator:type":"public","operator:wikidata":"Q1018266"}},"leisure/park/michigandepartmentofnaturalresources-b9c410":{"name":"Michigan DNR","locationSet":{"include":["us-mi"]},"geometry":["area","point"],"matchScore":2,"terms":["michigan department of natural resources","michigan dnr"],"tags":{"leisure":"park","operator:wikidata":"Q6837532"},"addTags":{"leisure":"park","operator":"Michigan Department of Natural Resources","operator:short":"Michigan DNR","operator:type":"public","operator:wikidata":"Q6837532"}},"office/government/michigansecretaryofstate-3e8496":{"name":"Michigan Secretary of State","locationSet":{"include":["us-mi"]},"geometry":["point","area"],"matchScore":2,"terms":["michigan secretary of state","secretary of state"],"fields":["name","operator","{office/government}"],"tags":{"office":"government","operator:wikidata":"Q16147324"},"addTags":{"office":"government","operator":"Michigan Secretary of State","operator:wikidata":"Q16147324"}},"office/government/missouridepartmentofrevenue-3e8496":{"name":"Missouri Department of Revenue","locationSet":{"include":["us-mi"]},"geometry":["point","area"],"matchScore":2,"terms":["license office","licensing office","missouri department of revenue","revenue department"],"fields":["name","operator","{office/government}"],"tags":{"office":"government","operator:wikidata":"Q6879540"},"addTags":{"office":"government","operator":"Missouri Department of Revenue","operator:wikidata":"Q6879540"}},"public_transport/platform/bus_point/aaata-aef6a3":{"name":"AAATA","locationSet":{"include":["us-mi"]},"geometry":["point","vertex"],"matchScore":2,"terms":["aaata"],"reference":{"key":"public_transport","value":"platform"},"tags":{"bus":"yes","network:wikidata":"Q4766233","public_transport":"platform"},"addTags":{"bus":"yes","highway":"bus_stop","network":"AAATA","network:wikidata":"Q4766233","public_transport":"platform"}},"public_transport/platform/bus_point/cata-aef6a3":{"name":"CATA (Michigan)","locationSet":{"include":["us-mi"]},"geometry":["point","vertex"],"matchScore":2,"terms":["capital area transit authority","cata"],"reference":{"key":"public_transport","value":"platform"},"tags":{"bus":"yes","network:wikidata":"Q5035474","public_transport":"platform"},"addTags":{"bus":"yes","highway":"bus_stop","network":"CATA","network:wikidata":"Q5035474","operator":"Capital Area Transit Authority","public_transport":"platform"}},"public_transport/platform/bus_point/ddot-aef6a3":{"name":"DDOT","locationSet":{"include":["us-mi"]},"geometry":["point","vertex"],"matchScore":2,"terms":["ddot"],"reference":{"key":"public_transport","value":"platform"},"tags":{"bus":"yes","network:wikidata":"Q5265906","public_transport":"platform"},"addTags":{"bus":"yes","highway":"bus_stop","network":"DDOT","network:wikidata":"Q5265906","public_transport":"platform"}},"public_transport/platform/bus_point/max-aef6a3":{"name":"MAX (Macatawa)","locationSet":{"include":["us-mi"]},"geometry":["point","vertex"],"matchScore":2,"terms":["macatawa area express","max"],"reference":{"key":"public_transport","value":"platform"},"tags":{"bus":"yes","network:wikidata":"Q6722682","public_transport":"platform"},"addTags":{"bus":"yes","highway":"bus_stop","network":"MAX","network:wikidata":"Q6722682","operator":"Macatawa Area Express","public_transport":"platform"}},"public_transport/platform/bus_point/mtaflint-aef6a3":{"name":"MTA Flint","locationSet":{"include":["us-mi"]},"geometry":["point","vertex"],"matchScore":2,"terms":["mta flint"],"reference":{"key":"public_transport","value":"platform"},"tags":{"bus":"yes","network:wikidata":"Q5459534","public_transport":"platform"},"addTags":{"bus":"yes","highway":"bus_stop","network":"MTA Flint","network:wikidata":"Q5459534","public_transport":"platform"}},"public_transport/platform/bus_point/therapid-aef6a3":{"name":"The Rapid","locationSet":{"include":["us-mi"]},"geometry":["point","vertex"],"matchScore":2,"terms":["interurban transit partnership","the rapid"],"reference":{"key":"public_transport","value":"platform"},"tags":{"bus":"yes","network:wikidata":"Q14716158","public_transport":"platform"},"addTags":{"bus":"yes","highway":"bus_stop","network":"The Rapid","network:wikidata":"Q14716158","operator":"Interurban Transit Partnership","public_transport":"platform"}},"type/route/bus/aaata-770517":{"name":"AAATA","locationSet":{"include":["us-mi"]},"geometry":["relation"],"matchScore":2,"terms":["aaata"],"reference":{"key":"route","value":"bus"},"tags":{"network:wikidata":"Q4766233","route":"bus","type":"route"},"addTags":{"network":"AAATA","network:wikidata":"Q4766233","route":"bus","type":"route"}},"type/route/bus/cata-770517":{"name":"CATA (Michigan)","locationSet":{"include":["us-mi"]},"geometry":["relation"],"matchScore":2,"terms":["capital area transit authority","cata"],"reference":{"key":"route","value":"bus"},"tags":{"network:wikidata":"Q5035474","route":"bus","type":"route"},"addTags":{"network":"CATA","network:wikidata":"Q5035474","operator":"Capital Area Transit Authority","route":"bus","type":"route"}},"type/route/bus/ddot-770517":{"name":"DDOT","locationSet":{"include":["us-mi"]},"geometry":["relation"],"matchScore":2,"terms":["ddot"],"reference":{"key":"route","value":"bus"},"tags":{"network:wikidata":"Q5265906","route":"bus","type":"route"},"addTags":{"network":"DDOT","network:wikidata":"Q5265906","route":"bus","type":"route"}},"type/route/bus/max-770517":{"name":"MAX (Macatawa)","locationSet":{"include":["us-mi"]},"geometry":["relation"],"matchScore":2,"terms":["macatawa area express","max"],"reference":{"key":"route","value":"bus"},"tags":{"network:wikidata":"Q6722682","route":"bus","type":"route"},"addTags":{"network":"MAX","network:wikidata":"Q6722682","operator":"Macatawa Area Express","route":"bus","type":"route"}},"type/route/bus/mtaflint-770517":{"name":"MTA Flint","locationSet":{"include":["us-mi"]},"geometry":["relation"],"matchScore":2,"terms":["mta flint"],"reference":{"key":"route","value":"bus"},"tags":{"network:wikidata":"Q5459534","route":"bus","type":"route"},"addTags":{"network":"MTA Flint","network:wikidata":"Q5459534","route":"bus","type":"route"}},"type/route/bus/therapid-770517":{"name":"The Rapid","locationSet":{"include":["us-mi"]},"geometry":["relation"],"matchScore":2,"terms":["interurban transit partnership","the rapid"],"reference":{"key":"route","value":"bus"},"tags":{"network:wikidata":"Q14716158","route":"bus","type":"route"},"addTags":{"network":"The Rapid","network:wikidata":"Q14716158","operator":"Interurban Transit Partnership","route":"bus","type":"route"}}}