{"advertising/totem/giant-8fe236":{"name":"Giant (Landover)","locationSet":{"include":["us-dc","us-de","us-md","us-va"]},"geometry":["point","line"],"matchScore":2,"terms":["giant"],"tags":{"advertising":"totem","brand:wikidata":"Q5558336"},"addTags":{"advertising":"totem","brand":"Giant","brand:wikidata":"Q5558336"}},"advertising/totem/wawa-c92643":{"name":"Wawa","locationSet":{"include":["us-dc","us-de","us-fl","us-md","us-nj","us-pa","us-va"]},"geometry":["point","line"],"matchScore":2,"terms":["wawa"],"tags":{"advertising":"totem","brand:wikidata":"Q5936320"},"addTags":{"advertising":"totem","brand":"Wawa","brand:wikidata":"Q5936320"}},"amenity/atm/citynationalbank-7f15af":{"name":"City National Bank (California-based)","locationSet":{"include":["us-ca","us-dc","us-de","us-ga","us-ma","us-mn","us-nv","us-ny","us-tn","us-va"]},"geometry":["point","vertex"],"matchScore":2,"terms":["city national bank"],"fields":["name","brand","{amenity/atm}"],"preserveTags":["^name"],"tags":{"amenity":"atm","brand:wikidata":"Q5123314"},"addTags":{"amenity":"atm","brand":"City National Bank","brand:wikidata":"Q5123314","operator":"City National Bank","operator:wikidata":"Q5123314"}},"amenity/atm/firstnationalbank-571c0f":{"name":"First National Bank (USA)","locationSet":{"include":["us-dc","us-md","us-nc","us-oh","us-pa","us-sc","us-va","us-wv"]},"geometry":["point","vertex"],"matchScore":2,"terms":["first national bank","fnb"],"fields":["name","brand","{amenity/atm}"],"preserveTags":["^name"],"tags":{"amenity":"atm","brand:wikidata":"Q5426765"},"addTags":{"amenity":"atm","brand":"First National Bank","brand:wikidata":"Q5426765","operator":"First National Bank","operator:wikidata":"Q5426765"}},"amenity/atm/intesasanpaolo-b483ef":{"name":"Intesa Sanpaolo","locationSet":{"include":["kz","kg","tj","tm","uz","cn","hk","mo","kp","jp","mn","kr","bn","kh","id","la","my","mm","ph","sg","th","tl","vn","af","bd","bt","in","ir","mv","np","pk","lk","am","az","bh","cy","ge","iq","il","jo","kw","lb","om","qa","sa","ps","sy","tr","ae","ye","by","bg","cz","hu","pl","md","ro","ru","sk","ua","ax","gg","je","cq","dk","ee","fo","fi","is","ie","im","lv","lt","no","sj","se","gb","al","ad","ba","hr","gi","gr","va","it","mt","me","mk","pt","sm","rs","si","es","xk","at","be","fr","de","li","lu","mc","nl","ch","au-nsw","br","eg","us-dc"],"exclude":["rs","ua"]},"geometry":["point","vertex"],"matchScore":2,"terms":["banca intesa","banca popolare di vicenza","banco di napoli","cassa di risparmio del veneto","cassa di risparmio di firenze","intesa sanpaolo","intesa sanpaolo s.p.a.","ubi banca","veneto banca"],"fields":["name","brand","{amenity/atm}"],"preserveTags":["^name"],"tags":{"amenity":"atm","brand:wikidata":"Q1343118"},"addTags":{"amenity":"atm","brand":"Intesa Sanpaolo","brand:wikidata":"Q1343118","operator":"Intesa Sanpaolo","operator:wikidata":"Q1343118"}},"amenity/atm/unitedbank-b1562d":{"name":"United Bank (Mid-Atlantic USA)","locationSet":{"include":["us-dc","us-md","us-nc","us-pa","us-sc","us-va","us-wv"]},"geometry":["point","vertex"],"matchScore":2,"terms":["united bank"],"fields":["name","brand","{amenity/atm}"],"preserveTags":["^name"],"tags":{"amenity":"atm","brand:wikidata":"Q16920636"},"addTags":{"amenity":"atm","brand":"United Bank","brand:wikidata":"Q16920636","operator":"United Bank","operator:wikidata":"Q16920636"}},"amenity/bank/citynationalbank-2ff887":{"name":"City National Bank (California-based)","locationSet":{"include":["us-ca","us-dc","us-de","us-ga","us-ma","us-mn","us-nv","us-ny","us-tn","us-va"]},"geometry":["point","area"],"matchScore":2,"terms":["city national bank"],"tags":{"amenity":"bank","brand:wikidata":"Q5123314"},"addTags":{"amenity":"bank","brand":"City National Bank","brand:wikidata":"Q5123314","name":"City National Bank"}},"amenity/bank/firstnationalbank-fdc31a":{"name":"First National Bank (USA)","locationSet":{"include":["us-dc","us-md","us-nc","us-oh","us-pa","us-sc","us-va","us-wv"]},"geometry":["point","area"],"matchScore":2,"terms":["first national bank","fnb"],"tags":{"amenity":"bank","brand:wikidata":"Q5426765"},"addTags":{"amenity":"bank","brand":"First National Bank","brand:wikidata":"Q5426765","name":"First National Bank"}},"amenity/bank/intesasanpaolo-28f235":{"name":"Intesa Sanpaolo","locationSet":{"include":["kz","kg","tj","tm","uz","cn","hk","mo","kp","jp","mn","kr","bn","kh","id","la","my","mm","ph","sg","th","tl","vn","af","bd","bt","in","ir","mv","np","pk","lk","am","az","bh","cy","ge","iq","il","jo","kw","lb","om","qa","sa","ps","sy","tr","ae","ye","by","bg","cz","hu","pl","md","ro","ru","sk","ua","ax","gg","je","cq","dk","ee","fo","fi","is","ie","im","lv","lt","no","sj","se","gb","al","ad","ba","hr","gi","gr","va","it","mt","me","mk","pt","sm","rs","si","es","xk","at","be","fr","de","li","lu","mc","nl","ch","au-nsw","br","eg","us-dc"],"exclude":["rs","ua"]},"geometry":["point","area"],"matchScore":2,"terms":["banca intesa","banca popolare di vicenza","banco di napoli","cassa di risparmio del veneto","cassa di risparmio di firenze","intesa sanpaolo","intesa sanpaolo s.p.a.","ubi banca","veneto banca"],"tags":{"amenity":"bank","brand:wikidata":"Q1343118"},"addTags":{"amenity":"bank","brand":"Intesa Sanpaolo","brand:wikidata":"Q1343118","name":"Intesa Sanpaolo"}},"amenity/bank/unitedbank-d6a32a":{"name":"United Bank (Mid-Atlantic USA)","locationSet":{"include":["us-dc","us-md","us-nc","us-pa","us-sc","us-va","us-wv"]},"geometry":["point","area"],"matchScore":2,"terms":["united bank"],"tags":{"amenity":"bank","brand:wikidata":"Q16920636"},"addTags":{"amenity":"bank","brand":"United Bank","brand:wikidata":"Q16920636","name":"United Bank"}},"amenity/bicycle_rental/capitalbikeshare-f7b29d":{"name":"Capital Bikeshare","locationSet":{"include":["us-dc","us-md","us-va"]},"geometry":["point","vertex","area"],"matchScore":2,"terms":["cabi","capital bikeshare","lyft","lyft bike"],"fields":["name","brand","{amenity/bicycle_rental}"],"preserveTags":["^name"],"tags":{"amenity":"bicycle_rental","brand:wikidata":"Q1034635"},"addTags":{"amenity":"bicycle_rental","bicycle_rental":"docking_station","brand":"Capital Bikeshare","brand:wikidata":"Q1034635","fee":"yes","name":"Capital Bikeshare","network":"Capital Bikeshare","network:wikidata":"Q1034635","operator":"Lyft","operator:type":"private","operator:wikidata":"Q17077936"}},"amenity/cafe/coffee_shop/tattebakeryandcafe-092509":{"name":"Tatte Bakery & Cafe","locationSet":{"include":["us-dc","us-ma","us-md","us-va"]},"geometry":["point","area"],"matchScore":2,"terms":["tatte bakery & cafe"],"reference":{"key":"cuisine","value":"coffee_shop"},"tags":{"amenity":"cafe","brand:wikidata":"Q116671479","cuisine":"bakery;coffee_shop"},"addTags":{"amenity":"cafe","brand":"Tatte Bakery & Cafe","brand:wikidata":"Q116671479","cuisine":"bakery;coffee_shop","name":"Tatte Bakery & Cafe","takeaway":"yes"}},"amenity/fast_food/alohapokeco-6b3f2b":{"name":"Aloha Pok Co","locationSet":{"include":["us-dc","us-fl","us-ga","us-il","us-mn","us-tx","us-wi"]},"geometry":["point","area"],"matchScore":2,"terms":["aloha pok co"],"tags":{"amenity":"fast_food","brand:wikidata":"Q111231031"},"addTags":{"amenity":"fast_food","brand":"Aloha Pok Co","brand:wikidata":"Q111231031","cuisine":"poke","name":"Aloha Pok Co","takeaway":"yes"}},"amenity/fast_food/chicken/hangryjoeshotchicken-10afbb":{"name":"Hangry Joe's Hot Chicken","locationSet":{"include":["us-al","us-ca","us-dc","us-de","us-fl","us-il","us-in","us-la","us-md","us-mi","us-mn","us-nc","us-nd","us-nj","us-ny","us-oh","us-ok","us-pa","us-sc","us-tn","us-tx","us-va","us-wa","us-wi"]},"geometry":["point","area"],"matchScore":2,"terms":["hangry joe's","hangry joe's hot chicken"],"reference":{"key":"cuisine","value":"chicken"},"tags":{"amenity":"fast_food","brand:wikidata":"Q131378216","cuisine":"chicken"},"addTags":{"amenity":"fast_food","brand":"Hangry Joe's Hot Chicken","brand:wikidata":"Q131378216","cuisine":"chicken","name":"Hangry Joe's Hot Chicken","takeaway":"yes"}},"amenity/fuel/giant-e24d9e":{"name":"Giant (Landover)","locationSet":{"include":["us-dc","us-de","us-md","us-va"]},"geometry":["point","area"],"matchScore":2,"terms":["giant"],"fields":["name","brand","{amenity/fuel}"],"preserveTags":["^name"],"tags":{"amenity":"fuel","brand:wikidata":"Q5558336"},"addTags":{"amenity":"fuel","brand":"Giant","brand:wikidata":"Q5558336","name":"Giant"}},"amenity/fuel/wawa-f5bad4":{"name":"Wawa","locationSet":{"include":["us-dc","us-de","us-fl","us-md","us-nj","us-pa","us-va"]},"geometry":["point","area"],"matchScore":2,"terms":["wawa"],"fields":["name","brand","{amenity/fuel}"],"preserveTags":["^name"],"tags":{"amenity":"fuel","brand:wikidata":"Q5936320"},"addTags":{"amenity":"fuel","brand":"Wawa","brand:wikidata":"Q5936320","name":"Wawa"}},"amenity/ice_cream/jenissplendidicecreams-53b2e0":{"name":"Jeni's Splendid Ice Cream","locationSet":{"include":["us-al","us-ca","us-dc","us-fl","us-ga","us-il","us-mo","us-nc","us-oh","us-pa","us-sc","us-tn","us-tx"]},"geometry":["point","area"],"matchScore":2,"terms":["jeni's","jeni's splendid ice creams"],"tags":{"amenity":"ice_cream","brand:wikidata":"Q16851196"},"addTags":{"amenity":"ice_cream","brand":"Jeni's Splendid Ice Creams","brand:wikidata":"Q16851196","name":"Jeni's Splendid Ice Creams","short_name":"Jeni's"}},"amenity/pharmacy/giantpharmacy-b6c0ea":{"name":"Giant Pharmacy (Landover)","locationSet":{"include":["us-dc","us-de","us-md","us-va"]},"geometry":["point","area"],"matchScore":2,"terms":["giant"],"reference":{"key":"amenity","value":"pharmacy"},"tags":{"amenity":"pharmacy","brand:wikidata":"Q5558336"},"addTags":{"amenity":"pharmacy","brand":"Giant","brand:wikidata":"Q5558336","healthcare":"pharmacy","name":"Giant Pharmacy"}},"amenity/restaurant/mexican/californiatortilla-5c1b26":{"name":"California Tortilla","locationSet":{"include":["us-dc","us-md","us-nj","us-pa","us-sc","us-va","us-wv"]},"geometry":["point","area"],"matchScore":2,"terms":["california tortilla"],"reference":{"key":"cuisine","value":"mexican"},"tags":{"amenity":"restaurant","brand:wikidata":"Q16972129","cuisine":"mexican"},"addTags":{"amenity":"restaurant","brand":"California Tortilla","brand:wikidata":"Q16972129","cuisine":"mexican","name":"California Tortilla"}},"amenity/restaurant/italian/maggianoslittleitaly-acf8ec":{"name":"Maggiano's Little Italy","locationSet":{"include":["us-az","us-ca","us-co","us-dc","us-fl","us-ga","us-il","us-in","us-ks","us-ma","us-md","us-mi","us-mo","us-nc","us-nj","us-nv","us-ny","us-oh","us-pa","us-tn","us-tx","us-va","us-wa","us-wi"]},"geometry":["point","area"],"matchScore":2,"terms":["maggiano's little italy"],"reference":{"key":"cuisine","value":"italian"},"tags":{"amenity":"restaurant","brand:wikidata":"Q6730149","cuisine":"italian"},"addTags":{"amenity":"restaurant","brand":"Maggiano's Little Italy","brand:wikidata":"Q6730149","cuisine":"italian","name":"Maggiano's Little Italy"}},"amenity/restaurant/american/silverdiner-d77c6e":{"name":"Silver Diner","locationSet":{"include":["us-dc","us-md","us-nj","us-va"]},"geometry":["point","area"],"matchScore":2,"terms":["silver diner"],"reference":{"key":"cuisine","value":"american"},"tags":{"amenity":"restaurant","brand:wikidata":"Q7516006","cuisine":"american;diner"},"addTags":{"amenity":"restaurant","brand":"Silver Diner","brand:wikidata":"Q7516006","cuisine":"american;diner","name":"Silver Diner"}},"shop/convenience/wawa-dad45f":{"name":"Wawa","locationSet":{"include":["us-dc","us-de","us-fl","us-md","us-nj","us-pa","us-va"]},"geometry":["point","area"],"matchScore":2,"terms":["wawa"],"tags":{"brand:wikidata":"Q5936320","shop":"convenience"},"addTags":{"brand":"Wawa","brand:wikidata":"Q5936320","name":"Wawa","shop":"convenience"}},"shop/supermarket/giant-fc203b":{"name":"Giant (Landover)","locationSet":{"include":["us-dc","us-de","us-md","us-va"]},"geometry":["point","area"],"matchScore":2,"terms":["giant","giant food"],"tags":{"brand:wikidata":"Q5558336","shop":"supermarket"},"addTags":{"brand":"Giant","brand:wikidata":"Q5558336","name":"Giant","official_name":"Giant Food","shop":"supermarket"}},"tourism/hotel/yotel-ebcca5":{"name":"YOTEL","locationSet":{"include":["ae","ch","fx","gb","nl","pt","sg","tr","us-ca","us-dc","us-fl","us-ma","us-ny"]},"geometry":["point","area"],"matchScore":2,"terms":["yotel"],"fields":["name","brand","{tourism/hotel}"],"preserveTags":["^name"],"tags":{"brand:wikidata":"Q8046002","tourism":"hotel"},"addTags":{"brand":"YOTEL","brand:wikidata":"Q8046002","name":"YOTEL","tourism":"hotel"}},"amenity/library/dcpubliclibrary-d8e974":{"name":"DC Public Library","locationSet":{"include":["us-dc"]},"geometry":["point","area"],"matchScore":2,"terms":["dc public library"],"tags":{"amenity":"library","operator:wikidata":"Q5283432"},"addTags":{"amenity":"library","operator":"DC Public Library","operator:type":"public","operator:wikidata":"Q5283432"}},"amenity/recycling/goodwillofgreaterwashington-be3266":{"name":"Goodwill of Greater Washington","locationSet":{"include":["us-dc","us-md","us-va"]},"geometry":["point","area"],"matchScore":2,"terms":["goodwill","goodwill of greater washington"],"tags":{"amenity":"recycling","operator:wikidata":"Q126898322"},"addTags":{"amenity":"recycling","brand":"Goodwill","brand:wikidata":"Q5583655","operator":"Goodwill of Greater Washington","operator:wikidata":"Q126898322"}},"amenity/school/districtofcolumbiapublicschools-26727d":{"name":"District of Columbia Public Schools","locationSet":{"include":["us-dc"]},"geometry":["area","point"],"matchScore":2,"terms":["dcps","district of columbia public schools"],"tags":{"amenity":"school","operator:wikidata":"Q3120094"},"addTags":{"amenity":"school","operator":"District of Columbia Public Schools","operator:short":"DCPS","operator:type":"public","operator:wikidata":"Q3120094"}},"man_made/pipeline/districtofcolumbiawaterandsewerauthority-c0acc8":{"name":"District of Columbia Water and Sewer Authority","locationSet":{"include":["us-dc","us-md","us-va"]},"geometry":["line"],"matchScore":2,"terms":["district of columbia water and sewer authority"],"tags":{"man_made":"pipeline","operator:wikidata":"Q5283435"},"addTags":{"man_made":"pipeline","operator":"District of Columbia Water and Sewer Authority","operator:wikidata":"Q5283435"}},"pipeline/substation/districtofcolumbiawaterandsewerauthority-7540e0":{"name":"District of Columbia Water and Sewer Authority","locationSet":{"include":["us-dc","us-md","us-va"]},"geometry":["area","point"],"matchScore":2,"terms":["district of columbia water and sewer authority"],"tags":{"operator:wikidata":"Q5283435","pipeline":"substation"},"addTags":{"operator":"District of Columbia Water and Sewer Authority","operator:wikidata":"Q5283435","pipeline":"substation"}},"power/substation/washingtonmetropolitanareatransitauthority-0d215b":{"name":"Washington Metropolitan Area Transit Authority","locationSet":{"include":["us-dc","us-md","us-va"]},"geometry":["area","point"],"matchScore":2,"terms":["washington metropolitan area transit authority","wmata"],"tags":{"operator:wikidata":"Q7972051","power":"substation"},"addTags":{"operator":"Washington Metropolitan Area Transit Authority","operator:short":"WMATA","operator:wikidata":"Q7972051","power":"substation"}},"power/transformer/washingtonmetropolitanareatransitauthority-4f107c":{"name":"Washington Metropolitan Area Transit Authority","locationSet":{"include":["us-dc","us-md","us-va"]},"geometry":["point","vertex"],"matchScore":2,"terms":["washington metropolitan area transit authority","wmata"],"tags":{"operator:wikidata":"Q7972051","power":"transformer"},"addTags":{"operator":"Washington Metropolitan Area Transit Authority","operator:short":"WMATA","operator:wikidata":"Q7972051","power":"transformer"}},"shop/charity/goodwillofgreaterwashington-9f4803":{"name":"Goodwill of Greater Washington","locationSet":{"include":["us-dc","us-md","us-va"]},"geometry":["point","area"],"matchScore":2,"terms":["goodwill","goodwill of greater washington"],"tags":{"operator:wikidata":"Q126898322","shop":"charity"},"addTags":{"brand":"Goodwill","brand:wikidata":"Q5583655","name":"Goodwill","operator":"Goodwill of Greater Washington","operator:wikidata":"Q126898322","shop":"charity"}}}