{"amenity/atm/mcb-4d5a9a":{"name":"MCB (Caribbean)","locationSet":{"include":["aw","bq","cw","sx"]},"geometry":["point","vertex"],"matchScore":2,"terms":["maduro & curiel's bank","mcb","mcb bank"],"tags":{"amenity":"atm","brand:wikidata":"Q6728857"},"addTags":{"amenity":"atm","brand":"MCB","brand:wikidata":"Q6728857","name":"MCB","operator":"MCB","operator:wikidata":"Q6728857"}},"amenity/bank/mcb-93215e":{"name":"MCB (Caribbean)","locationSet":{"include":["aw","bq","cw","sx"]},"geometry":["point","area"],"matchScore":2,"terms":["maduro & curiel's bank","mcb","mcb bank"],"tags":{"amenity":"bank","brand:wikidata":"Q6728857"},"addTags":{"amenity":"bank","brand":"MCB","brand:wikidata":"Q6728857","name":"MCB"}},"amenity/restaurant/japanese/benihana-bbd124":{"name":"Benihana","locationSet":{"include":["aw","br","ca","pa","sv","us"]},"geometry":["point","area"],"matchScore":2,"terms":["benihana","benihana of tokyo"],"reference":{"key":"cuisine","value":"japanese"},"tags":{"amenity":"restaurant","brand:wikidata":"Q4887996","cuisine":"japanese;teppanyaki;steak"},"addTags":{"amenity":"restaurant","brand":"Benihana","brand:wikidata":"Q4887996","cuisine":"japanese;teppanyaki;steak","name":"Benihana"}},"amenity/telephone/claro-6490cd":{"name":"Claro","locationSet":{"include":["ai","ag","aw","bs","bb","bq","vg","ky","cu","cw","dm","do","gd","gp","ht","jm","mq","ms","pr","bl","kn","lc","mf","vc","sx","tt","tc","vi","bz","cr","sv","gt","hn","mx","ni","pa","ar","bo","bv","br","cl","co","ec","fk","gf","gy","py","pe","gs","sr","uy","ve"]},"geometry":["point","vertex"],"matchScore":2,"terms":["claro"],"fields":["name","operator","{amenity/telephone}"],"tags":{"amenity":"telephone","operator:wikidata":"Q1770208"},"addTags":{"amenity":"telephone","operator":"Claro","operator:wikidata":"Q1770208"}},"power/generator/valero-7654ee":{"name":"Valero","locationSet":{"include":["ai","ag","aw","bs","bb","bq","vg","ky","cu","cw","dm","do","gd","gp","ht","jm","mq","ms","pr","bl","kn","lc","mf","vc","sx","tt","tc","vi","ca","us"]},"geometry":["point","vertex","area"],"matchScore":2,"terms":["valero"],"tags":{"operator:wikidata":"Q1283291","power":"generator"},"addTags":{"operator":"Valero","operator:wikidata":"Q1283291","power":"generator"}}}