{"amenity/clinic/gohealthurgentcare-b3d689":{"name":"Dignity-GoHealth Urgent Care","locationSet":{"include":["us-az","us-ca","us-nv"]},"geometry":["point","area"],"matchScore":2,"terms":["dignity health","gohealth urgent care"],"reference":{"key":"amenity","value":"clinic"},"tags":{"amenity":"clinic","brand:wikidata":"Q110282081"},"addTags":{"amenity":"clinic","brand":"GoHealth Urgent Care","brand:wikidata":"Q110282081","healthcare":"clinic","operator":"Dignity Health","operator:wikidata":"Q5276334","operator:wikipedia":"en:Dignity Health"}},"amenity/dentist/westerndental-e883ee":{"name":"Western Dental","locationSet":{"include":["us-az","us-ca","us-nv"]},"geometry":["point","area"],"matchScore":2,"terms":["western dental","western dental & orthodontics"],"reference":{"key":"amenity","value":"dentist"},"tags":{"amenity":"dentist","brand:wikidata":"Q64211989"},"addTags":{"alt_name":"Western Dental & Orthodontics","amenity":"dentist","brand":"Western Dental","brand:wikidata":"Q64211989","brand:wikipedia":"en:Western Dental","healthcare":"dentist","name":"Western Dental"}},"amenity/dentist/westerndentalkids-2924e1":{"name":"Western Dental Kids","locationSet":{"include":["us-az","us-ca"]},"geometry":["point","area"],"matchScore":2,"terms":["kids dental kare","western dental","western dental & orthodontics kids"],"reference":{"key":"amenity","value":"dentist"},"tags":{"amenity":"dentist","brand:wikidata":"Q64211989"},"addTags":{"alt_name":"Western Dental & Orthodontics Kids","amenity":"dentist","brand":"Western Dental","brand:wikidata":"Q64211989","brand:wikipedia":"en:Western Dental","healthcare":"dentist","name":"Western Dental Kids"}},"amenity/fast_food/chicken/haroldschickenshack-f76ba8":{"name":"Harold's Chicken Shack","locationSet":{"include":["us-az","us-ca","us-ga","us-il","us-in","us-mo","us-nv"]},"geometry":["point","area"],"matchScore":2,"terms":["harold's","harold's chicken","harold's chicken shack","the fried chicken king"],"reference":{"key":"cuisine","value":"chicken"},"tags":{"amenity":"fast_food","brand:wikidata":"Q5659832","cuisine":"chicken"},"addTags":{"amenity":"fast_food","brand":"Harold's Chicken Shack","brand:wikidata":"Q5659832","brand:wikipedia":"en:Harold's Chicken Shack","cuisine":"chicken","name":"Harold's Chicken Shack","takeaway":"yes"}},"amenity/restaurant/snooze-62450c":{"name":"Snooze","locationSet":{"include":["us-az","us-ca","us-co","us-ga","us-ks","us-mo","us-nc","us-tn","us-tx"]},"geometry":["point","area"],"matchScore":2,"terms":["snooze"],"tags":{"amenity":"restaurant","brand:wikidata":"Q111304345"},"addTags":{"amenity":"restaurant","brand":"Snooze","brand:wikidata":"Q111304345","cuisine":"breakfast","name":"Snooze"}},"shop/cannabis/zenleaf-65d11e":{"name":"Zen Leaf","locationSet":{"include":["us-ar","us-az","us-il","us-ma","us-md","us-mi","us-nj","us-nv","us-oh","us-pa"]},"geometry":["point","area"],"matchScore":2,"terms":["zen leaf"],"tags":{"brand:wikidata":"Q108911834","shop":"cannabis"},"addTags":{"brand":"Zen Leaf","brand:wikidata":"Q108911834","name":"Zen Leaf","shop":"cannabis"}},"shop/clothes/justsports-bee14c":{"name":"Just Sports","locationSet":{"include":["us-az"]},"geometry":["point","area"],"matchScore":2,"terms":["just sports"],"tags":{"brand:wikidata":"Q110677242","shop":"clothes"},"addTags":{"brand":"Just Sports","brand:wikidata":"Q110677242","clothes":"sports","name":"Just Sports","shop":"clothes"}},"shop/department_store/bealls-834cda":{"name":"Bealls (Florida-based)","locationSet":{"include":["us-az","us-fl","us-ga"]},"geometry":["point","area"],"matchScore":2,"terms":["bealls"],"tags":{"brand:wikidata":"Q4876153","shop":"department_store"},"addTags":{"brand":"Bealls","brand:wikidata":"Q4876153","brand:wikipedia":"en:Bealls (Florida)","name":"Bealls","shop":"department_store"}},"shop/supermarket/smartandfinal-3441e2":{"name":"Smart & Final","locationSet":{"include":["mx","us-az","us-ca","us-nv"]},"geometry":["point","area"],"matchScore":2,"terms":["smart & final"],"tags":{"brand:wikidata":"Q7543916","shop":"supermarket"},"addTags":{"brand":"Smart & Final","brand:wikidata":"Q7543916","brand:wikipedia":"en:Smart & Final","name":"Smart & Final","shop":"supermarket"}},"shop/supermarket/smartandfinalextra-140857":{"name":"Smart & Final Extra!","locationSet":{"include":["us-az","us-ca","us-nv"]},"geometry":["point","area"],"matchScore":2,"terms":["smart & final"],"tags":{"brand:wikidata":"Q7543916","shop":"supermarket"},"addTags":{"brand":"Smart & Final","brand:wikidata":"Q7543916","brand:wikipedia":"en:Smart & Final","name":"Smart & Final Extra!","shop":"supermarket"}},"shop/trade/empirecat-9b5e16":{"name":"Empire CAT","locationSet":{"include":["us-az","us-ca"]},"geometry":["point","area"],"matchScore":2,"terms":["empire cat"],"tags":{"brand:wikidata":"Q109615341","shop":"trade"},"addTags":{"brand":"Empire CAT","brand:wikidata":"Q109615341","name":"Empire CAT","shop":"trade","trade":"construction_equipment"}},"amenity/hospital/dignityhealth-a0d953":{"name":"Dignity Health","locationSet":{"include":["us-az","us-ca","us-nv"]},"geometry":["area","point"],"matchScore":2,"terms":["dignity health"],"fields":["name","operator","{amenity/hospital}"],"reference":{"key":"amenity","value":"hospital"},"tags":{"amenity":"hospital","operator:wikidata":"Q5276334"},"addTags":{"amenity":"hospital","healthcare":"hospital","operator":"Dignity Health","operator:wikidata":"Q5276334","operator:wikipedia":"en:Dignity Health"}},"amenity/police/arizonadepartmentofpublicsafety-fb4941":{"name":"Arizona DPS","locationSet":{"include":["us-az"]},"geometry":["point","area"],"matchScore":2,"terms":["arizona department of public safety","arizona dps"],"tags":{"amenity":"police","operator:wikidata":"Q4274300"},"addTags":{"amenity":"police","operator":"Arizona Department of Public Safety","operator:short":"Arizona DPS","operator:wikidata":"Q4274300","operator:wikipedia":"en:Arizona Department of Public Safety"}},"amenity/school/albuquerquepublicschools-59e2c9":{"name":"Albuquerque Public Schools","locationSet":{"include":["us-az"]},"geometry":["area","point"],"matchScore":2,"terms":["albuquerque public schools","albuquerque public schools (aps)","albuquerque public schools (http://www.aps.edu/)","aps"],"tags":{"amenity":"school","operator:wikidata":"Q4712830"},"addTags":{"amenity":"school","operator":"Albuquerque Public Schools","operator:short":"APS","operator:type":"public","operator:wikidata":"Q4712830","operator:wikipedia":"en:Albuquerque Public Schools"}},"amenity/school/chandlerunifiedschooldistrict-59e2c9":{"name":"Chandler Unified School District","locationSet":{"include":["us-az"]},"geometry":["area","point"],"matchScore":2,"terms":["chandler unified school district","cusd"],"tags":{"amenity":"school","operator:wikidata":"Q5071194"},"addTags":{"amenity":"school","operator":"Chandler Unified School District","operator:short":"CUSD","operator:type":"public","operator:wikidata":"Q5071194","operator:wikipedia":"en:Chandler Unified School District"}},"amenity/school/chinovalleyunifiedschooldistrict-59e2c9":{"name":"Chino Valley Unified School District (Arizona)","locationSet":{"include":["us-az"]},"geometry":["area","point"],"matchScore":2,"terms":["chino valley unified school district","cvusd"],"tags":{"amenity":"school","operator:wikidata":"Q5101223"},"addTags":{"amenity":"school","operator":"Chino Valley Unified School District","operator:short":"CVUSD","operator:type":"public","operator:wikidata":"Q5101223","operator:wikipedia":"en:Chino Valley Unified School District (Arizona)"}},"amenity/school/mesapublicschools-59e2c9":{"name":"Mesa Public Schools","locationSet":{"include":["us-az"]},"geometry":["area","point"],"matchScore":2,"terms":["mesa public schools","mps"],"tags":{"amenity":"school","operator:wikidata":"Q6821077"},"addTags":{"amenity":"school","operator":"Mesa Public Schools","operator:short":"MPS","operator:type":"public","operator:wikidata":"Q6821077","operator:wikipedia":"en:Mesa Public Schools"}},"amenity/school/peoriaunifiedschooldistrict-59e2c9":{"name":"Peoria Unified School District","locationSet":{"include":["us-az"]},"geometry":["area","point"],"matchScore":2,"terms":["peoria unified school district","pusd"],"tags":{"amenity":"school","operator:wikidata":"Q7166160"},"addTags":{"amenity":"school","operator":"Peoria Unified School District","operator:short":"PUSD","operator:type":"public","operator:wikidata":"Q7166160","operator:wikipedia":"en:Peoria Unified School District"}},"leisure/nature_reserve/arizonastateparks-d11711":{"name":"Arizona State Parks","locationSet":{"include":["us-az"]},"geometry":["area","point"],"matchScore":2,"terms":["arizona state parks"],"tags":{"leisure":"nature_reserve","operator:wikidata":"Q4791409"},"addTags":{"leisure":"nature_reserve","operator":"Arizona State Parks","operator:type":"public","operator:wikidata":"Q4791409","operator:wikipedia":"en:Arizona State Parks (government)"}},"leisure/nature_reserve/cityofchandler-d11711":{"name":"City of Chandler","locationSet":{"include":["us-az"]},"geometry":["area","point"],"matchScore":2,"terms":["chandler parks and recreation","city of chandler"],"tags":{"leisure":"nature_reserve","operator:wikidata":"Q49272"},"addTags":{"leisure":"nature_reserve","operator":"City of Chandler","operator:type":"public","operator:wikidata":"Q49272","operator:wikipedia":"en:Chandler, Arizona"}},"leisure/nature_reserve/cityofmesa-d11711":{"name":"City of Mesa","locationSet":{"include":["us-az"]},"geometry":["area","point"],"matchScore":2,"terms":["city of mesa"],"tags":{"leisure":"nature_reserve","operator:wikidata":"Q49261"},"addTags":{"leisure":"nature_reserve","operator":"City of Mesa","operator:type":"public","operator:wikidata":"Q49261","operator:wikipedia":"en:Mesa, Arizona"}},"leisure/nature_reserve/cityofphoenix-d11711":{"name":"City of Phoenix (Arizona)","locationSet":{"include":["us-az"]},"geometry":["area","point"],"matchScore":2,"terms":["city of phoenix"],"tags":{"leisure":"nature_reserve","operator:wikidata":"Q16556"},"addTags":{"leisure":"nature_reserve","operator":"City of Phoenix","operator:type":"public","operator:wikidata":"Q16556","operator:wikipedia":"en:Phoenix, Arizona"}},"leisure/nature_reserve/newmexicodepartmentofenergymineralsandnaturalresources-d11711":{"name":"EMNRD","locationSet":{"include":["us-az"]},"geometry":["area","point"],"matchScore":2,"terms":["emnrd","new mexico (energy, minerals, and natural resources department)","new mexico department of energy, minerals, and natural resources","new mexico state parks"],"tags":{"leisure":"nature_reserve","operator:wikidata":"Q7010172"},"addTags":{"leisure":"nature_reserve","operator":"New Mexico Department of Energy, Minerals, and Natural Resources","operator:short":"EMNRD","operator:type":"public","operator:wikidata":"Q7010172","operator:wikipedia":"en:New Mexico Department of Energy, Minerals, and Natural Resources"}},"leisure/park/arizonastateparks-1fe561":{"name":"Arizona State Parks","locationSet":{"include":["us-az"]},"geometry":["area","point"],"matchScore":2,"terms":["arizona state parks"],"tags":{"leisure":"park","operator:wikidata":"Q4791409"},"addTags":{"leisure":"park","operator":"Arizona State Parks","operator:type":"public","operator:wikidata":"Q4791409","operator:wikipedia":"en:Arizona State Parks (government)"}},"leisure/park/cityofchandler-1fe561":{"name":"City of Chandler","locationSet":{"include":["us-az"]},"geometry":["area","point"],"matchScore":2,"terms":["chandler parks and recreation","city of chandler"],"tags":{"leisure":"park","operator:wikidata":"Q49272"},"addTags":{"leisure":"park","operator":"City of Chandler","operator:type":"public","operator:wikidata":"Q49272","operator:wikipedia":"en:Chandler, Arizona"}},"leisure/park/cityofmesa-1fe561":{"name":"City of Mesa","locationSet":{"include":["us-az"]},"geometry":["area","point"],"matchScore":2,"terms":["city of mesa"],"tags":{"leisure":"park","operator:wikidata":"Q49261"},"addTags":{"leisure":"park","operator":"City of Mesa","operator:type":"public","operator:wikidata":"Q49261","operator:wikipedia":"en:Mesa, Arizona"}},"leisure/park/cityofphoenix-1fe561":{"name":"City of Phoenix (Arizona)","locationSet":{"include":["us-az"]},"geometry":["area","point"],"matchScore":2,"terms":["city of phoenix"],"tags":{"leisure":"park","operator:wikidata":"Q16556"},"addTags":{"leisure":"park","operator":"City of Phoenix","operator:type":"public","operator:wikidata":"Q16556","operator:wikipedia":"en:Phoenix, Arizona"}},"leisure/park/newmexicodepartmentofenergymineralsandnaturalresources-1fe561":{"name":"EMNRD","locationSet":{"include":["us-az"]},"geometry":["area","point"],"matchScore":2,"terms":["emnrd","new mexico (energy, minerals, and natural resources department)","new mexico department of energy, minerals, and natural resources","new mexico state parks"],"tags":{"leisure":"park","operator:wikidata":"Q7010172"},"addTags":{"leisure":"park","operator":"New Mexico Department of Energy, Minerals, and Natural Resources","operator:short":"EMNRD","operator:type":"public","operator:wikidata":"Q7010172","operator:wikipedia":"en:New Mexico Department of Energy, Minerals, and Natural Resources"}},"power/line/arizonapublicservice-33eed2":{"name":"Arizona Public Service","locationSet":{"include":["us-az"]},"geometry":["line"],"matchScore":2,"terms":["arizona public service","arizona public service company"],"tags":{"operator:wikidata":"Q1242804","power":"line"},"addTags":{"operator":"Arizona Public Service","operator:wikidata":"Q1242804","operator:wikipedia":"en:Arizona Public Service","power":"line"}},"power/line/epcor-ec456d":{"name":"EPCOR","locationSet":{"include":["ca-ab","ca-bc","ca-on","us-az","us-nm","us-tx"]},"geometry":["line"],"matchScore":2,"terms":["aqualta","eltec","epcor"],"tags":{"operator:wikidata":"Q5323849","power":"line"},"addTags":{"operator":"EPCOR","operator:wikidata":"Q5323849","operator:wikipedia":"en:EPCOR Utilities","power":"line"}},"power/minor_line/arizonapublicservice-568d52":{"name":"Arizona Public Service","locationSet":{"include":["us-az"]},"geometry":["line"],"matchScore":2,"terms":["arizona public service","arizona public service company"],"tags":{"operator:wikidata":"Q1242804","power":"minor_line"},"addTags":{"operator":"Arizona Public Service","operator:wikidata":"Q1242804","operator:wikipedia":"en:Arizona Public Service","power":"minor_line"}},"power/minor_line/epcor-dda2f7":{"name":"EPCOR","locationSet":{"include":["ca-ab","ca-bc","ca-on","us-az","us-nm","us-tx"]},"geometry":["line"],"matchScore":2,"terms":["aqualta","eltec","epcor"],"tags":{"operator:wikidata":"Q5323849","power":"minor_line"},"addTags":{"operator":"EPCOR","operator:wikidata":"Q5323849","operator:wikipedia":"en:EPCOR Utilities","power":"minor_line"}},"power/pole/arizonapublicservice-4d7f6d":{"name":"Arizona Public Service","locationSet":{"include":["us-az"]},"geometry":["point","vertex"],"matchScore":2,"terms":["arizona public service","arizona public service company"],"tags":{"operator:wikidata":"Q1242804","power":"pole"},"addTags":{"operator":"Arizona Public Service","operator:wikidata":"Q1242804","operator:wikipedia":"en:Arizona Public Service","power":"pole"}},"power/pole/epcor-e09e4b":{"name":"EPCOR","locationSet":{"include":["ca-ab","ca-bc","ca-on","us-az","us-nm","us-tx"]},"geometry":["point","vertex"],"matchScore":2,"terms":["aqualta","eltec","epcor"],"tags":{"operator:wikidata":"Q5323849","power":"pole"},"addTags":{"operator":"EPCOR","operator:wikidata":"Q5323849","operator:wikipedia":"en:EPCOR Utilities","power":"pole"}},"power/substation/arizonapublicservice-260b75":{"name":"Arizona Public Service","locationSet":{"include":["us-az"]},"geometry":["area","point"],"matchScore":2,"terms":["arizona public service","arizona public service company"],"tags":{"operator:wikidata":"Q1242804","power":"substation"},"addTags":{"operator":"Arizona Public Service","operator:wikidata":"Q1242804","operator:wikipedia":"en:Arizona Public Service","power":"substation"}},"power/substation/epcor-b7915e":{"name":"EPCOR","locationSet":{"include":["ca-ab","ca-bc","ca-on","us-az","us-nm","us-tx"]},"geometry":["area","point"],"matchScore":2,"terms":["aqualta","eltec","epcor"],"tags":{"operator:wikidata":"Q5323849","power":"substation"},"addTags":{"operator":"EPCOR","operator:wikidata":"Q5323849","operator:wikipedia":"en:EPCOR Utilities","power":"substation"}},"power/tower/arizonapublicservice-fa3ca4":{"name":"Arizona Public Service","locationSet":{"include":["us-az"]},"geometry":["point","vertex"],"matchScore":2,"terms":["arizona public service","arizona public service company"],"tags":{"operator:wikidata":"Q1242804","power":"tower"},"addTags":{"operator":"Arizona Public Service","operator:wikidata":"Q1242804","operator:wikipedia":"en:Arizona Public Service","power":"tower"}},"power/tower/epcor-f12bdc":{"name":"EPCOR","locationSet":{"include":["ca-ab","ca-bc","ca-on","us-az","us-nm","us-tx"]},"geometry":["point","vertex"],"matchScore":2,"terms":["aqualta","eltec","epcor"],"tags":{"operator:wikidata":"Q5323849","power":"tower"},"addTags":{"operator":"EPCOR","operator:wikidata":"Q5323849","operator:wikipedia":"en:EPCOR Utilities","power":"tower"}},"power/transformer/arizonapublicservice-b6d642":{"name":"Arizona Public Service","locationSet":{"include":["us-az"]},"geometry":["point","vertex"],"matchScore":2,"terms":["arizona public service","arizona public service company"],"tags":{"operator:wikidata":"Q1242804","power":"transformer"},"addTags":{"operator":"Arizona Public Service","operator:wikidata":"Q1242804","operator:wikipedia":"en:Arizona Public Service","power":"transformer"}},"power/transformer/epcor-f6996f":{"name":"EPCOR","locationSet":{"include":["ca-ab","ca-bc","ca-on","us-az","us-nm","us-tx"]},"geometry":["point","vertex"],"matchScore":2,"terms":["aqualta","eltec","epcor"],"tags":{"operator:wikidata":"Q5323849","power":"transformer"},"addTags":{"operator":"EPCOR","operator:wikidata":"Q5323849","operator:wikipedia":"en:EPCOR Utilities","power":"transformer"}},"public_transport/platform/bus_point/valleymetro-2b4b5b":{"name":"Valley Metro","locationSet":{"include":["us-az"]},"geometry":["point","vertex"],"matchScore":2,"terms":["us national transit database id is 90032","valley metro"],"reference":{"key":"public_transport","value":"platform"},"tags":{"bus":"yes","network:wikidata":"Q3553869","public_transport":"platform"},"addTags":{"bus":"yes","highway":"bus_stop","network":"Valley Metro","network:wikidata":"Q3553869","network:wikipedia":"en:Valley Metro","public_transport":"platform"}},"type/route/bus/valleymetro-d5f00f":{"name":"Valley Metro","locationSet":{"include":["us-az"]},"geometry":["relation"],"matchScore":2,"terms":["us national transit database id is 90032","valley metro"],"reference":{"key":"route","value":"bus"},"tags":{"network:wikidata":"Q3553869","route":"bus","type":"route"},"addTags":{"network":"Valley Metro","network:wikidata":"Q3553869","network:wikipedia":"en:Valley Metro","route":"bus","type":"route"}}}