{"amenity/atm/baccredomatic-9c7dd6":{"name":"BAC Credomatic","locationSet":{"include":["cr","gt","hn","ni","pa","sv"]},"geometry":["point","vertex"],"matchScore":2,"terms":["bac","bac credomatic"],"tags":{"amenity":"atm","brand:wikidata":"Q5715556"},"addTags":{"amenity":"atm","brand":"BAC Credomatic","brand:wikidata":"Q5715556","brand:wikipedia":"en:BAC Credomatic","name":"BAC Credomatic","operator":"BAC Credomatic","operator:wikidata":"Q5715556","operator:wikipedia":"en:BAC Credomatic"}},"amenity/atm/bancoazteca-6e6832":{"name":"Banco Azteca","locationSet":{"include":["gt","hn","mx","pa","pe","sv"]},"geometry":["point","vertex"],"matchScore":2,"terms":["banco azteca"],"tags":{"amenity":"atm","brand:wikidata":"Q4854076"},"addTags":{"amenity":"atm","brand":"Banco Azteca","brand:wikidata":"Q4854076","brand:wikipedia":"en:Banco Azteca","name":"Banco Azteca","operator":"Banco Azteca","operator:wikidata":"Q4854076","operator:wikipedia":"en:Banco Azteca"}},"amenity/atm/bancogandtcontinental-1466f5":{"name":"Banco G&T Continental","locationSet":{"include":["gt","sv"]},"geometry":["point","vertex"],"matchScore":2,"terms":["banco g&t continental"],"tags":{"amenity":"atm","brand:wikidata":"Q5717949"},"addTags":{"amenity":"atm","brand":"Banco G&T Continental","brand:wikidata":"Q5717949","brand:wikipedia":"es:Banco GYT Continental, S.A.","name":"Banco G&T Continental","operator":"Banco G&T Continental","operator:wikidata":"Q5717949","operator:wikipedia":"es:Banco GYT Continental, S.A."}},"amenity/atm/davivienda-ad7b0d":{"name":"Davivienda","locationSet":{"include":["co","cr","hn","pa","sv"]},"geometry":["point","vertex"],"matchScore":2,"terms":["banco davivienda","davivienda"],"tags":{"amenity":"atm","brand:wikidata":"Q5242054"},"addTags":{"amenity":"atm","brand":"Davivienda","brand:wikidata":"Q5242054","brand:wikipedia":"es:Davivienda","name":"Davivienda","operator":"Davivienda","operator:wikidata":"Q5242054","operator:wikipedia":"es:Davivienda"}},"amenity/bank/baccredomatic-a7c666":{"name":"BAC Credomatic","locationSet":{"include":["cr","gt","hn","ni","pa","sv"]},"geometry":["point","area"],"matchScore":2,"terms":["bac","bac credomatic"],"tags":{"amenity":"bank","brand:wikidata":"Q5715556"},"addTags":{"amenity":"bank","brand":"BAC Credomatic","brand:wikidata":"Q5715556","brand:wikipedia":"en:BAC Credomatic","name":"BAC Credomatic"}},"amenity/bank/bancoazteca-a695fe":{"name":"Banco Azteca","locationSet":{"include":["gt","hn","mx","pa","pe","sv"]},"geometry":["point","area"],"matchScore":2,"terms":["banco azteca"],"tags":{"amenity":"bank","brand:wikidata":"Q4854076"},"addTags":{"amenity":"bank","brand":"Banco Azteca","brand:wikidata":"Q4854076","brand:wikipedia":"en:Banco Azteca","name":"Banco Azteca"}},"amenity/bank/bancogandtcontinental-4ca2cd":{"name":"Banco G&T Continental","locationSet":{"include":["gt","sv"]},"geometry":["point","area"],"matchScore":2,"terms":["banco g&t continental"],"tags":{"amenity":"bank","brand:wikidata":"Q5717949"},"addTags":{"amenity":"bank","brand":"Banco G&T Continental","brand:wikidata":"Q5717949","brand:wikipedia":"es:Banco GYT Continental, S.A.","name":"Banco G&T Continental"}},"amenity/bank/davivienda-0357a0":{"name":"Davivienda","locationSet":{"include":["co","cr","hn","pa","sv"]},"geometry":["point","area"],"matchScore":2,"terms":["banco davivienda","davivienda"],"tags":{"amenity":"bank","brand:wikidata":"Q5242054"},"addTags":{"amenity":"bank","brand":"Davivienda","brand:wikidata":"Q5242054","brand:wikipedia":"es:Davivienda","name":"Davivienda"}},"amenity/fuel/uno-24faf9":{"name":"Uno","locationSet":{"include":["bz","cr","gt","hn","ni","sv"]},"geometry":["point","area"],"matchScore":2,"terms":["uno"],"fields":["name","brand","{amenity/fuel}"],"tags":{"amenity":"fuel","brand:wikidata":"Q62535574"},"addTags":{"amenity":"fuel","brand":"Uno","brand:wikidata":"Q62535574","name":"Uno"}},"amenity/ice_cream/llaollao-dd9462":{"name":"Llaollao","locationSet":{"include":["au","ch","cl","co","ec","es","fr","gt","hr","id","iq","kw","ma","my","ph","pt","sa","sg","si","sv","us","vn"]},"geometry":["point","area"],"matchScore":2,"terms":["llaollao"],"tags":{"amenity":"ice_cream","brand:wikidata":"Q12163048"},"addTags":{"amenity":"ice_cream","brand":"Llaollao","brand:wikidata":"Q12163048","brand:wikipedia":"es:Llaollao","cuisine":"frozen_yogurt","name":"Llaollao"}},"amenity/pharmacy/farmaciaseconomicas-fa48f5":{"name":"Farmacias Económicas (El Salvador)","locationSet":{"include":["sv"]},"geometry":["point","area"],"matchScore":2,"terms":["farmacias económicas"],"reference":{"key":"amenity","value":"pharmacy"},"tags":{"amenity":"pharmacy","brand:wikidata":"Q62108397"},"addTags":{"amenity":"pharmacy","brand":"Farmacias Económicas","brand:wikidata":"Q62108397","healthcare":"pharmacy","name":"Farmacias Económicas"}},"amenity/restaurant/japanese/benihana-bbd124":{"name":"Benihana","locationSet":{"include":["aw","br","ca","pa","sv","us"]},"geometry":["point","area"],"matchScore":2,"terms":["benihana","benihana of tokyo"],"reference":{"key":"cuisine","value":"japanese"},"tags":{"amenity":"restaurant","brand:wikidata":"Q4887996","cuisine":"japanese;teppanyaki;steak"},"addTags":{"amenity":"restaurant","brand":"Benihana","brand:wikidata":"Q4887996","brand:wikipedia":"en:Benihana","cuisine":"japanese;teppanyaki;steak","name":"Benihana"}},"shop/clothes/express-e10c9b":{"name":"Express","locationSet":{"include":["cr","gt","mx","pa","pr","sv","us"]},"geometry":["point","area"],"matchScore":2,"terms":["express"],"tags":{"brand:wikidata":"Q1384784","shop":"clothes"},"addTags":{"brand":"Express","brand:wikidata":"Q1384784","brand:wikipedia":"en:Express, Inc.","name":"Express","shop":"clothes"}},"shop/clothes/expressmen-e10c9b":{"name":"Express Men","locationSet":{"include":["cr","gt","mx","pa","pr","sv","us"]},"geometry":["point","area"],"matchScore":2,"terms":["express"],"tags":{"brand:wikidata":"Q1384784","shop":"clothes"},"addTags":{"brand":"Express","brand:wikidata":"Q1384784","brand:wikipedia":"en:Express, Inc.","name":"Express Men","shop":"clothes"}},"shop/department_store/elektra-95a469":{"name":"Elektra","locationSet":{"include":["gt","hn","mx","pa","pe","sv"]},"geometry":["point","area"],"matchScore":2,"terms":["elektra"],"tags":{"brand:wikidata":"Q1142753","shop":"department_store"},"addTags":{"brand":"Elektra","brand:wikidata":"Q1142753","brand:wikipedia":"en:Grupo Elektra","name":"Elektra","shop":"department_store"}},"shop/electronics/elektra-10d776":{"name":"Elektra","locationSet":{"include":["gt","hn","pa","pe","sv"]},"geometry":["point","area"],"matchScore":2,"terms":["elektra"],"tags":{"brand:wikidata":"Q1142753","shop":"electronics"},"addTags":{"brand":"Elektra","brand:wikidata":"Q1142753","brand:wikipedia":"es:Grupo Elektra","name":"Elektra","shop":"electronics"}},"shop/mobile_phone/claro-1c9651":{"name":"Claro","locationSet":{"include":["ar","br","cl","co","cr","do","ec","gt","hn","ni","pa","pe","pr","py","sv","uy"]},"geometry":["point","area"],"matchScore":2,"terms":["claro"],"tags":{"brand:wikidata":"Q1770208","shop":"mobile_phone"},"addTags":{"brand":"Claro","brand:wikidata":"Q1770208","brand:wikipedia":"en:Claro (company)","name":"Claro","shop":"mobile_phone"}},"shop/mobile_phone/movistar-acd455":{"name":"Movistar","locationSet":{"include":["ar","cl","co","cr","ec","gt","mx","ni","pa","pe","sv","uy","ve"]},"geometry":["point","area"],"matchScore":2,"terms":["movistar"],"tags":{"brand:wikidata":"Q967735","shop":"mobile_phone"},"addTags":{"brand":"Movistar","brand:wikidata":"Q967735","brand:wikipedia":"en:Movistar","name":"Movistar","shop":"mobile_phone"}},"shop/paint/comex-d8e74b":{"name":"Comex","locationSet":{"include":["bz","cr","gt","hn","mx","ni","sv"]},"geometry":["point","area"],"matchScore":2,"terms":["comex"],"tags":{"brand:wikidata":"Q5151654","shop":"paint"},"addTags":{"brand":"Comex","brand:wikidata":"Q5151654","brand:wikipedia":"en:Comex Group","name":"Comex","shop":"paint"}},"shop/supermarket/despensafamiliar-4ef027":{"name":"Despensa Familiar","locationSet":{"include":["gt","hn","sv"]},"geometry":["point","area"],"matchScore":2,"terms":["despensa familiar"],"tags":{"brand:wikidata":"Q61994849","shop":"supermarket"},"addTags":{"brand":"Despensa Familiar","brand:wikidata":"Q61994849","name":"Despensa Familiar","shop":"supermarket"}},"tourism/hotel/fairfieldinn-b80dae":{"name":"Fairfield Inn","locationSet":{"include":["ca","cn","id","in","jp","kr","mx","my","sv","us"]},"geometry":["point","area"],"matchScore":2,"terms":["fairfield by marriott","fairfield inn"],"fields":["name","brand","{tourism/hotel}"],"tags":{"brand:wikidata":"Q5430314","tourism":"hotel"},"addTags":{"brand":"Fairfield Inn","brand:wikidata":"Q5430314","brand:wikipedia":"en:Fairfield by Marriott","name":"Fairfield Inn","official_name":"Fairfield by Marriott","tourism":"hotel"}},"amenity/hospital/ministeriodesalud-e39fb9":{"name":"Ministerio de Salud (El Salvador)","locationSet":{"include":["sv"]},"geometry":["area","point"],"matchScore":2,"terms":["ministerio de salud","minsal"],"fields":["name","operator","{amenity/hospital}"],"reference":{"key":"amenity","value":"hospital"},"tags":{"amenity":"hospital","operator:wikidata":"Q50037290"},"addTags":{"amenity":"hospital","healthcare":"hospital","operator":"Ministerio de Salud","operator:short":"MINSAL","operator:wikidata":"Q50037290","operator:wikipedia":"es:Ministerio de Salud (El Salvador)"}},"leisure/nature_reserve/institutosalvadorenodeturismo-b33958":{"name":"ISTU","locationSet":{"include":["sv"]},"geometry":["area","point"],"matchScore":2,"terms":["instituto salvadoreño de turismo","istu"],"tags":{"leisure":"nature_reserve","operator:wikidata":"Q110064317"},"addTags":{"leisure":"nature_reserve","operator":"Instituto Salvadoreño de Turismo","operator:short":"ISTU","operator:type":"public","operator:wikidata":"Q110064317"}},"leisure/park/institutosalvadorenodeturismo-489562":{"name":"ISTU","locationSet":{"include":["sv"]},"geometry":["area","point"],"matchScore":2,"terms":["instituto salvadoreño de turismo","istu"],"tags":{"leisure":"park","operator:wikidata":"Q110064317"},"addTags":{"leisure":"park","operator":"Instituto Salvadoreño de Turismo","operator:short":"ISTU","operator:type":"public","operator:wikidata":"Q110064317"}}}