{"amenity/atm/baccredomatic-9c7dd6":{"name":"BAC Credomatic","locationSet":{"include":["cr","gt","hn","ni","pa","sv"]},"geometry":["point","vertex"],"matchScore":2,"terms":["bac","bac credomatic"],"fields":["name","brand","{amenity/atm}"],"tags":{"amenity":"atm","brand:wikidata":"Q5715556"},"addTags":{"amenity":"atm","brand":"BAC Credomatic","brand:wikidata":"Q5715556","operator":"BAC Credomatic","operator:wikidata":"Q5715556"}},"amenity/atm/bwbank-a6d133":{"name":"Banco General","locationSet":{"include":["cr","pa"]},"geometry":["point","vertex"],"matchScore":2,"terms":["bw-bank"],"fields":["name","brand","{amenity/atm}"],"tags":{"amenity":"atm","brand:wikidata":"Q27618271"},"addTags":{"amenity":"atm","brand":"BW-Bank","brand:wikidata":"Q27618271","operator":"BW-Bank","operator:wikidata":"Q27618271"}},"amenity/atm/banconacionaldecostarica-a6d133":{"name":"Banco Nacional","locationSet":{"include":["cr","pa"]},"geometry":["point","vertex"],"matchScore":2,"terms":["banco nacional de costa rica","bncr"],"fields":["name","brand","{amenity/atm}"],"tags":{"amenity":"atm","brand:wikidata":"Q2917708"},"addTags":{"amenity":"atm","brand":"Banco Nacional de Costa Rica","brand:wikidata":"Q2917708","official_name":"Banco Nacional de Costa Rica","operator":"Banco Nacional de Costa Rica","operator:wikidata":"Q2917708","short_name":"BNCR"}},"amenity/atm/bcr-5cb8d1":{"name":"BCR (Costa Rica)","locationSet":{"include":["cr"]},"geometry":["point","vertex"],"matchScore":2,"terms":["banco de costa rica","bcr"],"fields":["name","brand","{amenity/atm}"],"tags":{"amenity":"atm","brand:wikidata":"Q6951632"},"addTags":{"amenity":"atm","brand":"BCR","brand:wikidata":"Q6951632","official_name":"Banco de Costa Rica","operator":"BCR","operator:wikidata":"Q6951632"}},"amenity/atm/davivienda-ad7b0d":{"name":"Davivienda","locationSet":{"include":["co","cr","hn","pa","sv"]},"geometry":["point","vertex"],"matchScore":2,"terms":["banco davivienda","davivienda"],"fields":["name","brand","{amenity/atm}"],"tags":{"amenity":"atm","brand:wikidata":"Q5242054"},"addTags":{"amenity":"atm","brand":"Davivienda","brand:wikidata":"Q5242054","operator":"Davivienda","operator:wikidata":"Q5242054"}},"amenity/bank/baccredomatic-a7c666":{"name":"BAC Credomatic","locationSet":{"include":["cr","gt","hn","ni","pa","sv"]},"geometry":["point","area"],"matchScore":2,"terms":["bac","bac credomatic"],"tags":{"amenity":"bank","brand:wikidata":"Q5715556"},"addTags":{"amenity":"bank","brand":"BAC Credomatic","brand:wikidata":"Q5715556","name":"BAC Credomatic"}},"amenity/bank/bancogeneral-865fd1":{"name":"Banco General","locationSet":{"include":["cr","pa"]},"geometry":["point","area"],"matchScore":2,"terms":["bw-bank"],"tags":{"amenity":"bank","brand:wikidata":"Q27618271"},"addTags":{"amenity":"bank","brand":"BW-Bank","brand:wikidata":"Q27618271","name":"Banco General"}},"amenity/bank/banconacional-865fd1":{"name":"Banco Nacional","locationSet":{"include":["cr","pa"]},"geometry":["point","area"],"matchScore":2,"terms":["banco nacional de costa rica","bncr"],"tags":{"amenity":"bank","brand:wikidata":"Q2917708"},"addTags":{"amenity":"bank","brand":"Banco Nacional de Costa Rica","brand:wikidata":"Q2917708","name":"Banco Nacional","official_name":"Banco Nacional de Costa Rica","short_name":"BNCR"}},"amenity/bank/bcr-8702f4":{"name":"BCR (Costa Rica)","locationSet":{"include":["cr"]},"geometry":["point","area"],"matchScore":2,"terms":["banco de costa rica","bcr"],"tags":{"amenity":"bank","brand:wikidata":"Q6951632"},"addTags":{"amenity":"bank","brand":"BCR","brand:wikidata":"Q6951632","name":"BCR","official_name":"Banco de Costa Rica"}},"amenity/bank/davivienda-0357a0":{"name":"Davivienda","locationSet":{"include":["co","cr","hn","pa","sv"]},"geometry":["point","area"],"matchScore":2,"terms":["banco davivienda","davivienda"],"tags":{"amenity":"bank","brand:wikidata":"Q5242054"},"addTags":{"amenity":"bank","brand":"Davivienda","brand:wikidata":"Q5242054","name":"Davivienda"}},"amenity/fast_food/chicken/pollogranjero-916d19":{"name":"Pollo Granjero (Costa Rica)","locationSet":{"include":["cr"]},"geometry":["point","area"],"matchScore":2,"terms":["pollo granjero"],"reference":{"key":"cuisine","value":"chicken"},"tags":{"amenity":"fast_food","brand:wikidata":"Q62273665","cuisine":"chicken"},"addTags":{"amenity":"fast_food","brand":"Pollo Granjero","brand:wikidata":"Q62273665","cuisine":"chicken","name":"Pollo Granjero","takeaway":"yes"}},"amenity/fuel/delta-1fbae0":{"name":"Delta (Panama & Costa Rica)","locationSet":{"include":["cr","pa"]},"geometry":["point","area"],"matchScore":2,"terms":["delta"],"fields":["name","brand","{amenity/fuel}"],"tags":{"amenity":"fuel","brand:wikidata":"Q62274638"},"addTags":{"amenity":"fuel","brand":"Delta","brand:wikidata":"Q62274638","name":"Delta"}},"amenity/fuel/uno-24faf9":{"name":"Uno","locationSet":{"include":["bz","cr","gt","hn","ni","sv"]},"geometry":["point","area"],"matchScore":2,"terms":["uno"],"fields":["name","brand","{amenity/fuel}"],"tags":{"amenity":"fuel","brand:wikidata":"Q62535574"},"addTags":{"amenity":"fuel","brand":"Uno","brand:wikidata":"Q62535574","name":"Uno"}},"amenity/post_office/postnet-7f7712":{"name":"PostNet","locationSet":{"include":["br","ca","cr","na","pa","sz","us","za"]},"geometry":["point","area"],"matchScore":2,"terms":["postnet"],"fields":["name","brand","{amenity/post_office}"],"tags":{"amenity":"post_office","brand:wikidata":"Q7233611"},"addTags":{"amenity":"post_office","brand":"PostNet","brand:wikidata":"Q7233611","name":"PostNet"}},"emergency/ambulance_station/cruzrojacostarricense-644419":{"name":"Cruz Roja Costarricense","locationSet":{"include":["cr"]},"geometry":["point","area"],"matchScore":2,"terms":["crc","cruz roja","cruz roja costarricense"],"fields":["name","brand","{emergency/ambulance_station}"],"tags":{"brand:wikidata":"Q104778895","emergency":"ambulance_station"},"addTags":{"brand":"Cruz Roja Costarricense","brand:wikidata":"Q104778895","emergency":"ambulance_station","name":"Cruz Roja Costarricense"}},"shop/bakery/musmanni-8b7146":{"name":"Musmanni","locationSet":{"include":["cr"]},"geometry":["point","area"],"matchScore":2,"terms":["musmanni"],"tags":{"brand:wikidata":"Q19382082","shop":"bakery"},"addTags":{"brand":"Musmanni","brand:wikidata":"Q19382082","name":"Musmanni","shop":"bakery"}},"shop/clothes/express-e10c9b":{"name":"Express","locationSet":{"include":["cr","gt","mx","pa","pr","sv","us"]},"geometry":["point","area"],"matchScore":2,"terms":["express"],"tags":{"brand:wikidata":"Q1384784","shop":"clothes"},"addTags":{"brand":"Express","brand:wikidata":"Q1384784","name":"Express","shop":"clothes"}},"shop/clothes/expressmen-e10c9b":{"name":"Express Men","locationSet":{"include":["cr","gt","mx","pa","pr","sv","us"]},"geometry":["point","area"],"matchScore":2,"terms":["express"],"tags":{"brand:wikidata":"Q1384784","shop":"clothes"},"addTags":{"brand":"Express","brand:wikidata":"Q1384784","name":"Express Men","shop":"clothes"}},"shop/convenience/oxxo-8364f9":{"name":"Oxxo","locationSet":{"include":["br","cl","co","cr","mx","pe","us"]},"geometry":["point","area"],"matchScore":2,"terms":["oxxo"],"tags":{"brand:wikidata":"Q1342538","shop":"convenience"},"addTags":{"brand":"Oxxo","brand:wikidata":"Q1342538","name":"Oxxo","shop":"convenience"}},"shop/electronics/steren-21e489":{"name":"Steren","locationSet":{"include":["co","cr","do","gt","mx"]},"geometry":["point","area"],"matchScore":2,"terms":["steren"],"tags":{"brand:wikidata":"Q5829102","shop":"electronics"},"addTags":{"brand":"Steren","brand:wikidata":"Q5829102","name":"Steren","shop":"electronics"}},"shop/mobile_phone/claro-1c9651":{"name":"Claro","locationSet":{"include":["ar","br","cl","co","cr","do","ec","gt","hn","ni","pa","pe","pr","py","sv","uy"]},"geometry":["point","area"],"matchScore":2,"terms":["claro"],"tags":{"brand:wikidata":"Q1770208","shop":"mobile_phone"},"addTags":{"brand":"Claro","brand:wikidata":"Q1770208","name":"Claro","shop":"mobile_phone"}},"shop/mobile_phone/movistar-de0f48":{"name":"Movistar","locationSet":{"include":["ar","cl","co","cr","ec","es","gt","mx","ni","pa","pe","sv","uy","ve"]},"geometry":["point","area"],"matchScore":2,"terms":["movistar"],"tags":{"brand:wikidata":"Q967735","shop":"mobile_phone"},"addTags":{"brand":"Movistar","brand:wikidata":"Q967735","name":"Movistar","shop":"mobile_phone"}},"shop/paint/comex-d8e74b":{"name":"Comex","locationSet":{"include":["bz","cr","gt","hn","mx","ni","sv"]},"geometry":["point","area"],"matchScore":2,"terms":["comex"],"tags":{"brand:wikidata":"Q5151654","shop":"paint"},"addTags":{"brand":"Comex","brand:wikidata":"Q5151654","name":"Comex","shop":"paint"}},"shop/supermarket/pali-ff0cfa":{"name":"Palí","locationSet":{"include":["cr","ni"]},"geometry":["point","area"],"matchScore":2,"terms":["palí"],"tags":{"brand:wikidata":"Q1064887","shop":"supermarket"},"addTags":{"brand":"Palí","brand:wikidata":"Q1064887","name":"Palí","shop":"supermarket"}},"shop/telecommunication/agenciaice-478408":{"name":"Agencia ICE","locationSet":{"include":["cr"]},"geometry":["point","area"],"matchScore":2,"terms":["ice"],"tags":{"brand:wikidata":"Q3431114","shop":"telecommunication"},"addTags":{"brand":"ICE","brand:wikidata":"Q3431114","name":"Agencia ICE","shop":"telecommunication"}},"tourism/hotel/barcelohotelsandresorts-302c40":{"name":"Barceló","locationSet":{"include":["ae","aw","bg","cr","cu","cz","de","do","eg","es","gr","gt","hu","it","ma","mv","mx","ni","om","pt","sv","tn","tr","us"]},"geometry":["point","area"],"matchScore":2,"terms":["barceló hotels & resorts"],"fields":["name","brand","{tourism/hotel}"],"tags":{"brand:wikidata":"Q15148996","tourism":"hotel"},"addTags":{"brand":"Barceló Hotels & Resorts","brand:wikidata":"Q15148996","name":"Barceló Hotels & Resorts","tourism":"hotel"}},"tourism/hotel/cityexpress-c4ac5a":{"name":"City Express","locationSet":{"include":["cl","co","cr","mx"]},"geometry":["point","area"],"matchScore":2,"terms":["city express"],"fields":["name","brand","{tourism/hotel}"],"tags":{"brand:wikidata":"Q109329542","tourism":"hotel"},"addTags":{"brand":"City Express","brand:wikidata":"Q109329542","name":"City Express","tourism":"hotel"}},"tourism/hotel/occidental-e4b4d8":{"name":"Occidental","locationSet":{"include":["ae","cr","cu","cz","do","es","it","mx","tn","tr"]},"geometry":["point","area"],"matchScore":2,"terms":["occidental"],"fields":["name","brand","{tourism/hotel}"],"tags":{"brand:wikidata":"Q15148996","tourism":"hotel"},"addTags":{"brand":"Occidental","brand:wikidata":"Q15148996","name":"Occidental","tourism":"hotel"}},"amenity/car_sharing/zipcar-aa2ec2":{"name":"Zipcar","locationSet":{"include":["ca","cr","gb","is","tr","tw","us"]},"geometry":["point","area"],"matchScore":2,"terms":["streetcar","zipcar"],"tags":{"amenity":"car_sharing","operator:wikidata":"Q1069924"},"addTags":{"amenity":"car_sharing","operator":"Zipcar","operator:wikidata":"Q1069924"}},"amenity/charging_station/ice-296db6":{"name":"ICE","locationSet":{"include":["cr"]},"geometry":["point","vertex","area"],"matchScore":2,"terms":["ice"],"fields":["name","operator","{amenity/charging_station}"],"tags":{"amenity":"charging_station","operator:wikidata":"Q3431114"},"addTags":{"amenity":"charging_station","operator":"ICE","operator:wikidata":"Q3431114"}},"amenity/clinic/ccss-03ea79":{"name":"CCSS","locationSet":{"include":["cr"]},"geometry":["point","area"],"matchScore":2,"terms":["ccss"],"fields":["name","operator","{amenity/clinic}"],"reference":{"key":"amenity","value":"clinic"},"tags":{"amenity":"clinic","operator:wikidata":"Q5174896"},"addTags":{"amenity":"clinic","healthcare":"clinic","operator":"CCSS","operator:wikidata":"Q5174896"}},"amenity/hospital/ccss-4f92b3":{"name":"CCSS","locationSet":{"include":["cr"]},"geometry":["area","point"],"matchScore":2,"terms":["ccss"],"fields":["name","operator","{amenity/hospital}"],"reference":{"key":"amenity","value":"hospital"},"tags":{"amenity":"hospital","operator:wikidata":"Q5174896"},"addTags":{"amenity":"hospital","healthcare":"hospital","operator":"CCSS","operator:wikidata":"Q5174896"}},"amenity/police/ministeriodeobraspublicasytransportes-05938a":{"name":"Ministerio de Obras Públicas y Transportes","locationSet":{"include":["cr"]},"geometry":["point","area"],"matchScore":2,"terms":["ministerio de obras públicas y transportes","mopt"],"tags":{"amenity":"police","operator:wikidata":"Q2838952"},"addTags":{"amenity":"police","operator":"Ministerio de Obras Públicas y Transportes","operator:short":"MOPT","operator:wikidata":"Q2838952"}},"amenity/post_box/postnet-f6a981":{"name":"PostNet","locationSet":{"include":["br","ca","cr","na","pa","sz","us","za"]},"geometry":["point","vertex"],"matchScore":2,"terms":["postnet"],"tags":{"amenity":"post_box","operator:wikidata":"Q7233611"},"addTags":{"amenity":"post_box","brand":"PostNet","brand:wikidata":"Q7233611","operator":"PostNet","operator:wikidata":"Q7233611"}},"amenity/post_box/correosdecostarica-89198c":{"name":"Correos de Costa Rica","locationSet":{"include":["cr"]},"geometry":["point","vertex"],"matchScore":2,"terms":["correos de costa rica"],"tags":{"amenity":"post_box","operator:wikidata":"Q5172894"},"addTags":{"amenity":"post_box","operator":"Correos de Costa Rica","operator:wikidata":"Q5172894"}},"amenity/post_office/correosdecostarica-4fea3e":{"name":"Correos de Costa Rica","locationSet":{"include":["cr"]},"geometry":["point","area"],"matchScore":2,"terms":["correos de costa rica"],"fields":["name","operator","{amenity/post_office}"],"tags":{"amenity":"post_office","operator:wikidata":"Q5172894"},"addTags":{"amenity":"post_office","operator":"Correos de Costa Rica","operator:wikidata":"Q5172894"}},"amenity/prison/ministeriodejusticiaypaz-e5ea62":{"name":"Ministerio de Justicia y Paz","locationSet":{"include":["cr"]},"geometry":["area","point"],"matchScore":2,"terms":["ministerio de justicia y paz","mjp"],"fields":["name","operator","{amenity/prison}"],"tags":{"amenity":"prison","operator:wikidata":"Q28501092"},"addTags":{"amenity":"prison","operator":"Ministerio de Justicia y Paz","operator:wikidata":"Q28501092"}},"amenity/telephone/claro-6490cd":{"name":"Claro","locationSet":{"include":["ai","ag","aw","bs","bb","bq","vg","ky","cu","cw","dm","do","gd","gp","ht","jm","mq","ms","pr","bl","kn","lc","mf","vc","sx","tt","tc","vi","bz","cr","sv","gt","hn","mx","ni","pa","ar","bo","bv","br","cl","co","ec","fk","gf","gy","py","pe","gs","sr","uy","ve"]},"geometry":["point","vertex"],"matchScore":2,"terms":["claro"],"fields":["name","operator","{amenity/telephone}"],"tags":{"amenity":"telephone","operator:wikidata":"Q1770208"},"addTags":{"amenity":"telephone","operator":"Claro","operator:wikidata":"Q1770208"}},"office/energy_supplier/naturgy-e15d8a":{"name":"Naturgy","locationSet":{"include":["ar","au","be","br","cl","cn","cr","de","do","dz","eg","es","fr","gb","ie","in","jm","jo","jp","lu","ma","mx","nl","om","pa","pe","pk","pr","pt","sg"]},"geometry":["point","area"],"matchScore":2,"terms":["naturgy"],"tags":{"office":"energy_supplier","operator:wikidata":"Q474690"},"addTags":{"name":"Naturgy","office":"energy_supplier","operator":"Naturgy","operator:wikidata":"Q474690"}},"office/government/ministeriodesalud-7b455f":{"name":"Ministerio de Salud (Costa Rica)","locationSet":{"include":["cr"]},"geometry":["point","area"],"matchScore":2,"terms":["ministerio de salud"],"fields":["name","operator","{office/government}"],"tags":{"office":"government","operator:wikidata":"Q21001938"},"addTags":{"office":"government","operator":"Ministerio de Salud","operator:wikidata":"Q21001938"}},"power/plant/ice-3b052a":{"name":"ICE","locationSet":{"include":["cr"]},"geometry":["area"],"matchScore":2,"terms":["ice"],"tags":{"operator:wikidata":"Q3431114","power":"plant"},"addTags":{"operator":"ICE","operator:wikidata":"Q3431114","power":"plant"}},"power/substation/ice-844d97":{"name":"ICE","locationSet":{"include":["cr"]},"geometry":["area","point"],"matchScore":2,"terms":["ice"],"tags":{"operator:wikidata":"Q3431114","power":"substation"},"addTags":{"operator":"ICE","operator:wikidata":"Q3431114","power":"substation"}},"power/transformer/ice-93b425":{"name":"ICE","locationSet":{"include":["cr"]},"geometry":["point","vertex"],"matchScore":2,"terms":["ice"],"tags":{"operator:wikidata":"Q3431114","power":"transformer"},"addTags":{"operator":"ICE","operator:wikidata":"Q3431114","power":"transformer"}}}