{"amenity/atm/eastwestbank-c14adf":{"name":"East West Bank","locationSet":{"include":["cn","hk","us"]},"geometry":["point","vertex"],"matchScore":2,"terms":["east west bank","華美銀行"],"tags":{"amenity":"atm","brand:wikidata":"Q3046549"},"addTags":{"amenity":"atm","brand":"East West Bank","brand:wikidata":"Q3046549","brand:wikipedia":"en:East West Bank","name":"East West Bank","name:en":"East West Bank","name:zh":"華美銀行","name:zh-Hans":"华美银行","name:zh-Hant":"華美銀行","operator":"East West Bank","operator:wikidata":"Q3046549","operator:wikipedia":"en:East West Bank"}},"amenity/atm/uob-441a96":{"name":"UOB","locationSet":{"include":["au","bn","ca","cn","gb","hk","id","in","jp","kr","mm","my","ph","sg","th","us","vn"]},"geometry":["point","vertex"],"matchScore":2,"terms":["united overseas bank","uob","大华银行"],"tags":{"amenity":"atm","brand:wikidata":"Q2064074"},"addTags":{"amenity":"atm","brand":"UOB","brand:wikidata":"Q2064074","brand:wikipedia":"en:United Overseas Bank","brand:zh":"大华银行","name":"UOB","name:zh":"大华银行","operator":"UOB","operator:wikidata":"Q2064074","operator:wikipedia":"en:United Overseas Bank"}},"amenity/atm/shanghaipudongdevelopmentbank-7886cb":{"name":"上海浦东发展银行","locationSet":{"include":["cn"]},"geometry":["point","vertex"],"matchScore":2,"terms":["shanghai pudong development bank","上海浦东发展银行"],"tags":{"amenity":"atm","brand:wikidata":"Q1479076"},"addTags":{"amenity":"atm","brand":"上海浦东发展银行","brand:en":"Shanghai Pudong Development Bank","brand:wikidata":"Q1479076","brand:wikipedia":"zh:上海浦东发展银行","brand:zh":"上海浦东发展银行","name":"上海浦东发展银行","name:en":"Shanghai Pudong Development Bank","name:zh":"上海浦东发展银行","operator":"上海浦东发展银行","operator:wikidata":"Q1479076","operator:wikipedia":"zh:上海浦东发展银行"}},"amenity/atm/bankofshanghai-7886cb":{"name":"上海银行","locationSet":{"include":["cn"]},"geometry":["point","vertex"],"matchScore":2,"terms":["bank of shanghai","上海银行"],"tags":{"amenity":"atm","brand:wikidata":"Q4208351"},"addTags":{"amenity":"atm","brand":"上海银行","brand:en":"Bank of Shanghai","brand:wikidata":"Q4208351","brand:wikipedia":"zh:上海銀行","brand:zh":"上海银行","name":"上海银行","name:en":"Bank of Shanghai","name:zh":"上海银行","operator":"上海银行","operator:wikidata":"Q4208351","operator:wikipedia":"zh:上海銀行"}},"amenity/atm/bankofeastasia-7886cb":{"name":"东亚银行","locationSet":{"include":["cn"]},"geometry":["point","vertex"],"matchScore":2,"terms":["bank of east asia","东亚银行"],"tags":{"amenity":"atm","brand:wikidata":"Q806679"},"addTags":{"amenity":"atm","brand":"东亚银行","brand:en":"Bank of East Asia","brand:wikidata":"Q806679","brand:wikipedia":"en:Bank of East Asia","brand:zh":"东亚银行","name":"东亚银行","name:en":"Bank of East Asia","name:zh":"东亚银行","operator":"东亚银行","operator:wikidata":"Q806679","operator:wikipedia":"en:Bank of East Asia"}},"amenity/atm/chinaciticbank-7886cb":{"name":"中信银行","locationSet":{"include":["cn"]},"geometry":["point","vertex"],"matchScore":2,"terms":["china citic bank","中信银行"],"tags":{"amenity":"atm","brand:wikidata":"Q38960"},"addTags":{"amenity":"atm","brand":"中信银行","brand:en":"China CITIC Bank","brand:wikidata":"Q38960","brand:wikipedia":"en:China CITIC Bank","brand:zh":"中信银行","name":"中信银行","name:en":"China CITIC Bank","name:zh":"中信银行","operator":"中信银行","operator:wikidata":"Q38960","operator:wikipedia":"en:China CITIC Bank"}},"amenity/atm/chinaeverbrightbank-7886cb":{"name":"中国光大银行","locationSet":{"include":["cn"]},"geometry":["point","vertex"],"matchScore":2,"terms":["china everbright bank","中国光大银行","光大银行"],"tags":{"amenity":"atm","brand:wikidata":"Q10873167"},"addTags":{"amenity":"atm","brand":"中国光大银行","brand:en":"China Everbright Bank","brand:wikidata":"Q10873167","brand:wikipedia":"zh:中国光大银行","brand:zh":"中国光大银行","name":"中国光大银行","name:en":"China Everbright Bank","name:zh":"中国光大银行","operator":"中国光大银行","operator:wikidata":"Q10873167","operator:wikipedia":"zh:中国光大银行"}},"amenity/atm/agriculturalbankofchina-7886cb":{"name":"中国农业银行","locationSet":{"include":["cn"]},"geometry":["point","vertex"],"matchScore":2,"terms":["agricultural bank of china","中国农业银行","农业银行","农行"],"tags":{"amenity":"atm","brand:wikidata":"Q26298"},"addTags":{"amenity":"atm","brand":"中国农业银行","brand:en":"Agricultural Bank of China","brand:wikidata":"Q26298","brand:wikipedia":"en:Agricultural Bank of China","brand:zh":"中国农业银行","name":"中国农业银行","name:en":"Agricultural Bank of China","name:zh":"中国农业银行","operator":"中国农业银行","operator:wikidata":"Q26298","operator:wikipedia":"en:Agricultural Bank of China"}},"amenity/atm/industrialandcommercialbankofchina-7886cb":{"name":"中国工商银行","locationSet":{"include":["cn"]},"geometry":["point","vertex"],"matchScore":2,"terms":["industrial and commercial bank of china","中国工商银行","工商银行","工行"],"tags":{"amenity":"atm","brand:wikidata":"Q26463"},"addTags":{"amenity":"atm","brand":"中国工商银行","brand:en":"Industrial and Commercial Bank of China","brand:wikidata":"Q26463","brand:wikipedia":"en:Industrial and Commercial Bank of China","brand:zh":"中国工商银行","name":"中国工商银行","name:en":"Industrial and Commercial Bank of China","name:zh":"中国工商银行","operator":"中国工商银行","operator:wikidata":"Q26463","operator:wikipedia":"en:Industrial and Commercial Bank of China"}},"amenity/atm/chinaconstructionbank-7886cb":{"name":"中国建设银行","locationSet":{"include":["cn"]},"geometry":["point","vertex"],"matchScore":2,"terms":["china construction bank","中国建设银行","建行","建设银行"],"tags":{"amenity":"atm","brand:wikidata":"Q26299"},"addTags":{"amenity":"atm","brand":"中国建设银行","brand:en":"China Construction Bank","brand:wikidata":"Q26299","brand:wikipedia":"en:China Construction Bank","brand:zh":"中国建设银行","name":"中国建设银行","name:en":"China Construction Bank","name:zh":"中国建设银行","operator":"中国建设银行","operator:wikidata":"Q26299","operator:wikipedia":"en:China Construction Bank"}},"amenity/atm/chinaminshengbank-7886cb":{"name":"中国民生银行","locationSet":{"include":["cn"]},"geometry":["point","vertex"],"matchScore":2,"terms":["china minsheng bank","中国民生银行","民生银行"],"tags":{"amenity":"atm","brand:wikidata":"Q911543"},"addTags":{"amenity":"atm","brand":"中国民生银行","brand:en":"China Minsheng Bank","brand:wikidata":"Q911543","brand:wikipedia":"en:China Minsheng Bank","brand:zh":"中国民生银行","name":"中国民生银行","name:en":"China Minsheng Bank","name:zh":"中国民生银行","operator":"中国民生银行","operator:wikidata":"Q911543","operator:wikipedia":"en:China Minsheng Bank"}},"amenity/atm/postalsavingsbankofchina-7886cb":{"name":"中国邮政储蓄银行","locationSet":{"include":["cn"]},"geometry":["point","vertex"],"matchScore":2,"terms":["postal savings bank of china","中国邮政储蓄银行","邮储银行","邮政储蓄银行","邮政银行"],"tags":{"amenity":"atm","brand:wikidata":"Q986744"},"addTags":{"amenity":"atm","brand":"中国邮政储蓄银行","brand:en":"Postal Savings Bank of China","brand:wikidata":"Q986744","brand:wikipedia":"en:Postal Savings Bank of China","brand:zh":"中国邮政储蓄银行","name":"中国邮政储蓄银行","name:en":"Postal Savings Bank of China","name:zh":"中国邮政储蓄银行","operator":"中国邮政储蓄银行","operator:wikidata":"Q986744","operator:wikipedia":"en:Postal Savings Bank of China"}},"amenity/atm/bankofchina-7886cb":{"name":"中国银行","locationSet":{"include":["cn"]},"geometry":["point","vertex"],"matchScore":2,"terms":["bank of china","中国银行","中行"],"tags":{"amenity":"atm","brand:wikidata":"Q790068"},"addTags":{"amenity":"atm","brand":"中国银行","brand:en":"Bank of China","brand:wikidata":"Q790068","brand:wikipedia":"en:Bank of China","brand:zh":"中国银行","name":"中国银行","name:en":"Bank of China","name:zh":"中国银行","operator":"中国银行","operator:wikidata":"Q790068","operator:wikipedia":"en:Bank of China"}},"amenity/atm/bankofcommunications-7886cb":{"name":"交通银行","locationSet":{"include":["cn"]},"geometry":["point","vertex"],"matchScore":2,"terms":["bank of communications","交行","交通银行"],"tags":{"amenity":"atm","brand:wikidata":"Q806680"},"addTags":{"amenity":"atm","brand":"交通银行","brand:en":"Bank of Communications","brand:wikidata":"Q806680","brand:wikipedia":"en:Bank of Communications","brand:zh":"交通银行","name":"交通银行","name:en":"Bank of Communications","name:zh":"交通银行","operator":"交通银行","operator:wikidata":"Q806680","operator:wikipedia":"en:Bank of Communications"}},"amenity/atm/industrialbank-7886cb":{"name":"兴业银行","locationSet":{"include":["cn"]},"geometry":["point","vertex"],"matchScore":2,"terms":["industrial bank","兴业银行"],"tags":{"amenity":"atm","brand:wikidata":"Q1410821"},"addTags":{"amenity":"atm","brand":"兴业银行","brand:en":"Industrial Bank","brand:wikidata":"Q1410821","brand:wikipedia":"zh:兴业银行","brand:zh":"兴业银行","name":"兴业银行","name:en":"Industrial Bank","name:zh":"兴业银行","operator":"兴业银行","operator:wikidata":"Q1410821","operator:wikipedia":"zh:兴业银行"}},"amenity/atm/bankofbeijing-7886cb":{"name":"北京银行","locationSet":{"include":["cn"]},"geometry":["point","vertex"],"matchScore":2,"terms":["bank of beijing","北京银行"],"tags":{"amenity":"atm","brand:wikidata":"Q39146"},"addTags":{"amenity":"atm","brand":"北京银行","brand:en":"Bank of Beijing","brand:wikidata":"Q39146","brand:wikipedia":"zh:北京銀行","brand:zh":"北京银行","name":"北京银行","name:en":"Bank of Beijing","name:zh":"北京银行","operator":"北京银行","operator:wikidata":"Q39146","operator:wikipedia":"zh:北京銀行"}},"amenity/atm/huaxiabank-7886cb":{"name":"华夏银行","locationSet":{"include":["cn"]},"geometry":["point","vertex"],"matchScore":2,"terms":["huaxia bank","华夏银行"],"tags":{"amenity":"atm","brand:wikidata":"Q1595443"},"addTags":{"amenity":"atm","brand":"华夏银行","brand:en":"Huaxia Bank","brand:wikidata":"Q1595443","brand:wikipedia":"en:Huaxia Bank","brand:zh":"华夏银行","name":"华夏银行","name:en":"Huaxia Bank","name:zh":"华夏银行","operator":"华夏银行","operator:wikidata":"Q1595443","operator:wikipedia":"en:Huaxia Bank"}},"amenity/atm/bankofnanjing-7886cb":{"name":"南京银行","locationSet":{"include":["cn"]},"geometry":["point","vertex"],"matchScore":2,"terms":["bank of nanjing","南京银行"],"tags":{"amenity":"atm","brand:wikidata":"Q6850542"},"addTags":{"amenity":"atm","brand":"南京银行","brand:en":"Bank of Nanjing","brand:wikidata":"Q6850542","brand:wikipedia":"zh:南京银行","brand:zh":"南京银行","name":"南京银行","name:en":"Bank of Nanjing","name:zh":"南京银行","operator":"南京银行","operator:wikidata":"Q6850542","operator:wikipedia":"zh:南京银行"}},"amenity/atm/nantobank-3b4db7":{"name":"南都銀行","locationSet":{"include":["cn","hk","jp"]},"geometry":["point","vertex"],"matchScore":2,"terms":["nanto bank","南都銀行"],"tags":{"amenity":"atm","brand:wikidata":"Q4045062"},"addTags":{"amenity":"atm","brand":"南都銀行","brand:en":"Nanto Bank","brand:ja":"南都銀行","brand:wikidata":"Q4045062","brand:wikipedia":"en:Nanto Bank","name":"南都銀行","name:en":"Nanto Bank","name:ja":"南都銀行","operator":"南都銀行","operator:wikidata":"Q4045062","operator:wikipedia":"en:Nanto Bank"}},"amenity/atm/cathaybank-5a3a19":{"name":"国泰银行","locationSet":{"include":["cn","tw"]},"geometry":["point","vertex"],"matchScore":2,"terms":["cathay bank","国泰银行"],"tags":{"amenity":"atm","brand:wikidata":"Q4189507"},"addTags":{"amenity":"atm","brand":"国泰银行","brand:en":"Cathay Bank","brand:wikidata":"Q4189507","brand:wikipedia":"zh:國泰銀行","brand:zh":"国泰银行","name":"国泰银行","name:en":"Cathay Bank","name:zh":"国泰银行","operator":"国泰银行","operator:wikidata":"Q4189507","operator:wikipedia":"zh:國泰銀行"}},"amenity/atm/bankoftianjin-7886cb":{"name":"天津银行","locationSet":{"include":["cn"]},"geometry":["point","vertex"],"matchScore":2,"terms":["bank of tianjin","天津银行"],"tags":{"amenity":"atm","brand:wikidata":"Q10940359"},"addTags":{"amenity":"atm","brand":"天津银行","brand:en":"Bank of Tianjin","brand:wikidata":"Q10940359","brand:wikipedia":"en:Bank of Tianjin","brand:zh":"天津银行","name":"天津银行","name:en":"Bank of Tianjin","name:zh":"天津银行","operator":"天津银行","operator:wikidata":"Q10940359","operator:wikipedia":"en:Bank of Tianjin"}},"amenity/atm/bankofningbo-7886cb":{"name":"宁波银行","locationSet":{"include":["cn"]},"geometry":["point","vertex"],"matchScore":2,"terms":["bank of ningbo","宁波银行"],"tags":{"amenity":"atm","brand:wikidata":"Q4856166"},"addTags":{"amenity":"atm","brand":"宁波银行","brand:en":"Bank of Ningbo","brand:wikidata":"Q4856166","brand:wikipedia":"zh:宁波银行","brand:zh":"宁波银行","name":"宁波银行","name:en":"Bank of Ningbo","name:zh":"宁波银行","operator":"宁波银行","operator:wikidata":"Q4856166","operator:wikipedia":"zh:宁波银行"}},"amenity/atm/pinganbank-7886cb":{"name":"平安银行","locationSet":{"include":["cn"]},"geometry":["point","vertex"],"matchScore":2,"terms":["ping an bank","平安银行"],"tags":{"amenity":"atm","brand:wikidata":"Q7195659"},"addTags":{"amenity":"atm","brand":"平安银行","brand:en":"Ping An Bank","brand:wikidata":"Q7195659","brand:wikipedia":"zh:平安银行","brand:zh":"平安银行","name":"平安银行","name:en":"Ping An Bank","name:zh":"平安银行","operator":"平安银行","operator:wikidata":"Q7195659","operator:wikipedia":"zh:平安银行"}},"amenity/atm/chinaguangfabank-7886cb":{"name":"广发银行","locationSet":{"include":["cn"]},"geometry":["point","vertex"],"matchScore":2,"terms":["china guangfa bank","广发银行"],"tags":{"amenity":"atm","brand:wikidata":"Q3118744"},"addTags":{"amenity":"atm","brand":"广发银行","brand:en":"China Guangfa Bank","brand:wikidata":"Q3118744","brand:wikipedia":"en:China Guangfa Bank","brand:zh":"广发银行","name":"广发银行","name:en":"China Guangfa Bank","name:zh":"广发银行","operator":"广发银行","operator:wikidata":"Q3118744","operator:wikipedia":"en:China Guangfa Bank"}},"amenity/atm/chinamerchantsbank-7886cb":{"name":"招商银行","locationSet":{"include":["cn"]},"geometry":["point","vertex"],"matchScore":2,"terms":["china merchants bank","招商银行","招行"],"tags":{"amenity":"atm","brand:wikidata":"Q1073327"},"addTags":{"amenity":"atm","brand":"招商银行","brand:en":"China Merchants Bank","brand:wikidata":"Q1073327","brand:wikipedia":"en:China Merchants Bank","brand:zh":"招商银行","name":"招商银行","name:en":"China Merchants Bank","name:zh":"招商银行","operator":"招商银行","operator:wikidata":"Q1073327","operator:wikipedia":"en:China Merchants Bank"}},"amenity/atm/bankokhangzhou-7886cb":{"name":"杭州银行","locationSet":{"include":["cn"]},"geometry":["point","vertex"],"matchScore":2,"terms":["bank ok hangzhou","杭州银行"],"tags":{"amenity":"atm","brand:wikidata":"Q11102645"},"addTags":{"amenity":"atm","brand":"杭州银行","brand:en":"Bank ok Hangzhou","brand:wikidata":"Q11102645","brand:wikipedia":"zh:杭州银行","brand:zh":"杭州银行","name":"杭州银行","name:en":"Bank ok Hangzhou","name:zh":"杭州银行","operator":"杭州银行","operator:wikidata":"Q11102645","operator:wikipedia":"zh:杭州银行"}},"amenity/atm/bankofjiangsu-7886cb":{"name":"江苏银行","locationSet":{"include":["cn"]},"geometry":["point","vertex"],"matchScore":2,"terms":["bank of jiangsu","江苏银行"],"tags":{"amenity":"atm","brand:wikidata":"Q11135108"},"addTags":{"amenity":"atm","brand":"江苏银行","brand:en":"Bank of Jiangsu","brand:wikidata":"Q11135108","brand:wikipedia":"zh:江苏银行","brand:zh":"江苏银行","name":"江苏银行","name:en":"Bank of Jiangsu","name:zh":"江苏银行","operator":"江苏银行","operator:wikidata":"Q11135108","operator:wikipedia":"zh:江苏银行"}},"amenity/atm/chinazheshangbank-7886cb":{"name":"浙商银行","locationSet":{"include":["cn"]},"geometry":["point","vertex"],"matchScore":2,"terms":["china zheshang bank","浙商银行"],"tags":{"amenity":"atm","brand:wikidata":"Q15924407"},"addTags":{"amenity":"atm","brand":"浙商银行","brand:en":"China Zheshang Bank","brand:wikidata":"Q15924407","brand:wikipedia":"en:China Zheshang Bank","brand:zh":"浙商银行","name":"浙商银行","name:en":"China Zheshang Bank","name:zh":"浙商银行","operator":"浙商银行","operator:wikidata":"Q15924407","operator:wikipedia":"en:China Zheshang Bank"}},"amenity/atm/chinabohaibank-7886cb":{"name":"渤海银行","locationSet":{"include":["cn"]},"geometry":["point","vertex"],"matchScore":2,"terms":["china bohai bank","渤海银行"],"tags":{"amenity":"atm","brand:wikidata":"Q4208326"},"addTags":{"amenity":"atm","brand":"渤海银行","brand:en":"China Bohai Bank","brand:wikidata":"Q4208326","brand:wikipedia":"en:China Bohai Bank","brand:zh":"渤海银行","name":"渤海银行","name:en":"China Bohai Bank","name:zh":"渤海银行","operator":"渤海银行","operator:wikidata":"Q4208326","operator:wikipedia":"en:China Bohai Bank"}},"amenity/bank/eastwestbank-a566ac":{"name":"East West Bank","locationSet":{"include":["cn","hk","us"]},"geometry":["point","area"],"matchScore":2,"terms":["east west bank","華美銀行"],"tags":{"amenity":"bank","brand:wikidata":"Q3046549"},"addTags":{"amenity":"bank","brand":"East West Bank","brand:wikidata":"Q3046549","brand:wikipedia":"en:East West Bank","name":"East West Bank","name:en":"East West Bank","name:zh":"華美銀行","name:zh-Hans":"华美银行","name:zh-Hant":"華美銀行"}},"amenity/bank/uob-dadccc":{"name":"UOB","locationSet":{"include":["au","bn","ca","cn","gb","hk","id","in","jp","kr","mm","my","ph","sg","th","us","vn"]},"geometry":["point","area"],"matchScore":2,"terms":["united overseas bank","uob","大华银行"],"tags":{"amenity":"bank","brand:wikidata":"Q2064074"},"addTags":{"amenity":"bank","brand":"UOB","brand:wikidata":"Q2064074","brand:wikipedia":"en:United Overseas Bank","brand:zh":"大华银行","name":"UOB","name:zh":"大华银行"}},"amenity/bank/shanghaipudongdevelopmentbank-da74c0":{"name":"上海浦东发展银行","locationSet":{"include":["cn"]},"geometry":["point","area"],"matchScore":2,"terms":["shanghai pudong development bank","上海浦东发展银行"],"tags":{"amenity":"bank","brand:wikidata":"Q1479076"},"addTags":{"amenity":"bank","brand":"上海浦东发展银行","brand:en":"Shanghai Pudong Development Bank","brand:wikidata":"Q1479076","brand:wikipedia":"zh:上海浦东发展银行","brand:zh":"上海浦东发展银行","name":"上海浦东发展银行","name:en":"Shanghai Pudong Development Bank","name:zh":"上海浦东发展银行"}},"amenity/bank/bankofshanghai-da74c0":{"name":"上海银行","locationSet":{"include":["cn"]},"geometry":["point","area"],"matchScore":2,"terms":["bank of shanghai","上海银行"],"tags":{"amenity":"bank","brand:wikidata":"Q4208351"},"addTags":{"amenity":"bank","brand":"上海银行","brand:en":"Bank of Shanghai","brand:wikidata":"Q4208351","brand:wikipedia":"zh:上海銀行","brand:zh":"上海银行","name":"上海银行","name:en":"Bank of Shanghai","name:zh":"上海银行"}},"amenity/bank/bankofeastasia-da74c0":{"name":"东亚银行","locationSet":{"include":["cn"]},"geometry":["point","area"],"matchScore":2,"terms":["bank of east asia","东亚银行"],"tags":{"amenity":"bank","brand:wikidata":"Q806679"},"addTags":{"amenity":"bank","brand":"东亚银行","brand:en":"Bank of East Asia","brand:wikidata":"Q806679","brand:wikipedia":"en:Bank of East Asia","brand:zh":"东亚银行","name":"东亚银行","name:en":"Bank of East Asia","name:zh":"东亚银行"}},"amenity/bank/chinaciticbank-da74c0":{"name":"中信银行","locationSet":{"include":["cn"]},"geometry":["point","area"],"matchScore":2,"terms":["china citic bank","中信银行"],"tags":{"amenity":"bank","brand:wikidata":"Q38960"},"addTags":{"amenity":"bank","brand":"中信银行","brand:en":"China CITIC Bank","brand:wikidata":"Q38960","brand:wikipedia":"en:China CITIC Bank","brand:zh":"中信银行","name":"中信银行","name:en":"China CITIC Bank","name:zh":"中信银行"}},"amenity/bank/chinaeverbrightbank-da74c0":{"name":"中国光大银行","locationSet":{"include":["cn"]},"geometry":["point","area"],"matchScore":2,"terms":["china everbright bank","中国光大银行","光大银行"],"tags":{"amenity":"bank","brand:wikidata":"Q10873167"},"addTags":{"amenity":"bank","brand":"中国光大银行","brand:en":"China Everbright Bank","brand:wikidata":"Q10873167","brand:wikipedia":"zh:中国光大银行","brand:zh":"中国光大银行","name":"中国光大银行","name:en":"China Everbright Bank","name:zh":"中国光大银行"}},"amenity/bank/agriculturalbankofchina-da74c0":{"name":"中国农业银行","locationSet":{"include":["cn"]},"geometry":["point","area"],"matchScore":2,"terms":["agricultural bank of china","中国农业银行","农业银行","农行"],"tags":{"amenity":"bank","brand:wikidata":"Q26298"},"addTags":{"amenity":"bank","brand":"中国农业银行","brand:en":"Agricultural Bank of China","brand:wikidata":"Q26298","brand:wikipedia":"en:Agricultural Bank of China","brand:zh":"中国农业银行","name":"中国农业银行","name:en":"Agricultural Bank of China","name:zh":"中国农业银行"}},"amenity/bank/industrialandcommercialbankofchina-da74c0":{"name":"中国工商银行","locationSet":{"include":["cn"]},"geometry":["point","area"],"matchScore":2,"terms":["industrial and commercial bank of china","中国工商银行","工商银行","工行"],"tags":{"amenity":"bank","brand:wikidata":"Q26463"},"addTags":{"amenity":"bank","brand":"中国工商银行","brand:en":"Industrial and Commercial Bank of China","brand:wikidata":"Q26463","brand:wikipedia":"en:Industrial and Commercial Bank of China","brand:zh":"中国工商银行","name":"中国工商银行","name:en":"Industrial and Commercial Bank of China","name:zh":"中国工商银行"}},"amenity/bank/chinaconstructionbank-da74c0":{"name":"中国建设银行","locationSet":{"include":["cn"]},"geometry":["point","area"],"matchScore":2,"terms":["china construction bank","中国建设银行","建行","建设银行"],"tags":{"amenity":"bank","brand:wikidata":"Q26299"},"addTags":{"amenity":"bank","brand":"中国建设银行","brand:en":"China Construction Bank","brand:wikidata":"Q26299","brand:wikipedia":"en:China Construction Bank","brand:zh":"中国建设银行","name":"中国建设银行","name:en":"China Construction Bank","name:zh":"中国建设银行"}},"amenity/bank/chinaminshengbank-da74c0":{"name":"中国民生银行","locationSet":{"include":["cn"]},"geometry":["point","area"],"matchScore":2,"terms":["china minsheng bank","中国民生银行","民生银行"],"tags":{"amenity":"bank","brand:wikidata":"Q911543"},"addTags":{"amenity":"bank","brand":"中国民生银行","brand:en":"China Minsheng Bank","brand:wikidata":"Q911543","brand:wikipedia":"en:China Minsheng Bank","brand:zh":"中国民生银行","name":"中国民生银行","name:en":"China Minsheng Bank","name:zh":"中国民生银行"}},"amenity/bank/postalsavingsbankofchina-da74c0":{"name":"中国邮政储蓄银行","locationSet":{"include":["cn"]},"geometry":["point","area"],"matchScore":2,"terms":["postal savings bank of china","中国邮政储蓄银行","邮储银行","邮政储蓄银行","邮政银行"],"tags":{"amenity":"bank","brand:wikidata":"Q986744"},"addTags":{"amenity":"bank","brand":"中国邮政储蓄银行","brand:en":"Postal Savings Bank of China","brand:wikidata":"Q986744","brand:wikipedia":"en:Postal Savings Bank of China","brand:zh":"中国邮政储蓄银行","name":"中国邮政储蓄银行","name:en":"Postal Savings Bank of China","name:zh":"中国邮政储蓄银行"}},"amenity/bank/bankofchina-da74c0":{"name":"中国银行","locationSet":{"include":["cn"]},"geometry":["point","area"],"matchScore":2,"terms":["bank of china","中国银行","中行"],"tags":{"amenity":"bank","brand:wikidata":"Q790068"},"addTags":{"amenity":"bank","brand":"中国银行","brand:en":"Bank of China","brand:wikidata":"Q790068","brand:wikipedia":"en:Bank of China","brand:zh":"中国银行","name":"中国银行","name:en":"Bank of China","name:zh":"中国银行"}},"amenity/bank/bankofcommunications-da74c0":{"name":"交通银行","locationSet":{"include":["cn"]},"geometry":["point","area"],"matchScore":2,"terms":["bank of communications","交行","交通银行"],"tags":{"amenity":"bank","brand:wikidata":"Q806680"},"addTags":{"amenity":"bank","brand":"交通银行","brand:en":"Bank of Communications","brand:wikidata":"Q806680","brand:wikipedia":"en:Bank of Communications","brand:zh":"交通银行","name":"交通银行","name:en":"Bank of Communications","name:zh":"交通银行"}},"amenity/bank/industrialbank-da74c0":{"name":"兴业银行","locationSet":{"include":["cn"]},"geometry":["point","area"],"matchScore":2,"terms":["industrial bank","兴业银行"],"tags":{"amenity":"bank","brand:wikidata":"Q1410821"},"addTags":{"amenity":"bank","brand":"兴业银行","brand:en":"Industrial Bank","brand:wikidata":"Q1410821","brand:wikipedia":"zh:兴业银行","brand:zh":"兴业银行","name":"兴业银行","name:en":"Industrial Bank","name:zh":"兴业银行"}},"amenity/bank/bankofbeijing-da74c0":{"name":"北京银行","locationSet":{"include":["cn"]},"geometry":["point","area"],"matchScore":2,"terms":["bank of beijing","北京银行"],"tags":{"amenity":"bank","brand:wikidata":"Q39146"},"addTags":{"amenity":"bank","brand":"北京银行","brand:en":"Bank of Beijing","brand:wikidata":"Q39146","brand:wikipedia":"zh:北京銀行","brand:zh":"北京银行","name":"北京银行","name:en":"Bank of Beijing","name:zh":"北京银行"}},"amenity/bank/huaxiabank-da74c0":{"name":"华夏银行","locationSet":{"include":["cn"]},"geometry":["point","area"],"matchScore":2,"terms":["huaxia bank","华夏银行"],"tags":{"amenity":"bank","brand:wikidata":"Q1595443"},"addTags":{"amenity":"bank","brand":"华夏银行","brand:en":"Huaxia Bank","brand:wikidata":"Q1595443","brand:wikipedia":"en:Huaxia Bank","brand:zh":"华夏银行","name":"华夏银行","name:en":"Huaxia Bank","name:zh":"华夏银行"}},"amenity/bank/bankofnanjing-da74c0":{"name":"南京银行","locationSet":{"include":["cn"]},"geometry":["point","area"],"matchScore":2,"terms":["bank of nanjing","南京银行"],"tags":{"amenity":"bank","brand:wikidata":"Q6850542"},"addTags":{"amenity":"bank","brand":"南京银行","brand:en":"Bank of Nanjing","brand:wikidata":"Q6850542","brand:wikipedia":"zh:南京银行","brand:zh":"南京银行","name":"南京银行","name:en":"Bank of Nanjing","name:zh":"南京银行"}},"amenity/bank/nantobank-e30a8e":{"name":"南都銀行","locationSet":{"include":["cn","hk","jp"]},"geometry":["point","area"],"matchScore":2,"terms":["nanto bank","南都銀行"],"tags":{"amenity":"bank","brand:wikidata":"Q4045062"},"addTags":{"amenity":"bank","brand":"南都銀行","brand:en":"Nanto Bank","brand:ja":"南都銀行","brand:wikidata":"Q4045062","brand:wikipedia":"en:Nanto Bank","name":"南都銀行","name:en":"Nanto Bank","name:ja":"南都銀行"}},"amenity/bank/cathaybank-f11880":{"name":"国泰银行","locationSet":{"include":["cn","tw"]},"geometry":["point","area"],"matchScore":2,"terms":["cathay bank","国泰银行"],"tags":{"amenity":"bank","brand:wikidata":"Q4189507"},"addTags":{"amenity":"bank","brand":"国泰银行","brand:en":"Cathay Bank","brand:wikidata":"Q4189507","brand:wikipedia":"zh:國泰銀行","brand:zh":"国泰银行","name":"国泰银行","name:en":"Cathay Bank","name:zh":"国泰银行"}},"amenity/bank/bankoftianjin-da74c0":{"name":"天津银行","locationSet":{"include":["cn"]},"geometry":["point","area"],"matchScore":2,"terms":["bank of tianjin","天津银行"],"tags":{"amenity":"bank","brand:wikidata":"Q10940359"},"addTags":{"amenity":"bank","brand":"天津银行","brand:en":"Bank of Tianjin","brand:wikidata":"Q10940359","brand:wikipedia":"en:Bank of Tianjin","brand:zh":"天津银行","name":"天津银行","name:en":"Bank of Tianjin","name:zh":"天津银行"}},"amenity/bank/bankofningbo-da74c0":{"name":"宁波银行","locationSet":{"include":["cn"]},"geometry":["point","area"],"matchScore":2,"terms":["bank of ningbo","宁波银行"],"tags":{"amenity":"bank","brand:wikidata":"Q4856166"},"addTags":{"amenity":"bank","brand":"宁波银行","brand:en":"Bank of Ningbo","brand:wikidata":"Q4856166","brand:wikipedia":"zh:宁波银行","brand:zh":"宁波银行","name":"宁波银行","name:en":"Bank of Ningbo","name:zh":"宁波银行"}},"amenity/bank/pinganbank-da74c0":{"name":"平安银行","locationSet":{"include":["cn"]},"geometry":["point","area"],"matchScore":2,"terms":["ping an bank","平安银行"],"tags":{"amenity":"bank","brand:wikidata":"Q7195659"},"addTags":{"amenity":"bank","brand":"平安银行","brand:en":"Ping An Bank","brand:wikidata":"Q7195659","brand:wikipedia":"zh:平安银行","brand:zh":"平安银行","name":"平安银行","name:en":"Ping An Bank","name:zh":"平安银行"}},"amenity/bank/chinaguangfabank-da74c0":{"name":"广发银行","locationSet":{"include":["cn"]},"geometry":["point","area"],"matchScore":2,"terms":["china guangfa bank","广发银行"],"tags":{"amenity":"bank","brand:wikidata":"Q3118744"},"addTags":{"amenity":"bank","brand":"广发银行","brand:en":"China Guangfa Bank","brand:wikidata":"Q3118744","brand:wikipedia":"en:China Guangfa Bank","brand:zh":"广发银行","name":"广发银行","name:en":"China Guangfa Bank","name:zh":"广发银行"}},"amenity/bank/chinamerchantsbank-da74c0":{"name":"招商银行","locationSet":{"include":["cn"]},"geometry":["point","area"],"matchScore":2,"terms":["china merchants bank","招商银行","招行"],"tags":{"amenity":"bank","brand:wikidata":"Q1073327"},"addTags":{"amenity":"bank","brand":"招商银行","brand:en":"China Merchants Bank","brand:wikidata":"Q1073327","brand:wikipedia":"en:China Merchants Bank","brand:zh":"招商银行","name":"招商银行","name:en":"China Merchants Bank","name:zh":"招商银行"}},"amenity/bank/bankokhangzhou-da74c0":{"name":"杭州银行","locationSet":{"include":["cn"]},"geometry":["point","area"],"matchScore":2,"terms":["bank ok hangzhou","杭州银行"],"tags":{"amenity":"bank","brand:wikidata":"Q11102645"},"addTags":{"amenity":"bank","brand":"杭州银行","brand:en":"Bank ok Hangzhou","brand:wikidata":"Q11102645","brand:wikipedia":"zh:杭州银行","brand:zh":"杭州银行","name":"杭州银行","name:en":"Bank ok Hangzhou","name:zh":"杭州银行"}},"amenity/bank/bankofjiangsu-da74c0":{"name":"江苏银行","locationSet":{"include":["cn"]},"geometry":["point","area"],"matchScore":2,"terms":["bank of jiangsu","江苏银行"],"tags":{"amenity":"bank","brand:wikidata":"Q11135108"},"addTags":{"amenity":"bank","brand":"江苏银行","brand:en":"Bank of Jiangsu","brand:wikidata":"Q11135108","brand:wikipedia":"zh:江苏银行","brand:zh":"江苏银行","name":"江苏银行","name:en":"Bank of Jiangsu","name:zh":"江苏银行"}},"amenity/bank/chinazheshangbank-da74c0":{"name":"浙商银行","locationSet":{"include":["cn"]},"geometry":["point","area"],"matchScore":2,"terms":["china zheshang bank","浙商银行"],"tags":{"amenity":"bank","brand:wikidata":"Q15924407"},"addTags":{"amenity":"bank","brand":"浙商银行","brand:en":"China Zheshang Bank","brand:wikidata":"Q15924407","brand:wikipedia":"en:China Zheshang Bank","brand:zh":"浙商银行","name":"浙商银行","name:en":"China Zheshang Bank","name:zh":"浙商银行"}},"amenity/bank/chinabohaibank-da74c0":{"name":"渤海银行","locationSet":{"include":["cn"]},"geometry":["point","area"],"matchScore":2,"terms":["china bohai bank","渤海银行"],"tags":{"amenity":"bank","brand:wikidata":"Q4208326"},"addTags":{"amenity":"bank","brand":"渤海银行","brand:en":"China Bohai Bank","brand:wikidata":"Q4208326","brand:wikipedia":"en:China Bohai Bank","brand:zh":"渤海银行","name":"渤海银行","name:en":"China Bohai Bank","name:zh":"渤海银行"}},"amenity/bicycle_rental/qingzhoupublicbicycle-050a29":{"name":"青州市公共自行车","locationSet":{"include":["cn"]},"geometry":["point","vertex","area"],"matchScore":2,"terms":["qing zhou public bicycle","永安行科技股份有限公司","青州市公共自行车"],"fields":["name","brand","{amenity/bicycle_rental}"],"tags":{"amenity":"bicycle_rental","brand:wikidata":"Q110012327"},"addTags":{"amenity":"bicycle_rental","brand":"青州市公共自行车","brand:en":"Qing Zhou Public Bicycle","brand:wikidata":"Q110012327","brand:zh":"青州市公共自行车","name":"青州市公共自行车","name:en":"Qing Zhou Public Bicycle","name:zh":"青州市公共自行车","nerwork:zh":"青州市公共自行车","network":"青州市公共自行车","network:en":"Qing Zhou Public Bicycle","network:wikidata":"Q110012327","operator":"永安行科技股份有限公司","operator:zh":"永安行科技股份有限公司"}},"amenity/cafe/coffee_shop/85cbakerycafe-aa349e":{"name":"85度C","locationSet":{"include":["cn","tw"]},"geometry":["point","area"],"matchScore":2,"terms":["85c bakery cafe","85度c"],"reference":{"key":"cuisine","value":"coffee_shop"},"tags":{"amenity":"cafe","brand:wikidata":"Q4644852","cuisine":"coffee_shop"},"addTags":{"amenity":"cafe","brand":"85度C","brand:en":"85C Bakery Cafe","brand:wikidata":"Q4644852","brand:wikipedia":"en:85°C Bakery Cafe","brand:zh":"85度C","cuisine":"coffee_shop","name":"85度C","name:en":"85C Bakery Cafe","name:zh":"85度C","takeaway":"yes"}},"amenity/cafe/bubble_tea/cocofreshteaandjuice-60211c":{"name":"CoCo都可","locationSet":{"include":["cn","hk","tw"]},"geometry":["point","area"],"matchScore":2,"terms":["coco fresh tea & juice","coco奶茶","coco都可","都可茶飲","都可茶饮"],"reference":{"key":"cuisine","value":"bubble_tea"},"tags":{"amenity":"cafe","brand:wikidata":"Q65084369","cuisine":"bubble_tea"},"addTags":{"amenity":"cafe","brand":"CoCo都可","brand:en":"CoCo Fresh Tea & Juice","brand:wikidata":"Q65084369","brand:wikipedia":"zh:CoCo都可","brand:zh":"CoCo都可","cuisine":"bubble_tea","name":"CoCo都可","name:en":"CoCo Fresh Tea & Juice","name:zh":"CoCo都可","takeaway":"yes"}},"amenity/cafe/coffee_shop/jamaicablue-941da9":{"name":"Jamaica Blue","locationSet":{"include":["ae","au","cn","gb","my","nz","sg"]},"geometry":["point","area"],"matchScore":2,"terms":["jamaica blue"],"reference":{"key":"cuisine","value":"coffee_shop"},"tags":{"amenity":"cafe","brand:wikidata":"Q24965819","cuisine":"coffee_shop"},"addTags":{"amenity":"cafe","brand":"Jamaica Blue","brand:wikidata":"Q24965819","brand:wikipedia":"en:Jamaica Blue","cuisine":"coffee_shop","name":"Jamaica Blue","takeaway":"yes"}},"amenity/cafe/coffee_shop/michelspatisserie-d7a541":{"name":"Michel's Patisserie","locationSet":{"include":["au","cn","id","nz"]},"geometry":["point","area"],"matchScore":2,"terms":["michel's patisserie"],"reference":{"key":"cuisine","value":"coffee_shop"},"tags":{"amenity":"cafe","brand:wikidata":"Q6836235","cuisine":"coffee_shop"},"addTags":{"amenity":"cafe","brand":"Michel's Patisserie","brand:wikidata":"Q6836235","brand:wikipedia":"en:Michel's Patisserie","cuisine":"coffee_shop","name":"Michel's Patisserie","takeaway":"yes"}},"amenity/cafe/coffee_shop/wagas-3300f4":{"name":"Wagas","locationSet":{"include":["cn"]},"geometry":["point","area"],"matchScore":2,"terms":["wagas","沃歌斯"],"reference":{"key":"cuisine","value":"coffee_shop"},"tags":{"amenity":"cafe","brand:wikidata":"Q104668297","cuisine":"coffee_shop"},"addTags":{"amenity":"cafe","brand":"Wagas","brand:en":"Wagas","brand:wikidata":"Q104668297","brand:zh":"沃歌斯","cuisine":"coffee_shop","name":"Wagas","name:en":"Wagas","name:zh":"沃歌斯","takeaway":"yes"}},"amenity/cafe/bubble_tea/alittletea-3300f4":{"name":"一点点","locationSet":{"include":["cn"]},"geometry":["point","area"],"matchScore":2,"terms":["alittle-tea","一点点"],"reference":{"key":"cuisine","value":"bubble_tea"},"tags":{"amenity":"cafe","brand:wikidata":"Q106926258","cuisine":"bubble_tea"},"addTags":{"amenity":"cafe","brand":"一点点","brand:en":"alittle-tea","brand:wikidata":"Q106926258","brand:wikipedia":"zh:五十嵐 (臺灣)","cuisine":"bubble_tea","name":"一点点","name:en":"alittle-tea","takeaway":"yes"}},"amenity/cafe/bubble_tea/yifangtea-7ccd18":{"name":"一芳水果茶","locationSet":{"include":["cn","hk"]},"geometry":["point","area"],"matchScore":2,"terms":["yi fang tea","一芳","一芳台湾水果茶","一芳水果茶"],"reference":{"key":"cuisine","value":"bubble_tea"},"tags":{"amenity":"cafe","brand:wikidata":"Q66196395","cuisine":"bubble_tea"},"addTags":{"amenity":"cafe","brand":"一芳水果茶","brand:en":"Yi Fang Tea","brand:wikidata":"Q66196395","brand:wikipedia":"zh:一芳水果茶","brand:zh":"一芳水果茶","cuisine":"bubble_tea","name":"一芳水果茶","name:en":"Yi Fang Tea","name:zh":"一芳水果茶","takeaway":"yes"}},"amenity/cafe/coffee_shop/cafeamazon-3300f4":{"name":"亚马逊咖啡","locationSet":{"include":["cn"]},"geometry":["point","area"],"matchScore":2,"terms":["café amazon","亚马逊咖啡"],"reference":{"key":"cuisine","value":"coffee_shop"},"tags":{"amenity":"cafe","brand:wikidata":"Q43247503","cuisine":"coffee_shop"},"addTags":{"amenity":"cafe","brand":"亚马逊咖啡","brand:wikidata":"Q43247503","brand:wikipedia":"en:Café Amazon","cuisine":"coffee_shop","name":"亚马逊咖啡","name:en":"Café Amazon","name:zh":"亚马逊咖啡","takeaway":"yes"}},"amenity/cafe/bubble_tea/lanfongyuen-3300f4":{"name":"兰芳园","locationSet":{"include":["cn"]},"geometry":["point","area"],"matchScore":2,"terms":["lan fong yuen","兰芳园","蘭芳園"],"reference":{"key":"cuisine","value":"bubble_tea"},"tags":{"amenity":"cafe","brand:wikidata":"Q109968333","cuisine":"bubble_tea"},"addTags":{"amenity":"cafe","brand":"兰芳园","brand:en":"LAN FONG YUEN","brand:wikidata":"Q109968333","brand:zh":"兰芳园","cuisine":"bubble_tea","name":"兰芳园","name:en":"LAN FONG YUEN","name:zh":"兰芳园","takeaway":"yes"}},"amenity/cafe/coffee_shop/costa-3300f4":{"name":"咖世家","locationSet":{"include":["cn"]},"geometry":["point","area"],"matchScore":2,"terms":["costa","costa coffee","costa 咖世家","costa咖啡","咖世家 costa"],"reference":{"key":"cuisine","value":"coffee_shop"},"tags":{"amenity":"cafe","brand:wikidata":"Q608845","cuisine":"coffee_shop"},"addTags":{"amenity":"cafe","brand":"Costa咖啡","brand:en":"Costa","brand:wikidata":"Q608845","brand:wikipedia":"zh:咖世家","brand:zh":"Costa咖啡","cuisine":"coffee_shop","name":"Costa咖啡","name:en":"Costa咖啡","name:zh":"Costa","takeaway":"yes"}},"amenity/cafe/bubble_tea/heytea-4472b7":{"name":"喜茶","locationSet":{"include":["cn","sg"]},"geometry":["point","area"],"matchScore":2,"terms":["heytea","喜茶"],"reference":{"key":"cuisine","value":"bubble_tea"},"tags":{"amenity":"cafe","brand:wikidata":"Q60875376","cuisine":"bubble_tea"},"addTags":{"amenity":"cafe","brand":"喜茶","brand:en":"Heytea","brand:wikidata":"Q60875376","brand:wikipedia":"zh:喜茶","brand:zh":"喜茶","cuisine":"bubble_tea","name":"喜茶","name:en":"Heytea","name:zh":"喜茶","takeaway":"yes"}},"amenity/cafe/coffee_shop/pacificcoffee-2e3d52":{"name":"太平洋咖啡","locationSet":{"include":["cn","my","sg"]},"geometry":["point","area"],"matchScore":2,"terms":["pacific coffee","太平洋咖啡"],"reference":{"key":"cuisine","value":"coffee_shop"},"tags":{"amenity":"cafe","brand:wikidata":"Q7122398","cuisine":"coffee_shop"},"addTags":{"amenity":"cafe","brand":"太平洋咖啡","brand:en":"Pacific Coffee","brand:wikidata":"Q7122398","brand:wikipedia":"en:Pacific Coffee","brand:zh":"太平洋咖啡","cuisine":"coffee_shop","name":"太平洋咖啡","name:en":"Pacific Coffee","name:zh":"太平洋咖啡","takeaway":"yes"}},"amenity/cafe/bubble_tea/nayuki-3300f4":{"name":"奈雪的茶","locationSet":{"include":["cn"]},"geometry":["point","area"],"matchScore":2,"terms":["nayuki","奈雪","奈雪の茶","奈雪的茶"],"reference":{"key":"cuisine","value":"bubble_tea"},"tags":{"amenity":"cafe","brand:wikidata":"Q107351710","cuisine":"bubble_tea"},"addTags":{"amenity":"cafe","brand":"奈雪的茶","brand:en":"Nayuki","brand:wikidata":"Q107351710","brand:wikipedia":"zh:奈雪的茶","brand:zh":"奈雪的茶","cuisine":"bubble_tea","name":"奈雪的茶","name:en":"Nayuki","name:zh":"奈雪的茶","takeaway":"yes"}},"amenity/cafe/bubble_tea/happylamon-aa349e":{"name":"快乐柠檬","locationSet":{"include":["cn","tw"]},"geometry":["point","area"],"matchScore":2,"terms":["happy lamon","快乐柠檬"],"reference":{"key":"cuisine","value":"bubble_tea"},"tags":{"amenity":"cafe","brand:wikidata":"Q109968422","cuisine":"bubble_tea"},"addTags":{"amenity":"cafe","brand":"快乐柠檬","brand:en":"HAPPY LAMON","brand:wikidata":"Q109968422","brand:wikipedia":"zh:快樂檸檬","brand:zh":"快乐柠檬","cuisine":"bubble_tea","name":"快乐柠檬","name:en":"HAPPY LAMON","name:zh":"快乐柠檬","takeaway":"yes"}},"amenity/cafe/bubble_tea/chatime-3300f4":{"name":"日出茶太(中国大陆)","locationSet":{"include":["cn"]},"geometry":["point","area"],"matchScore":2,"terms":["chatime","日出茶太","日太餐饮管理（上海）有限公司"],"reference":{"key":"cuisine","value":"bubble_tea"},"tags":{"amenity":"cafe","brand:wikidata":"Q16829306","cuisine":"bubble_tea"},"addTags":{"amenity":"cafe","brand":"日出茶太","brand:en":"Chatime","brand:wikidata":"Q16829306","brand:wikipedia":"zh:日出茶太","brand:zh":"日出茶太","cuisine":"bubble_tea","name":"日出茶太","name:en":"Chatime","name:zh":"日出茶太","operator":"日太餐饮管理（上海）有限公司","takeaway":"yes"}},"amenity/cafe/coffee_shop/starbucks-3300f4":{"name":"星巴克","locationSet":{"include":["cn"]},"geometry":["point","area"],"matchScore":2,"terms":["starbucks","星巴克"],"reference":{"key":"cuisine","value":"coffee_shop"},"tags":{"amenity":"cafe","brand:wikidata":"Q37158","cuisine":"coffee_shop"},"addTags":{"amenity":"cafe","brand":"星巴克","brand:en":"Starbucks","brand:wikidata":"Q37158","brand:wikipedia":"zh:星巴克","brand:zh":"星巴克","cuisine":"coffee_shop","name":"星巴克","name:en":"Starbucks","name:zh":"星巴克","takeaway":"yes"}},"amenity/cafe/bubble_tea/aunteajenny-3300f4":{"name":"沪上阿姨","locationSet":{"include":["cn"]},"geometry":["point","area"],"matchScore":2,"terms":["auntea jenny","沪上阿姨"],"reference":{"key":"cuisine","value":"bubble_tea"},"tags":{"amenity":"cafe","brand:wikidata":"Q108165945","cuisine":"bubble_tea"},"addTags":{"amenity":"cafe","brand":"沪上阿姨","brand:en":"AUNTEA JENNY","brand:wikidata":"Q108165945","brand:zh":"沪上阿姨","cuisine":"bubble_tea","name":"沪上阿姨","name:en":"AUNTEA JENNY","name:zh":"沪上阿姨","takeaway":"yes"}},"amenity/cafe/coffee_shop/luckincoffee-3300f4":{"name":"瑞幸咖啡","locationSet":{"include":["cn"]},"geometry":["point","area"],"matchScore":2,"terms":["luckin coffee","瑞幸","瑞幸咖啡"],"reference":{"key":"cuisine","value":"coffee_shop"},"tags":{"amenity":"cafe","brand:wikidata":"Q56811344","cuisine":"coffee_shop"},"addTags":{"amenity":"cafe","brand":"瑞幸咖啡","brand:en":"Luckin Coffee","brand:wikidata":"Q56811344","brand:wikipedia":"zh:瑞幸咖啡","brand:zh":"瑞幸咖啡","cuisine":"coffee_shop","name":"瑞幸咖啡","name:en":"Luckin Coffee","name:zh":"瑞幸咖啡","takeaway":"yes"}},"amenity/cafe/bubble_tea/yhtang-3300f4":{"name":"益禾堂","locationSet":{"include":["cn"]},"geometry":["point","area"],"matchScore":2,"terms":["yh.tang","益禾堂"],"reference":{"key":"cuisine","value":"bubble_tea"},"tags":{"amenity":"cafe","brand:wikidata":"Q110287075","cuisine":"bubble_tea"},"addTags":{"amenity":"cafe","brand":"益禾堂","brand:en":"YH.Tang","brand:wikidata":"Q110287075","brand:zh":"益禾堂","cuisine":"bubble_tea","name":"益禾堂","name:en":"YH.Tang","name:zh":"益禾堂","takeaway":"yes"}},"amenity/cafe/bubble_tea/chabaidao-3300f4":{"name":"茶百道","locationSet":{"include":["cn"]},"geometry":["point","area"],"matchScore":2,"terms":["chabaidao","茶百道"],"reference":{"key":"cuisine","value":"bubble_tea"},"tags":{"amenity":"cafe","brand:wikidata":"Q108165952","cuisine":"bubble_tea"},"addTags":{"amenity":"cafe","brand":"茶百道","brand:en":"chabaidao","brand:wikidata":"Q108165952","brand:zh":"茶百道","cuisine":"bubble_tea","name":"茶百道","name:en":"chabaidao","name:zh":"茶百道","takeaway":"yes"}},"amenity/cafe/bubble_tea/sexytea-3300f4":{"name":"茶颜悦色","locationSet":{"include":["cn"]},"geometry":["point","area"],"matchScore":2,"terms":["sexytea","茶颜悦色"],"reference":{"key":"cuisine","value":"bubble_tea"},"tags":{"amenity":"cafe","brand:wikidata":"Q60992994","cuisine":"bubble_tea"},"addTags":{"amenity":"cafe","brand":"茶颜悦色","brand:en":"Sexytea","brand:wikidata":"Q60992994","brand:wikipedia":"zh:茶颜悦色","brand:zh":"茶颜悦色","cuisine":"bubble_tea","name":"茶颜悦色","name:en":"Sexytea","name:zh":"茶颜悦色","takeaway":"yes"}},"amenity/cafe/bubble_tea/mixuebingcheng-3300f4":{"name":"蜜雪冰城","locationSet":{"include":["cn"]},"geometry":["point","area"],"matchScore":2,"terms":["mixuebingcheng","蜜雪冰城"],"reference":{"key":"cuisine","value":"bubble_tea"},"tags":{"amenity":"cafe","brand:wikidata":"Q107406476","cuisine":"bubble_tea"},"addTags":{"amenity":"cafe","brand":"蜜雪冰城","brand:en":"MIXUEBINGCHENG","brand:wikidata":"Q107406476","brand:wikipedia":"zh:蜜雪冰城","brand:zh":"蜜雪冰城","cuisine":"bubble_tea","name":"蜜雪冰城","name:en":"MIXUEBINGCHENG","name:zh":"蜜雪冰城","takeaway":"yes"}},"amenity/cafe/bubble_tea/gongcha-3300f4":{"name":"贡茶 (China)","locationSet":{"include":["cn"]},"geometry":["point","area"],"matchScore":2,"terms":["gong cha","贡茶"],"reference":{"key":"cuisine","value":"bubble_tea"},"tags":{"amenity":"cafe","brand:wikidata":"Q5581670","cuisine":"bubble_tea"},"addTags":{"amenity":"cafe","brand":"贡茶","brand:en":"Gong Cha","brand:wikidata":"Q5581670","brand:wikipedia":"zh:貢茶 (連鎖店)","brand:zh":"贡茶","brand:zh-Hans":"贡茶","brand:zh-Hant":"貢茶","cuisine":"bubble_tea","int_name":"Gong Cha","name":"贡茶","name:en":"Gong Cha","name:zh":"贡茶","name:zh-Hans":"贡茶","name:zh-Hant":"貢茶","takeaway":"yes"}},"amenity/cinema/wandacinemas-98bf22":{"name":"万达影城","locationSet":{"include":["cn"]},"geometry":["point","area"],"matchScore":2,"terms":["wanda cinemas","万达影城","万达影院","万达院线"],"fields":["name","brand","{amenity/cinema}"],"tags":{"amenity":"cinema","brand:wikidata":"Q18708812"},"addTags":{"amenity":"cinema","brand":"万达影城","brand:en":"Wanda Cinemas","brand:wikidata":"Q18708812","brand:wikipedia":"en:Wanda Cinemas","brand:zh":"万达影城","name":"万达影城","name:en":"Wanda Cinemas","name:zh":"万达影城"}},"amenity/cinema/chinafilminternationalcinema-98bf22":{"name":"中影国际影城","locationSet":{"include":["cn"]},"geometry":["point","area"],"matchScore":2,"terms":["china film international cinema","中影国际影城"],"fields":["name","brand","{amenity/cinema}"],"tags":{"amenity":"cinema","brand:wikidata":"Q10875534"},"addTags":{"amenity":"cinema","brand":"中影国际影城","brand:en":"China Film International Cinema","brand:wikidata":"Q10875534","brand:wikipedia":"zh:中影国际影城","brand:zh":"中影国际影城","name":"中影国际影城","name:en":"China Film International Cinema","name:zh":"中影国际影城"}},"amenity/fast_food/72street-65b4e8":{"name":"72街","locationSet":{"include":["cn"]},"geometry":["point","area"],"matchScore":2,"terms":["72 street","72街"],"tags":{"amenity":"fast_food","brand:wikidata":"Q108683743"},"addTags":{"amenity":"fast_food","brand":"72街","brand:en":"72 Street","brand:wikidata":"Q108683743","brand:zh":"72街","cuisine":"chinese","name":"72街","name:en":"72 Street","name:zh":"72街","takeaway":"yes"}},"amenity/fast_food/cocoichibanya-65b4e8":{"name":"CoCo壹番屋咖喱","locationSet":{"include":["cn"]},"geometry":["point","area"],"matchScore":2,"terms":["coco ichibanya","coco壱番屋","coco壹番屋咖喱"],"tags":{"amenity":"fast_food","brand:wikidata":"Q5986105"},"addTags":{"amenity":"fast_food","brand":"CoCo壹番屋咖喱","brand:en":"CoCo Ichibanya","brand:ja":"CoCo壱番屋","brand:wikidata":"Q5986105","brand:wikipedia":"zh:壹番屋","brand:zh":"CoCo壹番屋咖喱","cuisine":"japanese","name":"CoCo壹番屋咖喱","name:en":"CoCo Ichibanya","name:ja":"CoCo壱番屋","name:zh":"CoCo壹番屋咖喱","takeaway":"yes"}},"amenity/fast_food/donut/dunkindonuts-65b4e8":{"name":"DUNKIN唐恩都乐'","locationSet":{"include":["cn"]},"geometry":["point","area"],"matchScore":2,"terms":["dunkin'","dunkin' donuts","dunkin's","dunkin唐恩都乐","dunkin唐恩都可","唐恩都乐"],"reference":{"key":"cuisine","value":"donut"},"tags":{"amenity":"fast_food","brand:wikidata":"Q847743","cuisine":"donut;coffee_shop"},"addTags":{"amenity":"fast_food","brand":"DUNKIN唐恩都乐","brand:en":"Dunkin' Donuts","brand:wikidata":"Q847743","brand:wikipedia":"zh:唐恩都乐","brand:zh":"唐恩都乐","cuisine":"donut;coffee_shop","name":"DUNKIN唐恩都乐","name:en":"Dunkin' Donuts","name:zh":"唐恩都乐","takeaway":"yes"}},"amenity/fast_food/fairwood-7e2e93":{"name":"Fairwood","locationSet":{"include":["cn","hk"]},"geometry":["point","area"],"matchScore":2,"terms":["fairwood"],"tags":{"amenity":"fast_food","brand:wikidata":"Q5430935"},"addTags":{"amenity":"fast_food","brand":"Fairwood","brand:wikidata":"Q5430935","brand:wikipedia":"en:Fairwood (restaurant)","cuisine":"chinese;american","name":"Fairwood","takeaway":"yes"}},"amenity/fast_food/sandwich/pretamanger-4aea2b":{"name":"Pret A Manger","locationSet":{"include":["ae","cn","de","dk","fr","gb","hk","nl","sg","us"]},"geometry":["point","area"],"matchScore":2,"terms":["pret","pret a manger"],"reference":{"key":"cuisine","value":"sandwich"},"tags":{"amenity":"fast_food","brand:wikidata":"Q2109109","cuisine":"sandwich"},"addTags":{"amenity":"fast_food","brand":"Pret A Manger","brand:wikidata":"Q2109109","brand:wikipedia":"en:Pret a Manger","cuisine":"sandwich","name":"Pret A Manger","short_name":"Pret","takeaway":"yes"}},"amenity/fast_food/secretrecipe-541408":{"name":"Secret Recipe","locationSet":{"include":["bd","bn","cn","id","kh","mm","mv","my","sg","th"]},"geometry":["point","area"],"matchScore":2,"terms":["secret recipe"],"tags":{"amenity":"fast_food","brand:wikidata":"Q7444079"},"addTags":{"amenity":"fast_food","brand":"Secret Recipe","brand:wikidata":"Q7444079","brand:wikipedia":"en:Secret Recipe (restaurant)","cuisine":"cake;malaysian","name":"Secret Recipe","takeaway":"yes"}},"amenity/fast_food/pizza/thepizzacompany-abbb1f":{"name":"The Pizza Company","locationSet":{"include":["ae","bh","cn","jo","kh","la","mm","my","sa","th","vn"]},"geometry":["point","area"],"matchScore":2,"terms":["pizza company","the pizza company"],"reference":{"key":"cuisine","value":"pizza"},"tags":{"amenity":"fast_food","brand:wikidata":"Q2413520","cuisine":"pizza"},"addTags":{"alt_name":"Pizza Company","amenity":"fast_food","brand":"The Pizza Company","brand:wikidata":"Q2413520","brand:wikipedia":"en:The Pizza Company","cuisine":"pizza","name":"The Pizza Company","takeaway":"yes"}},"amenity/fast_food/burger/cnhls-65b4e8":{"name":"华莱士","locationSet":{"include":["cn"]},"geometry":["point","area"],"matchScore":2,"terms":["cnhls","华莱士","华莱士快餐","华莱士炸鸡汉堡"],"reference":{"key":"cuisine","value":"burger"},"tags":{"amenity":"fast_food","brand:wikidata":"Q15939607","cuisine":"burger;chicken"},"addTags":{"amenity":"fast_food","brand":"华莱士","brand:en":"CNHLS","brand:wikidata":"Q15939607","brand:wikipedia":"zh:华莱士 (快餐)","brand:zh":"华莱士","cuisine":"burger;chicken","name":"华莱士","name:en":"CNHLS","name:zh":"华莱士","takeaway":"yes"}},"amenity/fast_food/yoshinoya-20e6f1":{"name":"吉野家","locationSet":{"include":["cn","hk","jp","tw"]},"geometry":["point","area"],"matchScore":2,"terms":["yoshinoya","吉野家","吉野家 yoshinoya"],"tags":{"amenity":"fast_food","brand:wikidata":"Q776272"},"addTags":{"amenity":"fast_food","brand":"吉野家","brand:en":"Yoshinoya","brand:ja":"吉野家","brand:wikidata":"Q776272","brand:wikipedia":"ja:吉野家","brand:zh":"吉野家","cuisine":"beef_bowl","name":"吉野家","name:en":"Yoshinoya","name:ja":"吉野家","name:zh":"吉野家","takeaway":"yes"}},"amenity/fast_food/ikearestaurant-65b4e8":{"name":"宜家餐厅","locationSet":{"include":["cn"]},"geometry":["point","area"],"matchScore":2,"terms":["ikea","ikea restaurant","宜家","宜家餐厅"],"tags":{"amenity":"fast_food","brand:wikidata":"Q54078"},"addTags":{"amenity":"fast_food","brand":"IKEA","brand:en":"IKEA","brand:wikidata":"Q54078","brand:wikipedia":"zh:宜家家居","brand:zh":"宜家餐厅","cuisine":"swedish","name":"宜家餐厅","name:en":"IKEA Restaurant","name:zh":"宜家餐厅","takeaway":"yes"}},"amenity/fast_food/chicken/csc-65b4e8":{"name":"乡村基","locationSet":{"include":["cn"]},"geometry":["point","area"],"matchScore":2,"terms":["country style cooking","csc","乡村基"],"reference":{"key":"cuisine","value":"chicken"},"tags":{"amenity":"fast_food","brand:wikidata":"Q16510256","cuisine":"chicken"},"addTags":{"amenity":"fast_food","brand":"乡村基","brand:en":"CSC","brand:wikidata":"Q16510256","brand:wikipedia":"zh:乡村基","brand:zh":"乡村基","cuisine":"chicken","name":"乡村基","name:en":"CSC","name:zh":"乡村基","takeaway":"yes"}},"amenity/fast_food/qingfengsteameddumplingshop-65b4e8":{"name":"庆丰包子铺","locationSet":{"include":["cn"]},"geometry":["point","area"],"matchScore":2,"terms":["qingfeng steamed dumpling shop","庆丰包子铺"],"tags":{"amenity":"fast_food","brand:wikidata":"Q24841010"},"addTags":{"amenity":"fast_food","brand":"庆丰包子铺","brand:en":"Qingfeng Steamed Dumpling Shop","brand:wikidata":"Q24841010","brand:wikipedia":"zh:庆丰包子铺","brand:zh":"庆丰包子铺","cuisine":"chinese","name":"庆丰包子铺","name:en":"Qingfeng Steamed Dumpling Shop","name:zh":"庆丰包子铺","takeaway":"yes"}},"amenity/fast_food/burger/dicos-9ca0ff":{"name":"德克士","locationSet":{"include":["cn","tw"]},"geometry":["point","area"],"matchScore":2,"terms":["dicos","德克士"],"reference":{"key":"cuisine","value":"burger"},"tags":{"amenity":"fast_food","brand:wikidata":"Q5273883","cuisine":"burger;chicken"},"addTags":{"amenity":"fast_food","brand":"德克士","brand:en":"Dicos","brand:wikidata":"Q5273883","brand:wikipedia":"zh:德克士","brand:zh":"德克士","cuisine":"burger;chicken","name":"德克士","name:en":"Dicos","name:zh":"德克士","takeaway":"yes"}},"amenity/fast_food/burger/mosburger-1ff19c":{"name":"摩斯漢堡","locationSet":{"include":["cn","hk","mo","sg","tw"]},"geometry":["point","area"],"matchScore":2,"terms":["mos burger","摩斯漢堡"],"reference":{"key":"cuisine","value":"burger"},"tags":{"amenity":"fast_food","brand:wikidata":"Q1204169","cuisine":"burger"},"addTags":{"amenity":"fast_food","brand":"摩斯漢堡","brand:en":"MOS Burger","brand:wikidata":"Q1204169","brand:wikipedia":"zh:摩斯漢堡","brand:zh":"摩斯漢堡","cuisine":"burger","name":"摩斯漢堡","name:en":"MOS Burger","name:zh":"摩斯漢堡","takeaway":"yes"}},"amenity/fast_food/matsuya-2e6562":{"name":"松屋","locationSet":{"include":["cn","hk","jp","mo","sg","tw"]},"geometry":["point","area"],"matchScore":2,"terms":["matsuya","matsuya foods","松屋","松屋フーズ"],"tags":{"amenity":"fast_food","brand:wikidata":"Q848773"},"addTags":{"amenity":"fast_food","brand":"松屋","brand:en":"Matsuya","brand:ja":"松屋","brand:wikidata":"Q848773","brand:wikipedia":"ja:松屋フーズ","cuisine":"japanese","name":"松屋","name:en":"Matsuya","name:ja":"松屋","name:zh":"松屋","official_name":"松屋フーズ","official_name:en":"Matsuya Foods","official_name:ja":"松屋フーズ","takeaway":"yes"}},"amenity/fast_food/sakaesushi-1ef1da":{"name":"栄寿司","locationSet":{"include":["cn","id","my","pi","sg","th"]},"geometry":["point","area"],"matchScore":2,"terms":["sakae sushi","栄寿司"],"tags":{"amenity":"fast_food","brand:wikidata":"Q14955169"},"addTags":{"amenity":"fast_food","brand":"栄寿司","brand:en":"Sakae Sushi","brand:ja":"栄寿司","brand:wikidata":"Q14955169","brand:wikipedia":"en:Sakae Sushi","cuisine":"japanese","name":"栄寿司","name:en":"Sakae Sushi","name:ja":"栄寿司","takeaway":"yes"}},"amenity/fast_food/zhengxinchickensteak-65b4e8":{"name":"正新鸡排","locationSet":{"include":["cn"]},"geometry":["point","area"],"matchScore":2,"terms":["zhengxin chicken steak","正新鸡排"],"tags":{"amenity":"fast_food","brand:wikidata":"Q104093084"},"addTags":{"amenity":"fast_food","brand":"正新鸡排","brand:en":"ZHENGXIN CHICKEN STEAK","brand:wikidata":"Q104093084","brand:wikipedia":"zh:正新雞排","brand:zh":"正新鸡排","cuisine":"chicken_steak","name":"正新鸡排","name:en":"ZHENGXIN CHICKEN STEAK","name:zh":"正新鸡排","takeaway":"yes"}},"amenity/fast_food/yongheking-65b4e8":{"name":"永和大王","locationSet":{"include":["cn"]},"geometry":["point","area"],"matchScore":2,"terms":["yonghe king","永和大王"],"tags":{"amenity":"fast_food","brand:wikidata":"Q8055004"},"addTags":{"amenity":"fast_food","brand":"永和大王","brand:en":"Yonghe King","brand:wikidata":"Q8055004","brand:wikipedia":"zh:永和大王","brand:zh":"永和大王","cuisine":"chinese","name":"永和大王","name:en":"Yonghe King","name:zh":"永和大王","takeaway":"yes"}},"amenity/fast_food/burger/burgerking-65b4e8":{"name":"汉堡王","locationSet":{"include":["cn"]},"geometry":["point","area"],"matchScore":2,"terms":["burger king","汉堡王"],"reference":{"key":"cuisine","value":"burger"},"tags":{"amenity":"fast_food","brand:wikidata":"Q177054","cuisine":"burger"},"addTags":{"amenity":"fast_food","brand":"汉堡王","brand:en":"Burger King","brand:wikidata":"Q177054","brand:wikipedia":"zh:漢堡王","brand:zh":"汉堡王","cuisine":"burger","name":"汉堡王","name:en":"Burger King","name:zh":"汉堡王","takeaway":"yes"}},"amenity/fast_food/kungfu-65b4e8":{"name":"真功夫","locationSet":{"include":["cn"]},"geometry":["point","area"],"matchScore":2,"terms":["kungfu","真功夫"],"tags":{"amenity":"fast_food","brand:wikidata":"Q15909765"},"addTags":{"amenity":"fast_food","brand":"真功夫","brand:en":"Kungfu","brand:wikidata":"Q15909765","brand:wikipedia":"zh:真功夫","brand:zh":"真功夫","cuisine":"chinese","name":"真功夫","name:en":"Kungfu","name:zh":"真功夫","takeaway":"yes"}},"amenity/fast_food/oldchangkee-ff7eca":{"name":"老曾记","locationSet":{"include":["cn","gb","id","my","ph","sg"]},"geometry":["point","area"],"matchScore":2,"terms":["old chang kee","老曾记"],"tags":{"amenity":"fast_food","brand:wikidata":"Q17005286"},"addTags":{"amenity":"fast_food","brand":"老曾记","brand:en":"Old Chang Kee","brand:wikidata":"Q17005286","brand:wikipedia":"en:Old Chang Kee","brand:zh":"老曾记","cuisine":"snacks","name":"老曾记","name:en":"Old Chang Kee","name:zh":"老曾记","takeaway":"yes"}},"amenity/fast_food/chicken/kfc-1ff19c":{"name":"肯德基","locationSet":{"include":["cn","hk","mo","sg","tw"]},"geometry":["point","area"],"matchScore":2,"terms":["kfc","肯德基"],"reference":{"key":"cuisine","value":"chicken"},"tags":{"amenity":"fast_food","brand:wikidata":"Q524757","cuisine":"chicken"},"addTags":{"amenity":"fast_food","brand":"肯德基","brand:en":"KFC","brand:wikidata":"Q524757","brand:wikipedia":"zh:肯德基","brand:zh":"肯德基","cuisine":"chicken","name":"肯德基","name:en":"KFC","name:zh":"肯德基","takeaway":"yes"}},"amenity/fast_food/sandwich/subway-65b4e8":{"name":"赛百味","locationSet":{"include":["cn"]},"geometry":["point","area"],"matchScore":2,"terms":["subway","赛百味"],"reference":{"key":"cuisine","value":"sandwich"},"tags":{"amenity":"fast_food","brand:wikidata":"Q244457","cuisine":"sandwich"},"addTags":{"amenity":"fast_food","brand":"赛百味","brand:en":"Subway","brand:wikidata":"Q244457","brand:wikipedia":"zh:赛百味","brand:zh":"赛百味","cuisine":"sandwich","name":"赛百味","name:en":"Subway","name:zh":"赛百味","takeaway":"yes"}},"amenity/fast_food/chaoyixing-65b4e8":{"name":"超意兴","locationSet":{"include":["cn"]},"geometry":["point","area"],"matchScore":2,"terms":["chaoyixing","济南超意兴餐饮有限公司","超意兴"],"tags":{"amenity":"fast_food","brand:wikidata":"Q110221371"},"addTags":{"amenity":"fast_food","brand":"超意兴","brand:en":"CHAOYIXING","brand:wikidata":"Q110221371","brand:zh":"超意兴","cuisine":"chinese","name":"超意兴","name:en":"CHAOYIXING","name:zh":"超意兴","operator":"济南超意兴餐饮有限公司","takeaway":"yes"}},"amenity/fast_food/pizza/dominos-65b4e8":{"name":"达美乐比萨","locationSet":{"include":["cn"]},"geometry":["point","area"],"matchScore":2,"terms":["domino's","达美乐比萨"],"reference":{"key":"cuisine","value":"pizza"},"tags":{"amenity":"fast_food","brand:wikidata":"Q839466","cuisine":"pizza"},"addTags":{"amenity":"fast_food","brand":"达美乐比萨","brand:en":"Domino's","brand:wikidata":"Q839466","brand:wikipedia":"en:Domino's Pizza","cuisine":"pizza","name":"达美乐比萨","name:en":"Domino's","takeaway":"yes"}},"amenity/fast_food/chicken/tkkfriedchicken-65b4e8":{"name":"顶呱呱","locationSet":{"include":["cn"]},"geometry":["point","area"],"matchScore":2,"terms":["tkk fried chicken","顶呱呱"],"reference":{"key":"cuisine","value":"chicken"},"tags":{"amenity":"fast_food","brand:wikidata":"Q15715284","cuisine":"chicken"},"addTags":{"amenity":"fast_food","brand":"顶呱呱","brand:en":"TKK Fried Chicken","brand:wikidata":"Q15715284","brand:wikipedia":"zh:頂呱呱","brand:zh":"顶呱呱","cuisine":"chicken","name":"顶呱呱","name:en":"TKK Fried Chicken","name:zh":"顶呱呱","takeaway":"yes"}},"amenity/fast_food/sukiya-65b4e8":{"name":"食其家","locationSet":{"include":["cn"]},"geometry":["point","area"],"matchScore":2,"terms":["sukiya","すき家","食其家"],"tags":{"amenity":"fast_food","brand:wikidata":"Q6137375"},"addTags":{"amenity":"fast_food","brand":"すき家","brand:en":"Sukiya","brand:ja":"すき家","brand:wikidata":"Q6137375","brand:wikipedia":"zh:食其家","brand:zh":"食其家","cuisine":"beef_bowl","name":"食其家","name:en":"Sukiya","name:ja":"食其家","name:zh":"食其家","takeaway":"yes"}},"amenity/fast_food/burger/mcdonalds-ada782":{"name":"麦当劳","locationSet":{"include":["cn","sg"]},"geometry":["point","area"],"matchScore":2,"terms":["mcdonald's","麦当劳"],"reference":{"key":"cuisine","value":"burger"},"tags":{"amenity":"fast_food","brand:wikidata":"Q38076","cuisine":"burger"},"addTags":{"amenity":"fast_food","brand":"麦当劳","brand:en":"McDonald's","brand:wikidata":"Q38076","brand:wikipedia":"zh:麦当劳","brand:zh":"麦当劳","brand:zh-Hans":"麦当劳","cuisine":"burger","name":"麦当劳","name:en":"McDonald's","name:zh":"麦当劳","name:zh-Hans":"麦当劳","takeaway":"yes"}},"amenity/fuel/usmile-e4b6c0":{"name":"uSmile 昆仑好客","locationSet":{"include":["cn"]},"geometry":["point","area"],"matchScore":2,"terms":["usmile","usmile 便利店","usmile 昆仑好客","昆仑好","昆仑好客"],"fields":["name","brand","{amenity/fuel}"],"tags":{"amenity":"fuel","brand:wikidata":"Q66480830"},"addTags":{"amenity":"fuel","brand":"uSmile 昆仑好客","brand:en":"uSmile","brand:wikidata":"Q66480830","brand:zh":"昆仑好客","name":"uSmile 昆仑好","name:en":"uSmile","name:zh":"昆仑好客"}},"amenity/fuel/chinainternationalenergy-e4b6c0":{"name":"中国国际能源","locationSet":{"include":["cn"]},"geometry":["point","area"],"matchScore":2,"terms":["china international energy","中国国际能源"],"fields":["name","brand","{amenity/fuel}"],"tags":{"amenity":"fuel","brand:wikidata":"Q110232333"},"addTags":{"amenity":"fuel","brand":"中国国际能源","brand:en":"CHINA INTERNATIONAL ENERGY","brand:wikidata":"Q110232333","brand:zh":"中国国际能源","name":"中国国际能源","name:en":"CHINA INTERNATIONAL ENERGY","name:zh":"中国国际能源"}},"amenity/fuel/cnooc-e4b6c0":{"name":"中国海油","locationSet":{"include":["cn"]},"geometry":["point","area"],"matchScore":2,"terms":["cnooc","中国海油","中国海洋石油","中海油","中海油加油站","中海油站"],"fields":["name","brand","{amenity/fuel}"],"tags":{"amenity":"fuel","brand:wikidata":"Q795354"},"addTags":{"amenity":"fuel","brand":"中国海油","brand:en":"CNOOC","brand:wikidata":"Q795354","brand:wikipedia":"zh:中国海洋石油","brand:zh":"中国海油","name":"中国海油","name:en":"CNOOC","name:zh":"中国海油"}},"amenity/fuel/chinagas-e4b6c0":{"name":"中国燃气","locationSet":{"include":["cn"]},"geometry":["point","area"],"matchScore":2,"terms":["china gas","中国燃气"],"fields":["name","brand","{amenity/fuel}"],"tags":{"amenity":"fuel","brand:wikidata":"Q10874672"},"addTags":{"amenity":"fuel","brand":"中国燃气","brand:en":"China Gas","brand:wikidata":"Q10874672","brand:wikipedia":"zh:中國燃氣","brand:zh":"中国燃气","name":"中国燃气","name:en":"China Gas","name:zh":"中国燃气"}},"amenity/fuel/sinopec-e4b6c0":{"name":"中国石化","locationSet":{"include":["cn"]},"geometry":["point","area"],"matchScore":2,"terms":["sinopec","sinopec fuel","中国石化","中国石化 sinopec","中国石化加油站","中石化","中石化加油站","中石化油站"],"fields":["name","brand","{amenity/fuel}"],"tags":{"amenity":"fuel","brand:wikidata":"Q831445"},"addTags":{"amenity":"fuel","brand":"中国石化","brand:en":"Sinopec","brand:wikidata":"Q831445","brand:wikipedia":"en:Sinopec","brand:zh":"中国石化","name":"中国石化","name:en":"Sinopec","name:zh":"中国石化"}},"amenity/fuel/petrochina-e4b6c0":{"name":"中国石油","locationSet":{"include":["cn"]},"geometry":["point","area"],"matchScore":2,"terms":["petrochina","中国石油","中国石油 petrochina","中国石油加油站","中油","中油加油站","中石油","中石油加油站"],"fields":["name","brand","{amenity/fuel}"],"tags":{"amenity":"fuel","brand:wikidata":"Q503182"},"addTags":{"amenity":"fuel","brand":"中国石油","brand:en":"PetroChina","brand:wikidata":"Q503182","brand:wikipedia":"en:PetroChina","brand:zh":"中国石油","name":"中国石油","name:en":"PetroChina","name:zh":"中国石油"}},"amenity/fuel/bppetrochina-e4b6c0":{"name":"中油碧辟","locationSet":{"include":["cn"]},"geometry":["point","area"],"matchScore":2,"terms":["bp petrochina","中油bp","中油碧辟","中油碧辟石油有限公司"],"fields":["name","brand","{amenity/fuel}"],"tags":{"amenity":"fuel","brand:wikidata":"Q109280112"},"addTags":{"alt_name":"中油BP","amenity":"fuel","brand":"中油碧辟","brand:en":"BP PetroChina","brand:wikidata":"Q109280112","brand:zh":"中油碧辟","name":"中油碧辟","name:en":"BP PetroChina","name:zh":"中油碧辟","operator":"中油碧辟石油有限公司"}},"amenity/fuel/pipechina-e4b6c0":{"name":"国家管网","locationSet":{"include":["cn"]},"geometry":["point","area"],"matchScore":2,"terms":["pipechina","国家管网"],"fields":["name","brand","{amenity/fuel}"],"tags":{"amenity":"fuel","brand:wikidata":"Q86727966"},"addTags":{"amenity":"fuel","brand":"国家管网","brand:en":"PipeChina","brand:wikidata":"Q86727966","brand:wikipedia":"zh:国家石油天然气管网集团","brand:zh":"国家管网","name":"国家管网","name:en":"PipeChina","name:zh":"国家管网"}},"amenity/fuel/cd5eeb-e4b6c0":{"name":"广西交投","locationSet":{"include":["cn"]},"geometry":["point","area"],"matchScore":2,"terms":["广西交投","广西交投加油站","广西交通投资集团有限公司"],"fields":["name","brand","{amenity/fuel}"],"tags":{"amenity":"fuel","brand:wikidata":"Q11062364"},"addTags":{"amenity":"fuel","brand":"广西交投","brand:wikidata":"Q11062364","brand:wikipedia":"zh:广西交通投资集团","brand:zh":"广西交投","name":"广西交投","name:zh":"广西交投","operator":"广西交通投资集团有限公司","operator:type":"public"}},"amenity/ice_cream/gelatissimo-17af97":{"name":"Gelatissimo","locationSet":{"include":["au","bd","cn","in","ph","sa","sg"]},"geometry":["point","area"],"matchScore":2,"terms":["gelatissimo"],"tags":{"amenity":"ice_cream","brand:wikidata":"Q105270111"},"addTags":{"amenity":"ice_cream","brand":"Gelatissimo","brand:wikidata":"Q105270111","cuisine":"ice_cream","name":"Gelatissimo","takeaway":"yes"}},"amenity/ice_cream/menchies-411174":{"name":"Menchie's","locationSet":{"include":["ae","bh","bs","ca","cn","gb","in","jp","kw","qa","sa","us"]},"geometry":["point","area"],"matchScore":2,"terms":["menchie's","menchie's frozen yoghurt","menchie's frozen yogurt"],"tags":{"amenity":"ice_cream","brand:wikidata":"Q6816528"},"addTags":{"amenity":"ice_cream","brand":"Menchie's","brand:wikidata":"Q6816528","brand:wikipedia":"en:Menchie's Frozen Yogurt","cuisine":"frozen_yogurt","name":"Menchie's"}},"amenity/ice_cream/orangeleaffrozenyogurt-4cfb80":{"name":"Orange Leaf","locationSet":{"include":["au","cn","us"]},"geometry":["point","area"],"matchScore":2,"terms":["orange leaf frozen yogurt"],"tags":{"amenity":"ice_cream","brand:wikidata":"Q18155467"},"addTags":{"amenity":"ice_cream","brand":"Orange Leaf Frozen Yogurt","brand:wikidata":"Q18155467","brand:wikipedia":"en:Orange Leaf Frozen Yogurt","cuisine":"ice_cream","name":"Orange Leaf Frozen Yogurt"}},"amenity/ice_cream/smooy-bac155":{"name":"smöoy","locationSet":{"include":["ao","ci","cn","dz","ec","es","fr","gb","gn","it","ma","pa","pe","pt","re","sa"]},"geometry":["point","area"],"matchScore":2,"terms":["smöoy","softy cream"],"tags":{"amenity":"ice_cream","brand:wikidata":"Q21573945"},"addTags":{"amenity":"ice_cream","brand":"smöoy","brand:wikidata":"Q21573945","brand:wikipedia":"es:Smöoy","name":"smöoy","official_name":"Softy Cream"}},"amenity/ice_cream/meetfresh-42f939":{"name":"鮮芋仙","locationSet":{"include":["cn","tw"]},"geometry":["point","area"],"matchScore":2,"terms":["meet fresh","鮮芋仙"],"tags":{"amenity":"ice_cream","brand:wikidata":"Q11172707"},"addTags":{"amenity":"ice_cream","brand":"鮮芋仙","brand:en":"Meet Fresh","brand:wikidata":"Q11172707","brand:wikipedia":"zh:鮮芋仙","cuisine":"taiwanese","name":"鮮芋仙","name:en":"Meet Fresh","name:zh":"鮮芋仙"}},"amenity/kindergarten/rybeducation-bbcfc6":{"name":"红黄蓝幼儿园","locationSet":{"include":["cn"]},"geometry":["area","point"],"matchScore":2,"terms":["ryb education","红黄蓝幼儿园"],"fields":["name","brand","{amenity/kindergarten}"],"tags":{"amenity":"kindergarten","brand:wikidata":"Q43452224"},"addTags":{"amenity":"kindergarten","brand":"红黄蓝幼儿园","brand:en":"RYB Education","brand:wikidata":"Q43452224","brand:wikipedia":"zh:红黄蓝教育","brand:zh":"红黄蓝幼儿园","fee":"yes","name":"红黄蓝幼儿园","name:en":"RYB Education","name:zh":"红黄蓝幼儿园","preschool":"yes"}},"amenity/language_school/shaneenglishschool-ffc9b7":{"name":"夏恩英语学校","locationSet":{"include":["cn"]},"geometry":["point","area"],"matchScore":2,"terms":["shane english school","夏恩英语学校"],"fields":["name","brand","{amenity/language_school}"],"tags":{"amenity":"language_school","brand:wikidata":"Q17054332"},"addTags":{"amenity":"language_school","brand":"夏恩英语学校","brand:en":"Shane English School","brand:wikidata":"Q17054332","brand:wikipedia":"en:Shane English School","brand:zh":"夏恩英语学校","language:en":"main","name":"夏恩英语学校","name:en":"Shane English School","name:zh":"夏恩英语学校"}},"amenity/language_school/neworientaleducation-ffc9b7":{"name":"新东方","locationSet":{"include":["cn"]},"geometry":["point","area"],"matchScore":2,"terms":["new oriental education","新东方"],"fields":["name","brand","{amenity/language_school}"],"tags":{"amenity":"language_school","brand:wikidata":"Q13631921"},"addTags":{"amenity":"language_school","brand":"新东方","brand:en":"New Oriental Education","brand:wikidata":"Q13631921","brand:wikipedia":"zh:新东方学校","brand:zh":"新东方","name":"新东方","name:en":"New Oriental Education","name:zh":"新东方"}},"amenity/language_school/sakurajp-ffc9b7":{"name":"樱花日语","locationSet":{"include":["cn"]},"geometry":["point","area"],"matchScore":2,"terms":["sakura jp","桜にほんご","樱花日语"],"fields":["name","brand","{amenity/language_school}"],"tags":{"amenity":"language_school","brand:wikidata":"Q7403164"},"addTags":{"amenity":"language_school","brand":"樱花日语","brand:en":"Sakura JP","brand:ja":"桜にほんご","brand:wikidata":"Q7403164","brand:wikipedia":"zh:樱花日语","brand:zh":"樱花日语","name":"樱花日语","name:en":"Sakura JP","name:ja":"桜にほんご","name:zh":"樱花日语"}},"amenity/pharmacy/mannings-fbd6d0":{"name":"Mannings","locationSet":{"include":["cn","hk","mo"]},"geometry":["point","area"],"matchScore":2,"terms":["mannings"],"reference":{"key":"amenity","value":"pharmacy"},"tags":{"amenity":"pharmacy","brand:wikidata":"Q13646560"},"addTags":{"amenity":"pharmacy","brand":"Mannings","brand:wikidata":"Q13646560","brand:wikipedia":"en:Mannings","healthcare":"pharmacy","name":"Mannings"}},"amenity/pharmacy/superpharm-8f2066":{"name":"Super-Pharm","locationSet":{"include":["cn","il","pl"]},"geometry":["point","area"],"matchScore":2,"terms":["super-pharm"],"reference":{"key":"amenity","value":"pharmacy"},"tags":{"amenity":"pharmacy","brand:wikidata":"Q13220217"},"addTags":{"amenity":"pharmacy","brand":"Super-Pharm","brand:wikidata":"Q13220217","brand:wikipedia":"en:Super-Pharm","healthcare":"pharmacy","name":"Super-Pharm"}},"amenity/pharmacy/tintindrugstore-53e0d8":{"name":"丁丁藥局","locationSet":{"include":["cn","hk","tw"]},"geometry":["point","area"],"matchScore":2,"terms":["tin tin drugstore","丁丁藥局"],"reference":{"key":"amenity","value":"pharmacy"},"tags":{"amenity":"pharmacy","brand:wikidata":"Q108166589"},"addTags":{"amenity":"pharmacy","brand":"丁丁藥局","brand:en":"Tin Tin Drugstore","brand:wikidata":"Q108166589","brand:zh":"丁丁藥局","healthcare":"pharmacy","name":"丁丁藥局","name:en":"Tin Tin Drugstore","name:zh":"丁丁藥局","shop":"chemist"}},"amenity/pharmacy/tongrentangpharmacy-f38123":{"name":"同仁堂","locationSet":{"include":["cn"]},"geometry":["point","area"],"matchScore":2,"terms":["tongrentang pharmacy","同仁堂"],"reference":{"key":"amenity","value":"pharmacy"},"tags":{"amenity":"pharmacy","brand:wikidata":"Q842099"},"addTags":{"amenity":"pharmacy","brand":"同仁堂","brand:en":"TongRenTang Pharmacy","brand:wikidata":"Q842099","brand:wikipedia":"en:Tong Ren Tang","brand:zh":"同仁堂","healthcare":"pharmacy","name":"同仁堂","name:en":"TongRenTang Pharmacy","name:zh":"同仁堂"}},"amenity/pharmacy/dashenlin-f38123":{"name":"大参林","locationSet":{"include":["cn"]},"geometry":["point","area"],"matchScore":2,"terms":["dashenlin","大参林"],"reference":{"key":"amenity","value":"pharmacy"},"tags":{"amenity":"pharmacy","brand:wikidata":"Q106239645"},"addTags":{"amenity":"pharmacy","brand":"大参林","brand:en":"dashenlin","brand:wikidata":"Q106239645","brand:zh":"大参林","healthcare":"pharmacy","name":"大参林","name:en":"dashenlin","name:zh":"大参林"}},"amenity/pharmacy/jiankanglinjudeshengtang-f38123":{"name":"德生堂","locationSet":{"include":["cn"]},"geometry":["point","area"],"matchScore":2,"terms":["jiankang linju de sheng tang","德生堂"],"reference":{"key":"amenity","value":"pharmacy"},"tags":{"amenity":"pharmacy","brand:wikidata":"Q108168942"},"addTags":{"amenity":"pharmacy","brand":"德生堂","brand:en":"JIANKANG LINJU DE SHENG TANG","brand:wikidata":"Q108168942","brand:zh":"德生堂","healthcare":"pharmacy","name":"德生堂","name:en":"JIANKANG LINJU DE SHENG TANG","name:zh":"德生堂"}},"amenity/pharmacy/chinanepstar-f38123":{"name":"海王星辰","locationSet":{"include":["cn"]},"geometry":["point","area"],"matchScore":2,"terms":["china nepstar","海王星辰"],"reference":{"key":"amenity","value":"pharmacy"},"tags":{"amenity":"pharmacy","brand:wikidata":"Q5099817"},"addTags":{"amenity":"pharmacy","brand":"海王星辰","brand:en":"China Nepstar","brand:wikidata":"Q5099817","brand:wikipedia":"zh:海王星辰","brand:zh":"海王星辰","healthcare":"pharmacy","name":"海王星辰","name:en":"China Nepstar","name:zh":"海王星辰"}},"amenity/post_office/chinapost-de5f7a":{"name":"中国邮政","locationSet":{"include":["cn"]},"geometry":["point","area"],"matchScore":2,"terms":["china post","ems","中国邮政","中国邮政速递","中国邮政速递物流","邮政","邮政速递"],"fields":["name","brand","{amenity/post_office}"],"tags":{"amenity":"post_office","brand:wikidata":"Q1066476"},"addTags":{"amenity":"post_office","brand":"中国邮政","brand:en":"China Post","brand:wikidata":"Q1066476","brand:wikipedia":"zh:中国邮政","brand:zh":"中国邮政","name":"中国邮政","name:en":"China Post","name:zh":"中国邮政"}},"amenity/post_office/ztoexpress-de5f7a":{"name":"中通快递","locationSet":{"include":["cn"]},"geometry":["point","area"],"matchScore":2,"terms":["zto express","中通","中通快递"],"fields":["name","brand","{amenity/post_office}"],"tags":{"amenity":"post_office","brand:wikidata":"Q10876705"},"addTags":{"amenity":"post_office","brand":"中通快递","brand:en":"ZTO Express","brand:wikidata":"Q10876705","brand:wikipedia":"zh:中通快递","brand:zh":"中通快递","name":"中通快递","name:en":"ZTO Express","name:zh":"中通快递","short_name":"中通"}},"amenity/post_office/jdlogistics-de5f7a":{"name":"京东物流","locationSet":{"include":["cn"]},"geometry":["point","area"],"matchScore":2,"terms":["jd logistics","京东","京东快递","京东派","京东物流"],"fields":["name","brand","{amenity/post_office}"],"tags":{"amenity":"post_office","brand:wikidata":"Q67936681"},"addTags":{"amenity":"post_office","brand":"京东物流","brand:en":"JD Logistics","brand:wikidata":"Q67936681","brand:wikipedia":"zh:京东物流","brand:zh":"京东物流","name":"京东物流","name:en":"JD Logistics","name:zh":"京东物流","short_name":"京东"}},"amenity/post_office/ytoexpress-de5f7a":{"name":"圆通速递","locationSet":{"include":["cn"]},"geometry":["point","area"],"matchScore":2,"terms":["yto express","圆通","圆通快递","圆通速递"],"fields":["name","brand","{amenity/post_office}"],"tags":{"amenity":"post_office","brand:wikidata":"Q10926656"},"addTags":{"amenity":"post_office","brand":"圆通速递","brand:en":"YTO Express","brand:wikidata":"Q10926656","brand:wikipedia":"zh:圆通速递","brand:zh":"圆通速递","name":"圆通速递","name:en":"YTO Express","name:zh":"圆通速递","short_name":"圆通"}},"amenity/post_office/depponexpress-de5f7a":{"name":"德邦快递","locationSet":{"include":["cn"]},"geometry":["point","area"],"matchScore":2,"terms":["deppon express","德邦","德邦快递","德邦物流"],"fields":["name","brand","{amenity/post_office}"],"tags":{"amenity":"post_office","brand:wikidata":"Q109378877"},"addTags":{"amenity":"post_office","brand":"德邦快递","brand:en":"Deppon Express","brand:wikidata":"Q109378877","brand:wikipedia":"zh:德邦物流","brand:zh":"德邦快递","name":"德邦快递","name:en":"Deppon Express","name:zh":"德邦快递","short_name":"德邦"}},"amenity/post_office/stoexpress-de5f7a":{"name":"申通快递","locationSet":{"include":["cn"]},"geometry":["point","area"],"matchScore":2,"terms":["sto express","申通","申通快递"],"fields":["name","brand","{amenity/post_office}"],"tags":{"amenity":"post_office","brand:wikidata":"Q10426347"},"addTags":{"amenity":"post_office","brand":"申通快递","brand:en":"STO Express","brand:wikidata":"Q10426347","brand:wikipedia":"zh:申通快递","brand:zh":"申通快递","name":"申通快递","name:en":"STO Express","name:zh":"申通快递","short_name":"申通"}},"amenity/post_office/cainiao-de5f7a":{"name":"菜鸟驿站","locationSet":{"include":["cn"]},"geometry":["point","area"],"matchScore":2,"terms":["cai niao","菜鸟驿站"],"fields":["name","brand","{amenity/post_office}"],"tags":{"amenity":"post_office","brand:wikidata":"Q16947973"},"addTags":{"amenity":"post_office","brand":"菜鸟驿站","brand:en":"CAI NIAO","brand:wikidata":"Q16947973","brand:wikipedia":"zh:菜鸟网络","brand:zh":"菜鸟驿站","name":"菜鸟驿站","name:en":"CAI NIAO","name:zh":"菜鸟驿站"}},"amenity/post_office/yundaexpress-de5f7a":{"name":"韵达速递","locationSet":{"include":["cn"]},"geometry":["point","area"],"matchScore":2,"terms":["yunda express","韵达","韵达快递","韵达速递"],"fields":["name","brand","{amenity/post_office}"],"tags":{"amenity":"post_office","brand:wikidata":"Q17010677"},"addTags":{"amenity":"post_office","brand":"韵达速递","brand:en":"Yunda Express","brand:wikidata":"Q17010677","brand:wikipedia":"zh:韵达速递","brand:zh":"韵达速递","name":"韵达速递","name:en":"Yunda Express","name:zh":"韵达速递","short_name":"韵达"}},"amenity/post_office/sfexpress-de5f7a":{"name":"顺丰速运","locationSet":{"include":["cn"]},"geometry":["point","area"],"matchScore":2,"terms":["sf express","顺丰","顺丰快递","顺丰速运"],"fields":["name","brand","{amenity/post_office}"],"tags":{"amenity":"post_office","brand:wikidata":"Q7390019"},"addTags":{"amenity":"post_office","brand":"顺丰速运","brand:en":"SF Express","brand:wikidata":"Q7390019","brand:wikipedia":"zh:顺丰速运","brand:zh":"顺丰速运","name":"顺丰速运","name:en":"SF Express","name:zh":"顺丰速运","short_name":"顺丰"}},"amenity/restaurant/mortonsgrille-1830bd":{"name":"Morton's Grille","locationSet":{"include":["ca","cn","us"]},"geometry":["point","area"],"matchScore":2,"terms":["morton's grille","mortons"],"tags":{"amenity":"restaurant","brand:wikidata":"Q110265756"},"addTags":{"amenity":"restaurant","brand":"Morton's Grille","brand:wikidata":"Q110265756","cuisine":"steak_house","name":"Morton's Grille"}},"amenity/restaurant/chinese/dongfanggong-0a8e9b":{"name":"东方宫","locationSet":{"include":["cn"]},"geometry":["point","area"],"matchScore":2,"terms":["dongfanggong","东方宫","东方宫兰州拉面","东方宫兰州牛肉拉面","东方宫兰州牛肉面","东方宫牛肉面"],"reference":{"key":"cuisine","value":"chinese"},"tags":{"amenity":"restaurant","brand:wikidata":"Q108485529","cuisine":"chinese"},"addTags":{"amenity":"restaurant","brand":"东方宫","brand:en":"Dongfanggong","brand:wikidata":"Q108485529","brand:zh":"东方宫","cuisine":"chinese","diet:halal":"only","name":"东方宫","name:en":"Dongfanggong","name:zh":"东方宫"}},"amenity/restaurant/chinese/donglaishun-0a8e9b":{"name":"东来顺","locationSet":{"include":["cn"]},"geometry":["point","area"],"matchScore":2,"terms":["dong lai shun","东来顺"],"reference":{"key":"cuisine","value":"chinese"},"tags":{"amenity":"restaurant","brand:wikidata":"Q10870490","cuisine":"chinese;hot_pot"},"addTags":{"amenity":"restaurant","brand":"东来顺","brand:en":"Dong Lai Shun","brand:wikidata":"Q10870490","brand:wikipedia":"zh:东来顺","brand:zh":"东来顺","cuisine":"chinese;hot_pot","diet:halal":"only","name":"东来顺","name:en":"Dong Lai Shun","name:zh":"东来顺"}},"amenity/restaurant/chinese/bianyifang-0a8e9b":{"name":"便宜坊","locationSet":{"include":["cn"]},"geometry":["point","area"],"matchScore":2,"terms":["bianyifang","便宜坊"],"reference":{"key":"cuisine","value":"chinese"},"tags":{"amenity":"restaurant","brand:wikidata":"Q1049599","cuisine":"chinese"},"addTags":{"amenity":"restaurant","brand":"便宜坊","brand:en":"Bianyifang","brand:wikidata":"Q1049599","brand:wikipedia":"zh:便宜坊","brand:zh":"便宜坊","cuisine":"chinese","name":"便宜坊","name:en":"Bianyifang","name:zh":"便宜坊"}},"amenity/restaurant/chinese/quanjude-0a8e9b":{"name":"全聚德","locationSet":{"include":["cn"]},"geometry":["point","area"],"matchScore":2,"terms":["quanjude","全聚德"],"reference":{"key":"cuisine","value":"chinese"},"tags":{"amenity":"restaurant","brand:wikidata":"Q3269017","cuisine":"chinese"},"addTags":{"amenity":"restaurant","brand":"全聚德","brand:en":"Quanjude","brand:wikidata":"Q3269017","brand:wikipedia":"zh:全聚德","brand:zh":"全聚德","cuisine":"chinese","name":"全聚德","name:en":"Quanjude","name:zh":"全聚德"}},"amenity/restaurant/chinese/eightway-4ed470":{"name":"八方雲集","locationSet":{"include":["cn","tw"]},"geometry":["point","area"],"matchScore":2,"terms":["eight way","八方雲集"],"reference":{"key":"cuisine","value":"chinese"},"tags":{"amenity":"restaurant","brand:wikidata":"Q28417381","cuisine":"chinese"},"addTags":{"amenity":"restaurant","brand":"八方雲集","brand:en":"Eight Way","brand:wikidata":"Q28417381","brand:wikipedia":"zh:八方雲集","brand:zh":"八方雲集","cuisine":"chinese","name":"八方雲集","name:en":"Eight Way","name:zh":"八方雲集"}},"amenity/restaurant/chinese/njdapaidang-0a8e9b":{"name":"南京大牌档","locationSet":{"include":["cn"]},"geometry":["point","area"],"matchScore":2,"terms":["njdapaidang","南京大牌档"],"reference":{"key":"cuisine","value":"chinese"},"tags":{"amenity":"restaurant","brand:wikidata":"Q48898937","cuisine":"chinese"},"addTags":{"amenity":"restaurant","brand":"南京大牌档","brand:en":"njdapaidang","brand:wikidata":"Q48898937","brand:wikipedia":"zh:南京大牌档","brand:zh":"南京大牌档","cuisine":"chinese","name":"南京大牌档","name:en":"njdapaidang","name:zh":"南京大牌档"}},"amenity/restaurant/chinese/bjncx-0a8e9b":{"name":"南城香","locationSet":{"include":["cn"]},"geometry":["point","area"],"matchScore":2,"terms":["bjncx","南城香"],"reference":{"key":"cuisine","value":"chinese"},"tags":{"amenity":"restaurant","brand:wikidata":"Q108483950","cuisine":"chinese"},"addTags":{"amenity":"restaurant","brand":"南城香","brand:en":"BJNCX","brand:wikidata":"Q108483950","brand:zn":"南城香","cuisine":"chinese","name":"南城香","name:en":"BJNCX","name:zh":"南城香"}},"amenity/restaurant/ajisenramen-0a8e9b":{"name":"味千拉面","locationSet":{"include":["cn"]},"geometry":["point","area"],"matchScore":2,"terms":["ajisen ramen","味千ラーメン","味千拉面"],"tags":{"amenity":"restaurant","brand:wikidata":"Q4699761"},"addTags":{"amenity":"restaurant","brand":"味千拉面","brand:en":"Ajisen Ramen","brand:ja":"味千ラーメン","brand:wikidata":"Q4699761","brand:wikipedia":"zh:味千拉麵","brand:zn":"味千拉面","cuisine":"ramen","name":"味千拉面","name:en":"Ajisen Ramen","name:ja":"味千ラーメン","name:zh":"味千拉面"}},"amenity/restaurant/vips-0a8e9b":{"name":"味爱普思","locationSet":{"include":["cn"]},"geometry":["point","area"],"matchScore":2,"terms":["vips","味爱普思"],"tags":{"amenity":"restaurant","brand:wikidata":"Q12599540"},"addTags":{"amenity":"restaurant","brand":"味爱普思","brand:en":"Vips","brand:wikidata":"Q12599540","brand:wikipedia":"ko:빕스","brand:zh":"味爱普思","cuisine":"salad;steak_house","name":"味爱普思","name:en":"Vips","name:zh":"味爱普思"}},"amenity/restaurant/chinese/xiabuxiabu-0a8e9b":{"name":"呷哺呷哺","locationSet":{"include":["cn"]},"geometry":["point","area"],"matchScore":2,"terms":["xiabuxiabu","呷哺呷哺"],"reference":{"key":"cuisine","value":"chinese"},"tags":{"amenity":"restaurant","brand:wikidata":"Q10866036","cuisine":"chinese"},"addTags":{"amenity":"restaurant","brand":"呷哺呷哺","brand:en":"Xiabuxiabu","brand:wikidata":"Q10866036","brand:wikipedia":"zh:呷哺呷哺","brand:zh":"呷哺呷哺","cuisine":"chinese","name":"呷哺呷哺","name:en":"Xiabuxiabu","name:zh":"呷哺呷哺"}},"amenity/restaurant/chinese/hehegu-0a8e9b":{"name":"和合谷","locationSet":{"include":["cn"]},"geometry":["point","area"],"matchScore":2,"terms":["hehegu","和合谷","和合谷国人快餐"],"reference":{"key":"cuisine","value":"chinese"},"tags":{"amenity":"restaurant","brand:wikidata":"Q108485111","cuisine":"chinese"},"addTags":{"amenity":"restaurant","brand":"和合谷","brand:en":"HeHeGu","brand:wikidata":"Q108485111","brand:zh":"和合谷","cuisine":"chinese","name":"和合谷","name:en":"HeHeGu","name:zh":"和合谷"}},"amenity/restaurant/chinese/porridgejiahe-0a8e9b":{"name":"嘉和一品","locationSet":{"include":["cn"]},"geometry":["point","area"],"matchScore":2,"terms":["porridge jiahe","嘉和一品","嘉禾一品"],"reference":{"key":"cuisine","value":"chinese"},"tags":{"amenity":"restaurant","brand:wikidata":"Q108483822","cuisine":"chinese"},"addTags":{"amenity":"restaurant","brand":"嘉和一品","brand:en":"PORRIDGE JIAHE","brand:wikidata":"Q108483822","brand:zh":"嘉和一品","cuisine":"chinese","name":"嘉和一品","name:en":"PORRIDGE JIAHE","name:zh":"嘉和一品"}},"amenity/restaurant/chinese/littlesheep-0a8e9b":{"name":"小肥羊","locationSet":{"include":["cn"]},"geometry":["point","area"],"matchScore":2,"terms":["little sheep","小肥羊","小肥羊火锅"],"reference":{"key":"cuisine","value":"chinese"},"tags":{"amenity":"restaurant","brand:wikidata":"Q5976467","cuisine":"chinese;hot_pot"},"addTags":{"amenity":"restaurant","brand":"小肥羊","brand:en":"LITTLE SHEEP","brand:wikidata":"Q5976467","brand:wikipedia":"zh:小肥羊","brand:zh":"小肥羊","cuisine":"chinese;hot_pot","name":"小肥羊","name:en":"LITTLE SHEEP","name:zh":"小肥羊"}},"amenity/restaurant/chinese/shooloongkan-0a8e9b":{"name":"小龙坎火锅","locationSet":{"include":["cn"]},"geometry":["point","area"],"matchScore":2,"terms":["shoo loong kan","小龙坎","小龙坎火锅"],"reference":{"key":"cuisine","value":"chinese"},"tags":{"amenity":"restaurant","brand:wikidata":"Q108212427","cuisine":"chinese;hot_pot"},"addTags":{"amenity":"restaurant","brand":"小龙坎火锅","brand:en":"SHOO LOONG KAN","brand:wikidata":"Q108212427","brand:zh":"小龙坎火锅","cuisine":"chinese;hot_pot","name":"小龙坎火锅","name:en":"SHOO LOONG KAN","name:zh":"小龙坎火锅"}},"amenity/restaurant/chinese/baronrozirestaurant-0a8e9b":{"name":"巴依老爷","locationSet":{"include":["cn"]},"geometry":["point","area"],"matchScore":2,"terms":["baron rozi restaurant","روزى باي ربستزرانى","巴依老爷"],"reference":{"key":"cuisine","value":"chinese"},"tags":{"amenity":"restaurant","brand:wikidata":"Q109849169","cuisine":"chinese;kebab"},"addTags":{"amenity":"restaurant","brand":"巴依老爷","brand:en":"BARON ROZI RESTAURANT","brand:ug":"روزى باي ربستزرانى","brand:wikidata":"Q109849169","brand:zh":"巴依老爷","cuisine":"chinese;kebab","diet:halal":"only","name":"巴依老爷","name:en":"BARON ROZI RESTAURANT","name:ug":"روزى باي ربستزرانى","name:zh":"巴依老爷"}},"amenity/restaurant/guangzhourestaurant-0a8e9b":{"name":"广州酒家","locationSet":{"include":["cn"]},"geometry":["point","area"],"matchScore":2,"terms":["guangzhou restaurant","广州酒家","廣州酒家"],"tags":{"amenity":"restaurant","brand:wikidata":"Q11062214"},"addTags":{"amenity":"restaurant","brand":"广州酒家","brand:en":"Guangzhou Restaurant","brand:wikidata":"Q11062214","brand:wikipedia":"zh:广州酒家","brand:yue":"廣州酒家","brand:zh":"广州酒家","cuisine":"cantonese","name":"广州酒家","name:en":"Guangzhou Restaurant","name:yue":"廣州酒家","name:zh":"广州酒家"}},"amenity/restaurant/chinese/zhangliangspicyhotpot-789436":{"name":"张亮麻辣烫","locationSet":{"include":["au","cn","gb","jp","nz","sg","us"]},"geometry":["point","area"],"matchScore":2,"terms":["zhangliang spicy hot pot","张亮麻辣烫"],"reference":{"key":"cuisine","value":"chinese"},"tags":{"amenity":"restaurant","brand:wikidata":"Q108210279","cuisine":"chinese;hot_pot"},"addTags":{"amenity":"restaurant","brand":"张亮麻辣烫","brand:en":"Zhangliang Spicy Hot Pot","brand:wikidata":"Q108210279","brand:zh":"张亮麻辣烫","cuisine":"chinese;hot_pot","name":"张亮麻辣烫","name:en":"Zhangliang Spicy Hot Pot","name:zh":"张亮麻辣烫"}},"amenity/restaurant/pizza/pizzahut-0a8e9b":{"name":"必胜客 (中国)","locationSet":{"include":["cn"]},"geometry":["point","area"],"matchScore":2,"terms":["pizza hut","必胜客"],"reference":{"key":"cuisine","value":"pizza"},"tags":{"amenity":"restaurant","brand:wikidata":"Q191615","cuisine":"pizza"},"addTags":{"amenity":"restaurant","brand":"必胜客","brand:en":"Pizza Hut","brand:wikidata":"Q191615","brand:wikipedia":"zh:必胜客","brand:zh":"必胜客","cuisine":"pizza","name":"必胜客","name:en":"Pizza Hut","name:zh":"必胜客"}},"amenity/restaurant/chinese/yangguofuspicyhotpot-c61f2f":{"name":"杨国福麻辣烫","locationSet":{"include":["au","ca","cn","jp","kr","sg"]},"geometry":["point","area"],"matchScore":2,"terms":["yangguofu spicy hot pot","杨国福麻辣烫"],"reference":{"key":"cuisine","value":"chinese"},"tags":{"amenity":"restaurant","brand:wikidata":"Q108210209","cuisine":"chinese;hot_pot"},"addTags":{"amenity":"restaurant","brand":"杨国福麻辣烫","brand:en":"Yangguofu Spicy Hot Pot","brand:wikidata":"Q108210209","brand:zh":"杨国福麻辣烫","cuisine":"chinese;hot_pot","name":"杨国福麻辣烫","name:en":"Yangguofu Spicy Hot Pot","name:zh":"杨国福麻辣烫"}},"amenity/restaurant/chinese/songhelou-0a8e9b":{"name":"松鹤楼","locationSet":{"include":["cn"]},"geometry":["point","area"],"matchScore":2,"terms":["songhelou","松鹤楼","松鹤楼小馆","松鹤楼菜馆","松鹤楼酒楼"],"reference":{"key":"cuisine","value":"chinese"},"tags":{"amenity":"restaurant","brand:wikidata":"Q17026438","cuisine":"chinese"},"addTags":{"amenity":"restaurant","brand":"松鹤楼","brand:en":"Songhelou","brand:wikidata":"Q17026438","brand:wikipedia":"zh:松鹤楼","brand:zh":"松鹤楼","cuisine":"chinese","name":"松鹤楼","name:en":"Songhelou","name:zh":"松鹤楼"}},"amenity/restaurant/chinese/songhemianguan-0a8e9b":{"name":"松鹤面馆","locationSet":{"include":["cn"]},"geometry":["point","area"],"matchScore":2,"terms":["songhelou","songhemianguan","松鹤楼","松鹤楼苏式汤面","松鹤楼面馆","松鹤面馆"],"reference":{"key":"cuisine","value":"chinese"},"tags":{"amenity":"restaurant","brand:wikidata":"Q17026438","cuisine":"chinese"},"addTags":{"amenity":"restaurant","brand":"松鹤楼","brand:en":"Songhelou","brand:wikidata":"Q17026438","brand:wikipedia":"zh:松鹤楼","brand:zh":"松鹤楼","cuisine":"chinese","name":"松鹤面馆","name:en":"SongheMianGuan","name:zh":"松鹤面馆"}},"amenity/restaurant/pizza/bigpizza-0a8e9b":{"name":"比格披萨","locationSet":{"include":["cn"]},"geometry":["point","area"],"matchScore":2,"terms":["bigpizza","比格披萨","比格自助披萨"],"reference":{"key":"cuisine","value":"pizza"},"tags":{"amenity":"restaurant","brand:wikidata":"Q108167598","cuisine":"pizza"},"addTags":{"amenity":"restaurant","brand":"比格披萨","brand:en":"Bigpizza","brand:wikidata":"Q108167598","brand:zh":"比格披萨","cuisine":"pizza","name":"比格披萨","name:en":"Bigpizza","name:zh":"比格披萨"}},"amenity/restaurant/chinese/yonghesoymilk-0a8e9b":{"name":"永和豆浆 (中国)","locationSet":{"include":["cn"]},"geometry":["point","area"],"matchScore":2,"terms":["yonghe soy milk","永和豆浆","永和豆漿"],"reference":{"key":"cuisine","value":"chinese"},"tags":{"amenity":"restaurant","brand:wikidata":"Q11131335","cuisine":"chinese;breakfast"},"addTags":{"amenity":"restaurant","brand":"永和豆浆","brand:en":"Yonghe Soy Milk","brand:wikidata":"Q11131335","brand:wikipedia":"zh:永和豆漿","cuisine":"chinese;breakfast","name":"永和豆浆","name:en":"Yonghe Soy Milk","name:zh":"永和豆漿","name:zh-Hans":"永和豆浆","name:zh-Hant":"永和豆漿"}},"amenity/restaurant/chinese/haidilaohotpot-0a8e9b":{"name":"海底捞火锅","locationSet":{"include":["cn"]},"geometry":["point","area"],"matchScore":2,"terms":["hai di lao hot pot","海底捞","海底捞火锅"],"reference":{"key":"cuisine","value":"chinese"},"tags":{"amenity":"restaurant","brand:wikidata":"Q5638920","cuisine":"chinese;hot_pot"},"addTags":{"amenity":"restaurant","brand":"海底捞火锅","brand:en":"Hai Di Lao Hot Pot","brand:wikidata":"Q5638920","brand:wikipedia":"zh:海底捞","cuisine":"chinese;hot_pot","name":"海底捞火锅","name:en":"Hai Di Lao Hot Pot","name:zh-Hans":"海底捞火锅","name:zh-Hant":"海底撈火鍋"}},"amenity/restaurant/diandoude-0a8e9b":{"name":"点都德","locationSet":{"include":["cn"]},"geometry":["point","area"],"matchScore":2,"terms":["diandoude","点都德","點都德"],"tags":{"amenity":"restaurant","brand:wikidata":"Q97780269"},"addTags":{"amenity":"restaurant","brand":"点都德","brand:en":"Diandoude","brand:wikidata":"Q97780269","brand:wikipedia":"zh:点都德","brand:yue":"點都德","brand:zh":"点都德","cuisine":"cantonese","name":"点都德","name:en":"Diandoude","name:yue":"點都德","name:zh":"点都德"}},"amenity/restaurant/chinese/785320-0a8e9b":{"name":"田老师红烧肉","locationSet":{"include":["cn"]},"geometry":["point","area"],"matchScore":2,"terms":["田老师","田老师红烧肉"],"reference":{"key":"cuisine","value":"chinese"},"tags":{"amenity":"restaurant","brand:wikidata":"Q108485521","cuisine":"chinese"},"addTags":{"amenity":"restaurant","brand":"田老师红烧肉","brand:wikidata":"Q108485521","brand:zh":"田老师红烧肉","cuisine":"chinese","diet:halal":"no","name":"田老师红烧肉","name:zh":"田老师红烧肉"}},"amenity/restaurant/chinese/50bd51-0a8e9b":{"name":"眉州东坡","locationSet":{"include":["cn"]},"geometry":["point","area"],"matchScore":2,"terms":["眉州东坡","眉州东坡味道馆"],"reference":{"key":"cuisine","value":"chinese"},"tags":{"amenity":"restaurant","brand:wikidata":"Q96384368","cuisine":"chinese"},"addTags":{"amenity":"restaurant","brand":"眉州东坡","brand:wikidata":"Q96384368","brand:zh":"眉州东坡","cuisine":"chinese","diet:halal":"no","name":"眉州东坡","name:zh":"眉州东坡"}},"amenity/restaurant/chinese/ziguangyuan-0a8e9b":{"name":"紫光园","locationSet":{"include":["cn"]},"geometry":["point","area"],"matchScore":2,"terms":["zi guang yuan","紫光园","紫光园早餐","紫光园清真小吃","紫光园清真早点","紫光园特色小吃"],"reference":{"key":"cuisine","value":"chinese"},"tags":{"amenity":"restaurant","brand:wikidata":"Q110351138","cuisine":"chinese"},"addTags":{"amenity":"restaurant","brand":"紫光园","brand:en":"ZI GUANG YUAN","brand:wikidata":"Q110351138","brand:zh":"紫光园","cuisine":"chinese","diet:halal":"only","name":"紫光园","name:en":"ZI GUANG YUAN","name:zh":"紫光园"}},"amenity/restaurant/italian/saizeriya-43786b":{"name":"萨莉亚","locationSet":{"include":["cn","hk"]},"geometry":["point","area"],"matchScore":2,"terms":["saizeriya","萨莉亚"],"reference":{"key":"cuisine","value":"italian"},"tags":{"amenity":"restaurant","brand:wikidata":"Q886564","cuisine":"italian"},"addTags":{"amenity":"restaurant","brand":"萨莉亚","brand:en":"Saizeriya","brand:wikidata":"Q886564","brand:wikipedia":"zh:萨莉亚","brand:zh":"萨莉亚","cuisine":"italian","name":"萨莉亚","name:en":"Saizeriya","name:zh":"萨莉亚"}},"amenity/restaurant/chinese/westernmahua-0a8e9b":{"name":"西部马华","locationSet":{"include":["cn"]},"geometry":["point","area"],"matchScore":2,"terms":["western mahua","西部马华","西部马华丝路美食","西部马华牛肉面","西部马华西域美食"],"reference":{"key":"cuisine","value":"chinese"},"tags":{"amenity":"restaurant","brand:wikidata":"Q108485295","cuisine":"chinese"},"addTags":{"amenity":"restaurant","brand":"西部马华","brand:en":"Western Mahua","brand:wikidata":"Q108485295","brand:zh":"西部马华","cuisine":"chinese","diet:halal":"only","name":"西部马华","name:en":"Western Mahua","name:zh":"西部马华"}},"amenity/restaurant/chinese/cygnet-9461ad":{"name":"重庆小天鹅火锅","locationSet":{"include":["ca","cn"]},"geometry":["point","area"],"matchScore":2,"terms":["cygnet","小天鹅火锅","重庆小天鹅","重庆小天鹅火锅"],"reference":{"key":"cuisine","value":"chinese"},"tags":{"amenity":"restaurant","brand:wikidata":"Q108212568","cuisine":"chinese;hot_pot"},"addTags":{"amenity":"restaurant","brand":"重庆小天鹅火锅","brand:en":"CYGNET","brand:wikidata":"Q108212568","brand:zh":"重庆小天鹅火锅","cuisine":"chinese;hot_pot","name":"重庆小天鹅火锅","name:en":"CYGNET","name:zh":"重庆小天鹅火锅"}},"amenity/restaurant/chinese/axiangricenoodles-0a8e9b":{"name":"阿香米线","locationSet":{"include":["cn"]},"geometry":["point","area"],"matchScore":2,"terms":["axiang rice noodles","阿香米粉","阿香米线"],"reference":{"key":"cuisine","value":"chinese"},"tags":{"amenity":"restaurant","brand:wikidata":"Q108213039","cuisine":"chinese;rice_noodles"},"addTags":{"amenity":"restaurant","brand":"阿香米线","brand:en":"AXIANG Rice Noodles","brand:wikidata":"Q108213039","brand:zh":"阿香米线","cuisine":"chinese;rice_noodles","name":"阿香米线","name:en":"AXIANG Rice Noodles","name:zh":"阿香米线"}},"amenity/restaurant/taotaoju-0a8e9b":{"name":"陶陶居","locationSet":{"include":["cn"]},"geometry":["point","area"],"matchScore":2,"terms":["tao tao ju","to to kui","陶陶居"],"tags":{"amenity":"restaurant","brand:wikidata":"Q9012420"},"addTags":{"alt_name:en":"To To Kui","amenity":"restaurant","brand":"陶陶居","brand:en":"Tao Tao Ju","brand:wikidata":"Q9012420","brand:wikipedia":"zh:陶陶居","brand:yue":"陶陶居","brand:zh":"陶陶居","cuisine":"cantonese","name":"陶陶居","name:en":"Tao Tao Ju","name:yue":"陶陶居","name:zh":"陶陶居"}},"amenity/school/maplebear-89c128":{"name":"Maple Bear","locationSet":{"include":["ae","al","ar","au","bd","bg","br","ca","cn","gt","hk","hr","in","ke","kr","lk","ma","mx","my","np","om","pe","ph","py","ro","rs","sg","th","tk","ua","us","vn"]},"geometry":["area","point"],"matchScore":2,"terms":["maple bear"],"fields":["name","brand","{amenity/school}"],"tags":{"amenity":"school","brand:wikidata":"Q10324823"},"addTags":{"amenity":"school","brand":"Maple Bear","brand:wikidata":"Q10324823","brand:wikipedia":"pt:Maple Bear","name":"Maple Bear","operator:type":"private"}},"amenity/school/neworientalyounengschool-00bc78":{"name":"新东方优能中学","locationSet":{"include":["cn"]},"geometry":["area","point"],"matchScore":2,"terms":["new oriental education","new oriental youneng school","新东方","新东方优能中学"],"fields":["name","brand","{amenity/school}"],"tags":{"amenity":"school","brand:wikidata":"Q13631921"},"addTags":{"amenity":"school","brand":"新东方","brand:en":"New Oriental Education","brand:wikidata":"Q13631921","brand:wikipedia":"zh:新东方学校","brand:zh":"新东方","name":"新东方优能中学","name:en":"New Oriental Youneng School","name:zh":"新东方优能中学"}},"leisure/fitness_centre/yoga/lanyoga-8945e0":{"name":"兰瑜伽","locationSet":{"include":["cn"]},"geometry":["point","area"],"matchScore":2,"terms":["lan yoga","兰瑜伽","蘭瑜伽"],"reference":{"key":"sport","value":"yoga"},"tags":{"brand:wikidata":"Q108167358","leisure":"fitness_centre","sport":"yoga"},"addTags":{"brand":"兰瑜伽","brand:en":"Lan Yoga","brand:wikidata":"Q108167358","brand:zh":"兰瑜伽","leisure":"fitness_centre","name":"兰瑜伽","name:en":"Lan Yoga","name:zh":"兰瑜伽","sport":"yoga"}},"leisure/sports_centre/topgolf-fb63c7":{"name":"K1 Speed","locationSet":{"include":["ca","cn","do","fx","it","kr","kw","mx","us"]},"geometry":["point","area"],"matchScore":2,"terms":["k1 speed"],"tags":{"brand:wikidata":"Q105615897","leisure":"sports_centre"},"addTags":{"brand":"K1 Speed","brand:wikidata":"Q105615897","brand:wikipedia":"en:K1 Speed","leisure":"sports_centre","name":"Topgolf","sport":"karting"}},"leisure/sports_centre/topgolf-9025ef":{"name":"Topgolf","locationSet":{"include":["ae","au","cn","de","mx","th","uk","us"]},"geometry":["point","area"],"matchScore":2,"terms":["topgolf"],"tags":{"brand:wikidata":"Q7824379","leisure":"sports_centre"},"addTags":{"brand":"Topgolf","brand:wikidata":"Q7824379","brand:wikipedia":"en:Topgolf","leisure":"sports_centre","name":"Topgolf","sport":"golf"}},"office/coworking/ucommune-4ed4b9":{"name":"Ucommune (China)","locationSet":{"include":["cn"]},"geometry":["point","area"],"matchScore":2,"terms":["ucommune","优客工场"],"reference":{"key":"amenity","value":"coworking_space"},"tags":{"brand:wikidata":"Q60785187","office":"coworking"},"addTags":{"brand":"优客工场","brand:en":"Ucommune","brand:wikidata":"Q60785187","brand:wikipedia":"en:Ucommune","brand:zh":"优客工场","brand:zh-Hans":"优客工场","fee":"yes","name":"优客工场","name:en":"Ucommune","name:zh":"优客工场","name:zh-Hans":"优客工场","office":"coworking"}},"office/estate_agent/b7e613-17e349":{"name":"我爱我家","locationSet":{"include":["cn"]},"geometry":["point","area"],"matchScore":2,"terms":["我爱我家"],"tags":{"brand:wikidata":"Q21017079","office":"estate_agent"},"addTags":{"brand":"我爱我家","brand:wikidata":"Q21017079","brand:wikipedia":"zh:我爱我家 (房产公司)","name":"我爱我家","office":"estate_agent"}},"office/estate_agent/lianjia-17e349":{"name":"链家","locationSet":{"include":["cn"]},"geometry":["point","area"],"matchScore":2,"terms":["lianjia","链家"],"tags":{"brand:wikidata":"Q24836804","office":"estate_agent"},"addTags":{"brand":"链家","brand:en":"Lianjia","brand:wikidata":"Q24836804","brand:wikipedia":"en:Lianjia","brand:zh":"链家","name":"链家","name:en":"Lianjia","name:zh":"链家","office":"estate_agent"}},"office/insurance/chinalifeinsurance-07bd2d":{"name":"中国人寿保险","locationSet":{"include":["cn"]},"geometry":["point","area"],"matchScore":2,"terms":["china life insurance","中国人寿","中国人寿保险","中国人寿保险股份有限公司"],"fields":["name","brand","{office/insurance}"],"tags":{"brand:wikidata":"Q1073306","office":"insurance"},"addTags":{"alt_name":"中国人寿保险股份有限公司","brand":"中国人寿保险","brand:en":"China Life Insurance","brand:wikidata":"Q1073306","brand:wikipedia":"zh:中国人寿保险","brand:zh":"中国人寿保险","name":"中国人寿保险","name:en":"China Life Insurance","name:zh":"中国人寿保险","office":"insurance","short_name":"中国人寿"}},"office/insurance/picc-07bd2d":{"name":"中国人民保险","locationSet":{"include":["cn"]},"geometry":["point","area"],"matchScore":2,"terms":["picc","中国人保","中国人民保险"],"fields":["name","brand","{office/insurance}"],"tags":{"brand:wikidata":"Q1807264","office":"insurance"},"addTags":{"brand":"中国人民保险","brand:en":"PICC","brand:wikidata":"Q1807264","brand:wikipedia":"zh:中国人民保险集团","brand:zh":"中国人民保险","name":"中国人民保险","name:en":"PICC","name:zh":"中国人民保险","office":"insurance"}},"office/insurance/chinataiping-07bd2d":{"name":"中国太平","locationSet":{"include":["cn"]},"geometry":["point","area"],"matchScore":2,"terms":["china taiping","中国太平","中国太平保险"],"fields":["name","brand","{office/insurance}"],"tags":{"brand:wikidata":"Q4036130","office":"insurance"},"addTags":{"alt_name":"中国太平保险","brand":"中国太平","brand:en":"China Taiping","brand:wikidata":"Q4036130","brand:wikipedia":"zh:中國太平保險","brand:zh":"中国太平","name":"中国太平","name:en":"China Taiping","name:zh":"中国太平","office":"insurance"}},"office/insurance/pingan-07bd2d":{"name":"中国平安","locationSet":{"include":["cn"]},"geometry":["point","area"],"matchScore":2,"terms":["pingan","中国平安","中国平安保险","平保","平安保险"],"fields":["name","brand","{office/insurance}"],"tags":{"brand:wikidata":"Q1256188","office":"insurance"},"addTags":{"alt_name":"中国平安保险","brand":"中国平安","brand:en":"Pingan","brand:wikidata":"Q1256188","brand:wikipedia":"zh:中国平安","brand:zh":"中国平安","name":"中国平安","name:en":"Pingan","name:zh":"中国平安","office":"insurance"}},"office/insurance/cpic-07bd2d":{"name":"太平洋保险","locationSet":{"include":["cn"]},"geometry":["point","area"],"matchScore":2,"terms":["cpic","中国太保","中国太平洋保险","太保","太平洋保险"],"fields":["name","brand","{office/insurance}"],"tags":{"brand:wikidata":"Q1003813","office":"insurance"},"addTags":{"alt_name":"中国太平洋保险","brand":"太平洋保险","brand:en":"CPIC","brand:wikidata":"Q1003813","brand:wikipedia":"zh:中國太平洋保險","brand:zh":"太平洋保险","name":"太平洋保险","name:en":"CPIC","name:zh":"太平洋保险","office":"insurance"}},"office/telecommunication/chinatelecom-d026e9":{"name":"中国电信","locationSet":{"include":["cn"]},"geometry":["point","area"],"matchScore":2,"terms":["china telecom","中国电信","中国电信营业厅","电信5g营业厅","电信宽带","电信营业厅"],"tags":{"brand:wikidata":"Q1073540","office":"telecommunication"},"addTags":{"brand":"中国电信","brand:en":"China Telecom","brand:wikidata":"Q1073540","brand:wikipedia":"zh:中国电信","brand:zh":"中国电信","name":"中国电信","name:en":"China Telecom","name:zh":"中国电信","office":"telecommunication"}},"office/telecommunication/chinamobile-118b3c":{"name":"中国移动","locationSet":{"include":["cn","hk"]},"geometry":["point","area"],"matchScore":2,"terms":["china mobile","中国移动","中国移动营业厅","移动5g营业厅","移动宽带","移动营业厅"],"tags":{"brand:wikidata":"Q741618","office":"telecommunication"},"addTags":{"brand":"中国移动","brand:en":"China Mobile","brand:wikidata":"Q741618","brand:wikipedia":"zh:中国移动","brand:zh":"中国移动","name":"中国移动","name:en":"China Mobile","name:zh":"中国移动","office":"telecommunication"}},"office/telecommunication/chinaunicom-118b3c":{"name":"中国联通","locationSet":{"include":["cn","hk"]},"geometry":["point","area"],"matchScore":2,"terms":["china unicom","中国联通","中国联通营业厅","联通5g营业厅","联通宽带","联通营业厅"],"tags":{"brand:wikidata":"Q1068485","office":"telecommunication"},"addTags":{"brand":"中国联通","brand:en":"China Unicom","brand:wikidata":"Q1068485","brand:wikipedia":"zh:中国联通","brand:zh":"中国联通","name":"中国联通","name:en":"China Unicom","name:zh":"中国联通","office":"telecommunication"}},"shop/bakery/withwheat-c0ca1d":{"name":"原麦山丘","locationSet":{"include":["cn"]},"geometry":["point","area"],"matchScore":2,"terms":["with wheat","原麦山丘"],"tags":{"brand:wikidata":"Q61056698","shop":"bakery"},"addTags":{"brand":"原麦山丘","brand:en":"With Wheat","brand:wikidata":"Q61056698","brand:wikipedia":"zh:原麦山丘","brand:zh":"原麦山丘","name":"原麦山丘","name:en":"With Wheat","name:zh":"原麦山丘","shop":"bakery"}},"shop/bakery/wedome-c0ca1d":{"name":"味多美","locationSet":{"include":["cn"]},"geometry":["point","area"],"matchScore":2,"terms":["wedome","味多美"],"tags":{"brand:wikidata":"Q96323645","shop":"bakery"},"addTags":{"brand":"味多美","brand:en":"Wedome","brand:wikidata":"Q96323645","brand:wikipedia":"zh:味多美","name":"味多美","name:en":"Wedome","name:zh":"味多美","shop":"bakery"}},"shop/bakery/touslesjours-c0ca1d":{"name":"多乐之日","locationSet":{"include":["cn"]},"geometry":["point","area"],"matchScore":2,"terms":["tous les jours","多乐之日"],"tags":{"brand:wikidata":"Q3535609","shop":"bakery"},"addTags":{"brand":"多乐之日","brand:en":"Tous Les Jours","brand:wikidata":"Q3535609","brand:wikipedia":"zh:多乐之日","brand:zh":"多乐之日","name":"多乐之日","name:en":"Tous Les Jours","name:zh":"多乐之日","shop":"bakery"}},"shop/bakery/holiland-c0ca1d":{"name":"好利来","locationSet":{"include":["cn"]},"geometry":["point","area"],"matchScore":2,"terms":["holiland","好利来"],"tags":{"brand:wikidata":"Q97862657","shop":"bakery"},"addTags":{"brand":"好利来","brand:en":"Holiland","brand:wikidata":"Q97862657","brand:zh":"好利来","name":"好利来","name:en":"Holiland","name:zh":"好利来","shop":"bakery"}},"shop/bakery/parisbaguette-c0ca1d":{"name":"巴黎贝甜 (China)","locationSet":{"include":["cn"]},"geometry":["point","area"],"matchScore":2,"terms":["paris baguette","paris baguette cafe","巴黎貝甜","巴黎贝甜"],"tags":{"brand:wikidata":"Q62605260","shop":"bakery"},"addTags":{"brand":"巴黎贝甜","brand:en":"Paris Baguette","brand:wikidata":"Q62605260","brand:zh":"巴黎贝甜","name":"巴黎贝甜","name:en":"Paris Baguette","name:zh":"巴黎贝甜","shop":"bakery"}},"shop/bakery/breadtalk-c0ca1d":{"name":"面包新语","locationSet":{"include":["cn"]},"geometry":["point","area"],"matchScore":2,"terms":["breadtalk","面包新语"],"tags":{"brand:wikidata":"Q1106640","shop":"bakery"},"addTags":{"brand":"面包新语","brand:en":"BreadTalk","brand:wikidata":"Q1106640","brand:wikipedia":"zh:面包新语","brand:zh":"面包新语","name":"面包新语","name:en":"BreadTalk","name:zh":"面包新语","shop":"bakery"}},"shop/beauty/yvesrocher-a8af93":{"name":"伊夫黎雪","locationSet":{"include":["cn"]},"geometry":["point","area"],"matchScore":2,"terms":["yves rocher","伊夫黎雪"],"tags":{"brand:wikidata":"Q28496595","shop":"beauty"},"addTags":{"beauty":"cosmetics","brand":"伊夫黎雪","brand:en":"Yves Rocher","brand:wikidata":"Q28496595","brand:wikipedia":"zh:葉露芝","brand:zh":"伊夫黎雪","name":"伊夫黎雪","name:en":"Yves Rocher","name:zh":"伊夫黎雪","shop":"beauty"}},"shop/books/whsmith-1c7751":{"name":"WH史密斯","locationSet":{"include":["cn"]},"geometry":["point","area"],"matchScore":2,"terms":["whsmith","wh史密斯"],"tags":{"brand:wikidata":"Q1548712","shop":"books"},"addTags":{"brand":"WH史密斯","brand:en":"WHSmith","brand:wikidata":"Q1548712","brand:wikipedia":"zh:WH史密斯","brand:zh":"WH史密斯","name":"WH史密斯","name:en":"WHSmith","name:zh":"WH史密斯","shop":"books"}},"shop/books/citicbooks-1c7751":{"name":"中信书店","locationSet":{"include":["cn"]},"geometry":["point","area"],"matchScore":2,"terms":["citic books","中信书店"],"tags":{"brand:wikidata":"Q108178107","shop":"books"},"addTags":{"brand":"中信书店","brand:en":"CITIC Books","brand:wikidata":"Q108178107","brand:zh":"中信书店","name":"中信书店","name:en":"CITIC Books","name:zh":"中信书店","shop":"books"}},"shop/books/dazo-1c7751":{"name":"大众书局","locationSet":{"include":["cn"]},"geometry":["point","area"],"matchScore":2,"terms":["dazo","大众书局"],"tags":{"brand:wikidata":"Q108178095","shop":"books"},"addTags":{"brand":"大众书局","brand:en":"DAZO","brand:wikidata":"Q108178095","brand:zh":"大众书局","name":"大众书局","name:en":"DAZO","name:zh":"大众书局","shop":"books"}},"shop/books/dangdangyuejiebookstore-1c7751":{"name":"当当阅界书店","locationSet":{"include":["cn"]},"geometry":["point","area"],"matchScore":2,"terms":["dang dang yuejie bookstore","当当书店","当当阅界","当当阅界书店"],"tags":{"brand:wikidata":"Q108178124","shop":"books"},"addTags":{"brand":"当当阅界书店","brand:en":"Dang Dang Yuejie Bookstore","brand:wikidata":"Q108178124","brand:zh":"当当阅界书店","name":"当当阅界书店","name:en":"Dang Dang Yuejie Bookstore","name:zh":"当当阅界书店","shop":"books"}},"shop/books/xinhuabookstore-1c7751":{"name":"新华书店","locationSet":{"include":["cn"]},"geometry":["point","area"],"matchScore":2,"terms":["xinhua bookstore","新华书店"],"tags":{"brand:wikidata":"Q6124193","shop":"books"},"addTags":{"brand":"新华书店","brand:en":"Xinhua Bookstore","brand:wikidata":"Q6124193","brand:wikipedia":"zh:新华书店","brand:zh":"新华书店","name":"新华书店","name:en":"Xinhua Bookstore","name:zh":"新华书店","shop":"books"}},"shop/books/fandengbooks-1c7751":{"name":"樊登书店","locationSet":{"include":["cn"]},"geometry":["point","area"],"matchScore":2,"terms":["fan deng books","樊登书店","樊登读书会"],"tags":{"brand:wikidata":"Q108178138","shop":"books"},"addTags":{"brand":"樊登书店","brand:en":"FAN DENG BOOKS","brand:wikidata":"Q108178138","brand:zh":"樊登书店","name":"樊登书店","name:en":"FAN DENG BOOKS","name:zh":"樊登书店","operator":"樊登读书会","shop":"books"}},"shop/books/momicafe-1c7751":{"name":"猫的天空之城概念书店","locationSet":{"include":["cn"]},"geometry":["point","area"],"matchScore":2,"terms":["momibook","momicafe","猫的天空之城","猫的天空之城书店","猫的天空之城概念书店","猫空书店","猫空概念书店","苏州天空之城图书有限公司"],"tags":{"brand:wikidata":"Q16259482","shop":"books"},"addTags":{"brand":"猫的天空之城概念书店","brand:en":"Momicafe","brand:wikidata":"Q16259482","brand:wikipedia":"zh:猫的天空之城概念书店","brand:zh":"猫的天空之城概念书店","name":"猫的天空之城概念书店","name:en":"Momicafe","name:zh":"猫的天空之城概念书店","operator":"苏州天空之城图书有限公司","operator:en":"momibook","operator:zh":"苏州天空之城图书有限公司","shop":"books"}},"shop/books/sisyphebookstore-1c7751":{"name":"西西弗书店","locationSet":{"include":["cn"]},"geometry":["point","area"],"matchScore":2,"terms":["sisyphe bookstore","西西弗书店"],"tags":{"brand:wikidata":"Q15904402","shop":"books"},"addTags":{"brand":"西西弗书店","brand:en":"Sisyphe Bookstore","brand:wikidata":"Q15904402","brand:wikipedia":"zh:西西弗书店","brand:zh":"西西弗书店","name":"西西弗书店","name:en":"Sisyphe Bookstore","name:zh":"西西弗书店","shop":"books"}},"shop/books/yanjiyou-1c7751":{"name":"言几又","locationSet":{"include":["cn"]},"geometry":["point","area"],"matchScore":2,"terms":["yan ji you","言几又"],"tags":{"brand:wikidata":"Q56419889","shop":"books"},"addTags":{"brand":"言几又","brand:en":"Yan Ji You","brand:wikidata":"Q56419889","brand:wikipedia":"zh:言几又","brand:zh":"言几又","name":"言几又","name:en":"Yan Ji You","name:zh":"言几又","shop":"books"}},"shop/books/eslitebookstore-8835ab":{"name":"誠品書店","locationSet":{"include":["cn","tw"]},"geometry":["point","area"],"matchScore":2,"terms":["eslite bookstore","誠品書店"],"tags":{"brand:wikidata":"Q391988","shop":"books"},"addTags":{"brand":"誠品書店","brand:en":"Eslite Bookstore","brand:wikidata":"Q391988","brand:wikipedia":"zh:誠品書店","brand:zh":"誠品書店","name":"誠品書店","name:en":"Eslite Bookstore","name:zh":"誠品書店","shop":"books"}},"shop/books/monogram-1c7751":{"name":"墨格","locationSet":{"include":["cn"]},"geometry":["point","area"],"matchScore":2,"terms":["momibook","monogram","苏州天空之城图书有限公司","墨格"],"tags":{"brand:wikidata":"Q108178296","shop":"books"},"addTags":{"brand":"墨格","brand:en":"monogram","brand:wikidata":"Q108178296","brand:zh":"墨格","name":"墨格","name:en":"monogram","name:zh":"墨格","operator":"苏州天空之城图书有限公司","operator:en":"momibook","operator:zh":"苏州天空之城图书有限公司","shop":"books"}},"shop/car/buick-738dde":{"name":"Buick","locationSet":{"include":["ca","cn","mx","us"]},"geometry":["point","area"],"matchScore":2,"terms":["buick"],"fields":["name","brand","{shop/car}"],"tags":{"brand:wikidata":"Q27415","shop":"car"},"addTags":{"brand":"Buick","brand:wikidata":"Q27415","brand:wikipedia":"en:Buick","name":"Buick","shop":"car"}},"shop/car/karma-40d0fc":{"name":"Karma","locationSet":{"include":["be","ca","cn","ec","es","fr","il","is","nl","pa","se","us"]},"geometry":["point","area"],"matchScore":2,"terms":["karma automotive"],"fields":["name","brand","{shop/car}"],"tags":{"brand:wikidata":"Q22671741","shop":"car"},"addTags":{"brand":"Karma Automotive","brand:wikidata":"Q22671741","brand:wikipedia":"en:Karma Automotive","name":"Karma","shop":"car"}},"shop/car/koenigsegg-45c2de":{"name":"Koenigsegg","locationSet":{"include":["ae","au","ca","ch","cn","de","es","gb","jp","kr","lb","mx","my","om","pl","se","sg","th","tw","us","za"]},"geometry":["point","area"],"matchScore":2,"terms":["koenigsegg"],"fields":["name","brand","{shop/car}"],"tags":{"brand:wikidata":"Q35594","shop":"car"},"addTags":{"brand":"Koenigsegg","brand:wikidata":"Q35594","brand:wikipedia":"en:Koenigsegg","name":"Koenigsegg","shop":"car"}},"shop/car/polestar-adf3f2":{"name":"Polestar Spaces","locationSet":{"include":["be","ca","cn","de","gb","nl","no","se","us"]},"geometry":["point","area"],"matchScore":2,"terms":["polestar","polestar racing"],"fields":["name","brand","{shop/car}"],"tags":{"brand:wikidata":"Q4047174","shop":"car"},"addTags":{"brand":"Polestar","brand:wikidata":"Q4047174","brand:wikipedia":"en:Polestar","name":"Polestar","shop":"car"}},"shop/car/rimac-0f1e04":{"name":"Rimac","locationSet":{"include":["ae","ca","cn","de","es","gb","jp","mx","sg","us"]},"geometry":["point","area"],"matchScore":2,"terms":["rimac"],"fields":["name","brand","{shop/car}"],"tags":{"brand:wikidata":"Q7334368","shop":"car"},"addTags":{"brand":"Rimac","brand:wikidata":"Q7334368","brand:wikipedia":"en:Rimac Automobili","name":"Rimac","shop":"car"}},"shop/car/xpeng-115502":{"name":"小鹏汽车","locationSet":{"include":["cn"]},"geometry":["point","area"],"matchScore":2,"terms":["xpeng","小鹏汽车"],"fields":["name","brand","{shop/car}"],"tags":{"brand:wikidata":"Q63035278","shop":"car"},"addTags":{"brand":"小鹏汽车","brand:en":"Xpeng","brand:wikidata":"Q63035278","brand:wikipedia":"en:XPeng","brand:zh":"小鹏汽车","name":"小鹏汽车","name:en":"Xpeng","name:zh":"小鹏汽车","shop":"car"}},"shop/car/tesla-085584":{"name":"特斯拉","locationSet":{"include":["cn","tw"]},"geometry":["point","area"],"matchScore":2,"terms":["tesla","特斯拉"],"fields":["name","brand","{shop/car}"],"tags":{"brand:wikidata":"Q478214","shop":"car"},"addTags":{"brand":"特斯拉","brand:en":"Tesla","brand:wikidata":"Q478214","brand:wikipedia":"zh:特斯拉 (公司)","brand:zh":"特斯拉","name":"特斯拉","name:en":"Tesla","name:zh":"特斯拉","shop":"car"}},"shop/car/liauto-115502":{"name":"理想汽车","locationSet":{"include":["cn"]},"geometry":["point","area"],"matchScore":2,"terms":["li auto","理想汽车"],"fields":["name","brand","{shop/car}"],"tags":{"brand:wikidata":"Q98139925","shop":"car"},"addTags":{"brand":"理想汽车","brand:en":"Li Auto","brand:wikidata":"Q98139925","brand:wikipedia":"en:Li Auto","brand:zh":"理想汽车","name":"理想汽车","name:en":"Li Auto","name:zh":"理想汽车","shop":"car"}},"shop/car/nio-115502":{"name":"蔚来汽车","locationSet":{"include":["cn"]},"geometry":["point","area"],"matchScore":2,"terms":["nio","蔚来汽车"],"fields":["name","brand","{shop/car}"],"tags":{"brand:wikidata":"Q29921278","shop":"car"},"addTags":{"brand":"蔚来汽车","brand:en":"NIO","brand:wikidata":"Q29921278","brand:wikipedia":"en:NIO (car company)","brand:zh":"蔚来汽车","name":"蔚来汽车","name:en":"NIO","name:zh":"蔚来汽车","shop":"car"}},"shop/car_repair/greasemonkey-85d5b8":{"name":"Grease Monkey","locationSet":{"include":["cn","us"]},"geometry":["point","area"],"matchScore":2,"terms":["grease monkey"],"fields":["name","brand","{shop/car_repair}"],"tags":{"brand:wikidata":"Q5598563","shop":"car_repair"},"addTags":{"brand":"Grease Monkey","brand:wikidata":"Q5598563","brand:wikipedia":"en:Grease Monkey (business)","name":"Grease Monkey","shop":"car_repair"}},"shop/car_repair/suremoov-98f9a6":{"name":"小拇指","locationSet":{"include":["cn"]},"geometry":["point","area"],"matchScore":2,"terms":["suremoov","小拇指","小拇指快修","小拇指汽修","小拇指汽车维修"],"fields":["name","brand","{shop/car_repair}"],"tags":{"brand:wikidata":"Q108179026","shop":"car_repair"},"addTags":{"brand":"小拇指","brand:en":"SUREMOOV","brand:wikidata":"Q108179026","brand:zh":"小拇指","name":"小拇指","name:en":"SUREMOOV","name:zh":"小拇指","shop":"car_repair"}},"shop/chemist/watson-feffeb":{"name":"屈臣氏","locationSet":{"include":["cn","hk","tw"]},"geometry":["point","area"],"matchScore":2,"terms":["watson","屈臣氏"],"tags":{"brand:wikidata":"Q7974785","shop":"chemist"},"addTags":{"brand":"屈臣氏","brand:en":"Watson","brand:wikidata":"Q7974785","brand:wikipedia":"zh:屈臣氏個人護理店","brand:zh":"屈臣氏","name":"屈臣氏","name:en":"Watson","name:zh":"屈臣氏","shop":"chemist"}},"shop/clothes/04f53b-88aa58":{"name":"361度","locationSet":{"include":["cn"]},"geometry":["point","area"],"matchScore":2,"terms":["361˚","361度"],"tags":{"brand:wikidata":"Q10846067","shop":"clothes"},"addTags":{"brand":"361度","brand:en":"361˚","brand:wikidata":"Q10846067","brand:wikipedia":"en:361 Degrees","brand:zh":"361度","name":"361度","name:en":"361˚","name:zh":"361度","shop":"clothes"}},"shop/clothes/abercrombieandfitch-c69677":{"name":"Abercrombie & Fitch","locationSet":{"include":["ae","be","ca","cn","de","es","fr","gb","hk","ie","it","jp","kw","mx","nl","qa","sa","sg","us"]},"geometry":["point","area"],"matchScore":2,"terms":["abercrombie & fitch"],"tags":{"brand:wikidata":"Q319344","shop":"clothes"},"addTags":{"brand":"Abercrombie & Fitch","brand:wikidata":"Q319344","brand:wikipedia":"en:Abercrombie & Fitch","clothes":"men;women","name":"Abercrombie & Fitch","shop":"clothes"}},"shop/clothes/abercrombiekids-a75dc9":{"name":"Abercrombie Kids","locationSet":{"include":["ae","ca","cn","de","gb","it","nl","sg","us"]},"geometry":["point","area"],"matchScore":2,"terms":["abercrombie kids"],"tags":{"brand:wikidata":"Q429856","shop":"clothes"},"addTags":{"brand":"Abercrombie Kids","brand:wikidata":"Q429856","brand:wikipedia":"en:Abercrombie Kids","clothes":"children","name":"Abercrombie Kids","shop":"clothes"}},"shop/clothes/agnesb-600d6e":{"name":"Agnès B.","locationSet":{"include":["cn","de","fr","jp","ne","sg","tw","uk","us"]},"geometry":["point","area"],"matchScore":2,"terms":["agnès b."],"tags":{"brand:wikidata":"Q282967","shop":"clothes"},"addTags":{"brand":"Agnès B.","brand:wikidata":"Q282967","brand:wikipedia":"fr:Agnès b.","name":"Agnès B.","shop":"clothes"}},"shop/clothes/allsaints-37f446":{"name":"AllSaints","locationSet":{"include":["cn","fr","gb","ie","kr","mx","ru","us"]},"geometry":["point","area"],"matchScore":2,"terms":["allsaints"],"tags":{"brand:wikidata":"Q4728473","shop":"clothes"},"addTags":{"brand":"AllSaints","brand:wikidata":"Q4728473","brand:wikipedia":"en:AllSaints","name":"AllSaints","shop":"clothes"}},"shop/clothes/maje-99ba8f":{"name":"Maje","locationSet":{"include":["by","bg","cz","hu","pl","md","ro","ru","sk","ua","ax","gg","je","cq","dk","ee","fo","fi","is","ie","im","lv","lt","no","sj","se","gb","al","ad","ba","hr","gi","gr","va","it","mt","me","mk","pt","sm","rs","si","es","xk","at","be","fr","de","li","lu","mc","nl","ch","cn","hk","sg","tw","uk","us"]},"geometry":["point","area"],"matchScore":2,"terms":["maje"],"tags":{"brand:wikidata":"Q3280458","shop":"clothes"},"addTags":{"brand":"Maje","brand:wikidata":"Q3280458","brand:wikipedia":"fr:Maje","clothes":"women","name":"Maje","shop":"clothes"}},"shop/clothes/patagonia-7718c5":{"name":"Patagonia","locationSet":{"include":["ar","at","au","ca","cl","cn","cz","de","fx","gb","hk","ie","it","jp","kr","pe","tw","us"]},"geometry":["point","area"],"matchScore":2,"terms":["patagonia"],"tags":{"brand:wikidata":"Q1660552","shop":"clothes"},"addTags":{"brand":"Patagonia","brand:wikidata":"Q1660552","brand:wikipedia":"en:Patagonia, Inc.","clothes":"outdoor","name":"Patagonia","shop":"clothes"}},"shop/clothes/uniqlo-88aa58":{"name":"优衣库","locationSet":{"include":["cn"]},"geometry":["point","area"],"matchScore":2,"terms":["uniqlo","优衣库"],"tags":{"brand:wikidata":"Q26070","shop":"clothes"},"addTags":{"brand":"优衣库","brand:en":"Uniqlo","brand:wikidata":"Q26070","brand:wikipedia":"en:Uniqlo","brand:zh":"优衣库","name":"优衣库","name:en":"Uniqlo","name:zh":"优衣库","shop":"clothes"}},"shop/clothes/anta-88aa58":{"name":"安踏","locationSet":{"include":["cn"]},"geometry":["point","area"],"matchScore":2,"terms":["anta","安踏"],"tags":{"brand:wikidata":"Q4653060","shop":"clothes"},"addTags":{"brand":"安踏","brand:en":"Anta","brand:wikidata":"Q4653060","brand:wikipedia":"en:Anta Sports","brand:zh":"安踏","name":"安踏","name:en":"Anta","name:zh":"安踏","shop":"clothes"}},"shop/clothes/lining-88aa58":{"name":"李宁","locationSet":{"include":["cn"]},"geometry":["point","area"],"matchScore":2,"terms":["li-ning","李宁"],"tags":{"brand:wikidata":"Q1272525","shop":"clothes"},"addTags":{"brand":"李宁","brand:en":"Li-Ning","brand:wikidata":"Q1272525","brand:wikipedia":"en:Li-Ning","brand:zh":"李宁","name":"李宁","name:en":"Li-Ning","name:zh":"李宁","shop":"clothes"}},"shop/clothes/bosideng-88aa58":{"name":"波司登","locationSet":{"include":["cn"]},"geometry":["point","area"],"matchScore":2,"terms":["bosideng","波司登"],"tags":{"brand:wikidata":"Q4947278","shop":"clothes"},"addTags":{"brand":"波司登","brand:en":"Bosideng","brand:wikidata":"Q4947278","brand:wikipedia":"en:Bosideng","brand:zh":"波司登","name":"波司登","name:en":"Bosideng","name:zh":"波司登","shop":"clothes"}},"shop/clothes/hla-88aa58":{"name":"海澜之家","locationSet":{"include":["cn"]},"geometry":["point","area"],"matchScore":2,"terms":["hla","海澜之家"],"tags":{"brand:wikidata":"Q5699411","shop":"clothes"},"addTags":{"brand":"海澜之家","brand:en":"HLA","brand:wikidata":"Q5699411","brand:wikipedia":"zh:海澜之家","brand:zh":"海澜之家","name":"海澜之家","name:en":"HLA","name:zh":"海澜之家","shop":"clothes"}},"shop/clothes/xtep-88aa58":{"name":"特步","locationSet":{"include":["cn"]},"geometry":["point","area"],"matchScore":2,"terms":["xtep","特步"],"tags":{"brand:wikidata":"Q4021859","shop":"clothes"},"addTags":{"brand":"特步","brand:en":"Xtep","brand:wikidata":"Q4021859","brand:wikipedia":"en:Xtep","brand:zh":"特步","name":"特步","name:en":"Xtep","name:zh":"特步","shop":"clothes"}},"shop/convenience/circlek-b106b9":{"name":"OK便利店","locationSet":{"include":["cn","hk","mo"]},"geometry":["point","area"],"matchScore":2,"terms":["circle k","ok便利商店","ok便利店","ok便利店 circle k"],"tags":{"brand:wikidata":"Q3268010","shop":"convenience"},"addTags":{"brand":"OK便利店","brand:en":"Circle K","brand:wikidata":"Q3268010","brand:wikipedia":"zh:OK便利店","name":"OK便利店","name:en":"Circle K","shop":"convenience"}},"shop/convenience/usmile-da9ca7":{"name":"uSmile 昆仑好客","locationSet":{"include":["cn"]},"geometry":["point","area"],"matchScore":2,"terms":["usmile","usmile 便利店","usmile 昆仑好客","昆仑好","昆仑好客"],"tags":{"brand:wikidata":"Q66480830","shop":"convenience"},"addTags":{"brand":"uSmile 昆仑好客","brand:en":"uSmile","brand:wikidata":"Q66480830","brand:zh":"昆仑好客","name":"uSmile 昆仑好客","name:en":"uSmile","name:zh":"昆仑好客","shop":"convenience"}},"shop/convenience/zhongbaicvs-da9ca7":{"name":"中百便利","locationSet":{"include":["cn"]},"geometry":["point","area"],"matchScore":2,"terms":["zhongbai cv.s","中佰便利","中百便利","山东潍坊百货集团"],"tags":{"brand:wikidata":"Q107204561","shop":"convenience"},"addTags":{"brand":"中百便利","brand:en":"Zhongbai Cv.S","brand:wikidata":"Q107204561","brand:zh":"中百便利","name":"中百便利","name:en":"Zhongbai Cv.S","name:zh":"中百便利","operator":"山东潍坊百货集团","shop":"convenience"}},"shop/convenience/lawson-da9ca7":{"name":"中百罗森","locationSet":{"include":["cn"]},"geometry":["point","area"],"matchScore":2,"terms":["lawson","中百仓储","中百仓储超市","中百罗森","中百罗森便利","中百超市","好邦便利","武汉中百罗森便利店有限公司"],"tags":{"brand:wikidata":"Q10875930","shop":"convenience"},"addTags":{"brand":"中百罗森","brand:en":"Lawson","brand:wikidata":"Q10875930","brand:wikipedia":"zh:中百仓储","brand:zh":"中百罗森","name":"中百罗森","name:en":"Lawson","name:zh":"中百罗森","operator":"武汉中百罗森便利店有限公司","shop":"convenience"}},"shop/convenience/bianlifeng-da9ca7":{"name":"便利蜂","locationSet":{"include":["cn"]},"geometry":["point","area"],"matchScore":2,"terms":["bianlifeng","便利蜂"],"tags":{"brand:wikidata":"Q95975982","shop":"convenience"},"addTags":{"brand":"便利蜂","brand:en":"Bianlifeng","brand:wikidata":"Q95975982","brand:wikipedia":"zh:便利蜂","brand:zh":"便利蜂","name":"便利蜂","name:en":"Bianlifeng","name:zh":"便利蜂","shop":"convenience"}},"shop/convenience/familymart-da9ca7":{"name":"全家","locationSet":{"include":["cn"]},"geometry":["point","area"],"matchScore":2,"terms":["familymart","全家"],"tags":{"brand:wikidata":"Q1191685","shop":"convenience"},"addTags":{"brand":"全家","brand:en":"FamilyMart","brand:wikidata":"Q1191685","brand:wikipedia":"zh:FamilyMart","name":"全家","name:en":"FamilyMart","shop":"convenience"}},"shop/convenience/cstore-da9ca7":{"name":"喜士多","locationSet":{"include":["cn"]},"geometry":["point","area"],"matchScore":2,"terms":["c-store","喜士多"],"tags":{"brand:wikidata":"Q60992580","shop":"convenience"},"addTags":{"brand":"喜士多","brand:en":"C-Store","brand:wikidata":"Q60992580","brand:wikipedia":"zh:喜士多","brand:zh":"喜士多","name":"喜士多","name:en":"C-Store","name:zh":"喜士多","shop":"convenience"}},"shop/convenience/easyjoy-da9ca7":{"name":"易捷","locationSet":{"include":["cn"]},"geometry":["point","area"],"matchScore":2,"terms":["easy joy","易捷","易捷便利店"],"tags":{"brand:wikidata":"Q108301051","shop":"convenience"},"addTags":{"brand":"易捷","brand:en":"Easy Joy","brand:wikidata":"Q108301051","brand:zh":"易捷","name":"易捷","name:en":"Easy Joy","name:zh":"易捷","shop":"convenience"}},"shop/convenience/yonghuisuperstores-da9ca7":{"name":"永辉超市","locationSet":{"include":["cn"]},"geometry":["point","area"],"matchScore":2,"terms":["yonghui superstores","永辉超市"],"tags":{"brand:wikidata":"Q17028520","shop":"convenience"},"addTags":{"brand":"永辉超市","brand:en":"Yonghui Superstores","brand:wikidata":"Q17028520","brand:wikipedia":"zh:永辉超市","brand:zh":"永辉超市","name":"永辉超市","name:en":"Yonghui Superstores","name:zh":"永辉超市","shop":"convenience"}},"shop/convenience/freshhema-da9ca7":{"name":"盒马鲜生","locationSet":{"include":["cn"]},"geometry":["point","area"],"matchScore":2,"terms":["fresh hema","盒马鲜生"],"tags":{"brand:wikidata":"Q58617964","shop":"convenience"},"addTags":{"brand":"盒马鲜生","brand:en":"fresh hema","brand:wikidata":"Q58617964","brand:wikipedia":"zh:盒馬鮮生","brand:zh":"盒马鲜生","name":"盒马鲜生","name:en":"fresh hema","name:zh":"盒马鲜生","shop":"convenience"}},"shop/convenience/meiyijia-da9ca7":{"name":"美宜佳","locationSet":{"include":["cn"]},"geometry":["point","area"],"matchScore":2,"terms":["meiyijia","美宜佳"],"tags":{"brand:wikidata":"Q97300244","shop":"convenience"},"addTags":{"brand":"美宜佳","brand:en":"Meiyijia","brand:wikidata":"Q97300244","brand:wikipedia":"zh:美宜佳","brand:zh":"美宜佳","name":"美宜佳","name:en":"Meiyijia","name:zh":"美宜佳","shop":"convenience"}},"shop/convenience/bjcsf-da9ca7":{"name":"超市发","locationSet":{"include":["cn"]},"geometry":["point","area"],"matchScore":2,"terms":["bjcsf","超市发"],"tags":{"brand:wikidata":"Q108167392","shop":"convenience"},"addTags":{"brand":"超市发","brand:en":"bjcsf","brand:wikidata":"Q108167392","brand:zh":"超市发","name":"超市发","name:en":"bjcsf","name:zh":"超市发","shop":"convenience"}},"shop/cosmetics/bobbibrown-dab93b":{"name":"芭比波朗","locationSet":{"include":["cn"]},"geometry":["point","area"],"matchScore":2,"terms":["bobbi brown","芭比波朗"],"tags":{"brand:wikidata":"Q105132734","shop":"cosmetics"},"addTags":{"brand":"芭比波朗","brand:en":"Bobbi Brown","brand:wikidata":"Q105132734","brand:zh":"芭比波朗","name":"芭比波朗","name:en":"Bobbi Brown","name:zh":"芭比波朗","shop":"cosmetics"}},"shop/dairy/bluebear-9640d8":{"name":"兰熊","locationSet":{"include":["cn"]},"geometry":["point","area"],"matchScore":2,"terms":["blue bear","兰熊","兰熊酸奶","兰熊鲜奶","北京兰熊","蓝熊酸奶","蓝熊鲜奶"],"tags":{"brand:wikidata":"Q110310500","shop":"dairy"},"addTags":{"brand":"兰熊","brand:en":"BLUE BEAR","brand:wikidata":"Q110310500","brand:zh":"兰熊","name":"兰熊","name:en":"兰熊","name:zh":"BLUE BEAR","shop":"dairy","takeaway":"yes"}},"shop/deli/jiujiuyafood-5c76da":{"name":"久久丫","locationSet":{"include":["cn"]},"geometry":["point","area"],"matchScore":2,"terms":["jiujiuya food","久久丫","久久丫鸭脖","久久鸭"],"tags":{"brand:wikidata":"Q108484661","shop":"deli"},"addTags":{"brand":"久久丫","brand:en":"Jiujiuya Food","brand:wikidata":"Q108484661","brand:zh":"久久丫","name":"久久丫","name:en":"Jiujiuya Food","name:zh":"久久丫","shop":"deli"}},"shop/deli/zhouheiya-5c76da":{"name":"周黑鸭","locationSet":{"include":["cn"]},"geometry":["point","area"],"matchScore":2,"terms":["zhouheiya","周黑鸭"],"tags":{"brand:wikidata":"Q15911728","shop":"deli"},"addTags":{"brand":"周黑鸭","brand:en":"Zhouheiya","brand:wikidata":"Q15911728","brand:wikipedia":"zh:周黑鸭","brand:zh":"周黑鸭","name":"周黑鸭","name:en":"Zhouheiya","name:zh":"周黑鸭","shop":"deli"}},"shop/deli/liaojibangbangji-5c76da":{"name":"廖记棒棒鸡","locationSet":{"include":["cn"]},"geometry":["point","area"],"matchScore":2,"terms":["liaojibangbangji","廖记棒棒鸡"],"tags":{"brand:wikidata":"Q108484708","shop":"deli"},"addTags":{"brand":"廖记棒棒鸡","brand:en":"Liaojibangbangji","brand:wikidata":"Q108484708","brand:zh":"廖记棒棒鸡","name":"廖记棒棒鸡","name:en":"Liaojibangbangji","name:zh":"廖记棒棒鸡","shop":"deli"}},"shop/deli/huangshanghuang-5c76da":{"name":"煌上煌","locationSet":{"include":["cn"]},"geometry":["point","area"],"matchScore":2,"terms":["huangshanghuang","煌上煌"],"tags":{"brand:wikidata":"Q15954067","shop":"deli"},"addTags":{"brand":"煌上煌","brand:en":"Huangshanghuang","brand:wikidata":"Q15954067","brand:wikipedia":"zh:煌上煌","brand:zh":"煌上煌","name":"煌上煌","name:en":"Huangshanghuang","name:zh":"煌上煌","shop":"deli"}},"shop/deli/jueweiduckneck-5c76da":{"name":"绝味鸭脖","locationSet":{"include":["cn"]},"geometry":["point","area"],"matchScore":2,"terms":["juewei duck neck","绝味","绝味鸭脖"],"tags":{"brand:wikidata":"Q17573681","shop":"deli"},"addTags":{"brand":"绝味鸭脖","brand:en":"Juewei Duck Neck","brand:wikidata":"Q17573681","brand:wikipedia":"zh:绝味食品","brand:zh":"绝味鸭脖","name":"绝味鸭脖","name:en":"Juewei Duck Neck","name:zh":"绝味鸭脖","shop":"deli"}},"shop/department_store/galerieslafayette-b7f45a":{"name":"Galeries Lafayette","locationSet":{"include":["ae","cn","de","fr","id","lu","qa","tr"]},"geometry":["point","area"],"matchScore":2,"terms":["galeries lafayette"],"tags":{"brand:wikidata":"Q3094686","shop":"department_store"},"addTags":{"brand":"Galeries Lafayette","brand:wikidata":"Q3094686","brand:wikipedia":"fr:Galeries Lafayette","name":"Galeries Lafayette","shop":"department_store"}},"shop/department_store/lottedepartmentstore-256de8":{"name":"Lotte Department Store","locationSet":{"include":["cn","id","kr","ru","vn"]},"geometry":["point","area"],"matchScore":2,"terms":["lotte","lotte department store"],"tags":{"brand:wikidata":"Q489905","shop":"department_store"},"addTags":{"brand":"Lotte Department Store","brand:wikidata":"Q489905","brand:wikipedia":"en:Lotte Department Store","name":"Lotte Department Store","shop":"department_store"}},"shop/department_store/printemps-b3d693":{"name":"Printemps","locationSet":{"include":["ad","cn","fr","jp","sa"]},"geometry":["point","area"],"matchScore":2,"terms":["printemps"],"tags":{"brand:wikidata":"Q1535260","shop":"department_store"},"addTags":{"brand":"Printemps","brand:wikidata":"Q1535260","brand:wikipedia":"fr:Printemps (grands magasins)","name":"Printemps","shop":"department_store"}},"shop/department_store/muji-e1728b":{"name":"無印良品","locationSet":{"include":["cn","jp","my","sg","tw"]},"geometry":["point","area"],"matchScore":2,"terms":["muji","ryohin keikaku","無印良品","良品計画"],"tags":{"brand:wikidata":"Q708789","shop":"department_store"},"addTags":{"brand":"無印良品","brand:en":"Muji","brand:ja":"無印良品","brand:wikidata":"Q708789","brand:wikipedia":"ja:良品計画","name":"無印良品","name:en":"Muji","name:ja":"無印良品","official_name:en":"Ryohin Keikaku","shop":"department_store"}},"shop/department_store/parkson-05ca83":{"name":"百盛百货","locationSet":{"include":["cn"]},"geometry":["point","area"],"matchScore":2,"terms":["parkson","百盛","百盛百货"],"tags":{"brand:wikidata":"Q835145","shop":"department_store"},"addTags":{"brand":"百盛","brand:en":"Parkson","brand:wikidata":"Q835145","brand:wikipedia":"zh:百盛","brand:zh":"百盛","name":"百盛百货","name:en":"Parkson","name:zh":"百盛百货","shop":"department_store"}},"shop/dry_cleaning/fornet-0dec54":{"name":"福莱特","locationSet":{"include":["cn"]},"geometry":["point","area"],"matchScore":2,"terms":["fornet","福莱特"],"tags":{"brand:wikidata":"Q108167403","shop":"dry_cleaning"},"addTags":{"brand":"福莱特","brand:en":"Fornet","brand:wikidata":"Q108167403","brand:zh":"福莱特","name":"福莱特","name:en":"Fornet","name:zh":"福莱特","shop":"dry_cleaning"}},"shop/e-cigarette/relx-7fbba5":{"name":"悦刻","locationSet":{"include":["cn"]},"geometry":["point","area"],"matchScore":2,"terms":["relx","悦刻"],"tags":{"brand:wikidata":"Q108167468","shop":"e-cigarette"},"addTags":{"brand":"悦刻","brand:en":"RELX","brand:wikidata":"Q108167468","brand:zh":"悦刻","name":"悦刻","name:en":"RELX","name:zh":"悦刻","shop":"e-cigarette"}},"shop/electronics/gomeelectricalappliances-8750c0":{"name":"国美电器","locationSet":{"include":["cn"]},"geometry":["point","area"],"matchScore":2,"terms":["gome electrical appliances","国美","国美家电","国美电器"],"tags":{"brand:wikidata":"Q1486322","shop":"electronics"},"addTags":{"brand":"国美电器","brand:en":"GOME Electrical Appliances","brand:wikidata":"Q1486322","brand:wikipedia":"en:GOME Electrical Appliances","brand:zh":"国美电器","name":"国美电器","name:en":"GOME Electrical Appliances","name:zh":"国美电器","shop":"electronics"}},"shop/electronics/suning-8750c0":{"name":"苏宁易购","locationSet":{"include":["cn"]},"geometry":["point","area"],"matchScore":2,"terms":["suning","苏宁","苏宁家电","苏宁易购","苏宁电器"],"tags":{"brand:wikidata":"Q17066824","shop":"electronics"},"addTags":{"brand":"苏宁易购","brand:en":"Suning","brand:wikidata":"Q17066824","brand:wikipedia":"zh:苏宁易购 (网站)","brand:zh":"苏宁易购","name":"苏宁易购","name:en":"Suning","name:zh":"苏宁易购","shop":"electronics"}},"shop/electronics/sundan-8750c0":{"name":"顺电","locationSet":{"include":["cn"]},"geometry":["point","area"],"matchScore":2,"terms":["sundan","顺电"],"tags":{"brand:wikidata":"Q24837717","shop":"electronics"},"addTags":{"brand":"顺电","brand:en":"Sundan","brand:wikidata":"Q24837717","brand:wikipedia":"zh:顺电","brand:zh":"顺电","name":"顺电","name:en":"Sundan","name:zh":"顺电","shop":"electronics"}},"shop/fashion_accessories/mulberry-e1f087":{"name":"Mulberry","locationSet":{"include":["ae","au","ca","ch","cn","de","dk","fi","gb","ie","jp","kr","my","nl","no","se","sg","th","us"]},"geometry":["point","area"],"matchScore":2,"terms":["mulberry"],"tags":{"brand:wikidata":"Q3866987","shop":"fashion_accessories"},"addTags":{"brand":"Mulberry","brand:wikidata":"Q3866987","brand:wikipedia":"en:Mulberry (company)","name":"Mulberry","shop":"fashion_accessories"}},"shop/furniture/chateaudax-c96b56":{"name":"Chateau d'Ax","locationSet":{"include":["ao","be","ca","ch","cn","de","es","fx","gp","hk","hr","it","ma","mq","mt","mu","mz","pt","re","sg","si","tn","tw","us","vn"]},"geometry":["point","area"],"matchScore":2,"terms":["chateau d'ax"],"tags":{"brand:wikidata":"Q100249791","shop":"furniture"},"addTags":{"brand":"Chateau d'Ax","brand:wikidata":"Q100249791","name":"Chateau d'Ax","shop":"furniture"}},"shop/furniture/ikea-b675b4":{"name":"宜家家居","locationSet":{"include":["cn"]},"geometry":["point","area"],"matchScore":2,"terms":["ikea","宜家","宜家家居"],"tags":{"brand:wikidata":"Q54078","shop":"furniture"},"addTags":{"brand":"宜家家居","brand:en":"IKEA","brand:wikidata":"Q54078","brand:wikipedia":"zh:宜家家居","brand:zh":"宜家家居","name":"宜家家居","name:en":"IKEA","name:zh":"宜家家居","shop":"furniture"}},"shop/greengrocer/lejia100-98c5dd":{"name":"乐家生鲜","locationSet":{"include":["cn"]},"geometry":["point","area"],"matchScore":2,"terms":["lejia100","乐家生鲜","肉联邦"],"tags":{"brand:wikidata":"Q110398460","shop":"greengrocer"},"addTags":{"brand":"乐家生鲜","brand:en":"Lejia100","brand:wikidata":"Q110398460","brand:zh":"乐家生鲜","name":"乐家生鲜","name:en":"Lejia100","name:zh":"乐家生鲜","shop":"greengrocer"}},"shop/greengrocer/guoweiyi-98c5dd":{"name":"果唯伊","locationSet":{"include":["cn"]},"geometry":["point","area"],"matchScore":2,"terms":["guoweiyi","果唯伊"],"tags":{"brand:wikidata":"Q108167377","shop":"greengrocer"},"addTags":{"brand":"果唯伊","brand:en":"Guoweiyi","brand:wikidata":"Q108167377","brand:zh":"果唯伊","name":"果唯伊","name:en":"Guoweiyi","name:zh":"果唯伊","shop":"greengrocer"}},"shop/greengrocer/ypshengxian-98c5dd":{"name":"谊品生鲜","locationSet":{"include":["cn"]},"geometry":["point","area"],"matchScore":2,"terms":["yp shengxian","谊品生鲜"],"tags":{"brand:wikidata":"Q110398461","shop":"greengrocer"},"addTags":{"brand":"谊品生鲜","brand:en":"YP Shengxian","brand:wikidata":"Q110398461","brand:zh":"谊品生鲜","name":"谊品生鲜","name:en":"YP Shengxian","name:zh":"谊品生鲜","shop":"greengrocer"}},"shop/greengrocer/qdama-98c5dd":{"name":"钱大妈","locationSet":{"include":["cn"]},"geometry":["point","area"],"matchScore":2,"terms":["qdama","钱大妈"],"tags":{"brand:wikidata":"Q109342535","shop":"greengrocer"},"addTags":{"brand":"钱大妈","brand:en":"QDama","brand:wikidata":"Q109342535","brand:wikipedia":"zh:钱大妈","brand:zh":"钱大妈","name":"钱大妈","name:en":"QDama","name:zh":"钱大妈","shop":"greengrocer"}},"shop/herbalist/euyanseng-7fb5c8":{"name":"Eu Yan Seng","locationSet":{"include":["au","cn","hk","my","sg"]},"geometry":["point","area"],"matchScore":2,"terms":["eu yan seng","余仁生"],"tags":{"brand:wikidata":"Q4207246","shop":"herbalist"},"addTags":{"brand":"Eu Yan Seng","brand:en":"Eu Yan Seng","brand:wikidata":"Q4207246","brand:wikipedia":"en:Eu Yan Sang","brand:zh":"余仁生","name":"Eu Yan Seng","name:en":"Eu Yan Seng","name:zh":"余仁生","shop":"herbalist"}},"shop/jewelry/lukfookjewellery-b792ed":{"name":"六福珠宝","locationSet":{"include":["au","ca","cn","kh","my","sg","us"]},"geometry":["point","area"],"matchScore":2,"terms":["lukfook jewellery","六福珠宝"],"tags":{"brand:wikidata":"Q10893397","shop":"jewelry"},"addTags":{"brand":"六福珠宝","brand:en":"LukFook Jewellery","brand:wikidata":"Q10893397","brand:wikipedia":"en:Lukfook","brand:zh":"六福珠宝","name":"六福珠宝","name:en":"LukFook Jewellery","name:zh":"六福珠宝","shop":"jewelry"}},"shop/jewelry/chowtaifook-9d8a9e":{"name":"周大福","locationSet":{"include":["cn","jp","kr","my","sg","tw","us"]},"geometry":["point","area"],"matchScore":2,"terms":["chow tai fook","周大福"],"tags":{"brand:wikidata":"Q48880993","shop":"jewelry"},"addTags":{"brand":"周大福","brand:en":"Chow Tai Fook","brand:wikidata":"Q48880993","brand:wikipedia":"en:Chow Tai Fook Jewellery Group","brand:zh":"周大福","name":"周大福","name:en":"Chow Tai Fook","name:zh":"周大福","shop":"jewelry"}},"shop/jewelry/chowsangsang-d54b30":{"name":"周生生","locationSet":{"include":["cn","tw"]},"geometry":["point","area"],"matchScore":2,"terms":["chow sang sang","周生生"],"tags":{"brand:wikidata":"Q10920877","shop":"jewelry"},"addTags":{"brand":"周生生","brand:en":"Chow Sang Sang","brand:wikidata":"Q10920877","brand:wikipedia":"en:Chow Sang Sang","brand:zh":"周生生","name":"周生生","name:en":"Chow Sang Sang","name:zh":"周生生","shop":"jewelry"}},"shop/jewelry/laofengxiang-c03559":{"name":"老凤祥","locationSet":{"include":["au","ca","cn","us"]},"geometry":["point","area"],"matchScore":2,"terms":["lao feng xiang","老凤祥"],"tags":{"brand:wikidata":"Q15910313","shop":"jewelry"},"addTags":{"brand":"老凤祥","brand:en":"Lao Feng Xiang","brand:wikidata":"Q15910313","brand:wikipedia":"en:Lao Feng Xiang","brand:zh":"老凤祥","name":"老凤祥","name:en":"Lao Feng Xiang","name:zh":"老凤祥","shop":"jewelry"}},"shop/kitchen/ixina-d089d8":{"name":"Ixina","locationSet":{"include":["ae","au","be","bf","bh","bj","ca","ci","cm","cn","cz","dz","ee","eg","fr","gh","hr","ke","kw","lu","ly","ma","mu","nl","pl","qa","ro","ru","sa","se","sn","tg","th","tn","vn"]},"geometry":["point","area"],"matchScore":2,"terms":["ixina"],"tags":{"brand:wikidata":"Q3156424","shop":"kitchen"},"addTags":{"brand":"Ixina","brand:wikidata":"Q3156424","brand:wikipedia":"fr:Ixina","name":"Ixina","shop":"kitchen"}},"shop/lottery/chinasportslottery-e182e4":{"name":"中国体育彩票","locationSet":{"include":["cn"]},"geometry":["point","area"],"matchScore":2,"terms":["china sports lottery","中国体彩","中国体育彩票","体彩"],"tags":{"brand:wikidata":"Q55696773","shop":"lottery"},"addTags":{"brand":"中国体育彩票","brand:en":"China Sports Lottery","brand:wikidata":"Q55696773","brand:wikipedia":"zh:中国体育彩票","brand:zh":"中国体育彩票","name":"中国体育彩票","name:en":"China Sports Lottery","name:zh":"中国体育彩票","shop":"lottery"}},"shop/lottery/chinawelfarelottery-e182e4":{"name":"中国福利彩票","locationSet":{"include":["cn"]},"geometry":["point","area"],"matchScore":2,"terms":["china welfare lottery","中国福利彩票","中国福彩","福彩"],"tags":{"brand:wikidata":"Q9384250","shop":"lottery"},"addTags":{"brand":"中国福利彩票","brand:en":"China Welfare Lottery","brand:wikidata":"Q9384250","brand:wikipedia":"zh:中国福利彩票","brand:zh":"中国福利彩票","name":"中国福利彩票","name:en":"China Welfare Lottery","name:zh":"中国福利彩票","shop":"lottery"}},"shop/mobile_phone/huawei-a9769c":{"name":"华为","locationSet":{"include":["cn"]},"geometry":["point","area"],"matchScore":2,"terms":["huawei","华为"],"tags":{"brand:wikidata":"Q160120","shop":"mobile_phone"},"addTags":{"brand":"华为","brand:en":"Huawei","brand:wikidata":"Q160120","brand:wikipedia":"zh:华为","brand:zh":"华为","name":"华为","name:en":"Huawei","name:zh":"华为","shop":"mobile_phone"}},"shop/mobile_phone/xiaomi-a9769c":{"name":"小米","locationSet":{"include":["cn"]},"geometry":["point","area"],"matchScore":2,"terms":["xiaomi","小米","小米之家"],"tags":{"brand:wikidata":"Q1636958","shop":"mobile_phone"},"addTags":{"brand":"小米","brand:en":"Xiaomi","brand:wikidata":"Q1636958","brand:wikipedia":"zh:小米集團","brand:zh":"小米之家","name":"小米之家","name:en":"Xiaomi","name:zh":"小米之家","shop":"mobile_phone"}},"shop/mobile_phone/honor-a9769c":{"name":"荣耀/Honor","locationSet":{"include":["cn"]},"geometry":["point","area"],"matchScore":2,"terms":["honor","荣耀"],"tags":{"brand:wikidata":"Q27070331","shop":"mobile_phone"},"addTags":{"brand":"荣耀","brand:en":"Honor","brand:wikidata":"Q27070331","brand:wikipedia":"zh:荣耀终端","brand:zh":"荣耀","name":"荣耀","name:en":"Honor","name:zh":"荣耀","shop":"mobile_phone"}},"shop/pastry/beijingdaoxiangcun-f204a7":{"name":"稻香村（北京）","locationSet":{"include":["cn"]},"geometry":["point","area"],"matchScore":2,"terms":["beijing daoxiangcun","北京稻香村","北京稻香村食品有限责任公司"],"tags":{"brand:wikidata":"Q15934678","shop":"pastry"},"addTags":{"brand":"北京稻香村","brand:en":"Beijing DaoXiangCun","brand:wikidata":"Q15934678","brand:wikipedia":"zh:北京稻香村","brand:zh":"北京稻香村","cuisine":"chinese","diet:halal":"no","name":"北京稻香村","name:en":"Beijing DaoXiangCun","name:zh":"北京稻香村","operator":"北京稻香村食品有限责任公司","operator:zh":"北京稻香村食品有限责任公司","shop":"pastry"}},"shop/pastry/daoxiangcun-f204a7":{"name":"稻香村（苏州）","locationSet":{"include":["cn"]},"geometry":["point","area"],"matchScore":2,"terms":["daoxiangcun","稻香村","苏州稻香村食品有限公司"],"tags":{"brand:wikidata":"Q10452498","shop":"pastry"},"addTags":{"brand":"稻香村","brand:en":"DaoXiangCun","brand:wikidata":"Q10452498","brand:wikipedia":"zh:苏州稻香村","brand:zh":"稻香村","cuisine":"chinese","diet:halal":"no","name":"稻香村","name:en":"DaoXiangCun","name:zh":"稻香村","operator":"苏州稻香村食品有限公司","operator:zh":"苏州稻香村食品有限公司","shop":"pastry"}},"shop/photo/ca79e5-723043":{"name":"彩色熊猫","locationSet":{"include":["cn"]},"geometry":["point","area"],"matchScore":2,"terms":["彩色熊猫"],"tags":{"brand:wikidata":"Q108403887","shop":"photo"},"addTags":{"brand":"彩色熊猫","brand:wikidata":"Q108403887","brand:zh":"彩色熊猫","name":"彩色熊猫","name:zh":"彩色熊猫","shop":"photo"}},"shop/photo/smiletime-723043":{"name":"微笑时刻","locationSet":{"include":["cn"]},"geometry":["point","area"],"matchScore":2,"terms":["smile-time","微笑时刻"],"tags":{"brand:wikidata":"Q108403624","shop":"photo"},"addTags":{"brand":"微笑时刻","brand:en":"smile-time","brand:wikidata":"Q108403624","brand:zh":"微笑时刻","name":"微笑时刻","name:en":"smile-time","name:zh":"微笑时刻","shop":"photo"}},"shop/photo/himo-723043":{"name":"海马体照相馆","locationSet":{"include":["cn"]},"geometry":["point","area"],"matchScore":2,"terms":["himo","海马体照相馆"],"tags":{"brand:wikidata":"Q99284630","shop":"photo"},"addTags":{"brand":"海马体照相馆","brand:en":"Himo","brand:wikidata":"Q99284630","brand:zh":"海马体照相馆","name":"海马体照相馆","name:en":"Himo","name:zh":"海马体照相馆","shop":"photo"}},"shop/shoes/naturalizer-856a0b":{"name":"Naturalizer","locationSet":{"include":["ca","cn","gu","us"]},"geometry":["point","area"],"matchScore":2,"terms":["naturalizer"],"tags":{"brand:wikidata":"Q65012038","shop":"shoes"},"addTags":{"brand":"Naturalizer","brand:wikidata":"Q65012038","name":"Naturalizer","shop":"shoes"}},"shop/shoes/zulijian-9872b5":{"name":"足力健老人鞋","locationSet":{"include":["cn"]},"geometry":["point","area"],"matchScore":2,"terms":["zulijian","足力健","足力健老人鞋"],"tags":{"brand:wikidata":"Q108307191","shop":"shoes"},"addTags":{"brand":"足力健老人鞋","brand:en":"ZULIJIAN","brand:wikidata":"Q108307191","brand:zh":"足力健老人鞋","name":"足力健老人鞋","name:en":"ZULIJIAN","name:zh":"足力健老人鞋","shop":"shoes"}},"shop/sports/adidas-016bf5":{"name":"阿迪达斯","locationSet":{"include":["cn"]},"geometry":["point","area"],"matchScore":2,"terms":["adidas","愛迪達","阿迪达斯"],"tags":{"brand:wikidata":"Q3895","shop":"sports"},"addTags":{"brand":"阿迪达斯","brand:en":"Adidas","brand:wikidata":"Q3895","brand:wikipedia":"zh:愛迪達","brand:zh":"阿迪达斯","name":"阿迪达斯","name:en":"Adidas","name:zh":"阿迪达斯","shop":"sports"}},"shop/supermarket/aldi-0d26d7":{"name":"ALDI (ALDI Süd group)","locationSet":{"include":["au","ch","cn","gb","hu","ie","it","us"],"exclude":["de"]},"geometry":["point","area"],"matchScore":2,"terms":["aldi"],"tags":{"brand:wikidata":"Q41171672","shop":"supermarket"},"addTags":{"brand":"ALDI","brand:wikidata":"Q41171672","brand:wikipedia":"en:Aldi","name":"ALDI","shop":"supermarket"}},"shop/supermarket/auchan-925d9b":{"name":"Auchan","locationSet":{"include":["al","ad","ba","hr","gi","gr","va","it","mt","me","mk","pt","sm","rs","si","es","xk","by","bg","cz","hu","pl","md","ro","ru","sk","ua","at","be","fr","de","li","lu","mc","nl","ch","cn"],"exclude":["ru"]},"geometry":["point","area"],"matchScore":2,"terms":["auchan"],"tags":{"brand:wikidata":"Q758603","shop":"supermarket"},"addTags":{"brand":"Auchan","brand:wikidata":"Q758603","brand:wikipedia":"en:Auchan","name":"Auchan","shop":"supermarket"}},"shop/supermarket/maxvalu-fc749a":{"name":"MaxValu","locationSet":{"include":["cn","jp","my","th"]},"geometry":["point","area"],"matchScore":2,"terms":["maxvalu"],"tags":{"brand:wikidata":"Q1960109","shop":"supermarket"},"addTags":{"brand":"MaxValu","brand:wikidata":"Q1960109","brand:wikipedia":"en:MaxValu","name":"MaxValu","shop":"supermarket"}},"shop/supermarket/jingkelong-eda947":{"name":"京客隆","locationSet":{"include":["cn"]},"geometry":["point","area"],"matchScore":2,"terms":["jingkelong","京客隆","京客隆超市"],"tags":{"brand:wikidata":"Q10902027","shop":"supermarket"},"addTags":{"brand":"京客隆","brand:en":"Jingkelong","brand:wikidata":"Q10902027","brand:wikipedia":"en:Jingkelong","brand:zh":"京客隆","name":"京客隆","name:en":"Jingkelong","name:zh":"京客隆","shop":"supermarket"}},"shop/supermarket/vanguard-eda947":{"name":"华润万家","locationSet":{"include":["cn"]},"geometry":["point","area"],"matchScore":2,"terms":["vanguard","华润万家","华润万家超市"],"tags":{"brand:wikidata":"Q5099892","shop":"supermarket"},"addTags":{"brand":"华润万家","brand:en":"Vanguard","brand:wikidata":"Q5099892","brand:wikipedia":"zh:華潤萬家","brand:zh":"华润万家","name":"华润万家","name:en":"Vanguard","name:zh":"华润万家","shop":"supermarket"}},"shop/supermarket/rtmart-eda947":{"name":"大润发","locationSet":{"include":["cn"]},"geometry":["point","area"],"matchScore":2,"terms":["rt-mart","大润发","大润发超市"],"tags":{"brand:wikidata":"Q7277802","shop":"supermarket"},"addTags":{"brand":"大润发","brand:en":"RT-Mart","brand:wikidata":"Q7277802","brand:wikipedia":"en:RT-Mart","brand:zh":"大润发","name":"大润发","name:en":"RT-Mart","name:zh":"大润发","shop":"supermarket"}},"shop/supermarket/carrefour-eda947":{"name":"家乐福","locationSet":{"include":["cn"]},"geometry":["point","area"],"matchScore":2,"terms":["carrefour","家乐福","家乐福超市"],"tags":{"brand:wikidata":"Q3117359","shop":"supermarket"},"addTags":{"brand":"家乐福","brand:en":"Carrefour","brand:wikidata":"Q3117359","brand:wikipedia":"zh:家樂福","brand:zh":"家乐福","name":"家乐福","name:en":"Carrefour","name:zh":"家乐福","shop":"supermarket"}},"shop/supermarket/aeon-eda947":{"name":"永旺","locationSet":{"include":["cn"]},"geometry":["point","area"],"matchScore":2,"terms":["aeon","永旺"],"tags":{"brand:wikidata":"Q271413","shop":"supermarket"},"addTags":{"brand":"永旺","brand:en":"AEON","brand:wikidata":"Q271413","brand:wikipedia":"zh:永旺","brand:zh":"永旺","name":"永旺","name:en":"AEON","name:zh":"永旺","shop":"supermarket"}},"shop/supermarket/yonghuisuperstores-eda947":{"name":"永辉超市","locationSet":{"include":["cn"]},"geometry":["point","area"],"matchScore":2,"terms":["yonghui superstores","永辉超市"],"tags":{"brand:wikidata":"Q17028520","shop":"supermarket"},"addTags":{"brand":"永辉超市","brand:en":"Yonghui Superstores","brand:wikidata":"Q17028520","brand:wikipedia":"zh:永辉超市","brand:zh":"永辉超市","name":"永辉超市","name:en":"Yonghui Superstores","name:zh":"永辉超市","shop":"supermarket"}},"shop/supermarket/walmart-eda947":{"name":"沃尔玛","locationSet":{"include":["cn"]},"geometry":["point","area"],"matchScore":2,"terms":["walmart","沃尔玛","沃尔玛超市"],"tags":{"brand:wikidata":"Q483551","shop":"supermarket"},"addTags":{"brand":"沃尔玛","brand:en":"Walmart","brand:wikidata":"Q483551","brand:wikipedia":"zh:沃尔玛","brand:zh":"沃尔玛","name":"沃尔玛","name:en":"Walmart","name:zh":"沃尔玛","shop":"supermarket"}},"shop/supermarket/wumart-eda947":{"name":"物美","locationSet":{"include":["cn"]},"geometry":["point","area"],"matchScore":2,"terms":["wumart","物美","物美超市"],"tags":{"brand:wikidata":"Q8039225","shop":"supermarket"},"addTags":{"brand":"物美","brand:en":"Wumart","brand:wikidata":"Q8039225","brand:wikipedia":"zh:物美商業","brand:zh":"物美","name":"物美","name:en":"Wumart","name:zh":"物美","shop":"supermarket"}},"shop/supermarket/hema-eda947":{"name":"盒马鲜生","locationSet":{"include":["cn"]},"geometry":["point","area"],"matchScore":2,"terms":["hema","盒马鲜生"],"tags":{"brand:wikidata":"Q58617964","shop":"supermarket"},"addTags":{"brand":"盒马鲜生","brand:en":"Hema","brand:wikidata":"Q58617964","brand:wikipedia":"zh:盒馬鮮生","brand:zh":"盒马鲜生","name":"盒马鲜生","name:en":"Hema","name:zh":"盒马鲜生","shop":"supermarket"}},"shop/variety_store/miniso-a5a038":{"name":"名创优品","locationSet":{"include":["cn"]},"geometry":["point","area"],"matchScore":2,"terms":["miniso","名创优品"],"tags":{"brand:wikidata":"Q20732498","shop":"variety_store"},"addTags":{"brand":"名创优品","brand:en":"Miniso","brand:wikidata":"Q20732498","brand:wikipedia":"zh:名創優品","brand:zh":"名创优品","name":"名创优品","name:en":"Miniso","name:zh":"名创优品","shop":"variety_store"}},"tourism/hotel/7daysinn-af4cd2":{"name":"7天酒店","locationSet":{"include":["cn"]},"geometry":["point","area"],"matchScore":2,"terms":["7 days inn","7天快捷酒店","7天酒店"],"fields":["name","brand","{tourism/hotel}"],"tags":{"brand:wikidata":"Q4643844","tourism":"hotel"},"addTags":{"brand":"7天酒店","brand:en":"7 Days Inn","brand:wikidata":"Q4643844","brand:wikipedia":"zh:7天酒店","brand:zh":"7天酒店","name":"7天酒店","name:en":"7 Days Inn","name:zh":"7天酒店","tourism":"hotel"}},"tourism/hotel/bulgari-a1f85a":{"name":"Bulgari","locationSet":{"include":["ae","cn","fx","gb","id","it","jp","ru","us"]},"geometry":["point","area"],"matchScore":2,"terms":["bulgari"],"fields":["name","brand","{tourism/hotel}"],"tags":{"brand:wikidata":"Q752515","tourism":"hotel"},"addTags":{"brand":"Bulgari","brand:wikidata":"Q752515","brand:wikipedia":"en:Bulgari","name":"Bulgari","tourism":"hotel"}},"tourism/hotel/canopy-523ceb":{"name":"Canopy","locationSet":{"include":["ae","br","cn","es","fx","gb","hr","is","us"]},"geometry":["point","area"],"matchScore":2,"terms":["canopy","canopy by hilton"],"fields":["name","brand","{tourism/hotel}"],"tags":{"brand:wikidata":"Q30632909","tourism":"hotel"},"addTags":{"brand":"Canopy","brand:wikidata":"Q30632909","brand:wikipedia":"en:Canopy by Hilton","name":"Canopy","official_name":"Canopy by Hilton","tourism":"hotel"}},"tourism/hotel/conrad-ee1a43":{"name":"Conrad Hotels & Resorts","locationSet":{"include":["ae","ca","cn","eg","gb","id","ie","in","jp","kr","mv","pf","ph","pt","sa","sg","th","tr","us"]},"geometry":["point","area"],"matchScore":2,"terms":["conrad"],"fields":["name","brand","{tourism/hotel}"],"tags":{"brand:wikidata":"Q855525","tourism":"hotel"},"addTags":{"brand":"Conrad","brand:wikidata":"Q855525","brand:wikipedia":"en:Conrad Hotels","name":"Conrad","tourism":"hotel"}},"tourism/hotel/deltahotels-c8d055":{"name":"Delta Hotels","locationSet":{"include":["ae","ca","cn","de","gb","tr","us"]},"geometry":["point","area"],"matchScore":2,"terms":["delta","delta hotels"],"fields":["name","brand","{tourism/hotel}"],"tags":{"brand:wikidata":"Q5254663","tourism":"hotel"},"addTags":{"brand":"Delta Hotels","brand:wikidata":"Q5254663","brand:wikipedia":"en:Delta Hotels","name":"Delta Hotels","tourism":"hotel"}},"tourism/hotel/edition-24940c":{"name":"Edition","locationSet":{"include":["ae","cn","es","gb","is","it","jp","mx","my","qa","sg","tr","us"]},"geometry":["point","area"],"matchScore":2,"terms":["edition"],"fields":["name","brand","{tourism/hotel}"],"tags":{"brand:wikidata":"Q91218404","tourism":"hotel"},"addTags":{"brand":"Edition","brand:wikidata":"Q91218404","brand:wikipedia":"pl:Edition Hotels","name":"Edition","tourism":"hotel"}},"tourism/hotel/element-6dd642":{"name":"Element by Westin","locationSet":{"include":["ae","au","ca","cn","id","my","nl","tz","us"]},"geometry":["point","area"],"matchScore":2,"terms":["element"],"fields":["name","brand","{tourism/hotel}"],"tags":{"brand:wikidata":"Q91948072","tourism":"hotel"},"addTags":{"brand":"Element","brand:wikidata":"Q91948072","brand:wikipedia":"pl:Element Hotels","name":"Element","tourism":"hotel"}},"tourism/hotel/fairfieldinn-b80dae":{"name":"Fairfield Inn","locationSet":{"include":["ca","cn","id","in","jp","kr","mx","my","sv","us"]},"geometry":["point","area"],"matchScore":2,"terms":["fairfield by marriott","fairfield inn"],"fields":["name","brand","{tourism/hotel}"],"tags":{"brand:wikidata":"Q5430314","tourism":"hotel"},"addTags":{"alt_name":"Fairfield by Marriott","brand":"Fairfield Inn","brand:wikidata":"Q5430314","brand:wikipedia":"en:Fairfield by Marriott","name":"Fairfield Inn","tourism":"hotel"}},"tourism/hotel/intercityhotel-360354":{"name":"IntercityHotel","locationSet":{"include":["at","ch","cn","de","nl","om","sa"]},"geometry":["point","area"],"matchScore":2,"terms":["intercityhotel"],"fields":["name","brand","{tourism/hotel}"],"tags":{"brand:wikidata":"Q73642490","tourism":"hotel"},"addTags":{"brand":"IntercityHotel","brand:wikidata":"Q73642490","name":"IntercityHotel","tourism":"hotel"}},"tourism/hotel/marriottexecutiveapartments-b2f419":{"name":"Marriott Executive Apartments","locationSet":{"include":["ae","be","bh","br","cn","et","gb","hu","id","in","kr","kz","pa","sa","th","za"]},"geometry":["point","area"],"matchScore":2,"terms":["marriott executive apartments"],"fields":["name","brand","{tourism/hotel}"],"tags":{"brand:wikidata":"Q72636824","tourism":"hotel"},"addTags":{"brand":"Marriott Executive Apartments","brand:wikidata":"Q72636824","name":"Marriott Executive Apartments","tourism":"hotel"}},"tourism/hotel/microtel-5cadf0":{"name":"Microtel","locationSet":{"include":["ca","cn","mx","ph","us"]},"geometry":["point","area"],"matchScore":2,"terms":["microtel","microtel by wyndham","microtel inn"],"fields":["name","brand","{tourism/hotel}"],"tags":{"brand:wikidata":"Q6840402","tourism":"hotel"},"addTags":{"brand":"Microtel","brand:wikidata":"Q6840402","brand:wikipedia":"en:Microtel Inn and Suites","name":"Microtel","official_name":"Microtel by Wyndham","tourism":"hotel"}},"tourism/hotel/raffles-771760":{"name":"Raffles","locationSet":{"include":["ae","bh","cn","fr","gb","id","in","kh","mv","ph","pl","qa","ru","sa","sc","sg","us"]},"geometry":["point","area"],"matchScore":2,"terms":["raffles"],"fields":["name","brand","{tourism/hotel}"],"tags":{"brand:wikidata":"Q4306661","tourism":"hotel"},"addTags":{"brand":"Raffles","brand:wikidata":"Q4306661","brand:wikipedia":"en:Raffles Hotels & Resorts","name":"Raffles","tourism":"hotel"}},"tourism/hotel/tapestrycollection-1c7927":{"name":"Tapestry Collection by Hilton","locationSet":{"include":["ae","br","ca","cn","es","fx","gb","mx","pt","tw","us"]},"geometry":["point","area"],"matchScore":2,"terms":["tapestry collection","tapestry collection by hilton"],"fields":["name","brand","{tourism/hotel}"],"tags":{"brand:wikidata":"Q109275422","tourism":"hotel"},"addTags":{"brand":"Tapestry Collection","brand:wikidata":"Q109275422","tourism":"hotel"}},"tourism/hotel/waldorfastoria-204c06":{"name":"Waldorf Astoria","locationSet":{"include":["ae","cn","de","eg","fx","gb","il","it","kw","mv","mx","nl","pa","sa","th","us"]},"geometry":["point","area"],"matchScore":2,"terms":["waldorf astoria"],"fields":["name","brand","{tourism/hotel}"],"tags":{"brand:wikidata":"Q3239392","tourism":"hotel"},"addTags":{"brand":"Waldorf Astoria","brand:wikidata":"Q3239392","brand:wikipedia":"en:Waldorf Astoria Hotels & Resorts","name":"Waldorf Astoria","tourism":"hotel"}},"tourism/hotel/homeinn-af4cd2":{"name":"如家酒店","locationSet":{"include":["cn"]},"geometry":["point","area"],"matchScore":2,"terms":["home inn","如家","如家快捷酒店","如家酒店"],"fields":["name","brand","{tourism/hotel}"],"tags":{"brand:wikidata":"Q4980954","tourism":"hotel"},"addTags":{"brand":"如家酒店","brand:en":"Home Inn","brand:wikidata":"Q4980954","brand:wikipedia":"zh:首旅如家酒店集团","brand:zh":"如家酒店","name":"如家酒店","name:en":"Home Inn","name:zh":"如家酒店","tourism":"hotel"}},"tourism/hotel/thankyouhotel-af4cd2":{"name":"尚客优快捷酒店","locationSet":{"include":["cn"]},"geometry":["point","area"],"matchScore":2,"terms":["thankyou hotel","尚客优快捷酒店"],"fields":["name","brand","{tourism/hotel}"],"tags":{"brand:wikidata":"Q108167567","tourism":"hotel"},"addTags":{"brand":"尚客优快捷酒店","brand:en":"Thankyou Hotel","brand:wikidata":"Q108167567","brand:zh":"尚客优快捷酒店","name":"尚客优快捷酒店","name:en":"Thankyou Hotel","name:zh":"尚客优快捷酒店","tourism":"hotel"}},"tourism/hotel/mandarinorientalhotel-af4cd2":{"name":"文华东方酒店集团","locationSet":{"include":["cn"]},"geometry":["point","area"],"matchScore":2,"terms":["mandarin oriental hotel","文华东方酒店集团"],"fields":["name","brand","{tourism/hotel}"],"tags":{"brand:wikidata":"Q1236521","tourism":"hotel"},"addTags":{"brand":"文华东方酒店集团","brand:en":"Mandarin Oriental Hotel","brand:wikidata":"Q1236521","brand:wikipedia":"zh:文華東方酒店集團","brand:zh":"文华东方酒店集团","tourism":"hotel"}},"tourism/hotel/hantinghotel-af4cd2":{"name":"汉庭酒店","locationSet":{"include":["cn"]},"geometry":["point","area"],"matchScore":2,"terms":["hanting hotel","汉庭","汉庭快捷酒店","汉庭酒店"],"fields":["name","brand","{tourism/hotel}"],"tags":{"brand:wikidata":"Q15926208","tourism":"hotel"},"addTags":{"brand":"汉庭酒店","brand:en":"Hanting Hotel","brand:wikidata":"Q15926208","brand:wikipedia":"zh:华住酒店集团","brand:zh":"汉庭酒店","name":"汉庭酒店","name:en":"Hanting Hotel","name:zh":"汉庭酒店","tourism":"hotel"}},"tourism/hotel/super8-af4cd2":{"name":"速8酒店","locationSet":{"include":["cn"]},"geometry":["point","area"],"matchScore":2,"terms":["super 8","super_8","速8","速8快捷酒店","速8酒店"],"fields":["name","brand","{tourism/hotel}"],"tags":{"brand:wikidata":"Q5364003","tourism":"hotel"},"addTags":{"brand":"速8酒店","brand:en":"Super 8","brand:wikidata":"Q5364003","brand:wikipedia":"zh:速8酒店","brand:zh":"速8酒店","name":"速8酒店","name:en":"Super_8","name:zh":"速8酒店","tourism":"hotel"}},"amenity/charging_station/stategridcorporationofchina-c785ca":{"name":"国家电网","locationSet":{"include":["cn"]},"geometry":["point","area"],"matchScore":2,"terms":["state grid corporation of china","国家电网"],"fields":["name","operator","{amenity/charging_station}"],"tags":{"amenity":"charging_station","operator:wikidata":"Q209078"},"addTags":{"amenity":"charging_station","brand":"国家电网","brand:en":"State Grid Corporation of China","brand:wikidata":"Q209078","brand:wikipedia":"zh:国家电网","brand:zh":"国家电网","name":"国家电网","name:en":"State Grid Corporation of China","name:zh":"国家电网","operator":"国家电网","operator:en":"State Grid Corporation of China","operator:wikidata":"Q209078","operator:wikipedia":"zh:国家电网","operator:zh":"国家电网"}},"amenity/fire_station/c615bb-bc1c29":{"name":"中国森林消防","locationSet":{"include":["cn"]},"geometry":["point","area"],"matchScore":2,"terms":["应急管理部森林消防局"],"tags":{"amenity":"fire_station","operator:wikidata":"Q57880478"},"addTags":{"amenity":"fire_station","operator":"应急管理部森林消防局","operator:wikidata":"Q57880478","operator:wikipedia":"zh:应急管理部森林消防局","operator:zh":"应急管理部森林消防局"}},"amenity/fire_station/be7fd9-bc1c29":{"name":"中国消防","locationSet":{"include":["cn"]},"geometry":["point","area"],"matchScore":2,"terms":["应急管理部消防救援局","消防局","消防队"],"tags":{"amenity":"fire_station","operator:wikidata":"Q60573921"},"addTags":{"amenity":"fire_station","operator":"应急管理部消防救援局","operator:wikidata":"Q60573921","operator:wikipedia":"zh:应急管理部消防救援局","operator:zh":"应急管理部消防救援局"}},"amenity/police/publicsecuritybureauofcivilaviationadministrationofchina-18678f":{"name":"机场派出所","locationSet":{"include":["cn"]},"geometry":["point","area"],"matchScore":2,"terms":["public security bureau of civil aviation administration of china","中华人民共和国公安部","机场公安","民航公安","航空公安"],"tags":{"amenity":"police","operator:wikidata":"Q20062802"},"addTags":{"amenity":"police","operator":"中华人民共和国公安部","operator:en":"Public Security Bureau of Civil Aviation Administration of China","operator:wikidata":"Q20062802","operator:wikipedia":"zh:中国民用航空局公安局","operator:zh":"中华人民共和国公安部"}},"amenity/police/ministryofpublicsecurity-18678f":{"name":"派出所","locationSet":{"include":["cn"]},"geometry":["point","area"],"matchScore":2,"terms":["ministry of public security","中华人民共和国公安部"],"tags":{"amenity":"police","operator:wikidata":"Q2346285"},"addTags":{"amenity":"police","operator":"中华人民共和国公安部","operator:en":"Ministry of Public Security","operator:wikidata":"Q2346285","operator:wikipedia":"zh:中华人民共和国公安部","operator:zh":"中华人民共和国公安部"}},"amenity/police/railwaypublicsecuritybureauofministryofpublicsecurity-18678f":{"name":"铁路派出所","locationSet":{"include":["cn"]},"geometry":["point","area"],"matchScore":2,"terms":["railway public security bureau of ministry of public security","中华人民共和国公安部铁路公安局","公安部铁路公安局","铁路公安"],"tags":{"amenity":"police","operator:wikidata":"Q15903825"},"addTags":{"amenity":"police","operator":"中华人民共和国公安部铁路公安局","operator:en":"Railway Public Security Bureau of Ministry of Public Security","operator:wikidata":"Q15903825","operator:wikipedia":"zh:公安部铁路公安局","operator:zh":"中华人民共和国公安部铁路公安局"}},"amenity/post_box/chinapost-38b646":{"name":"中国邮政","locationSet":{"include":["cn"]},"geometry":["point","vertex"],"matchScore":2,"terms":["china post","ems","中国邮政","中国邮政速递","中国邮政速递物流","邮政","邮政速递"],"tags":{"amenity":"post_box","operator:wikidata":"Q1066476"},"addTags":{"amenity":"post_box","brand":"中国邮政","brand:en":"China Post","brand:wikidata":"Q1066476","brand:wikipedia":"zh:中国邮政","brand:zh":"中国邮政","name:en":"China Post","name:zh":"中国邮政","operator":"中国邮政","operator:wikidata":"Q1066476","operator:wikipedia":"zh:中国邮政"}},"amenity/post_box/ztoexpress-38b646":{"name":"中通快递","locationSet":{"include":["cn"]},"geometry":["point","vertex"],"matchScore":2,"terms":["zto express","中通","中通快递"],"tags":{"amenity":"post_box","operator:wikidata":"Q10876705"},"addTags":{"amenity":"post_box","brand":"中通快递","brand:en":"ZTO Express","brand:wikidata":"Q10876705","brand:wikipedia":"zh:中通快递","brand:zh":"中通快递","name:en":"ZTO Express","name:zh":"中通快递","operator":"中通快递","operator:wikidata":"Q10876705","operator:wikipedia":"zh:中通快递","short_name":"中通"}},"amenity/post_box/jdlogistics-38b646":{"name":"京东物流","locationSet":{"include":["cn"]},"geometry":["point","vertex"],"matchScore":2,"terms":["jd logistics","京东","京东快递","京东派","京东物流"],"tags":{"amenity":"post_box","operator:wikidata":"Q67936681"},"addTags":{"amenity":"post_box","brand":"京东物流","brand:en":"JD Logistics","brand:wikidata":"Q67936681","brand:wikipedia":"zh:京东物流","brand:zh":"京东物流","name:en":"JD Logistics","name:zh":"京东物流","operator":"京东物流","operator:wikidata":"Q67936681","operator:wikipedia":"zh:京东物流","short_name":"京东"}},"amenity/post_box/ytoexpress-38b646":{"name":"圆通速递","locationSet":{"include":["cn"]},"geometry":["point","vertex"],"matchScore":2,"terms":["yto express","圆通","圆通快递","圆通速递"],"tags":{"amenity":"post_box","operator:wikidata":"Q10926656"},"addTags":{"amenity":"post_box","brand":"圆通速递","brand:en":"YTO Express","brand:wikidata":"Q10926656","brand:wikipedia":"zh:圆通速递","brand:zh":"圆通速递","name:en":"YTO Express","name:zh":"圆通速递","operator":"圆通速递","operator:wikidata":"Q10926656","operator:wikipedia":"zh:圆通速递","short_name":"圆通"}},"amenity/post_box/depponexpress-38b646":{"name":"德邦快递","locationSet":{"include":["cn"]},"geometry":["point","vertex"],"matchScore":2,"terms":["deppon express","德邦","德邦快递","德邦物流"],"tags":{"amenity":"post_box","operator:wikidata":"Q109378877"},"addTags":{"amenity":"post_box","brand":"德邦快递","brand:en":"Deppon Express","brand:wikidata":"Q109378877","brand:wikipedia":"zh:德邦物流","brand:zh":"德邦快递","name:en":"Deppon Express","name:zh":"德邦快递","operator":"德邦快递","operator:wikidata":"Q109378877","operator:wikipedia":"zh:德邦物流","short_name":"德邦"}},"amenity/post_box/stoexpress-38b646":{"name":"申通快递","locationSet":{"include":["cn"]},"geometry":["point","vertex"],"matchScore":2,"terms":["sto express","申通","申通快递"],"tags":{"amenity":"post_box","operator:wikidata":"Q10426347"},"addTags":{"amenity":"post_box","brand":"申通快递","brand:en":"STO Express","brand:wikidata":"Q10426347","brand:wikipedia":"zh:申通快递","brand:zh":"申通快递","name:en":"STO Express","name:zh":"申通快递","operator":"申通快递","operator:wikidata":"Q10426347","operator:wikipedia":"zh:申通快递","short_name":"申通"}},"amenity/post_box/cainiao-38b646":{"name":"菜鸟驿站","locationSet":{"include":["cn"]},"geometry":["point","vertex"],"matchScore":2,"terms":["cai niao","菜鸟驿站"],"tags":{"amenity":"post_box","operator:wikidata":"Q16947973"},"addTags":{"amenity":"post_box","brand":"菜鸟驿站","brand:en":"CAI NIAO","brand:wikidata":"Q16947973","brand:wikipedia":"zh:菜鸟网络","brand:zh":"菜鸟驿站","name:en":"CAI NIAO","name:zh":"菜鸟驿站","operator":"菜鸟驿站","operator:wikidata":"Q16947973","operator:wikipedia":"zh:菜鸟网络"}},"amenity/post_box/yundaexpress-38b646":{"name":"韵达速递","locationSet":{"include":["cn"]},"geometry":["point","vertex"],"matchScore":2,"terms":["yunda express","韵达","韵达快递","韵达速递"],"tags":{"amenity":"post_box","operator:wikidata":"Q17010677"},"addTags":{"amenity":"post_box","brand":"韵达速递","brand:en":"Yunda Express","brand:wikidata":"Q17010677","brand:wikipedia":"zh:韵达速递","brand:zh":"韵达速递","name:en":"Yunda Express","name:zh":"韵达速递","operator":"韵达速递","operator:wikidata":"Q17010677","operator:wikipedia":"zh:韵达速递","short_name":"韵达"}},"amenity/post_box/sfexpress-38b646":{"name":"顺丰速运","locationSet":{"include":["cn"]},"geometry":["point","vertex"],"matchScore":2,"terms":["sf express","顺丰","顺丰快递","顺丰速运"],"tags":{"amenity":"post_box","operator:wikidata":"Q7390019"},"addTags":{"amenity":"post_box","brand":"顺丰速运","brand:en":"SF Express","brand:wikidata":"Q7390019","brand:wikipedia":"zh:顺丰速运","brand:zh":"顺丰速运","name:en":"SF Express","name:zh":"顺丰速运","operator":"顺丰速运","operator:wikidata":"Q7390019","operator:wikipedia":"zh:顺丰速运","short_name":"顺丰"}},"amenity/university/keiseruniversity-3242ba":{"name":"Keiser University","locationSet":{"include":["cn","nc","us"]},"geometry":["area","point"],"matchScore":2,"terms":["keiser","keiser university"],"fields":["name","operator","{amenity/university}"],"tags":{"amenity":"university","operator:wikidata":"Q1523211"},"addTags":{"amenity":"university","name":"Keiser University","operator":"Keiser University","operator:wikidata":"Q1523211","operator:wikipedia":"en:Keiser University","short_name":"Keiser"}},"office/energy_supplier/naturgy-e15d8a":{"name":"Naturgy","locationSet":{"include":["ar","au","be","br","cl","cn","cr","de","do","dz","eg","es","fr","gb","ie","in","jm","jo","jp","lu","ma","mx","nl","om","pa","pe","pk","pr","pt","sg"]},"geometry":["point","area"],"matchScore":2,"terms":["naturgy"],"tags":{"office":"energy_supplier","operator:wikidata":"Q474690"},"addTags":{"name":"Naturgy","office":"energy_supplier","operator":"Naturgy","operator:wikidata":"Q474690","operator:wikipedia":"es:Naturgy"}},"power/plant/chinahuadiancorporation-42ff7b":{"name":"中国华电集团","locationSet":{"include":["cn"]},"geometry":["area"],"matchScore":2,"terms":["china huadian corporation","huadian","中国华电","中国华电集团","华电集团"],"tags":{"operator:wikidata":"Q2580472","power":"plant"},"addTags":{"operator":"中国华电集团","operator:en":"China Huadian Corporation","operator:wikidata":"Q2580472","operator:wikipedia":"zh:中国华电集团","operator:zh":"中国华电集团","power":"plant"}},"power/plant/chinahuanenggroup-42ff7b":{"name":"中国华能集团","locationSet":{"include":["cn"]},"geometry":["area"],"matchScore":2,"terms":["china huaneng group","huaneng","中国华能","中国华能集团","华能集团"],"tags":{"operator:wikidata":"Q842509","power":"plant"},"addTags":{"operator":"中国华能集团","operator:en":"China Huaneng Group","operator:wikidata":"Q842509","operator:wikipedia":"zh:中国华能集团","operator:zh":"中国华能集团","power":"plant"}},"power/substation/stategridcorporationofchina-f1135f":{"name":"国家电网","locationSet":{"include":["cn"]},"geometry":["area","point"],"matchScore":2,"terms":["state grid corporation of china","国家电网"],"tags":{"operator:wikidata":"Q209078","power":"substation"},"addTags":{"operator":"国家电网","operator:en":"State Grid Corporation of China","operator:wikidata":"Q209078","operator:wikipedia":"zh:国家电网","operator:zh":"国家电网","power":"substation"}},"power/transformer/stategridcorporationofchina-cfbfe1":{"name":"国家电网","locationSet":{"include":["cn"]},"geometry":["point","vertex"],"matchScore":2,"terms":["state grid corporation of china","国家电网"],"tags":{"operator:wikidata":"Q209078","power":"transformer"},"addTags":{"operator":"国家电网","operator:en":"State Grid Corporation of China","operator:wikidata":"Q209078","operator:wikipedia":"zh:国家电网","operator:zh":"国家电网","power":"transformer"}},"public_transport/station_ferry/qingdaoferry-e88390":{"name":"青岛轮渡","locationSet":{"include":["cn"]},"geometry":["vertex","point","area"],"matchScore":2,"terms":["qingdao ferry","青岛轮渡"],"reference":{"key":"amenity","value":"ferry_terminal"},"tags":{"ferry":"yes","network:wikidata":"Q15902919","public_transport":"station"},"addTags":{"amenity":"ferry_terminal","ferry":"yes","network":"青岛轮渡","network:en":"Qingdao Ferry","network:wikidata":"Q15902919","network:wikipedia":"zh:青岛轮渡","network:zh":"青岛轮渡","public_transport":"station"}},"public_transport/platform/bus_point/beijingpublictransport-12713e":{"name":"北京公交","locationSet":{"include":["cn"]},"geometry":["point","vertex"],"matchScore":2,"terms":["beijing public transport","bjbus","北京公交"],"reference":{"key":"public_transport","value":"platform"},"tags":{"bus":"yes","network:wikidata":"Q4881181","public_transport":"platform"},"addTags":{"bus":"yes","highway":"bus_stop","network":"北京公交","network:en":"Beijing Public Transport","network:wikidata":"Q4881181","network:wikipedia":"zh:北京公交","public_transport":"platform"}},"public_transport/platform/bus_point/ba0809-12713e":{"name":"广州公交","locationSet":{"include":["cn"]},"geometry":["point","vertex"],"matchScore":2,"terms":["广州公交","广州市公共交通集团有限公司"],"reference":{"key":"public_transport","value":"platform"},"tags":{"bus":"yes","network:wikidata":"Q32157703","public_transport":"platform"},"addTags":{"bus":"yes","highway":"bus_stop","network":"广州公交","network:wikidata":"Q32157703","network:wikipedia":"zh:广州巴士","operator":"广州市公共交通集团有限公司","public_transport":"platform"}},"public_transport/platform/bus_point/guangzhoupanyupublictransport-12713e":{"name":"广州番禺公交","locationSet":{"include":["cn"]},"geometry":["point","vertex"],"matchScore":2,"terms":["guangzhou panyu public transport","广州番禺公交"],"reference":{"key":"public_transport","value":"platform"},"tags":{"bus":"yes","network:wikidata":"Q109995906","public_transport":"platform"},"addTags":{"bus":"yes","highway":"bus_stop","network":"广州番禺公交","network:en":"Guangzhou Panyu Public Transport","network:wikidata":"Q109995906","network:zh":"广州番禺公交","public_transport":"platform"}},"public_transport/platform/bus_point/jinanpublictransport-12713e":{"name":"济南公交(远郊线路)","locationSet":{"include":["cn"]},"geometry":["point","vertex"],"matchScore":2,"terms":["jinan public transport","济南公交","济南公交\u2014\u2014济南公交公司"],"reference":{"key":"public_transport","value":"platform"},"tags":{"bus":"yes","network:wikidata":"Q11148162","public_transport":"platform"},"addTags":{"bus":"yes","highway":"bus_stop","network":"济南公交","network:en":"Jinan Public Transport","network:wikidata":"Q11148162","network:wikipedia":"zh:济南公交","network:zh":"济南公交","public_transport":"platform"}},"public_transport/platform/bus_point/qingzhoupublictransport-12713e":{"name":"青州公交","locationSet":{"include":["cn"]},"geometry":["point","vertex"],"matchScore":2,"terms":["qingzhou kai cheng public transport co., ltd.","qingzhou public transport","青州公交","青州凯程公交","青州凯程公共交通股份有限公司"],"reference":{"key":"public_transport","value":"platform"},"tags":{"bus":"yes","network:wikidata":"Q109996335","public_transport":"platform"},"addTags":{"bus":"yes","highway":"bus_stop","network":"青州公交","network:en":"Qingzhou Public Transport","network:wikidata":"Q109996335","network:zh":"青州公交","operator":"青州凯程公共交通股份有限公司","operator:en":"QINGZHOU KAI CHENG PUBLIC TRANSPORT CO., LTD.","operator:wikidata":"Q109996448","operator:zh":"青州凯程公共交通股份有限公司","public_transport":"platform"}},"type/route/bus/beijingpublictransport-a1f154":{"name":"北京公交","locationSet":{"include":["cn"]},"geometry":["relation"],"matchScore":2,"terms":["beijing public transport","bjbus","北京公交"],"reference":{"key":"route","value":"bus"},"tags":{"network:wikidata":"Q4881181","route":"bus","type":"route"},"addTags":{"network":"北京公交","network:en":"Beijing Public Transport","network:wikidata":"Q4881181","network:wikipedia":"zh:北京公交","route":"bus","type":"route"}},"type/route/bus/ba0809-a1f154":{"name":"广州公交","locationSet":{"include":["cn"]},"geometry":["relation"],"matchScore":2,"terms":["广州公交","广州市公共交通集团有限公司"],"reference":{"key":"route","value":"bus"},"tags":{"network:wikidata":"Q32157703","route":"bus","type":"route"},"addTags":{"network":"广州公交","network:wikidata":"Q32157703","network:wikipedia":"zh:广州巴士","operator":"广州市公共交通集团有限公司","route":"bus","type":"route"}},"type/route/bus/guangzhoupanyupublictransport-a1f154":{"name":"广州番禺公交","locationSet":{"include":["cn"]},"geometry":["relation"],"matchScore":2,"terms":["guangzhou panyu public transport","广州番禺公交"],"reference":{"key":"route","value":"bus"},"tags":{"network:wikidata":"Q109995906","route":"bus","type":"route"},"addTags":{"network":"广州番禺公交","network:en":"Guangzhou Panyu Public Transport","network:wikidata":"Q109995906","network:zh":"广州番禺公交","route":"bus","type":"route"}},"type/route/bus/jinanpublictransport-a1f154":{"name":"济南公交(远郊线路)","locationSet":{"include":["cn"]},"geometry":["relation"],"matchScore":2,"terms":["jinan public transport","济南公交","济南公交\u2014\u2014济南公交公司"],"reference":{"key":"route","value":"bus"},"tags":{"network:wikidata":"Q11148162","route":"bus","type":"route"},"addTags":{"network":"济南公交","network:en":"Jinan Public Transport","network:wikidata":"Q11148162","network:wikipedia":"zh:济南公交","network:zh":"济南公交","route":"bus","type":"route"}},"type/route/bus/qingzhoupublictransport-a1f154":{"name":"青州公交","locationSet":{"include":["cn"]},"geometry":["relation"],"matchScore":2,"terms":["qingzhou kai cheng public transport co., ltd.","qingzhou public transport","青州公交","青州凯程公交","青州凯程公共交通股份有限公司"],"reference":{"key":"route","value":"bus"},"tags":{"network:wikidata":"Q109996335","route":"bus","type":"route"},"addTags":{"network":"青州公交","network:en":"Qingzhou Public Transport","network:wikidata":"Q109996335","network:zh":"青州公交","operator":"青州凯程公共交通股份有限公司","operator:en":"QINGZHOU KAI CHENG PUBLIC TRANSPORT CO., LTD.","operator:wikidata":"Q109996448","operator:zh":"青州凯程公共交通股份有限公司","route":"bus","type":"route"}},"type/route/ferry/qingdaoferry-82c1d7":{"name":"青岛轮渡","locationSet":{"include":["cn"]},"geometry":["relation"],"matchScore":2,"terms":["qingdao ferry","青岛轮渡"],"reference":{"key":"route","value":"ferry"},"tags":{"network:wikidata":"Q15902919","route":"ferry","type":"route"},"addTags":{"network":"青岛轮渡","network:en":"Qingdao Ferry","network:wikidata":"Q15902919","network:wikipedia":"zh:青岛轮渡","network:zh":"青岛轮渡","route":"ferry","type":"route"}},"route/ferry/qingdaoferry-82c1d7":{"name":"青岛轮渡","locationSet":{"include":["cn"]},"geometry":["line"],"matchScore":2,"terms":["qingdao ferry","青岛轮渡"],"tags":{"network:wikidata":"Q15902919","route":"ferry"},"addTags":{"network":"青岛轮渡","network:en":"Qingdao Ferry","network:wikidata":"Q15902919","network:wikipedia":"zh:青岛轮渡","network:zh":"青岛轮渡","route":"ferry"}},"type/route/subway/shanghaimetro-7a104d":{"name":"上海地铁","locationSet":{"include":["cn"]},"geometry":["relation"],"matchScore":2,"terms":["shanghai metro","上海地铁"],"reference":{"key":"route","value":"subway"},"tags":{"network:wikidata":"Q462201","route":"subway","type":"route"},"addTags":{"network":"上海地铁","network:en":"Shanghai Metro","network:wikidata":"Q462201","network:wikipedia":"zh:上海地铁","network:zh":"上海地铁","route":"subway","type":"route"}},"type/route/subway/dongguanrailtransit-7a104d":{"name":"东莞轨道交通","locationSet":{"include":["cn"]},"geometry":["relation"],"matchScore":2,"terms":["dongguan rail transit","东莞轨道交通"],"reference":{"key":"route","value":"subway"},"tags":{"network:wikidata":"Q1709132","route":"subway","type":"route"},"addTags":{"network":"东莞轨道交通","network:en":"Dongguan Rail Transit","network:wikidata":"Q1709132","network:wikipedia":"zh:東莞軌道交通","network:zh":"东莞轨道交通","route":"subway","type":"route"}},"type/route/subway/urumqimetro-7a104d":{"name":"乌鲁木齐地铁","locationSet":{"include":["cn"]},"geometry":["relation"],"matchScore":2,"terms":["ürümqi metro","乌鲁木齐地铁"],"reference":{"key":"route","value":"subway"},"tags":{"network:wikidata":"Q290307","route":"subway","type":"route"},"addTags":{"network":"乌鲁木齐地铁","network:en":"Ürümqi Metro","network:wikidata":"Q290307","network:wikipedia":"zh:乌鲁木齐地铁","network:zh":"乌鲁木齐地铁","route":"subway","type":"route"}},"type/route/subway/foshanmetro-7a104d":{"name":"佛山地铁","locationSet":{"include":["cn"]},"geometry":["relation"],"matchScore":2,"terms":["foshan metro","佛山地铁"],"reference":{"key":"route","value":"subway"},"tags":{"network:wikidata":"Q1660094","route":"subway","type":"route"},"addTags":{"network":"佛山地铁","network:en":"Foshan Metro","network:wikidata":"Q1660094","network:wikipedia":"zh:佛山地铁","network:zh":"佛山地铁","route":"subway","type":"route"}},"type/route/subway/lanzhoumetro-7a104d":{"name":"兰州轨道交通","locationSet":{"include":["cn"]},"geometry":["relation"],"matchScore":2,"terms":["lanzhou metro","兰州轨道交通"],"reference":{"key":"route","value":"subway"},"tags":{"network:wikidata":"Q10893611","route":"subway","type":"route"},"addTags":{"network":"兰州轨道交通","network:en":"Lanzhou Metro","network:wikidata":"Q10893611","network:wikipedia":"zh:兰州轨道交通","network:zh":"兰州轨道交通","route":"subway","type":"route"}},"type/route/subway/beijingsubway-7a104d":{"name":"北京地铁","locationSet":{"include":["cn"]},"geometry":["relation"],"matchScore":2,"terms":["beijing subway","北京地铁"],"reference":{"key":"route","value":"subway"},"tags":{"network:wikidata":"Q235319","route":"subway","type":"route"},"addTags":{"network":"北京地铁","network:en":"Beijing Subway","network:wikidata":"Q235319","network:wikipedia":"zh:北京地铁","network:zh":"北京地铁","route":"subway","type":"route"}},"type/route/subway/nanjingmetro-7a104d":{"name":"南京地铁","locationSet":{"include":["cn"]},"geometry":["relation"],"matchScore":2,"terms":["nanjing metro","南京地铁"],"reference":{"key":"route","value":"subway"},"tags":{"network:wikidata":"Q429366","route":"subway","type":"route"},"addTags":{"network":"南京地铁","network:en":"Nanjing Metro","network:wikidata":"Q429366","network:wikipedia":"zh:南京地铁","network:zh":"南京地铁","route":"subway","type":"route"}},"type/route/subway/nanningrailtransit-7a104d":{"name":"南宁轨道交通","locationSet":{"include":["cn"]},"geometry":["relation"],"matchScore":2,"terms":["nanning rail transit","南宁轨道交通"],"reference":{"key":"route","value":"subway"},"tags":{"network:wikidata":"Q10907375","route":"subway","type":"route"},"addTags":{"network":"南宁轨道交通","network:en":"Nanning Rail Transit","network:wikidata":"Q10907375","network:wikipedia":"zh:南宁轨道交通","network:zh":"南宁轨道交通","route":"subway","type":"route"}},"type/route/subway/nanchangmetro-7a104d":{"name":"南昌地铁","locationSet":{"include":["cn"]},"geometry":["relation"],"matchScore":2,"terms":["nanchang metro","南昌地铁"],"reference":{"key":"route","value":"subway"},"tags":{"network:wikidata":"Q1058531","route":"subway","type":"route"},"addTags":{"network":"南昌地铁","network:en":"Nanchang Metro","network:wikidata":"Q1058531","network:wikipedia":"zh:南昌地铁","network:zh":"南昌地铁","route":"subway","type":"route"}},"type/route/subway/xiamenmetro-7a104d":{"name":"厦门地铁","locationSet":{"include":["cn"]},"geometry":["relation"],"matchScore":2,"terms":["xiamen metro","厦门地铁"],"reference":{"key":"route","value":"subway"},"tags":{"network:wikidata":"Q10911453","route":"subway","type":"route"},"addTags":{"network":"厦门地铁","network:en":"Xiamen Metro","network:wikidata":"Q10911453","network:wikipedia":"zh:厦门地铁","network:zh":"厦门地铁","route":"subway","type":"route"}},"type/route/subway/hefeimetro-7a104d":{"name":"合肥轨道交通","locationSet":{"include":["cn"]},"geometry":["relation"],"matchScore":2,"terms":["hefei metro","合肥轨道交通"],"reference":{"key":"route","value":"subway"},"tags":{"network:wikidata":"Q2688118","route":"subway","type":"route"},"addTags":{"network":"合肥轨道交通","network:en":"Hefei Metro","network:wikidata":"Q2688118","network:wikipedia":"zh:合肥轨道交通","network:zh":"合肥轨道交通","route":"subway","type":"route"}},"type/route/subway/hohhotmetro-7a104d":{"name":"呼和浩特地铁","locationSet":{"include":["cn"]},"geometry":["relation"],"matchScore":2,"terms":["hohhot metro","呼和浩特地铁"],"reference":{"key":"route","value":"subway"},"tags":{"network:wikidata":"Q20688234","route":"subway","type":"route"},"addTags":{"network":"呼和浩特地铁","network:en":"Hohhot Metro","network:wikidata":"Q20688234","network:wikipedia":"zh:呼和浩特地铁","network:zh":"呼和浩特地铁","route":"subway","type":"route"}},"type/route/subway/harbinmetro-7a104d":{"name":"哈尔滨地铁","locationSet":{"include":["cn"]},"geometry":["relation"],"matchScore":2,"terms":["harbin metro","哈尔滨地铁"],"reference":{"key":"route","value":"subway"},"tags":{"network:wikidata":"Q2688234","route":"subway","type":"route"},"addTags":{"network":"哈尔滨地铁","network:en":"Harbin Metro","network:wikidata":"Q2688234","network:wikipedia":"zh:哈尔滨地铁","network:zh":"哈尔滨地铁","route":"subway","type":"route"}},"type/route/subway/dalianmetro-7a104d":{"name":"大连地铁","locationSet":{"include":["cn"]},"geometry":["relation"],"matchScore":2,"terms":["dalian metro","大连地铁"],"reference":{"key":"route","value":"subway"},"tags":{"network:wikidata":"Q1660254","route":"subway","type":"route"},"addTags":{"network":"大连地铁","network:en":"Dalian Metro","network:wikidata":"Q1660254","network:wikipedia":"zh:大连地铁","network:zh":"大连地铁","route":"subway","type":"route"}},"type/route/subway/tianjinmetro-7a104d":{"name":"天津地铁","locationSet":{"include":["cn"]},"geometry":["relation"],"matchScore":2,"terms":["tianjin metro","天津地铁"],"reference":{"key":"route","value":"subway"},"tags":{"network:wikidata":"Q515817","route":"subway","type":"route"},"addTags":{"network":"天津地铁","network:en":"Tianjin Metro","network:wikidata":"Q515817","network:wikipedia":"zh:天津地铁","network:zh":"天津地铁","route":"subway","type":"route"}},"type/route/subway/taiyuanmetro-7a104d":{"name":"太原轨道交通","locationSet":{"include":["cn"]},"geometry":["relation"],"matchScore":2,"terms":["taiyuan metro","太原轨道交通"],"reference":{"key":"route","value":"subway"},"tags":{"network:wikidata":"Q10941073","route":"subway","type":"route"},"addTags":{"network":"太原轨道交通","network:en":"TAIYUAN METRO","network:wikidata":"Q10941073","network:wikipedia":"zh:太原地铁","network:zh":"太原轨道交通","route":"subway","type":"route"}},"type/route/subway/ningborailtransit-7a104d":{"name":"宁波轨道交通","locationSet":{"include":["cn"]},"geometry":["relation"],"matchScore":2,"terms":["ningbo rail transit","宁波轨道交通"],"reference":{"key":"route","value":"subway"},"tags":{"network:wikidata":"Q1000022","route":"subway","type":"route"},"addTags":{"network":"宁波轨道交通","network:en":"Ningbo Rail Transit","network:wikidata":"Q1000022","network:wikipedia":"zh:宁波轨道交通","network:zh":"宁波轨道交通","route":"subway","type":"route"}},"type/route/subway/changzhoumetro-7a104d":{"name":"常州地铁","locationSet":{"include":["cn"]},"geometry":["relation"],"matchScore":2,"terms":["changzhou metro","常州地铁"],"reference":{"key":"route","value":"subway"},"tags":{"network:wikidata":"Q4507108","route":"subway","type":"route"},"addTags":{"network":"常州地铁","network:en":"Changzhou Metro","network:wikidata":"Q4507108","network:wikipedia":"zh:常州地铁","network:zh":"常州地铁","route":"subway","type":"route"}},"type/route/subway/guangzhoumetro-7a104d":{"name":"广州地铁","locationSet":{"include":["cn"]},"geometry":["relation"],"matchScore":2,"terms":["guangzhou metro","广州地铁"],"reference":{"key":"route","value":"subway"},"tags":{"network:wikidata":"Q660751","route":"subway","type":"route"},"addTags":{"network":"广州地铁","network:en":"Guangzhou Metro","network:wikidata":"Q660751","network:wikipedia":"zh:广州地铁","network:zh":"广州地铁","route":"subway","type":"route"}},"type/route/subway/xuzhoumetro-7a104d":{"name":"徐州地铁","locationSet":{"include":["cn"]},"geometry":["relation"],"matchScore":2,"terms":["xuzhou metro","徐州地铁"],"reference":{"key":"route","value":"subway"},"tags":{"network:wikidata":"Q11070585","route":"subway","type":"route"},"addTags":{"network":"徐州地铁","network:en":"Xuzhou Metro","network:wikidata":"Q11070585","network:wikipedia":"zh:徐州地铁","network:zh":"徐州地铁","route":"subway","type":"route"}},"type/route/subway/chengdumetro-7a104d":{"name":"成都地铁","locationSet":{"include":["cn"]},"geometry":["relation"],"matchScore":2,"terms":["chengdu metro","成都地铁"],"reference":{"key":"route","value":"subway"},"tags":{"network:wikidata":"Q1660063","route":"subway","type":"route"},"addTags":{"network":"成都地铁","network:en":"Chengdu Metro","network:wikidata":"Q1660063","network:wikipedia":"zh:成都地铁","network:zh":"成都地铁","route":"subway","type":"route"}},"type/route/subway/wuximetro-7a104d":{"name":"无锡地铁","locationSet":{"include":["cn"]},"geometry":["relation"],"matchScore":2,"terms":["wuxi metro","无锡地铁"],"reference":{"key":"route","value":"subway"},"tags":{"network:wikidata":"Q2620237","route":"subway","type":"route"},"addTags":{"network":"无锡地铁","network:en":"Wuxi Metro","network:wikidata":"Q2620237","network:wikipedia":"zh:无锡地铁","network:zh":"无锡地铁","route":"subway","type":"route"}},"type/route/subway/kunmingrailtransit-7a104d":{"name":"昆明轨道交通","locationSet":{"include":["cn"]},"geometry":["relation"],"matchScore":2,"terms":["kunming rail transit","昆明轨道交通"],"reference":{"key":"route","value":"subway"},"tags":{"network:wikidata":"Q1660425","route":"subway","type":"route"},"addTags":{"network":"昆明轨道交通","network:en":"Kunming Rail Transit","network:wikidata":"Q1660425","network:wikipedia":"zh:昆明地铁","network:zh":"昆明轨道交通","route":"subway","type":"route"}},"type/route/subway/hangzhoumetro-7a104d":{"name":"杭州地铁","locationSet":{"include":["cn"]},"geometry":["relation"],"matchScore":2,"terms":["hangzhou metro","杭州地铁"],"reference":{"key":"route","value":"subway"},"tags":{"network:wikidata":"Q2419742","route":"subway","type":"route"},"addTags":{"network":"杭州地铁","network:en":"Hangzhou Metro","network:wikidata":"Q2419742","network:wikipedia":"zh:杭州地铁","network:zh":"杭州地铁","route":"subway","type":"route"}},"type/route/subway/wuhanmetro-7a104d":{"name":"武汉地铁","locationSet":{"include":["cn"]},"geometry":["relation"],"matchScore":2,"terms":["wuhan metro","武汉地铁"],"reference":{"key":"route","value":"subway"},"tags":{"network:wikidata":"Q1660441","route":"subway","type":"route"},"addTags":{"network":"武汉地铁","network:en":"Wuhan Metro","network:wikidata":"Q1660441","network:wikipedia":"zh:武汉地铁","network:zh":"武汉地铁","route":"subway","type":"route"}},"type/route/subway/shenyangmetro-7a104d":{"name":"沈阳地铁","locationSet":{"include":["cn"]},"geometry":["relation"],"matchScore":2,"terms":["shenyang metro","沈阳地铁"],"reference":{"key":"route","value":"subway"},"tags":{"network:wikidata":"Q646466","route":"subway","type":"route"},"addTags":{"network":"沈阳地铁","network:en":"Shenyang Metro","network:wikidata":"Q646466","network:wikipedia":"zh:沈阳地铁","network:zh":"沈阳地铁","route":"subway","type":"route"}},"type/route/subway/luoyangsubway-7a104d":{"name":"洛阳轨道交通","locationSet":{"include":["cn"]},"geometry":["relation"],"matchScore":2,"terms":["luoyang subway","洛阳轨道交通"],"reference":{"key":"route","value":"subway"},"tags":{"network:wikidata":"Q11146236","route":"subway","type":"route"},"addTags":{"network":"洛阳轨道交通","network:en":"Luoyang Subway","network:wikidata":"Q11146236","network:wikipedia":"zh:洛阳轨道交通","network:zh":"洛阳轨道交通","route":"subway","type":"route"}},"type/route/subway/jinanmetro-7a104d":{"name":"济南地铁","locationSet":{"include":["cn"]},"geometry":["relation"],"matchScore":2,"terms":["jinan metro","济南地铁"],"reference":{"key":"route","value":"subway"},"tags":{"network:wikidata":"Q16259331","route":"subway","type":"route"},"addTags":{"network":"济南地铁","network:en":"Jinan Metro","network:wikidata":"Q16259331","network:wikipedia":"zh:济南地铁","network:zh":"济南地铁","route":"subway","type":"route"}},"type/route/subway/shenzhenmetro-7a104d":{"name":"深圳地铁","locationSet":{"include":["cn"]},"geometry":["relation"],"matchScore":2,"terms":["shenzhen metro","深圳地铁"],"reference":{"key":"route","value":"subway"},"tags":{"network:wikidata":"Q867680","route":"subway","type":"route"},"addTags":{"network":"深圳地铁","network:en":"Shenzhen Metro","network:wikidata":"Q867680","network:wikipedia":"zh:深圳地铁","network:zh":"深圳地铁","route":"subway","type":"route"}},"type/route/subway/wenzhoumetro-7a104d":{"name":"温州轨道交通","locationSet":{"include":["cn"]},"geometry":["relation"],"matchScore":2,"terms":["wenzhou metro","温州轨道交通"],"reference":{"key":"route","value":"subway"},"tags":{"network:wikidata":"Q15906197","route":"subway","type":"route"},"addTags":{"network":"温州轨道交通","network:en":"Wenzhou Metro","network:wikidata":"Q15906197","network:wikipedia":"zh:温州轨道交通","network:zh":"温州轨道交通","route":"subway","type":"route"}},"type/route/subway/shijiazhuangmetro-7a104d":{"name":"石家庄地铁","locationSet":{"include":["cn"]},"geometry":["relation"],"matchScore":2,"terms":["shijiazhuang metro","石家庄地铁"],"reference":{"key":"route","value":"subway"},"tags":{"network:wikidata":"Q12267378","route":"subway","type":"route"},"addTags":{"network":"石家庄地铁","network:en":"Shijiazhuang Metro","network:wikidata":"Q12267378","network:wikipedia":"zh:石家庄地铁","network:zh":"石家庄地铁","route":"subway","type":"route"}},"type/route/subway/fuzhoumetro-7a104d":{"name":"福州地铁","locationSet":{"include":["cn"]},"geometry":["relation"],"matchScore":2,"terms":["fuzhou metro","福州地铁"],"reference":{"key":"route","value":"subway"},"tags":{"network:wikidata":"Q1022261","route":"subway","type":"route"},"addTags":{"network":"福州地铁","network:en":"Fuzhou Metro","network:wikidata":"Q1022261","network:wikipedia":"zh:福州地铁","network:zh":"福州地铁","route":"subway","type":"route"}},"type/route/subway/suzhourailtransit-7a104d":{"name":"苏州轨道交通","locationSet":{"include":["cn"]},"geometry":["relation"],"matchScore":2,"terms":["suzhou rail transit","苏州轨道交通"],"reference":{"key":"route","value":"subway"},"tags":{"network:wikidata":"Q914748","route":"subway","type":"route"},"addTags":{"network":"苏州轨道交通","network:en":"Suzhou Rail Transit","network:wikidata":"Q914748","network:wikipedia":"zh:苏州轨道交通","network:zh":"苏州轨道交通","route":"subway","type":"route"}},"type/route/subway/xianmetro-7a104d":{"name":"西安地铁","locationSet":{"include":["cn"]},"geometry":["relation"],"matchScore":2,"terms":["xi'an metro","西安地铁"],"reference":{"key":"route","value":"subway"},"tags":{"network:wikidata":"Q555733","route":"subway","type":"route"},"addTags":{"network":"西安地铁","network:en":"Xi'an Metro","network:wikidata":"Q555733","network:wikipedia":"zh:西安地铁","network:zh":"西安地铁","route":"subway","type":"route"}},"type/route/subway/guiyangmetro-7a104d":{"name":"贵阳轨道交通","locationSet":{"include":["cn"]},"geometry":["relation"],"matchScore":2,"terms":["guiyang metro","贵阳轨道交通"],"reference":{"key":"route","value":"subway"},"tags":{"network:wikidata":"Q2688133","route":"subway","type":"route"},"addTags":{"network":"贵阳轨道交通","network:en":"Guiyang Metro","network:wikidata":"Q2688133","network:wikipedia":"zh:贵阳轨道交通","network:zh":"贵阳轨道交通","route":"subway","type":"route"}},"type/route/subway/zhengzhoumetro-7a104d":{"name":"郑州地铁","locationSet":{"include":["cn"]},"geometry":["relation"],"matchScore":2,"terms":["zhengzhou metro","郑州地铁"],"reference":{"key":"route","value":"subway"},"tags":{"network:wikidata":"Q1002598","route":"subway","type":"route"},"addTags":{"network":"郑州地铁","network:en":"Zhengzhou Metro","network:wikidata":"Q1002598","network:wikipedia":"zh:郑州地铁","network:zh":"郑州地铁","route":"subway","type":"route"}},"type/route/subway/chongqingrailtransit-7a104d":{"name":"重庆轨道交通","locationSet":{"include":["cn"]},"geometry":["relation"],"matchScore":2,"terms":["chongqing rail transit","重庆轨道交通"],"reference":{"key":"route","value":"subway"},"tags":{"network:wikidata":"Q1190894","route":"subway","type":"route"},"addTags":{"network":"重庆轨道交通","network:en":"Chongqing Rail Transit","network:wikidata":"Q1190894","network:wikipedia":"zh:重庆轨道交通","network:zh":"重庆轨道交通","route":"subway","type":"route"}},"type/route/subway/changchunrailtransit-7a104d":{"name":"长春轨道交通","locationSet":{"include":["cn"]},"geometry":["relation"],"matchScore":2,"terms":["changchun rail transit","长春轨道交通"],"reference":{"key":"route","value":"subway"},"tags":{"network:wikidata":"Q2586148","route":"subway","type":"route"},"addTags":{"network":"长春轨道交通","network:en":"Changchun Rail Transit","network:wikidata":"Q2586148","network:wikipedia":"zh:长春轨道交通","network:zh":"长春轨道交通","route":"subway","type":"route"}},"type/route/subway/changshametro-7a104d":{"name":"长沙地铁","locationSet":{"include":["cn"]},"geometry":["relation"],"matchScore":2,"terms":["changsha metro","长沙地铁"],"reference":{"key":"route","value":"subway"},"tags":{"network:wikidata":"Q1054256","route":"subway","type":"route"},"addTags":{"network":"长沙地铁","network:en":"Changsha Metro","network:wikidata":"Q1054256","network:wikipedia":"zh:长沙地铁","network:zh":"长沙地铁","route":"subway","type":"route"}},"type/route/subway/qingdaometro-7a104d":{"name":"青岛地铁","locationSet":{"include":["cn"]},"geometry":["relation"],"matchScore":2,"terms":["qingdao metro","青岛地铁"],"reference":{"key":"route","value":"subway"},"tags":{"network:wikidata":"Q2620251","route":"subway","type":"route"},"addTags":{"network":"青岛地铁","network:en":"Qingdao Metro","network:wikidata":"Q2620251","network:wikipedia":"zh:青岛地铁","network:zh":"青岛地铁","route":"subway","type":"route"}},"type/route/train/beijingsuburbanrailway-61c516":{"name":"北京市郊铁路","locationSet":{"include":["cn"]},"geometry":["relation"],"matchScore":2,"terms":["beijing suburban railway","china railway beijing group","中国铁路北京局集团有限公司","京局","北京城市铁路","北京城郊铁路","北京城铁","北京市郊铁路","北京都市铁路"],"reference":{"key":"route","value":"train"},"tags":{"network:wikidata":"Q4881191","route":"train","type":"route"},"addTags":{"network":"北京市郊铁路","network:en":"Beijing Suburban Railway","network:wikidata":"Q4881191","network:wikipedia":"zh:北京市郊铁路","network:zh":"北京市郊铁路","operator":"中国铁路北京局集团有限公司","operator:en":"China Railway Beijing Group","operator:short":"京局","operator:wikidata":"Q4881184","operator:wikipedia":"zh:中国铁路北京局集团","operator:zh":"中国铁路北京局集团有限公司","route":"train","type":"route"}}}