{"amenity/atm/postamat-64483a":{"name":"Postamat","locationSet":{"include":["it"]},"geometry":["point","vertex"],"matchScore":2,"terms":["postamat","poste italiane"],"tags":{"amenity":"atm","brand:wikidata":"Q3909447"},"addTags":{"amenity":"atm","brand":"Postamat","brand:wikidata":"Q3909447","brand:wikipedia":"it:Postamat","name":"Postamat","operator":"Poste Italiane","operator:wikidata":"Q495026","operator:wikipedia":"it:Poste italiane"}},"amenity/atm/attijariwafabank-e568eb":{"name":"Attijariwafa Bank (التجاري وفا بنك)","locationSet":{"include":["ae","be","bf","bj","ca","cd","cg","ch","ci","cm","eg","es","fr","ga","gb","it","ma","mr","nl","sa","sn","tg","tn"]},"geometry":["point","vertex"],"matchScore":2,"terms":["attijariwafa bank","attijariwafa bank التجاري وفا بنك","التجاري وفا بنك"],"tags":{"amenity":"atm","brand:wikidata":"Q758052"},"addTags":{"amenity":"atm","brand":"Attijariwafa Bank","brand:ar":"التجاري وفا بنك","brand:en":"Attijariwafa Bank","brand:wikidata":"Q758052","brand:wikipedia":"en:Attijariwafa Bank","name:ar":"التجاري وفا بنك","name:en":"Attijariwafa Bank","operator":"Attijariwafa Bank","operator:wikidata":"Q758052","operator:wikipedia":"en:Attijariwafa Bank"}},"amenity/atm/bancaintesa-66eaa8":{"name":"Banca Intesa","locationSet":{"include":["it","rs"]},"geometry":["point","vertex"],"matchScore":2,"terms":["banca intesa"],"searchable":false,"tags":{"amenity":"atm","brand:wikidata":"Q647092"},"addTags":{"amenity":"atm","brand":"Banca Intesa","brand:wikidata":"Q647092","brand:wikipedia":"en:Banca Intesa","name":"Banca Intesa","operator":"Banca Intesa","operator:wikidata":"Q647092","operator:wikipedia":"en:Banca Intesa"}},"amenity/atm/bancamediolanum-64483a":{"name":"Banca Mediolanum","locationSet":{"include":["it"]},"geometry":["point","vertex"],"matchScore":2,"terms":["banca mediolanum"],"tags":{"amenity":"atm","brand:wikidata":"Q3633712"},"addTags":{"amenity":"atm","brand":"Banca Mediolanum","brand:wikidata":"Q3633712","brand:wikipedia":"en:Banca Mediolanum","name":"Banca Mediolanum","operator":"Banca Mediolanum","operator:wikidata":"Q3633712","operator:wikipedia":"en:Banca Mediolanum"}},"amenity/atm/bancapopolaredibari-64483a":{"name":"Banca Popolare di Bari","locationSet":{"include":["it"]},"geometry":["point","vertex"],"matchScore":2,"terms":["banca popolare di bari"],"tags":{"amenity":"atm","brand:wikidata":"Q3633730"},"addTags":{"amenity":"atm","brand":"Banca Popolare di Bari","brand:wikidata":"Q3633730","brand:wikipedia":"en:Banca Popolare di Bari","name":"Banca Popolare di Bari","operator":"Banca Popolare di Bari","operator:wikidata":"Q3633730","operator:wikipedia":"en:Banca Popolare di Bari"}},"amenity/atm/bancapopolaredicividale-64483a":{"name":"Banca Popolare di Cividale","locationSet":{"include":["it"]},"geometry":["point","vertex"],"matchScore":2,"terms":["banca popolare di cividale","civibank"],"tags":{"amenity":"atm","brand:wikidata":"Q15639942"},"addTags":{"amenity":"atm","brand":"Banca Popolare di Cividale","brand:wikidata":"Q15639942","brand:wikipedia":"it:Banca Popolare di Cividale","name":"Banca Popolare di Cividale","operator":"Banca Popolare di Cividale","operator:wikidata":"Q15639942","operator:wikipedia":"it:Banca Popolare di Cividale"}},"amenity/atm/bancapopolaredimilano-64483a":{"name":"Banca Popolare di Milano","locationSet":{"include":["it"]},"geometry":["point","vertex"],"matchScore":2,"terms":["banca popolare di milano","bpm"],"searchable":false,"tags":{"amenity":"atm","brand:wikidata":"Q806154"},"addTags":{"amenity":"atm","brand":"Banca Popolare di Milano","brand:wikidata":"Q806154","brand:wikipedia":"en:Banca Popolare di Milano","name":"Banca Popolare di Milano","operator":"Banca Popolare di Milano","operator:wikidata":"Q806154","operator:wikipedia":"en:Banca Popolare di Milano"}},"amenity/atm/bancapopolaredinovara-64483a":{"name":"Banca Popolare di Novara","locationSet":{"include":["it"]},"geometry":["point","vertex"],"matchScore":2,"terms":["banca popolare di novara"],"searchable":false,"tags":{"amenity":"atm","brand:wikidata":"Q3633742"},"addTags":{"amenity":"atm","brand":"Banca Popolare di Novara","brand:wikidata":"Q3633742","brand:wikipedia":"en:Banca Popolare di Novara","name":"Banca Popolare di Novara","operator":"Banca Popolare di Novara","operator:wikidata":"Q3633742","operator:wikipedia":"en:Banca Popolare di Novara"}},"amenity/atm/bancapopolaredisondrio-64483a":{"name":"Banca Popolare di Sondrio","locationSet":{"include":["it"]},"geometry":["point","vertex"],"matchScore":2,"terms":["banca popolare di sondrio"],"tags":{"amenity":"atm","brand:wikidata":"Q686176"},"addTags":{"amenity":"atm","brand":"Banca Popolare di Sondrio","brand:wikidata":"Q686176","brand:wikipedia":"en:Banca Popolare di Sondrio","name":"Banca Popolare di Sondrio","operator":"Banca Popolare di Sondrio","operator:wikidata":"Q686176","operator:wikipedia":"en:Banca Popolare di Sondrio"}},"amenity/atm/bancapopolarediverona-64483a":{"name":"Banca Popolare di Verona","locationSet":{"include":["it"]},"geometry":["point","vertex"],"matchScore":2,"terms":["banca popolare di verona"],"searchable":false,"tags":{"amenity":"atm","brand:wikidata":"Q3167468"},"addTags":{"amenity":"atm","brand":"Banca Popolare di Verona","brand:wikidata":"Q3167468","brand:wikipedia":"en:Banca Popolare di Verona","name":"Banca Popolare di Verona","operator":"Banca Popolare di Verona","operator:wikidata":"Q3167468","operator:wikipedia":"en:Banca Popolare di Verona"}},"amenity/atm/bancapopolaredivicenza-64483a":{"name":"Banca Popolare di Vicenza","locationSet":{"include":["it"]},"geometry":["point","vertex"],"matchScore":2,"terms":["banca popolare di vicenza"],"searchable":false,"tags":{"amenity":"atm","brand:wikidata":"Q3127200"},"addTags":{"amenity":"atm","brand":"Banca Popolare di Vicenza","brand:wikidata":"Q3127200","brand:wikipedia":"en:Banca Popolare di Vicenza","name":"Banca Popolare di Vicenza","operator":"Banca Popolare di Vicenza","operator:wikidata":"Q3127200","operator:wikipedia":"en:Banca Popolare di Vicenza"}},"amenity/atm/bancasella-64483a":{"name":"Banca Sella","locationSet":{"include":["it"]},"geometry":["point","vertex"],"matchScore":2,"terms":["banca sella"],"tags":{"amenity":"atm","brand:wikidata":"Q3633749"},"addTags":{"amenity":"atm","brand":"Banca Sella","brand:wikidata":"Q3633749","brand:wikipedia":"it:Banca Sella","name":"Banca Sella","operator":"Banca Sella","operator:wikidata":"Q3633749","operator:wikipedia":"it:Banca Sella"}},"amenity/atm/bancobpm-64483a":{"name":"Banco BPM","locationSet":{"include":["it"]},"geometry":["point","vertex"],"matchScore":2,"terms":["banco bpm"],"tags":{"amenity":"atm","brand:wikidata":"Q27331643"},"addTags":{"amenity":"atm","brand":"Banco BPM","brand:wikidata":"Q27331643","brand:wikipedia":"en:Banco BPM","name":"Banco BPM","operator":"Banco BPM","operator:wikidata":"Q27331643","operator:wikipedia":"en:Banco BPM"}},"amenity/atm/bancodinapoli-64483a":{"name":"Banco di Napoli","locationSet":{"include":["it"]},"geometry":["point","vertex"],"matchScore":2,"terms":["banco di napoli"],"searchable":false,"tags":{"amenity":"atm","brand:wikidata":"Q3633835"},"addTags":{"amenity":"atm","brand":"Banco di Napoli","brand:wikidata":"Q3633835","brand:wikipedia":"en:Banco di Napoli","name":"Banco di Napoli","operator":"Banco di Napoli","operator:wikidata":"Q3633835","operator:wikipedia":"en:Banco di Napoli"}},"amenity/atm/bancodisardegna-64483a":{"name":"Banco di Sardegna","locationSet":{"include":["it"]},"geometry":["point","vertex"],"matchScore":2,"terms":["banco di sardegna"],"tags":{"amenity":"atm","brand:wikidata":"Q806205"},"addTags":{"amenity":"atm","brand":"Banco di Sardegna","brand:wikidata":"Q806205","brand:wikipedia":"en:Banco di Sardegna","name":"Banco di Sardegna","operator":"Banco di Sardegna","operator:wikidata":"Q806205","operator:wikipedia":"en:Banco di Sardegna"}},"amenity/atm/bancodisicilia-64483a":{"name":"Banco di Sicilia","locationSet":{"include":["it"]},"geometry":["point","vertex"],"matchScore":2,"terms":["banco di sicilia"],"searchable":false,"tags":{"amenity":"atm","brand:wikidata":"Q3633842"},"addTags":{"amenity":"atm","brand":"Banco di Sicilia","brand:wikidata":"Q3633842","brand:wikipedia":"it:Banco di Sicilia","name":"Banco di Sicilia","operator":"Banco di Sicilia","operator:wikidata":"Q3633842","operator:wikipedia":"it:Banco di Sicilia"}},"amenity/atm/banquepopulaire-2e486a":{"name":"Banque Populaire (البنك الشعبي)","locationSet":{"include":["de","es","it","ma","nl"]},"geometry":["point","vertex"],"matchScore":2,"terms":["banque populaire","banque populaire البنك الشعبي","البنك الشعبي"],"tags":{"amenity":"atm","brand:wikidata":"Q2883441"},"addTags":{"amenity":"atm","brand":"Banque Populaire","brand:ar":"البنك الشعبي","brand:en":"Banque Populaire","brand:wikidata":"Q2883441","brand:wikipedia":"en:Banque Populaire (Morocco)","name:ar":"البنك الشعبي","name:en":"Banque Populaire","operator":"Banque Populaire","operator:wikidata":"Q2883441","operator:wikipedia":"en:Banque Populaire (Morocco)"}},"amenity/atm/bccroma-64483a":{"name":"BCC Roma","locationSet":{"include":["it"]},"geometry":["point","vertex"],"matchScore":2,"terms":["banca di credito cooperativo di roma","bcc","bcc roma"],"tags":{"amenity":"atm","brand:wikidata":"Q25060394"},"addTags":{"amenity":"atm","brand":"BCC Roma","brand:wikidata":"Q25060394","brand:wikipedia":"en:Banca di Credito Cooperativo di Roma","name":"BCC Roma","official_name":"Banca di Credito Cooperativo di Roma","operator":"BCC Roma","operator:wikidata":"Q25060394","operator:wikipedia":"en:Banca di Credito Cooperativo di Roma"}},"amenity/atm/bnl-64483a":{"name":"BNL","locationSet":{"include":["it"]},"geometry":["point","vertex"],"matchScore":2,"terms":["banca nazionale del lavoro","bnl"],"tags":{"amenity":"atm","brand:wikidata":"Q2201225"},"addTags":{"amenity":"atm","brand":"BNL","brand:wikidata":"Q2201225","brand:wikipedia":"it:Banca Nazionale del Lavoro","name":"BNL","official_name":"Banca Nazionale del Lavoro","operator":"BNL","operator:wikidata":"Q2201225","operator:wikipedia":"it:Banca Nazionale del Lavoro"}},"amenity/atm/bperbanca-64483a":{"name":"BPER Banca","locationSet":{"include":["it"]},"geometry":["point","vertex"],"matchScore":2,"terms":["banca popolare dell'emilia romagna","bper banca"],"tags":{"amenity":"atm","brand:wikidata":"Q806167"},"addTags":{"amenity":"atm","brand":"BPER Banca","brand:wikidata":"Q806167","brand:wikipedia":"it:BPER Banca","name":"BPER Banca","official_name":"Banca Popolare dell'Emilia Romagna","operator":"BPER Banca","operator:wikidata":"Q806167","operator:wikipedia":"it:BPER Banca"}},"amenity/atm/carige-64483a":{"name":"Carige","locationSet":{"include":["it"]},"geometry":["point","vertex"],"matchScore":2,"terms":["carige"],"tags":{"amenity":"atm","brand:wikidata":"Q3633695"},"addTags":{"amenity":"atm","brand":"Carige","brand:wikidata":"Q3633695","brand:wikipedia":"en:Banca Carige","name":"Carige","operator":"Carige","operator:wikidata":"Q3633695","operator:wikipedia":"en:Banca Carige"}},"amenity/atm/cariparma-64483a":{"name":"Cariparma","locationSet":{"include":["it"]},"geometry":["point","vertex"],"matchScore":2,"terms":["cariparma"],"tags":{"amenity":"atm","brand:wikidata":"Q2938832"},"addTags":{"amenity":"atm","brand":"Cariparma","brand:wikidata":"Q2938832","brand:wikipedia":"en:Crédit Agricole Italia","name":"Cariparma","operator":"Cariparma","operator:wikidata":"Q2938832","operator:wikipedia":"en:Crédit Agricole Italia"}},"amenity/atm/carisbo-64483a":{"name":"Carisbo","locationSet":{"include":["it"]},"geometry":["point","vertex"],"matchScore":2,"terms":["carisbo"],"searchable":false,"tags":{"amenity":"atm","brand:wikidata":"Q3661937"},"addTags":{"amenity":"atm","brand":"Carisbo","brand:wikidata":"Q3661937","brand:wikipedia":"en:Cassa di Risparmio in Bologna","name":"Carisbo","operator":"Carisbo","operator:wikidata":"Q3661937","operator:wikipedia":"en:Cassa di Risparmio in Bologna"}},"amenity/atm/cassadirisparmiodelveneto-64483a":{"name":"Cassa di Risparmio del Veneto","locationSet":{"include":["it"]},"geometry":["point","vertex"],"matchScore":2,"terms":["cassa di risparmio del veneto"],"searchable":false,"tags":{"amenity":"atm","brand:wikidata":"Q3661909"},"addTags":{"amenity":"atm","brand":"Cassa di Risparmio del Veneto","brand:wikidata":"Q3661909","brand:wikipedia":"en:Cassa di Risparmio del Veneto","name":"Cassa di Risparmio del Veneto","operator":"Cassa di Risparmio del Veneto","operator:wikidata":"Q3661909","operator:wikipedia":"en:Cassa di Risparmio del Veneto"}},"amenity/atm/credem-64483a":{"name":"Credem","locationSet":{"include":["it"]},"geometry":["point","vertex"],"matchScore":2,"terms":["credem","credito emiliano"],"tags":{"amenity":"atm","brand:wikidata":"Q3696881"},"addTags":{"amenity":"atm","brand":"Credem","brand:wikidata":"Q3696881","brand:wikipedia":"en:Credito Emiliano","name":"Credem","official_name":"Credito Emiliano","operator":"Credem","operator:wikidata":"Q3696881","operator:wikipedia":"en:Credito Emiliano"}},"amenity/atm/creditovaltellinese-64483a":{"name":"Credito Valtellinese","locationSet":{"include":["it"]},"geometry":["point","vertex"],"matchScore":2,"terms":["credito valtellinese"],"tags":{"amenity":"atm","brand:wikidata":"Q3696888"},"addTags":{"amenity":"atm","brand":"Credito Valtellinese","brand:wikidata":"Q3696888","brand:wikipedia":"en:Credito Valtellinese","name":"Credito Valtellinese","operator":"Credito Valtellinese","operator:wikidata":"Q3696888","operator:wikipedia":"en:Credito Valtellinese"}},"amenity/atm/montedeipaschidisiena-64483a":{"name":"Monte dei Paschi di Siena","locationSet":{"include":["it"]},"geometry":["point","vertex"],"matchScore":2,"terms":["antonveneta","banca antonveneta","monte dei paschi di siena"],"tags":{"amenity":"atm","brand:wikidata":"Q46730"},"addTags":{"amenity":"atm","brand":"Monte dei Paschi di Siena","brand:wikidata":"Q46730","brand:wikipedia":"en:Banca Monte dei Paschi di Siena","name":"Monte dei Paschi di Siena","operator":"Monte dei Paschi di Siena","operator:wikidata":"Q46730","operator:wikipedia":"en:Banca Monte dei Paschi di Siena"}},"amenity/atm/ubibanca-64483a":{"name":"UBI Banca","locationSet":{"include":["it"]},"geometry":["point","vertex"],"matchScore":2,"terms":["ubi banca"],"searchable":false,"tags":{"amenity":"atm","brand:wikidata":"Q1476162"},"addTags":{"amenity":"atm","brand":"UBI Banca","brand:wikidata":"Q1476162","brand:wikipedia":"en:UBI Banca","name":"UBI Banca","operator":"UBI Banca","operator:wikidata":"Q1476162","operator:wikipedia":"en:UBI Banca"}},"amenity/atm/venetobanca-64483a":{"name":"Veneto Banca","locationSet":{"include":["it"]},"geometry":["point","vertex"],"matchScore":2,"terms":["veneto banca"],"searchable":false,"tags":{"amenity":"atm","brand:wikidata":"Q3127221"},"addTags":{"amenity":"atm","brand":"Veneto Banca","brand:wikidata":"Q3127221","brand:wikipedia":"en:Veneto Banca","name":"Veneto Banca","operator":"Veneto Banca","operator:wikidata":"Q3127221","operator:wikipedia":"en:Veneto Banca"}},"amenity/bank/attijariwafabank-c1cae6":{"name":"Attijariwafa Bank (التجاري وفا بنك)","locationSet":{"include":["ae","be","bf","bj","ca","cd","cg","ch","ci","cm","eg","es","fr","ga","gb","it","ma","mr","nl","sa","sn","tg","tn"]},"geometry":["point","area"],"matchScore":2,"terms":["attijariwafa bank","attijariwafa bank التجاري وفا بنك","التجاري وفا بنك"],"tags":{"amenity":"bank","brand:wikidata":"Q758052"},"addTags":{"amenity":"bank","brand":"Attijariwafa Bank","brand:ar":"التجاري وفا بنك","brand:en":"Attijariwafa Bank","brand:wikidata":"Q758052","brand:wikipedia":"en:Attijariwafa Bank","name:ar":"التجاري وفا بنك","name:en":"Attijariwafa Bank"}},"amenity/bank/bancaintesa-4a6838":{"name":"Banca Intesa","locationSet":{"include":["it","rs"]},"geometry":["point","area"],"matchScore":2,"terms":["banca intesa"],"searchable":false,"tags":{"amenity":"bank","brand:wikidata":"Q647092"},"addTags":{"amenity":"bank","brand":"Banca Intesa","brand:wikidata":"Q647092","brand:wikipedia":"en:Banca Intesa","name":"Banca Intesa"}},"amenity/bank/bancamediolanum-7b36b5":{"name":"Banca Mediolanum","locationSet":{"include":["it"]},"geometry":["point","area"],"matchScore":2,"terms":["banca mediolanum"],"tags":{"amenity":"bank","brand:wikidata":"Q3633712"},"addTags":{"amenity":"bank","brand":"Banca Mediolanum","brand:wikidata":"Q3633712","brand:wikipedia":"en:Banca Mediolanum","name":"Banca Mediolanum"}},"amenity/bank/bancapopolaredibari-7b36b5":{"name":"Banca Popolare di Bari","locationSet":{"include":["it"]},"geometry":["point","area"],"matchScore":2,"terms":["banca popolare di bari"],"tags":{"amenity":"bank","brand:wikidata":"Q3633730"},"addTags":{"amenity":"bank","brand":"Banca Popolare di Bari","brand:wikidata":"Q3633730","brand:wikipedia":"en:Banca Popolare di Bari","name":"Banca Popolare di Bari"}},"amenity/bank/bancapopolaredicividale-7b36b5":{"name":"Banca Popolare di Cividale","locationSet":{"include":["it"]},"geometry":["point","area"],"matchScore":2,"terms":["banca popolare di cividale","civibank"],"tags":{"amenity":"bank","brand:wikidata":"Q15639942"},"addTags":{"amenity":"bank","brand":"Banca Popolare di Cividale","brand:wikidata":"Q15639942","brand:wikipedia":"it:Banca Popolare di Cividale","name":"Banca Popolare di Cividale"}},"amenity/bank/bancapopolaredimilano-7b36b5":{"name":"Banca Popolare di Milano","locationSet":{"include":["it"]},"geometry":["point","area"],"matchScore":2,"terms":["banca popolare di milano","bpm"],"searchable":false,"tags":{"amenity":"bank","brand:wikidata":"Q806154"},"addTags":{"amenity":"bank","brand":"Banca Popolare di Milano","brand:wikidata":"Q806154","brand:wikipedia":"en:Banca Popolare di Milano","name":"Banca Popolare di Milano"}},"amenity/bank/bancapopolaredinovara-7b36b5":{"name":"Banca Popolare di Novara","locationSet":{"include":["it"]},"geometry":["point","area"],"matchScore":2,"terms":["banca popolare di novara"],"searchable":false,"tags":{"amenity":"bank","brand:wikidata":"Q3633742"},"addTags":{"amenity":"bank","brand":"Banca Popolare di Novara","brand:wikidata":"Q3633742","brand:wikipedia":"en:Banca Popolare di Novara","name":"Banca Popolare di Novara"}},"amenity/bank/bancapopolaredisondrio-7b36b5":{"name":"Banca Popolare di Sondrio","locationSet":{"include":["it"]},"geometry":["point","area"],"matchScore":2,"terms":["banca popolare di sondrio"],"tags":{"amenity":"bank","brand:wikidata":"Q686176"},"addTags":{"amenity":"bank","brand":"Banca Popolare di Sondrio","brand:wikidata":"Q686176","brand:wikipedia":"en:Banca Popolare di Sondrio","name":"Banca Popolare di Sondrio"}},"amenity/bank/bancapopolarediverona-7b36b5":{"name":"Banca Popolare di Verona","locationSet":{"include":["it"]},"geometry":["point","area"],"matchScore":2,"terms":["banca popolare di verona"],"searchable":false,"tags":{"amenity":"bank","brand:wikidata":"Q3167468"},"addTags":{"amenity":"bank","brand":"Banca Popolare di Verona","brand:wikidata":"Q3167468","brand:wikipedia":"en:Banca Popolare di Verona","name":"Banca Popolare di Verona"}},"amenity/bank/bancapopolaredivicenza-7b36b5":{"name":"Banca Popolare di Vicenza","locationSet":{"include":["it"]},"geometry":["point","area"],"matchScore":2,"terms":["banca popolare di vicenza"],"searchable":false,"tags":{"amenity":"bank","brand:wikidata":"Q3127200"},"addTags":{"amenity":"bank","brand":"Banca Popolare di Vicenza","brand:wikidata":"Q3127200","brand:wikipedia":"en:Banca Popolare di Vicenza","name":"Banca Popolare di Vicenza"}},"amenity/bank/bancasella-7b36b5":{"name":"Banca Sella","locationSet":{"include":["it"]},"geometry":["point","area"],"matchScore":2,"terms":["banca sella"],"tags":{"amenity":"bank","brand:wikidata":"Q3633749"},"addTags":{"amenity":"bank","brand":"Banca Sella","brand:wikidata":"Q3633749","brand:wikipedia":"it:Banca Sella","name":"Banca Sella"}},"amenity/bank/bancobpm-7b36b5":{"name":"Banco BPM","locationSet":{"include":["it"]},"geometry":["point","area"],"matchScore":2,"terms":["banco bpm"],"tags":{"amenity":"bank","brand:wikidata":"Q27331643"},"addTags":{"amenity":"bank","brand":"Banco BPM","brand:wikidata":"Q27331643","brand:wikipedia":"en:Banco BPM","name":"Banco BPM"}},"amenity/bank/bancodinapoli-7b36b5":{"name":"Banco di Napoli","locationSet":{"include":["it"]},"geometry":["point","area"],"matchScore":2,"terms":["banco di napoli"],"searchable":false,"tags":{"amenity":"bank","brand:wikidata":"Q3633835"},"addTags":{"amenity":"bank","brand":"Banco di Napoli","brand:wikidata":"Q3633835","brand:wikipedia":"en:Banco di Napoli","name":"Banco di Napoli"}},"amenity/bank/bancodisardegna-7b36b5":{"name":"Banco di Sardegna","locationSet":{"include":["it"]},"geometry":["point","area"],"matchScore":2,"terms":["banco di sardegna"],"tags":{"amenity":"bank","brand:wikidata":"Q806205"},"addTags":{"amenity":"bank","brand":"Banco di Sardegna","brand:wikidata":"Q806205","brand:wikipedia":"en:Banco di Sardegna","name":"Banco di Sardegna"}},"amenity/bank/bancodisicilia-7b36b5":{"name":"Banco di Sicilia","locationSet":{"include":["it"]},"geometry":["point","area"],"matchScore":2,"terms":["banco di sicilia"],"searchable":false,"tags":{"amenity":"bank","brand:wikidata":"Q3633842"},"addTags":{"amenity":"bank","brand":"Banco di Sicilia","brand:wikidata":"Q3633842","brand:wikipedia":"it:Banco di Sicilia","name":"Banco di Sicilia"}},"amenity/bank/banquepopulaire-4fc013":{"name":"Banque Populaire (البنك الشعبي)","locationSet":{"include":["de","es","it","ma","nl"]},"geometry":["point","area"],"matchScore":2,"terms":["banque populaire","banque populaire البنك الشعبي","البنك الشعبي"],"tags":{"amenity":"bank","brand:wikidata":"Q2883441"},"addTags":{"amenity":"bank","brand":"Banque Populaire","brand:ar":"البنك الشعبي","brand:en":"Banque Populaire","brand:wikidata":"Q2883441","brand:wikipedia":"en:Banque Populaire (Morocco)","name:ar":"البنك الشعبي","name:en":"Banque Populaire"}},"amenity/bank/bccroma-7b36b5":{"name":"BCC Roma","locationSet":{"include":["it"]},"geometry":["point","area"],"matchScore":2,"terms":["banca di credito cooperativo di roma","bcc","bcc roma"],"tags":{"amenity":"bank","brand:wikidata":"Q25060394"},"addTags":{"amenity":"bank","brand":"BCC Roma","brand:wikidata":"Q25060394","brand:wikipedia":"en:Banca di Credito Cooperativo di Roma","name":"BCC Roma","official_name":"Banca di Credito Cooperativo di Roma"}},"amenity/bank/bnl-7b36b5":{"name":"BNL","locationSet":{"include":["it"]},"geometry":["point","area"],"matchScore":2,"terms":["banca nazionale del lavoro","bnl"],"tags":{"amenity":"bank","brand:wikidata":"Q2201225"},"addTags":{"amenity":"bank","brand":"BNL","brand:wikidata":"Q2201225","brand:wikipedia":"it:Banca Nazionale del Lavoro","name":"BNL","official_name":"Banca Nazionale del Lavoro"}},"amenity/bank/bperbanca-7b36b5":{"name":"BPER Banca","locationSet":{"include":["it"]},"geometry":["point","area"],"matchScore":2,"terms":["banca popolare dell'emilia romagna","bper banca"],"tags":{"amenity":"bank","brand:wikidata":"Q806167"},"addTags":{"amenity":"bank","brand":"BPER Banca","brand:wikidata":"Q806167","brand:wikipedia":"it:BPER Banca","name":"BPER Banca","official_name":"Banca Popolare dell'Emilia Romagna"}},"amenity/bank/carige-7b36b5":{"name":"Carige","locationSet":{"include":["it"]},"geometry":["point","area"],"matchScore":2,"terms":["carige"],"tags":{"amenity":"bank","brand:wikidata":"Q3633695"},"addTags":{"amenity":"bank","brand":"Carige","brand:wikidata":"Q3633695","brand:wikipedia":"en:Banca Carige","name":"Carige"}},"amenity/bank/cariparma-7b36b5":{"name":"Cariparma","locationSet":{"include":["it"]},"geometry":["point","area"],"matchScore":2,"terms":["cariparma"],"tags":{"amenity":"bank","brand:wikidata":"Q2938832"},"addTags":{"amenity":"bank","brand":"Cariparma","brand:wikidata":"Q2938832","brand:wikipedia":"en:Crédit Agricole Italia","name":"Cariparma"}},"amenity/bank/carisbo-7b36b5":{"name":"Carisbo","locationSet":{"include":["it"]},"geometry":["point","area"],"matchScore":2,"terms":["carisbo"],"searchable":false,"tags":{"amenity":"bank","brand:wikidata":"Q3661937"},"addTags":{"amenity":"bank","brand":"Carisbo","brand:wikidata":"Q3661937","brand:wikipedia":"en:Cassa di Risparmio in Bologna","name":"Carisbo"}},"amenity/bank/cassadirisparmiodelveneto-7b36b5":{"name":"Cassa di Risparmio del Veneto","locationSet":{"include":["it"]},"geometry":["point","area"],"matchScore":2,"terms":["cassa di risparmio del veneto"],"searchable":false,"tags":{"amenity":"bank","brand:wikidata":"Q3661909"},"addTags":{"amenity":"bank","brand":"Cassa di Risparmio del Veneto","brand:wikidata":"Q3661909","brand:wikipedia":"en:Cassa di Risparmio del Veneto","name":"Cassa di Risparmio del Veneto"}},"amenity/bank/credem-7b36b5":{"name":"Credem","locationSet":{"include":["it"]},"geometry":["point","area"],"matchScore":2,"terms":["credem","credito emiliano"],"tags":{"amenity":"bank","brand:wikidata":"Q3696881"},"addTags":{"amenity":"bank","brand":"Credem","brand:wikidata":"Q3696881","brand:wikipedia":"en:Credito Emiliano","name":"Credem","official_name":"Credito Emiliano"}},"amenity/bank/creditovaltellinese-7b36b5":{"name":"Credito Valtellinese","locationSet":{"include":["it"]},"geometry":["point","area"],"matchScore":2,"terms":["credito valtellinese"],"tags":{"amenity":"bank","brand:wikidata":"Q3696888"},"addTags":{"amenity":"bank","brand":"Credito Valtellinese","brand:wikidata":"Q3696888","brand:wikipedia":"en:Credito Valtellinese","name":"Credito Valtellinese"}},"amenity/bank/montedeipaschidisiena-7b36b5":{"name":"Monte dei Paschi di Siena","locationSet":{"include":["it"]},"geometry":["point","area"],"matchScore":2,"terms":["antonveneta","banca antonveneta","monte dei paschi di siena"],"tags":{"amenity":"bank","brand:wikidata":"Q46730"},"addTags":{"amenity":"bank","brand":"Monte dei Paschi di Siena","brand:wikidata":"Q46730","brand:wikipedia":"en:Banca Monte dei Paschi di Siena","name":"Monte dei Paschi di Siena"}},"amenity/bank/ubibanca-7b36b5":{"name":"UBI Banca","locationSet":{"include":["it"]},"geometry":["point","area"],"matchScore":2,"terms":["ubi banca"],"searchable":false,"tags":{"amenity":"bank","brand:wikidata":"Q1476162"},"addTags":{"amenity":"bank","brand":"UBI Banca","brand:wikidata":"Q1476162","brand:wikipedia":"en:UBI Banca","name":"UBI Banca"}},"amenity/bank/venetobanca-7b36b5":{"name":"Veneto Banca","locationSet":{"include":["it"]},"geometry":["point","area"],"matchScore":2,"terms":["veneto banca"],"searchable":false,"tags":{"amenity":"bank","brand:wikidata":"Q3127221"},"addTags":{"amenity":"bank","brand":"Veneto Banca","brand:wikidata":"Q3127221","brand:wikipedia":"en:Veneto Banca","name":"Veneto Banca"}},"amenity/bicycle_rental/tobike-3d5df6":{"name":"[TO]BIKE","locationSet":{"include":["it"]},"geometry":["point","vertex","area"],"matchScore":2,"terms":["[to]bike"],"fields":["name","brand","{amenity/bicycle_rental}"],"tags":{"amenity":"bicycle_rental","brand:wikidata":"Q245660"},"addTags":{"amenity":"bicycle_rental","brand":"[TO]BIKE","brand:wikidata":"Q245660","brand:wikipedia":"it:TOBike","name":"[TO]BIKE","operator":"[TO]BIKE"}},"amenity/bicycle_rental/bits-3d5df6":{"name":"BiTS","locationSet":{"include":["it"]},"geometry":["point","vertex","area"],"matchScore":2,"terms":["bicincittà","bits"],"fields":["name","brand","{amenity/bicycle_rental}"],"tags":{"amenity":"bicycle_rental","brand:wikidata":"Q109122647"},"addTags":{"amenity":"bicycle_rental","brand":"BiTS","brand:wikidata":"Q109122647","network":"BiTS","operator":"Bicincittà","operator:wikidata":"Q108937937"}},"amenity/bicycle_rental/goodbikepadova-3d5df6":{"name":"GoodBike Padova","locationSet":{"include":["it"]},"geometry":["point","vertex","area"],"matchScore":2,"terms":["bicincittà","goodbike padova"],"fields":["name","brand","{amenity/bicycle_rental}"],"tags":{"amenity":"bicycle_rental","brand:wikidata":"Q105555683"},"addTags":{"amenity":"bicycle_rental","brand":"GoodBike Padova","brand:wikidata":"Q105555683","network":"GoodBike Padova","operator":"Bicincittà","operator:wikidata":"Q108937937"}},"amenity/casino/codere-3dfd07":{"name":"Codere","locationSet":{"include":["ar","co","es","it","mx","pa","uy"]},"geometry":["point","area"],"matchScore":2,"terms":["codere"],"tags":{"amenity":"casino","brand:wikidata":"Q2918415"},"addTags":{"amenity":"casino","brand":"Codere","brand:wikidata":"Q2918415","brand:wikipedia":"es:Codere","name":"Codere"}},"amenity/cinema/cineplexx-8f1bb5":{"name":"Cineplexx","locationSet":{"include":["al","at","ba","gr","hr","it","me","mk","ro","rs","si","xk"]},"geometry":["point","area"],"matchScore":2,"terms":["cineplexx"],"fields":["name","brand","{amenity/cinema}"],"tags":{"amenity":"cinema","brand:wikidata":"Q873340"},"addTags":{"amenity":"cinema","brand":"Cineplexx","brand:wikidata":"Q873340","brand:wikipedia":"en:Cineplexx Cinemas","name":"Cineplexx"}},"amenity/cinema/cinestar-a7029a":{"name":"CineStar","locationSet":{"include":["ba","cz","de","hr","it","rs"]},"geometry":["point","area"],"matchScore":2,"terms":["cinestar"],"fields":["name","brand","{amenity/cinema}"],"tags":{"amenity":"cinema","brand:wikidata":"Q321889"},"addTags":{"amenity":"cinema","brand":"CineStar","brand:wikidata":"Q321889","brand:wikipedia":"de:Cinestar","name":"CineStar"}},"amenity/cinema/odeon-031144":{"name":"Odeon","locationSet":{"include":["gb","gr","ie","it"]},"geometry":["point","area"],"matchScore":2,"terms":["odeon","odeon cinema"],"fields":["name","brand","{amenity/cinema}"],"tags":{"amenity":"cinema","brand:wikidata":"Q6127470"},"addTags":{"amenity":"cinema","brand":"Odeon","brand:wikidata":"Q6127470","brand:wikipedia":"en:Odeon Cinemas","name":"Odeon"}},"amenity/cinema/thespacecinema-2446c8":{"name":"The Space Cinema","locationSet":{"include":["it"]},"geometry":["point","area"],"matchScore":2,"terms":["the space","the space cinema"],"fields":["name","brand","{amenity/cinema}"],"tags":{"amenity":"cinema","brand:wikidata":"Q3989406"},"addTags":{"amenity":"cinema","brand":"The Space Cinema","brand:wikidata":"Q3989406","brand:wikipedia":"it:The Space Cinema","name":"The Space Cinema"}},"amenity/dentist/vitaldent-23a76b":{"name":"Vitaldent","locationSet":{"include":["es","it"]},"geometry":["point","area"],"matchScore":2,"terms":["vitaldent"],"reference":{"key":"amenity","value":"dentist"},"tags":{"amenity":"dentist","brand:wikidata":"Q5860599"},"addTags":{"amenity":"dentist","brand":"Vitaldent","brand:wikidata":"Q5860599","brand:wikipedia":"es:Vitaldent","healthcare":"dentist","name":"Vitaldent"}},"amenity/fast_food/sandwich/exki-a3472e":{"name":"Exki","locationSet":{"include":["be","es","fr","it","lu","nl"]},"geometry":["point","area"],"matchScore":2,"terms":["exki"],"reference":{"key":"cuisine","value":"sandwich"},"tags":{"amenity":"fast_food","brand:wikidata":"Q251760","cuisine":"healthy;sandwich;salad;pie"},"addTags":{"amenity":"fast_food","brand":"Exki","brand:wikidata":"Q251760","brand:wikipedia":"fr:Exki","cuisine":"healthy;sandwich;salad;pie","diet:vegetarian":"yes","name":"Exki","takeaway":"yes"}},"amenity/fast_food/burger/fiveguys-200282":{"name":"Five Guys","locationSet":{"include":["ae","be","ca","de","es","fr","gb","hk","ie","it","kw","lu","nl","qa","sa","sg","us"]},"geometry":["point","area"],"matchScore":2,"terms":["five guys","five guys burgers and fries"],"reference":{"key":"cuisine","value":"burger"},"tags":{"amenity":"fast_food","brand:wikidata":"Q1131810","cuisine":"burger"},"addTags":{"amenity":"fast_food","brand":"Five Guys","brand:wikidata":"Q1131810","brand:wikipedia":"en:Five Guys","cuisine":"burger","name":"Five Guys","official_name":"Five Guys Burgers and Fries","takeaway":"yes"}},"amenity/fast_food/burger/flowerburger-777b0e":{"name":"Flower Burger","locationSet":{"include":["fr","it"]},"geometry":["point","area"],"matchScore":2,"terms":["flower burger"],"reference":{"key":"cuisine","value":"burger"},"tags":{"amenity":"fast_food","brand:wikidata":"Q67168925","cuisine":"burger"},"addTags":{"amenity":"fast_food","brand":"Flower Burger","brand:wikidata":"Q67168925","cuisine":"burger","diet:vegan":"only","name":"Flower Burger","takeaway":"yes"}},"amenity/fast_food/lapiadineria-b4e8f3":{"name":"La Piadineria","locationSet":{"include":["it"]},"geometry":["point","area"],"matchScore":2,"terms":["la piadineria"],"tags":{"amenity":"fast_food","brand:wikidata":"Q108195414"},"addTags":{"amenity":"fast_food","brand":"La Piadineria","brand:wikidata":"Q108195414","cuisine":"piadina","name":"La Piadineria","takeaway":"yes"}},"amenity/fast_food/malvon-d3d66f":{"name":"Malvón","locationSet":{"include":["es","fr","it","pt"]},"geometry":["point","area"],"matchScore":2,"terms":["empanadas argentinas malvón","malvón"],"tags":{"amenity":"fast_food","brand:wikidata":"Q109877196"},"addTags":{"alt_name":"Empanadas Argentinas Malvón","amenity":"fast_food","brand":"Malvón","brand:wikidata":"Q109877196","cuisine":"empanada","name":"Malvón","takeaway":"yes"}},"amenity/fast_food/sandwich/pansandcompany-b2cd69":{"name":"Pans & Company","locationSet":{"include":["es","it","pt"]},"geometry":["point","area"],"matchScore":2,"terms":["pans & company"],"reference":{"key":"cuisine","value":"sandwich"},"tags":{"amenity":"fast_food","brand:wikidata":"Q11697586","cuisine":"sandwich"},"addTags":{"amenity":"fast_food","brand":"Pans & Company","brand:wikidata":"Q11697586","brand:wikipedia":"es:Pans & Company","cuisine":"sandwich","name":"Pans & Company","takeaway":"yes"}},"amenity/fast_food/pizza/spizzico-7eb3e4":{"name":"Spizzico","locationSet":{"include":["ch","fr","gr","it","us"]},"geometry":["point","area"],"matchScore":2,"terms":["spizzico"],"reference":{"key":"cuisine","value":"pizza"},"tags":{"amenity":"fast_food","brand:wikidata":"Q1419041","cuisine":"pizza"},"addTags":{"amenity":"fast_food","brand":"Spizzico","brand:wikidata":"Q1419041","brand:wikipedia":"en:Spizzico","cuisine":"pizza","name":"Spizzico","takeaway":"yes"}},"amenity/fast_food/sushishop-ac545e":{"name":"Sushi Shop (Europe)","locationSet":{"include":["ae","be","ch","de","es","fr","it","lu","pt","sa","uk"]},"geometry":["point","area"],"matchScore":2,"terms":["sushi shop"],"tags":{"amenity":"fast_food","brand:wikidata":"Q3505657"},"addTags":{"amenity":"fast_food","brand":"Sushi Shop","brand:wikidata":"Q3505657","brand:wikipedia":"fr:Sushi Shop","cuisine":"sushi","name":"Sushi Shop","takeaway":"yes"}},"amenity/fuel/api-e8f712":{"name":"Api","locationSet":{"include":["it"]},"geometry":["point","area"],"matchScore":2,"terms":["api"],"fields":["name","brand","{amenity/fuel}"],"tags":{"amenity":"fuel","brand:wikidata":"Q646807"},"addTags":{"amenity":"fuel","brand":"Api","brand:wikidata":"Q646807","brand:wikipedia":"it:Italiana Petroli (azienda 2019)","name":"Api"}},"amenity/fuel/as24-3463db":{"name":"AS 24","locationSet":{"include":["at","be","bg","cz","de","dk","es","fr","gb","ge","gr","hr","hu","ie","it","lt","lu","mk","nl","pl","pt","ro","rs","se","si","sk","ua"]},"geometry":["point","area"],"matchScore":2,"terms":["as 24"],"fields":["name","brand","{amenity/fuel}"],"tags":{"amenity":"fuel","brand:wikidata":"Q2819394"},"addTags":{"amenity":"fuel","brand":"AS 24","brand:wikidata":"Q2819394","brand:wikipedia":"fr:AS 24 (entreprise)","hgv":"only","name":"AS 24"}},"amenity/fuel/auchan-fcb99f":{"name":"Auchan","locationSet":{"include":["al","ad","ba","hr","gi","gr","va","it","mt","me","mk","pt","sm","rs","si","es","xk","by","bg","cz","hu","pl","md","ro","ru","sk","ua","at","be","fr","de","li","lu","mc","nl","ch"]},"geometry":["point","area"],"matchScore":2,"terms":["auchan"],"fields":["name","brand","{amenity/fuel}"],"tags":{"amenity":"fuel","brand:wikidata":"Q758603"},"addTags":{"amenity":"fuel","brand":"Auchan","brand:wikidata":"Q758603","brand:wikipedia":"en:Auchan","name":"Auchan"}},"amenity/fuel/avia-e0aaf8":{"name":"Avia","locationSet":{"include":["at","be","bg","ch","cz","de","es","fr","hu","it","nl","pl","pt","rs","ua"]},"geometry":["point","area"],"matchScore":2,"terms":["avia","station avia"],"fields":["name","brand","{amenity/fuel}"],"tags":{"amenity":"fuel","brand:wikidata":"Q300147"},"addTags":{"amenity":"fuel","brand":"Avia","brand:wikidata":"Q300147","brand:wikipedia":"de:Avia International","name":"Avia"}},"amenity/fuel/eni-4e932a":{"name":"Eni","locationSet":{"include":["at","ch","fr","it"]},"geometry":["point","area"],"matchScore":2,"terms":["eni"],"fields":["name","brand","{amenity/fuel}"],"tags":{"amenity":"fuel","brand:wikidata":"Q565594"},"addTags":{"amenity":"fuel","brand":"Eni","brand:wikidata":"Q565594","brand:wikipedia":"en:Eni","name":"Eni"}},"amenity/fuel/erg-e8f712":{"name":"Erg","locationSet":{"include":["it"]},"geometry":["point","area"],"matchScore":2,"terms":["erg"],"fields":["name","brand","{amenity/fuel}"],"tags":{"amenity":"fuel","brand:wikidata":"Q739503"},"addTags":{"amenity":"fuel","brand":"Erg","brand:wikidata":"Q739503","brand:wikipedia":"it:ERG (azienda)","name":"Erg"}},"amenity/fuel/ies-e8f712":{"name":"IES","locationSet":{"include":["it"]},"geometry":["point","area"],"matchScore":2,"terms":["ies"],"fields":["name","brand","{amenity/fuel}"],"tags":{"amenity":"fuel","brand:wikidata":"Q62287387"},"addTags":{"amenity":"fuel","brand":"IES","brand:wikidata":"Q62287387","name":"IES"}},"amenity/fuel/metano-e8f712":{"name":"Metano","locationSet":{"include":["it"]},"geometry":["point","area"],"matchScore":2,"terms":["metano"],"fields":["name","brand","{amenity/fuel}"],"tags":{"amenity":"fuel","brand:wikidata":"Q62294765"},"addTags":{"amenity":"fuel","brand":"Metano","brand:wikidata":"Q62294765","name":"Metano"}},"amenity/fuel/q8-7bb553":{"name":"Q8","locationSet":{"include":["be","dk","es","it","lu","nl","pt"]},"geometry":["point","area"],"matchScore":2,"terms":["q8"],"fields":["name","brand","{amenity/fuel}"],"tags":{"amenity":"fuel","brand:wikidata":"Q1634762"},"addTags":{"amenity":"fuel","brand":"Q8","brand:wikidata":"Q1634762","brand:wikipedia":"en:Kuwait Petroleum Corporation","name":"Q8"}},"amenity/fuel/q8easy-578c5e":{"name":"Q8 Easy","locationSet":{"include":["be","it"]},"geometry":["point","area"],"matchScore":2,"terms":["q8 easy"],"fields":["name","brand","{amenity/fuel}"],"tags":{"amenity":"fuel","brand:wikidata":"Q1806948"},"addTags":{"amenity":"fuel","brand":"Q8 Easy","brand:wikidata":"Q1806948","brand:wikipedia":"nl:Q8 Easy","name":"Q8 Easy"}},"amenity/fuel/tamoil-c25a01":{"name":"Tamoil","locationSet":{"include":["ch","de","es","fr","it","nl"]},"geometry":["point","area"],"matchScore":2,"terms":["tamoil"],"fields":["name","brand","{amenity/fuel}"],"tags":{"amenity":"fuel","brand:wikidata":"Q706793"},"addTags":{"amenity":"fuel","brand":"Tamoil","brand:wikidata":"Q706793","brand:wikipedia":"en:Tamoil","name":"Tamoil"}},"amenity/fuel/totalerg-e8f712":{"name":"TotalErg","locationSet":{"include":["it"]},"geometry":["point","area"],"matchScore":2,"terms":["totalerg"],"fields":["name","brand","{amenity/fuel}"],"searchable":false,"tags":{"amenity":"fuel","brand:wikidata":"Q3995933"},"addTags":{"amenity":"fuel","brand":"TotalErg","brand:wikidata":"Q3995933","brand:wikipedia":"it:TotalErg","name":"TotalErg"}},"amenity/ice_cream/amorino-6cf168":{"name":"Amorino","locationSet":{"include":["ae","ch","cz","de","es","fr","gb","gr","ie","it","lu","ma","mt","mx","nc","pt","qa","re","us"]},"geometry":["point","area"],"matchScore":2,"terms":["amorino"],"tags":{"amenity":"ice_cream","brand:wikidata":"Q2843884"},"addTags":{"amenity":"ice_cream","brand":"Amorino","brand:wikidata":"Q2843884","brand:wikipedia":"fr:Amorino","name":"Amorino"}},"amenity/ice_cream/freddo-3a94a6":{"name":"Freddo","locationSet":{"include":["ar","bo","br","cl","gb","it","us","uy"]},"geometry":["point","area"],"matchScore":2,"terms":["freddo"],"tags":{"amenity":"ice_cream","brand:wikidata":"Q28823999"},"addTags":{"amenity":"ice_cream","brand":"Freddo","brand:wikidata":"Q28823999","brand:wikipedia":"es:Freddo","cuisine":"ice_cream","name":"Freddo"}},"amenity/ice_cream/smooy-bac155":{"name":"smöoy","locationSet":{"include":["ao","ci","cn","dz","ec","es","fr","gb","gn","it","ma","pa","pe","pt","re","sa"]},"geometry":["point","area"],"matchScore":2,"terms":["smöoy","softy cream"],"tags":{"amenity":"ice_cream","brand:wikidata":"Q21573945"},"addTags":{"amenity":"ice_cream","brand":"smöoy","brand:wikidata":"Q21573945","brand:wikipedia":"es:Smöoy","name":"smöoy","official_name":"Softy Cream"}},"amenity/parcel_locker/lockerinpost-5fab02":{"name":"Locker InPost","locationSet":{"include":["it","uk"]},"geometry":["point","vertex"],"matchScore":2,"terms":["inpost"],"reference":{"key":"amenity","value":"parcel_locker"},"tags":{"amenity":"parcel_locker","brand:wikidata":"Q3182097"},"addTags":{"amenity":"parcel_locker","brand":"InPost","brand:wikidata":"Q3182097","brand:wikipedia":"en:InPost","name":"Locker InPost","parcel_mail_in":"yes"}},"amenity/parcel_locker/puntoposte-9e279b":{"name":"PuntoPoste","locationSet":{"include":["it"]},"geometry":["point","vertex"],"matchScore":2,"terms":["poste italiane","puntoposte"],"reference":{"key":"amenity","value":"parcel_locker"},"tags":{"amenity":"parcel_locker","brand:wikidata":"Q110748322"},"addTags":{"amenity":"parcel_locker","brand":"PuntoPoste","brand:wikidata":"Q110748322","name":"PuntoPoste","operator":"Poste Italiane","operator:wikidata":"Q495026","operator:wikipedia":"it:Poste italiane","parcel_mail_in":"yes"}},"amenity/payment_terminal/coinstar-8dd7cb":{"name":"Coinstar","locationSet":{"include":["ca","de","es","fr","gb","ie","it","jp","us"]},"geometry":["point"],"matchScore":2,"terms":["coinstar"],"tags":{"amenity":"payment_terminal","brand:wikidata":"Q5141641"},"addTags":{"amenity":"payment_terminal","brand":"Coinstar","brand:wikidata":"Q5141641","brand:wikipedia":"en:Coinstar","name":"Coinstar"}},"amenity/pharmacy/drmax-d40f7b":{"name":"Dr. Max","locationSet":{"include":["cz","it","pl","ro","rs","sk"]},"geometry":["point","area"],"matchScore":2,"terms":["dr. max"],"reference":{"key":"amenity","value":"pharmacy"},"tags":{"amenity":"pharmacy","brand:wikidata":"Q56317371"},"addTags":{"amenity":"pharmacy","brand":"Dr. Max","brand:wikidata":"Q56317371","brand:wikipedia":"fr:Dr.Max","healthcare":"pharmacy","name":"Dr. Max"}},"amenity/pub/befed-1d1bef":{"name":"BEFeD","locationSet":{"include":["fx","it"]},"geometry":["point","area"],"matchScore":2,"terms":["befed"],"fields":["name","brand","{amenity/pub}"],"tags":{"amenity":"pub","brand:wikidata":"Q108603989"},"addTags":{"amenity":"pub","brand":"BEFeD","brand:wikidata":"Q108603989","name":"BEFeD"}},"amenity/pub/brewdog-f93a3c":{"name":"BrewDog","locationSet":{"include":["au","be","de","es","fr","gb","it","kr","no","se","us"]},"geometry":["point","area"],"matchScore":2,"terms":["brewdog"],"fields":["name","brand","{amenity/pub}"],"tags":{"amenity":"pub","brand:wikidata":"Q911367"},"addTags":{"amenity":"pub","brand":"BrewDog","brand:wikidata":"Q911367","brand:wikipedia":"en:BrewDog","name":"BrewDog"}},"amenity/restaurant/100montaditos-f7c5fe":{"name":"100 Montaditos","locationSet":{"include":["es","it","pt","us"]},"geometry":["point","area"],"matchScore":2,"terms":["100 montaditos"],"tags":{"amenity":"restaurant","brand:wikidata":"Q8355805"},"addTags":{"amenity":"restaurant","brand":"100 Montaditos","brand:wikidata":"Q8355805","brand:wikipedia":"en:Cervecería 100 Montaditos","cuisine":"sandwich","name":"100 Montaditos"}},"amenity/restaurant/italian/autogrill-4c0f72":{"name":"Autogrill","locationSet":{"include":["at","es","fr","it"]},"geometry":["point","area"],"matchScore":2,"terms":["autogrill"],"reference":{"key":"cuisine","value":"italian"},"tags":{"amenity":"restaurant","brand:wikidata":"Q786790","cuisine":"italian;regional"},"addTags":{"amenity":"restaurant","brand":"Autogrill","brand:wikidata":"Q786790","brand:wikipedia":"en:Autogrill","cuisine":"italian;regional","name":"Autogrill"}},"amenity/restaurant/pizza/francomanca-6f1a9d":{"name":"Franco Manca","locationSet":{"include":["gb","gr","it"]},"geometry":["point","area"],"matchScore":2,"terms":["franco manca"],"reference":{"key":"cuisine","value":"pizza"},"tags":{"amenity":"restaurant","brand:wikidata":"Q28404417","cuisine":"pizza"},"addTags":{"amenity":"restaurant","brand":"Franco Manca","brand:wikidata":"Q28404417","brand:wikipedia":"en:Franco Manca","cuisine":"pizza","name":"Franco Manca","takeaway":"yes"}},"amenity/restaurant/american/oldwildwest-8aae3d":{"name":"Old Wild West","locationSet":{"include":["it"]},"geometry":["point","area"],"matchScore":2,"terms":["old wild west"],"reference":{"key":"cuisine","value":"american"},"tags":{"amenity":"restaurant","brand:wikidata":"Q25402475","cuisine":"american"},"addTags":{"amenity":"restaurant","brand":"Old Wild West","brand:wikidata":"Q25402475","brand:wikipedia":"it:Old Wild West","cuisine":"american","name":"Old Wild West"}},"amenity/restaurant/roadhouse-8aae3d":{"name":"Roadhouse","locationSet":{"include":["it"]},"geometry":["point","area"],"matchScore":2,"terms":["roadhouse"],"tags":{"amenity":"restaurant","brand:wikidata":"Q7339591"},"addTags":{"amenity":"restaurant","brand":"Roadhouse","brand:wikidata":"Q7339591","brand:wikipedia":"it:Roadhouse Grill","cuisine":"steak_house","name":"Roadhouse"}},"amenity/restaurant/pizza/rossopomodoro-8aae3d":{"name":"Rossopomodoro","locationSet":{"include":["it"]},"geometry":["point","area"],"matchScore":2,"terms":["rossopomodoro"],"reference":{"key":"cuisine","value":"pizza"},"tags":{"amenity":"restaurant","brand:wikidata":"Q16598843","cuisine":"pizza;seafood"},"addTags":{"amenity":"restaurant","brand":"Rossopomodoro","brand:wikidata":"Q16598843","brand:wikipedia":"it:Rossopomodoro","cuisine":"pizza;seafood","name":"Rossopomodoro"}},"amenity/vending_machine/continental-123edb":{"name":"Continental","locationSet":{"include":["by","bg","cz","hu","pl","md","ro","ru","sk","ua","ax","gg","je","cq","dk","ee","fo","fi","is","ie","im","lv","lt","no","sj","se","gb","al","ad","ba","hr","gi","gr","va","it","mt","me","mk","pt","sm","rs","si","es","xk","at","be","fr","de","li","lu","mc","nl","ch"]},"geometry":["point","vertex"],"matchScore":2,"terms":["continental"],"tags":{"amenity":"vending_machine","brand:wikidata":"Q64739247"},"addTags":{"amenity":"vending_machine","brand":"Continental","brand:wikidata":"Q64739247","brand:wikipedia":"de:Continental Reifen GmbH","name":"Continental","vending":"bicycle_tube"}},"amenity/vending_machine/schwalbe-123edb":{"name":"Schwalbe","locationSet":{"include":["by","bg","cz","hu","pl","md","ro","ru","sk","ua","ax","gg","je","cq","dk","ee","fo","fi","is","ie","im","lv","lt","no","sj","se","gb","al","ad","ba","hr","gi","gr","va","it","mt","me","mk","pt","sm","rs","si","es","xk","at","be","fr","de","li","lu","mc","nl","ch"]},"geometry":["point","vertex"],"matchScore":2,"terms":["schwalbe"],"tags":{"amenity":"vending_machine","brand:wikidata":"Q1312213"},"addTags":{"amenity":"vending_machine","brand":"Schwalbe","brand:wikidata":"Q1312213","brand:wikipedia":"de:Ralf Bohle GmbH","name":"Schwalbe","vending":"bicycle_tube"}},"amenity/vending_machine/selecta-ed4d31":{"name":"Selecta","locationSet":{"include":["at","be","ch","de","dk","es","fi","fr","ie","it","li","lu","nl","no","se","uk"]},"geometry":["point","vertex"],"matchScore":2,"terms":["selecta"],"tags":{"amenity":"vending_machine","brand:wikidata":"Q472153"},"addTags":{"amenity":"vending_machine","brand":"Selecta","brand:wikidata":"Q472153","brand:wikipedia":"en:Selecta (company)"}},"emergency/ambulance_station/crocerossaitaliana-6310f2":{"name":"Croce Rossa Italiana","locationSet":{"include":["it"]},"geometry":["point","area"],"matchScore":2,"terms":["croce rossa","croce rossa italiana"],"fields":["name","brand","{emergency/ambulance_station}"],"tags":{"brand:wikidata":"Q913903","emergency":"ambulance_station"},"addTags":{"brand":"Croce Rossa Italiana","brand:wikidata":"Q913903","brand:wikipedia":"it:Croce Rossa Italiana","emergency":"ambulance_station","name":"Croce Rossa Italiana"}},"leisure/fitness_centre/mcfit-0ebac9":{"name":"McFit","locationSet":{"include":["at","de","es","it","pl"]},"geometry":["point","area"],"matchScore":2,"terms":["mcfit"],"tags":{"brand:wikidata":"Q871302","leisure":"fitness_centre"},"addTags":{"brand":"McFit","brand:wikidata":"Q871302","brand:wikipedia":"en:McFit","leisure":"fitness_centre","name":"McFit"}},"leisure/fitness_centre/mrssporty-658820":{"name":"Mrs. Sporty","locationSet":{"include":["at","ch","de","es","it","pl","sk"]},"geometry":["point","area"],"matchScore":2,"terms":["mrs. sporty"],"tags":{"brand:wikidata":"Q100718953","leisure":"fitness_centre"},"addTags":{"brand":"Mrs. Sporty","brand:wikidata":"Q100718953","leisure":"fitness_centre","name":"Mrs. Sporty"}},"leisure/fitness_centre/virginactive-4a682e":{"name":"Virgin Active","locationSet":{"include":["au","bw","gb","it","na","sg","th","za"]},"geometry":["point","area"],"matchScore":2,"terms":["virgin active"],"tags":{"brand:wikidata":"Q4013942","leisure":"fitness_centre"},"addTags":{"brand":"Virgin Active","brand:wikidata":"Q4013942","brand:wikipedia":"en:Virgin Active","leisure":"fitness_centre","name":"Virgin Active"}},"leisure/sports_centre/topgolf-fb63c7":{"name":"K1 Speed","locationSet":{"include":["ca","cn","do","fx","it","kr","kw","mx","us"]},"geometry":["point","area"],"matchScore":2,"terms":["k1 speed"],"tags":{"brand:wikidata":"Q105615897","leisure":"sports_centre"},"addTags":{"brand":"K1 Speed","brand:wikidata":"Q105615897","brand:wikipedia":"en:K1 Speed","leisure":"sports_centre","name":"Topgolf","sport":"karting"}},"office/estate_agent/tecnocasa-ed2199":{"name":"Tecnocasa","locationSet":{"include":["es","it","pl"]},"geometry":["point","area"],"matchScore":2,"terms":["tecnocasa"],"tags":{"brand:wikidata":"Q2399658","office":"estate_agent"},"addTags":{"brand":"Tecnocasa","brand:wikidata":"Q2399658","brand:wikipedia":"de:Tecnocasa","name":"Tecnocasa","office":"estate_agent"}},"office/estate_agent/vonpollrealestate-c99072":{"name":"von Poll Real Estate","locationSet":{"include":["by","bg","cz","hu","pl","md","ro","ru","sk","ua","ax","gg","je","cq","dk","ee","fo","fi","is","ie","im","lv","lt","no","sj","se","gb","al","ad","ba","hr","gi","gr","va","it","mt","me","mk","pt","sm","rs","si","es","xk","at","be","fr","de","li","lu","mc","nl","ch"],"exclude":["at","de"]},"geometry":["point","area"],"matchScore":2,"terms":["von poll immobilien","von poll real estate","vonpoll","vonpoll commercial"],"tags":{"brand:wikidata":"Q96026696","office":"estate_agent"},"addTags":{"brand":"von Poll Real Estate","brand:wikidata":"Q96026696","brand:wikipedia":"de:Von Poll Immobilien","name":"von Poll Real Estate","office":"estate_agent"}},"office/insurance/helvetia-f9490e":{"name":"Helvetia","locationSet":{"include":["at","ch","de","es","fr","it"]},"geometry":["point","area"],"matchScore":2,"terms":["helvetia"],"fields":["name","brand","{office/insurance}"],"tags":{"brand:wikidata":"Q933766","office":"insurance"},"addTags":{"brand":"Helvetia","brand:wikidata":"Q933766","brand:wikipedia":"it:Helvetia Assicurazioni","name":"Helvetia","office":"insurance"}},"office/insurance/reale-fe9c1d":{"name":"Reale","locationSet":{"include":["cl","es","it"]},"geometry":["point","area"],"matchScore":2,"terms":["reale","reale chile","reale immobili","reale mutua assicurazioni","reale seguros","seguros reale"],"fields":["name","brand","{office/insurance}"],"tags":{"brand:wikidata":"Q3931092","office":"insurance"},"addTags":{"brand":"Reale","brand:wikidata":"Q3931092","brand:wikipedia":"it:Reale Mutua Assicurazioni","name":"Reale","office":"insurance"}},"shop/bag/carpisa-ee67c9":{"name":"Carpisa","locationSet":{"include":["it"]},"geometry":["point","area"],"matchScore":2,"terms":["carpisa"],"tags":{"brand:wikidata":"Q28035409","shop":"bag"},"addTags":{"brand":"Carpisa","brand:wikidata":"Q28035409","brand:wikipedia":"en:Carpisa","name":"Carpisa","shop":"bag"}},"shop/bag/coccinelle-07c9a9":{"name":"Coccinelle","locationSet":{"include":["de","gb","it","us"]},"geometry":["point","area"],"matchScore":2,"terms":["coccinelle"],"tags":{"brand:wikidata":"Q944874","shop":"bag"},"addTags":{"brand":"Coccinelle","brand:wikidata":"Q944874","brand:wikipedia":"it:Coccinelle (azienda)","name":"Coccinelle","shop":"bag"}},"shop/books/buchhandlungwaltherkonig-bb573d":{"name":"Buchhandlung Walther König","locationSet":{"include":["at","be","de","fr","gb","it","nl"]},"geometry":["point","area"],"matchScore":2,"terms":["buchhandlung könig","buchhandlung walther könig","könig","walther könig"],"tags":{"brand:wikidata":"Q998441","shop":"books"},"addTags":{"brand":"Buchhandlung Walther König","brand:wikidata":"Q998441","brand:wikipedia":"de:Buchhandlung Walther König","name":"Buchhandlung Walther König","shop":"books"}},"shop/books/giuntialpunto-56c580":{"name":"Giunti al Punto","locationSet":{"include":["it"]},"geometry":["point","area"],"matchScore":2,"terms":["giunti al punto","libreria giunti","librerie giunti"],"tags":{"brand:wikidata":"Q76505309","shop":"books"},"addTags":{"brand":"Giunti al Punto","brand:wikidata":"Q76505309","name":"Giunti al Punto","shop":"books"}},"shop/books/lafeltrinelli-56c580":{"name":"La Feltrinelli","locationSet":{"include":["it"]},"geometry":["point","area"],"matchScore":2,"terms":["la feltrinelli"],"tags":{"brand:wikidata":"Q96311190","shop":"books"},"addTags":{"brand":"La Feltrinelli","brand:wikidata":"Q96311190","name":"La Feltrinelli","shop":"books"}},"shop/books/mondadori-56c580":{"name":"Mondadori","locationSet":{"include":["it"]},"geometry":["point","area"],"matchScore":2,"terms":["mondadori"],"tags":{"brand:wikidata":"Q85355","shop":"books"},"addTags":{"brand":"Mondadori","brand:wikidata":"Q85355","brand:wikipedia":"en:Arnoldo Mondadori Editore","name":"Mondadori","shop":"books"}},"shop/books/ubik-56c580":{"name":"Ubik","locationSet":{"include":["it"]},"geometry":["point","area"],"matchScore":2,"terms":["ubik"],"tags":{"brand:wikidata":"Q103169450","shop":"books"},"addTags":{"brand":"Ubik","brand:wikidata":"Q103169450","name":"Ubik","shop":"books"}},"shop/car/smart-f30ed8":{"name":"Smart","locationSet":{"include":["by","bg","cz","hu","pl","md","ro","ru","sk","ua","ax","gg","je","cq","dk","ee","fo","fi","is","ie","im","lv","lt","no","sj","se","gb","al","ad","ba","hr","gi","gr","va","it","mt","me","mk","pt","sm","rs","si","es","xk","at","be","fr","de","li","lu","mc","nl","ch"]},"geometry":["point","area"],"matchScore":2,"terms":["smart"],"fields":["name","brand","{shop/car}"],"tags":{"brand:wikidata":"Q156490","shop":"car"},"addTags":{"brand":"Smart","brand:wikidata":"Q156490","brand:wikipedia":"en:Smart (marque)","name":"Smart","shop":"car"}},"shop/car_repair/norauto-388a61":{"name":"Norauto","locationSet":{"include":["ar","es","fr","hu","it","pl","pt","ro"]},"geometry":["point","area"],"matchScore":2,"terms":["norauto"],"fields":["name","brand","{shop/car_repair}"],"tags":{"brand:wikidata":"Q3317698","shop":"car_repair"},"addTags":{"brand":"Norauto","brand:wikidata":"Q3317698","brand:wikipedia":"en:Norauto","name":"Norauto","shop":"car_repair"}},"shop/chemist/acquaandsapone-864e82":{"name":"Acqua & Sapone","locationSet":{"include":["it"]},"geometry":["point","area"],"matchScore":2,"terms":["acqua & sapone"],"tags":{"brand:wikidata":"Q51079044","shop":"chemist"},"addTags":{"brand":"Acqua & Sapone","brand:wikidata":"Q51079044","brand:wikipedia":"it:Acqua & Sapone (azienda)","name":"Acqua & Sapone","shop":"chemist"}},"shop/chemist/caddys-864e82":{"name":"Caddy's","locationSet":{"include":["it"]},"geometry":["point","area"],"matchScore":2,"terms":["cad","caddy's"],"tags":{"brand:wikidata":"Q108604630","shop":"chemist"},"addTags":{"brand":"Caddy's","brand:wikidata":"Q108604630","name":"Caddy's","shop":"chemist"}},"shop/chemist/dm-64e7ae":{"name":"dm","locationSet":{"include":["at","ba","bg","cz","de","hr","hu","it","mk","ro","rs","si","sk"]},"geometry":["point","area"],"matchScore":2,"terms":["dm","dm drogerie markt"],"tags":{"brand:wikidata":"Q266572","shop":"chemist"},"addTags":{"brand":"dm","brand:wikidata":"Q266572","brand:wikipedia":"en:Dm-drogerie markt","name":"dm","shop":"chemist"}},"shop/chemist/tigota-864e82":{"name":"Tigotà","locationSet":{"include":["it"]},"geometry":["point","area"],"matchScore":2,"terms":["tigotà"],"tags":{"brand:wikidata":"Q107464330","shop":"chemist"},"addTags":{"brand":"Tigotà","brand:wikidata":"Q107464330","name":"Tigotà","shop":"chemist"}},"shop/clothes/abercrombieandfitch-c69677":{"name":"Abercrombie & Fitch","locationSet":{"include":["ae","be","ca","cn","de","es","fr","gb","hk","ie","it","jp","kw","mx","nl","qa","sa","sg","us"]},"geometry":["point","area"],"matchScore":2,"terms":["abercrombie & fitch"],"tags":{"brand:wikidata":"Q319344","shop":"clothes"},"addTags":{"brand":"Abercrombie & Fitch","brand:wikidata":"Q319344","brand:wikipedia":"en:Abercrombie & Fitch","clothes":"men;women","name":"Abercrombie & Fitch","shop":"clothes"}},"shop/clothes/abercrombiekids-a75dc9":{"name":"Abercrombie Kids","locationSet":{"include":["ae","ca","cn","de","gb","it","nl","sg","us"]},"geometry":["point","area"],"matchScore":2,"terms":["abercrombie kids"],"tags":{"brand:wikidata":"Q429856","shop":"clothes"},"addTags":{"brand":"Abercrombie Kids","brand:wikidata":"Q429856","brand:wikipedia":"en:Abercrombie Kids","clothes":"children","name":"Abercrombie Kids","shop":"clothes"}},"shop/clothes/cachecache-ecfb3e":{"name":"Cache Cache","locationSet":{"include":["fr","it","lu"]},"geometry":["point","area"],"matchScore":2,"terms":["cache cache"],"tags":{"brand:wikidata":"Q63064086","shop":"clothes"},"addTags":{"brand":"Cache Cache","brand:wikidata":"Q63064086","name":"Cache Cache","shop":"clothes"}},"shop/clothes/camaieu-1cb4e7":{"name":"Camaïeu","locationSet":{"include":["be","cz","fr","it","pl"]},"geometry":["point","area"],"matchScore":2,"terms":["camaïeu"],"tags":{"brand:wikidata":"Q2934647","shop":"clothes"},"addTags":{"brand":"Camaïeu","brand:wikidata":"Q2934647","brand:wikipedia":"en:Camaïeu (company)","name":"Camaïeu","shop":"clothes"}},"shop/clothes/jennyfer-ecfb3e":{"name":"Jennyfer","locationSet":{"include":["fr","it","lu"]},"geometry":["point","area"],"matchScore":2,"terms":["jennyfer"],"tags":{"brand:wikidata":"Q3177174","shop":"clothes"},"addTags":{"brand":"Jennyfer","brand:wikidata":"Q3177174","brand:wikipedia":"fr:Jennyfer","name":"Jennyfer","shop":"clothes"}},"shop/clothes/jules-1172e0":{"name":"Jules","locationSet":{"include":["be","fr","it"]},"geometry":["point","area"],"matchScore":2,"terms":["jules"],"tags":{"brand:wikidata":"Q3188386","shop":"clothes"},"addTags":{"brand":"Jules","brand:wikidata":"Q3188386","brand:wikipedia":"fr:Jules (enseigne)","clothes":"men","name":"Jules","shop":"clothes"}},"shop/clothes/kik-97626d":{"name":"KiK","locationSet":{"include":["at","cz","de","hr","hu","it","nl","pl","ro","si","sk"]},"geometry":["point","area"],"matchScore":2,"terms":["kik"],"tags":{"brand:wikidata":"Q883965","shop":"clothes"},"addTags":{"brand":"KiK","brand:wikidata":"Q883965","brand:wikipedia":"de:KiK","name":"KiK","shop":"clothes"}},"shop/clothes/maje-99ba8f":{"name":"Maje","locationSet":{"include":["by","bg","cz","hu","pl","md","ro","ru","sk","ua","ax","gg","je","cq","dk","ee","fo","fi","is","ie","im","lv","lt","no","sj","se","gb","al","ad","ba","hr","gi","gr","va","it","mt","me","mk","pt","sm","rs","si","es","xk","at","be","fr","de","li","lu","mc","nl","ch","cn","hk","sg","tw","uk","us"]},"geometry":["point","area"],"matchScore":2,"terms":["maje"],"tags":{"brand:wikidata":"Q3280458","shop":"clothes"},"addTags":{"brand":"Maje","brand:wikidata":"Q3280458","brand:wikipedia":"fr:Maje","clothes":"women","name":"Maje","shop":"clothes"}},"shop/clothes/mesdemoisellesparis-d0cb12":{"name":"Mes Demoiselles Paris","locationSet":{"include":["fr","it"]},"geometry":["point","area"],"matchScore":2,"terms":["mes demoiselles paris"],"tags":{"brand:wikidata":"Q101427858","shop":"clothes"},"addTags":{"brand":"Mes Demoiselles Paris","brand:wikidata":"Q101427858","clothes":"women","name":"Mes Demoiselles Paris","shop":"clothes"}},"shop/clothes/napapijri-8d1144":{"name":"Napapijri","locationSet":{"include":["at","de","fr","it","sk"]},"geometry":["point","area"],"matchScore":2,"terms":["napapijri"],"tags":{"brand:wikidata":"Q2782017","shop":"clothes"},"addTags":{"brand":"Napapijri","brand:wikidata":"Q2782017","brand:wikipedia":"en:Napapijri","name":"Napapijri","shop":"clothes"}},"shop/clothes/nkd-9a8fb8":{"name":"NKD","locationSet":{"include":["at","de","it","si"]},"geometry":["point","area"],"matchScore":2,"terms":["nkd"],"tags":{"brand:wikidata":"Q927272","shop":"clothes"},"addTags":{"brand":"NKD","brand:wikidata":"Q927272","brand:wikipedia":"de:NKD","name":"NKD","shop":"clothes"}},"shop/clothes/okaidi-eea264":{"name":"Okaïdi","locationSet":{"include":["be","ch","de","es","fr","it","pl"]},"geometry":["point","area"],"matchScore":2,"terms":["okaïdi"],"tags":{"brand:wikidata":"Q3350027","shop":"clothes"},"addTags":{"brand":"Okaïdi","brand:wikidata":"Q3350027","brand:wikipedia":"fr:Okaïdi","name":"Okaïdi","shop":"clothes"}},"shop/clothes/ovs-8c6a50":{"name":"OVS","locationSet":{"include":["at","ch","fr","it","si"]},"geometry":["point","area"],"matchScore":2,"terms":["ovs"],"tags":{"brand:wikidata":"Q2042514","shop":"clothes"},"addTags":{"brand":"OVS","brand:wikidata":"Q2042514","brand:wikipedia":"en:OVS (company)","name":"OVS","shop":"clothes"}},"shop/clothes/patagonia-7718c5":{"name":"Patagonia","locationSet":{"include":["ar","at","au","ca","cl","cn","cz","de","fx","gb","hk","ie","it","jp","kr","pe","tw","us"]},"geometry":["point","area"],"matchScore":2,"terms":["patagonia"],"tags":{"brand:wikidata":"Q1660552","shop":"clothes"},"addTags":{"brand":"Patagonia","brand:wikidata":"Q1660552","brand:wikipedia":"en:Patagonia, Inc.","clothes":"outdoor","name":"Patagonia","shop":"clothes"}},"shop/clothes/pepco-98e975":{"name":"Pepco","locationSet":{"include":["bg","cz","ee","hr","hu","it","lt","lv","pl","ro","rs","si","sk"]},"geometry":["point","area"],"matchScore":2,"terms":["pepco"],"tags":{"brand:wikidata":"Q11815580","shop":"clothes"},"addTags":{"brand":"Pepco","brand:wikidata":"Q11815580","brand:wikipedia":"pl:Pepco","name":"Pepco","shop":"clothes"}},"shop/clothes/petitbateau-ef24e9":{"name":"Petit Bateau","locationSet":{"include":["be","de","fr","gb","it","lu"]},"geometry":["point","area"],"matchScore":2,"terms":["petit bateau"],"tags":{"brand:wikidata":"Q3377090","shop":"clothes"},"addTags":{"brand":"Petit Bateau","brand:wikidata":"Q3377090","brand:wikipedia":"en:Petit Bateau","name":"Petit Bateau","shop":"clothes"}},"shop/clothes/piazzaitalia-d72191":{"name":"Piazza Italia","locationSet":{"include":["it"]},"geometry":["point","area"],"matchScore":2,"terms":["piazza italia"],"tags":{"brand:wikidata":"Q3902241","shop":"clothes"},"addTags":{"brand":"Piazza Italia","brand:wikidata":"Q3902241","brand:wikipedia":"it:Piazza Italia (azienda)","name":"Piazza Italia","shop":"clothes"}},"shop/clothes/pimkie-c56deb":{"name":"Pimkie","locationSet":{"include":["at","be","de","es","fr","it"]},"geometry":["point","area"],"matchScore":2,"terms":["pimkie"],"tags":{"brand:wikidata":"Q1758066","shop":"clothes"},"addTags":{"brand":"Pimkie","brand:wikidata":"Q1758066","brand:wikipedia":"en:Pimkie","name":"Pimkie","shop":"clothes"}},"shop/clothes/seidensticker-a4dacd":{"name":"Seidensticker","locationSet":{"include":["at","be","ch","cz","de","fr","it","lu","nl","pl"]},"geometry":["point","area"],"matchScore":2,"terms":["seidensticker"],"tags":{"brand:wikidata":"Q1797834","shop":"clothes"},"addTags":{"brand":"Seidensticker","brand:wikidata":"Q1797834","brand:wikipedia":"de:Seidensticker (Unternehmen)","name":"Seidensticker","shop":"clothes"}},"shop/clothes/sergentmajor-acfeda":{"name":"Sergent Major","locationSet":{"include":["be","de","es","fr","gb","it"]},"geometry":["point","area"],"matchScore":2,"terms":["sergent major"],"tags":{"brand:wikidata":"Q62521738","shop":"clothes"},"addTags":{"brand":"Sergent Major","brand:wikidata":"Q62521738","brand:wikipedia":"fr:Sergent Major (entreprise)","clothes":"babies;children","name":"Sergent Major","shop":"clothes"}},"shop/clothes/sisley-9d6d32":{"name":"Sisley","locationSet":{"include":["at","ch","de","hr","it","ru"]},"geometry":["point","area"],"matchScore":2,"terms":["sisley"],"tags":{"brand:wikidata":"Q12054325","shop":"clothes"},"addTags":{"brand":"Sisley","brand:wikidata":"Q12054325","brand:wikipedia":"cs:Sisley","name":"Sisley","shop":"clothes"}},"shop/clothes/stefanel-b6b3bf":{"name":"Stefanel","locationSet":{"include":["at","de","fr","it"]},"geometry":["point","area"],"matchScore":2,"terms":["stefanel"],"tags":{"brand:wikidata":"Q2338087","shop":"clothes"},"addTags":{"brand":"Stefanel","brand:wikidata":"Q2338087","brand:wikipedia":"ro:Stefanel (companie)","name":"Stefanel","shop":"clothes"}},"shop/clothes/vilebrequin-d0cb12":{"name":"Vilebrequin","locationSet":{"include":["fr","it"]},"geometry":["point","area"],"matchScore":2,"terms":["vilebrequin"],"tags":{"brand:wikidata":"Q3558391","shop":"clothes"},"addTags":{"brand":"Vilebrequin","brand:wikidata":"Q3558391","brand:wikipedia":"en:Vilebrequin","clothes":"swimwear","name":"Vilebrequin","shop":"clothes"}},"shop/clothes/wheelup-d72191":{"name":"WheelUp","locationSet":{"include":["it"]},"geometry":["point","area"],"matchScore":2,"terms":["wheelup"],"tags":{"brand:wikidata":"Q96141546","shop":"clothes"},"addTags":{"brand":"WheelUp","brand:wikidata":"Q96141546","clothes":"motorcycle","name":"WheelUp","shop":"clothes"}},"shop/clothes/wolford-13402e":{"name":"Wolford","locationSet":{"include":["at","de","fr","gb","it","nl"]},"geometry":["point","area"],"matchScore":2,"terms":["wolford"],"tags":{"brand:wikidata":"Q431607","shop":"clothes"},"addTags":{"brand":"Wolford","brand:wikidata":"Q431607","brand:wikipedia":"en:Wolford","name":"Wolford","shop":"clothes"}},"shop/clothes/yamamay-8f2dbd":{"name":"Yamamay","locationSet":{"include":["es","it"]},"geometry":["point","area"],"matchScore":2,"terms":["yamamay"],"tags":{"brand:wikidata":"Q2599214","shop":"clothes"},"addTags":{"brand":"Yamamay","brand:wikidata":"Q2599214","brand:wikipedia":"it:Yamamay","name":"Yamamay","shop":"clothes"}},"shop/convenience/avia-3fdfc9":{"name":"Avia","locationSet":{"include":["at","be","bg","ch","cz","de","es","fr","hu","it","nl","pl","pt","rs","ua"]},"geometry":["point","area"],"matchScore":2,"terms":["avia"],"tags":{"brand:wikidata":"Q300147","shop":"convenience"},"addTags":{"brand":"Avia","brand:wikidata":"Q300147","brand:wikipedia":"de:Avia International","name":"Avia","shop":"convenience"}},"shop/convenience/minimix-57794c":{"name":"Mini Mix","locationSet":{"include":["at","be","cy","cz","de","es","fr","gb","gr","it","me","nl","pt"]},"geometry":["point","area"],"matchScore":2,"terms":["mini mix","mini mix markt"],"tags":{"brand:wikidata":"Q327854","shop":"convenience"},"addTags":{"brand":"Mini Mix","brand:wikidata":"Q327854","brand:wikipedia":"de:Mix Markt","name":"Mini Mix","shop":"convenience"}},"shop/convenience/viva-856fe1":{"name":"Viva","locationSet":{"include":["by","bg","cz","hu","pl","md","ro","ru","sk","ua","ax","gg","je","cq","dk","ee","fo","fi","is","ie","im","lv","lt","no","sj","se","gb","al","ad","ba","hr","gi","gr","va","it","mt","me","mk","pt","sm","rs","si","es","xk","at","be","fr","de","li","lu","mc","nl","ch"]},"geometry":["point","area"],"matchScore":2,"terms":["viva"],"tags":{"brand:wikidata":"Q168238","shop":"convenience"},"addTags":{"brand":"Viva","brand:wikidata":"Q168238","brand:wikipedia":"en:OMV","name":"Viva","shop":"convenience"}},"shop/cosmetics/bottegaverde-a13ae4":{"name":"Bottega Verde","locationSet":{"include":["it"]},"geometry":["point","area"],"matchScore":2,"terms":["bottega verde"],"tags":{"brand:wikidata":"Q894870","shop":"cosmetics"},"addTags":{"brand":"Bottega Verde","brand:wikidata":"Q894870","brand:wikipedia":"it:Bottega Verde","name":"Bottega Verde","shop":"cosmetics"}},"shop/cosmetics/wyconcosmetics-a13ae4":{"name":"Wycon Cosmetics","locationSet":{"include":["it"]},"geometry":["point","area"],"matchScore":2,"terms":["wycon cosmetics"],"tags":{"brand:wikidata":"Q55831243","shop":"cosmetics"},"addTags":{"brand":"Wycon Cosmetics","brand:wikidata":"Q55831243","brand:wikipedia":"it:Wycon","name":"Wycon Cosmetics","shop":"cosmetics"}},"shop/deli/vomfass-a3c745":{"name":"vomFASS","locationSet":{"include":["at","be","br","ca","ch","cz","de","dk","es","fr","gb","hk","hr","hu","il","it","jp","lv","mx","my","ph","sg","th","us"]},"geometry":["point","area"],"matchScore":2,"terms":["vomfass"],"tags":{"brand:wikidata":"Q2533008","shop":"deli"},"addTags":{"brand":"vomFASS","brand:wikidata":"Q2533008","brand:wikipedia":"de:Vom Fass","name":"vomFASS","shop":"deli"}},"shop/department_store/coin-b0f55b":{"name":"Coin","locationSet":{"include":["it"]},"geometry":["point","area"],"matchScore":2,"terms":["coin"],"tags":{"brand:wikidata":"Q1107215","shop":"department_store"},"addTags":{"brand":"Coin","brand:wikidata":"Q1107215","brand:wikipedia":"it:Coin","name":"Coin","shop":"department_store"}},"shop/department_store/coinexcelsior-b0f55b":{"name":"Coin Excelsior","locationSet":{"include":["it"]},"geometry":["point","area"],"matchScore":2,"terms":["coin"],"tags":{"brand:wikidata":"Q1107215","shop":"department_store"},"addTags":{"brand":"Coin","brand:wikidata":"Q1107215","brand:wikipedia":"it:Coin","name":"Coin Excelsior","shop":"department_store"}},"shop/department_store/larinascente-b0f55b":{"name":"La Rinascente","locationSet":{"include":["it"]},"geometry":["point","area"],"matchScore":2,"terms":["la rinascente"],"tags":{"brand:wikidata":"Q1050061","shop":"department_store"},"addTags":{"brand":"La Rinascente","brand:wikidata":"Q1050061","brand:wikipedia":"it:Rinascente","name":"La Rinascente","shop":"department_store"}},"shop/department_store/muji-b9b204":{"name":"Muji","locationSet":{"include":["au","ca","ch","de","es","fi","fr","gb","ie","it","pl","pt","se","tr"]},"geometry":["point","area"],"matchScore":2,"terms":["muji","無印良品"],"tags":{"brand:wikidata":"Q708789","shop":"department_store"},"addTags":{"brand":"Muji","brand:en":"Muji","brand:ja":"無印良品","brand:wikidata":"Q708789","brand:wikipedia":"en:Muji","name":"Muji","name:en":"Muji","name:ja":"無印良品","shop":"department_store"}},"shop/department_store/upim-b0f55b":{"name":"Upim","locationSet":{"include":["it"]},"geometry":["point","area"],"matchScore":2,"terms":["upim"],"tags":{"brand:wikidata":"Q1414836","shop":"department_store"},"addTags":{"brand":"Upim","brand:wikidata":"Q1414836","brand:wikipedia":"it:UPIM","name":"Upim","shop":"department_store"}},"shop/doityourself/bigmat-488295":{"name":"BigMat","locationSet":{"include":["be","cz","es","fr","gb","it","sk"]},"geometry":["point","area"],"matchScore":2,"terms":["bigmat"],"tags":{"brand:wikidata":"Q101851862","shop":"doityourself"},"addTags":{"brand":"BigMat","brand:wikidata":"Q101851862","name":"BigMat","shop":"doityourself"}},"shop/doityourself/brico-e0cb01":{"name":"Brico","locationSet":{"include":["be","fr","it"]},"geometry":["point","area"],"matchScore":2,"terms":["brico"],"tags":{"brand:wikidata":"Q2510786","shop":"doityourself"},"addTags":{"brand":"Brico","brand:wikidata":"Q2510786","brand:wikipedia":"en:Brico","name":"Brico","shop":"doityourself"}},"shop/doityourself/bricocenter-afce84":{"name":"BricoCenter","locationSet":{"include":["it"]},"geometry":["point","area"],"matchScore":2,"terms":["bricocenter"],"tags":{"brand:wikidata":"Q3644563","shop":"doityourself"},"addTags":{"brand":"BricoCenter","brand:wikidata":"Q3644563","brand:wikipedia":"it:Bricocenter","name":"BricoCenter","shop":"doityourself"}},"shop/doityourself/bricoman-5e1049":{"name":"Bricoman","locationSet":{"include":["fr","it","pl"]},"geometry":["point","area"],"matchScore":2,"terms":["bricoman"],"tags":{"brand:wikidata":"Q2925142","shop":"doityourself"},"addTags":{"brand":"Bricoman","brand:wikidata":"Q2925142","brand:wikipedia":"it:Bricoman","name":"Bricoman","shop":"doityourself"}},"shop/doityourself/obi-d5381e":{"name":"OBI","locationSet":{"include":["at","ba","ch","cz","de","hu","it","pl","ru","si","sk"]},"geometry":["point","area"],"matchScore":2,"terms":["obi"],"tags":{"brand:wikidata":"Q300518","shop":"doityourself"},"addTags":{"brand":"OBI","brand:wikidata":"Q300518","brand:wikipedia":"de:Obi (Baumarkt)","name":"OBI","shop":"doityourself"}},"shop/electrical/yessselectrical-d3cc8c":{"name":"Yesss Electrical","locationSet":{"include":["gb","it"]},"geometry":["point","area"],"matchScore":2,"terms":["yesss electrical"],"tags":{"brand:wikidata":"Q91307483","shop":"electrical"},"addTags":{"brand":"Yesss Electrical","brand:wikidata":"Q91307483","name":"Yesss Electrical","shop":"electrical"}},"shop/electronics/cex-75e32e":{"name":"CeX","locationSet":{"include":["au","es","gb","ie","in","it","mx","nl","pl","pt"]},"geometry":["point","area"],"matchScore":2,"terms":["cex"],"tags":{"brand:wikidata":"Q5055676","shop":"electronics"},"addTags":{"brand":"CeX","brand:wikidata":"Q5055676","brand:wikipedia":"en:CeX (company)","name":"CeX","shop":"electronics"}},"shop/electronics/mediamarkt-51d852":{"name":"MediaMarkt","locationSet":{"include":["at","be","ch","de","es","gr","hu","it","nl","pl","pt","se","tr"]},"geometry":["point","area"],"matchScore":2,"terms":["mediamarkt"],"tags":{"brand:wikidata":"Q2381223","shop":"electronics"},"addTags":{"brand":"MediaMarkt","brand:wikidata":"Q2381223","brand:wikipedia":"en:Media Markt","name":"MediaMarkt","shop":"electronics"}},"shop/electronics/trony-41f013":{"name":"Trony","locationSet":{"include":["it"]},"geometry":["point","area"],"matchScore":2,"terms":["trony"],"tags":{"brand:wikidata":"Q3999692","shop":"electronics"},"addTags":{"brand":"Trony","brand:wikidata":"Q3999692","brand:wikipedia":"it:Trony","name":"Trony","shop":"electronics"}},"shop/electronics/unieuro-41f013":{"name":"Unieuro","locationSet":{"include":["it"]},"geometry":["point","area"],"matchScore":2,"terms":["unieuro"],"tags":{"brand:wikidata":"Q4004687","shop":"electronics"},"addTags":{"brand":"Unieuro","brand:wikidata":"Q4004687","brand:wikipedia":"en:Unieuro","name":"Unieuro","shop":"electronics"}},"shop/fashion_accessories/accessorize-8a0f0d":{"name":"Accessorize","locationSet":{"include":["gb","it","ru"]},"geometry":["point","area"],"matchScore":2,"terms":["accessorize"],"tags":{"brand:wikidata":"Q65007482","shop":"fashion_accessories"},"addTags":{"brand":"Accessorize","brand:wikidata":"Q65007482","name":"Accessorize","shop":"fashion_accessories"}},"shop/fashion_accessories/parfois-87714a":{"name":"Parfois","locationSet":{"include":["be","de","es","fr","gb","hu","ie","it","nl","pl","pt"]},"geometry":["point","area"],"matchScore":2,"terms":["parfois"],"tags":{"brand:wikidata":"Q7136948","shop":"fashion_accessories"},"addTags":{"brand":"Parfois","brand:wikidata":"Q7136948","brand:wikipedia":"en:Parfois","name":"Parfois","shop":"fashion_accessories"}},"shop/furniture/casa-79abb5":{"name":"Casa","locationSet":{"include":["be","ch","es","fr","it","lu","pt"]},"geometry":["point","area"],"matchScore":2,"terms":["casa"],"tags":{"brand:wikidata":"Q1991755","shop":"furniture"},"addTags":{"brand":"Casa","brand:wikidata":"Q1991755","brand:wikipedia":"fr:Casa (enseigne)","name":"Casa","shop":"furniture"}},"shop/furniture/chateaudax-c96b56":{"name":"Chateau d'Ax","locationSet":{"include":["ao","be","ca","ch","cn","de","es","fx","gp","hk","hr","it","ma","mq","mt","mu","mz","pt","re","sg","si","tn","tw","us","vn"]},"geometry":["point","area"],"matchScore":2,"terms":["chateau d'ax"],"tags":{"brand:wikidata":"Q100249791","shop":"furniture"},"addTags":{"brand":"Chateau d'Ax","brand:wikidata":"Q100249791","name":"Chateau d'Ax","shop":"furniture"}},"shop/furniture/conforama-86a0f7":{"name":"Conforama","locationSet":{"include":["ch","es","fr","it","lu"]},"geometry":["point","area"],"matchScore":2,"terms":["conforama"],"tags":{"brand:wikidata":"Q541134","shop":"furniture"},"addTags":{"brand":"Conforama","brand:wikidata":"Q541134","brand:wikipedia":"en:Conforama","name":"Conforama","shop":"furniture"}},"shop/furniture/maisonsdumonde-55837e":{"name":"Maisons du Monde","locationSet":{"include":["be","ch","de","es","fr","gb","it","lu"]},"geometry":["point","area"],"matchScore":2,"terms":["maisons du monde"],"tags":{"brand:wikidata":"Q3280364","shop":"furniture"},"addTags":{"brand":"Maisons du Monde","brand:wikidata":"Q3280364","brand:wikipedia":"fr:Maisons du Monde","name":"Maisons du Monde","shop":"furniture"}},"shop/furniture/momax-a18722":{"name":"Mömax","locationSet":{"include":["by","bg","cz","hu","pl","md","ro","ru","sk","ua","ax","gg","je","cq","dk","ee","fo","fi","is","ie","im","lv","lt","no","sj","se","gb","al","ad","ba","hr","gi","gr","va","it","mt","me","mk","pt","sm","rs","si","es","xk","at","be","fr","de","li","lu","mc","nl","ch"]},"geometry":["point","area"],"matchScore":2,"terms":["mömax"],"tags":{"brand:wikidata":"Q56388481","shop":"furniture"},"addTags":{"brand":"Mömax","brand:wikidata":"Q56388481","brand:wikipedia":"hu:Mömax (nemzetközi cég)","name":"Mömax","shop":"furniture"}},"shop/furniture/poltronesofa-488b55":{"name":"Poltronesofà","locationSet":{"include":["be","ch","cy","fr","it","mt"]},"geometry":["point","area"],"matchScore":2,"terms":["poltronesofà"],"tags":{"brand:wikidata":"Q80833069","shop":"furniture"},"addTags":{"brand":"Poltronesofà","brand:wikidata":"Q80833069","name":"Poltronesofà","shop":"furniture"}},"shop/furniture/xxxlutz-5acc6e":{"name":"XXXLutz","locationSet":{"include":["by","bg","cz","hu","pl","md","ro","ru","sk","ua","ax","gg","je","cq","dk","ee","fo","fi","is","ie","im","lv","lt","no","sj","se","gb","al","ad","ba","hr","gi","gr","va","it","mt","me","mk","pt","sm","rs","si","es","xk","at","be","fr","de","li","lu","mc","nl","ch"],"exclude":["bg"]},"geometry":["point","area"],"matchScore":2,"terms":["xxxlutz"],"tags":{"brand:wikidata":"Q70339467","shop":"furniture"},"addTags":{"brand":"XXXLutz","brand:wikidata":"Q70339467","brand:wikipedia":"de:XXXLutz","name":"XXXLutz","shop":"furniture"}},"shop/hairdresser/jeanlouisdavid-c24876":{"name":"Jean Louis David","locationSet":{"include":["es","fr","it","pl"]},"geometry":["point","area"],"matchScore":2,"terms":["jean louis david"],"tags":{"brand:wikidata":"Q64445174","shop":"hairdresser"},"addTags":{"brand":"Jean Louis David","brand:wikidata":"Q64445174","name":"Jean Louis David","shop":"hairdresser"}},"shop/hardware/wurth-d9914d":{"name":"Würth","locationSet":{"include":["be","cz","de","fi","fr","it","no","sk"]},"geometry":["point","area"],"matchScore":2,"terms":["würth"],"fields":["name","brand","{shop/hardware}"],"tags":{"brand:wikidata":"Q679750","shop":"hardware"},"addTags":{"brand":"Würth","brand:wikidata":"Q679750","brand:wikipedia":"de:Würth-Gruppe","name":"Würth","shop":"hardware"}},"shop/interior_decoration/coincasa-368f99":{"name":"Coincasa","locationSet":{"include":["it"]},"geometry":["point","area"],"matchScore":2,"terms":["coin"],"tags":{"brand:wikidata":"Q1107215","shop":"interior_decoration"},"addTags":{"brand":"Coin","brand:wikidata":"Q1107215","brand:wikipedia":"it:Coin","name":"Coincasa","shop":"interior_decoration"}},"shop/jewelry/histoiredor-d59505":{"name":"Histoire d'Or","locationSet":{"include":["be","fr","it","nl"]},"geometry":["point","area"],"matchScore":2,"terms":["histoire d'or"],"tags":{"brand:wikidata":"Q62529245","shop":"jewelry"},"addTags":{"brand":"Histoire d'Or","brand:wikidata":"Q62529245","name":"Histoire d'Or","shop":"jewelry"}},"shop/mobile_phone/three-e135a8":{"name":"Three","locationSet":{"include":["gb","it"]},"geometry":["point","area"],"matchScore":2,"terms":["3","3 store","three","three store"],"tags":{"brand:wikidata":"Q407009","shop":"mobile_phone"},"addTags":{"brand":"Three","brand:wikidata":"Q407009","brand:wikipedia":"en:3 (company)","name":"Three.","shop":"mobile_phone"}},"shop/mobile_phone/tim-a66d78":{"name":"TIM","locationSet":{"include":["br","it","sm"]},"geometry":["point","area"],"matchScore":2,"terms":["tim"],"tags":{"brand:wikidata":"Q1120617","shop":"mobile_phone"},"addTags":{"brand":"TIM","brand:wikidata":"Q1120617","brand:wikipedia":"en:TIM (brand)","name":"TIM","shop":"mobile_phone"}},"shop/mobile_phone/windtre-c4d7ba":{"name":"Wind Tre","locationSet":{"include":["it"]},"geometry":["point","area"],"matchScore":2,"terms":["wind","wind tre"],"tags":{"brand:wikidata":"Q28119223","shop":"mobile_phone"},"addTags":{"brand":"Wind Tre","brand:wikidata":"Q28119223","brand:wikipedia":"en:Wind Tre","name":"Wind Tre","shop":"mobile_phone"}},"shop/optician/fielmann-f003f4":{"name":"fielmann","locationSet":{"include":["at","by","ch","de","it","lt","lu","lv","nl","pl","ru","ua"]},"geometry":["point","area"],"matchScore":2,"terms":["fielmann"],"tags":{"brand:wikidata":"Q457822","shop":"optician"},"addTags":{"brand":"Fielmann","brand:wikidata":"Q457822","brand:wikipedia":"de:Fielmann","name":"Fielmann","shop":"optician"}},"shop/optician/salmoiraghiandvigano-740ad9":{"name":"Salmoiraghi & Viganò","locationSet":{"include":["it"]},"geometry":["point","area"],"matchScore":2,"terms":["salmoiraghi & viganò"],"tags":{"brand:wikidata":"Q21272314","shop":"optician"},"addTags":{"brand":"Salmoiraghi & Viganò","brand:wikidata":"Q21272314","brand:wikipedia":"it:Salmoiraghi & Viganò","name":"Salmoiraghi & Viganò","shop":"optician"}},"shop/outdoor/jackwolfskin-5feed5":{"name":"Jack Wolfskin","locationSet":{"include":["at","be","ch","de","fr","gb","it","nl","pl","ru","ua"]},"geometry":["point","area"],"matchScore":2,"terms":["jack wolfskin"],"tags":{"brand:wikidata":"Q536133","shop":"outdoor"},"addTags":{"brand":"Jack Wolfskin","brand:wikidata":"Q536133","brand:wikipedia":"en:Jack Wolfskin","name":"Jack Wolfskin","shop":"outdoor"}},"shop/paint/brillux-7853a1":{"name":"Brillux","locationSet":{"include":["at","ch","de","it","nl","pl"]},"geometry":["point","area"],"matchScore":2,"terms":["brillux"],"tags":{"brand:wikidata":"Q917229","shop":"paint"},"addTags":{"brand":"Brillux","brand:wikidata":"Q917229","brand:wikipedia":"de:Brillux","name":"Brillux","shop":"paint"}},"shop/perfumery/douglas-4a1f51":{"name":"Douglas","locationSet":{"include":["at","ch","cz","de","es","it","nl","pl","sk"]},"geometry":["point","area"],"matchScore":2,"terms":["douglas"],"tags":{"brand:wikidata":"Q2052213","shop":"perfumery"},"addTags":{"brand":"Douglas","brand:wikidata":"Q2052213","brand:wikipedia":"de:Parfümerie Douglas","name":"Douglas","shop":"perfumery"}},"shop/perfumery/equivalenza-59ad61":{"name":"Equivalenza","locationSet":{"include":["ad","ao","at","be","ca","cv","de","do","es","fr","gr","gt","ie","it","mx","mz","nl","pe","pt","ro","tn","uk"]},"geometry":["point","area"],"matchScore":2,"terms":["equivalenza"],"tags":{"brand:wikidata":"Q104649798","shop":"perfumery"},"addTags":{"brand":"Equivalenza","brand:wikidata":"Q104649798","name":"Equivalenza","shop":"perfumery"}},"shop/perfumery/marionnaud-d22512":{"name":"Marionnaud","locationSet":{"include":["at","ch","es","fr","it","sk"]},"geometry":["point","area"],"matchScore":2,"terms":["marionnaud"],"tags":{"brand:wikidata":"Q1129073","shop":"perfumery"},"addTags":{"brand":"Marionnaud","brand:wikidata":"Q1129073","brand:wikipedia":"fr:Marionnaud","name":"Marionnaud","shop":"perfumery"}},"shop/pet/arcaplanet-fc1a4b":{"name":"Arcaplanet","locationSet":{"include":["it"]},"geometry":["point","area"],"matchScore":2,"terms":["arcaplanet"],"tags":{"brand:wikidata":"Q105530937","shop":"pet"},"addTags":{"brand":"Arcaplanet","brand:wikidata":"Q105530937","name":"Arcaplanet","shop":"pet"}},"shop/pet/lisoladeitesori-fc1a4b":{"name":"L'Isola dei Tesori","locationSet":{"include":["it"]},"geometry":["point","area"],"matchScore":2,"terms":["l'isola dei tesori"],"tags":{"brand:wikidata":"Q108578003","shop":"pet"},"addTags":{"brand":"L'Isola dei Tesori","brand:wikidata":"Q108578003","name":"L'Isola dei Tesori","shop":"pet"}},"shop/pet/maxizoo-3e2920":{"name":"Maxi Zoo","locationSet":{"include":["be","ch","dk","fr","ie","it","pl"]},"geometry":["point","area"],"matchScore":2,"terms":["maxi zoo"],"tags":{"brand:wikidata":"Q108403242","shop":"pet"},"addTags":{"brand":"Maxi Zoo","brand:wikidata":"Q108403242","name":"Maxi Zoo","shop":"pet"}},"shop/shoes/gabor-36552c":{"name":"Gabor","locationSet":{"include":["de","it"]},"geometry":["point","area"],"matchScore":2,"terms":["gabor"],"tags":{"brand:wikidata":"Q1488760","shop":"shoes"},"addTags":{"brand":"Gabor","brand:wikidata":"Q1488760","brand:wikipedia":"de:Gabor Shoes","name":"Gabor","shop":"shoes"}},"shop/shoes/snipes-679af4":{"name":"Snipes","locationSet":{"include":["at","ch","de","es","fr","it","nl","us"]},"geometry":["point","area"],"matchScore":2,"terms":["snipes"],"tags":{"brand:wikidata":"Q42306166","shop":"shoes"},"addTags":{"brand":"Snipes","brand:wikidata":"Q42306166","brand:wikipedia":"de:Snipes (Unternehmen)","name":"Snipes","shop":"shoes"}},"shop/sports/sportler-14f94f":{"name":"Sportler","locationSet":{"include":["at","it"]},"geometry":["point","area"],"matchScore":2,"terms":["sportler"],"tags":{"brand:wikidata":"Q109336458","shop":"sports"},"addTags":{"brand":"Sportler","brand:wikidata":"Q109336458","name":"Sportler","shop":"sports"}},"shop/supermarket/aando-0cb133":{"name":"A&O","locationSet":{"include":["it"]},"geometry":["point","area"],"matchScore":2,"terms":["a&o"],"tags":{"brand:wikidata":"Q3600279","shop":"supermarket"},"addTags":{"brand":"A&O","brand:wikidata":"Q3600279","brand:wikipedia":"it:A&O","name":"A&O","shop":"supermarket"}},"shop/supermarket/aldi-0d26d7":{"name":"ALDI (ALDI Süd group)","locationSet":{"include":["au","ch","cn","gb","hu","ie","it","us"],"exclude":["de"]},"geometry":["point","area"],"matchScore":2,"terms":["aldi"],"tags":{"brand:wikidata":"Q41171672","shop":"supermarket"},"addTags":{"brand":"ALDI","brand:wikidata":"Q41171672","brand:wikipedia":"en:Aldi","name":"ALDI","shop":"supermarket"}},"shop/supermarket/auchan-925d9b":{"name":"Auchan","locationSet":{"include":["al","ad","ba","hr","gi","gr","va","it","mt","me","mk","pt","sm","rs","si","es","xk","by","bg","cz","hu","pl","md","ro","ru","sk","ua","at","be","fr","de","li","lu","mc","nl","ch","cn"],"exclude":["ru"]},"geometry":["point","area"],"matchScore":2,"terms":["auchan"],"tags":{"brand:wikidata":"Q758603","shop":"supermarket"},"addTags":{"brand":"Auchan","brand:wikidata":"Q758603","brand:wikipedia":"en:Auchan","name":"Auchan","shop":"supermarket"}},"shop/supermarket/conad-06d4eb":{"name":"Conad","locationSet":{"include":["al","it"]},"geometry":["point","area"],"matchScore":2,"terms":["conad"],"tags":{"brand:wikidata":"Q639075","shop":"supermarket"},"addTags":{"brand":"Conad","brand:wikidata":"Q639075","brand:wikipedia":"it:Conad","name":"Conad","shop":"supermarket"}},"shop/supermarket/conadcity-0cb133":{"name":"Conad City","locationSet":{"include":["it"]},"geometry":["point","area"],"matchScore":2,"terms":["conad city"],"tags":{"brand:wikidata":"Q57543102","shop":"supermarket"},"addTags":{"brand":"Conad City","brand:wikidata":"Q57543102","name":"Conad City","shop":"supermarket"}},"shop/supermarket/coop-0cb133":{"name":"Coop (Italia)","locationSet":{"include":["it"]},"geometry":["point","area"],"matchScore":2,"terms":["coop"],"tags":{"brand:wikidata":"Q1129774","shop":"supermarket"},"addTags":{"brand":"Coop","brand:wikidata":"Q1129774","brand:wikipedia":"it:Coop Italia","name":"Coop","shop":"supermarket"}},"shop/supermarket/crai-d52198":{"name":"Crai","locationSet":{"include":["ch","it"]},"geometry":["point","area"],"matchScore":2,"terms":["crai"],"tags":{"brand:wikidata":"Q3696429","shop":"supermarket"},"addTags":{"brand":"Crai","brand:wikidata":"Q3696429","brand:wikipedia":"it:CRAI","name":"Crai","shop":"supermarket"}},"shop/supermarket/deco-0cb133":{"name":"Decò","locationSet":{"include":["it"]},"geometry":["point","area"],"matchScore":2,"terms":["decò"],"tags":{"brand:wikidata":"Q65127915","shop":"supermarket"},"addTags":{"brand":"Decò","brand:wikidata":"Q65127915","brand:wikipedia":"it:Decò","name":"Decò","shop":"supermarket"}},"shop/supermarket/despar-0cb133":{"name":"Despar","locationSet":{"include":["it"]},"geometry":["point","area"],"matchScore":2,"terms":["spar"],"tags":{"brand:wikidata":"Q610492","shop":"supermarket"},"addTags":{"brand":"Spar","brand:wikidata":"Q610492","brand:wikipedia":"en:SPAR (retailer)","name":"Despar","shop":"supermarket"}},"shop/supermarket/ekom-0cb133":{"name":"Ekom","locationSet":{"include":["it"]},"geometry":["point","area"],"matchScore":2,"terms":["ekom"],"tags":{"brand:wikidata":"Q62073442","shop":"supermarket"},"addTags":{"brand":"Ekom","brand:wikidata":"Q62073442","name":"Ekom","shop":"supermarket"}},"shop/supermarket/esselunga-0cb133":{"name":"Esselunga","locationSet":{"include":["it"]},"geometry":["point","area"],"matchScore":2,"terms":["esselunga"],"tags":{"brand:wikidata":"Q1059636","shop":"supermarket"},"addTags":{"brand":"Esselunga","brand:wikidata":"Q1059636","brand:wikipedia":"en:Esselunga","name":"Esselunga","shop":"supermarket"}},"shop/supermarket/eurospar-4b5e11":{"name":"Eurospar","locationSet":{"include":["by","bg","cz","hu","pl","md","ro","ru","sk","ua","ax","gg","je","cq","dk","ee","fo","fi","is","ie","im","lv","lt","no","sj","se","gb","al","ad","ba","hr","gi","gr","va","it","mt","me","mk","pt","sm","rs","si","es","xk","at","be","fr","de","li","lu","mc","nl","ch"]},"geometry":["point","area"],"matchScore":2,"terms":["eurospar"],"tags":{"brand:wikidata":"Q12309283","shop":"supermarket"},"addTags":{"brand":"Eurospar","brand:wikidata":"Q12309283","brand:wikipedia":"da:Eurospar","name":"Eurospar","shop":"supermarket"}},"shop/supermarket/eurospin-a66db7":{"name":"EuroSpin","locationSet":{"include":["it","si"]},"geometry":["point","area"],"matchScore":2,"terms":["eurospin"],"tags":{"brand:wikidata":"Q1374674","shop":"supermarket"},"addTags":{"brand":"EuroSpin","brand:wikidata":"Q1374674","brand:wikipedia":"it:Eurospin","name":"EuroSpin","shop":"supermarket"}},"shop/supermarket/famila-5d2816":{"name":"famila","locationSet":{"include":["de","it"]},"geometry":["point","area"],"matchScore":2,"terms":["famila"],"tags":{"brand:wikidata":"Q1395108","shop":"supermarket"},"addTags":{"brand":"famila","brand:wikidata":"Q1395108","brand:wikipedia":"de:Famila","name":"famila","shop":"supermarket"}},"shop/supermarket/gulliver-0cb133":{"name":"Gulliver","locationSet":{"include":["it"]},"geometry":["point","area"],"matchScore":2,"terms":["gulliver"],"tags":{"brand:wikidata":"Q110454395","shop":"supermarket"},"addTags":{"brand":"Gulliver","brand:wikidata":"Q110454395","name":"Gulliver","shop":"supermarket"}},"shop/supermarket/ipercoop-0cb133":{"name":"Ipercoop","locationSet":{"include":["it"]},"geometry":["point","area"],"matchScore":2,"terms":["ipercoop"],"tags":{"brand:wikidata":"Q6064990","shop":"supermarket"},"addTags":{"brand":"Ipercoop","brand:wikidata":"Q6064990","brand:wikipedia":"en:Ipercoop","name":"Ipercoop","shop":"supermarket"}},"shop/supermarket/md-0cb133":{"name":"MD","locationSet":{"include":["it"]},"geometry":["point","area"],"matchScore":2,"terms":["md","md discount"],"tags":{"brand:wikidata":"Q3841263","shop":"supermarket"},"addTags":{"brand":"MD","brand:wikidata":"Q3841263","brand:wikipedia":"en:MD Discount","name":"MD","shop":"supermarket"}},"shop/supermarket/mixmarkt-3f43e2":{"name":"Mix Markt","locationSet":{"include":["at","be","cy","cz","de","es","fr","gb","gr","it","me","nl","pt"]},"geometry":["point","area"],"matchScore":2,"terms":["mix markt"],"tags":{"brand:wikidata":"Q327854","shop":"supermarket"},"addTags":{"brand":"Mix Markt","brand:wikidata":"Q327854","brand:wikipedia":"de:Mix Markt","name":"Mix Markt","shop":"supermarket"}},"shop/supermarket/mpreis-eeb4e5":{"name":"MPREIS","locationSet":{"include":["at","it"]},"geometry":["point","area"],"matchScore":2,"terms":["mpreis"],"tags":{"brand:wikidata":"Q873491","shop":"supermarket"},"addTags":{"brand":"MPREIS","brand:wikidata":"Q873491","brand:wikipedia":"de:MPreis","name":"MPREIS","shop":"supermarket"}},"shop/supermarket/naturasi-0cb133":{"name":"NaturaSì","locationSet":{"include":["it"]},"geometry":["point","area"],"matchScore":2,"terms":["naturasì"],"tags":{"brand:wikidata":"Q60840755","shop":"supermarket"},"addTags":{"brand":"NaturaSì","brand:wikidata":"Q60840755","brand:wikipedia":"it:NaturaSì","name":"NaturaSì","organic":"only","shop":"supermarket"}},"shop/supermarket/pam-d52198":{"name":"Pam","locationSet":{"include":["ch","it"]},"geometry":["point","area"],"matchScore":2,"terms":["pam"],"tags":{"brand:wikidata":"Q105615038","shop":"supermarket"},"addTags":{"brand":"Pam","brand:wikidata":"Q105615038","name":"Pam","shop":"supermarket"}},"shop/supermarket/penny-55dfd6":{"name":"PENNY","locationSet":{"include":["at","cz","de","hu","it","ro"]},"geometry":["point","area"],"matchScore":2,"terms":["penny","penny market","penny markt"],"tags":{"brand:wikidata":"Q284688","shop":"supermarket"},"addTags":{"brand":"PENNY","brand:wikidata":"Q284688","brand:wikipedia":"en:Penny (supermarket)","name":"PENNY","shop":"supermarket"}},"shop/supermarket/prix-0cb133":{"name":"Prix","locationSet":{"include":["it"]},"geometry":["point","area"],"matchScore":2,"terms":["prix","prix quality"],"tags":{"brand:wikidata":"Q61994819","shop":"supermarket"},"addTags":{"brand":"Prix","brand:wikidata":"Q61994819","name":"Prix","shop":"supermarket"}},"shop/supermarket/puntosimply-0cb133":{"name":"Punto Simply","locationSet":{"include":["it"]},"geometry":["point","area"],"matchScore":2,"terms":["punto simply"],"searchable":false,"tags":{"brand:wikidata":"Q3484790","shop":"supermarket"},"addTags":{"brand":"Punto Simply","brand:wikidata":"Q3484790","brand:wikipedia":"it:Simply Market","name":"Punto Simply","shop":"supermarket"}},"shop/supermarket/sigma-0cb133":{"name":"Sigma","locationSet":{"include":["it"]},"geometry":["point","area"],"matchScore":2,"terms":["sigma"],"tags":{"brand:wikidata":"Q3977979","shop":"supermarket"},"addTags":{"brand":"Sigma","brand:wikidata":"Q3977979","brand:wikipedia":"it:Supermercati Sigma","name":"Sigma","shop":"supermarket"}},"shop/supermarket/sisa-0cb133":{"name":"Sisa","locationSet":{"include":["it"]},"geometry":["point","area"],"matchScore":2,"terms":["sisa"],"tags":{"brand:wikidata":"Q3943661","shop":"supermarket"},"addTags":{"brand":"Sisa","brand:wikidata":"Q3943661","brand:wikipedia":"it:SISA (azienda)","name":"Sisa","shop":"supermarket"}},"shop/supermarket/supermercatizazzeron-0cb133":{"name":"Supermercati Zazzeron","locationSet":{"include":["it"]},"geometry":["point","area"],"matchScore":2,"terms":["supermercati zazzeron"],"tags":{"brand:wikidata":"Q108805425","shop":"supermarket"},"addTags":{"brand":"Supermercati Zazzeron","brand:wikidata":"Q108805425","name":"Supermercati Zazzeron","shop":"supermarket"}},"shop/supermarket/tigros-0cb133":{"name":"Tigros","locationSet":{"include":["it"]},"geometry":["point","area"],"matchScore":2,"terms":["tigros"],"tags":{"brand:wikidata":"Q24935610","shop":"supermarket"},"addTags":{"brand":"Tigros","brand:wikidata":"Q24935610","brand:wikipedia":"it:Tigros","name":"Tigros","shop":"supermarket"}},"shop/supermarket/todis-0cb133":{"name":"Todis","locationSet":{"include":["it"]},"geometry":["point","area"],"matchScore":2,"terms":["todis"],"tags":{"brand:wikidata":"Q3992174","shop":"supermarket"},"addTags":{"brand":"Todis","brand:wikidata":"Q3992174","brand:wikipedia":"it:Todis","name":"Todis","shop":"supermarket"}},"shop/supermarket/tuodi-0cb133":{"name":"Tuodì","locationSet":{"include":["it"]},"geometry":["point","area"],"matchScore":2,"terms":["tuodì"],"tags":{"brand:wikidata":"Q3706995","shop":"supermarket"},"addTags":{"brand":"Tuodì","brand:wikidata":"Q3706995","brand:wikipedia":"it:Tuodì","name":"Tuodì","shop":"supermarket"}},"shop/supermarket/u-0cb133":{"name":"U!","locationSet":{"include":["it"]},"geometry":["point","area"],"matchScore":2,"terms":["u!"],"tags":{"brand:wikidata":"Q105542347","shop":"supermarket"},"addTags":{"brand":"U!","brand:wikidata":"Q105542347","name":"U!","shop":"supermarket"}},"shop/supermarket/u2-0cb133":{"name":"U2","locationSet":{"include":["it"]},"geometry":["point","area"],"matchScore":2,"terms":["u2"],"tags":{"brand:wikidata":"Q105542216","shop":"supermarket"},"addTags":{"brand":"U2","brand:wikidata":"Q105542216","name":"U2","shop":"supermarket"}},"shop/tea/dammannfreres-14c0a7":{"name":"Dammann Frères","locationSet":{"include":["fr","it","ja","kr","lu"]},"geometry":["point","area"],"matchScore":2,"terms":["dammann frères"],"tags":{"brand:wikidata":"Q3012927","shop":"tea"},"addTags":{"brand":"Dammann Frères","brand:wikidata":"Q3012927","brand:wikipedia":"fr:Dammann Frères","name":"Dammann Frères","shop":"tea"}},"shop/tool_hire/boels-d0c09f":{"name":"Boels","locationSet":{"include":["at","be","ch","cz","de","gb","it","lu","nl","pl","sk"]},"geometry":["point","area"],"matchScore":2,"terms":["boels","boels rental"],"tags":{"brand:wikidata":"Q19901961","shop":"tool_hire"},"addTags":{"brand":"Boels","brand:wikidata":"Q19901961","brand:wikipedia":"en:Boels Rental","name":"Boels","shop":"tool_hire"}},"shop/tool_hire/kiloutou-d6c674":{"name":"Kiloutou","locationSet":{"include":["de","es","fr","it","pl"]},"geometry":["point","area"],"matchScore":2,"terms":["kiloutou"],"tags":{"brand:wikidata":"Q3196672","shop":"tool_hire"},"addTags":{"brand":"Kiloutou","brand:wikidata":"Q3196672","brand:wikipedia":"fr:Kiloutou","name":"Kiloutou","shop":"tool_hire"}},"shop/tool_hire/loxam-33fef8":{"name":"Loxam","locationSet":{"include":["ae","be","bh","br","ch","co","cz","de","dk","ee","es","fi","fr","gb","ie","it","kw","lt","lu","lv","ma","nl","no","om","pl","pt","qa","sa","se","sk"]},"geometry":["point","area"],"matchScore":2,"terms":["loxam"],"tags":{"brand:wikidata":"Q3264407","shop":"tool_hire"},"addTags":{"brand":"Loxam","brand:wikidata":"Q3264407","brand:wikipedia":"fr:Loxam","name":"Loxam","shop":"tool_hire"}},"shop/toys/joueclub-913d0c":{"name":"JouéClub","locationSet":{"include":["ad","fr","it","lb","ma","qa"]},"geometry":["point","area"],"matchScore":2,"terms":["jouéclub"],"tags":{"brand:wikidata":"Q3187152","shop":"toys"},"addTags":{"brand":"JouéClub","brand:wikidata":"Q3187152","brand:wikipedia":"fr:JouéClub","name":"JouéClub","shop":"toys"}},"shop/toys/maxitoys-581d0c":{"name":"Maxi Toys","locationSet":{"include":["be","de","fr","it"]},"geometry":["point","area"],"matchScore":2,"terms":["maxi toys"],"tags":{"brand:wikidata":"Q16663879","shop":"toys"},"addTags":{"brand":"Maxi Toys","brand:wikidata":"Q16663879","brand:wikipedia":"fr:Maxi Toys","name":"Maxi Toys","shop":"toys"}},"shop/toys/toyscenter-da26c5":{"name":"Toys Center","locationSet":{"include":["it"]},"geometry":["point","area"],"matchScore":2,"terms":["toys center"],"tags":{"brand:wikidata":"Q105340071","shop":"toys"},"addTags":{"brand":"Toys Center","brand:wikidata":"Q105340071","name":"Toys Center","shop":"toys"}},"shop/variety_store/action-98734c":{"name":"Action","locationSet":{"include":["at","be","cz","de","fr","it","lu","nl","pl"]},"geometry":["point","area"],"matchScore":2,"terms":["action"],"tags":{"brand:wikidata":"Q2634111","shop":"variety_store"},"addTags":{"brand":"Action","brand:wikidata":"Q2634111","brand:wikipedia":"nl:Action (winkel)","name":"Action","shop":"variety_store"}},"shop/variety_store/flyingtigercopenhagen-37d726":{"name":"Flying Tiger Copenhagen","locationSet":{"include":["at","be","ch","cy","cz","de","dk","ee","es","fi","fr","gb","gr","hu","ie","is","it","jp","kr","lt","lv","mt","nl","no","pl","pt","se","sk"]},"geometry":["point","area"],"matchScore":2,"terms":["flying tiger","flying tiger copenhagen","tgr","tiger"],"tags":{"brand:wikidata":"Q2786319","shop":"variety_store"},"addTags":{"brand":"Flying Tiger Copenhagen","brand:wikidata":"Q2786319","brand:wikipedia":"en:Flying Tiger Copenhagen","name":"Flying Tiger Copenhagen","shop":"variety_store","short_name":"Flying Tiger"}},"shop/variety_store/tedi-588ea3":{"name":"TEDi","locationSet":{"include":["at","de","es","hr","it","si","sk"]},"geometry":["point","area"],"matchScore":2,"terms":["t\u20acdi","tedi"],"tags":{"brand:wikidata":"Q1364603","shop":"variety_store"},"addTags":{"brand":"TEDi","brand:wikidata":"Q1364603","brand:wikipedia":"de:TEDi","name":"TEDi","shop":"variety_store"}},"shop/watches/fossil-b09800":{"name":"Fossil","locationSet":{"include":["ca","de","fr","it","us"]},"geometry":["point","area"],"matchScore":2,"terms":["fossil"],"tags":{"brand:wikidata":"Q356212","shop":"watches"},"addTags":{"brand":"Fossil","brand:wikidata":"Q356212","brand:wikipedia":"en:Fossil Group","name":"Fossil","shop":"watches"}},"tourism/hostel/aando-a930a5":{"name":"A&O","locationSet":{"include":["at","cz","de","dk","hu","it","nl","pl","uk"]},"geometry":["point","area"],"matchScore":2,"terms":["a&o"],"fields":["name","brand","{tourism/hostel}"],"tags":{"brand:wikidata":"Q15890910","tourism":"hostel"},"addTags":{"brand":"A&O","brand:wikidata":"Q15890910","brand:wikipedia":"de:A&O Hotels and Hostels","name":"A&O","tourism":"hostel"}},"tourism/hotel/aando-7ebc01":{"name":"A&O","locationSet":{"include":["at","cz","de","dk","hu","it","nl","pl","uk"]},"geometry":["point","area"],"matchScore":2,"terms":["a&o"],"fields":["name","brand","{tourism/hotel}"],"tags":{"brand:wikidata":"Q15890910","tourism":"hotel"},"addTags":{"brand":"A&O","brand:wikidata":"Q15890910","brand:wikipedia":"de:A&O Hotels and Hostels","name":"A&O","tourism":"hotel"}},"tourism/hotel/bandbhotel-fc8c2c":{"name":"B&B Hotel","locationSet":{"include":["by","bg","cz","hu","pl","md","ro","ru","sk","ua","ax","gg","je","cq","dk","ee","fo","fi","is","ie","im","lv","lt","no","sj","se","gb","al","ad","ba","hr","gi","gr","va","it","mt","me","mk","pt","sm","rs","si","es","xk","at","be","fr","de","li","lu","mc","nl","ch","br"]},"geometry":["point","area"],"matchScore":2,"terms":["b&b hotels"],"fields":["name","brand","{tourism/hotel}"],"tags":{"brand:wikidata":"Q794939","tourism":"hotel"},"addTags":{"brand":"B&B Hotels","brand:wikidata":"Q794939","brand:wikipedia":"en:B&B Hotels","name":"B&B Hotel","tourism":"hotel"}},"tourism/hotel/bulgari-a1f85a":{"name":"Bulgari","locationSet":{"include":["ae","cn","fx","gb","id","it","jp","ru","us"]},"geometry":["point","area"],"matchScore":2,"terms":["bulgari"],"fields":["name","brand","{tourism/hotel}"],"tags":{"brand:wikidata":"Q752515","tourism":"hotel"},"addTags":{"brand":"Bulgari","brand:wikidata":"Q752515","brand:wikipedia":"en:Bulgari","name":"Bulgari","tourism":"hotel"}},"tourism/hotel/citizenm-b4d29c":{"name":"citizenM","locationSet":{"include":["ch","dk","fr","gb","it","my","nl","tw","us"]},"geometry":["point","area"],"matchScore":2,"terms":["citizenm"],"fields":["name","brand","{tourism/hotel}"],"tags":{"brand:wikidata":"Q5122531","tourism":"hotel"},"addTags":{"brand":"citizenM","brand:wikidata":"Q5122531","brand:wikipedia":"en:CitizenM","name":"citizenM","tourism":"hotel"}},"tourism/hotel/edition-24940c":{"name":"Edition","locationSet":{"include":["ae","cn","es","gb","is","it","jp","mx","my","qa","sg","tr","us"]},"geometry":["point","area"],"matchScore":2,"terms":["edition"],"fields":["name","brand","{tourism/hotel}"],"tags":{"brand:wikidata":"Q91218404","tourism":"hotel"},"addTags":{"brand":"Edition","brand:wikidata":"Q91218404","brand:wikipedia":"pl:Edition Hotels","name":"Edition","tourism":"hotel"}},"tourism/hotel/leonardohotel-596e41":{"name":"Leonardo Hotel","locationSet":{"include":["at","be","de","es","gb","hu","it","nl"]},"geometry":["point","area"],"matchScore":2,"terms":["leonardo hotel"],"fields":["name","brand","{tourism/hotel}"],"tags":{"brand:wikidata":"Q1819101","tourism":"hotel"},"addTags":{"brand":"Leonardo Hotel","brand:wikidata":"Q1819101","brand:wikipedia":"de:Leonardo Hotels","name":"Leonardo Hotel","tourism":"hotel"}},"tourism/hotel/leonardoroyal-b40680":{"name":"Leonardo Royal","locationSet":{"include":["de","it","nl","pl"]},"geometry":["point","area"],"matchScore":2,"terms":["leonardo royal"],"fields":["name","brand","{tourism/hotel}"],"tags":{"brand:wikidata":"Q1819101","tourism":"hotel"},"addTags":{"brand":"Leonardo Royal","brand:wikidata":"Q1819101","brand:wikipedia":"de:Leonardo Hotels","name":"Leonardo Royal","tourism":"hotel"}},"tourism/hotel/motelone-046fe6":{"name":"Motel One","locationSet":{"include":["by","bg","cz","hu","pl","md","ro","ru","sk","ua","ax","gg","je","cq","dk","ee","fo","fi","is","ie","im","lv","lt","no","sj","se","gb","al","ad","ba","hr","gi","gr","va","it","mt","me","mk","pt","sm","rs","si","es","xk","at","be","fr","de","li","lu","mc","nl","ch"]},"geometry":["point","area"],"matchScore":2,"terms":["motel one"],"fields":["name","brand","{tourism/hotel}"],"tags":{"brand:wikidata":"Q391080","tourism":"hotel"},"addTags":{"brand":"Motel One","brand:wikidata":"Q391080","brand:wikipedia":"en:Motel One","name":"Motel One","tourism":"hotel"}},"tourism/hotel/roommate-a3fb22":{"name":"Room Mate","locationSet":{"include":["es","fr","it","mx","nl","tr","us"]},"geometry":["point","area"],"matchScore":2,"terms":["room mate"],"fields":["name","brand","{tourism/hotel}"],"tags":{"brand:wikidata":"Q26260849","tourism":"hotel"},"addTags":{"brand":"Room Mate","brand:wikidata":"Q26260849","name":"Room Mate","tourism":"hotel"}},"tourism/hotel/waldorfastoria-204c06":{"name":"Waldorf Astoria","locationSet":{"include":["ae","cn","de","eg","fx","gb","il","it","kw","mv","mx","nl","pa","sa","th","us"]},"geometry":["point","area"],"matchScore":2,"terms":["waldorf astoria"],"fields":["name","brand","{tourism/hotel}"],"tags":{"brand:wikidata":"Q3239392","tourism":"hotel"},"addTags":{"brand":"Waldorf Astoria","brand:wikidata":"Q3239392","brand:wikipedia":"en:Waldorf Astoria Hotels & Resorts","name":"Waldorf Astoria","tourism":"hotel"}},"amenity/car_sharing/romaserviziperlamobilita-4d7a0e":{"name":"Roma Servizi per la Mobilità","locationSet":{"include":["it"]},"geometry":["point","area"],"matchScore":2,"terms":["roma servizi per la mobilità"],"tags":{"amenity":"car_sharing","operator:wikidata":"Q30284569"},"addTags":{"amenity":"car_sharing","operator":"Roma Servizi per la Mobilità","operator:wikidata":"Q30284569","operator:wikipedia":"it:Roma Servizi per la Mobilità"}},"amenity/charging_station/a2a-2c5517":{"name":"a2a","locationSet":{"include":["it"]},"geometry":["point","area"],"matchScore":2,"terms":["a2a"],"fields":["name","operator","{amenity/charging_station}"],"tags":{"amenity":"charging_station","operator:wikidata":"Q279978"},"addTags":{"amenity":"charging_station","operator":"a2a","operator:wikidata":"Q279978","operator:wikipedia":"it:A2A"}},"amenity/charging_station/agsmveronaspa-2c5517":{"name":"Agsm Verona Spa","locationSet":{"include":["it"]},"geometry":["point","area"],"matchScore":2,"terms":["agsm verona spa"],"fields":["name","operator","{amenity/charging_station}"],"tags":{"amenity":"charging_station","operator:wikidata":"Q17620223"},"addTags":{"amenity":"charging_station","operator":"Agsm Verona Spa","operator:wikidata":"Q17620223","operator:wikipedia":"it:AGSM Verona"}},"amenity/charging_station/alperia-2c5517":{"name":"Alperia","locationSet":{"include":["it"]},"geometry":["point","area"],"matchScore":2,"terms":["alperia","alperia smart mobility"],"fields":["name","operator","{amenity/charging_station}"],"tags":{"amenity":"charging_station","operator:wikidata":"Q25387077"},"addTags":{"amenity":"charging_station","operator":"Alperia","operator:wikidata":"Q25387077","operator:wikipedia":"it:Alperia"}},"amenity/charging_station/bikeenergy-9f519a":{"name":"bike-energy","locationSet":{"include":["at","ch","de","fr","it","lu"]},"geometry":["point","area"],"matchScore":2,"terms":["bike-energy","bike-energy ladestation"],"fields":["name","operator","{amenity/charging_station}"],"tags":{"amenity":"charging_station","operator:wikidata":"Q67770877"},"addTags":{"amenity":"charging_station","brand":"bike-energy","brand:wikidata":"Q67770877","name":"bike-energy","operator":"bike-energy","operator:wikidata":"Q67770877"}},"amenity/charging_station/duferco-2c5517":{"name":"Duferco","locationSet":{"include":["it"]},"geometry":["point","area"],"matchScore":2,"terms":["duferco"],"fields":["name","operator","{amenity/charging_station}"],"tags":{"amenity":"charging_station","operator:wikidata":"Q1263955"},"addTags":{"amenity":"charging_station","operator":"Duferco","operator:wikidata":"Q1263955","operator:wikipedia":"en:Duferco"}},"amenity/charging_station/eon-7f623e":{"name":"E.ON","locationSet":{"include":["by","bg","cz","hu","pl","md","ro","ru","sk","ua","ax","gg","je","cq","dk","ee","fo","fi","is","ie","im","lv","lt","no","sj","se","gb","al","ad","ba","hr","gi","gr","va","it","mt","me","mk","pt","sm","rs","si","es","xk","at","be","fr","de","li","lu","mc","nl","ch"]},"geometry":["point","area"],"matchScore":2,"terms":["e-on drive","e.on"],"fields":["name","operator","{amenity/charging_station}"],"tags":{"amenity":"charging_station","operator:wikidata":"Q270223"},"addTags":{"amenity":"charging_station","operator":"E.ON","operator:wikidata":"Q270223","operator:wikipedia":"de:E.ON"}},"amenity/charging_station/enel-2c5517":{"name":"Enel","locationSet":{"include":["it"]},"geometry":["point","area"],"matchScore":2,"terms":["enel","enel - stazione di ricarica"],"fields":["name","operator","{amenity/charging_station}"],"tags":{"amenity":"charging_station","operator:wikidata":"Q651222"},"addTags":{"amenity":"charging_station","brand":"Enel","brand:wikidata":"Q651222","brand:wikipedia":"en:Enel","name":"Enel","operator":"Enel","operator:wikidata":"Q651222","operator:wikipedia":"en:Enel"}},"amenity/charging_station/enelx-7667bf":{"name":"Enel X","locationSet":{"include":["cl","it"]},"geometry":["point","area"],"matchScore":2,"terms":["enel x","enel x metbus"],"fields":["name","operator","{amenity/charging_station}"],"tags":{"amenity":"charging_station","operator:wikidata":"Q5376815"},"addTags":{"amenity":"charging_station","brand":"Enel X","brand:wikidata":"Q5376815","brand:wikipedia":"en:Enel X","name":"Enel X","operator":"Enel X","operator:wikidata":"Q5376815","operator:wikipedia":"en:Enel X"}},"amenity/charging_station/evbox-7f623e":{"name":"EVBOX","locationSet":{"include":["by","bg","cz","hu","pl","md","ro","ru","sk","ua","ax","gg","je","cq","dk","ee","fo","fi","is","ie","im","lv","lt","no","sj","se","gb","al","ad","ba","hr","gi","gr","va","it","mt","me","mk","pt","sm","rs","si","es","xk","at","be","fr","de","li","lu","mc","nl","ch"]},"geometry":["point","area"],"matchScore":2,"terms":["evbox"],"fields":["name","operator","{amenity/charging_station}"],"tags":{"amenity":"charging_station","operator:wikidata":"Q28406392"},"addTags":{"amenity":"charging_station","operator":"EVBOX","operator:wikidata":"Q28406392","operator:wikipedia":"en:EVBox"}},"amenity/charging_station/ionity-7f623e":{"name":"Ionity","locationSet":{"include":["by","bg","cz","hu","pl","md","ro","ru","sk","ua","ax","gg","je","cq","dk","ee","fo","fi","is","ie","im","lv","lt","no","sj","se","gb","al","ad","ba","hr","gi","gr","va","it","mt","me","mk","pt","sm","rs","si","es","xk","at","be","fr","de","li","lu","mc","nl","ch"]},"geometry":["point","area"],"matchScore":2,"terms":["ionity","ionity gmbh"],"fields":["name","operator","{amenity/charging_station}"],"tags":{"amenity":"charging_station","operator:wikidata":"Q42717773"},"addTags":{"amenity":"charging_station","operator":"Ionity","operator:wikidata":"Q42717773","operator:wikipedia":"en:IONITY"}},"amenity/charging_station/qpark-7f623e":{"name":"Q-Park","locationSet":{"include":["by","bg","cz","hu","pl","md","ro","ru","sk","ua","ax","gg","je","cq","dk","ee","fo","fi","is","ie","im","lv","lt","no","sj","se","gb","al","ad","ba","hr","gi","gr","va","it","mt","me","mk","pt","sm","rs","si","es","xk","at","be","fr","de","li","lu","mc","nl","ch"]},"geometry":["point","area"],"matchScore":2,"terms":["q-park"],"fields":["name","operator","{amenity/charging_station}"],"tags":{"amenity":"charging_station","operator:wikidata":"Q1127798"},"addTags":{"amenity":"charging_station","operator":"Q-Park","operator:wikidata":"Q1127798","operator:wikipedia":"en:Q-Park"}},"amenity/drinking_water/aziendaserviziambientalispa-8df115":{"name":"Azienda Servizi Ambientali S.p.A.","locationSet":{"include":["it"]},"geometry":["point"],"matchScore":2,"terms":["azienda servizi ambientali s.p.a."],"tags":{"amenity":"drinking_water","operator:wikidata":"Q3601161"},"addTags":{"amenity":"drinking_water","operator":"Azienda Servizi Ambientali S.p.A.","operator:wikidata":"Q3601161","operator:wikipedia":"it:ASA Livorno"}},"amenity/drinking_water/iren-8df115":{"name":"Iren","locationSet":{"include":["it"]},"geometry":["point"],"matchScore":2,"terms":["iren"],"tags":{"amenity":"drinking_water","operator:wikidata":"Q3801865"},"addTags":{"amenity":"drinking_water","operator":"Iren","operator:wikidata":"Q3801865","operator:wikipedia":"it:Iren"}},"amenity/drinking_water/stadtwerkebrixenag-8df115":{"name":"Stadtwerke Brixen AG","locationSet":{"include":["it"]},"geometry":["point"],"matchScore":2,"terms":["stadtwerke brixen ag"],"tags":{"amenity":"drinking_water","operator:wikidata":"Q2328441"},"addTags":{"amenity":"drinking_water","operator":"Stadtwerke Brixen AG","operator:wikidata":"Q2328441","operator:wikipedia":"de:Stadtwerke Brixen"}},"amenity/hospital/asl-046097":{"name":"ASL","locationSet":{"include":["it"]},"geometry":["area","point"],"matchScore":2,"terms":["asl"],"fields":["name","operator","{amenity/hospital}"],"reference":{"key":"amenity","value":"hospital"},"tags":{"amenity":"hospital","operator:wikidata":"Q3631467"},"addTags":{"amenity":"hospital","healthcare":"hospital","operator":"ASL","operator:wikidata":"Q3631467","operator:wikipedia":"it:Azienda sanitaria locale"}},"amenity/parking/apcoaparking-e752ad":{"name":"Apcoa Parking","locationSet":{"include":["at","be","ch","de","dk","gb","ie","it","nl","no","pl","se"]},"geometry":["area","point","vertex"],"matchScore":2,"terms":["apcoa parking"],"fields":["name","operator","{amenity/parking}"],"tags":{"amenity":"parking","operator:wikidata":"Q296108"},"addTags":{"amenity":"parking","operator":"APCOA Parking","operator:wikidata":"Q296108","operator:wikipedia":"en:APCOA Parking"}},"amenity/police/armadeicarabinieri-f71f16":{"name":"Arma dei Carabinieri","locationSet":{"include":["it"]},"geometry":["point","area"],"matchScore":2,"terms":["arma dei carabinieri","carabinieri"],"tags":{"amenity":"police","operator:wikidata":"Q54852"},"addTags":{"amenity":"police","operator":"Arma dei Carabinieri","operator:short":"Carabinieri","operator:wikidata":"Q54852","operator:wikipedia":"it:Arma dei Carabinieri"}},"amenity/police/guardiacostiera-f71f16":{"name":"Guardia Costiera","locationSet":{"include":["it"]},"geometry":["point","area"],"matchScore":2,"terms":["guardia costiera"],"tags":{"amenity":"police","operator:wikidata":"Q1552839"},"addTags":{"amenity":"police","operator":"Guardia Costiera","operator:wikidata":"Q1552839","operator:wikipedia":"it:Corpo delle capitanerie di porto - Guardia costiera"}},"amenity/police/guardiadifinanza-f71f16":{"name":"Guardia di Finanza","locationSet":{"include":["it"]},"geometry":["point","area"],"matchScore":2,"terms":["guardia di finanza"],"tags":{"amenity":"police","operator:wikidata":"Q1552861"},"addTags":{"amenity":"police","operator":"Guardia di Finanza","operator:wikidata":"Q1552861","operator:wikipedia":"it:Guardia di Finanza"}},"amenity/police/poliziadistato-f71f16":{"name":"Polizia di Stato","locationSet":{"include":["it"]},"geometry":["point","area"],"matchScore":2,"terms":["polizia","polizia di stato"],"tags":{"amenity":"police","operator:wikidata":"Q897817"},"addTags":{"amenity":"police","operator":"Polizia di Stato","operator:wikidata":"Q897817","operator:wikipedia":"it:Polizia di Stato"}},"amenity/police/polizialocale-f71f16":{"name":"Polizia Locale","locationSet":{"include":["it"]},"geometry":["point","area"],"matchScore":2,"terms":["polizia locale"],"tags":{"amenity":"police","operator:wikidata":"Q61634147"},"addTags":{"amenity":"police","operator":"Polizia Locale","operator:wikidata":"Q61634147","operator:wikipedia":"it:Polizia locale (Italia)"}},"amenity/police/poliziamunicipale-f71f16":{"name":"Polizia Municipale","locationSet":{"include":["it"]},"geometry":["point","area"],"matchScore":2,"terms":["polizia municipale","vigili urbani"],"tags":{"amenity":"police","operator:wikidata":"Q1431981"},"addTags":{"amenity":"police","operator":"Polizia Municipale","operator:wikidata":"Q1431981","operator:wikipedia":"it:Polizia municipale"}},"amenity/post_box/posteitaliane-f380c8":{"name":"Poste Italiane","locationSet":{"include":["it"]},"geometry":["point","vertex"],"matchScore":2,"terms":["poste italiane","poste italiane spa"],"tags":{"amenity":"post_box","operator:wikidata":"Q495026"},"addTags":{"amenity":"post_box","operator":"Poste Italiane","operator:wikidata":"Q495026","operator:wikipedia":"en:Poste italiane"}},"amenity/post_office/posteitaliane-b5464b":{"name":"Poste Italiane","locationSet":{"include":["it"]},"geometry":["point","area"],"matchScore":2,"terms":["poste italiane","poste italiane spa"],"fields":["name","operator","{amenity/post_office}"],"tags":{"amenity":"post_office","operator:wikidata":"Q495026"},"addTags":{"amenity":"post_office","operator":"Poste Italiane","operator:wikidata":"Q495026","operator:wikipedia":"en:Poste italiane"}},"amenity/social_facility/korian-08d104":{"name":"Korian","locationSet":{"include":["be","de","es","fx","it","nl"]},"geometry":["point","area"],"matchScore":2,"terms":["korian"],"tags":{"amenity":"social_facility","operator:wikidata":"Q3198944"},"addTags":{"amenity":"social_facility","operator":"Korian","operator:wikidata":"Q3198944","operator:wikipedia":"fr:Korian"}},"leisure/nature_reserve/comunedibrescia-336d93":{"name":"Comune di Brescia","locationSet":{"include":["it"]},"geometry":["area","point"],"matchScore":2,"terms":["comune di brescia"],"tags":{"leisure":"nature_reserve","operator:wikidata":"Q6221"},"addTags":{"leisure":"nature_reserve","operator":"Comune di Brescia","operator:type":"public","operator:wikidata":"Q6221","operator:wikipedia":"it:Brescia"}},"leisure/nature_reserve/comunedicarrara-336d93":{"name":"Comune di Carrara","locationSet":{"include":["it"]},"geometry":["area","point"],"matchScore":2,"terms":["comune di carrara"],"tags":{"leisure":"nature_reserve","operator:wikidata":"Q13372"},"addTags":{"leisure":"nature_reserve","operator":"Comune di Carrara","operator:type":"public","operator:wikidata":"Q13372","operator:wikipedia":"it:Carrara"}},"leisure/nature_reserve/comunedirosa-336d93":{"name":"Comune di Rosà","locationSet":{"include":["it"]},"geometry":["area","point"],"matchScore":2,"terms":["comune di rosà"],"tags":{"leisure":"nature_reserve","operator:wikidata":"Q46589"},"addTags":{"leisure":"nature_reserve","operator":"Comune di Rosà","operator:type":"public","operator:wikidata":"Q46589","operator:wikipedia":"it:Rosà"}},"leisure/park/comunedibrescia-d995cd":{"name":"Comune di Brescia","locationSet":{"include":["it"]},"geometry":["area","point"],"matchScore":2,"terms":["comune di brescia"],"tags":{"leisure":"park","operator:wikidata":"Q6221"},"addTags":{"leisure":"park","operator":"Comune di Brescia","operator:type":"public","operator:wikidata":"Q6221","operator:wikipedia":"it:Brescia"}},"leisure/park/comunedicarrara-d995cd":{"name":"Comune di Carrara","locationSet":{"include":["it"]},"geometry":["area","point"],"matchScore":2,"terms":["comune di carrara"],"tags":{"leisure":"park","operator:wikidata":"Q13372"},"addTags":{"leisure":"park","operator":"Comune di Carrara","operator:type":"public","operator:wikidata":"Q13372","operator:wikipedia":"it:Carrara"}},"leisure/park/comunedirosa-d995cd":{"name":"Comune di Rosà","locationSet":{"include":["it"]},"geometry":["area","point"],"matchScore":2,"terms":["comune di rosà"],"tags":{"leisure":"park","operator:wikidata":"Q46589"},"addTags":{"leisure":"park","operator":"Comune di Rosà","operator:type":"public","operator:wikidata":"Q46589","operator:wikipedia":"it:Rosà"}},"office/energy_supplier/puntoenel-7c1c4a":{"name":"Punto Enel","locationSet":{"include":["it"]},"geometry":["point","area"],"matchScore":2,"terms":["punto enel"],"tags":{"office":"energy_supplier","operator:wikidata":"Q651222"},"addTags":{"name":"Punto Enel","office":"energy_supplier","operator":"Punto Enel","operator:wikidata":"Q651222","operator:wikipedia":"en:Enel"}},"power/generator/compagniavaldostanaacque-052129":{"name":"Compagnia Valdostana Acque","locationSet":{"include":["it"]},"geometry":["point","vertex","area"],"matchScore":2,"terms":["c.v.a. s.p.a.","compagnia valdostana acque","cva"],"tags":{"operator:wikidata":"Q2990264","power":"generator"},"addTags":{"operator":"Compagnia Valdostana Acque","operator:short":"CVA","operator:wikidata":"Q2990264","operator:wikipedia":"it:Compagnia Valdostana delle Acque","power":"generator"}},"power/generator/innogy-16c9d0":{"name":"Innogy","locationSet":{"include":["by","bg","cz","hu","pl","md","ro","ru","sk","ua","ax","gg","je","cq","dk","ee","fo","fi","is","ie","im","lv","lt","no","sj","se","gb","al","ad","ba","hr","gi","gr","va","it","mt","me","mk","pt","sm","rs","si","es","xk","at","be","fr","de","li","lu","mc","nl","ch"]},"geometry":["point","vertex","area"],"matchScore":2,"terms":["innogy"],"tags":{"operator:wikidata":"Q2124721","power":"generator"},"addTags":{"operator":"Innogy","operator:wikidata":"Q2124721","operator:wikipedia":"en:Innogy","power":"generator"}},"power/generator/rwe-16c9d0":{"name":"RWE","locationSet":{"include":["by","bg","cz","hu","pl","md","ro","ru","sk","ua","ax","gg","je","cq","dk","ee","fo","fi","is","ie","im","lv","lt","no","sj","se","gb","al","ad","ba","hr","gi","gr","va","it","mt","me","mk","pt","sm","rs","si","es","xk","at","be","fr","de","li","lu","mc","nl","ch"]},"geometry":["point","vertex","area"],"matchScore":2,"terms":["rwe"],"tags":{"operator:wikidata":"Q138133","power":"generator"},"addTags":{"operator":"RWE","operator:wikidata":"Q138133","operator:wikipedia":"en:RWE","power":"generator"}},"power/generator/statkraft-16c9d0":{"name":"Statkraft","locationSet":{"include":["by","bg","cz","hu","pl","md","ro","ru","sk","ua","ax","gg","je","cq","dk","ee","fo","fi","is","ie","im","lv","lt","no","sj","se","gb","al","ad","ba","hr","gi","gr","va","it","mt","me","mk","pt","sm","rs","si","es","xk","at","be","fr","de","li","lu","mc","nl","ch"]},"geometry":["point","vertex","area"],"matchScore":2,"terms":["statkraft"],"tags":{"operator:wikidata":"Q1681145","power":"generator"},"addTags":{"operator":"Statkraft","operator:wikidata":"Q1681145","operator:wikipedia":"en:Statkraft","power":"generator"}},"power/generator/uniper-16c9d0":{"name":"Uniper","locationSet":{"include":["by","bg","cz","hu","pl","md","ro","ru","sk","ua","ax","gg","je","cq","dk","ee","fo","fi","is","ie","im","lv","lt","no","sj","se","gb","al","ad","ba","hr","gi","gr","va","it","mt","me","mk","pt","sm","rs","si","es","xk","at","be","fr","de","li","lu","mc","nl","ch"]},"geometry":["point","vertex","area"],"matchScore":2,"terms":["uniper"],"tags":{"operator:wikidata":"Q19839259","power":"generator"},"addTags":{"operator":"Uniper","operator:wikidata":"Q19839259","operator:wikipedia":"en:Uniper","power":"generator"}},"power/line/rfi-b6e02f":{"name":"RFI","locationSet":{"include":["it"]},"geometry":["line"],"matchScore":2,"terms":["rfi"],"tags":{"operator:wikidata":"Q1060049","power":"line"},"addTags":{"operator":"RFI","operator:wikidata":"Q1060049","operator:wikipedia":"it:Rete Ferroviaria Italiana","power":"line"}},"power/minor_line/rfi-c74937":{"name":"RFI","locationSet":{"include":["it"]},"geometry":["line"],"matchScore":2,"terms":["rfi"],"tags":{"operator:wikidata":"Q1060049","power":"minor_line"},"addTags":{"operator":"RFI","operator:wikidata":"Q1060049","operator:wikipedia":"it:Rete Ferroviaria Italiana","power":"minor_line"}},"power/plant/edison-ed757e":{"name":"Edison","locationSet":{"include":["it"]},"geometry":["area"],"matchScore":2,"terms":["edison"],"tags":{"operator:wikidata":"Q912872","power":"plant"},"addTags":{"operator":"Edison","operator:wikidata":"Q912872","operator:wikipedia":"it:Edison (azienda)","power":"plant"}},"power/pole/rfi-db4d8e":{"name":"RFI","locationSet":{"include":["it"]},"geometry":["point","vertex"],"matchScore":2,"terms":["rfi"],"tags":{"operator:wikidata":"Q1060049","power":"pole"},"addTags":{"operator":"RFI","operator:wikidata":"Q1060049","operator:wikipedia":"it:Rete Ferroviaria Italiana","power":"pole"}},"power/substation/a2a-5e9b52":{"name":"A2A","locationSet":{"include":["it"]},"geometry":["area","point"],"matchScore":2,"terms":["a2a","a2a reti elettriche","edipower"],"tags":{"operator:wikidata":"Q279978","power":"substation"},"addTags":{"operator":"A2A","operator:wikidata":"Q279978","operator:wikipedia":"it:A2A","power":"substation"}},"power/substation/aceadistribuzione-5e9b52":{"name":"Acea Distribuzione","locationSet":{"include":["it"]},"geometry":["area","point"],"matchScore":2,"terms":["acea distribuzione"],"tags":{"operator:wikidata":"Q3604235","power":"substation"},"addTags":{"operator":"Acea Distribuzione","operator:wikidata":"Q3604235","operator:wikipedia":"it:Acea","power":"substation"}},"power/substation/compagniavaldostanaacque-5e9b52":{"name":"Compagnia Valdostana Acque","locationSet":{"include":["it"]},"geometry":["area","point"],"matchScore":2,"terms":["compagnia valdostana acque"],"tags":{"operator:wikidata":"Q2990264","power":"substation"},"addTags":{"operator":"Compagnia Valdostana Acque","operator:wikidata":"Q2990264","operator:wikipedia":"it:Compagnia Valdostana delle Acque","power":"substation"}},"power/substation/dolomitienergia-5e9b52":{"name":"Dolomiti Energia","locationSet":{"include":["it"]},"geometry":["area","point"],"matchScore":2,"terms":["dolomiti energia","hydro dolomiti enel","set","set distribuzione"],"tags":{"operator:wikidata":"Q3712703","power":"substation"},"addTags":{"operator":"Dolomiti Energia","operator:wikidata":"Q3712703","operator:wikipedia":"it:Dolomiti Energia","power":"substation"}},"power/substation/edistribuzionespa-5e9b52":{"name":"E-Distribuzione S.p.A.","locationSet":{"include":["it"]},"geometry":["area","point"],"matchScore":2,"terms":["e-distribuzione","e-distribuzione s.p.a."],"tags":{"operator:wikidata":"Q3725215","power":"substation"},"addTags":{"operator":"E-Distribuzione S.p.A.","operator:wikidata":"Q3725215","operator:wikipedia":"it:E-distribuzione","power":"substation"}},"power/substation/edison-5e9b52":{"name":"Edison","locationSet":{"include":["it"]},"geometry":["area","point"],"matchScore":2,"terms":["edison","fiat"],"tags":{"operator:wikidata":"Q912872","power":"substation"},"addTags":{"operator":"Edison","operator:wikidata":"Q912872","operator:wikipedia":"it:Edison (azienda)","power":"substation"}},"power/substation/eneldistribuzione-5e9b52":{"name":"Enel Distribuzione","locationSet":{"include":["it"]},"geometry":["area","point"],"matchScore":2,"terms":["enel distribuzione"],"tags":{"operator:wikidata":"Q3725215","power":"substation"},"addTags":{"operator":"Enel Distribuzione","operator:wikidata":"Q3725215","operator:wikipedia":"it:E-distribuzione","power":"substation"}},"power/substation/enelproduzione-5e9b52":{"name":"Enel Produzione","locationSet":{"include":["it"]},"geometry":["area","point"],"matchScore":2,"terms":["enel produzione"],"tags":{"operator:wikidata":"Q3725220","power":"substation"},"addTags":{"operator":"Enel Produzione","operator:wikidata":"Q3725220","operator:wikipedia":"it:Enel Produzione","power":"substation"}},"power/substation/enipower-5e9b52":{"name":"Enipower","locationSet":{"include":["it"]},"geometry":["area","point"],"matchScore":2,"terms":["enipower"],"tags":{"operator:wikidata":"Q3725397","power":"substation"},"addTags":{"operator":"Enipower","operator:wikidata":"Q3725397","operator:wikipedia":"it:EniPower","power":"substation"}},"power/substation/irenenergia-5e9b52":{"name":"Iren Energia","locationSet":{"include":["it"]},"geometry":["area","point"],"matchScore":2,"terms":["iren energia"],"tags":{"operator:wikidata":"Q3801865","power":"substation"},"addTags":{"operator":"Iren Energia","operator:wikidata":"Q3801865","operator:wikipedia":"it:Iren","power":"substation"}},"power/substation/rfi-5e9b52":{"name":"RFI","locationSet":{"include":["it"]},"geometry":["area","point"],"matchScore":2,"terms":["rfi"],"tags":{"operator:wikidata":"Q1060049","power":"substation"},"addTags":{"operator":"RFI","operator:wikidata":"Q1060049","operator:wikipedia":"it:Rete Ferroviaria Italiana","power":"substation"}},"power/substation/terna-a69408":{"name":"Terna","locationSet":{"include":["fx","it"]},"geometry":["area","point"],"matchScore":2,"terms":["terna"],"tags":{"operator:wikidata":"Q936325","power":"substation"},"addTags":{"operator":"Terna","operator:wikidata":"Q936325","operator:wikipedia":"fr:Terna","power":"substation"}},"power/tower/rfi-4a8556":{"name":"RFI","locationSet":{"include":["it"]},"geometry":["point","vertex"],"matchScore":2,"terms":["rfi"],"tags":{"operator:wikidata":"Q1060049","power":"tower"},"addTags":{"operator":"RFI","operator:wikidata":"Q1060049","operator:wikipedia":"it:Rete Ferroviaria Italiana","power":"tower"}},"power/transformer/a2a-713962":{"name":"A2A","locationSet":{"include":["it"]},"geometry":["point","vertex"],"matchScore":2,"terms":["a2a","a2a reti elettriche","edipower"],"tags":{"operator:wikidata":"Q279978","power":"transformer"},"addTags":{"operator":"A2A","operator:wikidata":"Q279978","operator:wikipedia":"it:A2A","power":"transformer"}},"power/transformer/aceadistribuzione-713962":{"name":"Acea Distribuzione","locationSet":{"include":["it"]},"geometry":["point","vertex"],"matchScore":2,"terms":["acea distribuzione"],"tags":{"operator:wikidata":"Q3604235","power":"transformer"},"addTags":{"operator":"Acea Distribuzione","operator:wikidata":"Q3604235","operator:wikipedia":"it:Acea","power":"transformer"}},"power/transformer/compagniavaldostanaacque-713962":{"name":"Compagnia Valdostana Acque","locationSet":{"include":["it"]},"geometry":["point","vertex"],"matchScore":2,"terms":["compagnia valdostana acque"],"tags":{"operator:wikidata":"Q2990264","power":"transformer"},"addTags":{"operator":"Compagnia Valdostana Acque","operator:wikidata":"Q2990264","operator:wikipedia":"it:Compagnia Valdostana delle Acque","power":"transformer"}},"power/transformer/dolomitienergia-713962":{"name":"Dolomiti Energia","locationSet":{"include":["it"]},"geometry":["point","vertex"],"matchScore":2,"terms":["dolomiti energia","hydro dolomiti enel","set","set distribuzione"],"tags":{"operator:wikidata":"Q3712703","power":"transformer"},"addTags":{"operator":"Dolomiti Energia","operator:wikidata":"Q3712703","operator:wikipedia":"it:Dolomiti Energia","power":"transformer"}},"power/transformer/edistribuzionespa-713962":{"name":"E-Distribuzione S.p.A.","locationSet":{"include":["it"]},"geometry":["point","vertex"],"matchScore":2,"terms":["e-distribuzione","e-distribuzione s.p.a."],"tags":{"operator:wikidata":"Q3725215","power":"transformer"},"addTags":{"operator":"E-Distribuzione S.p.A.","operator:wikidata":"Q3725215","operator:wikipedia":"it:E-distribuzione","power":"transformer"}},"power/transformer/edison-713962":{"name":"Edison","locationSet":{"include":["it"]},"geometry":["point","vertex"],"matchScore":2,"terms":["edison","fiat"],"tags":{"operator:wikidata":"Q912872","power":"transformer"},"addTags":{"operator":"Edison","operator:wikidata":"Q912872","operator:wikipedia":"it:Edison (azienda)","power":"transformer"}},"power/transformer/eneldistribuzione-713962":{"name":"Enel Distribuzione","locationSet":{"include":["it"]},"geometry":["point","vertex"],"matchScore":2,"terms":["enel distribuzione"],"tags":{"operator:wikidata":"Q3725215","power":"transformer"},"addTags":{"operator":"Enel Distribuzione","operator:wikidata":"Q3725215","operator:wikipedia":"it:E-distribuzione","power":"transformer"}},"power/transformer/enelproduzione-713962":{"name":"Enel Produzione","locationSet":{"include":["it"]},"geometry":["point","vertex"],"matchScore":2,"terms":["enel produzione"],"tags":{"operator:wikidata":"Q3725220","power":"transformer"},"addTags":{"operator":"Enel Produzione","operator:wikidata":"Q3725220","operator:wikipedia":"it:Enel Produzione","power":"transformer"}},"power/transformer/enipower-713962":{"name":"Enipower","locationSet":{"include":["it"]},"geometry":["point","vertex"],"matchScore":2,"terms":["enipower"],"tags":{"operator:wikidata":"Q3725397","power":"transformer"},"addTags":{"operator":"Enipower","operator:wikidata":"Q3725397","operator:wikipedia":"it:EniPower","power":"transformer"}},"power/transformer/irenenergia-713962":{"name":"Iren Energia","locationSet":{"include":["it"]},"geometry":["point","vertex"],"matchScore":2,"terms":["iren energia"],"tags":{"operator:wikidata":"Q3801865","power":"transformer"},"addTags":{"operator":"Iren Energia","operator:wikidata":"Q3801865","operator:wikipedia":"it:Iren","power":"transformer"}},"power/transformer/rfi-713962":{"name":"RFI","locationSet":{"include":["it"]},"geometry":["point","vertex"],"matchScore":2,"terms":["rfi"],"tags":{"operator:wikidata":"Q1060049","power":"transformer"},"addTags":{"operator":"RFI","operator:wikidata":"Q1060049","operator:wikipedia":"it:Rete Ferroviaria Italiana","power":"transformer"}},"power/transformer/terna-8a8d4c":{"name":"Terna","locationSet":{"include":["fx","it"]},"geometry":["point","vertex"],"matchScore":2,"terms":["terna"],"tags":{"operator:wikidata":"Q936325","power":"transformer"},"addTags":{"operator":"Terna","operator:wikidata":"Q936325","operator:wikipedia":"fr:Terna","power":"transformer"}},"public_transport/platform/bus_point/aimmobilita-785058":{"name":"AIM Mobilità","locationSet":{"include":["it"]},"geometry":["point","vertex"],"matchScore":2,"terms":["aim mobilità","aim vicenza"],"reference":{"key":"public_transport","value":"platform"},"tags":{"bus":"yes","network:wikidata":"Q3600973","public_transport":"platform"},"addTags":{"bus":"yes","highway":"bus_stop","network":"AIM Mobilità","network:wikidata":"Q3600973","network:wikipedia":"it:AIM Vicenza","operator":"AIM Vicenza","public_transport":"platform"}},"public_transport/platform/bus_point/ama-785058":{"name":"AMA (Azienda Mobilità Aquilana)","locationSet":{"include":["it"]},"geometry":["point","vertex"],"matchScore":2,"terms":["ama","ama spa"],"reference":{"key":"public_transport","value":"platform"},"tags":{"bus":"yes","network:wikidata":"Q3631464","public_transport":"platform"},"addTags":{"bus":"yes","highway":"bus_stop","network":"AMA","network:wikidata":"Q3631464","network:wikipedia":"it:Azienda Mobilità Aquilana","operator":"AMA SpA","public_transport":"platform"}},"public_transport/platform/bus_point/amat-785058":{"name":"AMAT (Palermo)","locationSet":{"include":["it"]},"geometry":["point","vertex"],"matchScore":2,"terms":["amat"],"reference":{"key":"public_transport","value":"platform"},"tags":{"bus":"yes","network:wikidata":"Q3601014","public_transport":"platform"},"addTags":{"bus":"yes","highway":"bus_stop","network":"AMAT","network:wikidata":"Q3601014","network:wikipedia":"it:AMAT Palermo","public_transport":"platform"}},"public_transport/platform/bus_point/amiferrara-785058":{"name":"AMI Ferrara","locationSet":{"include":["it"]},"geometry":["point","vertex"],"matchScore":2,"terms":["ami ferrara","amife"],"reference":{"key":"public_transport","value":"platform"},"tags":{"bus":"yes","network:wikidata":"Q3601022","public_transport":"platform"},"addTags":{"bus":"yes","highway":"bus_stop","network":"AMI Ferrara","network:wikidata":"Q3601022","network:wikipedia":"it:AMI (Ferrara)","public_transport":"platform"}},"public_transport/platform/bus_point/amt-785058":{"name":"AMT (Catania)","locationSet":{"include":["it"]},"geometry":["point","vertex"],"matchScore":2,"terms":["amt"],"reference":{"key":"public_transport","value":"platform"},"tags":{"bus":"yes","network:wikidata":"Q3601036","public_transport":"platform"},"addTags":{"bus":"yes","highway":"bus_stop","network":"AMT","network:wikidata":"Q3601036","network:wikipedia":"it:AMTS (Catania)","public_transport":"platform"}},"public_transport/platform/bus_point/amtgenova-785058":{"name":"AMT (Genova)","locationSet":{"include":["it"]},"geometry":["point","vertex"],"matchScore":2,"terms":["amt","amt genova"],"reference":{"key":"public_transport","value":"platform"},"tags":{"bus":"yes","network:wikidata":"Q295335","public_transport":"platform"},"addTags":{"bus":"yes","highway":"bus_stop","network":"AMT Genova","network:wikidata":"Q295335","network:wikipedia":"it:AMT (Genova)","operator":"AMT","public_transport":"platform"}},"public_transport/platform/bus_point/amts-785058":{"name":"AMTS","locationSet":{"include":["it"]},"geometry":["point","vertex"],"matchScore":2,"terms":["amts"],"reference":{"key":"public_transport","value":"platform"},"searchable":false,"tags":{"bus":"yes","network:wikidata":"Q3601034","public_transport":"platform"},"addTags":{"bus":"yes","highway":"bus_stop","network":"AMTS","network:wikidata":"Q3601034","network:wikipedia":"it:AMTS","public_transport":"platform"}},"public_transport/platform/bus_point/apsmobilita-785058":{"name":"APS Mobilità","locationSet":{"include":["it"]},"geometry":["point","vertex"],"matchScore":2,"terms":["aps mobilità"],"reference":{"key":"public_transport","value":"platform"},"tags":{"bus":"yes","network:wikidata":"Q3601114","public_transport":"platform"},"addTags":{"bus":"yes","highway":"bus_stop","network":"APS Mobilità","network:wikidata":"Q3601114","network:wikipedia":"it:APS (Padova)","public_transport":"platform"}},"public_transport/platform/bus_point/apt-785058":{"name":"APT (Gorizia)","locationSet":{"include":["it"]},"geometry":["point","vertex"],"matchScore":2,"terms":["apt","tpl fvg"],"reference":{"key":"public_transport","value":"platform"},"tags":{"bus":"yes","network:wikidata":"Q3601116","public_transport":"platform"},"addTags":{"bus":"yes","highway":"bus_stop","network":"APT","network:wikidata":"Q3601116","network:wikipedia":"it:APT Gorizia","operator":"TPL FVG","public_transport":"platform"}},"public_transport/platform/bus_point/arcobaleno-da3abc":{"name":"Arcobaleno","locationSet":{"include":["ch","it"]},"geometry":["point","vertex"],"matchScore":2,"terms":["arcobaleno"],"reference":{"key":"public_transport","value":"platform"},"tags":{"bus":"yes","network:wikidata":"Q3685879","public_transport":"platform"},"addTags":{"bus":"yes","highway":"bus_stop","network":"Arcobaleno","network:wikidata":"Q3685879","network:wikipedia":"it:Comunità tariffale Ticino e Moesano","public_transport":"platform"}},"public_transport/platform/bus_point/atac-785058":{"name":"ATAC","locationSet":{"include":["it"]},"geometry":["point","vertex"],"matchScore":2,"terms":["atac"],"reference":{"key":"public_transport","value":"platform"},"tags":{"bus":"yes","network:wikidata":"Q530087","public_transport":"platform"},"addTags":{"bus":"yes","highway":"bus_stop","network":"ATAC","network:wikidata":"Q530087","network:wikipedia":"it:ATAC","public_transport":"platform"}},"public_transport/platform/bus_point/ataf-785058":{"name":"ATAF","locationSet":{"include":["it"]},"geometry":["point","vertex"],"matchScore":2,"terms":["ataf"],"reference":{"key":"public_transport","value":"platform"},"tags":{"bus":"yes","network:wikidata":"Q3601299","public_transport":"platform"},"addTags":{"bus":"yes","highway":"bus_stop","network":"ATAF","network:wikidata":"Q3601299","network:wikipedia":"it:ATAF","public_transport":"platform"}},"public_transport/platform/bus_point/atap-785058":{"name":"ATAP (Pordenone)","locationSet":{"include":["it"]},"geometry":["point","vertex"],"matchScore":2,"terms":["atap","tpl fvg"],"reference":{"key":"public_transport","value":"platform"},"tags":{"bus":"yes","network:wikidata":"Q3601298","public_transport":"platform"},"addTags":{"bus":"yes","highway":"bus_stop","network":"ATAP","network:wikidata":"Q3601298","network:wikipedia":"it:ATAP (Pordenone)","operator":"TPL FVG","public_transport":"platform"}},"public_transport/platform/bus_point/atm-785058":{"name":"ATM (Milano)","locationSet":{"include":["it"]},"geometry":["point","vertex"],"matchScore":2,"terms":["atm"],"reference":{"key":"public_transport","value":"platform"},"tags":{"bus":"yes","network:wikidata":"Q381955","public_transport":"platform"},"addTags":{"bus":"yes","highway":"bus_stop","network":"ATM","network:wikidata":"Q381955","network:wikipedia":"it:ATM (Milano)","public_transport":"platform"}},"public_transport/platform/bus_point/atv-785058":{"name":"ATV","locationSet":{"include":["it"]},"geometry":["point","vertex"],"matchScore":2,"terms":["atv"],"reference":{"key":"public_transport","value":"platform"},"tags":{"bus":"yes","network:wikidata":"Q3602277","public_transport":"platform"},"addTags":{"bus":"yes","highway":"bus_stop","network":"ATV","network:wikidata":"Q3602277","network:wikipedia":"it:ATV (Verona)","public_transport":"platform"}},"public_transport/platform/bus_point/busitaliavenetospa-785058":{"name":"Busitalia Veneto S.p.A.","locationSet":{"include":["it"]},"geometry":["point","vertex"],"matchScore":2,"terms":["busitalia veneto s.p.a."],"reference":{"key":"public_transport","value":"platform"},"tags":{"bus":"yes","network:wikidata":"Q48808434","public_transport":"platform"},"addTags":{"bus":"yes","highway":"bus_stop","network":"Busitalia Veneto S.p.A.","network:wikidata":"Q48808434","network:wikipedia":"it:Busitalia Veneto","public_transport":"platform"}},"public_transport/platform/bus_point/consorziotrasportipubbliciinsubria-785058":{"name":"Consorzio Trasporti Pubblici Insubria","locationSet":{"include":["it"]},"geometry":["point","vertex"],"matchScore":2,"terms":["consorzio trasporti pubblici insubria","ctpi"],"reference":{"key":"public_transport","value":"platform"},"tags":{"bus":"yes","network:wikidata":"Q19545342","public_transport":"platform"},"addTags":{"bus":"yes","highway":"bus_stop","network":"Consorzio Trasporti Pubblici Insubria","network:short":"CTPI","network:wikidata":"Q19545342","network:wikipedia":"it:Consorzio Trasporti Pubblici Insubria","public_transport":"platform"}},"public_transport/platform/bus_point/dolomitibus-785058":{"name":"DolomitiBus","locationSet":{"include":["it"]},"geometry":["point","vertex"],"matchScore":2,"terms":["dolomitibus"],"reference":{"key":"public_transport","value":"platform"},"tags":{"bus":"yes","network:wikidata":"Q3712699","public_transport":"platform"},"addTags":{"bus":"yes","highway":"bus_stop","network":"DolomitiBus","network:wikidata":"Q3712699","network:wikipedia":"it:DolomitiBus","operator":"DolomitiBus","public_transport":"platform"}},"public_transport/platform/bus_point/lapanoramica-785058":{"name":"La Panoramica","locationSet":{"include":["it"]},"geometry":["point","vertex"],"matchScore":2,"terms":["la panoramica"],"reference":{"key":"public_transport","value":"platform"},"tags":{"bus":"yes","network:wikidata":"Q16570205","public_transport":"platform"},"addTags":{"bus":"yes","highway":"bus_stop","network":"La Panoramica","network:wikidata":"Q16570205","network:wikipedia":"it:La Panoramica","public_transport":"platform"}},"public_transport/platform/bus_point/megabus-785058":{"name":"Megabus (Italy)","locationSet":{"include":["it"]},"geometry":["point","vertex"],"matchScore":2,"terms":["megabus"],"reference":{"key":"public_transport","value":"platform"},"tags":{"bus":"yes","network:wikidata":"Q3853911","public_transport":"platform"},"addTags":{"bus":"yes","highway":"bus_stop","network":"Megabus","network:wikidata":"Q3853911","network:wikipedia":"en:Megabus (Europe)","public_transport":"platform"}},"public_transport/platform/bus_point/saf-785058":{"name":"SAF Udine","locationSet":{"include":["it"]},"geometry":["point","vertex"],"matchScore":2,"terms":["saf","tpl fvg"],"reference":{"key":"public_transport","value":"platform"},"tags":{"bus":"yes","network:wikidata":"Q3943391","public_transport":"platform"},"addTags":{"bus":"yes","highway":"bus_stop","network":"SAF","network:wikidata":"Q3943391","network:wikipedia":"it:SAF (Udine)","operator":"TPL FVG","public_transport":"platform"}},"public_transport/platform/bus_point/seac-785058":{"name":"SEAC","locationSet":{"include":["it"]},"geometry":["point","vertex"],"matchScore":2,"terms":["seac"],"reference":{"key":"public_transport","value":"platform"},"tags":{"bus":"yes","network:wikidata":"Q3943547","public_transport":"platform"},"addTags":{"bus":"yes","highway":"bus_stop","network":"SEAC","network:wikidata":"Q3943547","network:wikipedia":"it:SEAC","public_transport":"platform"}},"public_transport/platform/bus_point/seta-785058":{"name":"SETA","locationSet":{"include":["it"]},"geometry":["point","vertex"],"matchScore":2,"terms":["seta"],"reference":{"key":"public_transport","value":"platform"},"tags":{"bus":"yes","network:wikidata":"Q3963329","public_transport":"platform"},"addTags":{"bus":"yes","highway":"bus_stop","network":"SETA","network:wikidata":"Q3963329","network:wikipedia":"it:Società Emiliana Trasporti Autofiloviari","public_transport":"platform"}},"public_transport/platform/bus_point/sgm-785058":{"name":"SGM","locationSet":{"include":["it"]},"geometry":["point","vertex"],"matchScore":2,"terms":["sgm"],"reference":{"key":"public_transport","value":"platform"},"tags":{"bus":"yes","network:wikidata":"Q63515780","public_transport":"platform"},"addTags":{"bus":"yes","highway":"bus_stop","network":"SGM","network:wikidata":"Q63515780","network:wikipedia":"it:Società Gestione Multipla","public_transport":"platform"}},"public_transport/platform/bus_point/sta-785058":{"name":"STA (Italia)","locationSet":{"include":["it"]},"geometry":["point","vertex"],"matchScore":2,"terms":["sta"],"reference":{"key":"public_transport","value":"platform"},"tags":{"bus":"yes","network:wikidata":"Q21971377","public_transport":"platform"},"addTags":{"bus":"yes","highway":"bus_stop","network":"STA","network:wikidata":"Q21971377","network:wikipedia":"it:Strutture Trasporto Alto Adige","public_transport":"platform"}},"public_transport/platform/bus_point/stibm-da3abc":{"name":"STIBM","locationSet":{"include":["ch","it"]},"geometry":["point","vertex"],"matchScore":2,"terms":["sitam","stibm"],"reference":{"key":"public_transport","value":"platform"},"tags":{"bus":"yes","network:wikidata":"Q65125405","public_transport":"platform"},"addTags":{"bus":"yes","highway":"bus_stop","network":"STIBM","network:wikidata":"Q65125405","network:wikipedia":"it:STIBM","public_transport":"platform"}},"public_transport/platform/bus_point/stp-785058":{"name":"STP (Brindisi)","locationSet":{"include":["it"]},"geometry":["point","vertex"],"matchScore":2,"terms":["stp"],"reference":{"key":"public_transport","value":"platform"},"tags":{"bus":"yes","network:wikidata":"Q3943955","public_transport":"platform"},"addTags":{"bus":"yes","highway":"bus_stop","network":"STP","network:wikidata":"Q3943955","network:wikipedia":"it:STP (Brindisi)","public_transport":"platform"}},"public_transport/platform/bus_point/swisspass-792fce":{"name":"SwissPass","locationSet":{"include":["ch","de","fx","it"]},"geometry":["point","vertex"],"matchScore":2,"terms":["ch-direct","ch-integral","swisspass"],"reference":{"key":"public_transport","value":"platform"},"tags":{"bus":"yes","network:wikidata":"Q20850937","public_transport":"platform"},"addTags":{"bus":"yes","highway":"bus_stop","network":"SwissPass","network:wikidata":"Q20850937","network:wikipedia":"de:SwissPass","public_transport":"platform"}},"public_transport/platform/bus_point/tper-785058":{"name":"TPER","locationSet":{"include":["it"]},"geometry":["point","vertex"],"matchScore":2,"terms":["tper"],"reference":{"key":"public_transport","value":"platform"},"tags":{"bus":"yes","network:wikidata":"Q3997843","public_transport":"platform"},"addTags":{"bus":"yes","highway":"bus_stop","network":"TPER","network:wikidata":"Q3997843","network:wikipedia":"it:Trasporto Passeggeri Emilia-Romagna","public_transport":"platform"}},"public_transport/platform/bus_point/triestetrasporti-785058":{"name":"Trieste Trasporti","locationSet":{"include":["it"]},"geometry":["point","vertex"],"matchScore":2,"terms":["tpl fvg","trieste trasporti"],"reference":{"key":"public_transport","value":"platform"},"tags":{"bus":"yes","network:wikidata":"Q3539115","public_transport":"platform"},"addTags":{"bus":"yes","highway":"bus_stop","network":"Trieste Trasporti","network:wikidata":"Q3539115","network:wikipedia":"it:Trieste Trasporti","operator":"TPL FVG","public_transport":"platform"}},"public_transport/platform/bus_point/tua-785058":{"name":"TUA (Trasporto Unico Abruzzese)","locationSet":{"include":["it"]},"geometry":["point","vertex"],"matchScore":2,"terms":["trasporto unico abruzzese","tua"],"reference":{"key":"public_transport","value":"platform"},"tags":{"bus":"yes","network:wikidata":"Q28670510","public_transport":"platform"},"addTags":{"bus":"yes","highway":"bus_stop","network":"TUA","network:wikidata":"Q28670510","network:wikipedia":"it:Società Unica Abruzzese di Trasporto","public_transport":"platform"}},"public_transport/platform/bus_point/vvt-16a1b1":{"name":"VVT","locationSet":{"include":["at","ch","de","it"]},"geometry":["point","vertex"],"matchScore":2,"terms":["vvt"],"reference":{"key":"public_transport","value":"platform"},"tags":{"bus":"yes","network:wikidata":"Q1668732","public_transport":"platform"},"addTags":{"bus":"yes","highway":"bus_stop","network":"VVT","network:wikidata":"Q1668732","network:wikipedia":"de:Verkehrsverbund Tirol","public_transport":"platform"}},"public_transport/platform/bus_point/zest-b80997":{"name":"Zest","locationSet":{"include":["fr","it","mc"]},"geometry":["point","vertex"],"matchScore":2,"terms":["zest"],"reference":{"key":"public_transport","value":"platform"},"tags":{"bus":"yes","network:wikidata":"Q90351943","public_transport":"platform"},"addTags":{"bus":"yes","highway":"bus_stop","network":"Zest","network:wikidata":"Q90351943","network:wikipedia":"fr:Zest'bus","public_transport":"platform"}},"type/route/bus/aimmobilita-ba987e":{"name":"AIM Mobilità","locationSet":{"include":["it"]},"geometry":["relation"],"matchScore":2,"terms":["aim mobilità","aim vicenza"],"reference":{"key":"route","value":"bus"},"tags":{"network:wikidata":"Q3600973","route":"bus","type":"route"},"addTags":{"network":"AIM Mobilità","network:wikidata":"Q3600973","network:wikipedia":"it:AIM Vicenza","operator":"AIM Vicenza","route":"bus","type":"route"}},"type/route/bus/ama-ba987e":{"name":"AMA (Azienda Mobilità Aquilana)","locationSet":{"include":["it"]},"geometry":["relation"],"matchScore":2,"terms":["ama","ama spa"],"reference":{"key":"route","value":"bus"},"tags":{"network:wikidata":"Q3631464","route":"bus","type":"route"},"addTags":{"network":"AMA","network:wikidata":"Q3631464","network:wikipedia":"it:Azienda Mobilità Aquilana","operator":"AMA SpA","route":"bus","type":"route"}},"type/route/bus/amat-ba987e":{"name":"AMAT (Palermo)","locationSet":{"include":["it"]},"geometry":["relation"],"matchScore":2,"terms":["amat"],"reference":{"key":"route","value":"bus"},"tags":{"network:wikidata":"Q3601014","route":"bus","type":"route"},"addTags":{"network":"AMAT","network:wikidata":"Q3601014","network:wikipedia":"it:AMAT Palermo","route":"bus","type":"route"}},"type/route/bus/amiferrara-ba987e":{"name":"AMI Ferrara","locationSet":{"include":["it"]},"geometry":["relation"],"matchScore":2,"terms":["ami ferrara","amife"],"reference":{"key":"route","value":"bus"},"tags":{"network:wikidata":"Q3601022","route":"bus","type":"route"},"addTags":{"network":"AMI Ferrara","network:wikidata":"Q3601022","network:wikipedia":"it:AMI (Ferrara)","route":"bus","type":"route"}},"type/route/bus/amt-ba987e":{"name":"AMT (Catania)","locationSet":{"include":["it"]},"geometry":["relation"],"matchScore":2,"terms":["amt"],"reference":{"key":"route","value":"bus"},"tags":{"network:wikidata":"Q3601036","route":"bus","type":"route"},"addTags":{"network":"AMT","network:wikidata":"Q3601036","network:wikipedia":"it:AMTS (Catania)","route":"bus","type":"route"}},"type/route/bus/amtgenova-ba987e":{"name":"AMT (Genova)","locationSet":{"include":["it"]},"geometry":["relation"],"matchScore":2,"terms":["amt","amt genova"],"reference":{"key":"route","value":"bus"},"tags":{"network:wikidata":"Q295335","route":"bus","type":"route"},"addTags":{"network":"AMT Genova","network:wikidata":"Q295335","network:wikipedia":"it:AMT (Genova)","operator":"AMT","route":"bus","type":"route"}},"type/route/bus/amts-ba987e":{"name":"AMTS","locationSet":{"include":["it"]},"geometry":["relation"],"matchScore":2,"terms":["amts"],"reference":{"key":"route","value":"bus"},"searchable":false,"tags":{"network:wikidata":"Q3601034","route":"bus","type":"route"},"addTags":{"network":"AMTS","network:wikidata":"Q3601034","network:wikipedia":"it:AMTS","route":"bus","type":"route"}},"type/route/bus/apsmobilita-ba987e":{"name":"APS Mobilità","locationSet":{"include":["it"]},"geometry":["relation"],"matchScore":2,"terms":["aps mobilità"],"reference":{"key":"route","value":"bus"},"tags":{"network:wikidata":"Q3601114","route":"bus","type":"route"},"addTags":{"network":"APS Mobilità","network:wikidata":"Q3601114","network:wikipedia":"it:APS (Padova)","route":"bus","type":"route"}},"type/route/bus/apt-ba987e":{"name":"APT (Gorizia)","locationSet":{"include":["it"]},"geometry":["relation"],"matchScore":2,"terms":["apt","tpl fvg"],"reference":{"key":"route","value":"bus"},"tags":{"network:wikidata":"Q3601116","route":"bus","type":"route"},"addTags":{"network":"APT","network:wikidata":"Q3601116","network:wikipedia":"it:APT Gorizia","operator":"TPL FVG","route":"bus","type":"route"}},"type/route/bus/arcobaleno-a8d681":{"name":"Arcobaleno","locationSet":{"include":["ch","it"]},"geometry":["relation"],"matchScore":2,"terms":["arcobaleno"],"reference":{"key":"route","value":"bus"},"tags":{"network:wikidata":"Q3685879","route":"bus","type":"route"},"addTags":{"network":"Arcobaleno","network:wikidata":"Q3685879","network:wikipedia":"it:Comunità tariffale Ticino e Moesano","route":"bus","type":"route"}},"type/route/bus/atac-ba987e":{"name":"ATAC","locationSet":{"include":["it"]},"geometry":["relation"],"matchScore":2,"terms":["atac"],"reference":{"key":"route","value":"bus"},"tags":{"network:wikidata":"Q530087","route":"bus","type":"route"},"addTags":{"network":"ATAC","network:wikidata":"Q530087","network:wikipedia":"it:ATAC","route":"bus","type":"route"}},"type/route/bus/ataf-ba987e":{"name":"ATAF","locationSet":{"include":["it"]},"geometry":["relation"],"matchScore":2,"terms":["ataf"],"reference":{"key":"route","value":"bus"},"tags":{"network:wikidata":"Q3601299","route":"bus","type":"route"},"addTags":{"network":"ATAF","network:wikidata":"Q3601299","network:wikipedia":"it:ATAF","route":"bus","type":"route"}},"type/route/bus/atap-ba987e":{"name":"ATAP (Pordenone)","locationSet":{"include":["it"]},"geometry":["relation"],"matchScore":2,"terms":["atap","tpl fvg"],"reference":{"key":"route","value":"bus"},"tags":{"network:wikidata":"Q3601298","route":"bus","type":"route"},"addTags":{"network":"ATAP","network:wikidata":"Q3601298","network:wikipedia":"it:ATAP (Pordenone)","operator":"TPL FVG","route":"bus","type":"route"}},"type/route/bus/atm-ba987e":{"name":"ATM (Milano)","locationSet":{"include":["it"]},"geometry":["relation"],"matchScore":2,"terms":["atm"],"reference":{"key":"route","value":"bus"},"tags":{"network:wikidata":"Q381955","route":"bus","type":"route"},"addTags":{"network":"ATM","network:wikidata":"Q381955","network:wikipedia":"it:ATM (Milano)","route":"bus","type":"route"}},"type/route/bus/atv-ba987e":{"name":"ATV","locationSet":{"include":["it"]},"geometry":["relation"],"matchScore":2,"terms":["atv"],"reference":{"key":"route","value":"bus"},"tags":{"network:wikidata":"Q3602277","route":"bus","type":"route"},"addTags":{"network":"ATV","network:wikidata":"Q3602277","network:wikipedia":"it:ATV (Verona)","route":"bus","type":"route"}},"type/route/bus/busitaliavenetospa-ba987e":{"name":"Busitalia Veneto S.p.A.","locationSet":{"include":["it"]},"geometry":["relation"],"matchScore":2,"terms":["busitalia veneto s.p.a."],"reference":{"key":"route","value":"bus"},"tags":{"network:wikidata":"Q48808434","route":"bus","type":"route"},"addTags":{"network":"Busitalia Veneto S.p.A.","network:wikidata":"Q48808434","network:wikipedia":"it:Busitalia Veneto","route":"bus","type":"route"}},"type/route/bus/consorziotrasportipubbliciinsubria-ba987e":{"name":"Consorzio Trasporti Pubblici Insubria","locationSet":{"include":["it"]},"geometry":["relation"],"matchScore":2,"terms":["consorzio trasporti pubblici insubria","ctpi"],"reference":{"key":"route","value":"bus"},"tags":{"network:wikidata":"Q19545342","route":"bus","type":"route"},"addTags":{"network":"Consorzio Trasporti Pubblici Insubria","network:short":"CTPI","network:wikidata":"Q19545342","network:wikipedia":"it:Consorzio Trasporti Pubblici Insubria","route":"bus","type":"route"}},"type/route/bus/dolomitibus-ba987e":{"name":"DolomitiBus","locationSet":{"include":["it"]},"geometry":["relation"],"matchScore":2,"terms":["dolomitibus"],"reference":{"key":"route","value":"bus"},"tags":{"network:wikidata":"Q3712699","route":"bus","type":"route"},"addTags":{"network":"DolomitiBus","network:wikidata":"Q3712699","network:wikipedia":"it:DolomitiBus","operator":"DolomitiBus","route":"bus","type":"route"}},"type/route/bus/lapanoramica-ba987e":{"name":"La Panoramica","locationSet":{"include":["it"]},"geometry":["relation"],"matchScore":2,"terms":["la panoramica"],"reference":{"key":"route","value":"bus"},"tags":{"network:wikidata":"Q16570205","route":"bus","type":"route"},"addTags":{"network":"La Panoramica","network:wikidata":"Q16570205","network:wikipedia":"it:La Panoramica","route":"bus","type":"route"}},"type/route/bus/megabus-ba987e":{"name":"Megabus (Italy)","locationSet":{"include":["it"]},"geometry":["relation"],"matchScore":2,"terms":["megabus"],"reference":{"key":"route","value":"bus"},"tags":{"network:wikidata":"Q3853911","route":"bus","type":"route"},"addTags":{"network":"Megabus","network:wikidata":"Q3853911","network:wikipedia":"en:Megabus (Europe)","route":"bus","type":"route"}},"type/route/bus/saf-ba987e":{"name":"SAF Udine","locationSet":{"include":["it"]},"geometry":["relation"],"matchScore":2,"terms":["saf","tpl fvg"],"reference":{"key":"route","value":"bus"},"tags":{"network:wikidata":"Q3943391","route":"bus","type":"route"},"addTags":{"network":"SAF","network:wikidata":"Q3943391","network:wikipedia":"it:SAF (Udine)","operator":"TPL FVG","route":"bus","type":"route"}},"type/route/bus/seac-ba987e":{"name":"SEAC","locationSet":{"include":["it"]},"geometry":["relation"],"matchScore":2,"terms":["seac"],"reference":{"key":"route","value":"bus"},"tags":{"network:wikidata":"Q3943547","route":"bus","type":"route"},"addTags":{"network":"SEAC","network:wikidata":"Q3943547","network:wikipedia":"it:SEAC","route":"bus","type":"route"}},"type/route/bus/seta-ba987e":{"name":"SETA","locationSet":{"include":["it"]},"geometry":["relation"],"matchScore":2,"terms":["seta"],"reference":{"key":"route","value":"bus"},"tags":{"network:wikidata":"Q3963329","route":"bus","type":"route"},"addTags":{"network":"SETA","network:wikidata":"Q3963329","network:wikipedia":"it:Società Emiliana Trasporti Autofiloviari","route":"bus","type":"route"}},"type/route/bus/sgm-ba987e":{"name":"SGM","locationSet":{"include":["it"]},"geometry":["relation"],"matchScore":2,"terms":["sgm"],"reference":{"key":"route","value":"bus"},"tags":{"network:wikidata":"Q63515780","route":"bus","type":"route"},"addTags":{"network":"SGM","network:wikidata":"Q63515780","network:wikipedia":"it:Società Gestione Multipla","route":"bus","type":"route"}},"type/route/bus/sta-ba987e":{"name":"STA (Italia)","locationSet":{"include":["it"]},"geometry":["relation"],"matchScore":2,"terms":["sta"],"reference":{"key":"route","value":"bus"},"tags":{"network:wikidata":"Q21971377","route":"bus","type":"route"},"addTags":{"network":"STA","network:wikidata":"Q21971377","network:wikipedia":"it:Strutture Trasporto Alto Adige","route":"bus","type":"route"}},"type/route/bus/stibm-a8d681":{"name":"STIBM","locationSet":{"include":["ch","it"]},"geometry":["relation"],"matchScore":2,"terms":["sitam","stibm"],"reference":{"key":"route","value":"bus"},"tags":{"network:wikidata":"Q65125405","route":"bus","type":"route"},"addTags":{"network":"STIBM","network:wikidata":"Q65125405","network:wikipedia":"it:STIBM","route":"bus","type":"route"}},"type/route/bus/stp-ba987e":{"name":"STP (Brindisi)","locationSet":{"include":["it"]},"geometry":["relation"],"matchScore":2,"terms":["stp"],"reference":{"key":"route","value":"bus"},"tags":{"network:wikidata":"Q3943955","route":"bus","type":"route"},"addTags":{"network":"STP","network:wikidata":"Q3943955","network:wikipedia":"it:STP (Brindisi)","route":"bus","type":"route"}},"type/route/bus/swisspass-353b78":{"name":"SwissPass","locationSet":{"include":["ch","de","fx","it"]},"geometry":["relation"],"matchScore":2,"terms":["ch-direct","ch-integral","swisspass"],"reference":{"key":"route","value":"bus"},"tags":{"network:wikidata":"Q20850937","route":"bus","type":"route"},"addTags":{"network":"SwissPass","network:wikidata":"Q20850937","network:wikipedia":"de:SwissPass","route":"bus","type":"route"}},"type/route/bus/tper-ba987e":{"name":"TPER","locationSet":{"include":["it"]},"geometry":["relation"],"matchScore":2,"terms":["tper"],"reference":{"key":"route","value":"bus"},"tags":{"network:wikidata":"Q3997843","route":"bus","type":"route"},"addTags":{"network":"TPER","network:wikidata":"Q3997843","network:wikipedia":"it:Trasporto Passeggeri Emilia-Romagna","route":"bus","type":"route"}},"type/route/bus/triestetrasporti-ba987e":{"name":"Trieste Trasporti","locationSet":{"include":["it"]},"geometry":["relation"],"matchScore":2,"terms":["tpl fvg","trieste trasporti"],"reference":{"key":"route","value":"bus"},"tags":{"network:wikidata":"Q3539115","route":"bus","type":"route"},"addTags":{"network":"Trieste Trasporti","network:wikidata":"Q3539115","network:wikipedia":"it:Trieste Trasporti","operator":"TPL FVG","route":"bus","type":"route"}},"type/route/bus/tua-ba987e":{"name":"TUA (Trasporto Unico Abruzzese)","locationSet":{"include":["it"]},"geometry":["relation"],"matchScore":2,"terms":["trasporto unico abruzzese","tua"],"reference":{"key":"route","value":"bus"},"tags":{"network:wikidata":"Q28670510","route":"bus","type":"route"},"addTags":{"network":"TUA","network:wikidata":"Q28670510","network:wikipedia":"it:Società Unica Abruzzese di Trasporto","route":"bus","type":"route"}},"type/route/bus/vvt-4160f4":{"name":"VVT","locationSet":{"include":["at","ch","de","it"]},"geometry":["relation"],"matchScore":2,"terms":["vvt"],"reference":{"key":"route","value":"bus"},"tags":{"network:wikidata":"Q1668732","route":"bus","type":"route"},"addTags":{"network":"VVT","network:wikidata":"Q1668732","network:wikipedia":"de:Verkehrsverbund Tirol","route":"bus","type":"route"}},"type/route/bus/zest-69fd68":{"name":"Zest","locationSet":{"include":["fr","it","mc"]},"geometry":["relation"],"matchScore":2,"terms":["zest"],"reference":{"key":"route","value":"bus"},"tags":{"network:wikidata":"Q90351943","route":"bus","type":"route"},"addTags":{"network":"Zest","network:wikidata":"Q90351943","network:wikipedia":"fr:Zest'bus","route":"bus","type":"route"}},"type/route/light_rail/circumvesuviana-cd1190":{"name":"Circumvesuviana","locationSet":{"include":["it"]},"geometry":["relation"],"matchScore":2,"terms":["circumvesuviana","ente autonomo volturno"],"reference":{"key":"route","value":"light_rail"},"tags":{"network:wikidata":"Q867565","route":"light_rail","type":"route"},"addTags":{"network":"Circumvesuviana","network:wikidata":"Q867565","network:wikipedia":"it:Ferrovia Circumvesuviana","operator":"Ente Autonomo Volturno","operator:wikidata":"Q3726202","operator:wikipedia":"it:Ente Autonomo Volturno","route":"light_rail","type":"route"}},"type/route/light_rail/ferrovielaziali-cd1190":{"name":"Ferrovie Laziali","locationSet":{"include":["it"]},"geometry":["relation"],"matchScore":2,"terms":["ferrovie laziali","fl","trenitalia"],"reference":{"key":"route","value":"light_rail"},"tags":{"network:wikidata":"Q1408013","route":"light_rail","type":"route"},"addTags":{"network":"Ferrovie Laziali","network:short":"FL","network:wikidata":"Q1408013","network:wikipedia":"de:Ferrovie Laziali","operator":"Trenitalia","operator:wikidata":"Q286650","operator:wikipedia":"it:Trenitalia","route":"light_rail","type":"route"}},"type/route/subway/stibm-09a534":{"name":"STIBM","locationSet":{"include":["it"]},"geometry":["relation"],"matchScore":2,"terms":["azienda trasporti milanesi","stibm"],"reference":{"key":"route","value":"subway"},"tags":{"network:wikidata":"Q65125405","route":"subway","type":"route"},"addTags":{"network":"STIBM","network:wikidata":"Q65125405","network:wikipedia":"it:STIBM","operator":"Azienda Trasporti Milanesi","operator:wikidata":"Q381955","operator:wikipedia":"it:ATM (Milano)","route":"subway","type":"route"}},"type/route/train/eurocity-6b9d23":{"name":"EuroCity","locationSet":{"include":["by","bg","cz","hu","pl","md","ro","ru","sk","ua","ax","gg","je","cq","dk","ee","fo","fi","is","ie","im","lv","lt","no","sj","se","gb","al","ad","ba","hr","gi","gr","va","it","mt","me","mk","pt","sm","rs","si","es","xk","at","be","fr","de","li","lu","mc","nl","ch"]},"geometry":["relation"],"matchScore":2,"terms":["eurocity"],"reference":{"key":"route","value":"train"},"tags":{"network:wikidata":"Q753050","route":"train","type":"route"},"addTags":{"network":"EuroCity","network:wikidata":"Q753050","network:wikipedia":"en:EuroCity","route":"train","type":"route"}},"type/route/train/euronight-6b9d23":{"name":"EuroNight","locationSet":{"include":["by","bg","cz","hu","pl","md","ro","ru","sk","ua","ax","gg","je","cq","dk","ee","fo","fi","is","ie","im","lv","lt","no","sj","se","gb","al","ad","ba","hr","gi","gr","va","it","mt","me","mk","pt","sm","rs","si","es","xk","at","be","fr","de","li","lu","mc","nl","ch"]},"geometry":["relation"],"matchScore":2,"terms":["euronight"],"reference":{"key":"route","value":"train"},"tags":{"network:wikidata":"Q257307","route":"train","type":"route"},"addTags":{"network":"EuroNight","network:wikidata":"Q257307","network:wikipedia":"en:EuroNight","route":"train","type":"route"}},"type/route/train/sitam-a29473":{"name":"SITAM","locationSet":{"include":["ch","it"]},"geometry":["relation"],"matchScore":2,"terms":["sitam"],"reference":{"key":"route","value":"train"},"tags":{"network:wikidata":"Q3943669","route":"train","type":"route"},"addTags":{"network":"SITAM","network:wikidata":"Q3943669","network:wikipedia":"it:SITAM","route":"train","type":"route"}},"type/route/train/tgv-7d2d57":{"name":"TGV","locationSet":{"include":["be","ch","de","es","fx","it","lu","nl"]},"geometry":["relation"],"matchScore":2,"terms":["sncf","tgv"],"reference":{"key":"route","value":"train"},"tags":{"network:wikidata":"Q129337","route":"train","type":"route"},"addTags":{"network":"TGV","network:wikidata":"Q129337","network:wikipedia":"fr:TGV","operator":"SNCF","operator:wikidata":"Q13646","operator:wikipedia":"fr:Société nationale des chemins de fer français","route":"train","type":"route"}},"type/route/train/trenitalia-66b763":{"name":"Trenitalia","locationSet":{"include":["it"]},"geometry":["relation"],"matchScore":2,"terms":["ti","trenitalia","trenitalia s.p.a"],"reference":{"key":"route","value":"train"},"tags":{"network:wikidata":"Q286650","route":"train","type":"route"},"addTags":{"network":"Trenitalia","network:short":"TI","network:wikidata":"Q286650","network:wikipedia":"it:Trenitalia","operator":"Trenitalia","operator:short":"TI","operator:wikidata":"Q286650","operator:wikipedia":"it:Trenitalia","route":"train","type":"route"}},"type/route/train/verkehrsverbundtirol-872add":{"name":"Verkehrsverbund Tirol","locationSet":{"include":["at","ch","de","it"]},"geometry":["relation"],"matchScore":2,"terms":["verkehrsverbund tirol","vvt"],"reference":{"key":"route","value":"train"},"tags":{"network:wikidata":"Q1668732","route":"train","type":"route"},"addTags":{"network":"Verkehrsverbund Tirol","network:short":"VVT","network:wikidata":"Q1668732","network:wikipedia":"de:Verkehrsverbund Tirol","route":"train","type":"route"}},"type/route/tram/atac-e9e131":{"name":"ATAC","locationSet":{"include":["it"]},"geometry":["relation"],"matchScore":2,"terms":["atac"],"reference":{"key":"route","value":"tram"},"tags":{"network:wikidata":"Q530087","route":"tram","type":"route"},"addTags":{"network":"ATAC","network:wikidata":"Q530087","network:wikipedia":"it:ATAC","route":"tram","type":"route"}},"type/route/tram/formula-e9e131":{"name":"Formula","locationSet":{"include":["it"]},"geometry":["relation"],"matchScore":2,"terms":["formula","gruppo torinese trasporti"],"reference":{"key":"route","value":"tram"},"tags":{"network:wikidata":"Q1143131","route":"tram","type":"route"},"addTags":{"network":"Formula","network:wikidata":"Q1143131","network:wikipedia":"it:Rete tranviaria di Torino","operator":"Gruppo Torinese Trasporti","operator:wikidata":"Q3756307","operator:wikipedia":"it:GTT (azienda)","route":"tram","type":"route"}},"type/route/trolleybus/atm-a22f82":{"name":"ATM (Milano)","locationSet":{"include":["it"]},"geometry":["relation"],"matchScore":2,"terms":["atm"],"reference":{"key":"route","value":"trolleybus"},"tags":{"network:wikidata":"Q381955","route":"trolleybus","type":"route"},"addTags":{"network":"ATM","network:wikidata":"Q381955","network:wikipedia":"it:ATM (Milano)","route":"trolleybus","type":"route"}}}