{"advertising/totem/auchan-9efa8b":{"name":"Auchan","locationSet":{"include":["al","ad","ba","hr","gi","gr","va","it","mt","me","mk","pt","sm","rs","si","es","xk","by","bg","cz","hu","pl","md","ro","ru","sk","ua","at","be","fr","de","li","lu","mc","nl","ch"]},"geometry":["point","line"],"matchScore":2,"terms":["auchan"],"tags":{"advertising":"totem","brand:wikidata":"Q758603"},"addTags":{"advertising":"totem","brand":"Auchan","brand:wikidata":"Q758603"}},"advertising/totem/statoil-352456":{"name":"Statoil","locationSet":{"include":["dk","ee","ie","pl","ru","se"]},"geometry":["point","line"],"matchScore":2,"terms":["statoil"],"tags":{"advertising":"totem","brand:wikidata":"Q1776022"},"addTags":{"advertising":"totem","brand":"Statoil","brand:wikidata":"Q1776022"}},"advertising/totem/bashneft-16dca8":{"name":"Башнефть","locationSet":{"include":["ru"]},"geometry":["point","line"],"matchScore":2,"terms":["bashneft","башнефть"],"tags":{"advertising":"totem","brand:wikidata":"Q809985"},"addTags":{"advertising":"totem","brand":"Башнефть","brand:en":"Bashneft","brand:wikidata":"Q809985","name:en":"Bashneft"}},"advertising/totem/0b910f-dec76e":{"name":"Газпромнефть","locationSet":{"include":["by","kg","kz","ru","tj"]},"geometry":["point","line"],"matchScore":2,"terms":["газпром","газпромнефть"],"tags":{"advertising":"totem","brand:wikidata":"Q1461799"},"addTags":{"advertising":"totem","brand":"Газпромнефть","brand:wikidata":"Q1461799"}},"advertising/totem/d6c78f-16dca8":{"name":"ЕКА","locationSet":{"include":["ru"]},"geometry":["point","line"],"matchScore":2,"terms":["ека"],"tags":{"advertising":"totem","brand:wikidata":"Q62543029"},"addTags":{"advertising":"totem","brand":"ЕКА","brand:wikidata":"Q62543029"}},"advertising/totem/lukoil-0d2801":{"name":"Лукойл","locationSet":{"include":["by","kz","ru"]},"geometry":["point","line"],"matchScore":2,"terms":["lukoil","лукоил","лукойл"],"tags":{"advertising":"totem","brand:wikidata":"Q329347"},"addTags":{"advertising":"totem","brand":"Лукойл","brand:en":"Lukoil","brand:ru":"Лукойл","brand:wikidata":"Q329347","name:en":"Lukoil","name:ru":"Лукойл"}},"advertising/totem/neftmagistral-16dca8":{"name":"Нефтьмагистраль","locationSet":{"include":["ru"]},"geometry":["point","line"],"matchScore":2,"terms":["neftmagistral","нефтьмагистраль"],"tags":{"advertising":"totem","brand:wikidata":"Q62544323"},"addTags":{"advertising":"totem","brand":"Нефтьмагистраль","brand:en":"Neftmagistral","brand:wikidata":"Q62544323","name:en":"Neftmagistral"}},"advertising/totem/allianceoil-16dca8":{"name":"НК Альянс","locationSet":{"include":["ru"]},"geometry":["point","line"],"matchScore":2,"terms":["alliance oil","нк альянс"],"tags":{"advertising":"totem","brand:wikidata":"Q4063700"},"addTags":{"advertising":"totem","brand":"НК Альянс","brand:en":"Alliance Oil","brand:ru":"НК Альянс","brand:wikidata":"Q4063700","name:en":"Alliance Oil","name:ru":"НК Альянс"}},"advertising/totem/6155f5-16dca8":{"name":"ОПТИ","locationSet":{"include":["ru"]},"geometry":["point","line"],"matchScore":2,"terms":["опти"],"tags":{"advertising":"totem","brand:wikidata":"Q109356512"},"addTags":{"advertising":"totem","brand":"ОПТИ","brand:wikidata":"Q109356512"}},"advertising/totem/thepetersburgfuelcompany-16dca8":{"name":"ПТК","locationSet":{"include":["ru"]},"geometry":["point","line"],"matchScore":2,"terms":["the petersburg fuel company","птк"],"tags":{"advertising":"totem","brand:wikidata":"Q4360193"},"addTags":{"advertising":"totem","brand":"ПТК","brand:en":"The Petersburg Fuel Company","brand:ru":"ПТК","brand:wikidata":"Q4360193","name:en":"The Petersburg Fuel Company","name:ru":"ПТК"}},"advertising/totem/rosneft-16dca8":{"name":"Роснефть","locationSet":{"include":["ru"]},"geometry":["point","line"],"matchScore":2,"terms":["rosneft","роснефть"],"tags":{"advertising":"totem","brand:wikidata":"Q1141123"},"addTags":{"advertising":"totem","brand":"Роснефть","brand:en":"Rosneft","brand:ru":"Роснефть","brand:wikidata":"Q1141123","name:en":"Rosneft","name:ru":"Роснефть"}},"advertising/totem/surgutneftegas-16dca8":{"name":"Сургутнефтегаз","locationSet":{"include":["ru"]},"geometry":["point","line"],"matchScore":2,"terms":["surgutneftegas","сургутнефтегаз"],"tags":{"advertising":"totem","brand:wikidata":"Q680776"},"addTags":{"advertising":"totem","brand":"Сургутнефтегаз","brand:en":"Surgutneftegas","brand:ru":"Сургутнефтегаз","brand:wikidata":"Q680776","name:en":"Surgutneftegas","name:ru":"Сургутнефтегаз"}},"advertising/totem/tatnefteprodukt-16dca8":{"name":"Татнефтепродукт","locationSet":{"include":["ru"]},"geometry":["point","line"],"matchScore":2,"terms":["tatnefteprodukt","татнефтепродукт"],"tags":{"advertising":"totem","brand:wikidata":"Q62545686"},"addTags":{"advertising":"totem","brand":"Татнефтепродукт","brand:en":"Tatnefteprodukt","brand:ru":"Татнефтепродукт","brand:wikidata":"Q62545686","name:en":"Tatnefteprodukt","name:ru":"Татнефтепродукт"}},"advertising/totem/tatneft-16dca8":{"name":"Татнефть","locationSet":{"include":["ru"]},"geometry":["point","line"],"matchScore":2,"terms":["tatneft","татнефть"],"tags":{"advertising":"totem","brand:wikidata":"Q1616858"},"addTags":{"advertising":"totem","brand":"Татнефть","brand:en":"Tatneft","brand:ru":"Татнефть","brand:wikidata":"Q1616858","name:en":"Tatneft","name:ru":"Татнефть"}},"advertising/totem/21d03b-16dca8":{"name":"ТНК","locationSet":{"include":["ru"]},"geometry":["point","line"],"matchScore":2,"terms":["тнк"],"searchable":false,"tags":{"advertising":"totem","brand:wikidata":"Q2298901"},"addTags":{"advertising":"totem","brand":"ТНК","brand:wikidata":"Q2298901"}},"amenity/atm/tinkoffbank-da35c8":{"name":"Тинькофф Банк","locationSet":{"include":["ru"]},"geometry":["point","vertex"],"matchScore":2,"terms":["tinkoff","tinkoff bank","тинькофф","тинькофф банк","בנק טינקוף","بانک تینکوف"],"fields":["name","brand","{amenity/atm}"],"tags":{"amenity":"atm","brand:wikidata":"Q4457878"},"addTags":{"amenity":"atm","brand":"Тинькофф Банк","brand:en":"Tinkoff Bank","brand:fa":"بانک تینکوف","brand:he":"בנק טינקוף","brand:ru":"Тинькофф Банк","brand:wikidata":"Q4457878"}},"amenity/atm/bnpparibas-4ed91f":{"name":"BNP Paribas","locationSet":{"include":["ae","af","ar","at","bf","bg","bh","br","ca","ch","ci","cl","co","cz","de","dk","dz","es","fi","fr","gb","gf","gp","hu","ie","il","it","kw","ma","ml","mq","mx","nl","no","pe","pt","qa","re","ro","ru","sa","se","sk","sn","tn","tr","us"]},"geometry":["point","vertex"],"matchScore":2,"terms":["bnp paribas"],"fields":["name","brand","{amenity/atm}"],"tags":{"amenity":"atm","brand:wikidata":"Q499707"},"addTags":{"amenity":"atm","brand":"BNP Paribas","brand:wikidata":"Q499707","operator":"BNP Paribas","operator:wikidata":"Q499707"}},"amenity/atm/halykbank-89b827":{"name":"Halyk Bank","locationSet":{"include":["ge","kg","kz","ru","tj","uz"]},"geometry":["point","vertex"],"matchScore":2,"terms":["«қазақстан халық банкі» ақ","halyk bank","ао «народный банк казахстана»","казкоммерцбанк","народный банк","халык банк","халық банкі"],"fields":["name","brand","{amenity/atm}"],"tags":{"amenity":"atm","brand:wikidata":"Q1046186"},"addTags":{"amenity":"atm","brand":"Halyk Bank","brand:wikidata":"Q1046186","name:kk":"Халық Банкі","name:ru":"Халык банк","official_name:kk":"«Қазақстан Халық Банкі» АҚ","official_name:ru":"АО «Народный Банк Казахстана»","old_name":"Народный банк","operator":"Halyk Bank","operator:wikidata":"Q1046186"}},"amenity/atm/unicreditbank-3ecec5":{"name":"UniCredit Bank","locationSet":{"include":["ba","cz","hu","it","ro","rs","ru","si","sk"]},"geometry":["point","vertex"],"matchScore":2,"terms":["unicredit","unicredit banca","unicredit bank","unicredit s.p.a."],"fields":["name","brand","{amenity/atm}"],"tags":{"amenity":"atm","brand:wikidata":"Q45568"},"addTags":{"amenity":"atm","brand":"UniCredit Bank","brand:wikidata":"Q45568","operator":"UniCredit Bank","operator:wikidata":"Q45568"}},"amenity/atm/avangardbank-da35c8":{"name":"Авангард","locationSet":{"include":["ru"]},"geometry":["point","vertex"],"matchScore":2,"terms":["avangard bank","авангард"],"fields":["name","brand","{amenity/atm}"],"tags":{"amenity":"atm","brand:wikidata":"Q62122617"},"addTags":{"amenity":"atm","brand":"Авангард","brand:en":"Avangard Bank","brand:ru":"Авангард","brand:wikidata":"Q62122617","name:en":"Avangard Bank","name:ru":"Авангард","operator":"Авангард","operator:wikidata":"Q62122617"}},"amenity/atm/asianpacificbank-da35c8":{"name":"Азиатско-Тихоокеанский Банк","locationSet":{"include":["ru"]},"geometry":["point","vertex"],"matchScore":2,"terms":["asian-pacific bank","азиатско-тихоокеанский банк"],"fields":["name","brand","{amenity/atm}"],"tags":{"amenity":"atm","brand:wikidata":"Q4058304"},"addTags":{"amenity":"atm","brand":"Азиатско-Тихоокеанский Банк","brand:en":"Asian-Pacific Bank","brand:ru":"Азиатско-Тихоокеанский Банк","brand:wikidata":"Q4058304","name:en":"Asian-Pacific Bank","name:ru":"Азиатско-Тихоокеанский Банк","operator":"Азиатско-Тихоокеанский Банк","operator:wikidata":"Q4058304"}},"amenity/atm/akbarsbank-da35c8":{"name":"Ак Барс Банк","locationSet":{"include":["ru"]},"geometry":["point","vertex"],"matchScore":2,"terms":["ak bars bank","ак барс банк"],"fields":["name","brand","{amenity/atm}"],"tags":{"amenity":"atm","brand:wikidata":"Q4059103"},"addTags":{"amenity":"atm","brand":"Ак Барс Банк","brand:en":"Ak Bars Bank","brand:ru":"Ак Барс Банк","brand:wikidata":"Q4059103","name:en":"Ak Bars Bank","name:ru":"Ак Барс Банк","operator":"Ак Барс Банк","operator:wikidata":"Q4059103"}},"amenity/atm/alfabank-da35c8":{"name":"Альфа-Банк (Россия)","locationSet":{"include":["ru"]},"geometry":["point","vertex"],"matchScore":2,"terms":["alfa-bank","альфа-банк"],"fields":["name","brand","{amenity/atm}"],"tags":{"amenity":"atm","brand:wikidata":"Q1377835"},"addTags":{"amenity":"atm","brand":"Альфа-Банк","brand:en":"Alfa-Bank","brand:ru":"Альфа-Банк","brand:wikidata":"Q1377835","name:en":"Alfa-Bank","name:ru":"Альфа-Банк","operator":"Альфа-Банк","operator:wikidata":"Q1377835"}},"amenity/atm/bankofsaintpetersburg-da35c8":{"name":"Банк Санкт-Петербург","locationSet":{"include":["ru"]},"geometry":["point","vertex"],"matchScore":2,"terms":["bank of saint petersburg","банк санкт-петербург","санкт-петербург"],"fields":["name","brand","{amenity/atm}"],"tags":{"amenity":"atm","brand:wikidata":"Q4407652"},"addTags":{"amenity":"atm","brand":"Банк Санкт-Петербург","brand:en":"Bank of Saint Petersburg","brand:wikidata":"Q4407652","name:en":"Bank of Saint Petersburg","operator":"Банк Санкт-Петербург","operator:wikidata":"Q4407652"}},"amenity/atm/bandnbank-da35c8":{"name":"Бинбанк","locationSet":{"include":["ru"]},"geometry":["point","vertex"],"matchScore":2,"terms":["b&n bank","бинбанк"],"fields":["name","brand","{amenity/atm}"],"searchable":false,"tags":{"amenity":"atm","brand:wikidata":"Q4086829"},"addTags":{"amenity":"atm","brand":"Бинбанк","brand:en":"B&N Bank","brand:wikidata":"Q4086829","name:en":"B&N Bank","operator":"Бинбанк","operator:wikidata":"Q4086829"}},"amenity/atm/vozrozhdeniebank-da35c8":{"name":"Возрождение","locationSet":{"include":["ru"]},"geometry":["point","vertex"],"matchScore":2,"terms":["vozrozhdenie bank","возрождение"],"fields":["name","brand","{amenity/atm}"],"tags":{"amenity":"atm","brand:wikidata":"Q4114952"},"addTags":{"amenity":"atm","brand":"Возрождение","brand:en":"Vozrozhdenie Bank","brand:wikidata":"Q4114952","name:en":"Vozrozhdenie Bank","operator":"Возрождение","operator:wikidata":"Q4114952"}},"amenity/atm/vostochnybank-da35c8":{"name":"Восточный","locationSet":{"include":["ru"]},"geometry":["point","vertex"],"matchScore":2,"terms":["vostochny bank","восточный"],"fields":["name","brand","{amenity/atm}"],"tags":{"amenity":"atm","brand:wikidata":"Q4126657"},"addTags":{"amenity":"atm","brand":"Восточный","brand:en":"Vostochny Bank","brand:wikidata":"Q4126657","name:en":"Vostochny Bank","operator":"Восточный","operator:wikidata":"Q4126657"}},"amenity/atm/vtbbank-da35c8":{"name":"ВТБ (Россия)","locationSet":{"include":["ru"]},"geometry":["point","vertex"],"matchScore":2,"terms":["vtb bank","втб","втб банк москвы"],"fields":["name","brand","{amenity/atm}"],"tags":{"amenity":"atm","brand:wikidata":"Q1549389"},"addTags":{"amenity":"atm","brand":"ВТБ","brand:en":"VTB Bank","brand:wikidata":"Q1549389","name:en":"VTB Bank","operator":"ВТБ","operator:wikidata":"Q1549389"}},"amenity/atm/gazprombank-da35c8":{"name":"Газпромбанк","locationSet":{"include":["ru"]},"geometry":["point","vertex"],"matchScore":2,"terms":["gazprombank","газпромбанк"],"fields":["name","brand","{amenity/atm}"],"tags":{"amenity":"atm","brand:wikidata":"Q1924338"},"addTags":{"amenity":"atm","brand":"Газпромбанк","brand:en":"Gazprombank","brand:wikidata":"Q1924338","name:en":"Gazprombank","operator":"Газпромбанк","operator:wikidata":"Q1924338"}},"amenity/atm/3b7e11-da35c8":{"name":"Генбанк","locationSet":{"include":["ru"]},"geometry":["point","vertex"],"matchScore":2,"terms":["генбанк"],"fields":["name","brand","{amenity/atm}"],"tags":{"amenity":"atm","brand:wikidata":"Q62122630"},"addTags":{"amenity":"atm","brand":"Генбанк","brand:wikidata":"Q62122630","operator":"Генбанк","operator:wikidata":"Q62122630"}},"amenity/atm/zenit-da35c8":{"name":"Зенит","locationSet":{"include":["ru"]},"geometry":["point","vertex"],"matchScore":2,"terms":["zenit","зенит"],"fields":["name","brand","{amenity/atm}"],"tags":{"amenity":"atm","brand:wikidata":"Q4191388"},"addTags":{"amenity":"atm","brand":"Зенит","brand:en":"Zenit","brand:ru":"Зенит","brand:wikidata":"Q4191388","name:en":"Zenit","name:ru":"Зенит","operator":"Зенит","operator:wikidata":"Q4191388"}},"amenity/atm/moscowindustrialbank-da35c8":{"name":"Московский индустриальный банк","locationSet":{"include":["ru"]},"geometry":["point","vertex"],"matchScore":2,"terms":["moscow industrial bank","московский индустриальный банк"],"fields":["name","brand","{amenity/atm}"],"tags":{"amenity":"atm","brand:wikidata":"Q4304145"},"addTags":{"amenity":"atm","brand":"Московский индустриальный банк","brand:en":"Moscow Industrial Bank","brand:wikidata":"Q4304145","name:en":"Moscow Industrial Bank","operator":"Московский индустриальный банк","operator:wikidata":"Q4304145"}},"amenity/atm/creditbankofmoscow-da35c8":{"name":"Московский кредитный банк","locationSet":{"include":["ru"]},"geometry":["point","vertex"],"matchScore":2,"terms":["credit bank of moscow","московский кредитный банк"],"fields":["name","brand","{amenity/atm}"],"tags":{"amenity":"atm","brand:wikidata":"Q4304175"},"addTags":{"amenity":"atm","brand":"Московский кредитный банк","brand:en":"Credit Bank of Moscow","brand:wikidata":"Q4304175","name:en":"Credit Bank of Moscow","operator":"Московский кредитный банк","operator:wikidata":"Q4304175"}},"amenity/atm/mosoblbank-da35c8":{"name":"Мособлбанк","locationSet":{"include":["ru"]},"geometry":["point","vertex"],"matchScore":2,"terms":["mosobl bank","мособлбанк"],"fields":["name","brand","{amenity/atm}"],"tags":{"amenity":"atm","brand:wikidata":"Q4304446"},"addTags":{"amenity":"atm","brand":"Мособлбанк","brand:en":"Mosobl Bank","brand:wikidata":"Q4304446","name:en":"Mosobl Bank","operator":"Мособлбанк","operator:wikidata":"Q4304446"}},"amenity/atm/mtsbank-da35c8":{"name":"МТС Банк","locationSet":{"include":["ru"]},"geometry":["point","vertex"],"matchScore":2,"terms":["mts bank","мтс банк"],"fields":["name","brand","{amenity/atm}"],"tags":{"amenity":"atm","brand:wikidata":"Q1667422"},"addTags":{"amenity":"atm","brand":"МТС Банк","brand:en":"MTS Bank","brand:wikidata":"Q1667422","name:en":"MTS Bank","operator":"МТС Банк","operator:wikidata":"Q1667422"}},"amenity/atm/ce06bd-da35c8":{"name":"Открытие","locationSet":{"include":["ru"]},"geometry":["point","vertex"],"matchScore":2,"terms":["банк открытие","открытие"],"fields":["name","brand","{amenity/atm}"],"tags":{"amenity":"atm","brand:wikidata":"Q4327204"},"addTags":{"amenity":"atm","brand":"Открытие","brand:wikidata":"Q4327204","operator":"Открытие","operator:wikidata":"Q4327204"}},"amenity/atm/otpbank-da35c8":{"name":"ОТП Банк (Россия)","locationSet":{"include":["ru"]},"geometry":["point","vertex"],"matchScore":2,"terms":["otp bank","отп","отп банк"],"fields":["name","brand","{amenity/atm}"],"tags":{"amenity":"atm","brand:wikidata":"Q912778"},"addTags":{"amenity":"atm","brand":"ОТП Банк","brand:en":"OTP Bank","brand:ru":"ОТП Банк","brand:wikidata":"Q912778","name:en":"OTP Bank","name:ru":"ОТП Банк","operator":"ОТП Банк","operator:wikidata":"Q912778","short_name":"ОТП"}},"amenity/atm/postbank-da35c8":{"name":"Почта Банк","locationSet":{"include":["ru"]},"geometry":["point","vertex"],"matchScore":2,"terms":["post bank","почта банк"],"fields":["name","brand","{amenity/atm}"],"tags":{"amenity":"atm","brand:wikidata":"Q24930461"},"addTags":{"amenity":"atm","brand":"Почта Банк","brand:en":"Post Bank","brand:wikidata":"Q24930461","name:en":"Post Bank","operator":"Почта Банк","operator:wikidata":"Q24930461"}},"amenity/atm/promsvyazbank-da35c8":{"name":"Промсвязьбанк","locationSet":{"include":["ru"]},"geometry":["point","vertex"],"matchScore":2,"terms":["promsvyazbank","промсвязьбанк"],"fields":["name","brand","{amenity/atm}"],"tags":{"amenity":"atm","brand:wikidata":"Q649100"},"addTags":{"amenity":"atm","brand":"Промсвязьбанк","brand:en":"Promsvyazbank","brand:wikidata":"Q649100","name:en":"Promsvyazbank","operator":"Промсвязьбанк","operator:wikidata":"Q649100"}},"amenity/atm/raiffeisenbank-da35c8":{"name":"Райффайзен","locationSet":{"include":["ru"]},"geometry":["point","vertex"],"matchScore":2,"terms":["raiffeisen bank","райффайзен"],"fields":["name","brand","{amenity/atm}"],"tags":{"amenity":"atm","brand:wikidata":"Q4389244"},"addTags":{"amenity":"atm","brand":"Райффайзен","brand:en":"Raiffeisen Bank","brand:ru":"Райффайзен","brand:wikidata":"Q4389244","name:en":"Raiffeisen Bank","name:ru":"Райффайзен","operator":"Райффайзен","operator:wikidata":"Q4389244"}},"amenity/atm/rgsbank-da35c8":{"name":"РГС Банк","locationSet":{"include":["ru"]},"geometry":["point","vertex"],"matchScore":2,"terms":["rgs bank","rosgosstrakh bank","ргс банк","росгосстрах банк"],"fields":["name","brand","{amenity/atm}"],"tags":{"amenity":"atm","brand:wikidata":"Q4397742"},"addTags":{"amenity":"atm","brand":"РГС Банк","brand:en":"RGS Bank","brand:ru":"РГС Банк","brand:wikidata":"Q4397742","name:en":"RGS Bank","name:ru":"РГС Банк","operator":"РГС Банк","operator:wikidata":"Q4397742"}},"amenity/atm/renaissancecredit-da35c8":{"name":"Ренессанс Кредит","locationSet":{"include":["ru"]},"geometry":["point","vertex"],"matchScore":2,"terms":["renaissance credit","ренессанс кредит"],"fields":["name","brand","{amenity/atm}"],"tags":{"amenity":"atm","brand:wikidata":"Q16691879"},"addTags":{"amenity":"atm","brand":"Ренессанс Кредит","brand:en":"Renaissance Credit","brand:ru":"Ренессанс Кредит","brand:wikidata":"Q16691879","name:en":"Renaissance Credit","name:ru":"Ренессанс Кредит","operator":"Ренессанс Кредит","operator:wikidata":"Q16691879"}},"amenity/atm/f27cb2-da35c8":{"name":"РНКБ","locationSet":{"include":["ru"]},"geometry":["point","vertex"],"matchScore":2,"terms":["рнкб"],"fields":["name","brand","{amenity/atm}"],"tags":{"amenity":"atm","brand:wikidata":"Q16912944"},"addTags":{"amenity":"atm","brand":"РНКБ","brand:wikidata":"Q16912944","operator":"РНКБ","operator:wikidata":"Q16912944"}},"amenity/atm/rosbank-da35c8":{"name":"Росбанк","locationSet":{"include":["ru"]},"geometry":["point","vertex"],"matchScore":2,"terms":["rosbank","росбанк"],"fields":["name","brand","{amenity/atm}"],"tags":{"amenity":"atm","brand:wikidata":"Q1119857"},"addTags":{"amenity":"atm","brand":"Росбанк","brand:en":"Rosbank","brand:ru":"Росбанк","brand:wikidata":"Q1119857","name:en":"Rosbank","name:ru":"Росбанк","operator":"Росбанк","operator:wikidata":"Q1119857"}},"amenity/atm/rosselkhozbank-da35c8":{"name":"Россельхозбанк","locationSet":{"include":["ru"]},"geometry":["point","vertex"],"matchScore":2,"terms":["rosselkhozbank","россельхозбанк"],"fields":["name","brand","{amenity/atm}"],"tags":{"amenity":"atm","brand:wikidata":"Q3920226"},"addTags":{"amenity":"atm","brand":"Россельхозбанк","brand:en":"Rosselkhozbank","brand:ru":"Россельхозбанк","brand:wikidata":"Q3920226","name:en":"Rosselkhozbank","name:ru":"Россельхозбанк","operator":"Россельхозбанк","operator:wikidata":"Q3920226"}},"amenity/atm/russianstandardbank-da35c8":{"name":"Русский Стандарт","locationSet":{"include":["ru"]},"geometry":["point","vertex"],"matchScore":2,"terms":["russian standard bank","русский стандарт"],"fields":["name","brand","{amenity/atm}"],"tags":{"amenity":"atm","brand:wikidata":"Q4400854"},"addTags":{"amenity":"atm","brand":"Русский Стандарт","brand:en":"Russian Standard Bank","brand:ru":"Русский Стандарт","brand:wikidata":"Q4400854","name:en":"Russian Standard Bank","name:ru":"Русский Стандарт","operator":"Русский Стандарт","operator:wikidata":"Q4400854"}},"amenity/atm/sberbank-da35c8":{"name":"Сбербанк","locationSet":{"include":["ru"]},"geometry":["point","vertex"],"matchScore":2,"terms":["cбербанк","cбербанк россии","sberbank","сбер","сбербанк","сбербанк россии"],"fields":["name","brand","{amenity/atm}"],"tags":{"amenity":"atm","brand:wikidata":"Q205012"},"addTags":{"amenity":"atm","brand":"Сбербанк","brand:en":"Sberbank","brand:ru":"Сбербанк","brand:wikidata":"Q205012","name:en":"Sberbank","name:ru":"Сбербанк","operator":"Сбербанк","operator:wikidata":"Q205012"}},"amenity/atm/sovcombank-da35c8":{"name":"Совкомбанк","locationSet":{"include":["ru"]},"geometry":["point","vertex"],"matchScore":2,"terms":["sovcom bank","совкомбанк"],"fields":["name","brand","{amenity/atm}"],"tags":{"amenity":"atm","brand:wikidata":"Q4426566"},"addTags":{"amenity":"atm","brand":"Совкомбанк","brand:en":"Sovcom Bank","brand:ru":"Совкомбанк","brand:wikidata":"Q4426566","name:en":"Sovcom Bank","name:ru":"Совкомбанк","operator":"Совкомбанк","operator:wikidata":"Q4426566"}},"amenity/atm/uralsibbank-da35c8":{"name":"Уралсиб","locationSet":{"include":["ru"]},"geometry":["point","vertex"],"matchScore":2,"terms":["uralsib bank","уралсиб"],"fields":["name","brand","{amenity/atm}"],"tags":{"amenity":"atm","brand:wikidata":"Q4476693"},"addTags":{"amenity":"atm","brand":"Уралсиб","brand:en":"Uralsib Bank","brand:ru":"Уралсиб","brand:wikidata":"Q4476693","name:en":"Uralsib Bank","name:ru":"Уралсиб","operator":"Уралсиб","operator:wikidata":"Q4476693"}},"amenity/atm/uralbankforreconstructionanddevelopment-da35c8":{"name":"Уральский банк реконструкции и развития","locationSet":{"include":["ru"]},"geometry":["point","vertex"],"matchScore":2,"terms":["ural bank for reconstruction and development","убрир","убрр","уральский банк реконструкции и развития"],"fields":["name","brand","{amenity/atm}"],"tags":{"amenity":"atm","brand:wikidata":"Q4476745"},"addTags":{"amenity":"atm","brand":"Уральский банк реконструкции и развития","brand:en":"Ural Bank for Reconstruction and Development","brand:ru":"Уральский банк реконструкции и развития","brand:wikidata":"Q4476745","name:en":"Ural Bank for Reconstruction and Development","name:ru":"Уральский банк реконструкции и развития","operator":"Уральский банк реконструкции и развития","operator:wikidata":"Q4476745","short_name":"УБРиР","short_name:ru":"УБРиР"}},"amenity/atm/homecreditandfinancebank-da35c8":{"name":"Хоум Кредит","locationSet":{"include":["ru"]},"geometry":["point","vertex"],"matchScore":2,"terms":["home credit & finance bank","хоум кредит"],"fields":["name","brand","{amenity/atm}"],"tags":{"amenity":"atm","brand:wikidata":"Q4500466"},"addTags":{"amenity":"atm","brand":"Хоум Кредит","brand:en":"Home Credit & Finance Bank","brand:ru":"Хоум Кредит","brand:wikidata":"Q4500466","name:en":"Home Credit & Finance Bank","name:ru":"Хоум Кредит","operator":"Хоум Кредит","operator:wikidata":"Q4500466"}},"amenity/atm/unicreditbank-da35c8":{"name":"ЮниКредит Банк","locationSet":{"include":["ru"]},"geometry":["point","vertex"],"matchScore":2,"terms":["unicredit bank","юникредит банк"],"fields":["name","brand","{amenity/atm}"],"tags":{"amenity":"atm","brand:wikidata":"Q727011"},"addTags":{"amenity":"atm","brand":"ЮниКредит Банк","brand:en":"UniCredit Bank","brand:ru":"ЮниКредит Банк","brand:wikidata":"Q727011","name:en":"UniCredit Bank","name:ru":"ЮниКредит Банк","operator":"ЮниКредит Банк","operator:wikidata":"Q727011"}},"amenity/bank/bnpparibas-f7d855":{"name":"BNP Paribas","locationSet":{"include":["ae","af","ar","at","bf","bg","bh","br","ca","ch","ci","cl","co","cz","de","dk","dz","es","fi","fr","gb","gf","gp","hu","ie","il","it","kw","ma","ml","mq","mx","nl","no","pe","pt","qa","re","ro","ru","sa","se","sk","sn","tn","tr","us"]},"geometry":["point","area"],"matchScore":2,"terms":["bnp paribas"],"tags":{"amenity":"bank","brand:wikidata":"Q499707"},"addTags":{"amenity":"bank","brand":"BNP Paribas","brand:wikidata":"Q499707","name":"BNP Paribas"}},"amenity/bank/halykbank-93fd52":{"name":"Halyk Bank","locationSet":{"include":["ge","kg","kz","ru","tj","uz"]},"geometry":["point","area"],"matchScore":2,"terms":["«қазақстан халық банкі» ақ","halyk bank","ао «народный банк казахстана»","казкоммерцбанк","народный банк","халык банк","халық банкі"],"tags":{"amenity":"bank","brand:wikidata":"Q1046186"},"addTags":{"amenity":"bank","brand":"Halyk Bank","brand:wikidata":"Q1046186","name":"Halyk Bank","name:kk":"Халық Банкі","name:ru":"Халык банк","official_name:kk":"«Қазақстан Халық Банкі» АҚ","official_name:ru":"АО «Народный Банк Казахстана»","old_name":"Народный банк"}},"amenity/bank/unicreditbank-ff6e1c":{"name":"UniCredit Bank","locationSet":{"include":["ba","cz","hu","it","ro","rs","ru","si","sk"]},"geometry":["point","area"],"matchScore":2,"terms":["unicredit","unicredit banca","unicredit bank","unicredit s.p.a."],"tags":{"amenity":"bank","brand:wikidata":"Q45568"},"addTags":{"amenity":"bank","brand":"UniCredit Bank","brand:wikidata":"Q45568","name":"UniCredit Bank"}},"amenity/bank/avangardbank-0eb427":{"name":"Авангард","locationSet":{"include":["ru"]},"geometry":["point","area"],"matchScore":2,"terms":["avangard bank","авангард"],"tags":{"amenity":"bank","brand:wikidata":"Q62122617"},"addTags":{"amenity":"bank","brand":"Авангард","brand:en":"Avangard Bank","brand:ru":"Авангард","brand:wikidata":"Q62122617","name":"Авангард","name:en":"Avangard Bank","name:ru":"Авангард"}},"amenity/bank/asianpacificbank-0eb427":{"name":"Азиатско-Тихоокеанский Банк","locationSet":{"include":["ru"]},"geometry":["point","area"],"matchScore":2,"terms":["asian-pacific bank","азиатско-тихоокеанский банк"],"tags":{"amenity":"bank","brand:wikidata":"Q4058304"},"addTags":{"amenity":"bank","brand":"Азиатско-Тихоокеанский Банк","brand:en":"Asian-Pacific Bank","brand:ru":"Азиатско-Тихоокеанский Банк","brand:wikidata":"Q4058304","name":"Азиатско-Тихоокеанский Банк","name:en":"Asian-Pacific Bank","name:ru":"Азиатско-Тихоокеанский Банк"}},"amenity/bank/akbarsbank-0eb427":{"name":"Ак Барс Банк","locationSet":{"include":["ru"]},"geometry":["point","area"],"matchScore":2,"terms":["ak bars bank","ак барс банк"],"tags":{"amenity":"bank","brand:wikidata":"Q4059103"},"addTags":{"amenity":"bank","brand":"Ак Барс Банк","brand:en":"Ak Bars Bank","brand:ru":"Ак Барс Банк","brand:wikidata":"Q4059103","name":"Ак Барс Банк","name:en":"Ak Bars Bank","name:ru":"Ак Барс Банк"}},"amenity/bank/alfabank-0eb427":{"name":"Альфа-Банк (Россия)","locationSet":{"include":["ru"]},"geometry":["point","area"],"matchScore":2,"terms":["alfa-bank","альфа-банк"],"tags":{"amenity":"bank","brand:wikidata":"Q1377835"},"addTags":{"amenity":"bank","brand":"Альфа-Банк","brand:en":"Alfa-Bank","brand:ru":"Альфа-Банк","brand:wikidata":"Q1377835","name":"Альфа-Банк","name:en":"Alfa-Bank","name:ru":"Альфа-Банк"}},"amenity/bank/bankofsaintpetersburg-0eb427":{"name":"Банк Санкт-Петербург","locationSet":{"include":["ru"]},"geometry":["point","area"],"matchScore":2,"terms":["bank of saint petersburg","банк санкт-петербург","санкт-петербург"],"tags":{"amenity":"bank","brand:wikidata":"Q4407652"},"addTags":{"amenity":"bank","brand":"Банк Санкт-Петербург","brand:en":"Bank of Saint Petersburg","brand:wikidata":"Q4407652","name":"Банк Санкт-Петербург","name:en":"Bank of Saint Petersburg"}},"amenity/bank/bandnbank-0eb427":{"name":"Бинбанк","locationSet":{"include":["ru"]},"geometry":["point","area"],"matchScore":2,"terms":["b&n bank","бинбанк"],"searchable":false,"tags":{"amenity":"bank","brand:wikidata":"Q4086829"},"addTags":{"amenity":"bank","brand":"Бинбанк","brand:en":"B&N Bank","brand:wikidata":"Q4086829","name":"Бинбанк","name:en":"B&N Bank"}},"amenity/bank/vozrozhdeniebank-0eb427":{"name":"Возрождение","locationSet":{"include":["ru"]},"geometry":["point","area"],"matchScore":2,"terms":["vozrozhdenie bank","возрождение"],"tags":{"amenity":"bank","brand:wikidata":"Q4114952"},"addTags":{"amenity":"bank","brand":"Возрождение","brand:en":"Vozrozhdenie Bank","brand:wikidata":"Q4114952","name":"Возрождение","name:en":"Vozrozhdenie Bank"}},"amenity/bank/vostochnybank-0eb427":{"name":"Восточный","locationSet":{"include":["ru"]},"geometry":["point","area"],"matchScore":2,"terms":["vostochny bank","восточный"],"tags":{"amenity":"bank","brand:wikidata":"Q4126657"},"addTags":{"amenity":"bank","brand":"Восточный","brand:en":"Vostochny Bank","brand:wikidata":"Q4126657","name":"Восточный","name:en":"Vostochny Bank"}},"amenity/bank/vtbbank-0eb427":{"name":"ВТБ (Россия)","locationSet":{"include":["ru"]},"geometry":["point","area"],"matchScore":2,"terms":["vtb bank","втб","втб банк москвы"],"tags":{"amenity":"bank","brand:wikidata":"Q1549389"},"addTags":{"amenity":"bank","brand":"ВТБ","brand:en":"VTB Bank","brand:wikidata":"Q1549389","name":"ВТБ","name:en":"VTB Bank"}},"amenity/bank/gazprombank-0eb427":{"name":"Газпромбанк","locationSet":{"include":["ru"]},"geometry":["point","area"],"matchScore":2,"terms":["gazprombank","газпромбанк"],"tags":{"amenity":"bank","brand:wikidata":"Q1924338"},"addTags":{"amenity":"bank","brand":"Газпромбанк","brand:en":"Gazprombank","brand:wikidata":"Q1924338","name":"Газпромбанк","name:en":"Gazprombank"}},"amenity/bank/3b7e11-0eb427":{"name":"Генбанк","locationSet":{"include":["ru"]},"geometry":["point","area"],"matchScore":2,"terms":["генбанк"],"tags":{"amenity":"bank","brand:wikidata":"Q62122630"},"addTags":{"amenity":"bank","brand":"Генбанк","brand:wikidata":"Q62122630","name":"Генбанк"}},"amenity/bank/zenit-0eb427":{"name":"Зенит","locationSet":{"include":["ru"]},"geometry":["point","area"],"matchScore":2,"terms":["zenit","зенит"],"tags":{"amenity":"bank","brand:wikidata":"Q4191388"},"addTags":{"amenity":"bank","brand":"Зенит","brand:en":"Zenit","brand:ru":"Зенит","brand:wikidata":"Q4191388","name":"Зенит","name:en":"Zenit","name:ru":"Зенит"}},"amenity/bank/moscowindustrialbank-0eb427":{"name":"Московский индустриальный банк","locationSet":{"include":["ru"]},"geometry":["point","area"],"matchScore":2,"terms":["moscow industrial bank","московский индустриальный банк"],"tags":{"amenity":"bank","brand:wikidata":"Q4304145"},"addTags":{"amenity":"bank","brand":"Московский индустриальный банк","brand:en":"Moscow Industrial Bank","brand:wikidata":"Q4304145","name":"Московский индустриальный банк","name:en":"Moscow Industrial Bank"}},"amenity/bank/creditbankofmoscow-0eb427":{"name":"Московский кредитный банк","locationSet":{"include":["ru"]},"geometry":["point","area"],"matchScore":2,"terms":["credit bank of moscow","московский кредитный банк"],"tags":{"amenity":"bank","brand:wikidata":"Q4304175"},"addTags":{"amenity":"bank","brand":"Московский кредитный банк","brand:en":"Credit Bank of Moscow","brand:wikidata":"Q4304175","name":"Московский кредитный банк","name:en":"Credit Bank of Moscow"}},"amenity/bank/mosoblbank-0eb427":{"name":"Мособлбанк","locationSet":{"include":["ru"]},"geometry":["point","area"],"matchScore":2,"terms":["mosobl bank","мособлбанк"],"tags":{"amenity":"bank","brand:wikidata":"Q4304446"},"addTags":{"amenity":"bank","brand":"Мособлбанк","brand:en":"Mosobl Bank","brand:wikidata":"Q4304446","name":"Мособлбанк","name:en":"Mosobl Bank"}},"amenity/bank/mtsbank-0eb427":{"name":"МТС Банк","locationSet":{"include":["ru"]},"geometry":["point","area"],"matchScore":2,"terms":["mts bank","мтс банк"],"tags":{"amenity":"bank","brand:wikidata":"Q1667422"},"addTags":{"amenity":"bank","brand":"МТС Банк","brand:en":"MTS Bank","brand:wikidata":"Q1667422","name":"МТС Банк","name:en":"MTS Bank"}},"amenity/bank/ce06bd-0eb427":{"name":"Открытие","locationSet":{"include":["ru"]},"geometry":["point","area"],"matchScore":2,"terms":["банк открытие","открытие"],"tags":{"amenity":"bank","brand:wikidata":"Q4327204"},"addTags":{"amenity":"bank","brand":"Открытие","brand:wikidata":"Q4327204","name":"Открытие"}},"amenity/bank/otpbank-0eb427":{"name":"ОТП Банк (Россия)","locationSet":{"include":["ru"]},"geometry":["point","area"],"matchScore":2,"terms":["otp bank","отп","отп банк"],"tags":{"amenity":"bank","brand:wikidata":"Q912778"},"addTags":{"amenity":"bank","brand":"ОТП Банк","brand:en":"OTP Bank","brand:ru":"ОТП Банк","brand:wikidata":"Q912778","name":"ОТП Банк","name:en":"OTP Bank","name:ru":"ОТП Банк","short_name":"ОТП"}},"amenity/bank/postbank-0eb427":{"name":"Почта Банк","locationSet":{"include":["ru"]},"geometry":["point","area"],"matchScore":2,"terms":["post bank","почта банк"],"tags":{"amenity":"bank","brand:wikidata":"Q24930461"},"addTags":{"amenity":"bank","brand":"Почта Банк","brand:en":"Post Bank","brand:wikidata":"Q24930461","name":"Почта Банк","name:en":"Post Bank"}},"amenity/bank/promsvyazbank-0eb427":{"name":"Промсвязьбанк","locationSet":{"include":["ru"]},"geometry":["point","area"],"matchScore":2,"terms":["promsvyazbank","промсвязьбанк"],"tags":{"amenity":"bank","brand:wikidata":"Q649100"},"addTags":{"amenity":"bank","brand":"Промсвязьбанк","brand:en":"Promsvyazbank","brand:wikidata":"Q649100","name":"Промсвязьбанк","name:en":"Promsvyazbank"}},"amenity/bank/raiffeisenbank-0eb427":{"name":"Райффайзен","locationSet":{"include":["ru"]},"geometry":["point","area"],"matchScore":2,"terms":["raiffeisen bank","райффайзен"],"tags":{"amenity":"bank","brand:wikidata":"Q4389244"},"addTags":{"amenity":"bank","brand":"Райффайзен","brand:en":"Raiffeisen Bank","brand:ru":"Райффайзен","brand:wikidata":"Q4389244","name":"Райффайзен","name:en":"Raiffeisen Bank","name:ru":"Райффайзен"}},"amenity/bank/rgsbank-0eb427":{"name":"РГС Банк","locationSet":{"include":["ru"]},"geometry":["point","area"],"matchScore":2,"terms":["rgs bank","rosgosstrakh bank","ргс банк","росгосстрах банк"],"tags":{"amenity":"bank","brand:wikidata":"Q4397742"},"addTags":{"amenity":"bank","brand":"РГС Банк","brand:en":"RGS Bank","brand:ru":"РГС Банк","brand:wikidata":"Q4397742","name":"РГС Банк","name:en":"RGS Bank","name:ru":"РГС Банк"}},"amenity/bank/renaissancecredit-0eb427":{"name":"Ренессанс Кредит","locationSet":{"include":["ru"]},"geometry":["point","area"],"matchScore":2,"terms":["renaissance credit","ренессанс кредит"],"tags":{"amenity":"bank","brand:wikidata":"Q16691879"},"addTags":{"amenity":"bank","brand":"Ренессанс Кредит","brand:en":"Renaissance Credit","brand:ru":"Ренессанс Кредит","brand:wikidata":"Q16691879","name":"Ренессанс Кредит","name:en":"Renaissance Credit","name:ru":"Ренессанс Кредит"}},"amenity/bank/f27cb2-0eb427":{"name":"РНКБ","locationSet":{"include":["ru"]},"geometry":["point","area"],"matchScore":2,"terms":["рнкб"],"tags":{"amenity":"bank","brand:wikidata":"Q16912944"},"addTags":{"amenity":"bank","brand":"РНКБ","brand:wikidata":"Q16912944","name":"РНКБ"}},"amenity/bank/rosbank-0eb427":{"name":"Росбанк","locationSet":{"include":["ru"]},"geometry":["point","area"],"matchScore":2,"terms":["rosbank","росбанк"],"tags":{"amenity":"bank","brand:wikidata":"Q1119857"},"addTags":{"amenity":"bank","brand":"Росбанк","brand:en":"Rosbank","brand:ru":"Росбанк","brand:wikidata":"Q1119857","name":"Росбанк","name:en":"Rosbank","name:ru":"Росбанк"}},"amenity/bank/rosselkhozbank-0eb427":{"name":"Россельхозбанк","locationSet":{"include":["ru"]},"geometry":["point","area"],"matchScore":2,"terms":["rosselkhozbank","россельхозбанк"],"tags":{"amenity":"bank","brand:wikidata":"Q3920226"},"addTags":{"amenity":"bank","brand":"Россельхозбанк","brand:en":"Rosselkhozbank","brand:ru":"Россельхозбанк","brand:wikidata":"Q3920226","name":"Россельхозбанк","name:en":"Rosselkhozbank","name:ru":"Россельхозбанк"}},"amenity/bank/russianstandardbank-0eb427":{"name":"Русский Стандарт","locationSet":{"include":["ru"]},"geometry":["point","area"],"matchScore":2,"terms":["russian standard bank","русский стандарт"],"tags":{"amenity":"bank","brand:wikidata":"Q4400854"},"addTags":{"amenity":"bank","brand":"Русский Стандарт","brand:en":"Russian Standard Bank","brand:ru":"Русский Стандарт","brand:wikidata":"Q4400854","name":"Русский Стандарт","name:en":"Russian Standard Bank","name:ru":"Русский Стандарт"}},"amenity/bank/sberbank-0eb427":{"name":"Сбербанк","locationSet":{"include":["ru"]},"geometry":["point","area"],"matchScore":2,"terms":["cбербанк","cбербанк россии","sberbank","сбер","сбербанк","сбербанк россии"],"tags":{"amenity":"bank","brand:wikidata":"Q205012"},"addTags":{"amenity":"bank","brand":"Сбербанк","brand:en":"Sberbank","brand:ru":"Сбербанк","brand:wikidata":"Q205012","name":"Сбербанк","name:en":"Sberbank","name:ru":"Сбербанк"}},"amenity/bank/sovcombank-0eb427":{"name":"Совкомбанк","locationSet":{"include":["ru"]},"geometry":["point","area"],"matchScore":2,"terms":["sovcom bank","совкомбанк"],"tags":{"amenity":"bank","brand:wikidata":"Q4426566"},"addTags":{"amenity":"bank","brand":"Совкомбанк","brand:en":"Sovcom Bank","brand:ru":"Совкомбанк","brand:wikidata":"Q4426566","name":"Совкомбанк","name:en":"Sovcom Bank","name:ru":"Совкомбанк"}},"amenity/bank/uralsibbank-0eb427":{"name":"Уралсиб","locationSet":{"include":["ru"]},"geometry":["point","area"],"matchScore":2,"terms":["uralsib bank","уралсиб"],"tags":{"amenity":"bank","brand:wikidata":"Q4476693"},"addTags":{"amenity":"bank","brand":"Уралсиб","brand:en":"Uralsib Bank","brand:ru":"Уралсиб","brand:wikidata":"Q4476693","name":"Уралсиб","name:en":"Uralsib Bank","name:ru":"Уралсиб"}},"amenity/bank/uralbankforreconstructionanddevelopment-0eb427":{"name":"Уральский банк реконструкции и развития","locationSet":{"include":["ru"]},"geometry":["point","area"],"matchScore":2,"terms":["ural bank for reconstruction and development","убрир","убрр","уральский банк реконструкции и развития"],"tags":{"amenity":"bank","brand:wikidata":"Q4476745"},"addTags":{"amenity":"bank","brand":"Уральский банк реконструкции и развития","brand:en":"Ural Bank for Reconstruction and Development","brand:ru":"Уральский банк реконструкции и развития","brand:wikidata":"Q4476745","name":"Уральский банк реконструкции и развития","name:en":"Ural Bank for Reconstruction and Development","name:ru":"Уральский банк реконструкции и развития","short_name":"УБРиР","short_name:ru":"УБРиР"}},"amenity/bank/homecreditandfinancebank-0eb427":{"name":"Хоум Кредит","locationSet":{"include":["ru"]},"geometry":["point","area"],"matchScore":2,"terms":["home credit & finance bank","хоум кредит"],"tags":{"amenity":"bank","brand:wikidata":"Q4500466"},"addTags":{"amenity":"bank","brand":"Хоум Кредит","brand:en":"Home Credit & Finance Bank","brand:ru":"Хоум Кредит","brand:wikidata":"Q4500466","name":"Хоум Кредит","name:en":"Home Credit & Finance Bank","name:ru":"Хоум Кредит"}},"amenity/bank/unicreditbank-0eb427":{"name":"ЮниКредит Банк","locationSet":{"include":["ru"]},"geometry":["point","area"],"matchScore":2,"terms":["unicredit bank","юникредит банк"],"tags":{"amenity":"bank","brand:wikidata":"Q727011"},"addTags":{"amenity":"bank","brand":"ЮниКредит Банк","brand:en":"UniCredit Bank","brand:ru":"ЮниКредит Банк","brand:wikidata":"Q727011","name":"ЮниКредит Банк","name:en":"UniCredit Bank","name:ru":"ЮниКредит Банк"}},"amenity/bar/coyoteugly-163d6e":{"name":"Coyote Ugly","locationSet":{"include":["de","gb","jp","kg","ru","us"]},"geometry":["point","area"],"matchScore":2,"terms":["coyote ugly saloon"],"fields":["name","brand","{amenity/bar}"],"tags":{"amenity":"bar","brand:wikidata":"Q4131558"},"addTags":{"amenity":"bar","brand":"Coyote Ugly Saloon","brand:wikidata":"Q4131558","name":"Coyote Ugly"}},"amenity/bicycle_rental/donkeyrepublic-c32b83":{"name":"Donkey Republic","locationSet":{"include":["by","bg","cz","hu","pl","md","ro","ru","sk","ua","ax","gg","je","cq","dk","ee","fo","fi","is","ie","im","lv","lt","no","sj","se","gb","al","ad","ba","hr","gi","gr","va","it","mt","me","mk","pt","sm","rs","si","es","xk","at","be","fr","de","li","lu","mc","nl","ch"]},"geometry":["point","vertex","area"],"matchScore":2,"terms":["donkey republic"],"fields":["name","brand","{amenity/bicycle_rental}"],"tags":{"amenity":"bicycle_rental","brand:wikidata":"Q63753939"},"addTags":{"amenity":"bicycle_rental","brand":"Donkey Republic","brand:wikidata":"Q63753939","name":"Donkey Republic","operator":"Donkey Republic"}},"amenity/bicycle_rental/velobike-e8a367":{"name":"Велобайк","locationSet":{"include":["ru"]},"geometry":["point","vertex","area"],"matchScore":2,"terms":["velobike","ао «ситибайк»","велобайк"],"fields":["name","brand","{amenity/bicycle_rental}"],"tags":{"amenity":"bicycle_rental","brand:wikidata":"Q20655763"},"addTags":{"amenity":"bicycle_rental","brand":"Велобайк","brand:en":"Velobike","brand:ru":"Велобайк","brand:wikidata":"Q20655763","network":"Велобайк","network:en":"Velobike","network:ru":"Велобайк","network:wikidata":"Q20655763","operator":"АО «СитиБайк»"}},"amenity/cafe/coffee_shop/bagginscoffee-1c12ef":{"name":"Baggins Coffee","locationSet":{"include":["ru"]},"geometry":["point","area"],"matchScore":2,"terms":["baggins coffee"],"reference":{"key":"cuisine","value":"coffee_shop"},"tags":{"amenity":"cafe","brand:wikidata":"Q100272631","cuisine":"coffee_shop"},"addTags":{"amenity":"cafe","brand":"Baggins Coffee","brand:wikidata":"Q100272631","cuisine":"coffee_shop","name":"Baggins Coffee","takeaway":"yes"}},"amenity/cafe/coffee_shop/coffeelike-9c7c7f":{"name":"Coffee Like","locationSet":{"include":["kz","ru"]},"geometry":["point","area"],"matchScore":2,"terms":["coffee like"],"reference":{"key":"cuisine","value":"coffee_shop"},"tags":{"amenity":"cafe","brand:wikidata":"Q55662627","cuisine":"coffee_shop"},"addTags":{"amenity":"cafe","brand":"Coffee Like","brand:wikidata":"Q55662627","cuisine":"coffee_shop","name":"Coffee Like","takeaway":"yes"}},"amenity/cafe/coffee_shop/cofix-5bbbf0":{"name":"Cofix","locationSet":{"include":["il","ru"]},"geometry":["point","area"],"matchScore":2,"terms":["cofix","קופיקס","קפויקס"],"reference":{"key":"cuisine","value":"coffee_shop"},"tags":{"amenity":"cafe","brand:wikidata":"Q16132717","cuisine":"coffee_shop"},"addTags":{"amenity":"cafe","brand":"Cofix","brand:en":"Cofix","brand:he":"קפויקס","brand:wikidata":"Q16132717","cuisine":"coffee_shop","name":"Cofix","name:en":"Cofix","name:he":"קופיקס","takeaway":"yes"}},"amenity/cafe/coffee_shop/kuzina-1c12ef":{"name":"Kuzina","locationSet":{"include":["ru"]},"geometry":["point","area"],"matchScore":2,"terms":["kuzina"],"reference":{"key":"cuisine","value":"coffee_shop"},"tags":{"amenity":"cafe","brand:wikidata":"Q48947300","cuisine":"coffee_shop"},"addTags":{"amenity":"cafe","brand":"Kuzina","brand:wikidata":"Q48947300","cuisine":"coffee_shop","name":"Kuzina","takeaway":"yes"}},"amenity/cafe/maxbrenner-15f3f0":{"name":"Max Brenner","locationSet":{"include":["au","il","ru","sg","us"]},"geometry":["point","area"],"matchScore":2,"terms":["max brenner","מקס ברנר"],"tags":{"amenity":"cafe","brand:wikidata":"Q955687"},"addTags":{"amenity":"cafe","brand":"Max Brenner","brand:wikidata":"Q955687","cuisine":"chocolate","name":"Max Brenner","name:en":"Max Brenner","name:he":"מקס ברנר","takeaway":"yes"}},"amenity/cafe/coffee_shop/prime-1c12ef":{"name":"Prime","locationSet":{"include":["ru"]},"geometry":["point","area"],"matchScore":2,"terms":["prime"],"reference":{"key":"cuisine","value":"coffee_shop"},"tags":{"amenity":"cafe","brand:wikidata":"Q62122839","cuisine":"coffee_shop"},"addTags":{"amenity":"cafe","brand":"Prime","brand:wikidata":"Q62122839","cuisine":"coffee_shop","name":"Prime","takeaway":"yes"}},"amenity/cafe/coffee_shop/skuratovcoffee-1c12ef":{"name":"Skuratov Coffee","locationSet":{"include":["ru"]},"geometry":["point","area"],"matchScore":2,"terms":["skuratov coffee","skuratov сoffee","скуратов кофе"],"reference":{"key":"cuisine","value":"coffee_shop"},"tags":{"amenity":"cafe","brand:wikidata":"Q98642885","cuisine":"coffee_shop"},"addTags":{"amenity":"cafe","brand":"Skuratov Coffee","brand:en":"Skuratov Coffee","brand:wikidata":"Q98642885","cuisine":"coffee_shop","name":"Skuratov Coffee","name:en":"Skuratov Coffee","takeaway":"yes"}},"amenity/cafe/coffee_shop/starscoffee-1c12ef":{"name":"Stars Coffee","locationSet":{"include":["ru"]},"geometry":["point","area"],"matchScore":2,"terms":["starbucks","stars coffee","старбакс"],"reference":{"key":"cuisine","value":"coffee_shop"},"tags":{"amenity":"cafe","brand:wikidata":"Q117236699","cuisine":"coffee_shop"},"addTags":{"amenity":"cafe","brand":"Stars Coffee","brand:wikidata":"Q117236699","cuisine":"coffee_shop","name":"Stars Coffee","takeaway":"yes"}},"amenity/cafe/coffee_shop/surfcoffee-1c12ef":{"name":"Surf Coffee","locationSet":{"include":["ru"]},"geometry":["point","area"],"matchScore":2,"terms":["surf coffee"],"reference":{"key":"cuisine","value":"coffee_shop"},"tags":{"amenity":"cafe","brand:wikidata":"Q110278756","cuisine":"coffee_shop"},"addTags":{"amenity":"cafe","brand":"Surf Coffee","brand:wikidata":"Q110278756","cuisine":"coffee_shop","name":"Surf Coffee","takeaway":"yes"}},"amenity/cafe/coffee_shop/travelerscoffee-1c12ef":{"name":"Traveler's Coffee","locationSet":{"include":["ru"]},"geometry":["point","area"],"matchScore":2,"terms":["traveler's coffee"],"reference":{"key":"cuisine","value":"coffee_shop"},"tags":{"amenity":"cafe","brand:wikidata":"Q4051716","cuisine":"coffee_shop"},"addTags":{"amenity":"cafe","brand":"Traveler's Coffee","brand:wikidata":"Q4051716","cuisine":"coffee_shop","name":"Traveler's Coffee","takeaway":"yes"}},"amenity/cafe/coffee_shop/britishbakery-1c12ef":{"name":"Британские пекарни","locationSet":{"include":["ru"]},"geometry":["point","area"],"matchScore":2,"terms":["british bakery","британские пекарни"],"reference":{"key":"cuisine","value":"coffee_shop"},"tags":{"amenity":"cafe","brand:wikidata":"Q110236478","cuisine":"cake;breakfast;coffee_shop;tea"},"addTags":{"amenity":"cafe","brand":"Британские пекарни","brand:en":"British bakery","brand:wikidata":"Q110236478","cuisine":"cake;breakfast;coffee_shop;tea","name":"Британские пекарни","name:en":"British bakery","takeaway":"yes"}},"amenity/cafe/b847e5-1c12ef":{"name":"Брынза","locationSet":{"include":["ru"]},"geometry":["point","area"],"matchScore":2,"terms":["брынза"],"tags":{"amenity":"cafe","brand:wikidata":"Q110278626"},"addTags":{"amenity":"cafe","brand":"Брынза","brand:wikidata":"Q110278626","cuisine":"empanada;russian","name":"Брынза","takeaway":"yes"}},"amenity/cafe/coffee_shop/doubleb-1c12ef":{"name":"Даблби","locationSet":{"include":["ru"]},"geometry":["point","area"],"matchScore":2,"terms":["double b","даблби"],"reference":{"key":"cuisine","value":"coffee_shop"},"tags":{"amenity":"cafe","brand:wikidata":"Q62501686","cuisine":"coffee_shop"},"addTags":{"amenity":"cafe","brand":"Даблби","brand:en":"Double B","brand:wikidata":"Q62501686","cuisine":"coffee_shop","name":"Даблби","name:en":"Double B","takeaway":"yes"}},"amenity/cafe/coffee_shop/teremokcafe-1c12ef":{"name":"Кондитерская Теремок","locationSet":{"include":["ru"]},"geometry":["point","area"],"matchScore":2,"terms":["teremok cafe","кондитерская теремок","теремок"],"reference":{"key":"cuisine","value":"coffee_shop"},"tags":{"amenity":"cafe","brand:wikidata":"Q109996560","cuisine":"coffee_shop;pie;tea"},"addTags":{"amenity":"cafe","brand":"Кондитерская Теремок","brand:wikidata":"Q109996560","cuisine":"coffee_shop;pie;tea","name":"Кондитерская Теремок","name:en":"Teremok Cafe","takeaway":"yes"}},"amenity/cafe/coffee_shop/14d894-1c12ef":{"name":"Кофе Хауз","locationSet":{"include":["ru"]},"geometry":["point","area"],"matchScore":2,"terms":["кофе хауз"],"reference":{"key":"cuisine","value":"coffee_shop"},"tags":{"amenity":"cafe","brand:wikidata":"Q4236456","cuisine":"coffee_shop"},"addTags":{"amenity":"cafe","brand":"Кофе Хауз","brand:wikidata":"Q4236456","cuisine":"coffee_shop","name":"Кофе Хауз","takeaway":"yes"}},"amenity/cafe/coffee_shop/b38de2-1c12ef":{"name":"Люди любят","locationSet":{"include":["ru"]},"geometry":["point","area"],"matchScore":2,"terms":["люди любят","люди любят хлеб"],"reference":{"key":"cuisine","value":"coffee_shop"},"tags":{"amenity":"cafe","brand:wikidata":"Q110254113","cuisine":"bread;coffee_shop;cake;pie"},"addTags":{"amenity":"cafe","brand":"Люди любят","brand:wikidata":"Q110254113","cuisine":"bread;coffee_shop;cake;pie","name":"Люди любят","shop":"bakery","takeaway":"yes"}},"amenity/cafe/coffee_shop/852353-1c12ef":{"name":"Пироговый дворик","locationSet":{"include":["ru"]},"geometry":["point","area"],"matchScore":2,"terms":["пироговый дворик"],"reference":{"key":"cuisine","value":"coffee_shop"},"tags":{"amenity":"cafe","brand:wikidata":"Q110240743","cuisine":"pie;coffee_shop;russian"},"addTags":{"amenity":"cafe","brand":"Пироговый дворик","brand:wikidata":"Q110240743","cuisine":"pie;coffee_shop;russian","name":"Пироговый дворик","shop":"bakery","takeaway":"yes"}},"amenity/cafe/coffee_shop/54c425-1c12ef":{"name":"Цех85","locationSet":{"include":["ru"]},"geometry":["point","area"],"matchScore":2,"terms":["цех85"],"reference":{"key":"cuisine","value":"coffee_shop"},"tags":{"amenity":"cafe","brand:wikidata":"Q109682756","cuisine":"coffee_shop;pie"},"addTags":{"amenity":"cafe","brand":"Цех85","brand:wikidata":"Q109682756","cuisine":"coffee_shop;pie","name":"Цех85","takeaway":"yes"}},"amenity/cafe/coffee_shop/shokoladnitsa-1c12ef":{"name":"Шоколадница","locationSet":{"include":["ru"]},"geometry":["point","area"],"matchScore":2,"terms":["chocolate","shokoladnitsa","шоколад","шоколадница"],"reference":{"key":"cuisine","value":"coffee_shop"},"tags":{"amenity":"cafe","brand:wikidata":"Q30891188","cuisine":"coffee_shop"},"addTags":{"amenity":"cafe","brand":"Шоколадница","brand:en":"Chocolate","brand:wikidata":"Q30891188","cuisine":"coffee_shop","name":"Шоколадница","name:en":"Shokoladnitsa","takeaway":"yes"}},"amenity/cafe/coffee_shop/stolle-d874f4":{"name":"Штолле","locationSet":{"include":["by","ru"]},"geometry":["point","area"],"matchScore":2,"terms":["stolle","штолле"],"reference":{"key":"cuisine","value":"coffee_shop"},"tags":{"amenity":"cafe","brand:wikidata":"Q62502236","cuisine":"coffee_shop"},"addTags":{"amenity":"cafe","brand":"Штолле","brand:en":"Stolle","brand:wikidata":"Q62502236","cuisine":"coffee_shop","name":"Штолле","name:en":"Stolle","takeaway":"yes"}},"amenity/charging_station/ionity-b625d6":{"name":"Ionity","locationSet":{"include":["by","bg","cz","hu","pl","md","ro","ru","sk","ua","ax","gg","je","cq","dk","ee","fo","fi","is","ie","im","lv","lt","no","sj","se","gb","al","ad","ba","hr","gi","gr","va","it","mt","me","mk","pt","sm","rs","si","es","xk","at","be","fr","de","li","lu","mc","nl","ch"]},"geometry":["point","vertex","area"],"matchScore":2,"terms":["ionity","ionity gmbh"],"fields":["name","brand","{amenity/charging_station}"],"tags":{"amenity":"charging_station","brand:wikidata":"Q42717773"},"addTags":{"amenity":"charging_station","brand":"Ionity","brand:wikidata":"Q42717773"}},"amenity/dentist/1606b5-5c89ef":{"name":"Мой Зубной","locationSet":{"include":["ru"]},"geometry":["point","area"],"matchScore":2,"terms":["мой зубной"],"reference":{"key":"amenity","value":"dentist"},"tags":{"amenity":"dentist","brand:wikidata":"Q110775866"},"addTags":{"amenity":"dentist","brand":"Мой Зубной","brand:wikidata":"Q110775866","healthcare":"dentist","name":"Мой Зубной"}},"amenity/fast_food/marugameudon-a3c3a3":{"name":"Marugame Udon","locationSet":{"include":["gb","id","kh","ph","ru","us","vn"]},"geometry":["point","area"],"matchScore":2,"terms":["marugame seimen"],"tags":{"amenity":"fast_food","brand:wikidata":"Q10877253"},"addTags":{"alt_name":"Marugame Seimen","amenity":"fast_food","brand":"Marugame Seimen","brand:wikidata":"Q10877253","cuisine":"noodle","name":"Marugame Udon","takeaway":"yes"}},"amenity/fast_food/onepricecoffee-7582d1":{"name":"One Price Coffee","locationSet":{"include":["ru"]},"geometry":["point","area"],"matchScore":2,"terms":["one price coffee"],"tags":{"amenity":"fast_food","brand:wikidata":"Q108215010"},"addTags":{"amenity":"fast_food","brand":"One Price Coffee","brand:wikidata":"Q108215010","cuisine":"coffee_shop","name":"One Price Coffee","takeaway":"yes"}},"amenity/fast_food/burger/burgerking-e25654":{"name":"Бургер Кинг","locationSet":{"include":["by","kz","ru"]},"geometry":["point","area"],"matchScore":2,"terms":["burger king","burger king россия","бургер кинг"],"reference":{"key":"cuisine","value":"burger"},"tags":{"amenity":"fast_food","brand:wikidata":"Q177054","cuisine":"burger"},"addTags":{"amenity":"fast_food","brand":"Бургер Кинг","brand:en":"Burger King","brand:ru":"Бургер Кинг","brand:wikidata":"Q177054","cuisine":"burger","name":"Бургер Кинг","name:en":"Burger King","name:ru":"Бургер Кинг","takeaway":"yes"}},"amenity/fast_food/burger/vkusnoitochka-7582d1":{"name":"Вкусно \u2014 и точка","locationSet":{"include":["ru"]},"geometry":["point","area"],"matchScore":2,"terms":["mcdonald's","vkusno i tochka","вкусно \u2014 и точка","макдоналдс","макдональдс"],"reference":{"key":"cuisine","value":"burger"},"tags":{"amenity":"fast_food","brand:wikidata":"Q112406961","cuisine":"burger"},"addTags":{"amenity":"fast_food","brand":"Вкусно \u2014 и точка","brand:en":"Vkusno i tochka","brand:ru":"Вкусно \u2014 и точка","brand:wikidata":"Q112406961","cuisine":"burger","name":"Вкусно \u2014 и точка","name:en":"Vkusno i tochka","name:ru":"Вкусно \u2014 и точка","takeaway":"yes"}},"amenity/fast_food/pizza/dodopizza-e25654":{"name":"Додо Пицца","locationSet":{"include":["by","kz","ru"]},"geometry":["point","area"],"matchScore":2,"terms":["dodo pizza","dodo пицца","до-до","додо пица","додо пицца"],"reference":{"key":"cuisine","value":"pizza"},"tags":{"amenity":"fast_food","brand:wikidata":"Q61949318","cuisine":"pizza"},"addTags":{"amenity":"fast_food","brand":"Додо Пицца","brand:en":"Dodo Pizza","brand:ru":"Додо Пицца","brand:wikidata":"Q61949318","cuisine":"pizza","name":"Додо Пицца","name:en":"Dodo Pizza","name:ru":"Додо Пицца","takeaway":"yes"}},"amenity/fast_food/pizza/dominos-23683e":{"name":"Домино'c","locationSet":{"include":["by","ru"]},"geometry":["point","area"],"matchScore":2,"terms":["domino's","домино'c","доминоc пицца"],"reference":{"key":"cuisine","value":"pizza"},"tags":{"amenity":"fast_food","brand:wikidata":"Q839466","cuisine":"pizza"},"addTags":{"amenity":"fast_food","brand":"Домино'c","brand:en":"Domino's","brand:ru":"Домино'c","brand:wikidata":"Q839466","cuisine":"pizza","name":"Домино'c","name:en":"Domino's","name:ru":"Домино'c","takeaway":"yes"}},"amenity/fast_food/kebab/eurokebab-7582d1":{"name":"Евро Кебаб","locationSet":{"include":["ru"]},"geometry":["point","area"],"matchScore":2,"terms":["euro kebab","евро кебаб"],"reference":{"key":"cuisine","value":"kebab"},"tags":{"amenity":"fast_food","brand:wikidata":"Q109943635","cuisine":"kebab"},"addTags":{"amenity":"fast_food","brand":"Евро Кебаб","brand:en":"Euro Kebab","brand:ru":"Евро Кебаб","brand:wikidata":"Q109943635","cuisine":"kebab","name":"Евро Кебаб","name:en":"Euro Kebab","name:ru":"Евро Кебаб","takeaway":"yes"}},"amenity/fast_food/kroshkakartoshka-7582d1":{"name":"Крошка Картошка","locationSet":{"include":["ru"]},"geometry":["point","area"],"matchScore":2,"terms":["kroshka kartoshka","крошка картошка"],"tags":{"amenity":"fast_food","brand:wikidata":"Q4241838"},"addTags":{"amenity":"fast_food","brand":"Крошка Картошка","brand:en":"Kroshka Kartoshka","brand:ru":"Крошка Картошка","brand:wikidata":"Q4241838","cuisine":"potato","name":"Крошка Картошка","name:en":"Kroshka Kartoshka","name:ru":"Крошка Картошка","takeaway":"yes"}},"amenity/fast_food/pizza/papajohns-23683e":{"name":"Папа Джонс","locationSet":{"include":["by","ru"]},"geometry":["point","area"],"matchScore":2,"terms":["papa john's","папа джонс"],"reference":{"key":"cuisine","value":"pizza"},"tags":{"amenity":"fast_food","brand:wikidata":"Q2759586","cuisine":"pizza"},"addTags":{"amenity":"fast_food","brand":"Папа Джонс","brand:en":"Papa John's","brand:ru":"Папа Джонс","brand:wikidata":"Q2759586","cuisine":"pizza","name":"Папа Джонс","name:en":"Papa John's","name:ru":"Папа Джонс","takeaway":"yes"}},"amenity/fast_food/burger/robinsdobin-7582d1":{"name":"Робин Сдобин","locationSet":{"include":["ru"]},"geometry":["point","area"],"matchScore":2,"terms":["robins dobin","робин сдобин"],"reference":{"key":"cuisine","value":"burger"},"tags":{"amenity":"fast_food","brand:wikidata":"Q62273880","cuisine":"burger"},"addTags":{"amenity":"fast_food","brand":"Робин Сдобин","brand:en":"Robins Dobin","brand:ru":"Робин Сдобин","brand:wikidata":"Q62273880","cuisine":"burger","name":"Робин Сдобин","name:en":"Robins Dobin","name:ru":"Робин Сдобин","takeaway":"yes"}},"amenity/fast_food/sandwich/russkiyappetit-7582d1":{"name":"Русский Аппетит","locationSet":{"include":["ru"]},"geometry":["point","area"],"matchScore":2,"terms":["russkiy appetit","русский аппетит"],"reference":{"key":"cuisine","value":"sandwich"},"tags":{"amenity":"fast_food","brand:wikidata":"Q62086063","cuisine":"sandwich;salad;regional"},"addTags":{"amenity":"fast_food","brand":"Русский Аппетит","brand:en":"Russkiy Appetit","brand:ru":"Русский Аппетит","brand:wikidata":"Q62086063","cuisine":"sandwich;salad;regional","name":"Русский Аппетит","name:en":"Russkiy Appetit","name:ru":"Русский Аппетит","takeaway":"yes"}},"amenity/fast_food/stardogs-7582d1":{"name":"Стардог!s","locationSet":{"include":["ru"]},"geometry":["point","area"],"matchScore":2,"terms":["stardogs","starsog!s","стардогs"],"tags":{"amenity":"fast_food","brand:wikidata":"Q4439856"},"addTags":{"amenity":"fast_food","brand":"Стардогs","brand:en":"Stardogs","brand:ru":"Стардогs","brand:wikidata":"Q4439856","cuisine":"sausage","name":"Стардогs","name:en":"Stardogs","name:ru":"Стардогs","takeaway":"yes"}},"amenity/fast_food/sushiwok-7582d1":{"name":"Суши Wok","locationSet":{"include":["ru"]},"geometry":["point","area"],"matchScore":2,"terms":["sushi wok","суши wok","сушивок"],"tags":{"amenity":"fast_food","brand:wikidata":"Q25444754"},"addTags":{"amenity":"fast_food","brand":"Суши Wok","brand:en":"Sushi Wok","brand:ru":"Суши Wok","brand:wikidata":"Q25444754","cuisine":"asian","name":"Суши Wok","name:en":"Sushi Wok","name:ru":"Суши Wok","takeaway":"yes"}},"amenity/fast_food/sushishop-7582d1":{"name":"Сушишоп","locationSet":{"include":["ru"]},"geometry":["point","area"],"matchScore":2,"terms":["sushishop","суши shop","сушишоп"],"tags":{"amenity":"fast_food","brand:wikidata":"Q104003006"},"addTags":{"amenity":"fast_food","brand":"Сушишоп","brand:en":"Sushishop","brand:ru":"Сушишоп","brand:wikidata":"Q104003006","cuisine":"sushi","name":"Сушишоп","name:en":"Sushishop","name:ru":"Сушишоп","takeaway":"yes"}},"amenity/fast_food/teremok-7582d1":{"name":"Теремок","locationSet":{"include":["ru"]},"geometry":["point","area"],"matchScore":2,"terms":["teremok","теремок"],"tags":{"amenity":"fast_food","brand:wikidata":"Q4455593"},"addTags":{"amenity":"fast_food","brand":"Теремок","brand:en":"Teremok","brand:ru":"Теремок","brand:wikidata":"Q4455593","cuisine":"crepe;russian","name":"Теремок","name:en":"Teremok","name:ru":"Теремок","takeaway":"yes"}},"amenity/fuel/auchan-fcb99f":{"name":"Auchan","locationSet":{"include":["al","ad","ba","hr","gi","gr","va","it","mt","me","mk","pt","sm","rs","si","es","xk","by","bg","cz","hu","pl","md","ro","ru","sk","ua","at","be","fr","de","li","lu","mc","nl","ch"]},"geometry":["point","area"],"matchScore":2,"terms":["auchan"],"fields":["name","brand","{amenity/fuel}"],"tags":{"amenity":"fuel","brand:wikidata":"Q758603"},"addTags":{"amenity":"fuel","brand":"Auchan","brand:wikidata":"Q758603","name":"Auchan"}},"amenity/fuel/statoil-442e61":{"name":"Statoil","locationSet":{"include":["dk","ee","ie","pl","ru","se"]},"geometry":["point","area"],"matchScore":2,"terms":["statoil"],"fields":["name","brand","{amenity/fuel}"],"tags":{"amenity":"fuel","brand:wikidata":"Q1776022"},"addTags":{"amenity":"fuel","brand":"Statoil","brand:wikidata":"Q1776022","name":"Statoil"}},"amenity/fuel/bashneft-14ecc6":{"name":"Башнефть","locationSet":{"include":["ru"]},"geometry":["point","area"],"matchScore":2,"terms":["bashneft","башнефть"],"fields":["name","brand","{amenity/fuel}"],"tags":{"amenity":"fuel","brand:wikidata":"Q809985"},"addTags":{"amenity":"fuel","brand":"Башнефть","brand:en":"Bashneft","brand:wikidata":"Q809985","name":"Башнефть","name:en":"Bashneft"}},"amenity/fuel/0b910f-bb6729":{"name":"Газпромнефть","locationSet":{"include":["by","kg","kz","ru","tj"]},"geometry":["point","area"],"matchScore":2,"terms":["газпром","газпромнефть"],"fields":["name","brand","{amenity/fuel}"],"tags":{"amenity":"fuel","brand:wikidata":"Q1461799"},"addTags":{"amenity":"fuel","brand":"Газпромнефть","brand:wikidata":"Q1461799","name":"Газпромнефть"}},"amenity/fuel/d6c78f-14ecc6":{"name":"ЕКА","locationSet":{"include":["ru"]},"geometry":["point","area"],"matchScore":2,"terms":["ека"],"fields":["name","brand","{amenity/fuel}"],"tags":{"amenity":"fuel","brand:wikidata":"Q62543029"},"addTags":{"amenity":"fuel","brand":"ЕКА","brand:wikidata":"Q62543029","name":"ЕКА"}},"amenity/fuel/lukoil-0962f2":{"name":"Лукойл","locationSet":{"include":["by","kz","ru"]},"geometry":["point","area"],"matchScore":2,"terms":["lukoil","лукоил","лукойл"],"fields":["name","brand","{amenity/fuel}"],"tags":{"amenity":"fuel","brand:wikidata":"Q329347"},"addTags":{"amenity":"fuel","brand":"Лукойл","brand:en":"Lukoil","brand:ru":"Лукойл","brand:wikidata":"Q329347","name":"Лукойл","name:en":"Lukoil","name:ru":"Лукойл"}},"amenity/fuel/neftmagistral-14ecc6":{"name":"Нефтьмагистраль","locationSet":{"include":["ru"]},"geometry":["point","area"],"matchScore":2,"terms":["neftmagistral","нефтьмагистраль"],"fields":["name","brand","{amenity/fuel}"],"tags":{"amenity":"fuel","brand:wikidata":"Q62544323"},"addTags":{"amenity":"fuel","brand":"Нефтьмагистраль","brand:en":"Neftmagistral","brand:wikidata":"Q62544323","name":"Нефтьмагистраль","name:en":"Neftmagistral"}},"amenity/fuel/allianceoil-14ecc6":{"name":"НК Альянс","locationSet":{"include":["ru"]},"geometry":["point","area"],"matchScore":2,"terms":["alliance oil","нк альянс"],"fields":["name","brand","{amenity/fuel}"],"tags":{"amenity":"fuel","brand:wikidata":"Q4063700"},"addTags":{"amenity":"fuel","brand":"НК Альянс","brand:en":"Alliance Oil","brand:ru":"НК Альянс","brand:wikidata":"Q4063700","name":"НК Альянс","name:en":"Alliance Oil","name:ru":"НК Альянс"}},"amenity/fuel/6155f5-14ecc6":{"name":"ОПТИ","locationSet":{"include":["ru"]},"geometry":["point","area"],"matchScore":2,"terms":["опти"],"fields":["name","brand","{amenity/fuel}"],"tags":{"amenity":"fuel","brand:wikidata":"Q109356512"},"addTags":{"amenity":"fuel","brand":"ОПТИ","brand:wikidata":"Q109356512","name":"ОПТИ"}},"amenity/fuel/thepetersburgfuelcompany-14ecc6":{"name":"ПТК","locationSet":{"include":["ru"]},"geometry":["point","area"],"matchScore":2,"terms":["the petersburg fuel company","птк"],"fields":["name","brand","{amenity/fuel}"],"tags":{"amenity":"fuel","brand:wikidata":"Q4360193"},"addTags":{"amenity":"fuel","brand":"ПТК","brand:en":"The Petersburg Fuel Company","brand:ru":"ПТК","brand:wikidata":"Q4360193","name":"ПТК","name:en":"The Petersburg Fuel Company","name:ru":"ПТК"}},"amenity/fuel/rosneft-14ecc6":{"name":"Роснефть","locationSet":{"include":["ru"]},"geometry":["point","area"],"matchScore":2,"terms":["rosneft","роснефть"],"fields":["name","brand","{amenity/fuel}"],"tags":{"amenity":"fuel","brand:wikidata":"Q1141123"},"addTags":{"amenity":"fuel","brand":"Роснефть","brand:en":"Rosneft","brand:ru":"Роснефть","brand:wikidata":"Q1141123","name":"Роснефть","name:en":"Rosneft","name:ru":"Роснефть"}},"amenity/fuel/surgutneftegas-14ecc6":{"name":"Сургутнефтегаз","locationSet":{"include":["ru"]},"geometry":["point","area"],"matchScore":2,"terms":["surgutneftegas","сургутнефтегаз"],"fields":["name","brand","{amenity/fuel}"],"tags":{"amenity":"fuel","brand:wikidata":"Q680776"},"addTags":{"amenity":"fuel","brand":"Сургутнефтегаз","brand:en":"Surgutneftegas","brand:ru":"Сургутнефтегаз","brand:wikidata":"Q680776","name":"Сургутнефтегаз","name:en":"Surgutneftegas","name:ru":"Сургутнефтегаз"}},"amenity/fuel/tatnefteprodukt-14ecc6":{"name":"Татнефтепродукт","locationSet":{"include":["ru"]},"geometry":["point","area"],"matchScore":2,"terms":["tatnefteprodukt","татнефтепродукт"],"fields":["name","brand","{amenity/fuel}"],"tags":{"amenity":"fuel","brand:wikidata":"Q62545686"},"addTags":{"amenity":"fuel","brand":"Татнефтепродукт","brand:en":"Tatnefteprodukt","brand:ru":"Татнефтепродукт","brand:wikidata":"Q62545686","name":"Татнефтепродукт","name:en":"Tatnefteprodukt","name:ru":"Татнефтепродукт"}},"amenity/fuel/tatneft-14ecc6":{"name":"Татнефть","locationSet":{"include":["ru"]},"geometry":["point","area"],"matchScore":2,"terms":["tatneft","татнефть"],"fields":["name","brand","{amenity/fuel}"],"tags":{"amenity":"fuel","brand:wikidata":"Q1616858"},"addTags":{"amenity":"fuel","brand":"Татнефть","brand:en":"Tatneft","brand:ru":"Татнефть","brand:wikidata":"Q1616858","name":"Татнефть","name:en":"Tatneft","name:ru":"Татнефть"}},"amenity/fuel/21d03b-14ecc6":{"name":"ТНК","locationSet":{"include":["ru"]},"geometry":["point","area"],"matchScore":2,"terms":["тнк"],"fields":["name","brand","{amenity/fuel}"],"searchable":false,"tags":{"amenity":"fuel","brand:wikidata":"Q2298901"},"addTags":{"amenity":"fuel","brand":"ТНК","brand:wikidata":"Q2298901","name":"ТНК"}},"amenity/ice_cream/fd1d7e-3c9560":{"name":"33 пингвина","locationSet":{"include":["by","kg","kz","ru","uz"]},"geometry":["point","area"],"matchScore":2,"terms":["33 пингвина"],"tags":{"amenity":"ice_cream","brand:wikidata":"Q110147993"},"addTags":{"amenity":"ice_cream","brand":"33 пингвина","brand:wikidata":"Q110147993","name":"33 пингвина"}},"amenity/parcel_locker/ozonbox-c00268":{"name":"Ozon Box","locationSet":{"include":["ru"]},"geometry":["point","vertex","area"],"matchScore":2,"terms":["ozon box","постамат ozon box"],"fields":["name","brand","{amenity/parcel_locker}"],"reference":{"key":"amenity","value":"parcel_locker"},"tags":{"amenity":"parcel_locker","brand:wikidata":"Q2365235"},"addTags":{"amenity":"parcel_locker","brand":"Ozon Box","brand:wikidata":"Q2365235","name":"Ozon Box"}},"amenity/parcel_locker/zbox-5a86e9":{"name":"Packeta","locationSet":{"include":["by","bg","cz","hu","pl","md","ro","ru","sk","ua","ax","gg","je","cq","dk","ee","fo","fi","is","ie","im","lv","lt","no","sj","se","gb","al","ad","ba","hr","gi","gr","va","it","mt","me","mk","pt","sm","rs","si","es","xk","at","be","fr","de","li","lu","mc","nl","ch"]},"geometry":["point","vertex","area"],"matchScore":2,"terms":["packeta"],"fields":["name","brand","{amenity/parcel_locker}"],"reference":{"key":"amenity","value":"parcel_locker"},"tags":{"amenity":"parcel_locker","brand:wikidata":"Q67809905"},"addTags":{"amenity":"parcel_locker","brand":"Packeta","brand:wikidata":"Q67809905","name":"Z-Box"}},"amenity/parcel_locker/pickpoint-c00268":{"name":"PickPoint","locationSet":{"include":["ru"]},"geometry":["point","vertex","area"],"matchScore":2,"terms":["pickpoint"],"fields":["name","brand","{amenity/parcel_locker}"],"reference":{"key":"amenity","value":"parcel_locker"},"tags":{"amenity":"parcel_locker","brand:wikidata":"Q110276197"},"addTags":{"amenity":"parcel_locker","brand":"PickPoint","brand:wikidata":"Q110276197","name":"PickPoint"}},"amenity/parcel_locker/omnicdek-c00268":{"name":"ОмниСДЭК","locationSet":{"include":["ru"]},"geometry":["point","vertex","area"],"matchScore":2,"terms":["omnicdek","omnicedk","омнисдэк"],"fields":["name","brand","{amenity/parcel_locker}"],"reference":{"key":"amenity","value":"parcel_locker"},"tags":{"amenity":"parcel_locker","brand:wikidata":"Q110240113"},"addTags":{"amenity":"parcel_locker","brand":"ОмниСДЭК","brand:en":"OmniCEDK","brand:ru":"ОмниСДЭК","brand:wikidata":"Q110240113","name":"ОмниСДЭК","name:en":"OmniCDEK","name:ru":"ОмниСДЭК"}},"amenity/parcel_locker/russianpost-c00268":{"name":"Почта России","locationSet":{"include":["ru"]},"geometry":["point","vertex","area"],"matchScore":2,"terms":["russian post","почта россии"],"fields":["name","brand","{amenity/parcel_locker}"],"reference":{"key":"amenity","value":"parcel_locker"},"tags":{"amenity":"parcel_locker","brand:wikidata":"Q1502763"},"addTags":{"amenity":"parcel_locker","brand":"Почта России","brand:en":"Russian Post","brand:ru":"Почта России","brand:wikidata":"Q1502763","name":"Почта России","name:en":"Russian Post","name:ru":"Почта России"}},"amenity/payment_terminal/qiwi-e1a7cd":{"name":"Qiwi","locationSet":{"include":["ru"]},"geometry":["point"],"matchScore":2,"terms":["qiwi"],"tags":{"amenity":"payment_terminal","brand:wikidata":"Q4047736"},"addTags":{"amenity":"payment_terminal","brand":"Qiwi","brand:wikidata":"Q4047736","name":"Qiwi"}},"amenity/payment_terminal/de4add-e1a7cd":{"name":"Элекснет","locationSet":{"include":["ru"]},"geometry":["point"],"matchScore":2,"terms":["элекснет"],"tags":{"amenity":"payment_terminal","brand:wikidata":"Q4530795"},"addTags":{"amenity":"payment_terminal","brand":"Элекснет","brand:wikidata":"Q4530795","name":"Элекснет"}},"amenity/pharmacy/366-288c27":{"name":"36,6","locationSet":{"include":["ru"]},"geometry":["point","area"],"matchScore":2,"terms":["36,6","аптека 36,6"],"reference":{"key":"amenity","value":"pharmacy"},"tags":{"amenity":"pharmacy","brand:wikidata":"Q226889"},"addTags":{"amenity":"pharmacy","brand":"36,6","brand:wikidata":"Q226889","healthcare":"pharmacy","name":"36,6"}},"amenity/pharmacy/001bd9-288c27":{"name":"А5","locationSet":{"include":["ru"]},"geometry":["point","area"],"matchScore":2,"terms":["а5"],"reference":{"key":"amenity","value":"pharmacy"},"tags":{"amenity":"pharmacy","brand:wikidata":"Q62663476"},"addTags":{"amenity":"pharmacy","brand":"А5","brand:wikidata":"Q62663476","healthcare":"pharmacy","name":"А5"}},"amenity/pharmacy/0aaf88-288c27":{"name":"Алоэ","locationSet":{"include":["ru"]},"geometry":["point","area"],"matchScore":2,"terms":["алоэ"],"reference":{"key":"amenity","value":"pharmacy"},"tags":{"amenity":"pharmacy","brand:wikidata":"Q110253348"},"addTags":{"amenity":"pharmacy","brand":"Алоэ","brand:wikidata":"Q110253348","healthcare":"pharmacy","name":"Алоэ"}},"amenity/pharmacy/d13b83-288c27":{"name":"Апрель","locationSet":{"include":["ru"]},"geometry":["point","area"],"matchScore":2,"terms":["апрель"],"reference":{"key":"amenity","value":"pharmacy"},"tags":{"amenity":"pharmacy","brand:wikidata":"Q114060847"},"addTags":{"amenity":"pharmacy","brand":"Апрель","brand:wikidata":"Q114060847","healthcare":"pharmacy","name":"Апрель"}},"amenity/pharmacy/01555e-288c27":{"name":"Бережная аптека","locationSet":{"include":["ru"]},"geometry":["point","area"],"matchScore":2,"terms":["бережная аптека"],"reference":{"key":"amenity","value":"pharmacy"},"tags":{"amenity":"pharmacy","brand:wikidata":"Q62664194"},"addTags":{"amenity":"pharmacy","brand":"Бережная аптека","brand:wikidata":"Q62664194","healthcare":"pharmacy","name":"Бережная аптека"}},"amenity/pharmacy/96b33d-288c27":{"name":"Вита Центральная","locationSet":{"include":["ru"]},"geometry":["point","area"],"matchScore":2,"terms":["вита центральная"],"reference":{"key":"amenity","value":"pharmacy"},"tags":{"amenity":"pharmacy","brand:wikidata":"Q109810737"},"addTags":{"amenity":"pharmacy","brand":"Вита Центральная","brand:wikidata":"Q109810737","healthcare":"pharmacy","name":"Вита Центральная"}},"amenity/pharmacy/7f69f5-288c27":{"name":"Вита Экспресс","locationSet":{"include":["ru"]},"geometry":["point","area"],"matchScore":2,"terms":["вита экспресс"],"reference":{"key":"amenity","value":"pharmacy"},"tags":{"amenity":"pharmacy","brand:wikidata":"Q109810737"},"addTags":{"amenity":"pharmacy","brand":"Вита Экспресс","brand:wikidata":"Q109810737","healthcare":"pharmacy","name":"Вита Экспресс"}},"amenity/pharmacy/c0ed6e-288c27":{"name":"Доктор Столетов","locationSet":{"include":["ru"]},"geometry":["point","area"],"matchScore":2,"terms":["доктор столетов"],"reference":{"key":"amenity","value":"pharmacy"},"tags":{"amenity":"pharmacy","brand:wikidata":"Q110061359"},"addTags":{"amenity":"pharmacy","brand":"Доктор Столетов","brand:wikidata":"Q110061359","healthcare":"pharmacy","name":"Доктор Столетов"}},"amenity/pharmacy/zhivika-288c27":{"name":"Живика (Zhivika)","locationSet":{"include":["ru"]},"geometry":["point","area"],"matchScore":2,"terms":["zhivika","живика"],"reference":{"key":"amenity","value":"pharmacy"},"tags":{"amenity":"pharmacy","brand:wikidata":"Q123165954"},"addTags":{"amenity":"pharmacy","brand":"Живика","brand:en":"Zhivika","brand:ru":"Живика","brand:wikidata":"Q123165954","healthcare":"pharmacy","name":"Живика","name:en":"Zhivika","name:ru":"Живика"}},"amenity/pharmacy/7557e5-288c27":{"name":"ЛекОптТорг","locationSet":{"include":["ru"]},"geometry":["point","area"],"matchScore":2,"terms":["лекоптторг"],"reference":{"key":"amenity","value":"pharmacy"},"tags":{"amenity":"pharmacy","brand:wikidata":"Q109732954"},"addTags":{"amenity":"pharmacy","brand":"ЛекОптТорг","brand:wikidata":"Q109732954","healthcare":"pharmacy","name":"ЛекОптТорг"}},"amenity/pharmacy/45f992-288c27":{"name":"Мелодия здоровья","locationSet":{"include":["ru"]},"geometry":["point","area"],"matchScore":2,"terms":["мелодия здоровья"],"reference":{"key":"amenity","value":"pharmacy"},"tags":{"amenity":"pharmacy","brand:wikidata":"Q110278680"},"addTags":{"amenity":"pharmacy","brand":"Мелодия здоровья","brand:wikidata":"Q110278680","healthcare":"pharmacy","name":"Мелодия здоровья"}},"amenity/pharmacy/2b155a-288c27":{"name":"Невис","locationSet":{"include":["ru"]},"geometry":["point","area"],"matchScore":2,"terms":["невис"],"reference":{"key":"amenity","value":"pharmacy"},"tags":{"amenity":"pharmacy","brand:wikidata":"Q109837740"},"addTags":{"amenity":"pharmacy","brand":"Невис","brand:wikidata":"Q109837740","healthcare":"pharmacy","name":"Невис"}},"amenity/pharmacy/a55607-288c27":{"name":"Озерки","locationSet":{"include":["ru"]},"geometry":["point","area"],"matchScore":2,"terms":["аптека озерки","озерки"],"reference":{"key":"amenity","value":"pharmacy"},"tags":{"amenity":"pharmacy","brand:wikidata":"Q109712399"},"addTags":{"amenity":"pharmacy","brand":"Озерки","brand:wikidata":"Q109712399","healthcare":"pharmacy","name":"Озерки"}},"amenity/pharmacy/16f0aa-288c27":{"name":"Первая помощь","locationSet":{"include":["ru"]},"geometry":["point","area"],"matchScore":2,"terms":["первая помощь"],"reference":{"key":"amenity","value":"pharmacy"},"tags":{"amenity":"pharmacy","brand:wikidata":"Q110253609"},"addTags":{"amenity":"pharmacy","brand":"Первая помощь","brand:wikidata":"Q110253609","healthcare":"pharmacy","name":"Первая помощь"}},"amenity/pharmacy/38902d-288c27":{"name":"Петербургские аптеки","locationSet":{"include":["ru"]},"geometry":["point","area"],"matchScore":2,"terms":["петербургские аптеки"],"reference":{"key":"amenity","value":"pharmacy"},"tags":{"amenity":"pharmacy","brand:wikidata":"Q109732886"},"addTags":{"amenity":"pharmacy","brand":"Петербургские аптеки","brand:wikidata":"Q109732886","healthcare":"pharmacy","name":"Петербургские аптеки"}},"amenity/pharmacy/b0231d-288c27":{"name":"Планета здоровья (Россия)","locationSet":{"include":["ru"]},"geometry":["point","area"],"matchScore":2,"terms":["планета здоровья"],"fields":["name","brand","{amenity/pharmacy}"],"reference":{"key":"amenity","value":"pharmacy"},"tags":{"amenity":"pharmacy","brand:wikidata":"Q109732844"},"addTags":{"amenity":"pharmacy","brand":"Планета здоровья","brand:wikidata":"Q109732844","healthcare":"pharmacy","name":"Планета здоровья"}},"amenity/pharmacy/1de184-288c27":{"name":"Ригла","locationSet":{"include":["ru"]},"geometry":["point","area"],"matchScore":2,"terms":["ригла"],"reference":{"key":"amenity","value":"pharmacy"},"tags":{"amenity":"pharmacy","brand:wikidata":"Q4394431"},"addTags":{"amenity":"pharmacy","brand":"Ригла","brand:wikidata":"Q4394431","healthcare":"pharmacy","name":"Ригла"}},"amenity/pharmacy/ffbae9-288c27":{"name":"Сбер Еаптека","locationSet":{"include":["ru"]},"geometry":["point","area"],"matchScore":2,"terms":["eapteka.ru","еаптека","сбер еаптека"],"reference":{"key":"amenity","value":"pharmacy"},"tags":{"amenity":"pharmacy","brand:wikidata":"Q110253378"},"addTags":{"amenity":"pharmacy","brand":"Сбер Еаптека","brand:wikidata":"Q110253378","healthcare":"pharmacy","name":"Сбер Еаптека"}},"amenity/pharmacy/98589d-288c27":{"name":"Столички","locationSet":{"include":["ru"]},"geometry":["point","area"],"matchScore":2,"terms":["столички"],"reference":{"key":"amenity","value":"pharmacy"},"tags":{"amenity":"pharmacy","brand:wikidata":"Q109717665"},"addTags":{"amenity":"pharmacy","brand":"Столички","brand:wikidata":"Q109717665","healthcare":"pharmacy","name":"Столички"}},"amenity/pharmacy/fialka-288c27":{"name":"Фиалка","locationSet":{"include":["ru"]},"geometry":["point","area"],"matchScore":2,"terms":["fialka","фиалка","фиалка аптека"],"reference":{"key":"amenity","value":"pharmacy"},"tags":{"amenity":"pharmacy","brand:wikidata":"Q109995996"},"addTags":{"amenity":"pharmacy","brand":"Фиалка","brand:ru":"Фиалка","brand:wikidata":"Q109995996","healthcare":"pharmacy","name":"Фиалка","name:en":"Fialka","name:ru":"Фиалка"}},"amenity/post_office/5ac048-1328c6":{"name":"СДЭК","locationSet":{"include":["ru"]},"geometry":["point","area"],"matchScore":2,"terms":["сдэк"],"fields":["name","brand","{amenity/post_office}"],"tags":{"amenity":"post_office","brand:wikidata":"Q28665980"},"addTags":{"amenity":"post_office","brand":"СДЭК","brand:wikidata":"Q28665980","name":"СДЭК"}},"amenity/recycling_container/b6327b-f85e9d":{"name":"Лѣпта","locationSet":{"include":["ru"]},"geometry":["point","area"],"matchScore":2,"terms":["лепта","лѣпта"],"reference":{"key":"amenity","value":"recycling"},"tags":{"amenity":"recycling","brand:wikidata":"Q110234180","recycling_type":"container"},"addTags":{"alt_name":"Лепта","amenity":"recycling","brand":"Лѣпта","brand:wikidata":"Q110234180","name":"Лѣпта","operator":"Лѣпта","operator:wikidata":"Q110234180","recycling_type":"container","recycling:bags":"yes","recycling:clothes":"yes","recycling:shoes":"yes","recycling:toys":"yes"}},"amenity/recycling_container/e4ddd4-f85e9d":{"name":"Спасибо!","locationSet":{"include":["ru"]},"geometry":["point","area"],"matchScore":2,"terms":["спасибо!"],"reference":{"key":"amenity","value":"recycling"},"tags":{"amenity":"recycling","brand:wikidata":"Q110234301","recycling_type":"container"},"addTags":{"amenity":"recycling","brand":"Спасибо!","brand:wikidata":"Q110234301","name":"Спасибо!","operator":"Спасибо!","operator:wikidata":"Q110234301","recycling_type":"container","recycling:books":"yes","recycling:clothes":"yes","recycling:shoes":"yes"}},"amenity/restaurant/italian/0aeb30-642268":{"name":"IL Патио","locationSet":{"include":["ru"]},"geometry":["point","area"],"matchScore":2,"terms":["il патио"],"reference":{"key":"cuisine","value":"italian"},"tags":{"amenity":"restaurant","brand:wikidata":"Q4397763","cuisine":"italian"},"addTags":{"amenity":"restaurant","brand":"IL Патио","brand:wikidata":"Q4397763","cuisine":"italian","name":"IL Патио"}},"amenity/restaurant/italian/mamaroma-642268":{"name":"Mama Roma","locationSet":{"include":["ru"]},"geometry":["point","area"],"matchScore":2,"terms":["mama roma","мама рома"],"reference":{"key":"cuisine","value":"italian"},"tags":{"amenity":"restaurant","brand:wikidata":"Q109947151","cuisine":"italian;pizza;pasta"},"addTags":{"amenity":"restaurant","brand":"Mama Roma","brand:wikidata":"Q109947151","cuisine":"italian;pizza;pasta","name":"Mama Roma","name:en":"Mama Roma"}},"amenity/restaurant/seafood/oceanbasket-5d9698":{"name":"Ocean Basket","locationSet":{"include":["ae","bw","cy","gb","ke","kw","kz","mt","mu","na","ng","qa","ru","sa","sz","za","zw"]},"geometry":["point","area"],"matchScore":2,"terms":["ocean basket"],"reference":{"key":"cuisine","value":"seafood"},"tags":{"amenity":"restaurant","brand:wikidata":"Q62075311","cuisine":"seafood"},"addTags":{"amenity":"restaurant","brand":"Ocean Basket","brand:wikidata":"Q62075311","cuisine":"seafood","name":"Ocean Basket"}},"amenity/restaurant/e47430-642268":{"name":"Евразия (Россия)","locationSet":{"include":["ru"]},"geometry":["point","area"],"matchScore":2,"terms":["евразия"],"tags":{"amenity":"restaurant","brand:wikidata":"Q66087936"},"addTags":{"amenity":"restaurant","brand":"Евразия","brand:wikidata":"Q66087936","cuisine":"international","name":"Евразия"}},"amenity/restaurant/sushi/planetsushi-642268":{"name":"Планета Суши","locationSet":{"include":["ru"]},"geometry":["point","area"],"matchScore":2,"terms":["planet sushi","планета суши"],"reference":{"key":"cuisine","value":"sushi"},"tags":{"amenity":"restaurant","brand:wikidata":"Q62739250","cuisine":"sushi"},"addTags":{"amenity":"restaurant","brand":"Планета Суши","brand:wikidata":"Q62739250","cuisine":"sushi","name":"Планета Суши","name:en":"Planet Sushi"}},"amenity/restaurant/japanese/tanuki-dd767d":{"name":"Тануки","locationSet":{"include":["kz","ru"]},"geometry":["point","area"],"matchScore":2,"terms":["tanuki","тануки"],"reference":{"key":"cuisine","value":"japanese"},"tags":{"amenity":"restaurant","brand:wikidata":"Q62758690","cuisine":"japanese"},"addTags":{"amenity":"restaurant","brand":"Тануки","brand:wikidata":"Q62758690","cuisine":"japanese","name":"Тануки","name:en":"Tanuki","name:ru":"Тануки"}},"amenity/restaurant/japanese/8fbffc-642268":{"name":"Токио-Сити","locationSet":{"include":["ru"]},"geometry":["point","area"],"matchScore":2,"terms":["токио-city","токио-сити"],"reference":{"key":"cuisine","value":"japanese"},"tags":{"amenity":"restaurant","brand:wikidata":"Q62758690","cuisine":"japanese;international;pizza"},"addTags":{"amenity":"restaurant","brand":"Токио-Сити","brand:wikidata":"Q62758690","cuisine":"japanese;international;pizza","name":"Токио-Сити","name:en":"ТОКИО-CITY","name:ru":"ТОКИО-CITY"}},"amenity/restaurant/japanese/afb5a1-642268":{"name":"Якитория","locationSet":{"include":["ru"]},"geometry":["point","area"],"matchScore":2,"terms":["якитория"],"reference":{"key":"cuisine","value":"japanese"},"tags":{"amenity":"restaurant","brand:wikidata":"Q66088063","cuisine":"japanese;international"},"addTags":{"amenity":"restaurant","brand":"Якитория","brand:wikidata":"Q66088063","cuisine":"japanese;international","name":"Якитория"}},"amenity/social_centre/ahepahall-30ca27":{"name":"AHEPA Hall","locationSet":{"include":["by","bg","cz","hu","pl","md","ro","ru","sk","ua","ax","gg","je","cq","dk","ee","fo","fi","is","ie","im","lv","lt","no","sj","se","gb","al","ad","ba","hr","gi","gr","va","it","mt","me","mk","pt","sm","rs","si","es","xk","at","be","fr","de","li","lu","mc","nl","ch","au","ca","cy","us"],"exclude":["ru"]},"geometry":["point","area"],"matchScore":2,"terms":["ahepa","american hellenic educational progressive association","the order of ahepa"],"fields":["name","brand","{amenity/social_centre}"],"tags":{"amenity":"social_centre","brand:wikidata":"Q4743973"},"addTags":{"amenity":"social_centre","brand":"AHEPA","brand:wikidata":"Q4743973","name":"AHEPA Hall"}},"amenity/vending_machine/bicycle_tube/continental-123edb":{"name":"Continental","locationSet":{"include":["by","bg","cz","hu","pl","md","ro","ru","sk","ua","ax","gg","je","cq","dk","ee","fo","fi","is","ie","im","lv","lt","no","sj","se","gb","al","ad","ba","hr","gi","gr","va","it","mt","me","mk","pt","sm","rs","si","es","xk","at","be","fr","de","li","lu","mc","nl","ch"]},"geometry":["point","vertex"],"matchScore":2,"terms":["continental"],"reference":{"key":"vending","value":"bicycle_tube"},"tags":{"amenity":"vending_machine","brand:wikidata":"Q64739247","vending":"bicycle_tube"},"addTags":{"amenity":"vending_machine","brand":"Continental","brand:wikidata":"Q64739247","vending":"bicycle_tube"}},"amenity/vending_machine/bicycle_tube/schwalbe-123edb":{"name":"Schwalbe","locationSet":{"include":["by","bg","cz","hu","pl","md","ro","ru","sk","ua","ax","gg","je","cq","dk","ee","fo","fi","is","ie","im","lv","lt","no","sj","se","gb","al","ad","ba","hr","gi","gr","va","it","mt","me","mk","pt","sm","rs","si","es","xk","at","be","fr","de","li","lu","mc","nl","ch"]},"geometry":["point","vertex"],"matchScore":2,"terms":["schwalbe"],"reference":{"key":"vending","value":"bicycle_tube"},"tags":{"amenity":"vending_machine","brand:wikidata":"Q1312213","vending":"bicycle_tube"},"addTags":{"amenity":"vending_machine","brand":"Schwalbe","brand:wikidata":"Q1312213","vending":"bicycle_tube"}},"craft/electronics_repair/dns-37346b":{"name":"DNS","locationSet":{"include":["ru"]},"geometry":["point","area"],"matchScore":2,"terms":["dns"],"tags":{"brand:wikidata":"Q4036922","craft":"electronics_repair"},"addTags":{"brand":"DNS","brand:wikidata":"Q4036922","craft":"electronics_repair","name":"DNS"}},"craft/electronics_repair/338c9d-37346b":{"name":"DNS Сервисный центр","locationSet":{"include":["ru"]},"geometry":["point","area"],"matchScore":2,"terms":["dns сервисный центр"],"tags":{"brand:wikidata":"Q4036922","craft":"electronics_repair"},"addTags":{"brand":"DNS Сервисный центр","brand:wikidata":"Q4036922","craft":"electronics_repair","name":"DNS Сервисный центр"}},"healthcare/laboratory/invitro-7c30a4":{"name":"Инвитро","locationSet":{"include":["by","ru"]},"geometry":["point","area"],"matchScore":2,"terms":["invitro","инвитро"],"tags":{"brand:wikidata":"Q4200546","healthcare":"laboratory"},"addTags":{"brand":"Инвитро","brand:wikidata":"Q4200546","healthcare":"laboratory","name":"Инвитро","name:en":"Invitro","name:ru":"Инвитро"}},"healthcare/laboratory/helix-8e8a61":{"name":"Хеликс","locationSet":{"include":["ru"]},"geometry":["point","area"],"matchScore":2,"terms":["helix","хеликс"],"tags":{"brand:wikidata":"Q109717117","healthcare":"laboratory"},"addTags":{"brand":"Хеликс","brand:wikidata":"Q109717117","healthcare":"laboratory","name":"Хеликс","name:en":"Helix","name:ru":"Хеликс"}},"leisure/fitness_centre/alexfitness-2b2465":{"name":"Alex Fitness","locationSet":{"include":["ru"]},"geometry":["point","area"],"matchScore":2,"terms":["alex fitness"],"tags":{"brand:wikidata":"Q110300392","leisure":"fitness_centre"},"addTags":{"brand":"Alex Fitness","brand:wikidata":"Q110300392","leisure":"fitness_centre","name":"Alex Fitness"}},"leisure/fitness_centre/fitinn-48d938":{"name":"FITINN","locationSet":{"include":["by","bg","cz","hu","pl","md","ro","ru","sk","ua","ax","gg","je","cq","dk","ee","fo","fi","is","ie","im","lv","lt","no","sj","se","gb","al","ad","ba","hr","gi","gr","va","it","mt","me","mk","pt","sm","rs","si","es","xk","at","be","fr","de","li","lu","mc","nl","ch"]},"geometry":["point","area"],"matchScore":2,"terms":["fitinn"],"tags":{"brand:wikidata":"Q1245564","leisure":"fitness_centre"},"addTags":{"brand":"FITINN","brand:wikidata":"Q1245564","leisure":"fitness_centre","name":"FITINN"}},"leisure/fitness_centre/fitnesshouse-2b2465":{"name":"Fitness House","locationSet":{"include":["ru"]},"geometry":["point","area"],"matchScore":2,"terms":["fitness house"],"tags":{"brand:wikidata":"Q104213893","leisure":"fitness_centre"},"addTags":{"brand":"Fitness House","brand:wikidata":"Q104213893","leisure":"fitness_centre","name":"Fitness House"}},"leisure/fitness_centre/holmesplace-901199":{"name":"Holmes Place","locationSet":{"include":["by","bg","cz","hu","pl","md","ro","ru","sk","ua","ax","gg","je","cq","dk","ee","fo","fi","is","ie","im","lv","lt","no","sj","se","gb","al","ad","ba","hr","gi","gr","va","it","mt","me","mk","pt","sm","rs","si","es","xk","at","be","fr","de","li","lu","mc","nl","ch","il"]},"geometry":["point","area"],"matchScore":2,"terms":["holmes place"],"tags":{"brand:wikidata":"Q15815819","leisure":"fitness_centre"},"addTags":{"brand":"Holmes Place","brand:wikidata":"Q15815819","leisure":"fitness_centre","name":"Holmes Place"}},"leisure/fitness_centre/sportlife-2b2465":{"name":"SPORTLIFE","locationSet":{"include":["ru"]},"geometry":["point","area"],"matchScore":2,"terms":["sportlife"],"tags":{"brand:wikidata":"Q110300484","leisure":"fitness_centre"},"addTags":{"brand":"SPORTLIFE","brand:wikidata":"Q110300484","leisure":"fitness_centre","name":"SPORTLIFE"}},"leisure/fitness_centre/worldclass-2b2465":{"name":"World Class (Россия)","locationSet":{"include":["ru"]},"geometry":["point","area"],"matchScore":2,"terms":["world class"],"tags":{"brand:wikidata":"Q102350852","leisure":"fitness_centre"},"addTags":{"brand":"World Class","brand:wikidata":"Q102350852","leisure":"fitness_centre","name":"World Class"}},"man_made/charge_point/ionity-97d83d":{"name":"Ionity","locationSet":{"include":["by","bg","cz","hu","pl","md","ro","ru","sk","ua","ax","gg","je","cq","dk","ee","fo","fi","is","ie","im","lv","lt","no","sj","se","gb","al","ad","ba","hr","gi","gr","va","it","mt","me","mk","pt","sm","rs","si","es","xk","at","be","fr","de","li","lu","mc","nl","ch"]},"geometry":["point"],"matchScore":2,"terms":["ionity","ionity gmbh"],"fields":["name","brand","{man_made/charge_point}"],"tags":{"brand:wikidata":"Q42717773","man_made":"charge_point"},"addTags":{"brand":"Ionity","brand:wikidata":"Q42717773","man_made":"charge_point"}},"office/consulting/ecovis-10b2fd":{"name":"Ecovis International","locationSet":{"include":["by","bg","cz","hu","pl","md","ro","ru","sk","ua","ax","gg","je","cq","dk","ee","fo","fi","is","ie","im","lv","lt","no","sj","se","gb","al","ad","ba","hr","gi","gr","va","it","mt","me","mk","pt","sm","rs","si","es","xk","at","be","fr","de","li","lu","mc","nl","ch","tr"]},"geometry":["point","area"],"matchScore":2,"terms":["ecovis international"],"tags":{"brand:wikidata":"Q65509562","office":"consulting"},"addTags":{"brand":"Ecovis International","brand:wikidata":"Q65509562","name":"Ecovis","office":"consulting"}},"office/estate_agent/vonpollrealestate-c99072":{"name":"von Poll Real Estate","locationSet":{"include":["by","bg","cz","hu","pl","md","ro","ru","sk","ua","ax","gg","je","cq","dk","ee","fo","fi","is","ie","im","lv","lt","no","sj","se","gb","al","ad","ba","hr","gi","gr","va","it","mt","me","mk","pt","sm","rs","si","es","xk","at","be","fr","de","li","lu","mc","nl","ch"],"exclude":["at","de"]},"geometry":["point","area"],"matchScore":2,"terms":["von poll immobilien","von poll real estate","vonpoll","vonpoll commercial"],"tags":{"brand:wikidata":"Q96026696","office":"estate_agent"},"addTags":{"brand":"von Poll Real Estate","brand:wikidata":"Q96026696","name":"von Poll Real Estate","office":"estate_agent"}},"office/estate_agent/ee5a42-040d5e":{"name":"Жилфонд","locationSet":{"include":["ru"]},"geometry":["point","area"],"matchScore":2,"terms":["жилфонд"],"tags":{"brand:wikidata":"Q118601579","office":"estate_agent"},"addTags":{"brand":"Жилфонд","brand:wikidata":"Q118601579","name":"Жилфонд","office":"estate_agent"}},"office/financial_advisor/bcsfinancialgroup-608a42":{"name":"БКС Мир инвестиций","locationSet":{"include":["ru"]},"geometry":["point","area"],"matchScore":2,"terms":["bcs financial group","бкс мир инвестиций"],"tags":{"brand:wikidata":"Q4096843","office":"financial_advisor"},"addTags":{"brand":"БКС Мир инвестиций","brand:wikidata":"Q4096843","name":"БКС Мир инвестиций","name:en":"BCS Financial Group","office":"financial_advisor"}},"office/insurance/allianz-332499":{"name":"Allianz","locationSet":{"include":["ae","ar","at","au","be","bg","bh","bm","bn","br","ca","cg","ch","ci","cm","cn","co","cy","cz","de","dk","ee","eg","es","fi","fr","gb","gf","gg","gh","gp","gr","hk","hr","hu","id","ie","in","is","it","ja","ke","kr","kw","la","li","lk","lt","lu","lv","ma","mg","mx","my","ng","nl","no","nz","om","ph","pk","pl","pt","qa","ro","ru","sa","se","sg","si","sk","sn","th","tr","tw","ua","us","za"]},"geometry":["point","area"],"matchScore":2,"terms":["allianz","allianz versicherung"],"fields":["name","brand","{office/insurance}"],"tags":{"brand:wikidata":"Q487292","office":"insurance"},"addTags":{"brand":"Allianz","brand:wikidata":"Q487292","name":"Allianz","office":"insurance"}},"office/insurance/nn-336e34":{"name":"NN","locationSet":{"include":["by","bg","cz","hu","pl","md","ro","ru","sk","ua","ax","gg","je","cq","dk","ee","fo","fi","is","ie","im","lv","lt","no","sj","se","gb","al","ad","ba","hr","gi","gr","va","it","mt","me","mk","pt","sm","rs","si","es","xk","at","be","fr","de","li","lu","mc","nl","ch"]},"geometry":["point","area"],"matchScore":2,"terms":["nationale-nederlanden","nn"],"fields":["name","brand","{office/insurance}"],"tags":{"brand:wikidata":"Q1834291","office":"insurance"},"addTags":{"brand":"NN","brand:wikidata":"Q1834291","name":"NN","office":"insurance","official_name":"Nationale-Nederlanden"}},"office/insurance/uniqa-dc7360":{"name":"Uniqa","locationSet":{"include":["al","at","ba","bg","ch","cz","hr","hu","li","me","mk","pl","ro","rs","ru","sk","ua","xk"]},"geometry":["point","area"],"matchScore":2,"terms":["uniqa","uniqa asigurări"],"fields":["name","brand","{office/insurance}"],"tags":{"brand:wikidata":"Q1022419","office":"insurance"},"addTags":{"brand":"Uniqa","brand:wikidata":"Q1022419","name":"Uniqa","office":"insurance"}},"office/insurance/ingosstrakh-1dd572":{"name":"Ингосстрах","locationSet":{"include":["ru"]},"geometry":["point","area"],"matchScore":2,"terms":["ingosstrakh","ингосстрах"],"fields":["name","brand","{office/insurance}"],"tags":{"brand:wikidata":"Q4200631","office":"insurance"},"addTags":{"brand":"Ингосстрах","brand:en":"Ingosstrakh","brand:ru":"Ингосстрах","brand:wikidata":"Q4200631","name":"Ингосстрах","name:en":"Ingosstrakh","name:ru":"Ингосстрах","office":"insurance"}},"office/insurance/35e0a9-1dd572":{"name":"Капитал Life","locationSet":{"include":["ru"]},"geometry":["point","area"],"matchScore":2,"terms":["капитал life"],"fields":["name","brand","{office/insurance}"],"tags":{"brand:wikidata":"Q55659257","office":"insurance"},"addTags":{"brand":"Капитал Life","brand:wikidata":"Q55659257","name":"Капитал Life","office":"insurance"}},"office/insurance/352df3-1dd572":{"name":"Капитал Медицинское Страхование","locationSet":{"include":["ru"]},"geometry":["point","area"],"matchScore":2,"terms":["капитал медицинское страхование"],"fields":["name","brand","{office/insurance}"],"tags":{"brand:wikidata":"Q60967352","office":"insurance"},"addTags":{"brand":"Капитал Медицинское Страхование","brand:wikidata":"Q60967352","name":"Капитал Медицинское Страхование","office":"insurance"}},"office/insurance/cbfb4b-1dd572":{"name":"Ренессанс страхование","locationSet":{"include":["ru"]},"geometry":["point","area"],"matchScore":2,"terms":["ренессанс страхование"],"fields":["name","brand","{office/insurance}"],"tags":{"brand:wikidata":"Q4393241","office":"insurance"},"addTags":{"brand":"Ренессанс страхование","brand:wikidata":"Q4393241","name":"Ренессанс страхование","office":"insurance"}},"office/insurance/resoguarantee-1dd572":{"name":"РЕСО-Гарантия","locationSet":{"include":["ru"]},"geometry":["point","area"],"matchScore":2,"terms":["reso-guarantee","ресо-гарантия"],"fields":["name","brand","{office/insurance}"],"tags":{"brand:wikidata":"Q4386516","office":"insurance"},"addTags":{"brand":"РЕСО-Гарантия","brand:en":"RESO-Guarantee","brand:ru":"РЕСО-Гарантия","brand:wikidata":"Q4386516","name":"РЕСО-Гарантия","name:en":"RESO-Guarantee","name:ru":"РЕСО-Гарантия","office":"insurance"}},"office/insurance/7de24f-1dd572":{"name":"Росгосстрах","locationSet":{"include":["ru"]},"geometry":["point","area"],"matchScore":2,"terms":["росгосстрах"],"fields":["name","brand","{office/insurance}"],"tags":{"brand:wikidata":"Q4397745","office":"insurance"},"addTags":{"brand":"Росгосстрах","brand:wikidata":"Q4397745","name":"Росгосстрах","office":"insurance"}},"office/insurance/soglasie-1dd572":{"name":"Согласие","locationSet":{"include":["ru"]},"geometry":["point","area"],"matchScore":2,"terms":["soglasie","согласие"],"fields":["name","brand","{office/insurance}"],"tags":{"brand:wikidata":"Q4426689","office":"insurance"},"addTags":{"brand":"Согласие","brand:en":"Soglasie","brand:ru":"Согласие","brand:wikidata":"Q4426689","name":"Согласие","name:en":"Soglasie","name:ru":"Согласие","office":"insurance"}},"office/telecommunication/beeline-f03186":{"name":"Билайн","locationSet":{"include":["kg","kz","ru"]},"geometry":["point","area"],"matchScore":2,"terms":["beeline","билайн"],"tags":{"brand:wikidata":"Q402880","office":"telecommunication"},"addTags":{"brand":"Билайн","brand:en":"Beeline","brand:ru":"Билайн","brand:wikidata":"Q402880","name":"Билайн","name:en":"Beeline","name:ru":"Билайн","office":"telecommunication"}},"shop/alcohol/5a713f-b9f2fe":{"name":"Ароматный мир","locationSet":{"include":["ru"]},"geometry":["point","area"],"matchScore":2,"terms":["ароматный мир"],"tags":{"brand:wikidata":"Q109852336","shop":"alcohol"},"addTags":{"brand":"Ароматный мир","brand:wikidata":"Q109852336","name":"Ароматный мир","shop":"alcohol"}},"shop/alcohol/69bf4f-b9f2fe":{"name":"Бристоль","locationSet":{"include":["ru"]},"geometry":["point","area"],"matchScore":2,"terms":["бристоль"],"tags":{"brand:wikidata":"Q59155583","shop":"alcohol"},"addTags":{"brand":"Бристоль","brand:wikidata":"Q59155583","name":"Бристоль","shop":"alcohol"}},"shop/alcohol/41aea9-b9f2fe":{"name":"Винлаб","locationSet":{"include":["ru"]},"geometry":["point","area"],"matchScore":2,"terms":["винлаб"],"tags":{"brand:wikidata":"Q109907753","shop":"alcohol"},"addTags":{"brand":"Винлаб","brand:wikidata":"Q109907753","name":"Винлаб","shop":"alcohol"}},"shop/alcohol/8e7c78-b9f2fe":{"name":"Главпиво","locationSet":{"include":["ru"]},"geometry":["point","area"],"matchScore":2,"terms":["главпиво"],"tags":{"brand:wikidata":"Q110138058","shop":"alcohol"},"addTags":{"brand":"Главпиво","brand:wikidata":"Q110138058","name":"Главпиво","shop":"alcohol"}},"shop/alcohol/3b4761-b9f2fe":{"name":"Градусы","locationSet":{"include":["ru"]},"geometry":["point","area"],"matchScore":2,"terms":["градусы"],"tags":{"brand:wikidata":"Q110137876","shop":"alcohol"},"addTags":{"brand":"Градусы","brand:wikidata":"Q110137876","name":"Градусы","shop":"alcohol"}},"shop/alcohol/45d784-b9f2fe":{"name":"Красное&Белое","locationSet":{"include":["ru"]},"geometry":["point","area"],"matchScore":2,"terms":["красное и белое","красное&белое"],"tags":{"brand:wikidata":"Q24933790","shop":"alcohol"},"addTags":{"brand":"Красное&Белое","brand:wikidata":"Q24933790","name":"Красное&Белое","shop":"alcohol"}},"shop/alcohol/norman-b9f2fe":{"name":"Норман","locationSet":{"include":["ru"]},"geometry":["point","area"],"matchScore":2,"terms":["norman","норман"],"tags":{"brand:wikidata":"Q109907481","shop":"alcohol"},"addTags":{"brand":"Норман","brand:wikidata":"Q109907481","name":"Норман","name:en":"Norman","name:ru":"Норман","shop":"alcohol"}},"shop/alcohol/7a67d2-b9f2fe":{"name":"Пивточка","locationSet":{"include":["ru"]},"geometry":["point","area"],"matchScore":2,"terms":["пивточка"],"tags":{"brand:wikidata":"Q110138021","shop":"alcohol"},"addTags":{"brand":"Пивточка","brand:wikidata":"Q110138021","name":"Пивточка","shop":"alcohol"}},"shop/alcohol/e0b675-b9f2fe":{"name":"РосАл","locationSet":{"include":["ru"]},"geometry":["point","area"],"matchScore":2,"terms":["росал"],"tags":{"brand:wikidata":"Q110137999","shop":"alcohol"},"addTags":{"brand":"РосАл","brand:wikidata":"Q110137999","name":"РосАл","shop":"alcohol"}},"shop/baby_goods/d8a277-94eb10":{"name":"Детки","locationSet":{"include":["ru"]},"geometry":["point","area"],"matchScore":2,"terms":["детки"],"tags":{"brand:wikidata":"Q110290787","shop":"baby_goods"},"addTags":{"brand":"Детки","brand:wikidata":"Q110290787","name":"Детки","shop":"baby_goods"}},"shop/baby_goods/detskiymir-7b1c28":{"name":"Детский мир","locationSet":{"include":["by","kz","ru"]},"geometry":["point","area"],"matchScore":2,"terms":["detskiy mir","детский мир"],"tags":{"brand:wikidata":"Q16643324","shop":"baby_goods"},"addTags":{"brand":"Детский мир","brand:en":"Detskiy Mir","brand:wikidata":"Q16643324","name":"Детский мир","name:en":"Detskiy Mir","shop":"baby_goods"}},"shop/baby_goods/462766-2eddbc":{"name":"Дочки-сыночки","locationSet":{"include":["by","ru"]},"geometry":["point","area"],"matchScore":2,"terms":["дочки-сыночки"],"tags":{"brand:wikidata":"Q110290698","shop":"baby_goods"},"addTags":{"brand":"Дочки-сыночки","brand:wikidata":"Q110290698","name":"Дочки-сыночки","shop":"baby_goods"}},"shop/bakery/lecrobag-367eb3":{"name":"Le Crobag","locationSet":{"include":["at","de","pl","ru"]},"geometry":["point","area"],"matchScore":2,"terms":["le crobag"],"tags":{"brand:wikidata":"Q1558025","shop":"bakery"},"addTags":{"brand":"Le Crobag","brand:wikidata":"Q1558025","name":"Le Crobag","shop":"bakery"}},"shop/bakery/paul-652955":{"name":"Paul","locationSet":{"include":["ae","az","be","bh","by","ci","cy","cz","eg","es","fr","ga","gb","ge","gr","id","in","jo","jp","kw","kz","lb","lu","ma","mu","my","om","pa","ph","pl","pt","qa","ro","ru","sa","sg","th","tn","tw","ua","us","uz","vn","za"]},"geometry":["point","area"],"matchScore":2,"terms":["paul"],"tags":{"brand:wikidata":"Q3370417","shop":"bakery"},"addTags":{"brand":"Paul","brand:wikidata":"Q3370417","name":"Paul","shop":"bakery"}},"shop/bakery/3946ef-44faa4":{"name":"Булочные Ф. Вольчека","locationSet":{"include":["ru"]},"geometry":["point","area"],"matchScore":2,"terms":["булочная ф. вольчека","булочные ф. вольчека"],"tags":{"brand:wikidata":"Q109910298","shop":"bakery"},"addTags":{"brand":"Булочные Ф. Вольчека","brand:wikidata":"Q109910298","name":"Булочные Ф. Вольчека","shop":"bakery"}},"shop/bakery/bushe-44faa4":{"name":"буше","locationSet":{"include":["ru"]},"geometry":["point","area"],"matchScore":2,"terms":["bushe","буше"],"tags":{"brand:wikidata":"Q110044050","shop":"bakery"},"addTags":{"brand":"буше","brand:en":"bushe","brand:ru":"буше","brand:wikidata":"Q110044050","name":"буше","name:en":"bushe","name:ru":"буше","shop":"bakery"}},"shop/bakery/d1829c-44faa4":{"name":"Хлеб Насущный","locationSet":{"include":["ru"]},"geometry":["point","area"],"matchScore":2,"terms":["хлеб насущный"],"tags":{"brand:wikidata":"Q109910218","shop":"bakery"},"addTags":{"brand":"Хлеб Насущный","brand:wikidata":"Q109910218","name":"Хлеб Насущный","shop":"bakery"}},"shop/bakery/f4eaeb-44faa4":{"name":"Хлебник","locationSet":{"include":["ru"]},"geometry":["point","area"],"matchScore":2,"terms":["хлебник"],"tags":{"brand:wikidata":"Q110085956","shop":"bakery"},"addTags":{"brand":"Хлебник","brand:wikidata":"Q110085956","name":"Хлебник","shop":"bakery"}},"shop/bookmaker/ligastavok-867318":{"name":"Лига ставок","locationSet":{"include":["ru"]},"geometry":["point","area"],"matchScore":2,"terms":["liga stavok","лига ставок"],"tags":{"brand:wikidata":"Q6545804","shop":"bookmaker"},"addTags":{"brand":"Лига ставок","brand:en":"Liga Stavok","brand:ru":"Лига ставок","brand:wikidata":"Q6545804","name":"Лига ставок","name:en":"Liga Stavok","name:ru":"Лига ставок","shop":"bookmaker"}},"shop/bookmaker/fonbet-867318":{"name":"Фонбет","locationSet":{"include":["ru"]},"geometry":["point","area"],"matchScore":2,"terms":["fonbet","фонбет"],"tags":{"brand:wikidata":"Q49137910","shop":"bookmaker"},"addTags":{"brand":"Фонбет","brand:en":"Fonbet","brand:ru":"Фонбет","brand:wikidata":"Q49137910","name":"Фонбет","name:en":"Fonbet","name:ru":"Фонбет","shop":"bookmaker"}},"shop/books/9698e8-4175bc":{"name":"Буквоед","locationSet":{"include":["ru"]},"geometry":["point","area"],"matchScore":2,"terms":["буквоед"],"tags":{"brand:wikidata":"Q4098549","shop":"books"},"addTags":{"brand":"Буквоед","brand:wikidata":"Q4098549","name":"Буквоед","shop":"books"}},"shop/books/fcb83c-4175bc":{"name":"Дом книги","locationSet":{"include":["ru"]},"geometry":["point","area"],"matchScore":2,"terms":["дом книги"],"tags":{"brand:wikidata":"Q48950742","shop":"books"},"addTags":{"brand":"Дом книги","brand:wikidata":"Q48950742","name":"Дом книги","shop":"books"}},"shop/books/2b704f-4175bc":{"name":"Читай-город","locationSet":{"include":["ru"]},"geometry":["point","area"],"matchScore":2,"terms":["читай-город"],"tags":{"brand:wikidata":"Q4516645","shop":"books"},"addTags":{"brand":"Читай-город","brand:wikidata":"Q4516645","name":"Читай-город","shop":"books"}},"shop/butcher/f172c7-6e607d":{"name":"Ариант","locationSet":{"include":["ru"]},"geometry":["point","area"],"matchScore":2,"terms":["ариант"],"tags":{"brand:wikidata":"Q110955672","shop":"butcher"},"addTags":{"brand":"Ариант","brand:wikidata":"Q110955672","name":"Ариант","shop":"butcher"}},"shop/butcher/fc51bd-6e607d":{"name":"Великолукский мясокомбинат","locationSet":{"include":["ru"]},"geometry":["point","area"],"matchScore":2,"terms":["великолукский мясокомбинат"],"tags":{"brand:wikidata":"Q18401767","shop":"butcher"},"addTags":{"brand":"Великолукский мясокомбинат","brand:wikidata":"Q18401767","name":"Великолукский мясокомбинат","shop":"butcher"}},"shop/butcher/eff0d0-6e607d":{"name":"Звениговский","locationSet":{"include":["ru"]},"geometry":["point","area"],"matchScore":2,"terms":["звениговский"],"tags":{"brand:wikidata":"Q110956402","shop":"butcher"},"addTags":{"brand":"Звениговский","brand:wikidata":"Q110956402","name":"Звениговский","shop":"butcher"}},"shop/car/smart-b77732":{"name":"Smart","locationSet":{"include":["by","bg","cz","hu","pl","md","ro","ru","sk","ua","ax","gg","je","cq","dk","ee","fo","fi","is","ie","im","lv","lt","no","sj","se","gb","al","ad","ba","hr","gi","gr","va","it","mt","me","mk","pt","sm","rs","si","es","xk","at","be","fr","de","li","lu","mc","nl","ch","cn"]},"geometry":["point","area"],"matchScore":2,"terms":["smart"],"fields":["name","brand","{shop/car}"],"tags":{"brand:wikidata":"Q156490","shop":"car"},"addTags":{"brand":"Smart","brand:wikidata":"Q156490","name":"Smart","shop":"car"}},"shop/car/autoworld-7c9618":{"name":"Автомир","locationSet":{"include":["ru"]},"geometry":["point","area"],"matchScore":2,"terms":["autoworld","автомир"],"fields":["name","brand","{shop/car}"],"tags":{"brand:wikidata":"Q4056321","shop":"car"},"addTags":{"brand":"Автомир","brand:en":"Autoworld","brand:ru":"Автомир","brand:wikidata":"Q4056321","name":"Автомир","name:en":"Autoworld","name:ru":"Автомир","shop":"car"}},"shop/car_parts/existru-a188f5":{"name":"Exist.ru","locationSet":{"include":["ru"]},"geometry":["point","area"],"matchScore":2,"terms":["exist","exist.ru"],"tags":{"brand:wikidata":"Q24933708","shop":"car_parts"},"addTags":{"brand":"Exist.ru","brand:wikidata":"Q24933708","name":"Exist.ru","shop":"car_parts"}},"shop/car_repair/premio-354273":{"name":"Premio","locationSet":{"include":["be","bg","ch","cz","de","hu","nl","pl","ro","ru","sk"]},"geometry":["point","area"],"matchScore":2,"terms":["premio"],"fields":["name","brand","{shop/car_repair}"],"tags":{"brand:wikidata":"Q100895958","shop":"car_repair"},"addTags":{"brand":"Premio","brand:wikidata":"Q100895958","name":"Premio","shop":"car_repair"}},"shop/chemist/magnitcosmetics-2141a5":{"name":"Магнит Косметик","locationSet":{"include":["ru"]},"geometry":["point","area"],"matchScore":2,"terms":["magnit cosmetics","магнит косметик"],"tags":{"brand:wikidata":"Q940518","shop":"chemist"},"addTags":{"brand":"Магнит Косметик","brand:en":"Magnit Cosmetics","brand:wikidata":"Q940518","name":"Магнит Косметик","name:en":"Magnit Cosmetics","shop":"chemist"}},"shop/chemist/c9d6d1-2141a5":{"name":"Улыбка радуги","locationSet":{"include":["ru"]},"geometry":["point","area"],"matchScore":2,"terms":["улыбка радуги"],"tags":{"brand:wikidata":"Q109734104","shop":"chemist"},"addTags":{"brand":"Улыбка радуги","brand:ru":"Улыбка радуги","brand:wikidata":"Q109734104","name":"Улыбка радуги","name:ru":"Улыбка радуги","shop":"chemist"}},"shop/clothes/allsaints-37f446":{"name":"AllSaints","locationSet":{"include":["cn","fr","gb","ie","kr","mx","ru","us"]},"geometry":["point","area"],"matchScore":2,"terms":["allsaints"],"tags":{"brand:wikidata":"Q4728473","shop":"clothes"},"addTags":{"brand":"AllSaints","brand:wikidata":"Q4728473","name":"AllSaints","shop":"clothes"}},"shop/clothes/befree-7b6907":{"name":"befree","locationSet":{"include":["ru"]},"geometry":["point","area"],"matchScore":2,"terms":["befree"],"tags":{"brand:wikidata":"Q4034966","shop":"clothes"},"addTags":{"brand":"befree","brand:wikidata":"Q4034966","name":"befree","shop":"clothes"}},"shop/clothes/coccodrillo-571709":{"name":"Coccodrillo","locationSet":{"include":["at","bg","by","cz","de","ee","fi","hu","lt","lv","me","pl","ro","rs","ru","sk","ua"]},"geometry":["point","area"],"matchScore":2,"terms":["coccodrillo"],"tags":{"brand:wikidata":"Q9195224","shop":"clothes"},"addTags":{"brand":"Coccodrillo","brand:wikidata":"Q9195224","clothes":"children","name":"Coccodrillo","shop":"clothes"}},"shop/clothes/colloseum-3648e4":{"name":"Colloseum","locationSet":{"include":["at","cz","de","gr","lv","pl","ru","sk"]},"geometry":["point","area"],"matchScore":2,"terms":["colloseum"],"tags":{"brand:wikidata":"Q15794685","shop":"clothes"},"addTags":{"brand":"Colloseum","brand:wikidata":"Q15794685","name":"Colloseum","shop":"clothes"}},"shop/clothes/cropp-f09482":{"name":"Cropp","locationSet":{"include":["ba","bg","cz","ee","fi","hr","hu","kz","lt","lv","pl","ro","rs","ru","si","sk","ua"]},"geometry":["point","area"],"matchScore":2,"terms":["cropp"],"tags":{"brand:wikidata":"Q9196793","shop":"clothes"},"addTags":{"brand":"Cropp","brand:wikidata":"Q9196793","name":"Cropp","shop":"clothes"}},"shop/clothes/danjohn-96017f":{"name":"Dan John","locationSet":{"include":["be","es","fr","it","me","mk","mt","rs","ru"]},"geometry":["point","area"],"matchScore":2,"terms":["dan john"],"tags":{"brand:wikidata":"Q116304215","shop":"clothes"},"addTags":{"brand":"Dan John","brand:wikidata":"Q116304215","clothes":"men","name":"Dan John","shop":"clothes"}},"shop/clothes/underwear/extremeintimo-bdfec0":{"name":"Extreme Intimo","locationSet":{"include":["ba","cz","hr","me","mk","rs","ru","si","xk"]},"geometry":["point","area"],"matchScore":2,"terms":["extreme intimo"],"reference":{"key":"clothes","value":"underwear"},"tags":{"brand:wikidata":"Q117309408","clothes":"underwear","shop":"clothes"},"addTags":{"brand":"Extreme Intimo","brand:wikidata":"Q117309408","clothes":"underwear","name":"Extreme Intimo","shop":"clothes"}},"shop/clothes/falke-d93616":{"name":"FALKE","locationSet":{"include":["ae","be","ch","de","nl","ru"]},"geometry":["point","area"],"matchScore":2,"terms":["falke"],"tags":{"brand:wikidata":"Q1394122","shop":"clothes"},"addTags":{"brand":"FALKE","brand:wikidata":"Q1394122","name":"FALKE","shop":"clothes"}},"shop/clothes/finnflare-7b6907":{"name":"Finn Flare","locationSet":{"include":["ru"]},"geometry":["point","area"],"matchScore":2,"terms":["finn flare"],"tags":{"brand:wikidata":"Q4038759","shop":"clothes"},"addTags":{"brand":"Finn Flare","brand:wikidata":"Q4038759","name":"Finn Flare","shop":"clothes"}},"shop/clothes/gloriajeans-7b6907":{"name":"Gloria Jeans","locationSet":{"include":["ru"]},"geometry":["point","area"],"matchScore":2,"terms":["gloria jeans"],"tags":{"brand:wikidata":"Q4139985","shop":"clothes"},"addTags":{"brand":"Gloria Jeans","brand:wikidata":"Q4139985","name":"Gloria Jeans","shop":"clothes"}},"shop/clothes/house-f09482":{"name":"House","locationSet":{"include":["ba","bg","cz","ee","fi","hr","hu","kz","lt","lv","pl","ro","rs","ru","si","sk","ua"]},"geometry":["point","area"],"matchScore":2,"terms":["house"],"tags":{"brand:wikidata":"Q9294202","shop":"clothes"},"addTags":{"brand":"House","brand:wikidata":"Q9294202","name":"House","shop":"clothes"}},"shop/clothes/loverepublic-54fe8d":{"name":"LOVE REPUBLIC","locationSet":{"include":["am","by","kz","ru"]},"geometry":["point","area"],"matchScore":2,"terms":["love republic"],"tags":{"brand:wikidata":"Q103848331","shop":"clothes"},"addTags":{"brand":"LOVE REPUBLIC","brand:wikidata":"Q103848331","clothes":"women","name":"LOVE REPUBLIC","shop":"clothes"}},"shop/clothes/maje-ab7b56":{"name":"Maje","locationSet":{"include":["by","bg","cz","hu","pl","md","ro","ru","sk","ua","ax","gg","je","cq","dk","ee","fo","fi","is","ie","im","lv","lt","no","sj","se","gb","al","ad","ba","hr","gi","gr","va","it","mt","me","mk","pt","sm","rs","si","es","xk","at","be","fr","de","li","lu","mc","nl","ch","cn","sg","tw","us"]},"geometry":["point","area"],"matchScore":2,"terms":["maje"],"tags":{"brand:wikidata":"Q3280458","shop":"clothes"},"addTags":{"brand":"Maje","brand:wikidata":"Q3280458","clothes":"women","name":"Maje","shop":"clothes"}},"shop/clothes/markformelle-1c3486":{"name":"Mark Formelle","locationSet":{"include":["by","kz","ru"]},"geometry":["point","area"],"matchScore":2,"terms":["mark formelle"],"tags":{"brand:wikidata":"Q25381083","shop":"clothes"},"addTags":{"brand":"Mark Formelle","brand:wikidata":"Q25381083","name":"Mark Formelle","shop":"clothes"}},"shop/clothes/maxetmoi-c7a41d":{"name":"Max et Moi","locationSet":{"include":["ch","ee","es","fr","ru"]},"geometry":["point","area"],"matchScore":2,"terms":["max et moi"],"tags":{"brand:wikidata":"Q104717564","shop":"clothes"},"addTags":{"brand":"Max et Moi","brand:wikidata":"Q104717564","clothes":"women","name":"Max et Moi","shop":"clothes"}},"shop/clothes/mohito-710e25":{"name":"Mohito","locationSet":{"include":["ba","bg","cz","ee","fi","hu","kz","lt","lv","pl","ro","rs","ru","si","sk","ua"]},"geometry":["point","area"],"matchScore":2,"terms":["mohito"],"tags":{"brand:wikidata":"Q107410616","shop":"clothes"},"addTags":{"brand":"Mohito","brand:wikidata":"Q107410616","clothes":"women","name":"Mohito","shop":"clothes"}},"shop/clothes/oodji-7b6907":{"name":"oodji","locationSet":{"include":["ru"]},"geometry":["point","area"],"matchScore":2,"terms":["oodji"],"tags":{"brand:wikidata":"Q172108","shop":"clothes"},"addTags":{"brand":"oodji","brand:wikidata":"Q172108","name":"oodji","shop":"clothes"}},"shop/clothes/soliver-fb408e":{"name":"s.Oliver","locationSet":{"include":["by","bg","cz","hu","pl","md","ro","ru","sk","ua","ax","gg","je","cq","dk","ee","fo","fi","is","ie","im","lv","lt","no","sj","se","gb","al","ad","ba","hr","gi","gr","va","it","mt","me","mk","pt","sm","rs","si","es","xk","at","be","fr","de","li","lu","mc","nl","ch","cn","in"]},"geometry":["point","area"],"matchScore":2,"terms":["s.oliver"],"tags":{"brand:wikidata":"Q265056","shop":"clothes"},"addTags":{"brand":"s.Oliver","brand:wikidata":"Q265056","name":"s.Oliver","shop":"clothes"}},"shop/clothes/sela-2d1caa":{"name":"Sela","locationSet":{"include":["kg","ru"]},"geometry":["point","area"],"matchScore":2,"terms":["sela"],"tags":{"brand:wikidata":"Q62075111","shop":"clothes"},"addTags":{"brand":"Sela","brand:wikidata":"Q62075111","name":"Sela","shop":"clothes"}},"shop/clothes/sisley-9d6d32":{"name":"Sisley","locationSet":{"include":["at","ch","de","hr","it","ru"]},"geometry":["point","area"],"matchScore":2,"terms":["sisley"],"tags":{"brand:wikidata":"Q12054325","shop":"clothes"},"addTags":{"brand":"Sisley","brand:wikidata":"Q12054325","name":"Sisley","shop":"clothes"}},"shop/clothes/topsecret-77286c":{"name":"Top Secret","locationSet":{"include":["fr","pl","ru"]},"geometry":["point","area"],"matchScore":2,"terms":["top secret"],"tags":{"brand:wikidata":"Q113229882","shop":"clothes"},"addTags":{"brand":"Top Secret","brand:wikidata":"Q113229882","name":"Top Secret","shop":"clothes"}},"shop/clothes/weekday-b5590c":{"name":"Weekday","locationSet":{"include":["by","bg","cz","hu","pl","md","ro","ru","sk","ua","ax","gg","je","cq","dk","ee","fo","fi","is","ie","im","lv","lt","no","sj","se","gb","al","ad","ba","hr","gi","gr","va","it","mt","me","mk","pt","sm","rs","si","es","xk","at","be","fr","de","li","lu","mc","nl","ch"]},"geometry":["point","area"],"matchScore":2,"terms":["weekday"],"tags":{"brand:wikidata":"Q10719514","shop":"clothes"},"addTags":{"brand":"Weekday","brand:wikidata":"Q10719514","name":"Weekday","shop":"clothes"}},"shop/clothes/zarina-54fe8d":{"name":"Zarina","locationSet":{"include":["am","by","kz","ru"]},"geometry":["point","area"],"matchScore":2,"terms":["zarina"],"tags":{"brand:wikidata":"Q103847517","shop":"clothes"},"addTags":{"brand":"Zarina","brand:wikidata":"Q103847517","clothes":"women","name":"Zarina","shop":"clothes"}},"shop/clothes/snezhnayakoroleva-102c33":{"name":"Снежная королева","locationSet":{"include":["kz","ru"]},"geometry":["point","area"],"matchScore":2,"terms":["snezhnaya koroleva","снежная королева"],"tags":{"brand:wikidata":"Q4425512","shop":"clothes"},"addTags":{"brand":"Снежная королева","brand:wikidata":"Q4425512","name":"Снежная королева","name:en":"Snezhnaya koroleva","name:ru":"Снежная королева","shop":"clothes"}},"shop/clothes/tvoe-1c3486":{"name":"ТВОЕ","locationSet":{"include":["by","kz","ru"]},"geometry":["point","area"],"matchScore":2,"terms":["tvoe","твое"],"tags":{"brand:wikidata":"Q110034939","shop":"clothes"},"addTags":{"brand":"ТВОЕ","brand:en":"TVOE","brand:ru":"ТВОЕ","brand:wikidata":"Q110034939","name":"ТВОЕ","name:en":"TVOE","name:ru":"ТВОЕ","shop":"clothes"}},"shop/confectionery/severmetropol-61c5bf":{"name":"Север-Метрополь","locationSet":{"include":["ru"]},"geometry":["point","area"],"matchScore":2,"terms":["sever-metropol","север-метрополь"],"tags":{"brand:wikidata":"Q4411982","shop":"confectionery"},"addTags":{"brand":"Север-Метрополь","brand:en":"Sever-Metropol","brand:ru":"Север-Метрополь","brand:wikidata":"Q4411982","name":"Север-Метрополь","name:en":"Sever-Metropol","name:ru":"Север-Метрополь","shop":"confectionery"}},"shop/convenience/viva-856fe1":{"name":"Viva","locationSet":{"include":["by","bg","cz","hu","pl","md","ro","ru","sk","ua","ax","gg","je","cq","dk","ee","fo","fi","is","ie","im","lv","lt","no","sj","se","gb","al","ad","ba","hr","gi","gr","va","it","mt","me","mk","pt","sm","rs","si","es","xk","at","be","fr","de","li","lu","mc","nl","ch"]},"geometry":["point","area"],"matchScore":2,"terms":["viva"],"tags":{"brand:wikidata":"Q168238","shop":"convenience"},"addTags":{"brand":"Viva","brand:wikidata":"Q168238","name":"Viva","shop":"convenience"}},"shop/convenience/akkond-e33fbc":{"name":"Акконд","locationSet":{"include":["ru"]},"geometry":["point","area"],"matchScore":2,"terms":["akkond","акконд"],"tags":{"brand:wikidata":"Q4053986","shop":"convenience"},"addTags":{"brand":"Акконд","brand:en":"Akkond","brand:ru":"Акконд","brand:wikidata":"Q4053986","name":"Акконд","name:en":"Akkond","name:ru":"Акконд","shop":"convenience"}},"shop/convenience/f07eb1-e33fbc":{"name":"ВкусВилл","locationSet":{"include":["ru"]},"geometry":["point","area"],"matchScore":2,"terms":["вкусвилл"],"tags":{"brand:wikidata":"Q57271676","shop":"convenience"},"addTags":{"brand":"ВкусВилл","brand:wikidata":"Q57271676","name":"ВкусВилл","shop":"convenience"}},"shop/convenience/44aeb3-e33fbc":{"name":"Гроздь","locationSet":{"include":["ru"]},"geometry":["point","area"],"matchScore":2,"terms":["гроздь"],"tags":{"brand:wikidata":"Q21638412","shop":"convenience"},"addTags":{"brand":"Гроздь","brand:wikidata":"Q21638412","name":"Гроздь","shop":"convenience"}},"shop/convenience/67d62e-065292":{"name":"Доброном","locationSet":{"include":["by","ru"]},"geometry":["point","area"],"matchScore":2,"terms":["доброном"],"tags":{"brand:wikidata":"Q97312362","shop":"convenience"},"addTags":{"brand":"Доброном","brand:wikidata":"Q97312362","name":"Доброном","shop":"convenience"}},"shop/convenience/yermolino-e33fbc":{"name":"Ермолино","locationSet":{"include":["ru"]},"geometry":["point","area"],"matchScore":2,"terms":["yermolino","ермолино","продукты ермолино"],"tags":{"brand:wikidata":"Q109995205","shop":"convenience"},"addTags":{"brand":"Ермолино","brand:wikidata":"Q109995205","name":"Ермолино","name:en":"Yermolino","name:ru":"Ермолино","shop":"convenience"}},"shop/convenience/kopeyka-e33fbc":{"name":"Копейка","locationSet":{"include":["ru"]},"geometry":["point","area"],"matchScore":2,"terms":["kopeyka","копейка"],"tags":{"brand:wikidata":"Q1783878","shop":"convenience"},"addTags":{"brand":"Копейка","brand:en":"Kopeyka","brand:wikidata":"Q1783878","name":"Копейка","name:en":"Kopeyka","shop":"convenience"}},"shop/convenience/a5e9d6-e33fbc":{"name":"Мария-Ра","locationSet":{"include":["ru"]},"geometry":["point","area"],"matchScore":2,"terms":["мария-ра"],"tags":{"brand:wikidata":"Q4281631","shop":"convenience"},"addTags":{"brand":"Мария-Ра","brand:wikidata":"Q4281631","name":"Мария-Ра","shop":"convenience"}},"shop/cosmetics/mixit-8126fc":{"name":"Mixit","locationSet":{"include":["by","kz","ru"]},"geometry":["point","area"],"matchScore":2,"terms":["mixit"],"tags":{"brand:wikidata":"Q110291123","shop":"cosmetics"},"addTags":{"brand":"Mixit","brand:wikidata":"Q110291123","name":"Mixit","shop":"cosmetics"}},"shop/cosmetics/goldapple-882961":{"name":"Золотое яблоко","locationSet":{"include":["ru"]},"geometry":["point","area"],"matchScore":2,"terms":["gold apple","золотое яблоко"],"tags":{"brand:wikidata":"Q106411451","shop":"cosmetics"},"addTags":{"brand":"Золотое яблоко","brand:en":"Gold Apple","brand:wikidata":"Q106411451","name":"Золотое яблоко","name:en":"Gold Apple","shop":"cosmetics"}},"shop/cosmetics/5e497e-882961":{"name":"Л'Этуаль","locationSet":{"include":["ru"]},"geometry":["point","area"],"matchScore":2,"terms":["л'этуаль","летуаль"],"tags":{"brand:wikidata":"Q18400706","shop":"cosmetics"},"addTags":{"brand":"Л'Этуаль","brand:wikidata":"Q18400706","name":"Л'Этуаль","shop":"cosmetics"}},"shop/cosmetics/95c47a-882961":{"name":"Подружка","locationSet":{"include":["ru"]},"geometry":["point","area"],"matchScore":2,"terms":["подружка"],"tags":{"brand:wikidata":"Q101646588","shop":"cosmetics"},"addTags":{"brand":"Подружка","brand:wikidata":"Q101646588","name":"Подружка","shop":"cosmetics"}},"shop/cosmetics/d7b8b0-882961":{"name":"Рив Гош","locationSet":{"include":["ru"]},"geometry":["point","area"],"matchScore":2,"terms":["rive gauche","рив гош"],"tags":{"brand:wikidata":"Q4394330","shop":"cosmetics"},"addTags":{"brand":"Рив Гош","brand:fr":"Rive Gauche","brand:ru":"Рив Гош","brand:wikidata":"Q4394330","name":"Рив Гош","name:fr":"Rive Gauche","name:ru":"Рив Гош","shop":"cosmetics"}},"shop/craft/f57608-3615c7":{"name":"Леонардо","locationSet":{"include":["by","kz","ru"]},"geometry":["point","area"],"matchScore":2,"terms":["леонардо"],"tags":{"brand:wikidata":"Q110138162","shop":"craft"},"addTags":{"brand":"Леонардо","brand:wikidata":"Q110138162","name":"Леонардо","shop":"craft"}},"shop/deli/oilandvinegar-0e839f":{"name":"Oil & Vinegar","locationSet":{"include":["at","be","ch","de","jp","nl","ru","us"]},"geometry":["point","area"],"matchScore":2,"terms":["oil & vinegar"],"tags":{"brand:wikidata":"Q107987188","shop":"deli"},"addTags":{"brand":"Oil & Vinegar","brand:wikidata":"Q107987188","name":"Oil & Vinegar","shop":"deli"}},"shop/department_store/lottedepartmentstore-256de8":{"name":"Lotte Department Store","locationSet":{"include":["cn","id","kr","ru","vn"]},"geometry":["point","area"],"matchScore":2,"terms":["lotte","lotte department store"],"tags":{"brand:wikidata":"Q489905","shop":"department_store"},"addTags":{"brand":"Lotte Department Store","brand:wikidata":"Q489905","name":"Lotte Department Store","shop":"department_store"}},"shop/department_store/marksandspencer-679c9d":{"name":"Marks & Spencer","locationSet":{"include":["gb","gr","ie","ru"]},"geometry":["point","area"],"matchScore":2,"terms":["m and s","marks & spencer","маркс и спенсер"],"tags":{"brand:wikidata":"Q714491","shop":"department_store"},"addTags":{"brand":"Marks & Spencer","brand:wikidata":"Q714491","name":"Marks & Spencer","shop":"department_store"}},"shop/doityourself/castorama-f558f5":{"name":"Castorama","locationSet":{"include":["fr","pl","ru"]},"geometry":["point","area"],"matchScore":2,"terms":["castorama"],"tags":{"brand:wikidata":"Q966971","shop":"doityourself"},"addTags":{"brand":"Castorama","brand:wikidata":"Q966971","name":"Castorama","shop":"doityourself"}},"shop/doityourself/obi-d5381e":{"name":"OBI","locationSet":{"include":["at","ba","ch","cz","de","hu","it","pl","ru","si","sk"]},"geometry":["point","area"],"matchScore":2,"terms":["obi"],"tags":{"brand:wikidata":"Q300518","shop":"doityourself"},"addTags":{"brand":"OBI","brand:wikidata":"Q300518","name":"OBI","shop":"doityourself"}},"shop/doityourself/leroymerlin-ea6c83":{"name":"Леруа Мерлен","locationSet":{"include":["ru","ua"]},"geometry":["point","area"],"matchScore":2,"terms":["leroy merlin","леруа мерлен"],"tags":{"brand:wikidata":"Q889624","shop":"doityourself"},"addTags":{"brand":"Леруа Мерлен","brand:en":"Leroy Merlin","brand:wikidata":"Q889624","name":"Леруа Мерлен","name:en":"Leroy Merlin","shop":"doityourself"}},"shop/doityourself/petrovich-43446b":{"name":"Петрович","locationSet":{"include":["ru"]},"geometry":["point","area"],"matchScore":2,"terms":["petrovich","петрович"],"tags":{"brand:wikidata":"Q4360946","shop":"doityourself"},"addTags":{"brand":"Петрович","brand:en":"Petrovich","brand:ru":"Петрович","brand:wikidata":"Q4360946","name":"Петрович","name:en":"Petrovich","name:ru":"Петрович","shop":"doityourself"}},"shop/dry_cleaning/21adb0-1a9348":{"name":"Диана","locationSet":{"include":["ru"]},"geometry":["point","area"],"matchScore":2,"terms":["диана"],"tags":{"brand:wikidata":"Q62105088","shop":"dry_cleaning"},"addTags":{"brand":"Диана","brand:wikidata":"Q62105088","name":"Диана","shop":"dry_cleaning"}},"shop/e-cigarette/qstore-e48cdb":{"name":"Q Store","locationSet":{"include":["ru"]},"geometry":["point","area"],"matchScore":2,"terms":["q store"],"tags":{"brand:wikidata":"Q110246933","shop":"e-cigarette"},"addTags":{"brand":"Q Store","brand:wikidata":"Q110246933","name":"Q Store","shop":"e-cigarette"}},"shop/electronics/bork-138e7e":{"name":"Bork","locationSet":{"include":["am","by","kz","ru"]},"geometry":["point","area"],"matchScore":2,"terms":["bork"],"tags":{"brand:wikidata":"Q4035327","shop":"electronics"},"addTags":{"brand":"Bork","brand:wikidata":"Q4035327","name":"Bork","shop":"electronics"}},"shop/electronics/dns-71b2fd":{"name":"DNS","locationSet":{"include":["ru"]},"geometry":["point","area"],"matchScore":2,"terms":["dns","днс"],"tags":{"brand:wikidata":"Q4036922","shop":"electronics"},"addTags":{"alt_name":"ДНС","brand":"DNS","brand:en":"DNS","brand:ru":"ДНС","brand:wikidata":"Q4036922","name":"DNS","name:en":"DNS","name:ru":"ДНС","shop":"electronics"}},"shop/electronics/restore-71b2fd":{"name":"re:Store","locationSet":{"include":["ru"]},"geometry":["point","area"],"matchScore":2,"terms":["re:store"],"tags":{"brand:wikidata":"Q7486956","shop":"electronics"},"addTags":{"brand":"re:Store","brand:wikidata":"Q7486956","name":"re:Store","shop":"electronics"}},"shop/electronics/mvideo-71b2fd":{"name":"М.Видео","locationSet":{"include":["ru"]},"geometry":["point","area"],"matchScore":2,"terms":["m.video","m.видео","м.видео"],"tags":{"brand:wikidata":"Q6558800","shop":"electronics"},"addTags":{"brand":"М.Видео","brand:en":"M.video","brand:wikidata":"Q6558800","name":"М.Видео","name:en":"M.video","shop":"electronics"}},"shop/electronics/66795d-71b2fd":{"name":"Ситилинк","locationSet":{"include":["ru"]},"geometry":["point","area"],"matchScore":2,"terms":["ситилинк"],"tags":{"brand:wikidata":"Q16698091","shop":"electronics"},"addTags":{"brand":"Ситилинк","brand:wikidata":"Q16698091","name":"Ситилинк","shop":"electronics"}},"shop/electronics/expert-71b2fd":{"name":"Эксперт","locationSet":{"include":["ru"]},"geometry":["point","area"],"matchScore":2,"terms":["expert","эксперт"],"tags":{"brand:wikidata":"Q4530590","shop":"electronics"},"addTags":{"brand":"Эксперт","brand:en":"Expert","brand:ru":"Эксперт","brand:wikidata":"Q4530590","name":"Эксперт","name:en":"Expert","name:ru":"Эксперт","shop":"electronics"}},"shop/electronics/d6f3ca-71b2fd":{"name":"Эльдорадо","locationSet":{"include":["ru"]},"geometry":["point","area"],"matchScore":2,"terms":["эльдорадо"],"searchable":false,"tags":{"brand:wikidata":"Q4531492","shop":"electronics"},"addTags":{"brand":"Эльдорадо","brand:wikidata":"Q4531492","name":"Эльдорадо","shop":"electronics"}},"shop/erotic/pinkrabbit-d62b6e":{"name":"Розовый кролик","locationSet":{"include":["ru"]},"geometry":["point","area"],"matchScore":2,"terms":["pink rabbit","розовый кролик"],"tags":{"brand:wikidata":"Q110236679","shop":"erotic"},"addTags":{"brand":"Розовый кролик","brand:en":"Pink Rabbit","brand:wikidata":"Q110236679","name":"Розовый кролик","name:en":"Pink Rabbit","shop":"erotic"}},"shop/fashion_accessories/accessorize-8a0f0d":{"name":"Accessorize","locationSet":{"include":["gb","it","ru"]},"geometry":["point","area"],"matchScore":2,"terms":["accessorize"],"tags":{"brand:wikidata":"Q65007482","shop":"fashion_accessories"},"addTags":{"brand":"Accessorize","brand:wikidata":"Q65007482","name":"Accessorize","shop":"fashion_accessories"}},"shop/florist/04679a-1841ed":{"name":"Мосцветторг","locationSet":{"include":["ru"]},"geometry":["point","area"],"matchScore":2,"terms":["мосцветторг"],"tags":{"brand:wikidata":"Q110253943","shop":"florist"},"addTags":{"brand":"Мосцветторг","brand:wikidata":"Q110253943","name":"Мосцветторг","shop":"florist"}},"shop/florist/dfec3b-1841ed":{"name":"Оранж","locationSet":{"include":["ru"]},"geometry":["point","area"],"matchScore":2,"terms":["оранж"],"tags":{"brand:wikidata":"Q110253936","shop":"florist"},"addTags":{"brand":"Оранж","brand:wikidata":"Q110253936","name":"Оранж","shop":"florist"}},"shop/florist/307c8d-1841ed":{"name":"Цветовик","locationSet":{"include":["ru"]},"geometry":["point","area"],"matchScore":2,"terms":["цветовик"],"tags":{"brand:wikidata":"Q110253962","shop":"florist"},"addTags":{"brand":"Цветовик","brand:wikidata":"Q110253962","name":"Цветовик","shop":"florist"}},"shop/florist/c46356-1841ed":{"name":"ЦветОптТорг","locationSet":{"include":["ru"]},"geometry":["point","area"],"matchScore":2,"terms":["цветоптторг"],"tags":{"brand:wikidata":"Q110254004","shop":"florist"},"addTags":{"brand":"ЦветОптТорг","brand:wikidata":"Q110254004","name":"ЦветОптТорг","shop":"florist"}},"shop/furniture/askona-e999c2":{"name":"Askona","locationSet":{"include":["ru"]},"geometry":["point","area"],"matchScore":2,"terms":["askona"],"tags":{"brand:wikidata":"Q4071319","shop":"furniture"},"addTags":{"brand":"Askona","brand:wikidata":"Q4071319","name":"Askona","shop":"furniture"}},"shop/furniture/bolia-a18722":{"name":"Bolia","locationSet":{"include":["by","bg","cz","hu","pl","md","ro","ru","sk","ua","ax","gg","je","cq","dk","ee","fo","fi","is","ie","im","lv","lt","no","sj","se","gb","al","ad","ba","hr","gi","gr","va","it","mt","me","mk","pt","sm","rs","si","es","xk","at","be","fr","de","li","lu","mc","nl","ch"]},"geometry":["point","area"],"matchScore":2,"terms":["bolia"],"tags":{"brand:wikidata":"Q11961809","shop":"furniture"},"addTags":{"brand":"Bolia","brand:wikidata":"Q11961809","name":"Bolia","shop":"furniture"}},"shop/furniture/momax-a18722":{"name":"Mömax","locationSet":{"include":["by","bg","cz","hu","pl","md","ro","ru","sk","ua","ax","gg","je","cq","dk","ee","fo","fi","is","ie","im","lv","lt","no","sj","se","gb","al","ad","ba","hr","gi","gr","va","it","mt","me","mk","pt","sm","rs","si","es","xk","at","be","fr","de","li","lu","mc","nl","ch"]},"geometry":["point","area"],"matchScore":2,"terms":["mömax"],"tags":{"brand:wikidata":"Q56388481","shop":"furniture"},"addTags":{"brand":"Mömax","brand:wikidata":"Q56388481","name":"Mömax","shop":"furniture"}},"shop/furniture/xxxlutz-5acc6e":{"name":"XXXLutz","locationSet":{"include":["by","bg","cz","hu","pl","md","ro","ru","sk","ua","ax","gg","je","cq","dk","ee","fo","fi","is","ie","im","lv","lt","no","sj","se","gb","al","ad","ba","hr","gi","gr","va","it","mt","me","mk","pt","sm","rs","si","es","xk","at","be","fr","de","li","lu","mc","nl","ch"],"exclude":["bg"]},"geometry":["point","area"],"matchScore":2,"terms":["xxxlutz"],"tags":{"brand:wikidata":"Q70339467","shop":"furniture"},"addTags":{"brand":"XXXLutz","brand:wikidata":"Q70339467","name":"XXXLutz","shop":"furniture"}},"shop/furniture/c3b771-e999c2":{"name":"Много мебели","locationSet":{"include":["ru"]},"geometry":["point","area"],"matchScore":2,"terms":["много мебели"],"tags":{"brand:wikidata":"Q18404893","shop":"furniture"},"addTags":{"brand":"Много мебели","brand:wikidata":"Q18404893","name":"Много мебели","shop":"furniture"}},"shop/hardware/220volt-8cf3c0":{"name":"220 вольт","locationSet":{"include":["by","ru"]},"geometry":["point","area"],"matchScore":2,"terms":["220 volt","220 вольт"],"tags":{"brand:wikidata":"Q18635304","shop":"hardware"},"addTags":{"brand":"220 вольт","brand:en":"220 Volt","brand:ru":"220 вольт","brand:wikidata":"Q18635304","name":"220 вольт","name:en":"220 Volt","name:ru":"220 вольт","shop":"hardware"}},"shop/hardware/80451d-72d7fa":{"name":"ВсеИнструменты.ру","locationSet":{"include":["ru"]},"geometry":["point","area"],"matchScore":2,"terms":["все инструменты","всеинструменты.ру"],"tags":{"brand:wikidata":"Q110278982","shop":"hardware"},"addTags":{"brand":"ВсеИнструменты.ру","brand:wikidata":"Q110278982","name":"ВсеИнструменты.ру","shop":"hardware"}},"shop/hardware/ce81f6-72d7fa":{"name":"Галамарт","locationSet":{"include":["ru"]},"geometry":["point","area"],"matchScore":2,"terms":["галамарт"],"tags":{"brand:wikidata":"Q109852014","shop":"hardware"},"addTags":{"brand":"Галамарт","brand:wikidata":"Q109852014","name":"Галамарт","shop":"hardware"}},"shop/hardware/210906-72d7fa":{"name":"Метизы","locationSet":{"include":["ru"]},"geometry":["point","area"],"matchScore":2,"terms":["метизы"],"tags":{"brand:wikidata":"Q105763146","shop":"hardware"},"addTags":{"brand":"Метизы","brand:wikidata":"Q105763146","name":"Метизы","shop":"hardware"}},"shop/hardware/364320-72d7fa":{"name":"Мосхозторг","locationSet":{"include":["ru"]},"geometry":["point","area"],"matchScore":2,"terms":["мосхозторг"],"tags":{"brand:wikidata":"Q62499092","shop":"hardware"},"addTags":{"brand":"Мосхозторг","brand:wikidata":"Q62499092","name":"Мосхозторг","shop":"hardware"}},"shop/houseware/gipfel-4a99db":{"name":"Gipfel","locationSet":{"include":["ru"]},"geometry":["point","area"],"matchScore":2,"terms":["gipfel"],"tags":{"brand:wikidata":"Q110083748","shop":"houseware"},"addTags":{"brand":"Gipfel","brand:wikidata":"Q110083748","name":"Gipfel","shop":"houseware"}},"shop/houseware/579b3e-4a99db":{"name":"Домовой","locationSet":{"include":["ru"]},"geometry":["point","area"],"matchScore":2,"terms":["домовой"],"tags":{"brand:wikidata":"Q110086700","shop":"houseware"},"addTags":{"brand":"Домовой","brand:wikidata":"Q110086700","name":"Домовой","shop":"houseware"}},"shop/houseware/imperialporcelainfactory-4a99db":{"name":"Императорский фарфоровый завод","locationSet":{"include":["ru"]},"geometry":["point","area"],"matchScore":2,"terms":["fábrica imperial de porcelana","imperial porcelain factory","manufacture de lomonossov","porcellana di san pietroburgo","императорский фарфор","императорский фарфоровый завод","імператарскі фарфоравы завод","імператорський порцеляновий завод","בית החרושת הקיסרי לחרסינה","مصنع الخزف الإمبراطوري","帝国磁器工場"],"tags":{"brand:wikidata":"Q1303887","shop":"houseware"},"addTags":{"brand":"Императорский фарфоровый завод","brand:ar":"مصنع الخزف الإمبراطوري","brand:be":"Імператарскі фарфоравы завод","brand:en":"Imperial Porcelain Factory","brand:es":"Fábrica Imperial de Porcelana","brand:fr":"Manufacture de Lomonossov","brand:he":"בית החרושת הקיסרי לחרסינה","brand:it":"Porcellana di San Pietroburgo","brand:ja":"帝国磁器工場","brand:ru":"Императорский фарфоровый завод","brand:uk":"Імператорський порцеляновий завод","brand:wikidata":"Q1303887","name":"Императорский фарфоровый завод","name:ar":"مصنع الخزف الإمبراطوري","name:be":"Імператарскі фарфоравы завод","name:en":"Imperial Porcelain Factory","name:es":"Fábrica Imperial de Porcelana","name:fr":"Manufacture de Lomonossov","name:he":"בית החרושת הקיסרי לחרסינה","name:it":"Porcellana di San Pietroburgo","name:ja":"帝国磁器工場","name:ru":"Императорский фарфоровый завод","name:uk":"Імператорський порцеляновий завод","shop":"houseware"}},"shop/jewelry/hstern-5f2e62":{"name":"H. Stern","locationSet":{"include":["ar","br","fr","gb","il","mx","pe","ru","us"]},"geometry":["point","area"],"matchScore":2,"terms":["h. stern"],"tags":{"brand:wikidata":"Q2660388","shop":"jewelry"},"addTags":{"brand":"H. Stern","brand:wikidata":"Q2660388","name":"H. Stern","shop":"jewelry"}},"shop/jewelry/adamas-ee45ea":{"name":"Адамас","locationSet":{"include":["ru"]},"geometry":["point","area"],"matchScore":2,"terms":["adamas","адамас"],"tags":{"brand:wikidata":"Q62393709","shop":"jewelry"},"addTags":{"brand":"Адамас","brand:en":"Adamas","brand:ru":"Адамас","brand:wikidata":"Q62393709","name":"Адамас","name:en":"Adamas","name:ru":"Адамас","shop":"jewelry"}},"shop/kitchen/ixina-d089d8":{"name":"Ixina","locationSet":{"include":["ae","au","be","bf","bh","bj","ca","ci","cm","cn","cz","dz","ee","eg","fr","gh","hr","ke","kw","lu","ly","ma","mu","nl","pl","qa","ro","ru","sa","se","sn","tg","th","tn","vn"]},"geometry":["point","area"],"matchScore":2,"terms":["ixina"],"tags":{"brand:wikidata":"Q3156424","shop":"kitchen"},"addTags":{"brand":"Ixina","brand:wikidata":"Q3156424","name":"Ixina","shop":"kitchen"}},"shop/mall/mega-d413e2":{"name":"МЕГА","locationSet":{"include":["ru"]},"geometry":["point","area"],"matchScore":2,"terms":["mega","мега","тц мега"],"fields":["name","brand","{shop/mall}"],"tags":{"brand:wikidata":"Q624897","shop":"mall"},"addTags":{"brand":"МЕГА","brand:en":"MEGA","brand:ru":"МЕГА","brand:wikidata":"Q624897","shop":"mall"}},"shop/medical_supply/823e1f-d15566":{"name":"Ортека","locationSet":{"include":["ru"]},"geometry":["point","area"],"matchScore":2,"terms":["ортека"],"tags":{"brand:wikidata":"Q62393660","shop":"medical_supply"},"addTags":{"brand":"Ортека","brand:wikidata":"Q62393660","name":"Ортека","shop":"medical_supply"}},"shop/mobile_phone/beeline-3f097a":{"name":"Билайн","locationSet":{"include":["kg","kz","ru"]},"geometry":["point","area"],"matchScore":2,"terms":["beeline","билайн"],"tags":{"brand:wikidata":"Q402880","shop":"mobile_phone"},"addTags":{"brand":"Билайн","brand:en":"Beeline","brand:wikidata":"Q402880","name":"Билайн","name:en":"Beeline","shop":"mobile_phone"}},"shop/mobile_phone/euroset-62982a":{"name":"Евросеть","locationSet":{"include":["by","kz","ru"]},"geometry":["point","area"],"matchScore":2,"terms":["euroset","евросеть"],"searchable":false,"tags":{"brand:wikidata":"Q65310","shop":"mobile_phone"},"addTags":{"brand":"Евросеть","brand:en":"Euroset","brand:wikidata":"Q65310","name":"Евросеть","name:en":"Euroset","shop":"mobile_phone"}},"shop/mobile_phone/megafon-18f86b":{"name":"Мегафон","locationSet":{"include":["ru","tj"]},"geometry":["point","area"],"matchScore":2,"terms":["megafon","мегафон"],"tags":{"brand:wikidata":"Q1720713","shop":"mobile_phone"},"addTags":{"brand":"Мегафон","brand:en":"MegaFon","brand:wikidata":"Q1720713","name":"Мегафон","name:en":"MegaFon","shop":"mobile_phone"}},"shop/mobile_phone/mts-3162ba":{"name":"МТС","locationSet":{"include":["by","ru"]},"geometry":["point","area"],"matchScore":2,"terms":["mts","мтс"],"tags":{"brand:wikidata":"Q1368919","shop":"mobile_phone"},"addTags":{"brand":"МТС","brand:en":"MTS","brand:wikidata":"Q1368919","name":"МТС","name:en":"MTS","shop":"mobile_phone"}},"shop/mobile_phone/svyaznoy-fee8f4":{"name":"Связной","locationSet":{"include":["by","ru","uz"]},"geometry":["point","area"],"matchScore":2,"terms":["svyaznoy","связной"],"tags":{"brand:wikidata":"Q65371","shop":"mobile_phone"},"addTags":{"brand":"Связной","brand:en":"Svyaznoy","brand:wikidata":"Q65371","name":"Связной","name:en":"Svyaznoy","shop":"mobile_phone"}},"shop/mobile_phone/tele2-2c407d":{"name":"Теле2","locationSet":{"include":["ru"]},"geometry":["point","area"],"matchScore":2,"terms":["tele2","теле2"],"tags":{"brand:wikidata":"Q309865","shop":"mobile_phone"},"addTags":{"brand":"Теле2","brand:en":"Tele2","brand:wikidata":"Q309865","name":"Теле2","name:en":"Tele2","shop":"mobile_phone"}},"shop/newsagent/f363b9-313f17":{"name":"Первая полоса","locationSet":{"include":["ru"]},"geometry":["point","area"],"matchScore":2,"terms":["первая полоса"],"tags":{"brand:wikidata":"Q62736412","shop":"newsagent"},"addTags":{"brand":"Первая полоса","brand:wikidata":"Q62736412","name":"Первая полоса","shop":"newsagent"}},"shop/newsagent/6aba18-313f17":{"name":"Союзпечать","locationSet":{"include":["ru"]},"geometry":["point","area"],"matchScore":2,"terms":["союзпечать"],"searchable":false,"tags":{"brand:wikidata":"Q4430611","shop":"newsagent"},"addTags":{"brand":"Союзпечать","brand:wikidata":"Q4430611","name":"Союзпечать","shop":"newsagent"}},"shop/optician/fielmann-f003f4":{"name":"fielmann","locationSet":{"include":["at","by","ch","de","it","lt","lu","lv","nl","pl","ru","ua"]},"geometry":["point","area"],"matchScore":2,"terms":["fielmann"],"fields":["name","brand","{shop/optician}"],"tags":{"brand:wikidata":"Q457822","shop":"optician"},"addTags":{"brand":"Fielmann","brand:wikidata":"Q457822","name":"Fielmann","shop":"optician"}},"shop/optician/deb319-103edc":{"name":"Счастливый взгляд","locationSet":{"include":["ru"]},"geometry":["point","area"],"matchScore":2,"terms":["счастливый взгляд"],"fields":["name","brand","{shop/optician}"],"tags":{"brand:wikidata":"Q110084835","shop":"optician"},"addTags":{"brand":"Счастливый взгляд","brand:wikidata":"Q110084835","name":"Счастливый взгляд","shop":"optician"}},"shop/outdoor/jackwolfskin-5feed5":{"name":"Jack Wolfskin","locationSet":{"include":["at","be","ch","de","fr","gb","it","nl","pl","ru","ua"]},"geometry":["point","area"],"matchScore":2,"terms":["jack wolfskin"],"tags":{"brand:wikidata":"Q536133","shop":"outdoor"},"addTags":{"brand":"Jack Wolfskin","brand:wikidata":"Q536133","name":"Jack Wolfskin","shop":"outdoor"}},"shop/outpost/lamoda-968c70":{"name":"Lamoda","locationSet":{"include":["ru"]},"geometry":["point","area"],"matchScore":2,"terms":["lamoda"],"tags":{"brand:wikidata":"Q97658635","shop":"outpost"},"addTags":{"brand":"Lamoda","brand:wikidata":"Q97658635","name":"Lamoda","shop":"outpost"}},"shop/outpost/ozon-968c70":{"name":"Ozon","locationSet":{"include":["ru"]},"geometry":["point","area"],"matchScore":2,"terms":["ozon"],"tags":{"brand:wikidata":"Q2365235","shop":"outpost"},"addTags":{"brand":"Ozon","brand:wikidata":"Q2365235","name":"Ozon","shop":"outpost"}},"shop/outpost/wildberries-f8825b":{"name":"Wildberries","locationSet":{"include":["am","by","kg","kz","ru","uz"]},"geometry":["point","area"],"matchScore":2,"terms":["wildberries"],"tags":{"brand:wikidata":"Q24933714","shop":"outpost"},"addTags":{"brand":"Wildberries","brand:wikidata":"Q24933714","name":"Wildberries","shop":"outpost"}},"shop/outpost/yandexmarket-968c70":{"name":"Яндекс.Маркет","locationSet":{"include":["ru"]},"geometry":["point","area"],"matchScore":2,"terms":["yandex.market","яндекс.маркет"],"tags":{"brand:wikidata":"Q4537982","shop":"outpost"},"addTags":{"brand":"Яндекс.Маркет","brand:en":"Yandex.Market","brand:ru":"Яндекс.Маркет","brand:wikidata":"Q4537982","name":"Яндекс.Маркет","name:en":"Yandex.Market","name:ru":"Яндекс.Маркет","shop":"outpost"}},"shop/pet/petshopru-13b7f6":{"name":"Petshop.ru","locationSet":{"include":["ru"]},"geometry":["point","area"],"matchScore":2,"terms":["petshop.ru"],"tags":{"brand:wikidata":"Q109947790","shop":"pet"},"addTags":{"brand":"Petshop.ru","brand:wikidata":"Q109947790","name":"Petshop.ru","shop":"pet"}},"shop/pet/90c94e-13b7f6":{"name":"Бетховен","locationSet":{"include":["ru"]},"geometry":["point","area"],"matchScore":2,"terms":["бетховен"],"tags":{"brand:wikidata":"Q62390798","shop":"pet"},"addTags":{"brand":"Бетховен","brand:wikidata":"Q62390798","name":"Бетховен","shop":"pet"}},"shop/pet/353ff5-13b7f6":{"name":"Золотая рыбка","locationSet":{"include":["ru"]},"geometry":["point","area"],"matchScore":2,"terms":["золотая рыбка"],"tags":{"brand:wikidata":"Q110775004","shop":"pet"},"addTags":{"brand":"Золотая рыбка","brand:wikidata":"Q110775004","name":"Золотая рыбка","shop":"pet"}},"shop/pet/56262d-13b7f6":{"name":"Ле'Муррр","locationSet":{"include":["ru"]},"geometry":["point","area"],"matchScore":2,"terms":["ле'муррр","лемур"],"tags":{"brand:wikidata":"Q109970786","shop":"pet"},"addTags":{"brand":"Ле'Муррр","brand:wikidata":"Q109970786","name":"Ле'Муррр","shop":"pet"}},"shop/pet/42195e-8e284e":{"name":"Четыре лапы","locationSet":{"include":["kz","ru"]},"geometry":["point","area"],"matchScore":2,"terms":["четыре лапы"],"tags":{"brand:wikidata":"Q62390783","shop":"pet"},"addTags":{"brand":"Четыре лапы","brand:wikidata":"Q62390783","name":"Четыре лапы","shop":"pet"}},"shop/photo/88710c-2b82bd":{"name":"Яркий фотомаркет","locationSet":{"include":["ru"]},"geometry":["point","area"],"matchScore":2,"terms":["яркий фотомаркет"],"tags":{"brand:wikidata":"Q109945842","shop":"photo"},"addTags":{"brand":"Яркий фотомаркет","brand:wikidata":"Q109945842","name":"Яркий фотомаркет","shop":"photo"}},"shop/pyrotechnics/rusalut-4c9e23":{"name":"Rusalut","locationSet":{"include":["ru"]},"geometry":["point","area"],"matchScore":2,"terms":["rusalut","русалют"],"tags":{"brand:wikidata":"Q111108391","shop":"pyrotechnics"},"addTags":{"brand":"Rusalut","brand:wikidata":"Q111108391","name":"Rusalut","shop":"pyrotechnics"}},"shop/seafood/oceankamchatkasahalin-93be8b":{"name":"Океан Камчатка Сахалин","locationSet":{"include":["ru"]},"geometry":["point","area"],"matchScore":2,"terms":["ocean kamchatka sahalin","дикий океан","океан","океан камчатка сахалин"],"tags":{"brand:wikidata":"Q111108872","shop":"seafood"},"addTags":{"brand":"Океан Камчатка Сахалин","brand:wikidata":"Q111108872","name":"Океан Камчатка Сахалин","name:en":"Ocean Kamchatka Sahalin","shop":"seafood"}},"shop/shoes/belwest-886255":{"name":"Belwest","locationSet":{"include":["by","ru"]},"geometry":["point","area"],"matchScore":2,"terms":["belwest","белвест"],"tags":{"brand:wikidata":"Q4081686","shop":"shoes"},"addTags":{"brand":"Belwest","brand:wikidata":"Q4081686","name":"Belwest","shop":"shoes"}},"shop/shoes/jonak-dff267":{"name":"Jonak","locationSet":{"include":["fr","ru"]},"geometry":["point","area"],"matchScore":2,"terms":["jonak"],"tags":{"brand:wikidata":"Q105372529","shop":"shoes"},"addTags":{"brand":"Jonak","brand:wikidata":"Q105372529","name":"Jonak","shop":"shoes"}},"shop/shoes/marko-886255":{"name":"Marko","locationSet":{"include":["by","ru"]},"geometry":["point","area"],"matchScore":2,"terms":["marko","марко"],"tags":{"brand:wikidata":"Q4281995","shop":"shoes"},"addTags":{"brand":"Marko","brand:wikidata":"Q4281995","name":"Marko","name:ru":"Марко","shop":"shoes"}},"shop/shoes/mascotte-0a14c2":{"name":"Mascotte","locationSet":{"include":["ru"]},"geometry":["point","area"],"matchScore":2,"terms":["mascotte"],"tags":{"brand:wikidata":"Q110290936","shop":"shoes"},"addTags":{"brand":"Mascotte","brand:wikidata":"Q110290936","name":"Mascotte","shop":"shoes"}},"shop/shoes/ralfringer-0a14c2":{"name":"Ralf Ringer","locationSet":{"include":["ru"]},"geometry":["point","area"],"matchScore":2,"terms":["ralf ringer"],"tags":{"brand:wikidata":"Q86677914","shop":"shoes"},"addTags":{"brand":"Ralf Ringer","brand:wikidata":"Q86677914","name":"Ralf Ringer","shop":"shoes"}},"shop/shoes/6c57c6-886255":{"name":"ЦентрОбувь","locationSet":{"include":["by","ru"]},"geometry":["point","area"],"matchScore":2,"terms":["центробувь"],"searchable":false,"tags":{"brand:wikidata":"Q4504072","shop":"shoes"},"addTags":{"brand":"ЦентрОбувь","brand:wikidata":"Q4504072","name":"ЦентрОбувь","shop":"shoes"}},"shop/shoes/b94bbd-2bb834":{"name":"Эконика","locationSet":{"include":["kz","ru"]},"geometry":["point","area"],"matchScore":2,"terms":["эконика"],"tags":{"brand:wikidata":"Q110246884","shop":"shoes"},"addTags":{"brand":"Эконика","brand:wikidata":"Q110246884","name":"Эконика","shoes":"women","shop":"shoes"}},"shop/shoes/fa8d5a-2bb834":{"name":"Юничел","locationSet":{"include":["kz","ru"]},"geometry":["point","area"],"matchScore":2,"terms":["юничел"],"tags":{"brand:wikidata":"Q62390569","shop":"shoes"},"addTags":{"brand":"Юничел","brand:wikidata":"Q62390569","name":"Юничел","shop":"shoes"}},"shop/sports/4f-723a68":{"name":"4F","locationSet":{"include":["cz","de","lt","lv","ro","ru","sk","ua"]},"geometry":["point","area"],"matchScore":2,"terms":["4f"],"tags":{"brand:wikidata":"Q16525801","shop":"sports"},"addTags":{"brand":"4F","brand:wikidata":"Q16525801","name":"4F","shop":"sports"}},"shop/sports/decathlon-795fa6":{"name":"Декатлон","locationSet":{"include":["ru","ua"]},"geometry":["point","area"],"matchScore":2,"terms":["decathlon","декатлон"],"tags":{"brand:wikidata":"Q509349","shop":"sports"},"addTags":{"brand":"Декатлон","brand:en":"Decathlon","brand:ru":"Декатлон","brand:wikidata":"Q509349","name":"Декатлон","name:en":"Decathlon","name:ru":"Декатлон","shop":"sports"}},"shop/sports/sportmaster-1e138a":{"name":"Спортмастер","locationSet":{"include":["by","kz","ru"]},"geometry":["point","area"],"matchScore":2,"terms":["sportmaster","спортмастер","спортмастер гипер"],"tags":{"brand:wikidata":"Q4438176","shop":"sports"},"addTags":{"brand":"Спортмастер","brand:en":"Sportmaster","brand:ru":"Спортмастер","brand:wikidata":"Q4438176","name":"Спортмастер","name:en":"Sportmaster","name:ru":"Спортмастер","shop":"sports"}},"shop/stationery/komus-b8bb59":{"name":"Комус","locationSet":{"include":["ru"]},"geometry":["point","area"],"matchScore":2,"terms":["komus","комус"],"tags":{"brand:wikidata":"Q4230314","shop":"stationery"},"addTags":{"brand":"Комус","brand:en":"Komus","brand:wikidata":"Q4230314","name":"Комус","name:en":"Komus","shop":"stationery"}},"shop/supermarket/eurospar-4b5e11":{"name":"Eurospar","locationSet":{"include":["by","bg","cz","hu","pl","md","ro","ru","sk","ua","ax","gg","je","cq","dk","ee","fo","fi","is","ie","im","lv","lt","no","sj","se","gb","al","ad","ba","hr","gi","gr","va","it","mt","me","mk","pt","sm","rs","si","es","xk","at","be","fr","de","li","lu","mc","nl","ch"]},"geometry":["point","area"],"matchScore":2,"terms":["eurospar"],"tags":{"brand:wikidata":"Q12309283","shop":"supermarket"},"addTags":{"brand":"Eurospar","brand:wikidata":"Q12309283","name":"Eurospar","shop":"supermarket"}},"shop/supermarket/globus-2d7d3f":{"name":"Globus","locationSet":{"include":["cz","de","ru"]},"geometry":["point","area"],"matchScore":2,"terms":["globus"],"tags":{"brand:wikidata":"Q457503","shop":"supermarket"},"addTags":{"brand":"Globus","brand:wikidata":"Q457503","name":"Globus","shop":"supermarket"}},"shop/supermarket/halpahalli-c9c76a":{"name":"HalpaHalli","locationSet":{"include":["ee","fi","ru"]},"geometry":["point","area"],"matchScore":2,"terms":["halpahalli"],"tags":{"brand:wikidata":"Q11861256","shop":"supermarket"},"addTags":{"brand":"HalpaHalli","brand:wikidata":"Q11861256","name":"HalpaHalli","shop":"supermarket"}},"shop/supermarket/prisma-c9c76a":{"name":"Prisma","locationSet":{"include":["ee","fi","ru"]},"geometry":["point","area"],"matchScore":2,"terms":["prisma"],"tags":{"brand:wikidata":"Q12047031","shop":"supermarket"},"addTags":{"brand":"Prisma","brand:wikidata":"Q12047031","name":"Prisma","shop":"supermarket"}},"shop/supermarket/6784df-d5eaac":{"name":"Абсолют (Россия)","locationSet":{"include":["ru"]},"geometry":["point","area"],"matchScore":2,"terms":["абсолют"],"tags":{"brand:wikidata":"Q62389597","shop":"supermarket"},"addTags":{"brand":"Абсолют","brand:wikidata":"Q62389597","name":"Абсолют","shop":"supermarket"}},"shop/supermarket/azbukavkusa-d5eaac":{"name":"Азбука Вкуса","locationSet":{"include":["ru"]},"geometry":["point","area"],"matchScore":2,"terms":["azbuka vkusa","азбука вкуса"],"tags":{"brand:wikidata":"Q4058209","shop":"supermarket"},"addTags":{"brand":"Азбука Вкуса","brand:en":"Azbuka Vkusa","brand:ru":"Азбука Вкуса","brand:wikidata":"Q4058209","name":"Азбука Вкуса","name:en":"Azbuka Vkusa","name:ru":"Азбука Вкуса","shop":"supermarket"}},"shop/supermarket/atac-d5eaac":{"name":"Атак","locationSet":{"include":["ru"]},"geometry":["point","area"],"matchScore":2,"terms":["atac","атак"],"tags":{"brand:wikidata":"Q2868738","shop":"supermarket"},"addTags":{"brand":"Атак","brand:en":"Atac","brand:wikidata":"Q2868738","name":"Атак","name:en":"Atac","shop":"supermarket"}},"shop/supermarket/auchan-d5eaac":{"name":"Ашан","locationSet":{"include":["ru"]},"geometry":["point","area"],"matchScore":2,"terms":["auchan","ашан"],"tags":{"brand:wikidata":"Q110053013","shop":"supermarket"},"addTags":{"brand":"Ашан","brand:en":"Auchan","brand:ru":"Ашан","brand:wikidata":"Q110053013","name":"Ашан","name:en":"Auchan","name:ru":"Ашан","shop":"supermarket"}},"shop/supermarket/5a1923-d5eaac":{"name":"Верный","locationSet":{"include":["ru"]},"geometry":["point","area"],"matchScore":2,"terms":["верный"],"tags":{"brand:wikidata":"Q110037370","shop":"supermarket"},"addTags":{"brand":"Верный","brand:wikidata":"Q110037370","name":"Верный","shop":"supermarket"}},"shop/supermarket/9034b8-d5eaac":{"name":"Виктория","locationSet":{"include":["ru"]},"geometry":["point","area"],"matchScore":2,"terms":["виктория"],"tags":{"brand:wikidata":"Q4111046","shop":"supermarket"},"addTags":{"brand":"Виктория","brand:wikidata":"Q4111046","name":"Виктория","shop":"supermarket"}},"shop/supermarket/groserov-d5eaac":{"name":"Гросеров","locationSet":{"include":["ru"]},"geometry":["point","area"],"matchScore":2,"terms":["groserov","гросеров"],"tags":{"brand:wikidata":"Q112764775","shop":"supermarket"},"addTags":{"brand":"Гросеров","brand:en":"Groserov","brand:ru":"Гросеров","brand:wikidata":"Q112764775","name":"Гросеров","name:en":"Groserov","name:ru":"Гросеров","shop":"supermarket"}},"shop/supermarket/40c23e-d5eaac":{"name":"Гулливер","locationSet":{"include":["ru"]},"geometry":["point","area"],"matchScore":2,"terms":["гулливер"],"tags":{"brand:wikidata":"Q58003470","shop":"supermarket"},"addTags":{"brand":"Гулливер","brand:wikidata":"Q58003470","name":"Гулливер","shop":"supermarket"}},"shop/supermarket/desyatochka-d5eaac":{"name":"Десяточка","locationSet":{"include":["ru"]},"geometry":["point","area"],"matchScore":2,"terms":["desyatochka","десяточка"],"tags":{"brand:wikidata":"Q61876182","shop":"supermarket"},"addTags":{"brand":"Десяточка","brand:en":"Desyatochka","brand:wikidata":"Q61876182","name":"Десяточка","shop":"supermarket"}},"shop/supermarket/dixy-d5eaac":{"name":"Дикси","locationSet":{"include":["ru"]},"geometry":["point","area"],"matchScore":2,"terms":["dixy","дикси"],"tags":{"brand:wikidata":"Q4161561","shop":"supermarket"},"addTags":{"brand":"Дикси","brand:en":"Dixy","brand:wikidata":"Q4161561","name":"Дикси","shop":"supermarket"}},"shop/supermarket/karusel-d5eaac":{"name":"Карусель","locationSet":{"include":["ru"]},"geometry":["point","area"],"matchScore":2,"terms":["karusel","карусель"],"searchable":false,"tags":{"brand:wikidata":"Q4216307","shop":"supermarket"},"addTags":{"brand":"Карусель","brand:en":"Karusel","brand:wikidata":"Q4216307","name":"Карусель","name:en":"Karusel","shop":"supermarket"}},"shop/supermarket/87ac35-d5eaac":{"name":"Кировский","locationSet":{"include":["ru"]},"geometry":["point","area"],"matchScore":2,"terms":["кировский"],"tags":{"brand:wikidata":"Q63301903","shop":"supermarket"},"addTags":{"brand":"Кировский","brand:wikidata":"Q63301903","name":"Кировский","shop":"supermarket"}},"shop/supermarket/komandor-d5eaac":{"name":"Командор","locationSet":{"include":["ru"]},"geometry":["point","area"],"matchScore":2,"terms":["komandor","командор"],"tags":{"brand:wikidata":"Q61876152","shop":"supermarket"},"addTags":{"brand":"Командор","brand:en":"Komandor","brand:wikidata":"Q61876152","name":"Командор","shop":"supermarket"}},"shop/supermarket/lenta-d5eaac":{"name":"Лента","locationSet":{"include":["ru"]},"geometry":["point","area"],"matchScore":2,"terms":["billa","lenta","лента"],"tags":{"brand:wikidata":"Q4258608","shop":"supermarket"},"addTags":{"brand":"Лента","brand:en":"Lenta","brand:wikidata":"Q4258608","name":"Лента","name:en":"Lenta","shop":"supermarket"}},"shop/supermarket/mariara-d5eaac":{"name":"Мария-Ра","locationSet":{"include":["ru"]},"geometry":["point","area"],"matchScore":2,"terms":["maria-ra","мария-ра"],"tags":{"brand:wikidata":"Q4281631","shop":"supermarket"},"addTags":{"brand":"Мария-Ра","brand:en":"Maria-ra","brand:wikidata":"Q4281631","name":"Мария-Ра","name:en":"Maria-ra","shop":"supermarket"}},"shop/supermarket/monetka-d5eaac":{"name":"Монетка","locationSet":{"include":["ru"]},"geometry":["point","area"],"matchScore":2,"terms":["monetka","монетка"],"tags":{"brand:wikidata":"Q4301704","shop":"supermarket"},"addTags":{"brand":"Монетка","brand:en":"Monetka","brand:wikidata":"Q4301704","name":"Монетка","name:en":"Monetka","shop":"supermarket"}},"shop/supermarket/okey-d5eaac":{"name":"О\u2019КЕЙ","locationSet":{"include":["ru"]},"geometry":["point","area"],"matchScore":2,"terms":["o\u2019key","о\u2019кей"],"tags":{"brand:wikidata":"Q4340901","shop":"supermarket"},"addTags":{"brand":"О\u2019КЕЙ","brand:en":"O\u2019KEY","brand:ru":"О\u2019КЕЙ","brand:wikidata":"Q4340901","name":"О\u2019КЕЙ","name:en":"O\u2019KEY","name:ru":"О\u2019КЕЙ","shop":"supermarket"}},"shop/supermarket/perekryostok-d5eaac":{"name":"Перекрёсток","locationSet":{"include":["ru"]},"geometry":["point","area"],"matchScore":2,"terms":["perekryostok","перекресток","перекрёсток"],"tags":{"brand:wikidata":"Q1684639","shop":"supermarket"},"addTags":{"brand":"Перекрёсток","brand:en":"Perekryostok","brand:wikidata":"Q1684639","name":"Перекрёсток","shop":"supermarket"}},"shop/supermarket/1019ea-d5eaac":{"name":"Покупочка","locationSet":{"include":["ru"]},"geometry":["point","area"],"matchScore":2,"terms":["покупочка"],"tags":{"brand:wikidata":"Q58003270","shop":"supermarket"},"addTags":{"brand":"Покупочка","brand:wikidata":"Q58003270","name":"Покупочка","shop":"supermarket"}},"shop/supermarket/polushka-d5eaac":{"name":"Полушка","locationSet":{"include":["ru"]},"geometry":["point","area"],"matchScore":2,"terms":["polushka","полушка"],"tags":{"brand:wikidata":"Q4371080","shop":"supermarket"},"addTags":{"brand":"Полушка","brand:en":"Polushka","brand:wikidata":"Q4371080","name":"Полушка","name:en":"Polushka","shop":"supermarket"}},"shop/supermarket/pyaterochka-d5eaac":{"name":"Пятёрочка","locationSet":{"include":["ru"]},"geometry":["point","area"],"matchScore":2,"terms":["pyaterochka","пятерочка","пятёрочка"],"tags":{"brand:wikidata":"Q1768969","shop":"supermarket"},"addTags":{"brand":"Пятёрочка","brand:en":"Pyaterochka","brand:wikidata":"Q1768969","name":"Пятёрочка","name:en":"Pyaterochka","shop":"supermarket"}},"shop/supermarket/radezh-d5eaac":{"name":"Радеж","locationSet":{"include":["ru"]},"geometry":["point","area"],"matchScore":2,"terms":["radezh","радеж"],"tags":{"brand:wikidata":"Q4387165","shop":"supermarket"},"addTags":{"brand":"Радеж","brand:en":"Radezh","brand:wikidata":"Q4387165","name":"Радеж","name:en":"Radezh","shop":"supermarket"}},"shop/supermarket/real-d5eaac":{"name":"РеалЪ","locationSet":{"include":["ru"]},"geometry":["point","area"],"matchScore":2,"terms":["real","реалъ"],"tags":{"brand:wikidata":"Q110037601","shop":"supermarket"},"addTags":{"brand":"РеалЪ","brand:en":"Real","brand:ru":"РеалЪ","brand:wikidata":"Q110037601","name":"РеалЪ","name:en":"Real","name:ru":"РеалЪ","shop":"supermarket"}},"shop/supermarket/svetofor-d5eaac":{"name":"Светофор","locationSet":{"include":["ru"]},"geometry":["point","area"],"matchScore":2,"terms":["svetofor","светофор"],"tags":{"brand:wikidata":"Q61875920","shop":"supermarket"},"addTags":{"brand":"Светофор","brand:en":"Svetofor","brand:wikidata":"Q61875920","name":"Светофор","shop":"supermarket"}},"shop/supermarket/caa815-d5eaac":{"name":"Семишагофф","locationSet":{"include":["ru"]},"geometry":["point","area"],"matchScore":2,"terms":["семишагофф"],"tags":{"brand:wikidata":"Q58003374","shop":"supermarket"},"addTags":{"brand":"Семишагофф","brand:wikidata":"Q58003374","name":"Семишагофф","shop":"supermarket"}},"shop/supermarket/3d44da-d5eaac":{"name":"Чижик","locationSet":{"include":["ru"]},"geometry":["point","area"],"matchScore":2,"terms":["чижик"],"tags":{"brand:wikidata":"Q124171414","shop":"supermarket"},"addTags":{"brand":"Чижик","brand:wikidata":"Q124171414","name":"Чижик","shop":"supermarket"}},"shop/supermarket/edelveis-d5eaac":{"name":"Эдельвейс","locationSet":{"include":["ru"]},"geometry":["point","area"],"matchScore":2,"terms":["edelveis","эдельвейс"],"tags":{"brand:wikidata":"Q57979368","shop":"supermarket"},"addTags":{"brand":"Эдельвейс","brand:en":"Edelveis","brand:wikidata":"Q57979368","name":"Эдельвейс","name:en":"Edelveis","shop":"supermarket"}},"shop/supermarket/yarche-d5eaac":{"name":"Ярче!","locationSet":{"include":["ru"]},"geometry":["point","area"],"matchScore":2,"terms":["yarche!","ярче!"],"tags":{"brand:wikidata":"Q102254456","shop":"supermarket"},"addTags":{"brand":"Ярче!","brand:en":"Yarche!","brand:wikidata":"Q102254456","name":"Ярче!","name:en":"Yarche!","shop":"supermarket"}},"shop/tattoo/veantattoo-eea007":{"name":"VeAn Tattoo","locationSet":{"include":["by","bg","cz","hu","pl","md","ro","ru","sk","ua","ax","gg","je","cq","dk","ee","fo","fi","is","ie","im","lv","lt","no","sj","se","gb","al","ad","ba","hr","gi","gr","va","it","mt","me","mk","pt","sm","rs","si","es","xk","at","be","fr","de","li","lu","mc","nl","ch"]},"geometry":["point","area"],"matchScore":2,"terms":["vean tattoo"],"tags":{"brand:wikidata":"Q116871240","shop":"tattoo"},"addTags":{"brand":"VeAn Tattoo","brand:wikidata":"Q116871240","name":"VeAn Tattoo","shop":"tattoo"}},"shop/tea/palaisdesthes-9d2342":{"name":"Palais des Thés","locationSet":{"include":["be","fr","ge","il","lu","no","ru"]},"geometry":["point","area"],"matchScore":2,"terms":["palais des thés"],"tags":{"brand:wikidata":"Q3225161","shop":"tea"},"addTags":{"brand":"Palais des Thés","brand:wikidata":"Q3225161","name":"Palais des Thés","shop":"tea"}},"shop/tea/cantata-6c79c5":{"name":"Кантата","locationSet":{"include":["ru"]},"geometry":["point","area"],"matchScore":2,"terms":["cantata","кантата"],"tags":{"brand:wikidata":"Q110226292","shop":"tea"},"addTags":{"brand":"Кантата","brand:en":"Cantata","brand:wikidata":"Q110226292","name":"Кантата","name:en":"Cantata","shop":"tea"}},"shop/telecommunication/mts-53a4f1":{"name":"МТС","locationSet":{"include":["by","ru"]},"geometry":["point","area"],"matchScore":2,"terms":["mts","мтс"],"tags":{"brand:wikidata":"Q1368919","shop":"telecommunication"},"addTags":{"brand":"МТС","brand:en":"MTS","brand:wikidata":"Q1368919","name":"МТС","name:en":"MTS","shop":"telecommunication"}},"shop/telecommunication/b6fed5-58655c":{"name":"Ростелеком","locationSet":{"include":["ru"]},"geometry":["point","area"],"matchScore":2,"terms":["ростелеком"],"tags":{"brand:wikidata":"Q1477012","shop":"telecommunication"},"addTags":{"brand":"Ростелеком","brand:wikidata":"Q1477012","name":"Ростелеком","shop":"telecommunication"}},"shop/toys/hamleys-e66b54":{"name":"Hamleys","locationSet":{"include":["gb","in","ru","za"]},"geometry":["point","area"],"matchScore":2,"terms":["hamleys"],"tags":{"brand:wikidata":"Q60299","shop":"toys"},"addTags":{"brand":"Hamleys","brand:wikidata":"Q60299","name":"Hamleys","shop":"toys"}},"shop/toys/begemott-d68103":{"name":"Бегемотик","locationSet":{"include":["ru"]},"geometry":["point","area"],"matchScore":2,"terms":["begemott","бегемотик"],"tags":{"brand:wikidata":"Q111023729","shop":"toys"},"addTags":{"brand":"Бегемотик","brand:wikidata":"Q111023729","name":"Бегемотик","name:en":"Begemott","shop":"toys"}},"shop/toys/korablik-d68103":{"name":"Кораблик","locationSet":{"include":["ru"]},"geometry":["point","area"],"matchScore":2,"terms":["korablik","кораблик"],"tags":{"brand:wikidata":"Q57653416","shop":"toys"},"addTags":{"brand":"Кораблик","brand:wikidata":"Q57653416","name":"Кораблик","name:en":"Korablik","shop":"toys"}},"shop/travel_agency/coraltravel-45eb20":{"name":"Coral Travel","locationSet":{"include":["pl","ru","ua"]},"geometry":["point","area"],"matchScore":2,"terms":["coral travel"],"tags":{"brand:wikidata":"Q58011479","shop":"travel_agency"},"addTags":{"brand":"Coral Travel","brand:wikidata":"Q58011479","name":"Coral Travel","shop":"travel_agency"}},"shop/tyres/tyreplus-99cc81":{"name":"Tyreplus","locationSet":{"include":["ae","au","bh","cn","id","kh","kw","my","om","ph","qa","ru","sa","sg","th","tw"]},"geometry":["point","area"],"matchScore":2,"terms":["tyreplus"],"tags":{"brand:wikidata":"Q110959120","shop":"tyres"},"addTags":{"brand":"Tyreplus","brand:wikidata":"Q110959120","name":"Tyreplus","shop":"tyres"}},"shop/tyres/koleso-c15d58":{"name":"Колесо","locationSet":{"include":["by","ru"]},"geometry":["point","area"],"matchScore":2,"terms":["koleso","колесо"],"tags":{"brand:wikidata":"Q110959636","shop":"tyres"},"addTags":{"brand":"Колесо","brand:wikidata":"Q110959636","name":"Колесо","name:en":"Koleso","name:ru":"Колесо","shop":"tyres"}},"shop/variety_store/fixprice-95635e":{"name":"Fix Price","locationSet":{"include":["by","ru"]},"geometry":["point","area"],"matchScore":2,"terms":["fix price"],"tags":{"brand:wikidata":"Q4038791","shop":"variety_store"},"addTags":{"brand":"Fix Price","brand:wikidata":"Q4038791","name":"Fix Price","shop":"variety_store"}},"shop/wholesale/metro-101fbc":{"name":"METRO","locationSet":{"include":["at","bg","de","fr","hr","hu","in","it","kz","md","pk","ro","rs","ru","sk","tr","ua"]},"geometry":["point","area"],"matchScore":2,"terms":["metro","metro cash & carry"],"tags":{"brand:wikidata":"Q13610282","shop":"wholesale"},"addTags":{"brand":"METRO","brand:wikidata":"Q13610282","name":"METRO","shop":"wholesale"}},"shop/wholesale/selgros-8ea7cd":{"name":"Selgros","locationSet":{"include":["de","pl","ro","ru"]},"geometry":["point","area"],"matchScore":2,"terms":["selgros","selgros cash & carry"],"tags":{"brand:wikidata":"Q473918","shop":"wholesale"},"addTags":{"brand":"Selgros","brand:wikidata":"Q473918","name":"Selgros","shop":"wholesale"}},"tourism/hotel/bandbhotel-fc8c2c":{"name":"B&B Hotel","locationSet":{"include":["by","bg","cz","hu","pl","md","ro","ru","sk","ua","ax","gg","je","cq","dk","ee","fo","fi","is","ie","im","lv","lt","no","sj","se","gb","al","ad","ba","hr","gi","gr","va","it","mt","me","mk","pt","sm","rs","si","es","xk","at","be","fr","de","li","lu","mc","nl","ch","br"]},"geometry":["point","area"],"matchScore":2,"terms":["b&b hotels"],"fields":["name","brand","{tourism/hotel}"],"tags":{"brand:wikidata":"Q794939","tourism":"hotel"},"addTags":{"brand":"B&B Hotels","brand:wikidata":"Q794939","name":"B&B Hotel","tourism":"hotel"}},"tourism/hotel/bulgari-a1f85a":{"name":"Bulgari","locationSet":{"include":["ae","cn","fx","gb","id","it","jp","ru","us"]},"geometry":["point","area"],"matchScore":2,"terms":["bulgari"],"fields":["name","brand","{tourism/hotel}"],"tags":{"brand:wikidata":"Q752515","tourism":"hotel"},"addTags":{"brand":"Bulgari","brand:wikidata":"Q752515","name":"Bulgari","tourism":"hotel"}},"tourism/hotel/greet-046fe6":{"name":"greet","locationSet":{"include":["by","bg","cz","hu","pl","md","ro","ru","sk","ua","ax","gg","je","cq","dk","ee","fo","fi","is","ie","im","lv","lt","no","sj","se","gb","al","ad","ba","hr","gi","gr","va","it","mt","me","mk","pt","sm","rs","si","es","xk","at","be","fr","de","li","lu","mc","nl","ch"]},"geometry":["point","area"],"matchScore":2,"terms":["greet"],"fields":["name","brand","{tourism/hotel}"],"tags":{"brand:wikidata":"Q115489066","tourism":"hotel"},"addTags":{"brand":"greet","brand:wikidata":"Q115489066","name":"Greet","tourism":"hotel"}},"tourism/hotel/lottehotel-304b57":{"name":"Lotte Hotel","locationSet":{"include":["jp","kr","mm","ru","us","uz","vn"]},"geometry":["point","area"],"matchScore":2,"terms":["lotte","lotte hotels & resorts"],"fields":["name","brand","{tourism/hotel}"],"tags":{"brand:wikidata":"Q326720","tourism":"hotel"},"addTags":{"brand":"Lotte Hotels & Resorts","brand:wikidata":"Q326720","name":"Lotte Hotel","short_name":"Lotte","tourism":"hotel"}},"tourism/hotel/motelone-1fc1b4":{"name":"Motel One","locationSet":{"include":["by","bg","cz","hu","pl","md","ro","ru","sk","ua","ax","gg","je","cq","dk","ee","fo","fi","is","ie","im","lv","lt","no","sj","se","gb","al","ad","ba","hr","gi","gr","va","it","mt","me","mk","pt","sm","rs","si","es","xk","at","be","fr","de","li","lu","mc","nl","ch","us-ny"]},"geometry":["point","area"],"matchScore":2,"terms":["motel one"],"fields":["name","brand","{tourism/hotel}"],"tags":{"brand:wikidata":"Q391080","tourism":"hotel"},"addTags":{"brand":"Motel One","brand:wikidata":"Q391080","name":"Motel One","tourism":"hotel"}},"tourism/hotel/raffles-771760":{"name":"Raffles","locationSet":{"include":["ae","bh","cn","fr","gb","id","in","kh","mv","ph","pl","qa","ru","sa","sc","sg","us"]},"geometry":["point","area"],"matchScore":2,"terms":["raffles"],"fields":["name","brand","{tourism/hotel}"],"tags":{"brand:wikidata":"Q4306661","tourism":"hotel"},"addTags":{"brand":"Raffles","brand:wikidata":"Q4306661","name":"Raffles","tourism":"hotel"}},"amenity/charging_station/eon-7f623e":{"name":"E.ON","locationSet":{"include":["by","bg","cz","hu","pl","md","ro","ru","sk","ua","ax","gg","je","cq","dk","ee","fo","fi","is","ie","im","lv","lt","no","sj","se","gb","al","ad","ba","hr","gi","gr","va","it","mt","me","mk","pt","sm","rs","si","es","xk","at","be","fr","de","li","lu","mc","nl","ch"]},"geometry":["point","vertex","area"],"matchScore":2,"terms":["e-on drive","e.on"],"fields":["name","operator","{amenity/charging_station}"],"tags":{"amenity":"charging_station","operator:wikidata":"Q270223"},"addTags":{"amenity":"charging_station","operator":"E.ON","operator:wikidata":"Q270223"}},"amenity/charging_station/evbox-7f623e":{"name":"EVBox","locationSet":{"include":["by","bg","cz","hu","pl","md","ro","ru","sk","ua","ax","gg","je","cq","dk","ee","fo","fi","is","ie","im","lv","lt","no","sj","se","gb","al","ad","ba","hr","gi","gr","va","it","mt","me","mk","pt","sm","rs","si","es","xk","at","be","fr","de","li","lu","mc","nl","ch"]},"geometry":["point","vertex","area"],"matchScore":2,"terms":["evbox"],"fields":["name","operator","{amenity/charging_station}"],"tags":{"amenity":"charging_station","operator:wikidata":"Q28406392"},"addTags":{"amenity":"charging_station","operator":"EVBox","operator:wikidata":"Q28406392"}},"amenity/charging_station/qpark-7f623e":{"name":"Q-Park","locationSet":{"include":["by","bg","cz","hu","pl","md","ro","ru","sk","ua","ax","gg","je","cq","dk","ee","fo","fi","is","ie","im","lv","lt","no","sj","se","gb","al","ad","ba","hr","gi","gr","va","it","mt","me","mk","pt","sm","rs","si","es","xk","at","be","fr","de","li","lu","mc","nl","ch"]},"geometry":["point","vertex","area"],"matchScore":2,"terms":["q-park"],"fields":["name","operator","{amenity/charging_station}"],"tags":{"amenity":"charging_station","operator:wikidata":"Q1127798"},"addTags":{"amenity":"charging_station","operator":"Q-Park","operator:wikidata":"Q1127798"}},"amenity/police/ministryofinternalaffairs-3a79c7":{"name":"Министерство Внутренних Дел","locationSet":{"include":["ru"]},"geometry":["point","area"],"matchScore":2,"terms":["ministry of internal affairs","мвд","мвд россии","мвд рф","министерство внутренних дел"],"tags":{"amenity":"police","operator:wikidata":"Q1192838"},"addTags":{"amenity":"police","operator":"Министерство Внутренних Дел","operator:en":"Ministry of Internal Affairs","operator:short":"МВД","operator:wikidata":"Q1192838"}},"amenity/police/policeofrussia-3a79c7":{"name":"Полиция России","locationSet":{"include":["ru"]},"geometry":["point","area"],"matchScore":2,"terms":["police of russia","отдел полиции","полиция россии","пункт полиции","участковый пункт полиции"],"tags":{"amenity":"police","operator:wikidata":"Q1188211"},"addTags":{"amenity":"police","operator":"Полиция России","operator:en":"Police of Russia","operator:wikidata":"Q1188211"}},"amenity/post_box/5ac048-98aa7c":{"name":"СДЭК","locationSet":{"include":["ru"]},"geometry":["point","vertex"],"matchScore":2,"terms":["сдэк"],"tags":{"amenity":"post_box","operator:wikidata":"Q28665980"},"addTags":{"amenity":"post_box","brand":"СДЭК","brand:wikidata":"Q28665980","operator":"СДЭК","operator:wikidata":"Q28665980"}},"amenity/post_box/6898b3-98aa7c":{"name":"Почта России","locationSet":{"include":["ru"]},"geometry":["point","vertex"],"matchScore":2,"terms":["ао \"почта россии\"","почта россии","фгуп почта россии"],"tags":{"amenity":"post_box","operator:wikidata":"Q1502763"},"addTags":{"amenity":"post_box","operator":"АО \"Почта России\"","operator:wikidata":"Q1502763"}},"amenity/post_office/6898b3-5789f0":{"name":"Почта России","locationSet":{"include":["ru"]},"geometry":["point","area"],"matchScore":2,"terms":["ао \"почта россии\"","почта россии","фгуп почта россии"],"fields":["name","operator","{amenity/post_office}"],"tags":{"amenity":"post_office","operator:wikidata":"Q1502763"},"addTags":{"amenity":"post_office","operator":"АО \"Почта России\"","operator:wikidata":"Q1502763"}},"amenity/recycling/remondis-222d99":{"name":"REMONDIS","locationSet":{"include":["by","bg","cz","hu","pl","md","ro","ru","sk","ua","ax","gg","je","cq","dk","ee","fo","fi","is","ie","im","lv","lt","no","sj","se","gb","al","ad","ba","hr","gi","gr","va","it","mt","me","mk","pt","sm","rs","si","es","xk","at","be","fr","de","li","lu","mc","nl","ch"]},"geometry":["point","area"],"matchScore":2,"terms":["remondis"],"tags":{"amenity":"recycling","operator:wikidata":"Q884975"},"addTags":{"amenity":"recycling","operator":"REMONDIS","operator:wikidata":"Q884975"}},"amenity/recycling/soex-a3d9bb":{"name":"SOEX","locationSet":{"include":["ae","de","es","fx","gb","ru"]},"geometry":["point","area"],"matchScore":2,"terms":["soex"],"tags":{"amenity":"recycling","operator:wikidata":"Q1497749"},"addTags":{"amenity":"recycling","operator":"SOEX","operator:wikidata":"Q1497749"}},"amenity/telephone/137ef4-6db49f":{"name":"Башинформсвязь","locationSet":{"include":["ru"]},"geometry":["point","vertex"],"matchScore":2,"terms":["башинформсвязь"],"fields":["name","operator","{amenity/telephone}"],"tags":{"amenity":"telephone","operator:wikidata":"Q4080105"},"addTags":{"amenity":"telephone","operator":"Башинформсвязь","operator:wikidata":"Q4080105"}},"amenity/telephone/b6fed5-6db49f":{"name":"Ростелеком","locationSet":{"include":["ru"]},"geometry":["point","vertex"],"matchScore":2,"terms":["оао \"ростелеком\"","пао «ростелеком»","ростелеком","центртелеком"],"fields":["name","operator","{amenity/telephone}"],"tags":{"amenity":"telephone","operator:wikidata":"Q1477012"},"addTags":{"amenity":"telephone","operator":"Ростелеком","operator:wikidata":"Q1477012"}},"man_made/charge_point/eon-22bfb3":{"name":"E.ON","locationSet":{"include":["by","bg","cz","hu","pl","md","ro","ru","sk","ua","ax","gg","je","cq","dk","ee","fo","fi","is","ie","im","lv","lt","no","sj","se","gb","al","ad","ba","hr","gi","gr","va","it","mt","me","mk","pt","sm","rs","si","es","xk","at","be","fr","de","li","lu","mc","nl","ch"]},"geometry":["point"],"matchScore":2,"terms":["e-on drive","e.on"],"fields":["name","operator","{man_made/charge_point}"],"tags":{"man_made":"charge_point","operator:wikidata":"Q270223"},"addTags":{"man_made":"charge_point","operator":"E.ON","operator:wikidata":"Q270223"}},"man_made/charge_point/evbox-22bfb3":{"name":"EVBox","locationSet":{"include":["by","bg","cz","hu","pl","md","ro","ru","sk","ua","ax","gg","je","cq","dk","ee","fo","fi","is","ie","im","lv","lt","no","sj","se","gb","al","ad","ba","hr","gi","gr","va","it","mt","me","mk","pt","sm","rs","si","es","xk","at","be","fr","de","li","lu","mc","nl","ch"]},"geometry":["point"],"matchScore":2,"terms":["evbox"],"fields":["name","operator","{man_made/charge_point}"],"tags":{"man_made":"charge_point","operator:wikidata":"Q28406392"},"addTags":{"man_made":"charge_point","operator":"EVBox","operator:wikidata":"Q28406392"}},"man_made/charge_point/qpark-22bfb3":{"name":"Q-Park","locationSet":{"include":["by","bg","cz","hu","pl","md","ro","ru","sk","ua","ax","gg","je","cq","dk","ee","fo","fi","is","ie","im","lv","lt","no","sj","se","gb","al","ad","ba","hr","gi","gr","va","it","mt","me","mk","pt","sm","rs","si","es","xk","at","be","fr","de","li","lu","mc","nl","ch"]},"geometry":["point"],"matchScore":2,"terms":["q-park"],"fields":["name","operator","{man_made/charge_point}"],"tags":{"man_made":"charge_point","operator:wikidata":"Q1127798"},"addTags":{"man_made":"charge_point","operator":"Q-Park","operator:wikidata":"Q1127798"}},"power/catenary_mast/russianrailways-61bcef":{"name":"РЖД","locationSet":{"include":["ru"]},"geometry":["point","vertex"],"matchScore":2,"terms":["russian railways","ржд","российские железные дороги"],"tags":{"operator:wikidata":"Q660770","power":"catenary_mast"},"addTags":{"operator":"РЖД","operator:en":"Russian Railways","operator:ru":"РЖД","operator:wikidata":"Q660770","power":"catenary_mast"}},"power/generator/innogy-16c9d0":{"name":"Innogy","locationSet":{"include":["by","bg","cz","hu","pl","md","ro","ru","sk","ua","ax","gg","je","cq","dk","ee","fo","fi","is","ie","im","lv","lt","no","sj","se","gb","al","ad","ba","hr","gi","gr","va","it","mt","me","mk","pt","sm","rs","si","es","xk","at","be","fr","de","li","lu","mc","nl","ch"]},"geometry":["point","vertex","area"],"matchScore":2,"terms":["innogy"],"tags":{"operator:wikidata":"Q2124721","power":"generator"},"addTags":{"operator":"Innogy","operator:wikidata":"Q2124721","power":"generator"}},"power/generator/rwe-16c9d0":{"name":"RWE","locationSet":{"include":["by","bg","cz","hu","pl","md","ro","ru","sk","ua","ax","gg","je","cq","dk","ee","fo","fi","is","ie","im","lv","lt","no","sj","se","gb","al","ad","ba","hr","gi","gr","va","it","mt","me","mk","pt","sm","rs","si","es","xk","at","be","fr","de","li","lu","mc","nl","ch"]},"geometry":["point","vertex","area"],"matchScore":2,"terms":["rwe"],"tags":{"operator:wikidata":"Q138133","power":"generator"},"addTags":{"operator":"RWE","operator:wikidata":"Q138133","power":"generator"}},"power/generator/statkraft-16c9d0":{"name":"Statkraft","locationSet":{"include":["by","bg","cz","hu","pl","md","ro","ru","sk","ua","ax","gg","je","cq","dk","ee","fo","fi","is","ie","im","lv","lt","no","sj","se","gb","al","ad","ba","hr","gi","gr","va","it","mt","me","mk","pt","sm","rs","si","es","xk","at","be","fr","de","li","lu","mc","nl","ch"]},"geometry":["point","vertex","area"],"matchScore":2,"terms":["statkraft"],"tags":{"operator:wikidata":"Q1681145","power":"generator"},"addTags":{"operator":"Statkraft","operator:wikidata":"Q1681145","power":"generator"}},"power/generator/uniper-16c9d0":{"name":"Uniper","locationSet":{"include":["by","bg","cz","hu","pl","md","ro","ru","sk","ua","ax","gg","je","cq","dk","ee","fo","fi","is","ie","im","lv","lt","no","sj","se","gb","al","ad","ba","hr","gi","gr","va","it","mt","me","mk","pt","sm","rs","si","es","xk","at","be","fr","de","li","lu","mc","nl","ch"]},"geometry":["point","vertex","area"],"matchScore":2,"terms":["uniper"],"tags":{"operator:wikidata":"Q19839259","power":"generator"},"addTags":{"operator":"Uniper","operator:wikidata":"Q19839259","power":"generator"}},"power/generator/wpo-16c9d0":{"name":"WPO","locationSet":{"include":["by","bg","cz","hu","pl","md","ro","ru","sk","ua","ax","gg","je","cq","dk","ee","fo","fi","is","ie","im","lv","lt","no","sj","se","gb","al","ad","ba","hr","gi","gr","va","it","mt","me","mk","pt","sm","rs","si","es","xk","at","be","fr","de","li","lu","mc","nl","ch"]},"geometry":["point","vertex","area"],"matchScore":2,"terms":["wpo"],"tags":{"operator:wikidata":"Q64755627","power":"generator"},"addTags":{"operator":"WPO","operator:wikidata":"Q64755627","power":"generator"}},"power/plant/70be46-d6d29e":{"name":"Дальневосточная генерирующая компания","locationSet":{"include":["ru"]},"geometry":["area"],"matchScore":2,"terms":["дальневосточная генерирующая компания"],"tags":{"operator:wikidata":"Q4154223","power":"plant"},"addTags":{"operator":"Дальневосточная генерирующая компания","operator:wikidata":"Q4154223","power":"plant"}},"power/plant/interraoues-d6d29e":{"name":"ИНТЕР РАО ЕЭС","locationSet":{"include":["ru"]},"geometry":["area"],"matchScore":2,"terms":["inter rao ues","интер рао еэс","оао «интер рао \u2013 электрогенерация»"],"tags":{"operator:wikidata":"Q1963801","power":"plant"},"addTags":{"operator":"ИНТЕР РАО ЕЭС","operator:en":"Inter RAO UES","operator:ru":"ИНТЕР РАО ЕЭС","operator:wikidata":"Q1963801","power":"plant"}},"power/plant/70aabc-d6d29e":{"name":"РусГидро","locationSet":{"include":["ru"]},"geometry":["area"],"matchScore":2,"terms":["оао «русгидро»","русгидро"],"tags":{"operator:wikidata":"Q2035424","power":"plant"},"addTags":{"operator":"РусГидро","operator:wikidata":"Q2035424","power":"plant"}},"power/plant/65d44d-d6d29e":{"name":"ТГК-1","locationSet":{"include":["ru"]},"geometry":["area"],"matchScore":2,"terms":["тгк-1"],"tags":{"operator:wikidata":"Q1967957","power":"plant"},"addTags":{"operator":"ТГК-1","operator:wikidata":"Q1967957","power":"plant"}},"power/substation/c6dafd-42843b":{"name":"ЛОЭСК","locationSet":{"include":["ru"]},"geometry":["area","point"],"matchScore":2,"terms":["лоэск"],"tags":{"operator:wikidata":"Q4258112","power":"substation"},"addTags":{"operator":"ЛОЭСК","operator:ru":"ЛОЭСК","operator:wikidata":"Q4258112","power":"substation"}},"power/substation/5b91d1-42843b":{"name":"ПАО \"МРСК Северо-Запада\"","locationSet":{"include":["ru"]},"geometry":["area","point"],"matchScore":2,"terms":["пао \"мрск северо-запaда\"","пао \"мрск северо-запада\""],"tags":{"operator:wikidata":"Q4273587","power":"substation"},"addTags":{"operator":"ПАО \"МРСК Северо-Запада\"","operator:wikidata":"Q4273587","power":"substation"}},"power/substation/rosseti-42843b":{"name":"Россети","locationSet":{"include":["ru"]},"geometry":["area","point"],"matchScore":2,"terms":["rosseti","россети"],"tags":{"operator:wikidata":"Q4499024","power":"substation"},"addTags":{"operator":"Россети","operator:en":"Rosseti","operator:ru":"Россети","operator:wikidata":"Q4499024","power":"substation"}},"power/substation/russianrailways-42843b":{"name":"Российские железные дороги","locationSet":{"include":["ru"]},"geometry":["area","point"],"matchScore":2,"terms":["russian railways","ржд","российские железные дороги"],"tags":{"operator:wikidata":"Q660770","power":"substation"},"addTags":{"operator":"Российские железные дороги","operator:en":"Russian Railways","operator:ru":"Российские железные дороги","operator:short":"РЖД","operator:wikidata":"Q660770","power":"substation"}},"power/substation/sakhalinenergo-42843b":{"name":"Сахалинэнерго","locationSet":{"include":["ru"]},"geometry":["area","point"],"matchScore":2,"terms":["sakhalinenergo","сахалинэнерго"],"tags":{"operator:wikidata":"Q4409423","power":"substation"},"addTags":{"operator":"Сахалинэнерго","operator:en":"Sakhalinenergo","operator:ru":"Сахалинэнерго","operator:wikidata":"Q4409423","power":"substation"}},"power/substation/fgcues-42843b":{"name":"ФСК ЕЭС","locationSet":{"include":["ru"]},"geometry":["area","point"],"matchScore":2,"terms":["fgc ues","фск еэс"],"tags":{"operator:wikidata":"Q3063197","power":"substation"},"addTags":{"operator":"ФСК ЕЭС","operator:en":"FGC UES","operator:ru":"ФСК ЕЭС","operator:wikidata":"Q3063197","power":"substation"}},"power/transformer/c6dafd-258459":{"name":"ЛОЭСК","locationSet":{"include":["ru"]},"geometry":["point","vertex"],"matchScore":2,"terms":["лоэск"],"tags":{"operator:wikidata":"Q4258112","power":"transformer"},"addTags":{"operator":"ЛОЭСК","operator:ru":"ЛОЭСК","operator:wikidata":"Q4258112","power":"transformer"}},"power/transformer/5b91d1-258459":{"name":"ПАО \"МРСК Северо-Запада\"","locationSet":{"include":["ru"]},"geometry":["point","vertex"],"matchScore":2,"terms":["пао \"мрск северо-запaда\"","пао \"мрск северо-запада\""],"tags":{"operator:wikidata":"Q4273587","power":"transformer"},"addTags":{"operator":"ПАО \"МРСК Северо-Запада\"","operator:wikidata":"Q4273587","power":"transformer"}},"power/transformer/rosseti-258459":{"name":"Россети","locationSet":{"include":["ru"]},"geometry":["point","vertex"],"matchScore":2,"terms":["rosseti","россети"],"tags":{"operator:wikidata":"Q4499024","power":"transformer"},"addTags":{"operator":"Россети","operator:en":"Rosseti","operator:ru":"Россети","operator:wikidata":"Q4499024","power":"transformer"}},"power/transformer/russianrailways-258459":{"name":"Российские железные дороги","locationSet":{"include":["ru"]},"geometry":["point","vertex"],"matchScore":2,"terms":["russian railways","ржд","российские железные дороги"],"tags":{"operator:wikidata":"Q660770","power":"transformer"},"addTags":{"operator":"Российские железные дороги","operator:en":"Russian Railways","operator:ru":"Российские железные дороги","operator:short":"РЖД","operator:wikidata":"Q660770","power":"transformer"}},"power/transformer/sakhalinenergo-258459":{"name":"Сахалинэнерго","locationSet":{"include":["ru"]},"geometry":["point","vertex"],"matchScore":2,"terms":["sakhalinenergo","сахалинэнерго"],"tags":{"operator:wikidata":"Q4409423","power":"transformer"},"addTags":{"operator":"Сахалинэнерго","operator:en":"Sakhalinenergo","operator:ru":"Сахалинэнерго","operator:wikidata":"Q4409423","power":"transformer"}},"power/transformer/fgcues-258459":{"name":"ФСК ЕЭС","locationSet":{"include":["ru"]},"geometry":["point","vertex"],"matchScore":2,"terms":["fgc ues","фск еэс"],"tags":{"operator:wikidata":"Q3063197","power":"transformer"},"addTags":{"operator":"ФСК ЕЭС","operator:en":"FGC UES","operator:ru":"ФСК ЕЭС","operator:wikidata":"Q3063197","power":"transformer"}},"type/route/railway/russianrailways-538f7a":{"name":"РЖД","locationSet":{"include":["ru"]},"geometry":["relation"],"matchScore":2,"terms":["russian railways","ржд","российские железные дороги"],"reference":{"key":"route","value":"railway"},"tags":{"operator:wikidata":"Q660770","route":"railway","type":"route"},"addTags":{"operator":"РЖД","operator:en":"Russian Railways","operator:ru":"РЖД","operator:wikidata":"Q660770","route":"railway","type":"route"}},"telecom/exchange/interoute-58ec5d":{"name":"Interoute","locationSet":{"include":["by","bg","cz","hu","pl","md","ro","ru","sk","ua","ax","gg","je","cq","dk","ee","fo","fi","is","ie","im","lv","lt","no","sj","se","gb","al","ad","ba","hr","gi","gr","va","it","mt","me","mk","pt","sm","rs","si","es","xk","at","be","fr","de","li","lu","mc","nl","ch"]},"geometry":["point","area"],"matchScore":2,"terms":["interoute"],"fields":["name","operator","{telecom/exchange}"],"tags":{"operator:wikidata":"Q1668090","telecom":"exchange"},"addTags":{"operator":"Interoute","operator:wikidata":"Q1668090","telecom":"exchange"}},"telecom/exchange/a9dd80-83cf97":{"name":"ПАО «Ростелеком»","locationSet":{"include":["ru"]},"geometry":["point","area"],"matchScore":2,"terms":["пао «ростелеком»"],"fields":["name","operator","{telecom/exchange}"],"tags":{"operator:wikidata":"Q1477012","telecom":"exchange"},"addTags":{"operator":"ПАО «Ростелеком»","operator:wikidata":"Q1477012","telecom":"exchange"}},"public_transport/platform/bus_point/flixbus-f5b4b3":{"name":"Flixbus","locationSet":{"include":["by","bg","cz","hu","pl","md","ro","ru","sk","ua","ax","gg","je","cq","dk","ee","fo","fi","is","ie","im","lv","lt","no","sj","se","gb","al","ad","ba","hr","gi","gr","va","it","mt","me","mk","pt","sm","rs","si","es","xk","at","be","fr","de","li","lu","mc","nl","ch","br","ca","us"]},"geometry":["point","vertex"],"matchScore":2,"terms":["flixbus"],"reference":{"key":"public_transport","value":"platform"},"tags":{"bus":"yes","network:wikidata":"Q15712258","public_transport":"platform"},"addTags":{"bus":"yes","highway":"bus_stop","network":"Flixbus","network:wikidata":"Q15712258","public_transport":"platform"}},"public_transport/platform/bus_point/c0a278-3fa783":{"name":"Автовокзал Клин","locationSet":{"include":["ru"]},"geometry":["point","vertex"],"matchScore":2,"terms":["автовокзал клин","клин"],"reference":{"key":"public_transport","value":"platform"},"tags":{"bus":"yes","network:wikidata":"Q114783698","public_transport":"platform"},"addTags":{"bus":"yes","highway":"bus_stop","network":"Автовокзал Клин","network:wikidata":"Q114783698","public_transport":"platform"}},"public_transport/platform/bus_point/mostransavto-3fa783":{"name":"ГУП МО Мострансавто","locationSet":{"include":["ru"]},"geometry":["point","vertex"],"matchScore":2,"terms":["mostransavto","гуп мо мострансавто"],"reference":{"key":"public_transport","value":"platform"},"tags":{"bus":"yes","network:wikidata":"Q1972060","public_transport":"platform"},"addTags":{"bus":"yes","highway":"bus_stop","network":"ГУП МО Мострансавто","network:en":"Mostransavto","network:ru":"ГУП МО Мострансавто","network:wikidata":"Q1972060","public_transport":"platform"}},"public_transport/platform/bus_point/6185c7-3fa783":{"name":"Комитет по Транспорту Санкт-Петербурга","locationSet":{"include":["ru"]},"geometry":["point","vertex"],"matchScore":2,"terms":["комитет по транспорту санкт-петербурга"],"reference":{"key":"public_transport","value":"platform"},"tags":{"bus":"yes","network:wikidata":"Q115120075","public_transport":"platform"},"addTags":{"bus":"yes","highway":"bus_stop","network":"Комитет по Транспорту Санкт-Петербурга","network:wikidata":"Q115120075","public_transport":"platform"}},"railway/station/eurocity-170b77":{"name":"EuroCity","locationSet":{"include":["by","bg","cz","hu","pl","md","ro","ru","sk","ua","ax","gg","je","cq","dk","ee","fo","fi","is","ie","im","lv","lt","no","sj","se","gb","al","ad","ba","hr","gi","gr","va","it","mt","me","mk","pt","sm","rs","si","es","xk","at","be","fr","de","li","lu","mc","nl","ch"]},"geometry":["point","vertex","area"],"matchScore":2,"terms":["eurocity"],"tags":{"network:wikidata":"Q753050","railway":"station"},"addTags":{"network":"EuroCity","network:wikidata":"Q753050","public_transport":"station","railway":"station","train":"yes"}},"railway/station/euronight-170b77":{"name":"EuroNight","locationSet":{"include":["by","bg","cz","hu","pl","md","ro","ru","sk","ua","ax","gg","je","cq","dk","ee","fo","fi","is","ie","im","lv","lt","no","sj","se","gb","al","ad","ba","hr","gi","gr","va","it","mt","me","mk","pt","sm","rs","si","es","xk","at","be","fr","de","li","lu","mc","nl","ch"]},"geometry":["point","vertex","area"],"matchScore":2,"terms":["euronight"],"tags":{"network:wikidata":"Q257307","railway":"station"},"addTags":{"network":"EuroNight","network:wikidata":"Q257307","public_transport":"station","railway":"station","train":"yes"}},"railway/station/oktyabrskayarailway-fe1a69":{"name":"Октябрьская железная дорога","locationSet":{"include":["ru"]},"geometry":["point","vertex","area"],"matchScore":2,"terms":["oktyabrskaya railway","октябрьская железная дорога"],"tags":{"network:wikidata":"Q1327441","railway":"station"},"addTags":{"network":"Октябрьская железная дорога","network:en":"Oktyabrskaya Railway","network:ru":"Октябрьская железная дорога","network:wikidata":"Q1327441","public_transport":"station","railway":"station","train":"yes"}},"railway/station/rzd-fe1a69":{"name":"РЖД","locationSet":{"include":["ru"]},"geometry":["point","vertex","area"],"matchScore":2,"terms":["rzd","ржд"],"tags":{"network:wikidata":"Q660770","railway":"station"},"addTags":{"network":"РЖД","network:en":"RZD","network:ru":"РЖД","network:wikidata":"Q660770","public_transport":"station","railway":"station","train":"yes"}},"type/route/bus/flixbus-8cc9ca":{"name":"Flixbus","locationSet":{"include":["by","bg","cz","hu","pl","md","ro","ru","sk","ua","ax","gg","je","cq","dk","ee","fo","fi","is","ie","im","lv","lt","no","sj","se","gb","al","ad","ba","hr","gi","gr","va","it","mt","me","mk","pt","sm","rs","si","es","xk","at","be","fr","de","li","lu","mc","nl","ch","br","ca","us"]},"geometry":["relation"],"matchScore":2,"terms":["flixbus"],"reference":{"key":"route","value":"bus"},"tags":{"network:wikidata":"Q15712258","route":"bus","type":"route"},"addTags":{"network":"Flixbus","network:wikidata":"Q15712258","route":"bus","type":"route"}},"type/route/bus/c0a278-15dd1a":{"name":"Автовокзал Клин","locationSet":{"include":["ru"]},"geometry":["relation"],"matchScore":2,"terms":["автовокзал клин","клин"],"reference":{"key":"route","value":"bus"},"tags":{"network:wikidata":"Q114783698","route":"bus","type":"route"},"addTags":{"network":"Автовокзал Клин","network:wikidata":"Q114783698","route":"bus","type":"route"}},"type/route/bus/mostransavto-15dd1a":{"name":"ГУП МО Мострансавто","locationSet":{"include":["ru"]},"geometry":["relation"],"matchScore":2,"terms":["mostransavto","гуп мо мострансавто"],"reference":{"key":"route","value":"bus"},"tags":{"network:wikidata":"Q1972060","route":"bus","type":"route"},"addTags":{"network":"ГУП МО Мострансавто","network:en":"Mostransavto","network:ru":"ГУП МО Мострансавто","network:wikidata":"Q1972060","route":"bus","type":"route"}},"type/route/bus/6185c7-15dd1a":{"name":"Комитет по Транспорту Санкт-Петербурга","locationSet":{"include":["ru"]},"geometry":["relation"],"matchScore":2,"terms":["комитет по транспорту санкт-петербурга"],"reference":{"key":"route","value":"bus"},"tags":{"network:wikidata":"Q115120075","route":"bus","type":"route"},"addTags":{"network":"Комитет по Транспорту Санкт-Петербурга","network:wikidata":"Q115120075","route":"bus","type":"route"}},"type/route/subway/moscowmetro-89193c":{"name":"Московский метрополитен","locationSet":{"include":["ru"]},"geometry":["relation"],"matchScore":2,"terms":["moscow metro","московский метрополитен"],"reference":{"key":"route","value":"subway"},"tags":{"network:wikidata":"Q5499","route":"subway","type":"route"},"addTags":{"network":"Московский метрополитен","network:en":"Moscow Metro","network:ru":"Московский метрополитен","network:wikidata":"Q5499","route":"subway","type":"route"}},"type/route/subway/saintpetersburgmetro-89193c":{"name":"Петербургский метрополитен","locationSet":{"include":["ru"]},"geometry":["relation"],"matchScore":2,"terms":["saint petersburg metro","петербургский метрополитен"],"reference":{"key":"route","value":"subway"},"tags":{"network:wikidata":"Q250225","route":"subway","type":"route"},"addTags":{"network":"Петербургский метрополитен","network:en":"Saint Petersburg Metro","network:ru":"Петербургский метрополитен","network:wikidata":"Q250225","route":"subway","type":"route"}},"type/route/train/eurocity-6b9d23":{"name":"EuroCity","locationSet":{"include":["by","bg","cz","hu","pl","md","ro","ru","sk","ua","ax","gg","je","cq","dk","ee","fo","fi","is","ie","im","lv","lt","no","sj","se","gb","al","ad","ba","hr","gi","gr","va","it","mt","me","mk","pt","sm","rs","si","es","xk","at","be","fr","de","li","lu","mc","nl","ch"]},"geometry":["relation"],"matchScore":2,"terms":["eurocity"],"reference":{"key":"route","value":"train"},"tags":{"network:wikidata":"Q753050","route":"train","type":"route"},"addTags":{"network":"EuroCity","network:wikidata":"Q753050","route":"train","type":"route"}},"type/route/train/euronight-6b9d23":{"name":"EuroNight","locationSet":{"include":["by","bg","cz","hu","pl","md","ro","ru","sk","ua","ax","gg","je","cq","dk","ee","fo","fi","is","ie","im","lv","lt","no","sj","se","gb","al","ad","ba","hr","gi","gr","va","it","mt","me","mk","pt","sm","rs","si","es","xk","at","be","fr","de","li","lu","mc","nl","ch"]},"geometry":["relation"],"matchScore":2,"terms":["euronight"],"reference":{"key":"route","value":"train"},"tags":{"network:wikidata":"Q257307","route":"train","type":"route"},"addTags":{"network":"EuroNight","network:wikidata":"Q257307","route":"train","type":"route"}},"type/route/train/oktyabrskayarailway-4f6875":{"name":"Октябрьская железная дорога","locationSet":{"include":["ru"]},"geometry":["relation"],"matchScore":2,"terms":["oktyabrskaya railway","октябрьская железная дорога"],"reference":{"key":"route","value":"train"},"tags":{"network:wikidata":"Q1327441","route":"train","type":"route"},"addTags":{"network":"Октябрьская железная дорога","network:en":"Oktyabrskaya Railway","network:ru":"Октябрьская железная дорога","network:wikidata":"Q1327441","route":"train","type":"route"}},"type/route/train/rzd-4f6875":{"name":"РЖД","locationSet":{"include":["ru"]},"geometry":["relation"],"matchScore":2,"terms":["rzd","ржд"],"reference":{"key":"route","value":"train"},"tags":{"network:wikidata":"Q660770","route":"train","type":"route"},"addTags":{"network":"РЖД","network:en":"RZD","network:ru":"РЖД","network:wikidata":"Q660770","route":"train","type":"route"}}}