{"amenity/atm/firstcitizensbank-1ff3d8":{"name":"First Citizens Bank (Trinidad and Tobago)","locationSet":{"include":["bb","tt"]},"geometry":["point","vertex"],"matchScore":2,"terms":["1st citizens bank","first citizens bank"],"fields":["name","brand","{amenity/atm}"],"tags":{"amenity":"atm","brand:wikidata":"Q5452734"},"addTags":{"amenity":"atm","brand":"First Citizens Bank","brand:wikidata":"Q5452734","operator":"First Citizens Bank","operator:wikidata":"Q5452734"}},"amenity/atm/republicbank-6b5972":{"name":"Republic Bank (Eastern Caribbean)","locationSet":{"include":["bb","gd","gy","tt"]},"geometry":["point","vertex"],"matchScore":2,"terms":["republic bank"],"fields":["name","brand","{amenity/atm}"],"tags":{"amenity":"atm","brand:wikidata":"Q7314386"},"addTags":{"amenity":"atm","brand":"Republic Bank","brand:wikidata":"Q7314386","operator":"Republic Bank","operator:wikidata":"Q7314386"}},"amenity/bank/firstcitizensbank-ffbbe8":{"name":"First Citizens Bank (Trinidad and Tobago)","locationSet":{"include":["bb","tt"]},"geometry":["point","area"],"matchScore":2,"terms":["1st citizens bank","first citizens bank"],"tags":{"amenity":"bank","brand:wikidata":"Q5452734"},"addTags":{"amenity":"bank","brand":"First Citizens Bank","brand:wikidata":"Q5452734","name":"First Citizens Bank"}},"amenity/bank/republicbank-1e52aa":{"name":"Republic Bank (Eastern Caribbean)","locationSet":{"include":["bb","gd","gy","tt"]},"geometry":["point","area"],"matchScore":2,"terms":["republic bank"],"tags":{"amenity":"bank","brand:wikidata":"Q7314386"},"addTags":{"amenity":"bank","brand":"Republic Bank","brand:wikidata":"Q7314386","name":"Republic Bank"}},"amenity/cinema/caribbeancinemas-77ba3f":{"name":"Caribbean Cinemas","locationSet":{"include":["ag","do","fr","gy","kn","lc","nl","pa","tt","us"]},"geometry":["point","area"],"matchScore":2,"terms":["caribbean cinemas"],"fields":["name","brand","{amenity/cinema}"],"tags":{"amenity":"cinema","brand:wikidata":"Q5039364"},"addTags":{"amenity":"cinema","brand":"Caribbean Cinemas","brand:wikidata":"Q5039364","name":"Caribbean Cinemas"}},"amenity/fuel/np-9a6cc7":{"name":"NP","locationSet":{"include":["tt"]},"geometry":["point","area"],"matchScore":2,"terms":["np"],"fields":["name","brand","{amenity/fuel}"],"tags":{"amenity":"fuel","brand:wikidata":"Q7842382"},"addTags":{"amenity":"fuel","brand":"NP","brand:wikidata":"Q7842382","name":"NP"}},"amenity/madscience-0435a3":{"name":"Mad Science","locationSet":{"include":["bh","br","ca","cn","es","gb","kw","ma","nl","om","pe","sa","sg","th","tr","tt","us"]},"geometry":["point","vertex","line","area"],"matchScore":2,"terms":["mad science"],"fields":["name","brand","{amenity}"],"tags":{"amenity":"training","brand:wikidata":"Q17009137"},"addTags":{"amenity":"training","brand":"Mad Science","brand:wikidata":"Q17009137","name":"Mad Science","training":"science"}},"shop/clothes/perryellis-a07a3d":{"name":"Perry Ellis","locationSet":{"include":["mx","pr","tt","us"]},"geometry":["point","area"],"matchScore":2,"terms":["perry ellis"],"tags":{"brand:wikidata":"Q7169774","shop":"clothes"},"addTags":{"brand":"Perry Ellis","brand:wikidata":"Q7169774","clothes":"men","name":"Perry Ellis","shop":"clothes"}},"amenity/post_box/ttpost-d8fb16":{"name":"TTPost","locationSet":{"include":["tt"]},"geometry":["point","vertex"],"matchScore":2,"terms":["ttpost"],"tags":{"amenity":"post_box","operator:wikidata":"Q7671960"},"addTags":{"amenity":"post_box","operator":"TTPost","operator:wikidata":"Q7671960"}},"amenity/post_office/ttpost-a1fd14":{"name":"TTPost","locationSet":{"include":["tt"]},"geometry":["point","area"],"matchScore":2,"terms":["ttpost"],"fields":["name","operator","{amenity/post_office}"],"tags":{"amenity":"post_office","operator:wikidata":"Q7671960"},"addTags":{"amenity":"post_office","operator":"TTPost","operator:wikidata":"Q7671960"}},"amenity/telephone/claro-6490cd":{"name":"Claro","locationSet":{"include":["ai","ag","aw","bs","bb","bq","vg","ky","cu","cw","dm","do","gd","gp","ht","jm","mq","ms","pr","bl","kn","lc","mf","vc","sx","tt","tc","vi","bz","cr","sv","gt","hn","mx","ni","pa","ar","bo","bv","br","cl","co","ec","fk","gf","gy","py","pe","gs","sr","uy","ve"]},"geometry":["point","vertex"],"matchScore":2,"terms":["claro"],"fields":["name","operator","{amenity/telephone}"],"tags":{"amenity":"telephone","operator:wikidata":"Q1770208"},"addTags":{"amenity":"telephone","operator":"Claro","operator:wikidata":"Q1770208"}},"power/generator/valero-7654ee":{"name":"Valero","locationSet":{"include":["ai","ag","aw","bs","bb","bq","vg","ky","cu","cw","dm","do","gd","gp","ht","jm","mq","ms","pr","bl","kn","lc","mf","vc","sx","tt","tc","vi","ca","us"]},"geometry":["point","vertex","area"],"matchScore":2,"terms":["valero"],"tags":{"operator:wikidata":"Q1283291","power":"generator"},"addTags":{"operator":"Valero","operator:wikidata":"Q1283291","power":"generator"}}}