{"amenity/atm/banco24horas-a02d2b":{"name":"Banco24Horas","locationSet":{"include":["br"]},"geometry":["point","vertex"],"matchScore":2,"terms":["banco24horas","branco24horas"],"tags":{"amenity":"atm","brand:wikidata":"Q4854069"},"addTags":{"amenity":"atm","brand":"Banco24Horas","brand:wikidata":"Q4854069","brand:wikipedia":"pt:Banco24Horas","name":"Banco24Horas"}},"amenity/atm/bancodebrasilia-a02d2b":{"name":"Banco de Brasília","locationSet":{"include":["br"]},"geometry":["point","vertex"],"matchScore":2,"terms":["brb"],"tags":{"amenity":"atm","brand:wikidata":"Q4854119"},"addTags":{"amenity":"atm","brand":"BRB","brand:wikidata":"Q4854119","brand:wikipedia":"pt:Banco de Brasília","name":"Banco de Brasília","operator":"BRB","operator:wikidata":"Q4854119","operator:wikipedia":"pt:Banco de Brasília"}},"amenity/atm/bancodobrasil-a02d2b":{"name":"Banco do Brasil","locationSet":{"include":["br"]},"geometry":["point","vertex"],"matchScore":2,"terms":["banco do brasil"],"tags":{"amenity":"atm","brand:wikidata":"Q610817"},"addTags":{"amenity":"atm","brand":"Banco do Brasil","brand:wikidata":"Q610817","brand:wikipedia":"en:Banco do Brasil","name":"Banco do Brasil","operator":"Banco do Brasil","operator:wikidata":"Q610817","operator:wikipedia":"en:Banco do Brasil"}},"amenity/atm/bancodonordeste-a02d2b":{"name":"Banco do Nordeste","locationSet":{"include":["br"]},"geometry":["point","vertex"],"matchScore":2,"terms":["banco do nordeste"],"tags":{"amenity":"atm","brand:wikidata":"Q4854137"},"addTags":{"amenity":"atm","brand":"Banco do Nordeste","brand:wikidata":"Q4854137","brand:wikipedia":"en:Banco do Nordeste","name":"Banco do Nordeste","operator":"Banco do Nordeste","operator:wikidata":"Q4854137","operator:wikipedia":"en:Banco do Nordeste"}},"amenity/atm/banrisul-a02d2b":{"name":"Banrisul","locationSet":{"include":["br"]},"geometry":["point","vertex"],"matchScore":2,"terms":["banrisul"],"tags":{"amenity":"atm","brand:wikidata":"Q4857098"},"addTags":{"amenity":"atm","brand":"Banrisul","brand:wikidata":"Q4857098","brand:wikipedia":"en:Banrisul","name":"Banrisul","operator":"Banrisul","operator:wikidata":"Q4857098","operator:wikipedia":"en:Banrisul"}},"amenity/atm/bradesco-a02d2b":{"name":"Bradesco","locationSet":{"include":["br"]},"geometry":["point","vertex"],"matchScore":2,"terms":["banco bradesco","bradesco"],"tags":{"amenity":"atm","brand:wikidata":"Q806181"},"addTags":{"amenity":"atm","brand":"Bradesco","brand:wikidata":"Q806181","brand:wikipedia":"en:Banco Bradesco","name":"Bradesco","operator":"Bradesco","operator:wikidata":"Q806181","operator:wikipedia":"en:Banco Bradesco"}},"amenity/atm/caixaeconomicafederal-a02d2b":{"name":"Caixa Econômica Federal (Brasil)","locationSet":{"include":["br"]},"geometry":["point","vertex"],"matchScore":2,"terms":["caixa","caixa econômica federal","caixabank"],"tags":{"amenity":"atm","brand:wikidata":"Q835283"},"addTags":{"amenity":"atm","brand":"Caixa Econômica Federal","brand:wikidata":"Q835283","brand:wikipedia":"pt:Caixa Econômica Federal","name":"Caixa Econômica Federal","operator":"Caixa Econômica Federal","operator:wikidata":"Q835283","operator:wikipedia":"pt:Caixa Econômica Federal"}},"amenity/atm/itau-a02d2b":{"name":"Itaú (Brasil)","locationSet":{"include":["br"]},"geometry":["point","vertex"],"matchScore":2,"terms":["banco itau","itaú unibanco"],"tags":{"amenity":"atm","brand:wikidata":"Q1424293"},"addTags":{"amenity":"atm","brand":"Itaú Unibanco","brand:wikidata":"Q1424293","brand:wikipedia":"pt:Itaú Unibanco","name":"Itaú","operator":"Itaú Unibanco","operator:wikidata":"Q1424293","operator:wikipedia":"pt:Itaú Unibanco"}},"amenity/atm/sicoob-a02d2b":{"name":"Sicoob","locationSet":{"include":["br"]},"geometry":["point","vertex"],"matchScore":2,"terms":["sicoob"],"tags":{"amenity":"atm","brand:wikidata":"Q28679754"},"addTags":{"amenity":"atm","brand":"Sicoob","brand:wikidata":"Q28679754","brand:wikipedia":"pt:Sistema de Cooperativas de Crédito do Brasil","name":"Sicoob","operator":"Sicoob","operator:wikidata":"Q28679754","operator:wikipedia":"pt:Sistema de Cooperativas de Crédito do Brasil"}},"amenity/atm/sicredi-a02d2b":{"name":"Sicredi","locationSet":{"include":["br"]},"geometry":["point","vertex"],"matchScore":2,"terms":["sicredi"],"tags":{"amenity":"atm","brand:wikidata":"Q3483060"},"addTags":{"amenity":"atm","brand":"Sicredi","brand:wikidata":"Q3483060","brand:wikipedia":"pt:Sistema de Crédito Cooperativo","name":"Sicredi","operator":"Sicredi","operator:wikidata":"Q3483060","operator:wikipedia":"pt:Sistema de Crédito Cooperativo"}},"amenity/bank/bancodebrasilia-0ed44d":{"name":"Banco de Brasília","locationSet":{"include":["br"]},"geometry":["point","area"],"matchScore":2,"terms":["brb"],"tags":{"amenity":"bank","brand:wikidata":"Q4854119"},"addTags":{"amenity":"bank","brand":"BRB","brand:wikidata":"Q4854119","brand:wikipedia":"pt:Banco de Brasília","name":"Banco de Brasília"}},"amenity/bank/bancodobrasil-0ed44d":{"name":"Banco do Brasil","locationSet":{"include":["br"]},"geometry":["point","area"],"matchScore":2,"terms":["banco do brasil"],"tags":{"amenity":"bank","brand:wikidata":"Q610817"},"addTags":{"amenity":"bank","brand":"Banco do Brasil","brand:wikidata":"Q610817","brand:wikipedia":"en:Banco do Brasil","name":"Banco do Brasil"}},"amenity/bank/bancodonordeste-0ed44d":{"name":"Banco do Nordeste","locationSet":{"include":["br"]},"geometry":["point","area"],"matchScore":2,"terms":["banco do nordeste"],"tags":{"amenity":"bank","brand:wikidata":"Q4854137"},"addTags":{"amenity":"bank","brand":"Banco do Nordeste","brand:wikidata":"Q4854137","brand:wikipedia":"en:Banco do Nordeste","name":"Banco do Nordeste"}},"amenity/bank/banrisul-0ed44d":{"name":"Banrisul","locationSet":{"include":["br"]},"geometry":["point","area"],"matchScore":2,"terms":["banrisul"],"tags":{"amenity":"bank","brand:wikidata":"Q4857098"},"addTags":{"amenity":"bank","brand":"Banrisul","brand:wikidata":"Q4857098","brand:wikipedia":"en:Banrisul","name":"Banrisul"}},"amenity/bank/bradesco-0ed44d":{"name":"Bradesco","locationSet":{"include":["br"]},"geometry":["point","area"],"matchScore":2,"terms":["banco bradesco","bradesco"],"tags":{"amenity":"bank","brand:wikidata":"Q806181"},"addTags":{"amenity":"bank","brand":"Bradesco","brand:wikidata":"Q806181","brand:wikipedia":"en:Banco Bradesco","name":"Bradesco"}},"amenity/bank/caixaeconomicafederal-0ed44d":{"name":"Caixa Econômica Federal (Brasil)","locationSet":{"include":["br"]},"geometry":["point","area"],"matchScore":2,"terms":["caixa","caixa econômica federal","caixabank"],"tags":{"amenity":"bank","brand:wikidata":"Q835283"},"addTags":{"amenity":"bank","brand":"Caixa Econômica Federal","brand:wikidata":"Q835283","brand:wikipedia":"pt:Caixa Econômica Federal","name":"Caixa Econômica Federal"}},"amenity/bank/itau-0ed44d":{"name":"Itaú (Brasil)","locationSet":{"include":["br"]},"geometry":["point","area"],"matchScore":2,"terms":["banco itau","itaú unibanco"],"tags":{"amenity":"bank","brand:wikidata":"Q1424293"},"addTags":{"amenity":"bank","brand":"Itaú Unibanco","brand:wikidata":"Q1424293","brand:wikipedia":"pt:Itaú Unibanco","name":"Itaú"}},"amenity/bank/sicoob-0ed44d":{"name":"Sicoob","locationSet":{"include":["br"]},"geometry":["point","area"],"matchScore":2,"terms":["sicoob"],"tags":{"amenity":"bank","brand:wikidata":"Q28679754"},"addTags":{"amenity":"bank","brand":"Sicoob","brand:wikidata":"Q28679754","brand:wikipedia":"pt:Sistema de Cooperativas de Crédito do Brasil","name":"Sicoob"}},"amenity/bank/sicredi-0ed44d":{"name":"Sicredi","locationSet":{"include":["br"]},"geometry":["point","area"],"matchScore":2,"terms":["sicredi"],"tags":{"amenity":"bank","brand:wikidata":"Q3483060"},"addTags":{"amenity":"bank","brand":"Sicredi","brand:wikidata":"Q3483060","brand:wikipedia":"pt:Sistema de Crédito Cooperativo","name":"Sicredi"}},"amenity/bicycle_rental/bikerio-c7dd41":{"name":"BikeRio","locationSet":{"include":["br"]},"geometry":["point","vertex","area"],"matchScore":2,"terms":["bikerio","serttel"],"fields":["name","brand","{amenity/bicycle_rental}"],"tags":{"amenity":"bicycle_rental","brand:wikidata":"Q28724"},"addTags":{"amenity":"bicycle_rental","brand":"BikeRio","brand:wikidata":"Q28724","brand:wikipedia":"pt:Bike Rio","name":"BikeRio","operator":"Serttel"}},"amenity/bureau_de_change/confidencecambio-b1f712":{"name":"Confidence Câmbio","locationSet":{"include":["br"]},"geometry":["point","area"],"matchScore":2,"terms":["confidence câmbio"],"tags":{"amenity":"bureau_de_change","brand:wikidata":"Q20055927"},"addTags":{"amenity":"bureau_de_change","brand":"Confidence Câmbio","brand:wikidata":"Q20055927","brand:wikipedia":"pt:Grupo Confidence","name":"Confidence Câmbio"}},"amenity/bureau_de_change/daycambio-b1f712":{"name":"DayCâmbio","locationSet":{"include":["br"]},"geometry":["point","area"],"matchScore":2,"terms":["daycâmbio"],"tags":{"amenity":"bureau_de_change","brand:wikidata":"Q110038882"},"addTags":{"amenity":"bureau_de_change","brand":"DayCâmbio","brand:wikidata":"Q110038882","name":"DayCâmbio"}},"amenity/cafe/coffee_shop/casadopaodequeijo-1d07e0":{"name":"Casa do Pão de Queijo","locationSet":{"include":["br"]},"geometry":["point","area"],"matchScore":2,"terms":["casa do pão de queijo"],"reference":{"key":"cuisine","value":"coffee_shop"},"tags":{"amenity":"cafe","brand:wikidata":"Q9698946","cuisine":"coffee_shop"},"addTags":{"amenity":"cafe","brand":"Casa do Pão de Queijo","brand:wikidata":"Q9698946","brand:wikipedia":"pt:Casa do Pão de Queijo","cuisine":"coffee_shop","name":"Casa do Pão de Queijo","takeaway":"yes"}},"amenity/cafe/coffee_shop/duckbillcookiesandcoffee-1d07e0":{"name":"DuckBill Cookies & Coffee","locationSet":{"include":["br"]},"geometry":["point","area"],"matchScore":2,"terms":["duckbill cookies & coffee"],"reference":{"key":"cuisine","value":"coffee_shop"},"tags":{"amenity":"cafe","brand:wikidata":"Q110015928","cuisine":"coffee_shop"},"addTags":{"amenity":"cafe","brand":"DuckBill Cookies & Coffee","brand:wikidata":"Q110015928","cuisine":"coffee_shop","name":"DuckBill Cookies & Coffee","takeaway":"yes"}},"amenity/cafe/coffee_shop/franscafe-1d07e0":{"name":"Fran's Café","locationSet":{"include":["br"]},"geometry":["point","area"],"matchScore":2,"terms":["fran's café"],"reference":{"key":"cuisine","value":"coffee_shop"},"tags":{"amenity":"cafe","brand:wikidata":"Q62075645","cuisine":"coffee_shop"},"addTags":{"amenity":"cafe","brand":"Fran's Café","brand:wikidata":"Q62075645","cuisine":"coffee_shop","name":"Fran's Café","takeaway":"yes"}},"amenity/cafe/coffee_shop/havanna-ffe1b3":{"name":"Havanna","locationSet":{"include":["ar","br","cl","pe"]},"geometry":["point","area"],"matchScore":2,"terms":["havanna"],"reference":{"key":"cuisine","value":"coffee_shop"},"tags":{"amenity":"cafe","brand:wikidata":"Q2900869","cuisine":"coffee_shop"},"addTags":{"amenity":"cafe","brand":"Havanna","brand:wikidata":"Q2900869","brand:wikipedia":"es:Havanna","cuisine":"coffee_shop","name":"Havanna","takeaway":"yes"}},"amenity/cafe/reidomate-1d07e0":{"name":"Rei do Mate","locationSet":{"include":["br"]},"geometry":["point","area"],"matchScore":2,"terms":["rei do mate"],"tags":{"amenity":"cafe","brand:wikidata":"Q7309875"},"addTags":{"amenity":"cafe","brand":"Rei do Mate","brand:wikidata":"Q7309875","brand:wikipedia":"pt:Rei do Mate","cuisine":"tea","name":"Rei do Mate","takeaway":"yes"}},"amenity/car_rental/movida-7721c7":{"name":"Movida","locationSet":{"include":["br"]},"geometry":["point","area"],"matchScore":2,"terms":["movida"],"tags":{"amenity":"car_rental","brand:wikidata":"Q106632587"},"addTags":{"amenity":"car_rental","brand":"Movida","brand:wikidata":"Q106632587","brand:wikipedia":"pt:Movida","name":"Movida"}},"amenity/car_rental/unidas-7721c7":{"name":"Unidas","locationSet":{"include":["br"]},"geometry":["point","area"],"matchScore":2,"terms":["unidas"],"tags":{"amenity":"car_rental","brand:wikidata":"Q97377626"},"addTags":{"amenity":"car_rental","brand":"Unidas","brand:wikidata":"Q97377626","brand:wikipedia":"pt:Unidas","name":"Unidas"}},"amenity/fast_food/acaiconcept-989340":{"name":"Açaí Concept","locationSet":{"include":["ar","br","ca","ch","cl","ec","fr","pt","us"]},"geometry":["point","area"],"matchScore":2,"terms":["açaí concept"],"tags":{"amenity":"fast_food","brand:wikidata":"Q110138105"},"addTags":{"amenity":"fast_food","brand":"Açaí Concept","brand:wikidata":"Q110138105","cuisine":"açaí","name":"Açaí Concept","takeaway":"yes"}},"amenity/fast_food/burger/bobs-02d9fb":{"name":"Bob's","locationSet":{"include":["ao","br","cl","pt"]},"geometry":["point","area"],"matchScore":2,"terms":["bob's"],"reference":{"key":"cuisine","value":"burger"},"tags":{"amenity":"fast_food","brand:wikidata":"Q1392113","cuisine":"burger"},"addTags":{"amenity":"fast_food","brand":"Bob's","brand:wikidata":"Q1392113","brand:wikipedia":"en:Bob's","cuisine":"burger","name":"Bob's","takeaway":"yes"}},"amenity/fast_food/chinainbox-ffb863":{"name":"China in Box","locationSet":{"include":["br"]},"geometry":["point","area"],"matchScore":2,"terms":["china in box"],"tags":{"amenity":"fast_food","brand:wikidata":"Q18463999"},"addTags":{"amenity":"fast_food","brand":"China in Box","brand:wikidata":"Q18463999","brand:wikipedia":"pt:China in Box","cuisine":"chinese","name":"China in Box","takeaway":"yes"}},"amenity/fast_food/burger/giraffas-ffb863":{"name":"Giraffas","locationSet":{"include":["br"]},"geometry":["point","area"],"matchScore":2,"terms":["giraffas"],"reference":{"key":"cuisine","value":"burger"},"tags":{"amenity":"fast_food","brand:wikidata":"Q5563205","cuisine":"burger"},"addTags":{"amenity":"fast_food","brand":"Giraffas","brand:wikidata":"Q5563205","brand:wikipedia":"pt:Giraffas","cuisine":"burger","name":"Giraffas","takeaway":"yes"}},"amenity/fast_food/habibs-4b8fdf":{"name":"Habib's","locationSet":{"include":["br","mx"]},"geometry":["point","area"],"matchScore":2,"terms":["habib's"],"tags":{"amenity":"fast_food","brand:wikidata":"Q2504930"},"addTags":{"amenity":"fast_food","brand":"Habib's","brand:wikidata":"Q2504930","brand:wikipedia":"en:Habib's","cuisine":"middle_eastern","name":"Habib's","takeaway":"yes"}},"amenity/fast_food/oakberryacaibowls-df46eb":{"name":"Oakberry Açaí bowls","locationSet":{"include":["ae","au","bh","br","ch","cl","co","de","es","gr","hr","il","mt","mx","pe","pt","py","sa","th","us"]},"geometry":["point","area"],"matchScore":2,"terms":["oakberry açaí bowls"],"tags":{"amenity":"fast_food","brand:wikidata":"Q104870840"},"addTags":{"amenity":"fast_food","brand":"Oakberry Açaí bowls","brand:wikidata":"Q104870840","cuisine":"açaí","name":"Oakberry Açaí bowls","takeaway":"yes"}},"amenity/fast_food/spoleto-ffb863":{"name":"Spoleto","locationSet":{"include":["br"]},"geometry":["point","area"],"matchScore":2,"terms":["spoleto"],"tags":{"amenity":"fast_food","brand:wikidata":"Q7578935"},"addTags":{"amenity":"fast_food","brand":"Spoleto","brand:wikidata":"Q7578935","brand:wikipedia":"pt:Spoleto (restaurante)","cuisine":"italian","name":"Spoleto","takeaway":"yes"}},"amenity/fast_food/sumosalad-474d0a":{"name":"Sumo Salad","locationSet":{"include":["ae","au","br","nz","sg","us"]},"geometry":["point","area"],"matchScore":2,"terms":["sumo salad"],"tags":{"amenity":"fast_food","brand:wikidata":"Q16951700"},"addTags":{"amenity":"fast_food","brand":"Sumo Salad","brand:wikidata":"Q16951700","brand:wikipedia":"en:Sumo Salad","cuisine":"salad","name":"Sumo Salad","takeaway":"yes"}},"amenity/fuel/ale-c14748":{"name":"Ale","locationSet":{"include":["br"]},"geometry":["point","area"],"matchScore":2,"terms":["ale","posto ale","posto alesat","postos ale","postos satélite"],"fields":["name","brand","{amenity/fuel}"],"tags":{"amenity":"fuel","brand:wikidata":"Q9600717"},"addTags":{"amenity":"fuel","brand":"Ale","brand:wikidata":"Q9600717","brand:wikipedia":"pt:AleSat Combustíveis"}},"amenity/fuel/atem-c14748":{"name":"Atem","locationSet":{"include":["br"]},"geometry":["point","area"],"matchScore":2,"terms":["atem","posto atem"],"fields":["name","brand","{amenity/fuel}"],"tags":{"amenity":"fuel","brand:wikidata":"Q62332255"},"addTags":{"amenity":"fuel","brand":"Atem","brand:wikidata":"Q62332255","name":"Atem"}},"amenity/fuel/br-c14748":{"name":"BR","locationSet":{"include":["br"]},"geometry":["point","area"],"matchScore":2,"terms":["br","br petrobras","petrobras","posto br","posto petrobras","postos petrobras"],"fields":["name","brand","{amenity/fuel}"],"tags":{"amenity":"fuel","brand:wikidata":"Q4836468"},"addTags":{"amenity":"fuel","brand":"BR","brand:wikidata":"Q4836468","brand:wikipedia":"pt:Vibra Energia","name":"BR"}},"amenity/fuel/cosan-c14748":{"name":"Cosan","locationSet":{"include":["br"]},"geometry":["point","area"],"matchScore":2,"terms":["cosan"],"fields":["name","brand","{amenity/fuel}"],"tags":{"amenity":"fuel","brand:wikidata":"Q2998228"},"addTags":{"amenity":"fuel","brand":"Cosan","brand:wikidata":"Q2998228","brand:wikipedia":"pt:Cosan","name":"Cosan"}},"amenity/fuel/ipiranga-c14748":{"name":"Ipiranga","locationSet":{"include":["br"]},"geometry":["point","area"],"matchScore":2,"terms":["ipiranga","posto ipiranga"],"fields":["name","brand","{amenity/fuel}"],"tags":{"amenity":"fuel","brand:wikidata":"Q2081136"},"addTags":{"amenity":"fuel","brand":"Ipiranga","brand:wikidata":"Q2081136","brand:wikipedia":"pt:Ipiranga (empresa)"}},"amenity/ice_cream/baciodilatte-46659e":{"name":"Bacio di Latte","locationSet":{"include":["br","us"]},"geometry":["point","area"],"matchScore":2,"terms":["bacio di latte"],"tags":{"amenity":"ice_cream","brand:wikidata":"Q110249379"},"addTags":{"amenity":"ice_cream","brand":"Bacio di Latte","brand:wikidata":"Q110249379","coffee":"yes","diet:vegan":"yes","name":"Bacio di Latte"}},"amenity/ice_cream/chiquinhosorvetes-9359b6":{"name":"Chiquinho Sorvetes","locationSet":{"include":["br"]},"geometry":["point","area"],"matchScore":2,"terms":["chiquinho sorvetes"],"tags":{"amenity":"ice_cream","brand:wikidata":"Q65164356"},"addTags":{"amenity":"ice_cream","brand":"Chiquinho Sorvetes","brand:wikidata":"Q65164356","brand:wikipedia":"pt:Chiquinho Sorvetes","name":"Chiquinho Sorvetes"}},"amenity/ice_cream/freddo-3a94a6":{"name":"Freddo","locationSet":{"include":["ar","bo","br","cl","gb","it","us","uy"]},"geometry":["point","area"],"matchScore":2,"terms":["freddo"],"tags":{"amenity":"ice_cream","brand:wikidata":"Q28823999"},"addTags":{"amenity":"ice_cream","brand":"Freddo","brand:wikidata":"Q28823999","brand:wikipedia":"es:Freddo","cuisine":"ice_cream","name":"Freddo"}},"amenity/language_school/ccaa-d56926":{"name":"CCAA","locationSet":{"include":["br"]},"geometry":["point","area"],"matchScore":2,"terms":["ccaa"],"fields":["name","brand","{amenity/language_school}"],"tags":{"amenity":"language_school","brand:wikidata":"Q9669735"},"addTags":{"amenity":"language_school","brand":"CCAA","brand:wikidata":"Q9669735","brand:wikipedia":"pt:Centro de Cultura Anglo Americana","language:en":"yes","language:es":"yes","name":"CCAA"}},"amenity/language_school/cna-d56926":{"name":"CNA","locationSet":{"include":["br"]},"geometry":["point","area"],"matchScore":2,"terms":["cna"],"fields":["name","brand","{amenity/language_school}"],"tags":{"amenity":"language_school","brand:wikidata":"Q18465698"},"addTags":{"amenity":"language_school","brand":"CNA","brand:wikidata":"Q18465698","brand:wikipedia":"pt:CNA Idiomas","language:en":"main","language:es":"yes","name":"CNA"}},"amenity/language_school/culturainglesa-d56926":{"name":"Cultura Inglesa","locationSet":{"include":["br"]},"geometry":["point","area"],"matchScore":2,"terms":["cultura inglesa"],"fields":["name","brand","{amenity/language_school}"],"tags":{"amenity":"language_school","brand:wikidata":"Q777467"},"addTags":{"amenity":"language_school","brand":"Cultura Inglesa","brand:wikidata":"Q777467","brand:wikipedia":"pt:Cultura Inglesa","language:en":"main","name":"Cultura Inglesa"}},"amenity/language_school/fisk-d56926":{"name":"Fisk","locationSet":{"include":["br"]},"geometry":["point","area"],"matchScore":2,"terms":["fisk"],"fields":["name","brand","{amenity/language_school}"],"tags":{"amenity":"language_school","brand:wikidata":"Q10286392"},"addTags":{"amenity":"language_school","brand":"Fisk","brand:wikidata":"Q10286392","brand:wikipedia":"pt:Fundação Richard Hugh Fisk","language:en":"yes","language:es":"yes","name":"Fisk"}},"amenity/music_school/schoolofrock-4e6205":{"name":"School of Rock","locationSet":{"include":["au","br","ca","cl","co","es","mx","pe","ph","py","tw","us","za"]},"geometry":["point","area"],"matchScore":2,"terms":["school of rock"],"fields":["name","brand","{amenity/music_school}"],"tags":{"amenity":"music_school","brand:wikidata":"Q7756376"},"addTags":{"amenity":"music_school","brand":"School of Rock","brand:wikidata":"Q7756376","brand:wikipedia":"en:School of Rock (company)","name":"School of Rock"}},"amenity/pharmacy/agafarma-295f06":{"name":"Agafarma","locationSet":{"include":["br"]},"geometry":["point","area"],"matchScore":2,"terms":["agafarma"],"reference":{"key":"amenity","value":"pharmacy"},"tags":{"amenity":"pharmacy","brand:wikidata":"Q93735939"},"addTags":{"amenity":"pharmacy","brand":"Agafarma","brand:wikidata":"Q93735939","healthcare":"pharmacy","name":"Agafarma"}},"amenity/pharmacy/drogaquinze-295f06":{"name":"Droga Quinze","locationSet":{"include":["br"]},"geometry":["point","area"],"matchScore":2,"terms":["droga quinze"],"reference":{"key":"amenity","value":"pharmacy"},"tags":{"amenity":"pharmacy","brand:wikidata":"Q100491051"},"addTags":{"amenity":"pharmacy","brand":"Droga Quinze","brand:wikidata":"Q100491051","healthcare":"pharmacy","name":"Droga Quinze"}},"amenity/pharmacy/drogaraia-295f06":{"name":"Droga Raia","locationSet":{"include":["br"]},"geometry":["point","area"],"matchScore":2,"terms":["droga raia"],"reference":{"key":"amenity","value":"pharmacy"},"tags":{"amenity":"pharmacy","brand:wikidata":"Q10357101"},"addTags":{"amenity":"pharmacy","brand":"Droga Raia","brand:wikidata":"Q10357101","brand:wikipedia":"pt:RaiaDrogasil","healthcare":"pharmacy","name":"Droga Raia"}},"amenity/pharmacy/drogariaaraujo-295f06":{"name":"Drogaria Araujo","locationSet":{"include":["br"]},"geometry":["point","area"],"matchScore":2,"terms":["drogaria araujo"],"reference":{"key":"amenity","value":"pharmacy"},"tags":{"amenity":"pharmacy","brand:wikidata":"Q10268807"},"addTags":{"amenity":"pharmacy","brand":"Drogaria Araujo","brand:wikidata":"Q10268807","brand:wikipedia":"pt:Drogaria Araujo","healthcare":"pharmacy","name":"Drogaria Araujo"}},"amenity/pharmacy/drogariaglobo-295f06":{"name":"Drogaria Globo","locationSet":{"include":["br"]},"geometry":["point","area"],"matchScore":2,"terms":["drogaria globo"],"reference":{"key":"amenity","value":"pharmacy"},"tags":{"amenity":"pharmacy","brand:wikidata":"Q56351623"},"addTags":{"amenity":"pharmacy","brand":"Drogaria Globo","brand:wikidata":"Q56351623","brand:wikipedia":"pt:Drogarias Globo","healthcare":"pharmacy","name":"Drogaria Globo"}},"amenity/pharmacy/drogariasaopaulo-295f06":{"name":"Drogaria São Paulo","locationSet":{"include":["br"]},"geometry":["point","area"],"matchScore":2,"terms":["drogaria são paulo"],"reference":{"key":"amenity","value":"pharmacy"},"tags":{"amenity":"pharmacy","brand:wikidata":"Q5308184"},"addTags":{"amenity":"pharmacy","brand":"Drogaria São Paulo","brand:wikidata":"Q5308184","brand:wikipedia":"en:Grupo DPSP","healthcare":"pharmacy","name":"Drogaria São Paulo"}},"amenity/pharmacy/drogasil-295f06":{"name":"Drogasil","locationSet":{"include":["br"]},"geometry":["point","area"],"matchScore":2,"terms":["drogasil"],"reference":{"key":"amenity","value":"pharmacy"},"tags":{"amenity":"pharmacy","brand:wikidata":"Q5308185"},"addTags":{"amenity":"pharmacy","brand":"Drogasil","brand:wikidata":"Q5308185","brand:wikipedia":"pt:Drogasil","healthcare":"pharmacy","name":"Drogasil","wheelchair":"yes"}},"amenity/pharmacy/extrafarma-295f06":{"name":"Extrafarma","locationSet":{"include":["br"]},"geometry":["point","area"],"matchScore":2,"terms":["extrafarma"],"reference":{"key":"amenity","value":"pharmacy"},"tags":{"amenity":"pharmacy","brand:wikidata":"Q20055480"},"addTags":{"amenity":"pharmacy","brand":"Extrafarma","brand:wikidata":"Q20055480","brand:wikipedia":"pt:Extrafarma","healthcare":"pharmacy","name":"Extrafarma"}},"amenity/pharmacy/farmaconde-295f06":{"name":"Farma Conde","locationSet":{"include":["br"]},"geometry":["point","area"],"matchScore":2,"terms":["farma conde"],"reference":{"key":"amenity","value":"pharmacy"},"tags":{"amenity":"pharmacy","brand:wikidata":"Q100492677"},"addTags":{"amenity":"pharmacy","brand":"Farma Conde","brand:wikidata":"Q100492677","healthcare":"pharmacy","name":"Farma Conde"}},"amenity/pharmacy/farmaciasaojoao-295f06":{"name":"Farmácia São João","locationSet":{"include":["br"]},"geometry":["point","area"],"matchScore":2,"terms":["farmácia são joão"],"reference":{"key":"amenity","value":"pharmacy"},"tags":{"amenity":"pharmacy","brand:wikidata":"Q65164556"},"addTags":{"amenity":"pharmacy","brand":"Farmácia São João","brand:wikidata":"Q65164556","brand:wikipedia":"pt:Farmácias São João","healthcare":"pharmacy","name":"Farmácia São João"}},"amenity/pharmacy/paguemenos-295f06":{"name":"Pague Menos","locationSet":{"include":["br"]},"geometry":["point","area"],"matchScore":2,"terms":["farmácia pague menos","pague menos"],"reference":{"key":"amenity","value":"pharmacy"},"tags":{"amenity":"pharmacy","brand:wikidata":"Q7124466"},"addTags":{"amenity":"pharmacy","brand":"Pague Menos","brand:wikidata":"Q7124466","brand:wikipedia":"pt:Pague Menos","healthcare":"pharmacy","name":"Pague Menos"}},"amenity/pharmacy/panvel-295f06":{"name":"Panvel","locationSet":{"include":["br"]},"geometry":["point","area"],"matchScore":2,"terms":["panvel"],"reference":{"key":"amenity","value":"pharmacy"},"tags":{"amenity":"pharmacy","brand:wikidata":"Q10344254"},"addTags":{"amenity":"pharmacy","brand":"Panvel","brand:wikidata":"Q10344254","brand:wikipedia":"pt:Panvel","healthcare":"pharmacy","name":"Panvel"}},"amenity/pharmacy/publix-c42a5a":{"name":"Publix","locationSet":{"include":["br","us"]},"geometry":["point","area"],"matchScore":2,"terms":["publix"],"reference":{"key":"amenity","value":"pharmacy"},"tags":{"amenity":"pharmacy","brand:wikidata":"Q672170"},"addTags":{"amenity":"pharmacy","brand":"Publix","brand:wikidata":"Q672170","brand:wikipedia":"en:Publix","healthcare":"pharmacy","name":"Publix"}},"amenity/pharmacy/saojoao-295f06":{"name":"São João","locationSet":{"include":["br"]},"geometry":["point","area"],"matchScore":2,"terms":["são joão"],"reference":{"key":"amenity","value":"pharmacy"},"tags":{"amenity":"pharmacy","brand:wikidata":"Q62663306"},"addTags":{"amenity":"pharmacy","brand":"São João","brand:wikidata":"Q62663306","healthcare":"pharmacy","name":"São João"}},"amenity/restaurant/japanese/benihana-bbd124":{"name":"Benihana","locationSet":{"include":["aw","br","ca","pa","sv","us"]},"geometry":["point","area"],"matchScore":2,"terms":["benihana","benihana of tokyo"],"reference":{"key":"cuisine","value":"japanese"},"tags":{"amenity":"restaurant","brand:wikidata":"Q4887996","cuisine":"japanese;teppanyaki;steak"},"addTags":{"amenity":"restaurant","brand":"Benihana","brand:wikidata":"Q4887996","brand:wikipedia":"en:Benihana","cuisine":"japanese;teppanyaki;steak","name":"Benihana"}},"amenity/restaurant/crepesandwaffles-7b5290":{"name":"Crepes & Waffles","locationSet":{"include":["br","cl","co","ec","es","mx","pa","pe","ve"]},"geometry":["point","area"],"matchScore":2,"terms":["crepes & waffles"],"tags":{"amenity":"restaurant","brand:wikidata":"Q5184238"},"addTags":{"alt_name":"Crepes & Waffles","amenity":"restaurant","brand":"Crepes & Waffles","brand:wikidata":"Q5184238","brand:wikipedia":"es:Crepes & Waffles","cuisine":"crepe;ice_cream","name":"Crepes & Waffles"}},"amenity/restaurant/pizza/3brasseurs-4df94e":{"name":"Les 3 Brasseurs (Qc,Br,Fr)","locationSet":{"include":["br","ca","fr"]},"geometry":["point","area"],"matchScore":2,"terms":["3 brasseurs","3 brewers","les 3 brasseurs"],"reference":{"key":"cuisine","value":"pizza"},"tags":{"amenity":"restaurant","brand:wikidata":"Q3230326","cuisine":"burger;pizza;seafood"},"addTags":{"amenity":"restaurant","brand":"3 Brasseurs","brand:wikidata":"Q3230326","brand:wikipedia":"fr:Les 3 Brasseurs","cuisine":"burger;pizza;seafood","name":"3 Brasseurs","name:en":"3 Brewers","official_name":"Les 3 Brasseurs"}},"amenity/school/maplebear-89c128":{"name":"Maple Bear","locationSet":{"include":["ae","al","ar","au","bd","bg","br","ca","cn","gt","hk","hr","in","ke","kr","lk","ma","mx","my","np","om","pe","ph","py","ro","rs","sg","th","tk","ua","us","vn"]},"geometry":["area","point"],"matchScore":2,"terms":["maple bear"],"fields":["name","brand","{amenity/school}"],"tags":{"amenity":"school","brand:wikidata":"Q10324823"},"addTags":{"amenity":"school","brand":"Maple Bear","brand:wikidata":"Q10324823","brand:wikipedia":"pt:Maple Bear","name":"Maple Bear","operator:type":"private"}},"healthcare/laboratory/questdiagnostics-7c8b3a":{"name":"Quest Diagnostics","locationSet":{"include":["br","mx","us"]},"geometry":["point","area"],"matchScore":2,"terms":["quest diagnostics"],"tags":{"brand:wikidata":"Q7271456","healthcare":"laboratory"},"addTags":{"brand":"Quest Diagnostics","brand:wikidata":"Q7271456","brand:wikipedia":"en:Quest Diagnostics","healthcare":"laboratory","name":"Quest Diagnostics"}},"healthcare/laboratory/sabin-4627ab":{"name":"Sabin","locationSet":{"include":["br"]},"geometry":["point","area"],"matchScore":2,"terms":["sabin"],"tags":{"brand:wikidata":"Q97041295","healthcare":"laboratory"},"addTags":{"brand":"Sabin","brand:wikidata":"Q97041295","healthcare":"laboratory","name":"Sabin"}},"leisure/fitness_centre/bluefit-777e0e":{"name":"Bluefit","locationSet":{"include":["br"]},"geometry":["point","area"],"matchScore":2,"terms":["bluefit"],"tags":{"brand:wikidata":"Q111154874","leisure":"fitness_centre"},"addTags":{"brand":"Bluefit","brand:wikidata":"Q111154874","leisure":"fitness_centre","name":"Bluefit"}},"leisure/fitness_centre/bodytech-777e0e":{"name":"Bodytech (Brasil)","locationSet":{"include":["br"]},"geometry":["point","area"],"matchScore":2,"terms":["boditech","bodytech","bodytek"],"tags":{"brand:wikidata":"Q100273505","leisure":"fitness_centre"},"addTags":{"brand":"Bodytech","brand:wikidata":"Q100273505","leisure":"fitness_centre","name":"Bodytech"}},"leisure/fitness_centre/selfit-777e0e":{"name":"Selfit","locationSet":{"include":["br"]},"geometry":["point","area"],"matchScore":2,"terms":["selfit"],"tags":{"brand:wikidata":"Q100274066","leisure":"fitness_centre"},"addTags":{"brand":"Selfit","brand:wikidata":"Q100274066","leisure":"fitness_centre","name":"Selfit"}},"leisure/fitness_centre/smartfit-cd44e6":{"name":"Smart Fit","locationSet":{"include":["br","cl","co","do","mx","pe"]},"geometry":["point","area"],"matchScore":2,"terms":["smart fit"],"tags":{"brand:wikidata":"Q30930959","leisure":"fitness_centre"},"addTags":{"brand":"Smart Fit","brand:wikidata":"Q30930959","brand:wikipedia":"pt:Smart Fit","leisure":"fitness_centre","name":"Smart Fit"}},"leisure/sports_centre/associacaoatleticabancodobrasil-d2fb77":{"name":"Associação Atlética Banco do Brasil","locationSet":{"include":["br"]},"geometry":["point","area"],"matchScore":2,"terms":["aabb","associação atlética banco do brasil","banco do brasil athletic association"],"fields":["name","brand","{leisure/sports_centre}"],"tags":{"brand:wikidata":"Q9633503","leisure":"sports_centre"},"addTags":{"brand":"AABB","brand:wikidata":"Q9633503","brand:wikipedia":"pt:Associação Atlética Banco do Brasil","leisure":"sports_centre","name":"Associação Atlética Banco do Brasil","name:en":"Banco do Brasil Athletic Association","name:pt":"Associação Atlética Banco do Brasil","short_name":"AABB"}},"office/insurance/bancodobrasilseguridade-af18ad":{"name":"Banco do Brasil Seguridade","locationSet":{"include":["br"]},"geometry":["point","area"],"matchScore":2,"terms":["banco do brasil seguridade","bb seguridade"],"fields":["name","brand","{office/insurance}"],"tags":{"brand:wikidata":"Q18499520","office":"insurance"},"addTags":{"brand":"Banco do Brasil Seguridade","brand:wikidata":"Q18499520","brand:wikipedia":"pt:BB Seguridade","name":"Banco do Brasil Seguridade","office":"insurance","short_name":"BB Seguridade"}},"shop/bed/ortobom-4b84fc":{"name":"Ortobom","locationSet":{"include":["br"]},"geometry":["point","area"],"matchScore":2,"terms":["ortobom"],"tags":{"brand:wikidata":"Q110087205","shop":"bed"},"addTags":{"brand":"Ortobom","brand:wikidata":"Q110087205","name":"Ortobom","shop":"bed"}},"shop/books/leitura-fdaa32":{"name":"Leitura","locationSet":{"include":["br"]},"geometry":["point","area"],"matchScore":2,"terms":["leitura","livraria leitura"],"tags":{"brand:wikidata":"Q6176628","shop":"books"},"addTags":{"alt_name":"Livraria Leitura","brand":"Leitura","brand:wikidata":"Q6176628","brand:wikipedia":"pt:Leitura (livraria)","name":"Leitura","shop":"books"}},"shop/books/saraiva-fdaa32":{"name":"Saraiva","locationSet":{"include":["br"]},"geometry":["point","area"],"matchScore":2,"terms":["livraria saraiva","saraiva"],"tags":{"brand:wikidata":"Q10319337","shop":"books"},"addTags":{"alt_name":"Livraria Saraiva","brand":"Saraiva","brand:wikidata":"Q10319337","brand:wikipedia":"pt:Livraria Saraiva","name":"Saraiva","shop":"books"}},"shop/car_parts/autozone-fd3e11":{"name":"AutoZone","locationSet":{"include":["br","mx","us"]},"geometry":["point","area"],"matchScore":2,"terms":["autozone"],"tags":{"brand:wikidata":"Q4826087","shop":"car_parts"},"addTags":{"brand":"AutoZone","brand:wikidata":"Q4826087","brand:wikipedia":"en:AutoZone","name":"AutoZone","shop":"car_parts"}},"shop/chocolate/cacaushow-634f60":{"name":"Cacau Show","locationSet":{"include":["br"]},"geometry":["point","area"],"matchScore":2,"terms":["cacau show"],"tags":{"brand:wikidata":"Q9671713","shop":"chocolate"},"addTags":{"brand":"Cacau Show","brand:wikidata":"Q9671713","brand:wikipedia":"en:Cacau Show","name":"Cacau Show","shop":"chocolate"}},"shop/chocolate/chocolatesbrasilcacau-634f60":{"name":"Chocolates Brasil Cacau","locationSet":{"include":["br"]},"geometry":["point","area"],"matchScore":2,"terms":["brasil cacau","chocolates brasil cacau"],"tags":{"brand:wikidata":"Q9750569","shop":"chocolate"},"addTags":{"brand":"Chocolates Brasil Cacau","brand:wikidata":"Q9750569","brand:wikipedia":"pt:Chocolates Brasil Cacau","name":"Chocolates Brasil Cacau","shop":"chocolate","short_name":"Brasil Cacau"}},"shop/chocolate/kopenhagen-634f60":{"name":"Kopenhagen","locationSet":{"include":["br"]},"geometry":["point","area"],"matchScore":2,"terms":["kopenhagen"],"tags":{"brand:wikidata":"Q10314624","shop":"chocolate"},"addTags":{"brand":"Kopenhagen","brand:wikidata":"Q10314624","brand:wikipedia":"pt:Kopenhagen","name":"Kopenhagen","shop":"chocolate"}},"shop/clothes/brooksfield-c7d1e1":{"name":"Brooksfield","locationSet":{"include":["br"]},"geometry":["point","area"],"matchScore":2,"terms":["brooksfield"],"tags":{"brand:wikidata":"Q3645372","shop":"clothes"},"addTags":{"brand":"Brooksfield","brand:wikidata":"Q3645372","brand:wikipedia":"it:Brooksfield","name":"Brooksfield","shop":"clothes"}},"shop/clothes/camisariacolombo-c7d1e1":{"name":"Camisaria Colombo","locationSet":{"include":["br"]},"geometry":["point","area"],"matchScore":2,"terms":["camisaria colombo","colombo"],"tags":{"brand:wikidata":"Q18469053","shop":"clothes"},"addTags":{"brand":"Camisaria Colombo","brand:wikidata":"Q18469053","brand:wikipedia":"pt:Camisaria Colombo","name":"Camisaria Colombo","shop":"clothes"}},"shop/clothes/colcci-c7d1e1":{"name":"Colcci","locationSet":{"include":["br"]},"geometry":["point","area"],"matchScore":2,"terms":["colcci"],"tags":{"brand:wikidata":"Q5142063","shop":"clothes"},"addTags":{"brand":"Colcci","brand:wikidata":"Q5142063","brand:wikipedia":"pt:Colcci","name":"Colcci","shop":"clothes"}},"shop/clothes/hering-c7d1e1":{"name":"Hering","locationSet":{"include":["br"]},"geometry":["point","area"],"matchScore":2,"terms":["hering"],"tags":{"brand:wikidata":"Q5119055","shop":"clothes"},"addTags":{"brand":"Hering","brand:wikidata":"Q5119055","brand:wikipedia":"pt:Companhia Hering","name":"Hering","shop":"clothes"}},"shop/clothes/underwear/lupo-a63afb":{"name":"Lupo","locationSet":{"include":["bo","br","pe","ve"]},"geometry":["point","area"],"matchScore":2,"terms":["lupo"],"reference":{"key":"clothes","value":"underwear"},"tags":{"brand:wikidata":"Q48855225","clothes":"underwear;sports","shop":"clothes"},"addTags":{"brand":"Lupo","brand:wikidata":"Q48855225","brand:wikipedia":"pt:Lupo (empresa)","clothes":"underwear;sports","name":"Lupo","shop":"clothes"}},"shop/clothes/malwee-c7d1e1":{"name":"Malwee","locationSet":{"include":["br"]},"geometry":["point","area"],"matchScore":2,"terms":["malwee"],"tags":{"brand:wikidata":"Q109077520","shop":"clothes"},"addTags":{"brand":"Malwee","brand:wikidata":"Q109077520","name":"Malwee","shop":"clothes"}},"shop/clothes/marisa-c7d1e1":{"name":"Marisa","locationSet":{"include":["br"]},"geometry":["point","area"],"matchScore":2,"terms":["marisa"],"tags":{"brand:wikidata":"Q6765587","shop":"clothes"},"addTags":{"brand":"Marisa","brand:wikidata":"Q6765587","brand:wikipedia":"pt:Lojas Marisa","name":"Marisa","shop":"clothes"}},"shop/clothes/piticas-c7d1e1":{"name":"Piticas","locationSet":{"include":["br"]},"geometry":["point","area"],"matchScore":2,"terms":["piticas"],"tags":{"brand:wikidata":"Q109562801","shop":"clothes"},"addTags":{"brand":"Piticas","brand:wikidata":"Q109562801","name":"Piticas","shop":"clothes"}},"shop/clothes/renner-41b5c2":{"name":"Renner","locationSet":{"include":["ar","br","uy"]},"geometry":["point","area"],"matchScore":2,"terms":["lojas renner","rener","renner"],"tags":{"brand:wikidata":"Q3064071","shop":"clothes"},"addTags":{"brand":"Renner","brand:wikidata":"Q3064071","brand:wikipedia":"pt:Lojas Renner","name":"Renner","shop":"clothes"}},"shop/clothes/reserva-c7d1e1":{"name":"Reserva","locationSet":{"include":["br"]},"geometry":["point","area"],"matchScore":2,"terms":["reserva"],"tags":{"brand:wikidata":"Q20060839","shop":"clothes"},"addTags":{"brand":"Reserva","brand:wikidata":"Q20060839","brand:wikipedia":"pt:Reserva (marca)","clothes":"men","name":"Reserva","shop":"clothes"}},"shop/clothes/riachuelo-c7d1e1":{"name":"Riachuelo","locationSet":{"include":["br"]},"geometry":["point","area"],"matchScore":2,"terms":["lojas riachuelo","rchlo","riachuelo"],"tags":{"brand:wikidata":"Q6668462","shop":"clothes"},"addTags":{"brand":"Riachuelo","brand:wikidata":"Q6668462","brand:wikipedia":"pt:Lojas Riachuelo","name":"Riachuelo","shop":"clothes"}},"shop/clothes/zinzane-c7d1e1":{"name":"Zinzane","locationSet":{"include":["br"]},"geometry":["point","area"],"matchScore":2,"terms":["zinzane"],"tags":{"brand:wikidata":"Q110518126","shop":"clothes"},"addTags":{"brand":"Zinzane","brand:wikidata":"Q110518126","clothes":"men;women","name":"Zinzane","shop":"clothes"}},"shop/convenience/miniextra-12bebb":{"name":"Mini Extra","locationSet":{"include":["br"]},"geometry":["point","area"],"matchScore":2,"terms":["mini extra"],"tags":{"brand:wikidata":"Q5422131","shop":"convenience"},"addTags":{"brand":"Mini Extra","brand:wikidata":"Q5422131","brand:wikipedia":"pt:Extra (rede varejista)","name":"Mini Extra","shop":"convenience"}},"shop/cosmetics/natura-55348e":{"name":"Natura","locationSet":{"include":["br"]},"geometry":["point","area"],"matchScore":2,"terms":["natura"],"tags":{"brand:wikidata":"Q3131210","shop":"cosmetics"},"addTags":{"brand":"Natura","brand:wikidata":"Q3131210","brand:wikipedia":"pt:Natura","name":"Natura","shop":"cosmetics"}},"shop/cosmetics/quemdisseberenice-55348e":{"name":"Quem Disse, Berenice?","locationSet":{"include":["br"]},"geometry":["point","area"],"matchScore":2,"terms":["quem disse, berenice?"],"tags":{"brand:wikidata":"Q110249404","shop":"cosmetics"},"addTags":{"brand":"Quem Disse, Berenice?","brand:wikidata":"Q110249404","name":"Quem Disse, Berenice?","shop":"cosmetics"}},"shop/cosmetics/yescosmetics-55348e":{"name":"Yes! Cosmetics","locationSet":{"include":["br"]},"geometry":["point","area"],"matchScore":2,"terms":["yes! cosmetics"],"tags":{"brand:wikidata":"Q109569583","shop":"cosmetics"},"addTags":{"brand":"Yes! Cosmetics","brand:wikidata":"Q109569583","name":"Yes! Cosmetics","shop":"cosmetics"}},"shop/deli/vomfass-a3c745":{"name":"vomFASS","locationSet":{"include":["at","be","br","ca","ch","cz","de","dk","es","fr","gb","hk","hr","hu","il","it","jp","lv","mx","my","ph","sg","th","us"]},"geometry":["point","area"],"matchScore":2,"terms":["vomfass"],"tags":{"brand:wikidata":"Q2533008","shop":"deli"},"addTags":{"brand":"vomFASS","brand:wikidata":"Q2533008","brand:wikipedia":"de:Vom Fass","name":"vomFASS","shop":"deli"}},"shop/department_store/armazemparaiba-7a47e3":{"name":"Armazém Paraíba","locationSet":{"include":["br"]},"geometry":["point","area"],"matchScore":2,"terms":["armazém paraíba"],"tags":{"brand:wikidata":"Q9629505","shop":"department_store"},"addTags":{"brand":"Armazém Paraíba","brand:wikidata":"Q9629505","brand:wikipedia":"pt:Armazém Paraíba","name":"Armazém Paraíba","shop":"department_store"}},"shop/department_store/casasbahia-7a47e3":{"name":"Casas Bahia","locationSet":{"include":["br"]},"geometry":["point","area"],"matchScore":2,"terms":["casas bahia"],"tags":{"brand:wikidata":"Q5048048","shop":"department_store"},"addTags":{"brand":"Casas Bahia","brand:wikidata":"Q5048048","brand:wikipedia":"en:Casas Bahia","name":"Casas Bahia","shop":"department_store"}},"shop/department_store/coppel-a1f638":{"name":"Coppel","locationSet":{"include":["ar","br","mx"]},"geometry":["point","area"],"matchScore":2,"terms":["coppel"],"tags":{"brand:wikidata":"Q2497795","shop":"department_store"},"addTags":{"brand":"Coppel","brand:wikidata":"Q2497795","brand:wikipedia":"en:Coppel","name":"Coppel","shop":"department_store"}},"shop/department_store/havan-7a47e3":{"name":"Havan","locationSet":{"include":["br"]},"geometry":["point","area"],"matchScore":2,"terms":["havan"],"tags":{"brand:wikidata":"Q10294065","shop":"department_store"},"addTags":{"brand":"Havan","brand:wikidata":"Q10294065","brand:wikipedia":"pt:Havan","name":"Havan","shop":"department_store"}},"shop/department_store/lebiscuit-7a47e3":{"name":"Le Biscuit","locationSet":{"include":["br"]},"geometry":["point","area"],"matchScore":2,"terms":["le biscuit"],"tags":{"brand:wikidata":"Q10316700","shop":"department_store"},"addTags":{"brand":"Le Biscuit","brand:wikidata":"Q10316700","brand:wikipedia":"pt:Le Biscuit","name":"Le Biscuit","shop":"department_store"}},"shop/department_store/leader-7a47e3":{"name":"Leader","locationSet":{"include":["br"]},"geometry":["point","area"],"matchScore":2,"terms":["leader"],"tags":{"brand:wikidata":"Q10316732","shop":"department_store"},"addTags":{"brand":"Leader","brand:wikidata":"Q10316732","brand:wikipedia":"pt:Leader","name":"Leader","shop":"department_store"}},"shop/department_store/lojasamericanas-7a47e3":{"name":"Lojas Americanas","locationSet":{"include":["br"]},"geometry":["point","area"],"matchScore":2,"terms":["lojas americanas"],"tags":{"brand:wikidata":"Q3064093","shop":"department_store"},"addTags":{"brand":"Lojas Americanas","brand:wikidata":"Q3064093","brand:wikipedia":"en:Lojas Americanas","name":"Lojas Americanas","shop":"department_store"}},"shop/department_store/lojascolombo-7a47e3":{"name":"Lojas Colombo","locationSet":{"include":["br"]},"geometry":["point","area"],"matchScore":2,"terms":["colombo","lojas colombo"],"tags":{"brand:wikidata":"Q10319581","shop":"department_store"},"addTags":{"brand":"Lojas Colombo","brand:wikidata":"Q10319581","name":"Lojas Colombo","shop":"department_store"}},"shop/department_store/magazineluiza-7a47e3":{"name":"Magazine Luiza","locationSet":{"include":["br"]},"geometry":["point","area"],"matchScore":2,"terms":["magazine luiza"],"tags":{"brand:wikidata":"Q6729763","shop":"department_store"},"addTags":{"brand":"Magazine Luiza","brand:wikidata":"Q6729763","brand:wikipedia":"pt:Magazine Luiza","name":"Magazine Luiza","shop":"department_store"}},"shop/department_store/pernambucanas-7a47e3":{"name":"Pernambucanas","locationSet":{"include":["br"]},"geometry":["point","area"],"matchScore":2,"terms":["pernambucanas"],"tags":{"brand:wikidata":"Q10348714","shop":"department_store"},"addTags":{"brand":"Pernambucanas","brand:wikidata":"Q10348714","brand:wikipedia":"pt:Pernambucanas","name":"Pernambucanas","shop":"department_store"}},"shop/doityourself/sodimac-0b4811":{"name":"Sodimac","locationSet":{"include":["ar","br","cl","co","mx","pe","uy"]},"geometry":["point","area"],"matchScore":2,"terms":["sodimac","sodimac constructor"],"tags":{"brand:wikidata":"Q7553274","shop":"doityourself"},"addTags":{"brand":"Sodimac","brand:wikidata":"Q7553274","brand:wikipedia":"es:Sodimac","name":"Sodimac","shop":"doityourself"}},"shop/dry_cleaning/drycleanusa-b9a2df":{"name":"DryClean USA","locationSet":{"include":["br","mx","us"]},"geometry":["point","area"],"matchScore":2,"terms":["dryclean usa"],"tags":{"brand:wikidata":"Q108878043","shop":"dry_cleaning"},"addTags":{"brand":"DryClean USA","brand:wikidata":"Q108878043","name":"DryClean USA","shop":"dry_cleaning"}},"shop/electronics/ibyte-2bf2c3":{"name":"ibyte","locationSet":{"include":["br"]},"geometry":["point","area"],"matchScore":2,"terms":["ibyte"],"tags":{"brand:wikidata":"Q111108566","shop":"electronics"},"addTags":{"brand":"ibyte","brand:wikidata":"Q111108566","name":"ibyte","shop":"electronics"}},"shop/electronics/polishop-2bf2c3":{"name":"Polishop","locationSet":{"include":["br"]},"geometry":["point","area"],"matchScore":2,"terms":["polishop"],"tags":{"brand:wikidata":"Q10350856","shop":"electronics"},"addTags":{"brand":"Polishop","brand:wikidata":"Q10350856","brand:wikipedia":"pt:Polishop","name":"Polishop","shop":"electronics"}},"shop/fashion_accessories/chillibeans-a3a9e0":{"name":"Chilli Beans","locationSet":{"include":["br","co","kw","pe","pt","us"]},"geometry":["point","area"],"matchScore":2,"terms":["chilli beans"],"tags":{"brand:wikidata":"Q18463851","shop":"fashion_accessories"},"addTags":{"brand":"Chilli Beans","brand:wikidata":"Q18463851","brand:wikipedia":"pt:Chilli Beans","name":"Chilli Beans","shop":"fashion_accessories"}},"shop/furniture/madeiramadeira-dc6cdf":{"name":"MadeiraMadeira","locationSet":{"include":["br"]},"geometry":["point","area"],"matchScore":2,"terms":["madeiramadeira"],"tags":{"brand:wikidata":"Q86734881","shop":"furniture"},"addTags":{"brand":"MadeiraMadeira","brand:wikidata":"Q86734881","brand:wikipedia":"pt:MadeiraMadeira","name":"MadeiraMadeira","shop":"furniture"}},"shop/furniture/tokandstok-dc6cdf":{"name":"Tok&Stok","locationSet":{"include":["br"]},"geometry":["point","area"],"matchScore":2,"terms":["tok&stok"],"tags":{"brand:wikidata":"Q10382926","shop":"furniture"},"addTags":{"brand":"Tok&Stok","brand:wikidata":"Q10382926","brand:wikipedia":"pt:Tok&Stok","name":"Tok&Stok","shop":"furniture"}},"shop/health_food/biomundo-894bf8":{"name":"Bio Mundo","locationSet":{"include":["br"]},"geometry":["point","area"],"matchScore":2,"terms":["bio mundo"],"tags":{"brand:wikidata":"Q109562493","shop":"health_food"},"addTags":{"brand":"Bio Mundo","brand:wikidata":"Q109562493","name":"Bio Mundo","shop":"health_food"}},"shop/health_food/mundoverde-894bf8":{"name":"Mundo Verde","locationSet":{"include":["br"]},"geometry":["point","area"],"matchScore":2,"terms":["mundo verde"],"tags":{"brand:wikidata":"Q48856833","shop":"health_food"},"addTags":{"brand":"Mundo Verde","brand:wikidata":"Q48856833","brand:wikipedia":"pt:Mundo Verde","name":"Mundo Verde","shop":"health_food"}},"shop/household_linen/mmartan-97127c":{"name":"MMartan","locationSet":{"include":["br"]},"geometry":["point","area"],"matchScore":2,"terms":["mmartan"],"tags":{"brand:wikidata":"Q10322532","shop":"household_linen"},"addTags":{"brand":"MMartan","brand:wikidata":"Q10322532","brand:wikipedia":"pt:MMartan","name":"MMartan","shop":"household_linen"}},"shop/houseware/camicado-35237a":{"name":"Camicado","locationSet":{"include":["br"]},"geometry":["point","area"],"matchScore":2,"terms":["camicado"],"tags":{"brand:wikidata":"Q108910180","shop":"houseware"},"addTags":{"brand":"Camicado","brand:wikidata":"Q108910180","name":"Camicado","shop":"houseware"}},"shop/houseware/precolandia-35237a":{"name":"Preçolandia","locationSet":{"include":["br"]},"geometry":["point","area"],"matchScore":2,"terms":["preçolandia"],"tags":{"brand:wikidata":"Q62073183","shop":"houseware"},"addTags":{"brand":"Preçolandia","brand:wikidata":"Q62073183","name":"Preçolandia","shop":"houseware"}},"shop/jewelry/hstern-5f2e62":{"name":"H. Stern","locationSet":{"include":["ar","br","fr","il","mx","pe","ru","uk","us"]},"geometry":["point","area"],"matchScore":2,"terms":["h. stern"],"tags":{"brand:wikidata":"Q2660388","shop":"jewelry"},"addTags":{"brand":"H. Stern","brand:wikidata":"Q2660388","brand:wikipedia":"en:H.Stern","name":"H. Stern","shop":"jewelry"}},"shop/mobile_phone/claro-1c9651":{"name":"Claro","locationSet":{"include":["ar","br","cl","co","cr","do","ec","gt","hn","ni","pa","pe","pr","py","sv","uy"]},"geometry":["point","area"],"matchScore":2,"terms":["claro"],"tags":{"brand:wikidata":"Q1770208","shop":"mobile_phone"},"addTags":{"brand":"Claro","brand:wikidata":"Q1770208","brand:wikipedia":"en:Claro (company)","name":"Claro","shop":"mobile_phone"}},"shop/mobile_phone/iplace-1b1a0a":{"name":"iPlace","locationSet":{"include":["br","uy"]},"geometry":["point","area"],"matchScore":2,"terms":["iplace"],"tags":{"brand:wikidata":"Q110417768","shop":"mobile_phone"},"addTags":{"brand":"iPlace","brand:wikidata":"Q110417768","name":"iPlace","shop":"mobile_phone"}},"shop/mobile_phone/tim-a66d78":{"name":"TIM","locationSet":{"include":["br","it","sm"]},"geometry":["point","area"],"matchScore":2,"terms":["tim"],"tags":{"brand:wikidata":"Q1120617","shop":"mobile_phone"},"addTags":{"brand":"TIM","brand:wikidata":"Q1120617","brand:wikipedia":"en:TIM (brand)","name":"TIM","shop":"mobile_phone"}},"shop/money_lender/crefisa-46cd18":{"name":"Crefisa","locationSet":{"include":["br"]},"geometry":["point","area"],"matchScore":2,"terms":["crefisa"],"tags":{"brand:wikidata":"Q10261396","shop":"money_lender"},"addTags":{"brand":"Crefisa","brand:wikidata":"Q10261396","brand:wikipedia":"pt:Crefisa","shop":"money_lender"}},"shop/optician/oticascarol-5c236c":{"name":"Óticas Carol","locationSet":{"include":["br"]},"geometry":["point","area"],"matchScore":2,"terms":["óticas carol"],"tags":{"brand:wikidata":"Q28679509","shop":"optician"},"addTags":{"brand":"Óticas Carol","brand:wikidata":"Q28679509","brand:wikipedia":"pt:Óticas Carol","name":"Óticas Carol","shop":"optician"}},"shop/optician/oticasdiniz-5c236c":{"name":"Óticas Diniz","locationSet":{"include":["br"]},"geometry":["point","area"],"matchScore":2,"terms":["óticas diniz"],"tags":{"brand:wikidata":"Q10396541","shop":"optician"},"addTags":{"brand":"Óticas Diniz","brand:wikidata":"Q10396541","brand:wikipedia":"pt:Óticas Diniz","name":"Óticas Diniz","shop":"optician"}},"shop/optician/zeiss-5c236c":{"name":"Zeiss","locationSet":{"include":["br"]},"geometry":["point","area"],"matchScore":2,"terms":["zeiss"],"tags":{"brand:wikidata":"Q282186","shop":"optician"},"addTags":{"brand":"Zeiss","brand:wikidata":"Q282186","brand:wikipedia":"de:Carl Zeiss (Unternehmen)","name":"Zeiss","shop":"optician"}},"shop/perfumery/oboticario-411801":{"name":"O Boticário","locationSet":{"include":["br"]},"geometry":["point","area"],"matchScore":2,"terms":["o boticário"],"tags":{"brand:wikidata":"Q7073219","shop":"perfumery"},"addTags":{"brand":"O Boticário","brand:wikidata":"Q7073219","brand:wikipedia":"en:O Boticário","name":"O Boticário","shop":"perfumery"}},"shop/pet/cobasi-df7a1d":{"name":"Cobasi","locationSet":{"include":["br"]},"geometry":["point","area"],"matchScore":2,"terms":["cobasi"],"tags":{"brand:wikidata":"Q86739236","shop":"pet"},"addTags":{"brand":"Cobasi","brand:wikidata":"Q86739236","brand:wikipedia":"pt:Cobasi","name":"Cobasi","shop":"pet"}},"shop/pet/petz-df7a1d":{"name":"Petz","locationSet":{"include":["br"]},"geometry":["point","area"],"matchScore":2,"terms":["petz"],"tags":{"brand:wikidata":"Q28680851","shop":"pet"},"addTags":{"brand":"Petz","brand:wikidata":"Q28680851","brand:wikipedia":"pt:Petz (empresa)","name":"Petz","shop":"pet"}},"shop/shoes/arezzo-7c075c":{"name":"Arezzo","locationSet":{"include":["br"]},"geometry":["point","area"],"matchScore":2,"terms":["arezzo"],"tags":{"brand:wikidata":"Q109569586","shop":"shoes"},"addTags":{"brand":"Arezzo","brand:wikidata":"Q109569586","name":"Arezzo","shoes":"women","shop":"shoes"}},"shop/shoes/usaflex-7c075c":{"name":"Usaflex","locationSet":{"include":["br"]},"geometry":["point","area"],"matchScore":2,"terms":["usaflex"],"tags":{"brand:wikidata":"Q110442715","shop":"shoes"},"addTags":{"brand":"Usaflex","brand:wikidata":"Q110442715","name":"Usaflex","shop":"shoes"}},"shop/shoes/worldtennis-7c075c":{"name":"World Tennis","locationSet":{"include":["br"]},"geometry":["point","area"],"matchScore":2,"terms":["world tennis"],"tags":{"brand:wikidata":"Q109569513","shop":"shoes"},"addTags":{"brand":"World Tennis","brand:wikidata":"Q109569513","name":"World Tennis","shoes":"sport","shop":"shoes"}},"shop/sports/centauro-f744b5":{"name":"Centauro","locationSet":{"include":["br"]},"geometry":["point","area"],"matchScore":2,"terms":["centauro"],"tags":{"brand:wikidata":"Q28679561","shop":"sports"},"addTags":{"brand":"Centauro","brand:wikidata":"Q28679561","brand:wikipedia":"pt:Lojas Centauro","name":"Centauro","shop":"sports"}},"shop/stationery/kalunga-52f43d":{"name":"Kalunga","locationSet":{"include":["br"]},"geometry":["point","area"],"matchScore":2,"terms":["kalunga"],"tags":{"brand:wikidata":"Q10313683","shop":"stationery"},"addTags":{"brand":"Kalunga","brand:wikidata":"Q10313683","brand:wikipedia":"pt:Kalunga (empresa)","name":"Kalunga","shop":"stationery"}},"shop/supermarket/assaiatacadista-20f2a8":{"name":"Assaí Atacadista","locationSet":{"include":["br"]},"geometry":["point","area"],"matchScore":2,"terms":["assaí atacadista"],"tags":{"brand:wikidata":"Q28679415","shop":"supermarket"},"addTags":{"brand":"Assaí Atacadista","brand:wikidata":"Q28679415","brand:wikipedia":"pt:Assaí Atacadista","name":"Assaí Atacadista","shop":"supermarket"}},"shop/supermarket/atacadao-20f2a8":{"name":"Atacadão","locationSet":{"include":["br"]},"geometry":["point","area"],"matchScore":2,"terms":["atacadão"],"tags":{"brand:wikidata":"Q2868739","shop":"supermarket"},"addTags":{"brand":"Atacadão","brand:wikidata":"Q2868739","brand:wikipedia":"en:Atacadão","name":"Atacadão","shop":"supermarket"}},"shop/supermarket/bigbompreco-20f2a8":{"name":"BIG Bompreço","locationSet":{"include":["br"]},"geometry":["point","area"],"matchScore":2,"terms":["big bompreço"],"tags":{"brand:wikidata":"Q4940907","shop":"supermarket"},"addTags":{"brand":"BIG Bompreço","brand:wikidata":"Q4940907","brand:wikipedia":"pt:BIG Bompreço","name":"BIG Bompreço","shop":"supermarket"}},"shop/supermarket/extra-20f2a8":{"name":"Extra (supermercado)","locationSet":{"include":["br"]},"geometry":["point","area"],"matchScore":2,"terms":["extra"],"tags":{"brand:wikidata":"Q5422131","shop":"supermarket"},"addTags":{"brand":"Extra","brand:wikidata":"Q5422131","brand:wikipedia":"pt:Extra (rede varejista)","name":"Extra","shop":"supermarket"}},"shop/supermarket/gbarbosa-20f2a8":{"name":"GBarbosa","locationSet":{"include":["br"]},"geometry":["point","area"],"matchScore":2,"terms":["gbarbosa"],"tags":{"brand:wikidata":"Q10287817","shop":"supermarket"},"addTags":{"brand":"GBarbosa","brand:wikidata":"Q10287817","brand:wikipedia":"pt:GBarbosa","name":"GBarbosa","shop":"supermarket"}},"shop/supermarket/paodeacucar-14dbfa":{"name":"Pão de Açúcar","locationSet":{"include":["br","pt"]},"geometry":["point","area"],"matchScore":2,"terms":["pão de açúcar"],"tags":{"brand:wikidata":"Q3411543","shop":"supermarket"},"addTags":{"brand":"Pão de Açúcar","brand:wikidata":"Q3411543","brand:wikipedia":"pt:Pão de Açúcar (supermercado brasileiro)","name":"Pão de Açúcar","shop":"supermarket"}},"shop/supermarket/publix-d152e8":{"name":"Publix","locationSet":{"include":["br","us"]},"geometry":["point","area"],"matchScore":2,"terms":["publix"],"tags":{"brand:wikidata":"Q672170","shop":"supermarket"},"addTags":{"brand":"Publix","brand:wikidata":"Q672170","brand:wikipedia":"en:Publix","name":"Publix","shop":"supermarket"}},"shop/tool_hire/loxam-33fef8":{"name":"Loxam","locationSet":{"include":["ae","be","bh","br","ch","co","cz","de","dk","ee","es","fi","fr","gb","ie","it","kw","lt","lu","lv","ma","nl","no","om","pl","pt","qa","sa","se","sk"]},"geometry":["point","area"],"matchScore":2,"terms":["loxam"],"tags":{"brand:wikidata":"Q3264407","shop":"tool_hire"},"addTags":{"brand":"Loxam","brand:wikidata":"Q3264407","brand:wikipedia":"fr:Loxam","name":"Loxam","shop":"tool_hire"}},"shop/toys/bmart-9c99b8":{"name":"BMart","locationSet":{"include":["br"]},"geometry":["point","area"],"matchScore":2,"terms":["bmart"],"tags":{"brand:wikidata":"Q106752739","shop":"toys"},"addTags":{"brand":"BMart","brand:wikidata":"Q106752739","name":"BMart","shop":"toys"}},"shop/toys/rihappy-9c99b8":{"name":"Ri Happy","locationSet":{"include":["br"]},"geometry":["point","area"],"matchScore":2,"terms":["ri happy brinquedos"],"tags":{"brand:wikidata":"Q10360441","shop":"toys"},"addTags":{"brand":"Ri Happy Brinquedos","brand:wikidata":"Q10360441","brand:wikipedia":"pt:Ri Happy Brinquedos","name":"Ri Happy","official_name":"Ri Happy Brinquedos","shop":"toys"}},"shop/travel_agency/cvc-48b489":{"name":"CVC","locationSet":{"include":["br"]},"geometry":["point","area"],"matchScore":2,"terms":["cvc"],"tags":{"brand:wikidata":"Q106903991","shop":"travel_agency"},"addTags":{"brand":"CVC","brand:wikidata":"Q106903991","brand:wikipedia":"pt:CVC (empresa de turismo)","name":"CVC","shop":"travel_agency"}},"tourism/hotel/bandbhotel-fc8c2c":{"name":"B&B Hotel","locationSet":{"include":["by","bg","cz","hu","pl","md","ro","ru","sk","ua","ax","gg","je","cq","dk","ee","fo","fi","is","ie","im","lv","lt","no","sj","se","gb","al","ad","ba","hr","gi","gr","va","it","mt","me","mk","pt","sm","rs","si","es","xk","at","be","fr","de","li","lu","mc","nl","ch","br"]},"geometry":["point","area"],"matchScore":2,"terms":["b&b hotels"],"fields":["name","brand","{tourism/hotel}"],"tags":{"brand:wikidata":"Q794939","tourism":"hotel"},"addTags":{"brand":"B&B Hotels","brand:wikidata":"Q794939","brand:wikipedia":"en:B&B Hotels","name":"B&B Hotel","tourism":"hotel"}},"tourism/hotel/canopy-523ceb":{"name":"Canopy","locationSet":{"include":["ae","br","cn","es","fx","gb","hr","is","us"]},"geometry":["point","area"],"matchScore":2,"terms":["canopy","canopy by hilton"],"fields":["name","brand","{tourism/hotel}"],"tags":{"brand:wikidata":"Q30632909","tourism":"hotel"},"addTags":{"brand":"Canopy","brand:wikidata":"Q30632909","brand:wikipedia":"en:Canopy by Hilton","name":"Canopy","official_name":"Canopy by Hilton","tourism":"hotel"}},"tourism/hotel/marriottexecutiveapartments-b2f419":{"name":"Marriott Executive Apartments","locationSet":{"include":["ae","be","bh","br","cn","et","gb","hu","id","in","kr","kz","pa","sa","th","za"]},"geometry":["point","area"],"matchScore":2,"terms":["marriott executive apartments"],"fields":["name","brand","{tourism/hotel}"],"tags":{"brand:wikidata":"Q72636824","tourism":"hotel"},"addTags":{"brand":"Marriott Executive Apartments","brand:wikidata":"Q72636824","name":"Marriott Executive Apartments","tourism":"hotel"}},"tourism/hotel/tapestrycollection-1c7927":{"name":"Tapestry Collection by Hilton","locationSet":{"include":["ae","br","ca","cn","es","fx","gb","mx","pt","tw","us"]},"geometry":["point","area"],"matchScore":2,"terms":["tapestry collection","tapestry collection by hilton"],"fields":["name","brand","{tourism/hotel}"],"tags":{"brand:wikidata":"Q109275422","tourism":"hotel"},"addTags":{"brand":"Tapestry Collection","brand:wikidata":"Q109275422","tourism":"hotel"}},"amenity/charging_station/edp-387085":{"name":"EDP","locationSet":{"include":["br","es","pt"]},"geometry":["point","area"],"matchScore":2,"terms":["edp","edp comercial"],"fields":["name","operator","{amenity/charging_station}"],"tags":{"amenity":"charging_station","operator:wikidata":"Q1341222"},"addTags":{"amenity":"charging_station","operator":"EDP","operator:wikidata":"Q1341222","operator:wikipedia":"pt:Energias de Portugal"}},"amenity/clinic/ministeriodasaude-5f4b12":{"name":"Ministério da Saúde (Brasil)","locationSet":{"include":["br"]},"geometry":["point","area"],"matchScore":2,"terms":["ministério da saúde"],"reference":{"key":"amenity","value":"clinic"},"tags":{"amenity":"clinic","operator:wikidata":"Q6867090"},"addTags":{"amenity":"clinic","healthcare":"clinic","operator":"Ministério da Saúde","operator:wikidata":"Q6867090","operator:wikipedia":"pt:Ministério da Saúde (Brasil)"}},"amenity/clinic/sistemaunicodesaude-5f4b12":{"name":"Sistema Único de Saúde (Brasil)","locationSet":{"include":["br"]},"geometry":["point","area"],"matchScore":2,"terms":["sistema único de saúde","sus"],"reference":{"key":"amenity","value":"clinic"},"tags":{"amenity":"clinic","operator:wikidata":"Q7531056"},"addTags":{"amenity":"clinic","healthcare":"clinic","operator":"Sistema Único de Saúde","operator:short":"SUS","operator:wikidata":"Q7531056","operator:wikipedia":"pt:Sistema Único de Saúde"}},"amenity/hospital/ministeriodasaude-d30bb4":{"name":"Ministério da Saúde (Brasil)","locationSet":{"include":["br"]},"geometry":["area","point"],"matchScore":2,"terms":["ministério da saúde"],"fields":["name","operator","{amenity/hospital}"],"reference":{"key":"amenity","value":"hospital"},"tags":{"amenity":"hospital","operator:wikidata":"Q6867090"},"addTags":{"amenity":"hospital","healthcare":"hospital","operator":"Ministério da Saúde","operator:wikidata":"Q6867090","operator:wikipedia":"pt:Ministério da Saúde (Brasil)"}},"amenity/hospital/sistemaunicodesaude-d30bb4":{"name":"Sistema Único de Saúde","locationSet":{"include":["br"]},"geometry":["area","point"],"matchScore":2,"terms":["sistema único de saúde","sus"],"fields":["name","operator","{amenity/hospital}"],"reference":{"key":"amenity","value":"hospital"},"tags":{"amenity":"hospital","operator:wikidata":"Q7531056"},"addTags":{"amenity":"hospital","healthcare":"hospital","operator":"Sistema Único de Saúde","operator:short":"SUS","operator:wikidata":"Q7531056","operator:wikipedia":"pt:Sistema Único de Saúde"}},"amenity/hospital/unimed-d30bb4":{"name":"Unimed","locationSet":{"include":["br"]},"geometry":["area","point"],"matchScore":2,"terms":["unimed"],"fields":["name","operator","{amenity/hospital}"],"reference":{"key":"amenity","value":"hospital"},"tags":{"amenity":"hospital","operator:wikidata":"Q7865295"},"addTags":{"amenity":"hospital","healthcare":"hospital","operator":"Unimed","operator:wikidata":"Q7865295","operator:wikipedia":"pt:Unimed"}},"amenity/police/departamentodepoliciafederal-f7f40a":{"name":"Departamento de Polícia Federal","locationSet":{"include":["br"]},"geometry":["point","area"],"matchScore":2,"terms":["departamento de polícia federal"],"tags":{"amenity":"police","operator:wikidata":"Q2289697"},"addTags":{"amenity":"police","operator":"Departamento de Polícia Federal","operator:wikidata":"Q2289697","operator:wikipedia":"pt:Polícia Federal do Brasil"}},"amenity/police/policiacivildoestadodesaopaulo-f7f40a":{"name":"Polícia Civil do Estado de São Paulo","locationSet":{"include":["br"]},"geometry":["point","area"],"matchScore":2,"terms":["polícia civil do estado de são paulo"],"tags":{"amenity":"police","operator:wikidata":"Q10350993"},"addTags":{"amenity":"police","operator":"Polícia Civil do Estado de São Paulo","operator:wikidata":"Q10350993","operator:wikipedia":"pt:Polícia Civil do Estado de São Paulo"}},"amenity/police/policiafederaldobrasil-f7f40a":{"name":"Polícia Federal do Brasil","locationSet":{"include":["br"]},"geometry":["point","area"],"matchScore":2,"terms":["federal","federal police of brazil","polícia federal do brasil"],"tags":{"amenity":"police","operator:wikidata":"Q2289697"},"addTags":{"amenity":"police","operator":"Polícia Federal do Brasil","operator:en":"Federal Police of Brazil","operator:wikidata":"Q2289697","operator:wikipedia":"pt:Polícia Federal do Brasil"}},"amenity/police/policiamilitardabahia-f7f40a":{"name":"Polícia Militar da Bahia","locationSet":{"include":["br"]},"geometry":["point","area"],"matchScore":2,"terms":["pmba","polícia militar da bahia"],"tags":{"amenity":"police","operator:wikidata":"Q10351014"},"addTags":{"amenity":"police","operator":"Polícia Militar da Bahia","operator:short":"PMBA","operator:wikidata":"Q10351014","operator:wikipedia":"pt:Polícia Militar de Alagoas"}},"amenity/police/policiamilitardaparaiba-f7f40a":{"name":"Polícia Militar da Paraíba","locationSet":{"include":["br"]},"geometry":["point","area"],"matchScore":2,"terms":["pmpb","polícia militar da paraíba"],"tags":{"amenity":"police","operator:wikidata":"Q10351013"},"addTags":{"amenity":"police","operator":"Polícia Militar da Paraíba","operator:short":"PMPB","operator:wikidata":"Q10351013","operator:wikipedia":"pt:Polícia Militar da Paraíba"}},"amenity/police/policiamilitardealagoas-f7f40a":{"name":"Polícia Militar de Alagoas","locationSet":{"include":["br"]},"geometry":["point","area"],"matchScore":2,"terms":["pmal","polícia militar de alagoas"],"tags":{"amenity":"police","operator:wikidata":"Q10351014"},"addTags":{"amenity":"police","operator":"Polícia Militar de Alagoas","operator:short":"PMAL","operator:wikidata":"Q10351014","operator:wikipedia":"pt:Polícia Militar de Alagoas"}},"amenity/police/policiamilitardematogrossodosul-f7f40a":{"name":"Polícia Militar de Mato Grosso do Sul","locationSet":{"include":["br"]},"geometry":["point","area"],"matchScore":2,"terms":["pmms","polícia militar de mato grosso do sul"],"tags":{"amenity":"police","operator:wikidata":"Q10351016"},"addTags":{"amenity":"police","operator":"Polícia Militar de Mato Grosso do Sul","operator:short":"PMMS","operator:wikidata":"Q10351016","operator:wikipedia":"pt:Polícia Militar de Mato Grosso do Sul"}},"amenity/police/policiamilitardeminasgerais-f7f40a":{"name":"Polícia Militar de Minas Gerais","locationSet":{"include":["br"]},"geometry":["point","area"],"matchScore":2,"terms":["pmmg","polícia militar de minas gerais"],"tags":{"amenity":"police","operator:wikidata":"Q6852134"},"addTags":{"amenity":"police","operator":"Polícia Militar de Minas Gerais","operator:short":"PMMG","operator:wikidata":"Q6852134","operator:wikipedia":"pt:Polícia Militar do Estado de Minas Gerais"}},"amenity/police/policiamilitardepernambuco-f7f40a":{"name":"Polícia Militar de Pernambuco","locationSet":{"include":["br"]},"geometry":["point","area"],"matchScore":2,"terms":["pmpe","polícia militar de pernambuco"],"tags":{"amenity":"police","operator:wikidata":"Q10351015"},"addTags":{"amenity":"police","operator":"Polícia Militar de Pernambuco","operator:short":"PMPE","operator:wikidata":"Q10351015","operator:wikipedia":"pt:Polícia Militar de Pernambuco"}},"amenity/police/policiamilitarderoraima-f7f40a":{"name":"Polícia Militar de Roraima","locationSet":{"include":["br"]},"geometry":["point","area"],"matchScore":2,"terms":["pmrr","polícia militar de roraima"],"tags":{"amenity":"police","operator:wikidata":"Q10351018"},"addTags":{"amenity":"police","operator":"Polícia Militar de Roraima","operator:short":"PMRR","operator:wikidata":"Q10351018","operator:wikipedia":"pt:Polícia Militar de Roraima"}},"amenity/police/policiamilitardesantacatarina-f7f40a":{"name":"Polícia Militar de Santa Catarina","locationSet":{"include":["br"]},"geometry":["point","area"],"matchScore":2,"terms":["pmsc","polícia militar de santa catarina"],"tags":{"amenity":"police","operator:wikidata":"Q10351017"},"addTags":{"amenity":"police","operator":"Polícia Militar de Santa Catarina","operator:short":"PMSC","operator:wikidata":"Q10351017","operator:wikipedia":"pt:Polícia Militar de Santa Catarina"}},"amenity/police/policiamilitardoamazonas-f7f40a":{"name":"Polícia Militar do Amazonas","locationSet":{"include":["br"]},"geometry":["point","area"],"matchScore":2,"terms":["pmam","polícia militar do amazonas"],"tags":{"amenity":"police","operator:wikidata":"Q10351020"},"addTags":{"amenity":"police","operator":"Polícia Militar do Amazonas","operator:short":"PMAM","operator:wikidata":"Q10351020","operator:wikipedia":"pt:Polícia Militar do Amazonas"}},"amenity/police/policiamilitardodistritofederal-f7f40a":{"name":"Polícia Militar do Distrito Federal","locationSet":{"include":["br"]},"geometry":["point","area"],"matchScore":2,"terms":["pmdf","polícia militar do distrito federal"],"tags":{"amenity":"police","operator:wikidata":"Q10351019"},"addTags":{"amenity":"police","operator":"Polícia Militar do Distrito Federal","operator:short":"PMDF","operator:wikidata":"Q10351019","operator:wikipedia":"pt:Polícia Militar do Distrito Federal"}},"amenity/police/policiamilitardoestadodegoias-f7f40a":{"name":"Polícia Militar do Estado de Goiás","locationSet":{"include":["br"]},"geometry":["point","area"],"matchScore":2,"terms":["pmgo","polícia militar do estado de goiás"],"tags":{"amenity":"police","operator:wikidata":"Q6852133"},"addTags":{"amenity":"police","operator":"Polícia Militar do Estado de Goiás","operator:short":"PMGO","operator:wikidata":"Q6852133","operator:wikipedia":"pt:Polícia Militar do Estado de Goiás"}},"amenity/police/policiamilitardoestadodematogrosso-f7f40a":{"name":"Polícia Militar do Estado de Mato Grosso","locationSet":{"include":["br"]},"geometry":["point","area"],"matchScore":2,"terms":["pmmt","polícia militar do estado de mato grosso"],"tags":{"amenity":"police","operator:wikidata":"Q10351022"},"addTags":{"amenity":"police","operator":"Polícia Militar do Estado de Mato Grosso","operator:short":"PMMT","operator:wikidata":"Q10351022","operator:wikipedia":"pt:Polícia Militar do Estado de Mato Grosso"}},"amenity/police/policiamilitardoestadoderondonia-f7f40a":{"name":"Polícia Militar do Estado de Rondônia","locationSet":{"include":["br"]},"geometry":["point","area"],"matchScore":2,"terms":["pmro","polícia militar do estado de rondônia"],"tags":{"amenity":"police","operator:wikidata":"Q10351021"},"addTags":{"amenity":"police","operator":"Polícia Militar do Estado de Rondônia","operator:short":"PMRO","operator:wikidata":"Q10351021","operator:wikipedia":"pt:Polícia Militar do Estado de Rondônia"}},"amenity/police/policiamilitardoestadodesaopaulo-f7f40a":{"name":"Polícia Militar do Estado de São Paulo","locationSet":{"include":["br"]},"geometry":["point","area"],"matchScore":2,"terms":["pmesp","polícia militar do estado de são paulo"],"tags":{"amenity":"police","operator:wikidata":"Q10351025"},"addTags":{"amenity":"police","operator":"Polícia Militar do Estado de São Paulo","operator:short":"PMESP","operator:wikidata":"Q10351025","operator:wikipedia":"pt:Polícia Militar do Estado de São Paulo"}},"amenity/police/policiamilitardoestadodesergipe-f7f40a":{"name":"Polícia Militar do Estado de Sergipe","locationSet":{"include":["br"]},"geometry":["point","area"],"matchScore":2,"terms":["pmse","polícia militar do estado de sergipe"],"tags":{"amenity":"police","operator:wikidata":"Q10351023"},"addTags":{"amenity":"police","operator":"Polícia Militar do Estado de Sergipe","operator:short":"PMSE","operator:wikidata":"Q10351023","operator:wikipedia":"pt:Polícia Militar do Estado de Sergipe"}},"amenity/police/policiamilitardoestadodoacre-f7f40a":{"name":"Polícia Militar do Estado do Acre","locationSet":{"include":["br"]},"geometry":["point","area"],"matchScore":2,"terms":["pmac","polícia militar do estado do acre"],"tags":{"amenity":"police","operator:wikidata":"Q10351024"},"addTags":{"amenity":"police","operator":"Polícia Militar do Estado do Acre","operator:short":"PMAC","operator:wikidata":"Q10351024","operator:wikipedia":"pt:Polícia Militar do Estado do Acre"}},"amenity/police/ppoliciamilitardoestadodoamapa-f7f40a":{"name":"Polícia Militar do Estado do Amapá","locationSet":{"include":["br"]},"geometry":["point","area"],"matchScore":2,"terms":["pmap","ppolícia militar do estado do amapá"],"tags":{"amenity":"police","operator:wikidata":"Q10351026"},"addTags":{"amenity":"police","operator":"PPolícia Militar do Estado do Amapá","operator:short":"PMAP","operator:wikidata":"Q10351026","operator:wikipedia":"pt:Polícia Militar do Estado do Amapá"}},"amenity/police/policiamilitardoestadodoceara-f7f40a":{"name":"Polícia Militar do Estado do Ceará","locationSet":{"include":["br"]},"geometry":["point","area"],"matchScore":2,"terms":["pmce","polícia militar do estado do ceará"],"tags":{"amenity":"police","operator:wikidata":"Q10351027"},"addTags":{"amenity":"police","operator":"Polícia Militar do Estado do Ceará","operator:short":"PMCE","operator:wikidata":"Q10351027","operator:wikipedia":"pt:Polícia Militar do Estado do Ceará"}},"amenity/police/policiamilitardoestadodoespiritosanto-f7f40a":{"name":"Polícia Militar do Estado do Espírito Santo","locationSet":{"include":["br"]},"geometry":["point","area"],"matchScore":2,"terms":["pmes","polícia militar do estado do espírito santo"],"tags":{"amenity":"police","operator:wikidata":"Q10351029"},"addTags":{"amenity":"police","operator":"Polícia Militar do Estado do Espírito Santo","operator:short":"PMES","operator:wikidata":"Q10351029","operator:wikipedia":"pt:Polícia Militar do Estado do Espírito Santo"}},"amenity/police/policiamilitardoestadodomaranhao-f7f40a":{"name":"Polícia Militar do Estado do Maranhão","locationSet":{"include":["br"]},"geometry":["point","area"],"matchScore":2,"terms":["pmma","polícia militar do estado do maranhão"],"tags":{"amenity":"police","operator:wikidata":"Q10351028"},"addTags":{"amenity":"police","operator":"Polícia Militar do Estado do Maranhão","operator:short":"PMMA","operator:wikidata":"Q10351028","operator:wikipedia":"pt:Polícia Militar do Estado do Maranhão"}},"amenity/police/policiamilitardoestadodopara-f7f40a":{"name":"Polícia Militar do Estado do Pará","locationSet":{"include":["br"]},"geometry":["point","area"],"matchScore":2,"terms":["pmpa","polícia militar do estado do pará"],"tags":{"amenity":"police","operator:wikidata":"Q10351031"},"addTags":{"amenity":"police","operator":"Polícia Militar do Estado do Pará","operator:short":"PMPA","operator:wikidata":"Q10351031","operator:wikipedia":"pt:Polícia Militar do Estado do Pará"}},"amenity/police/policiamilitardoestadodopiaui-f7f40a":{"name":"Polícia Militar do Estado do Piauí","locationSet":{"include":["br"]},"geometry":["point","area"],"matchScore":2,"terms":["pmpi","polícia militar do estado do piauí"],"tags":{"amenity":"police","operator:wikidata":"Q10351030"},"addTags":{"amenity":"police","operator":"Polícia Militar do Estado do Piauí","operator:short":"PMPI","operator:wikidata":"Q10351030","operator:wikipedia":"pt:Polícia Militar do Estado do Piauí"}},"amenity/police/policiamilitardoestadodoriodejaneiro-f7f40a":{"name":"Polícia Militar do Estado do Rio de Janeiro","locationSet":{"include":["br"]},"geometry":["point","area"],"matchScore":2,"terms":["pmerj","polícia militar do estado do rio de janeiro"],"tags":{"amenity":"police","operator:wikidata":"Q6852137"},"addTags":{"amenity":"police","operator":"Polícia Militar do Estado do Rio de Janeiro","operator:short":"PMERJ","operator:wikidata":"Q6852137","operator:wikipedia":"pt:Polícia Militar do Estado do Rio de Janeiro"}},"amenity/police/policiamilitardoestadodoriograndedonorte-f7f40a":{"name":"Polícia Militar do Estado do Rio Grande do Norte","locationSet":{"include":["br"]},"geometry":["point","area"],"matchScore":2,"terms":["pmrn","polícia militar do estado do rio grande do norte"],"tags":{"amenity":"police","operator:wikidata":"Q10351032"},"addTags":{"amenity":"police","operator":"Polícia Militar do Estado do Rio Grande do Norte","operator:short":"PMRN","operator:wikidata":"Q10351032","operator:wikipedia":"pt:Polícia Militar do Estado do Rio Grande do Norte"}},"amenity/police/policiamilitardoestadodotocantins-f7f40a":{"name":"Polícia Militar do Estado do Tocantins","locationSet":{"include":["br"]},"geometry":["point","area"],"matchScore":2,"terms":["pmto","polícia militar do estado do tocantins"],"tags":{"amenity":"police","operator:wikidata":"Q10351033"},"addTags":{"amenity":"police","operator":"Polícia Militar do Estado do Tocantins","operator:short":"PMTO","operator:wikidata":"Q10351033","operator:wikipedia":"pt:Polícia Militar do Estado do Tocantins"}},"amenity/police/policiamilitardoparana-f7f40a":{"name":"Polícia Militar do Paraná","locationSet":{"include":["br"]},"geometry":["point","area"],"matchScore":2,"terms":["pmpr","polícia militar do paraná"],"tags":{"amenity":"police","operator:wikidata":"Q1144660"},"addTags":{"amenity":"police","operator":"Polícia Militar do Paraná","operator:short":"PMPR","operator:wikidata":"Q1144660","operator:wikipedia":"pt:Polícia Militar do Paraná"}},"amenity/police/policiarodoviariafederal-f7f40a":{"name":"Polícia Rodoviária Federal","locationSet":{"include":["br"]},"geometry":["point","area"],"matchScore":2,"terms":["polícia rodoviária federal"],"tags":{"amenity":"police","operator:wikidata":"Q1158853"},"addTags":{"amenity":"police","operator":"Polícia Rodoviária Federal","operator:wikidata":"Q1158853","operator:wikipedia":"pt:Polícia Rodoviária Federal"}},"amenity/police/secretariadasegurancapublicadoestadodesaopaulo-f7f40a":{"name":"Secretaria da Segurança Pública do Estado de São Paulo","locationSet":{"include":["br"]},"geometry":["point","area"],"matchScore":2,"terms":["secretaria da segurança pública do estado de são paulo","secretaria de segurança pública do estado de são paulo"],"tags":{"amenity":"police","operator:wikidata":"Q10295162"},"addTags":{"amenity":"police","operator":"Secretaria da Segurança Pública do Estado de São Paulo","operator:wikidata":"Q10295162","operator:wikipedia":"pt:Secretaria de Estado dos Negócios da Segurança Pública de São Paulo"}},"amenity/post_box/correios-a9f49f":{"name":"Correios","locationSet":{"include":["br"]},"geometry":["point","vertex"],"matchScore":2,"terms":["correios","ebct","ect","empresa brasileira de correios e telégrafos"],"tags":{"amenity":"post_box","operator:wikidata":"Q3375004"},"addTags":{"amenity":"post_box","operator":"Correios","operator:wikidata":"Q3375004","operator:wikipedia":"en:Correios"}},"amenity/post_office/correios-e82118":{"name":"Correios","locationSet":{"include":["br"]},"geometry":["point","area"],"matchScore":2,"terms":["correios","ebct","ect","empresa brasileira de correios e telégrafos"],"fields":["name","operator","{amenity/post_office}"],"tags":{"amenity":"post_office","operator:wikidata":"Q3375004"},"addTags":{"amenity":"post_office","operator":"Correios","operator:wikidata":"Q3375004","operator:wikipedia":"en:Correios"}},"amenity/school/governodoestadodaparaiba-52f4f1":{"name":"Governo do Estado da Paraíba","locationSet":{"include":["br"]},"geometry":["area","point"],"matchScore":2,"terms":["governo do estado da paraíba"],"tags":{"amenity":"school","operator:wikidata":"Q96476089"},"addTags":{"amenity":"school","operator":"Governo do Estado da Paraíba","operator:type":"government","operator:wikidata":"Q96476089"}},"amenity/school/governodoestadodesantacatarina-52f4f1":{"name":"Governo do Estado de Santa Catarina","locationSet":{"include":["br"]},"geometry":["area","point"],"matchScore":2,"terms":["governo do estado de santa catarina"],"tags":{"amenity":"school","operator:wikidata":"Q67536979"},"addTags":{"amenity":"school","operator":"Governo do Estado de Santa Catarina","operator:type":"government","operator:wikidata":"Q67536979"}},"amenity/school/governodoestadodesaopaulo-52f4f1":{"name":"Governo do Estado de São Paulo","locationSet":{"include":["br"]},"geometry":["area","point"],"matchScore":2,"terms":["governo do estado de são paulo"],"tags":{"amenity":"school","operator:wikidata":"Q10290787"},"addTags":{"amenity":"school","operator":"Governo do Estado de São Paulo","operator:type":"government","operator:wikidata":"Q10290787","operator:wikipedia":"pt:Governo do estado de São Paulo"}},"amenity/school/governodoestadodoceara-52f4f1":{"name":"Governo do Estado do Ceará","locationSet":{"include":["br"]},"geometry":["area","point"],"matchScore":2,"terms":["governo do estado do ceará"],"tags":{"amenity":"school","operator:wikidata":"Q96475319"},"addTags":{"amenity":"school","operator":"Governo do Estado do Ceará","operator:type":"government","operator:wikidata":"Q96475319"}},"amenity/school/governodoestadodoriodejaneiro-52f4f1":{"name":"Governo do Estado do Rio de Janeiro","locationSet":{"include":["br"]},"geometry":["area","point"],"matchScore":2,"terms":["governo do estado do rio de janeiro"],"tags":{"amenity":"school","operator:wikidata":"Q48855361"},"addTags":{"amenity":"school","operator":"Governo do Estado do Rio de Janeiro","operator:type":"government","operator:wikidata":"Q48855361","operator:wikipedia":"pt:Governo do Estado do Rio de Janeiro"}},"amenity/school/governodoestadodoriograndedonorte-52f4f1":{"name":"Governo do Estado do Rio Grande do Norte","locationSet":{"include":["br"]},"geometry":["area","point"],"matchScore":2,"terms":["governo do estado do rio grande do norte"],"tags":{"amenity":"school","operator:wikidata":"Q10290785"},"addTags":{"amenity":"school","operator":"Governo do Estado do Rio Grande do Norte","operator:type":"government","operator:wikidata":"Q10290785","operator:wikipedia":"pt:Governo do Rio Grande do Norte"}},"emergency/ambulance_station/samu192-01b57c":{"name":"SAMU 192","locationSet":{"include":["br"]},"geometry":["point","area"],"matchScore":2,"terms":["samu","samu 192"],"tags":{"emergency":"ambulance_station","operator:wikidata":"Q104713679"},"addTags":{"emergency":"ambulance_station","operator":"SAMU 192","operator:wikidata":"Q104713679","operator:wikipedia":"pt:Serviço de Atendimento Móvel de Urgência"}},"emergency/lifeguard/corpodebombeirosmilitardesantacatarina-4f4d5b":{"name":"Corpo de Bombeiros Militar de Santa Catarina","locationSet":{"include":["br"]},"geometry":["point","area"],"matchScore":2,"terms":["cbmsc","corpo de bombeiros militar de santa catarina"],"tags":{"emergency":"lifeguard","operator:wikidata":"Q768967"},"addTags":{"emergency":"lifeguard","operator":"Corpo de Bombeiros Militar de Santa Catarina","operator:short":"CBMSC","operator:wikidata":"Q768967","operator:wikipedia":"pt:Corpo de Bombeiros Militar de Santa Catarina"}},"emergency/phone/abtriangulodosol-880fe0":{"name":"AB Triangulo do Sol","locationSet":{"include":["br"]},"geometry":["point","vertex"],"matchScore":2,"terms":["ab triangulo do sol"],"tags":{"emergency":"phone","operator:wikidata":"Q3539764"},"addTags":{"emergency":"phone","operator":"AB Triangulo do Sol","operator:wikidata":"Q3539764","operator:wikipedia":"pt:Triângulo do Sol"}},"leisure/nature_reserve/prefeituradecatalao-f60c7d":{"name":"Prefeitura de Catalão","locationSet":{"include":["br"]},"geometry":["area","point"],"matchScore":2,"terms":["prefeitura de catalão"],"tags":{"leisure":"nature_reserve","operator:wikidata":"Q35135"},"addTags":{"leisure":"nature_reserve","operator":"Prefeitura de Catalão","operator:type":"government","operator:wikidata":"Q35135","operator:wikipedia":"pt:Catalão (Goiás)"}},"leisure/nature_reserve/prefeituradefortaleza-f60c7d":{"name":"Prefeitura de Fortaleza","locationSet":{"include":["br"]},"geometry":["area","point"],"matchScore":2,"terms":["prefeitura de fortaleza"],"tags":{"leisure":"nature_reserve","operator:wikidata":"Q43463"},"addTags":{"leisure":"nature_reserve","operator":"Prefeitura de Fortaleza","operator:type":"government","operator:wikidata":"Q43463","operator:wikipedia":"pt:Fortaleza"}},"leisure/nature_reserve/prefeituradejuizdefora-f60c7d":{"name":"Prefeitura de Juiz de Fora","locationSet":{"include":["br"]},"geometry":["area","point"],"matchScore":2,"terms":["prefeitura de juiz de fora"],"tags":{"leisure":"nature_reserve","operator:wikidata":"Q193019"},"addTags":{"leisure":"nature_reserve","operator":"Prefeitura de Juiz de Fora","operator:type":"government","operator:wikidata":"Q193019","operator:wikipedia":"pt:Juiz de Fora"}},"leisure/nature_reserve/prefeituraderibeiraopires-f60c7d":{"name":"Prefeitura de Ribeirão Pires","locationSet":{"include":["br"]},"geometry":["area","point"],"matchScore":2,"terms":["prefeitura de ribeirão pires"],"tags":{"leisure":"nature_reserve","operator:wikidata":"Q927935"},"addTags":{"leisure":"nature_reserve","operator":"Prefeitura de Ribeirão Pires","operator:type":"government","operator:wikidata":"Q927935","operator:wikipedia":"pt:Ribeirão Pires"}},"leisure/nature_reserve/prefeituraderioverde-f60c7d":{"name":"Prefeitura de Rio Verde","locationSet":{"include":["br"]},"geometry":["area","point"],"matchScore":2,"terms":["pmrv","prefeitura de rio verde"],"tags":{"leisure":"nature_reserve","operator:wikidata":"Q942064"},"addTags":{"leisure":"nature_reserve","operator":"Prefeitura de Rio Verde","operator:type":"government","operator:wikidata":"Q942064","operator:wikipedia":"pt:Rio Verde"}},"leisure/nature_reserve/prefeituramunicipaldepaulinia-f60c7d":{"name":"Prefeitura Municipal de Paulínia","locationSet":{"include":["br"]},"geometry":["area","point"],"matchScore":2,"terms":["prefeitura municipal de paulínia"],"tags":{"leisure":"nature_reserve","operator:wikidata":"Q40706"},"addTags":{"leisure":"nature_reserve","operator":"Prefeitura Municipal de Paulínia","operator:type":"government","operator:wikidata":"Q40706","operator:wikipedia":"pt:Paulínia"}},"leisure/nature_reserve/prefeituramunicipaldesantarem-f60c7d":{"name":"Prefeitura Municipal de Santarém","locationSet":{"include":["br"]},"geometry":["area","point"],"matchScore":2,"terms":["prefeitura municipal de santarém"],"tags":{"leisure":"nature_reserve","operator:wikidata":"Q659450"},"addTags":{"leisure":"nature_reserve","operator":"Prefeitura Municipal de Santarém","operator:type":"government","operator:wikidata":"Q659450","operator:wikipedia":"pt:Santarém (Pará)"}},"leisure/park/prefeituradecatalao-4fe732":{"name":"Prefeitura de Catalão","locationSet":{"include":["br"]},"geometry":["area","point"],"matchScore":2,"terms":["prefeitura de catalão"],"tags":{"leisure":"park","operator:wikidata":"Q35135"},"addTags":{"leisure":"park","operator":"Prefeitura de Catalão","operator:type":"government","operator:wikidata":"Q35135","operator:wikipedia":"pt:Catalão (Goiás)"}},"leisure/park/prefeituradefortaleza-4fe732":{"name":"Prefeitura de Fortaleza","locationSet":{"include":["br"]},"geometry":["area","point"],"matchScore":2,"terms":["prefeitura de fortaleza"],"tags":{"leisure":"park","operator:wikidata":"Q43463"},"addTags":{"leisure":"park","operator":"Prefeitura de Fortaleza","operator:type":"government","operator:wikidata":"Q43463","operator:wikipedia":"pt:Fortaleza"}},"leisure/park/prefeituradejuizdefora-4fe732":{"name":"Prefeitura de Juiz de Fora","locationSet":{"include":["br"]},"geometry":["area","point"],"matchScore":2,"terms":["prefeitura de juiz de fora"],"tags":{"leisure":"park","operator:wikidata":"Q193019"},"addTags":{"leisure":"park","operator":"Prefeitura de Juiz de Fora","operator:type":"government","operator:wikidata":"Q193019","operator:wikipedia":"pt:Juiz de Fora"}},"leisure/park/prefeituraderibeiraopires-4fe732":{"name":"Prefeitura de Ribeirão Pires","locationSet":{"include":["br"]},"geometry":["area","point"],"matchScore":2,"terms":["prefeitura de ribeirão pires"],"tags":{"leisure":"park","operator:wikidata":"Q927935"},"addTags":{"leisure":"park","operator":"Prefeitura de Ribeirão Pires","operator:type":"government","operator:wikidata":"Q927935","operator:wikipedia":"pt:Ribeirão Pires"}},"leisure/park/prefeituraderioverde-4fe732":{"name":"Prefeitura de Rio Verde","locationSet":{"include":["br"]},"geometry":["area","point"],"matchScore":2,"terms":["pmrv","prefeitura de rio verde"],"tags":{"leisure":"park","operator:wikidata":"Q942064"},"addTags":{"leisure":"park","operator":"Prefeitura de Rio Verde","operator:type":"government","operator:wikidata":"Q942064","operator:wikipedia":"pt:Rio Verde"}},"leisure/park/prefeituramunicipaldepaulinia-4fe732":{"name":"Prefeitura Municipal de Paulínia","locationSet":{"include":["br"]},"geometry":["area","point"],"matchScore":2,"terms":["prefeitura municipal de paulínia"],"tags":{"leisure":"park","operator:wikidata":"Q40706"},"addTags":{"leisure":"park","operator":"Prefeitura Municipal de Paulínia","operator:type":"government","operator:wikidata":"Q40706","operator:wikipedia":"pt:Paulínia"}},"leisure/park/prefeituramunicipaldesantarem-4fe732":{"name":"Prefeitura Municipal de Santarém","locationSet":{"include":["br"]},"geometry":["area","point"],"matchScore":2,"terms":["prefeitura municipal de santarém"],"tags":{"leisure":"park","operator:wikidata":"Q659450"},"addTags":{"leisure":"park","operator":"Prefeitura Municipal de Santarém","operator:type":"government","operator:wikidata":"Q659450","operator:wikipedia":"pt:Santarém (Pará)"}},"man_made/wastewater_plant/companhiadeaguaeesgotodoceara-11a6e3":{"name":"Companhia de Água e Esgoto do Ceará","locationSet":{"include":["br"]},"geometry":["point","area"],"matchScore":2,"terms":["cagece","companhia de água e esgoto do ceará"],"tags":{"man_made":"wastewater_plant","operator:wikidata":"Q19609168"},"addTags":{"man_made":"wastewater_plant","operator":"Companhia de Água e Esgoto do Ceará","operator:short":"Cagece","operator:wikidata":"Q19609168","operator:wikipedia":"pt:Companhia de Água e Esgoto do Ceará"}},"man_made/wastewater_plant/compesa-11a6e3":{"name":"Compesa","locationSet":{"include":["br"]},"geometry":["point","area"],"matchScore":2,"terms":["compesa"],"tags":{"man_made":"wastewater_plant","operator:wikidata":"Q9830582"},"addTags":{"man_made":"wastewater_plant","operator":"Compesa","operator:wikidata":"Q9830582","operator:wikipedia":"pt:Companhia Pernambucana de Saneamento"}},"man_made/wastewater_plant/sabesp-11a6e3":{"name":"Sabesp","locationSet":{"include":["br"]},"geometry":["point","area"],"matchScore":2,"terms":["sabesp"],"tags":{"man_made":"wastewater_plant","operator:wikidata":"Q183184"},"addTags":{"man_made":"wastewater_plant","operator":"Sabesp","operator:wikidata":"Q183184","operator:wikipedia":"pt:Companhia de Saneamento Básico do Estado de São Paulo"}},"office/energy_supplier/naturgy-e15d8a":{"name":"Naturgy","locationSet":{"include":["ar","au","be","br","cl","cn","cr","de","do","dz","eg","es","fr","gb","ie","in","jm","jo","jp","lu","ma","mx","nl","om","pa","pe","pk","pr","pt","sg"]},"geometry":["point","area"],"matchScore":2,"terms":["naturgy"],"tags":{"office":"energy_supplier","operator:wikidata":"Q474690"},"addTags":{"name":"Naturgy","office":"energy_supplier","operator":"Naturgy","operator:wikidata":"Q474690","operator:wikipedia":"es:Naturgy"}},"office/government/companhiadeaguaeesgotodoceara-efa52e":{"name":"Companhia de Água e Esgoto do Ceará","locationSet":{"include":["br"]},"geometry":["point","area"],"matchScore":2,"terms":["cagece","companhia de água e esgoto do ceará"],"tags":{"office":"government","operator:wikidata":"Q19609168"},"addTags":{"office":"government","operator":"Companhia de Água e Esgoto do Ceará","operator:short":"Cagece","operator:wikidata":"Q19609168","operator:wikipedia":"pt:Companhia de Água e Esgoto do Ceará"}},"office/government/governodoestadodesaopaulo-efa52e":{"name":"Governo do Estado de São Paulo","locationSet":{"include":["br"]},"geometry":["point","area"],"matchScore":2,"terms":["governo do estado de são paulo"],"tags":{"office":"government","operator:wikidata":"Q10290787"},"addTags":{"office":"government","operator":"Governo do Estado de São Paulo","operator:wikidata":"Q10290787","operator:wikipedia":"pt:Governo do estado de São Paulo"}},"office/government/institutonacionaldosegurosocial-efa52e":{"name":"INSS","locationSet":{"include":["br"]},"geometry":["point","area"],"matchScore":2,"terms":["inss","instituto nacional do seguro social"],"tags":{"office":"government","operator:wikidata":"Q10302614"},"addTags":{"government":"social_security","office":"government","operator":"Instituto Nacional do Seguro Social","operator:short":"INSS","operator:wikidata":"Q10302614","operator:wikipedia":"pt:Instituto Nacional do Seguro Social"}},"office/government/register_office/tribunalregionaleleitoraldf-efa52e":{"name":"Tribunal Regional Eleitoral - DF","locationSet":{"include":["br"]},"geometry":["point","area"],"matchScore":2,"terms":["tribunal regional eleitoral - df"],"reference":{"key":"government","value":"register_office"},"tags":{"government":"register_office","office":"government","operator:wikidata":"Q25428038"},"addTags":{"government":"register_office","office":"government","operator":"Tribunal Regional Eleitoral - DF","operator:wikidata":"Q25428038","operator:wikipedia":"pt:Tribunal Regional Eleitoral do Distrito Federal"}},"power/generator/chesf-104cf6":{"name":"Chesf","locationSet":{"include":["br"]},"geometry":["point","vertex","area"],"matchScore":2,"terms":["chesf"],"tags":{"operator:wikidata":"Q5011113","power":"generator"},"addTags":{"operator":"Chesf","operator:wikidata":"Q5011113","operator:wikipedia":"pt:Eletrobras Chesf","power":"generator"}},"power/generator/itaipubinacional-635f5b":{"name":"ITAIPU Binacional","locationSet":{"include":["br","py"]},"geometry":["point","vertex","area"],"matchScore":2,"terms":["itaipu binacional"],"tags":{"operator:wikidata":"Q244169","power":"generator"},"addTags":{"operator":"ITAIPU Binacional","operator:wikidata":"Q244169","operator:wikipedia":"pt:Usina Hidrelétrica de Itaipu","power":"generator"}},"power/generator/neoenergia-104cf6":{"name":"Neoenergia","locationSet":{"include":["br"]},"geometry":["point","vertex","area"],"matchScore":2,"terms":["neoenergia","neoenergia/iberdrola"],"tags":{"operator:wikidata":"Q10336225","power":"generator"},"addTags":{"operator":"Neoenergia","operator:wikidata":"Q10336225","operator:wikipedia":"pt:Neoenergia","power":"generator"}},"power/line/ceee-ddc6a3":{"name":"CEEE","locationSet":{"include":["br"]},"geometry":["line"],"matchScore":2,"terms":["ceee","ceee gt","ceee gt - companhia estadual de geração e transmissão de energia elétrica","companhia estadual de geração e transmissão de energia elétrica"],"tags":{"operator:wikidata":"Q10291701","power":"line"},"addTags":{"operator":"CEEE","operator:wikidata":"Q10291701","operator:wikipedia":"pt:Grupo CEEE","power":"line"}},"power/line/celesc-ddc6a3":{"name":"Celesc","locationSet":{"include":["br"]},"geometry":["line"],"matchScore":2,"terms":["celesc","celesc distribuição","celesc distribuição sa"],"tags":{"operator:wikidata":"Q638533","power":"line"},"addTags":{"operator":"Celesc","operator:wikidata":"Q638533","operator:wikipedia":"pt:Centrais Elétricas de Santa Catarina","power":"line"}},"power/line/cemig-ddc6a3":{"name":"Cemig","locationSet":{"include":["br"]},"geometry":["line"],"matchScore":2,"terms":["cemig","cemig geração e transmissão","cemig geração e transmissão sa"],"tags":{"operator:wikidata":"Q1121202","power":"line"},"addTags":{"operator":"Cemig","operator:wikidata":"Q1121202","operator:wikipedia":"pt:Companhia Energética de Minas Gerais","power":"line"}},"power/line/coelba-ddc6a3":{"name":"Coelba","locationSet":{"include":["br"]},"geometry":["line"],"matchScore":2,"terms":["coelba"],"tags":{"operator:wikidata":"Q9790126","power":"line"},"addTags":{"operator":"Coelba","operator:wikidata":"Q9790126","operator:wikipedia":"pt:Companhia de Eletricidade do Estado da Bahia","power":"line"}},"power/line/companhiabrasileiradealuminio-ddc6a3":{"name":"Companhia Brasileira de Alumínio","locationSet":{"include":["br"]},"geometry":["line"],"matchScore":2,"terms":["companhia brasileira de alumínio"],"tags":{"operator:wikidata":"Q5155373","power":"line"},"addTags":{"operator":"Companhia Brasileira de Alumínio","operator:wikidata":"Q5155373","operator:wikipedia":"pt:Companhia Brasileira de Alumínio","power":"line"}},"power/line/companhiahidroeletricadosaofrancisco-ddc6a3":{"name":"Companhia Hidro Elétrica do São Francisco","locationSet":{"include":["br"]},"geometry":["line"],"matchScore":2,"terms":["chesf","chesf - companhia hidro elétrica do são francisco","companhia hidro elétrica do são francisco"],"tags":{"operator:wikidata":"Q5011113","power":"line"},"addTags":{"operator":"Companhia Hidro Elétrica do São Francisco","operator:short":"CHESF","operator:wikidata":"Q5011113","operator:wikipedia":"pt:Eletrobras Chesf","power":"line"}},"power/line/copel-ddc6a3":{"name":"Copel","locationSet":{"include":["br"]},"geometry":["line"],"matchScore":2,"terms":["companhia paranaense de energia","copel","copel geração e transmissão s.a."],"tags":{"operator:wikidata":"Q1130970","power":"line"},"addTags":{"operator":"Copel","operator:wikidata":"Q1130970","operator:wikipedia":"pt:Companhia Paranaense de Energia","power":"line"}},"power/line/cosern-ddc6a3":{"name":"Cosern","locationSet":{"include":["br"]},"geometry":["line"],"matchScore":2,"terms":["cosern"],"tags":{"operator:wikidata":"Q18477769","power":"line"},"addTags":{"operator":"Cosern","operator:wikidata":"Q18477769","operator:wikipedia":"pt:Companhia Energética do Rio Grande do Norte","power":"line"}},"power/line/cpflenergia-ddc6a3":{"name":"CPFL Energia","locationSet":{"include":["br"]},"geometry":["line"],"matchScore":2,"terms":["cpfl","cpfl brasil","cpfl energia","cpfl geração","cpfl leste paulista","cpfl paulista","cpfl piratinga","cpfl renováveis","cpfl santa cruz"],"tags":{"operator:wikidata":"Q1121216","power":"line"},"addTags":{"operator":"CPFL Energia","operator:wikidata":"Q1121216","operator:wikipedia":"pt:CPFL Energia","power":"line"}},"power/line/cteep-ddc6a3":{"name":"CTEEP","locationSet":{"include":["br"]},"geometry":["line"],"matchScore":2,"terms":["cteep","cteep - companhia de transmissão de energia elétrica paulista"],"tags":{"operator:wikidata":"Q3063934","power":"line"},"addTags":{"operator":"CTEEP","operator:wikidata":"Q3063934","operator:wikipedia":"pt:ISA CTEEP","power":"line"}},"power/line/edpbandeirante-ddc6a3":{"name":"EDP Bandeirante","locationSet":{"include":["br"]},"geometry":["line"],"matchScore":2,"terms":["edp bandeirante"],"tags":{"operator:wikidata":"Q10269426","power":"line"},"addTags":{"operator":"EDP Bandeirante","operator:wikidata":"Q10269426","operator:wikipedia":"pt:EDP São Paulo","power":"line"}},"power/line/edpescelsa-ddc6a3":{"name":"EDP Escelsa","locationSet":{"include":["br"]},"geometry":["line"],"matchScore":2,"terms":["edp escelsa"],"tags":{"operator:wikidata":"Q10274271","power":"line"},"addTags":{"operator":"EDP Escelsa","operator:wikidata":"Q10274271","operator:wikipedia":"pt:EDP Espírito Santo","power":"line"}},"power/line/elektro-ddc6a3":{"name":"Elektro","locationSet":{"include":["br"]},"geometry":["line"],"matchScore":2,"terms":["elektro"],"tags":{"operator:wikidata":"Q10271671","power":"line"},"addTags":{"operator":"Elektro","operator:wikidata":"Q10271671","operator:wikipedia":"pt:Elektro","power":"line"}},"power/line/eletrobrasamazonasenergia-ddc6a3":{"name":"Eletrobras Amazonas Energia","locationSet":{"include":["br"]},"geometry":["line"],"matchScore":2,"terms":["eletrobras amazonas energia"],"tags":{"operator:wikidata":"Q10271724","power":"line"},"addTags":{"operator":"Eletrobras Amazonas Energia","operator:wikidata":"Q10271724","operator:wikipedia":"pt:Amazonas Energia","power":"line"}},"power/line/eletronorte-ddc6a3":{"name":"Eletronorte","locationSet":{"include":["br"]},"geometry":["line"],"matchScore":2,"terms":["eletronorte","eletronorte - centrais elétricas do norte do brasil"],"tags":{"operator:wikidata":"Q10271733","power":"line"},"addTags":{"operator":"Eletronorte","operator:wikidata":"Q10271733","operator:wikipedia":"pt:Eletrobras Eletronorte","power":"line"}},"power/line/eletropaulo-ddc6a3":{"name":"Eletropaulo","locationSet":{"include":["br"]},"geometry":["line"],"matchScore":2,"terms":["eletropaulo"],"searchable":false,"tags":{"operator:wikidata":"Q48854882","power":"line"},"addTags":{"operator":"Eletropaulo","operator:wikidata":"Q48854882","operator:wikipedia":"pt:Eletropaulo","power":"line"}},"power/line/eletrosul-ddc6a3":{"name":"Eletrosul","locationSet":{"include":["br"]},"geometry":["line"],"matchScore":2,"terms":["eletrosul","eletrosul centrais elétricas","eletrosul centrais elétricas s.a."],"tags":{"operator:wikidata":"Q5359479","power":"line"},"addTags":{"operator":"Eletrosul","operator:wikidata":"Q5359479","operator:wikipedia":"pt:Eletrobras CGT Eletrosul","power":"line"}},"power/line/eneldistribuicaoceara-ddc6a3":{"name":"Enel Distribuição Ceará","locationSet":{"include":["br"]},"geometry":["line"],"matchScore":2,"terms":["enel distribuição ceará"],"tags":{"operator:wikidata":"Q18477759","power":"line"},"addTags":{"operator":"Enel Distribuição Ceará","operator:wikidata":"Q18477759","operator:wikipedia":"pt:Enel Distribuição Ceará","power":"line"}},"power/line/eneldistribuicaogoias-ddc6a3":{"name":"Enel Distribuição Goiás","locationSet":{"include":["br"]},"geometry":["line"],"matchScore":2,"terms":["enel distribuição goiás"],"tags":{"operator:wikidata":"Q9670366","power":"line"},"addTags":{"operator":"Enel Distribuição Goiás","operator:wikidata":"Q9670366","operator:wikipedia":"pt:Enel Distribuição Goiás","power":"line"}},"power/line/eneldistribuicaorio-ddc6a3":{"name":"Enel Distribuição Rio","locationSet":{"include":["br"]},"geometry":["line"],"matchScore":2,"terms":["enel distribuição rio"],"tags":{"operator:wikidata":"Q9611434","power":"line"},"addTags":{"operator":"Enel Distribuição Rio","operator:wikidata":"Q9611434","operator:wikipedia":"pt:Enel Distribuição Rio","power":"line"}},"power/line/eneldistribuicaosaopaulo-ddc6a3":{"name":"Enel Distribuição São Paulo","locationSet":{"include":["br"]},"geometry":["line"],"matchScore":2,"terms":["enel distribuição são paulo"],"tags":{"operator:wikidata":"Q1328247","power":"line"},"addTags":{"operator":"Enel Distribuição São Paulo","operator:wikidata":"Q1328247","operator:wikipedia":"pt:Enel Distribuição São Paulo","power":"line"}},"power/line/energisa-ddc6a3":{"name":"Energisa","locationSet":{"include":["br"]},"geometry":["line"],"matchScore":2,"terms":["energisa","energisa mg","energisa mt","energisa pb","energisa se","energisa to"],"tags":{"operator:wikidata":"Q10291787","power":"line"},"addTags":{"operator":"Energisa","operator:wikidata":"Q10291787","operator:wikipedia":"pt:Grupo Energisa","power":"line"}},"power/line/furnascentraiseletricas-ddc6a3":{"name":"Furnas Centrais Elétricas","locationSet":{"include":["br"]},"geometry":["line"],"matchScore":2,"terms":["furnas","furnas centrais elétricas","furnas centrais elétricas s.a."],"tags":{"operator:wikidata":"Q5359478","power":"line"},"addTags":{"operator":"Furnas Centrais Elétricas","operator:wikidata":"Q5359478","operator:wikipedia":"pt:Eletrobras Furnas","power":"line"}},"power/line/light-ddc6a3":{"name":"Light","locationSet":{"include":["br"]},"geometry":["line"],"matchScore":2,"terms":["light"],"tags":{"operator:wikidata":"Q3238450","power":"line"},"addTags":{"operator":"Light","operator:wikidata":"Q3238450","operator:wikipedia":"pt:Light S/A","power":"line"}},"power/line/riograndeenergia-ddc6a3":{"name":"Rio Grande Energia","locationSet":{"include":["br"]},"geometry":["line"],"matchScore":2,"terms":["rge","rge rio grande energia","rge sul","rio grande energia"],"tags":{"operator:wikidata":"Q10361957","power":"line"},"addTags":{"operator":"Rio Grande Energia","operator:wikidata":"Q10361957","operator:wikipedia":"pt:Rio Grande Energia","power":"line"}},"power/minor_line/ceee-241a4c":{"name":"CEEE","locationSet":{"include":["br"]},"geometry":["line"],"matchScore":2,"terms":["ceee","ceee gt","ceee gt - companhia estadual de geração e transmissão de energia elétrica","companhia estadual de geração e transmissão de energia elétrica"],"tags":{"operator:wikidata":"Q10291701","power":"minor_line"},"addTags":{"operator":"CEEE","operator:wikidata":"Q10291701","operator:wikipedia":"pt:Grupo CEEE","power":"minor_line"}},"power/minor_line/celesc-241a4c":{"name":"Celesc","locationSet":{"include":["br"]},"geometry":["line"],"matchScore":2,"terms":["celesc","celesc distribuição","celesc distribuição sa"],"tags":{"operator:wikidata":"Q638533","power":"minor_line"},"addTags":{"operator":"Celesc","operator:wikidata":"Q638533","operator:wikipedia":"pt:Centrais Elétricas de Santa Catarina","power":"minor_line"}},"power/minor_line/cemig-241a4c":{"name":"Cemig","locationSet":{"include":["br"]},"geometry":["line"],"matchScore":2,"terms":["cemig","cemig geração e transmissão","cemig geração e transmissão sa"],"tags":{"operator:wikidata":"Q1121202","power":"minor_line"},"addTags":{"operator":"Cemig","operator:wikidata":"Q1121202","operator:wikipedia":"pt:Companhia Energética de Minas Gerais","power":"minor_line"}},"power/minor_line/coelba-241a4c":{"name":"Coelba","locationSet":{"include":["br"]},"geometry":["line"],"matchScore":2,"terms":["coelba"],"tags":{"operator:wikidata":"Q9790126","power":"minor_line"},"addTags":{"operator":"Coelba","operator:wikidata":"Q9790126","operator:wikipedia":"pt:Companhia de Eletricidade do Estado da Bahia","power":"minor_line"}},"power/minor_line/companhiabrasileiradealuminio-241a4c":{"name":"Companhia Brasileira de Alumínio","locationSet":{"include":["br"]},"geometry":["line"],"matchScore":2,"terms":["companhia brasileira de alumínio"],"tags":{"operator:wikidata":"Q5155373","power":"minor_line"},"addTags":{"operator":"Companhia Brasileira de Alumínio","operator:wikidata":"Q5155373","operator:wikipedia":"pt:Companhia Brasileira de Alumínio","power":"minor_line"}},"power/minor_line/companhiahidroeletricadosaofrancisco-241a4c":{"name":"Companhia Hidro Elétrica do São Francisco","locationSet":{"include":["br"]},"geometry":["line"],"matchScore":2,"terms":["chesf","chesf - companhia hidro elétrica do são francisco","companhia hidro elétrica do são francisco"],"tags":{"operator:wikidata":"Q5011113","power":"minor_line"},"addTags":{"operator":"Companhia Hidro Elétrica do São Francisco","operator:short":"CHESF","operator:wikidata":"Q5011113","operator:wikipedia":"pt:Eletrobras Chesf","power":"minor_line"}},"power/minor_line/copel-241a4c":{"name":"Copel","locationSet":{"include":["br"]},"geometry":["line"],"matchScore":2,"terms":["companhia paranaense de energia","copel","copel geração e transmissão s.a."],"tags":{"operator:wikidata":"Q1130970","power":"minor_line"},"addTags":{"operator":"Copel","operator:wikidata":"Q1130970","operator:wikipedia":"pt:Companhia Paranaense de Energia","power":"minor_line"}},"power/minor_line/cosern-241a4c":{"name":"Cosern","locationSet":{"include":["br"]},"geometry":["line"],"matchScore":2,"terms":["cosern"],"tags":{"operator:wikidata":"Q18477769","power":"minor_line"},"addTags":{"operator":"Cosern","operator:wikidata":"Q18477769","operator:wikipedia":"pt:Companhia Energética do Rio Grande do Norte","power":"minor_line"}},"power/minor_line/cpflenergia-241a4c":{"name":"CPFL Energia","locationSet":{"include":["br"]},"geometry":["line"],"matchScore":2,"terms":["cpfl","cpfl brasil","cpfl energia","cpfl geração","cpfl leste paulista","cpfl paulista","cpfl piratinga","cpfl renováveis","cpfl santa cruz"],"tags":{"operator:wikidata":"Q1121216","power":"minor_line"},"addTags":{"operator":"CPFL Energia","operator:wikidata":"Q1121216","operator:wikipedia":"pt:CPFL Energia","power":"minor_line"}},"power/minor_line/cteep-241a4c":{"name":"CTEEP","locationSet":{"include":["br"]},"geometry":["line"],"matchScore":2,"terms":["cteep","cteep - companhia de transmissão de energia elétrica paulista"],"tags":{"operator:wikidata":"Q3063934","power":"minor_line"},"addTags":{"operator":"CTEEP","operator:wikidata":"Q3063934","operator:wikipedia":"pt:ISA CTEEP","power":"minor_line"}},"power/minor_line/edpbandeirante-241a4c":{"name":"EDP Bandeirante","locationSet":{"include":["br"]},"geometry":["line"],"matchScore":2,"terms":["edp bandeirante"],"tags":{"operator:wikidata":"Q10269426","power":"minor_line"},"addTags":{"operator":"EDP Bandeirante","operator:wikidata":"Q10269426","operator:wikipedia":"pt:EDP São Paulo","power":"minor_line"}},"power/minor_line/edpescelsa-241a4c":{"name":"EDP Escelsa","locationSet":{"include":["br"]},"geometry":["line"],"matchScore":2,"terms":["edp escelsa"],"tags":{"operator:wikidata":"Q10274271","power":"minor_line"},"addTags":{"operator":"EDP Escelsa","operator:wikidata":"Q10274271","operator:wikipedia":"pt:EDP Espírito Santo","power":"minor_line"}},"power/minor_line/elektro-241a4c":{"name":"Elektro","locationSet":{"include":["br"]},"geometry":["line"],"matchScore":2,"terms":["elektro"],"tags":{"operator:wikidata":"Q10271671","power":"minor_line"},"addTags":{"operator":"Elektro","operator:wikidata":"Q10271671","operator:wikipedia":"pt:Elektro","power":"minor_line"}},"power/minor_line/eletrobrasamazonasenergia-241a4c":{"name":"Eletrobras Amazonas Energia","locationSet":{"include":["br"]},"geometry":["line"],"matchScore":2,"terms":["eletrobras amazonas energia"],"tags":{"operator:wikidata":"Q10271724","power":"minor_line"},"addTags":{"operator":"Eletrobras Amazonas Energia","operator:wikidata":"Q10271724","operator:wikipedia":"pt:Amazonas Energia","power":"minor_line"}},"power/minor_line/eletronorte-241a4c":{"name":"Eletronorte","locationSet":{"include":["br"]},"geometry":["line"],"matchScore":2,"terms":["eletronorte","eletronorte - centrais elétricas do norte do brasil"],"tags":{"operator:wikidata":"Q10271733","power":"minor_line"},"addTags":{"operator":"Eletronorte","operator:wikidata":"Q10271733","operator:wikipedia":"pt:Eletrobras Eletronorte","power":"minor_line"}},"power/minor_line/eletropaulo-241a4c":{"name":"Eletropaulo","locationSet":{"include":["br"]},"geometry":["line"],"matchScore":2,"terms":["eletropaulo"],"searchable":false,"tags":{"operator:wikidata":"Q48854882","power":"minor_line"},"addTags":{"operator":"Eletropaulo","operator:wikidata":"Q48854882","operator:wikipedia":"pt:Eletropaulo","power":"minor_line"}},"power/minor_line/eletrosul-241a4c":{"name":"Eletrosul","locationSet":{"include":["br"]},"geometry":["line"],"matchScore":2,"terms":["eletrosul","eletrosul centrais elétricas","eletrosul centrais elétricas s.a."],"tags":{"operator:wikidata":"Q5359479","power":"minor_line"},"addTags":{"operator":"Eletrosul","operator:wikidata":"Q5359479","operator:wikipedia":"pt:Eletrobras CGT Eletrosul","power":"minor_line"}},"power/minor_line/eneldistribuicaoceara-241a4c":{"name":"Enel Distribuição Ceará","locationSet":{"include":["br"]},"geometry":["line"],"matchScore":2,"terms":["enel distribuição ceará"],"tags":{"operator:wikidata":"Q18477759","power":"minor_line"},"addTags":{"operator":"Enel Distribuição Ceará","operator:wikidata":"Q18477759","operator:wikipedia":"pt:Enel Distribuição Ceará","power":"minor_line"}},"power/minor_line/eneldistribuicaogoias-241a4c":{"name":"Enel Distribuição Goiás","locationSet":{"include":["br"]},"geometry":["line"],"matchScore":2,"terms":["enel distribuição goiás"],"tags":{"operator:wikidata":"Q9670366","power":"minor_line"},"addTags":{"operator":"Enel Distribuição Goiás","operator:wikidata":"Q9670366","operator:wikipedia":"pt:Enel Distribuição Goiás","power":"minor_line"}},"power/minor_line/eneldistribuicaorio-241a4c":{"name":"Enel Distribuição Rio","locationSet":{"include":["br"]},"geometry":["line"],"matchScore":2,"terms":["enel distribuição rio"],"tags":{"operator:wikidata":"Q9611434","power":"minor_line"},"addTags":{"operator":"Enel Distribuição Rio","operator:wikidata":"Q9611434","operator:wikipedia":"pt:Enel Distribuição Rio","power":"minor_line"}},"power/minor_line/eneldistribuicaosaopaulo-241a4c":{"name":"Enel Distribuição São Paulo","locationSet":{"include":["br"]},"geometry":["line"],"matchScore":2,"terms":["enel distribuição são paulo"],"tags":{"operator:wikidata":"Q1328247","power":"minor_line"},"addTags":{"operator":"Enel Distribuição São Paulo","operator:wikidata":"Q1328247","operator:wikipedia":"pt:Enel Distribuição São Paulo","power":"minor_line"}},"power/minor_line/energisa-241a4c":{"name":"Energisa","locationSet":{"include":["br"]},"geometry":["line"],"matchScore":2,"terms":["energisa","energisa mg","energisa mt","energisa pb","energisa se","energisa to"],"tags":{"operator:wikidata":"Q10291787","power":"minor_line"},"addTags":{"operator":"Energisa","operator:wikidata":"Q10291787","operator:wikipedia":"pt:Grupo Energisa","power":"minor_line"}},"power/minor_line/furnascentraiseletricas-241a4c":{"name":"Furnas Centrais Elétricas","locationSet":{"include":["br"]},"geometry":["line"],"matchScore":2,"terms":["furnas","furnas centrais elétricas","furnas centrais elétricas s.a."],"tags":{"operator:wikidata":"Q5359478","power":"minor_line"},"addTags":{"operator":"Furnas Centrais Elétricas","operator:wikidata":"Q5359478","operator:wikipedia":"pt:Eletrobras Furnas","power":"minor_line"}},"power/minor_line/light-241a4c":{"name":"Light","locationSet":{"include":["br"]},"geometry":["line"],"matchScore":2,"terms":["light"],"tags":{"operator:wikidata":"Q3238450","power":"minor_line"},"addTags":{"operator":"Light","operator:wikidata":"Q3238450","operator:wikipedia":"pt:Light S/A","power":"minor_line"}},"power/minor_line/riograndeenergia-241a4c":{"name":"Rio Grande Energia","locationSet":{"include":["br"]},"geometry":["line"],"matchScore":2,"terms":["rge","rge rio grande energia","rge sul","rio grande energia"],"tags":{"operator:wikidata":"Q10361957","power":"minor_line"},"addTags":{"operator":"Rio Grande Energia","operator:wikidata":"Q10361957","operator:wikipedia":"pt:Rio Grande Energia","power":"minor_line"}},"power/plant/equatorialenergia-f91242":{"name":"Equatorial Energia","locationSet":{"include":["br"]},"geometry":["area"],"matchScore":2,"terms":["celpa","celpa - centrais elétricas do pará","centrais elétricas do pará","equatorial energia"],"tags":{"operator:wikidata":"Q18474582","power":"plant"},"addTags":{"operator":"Equatorial Energia","operator:wikidata":"Q18474582","operator:wikipedia":"pt:Equatorial Energia","power":"plant"}},"power/pole/ceee-0aa22a":{"name":"CEEE","locationSet":{"include":["br"]},"geometry":["point","vertex"],"matchScore":2,"terms":["ceee","ceee gt","ceee gt - companhia estadual de geração e transmissão de energia elétrica","companhia estadual de geração e transmissão de energia elétrica"],"tags":{"operator:wikidata":"Q10291701","power":"pole"},"addTags":{"operator":"CEEE","operator:wikidata":"Q10291701","operator:wikipedia":"pt:Grupo CEEE","power":"pole"}},"power/pole/celesc-0aa22a":{"name":"Celesc","locationSet":{"include":["br"]},"geometry":["point","vertex"],"matchScore":2,"terms":["celesc","celesc distribuição","celesc distribuição sa"],"tags":{"operator:wikidata":"Q638533","power":"pole"},"addTags":{"operator":"Celesc","operator:wikidata":"Q638533","operator:wikipedia":"pt:Centrais Elétricas de Santa Catarina","power":"pole"}},"power/pole/cemig-0aa22a":{"name":"Cemig","locationSet":{"include":["br"]},"geometry":["point","vertex"],"matchScore":2,"terms":["cemig","cemig geração e transmissão","cemig geração e transmissão sa"],"tags":{"operator:wikidata":"Q1121202","power":"pole"},"addTags":{"operator":"Cemig","operator:wikidata":"Q1121202","operator:wikipedia":"pt:Companhia Energética de Minas Gerais","power":"pole"}},"power/pole/coelba-0aa22a":{"name":"Coelba","locationSet":{"include":["br"]},"geometry":["point","vertex"],"matchScore":2,"terms":["coelba"],"tags":{"operator:wikidata":"Q9790126","power":"pole"},"addTags":{"operator":"Coelba","operator:wikidata":"Q9790126","operator:wikipedia":"pt:Companhia de Eletricidade do Estado da Bahia","power":"pole"}},"power/pole/companhiabrasileiradealuminio-0aa22a":{"name":"Companhia Brasileira de Alumínio","locationSet":{"include":["br"]},"geometry":["point","vertex"],"matchScore":2,"terms":["companhia brasileira de alumínio"],"tags":{"operator:wikidata":"Q5155373","power":"pole"},"addTags":{"operator":"Companhia Brasileira de Alumínio","operator:wikidata":"Q5155373","operator:wikipedia":"pt:Companhia Brasileira de Alumínio","power":"pole"}},"power/pole/companhiahidroeletricadosaofrancisco-0aa22a":{"name":"Companhia Hidro Elétrica do São Francisco","locationSet":{"include":["br"]},"geometry":["point","vertex"],"matchScore":2,"terms":["chesf","chesf - companhia hidro elétrica do são francisco","companhia hidro elétrica do são francisco"],"tags":{"operator:wikidata":"Q5011113","power":"pole"},"addTags":{"operator":"Companhia Hidro Elétrica do São Francisco","operator:short":"CHESF","operator:wikidata":"Q5011113","operator:wikipedia":"pt:Eletrobras Chesf","power":"pole"}},"power/pole/copel-0aa22a":{"name":"Copel","locationSet":{"include":["br"]},"geometry":["point","vertex"],"matchScore":2,"terms":["companhia paranaense de energia","copel","copel geração e transmissão s.a."],"tags":{"operator:wikidata":"Q1130970","power":"pole"},"addTags":{"operator":"Copel","operator:wikidata":"Q1130970","operator:wikipedia":"pt:Companhia Paranaense de Energia","power":"pole"}},"power/pole/cosern-0aa22a":{"name":"Cosern","locationSet":{"include":["br"]},"geometry":["point","vertex"],"matchScore":2,"terms":["cosern"],"tags":{"operator:wikidata":"Q18477769","power":"pole"},"addTags":{"operator":"Cosern","operator:wikidata":"Q18477769","operator:wikipedia":"pt:Companhia Energética do Rio Grande do Norte","power":"pole"}},"power/pole/cpflenergia-0aa22a":{"name":"CPFL Energia","locationSet":{"include":["br"]},"geometry":["point","vertex"],"matchScore":2,"terms":["cpfl","cpfl brasil","cpfl energia","cpfl geração","cpfl leste paulista","cpfl paulista","cpfl piratinga","cpfl renováveis","cpfl santa cruz"],"tags":{"operator:wikidata":"Q1121216","power":"pole"},"addTags":{"operator":"CPFL Energia","operator:wikidata":"Q1121216","operator:wikipedia":"pt:CPFL Energia","power":"pole"}},"power/pole/cteep-0aa22a":{"name":"CTEEP","locationSet":{"include":["br"]},"geometry":["point","vertex"],"matchScore":2,"terms":["cteep","cteep - companhia de transmissão de energia elétrica paulista"],"tags":{"operator:wikidata":"Q3063934","power":"pole"},"addTags":{"operator":"CTEEP","operator:wikidata":"Q3063934","operator:wikipedia":"pt:ISA CTEEP","power":"pole"}},"power/pole/edpbandeirante-0aa22a":{"name":"EDP Bandeirante","locationSet":{"include":["br"]},"geometry":["point","vertex"],"matchScore":2,"terms":["edp bandeirante"],"tags":{"operator:wikidata":"Q10269426","power":"pole"},"addTags":{"operator":"EDP Bandeirante","operator:wikidata":"Q10269426","operator:wikipedia":"pt:EDP São Paulo","power":"pole"}},"power/pole/edpescelsa-0aa22a":{"name":"EDP Escelsa","locationSet":{"include":["br"]},"geometry":["point","vertex"],"matchScore":2,"terms":["edp escelsa"],"tags":{"operator:wikidata":"Q10274271","power":"pole"},"addTags":{"operator":"EDP Escelsa","operator:wikidata":"Q10274271","operator:wikipedia":"pt:EDP Espírito Santo","power":"pole"}},"power/pole/elektro-0aa22a":{"name":"Elektro","locationSet":{"include":["br"]},"geometry":["point","vertex"],"matchScore":2,"terms":["elektro"],"tags":{"operator:wikidata":"Q10271671","power":"pole"},"addTags":{"operator":"Elektro","operator:wikidata":"Q10271671","operator:wikipedia":"pt:Elektro","power":"pole"}},"power/pole/eletrobrasamazonasenergia-0aa22a":{"name":"Eletrobras Amazonas Energia","locationSet":{"include":["br"]},"geometry":["point","vertex"],"matchScore":2,"terms":["eletrobras amazonas energia"],"tags":{"operator:wikidata":"Q10271724","power":"pole"},"addTags":{"operator":"Eletrobras Amazonas Energia","operator:wikidata":"Q10271724","operator:wikipedia":"pt:Amazonas Energia","power":"pole"}},"power/pole/eletronorte-0aa22a":{"name":"Eletronorte","locationSet":{"include":["br"]},"geometry":["point","vertex"],"matchScore":2,"terms":["eletronorte","eletronorte - centrais elétricas do norte do brasil"],"tags":{"operator:wikidata":"Q10271733","power":"pole"},"addTags":{"operator":"Eletronorte","operator:wikidata":"Q10271733","operator:wikipedia":"pt:Eletrobras Eletronorte","power":"pole"}},"power/pole/eletropaulo-0aa22a":{"name":"Eletropaulo","locationSet":{"include":["br"]},"geometry":["point","vertex"],"matchScore":2,"terms":["eletropaulo"],"searchable":false,"tags":{"operator:wikidata":"Q48854882","power":"pole"},"addTags":{"operator":"Eletropaulo","operator:wikidata":"Q48854882","operator:wikipedia":"pt:Eletropaulo","power":"pole"}},"power/pole/eletrosul-0aa22a":{"name":"Eletrosul","locationSet":{"include":["br"]},"geometry":["point","vertex"],"matchScore":2,"terms":["eletrosul","eletrosul centrais elétricas","eletrosul centrais elétricas s.a."],"tags":{"operator:wikidata":"Q5359479","power":"pole"},"addTags":{"operator":"Eletrosul","operator:wikidata":"Q5359479","operator:wikipedia":"pt:Eletrobras CGT Eletrosul","power":"pole"}},"power/pole/eneldistribuicaoceara-0aa22a":{"name":"Enel Distribuição Ceará","locationSet":{"include":["br"]},"geometry":["point","vertex"],"matchScore":2,"terms":["enel distribuição ceará"],"tags":{"operator:wikidata":"Q18477759","power":"pole"},"addTags":{"operator":"Enel Distribuição Ceará","operator:wikidata":"Q18477759","operator:wikipedia":"pt:Enel Distribuição Ceará","power":"pole"}},"power/pole/eneldistribuicaogoias-0aa22a":{"name":"Enel Distribuição Goiás","locationSet":{"include":["br"]},"geometry":["point","vertex"],"matchScore":2,"terms":["enel distribuição goiás"],"tags":{"operator:wikidata":"Q9670366","power":"pole"},"addTags":{"operator":"Enel Distribuição Goiás","operator:wikidata":"Q9670366","operator:wikipedia":"pt:Enel Distribuição Goiás","power":"pole"}},"power/pole/eneldistribuicaorio-0aa22a":{"name":"Enel Distribuição Rio","locationSet":{"include":["br"]},"geometry":["point","vertex"],"matchScore":2,"terms":["enel distribuição rio"],"tags":{"operator:wikidata":"Q9611434","power":"pole"},"addTags":{"operator":"Enel Distribuição Rio","operator:wikidata":"Q9611434","operator:wikipedia":"pt:Enel Distribuição Rio","power":"pole"}},"power/pole/eneldistribuicaosaopaulo-0aa22a":{"name":"Enel Distribuição São Paulo","locationSet":{"include":["br"]},"geometry":["point","vertex"],"matchScore":2,"terms":["enel distribuição são paulo"],"tags":{"operator:wikidata":"Q1328247","power":"pole"},"addTags":{"operator":"Enel Distribuição São Paulo","operator:wikidata":"Q1328247","operator:wikipedia":"pt:Enel Distribuição São Paulo","power":"pole"}},"power/pole/energisa-0aa22a":{"name":"Energisa","locationSet":{"include":["br"]},"geometry":["point","vertex"],"matchScore":2,"terms":["energisa","energisa mg","energisa mt","energisa pb","energisa se","energisa to"],"tags":{"operator:wikidata":"Q10291787","power":"pole"},"addTags":{"operator":"Energisa","operator:wikidata":"Q10291787","operator:wikipedia":"pt:Grupo Energisa","power":"pole"}},"power/pole/furnascentraiseletricas-0aa22a":{"name":"Furnas Centrais Elétricas","locationSet":{"include":["br"]},"geometry":["point","vertex"],"matchScore":2,"terms":["furnas","furnas centrais elétricas","furnas centrais elétricas s.a."],"tags":{"operator:wikidata":"Q5359478","power":"pole"},"addTags":{"operator":"Furnas Centrais Elétricas","operator:wikidata":"Q5359478","operator:wikipedia":"pt:Eletrobras Furnas","power":"pole"}},"power/pole/light-0aa22a":{"name":"Light","locationSet":{"include":["br"]},"geometry":["point","vertex"],"matchScore":2,"terms":["light"],"tags":{"operator:wikidata":"Q3238450","power":"pole"},"addTags":{"operator":"Light","operator:wikidata":"Q3238450","operator:wikipedia":"pt:Light S/A","power":"pole"}},"power/pole/riograndeenergia-0aa22a":{"name":"Rio Grande Energia","locationSet":{"include":["br"]},"geometry":["point","vertex"],"matchScore":2,"terms":["rge","rge rio grande energia","rge sul","rio grande energia"],"tags":{"operator:wikidata":"Q10361957","power":"pole"},"addTags":{"operator":"Rio Grande Energia","operator:wikidata":"Q10361957","operator:wikipedia":"pt:Rio Grande Energia","power":"pole"}},"power/substation/ceee-acc4a0":{"name":"CEEE","locationSet":{"include":["br"]},"geometry":["area","point"],"matchScore":2,"terms":["ceee","ceee gt","ceee gt - companhia estadual de geração e transmissão de energia elétrica","companhia estadual de geração e transmissão de energia elétrica"],"tags":{"operator:wikidata":"Q10291701","power":"substation"},"addTags":{"operator":"CEEE","operator:wikidata":"Q10291701","operator:wikipedia":"pt:Grupo CEEE","power":"substation"}},"power/substation/celesc-acc4a0":{"name":"Celesc","locationSet":{"include":["br"]},"geometry":["area","point"],"matchScore":2,"terms":["celesc","celesc distribuição","celesc distribuição sa"],"tags":{"operator:wikidata":"Q638533","power":"substation"},"addTags":{"operator":"Celesc","operator:wikidata":"Q638533","operator:wikipedia":"pt:Centrais Elétricas de Santa Catarina","power":"substation"}},"power/substation/cemig-acc4a0":{"name":"Cemig","locationSet":{"include":["br"]},"geometry":["area","point"],"matchScore":2,"terms":["cemig","cemig geração e transmissão","cemig geração e transmissão sa"],"tags":{"operator:wikidata":"Q1121202","power":"substation"},"addTags":{"operator":"Cemig","operator:wikidata":"Q1121202","operator:wikipedia":"pt:Companhia Energética de Minas Gerais","power":"substation"}},"power/substation/coelba-acc4a0":{"name":"Coelba","locationSet":{"include":["br"]},"geometry":["area","point"],"matchScore":2,"terms":["coelba"],"tags":{"operator:wikidata":"Q9790126","power":"substation"},"addTags":{"operator":"Coelba","operator:wikidata":"Q9790126","operator:wikipedia":"pt:Companhia de Eletricidade do Estado da Bahia","power":"substation"}},"power/substation/companhiabrasileiradealuminio-acc4a0":{"name":"Companhia Brasileira de Alumínio","locationSet":{"include":["br"]},"geometry":["area","point"],"matchScore":2,"terms":["companhia brasileira de alumínio"],"tags":{"operator:wikidata":"Q5155373","power":"substation"},"addTags":{"operator":"Companhia Brasileira de Alumínio","operator:wikidata":"Q5155373","operator:wikipedia":"pt:Companhia Brasileira de Alumínio","power":"substation"}},"power/substation/companhiahidroeletricadosaofrancisco-acc4a0":{"name":"Companhia Hidro Elétrica do São Francisco","locationSet":{"include":["br"]},"geometry":["area","point"],"matchScore":2,"terms":["chesf","chesf - companhia hidro elétrica do são francisco","companhia hidro elétrica do são francisco"],"tags":{"operator:wikidata":"Q5011113","power":"substation"},"addTags":{"operator":"Companhia Hidro Elétrica do São Francisco","operator:short":"CHESF","operator:wikidata":"Q5011113","operator:wikipedia":"pt:Eletrobras Chesf","power":"substation"}},"power/substation/copel-acc4a0":{"name":"Copel","locationSet":{"include":["br"]},"geometry":["area","point"],"matchScore":2,"terms":["companhia paranaense de energia","copel","copel geração e transmissão s.a."],"tags":{"operator:wikidata":"Q1130970","power":"substation"},"addTags":{"operator":"Copel","operator:wikidata":"Q1130970","operator:wikipedia":"pt:Companhia Paranaense de Energia","power":"substation"}},"power/substation/cosern-acc4a0":{"name":"Cosern","locationSet":{"include":["br"]},"geometry":["area","point"],"matchScore":2,"terms":["cosern"],"tags":{"operator:wikidata":"Q18477769","power":"substation"},"addTags":{"operator":"Cosern","operator:wikidata":"Q18477769","operator:wikipedia":"pt:Companhia Energética do Rio Grande do Norte","power":"substation"}},"power/substation/cpflenergia-acc4a0":{"name":"CPFL Energia","locationSet":{"include":["br"]},"geometry":["area","point"],"matchScore":2,"terms":["cpfl","cpfl brasil","cpfl energia","cpfl geração","cpfl leste paulista","cpfl paulista","cpfl piratinga","cpfl renováveis","cpfl santa cruz"],"tags":{"operator:wikidata":"Q1121216","power":"substation"},"addTags":{"operator":"CPFL Energia","operator:wikidata":"Q1121216","operator:wikipedia":"pt:CPFL Energia","power":"substation"}},"power/substation/cptm-acc4a0":{"name":"CPTM","locationSet":{"include":["br"]},"geometry":["area","point"],"matchScore":2,"terms":["cptm"],"tags":{"operator:wikidata":"Q1121227","power":"substation"},"addTags":{"operator":"CPTM","operator:wikidata":"Q1121227","operator:wikipedia":"pt:Companhia Paulista de Trens Metropolitanos","power":"substation"}},"power/substation/cteep-acc4a0":{"name":"CTEEP","locationSet":{"include":["br"]},"geometry":["area","point"],"matchScore":2,"terms":["cteep","cteep - companhia de transmissão de energia elétrica paulista"],"tags":{"operator:wikidata":"Q3063934","power":"substation"},"addTags":{"operator":"CTEEP","operator:wikidata":"Q3063934","operator:wikipedia":"pt:ISA CTEEP","power":"substation"}},"power/substation/edpbandeirante-acc4a0":{"name":"EDP Bandeirante","locationSet":{"include":["br"]},"geometry":["area","point"],"matchScore":2,"terms":["edp bandeirante"],"tags":{"operator:wikidata":"Q10269426","power":"substation"},"addTags":{"operator":"EDP Bandeirante","operator:wikidata":"Q10269426","operator:wikipedia":"pt:EDP São Paulo","power":"substation"}},"power/substation/edpescelsa-acc4a0":{"name":"EDP Escelsa","locationSet":{"include":["br"]},"geometry":["area","point"],"matchScore":2,"terms":["edp escelsa"],"tags":{"operator:wikidata":"Q10274271","power":"substation"},"addTags":{"operator":"EDP Escelsa","operator:wikidata":"Q10274271","operator:wikipedia":"pt:EDP Espírito Santo","power":"substation"}},"power/substation/elektro-acc4a0":{"name":"Elektro","locationSet":{"include":["br"]},"geometry":["area","point"],"matchScore":2,"terms":["elektro"],"tags":{"operator:wikidata":"Q10271671","power":"substation"},"addTags":{"operator":"Elektro","operator:wikidata":"Q10271671","operator:wikipedia":"pt:Elektro","power":"substation"}},"power/substation/eletrobrasamazonasenergia-acc4a0":{"name":"Eletrobras Amazonas Energia","locationSet":{"include":["br"]},"geometry":["area","point"],"matchScore":2,"terms":["eletrobras amazonas energia"],"tags":{"operator:wikidata":"Q10271724","power":"substation"},"addTags":{"operator":"Eletrobras Amazonas Energia","operator:wikidata":"Q10271724","operator:wikipedia":"pt:Amazonas Energia","power":"substation"}},"power/substation/eletronorte-acc4a0":{"name":"Eletronorte","locationSet":{"include":["br"]},"geometry":["area","point"],"matchScore":2,"terms":["eletronorte","eletronorte - centrais elétricas do norte do brasil"],"tags":{"operator:wikidata":"Q10271733","power":"substation"},"addTags":{"operator":"Eletronorte","operator:wikidata":"Q10271733","operator:wikipedia":"pt:Eletrobras Eletronorte","power":"substation"}},"power/substation/eletropaulo-acc4a0":{"name":"Eletropaulo","locationSet":{"include":["br"]},"geometry":["area","point"],"matchScore":2,"terms":["eletropaulo"],"searchable":false,"tags":{"operator:wikidata":"Q48854882","power":"substation"},"addTags":{"operator":"Eletropaulo","operator:wikidata":"Q48854882","operator:wikipedia":"pt:Eletropaulo","power":"substation"}},"power/substation/eletrosul-acc4a0":{"name":"Eletrosul","locationSet":{"include":["br"]},"geometry":["area","point"],"matchScore":2,"terms":["eletrosul","eletrosul centrais elétricas","eletrosul centrais elétricas s.a."],"tags":{"operator:wikidata":"Q5359479","power":"substation"},"addTags":{"operator":"Eletrosul","operator:wikidata":"Q5359479","operator:wikipedia":"pt:Eletrobras CGT Eletrosul","power":"substation"}},"power/substation/eneldistribuicaoceara-acc4a0":{"name":"Enel Distribuição Ceará","locationSet":{"include":["br"]},"geometry":["area","point"],"matchScore":2,"terms":["enel distribuição ceará"],"tags":{"operator:wikidata":"Q18477759","power":"substation"},"addTags":{"operator":"Enel Distribuição Ceará","operator:wikidata":"Q18477759","operator:wikipedia":"pt:Enel Distribuição Ceará","power":"substation"}},"power/substation/eneldistribuicaogoias-acc4a0":{"name":"Enel Distribuição Goiás","locationSet":{"include":["br"]},"geometry":["area","point"],"matchScore":2,"terms":["enel distribuição goiás"],"tags":{"operator:wikidata":"Q9670366","power":"substation"},"addTags":{"operator":"Enel Distribuição Goiás","operator:wikidata":"Q9670366","operator:wikipedia":"pt:Enel Distribuição Goiás","power":"substation"}},"power/substation/eneldistribuicaorio-acc4a0":{"name":"Enel Distribuição Rio","locationSet":{"include":["br"]},"geometry":["area","point"],"matchScore":2,"terms":["enel distribuição rio"],"tags":{"operator:wikidata":"Q9611434","power":"substation"},"addTags":{"operator":"Enel Distribuição Rio","operator:wikidata":"Q9611434","operator:wikipedia":"pt:Enel Distribuição Rio","power":"substation"}},"power/substation/eneldistribuicaosaopaulo-acc4a0":{"name":"Enel Distribuição São Paulo","locationSet":{"include":["br"]},"geometry":["area","point"],"matchScore":2,"terms":["enel distribuição são paulo"],"tags":{"operator:wikidata":"Q1328247","power":"substation"},"addTags":{"operator":"Enel Distribuição São Paulo","operator:wikidata":"Q1328247","operator:wikipedia":"pt:Enel Distribuição São Paulo","power":"substation"}},"power/substation/energisa-acc4a0":{"name":"Energisa","locationSet":{"include":["br"]},"geometry":["area","point"],"matchScore":2,"terms":["energisa","energisa mg","energisa mt","energisa pb","energisa se","energisa to"],"tags":{"operator:wikidata":"Q10291787","power":"substation"},"addTags":{"operator":"Energisa","operator:wikidata":"Q10291787","operator:wikipedia":"pt:Grupo Energisa","power":"substation"}},"power/substation/escelsa-acc4a0":{"name":"Escelsa","locationSet":{"include":["br"]},"geometry":["area","point"],"matchScore":2,"terms":["escelsa"],"tags":{"operator:wikidata":"Q10274271","power":"substation"},"addTags":{"operator":"Escelsa","operator:wikidata":"Q10274271","operator:wikipedia":"pt:EDP Espírito Santo","power":"substation"}},"power/substation/furnascentraiseletricas-acc4a0":{"name":"Furnas Centrais Elétricas","locationSet":{"include":["br"]},"geometry":["area","point"],"matchScore":2,"terms":["furnas","furnas centrais elétricas","furnas centrais elétricas s.a."],"tags":{"operator:wikidata":"Q5359478","power":"substation"},"addTags":{"operator":"Furnas Centrais Elétricas","operator:wikidata":"Q5359478","operator:wikipedia":"pt:Eletrobras Furnas","power":"substation"}},"power/substation/light-acc4a0":{"name":"Light","locationSet":{"include":["br"]},"geometry":["area","point"],"matchScore":2,"terms":["light"],"tags":{"operator:wikidata":"Q3238450","power":"substation"},"addTags":{"operator":"Light","operator:wikidata":"Q3238450","operator:wikipedia":"pt:Light S/A","power":"substation"}},"power/substation/riograndeenergia-acc4a0":{"name":"Rio Grande Energia","locationSet":{"include":["br"]},"geometry":["area","point"],"matchScore":2,"terms":["rge","rge rio grande energia","rge sul","rio grande energia"],"tags":{"operator:wikidata":"Q10361957","power":"substation"},"addTags":{"operator":"Rio Grande Energia","operator:wikidata":"Q10361957","operator:wikipedia":"pt:Rio Grande Energia","power":"substation"}},"power/substation/valesa-acc4a0":{"name":"Vale S.A.","locationSet":{"include":["br"]},"geometry":["area","point"],"matchScore":2,"terms":["edevp","vale s.a."],"tags":{"operator:wikidata":"Q583268","power":"substation"},"addTags":{"operator":"Vale S.A.","operator:wikidata":"Q583268","operator:wikipedia":"pt:Vale S.A.","power":"substation"}},"power/tower/ceee-3ce1ab":{"name":"CEEE","locationSet":{"include":["br"]},"geometry":["point","vertex"],"matchScore":2,"terms":["ceee","ceee gt","ceee gt - companhia estadual de geração e transmissão de energia elétrica","companhia estadual de geração e transmissão de energia elétrica"],"tags":{"operator:wikidata":"Q10291701","power":"tower"},"addTags":{"operator":"CEEE","operator:wikidata":"Q10291701","operator:wikipedia":"pt:Grupo CEEE","power":"tower"}},"power/tower/celesc-3ce1ab":{"name":"Celesc","locationSet":{"include":["br"]},"geometry":["point","vertex"],"matchScore":2,"terms":["celesc","celesc distribuição","celesc distribuição sa"],"tags":{"operator:wikidata":"Q638533","power":"tower"},"addTags":{"operator":"Celesc","operator:wikidata":"Q638533","operator:wikipedia":"pt:Centrais Elétricas de Santa Catarina","power":"tower"}},"power/tower/cemig-3ce1ab":{"name":"Cemig","locationSet":{"include":["br"]},"geometry":["point","vertex"],"matchScore":2,"terms":["cemig","cemig geração e transmissão","cemig geração e transmissão sa"],"tags":{"operator:wikidata":"Q1121202","power":"tower"},"addTags":{"operator":"Cemig","operator:wikidata":"Q1121202","operator:wikipedia":"pt:Companhia Energética de Minas Gerais","power":"tower"}},"power/tower/coelba-3ce1ab":{"name":"Coelba","locationSet":{"include":["br"]},"geometry":["point","vertex"],"matchScore":2,"terms":["coelba"],"tags":{"operator:wikidata":"Q9790126","power":"tower"},"addTags":{"operator":"Coelba","operator:wikidata":"Q9790126","operator:wikipedia":"pt:Companhia de Eletricidade do Estado da Bahia","power":"tower"}},"power/tower/companhiabrasileiradealuminio-3ce1ab":{"name":"Companhia Brasileira de Alumínio","locationSet":{"include":["br"]},"geometry":["point","vertex"],"matchScore":2,"terms":["companhia brasileira de alumínio"],"tags":{"operator:wikidata":"Q5155373","power":"tower"},"addTags":{"operator":"Companhia Brasileira de Alumínio","operator:wikidata":"Q5155373","operator:wikipedia":"pt:Companhia Brasileira de Alumínio","power":"tower"}},"power/tower/companhiahidroeletricadosaofrancisco-3ce1ab":{"name":"Companhia Hidro Elétrica do São Francisco","locationSet":{"include":["br"]},"geometry":["point","vertex"],"matchScore":2,"terms":["chesf","chesf - companhia hidro elétrica do são francisco","companhia hidro elétrica do são francisco"],"tags":{"operator:wikidata":"Q5011113","power":"tower"},"addTags":{"operator":"Companhia Hidro Elétrica do São Francisco","operator:short":"CHESF","operator:wikidata":"Q5011113","operator:wikipedia":"pt:Eletrobras Chesf","power":"tower"}},"power/tower/copel-3ce1ab":{"name":"Copel","locationSet":{"include":["br"]},"geometry":["point","vertex"],"matchScore":2,"terms":["companhia paranaense de energia","copel","copel geração e transmissão s.a."],"tags":{"operator:wikidata":"Q1130970","power":"tower"},"addTags":{"operator":"Copel","operator:wikidata":"Q1130970","operator:wikipedia":"pt:Companhia Paranaense de Energia","power":"tower"}},"power/tower/cosern-3ce1ab":{"name":"Cosern","locationSet":{"include":["br"]},"geometry":["point","vertex"],"matchScore":2,"terms":["cosern"],"tags":{"operator:wikidata":"Q18477769","power":"tower"},"addTags":{"operator":"Cosern","operator:wikidata":"Q18477769","operator:wikipedia":"pt:Companhia Energética do Rio Grande do Norte","power":"tower"}},"power/tower/cpflenergia-3ce1ab":{"name":"CPFL Energia","locationSet":{"include":["br"]},"geometry":["point","vertex"],"matchScore":2,"terms":["cpfl","cpfl brasil","cpfl energia","cpfl geração","cpfl leste paulista","cpfl paulista","cpfl piratinga","cpfl renováveis","cpfl santa cruz"],"tags":{"operator:wikidata":"Q1121216","power":"tower"},"addTags":{"operator":"CPFL Energia","operator:wikidata":"Q1121216","operator:wikipedia":"pt:CPFL Energia","power":"tower"}},"power/tower/cteep-3ce1ab":{"name":"CTEEP","locationSet":{"include":["br"]},"geometry":["point","vertex"],"matchScore":2,"terms":["cteep","cteep - companhia de transmissão de energia elétrica paulista"],"tags":{"operator:wikidata":"Q3063934","power":"tower"},"addTags":{"operator":"CTEEP","operator:wikidata":"Q3063934","operator:wikipedia":"pt:ISA CTEEP","power":"tower"}},"power/tower/edpbandeirante-3ce1ab":{"name":"EDP Bandeirante","locationSet":{"include":["br"]},"geometry":["point","vertex"],"matchScore":2,"terms":["edp bandeirante"],"tags":{"operator:wikidata":"Q10269426","power":"tower"},"addTags":{"operator":"EDP Bandeirante","operator:wikidata":"Q10269426","operator:wikipedia":"pt:EDP São Paulo","power":"tower"}},"power/tower/edpescelsa-3ce1ab":{"name":"EDP Escelsa","locationSet":{"include":["br"]},"geometry":["point","vertex"],"matchScore":2,"terms":["edp escelsa"],"tags":{"operator:wikidata":"Q10274271","power":"tower"},"addTags":{"operator":"EDP Escelsa","operator:wikidata":"Q10274271","operator:wikipedia":"pt:EDP Espírito Santo","power":"tower"}},"power/tower/elektro-3ce1ab":{"name":"Elektro","locationSet":{"include":["br"]},"geometry":["point","vertex"],"matchScore":2,"terms":["elektro"],"tags":{"operator:wikidata":"Q10271671","power":"tower"},"addTags":{"operator":"Elektro","operator:wikidata":"Q10271671","operator:wikipedia":"pt:Elektro","power":"tower"}},"power/tower/eletrobrasamazonasenergia-3ce1ab":{"name":"Eletrobras Amazonas Energia","locationSet":{"include":["br"]},"geometry":["point","vertex"],"matchScore":2,"terms":["eletrobras amazonas energia"],"tags":{"operator:wikidata":"Q10271724","power":"tower"},"addTags":{"operator":"Eletrobras Amazonas Energia","operator:wikidata":"Q10271724","operator:wikipedia":"pt:Amazonas Energia","power":"tower"}},"power/tower/eletronorte-3ce1ab":{"name":"Eletronorte","locationSet":{"include":["br"]},"geometry":["point","vertex"],"matchScore":2,"terms":["eletronorte","eletronorte - centrais elétricas do norte do brasil"],"tags":{"operator:wikidata":"Q10271733","power":"tower"},"addTags":{"operator":"Eletronorte","operator:wikidata":"Q10271733","operator:wikipedia":"pt:Eletrobras Eletronorte","power":"tower"}},"power/tower/eletropaulo-3ce1ab":{"name":"Eletropaulo","locationSet":{"include":["br"]},"geometry":["point","vertex"],"matchScore":2,"terms":["eletropaulo"],"searchable":false,"tags":{"operator:wikidata":"Q48854882","power":"tower"},"addTags":{"operator":"Eletropaulo","operator:wikidata":"Q48854882","operator:wikipedia":"pt:Eletropaulo","power":"tower"}},"power/tower/eletrosul-3ce1ab":{"name":"Eletrosul","locationSet":{"include":["br"]},"geometry":["point","vertex"],"matchScore":2,"terms":["eletrosul","eletrosul centrais elétricas","eletrosul centrais elétricas s.a."],"tags":{"operator:wikidata":"Q5359479","power":"tower"},"addTags":{"operator":"Eletrosul","operator:wikidata":"Q5359479","operator:wikipedia":"pt:Eletrobras CGT Eletrosul","power":"tower"}},"power/tower/eneldistribuicaoceara-3ce1ab":{"name":"Enel Distribuição Ceará","locationSet":{"include":["br"]},"geometry":["point","vertex"],"matchScore":2,"terms":["enel distribuição ceará"],"tags":{"operator:wikidata":"Q18477759","power":"tower"},"addTags":{"operator":"Enel Distribuição Ceará","operator:wikidata":"Q18477759","operator:wikipedia":"pt:Enel Distribuição Ceará","power":"tower"}},"power/tower/eneldistribuicaogoias-3ce1ab":{"name":"Enel Distribuição Goiás","locationSet":{"include":["br"]},"geometry":["point","vertex"],"matchScore":2,"terms":["enel distribuição goiás"],"tags":{"operator:wikidata":"Q9670366","power":"tower"},"addTags":{"operator":"Enel Distribuição Goiás","operator:wikidata":"Q9670366","operator:wikipedia":"pt:Enel Distribuição Goiás","power":"tower"}},"power/tower/eneldistribuicaorio-3ce1ab":{"name":"Enel Distribuição Rio","locationSet":{"include":["br"]},"geometry":["point","vertex"],"matchScore":2,"terms":["enel distribuição rio"],"tags":{"operator:wikidata":"Q9611434","power":"tower"},"addTags":{"operator":"Enel Distribuição Rio","operator:wikidata":"Q9611434","operator:wikipedia":"pt:Enel Distribuição Rio","power":"tower"}},"power/tower/eneldistribuicaosaopaulo-3ce1ab":{"name":"Enel Distribuição São Paulo","locationSet":{"include":["br"]},"geometry":["point","vertex"],"matchScore":2,"terms":["enel distribuição são paulo"],"tags":{"operator:wikidata":"Q1328247","power":"tower"},"addTags":{"operator":"Enel Distribuição São Paulo","operator:wikidata":"Q1328247","operator:wikipedia":"pt:Enel Distribuição São Paulo","power":"tower"}},"power/tower/energisa-3ce1ab":{"name":"Energisa","locationSet":{"include":["br"]},"geometry":["point","vertex"],"matchScore":2,"terms":["energisa","energisa mg","energisa mt","energisa pb","energisa se","energisa to"],"tags":{"operator:wikidata":"Q10291787","power":"tower"},"addTags":{"operator":"Energisa","operator:wikidata":"Q10291787","operator:wikipedia":"pt:Grupo Energisa","power":"tower"}},"power/tower/furnascentraiseletricas-3ce1ab":{"name":"Furnas Centrais Elétricas","locationSet":{"include":["br"]},"geometry":["point","vertex"],"matchScore":2,"terms":["furnas","furnas centrais elétricas","furnas centrais elétricas s.a."],"tags":{"operator:wikidata":"Q5359478","power":"tower"},"addTags":{"operator":"Furnas Centrais Elétricas","operator:wikidata":"Q5359478","operator:wikipedia":"pt:Eletrobras Furnas","power":"tower"}},"power/tower/light-3ce1ab":{"name":"Light","locationSet":{"include":["br"]},"geometry":["point","vertex"],"matchScore":2,"terms":["light"],"tags":{"operator:wikidata":"Q3238450","power":"tower"},"addTags":{"operator":"Light","operator:wikidata":"Q3238450","operator:wikipedia":"pt:Light S/A","power":"tower"}},"power/tower/riograndeenergia-3ce1ab":{"name":"Rio Grande Energia","locationSet":{"include":["br"]},"geometry":["point","vertex"],"matchScore":2,"terms":["rge","rge rio grande energia","rge sul","rio grande energia"],"tags":{"operator:wikidata":"Q10361957","power":"tower"},"addTags":{"operator":"Rio Grande Energia","operator:wikidata":"Q10361957","operator:wikipedia":"pt:Rio Grande Energia","power":"tower"}},"power/transformer/ceee-dc5268":{"name":"CEEE","locationSet":{"include":["br"]},"geometry":["point","vertex"],"matchScore":2,"terms":["ceee","ceee gt","ceee gt - companhia estadual de geração e transmissão de energia elétrica","companhia estadual de geração e transmissão de energia elétrica"],"tags":{"operator:wikidata":"Q10291701","power":"transformer"},"addTags":{"operator":"CEEE","operator:wikidata":"Q10291701","operator:wikipedia":"pt:Grupo CEEE","power":"transformer"}},"power/transformer/celesc-dc5268":{"name":"Celesc","locationSet":{"include":["br"]},"geometry":["point","vertex"],"matchScore":2,"terms":["celesc","celesc distribuição","celesc distribuição sa"],"tags":{"operator:wikidata":"Q638533","power":"transformer"},"addTags":{"operator":"Celesc","operator:wikidata":"Q638533","operator:wikipedia":"pt:Centrais Elétricas de Santa Catarina","power":"transformer"}},"power/transformer/cemig-dc5268":{"name":"Cemig","locationSet":{"include":["br"]},"geometry":["point","vertex"],"matchScore":2,"terms":["cemig","cemig geração e transmissão","cemig geração e transmissão sa"],"tags":{"operator:wikidata":"Q1121202","power":"transformer"},"addTags":{"operator":"Cemig","operator:wikidata":"Q1121202","operator:wikipedia":"pt:Companhia Energética de Minas Gerais","power":"transformer"}},"power/transformer/coelba-dc5268":{"name":"Coelba","locationSet":{"include":["br"]},"geometry":["point","vertex"],"matchScore":2,"terms":["coelba"],"tags":{"operator:wikidata":"Q9790126","power":"transformer"},"addTags":{"operator":"Coelba","operator:wikidata":"Q9790126","operator:wikipedia":"pt:Companhia de Eletricidade do Estado da Bahia","power":"transformer"}},"power/transformer/companhiabrasileiradealuminio-dc5268":{"name":"Companhia Brasileira de Alumínio","locationSet":{"include":["br"]},"geometry":["point","vertex"],"matchScore":2,"terms":["companhia brasileira de alumínio"],"tags":{"operator:wikidata":"Q5155373","power":"transformer"},"addTags":{"operator":"Companhia Brasileira de Alumínio","operator:wikidata":"Q5155373","operator:wikipedia":"pt:Companhia Brasileira de Alumínio","power":"transformer"}},"power/transformer/companhiahidroeletricadosaofrancisco-dc5268":{"name":"Companhia Hidro Elétrica do São Francisco","locationSet":{"include":["br"]},"geometry":["point","vertex"],"matchScore":2,"terms":["chesf","chesf - companhia hidro elétrica do são francisco","companhia hidro elétrica do são francisco"],"tags":{"operator:wikidata":"Q5011113","power":"transformer"},"addTags":{"operator":"Companhia Hidro Elétrica do São Francisco","operator:short":"CHESF","operator:wikidata":"Q5011113","operator:wikipedia":"pt:Eletrobras Chesf","power":"transformer"}},"power/transformer/copel-dc5268":{"name":"Copel","locationSet":{"include":["br"]},"geometry":["point","vertex"],"matchScore":2,"terms":["companhia paranaense de energia","copel","copel geração e transmissão s.a."],"tags":{"operator:wikidata":"Q1130970","power":"transformer"},"addTags":{"operator":"Copel","operator:wikidata":"Q1130970","operator:wikipedia":"pt:Companhia Paranaense de Energia","power":"transformer"}},"power/transformer/cosern-dc5268":{"name":"Cosern","locationSet":{"include":["br"]},"geometry":["point","vertex"],"matchScore":2,"terms":["cosern"],"tags":{"operator:wikidata":"Q18477769","power":"transformer"},"addTags":{"operator":"Cosern","operator:wikidata":"Q18477769","operator:wikipedia":"pt:Companhia Energética do Rio Grande do Norte","power":"transformer"}},"power/transformer/cpflenergia-dc5268":{"name":"CPFL Energia","locationSet":{"include":["br"]},"geometry":["point","vertex"],"matchScore":2,"terms":["cpfl","cpfl brasil","cpfl energia","cpfl geração","cpfl leste paulista","cpfl paulista","cpfl piratinga","cpfl renováveis","cpfl santa cruz"],"tags":{"operator:wikidata":"Q1121216","power":"transformer"},"addTags":{"operator":"CPFL Energia","operator:wikidata":"Q1121216","operator:wikipedia":"pt:CPFL Energia","power":"transformer"}},"power/transformer/cptm-dc5268":{"name":"CPTM","locationSet":{"include":["br"]},"geometry":["point","vertex"],"matchScore":2,"terms":["cptm"],"tags":{"operator:wikidata":"Q1121227","power":"transformer"},"addTags":{"operator":"CPTM","operator:wikidata":"Q1121227","operator:wikipedia":"pt:Companhia Paulista de Trens Metropolitanos","power":"transformer"}},"power/transformer/cteep-dc5268":{"name":"CTEEP","locationSet":{"include":["br"]},"geometry":["point","vertex"],"matchScore":2,"terms":["cteep","cteep - companhia de transmissão de energia elétrica paulista"],"tags":{"operator:wikidata":"Q3063934","power":"transformer"},"addTags":{"operator":"CTEEP","operator:wikidata":"Q3063934","operator:wikipedia":"pt:ISA CTEEP","power":"transformer"}},"power/transformer/edpbandeirante-dc5268":{"name":"EDP Bandeirante","locationSet":{"include":["br"]},"geometry":["point","vertex"],"matchScore":2,"terms":["edp bandeirante"],"tags":{"operator:wikidata":"Q10269426","power":"transformer"},"addTags":{"operator":"EDP Bandeirante","operator:wikidata":"Q10269426","operator:wikipedia":"pt:EDP São Paulo","power":"transformer"}},"power/transformer/edpescelsa-dc5268":{"name":"EDP Escelsa","locationSet":{"include":["br"]},"geometry":["point","vertex"],"matchScore":2,"terms":["edp escelsa"],"tags":{"operator:wikidata":"Q10274271","power":"transformer"},"addTags":{"operator":"EDP Escelsa","operator:wikidata":"Q10274271","operator:wikipedia":"pt:EDP Espírito Santo","power":"transformer"}},"power/transformer/elektro-dc5268":{"name":"Elektro","locationSet":{"include":["br"]},"geometry":["point","vertex"],"matchScore":2,"terms":["elektro"],"tags":{"operator:wikidata":"Q10271671","power":"transformer"},"addTags":{"operator":"Elektro","operator:wikidata":"Q10271671","operator:wikipedia":"pt:Elektro","power":"transformer"}},"power/transformer/eletrobrasamazonasenergia-dc5268":{"name":"Eletrobras Amazonas Energia","locationSet":{"include":["br"]},"geometry":["point","vertex"],"matchScore":2,"terms":["eletrobras amazonas energia"],"tags":{"operator:wikidata":"Q10271724","power":"transformer"},"addTags":{"operator":"Eletrobras Amazonas Energia","operator:wikidata":"Q10271724","operator:wikipedia":"pt:Amazonas Energia","power":"transformer"}},"power/transformer/eletronorte-dc5268":{"name":"Eletronorte","locationSet":{"include":["br"]},"geometry":["point","vertex"],"matchScore":2,"terms":["eletronorte","eletronorte - centrais elétricas do norte do brasil"],"tags":{"operator:wikidata":"Q10271733","power":"transformer"},"addTags":{"operator":"Eletronorte","operator:wikidata":"Q10271733","operator:wikipedia":"pt:Eletrobras Eletronorte","power":"transformer"}},"power/transformer/eletropaulo-dc5268":{"name":"Eletropaulo","locationSet":{"include":["br"]},"geometry":["point","vertex"],"matchScore":2,"terms":["eletropaulo"],"searchable":false,"tags":{"operator:wikidata":"Q48854882","power":"transformer"},"addTags":{"operator":"Eletropaulo","operator:wikidata":"Q48854882","operator:wikipedia":"pt:Eletropaulo","power":"transformer"}},"power/transformer/eletrosul-dc5268":{"name":"Eletrosul","locationSet":{"include":["br"]},"geometry":["point","vertex"],"matchScore":2,"terms":["eletrosul","eletrosul centrais elétricas","eletrosul centrais elétricas s.a."],"tags":{"operator:wikidata":"Q5359479","power":"transformer"},"addTags":{"operator":"Eletrosul","operator:wikidata":"Q5359479","operator:wikipedia":"pt:Eletrobras CGT Eletrosul","power":"transformer"}},"power/transformer/eneldistribuicaoceara-dc5268":{"name":"Enel Distribuição Ceará","locationSet":{"include":["br"]},"geometry":["point","vertex"],"matchScore":2,"terms":["enel distribuição ceará"],"tags":{"operator:wikidata":"Q18477759","power":"transformer"},"addTags":{"operator":"Enel Distribuição Ceará","operator:wikidata":"Q18477759","operator:wikipedia":"pt:Enel Distribuição Ceará","power":"transformer"}},"power/transformer/eneldistribuicaogoias-dc5268":{"name":"Enel Distribuição Goiás","locationSet":{"include":["br"]},"geometry":["point","vertex"],"matchScore":2,"terms":["enel distribuição goiás"],"tags":{"operator:wikidata":"Q9670366","power":"transformer"},"addTags":{"operator":"Enel Distribuição Goiás","operator:wikidata":"Q9670366","operator:wikipedia":"pt:Enel Distribuição Goiás","power":"transformer"}},"power/transformer/eneldistribuicaorio-dc5268":{"name":"Enel Distribuição Rio","locationSet":{"include":["br"]},"geometry":["point","vertex"],"matchScore":2,"terms":["enel distribuição rio"],"tags":{"operator:wikidata":"Q9611434","power":"transformer"},"addTags":{"operator":"Enel Distribuição Rio","operator:wikidata":"Q9611434","operator:wikipedia":"pt:Enel Distribuição Rio","power":"transformer"}},"power/transformer/eneldistribuicaosaopaulo-dc5268":{"name":"Enel Distribuição São Paulo","locationSet":{"include":["br"]},"geometry":["point","vertex"],"matchScore":2,"terms":["enel distribuição são paulo"],"tags":{"operator:wikidata":"Q1328247","power":"transformer"},"addTags":{"operator":"Enel Distribuição São Paulo","operator:wikidata":"Q1328247","operator:wikipedia":"pt:Enel Distribuição São Paulo","power":"transformer"}},"power/transformer/energisa-dc5268":{"name":"Energisa","locationSet":{"include":["br"]},"geometry":["point","vertex"],"matchScore":2,"terms":["energisa","energisa mg","energisa mt","energisa pb","energisa se","energisa to"],"tags":{"operator:wikidata":"Q10291787","power":"transformer"},"addTags":{"operator":"Energisa","operator:wikidata":"Q10291787","operator:wikipedia":"pt:Grupo Energisa","power":"transformer"}},"power/transformer/escelsa-dc5268":{"name":"Escelsa","locationSet":{"include":["br"]},"geometry":["point","vertex"],"matchScore":2,"terms":["escelsa"],"tags":{"operator:wikidata":"Q10274271","power":"transformer"},"addTags":{"operator":"Escelsa","operator:wikidata":"Q10274271","operator:wikipedia":"pt:EDP Espírito Santo","power":"transformer"}},"power/transformer/furnascentraiseletricas-dc5268":{"name":"Furnas Centrais Elétricas","locationSet":{"include":["br"]},"geometry":["point","vertex"],"matchScore":2,"terms":["furnas","furnas centrais elétricas","furnas centrais elétricas s.a."],"tags":{"operator:wikidata":"Q5359478","power":"transformer"},"addTags":{"operator":"Furnas Centrais Elétricas","operator:wikidata":"Q5359478","operator:wikipedia":"pt:Eletrobras Furnas","power":"transformer"}},"power/transformer/light-dc5268":{"name":"Light","locationSet":{"include":["br"]},"geometry":["point","vertex"],"matchScore":2,"terms":["light"],"tags":{"operator:wikidata":"Q3238450","power":"transformer"},"addTags":{"operator":"Light","operator:wikidata":"Q3238450","operator:wikipedia":"pt:Light S/A","power":"transformer"}},"power/transformer/riograndeenergia-dc5268":{"name":"Rio Grande Energia","locationSet":{"include":["br"]},"geometry":["point","vertex"],"matchScore":2,"terms":["rge","rge rio grande energia","rge sul","rio grande energia"],"tags":{"operator:wikidata":"Q10361957","power":"transformer"},"addTags":{"operator":"Rio Grande Energia","operator:wikidata":"Q10361957","operator:wikipedia":"pt:Rio Grande Energia","power":"transformer"}},"power/transformer/valesa-dc5268":{"name":"Vale S.A.","locationSet":{"include":["br"]},"geometry":["point","vertex"],"matchScore":2,"terms":["edevp","vale s.a."],"tags":{"operator:wikidata":"Q583268","power":"transformer"},"addTags":{"operator":"Vale S.A.","operator:wikidata":"Q583268","operator:wikipedia":"pt:Vale S.A.","power":"transformer"}},"type/route/power/copel-82c27b":{"name":"Copel","locationSet":{"include":["br"]},"geometry":["relation"],"matchScore":2,"terms":["companhia paranaense de energia","copel","copel geração e transmissão s.a."],"reference":{"key":"route","value":"power"},"tags":{"operator:wikidata":"Q1130970","route":"power","type":"route"},"addTags":{"operator":"Copel","operator:wikidata":"Q1130970","operator:wikipedia":"pt:Companhia Paranaense de Energia","route":"power","type":"route"}},"type/route/power/eletronorte-82c27b":{"name":"Eletronorte","locationSet":{"include":["br"]},"geometry":["relation"],"matchScore":2,"terms":["eletronorte"],"reference":{"key":"route","value":"power"},"tags":{"operator:wikidata":"Q10271733","route":"power","type":"route"},"addTags":{"operator":"Eletronorte","operator:wikidata":"Q10271733","operator:wikipedia":"pt:Eletrobras Eletronorte","route":"power","type":"route"}},"type/route/power/itaipubinacional-89347b":{"name":"ITAIPU Binacional","locationSet":{"include":["br","py"]},"geometry":["relation"],"matchScore":2,"terms":["itaipu binacional"],"reference":{"key":"route","value":"power"},"tags":{"operator:wikidata":"Q244169","route":"power","type":"route"},"addTags":{"operator":"ITAIPU Binacional","operator:wikidata":"Q244169","operator:wikipedia":"pt:Usina Hidrelétrica de Itaipu","route":"power","type":"route"}},"public_transport/platform/bus_point/aguiabranca-d1e432":{"name":"Aguia Branca","locationSet":{"include":["br"]},"geometry":["point","vertex"],"matchScore":2,"terms":["aguia branca"],"reference":{"key":"public_transport","value":"platform"},"tags":{"bus":"yes","network:wikidata":"Q10390189","public_transport":"platform"},"addTags":{"bus":"yes","highway":"bus_stop","network":"Aguia Branca","network:wikidata":"Q10390189","network:wikipedia":"pt:Viação Águia Branca","public_transport":"platform"}},"public_transport/platform/bus_point/antt-d1e432":{"name":"ANTT","locationSet":{"include":["br"]},"geometry":["point","vertex"],"matchScore":2,"terms":["antt"],"reference":{"key":"public_transport","value":"platform"},"tags":{"bus":"yes","network:wikidata":"Q9592640","public_transport":"platform"},"addTags":{"bus":"yes","highway":"bus_stop","network":"ANTT","network:wikidata":"Q9592640","network:wikipedia":"pt:Agência Nacional de Transportes Terrestres","public_transport":"platform"}},"public_transport/platform/bus_point/emtu-d1e432":{"name":"EMTU","locationSet":{"include":["br"]},"geometry":["point","vertex"],"matchScore":2,"terms":["emtu"],"reference":{"key":"public_transport","value":"platform"},"tags":{"bus":"yes","network:wikidata":"Q5374439","public_transport":"platform"},"addTags":{"bus":"yes","highway":"bus_stop","network":"EMTU","network:short":"EMTU","network:wikidata":"Q5374439","network:wikipedia":"pt:Empresa Metropolitana de Transportes Urbanos de São Paulo","public_transport":"platform"}},"public_transport/platform/bus_point/internorte-d1e432":{"name":"Internorte (Rio de Janeiro)","locationSet":{"include":["br"]},"geometry":["point","vertex"],"matchScore":2,"terms":["internorte"],"reference":{"key":"public_transport","value":"platform"},"tags":{"bus":"yes","network:wikidata":"Q18480910","public_transport":"platform"},"addTags":{"bus":"yes","highway":"bus_stop","network":"Internorte","network:wikidata":"Q18480910","network:wikipedia":"pt:Consórcio Internorte (Rio de Janeiro)","public_transport":"platform"}},"public_transport/platform/bus_point/intersul-d1e432":{"name":"Intersul","locationSet":{"include":["br"]},"geometry":["point","vertex"],"matchScore":2,"terms":["intersul"],"reference":{"key":"public_transport","value":"platform"},"tags":{"bus":"yes","network:wikidata":"Q18480916","public_transport":"platform"},"addTags":{"bus":"yes","highway":"bus_stop","network":"Intersul","network:wikidata":"Q18480916","network:wikipedia":"pt:Consórcio Intersul","public_transport":"platform"}},"public_transport/platform/bus_point/redeintegradadetransportes-d1e432":{"name":"Rede Integrada de Transportes","locationSet":{"include":["br"]},"geometry":["point","vertex"],"matchScore":2,"terms":["rede integrada de transportes"],"reference":{"key":"public_transport","value":"platform"},"tags":{"bus":"yes","network:wikidata":"Q168744","public_transport":"platform"},"addTags":{"bus":"yes","highway":"bus_stop","network":"Rede Integrada de Transportes","network:wikidata":"Q168744","network:wikipedia":"pt:Rede Integrada de Transporte","public_transport":"platform"}},"public_transport/platform/bus_point/sim-d1e432":{"name":"SIM (Florianópolis)","locationSet":{"include":["br"]},"geometry":["point","vertex"],"matchScore":2,"terms":["sim"],"reference":{"key":"public_transport","value":"platform"},"tags":{"bus":"yes","network:wikidata":"Q48877834","public_transport":"platform"},"addTags":{"bus":"yes","highway":"bus_stop","network":"SIM","network:wikidata":"Q48877834","network:wikipedia":"pt:Sistema Integrado de Mobilidade (Florianópolis)","public_transport":"platform"}},"public_transport/platform/bus_point/sptrans-d1e432":{"name":"SPTrans","locationSet":{"include":["br"]},"geometry":["point","vertex"],"matchScore":2,"terms":["sptrans"],"reference":{"key":"public_transport","value":"platform"},"tags":{"bus":"yes","network:wikidata":"Q7392689","public_transport":"platform"},"addTags":{"bus":"yes","highway":"bus_stop","network":"SPTrans","network:wikidata":"Q7392689","network:wikipedia":"pt:São Paulo Transporte","public_transport":"platform"}},"public_transport/platform/bus_point/stpl-d1e432":{"name":"STPL","locationSet":{"include":["br"]},"geometry":["point","vertex"],"matchScore":2,"terms":["stpl"],"reference":{"key":"public_transport","value":"platform"},"tags":{"bus":"yes","network:wikidata":"Q30932686","public_transport":"platform"},"addTags":{"bus":"yes","highway":"bus_stop","network":"STPL","network:wikidata":"Q30932686","network:wikipedia":"pt:STPL","public_transport":"platform"}},"public_transport/platform/bus_point/transcarioca-d1e432":{"name":"Transcarioca","locationSet":{"include":["br"]},"geometry":["point","vertex"],"matchScore":2,"terms":["transcarioca"],"reference":{"key":"public_transport","value":"platform"},"tags":{"bus":"yes","network:wikidata":"Q7833610","public_transport":"platform"},"addTags":{"bus":"yes","highway":"bus_stop","network":"Transcarioca","network:wikidata":"Q7833610","network:wikipedia":"pt:TransCarioca","public_transport":"platform"}},"public_transport/platform/bus_point/transcol-d1e432":{"name":"Transcol","locationSet":{"include":["br"]},"geometry":["point","vertex"],"matchScore":2,"terms":["transcol"],"reference":{"key":"public_transport","value":"platform"},"tags":{"bus":"yes","network:wikidata":"Q10372119","public_transport":"platform"},"addTags":{"bus":"yes","highway":"bus_stop","network":"Transcol","network:wikidata":"Q10372119","network:wikipedia":"pt:Sistema Transcol","public_transport":"platform"}},"type/route/bus/aguiabranca-2ef076":{"name":"Aguia Branca","locationSet":{"include":["br"]},"geometry":["relation"],"matchScore":2,"terms":["aguia branca"],"reference":{"key":"route","value":"bus"},"tags":{"network:wikidata":"Q10390189","route":"bus","type":"route"},"addTags":{"network":"Aguia Branca","network:wikidata":"Q10390189","network:wikipedia":"pt:Viação Águia Branca","route":"bus","type":"route"}},"type/route/bus/antt-2ef076":{"name":"ANTT","locationSet":{"include":["br"]},"geometry":["relation"],"matchScore":2,"terms":["antt"],"reference":{"key":"route","value":"bus"},"tags":{"network:wikidata":"Q9592640","route":"bus","type":"route"},"addTags":{"network":"ANTT","network:wikidata":"Q9592640","network:wikipedia":"pt:Agência Nacional de Transportes Terrestres","route":"bus","type":"route"}},"type/route/bus/emtu-2ef076":{"name":"EMTU","locationSet":{"include":["br"]},"geometry":["relation"],"matchScore":2,"terms":["emtu"],"reference":{"key":"route","value":"bus"},"tags":{"network:wikidata":"Q5374439","route":"bus","type":"route"},"addTags":{"network":"EMTU","network:short":"EMTU","network:wikidata":"Q5374439","network:wikipedia":"pt:Empresa Metropolitana de Transportes Urbanos de São Paulo","route":"bus","type":"route"}},"type/route/bus/internorte-2ef076":{"name":"Internorte (Rio de Janeiro)","locationSet":{"include":["br"]},"geometry":["relation"],"matchScore":2,"terms":["internorte"],"reference":{"key":"route","value":"bus"},"tags":{"network:wikidata":"Q18480910","route":"bus","type":"route"},"addTags":{"network":"Internorte","network:wikidata":"Q18480910","network:wikipedia":"pt:Consórcio Internorte (Rio de Janeiro)","route":"bus","type":"route"}},"type/route/bus/intersul-2ef076":{"name":"Intersul","locationSet":{"include":["br"]},"geometry":["relation"],"matchScore":2,"terms":["intersul"],"reference":{"key":"route","value":"bus"},"tags":{"network:wikidata":"Q18480916","route":"bus","type":"route"},"addTags":{"network":"Intersul","network:wikidata":"Q18480916","network:wikipedia":"pt:Consórcio Intersul","route":"bus","type":"route"}},"type/route/bus/redeintegradadetransportes-2ef076":{"name":"Rede Integrada de Transportes","locationSet":{"include":["br"]},"geometry":["relation"],"matchScore":2,"terms":["rede integrada de transportes"],"reference":{"key":"route","value":"bus"},"tags":{"network:wikidata":"Q168744","route":"bus","type":"route"},"addTags":{"network":"Rede Integrada de Transportes","network:wikidata":"Q168744","network:wikipedia":"pt:Rede Integrada de Transporte","route":"bus","type":"route"}},"type/route/bus/sim-2ef076":{"name":"SIM (Florianópolis)","locationSet":{"include":["br"]},"geometry":["relation"],"matchScore":2,"terms":["sim"],"reference":{"key":"route","value":"bus"},"tags":{"network:wikidata":"Q48877834","route":"bus","type":"route"},"addTags":{"network":"SIM","network:wikidata":"Q48877834","network:wikipedia":"pt:Sistema Integrado de Mobilidade (Florianópolis)","route":"bus","type":"route"}},"type/route/bus/sptrans-2ef076":{"name":"SPTrans","locationSet":{"include":["br"]},"geometry":["relation"],"matchScore":2,"terms":["sptrans"],"reference":{"key":"route","value":"bus"},"tags":{"network:wikidata":"Q7392689","route":"bus","type":"route"},"addTags":{"network":"SPTrans","network:wikidata":"Q7392689","network:wikipedia":"pt:São Paulo Transporte","route":"bus","type":"route"}},"type/route/bus/stpl-2ef076":{"name":"STPL","locationSet":{"include":["br"]},"geometry":["relation"],"matchScore":2,"terms":["stpl"],"reference":{"key":"route","value":"bus"},"tags":{"network:wikidata":"Q30932686","route":"bus","type":"route"},"addTags":{"network":"STPL","network:wikidata":"Q30932686","network:wikipedia":"pt:STPL","route":"bus","type":"route"}},"type/route/bus/transcarioca-2ef076":{"name":"Transcarioca","locationSet":{"include":["br"]},"geometry":["relation"],"matchScore":2,"terms":["transcarioca"],"reference":{"key":"route","value":"bus"},"tags":{"network:wikidata":"Q7833610","route":"bus","type":"route"},"addTags":{"network":"Transcarioca","network:wikidata":"Q7833610","network:wikipedia":"pt:TransCarioca","route":"bus","type":"route"}},"type/route/bus/transcol-2ef076":{"name":"Transcol","locationSet":{"include":["br"]},"geometry":["relation"],"matchScore":2,"terms":["transcol"],"reference":{"key":"route","value":"bus"},"tags":{"network:wikidata":"Q10372119","route":"bus","type":"route"},"addTags":{"network":"Transcol","network:wikidata":"Q10372119","network:wikipedia":"pt:Sistema Transcol","route":"bus","type":"route"}},"type/route/train/companhiapaulistadetrensmetropolitanos-ed1f03":{"name":"Companhia Paulista de Trens Metropolitanos","locationSet":{"include":["br"]},"geometry":["relation"],"matchScore":2,"terms":["companhia paulista de trens metropolitanos","cptm"],"reference":{"key":"route","value":"train"},"tags":{"network:wikidata":"Q1121227","route":"train","type":"route"},"addTags":{"network":"Companhia Paulista de Trens Metropolitanos","network:short":"CPTM","network:wikidata":"Q1121227","network:wikipedia":"pt:Companhia Paulista de Trens Metropolitanos","route":"train","type":"route"}},"type/route/train/supervia-ed1f03":{"name":"SuperVia","locationSet":{"include":["br"]},"geometry":["relation"],"matchScore":2,"terms":["supervia"],"reference":{"key":"route","value":"train"},"tags":{"network:wikidata":"Q1125591","route":"train","type":"route"},"addTags":{"network":"SuperVia","network:wikidata":"Q1125591","network:wikipedia":"en:SuperVia","route":"train","type":"route"}},"type/route/trolleybus/sptrans-e2c444":{"name":"SPTrans","locationSet":{"include":["br"]},"geometry":["relation"],"matchScore":2,"terms":["sptrans"],"reference":{"key":"route","value":"trolleybus"},"tags":{"network:wikidata":"Q7392689","route":"trolleybus","type":"route"},"addTags":{"network":"SPTrans","network:wikidata":"Q7392689","network:wikipedia":"pt:São Paulo Transporte","route":"trolleybus","type":"route"}}}