{"advertising/totem/axion-2a066e":{"name":"Axion","locationSet":{"include":["ar","py","uy"]},"geometry":["point","line"],"matchScore":2,"terms":["axion"],"tags":{"advertising":"totem","brand:wikidata":"Q62131749"},"addTags":{"advertising":"totem","brand":"Axion","brand:wikidata":"Q62131749"}},"advertising/totem/refinor-2d76fb":{"name":"Refinor","locationSet":{"include":["ar"]},"geometry":["point","line"],"matchScore":2,"terms":["refinaria del norte","refinor"],"tags":{"advertising":"totem","brand:wikidata":"Q10358460"},"addTags":{"advertising":"totem","brand":"Refinor","brand:wikidata":"Q10358460"}},"advertising/totem/ypf-2d76fb":{"name":"YPF","locationSet":{"include":["ar"]},"geometry":["point","line"],"matchScore":2,"terms":["ypf"],"tags":{"advertising":"totem","brand:wikidata":"Q2006989"},"addTags":{"advertising":"totem","brand":"YPF","brand:wikidata":"Q2006989"}},"amenity/atm/bancociudad-b67a7c":{"name":"Banco Ciudad","locationSet":{"include":["ar"]},"geometry":["point","vertex"],"matchScore":2,"terms":["banco ciudad","banco ciudad de buenos aires"],"fields":["name","brand","{amenity/atm}"],"tags":{"amenity":"atm","brand:wikidata":"Q4856204"},"addTags":{"amenity":"atm","brand":"Banco Ciudad","brand:wikidata":"Q4856204","official_name":"Banco Ciudad de Buenos Aires","operator":"Banco Ciudad","operator:wikidata":"Q4856204"}},"amenity/atm/bancodecordoba-b67a7c":{"name":"Banco de Córdoba","locationSet":{"include":["ar"]},"geometry":["point","vertex"],"matchScore":2,"terms":["banco de córdoba","banco de la provincia de córdoba s.a.","bancor"],"fields":["name","brand","{amenity/atm}"],"tags":{"amenity":"atm","brand:wikidata":"Q5718071"},"addTags":{"amenity":"atm","brand":"Banco de Córdoba","brand:wikidata":"Q5718071","official_name":"Banco de la Provincia de Córdoba S.A.","operator":"Banco de Córdoba","operator:wikidata":"Q5718071","short_name":"Bancor"}},"amenity/atm/bancodelanacion-b67a7c":{"name":"Banco de la Nación (Argentina)","locationSet":{"include":["ar"]},"geometry":["point","vertex"],"matchScore":2,"terms":["banco de la nación"],"fields":["name","brand","{amenity/atm}"],"tags":{"amenity":"atm","brand:wikidata":"Q2883376"},"addTags":{"amenity":"atm","brand":"Banco de la Nación","brand:wikidata":"Q2883376","operator":"Banco de la Nación","operator:wikidata":"Q2883376"}},"amenity/atm/bancoindustrial-b67a7c":{"name":"Banco Industrial","locationSet":{"include":["ar"]},"geometry":["point","vertex"],"matchScore":2,"terms":["banco industrial"],"fields":["name","brand","{amenity/atm}"],"tags":{"amenity":"atm","brand:wikidata":"Q16489444"},"addTags":{"amenity":"atm","brand":"Banco Industrial","brand:wikidata":"Q16489444","operator":"Banco Industrial","operator:wikidata":"Q16489444"}},"amenity/atm/banconacion-b67a7c":{"name":"Banco Nación","locationSet":{"include":["ar"]},"geometry":["point","vertex"],"matchScore":2,"terms":["banco de la nación argentina","banco nación"],"fields":["name","brand","{amenity/atm}"],"tags":{"amenity":"atm","brand:wikidata":"Q2883376"},"addTags":{"amenity":"atm","brand":"Banco Nación","brand:wikidata":"Q2883376","official_name":"Banco de la Nación Argentina","operator":"Banco Nación","operator:wikidata":"Q2883376"}},"amenity/atm/bancopatagonia-b67a7c":{"name":"Banco Patagonia","locationSet":{"include":["ar"]},"geometry":["point","vertex"],"matchScore":2,"terms":["banco patagonia","patagonia"],"fields":["name","brand","{amenity/atm}"],"tags":{"amenity":"atm","brand:wikidata":"Q2882078"},"addTags":{"amenity":"atm","brand":"Banco Patagonia","brand:wikidata":"Q2882078","operator":"Banco Patagonia","operator:wikidata":"Q2882078"}},"amenity/atm/bancoprovincia-b67a7c":{"name":"Banco Provincia","locationSet":{"include":["ar"]},"geometry":["point","vertex"],"matchScore":2,"terms":["banco de la provincia de buenos aires","banco provincia"],"fields":["name","brand","{amenity/atm}"],"tags":{"amenity":"atm","brand:wikidata":"Q4856209"},"addTags":{"amenity":"atm","brand":"Banco Provincia","brand:wikidata":"Q4856209","official_name":"Banco de la Provincia de Buenos Aires","operator":"Banco Provincia","operator:wikidata":"Q4856209"}},"amenity/atm/bancoprovinciadeneuquen-b67a7c":{"name":"Banco Provincia de Neuquén","locationSet":{"include":["ar"]},"geometry":["point","vertex"],"matchScore":2,"terms":["banco provincia de neuquén"],"fields":["name","brand","{amenity/atm}"],"tags":{"amenity":"atm","brand:wikidata":"Q100233006"},"addTags":{"amenity":"atm","brand":"Banco Provincia de Neuquén","brand:wikidata":"Q100233006","operator":"Banco Provincia de Neuquén","operator:wikidata":"Q100233006"}},"amenity/atm/bancosantafe-b67a7c":{"name":"Banco Santa Fe","locationSet":{"include":["ar"]},"geometry":["point","vertex"],"matchScore":2,"terms":["banco santa fe","nuevo banco de santa fe"],"fields":["name","brand","{amenity/atm}"],"tags":{"amenity":"atm","brand:wikidata":"Q6046871"},"addTags":{"amenity":"atm","brand":"Banco Santa Fe","brand:wikidata":"Q6046871","official_name":"Nuevo Banco de Santa Fe","operator":"Banco Santa Fe","operator:wikidata":"Q6046871"}},"amenity/atm/bbvafrance-b67a7c":{"name":"BBVA Francés","locationSet":{"include":["ar"]},"geometry":["point","vertex"],"matchScore":2,"terms":["bbva france","bbva francés"],"fields":["name","brand","{amenity/atm}"],"tags":{"amenity":"atm","brand:wikidata":"Q2876788"},"addTags":{"amenity":"atm","brand":"BBVA Francés","brand:en":"BBVA France","brand:fr":"BBVA France","brand:wikidata":"Q2876788","name:en":"BBVA France","name:fr":"BBVA Francés","operator":"BBVA Francés","operator:wikidata":"Q2876788"}},"amenity/atm/bnpparibas-4ed91f":{"name":"BNP Paribas","locationSet":{"include":["ae","af","ar","at","bf","bg","bh","br","ca","ch","ci","cl","co","cz","de","dk","dz","es","fi","fr","gb","gf","gp","hu","ie","il","it","kw","ma","ml","mq","mx","nl","no","pe","pt","qa","re","ro","ru","sa","se","sk","sn","tn","tr","us"]},"geometry":["point","vertex"],"matchScore":2,"terms":["bnp paribas"],"fields":["name","brand","{amenity/atm}"],"tags":{"amenity":"atm","brand:wikidata":"Q499707"},"addTags":{"amenity":"atm","brand":"BNP Paribas","brand:wikidata":"Q499707","operator":"BNP Paribas","operator:wikidata":"Q499707"}},"amenity/atm/credicoop-b67a7c":{"name":"Credicoop","locationSet":{"include":["ar"]},"geometry":["point","vertex"],"matchScore":2,"terms":["credicoop"],"fields":["name","brand","{amenity/atm}"],"tags":{"amenity":"atm","brand:wikidata":"Q4854086"},"addTags":{"amenity":"atm","brand":"Credicoop","brand:wikidata":"Q4854086","operator":"Credicoop","operator:wikidata":"Q4854086"}},"amenity/atm/galicia-b67a7c":{"name":"Galicia","locationSet":{"include":["ar"]},"geometry":["point","vertex"],"matchScore":2,"terms":["galicia"],"fields":["name","brand","{amenity/atm}"],"tags":{"amenity":"atm","brand:wikidata":"Q5717952"},"addTags":{"amenity":"atm","brand":"Galicia","brand:wikidata":"Q5717952","operator":"Galicia","operator:wikidata":"Q5717952"}},"amenity/atm/itauunibanco-bbb1a4":{"name":"Itaú","locationSet":{"include":["ar","br","py"]},"geometry":["point","vertex"],"matchScore":2,"terms":["banco itau","itaú unibanco"],"fields":["name","brand","{amenity/atm}"],"tags":{"amenity":"atm","brand:wikidata":"Q1424293"},"addTags":{"amenity":"atm","brand":"Itaú Unibanco","brand:wikidata":"Q1424293","operator":"Itaú Unibanco","operator:wikidata":"Q1424293"}},"amenity/atm/macro-b67a7c":{"name":"Macro","locationSet":{"include":["ar"]},"geometry":["point","vertex"],"matchScore":2,"terms":["macro"],"fields":["name","brand","{amenity/atm}"],"tags":{"amenity":"atm","brand:wikidata":"Q2335199"},"addTags":{"amenity":"atm","brand":"Macro","brand:wikidata":"Q2335199","operator":"Macro","operator:wikidata":"Q2335199"}},"amenity/atm/santanderrio-b67a7c":{"name":"Santander Río","locationSet":{"include":["ar"]},"geometry":["point","vertex"],"matchScore":2,"terms":["santander río"],"fields":["name","brand","{amenity/atm}"],"tags":{"amenity":"atm","brand:wikidata":"Q3385268"},"addTags":{"amenity":"atm","brand":"Santander Río","brand:wikidata":"Q3385268","operator":"Santander Río","operator:wikidata":"Q3385268"}},"amenity/atm/supervielle-b67a7c":{"name":"Supervielle","locationSet":{"include":["ar"]},"geometry":["point","vertex"],"matchScore":2,"terms":["supervielle"],"fields":["name","brand","{amenity/atm}"],"tags":{"amenity":"atm","brand:wikidata":"Q5718035"},"addTags":{"amenity":"atm","brand":"Supervielle","brand:wikidata":"Q5718035","operator":"Supervielle","operator:wikidata":"Q5718035"}},"amenity/bank/bancociudad-841353":{"name":"Banco Ciudad","locationSet":{"include":["ar"]},"geometry":["point","area"],"matchScore":2,"terms":["banco ciudad","banco ciudad de buenos aires"],"tags":{"amenity":"bank","brand:wikidata":"Q4856204"},"addTags":{"amenity":"bank","brand":"Banco Ciudad","brand:wikidata":"Q4856204","name":"Banco Ciudad","official_name":"Banco Ciudad de Buenos Aires"}},"amenity/bank/bancodecordoba-841353":{"name":"Banco de Córdoba","locationSet":{"include":["ar"]},"geometry":["point","area"],"matchScore":2,"terms":["banco de córdoba","banco de la provincia de córdoba s.a.","bancor"],"tags":{"amenity":"bank","brand:wikidata":"Q5718071"},"addTags":{"amenity":"bank","brand":"Banco de Córdoba","brand:wikidata":"Q5718071","name":"Banco de Córdoba","official_name":"Banco de la Provincia de Córdoba S.A.","short_name":"Bancor"}},"amenity/bank/bancodelanacion-841353":{"name":"Banco de la Nación (Argentina)","locationSet":{"include":["ar"]},"geometry":["point","area"],"matchScore":2,"terms":["banco de la nación"],"tags":{"amenity":"bank","brand:wikidata":"Q2883376"},"addTags":{"amenity":"bank","brand":"Banco de la Nación","brand:wikidata":"Q2883376","name":"Banco de la Nación"}},"amenity/bank/bancoindustrial-841353":{"name":"Banco Industrial","locationSet":{"include":["ar"]},"geometry":["point","area"],"matchScore":2,"terms":["banco industrial"],"tags":{"amenity":"bank","brand:wikidata":"Q16489444"},"addTags":{"amenity":"bank","brand":"Banco Industrial","brand:wikidata":"Q16489444","name":"Banco Industrial"}},"amenity/bank/banconacion-841353":{"name":"Banco Nación","locationSet":{"include":["ar"]},"geometry":["point","area"],"matchScore":2,"terms":["banco de la nación argentina","banco nación"],"tags":{"amenity":"bank","brand:wikidata":"Q2883376"},"addTags":{"amenity":"bank","brand":"Banco Nación","brand:wikidata":"Q2883376","name":"Banco Nación","official_name":"Banco de la Nación Argentina"}},"amenity/bank/bancopatagonia-841353":{"name":"Banco Patagonia","locationSet":{"include":["ar"]},"geometry":["point","area"],"matchScore":2,"terms":["banco patagonia","patagonia"],"tags":{"amenity":"bank","brand:wikidata":"Q2882078"},"addTags":{"amenity":"bank","brand":"Banco Patagonia","brand:wikidata":"Q2882078","name":"Banco Patagonia"}},"amenity/bank/bancoprovincia-841353":{"name":"Banco Provincia","locationSet":{"include":["ar"]},"geometry":["point","area"],"matchScore":2,"terms":["banco de la provincia de buenos aires","banco provincia"],"tags":{"amenity":"bank","brand:wikidata":"Q4856209"},"addTags":{"amenity":"bank","brand":"Banco Provincia","brand:wikidata":"Q4856209","name":"Banco Provincia","official_name":"Banco de la Provincia de Buenos Aires"}},"amenity/bank/bancoprovinciadeneuquen-841353":{"name":"Banco Provincia de Neuquén","locationSet":{"include":["ar"]},"geometry":["point","area"],"matchScore":2,"terms":["banco provincia de neuquén"],"tags":{"amenity":"bank","brand:wikidata":"Q100233006"},"addTags":{"amenity":"bank","brand":"Banco Provincia de Neuquén","brand:wikidata":"Q100233006","name":"Banco Provincia de Neuquén"}},"amenity/bank/bancosantafe-841353":{"name":"Banco Santa Fe","locationSet":{"include":["ar"]},"geometry":["point","area"],"matchScore":2,"terms":["banco santa fe","nuevo banco de santa fe"],"tags":{"amenity":"bank","brand:wikidata":"Q6046871"},"addTags":{"amenity":"bank","brand":"Banco Santa Fe","brand:wikidata":"Q6046871","name":"Banco Santa Fe","official_name":"Nuevo Banco de Santa Fe"}},"amenity/bank/bbvafrances-841353":{"name":"BBVA Francés","locationSet":{"include":["ar"]},"geometry":["point","area"],"matchScore":2,"terms":["bbva france","bbva francés"],"tags":{"amenity":"bank","brand:wikidata":"Q2876788"},"addTags":{"amenity":"bank","brand":"BBVA Francés","brand:en":"BBVA France","brand:fr":"BBVA France","brand:wikidata":"Q2876788","name":"BBVA Francés","name:en":"BBVA France","name:fr":"BBVA Francés"}},"amenity/bank/bnpparibas-f7d855":{"name":"BNP Paribas","locationSet":{"include":["ae","af","ar","at","bf","bg","bh","br","ca","ch","ci","cl","co","cz","de","dk","dz","es","fi","fr","gb","gf","gp","hu","ie","il","it","kw","ma","ml","mq","mx","nl","no","pe","pt","qa","re","ro","ru","sa","se","sk","sn","tn","tr","us"]},"geometry":["point","area"],"matchScore":2,"terms":["bnp paribas"],"tags":{"amenity":"bank","brand:wikidata":"Q499707"},"addTags":{"amenity":"bank","brand":"BNP Paribas","brand:wikidata":"Q499707","name":"BNP Paribas"}},"amenity/bank/credicoop-841353":{"name":"Credicoop","locationSet":{"include":["ar"]},"geometry":["point","area"],"matchScore":2,"terms":["credicoop"],"tags":{"amenity":"bank","brand:wikidata":"Q4854086"},"addTags":{"amenity":"bank","brand":"Credicoop","brand:wikidata":"Q4854086","name":"Credicoop"}},"amenity/bank/galicia-841353":{"name":"Galicia","locationSet":{"include":["ar"]},"geometry":["point","area"],"matchScore":2,"terms":["galicia"],"tags":{"amenity":"bank","brand:wikidata":"Q5717952"},"addTags":{"amenity":"bank","brand":"Galicia","brand:wikidata":"Q5717952","name":"Galicia"}},"amenity/bank/itau-1923f1":{"name":"Itaú","locationSet":{"include":["ar","br","py"]},"geometry":["point","area"],"matchScore":2,"terms":["banco itau","itaú unibanco"],"tags":{"amenity":"bank","brand:wikidata":"Q1424293"},"addTags":{"amenity":"bank","brand":"Itaú Unibanco","brand:wikidata":"Q1424293","name":"Itaú"}},"amenity/bank/macro-841353":{"name":"Macro","locationSet":{"include":["ar"]},"geometry":["point","area"],"matchScore":2,"terms":["macro"],"tags":{"amenity":"bank","brand:wikidata":"Q2335199"},"addTags":{"amenity":"bank","brand":"Macro","brand:wikidata":"Q2335199","name":"Macro"}},"amenity/bank/santanderrio-841353":{"name":"Santander Río","locationSet":{"include":["ar"]},"geometry":["point","area"],"matchScore":2,"terms":["santander río"],"tags":{"amenity":"bank","brand:wikidata":"Q3385268"},"addTags":{"amenity":"bank","brand":"Santander Río","brand:wikidata":"Q3385268","name":"Santander Río"}},"amenity/bank/supervielle-841353":{"name":"Supervielle","locationSet":{"include":["ar"]},"geometry":["point","area"],"matchScore":2,"terms":["supervielle"],"tags":{"amenity":"bank","brand:wikidata":"Q5718035"},"addTags":{"amenity":"bank","brand":"Supervielle","brand:wikidata":"Q5718035","name":"Supervielle"}},"amenity/bicycle_rental/baecobici-2be980":{"name":"BA Ecobici","locationSet":{"include":["ar"]},"geometry":["point","vertex","area"],"matchScore":2,"terms":["ba ecobici","tembici"],"fields":["name","brand","{amenity/bicycle_rental}"],"tags":{"amenity":"bicycle_rental","brand:wikidata":"Q18419538"},"addTags":{"amenity":"bicycle_rental","brand":"BA Ecobici","brand:wikidata":"Q18419538","network":"BA Ecobici","network:wikidata":"Q18419538","operator":"Tembici"}},"amenity/bicycle_rental/mibicitubici-2be980":{"name":"Mi Bici Tu Bici","locationSet":{"include":["ar"]},"geometry":["point","vertex","area"],"matchScore":2,"terms":["mi bici tu bici","municipalidad de rosario"],"fields":["name","brand","{amenity/bicycle_rental}"],"tags":{"amenity":"bicycle_rental","brand:wikidata":"Q100272303"},"addTags":{"amenity":"bicycle_rental","brand":"Mi Bici Tu Bici","brand:wikidata":"Q100272303","network":"Mi Bici Tu Bici","network:wikidata":"Q100272303","operator":"Municipalidad de Rosario"}},"amenity/cafe/coffee_shop/bonafide-ba14cf":{"name":"Bonafide","locationSet":{"include":["ar","cl"]},"geometry":["point","area"],"matchScore":2,"terms":["bonafide"],"reference":{"key":"cuisine","value":"coffee_shop"},"tags":{"amenity":"cafe","brand:wikidata":"Q62122746","cuisine":"coffee_shop"},"addTags":{"amenity":"cafe","brand":"Bonafide","brand:wikidata":"Q62122746","cuisine":"coffee_shop","name":"Bonafide","takeaway":"yes"}},"amenity/cafe/coffee_shop/cafemartinez-2da85d":{"name":"Café Martínez","locationSet":{"include":["ar"]},"geometry":["point","area"],"matchScore":2,"terms":["café martínez"],"reference":{"key":"cuisine","value":"coffee_shop"},"tags":{"amenity":"cafe","brand:wikidata":"Q16540032","cuisine":"coffee_shop"},"addTags":{"amenity":"cafe","brand":"Café Martínez","brand:wikidata":"Q16540032","cuisine":"coffee_shop","name":"Café Martínez","takeaway":"yes"}},"amenity/cafe/coffee_shop/havanna-ffe1b3":{"name":"Havanna","locationSet":{"include":["ar","br","cl","pe"]},"geometry":["point","area"],"matchScore":2,"terms":["havanna"],"reference":{"key":"cuisine","value":"coffee_shop"},"tags":{"amenity":"cafe","brand:wikidata":"Q2900869","cuisine":"coffee_shop"},"addTags":{"amenity":"cafe","brand":"Havanna","brand:wikidata":"Q2900869","cuisine":"coffee_shop","name":"Havanna","takeaway":"yes"}},"amenity/casino/codere-3dfd07":{"name":"Codere","locationSet":{"include":["ar","co","es","it","mx","pa","uy"]},"geometry":["point","area"],"matchScore":2,"terms":["codere"],"tags":{"amenity":"casino","brand:wikidata":"Q2918415"},"addTags":{"amenity":"casino","brand":"Codere","brand:wikidata":"Q2918415","name":"Codere"}},"amenity/cinema/showcasecinemas-481888":{"name":"Showcase Cinemas","locationSet":{"include":["ar","gb","us"]},"geometry":["point","area"],"matchScore":2,"terms":["showcase","showcase cinema","showcase cinemas"],"fields":["name","brand","{amenity/cinema}"],"tags":{"amenity":"cinema","brand:wikidata":"Q7503170"},"addTags":{"amenity":"cinema","brand":"Showcase Cinemas","brand:wikidata":"Q7503170","name":"Showcase Cinemas","short_name":"Showcase"}},"amenity/fast_food/acaiconcept-989340":{"name":"Açaí Concept","locationSet":{"include":["ar","br","ca","ch","cl","ec","fr","pt","us"]},"geometry":["point","area"],"matchScore":2,"terms":["açaí concept"],"tags":{"amenity":"fast_food","brand:wikidata":"Q110138105"},"addTags":{"amenity":"fast_food","brand":"Açaí Concept","brand:wikidata":"Q110138105","cuisine":"açaí","name":"Açaí Concept","takeaway":"yes"}},"amenity/fast_food/burger/mostaza-c1cb89":{"name":"Mostaza","locationSet":{"include":["ar"]},"geometry":["point","area"],"matchScore":2,"terms":["mostaza"],"reference":{"key":"cuisine","value":"burger"},"tags":{"amenity":"fast_food","brand:wikidata":"Q16609167","cuisine":"burger"},"addTags":{"amenity":"fast_food","brand":"Mostaza","brand:wikidata":"Q16609167","cuisine":"burger","name":"Mostaza","takeaway":"yes"}},"amenity/fuel/axion-b21aa1":{"name":"Axion","locationSet":{"include":["ar","py","uy"]},"geometry":["point","area"],"matchScore":2,"terms":["axion"],"fields":["name","brand","{amenity/fuel}"],"tags":{"amenity":"fuel","brand:wikidata":"Q62131749"},"addTags":{"amenity":"fuel","brand":"Axion","brand:wikidata":"Q62131749","name":"Axion"}},"amenity/fuel/refinor-dca697":{"name":"Refinor","locationSet":{"include":["ar"]},"geometry":["point","area"],"matchScore":2,"terms":["refinaria del norte","refinor"],"fields":["name","brand","{amenity/fuel}"],"tags":{"amenity":"fuel","brand:wikidata":"Q10358460"},"addTags":{"amenity":"fuel","brand":"Refinor","brand:wikidata":"Q10358460","name":"Refinor"}},"amenity/fuel/ypf-dca697":{"name":"YPF","locationSet":{"include":["ar"]},"geometry":["point","area"],"matchScore":2,"terms":["ypf"],"fields":["name","brand","{amenity/fuel}"],"tags":{"amenity":"fuel","brand:wikidata":"Q2006989"},"addTags":{"amenity":"fuel","brand":"YPF","brand:wikidata":"Q2006989","name":"YPF"}},"amenity/ice_cream/freddo-3a94a6":{"name":"Freddo","locationSet":{"include":["ar","bo","br","cl","gb","it","us","uy"]},"geometry":["point","area"],"matchScore":2,"terms":["freddo"],"tags":{"amenity":"ice_cream","brand:wikidata":"Q28823999"},"addTags":{"amenity":"ice_cream","brand":"Freddo","brand:wikidata":"Q28823999","cuisine":"ice_cream","name":"Freddo"}},"amenity/ice_cream/grido-1a8176":{"name":"Grido","locationSet":{"include":["ar"]},"geometry":["point","area"],"matchScore":2,"terms":["grido","grido helado"],"tags":{"amenity":"ice_cream","brand:wikidata":"Q5885724"},"addTags":{"amenity":"ice_cream","brand":"Grido","brand:wikidata":"Q5885724","cuisine":"ice_cream","name":"Grido"}},"amenity/payment_centre/rapipago-8bbf0d":{"name":"Rapipago","locationSet":{"include":["ar"]},"geometry":["point","area"],"matchScore":2,"terms":["rapipago"],"tags":{"amenity":"payment_centre","brand:wikidata":"Q6100413"},"addTags":{"amenity":"payment_centre","brand":"Rapipago","brand:wikidata":"Q6100413","name":"Rapipago"}},"amenity/restaurant/clubmilanesa-8d1dc1":{"name":"Club Milanesa","locationSet":{"include":["ar"]},"geometry":["point","area"],"matchScore":2,"terms":["club milanesa","el club de la milanesa"],"tags":{"amenity":"restaurant","brand:wikidata":"Q117324078"},"addTags":{"amenity":"restaurant","brand":"Club Milanesa","brand:wikidata":"Q117324078","name":"Club Milanesa"}},"amenity/school/maplebear-101006":{"name":"Maple Bear","locationSet":{"include":["ae","al","ar","au","bd","bg","br","ca","gt","hk","hr","in","ke","kr","lk","ma","mx","my","np","om","pe","ph","py","ro","rs","sg","th","tk","ua","us","vn"]},"geometry":["area","point"],"matchScore":2,"terms":["maple bear"],"fields":["name","brand","{amenity/school}"],"tags":{"amenity":"school","brand:wikidata":"Q10324823"},"addTags":{"amenity":"school","brand":"Maple Bear","brand:wikidata":"Q10324823","name":"Maple Bear","operator:type":"private"}},"emergency/ambulance_station/cruzrojaargentina-74039c":{"name":"Cruz Roja Argentina","locationSet":{"include":["ar"]},"geometry":["point","area"],"matchScore":2,"terms":["cra","cruz roja","cruz roja argentina"],"fields":["name","brand","{emergency/ambulance_station}"],"tags":{"brand:wikidata":"Q47070765","emergency":"ambulance_station"},"addTags":{"brand":"Cruz Roja Argentina","brand:wikidata":"Q47070765","emergency":"ambulance_station","name":"Cruz Roja Argentina"}},"leisure/fitness_centre/sportclub-9c6809":{"name":"SportClub","locationSet":{"include":["ar"]},"geometry":["point","area"],"matchScore":2,"terms":["sportclub"],"tags":{"brand:wikidata":"Q118314171","leisure":"fitness_centre"},"addTags":{"brand":"SportClub","brand:wikidata":"Q118314171","leisure":"fitness_centre","name":"SportClub"}},"office/insurance/allianz-332499":{"name":"Allianz","locationSet":{"include":["ae","ar","at","au","be","bg","bh","bm","bn","br","ca","cg","ch","ci","cm","cn","co","cy","cz","de","dk","ee","eg","es","fi","fr","gb","gf","gg","gh","gp","gr","hk","hr","hu","id","ie","in","is","it","ja","ke","kr","kw","la","li","lk","lt","lu","lv","ma","mg","mx","my","ng","nl","no","nz","om","ph","pk","pl","pt","qa","ro","ru","sa","se","sg","si","sk","sn","th","tr","tw","ua","us","za"]},"geometry":["point","area"],"matchScore":2,"terms":["allianz","allianz versicherung"],"fields":["name","brand","{office/insurance}"],"tags":{"brand:wikidata":"Q487292","office":"insurance"},"addTags":{"brand":"Allianz","brand:wikidata":"Q487292","name":"Allianz","office":"insurance"}},"office/insurance/axa-2e7672":{"name":"AXA","locationSet":{"include":["ae","ar","au","be","bh","bm","br","ca","ch","ci","cl","cm","cn","co","cz","de","dk","dz","eg","es","fi","fr","ga","gb","gr","hk","id","ie","in","it","jp","kr","lb","lu","ma","mu","mx","my","ng","nl","no","om","pa","pe","ph","pl","pt","qa","sa","se","sg","sk","sn","th","tr","tw","us"]},"geometry":["point","area"],"matchScore":2,"terms":["axa"],"fields":["name","brand","{office/insurance}"],"tags":{"brand:wikidata":"Q160054","office":"insurance"},"addTags":{"brand":"AXA","brand:wikidata":"Q160054","name":"AXA","office":"insurance"}},"office/insurance/generali-cb13d1":{"name":"Generali","locationSet":{"include":["ar","at","bg","br","ch","cl","cn","cz","de","es","fr","gr","hr","hu","id","in","it","me","my","ph","pl","pt","ro","rs","si","sk","tr","vn"]},"geometry":["point","area"],"matchScore":2,"terms":["generali","generali españa"],"fields":["name","brand","{office/insurance}"],"tags":{"brand:wikidata":"Q670482","office":"insurance"},"addTags":{"brand":"Generali","brand:wikidata":"Q670482","name":"Generali","office":"insurance"}},"shop/car_repair/norauto-388a61":{"name":"Norauto","locationSet":{"include":["ar","es","fr","hu","it","pl","pt","ro"]},"geometry":["point","area"],"matchScore":2,"terms":["norauto"],"fields":["name","brand","{shop/car_repair}"],"tags":{"brand:wikidata":"Q3317698","shop":"car_repair"},"addTags":{"brand":"Norauto","brand:wikidata":"Q3317698","name":"Norauto","shop":"car_repair"}},"shop/clothes/47street-3c23f6":{"name":"47 Street","locationSet":{"include":["ar"]},"geometry":["point","area"],"matchScore":2,"terms":["47 street"],"tags":{"brand:wikidata":"Q4638513","shop":"clothes"},"addTags":{"brand":"47 Street","brand:wikidata":"Q4638513","name":"47 Street","shop":"clothes"}},"shop/clothes/brooksfield-373ae7":{"name":"Brooksfield","locationSet":{"include":["ar","br","es","it"]},"geometry":["point","area"],"matchScore":2,"terms":["brooksfield"],"tags":{"brand:wikidata":"Q3645372","shop":"clothes"},"addTags":{"brand":"Brooksfield","brand:wikidata":"Q3645372","clothes":"men","name":"Brooksfield","shop":"clothes"}},"shop/clothes/chicos-d97106":{"name":"Chico's","locationSet":{"include":["ar","us"]},"geometry":["point","area"],"matchScore":2,"terms":["chico's"],"tags":{"brand:wikidata":"Q5096393","shop":"clothes"},"addTags":{"brand":"Chico's","brand:wikidata":"Q5096393","name":"Chico's","shop":"clothes"}},"shop/clothes/chicosofftherack-d97106":{"name":"Chico's Off the Rack","locationSet":{"include":["ar","us"]},"geometry":["point","area"],"matchScore":2,"terms":["chico's off the rack"],"tags":{"brand:wikidata":"Q5096393","shop":"clothes"},"addTags":{"brand":"Chico's Off the Rack","brand:wikidata":"Q5096393","name":"Chico's Off the Rack","shop":"clothes"}},"shop/clothes/patagonia-5dc190":{"name":"Patagonia","locationSet":{"include":["ar","at","au","ca","cl","cn","cz","de","fx","gb","ie","it","jp","kr","pe","tw","us"]},"geometry":["point","area"],"matchScore":2,"terms":["patagonia"],"tags":{"brand:wikidata":"Q1660552","shop":"clothes"},"addTags":{"brand":"Patagonia","brand:wikidata":"Q1660552","clothes":"outdoor","name":"Patagonia","shop":"clothes"}},"shop/clothes/renner-41b5c2":{"name":"Renner","locationSet":{"include":["ar","br","uy"]},"geometry":["point","area"],"matchScore":2,"terms":["lojas renner","rener","renner"],"tags":{"brand:wikidata":"Q3064071","shop":"clothes"},"addTags":{"brand":"Renner","brand:wikidata":"Q3064071","name":"Renner","shop":"clothes"}},"shop/clothes/todomoda-69b017":{"name":"Todomoda","locationSet":{"include":["ar","br","cl","mx","pe"]},"geometry":["point","area"],"matchScore":2,"terms":["todomoda"],"tags":{"brand:wikidata":"Q115898759","shop":"clothes"},"addTags":{"brand":"Todomoda","brand:wikidata":"Q115898759","name":"Todomoda","shop":"clothes"}},"shop/department_store/coppel-a1f638":{"name":"Coppel","locationSet":{"include":["ar","br","mx"]},"geometry":["point","area"],"matchScore":2,"terms":["coppel"],"tags":{"brand:wikidata":"Q2497795","shop":"department_store"},"addTags":{"brand":"Coppel","brand:wikidata":"Q2497795","name":"Coppel","shop":"department_store"}},"shop/department_store/falabella-f2bfac":{"name":"Falabella","locationSet":{"include":["ar","cl","co","pe"]},"geometry":["point","area"],"matchScore":2,"terms":["falabella","saga falabella"],"tags":{"brand:wikidata":"Q5135229","shop":"department_store"},"addTags":{"brand":"Falabella","brand:wikidata":"Q5135229","name":"Falabella","shop":"department_store"}},"shop/doityourself/easy-063ae0":{"name":"Easy","locationSet":{"include":["ar","cl","co"]},"geometry":["point","area"],"matchScore":2,"terms":["easy"],"tags":{"brand:wikidata":"Q5331091","shop":"doityourself"},"addTags":{"brand":"Easy","brand:wikidata":"Q5331091","name":"Easy","shop":"doityourself"}},"shop/doityourself/sodimac-0b4811":{"name":"Sodimac","locationSet":{"include":["ar","br","cl","co","mx","pe","uy"]},"geometry":["point","area"],"matchScore":2,"terms":["sodimac","sodimac constructor"],"tags":{"brand:wikidata":"Q7553274","shop":"doityourself"},"addTags":{"brand":"Sodimac","brand:wikidata":"Q7553274","name":"Sodimac","shop":"doityourself"}},"shop/electronics/fravega-6d37eb":{"name":"Frávega","locationSet":{"include":["ar"]},"geometry":["point","area"],"matchScore":2,"terms":["frávega"],"tags":{"brand:wikidata":"Q5401467","shop":"electronics"},"addTags":{"brand":"Frávega","brand:wikidata":"Q5401467","name":"Frávega","shop":"electronics"}},"shop/electronics/garbarino-6d37eb":{"name":"Garbarino","locationSet":{"include":["ar"]},"geometry":["point","area"],"matchScore":2,"terms":["garbarino"],"tags":{"brand:wikidata":"Q5875270","shop":"electronics"},"addTags":{"brand":"Garbarino","brand:wikidata":"Q5875270","name":"Garbarino","shop":"electronics"}},"shop/electronics/musimundo-6d37eb":{"name":"Musimundo","locationSet":{"include":["ar"]},"geometry":["point","area"],"matchScore":2,"terms":["musimundo"],"tags":{"brand:wikidata":"Q6034719","shop":"electronics"},"addTags":{"brand":"Musimundo","brand:wikidata":"Q6034719","name":"Musimundo","shop":"electronics"}},"shop/hearing_aids/gaes-681898":{"name":"GAES","locationSet":{"include":["ar","cl","co","ec","es","mx","pa"]},"geometry":["point","area"],"matchScore":2,"terms":["gaes"],"tags":{"brand:wikidata":"Q98492565","shop":"hearing_aids"},"addTags":{"brand":"GAES","brand:wikidata":"Q98492565","name":"GAES","shop":"hearing_aids"}},"shop/jewelry/hstern-5f2e62":{"name":"H. Stern","locationSet":{"include":["ar","br","fr","gb","il","mx","pe","ru","us"]},"geometry":["point","area"],"matchScore":2,"terms":["h. stern"],"tags":{"brand:wikidata":"Q2660388","shop":"jewelry"},"addTags":{"brand":"H. Stern","brand:wikidata":"Q2660388","name":"H. Stern","shop":"jewelry"}},"shop/mobile_phone/claro-1c9651":{"name":"Claro","locationSet":{"include":["ar","br","cl","co","cr","do","ec","gt","hn","ni","pa","pe","pr","py","sv","uy"]},"geometry":["point","area"],"matchScore":2,"terms":["claro","claro brasil"],"tags":{"brand:wikidata":"Q1770208","shop":"mobile_phone"},"addTags":{"brand":"Claro","brand:wikidata":"Q1770208","name":"Claro","shop":"mobile_phone"}},"shop/mobile_phone/movistar-de0f48":{"name":"Movistar","locationSet":{"include":["ar","cl","co","cr","ec","es","gt","mx","ni","pa","pe","sv","uy","ve"]},"geometry":["point","area"],"matchScore":2,"terms":["movistar","movistar españa"],"tags":{"brand:wikidata":"Q967735","shop":"mobile_phone"},"addTags":{"brand":"Movistar","brand:wikidata":"Q967735","name":"Movistar","shop":"mobile_phone"}},"shop/mobile_phone/personal-3c681b":{"name":"Personal","locationSet":{"include":["ar","py"]},"geometry":["point","area"],"matchScore":2,"terms":["personal"],"tags":{"brand:wikidata":"Q10933021","shop":"mobile_phone"},"addTags":{"brand":"Personal","brand:wikidata":"Q10933021","name":"Personal","shop":"mobile_phone"}},"shop/paint/colorshop-dd351e":{"name":"Colorshop","locationSet":{"include":["ar"]},"geometry":["point","area"],"matchScore":2,"terms":["colorshop"],"tags":{"brand:wikidata":"Q109933148","shop":"paint"},"addTags":{"brand":"Colorshop","brand:wikidata":"Q109933148","name":"Colorshop","shop":"paint"}},"shop/supermarket/cooperativaobrera-0d2b84":{"name":"Cooperativa Obrera","locationSet":{"include":["ar"]},"geometry":["point","area"],"matchScore":2,"terms":["cooperativa obrera"],"tags":{"brand:wikidata":"Q110454268","shop":"supermarket"},"addTags":{"brand":"Cooperativa Obrera","brand:wikidata":"Q110454268","name":"Cooperativa Obrera","shop":"supermarket"}},"shop/supermarket/coto-0d2b84":{"name":"Coto","locationSet":{"include":["ar"]},"geometry":["point","area"],"matchScore":2,"terms":["coto"],"tags":{"brand:wikidata":"Q5175411","shop":"supermarket"},"addTags":{"brand":"Coto","brand:wikidata":"Q5175411","name":"Coto","shop":"supermarket"}},"shop/supermarket/dia-675159":{"name":"Dia","locationSet":{"include":["ar","br","es"]},"geometry":["point","area"],"matchScore":2,"terms":["dia","dia argentina","dia supermercado","supermercado dia"],"tags":{"brand:wikidata":"Q925132","shop":"supermarket"},"addTags":{"brand":"Dia","brand:wikidata":"Q925132","name":"Dia","shop":"supermarket"}},"shop/supermarket/disco-0d2b84":{"name":"Disco (Argentina)","locationSet":{"include":["ar"]},"geometry":["point","area"],"matchScore":2,"terms":["disco"],"tags":{"brand:wikidata":"Q6135978","shop":"supermarket"},"addTags":{"brand":"Disco","brand:wikidata":"Q6135978","name":"Disco","shop":"supermarket"}},"shop/supermarket/jumbo-99a0d7":{"name":"Jumbo (Cencosud)","locationSet":{"include":["ar","cl","co"]},"geometry":["point","area"],"matchScore":2,"terms":["jumbo"],"tags":{"brand:wikidata":"Q6310864","shop":"supermarket"},"addTags":{"brand":"Jumbo","brand:wikidata":"Q6310864","name":"Jumbo","shop":"supermarket"}},"shop/supermarket/laanonima-0d2b84":{"name":"La Anónima","locationSet":{"include":["ar"]},"geometry":["point","area"],"matchScore":2,"terms":["la anónima"],"tags":{"brand:wikidata":"Q6135985","shop":"supermarket"},"addTags":{"brand":"La Anónima","brand:wikidata":"Q6135985","name":"La Anónima","shop":"supermarket"}},"shop/supermarket/supersol-0a1807":{"name":"Supersol","locationSet":{"include":["ar","es","ma","uy"]},"geometry":["point","area"],"matchScore":2,"terms":["supersol"],"tags":{"brand:wikidata":"Q62073427","shop":"supermarket"},"addTags":{"brand":"Supersol","brand:wikidata":"Q62073427","name":"Supersol","shop":"supermarket"}},"shop/supermarket/vea-0d2b84":{"name":"Vea","locationSet":{"include":["ar"]},"geometry":["point","area"],"matchScore":2,"terms":["vea"],"tags":{"brand:wikidata":"Q5858167","shop":"supermarket"},"addTags":{"brand":"Vea","brand:wikidata":"Q5858167","name":"Vea","shop":"supermarket"}},"shop/tea/teashop-d87694":{"name":"Tea Shop","locationSet":{"include":["ar","br","es","it","pt","uy"]},"geometry":["point","area"],"matchScore":2,"terms":["tea shop"],"tags":{"brand:wikidata":"Q111730818","shop":"tea"},"addTags":{"brand":"Tea Shop","brand:wikidata":"Q111730818","name":"Tea Shop","shop":"tea"}},"shop/travel_agency/viajeselcorteingles-d900b5":{"name":"Viajes El Corte Inglés","locationSet":{"include":["ar","cl","co","do","ec","es","fr","it","mx","pa","pe","pt","uy"]},"geometry":["point","area"],"matchScore":2,"terms":["viajes el corte inglés"],"tags":{"brand:wikidata":"Q115268048","shop":"travel_agency"},"addTags":{"brand":"Viajes El Corte Inglés","brand:wikidata":"Q115268048","name":"Viajes El Corte Inglés","shop":"travel_agency"}},"shop/watches/longines-691196":{"name":"Longines","locationSet":{"include":["ar","au","be","ca","ch","cl","cn","de","dk","es","fi","fr","gb","gr","in","it","jp","kr","mx","my","nl","no","pt","se","sg","th","tr","tw","us","za"]},"geometry":["point","area"],"matchScore":2,"terms":["longines"],"tags":{"brand:wikidata":"Q603698","shop":"watches"},"addTags":{"brand":"Longines","brand:wikidata":"Q603698","name":"Longines","shop":"watches"}},"tourism/hotel/nhcollectionhotels-f05c75":{"name":"NH Collection Hotels","locationSet":{"include":["ad","ar","at","be","cl","co","cu","cz","de","dk","ec","es","fr","hu","it","mx","nl","pt","qa","us-ny"]},"geometry":["point","area"],"matchScore":2,"terms":["nh collection hotels"],"fields":["name","brand","{tourism/hotel}"],"tags":{"brand:wikidata":"Q1604631","tourism":"hotel"},"addTags":{"brand":"NH Collection Hotels","brand:wikidata":"Q1604631","name":"NH Collection Hotels","tourism":"hotel"}},"tourism/hotel/nhhotel-e9b4fb":{"name":"NH Hotels","locationSet":{"include":["ad","ar","at","be","br","ch","cl","co","cu","cz","de","es","fr","hu","it","lu","mx","nl","pl","pt"]},"geometry":["point","area"],"matchScore":2,"terms":["nh hotels"],"fields":["name","brand","{tourism/hotel}"],"tags":{"brand:wikidata":"Q1604631","tourism":"hotel"},"addTags":{"brand":"NH Hotels","brand:wikidata":"Q1604631","name":"NH Hotel","tourism":"hotel"}},"amenity/clinic/gobiernodelaciudaddebuenosaires-4df2ff":{"name":"Gobierno de la Ciudad de Buenos Aires","locationSet":{"include":["ar"]},"geometry":["point","area"],"matchScore":2,"terms":["gobierno de la ciudad de buenos aires"],"fields":["name","operator","{amenity/clinic}"],"reference":{"key":"amenity","value":"clinic"},"tags":{"amenity":"clinic","operator:wikidata":"Q16571953"},"addTags":{"amenity":"clinic","healthcare":"clinic","operator":"Gobierno de la Ciudad de Buenos Aires","operator:wikidata":"Q16571953"}},"amenity/hospital/cruzroja-16e9ec":{"name":"Cruz Roja","locationSet":{"include":["ar","cl","co","es","mx"]},"geometry":["area","point"],"matchScore":2,"terms":["cruz roja"],"fields":["name","operator","{amenity/hospital}"],"reference":{"key":"amenity","value":"hospital"},"tags":{"amenity":"hospital","operator:wikidata":"Q7178"},"addTags":{"amenity":"hospital","healthcare":"hospital","name":"Cruz Roja","operator":"Cruz Roja","operator:wikidata":"Q7178"}},"amenity/hospital/ministeriodesalud-b92ad7":{"name":"Ministerio de Salud (Argentina)","locationSet":{"include":["ar"]},"geometry":["area","point"],"matchScore":2,"terms":["ministerio de salud","ministerio de salud pública","msal"],"fields":["name","operator","{amenity/hospital}"],"reference":{"key":"amenity","value":"hospital"},"tags":{"amenity":"hospital","operator:wikidata":"Q5420596"},"addTags":{"amenity":"hospital","healthcare":"hospital","operator":"Ministerio de Salud","operator:short":"MSAL","operator:wikidata":"Q5420596"}},"amenity/police/gendarmerianacionalargentina-e73d55":{"name":"Gendarmería Nacional Argentina","locationSet":{"include":["ar"]},"geometry":["point","area"],"matchScore":2,"terms":["gendarmería nacional argentina"],"tags":{"amenity":"police","operator:wikidata":"Q3100095"},"addTags":{"amenity":"police","operator":"Gendarmería Nacional Argentina","operator:wikidata":"Q3100095"}},"amenity/police/policiadelaciudad-e73d55":{"name":"Policía de la Ciudad","locationSet":{"include":["ar"]},"geometry":["point","area"],"matchScore":2,"terms":["policía de la ciudad"],"tags":{"amenity":"police","operator:wikidata":"Q28647622"},"addTags":{"amenity":"police","operator":"Policía de la Ciudad","operator:wikidata":"Q28647622"}},"amenity/police/policiadelapampa-e73d55":{"name":"Policía de La Pampa","locationSet":{"include":["ar"]},"geometry":["point","area"],"matchScore":2,"terms":["policía de la pampa"],"tags":{"amenity":"police","operator:wikidata":"Q6081699"},"addTags":{"amenity":"police","operator":"Policía de La Pampa","operator:wikidata":"Q6081699"}},"amenity/police/policiadelaprovinciadebuenosaires-e73d55":{"name":"Policía de la Provincia de Buenos Aires","locationSet":{"include":["ar"]},"geometry":["point","area"],"matchScore":2,"terms":["policía de la provincia de buenos aires"],"tags":{"amenity":"police","operator:wikidata":"Q4985546"},"addTags":{"amenity":"police","operator":"Policía de la Provincia de Buenos Aires","operator:wikidata":"Q4985546"}},"amenity/police/policiadelaprovinciadecordoba-e73d55":{"name":"Policía de la Provincia de Córdoba","locationSet":{"include":["ar"]},"geometry":["point","area"],"matchScore":2,"terms":["policía de la provincia de córdoba"],"tags":{"amenity":"police","operator:wikidata":"Q5202729"},"addTags":{"amenity":"police","operator":"Policía de la Provincia de Córdoba","operator:wikidata":"Q5202729"}},"amenity/police/policiadelaprovinciadeentrerios-e73d55":{"name":"Policía de la Provincia de Entre Ríos","locationSet":{"include":["ar"]},"geometry":["point","area"],"matchScore":2,"terms":["policía de la provincia de entre ríos"],"tags":{"amenity":"police","operator:wikidata":"Q2885925"},"addTags":{"amenity":"police","operator":"Policía de la Provincia de Entre Ríos","operator:wikidata":"Q2885925"}},"amenity/police/policiadelaprovinciademisiones-e73d55":{"name":"Policía de la Provincia de Misiones","locationSet":{"include":["ar"]},"geometry":["point","area"],"matchScore":2,"terms":["policía de la provincia de misiones"],"tags":{"amenity":"police","operator:wikidata":"Q6081702"},"addTags":{"amenity":"police","operator":"Policía de la Provincia de Misiones","operator:wikidata":"Q6081702"}},"amenity/police/policiadelaprovinciadeneuquen-e73d55":{"name":"Policía de la Provincia de Neuquén","locationSet":{"include":["ar"]},"geometry":["point","area"],"matchScore":2,"terms":["policía de la provincia de neuquén"],"tags":{"amenity":"police","operator:wikidata":"Q21003376"},"addTags":{"amenity":"police","operator":"Policía de la Provincia de Neuquén","operator:wikidata":"Q21003376"}},"amenity/police/policiadelaprovinciadesantafe-e73d55":{"name":"Policía de la Provincia de Santa Fe","locationSet":{"include":["ar"]},"geometry":["point","area"],"matchScore":2,"terms":["policía de la provincia de santa fe"],"tags":{"amenity":"police","operator:wikidata":"Q11699942"},"addTags":{"amenity":"police","operator":"Policía de la Provincia de Santa Fe","operator:wikidata":"Q11699942"}},"amenity/police/policiaderionegro-e73d55":{"name":"Policía de Río Negro","locationSet":{"include":["ar"]},"geometry":["point","area"],"matchScore":2,"terms":["policía de río negro"],"tags":{"amenity":"police","operator:wikidata":"Q6081705"},"addTags":{"amenity":"police","operator":"Policía de Río Negro","operator:wikidata":"Q6081705"}},"amenity/police/policiadesantiagodelestero-e73d55":{"name":"Policía de Santiago del Estero","locationSet":{"include":["ar"]},"geometry":["point","area"],"matchScore":2,"terms":["policía de santiago del estero"],"tags":{"amenity":"police","operator:wikidata":"Q9061412"},"addTags":{"amenity":"police","operator":"Policía de Santiago del Estero","operator:wikidata":"Q9061412"}},"amenity/police/policiafederalargentina-e73d55":{"name":"Policía Federal Argentina","locationSet":{"include":["ar"]},"geometry":["point","area"],"matchScore":2,"terms":["policía federal argentina"],"tags":{"amenity":"police","operator:wikidata":"Q12981682"},"addTags":{"amenity":"police","operator":"Policía Federal Argentina","operator:wikidata":"Q12981682"}},"amenity/police/prefecturanavalargentina-e73d55":{"name":"Prefectura Naval Argentina","locationSet":{"include":["ar"]},"geometry":["point","area"],"matchScore":2,"terms":["prefectura naval argentina"],"tags":{"amenity":"police","operator:wikidata":"Q2573626"},"addTags":{"amenity":"police","operator":"Prefectura Naval Argentina","operator:wikidata":"Q2573626"}},"amenity/post_box/correoargentino-4e393b":{"name":"Correo Argentino","locationSet":{"include":["ar"]},"geometry":["point","vertex"],"matchScore":2,"terms":["correo argentino","correo oficial de la república argentina s.a.","correo oficial de la república argentina sociedad anónima"],"tags":{"amenity":"post_box","operator:wikidata":"Q4036566"},"addTags":{"amenity":"post_box","operator":"Correo Argentino","operator:wikidata":"Q4036566"}},"amenity/post_box/organizacioncoordinadoraargentina-4e393b":{"name":"Organización Coordinadora Argentina","locationSet":{"include":["ar"]},"geometry":["point","vertex"],"matchScore":2,"terms":["oca","organización coordinadora argentina"],"tags":{"amenity":"post_box","operator:wikidata":"Q5172887"},"addTags":{"amenity":"post_box","operator":"Organización Coordinadora Argentina","operator:wikidata":"Q5172887","short_name":"OCA"}},"amenity/post_office/correoargentino-debce4":{"name":"Correo Argentino","locationSet":{"include":["ar"]},"geometry":["point","area"],"matchScore":2,"terms":["correo argentino","correo oficial de la república argentina s.a.","correo oficial de la república argentina sociedad anónima"],"fields":["name","operator","{amenity/post_office}"],"tags":{"amenity":"post_office","operator:wikidata":"Q4036566"},"addTags":{"amenity":"post_office","operator":"Correo Argentino","operator:wikidata":"Q4036566"}},"amenity/post_office/organizacioncoordinadoraargentina-debce4":{"name":"Organización Coordinadora Argentina","locationSet":{"include":["ar"]},"geometry":["point","area"],"matchScore":2,"terms":["oca","organización coordinadora argentina"],"fields":["name","operator","{amenity/post_office}"],"tags":{"amenity":"post_office","operator:wikidata":"Q5172887"},"addTags":{"amenity":"post_office","operator":"Organización Coordinadora Argentina","operator:wikidata":"Q5172887","short_name":"OCA"}},"amenity/school/direcciongeneraldeculturayeducacion-484c15":{"name":"Dirección General de Cultura y Educación","locationSet":{"include":["ar"]},"geometry":["area","point"],"matchScore":2,"terms":["dgcye","dirección general de cultura y educación"],"tags":{"amenity":"school","operator:wikidata":"Q111467393"},"addTags":{"amenity":"school","operator":"Dirección General de Cultura y Educación","operator:short":"DGCyE","operator:type":"public","operator:wikidata":"Q111467393"}},"amenity/telephone/claro-6490cd":{"name":"Claro","locationSet":{"include":["ai","ag","aw","bs","bb","bq","vg","ky","cu","cw","dm","do","gd","gp","ht","jm","mq","ms","pr","bl","kn","lc","mf","vc","sx","tt","tc","vi","bz","cr","sv","gt","hn","mx","ni","pa","ar","bo","bv","br","cl","co","ec","fk","gf","gy","py","pe","gs","sr","uy","ve"]},"geometry":["point","vertex"],"matchScore":2,"terms":["claro"],"fields":["name","operator","{amenity/telephone}"],"tags":{"amenity":"telephone","operator:wikidata":"Q1770208"},"addTags":{"amenity":"telephone","operator":"Claro","operator:wikidata":"Q1770208"}},"amenity/telephone/telefonicadeargentinasa-b0400a":{"name":"Telefónica de Argentina S.A.","locationSet":{"include":["ar"]},"geometry":["point","vertex"],"matchScore":2,"terms":["telefónica de argentina s.a."],"fields":["name","operator","{amenity/telephone}"],"tags":{"amenity":"telephone","operator:wikidata":"Q3517292"},"addTags":{"amenity":"telephone","operator":"Telefónica de Argentina S.A.","operator:wikidata":"Q3517292"}},"emergency/phone/vicentelopezpatrulla-91d45d":{"name":"Vicente López Patrulla","locationSet":{"include":["ar"]},"geometry":["point","vertex"],"matchScore":2,"terms":["vicente lópez patrulla"],"tags":{"emergency":"phone","operator:wikidata":"Q97179385"},"addTags":{"emergency":"phone","operator":"Vicente López Patrulla","operator:wikidata":"Q97179385"}},"leisure/nature_reserve/municipalidaddecipolletti-7537b0":{"name":"Municipalidad de Cipolletti","locationSet":{"include":["ar"]},"geometry":["area","point"],"matchScore":2,"terms":["municipalidad de cipolletti"],"tags":{"leisure":"nature_reserve","operator:wikidata":"Q1014306"},"addTags":{"leisure":"nature_reserve","operator":"Municipalidad de Cipolletti","operator:type":"public","operator:wikidata":"Q1014306"}},"leisure/nature_reserve/municipalidaddemoron-7537b0":{"name":"Municipalidad de Morón","locationSet":{"include":["ar"]},"geometry":["area","point"],"matchScore":2,"terms":["municipalidad de morón"],"tags":{"leisure":"nature_reserve","operator:wikidata":"Q967746"},"addTags":{"leisure":"nature_reserve","operator":"Municipalidad de Morón","operator:wikidata":"Q967746"}},"leisure/nature_reserve/municipalidaddeneuquen-7537b0":{"name":"Municipalidad de Neuquén","locationSet":{"include":["ar"]},"geometry":["area","point"],"matchScore":2,"terms":["municipalidad de neuquén"],"tags":{"leisure":"nature_reserve","operator:wikidata":"Q44239"},"addTags":{"leisure":"nature_reserve","operator":"Municipalidad de Neuquén","operator:wikidata":"Q44239"}},"leisure/nature_reserve/municipalidaddesalsipuedes-7537b0":{"name":"Municipalidad de Salsipuedes","locationSet":{"include":["ar"]},"geometry":["area","point"],"matchScore":2,"terms":["municipalidad de salsipuedes"],"tags":{"leisure":"nature_reserve","operator:wikidata":"Q3400944"},"addTags":{"leisure":"nature_reserve","operator":"Municipalidad de Salsipuedes","operator:type":"public","operator:wikidata":"Q3400944"}},"leisure/nature_reserve/municipalidaddeushuaia-7537b0":{"name":"Municipalidad de Ushuaia","locationSet":{"include":["ar"]},"geometry":["area","point"],"matchScore":2,"terms":["municipalidad de ushuaia"],"tags":{"leisure":"nature_reserve","operator:wikidata":"Q44254"},"addTags":{"leisure":"nature_reserve","operator":"Municipalidad de Ushuaia","operator:type":"public","operator:wikidata":"Q44254"}},"leisure/nature_reserve/municipalidaddezapala-7537b0":{"name":"Municipalidad de Zapala","locationSet":{"include":["ar"]},"geometry":["area","point"],"matchScore":2,"terms":["municipalidad de zapala"],"tags":{"leisure":"nature_reserve","operator:wikidata":"Q116943402"},"addTags":{"leisure":"nature_reserve","operator":"Municipalidad de Zapala","operator:wikidata":"Q116943402"}},"leisure/park/municipalidaddecipolletti-2881cb":{"name":"Municipalidad de Cipolletti","locationSet":{"include":["ar"]},"geometry":["area","point"],"matchScore":2,"terms":["municipalidad de cipolletti"],"tags":{"leisure":"park","operator:wikidata":"Q1014306"},"addTags":{"leisure":"park","operator":"Municipalidad de Cipolletti","operator:type":"public","operator:wikidata":"Q1014306"}},"leisure/park/municipalidaddemoron-2881cb":{"name":"Municipalidad de Morón","locationSet":{"include":["ar"]},"geometry":["area","point"],"matchScore":2,"terms":["municipalidad de morón"],"tags":{"leisure":"park","operator:wikidata":"Q967746"},"addTags":{"leisure":"park","operator":"Municipalidad de Morón","operator:wikidata":"Q967746"}},"leisure/park/municipalidaddeneuquen-2881cb":{"name":"Municipalidad de Neuquén","locationSet":{"include":["ar"]},"geometry":["area","point"],"matchScore":2,"terms":["municipalidad de neuquén"],"tags":{"leisure":"park","operator:wikidata":"Q44239"},"addTags":{"leisure":"park","operator":"Municipalidad de Neuquén","operator:wikidata":"Q44239"}},"leisure/park/municipalidaddesalsipuedes-2881cb":{"name":"Municipalidad de Salsipuedes","locationSet":{"include":["ar"]},"geometry":["area","point"],"matchScore":2,"terms":["municipalidad de salsipuedes"],"tags":{"leisure":"park","operator:wikidata":"Q3400944"},"addTags":{"leisure":"park","operator":"Municipalidad de Salsipuedes","operator:type":"public","operator:wikidata":"Q3400944"}},"leisure/park/municipalidaddeushuaia-2881cb":{"name":"Municipalidad de Ushuaia","locationSet":{"include":["ar"]},"geometry":["area","point"],"matchScore":2,"terms":["municipalidad de ushuaia"],"tags":{"leisure":"park","operator:wikidata":"Q44254"},"addTags":{"leisure":"park","operator":"Municipalidad de Ushuaia","operator:type":"public","operator:wikidata":"Q44254"}},"leisure/park/municipalidaddezapala-2881cb":{"name":"Municipalidad de Zapala","locationSet":{"include":["ar"]},"geometry":["area","point"],"matchScore":2,"terms":["municipalidad de zapala"],"tags":{"leisure":"park","operator:wikidata":"Q116943402"},"addTags":{"leisure":"park","operator":"Municipalidad de Zapala","operator:wikidata":"Q116943402"}},"office/energy_supplier/naturgy-e15d8a":{"name":"Naturgy","locationSet":{"include":["ar","au","be","br","cl","cn","cr","de","do","dz","eg","es","fr","gb","ie","in","jm","jo","jp","lu","ma","mx","nl","om","pa","pe","pk","pr","pt","sg"]},"geometry":["point","area"],"matchScore":2,"terms":["naturgy"],"tags":{"office":"energy_supplier","operator:wikidata":"Q474690"},"addTags":{"name":"Naturgy","office":"energy_supplier","operator":"Naturgy","operator:wikidata":"Q474690"}},"office/government/municipalidaddecordoba-cc6da1":{"name":"Municipalidad de Córdoba","locationSet":{"include":["ar"]},"geometry":["point","area"],"matchScore":2,"terms":["municipalidad de córdoba"],"fields":["name","operator","{office/government}"],"tags":{"office":"government","operator:wikidata":"Q44210"},"addTags":{"office":"government","operator":"Municipalidad de Córdoba","operator:wikidata":"Q44210"}},"office/government/municipalidaddepergamino-cc6da1":{"name":"Municipalidad de Pergamino","locationSet":{"include":["ar"]},"geometry":["point","area"],"matchScore":2,"terms":["municipalidad de pergamino"],"fields":["name","operator","{office/government}"],"tags":{"office":"government","operator:wikidata":"Q921239"},"addTags":{"office":"government","operator":"Municipalidad de Pergamino","operator:wikidata":"Q921239"}},"power/generator/aesandes-0e0bfd":{"name":"Aes Andes","locationSet":{"include":["ar","cl"]},"geometry":["point","vertex","area"],"matchScore":2,"terms":["aes andes","aes gener"],"tags":{"operator:wikidata":"Q4651363","power":"generator"},"addTags":{"operator":"Aes Andes","operator:wikidata":"Q4651363","power":"generator"}},"power/generator/ieasa-76b721":{"name":"IEASA","locationSet":{"include":["ar"]},"geometry":["point","vertex","area"],"matchScore":2,"terms":["enarsa","ieasa"],"tags":{"operator:wikidata":"Q3030794","power":"generator"},"addTags":{"operator":"IEASA","operator:wikidata":"Q3030794","power":"generator"}},"power/generator/ypfluz-76b721":{"name":"YPF Luz","locationSet":{"include":["ar"]},"geometry":["point","vertex","area"],"matchScore":2,"terms":["ypf luz"],"tags":{"operator:wikidata":"Q2006989","power":"generator"},"addTags":{"operator":"YPF Luz","operator:wikidata":"Q2006989","power":"generator"}},"power/line/aesandes-551283":{"name":"AES Andes","locationSet":{"include":["ar","cl"]},"geometry":["line"],"matchScore":2,"terms":["aes andes","aes gener"],"tags":{"operator:wikidata":"Q4651363","power":"line"},"addTags":{"operator":"AES Andes","operator:wikidata":"Q4651363","power":"line"}},"power/line/edenor-c85572":{"name":"Edenor","locationSet":{"include":["ar"]},"geometry":["line"],"matchScore":2,"terms":["edenor"],"tags":{"operator:wikidata":"Q2843192","power":"line"},"addTags":{"operator":"Edenor","operator:wikidata":"Q2843192","power":"line"}},"power/line/enteprovincialdeenergiadelneuquen-c85572":{"name":"Ente Provincial de Energía del Neuquén","locationSet":{"include":["ar"]},"geometry":["line"],"matchScore":2,"terms":["ente provincial de energía del neuquén"],"tags":{"operator:wikidata":"Q5834173","power":"line"},"addTags":{"operator":"Ente Provincial de Energía del Neuquén","operator:wikidata":"Q5834173","power":"line"}},"power/line/transpasa-c85572":{"name":"TRANSPA S.A.","locationSet":{"include":["ar"]},"geometry":["line"],"matchScore":2,"terms":["transpa s.a."],"tags":{"operator:wikidata":"Q109314314","power":"line"},"addTags":{"operator":"TRANSPA S.A.","operator:wikidata":"Q109314314","power":"line"}},"power/minor_line/aesandes-b598fb":{"name":"AES Andes","locationSet":{"include":["ar","cl"]},"geometry":["line"],"matchScore":2,"terms":["aes andes","aes gener"],"tags":{"operator:wikidata":"Q4651363","power":"minor_line"},"addTags":{"operator":"AES Andes","operator:wikidata":"Q4651363","power":"minor_line"}},"power/minor_line/edenor-0aca96":{"name":"Edenor","locationSet":{"include":["ar"]},"geometry":["line"],"matchScore":2,"terms":["edenor"],"tags":{"operator:wikidata":"Q2843192","power":"minor_line"},"addTags":{"operator":"Edenor","operator:wikidata":"Q2843192","power":"minor_line"}},"power/minor_line/enteprovincialdeenergiadelneuquen-0aca96":{"name":"Ente Provincial de Energía del Neuquén","locationSet":{"include":["ar"]},"geometry":["line"],"matchScore":2,"terms":["ente provincial de energía del neuquén"],"tags":{"operator:wikidata":"Q5834173","power":"minor_line"},"addTags":{"operator":"Ente Provincial de Energía del Neuquén","operator:wikidata":"Q5834173","power":"minor_line"}},"power/minor_line/transpasa-0aca96":{"name":"TRANSPA S.A.","locationSet":{"include":["ar"]},"geometry":["line"],"matchScore":2,"terms":["transpa s.a."],"tags":{"operator:wikidata":"Q109314314","power":"minor_line"},"addTags":{"operator":"TRANSPA S.A.","operator:wikidata":"Q109314314","power":"minor_line"}},"power/plant/epec-fe32f3":{"name":"EPEC","locationSet":{"include":["ar"]},"geometry":["area"],"matchScore":2,"terms":["epec"],"tags":{"operator:wikidata":"Q5831749","power":"plant"},"addTags":{"operator":"EPEC","operator:wikidata":"Q5831749","power":"plant"}},"power/plant/pampaenergia-fe32f3":{"name":"Pampa Energía","locationSet":{"include":["ar"]},"geometry":["area"],"matchScore":2,"terms":["pampa energía"],"tags":{"operator:wikidata":"Q2838738","power":"plant"},"addTags":{"operator":"Pampa Energía","operator:wikidata":"Q2838738","power":"plant"}},"power/pole/aesandes-d84880":{"name":"AES Andes","locationSet":{"include":["ar","cl"]},"geometry":["point","vertex"],"matchScore":2,"terms":["aes andes","aes gener"],"tags":{"operator:wikidata":"Q4651363","power":"pole"},"addTags":{"operator":"AES Andes","operator:wikidata":"Q4651363","power":"pole"}},"power/pole/edenor-3f53e7":{"name":"Edenor","locationSet":{"include":["ar"]},"geometry":["point","vertex"],"matchScore":2,"terms":["edenor"],"tags":{"operator:wikidata":"Q2843192","power":"pole"},"addTags":{"operator":"Edenor","operator:wikidata":"Q2843192","power":"pole"}},"power/pole/enteprovincialdeenergiadelneuquen-3f53e7":{"name":"Ente Provincial de Energía del Neuquén","locationSet":{"include":["ar"]},"geometry":["point","vertex"],"matchScore":2,"terms":["ente provincial de energía del neuquén"],"tags":{"operator:wikidata":"Q5834173","power":"pole"},"addTags":{"operator":"Ente Provincial de Energía del Neuquén","operator:wikidata":"Q5834173","power":"pole"}},"power/pole/transpasa-3f53e7":{"name":"TRANSPA S.A.","locationSet":{"include":["ar"]},"geometry":["point","vertex"],"matchScore":2,"terms":["transpa s.a."],"tags":{"operator:wikidata":"Q109314314","power":"pole"},"addTags":{"operator":"TRANSPA S.A.","operator:wikidata":"Q109314314","power":"pole"}},"power/substation/aesandes-1d9244":{"name":"AES Andes","locationSet":{"include":["ar","cl"]},"geometry":["area","point"],"matchScore":2,"terms":["aes andes","aes gener"],"tags":{"operator:wikidata":"Q4651363","power":"substation"},"addTags":{"operator":"AES Andes","operator:wikidata":"Q4651363","power":"substation"}},"power/substation/edenor-e1c05a":{"name":"Edenor","locationSet":{"include":["ar"]},"geometry":["area","point"],"matchScore":2,"terms":["edenor"],"tags":{"operator:wikidata":"Q2843192","power":"substation"},"addTags":{"operator":"Edenor","operator:wikidata":"Q2843192","power":"substation"}},"power/substation/enteprovincialdeenergiadelneuquen-e1c05a":{"name":"Ente Provincial de Energía del Neuquén","locationSet":{"include":["ar"]},"geometry":["area","point"],"matchScore":2,"terms":["ente provincial de energía del neuquén"],"tags":{"operator:wikidata":"Q5834173","power":"substation"},"addTags":{"operator":"Ente Provincial de Energía del Neuquén","operator:wikidata":"Q5834173","power":"substation"}},"power/substation/epec-e1c05a":{"name":"EPEC","locationSet":{"include":["ar"]},"geometry":["area","point"],"matchScore":2,"terms":["epec"],"tags":{"operator:wikidata":"Q5831749","power":"substation"},"addTags":{"operator":"EPEC","operator:wikidata":"Q5831749","power":"substation"}},"power/tower/aesandes-df3eaa":{"name":"AES Andes","locationSet":{"include":["ar","cl"]},"geometry":["point","vertex"],"matchScore":2,"terms":["aes andes","aes gener"],"tags":{"operator:wikidata":"Q4651363","power":"tower"},"addTags":{"operator":"AES Andes","operator:wikidata":"Q4651363","power":"tower"}},"power/tower/edenor-a8b1df":{"name":"Edenor","locationSet":{"include":["ar"]},"geometry":["point","vertex"],"matchScore":2,"terms":["edenor"],"tags":{"operator:wikidata":"Q2843192","power":"tower"},"addTags":{"operator":"Edenor","operator:wikidata":"Q2843192","power":"tower"}},"power/tower/enteprovincialdeenergiadelneuquen-a8b1df":{"name":"Ente Provincial de Energía del Neuquén","locationSet":{"include":["ar"]},"geometry":["point","vertex"],"matchScore":2,"terms":["ente provincial de energía del neuquén"],"tags":{"operator:wikidata":"Q5834173","power":"tower"},"addTags":{"operator":"Ente Provincial de Energía del Neuquén","operator:wikidata":"Q5834173","power":"tower"}},"power/tower/transpasa-a8b1df":{"name":"TRANSPA S.A.","locationSet":{"include":["ar"]},"geometry":["point","vertex"],"matchScore":2,"terms":["transpa s.a."],"tags":{"operator:wikidata":"Q109314314","power":"tower"},"addTags":{"operator":"TRANSPA S.A.","operator:wikidata":"Q109314314","power":"tower"}},"power/transformer/aesandes-43b659":{"name":"AES Andes","locationSet":{"include":["ar","cl"]},"geometry":["point","vertex"],"matchScore":2,"terms":["aes andes","aes gener"],"tags":{"operator:wikidata":"Q4651363","power":"transformer"},"addTags":{"operator":"AES Andes","operator:wikidata":"Q4651363","power":"transformer"}},"power/transformer/edenor-f8f64e":{"name":"Edenor","locationSet":{"include":["ar"]},"geometry":["point","vertex"],"matchScore":2,"terms":["edenor"],"tags":{"operator:wikidata":"Q2843192","power":"transformer"},"addTags":{"operator":"Edenor","operator:wikidata":"Q2843192","power":"transformer"}},"power/transformer/enteprovincialdeenergiadelneuquen-f8f64e":{"name":"Ente Provincial de Energía del Neuquén","locationSet":{"include":["ar"]},"geometry":["point","vertex"],"matchScore":2,"terms":["ente provincial de energía del neuquén"],"tags":{"operator:wikidata":"Q5834173","power":"transformer"},"addTags":{"operator":"Ente Provincial de Energía del Neuquén","operator:wikidata":"Q5834173","power":"transformer"}},"power/transformer/epec-f8f64e":{"name":"EPEC","locationSet":{"include":["ar"]},"geometry":["point","vertex"],"matchScore":2,"terms":["epec"],"tags":{"operator:wikidata":"Q5831749","power":"transformer"},"addTags":{"operator":"EPEC","operator:wikidata":"Q5831749","power":"transformer"}},"type/route/power/aesandes-0cf561":{"name":"AES Andes","locationSet":{"include":["ar","cl"]},"geometry":["relation"],"matchScore":2,"terms":["aes","aes andes","aes gener"],"reference":{"key":"route","value":"power"},"tags":{"operator:wikidata":"Q4651363","route":"power","type":"route"},"addTags":{"operator":"AES Andes","operator:wikidata":"Q4651363","route":"power","type":"route"}},"type/route/power/enteprovincialdeenergiadelneuquen-1169c7":{"name":"Ente Provincial de Energía del Neuquén","locationSet":{"include":["ar"]},"geometry":["relation"],"matchScore":2,"terms":["ente provincial de energía del neuquén"],"reference":{"key":"route","value":"power"},"tags":{"operator:wikidata":"Q5834173","route":"power","type":"route"},"addTags":{"operator":"Ente Provincial de Energía del Neuquén","operator:wikidata":"Q5834173","route":"power","type":"route"}},"type/route/power/transener-1169c7":{"name":"Transener","locationSet":{"include":["ar"]},"geometry":["relation"],"matchScore":2,"terms":["transener"],"reference":{"key":"route","value":"power"},"tags":{"operator:wikidata":"Q3537471","route":"power","type":"route"},"addTags":{"operator":"Transener","operator:wikidata":"Q3537471","route":"power","type":"route"}},"public_transport/platform/bus_point/redtulum-3023fd":{"name":"Red Tulum","locationSet":{"include":["ar"]},"geometry":["point","vertex"],"matchScore":2,"terms":["red tulum"],"reference":{"key":"public_transport","value":"platform"},"tags":{"bus":"yes","network:wikidata":"Q105633430","public_transport":"platform"},"addTags":{"bus":"yes","highway":"bus_stop","network":"Red Tulum","network:wikidata":"Q105633430","public_transport":"platform"}},"public_transport/platform/bus_point/sistemaintegradodetransportedelareametropolitana-3023fd":{"name":"Sistema Integrado de Transporte del Área Metropolitana","locationSet":{"include":["ar"]},"geometry":["point","vertex"],"matchScore":2,"terms":["sistema integrado de transporte del área metropolitana"],"reference":{"key":"public_transport","value":"platform"},"tags":{"bus":"yes","network:wikidata":"Q117278502","public_transport":"platform"},"addTags":{"bus":"yes","highway":"bus_stop","network":"Sistema Integrado de Transporte del Área Metropolitana","network:wikidata":"Q117278502","public_transport":"platform"}},"public_transport/platform/bus_point/sitm-3023fd":{"name":"SITM","locationSet":{"include":["ar"]},"geometry":["point","vertex"],"matchScore":2,"terms":["sitm"],"reference":{"key":"public_transport","value":"platform"},"tags":{"bus":"yes","network:wikidata":"Q6129635","public_transport":"platform"},"addTags":{"bus":"yes","highway":"bus_stop","network":"SITM","network:wikidata":"Q6129635","public_transport":"platform"}},"railway/station/mitre-f5acd8":{"name":"Mitre","locationSet":{"include":["ar"]},"geometry":["point","vertex","area"],"matchScore":2,"terms":["mitre","trenes argentinos operadora ferroviaria"],"tags":{"network:wikidata":"Q3239158","railway":"station"},"addTags":{"network":"Mitre","network:wikidata":"Q3239158","operator":"Trenes Argentinos Operadora Ferroviaria","operator:wikidata":"Q6116255","public_transport":"station","railway":"station","train":"yes"}},"railway/station/roca-f5acd8":{"name":"Roca","locationSet":{"include":["ar"]},"geometry":["point","vertex","area"],"matchScore":2,"terms":["fcgr","roca"],"tags":{"network:wikidata":"Q2962337","railway":"station"},"addTags":{"network":"Roca","network:short":"FCGR","network:wikidata":"Q2962337","public_transport":"station","railway":"station","train":"yes"}},"type/route/bus/redtulum-bd74d8":{"name":"Red Tulum","locationSet":{"include":["ar"]},"geometry":["relation"],"matchScore":2,"terms":["red tulum"],"reference":{"key":"route","value":"bus"},"tags":{"network:wikidata":"Q105633430","route":"bus","type":"route"},"addTags":{"network":"Red Tulum","network:wikidata":"Q105633430","route":"bus","type":"route"}},"type/route/bus/sistemaintegradodetransportedelareametropolitana-bd74d8":{"name":"Sistema Integrado de Transporte del Área Metropolitana","locationSet":{"include":["ar"]},"geometry":["relation"],"matchScore":2,"terms":["sistema integrado de transporte del área metropolitana"],"reference":{"key":"route","value":"bus"},"tags":{"network:wikidata":"Q117278502","route":"bus","type":"route"},"addTags":{"network":"Sistema Integrado de Transporte del Área Metropolitana","network:wikidata":"Q117278502","route":"bus","type":"route"}},"type/route/bus/sitm-bd74d8":{"name":"SITM","locationSet":{"include":["ar"]},"geometry":["relation"],"matchScore":2,"terms":["sitm"],"reference":{"key":"route","value":"bus"},"tags":{"network:wikidata":"Q6129635","route":"bus","type":"route"},"addTags":{"network":"SITM","network:wikidata":"Q6129635","route":"bus","type":"route"}},"type/route/subway/subtedebuenosaires-9cad73":{"name":"Subte de Buenos Aires","locationSet":{"include":["ar"]},"geometry":["relation"],"matchScore":2,"terms":["subte de buenos aires"],"reference":{"key":"route","value":"subway"},"tags":{"network:wikidata":"Q497044","route":"subway","type":"route"},"addTags":{"network":"Subte de Buenos Aires","network:wikidata":"Q497044","route":"subway","type":"route"}},"type/route/train/mitre-2dc166":{"name":"Mitre","locationSet":{"include":["ar"]},"geometry":["relation"],"matchScore":2,"terms":["mitre","trenes argentinos operadora ferroviaria"],"reference":{"key":"route","value":"train"},"tags":{"network:wikidata":"Q3239158","route":"train","type":"route"},"addTags":{"network":"Mitre","network:wikidata":"Q3239158","operator":"Trenes Argentinos Operadora Ferroviaria","operator:wikidata":"Q6116255","route":"train","type":"route"}},"type/route/train/roca-2dc166":{"name":"Roca","locationSet":{"include":["ar"]},"geometry":["relation"],"matchScore":2,"terms":["fcgr","roca"],"reference":{"key":"route","value":"train"},"tags":{"network:wikidata":"Q2962337","route":"train","type":"route"},"addTags":{"network":"Roca","network:short":"FCGR","network:wikidata":"Q2962337","route":"train","type":"route"}}}