{"advertising/totem/sol-688308":{"name":"Sol","locationSet":{"include":["ai","ag","aw","bs","bb","bq","vg","ky","cu","cw","dm","do","gd","gp","ht","jm","mq","ms","pr","bl","kn","lc","mf","vc","sx","tt","tc","vi","gf","gy","sr"]},"geometry":["point","line"],"matchScore":2,"terms":["sol"],"tags":{"advertising":"totem","brand:wikidata":"Q99939344"},"addTags":{"advertising":"totem","brand":"Sol","brand:wikidata":"Q99939344"}},"amenity/atm/mcb-4d5a9a":{"name":"MCB (Caribbean)","locationSet":{"include":["aw","bq","cw","sx"]},"geometry":["point","vertex"],"matchScore":2,"terms":["maduro & curiel's bank","mcb","mcb bank"],"fields":["name","brand","{amenity/atm}"],"tags":{"amenity":"atm","brand:wikidata":"Q6728857"},"addTags":{"amenity":"atm","brand":"MCB","brand:wikidata":"Q6728857","operator":"MCB","operator:wikidata":"Q6728857"}},"amenity/bank/mcb-93215e":{"name":"MCB (Caribbean)","locationSet":{"include":["aw","bq","cw","sx"]},"geometry":["point","area"],"matchScore":2,"terms":["maduro & curiel's bank","mcb","mcb bank"],"tags":{"amenity":"bank","brand:wikidata":"Q6728857"},"addTags":{"amenity":"bank","brand":"MCB","brand:wikidata":"Q6728857","name":"MCB"}},"amenity/fuel/sol-6e9b5c":{"name":"Sol","locationSet":{"include":["ai","ag","aw","bs","bb","bq","vg","ky","cu","cw","dm","do","gd","gp","ht","jm","mq","ms","pr","bl","kn","lc","mf","vc","sx","tt","tc","vi","gf","gy","sr"]},"geometry":["point","area"],"matchScore":2,"terms":["sol"],"fields":["name","brand","{amenity/fuel}"],"tags":{"amenity":"fuel","brand:wikidata":"Q99939344"},"addTags":{"amenity":"fuel","brand":"Sol","brand:wikidata":"Q99939344","name":"Sol"}},"tourism/hotel/sonesta-690134":{"name":"Sonesta","locationSet":{"include":["ca","cl","co","ec","eg","pe","sx","us"]},"geometry":["point","area"],"matchScore":2,"terms":["sonesta","sonesta hotel"],"fields":["name","brand","{tourism/hotel}"],"tags":{"brand:wikidata":"Q81003878","tourism":"hotel"},"addTags":{"alt_name":"Sonesta Hotel","brand":"Sonesta","brand:wikidata":"Q81003878","name":"Sonesta","tourism":"hotel"}},"amenity/telephone/claro-6490cd":{"name":"Claro","locationSet":{"include":["ai","ag","aw","bs","bb","bq","vg","ky","cu","cw","dm","do","gd","gp","ht","jm","mq","ms","pr","bl","kn","lc","mf","vc","sx","tt","tc","vi","bz","cr","sv","gt","hn","mx","ni","pa","ar","bo","bv","br","cl","co","ec","fk","gf","gy","py","pe","gs","sr","uy","ve"]},"geometry":["point","vertex"],"matchScore":2,"terms":["claro"],"fields":["name","operator","{amenity/telephone}"],"tags":{"amenity":"telephone","operator:wikidata":"Q1770208"},"addTags":{"amenity":"telephone","operator":"Claro","operator:wikidata":"Q1770208"}},"man_made/pipeline/valero-761061":{"name":"Valero","locationSet":{"include":["ai","ag","aw","bs","bb","bq","vg","ky","cu","cw","dm","do","gd","gp","ht","jm","mq","ms","pr","bl","kn","lc","mf","vc","sx","tt","tc","vi","ca","mx","us"]},"geometry":["line"],"matchScore":2,"terms":["valero"],"tags":{"man_made":"pipeline","operator:wikidata":"Q1283291"},"addTags":{"man_made":"pipeline","operator":"Valero","operator:wikidata":"Q1283291"}},"pipeline/substation/valero-011eb6":{"name":"Valero","locationSet":{"include":["ai","ag","aw","bs","bb","bq","vg","ky","cu","cw","dm","do","gd","gp","ht","jm","mq","ms","pr","bl","kn","lc","mf","vc","sx","tt","tc","vi","ca","mx","us"]},"geometry":["area","point"],"matchScore":2,"terms":["valero"],"tags":{"operator:wikidata":"Q1283291","pipeline":"substation"},"addTags":{"operator":"Valero","operator:wikidata":"Q1283291","pipeline":"substation"}},"power/generator/valero-f2eccb":{"name":"Valero","locationSet":{"include":["ai","ag","aw","bs","bb","bq","vg","ky","cu","cw","dm","do","gd","gp","ht","jm","mq","ms","pr","bl","kn","lc","mf","vc","sx","tt","tc","vi","ca","mx","us"]},"geometry":["point","vertex","area"],"matchScore":2,"terms":["valero"],"tags":{"operator:wikidata":"Q1283291","power":"generator"},"addTags":{"operator":"Valero","operator:wikidata":"Q1283291","power":"generator"}}}