{"amenity/atm/uba-69edd8":{"name":"UBA","locationSet":{"include":["bf","bj","cd","cg","ci","cm","fr","ga","gb","gh","gn","ke","lr","ml","mz","ng","sl","sn","td","tz","ug","us","zm"]},"geometry":["point","vertex"],"matchScore":2,"terms":["uba","united bank for africa"],"tags":{"amenity":"atm","brand:wikidata":"Q513457"},"addTags":{"amenity":"atm","brand":"UBA","brand:wikidata":"Q513457","name":"UBA","official_name":"United Bank for Africa","operator":"UBA","operator:wikidata":"Q513457"}},"amenity/bank/uba-95540f":{"name":"UBA","locationSet":{"include":["bf","bj","cd","cg","ci","cm","fr","ga","gb","gh","gn","ke","lr","ml","mz","ng","sl","sn","td","tz","ug","us","zm"]},"geometry":["point","area"],"matchScore":2,"terms":["uba","united bank for africa"],"tags":{"amenity":"bank","brand:wikidata":"Q513457"},"addTags":{"amenity":"bank","brand":"UBA","brand:wikidata":"Q513457","name":"UBA","official_name":"United Bank for Africa"}},"amenity/fast_food/chicken/altazaj-7c76bb":{"name":"الطازج","locationSet":{"include":["ae","bh","eg","jo","kw","lb","my","om","qa","sa","td","ye"]},"geometry":["point","area"],"matchScore":2,"terms":["al tazaj","الطازج"],"reference":{"key":"cuisine","value":"chicken"},"tags":{"amenity":"fast_food","brand:wikidata":"Q4704878","cuisine":"chicken"},"addTags":{"amenity":"fast_food","brand":"الطازج","brand:ar":"الطازج","brand:en":"Al Tazaj","brand:wikidata":"Q4704878","cuisine":"chicken","name":"الطازج","name:ar":"الطازج","name:en":"Al Tazaj","takeaway":"yes"}},"amenity/money_transfer/expressunion-bf90ce":{"name":"Express Union","locationSet":{"include":["td"]},"geometry":["point","area"],"matchScore":2,"terms":["express union"],"tags":{"amenity":"money_transfer","brand:wikidata":"Q3062276"},"addTags":{"amenity":"money_transfer","brand":"Express Union","brand:wikidata":"Q3062276","name":"Express Union"}}}