{"amenity/cafe/coffee_shop/caffenero-0d98f2":{"name":"Caffè Nero","locationSet":{"include":["ae","cy","gb","hr","ie","om","pl","se","tr","us"]},"geometry":["point","area"],"matchScore":2,"terms":["cafe nero","caffè nero"],"reference":{"key":"cuisine","value":"coffee_shop"},"tags":{"amenity":"cafe","brand:wikidata":"Q675808","cuisine":"coffee_shop"},"addTags":{"amenity":"cafe","brand":"Caffè Nero","brand:wikidata":"Q675808","cuisine":"coffee_shop","name":"Caffè Nero","takeaway":"yes"}},"amenity/cafe/coffee_shop/timhortons-2ad4e1":{"name":"تيم هورتونز","locationSet":{"include":["ae","bh","jo","kw","om","qa","sa"]},"geometry":["point","area"],"matchScore":2,"terms":["tim hortons","تيم هورتونز"],"reference":{"key":"cuisine","value":"coffee_shop"},"tags":{"amenity":"cafe","brand:wikidata":"Q175106","cuisine":"coffee_shop"},"addTags":{"amenity":"cafe","brand":"تيم هورتونز","brand:ar":"تيم هورتونز","brand:en":"Tim Hortons","brand:wikidata":"Q175106","cuisine":"coffee_shop","name":"تيم هورتونز","name:ar":"تيم هورتونز","name:en":"Tim Hortons","takeaway":"yes"}},"amenity/cafe/coffee_shop/starbucks-0dcee5":{"name":"ستاربكس","locationSet":{"include":["ae","bh","dz","eg","iq","jo","kw","lb","ly","ma","om","qa","sa","tn"]},"geometry":["point","area"],"matchScore":2,"terms":["starbucks","starbucks coffee","ستاربكس","ستاربكس كافية"],"reference":{"key":"cuisine","value":"coffee_shop"},"tags":{"amenity":"cafe","brand:wikidata":"Q37158","cuisine":"coffee_shop"},"addTags":{"amenity":"cafe","brand":"ستاربكس","brand:ar":"ستاربكس","brand:en":"Starbucks","brand:wikidata":"Q37158","cuisine":"coffee_shop","name":"ستاربكس","name:ar":"ستاربكس","name:en":"Starbucks","official_name":"ستاربكس كافية","official_name:ar":"ستاربكس كافية","official_name:en":"Starbucks Coffee","takeaway":"yes"}},"amenity/cafe/coffee_shop/cariboucoffee-9bd633":{"name":"كاريبو كوفي","locationSet":{"include":["ae","bh","eg","kw","om","qa","sa"]},"geometry":["point","area"],"matchScore":2,"terms":["caribou coffee","كاريبو كوفي"],"reference":{"key":"cuisine","value":"coffee_shop"},"tags":{"amenity":"cafe","brand:wikidata":"Q5039494","cuisine":"coffee_shop"},"addTags":{"amenity":"cafe","brand":"كاريبو كوفي","brand:ar":"كاريبو كوفي","brand:en":"Caribou Coffee","brand:wikidata":"Q5039494","cuisine":"coffee_shop","name":"كاريبو كوفي","name:ar":"كاريبو كوفي","name:en":"Caribou Coffee","takeaway":"yes"}},"amenity/fast_food/pizza/smokinjoes-d1dde8":{"name":"Smokin' Joe's","locationSet":{"include":["in","om"]},"geometry":["point","area"],"matchScore":2,"terms":["smokin' joe's"],"reference":{"key":"cuisine","value":"pizza"},"tags":{"amenity":"fast_food","brand:wikidata":"Q7546011","cuisine":"pizza"},"addTags":{"amenity":"fast_food","brand":"Smokin' Joe's","brand:wikidata":"Q7546011","cuisine":"pizza","name":"Smokin' Joe's","takeaway":"yes"}},"amenity/fast_food/sandwich/whichwich-536de9":{"name":"Which Wich?","locationSet":{"include":["ae","gb","gt","mx","om","qa","sa","us"]},"geometry":["point","area"],"matchScore":2,"terms":["which wich?"],"reference":{"key":"cuisine","value":"sandwich"},"tags":{"amenity":"fast_food","brand:wikidata":"Q7993556","cuisine":"sandwich"},"addTags":{"amenity":"fast_food","brand":"Which Wich?","brand:wikidata":"Q7993556","cuisine":"sandwich","name":"Which Wich?","takeaway":"yes"}},"amenity/fast_food/woktowalk-f5ada9":{"name":"Wok to Walk","locationSet":{"include":["ae","bg","co","cy","ec","ee","es","fx","gb","il","in","it","lt","lv","ma","mt","mx","nl","om","pa","pt","qa","sa","us"]},"geometry":["point","area"],"matchScore":2,"terms":["wok to walk"],"tags":{"amenity":"fast_food","brand:wikidata":"Q4020634"},"addTags":{"amenity":"fast_food","brand":"Wok to Walk","brand:wikidata":"Q4020634","cuisine":"asian","name":"Wok to Walk","takeaway":"yes"}},"amenity/fast_food/chicken/altazaj-7c76bb":{"name":"الطازج","locationSet":{"include":["ae","bh","eg","jo","kw","lb","my","om","qa","sa","td","ye"]},"geometry":["point","area"],"matchScore":2,"terms":["al tazaj","الطازج"],"reference":{"key":"cuisine","value":"chicken"},"tags":{"amenity":"fast_food","brand:wikidata":"Q4704878","cuisine":"chicken"},"addTags":{"amenity":"fast_food","brand":"الطازج","brand:ar":"الطازج","brand:en":"Al Tazaj","brand:wikidata":"Q4704878","cuisine":"chicken","name":"الطازج","name:ar":"الطازج","name:en":"Al Tazaj","takeaway":"yes"}},"amenity/fast_food/donut/dunkindonuts-07d3e5":{"name":"دانكن دونتس'","locationSet":{"include":["ae","bh","eg","kw","lb","om","qa","sa"]},"geometry":["point","area"],"matchScore":2,"terms":["dunkin'","dunkin' donuts","dunkin's","دانكن","دانكن دونتس"],"reference":{"key":"cuisine","value":"donut"},"tags":{"amenity":"fast_food","brand:wikidata":"Q847743","cuisine":"donut;coffee_shop"},"addTags":{"amenity":"fast_food","brand":"دانكن","brand:ar":"دانكن","brand:en":"Dunkin'","brand:wikidata":"Q847743","cuisine":"donut;coffee_shop","name":"دانكن دونتس","name:ar":"دانكن دونتس","name:en":"Dunkin' Donuts","takeaway":"yes"}},"amenity/fast_food/chicken/kfc-15a250":{"name":"دجاج كنتاكي","locationSet":{"include":["ae","bh","eg","iq","jo","kw","lb","ly","ma","om","qa","sa","sd","sy","tn","ye"]},"geometry":["point","area"],"matchScore":2,"terms":["kfc","دجاج كنتاكي"],"reference":{"key":"cuisine","value":"chicken"},"tags":{"amenity":"fast_food","brand:wikidata":"Q524757","cuisine":"chicken"},"addTags":{"amenity":"fast_food","brand":"دجاج كنتاكي","brand:ar":"دجاج كنتاكي","brand:en":"KFC","brand:wikidata":"Q524757","cuisine":"chicken","name":"دجاج كنتاكي","name:ar":"دجاج كنتاكي","name:en":"KFC","takeaway":"yes"}},"amenity/fast_food/burger/mcdonalds-19c993":{"name":"ماكدونالدز","locationSet":{"include":["ae","bh","eg","iq","jo","kw","lb","ma","om","qa","sa","sy","tn"]},"geometry":["point","area"],"matchScore":2,"terms":["mcdonald's","ماكدونالدز"],"reference":{"key":"cuisine","value":"burger"},"tags":{"amenity":"fast_food","brand:wikidata":"Q38076","cuisine":"burger"},"addTags":{"amenity":"fast_food","brand":"ماكدونالدز","brand:ar":"ماكدونالدز","brand:en":"McDonald's","brand:wikidata":"Q38076","cuisine":"burger","name":"ماكدونالدز","name:ar":"ماكدونالدز","name:en":"McDonald's","takeaway":"yes"}},"amenity/fuel/enoc-7d34dd":{"name":"اينوك","locationSet":{"include":["ae","bh","kw","om","qa","sa","ye"]},"geometry":["point","area"],"matchScore":2,"terms":["enoc","اينوك"],"fields":["name","brand","{amenity/fuel}"],"tags":{"amenity":"fuel","brand:wikidata":"Q3045998"},"addTags":{"amenity":"fuel","brand":"اينوك","brand:ar":"اينوك","brand:en":"ENOC","brand:wikidata":"Q3045998","name":"اينوك","name:ar":"اينوك","name:en":"ENOC"}},"amenity/fuel/total-7d34dd":{"name":"توتال","locationSet":{"include":["ae","bh","kw","om","qa","sa","ye"]},"geometry":["point","area"],"matchScore":2,"terms":["total","توتال"],"fields":["name","brand","{amenity/fuel}"],"tags":{"amenity":"fuel","brand:wikidata":"Q154037"},"addTags":{"amenity":"fuel","brand":"توتال","brand:ar":"توتال","brand:en":"Total","brand:wikidata":"Q154037","name":"توتال","name:ar":"توتال","name:en":"Total"}},"amenity/fuel/shell-7a1cc2":{"name":"شل","locationSet":{"include":["eg","ma","om","tn"]},"geometry":["point","area"],"matchScore":2,"terms":["shell","shell شل","شل"],"fields":["name","brand","{amenity/fuel}"],"tags":{"amenity":"fuel","brand:wikidata":"Q110716465"},"addTags":{"amenity":"fuel","brand":"شل","brand:ar":"شل","brand:en":"Shell","brand:wikidata":"Q110716465","name":"شل","name:ar":"شل","name:en":"Shell"}},"amenity/restaurant/nandos-32ebee":{"name":"Nando's","locationSet":{"include":["ae","au","bd","bh","bw","ca","fj","gb","ie","in","mu","my","nz","om","pk","qa","sa","sg","sz","us","za","zm","zw"]},"geometry":["point","area"],"matchScore":2,"terms":["nando's"],"tags":{"amenity":"restaurant","brand:wikidata":"Q3472954"},"addTags":{"amenity":"restaurant","brand":"Nando's","brand:wikidata":"Q3472954","cuisine":"chicken;portuguese","name":"Nando's"}},"amenity/school/maplebear-101006":{"name":"Maple Bear","locationSet":{"include":["ae","al","ar","au","bd","bg","br","ca","gt","hk","hr","in","ke","kr","lk","ma","mx","my","np","om","pe","ph","py","ro","rs","sg","th","tk","ua","us","vn"]},"geometry":["area","point"],"matchScore":2,"terms":["maple bear"],"fields":["name","brand","{amenity/school}"],"tags":{"amenity":"school","brand:wikidata":"Q10324823"},"addTags":{"amenity":"school","brand":"Maple Bear","brand:wikidata":"Q10324823","name":"Maple Bear","operator:type":"private"}},"amenity/madscience-0435a3":{"name":"Mad Science","locationSet":{"include":["bh","br","ca","cn","es","gb","kw","ma","nl","om","pe","sa","sg","th","tr","tt","us"]},"geometry":["point","vertex","line","area"],"matchScore":2,"terms":["mad science"],"fields":["name","brand","{amenity}"],"tags":{"amenity":"training","brand:wikidata":"Q17009137"},"addTags":{"amenity":"training","brand":"Mad Science","brand:wikidata":"Q17009137","name":"Mad Science","training":"science"}},"leisure/trampoline_park/skyzone-746047":{"name":"Sky Zone","locationSet":{"include":["ae","ca","co","gb","gt","in","mx","no","om","pk","sa","us"]},"geometry":["point","area"],"matchScore":2,"terms":["sky zone"],"tags":{"brand:wikidata":"Q7537557","leisure":"trampoline_park"},"addTags":{"brand":"Sky Zone","brand:wikidata":"Q7537557","leisure":"trampoline_park","name":"Sky Zone"}},"office/insurance/allianz-332499":{"name":"Allianz","locationSet":{"include":["ae","ar","at","au","be","bg","bh","bm","bn","br","ca","cg","ch","ci","cm","cn","co","cy","cz","de","dk","ee","eg","es","fi","fr","gb","gf","gg","gh","gp","gr","hk","hr","hu","id","ie","in","is","it","ja","ke","kr","kw","la","li","lk","lt","lu","lv","ma","mg","mx","my","ng","nl","no","nz","om","ph","pk","pl","pt","qa","ro","ru","sa","se","sg","si","sk","sn","th","tr","tw","ua","us","za"]},"geometry":["point","area"],"matchScore":2,"terms":["allianz"],"fields":["name","brand","{office/insurance}"],"tags":{"brand:wikidata":"Q487292","office":"insurance"},"addTags":{"brand":"Allianz","brand:wikidata":"Q487292","name":"Allianz","office":"insurance"}},"office/insurance/axa-2e7672":{"name":"AXA","locationSet":{"include":["ae","ar","au","be","bh","bm","br","ca","ch","ci","cl","cm","cn","co","cz","de","dk","dz","eg","es","fi","fr","ga","gb","gr","hk","id","ie","in","it","jp","kr","lb","lu","ma","mu","mx","my","ng","nl","no","om","pa","pe","ph","pl","pt","qa","sa","se","sg","sk","sn","th","tr","tw","us"]},"geometry":["point","area"],"matchScore":2,"terms":["axa"],"fields":["name","brand","{office/insurance}"],"tags":{"brand:wikidata":"Q160054","office":"insurance"},"addTags":{"brand":"AXA","brand:wikidata":"Q160054","name":"AXA","office":"insurance"}},"office/insurance/zurich-2d6c95":{"name":"Zurich","locationSet":{"include":["ae","at","au","be","bh","br","ca","ch","cl","cn","co","de","ec","es","fi","fr","gb","hk","id","ie","it","ja","kw","lb","li","lu","mx","my","nl","no","nz","om","pt","qa","se","sg","sk","tr","us"]},"geometry":["point","area"],"matchScore":2,"terms":["zurich"],"fields":["name","brand","{office/insurance}"],"tags":{"brand:wikidata":"Q230426","office":"insurance"},"addTags":{"brand":"Zurich","brand:wikidata":"Q230426","name":"Zurich","office":"insurance"}},"shop/bakery/paul-652955":{"name":"Paul","locationSet":{"include":["ae","az","be","bh","by","ci","cy","cz","eg","es","fr","ga","gb","ge","gr","id","in","jo","jp","kw","kz","lb","lu","ma","mu","my","om","pa","ph","pl","pt","qa","ro","ru","sa","sg","th","tn","tw","ua","us","uz","vn","za"]},"geometry":["point","area"],"matchScore":2,"terms":["paul"],"tags":{"brand:wikidata":"Q3370417","shop":"bakery"},"addTags":{"brand":"Paul","brand:wikidata":"Q3370417","name":"Paul","shop":"bakery"}},"shop/car/koenigsegg-45c2de":{"name":"Koenigsegg","locationSet":{"include":["ae","au","ca","ch","cn","de","es","gb","jp","kr","lb","mx","my","om","pl","se","sg","th","tw","us","za"]},"geometry":["point","area"],"matchScore":2,"terms":["koenigsegg"],"fields":["name","brand","{shop/car}"],"tags":{"brand:wikidata":"Q35594","shop":"car"},"addTags":{"brand":"Koenigsegg","brand:wikidata":"Q35594","name":"Koenigsegg","shop":"car"}},"shop/chocolate/jeffdebruges-d57ca4":{"name":"Jeff de Bruges","locationSet":{"include":["at","bg","ca","cz","de","ee","es","fr","gb","it","jo","lu","ma","om","pf","sa","sk","sn","tn"]},"geometry":["point","area"],"matchScore":2,"terms":["jeff de bruges"],"tags":{"brand:wikidata":"Q3176626","shop":"chocolate"},"addTags":{"brand":"Jeff de Bruges","brand:wikidata":"Q3176626","name":"Jeff de Bruges","shop":"chocolate"}},"shop/clothes/ardene-d1f154":{"name":"Ardene","locationSet":{"include":["ae","ca","om","sn","us"]},"geometry":["point","area"],"matchScore":2,"terms":["ardene"],"tags":{"brand:wikidata":"Q2860764","shop":"clothes"},"addTags":{"brand":"Ardene","brand:wikidata":"Q2860764","name":"Ardene","shop":"clothes"}},"shop/clothes/garage-072c62":{"name":"Garage","locationSet":{"include":["am","ca","jo","om","qa","sa","us"]},"geometry":["point","area"],"matchScore":2,"terms":["garage"],"tags":{"brand:wikidata":"Q5521860","shop":"clothes"},"addTags":{"brand":"Garage","brand:wikidata":"Q5521860","clothes":"women","name":"Garage","shop":"clothes"}},"shop/jewelry/joyalukkas-534941":{"name":"Joyalukkas","locationSet":{"include":["ae","bh","gb","in","kw","my","om","qa","sa","sg","us"]},"geometry":["point","area"],"matchScore":2,"terms":["joyalukkas"],"tags":{"brand:wikidata":"Q6297357","shop":"jewelry"},"addTags":{"brand":"Joyalukkas","brand:wikidata":"Q6297357","name":"Joyalukkas","shop":"jewelry"}},"shop/jewelry/malabargoldanddiamonds-9fa2ef":{"name":"Malabar Gold and Diamonds","locationSet":{"include":["ae","bh","in","kw","my","om","qa","sa","sg","us"]},"geometry":["point","area"],"matchScore":2,"terms":["malabar gold and diamonds"],"tags":{"brand:wikidata":"Q60748883","shop":"jewelry"},"addTags":{"brand":"Malabar Gold and Diamonds","brand:wikidata":"Q60748883","name":"Malabar Gold and Diamonds","shop":"jewelry"}},"shop/supermarket/luluhypermarket-7e55ed":{"name":"Lulu Hypermarket","locationSet":{"include":["ae","bh","eg","id","in","kw","my","om","qa"]},"geometry":["point","area"],"matchScore":2,"terms":["lulu hypermarket"],"tags":{"brand:wikidata":"Q6702930","shop":"supermarket"},"addTags":{"brand":"Lulu Hypermarket","brand:wikidata":"Q6702930","name":"Lulu Hypermarket","shop":"supermarket"}},"shop/tool_hire/loxam-33fef8":{"name":"Loxam","locationSet":{"include":["ae","be","bh","br","ch","co","cz","de","dk","ee","es","fi","fr","gb","ie","it","kw","lt","lu","lv","ma","nl","no","om","pl","pt","qa","sa","se","sk"]},"geometry":["point","area"],"matchScore":2,"terms":["loxam"],"tags":{"brand:wikidata":"Q3264407","shop":"tool_hire"},"addTags":{"brand":"Loxam","brand:wikidata":"Q3264407","name":"Loxam","shop":"tool_hire"}},"shop/tyres/tyreplus-99cc81":{"name":"Tyreplus","locationSet":{"include":["ae","au","bh","cn","id","kh","kw","my","om","ph","qa","ru","sa","sg","th","tw"]},"geometry":["point","area"],"matchScore":2,"terms":["tyreplus"],"tags":{"brand:wikidata":"Q110959120","shop":"tyres"},"addTags":{"brand":"Tyreplus","brand:wikidata":"Q110959120","name":"Tyreplus","shop":"tyres"}},"tourism/hotel/anantara-e8534c":{"name":"Anantara","locationSet":{"include":["ae","br","cn","es","fr","hu","id","ie","it","kh","mu","mv","my","mz","nl","om","pt","qa","sc","th","tn","vn","zm"]},"geometry":["point","area"],"matchScore":2,"terms":["anantara"],"fields":["name","brand","{tourism/hotel}"],"tags":{"brand:wikidata":"Q112671781","tourism":"hotel"},"addTags":{"brand":"Anantara","brand:wikidata":"Q112671781","name":"Anantara","tourism":"hotel"}},"tourism/hotel/avanihotelsandresorts-e9c192":{"name":"AVANI","locationSet":{"include":["ae","au","bw","id","kh","kr","la","lk","ls","my","mz","na","nz","om","pt","sc","th","vn","zm"]},"geometry":["point","area"],"matchScore":2,"terms":["avani hotels & resorts"],"fields":["name","brand","{tourism/hotel}"],"tags":{"brand:wikidata":"Q48989823","tourism":"hotel"},"addTags":{"brand":"Avani Hotels & Resorts","brand:wikidata":"Q48989823","name":"Avani Hotels & Resorts","tourism":"hotel"}},"tourism/hotel/intercityhotel-360354":{"name":"IntercityHotel","locationSet":{"include":["at","ch","cn","de","nl","om","sa"]},"geometry":["point","area"],"matchScore":2,"terms":["intercityhotel"],"fields":["name","brand","{tourism/hotel}"],"tags":{"brand:wikidata":"Q73642490","tourism":"hotel"},"addTags":{"brand":"IntercityHotel","brand:wikidata":"Q73642490","name":"IntercityHotel","tourism":"hotel"}},"office/energy_supplier/naturgy-e15d8a":{"name":"Naturgy","locationSet":{"include":["ar","au","be","br","cl","cn","cr","de","do","dz","eg","es","fr","gb","ie","in","jm","jo","jp","lu","ma","mx","nl","om","pa","pe","pk","pr","pt","sg"]},"geometry":["point","area"],"matchScore":2,"terms":["naturgy"],"tags":{"office":"energy_supplier","operator:wikidata":"Q474690"},"addTags":{"name":"Naturgy","office":"energy_supplier","operator":"Naturgy","operator:wikidata":"Q474690"}}}