{"shop/hairdresser/imagestudios-0d42d5":{"name":"Image Studios","locationSet":{"include":["us-ca","us-co","us-fl","us-ga","us-ky","us-mo","us-nc","us-nj","us-nv","us-ny","us-oh","us-or","us-sc","us-tn","us-tx","us-ut"]},"geometry":["point","area"],"matchScore":2,"terms":["image studios"],"tags":{"brand:wikidata":"Q110998819","shop":"hairdresser"},"addTags":{"brand":"Image Studios","brand:wikidata":"Q110998819","name":"Image Studios","shop":"hairdresser"}},"shop/trade/wheelercat-753d55":{"name":"Wheeler CAT","locationSet":{"include":["us-nv","us-ut"]},"geometry":["point","area"],"matchScore":2,"terms":["wheeler cat"],"tags":{"brand:wikidata":"Q109615516","shop":"trade"},"addTags":{"brand":"Wheeler CAT","brand:wikidata":"Q109615516","name":"Wheeler CAT","shop":"trade","trade":"construction_equipment"}},"amenity/police/utahhighwaypatrol-b507af":{"name":"Utah Highway Patrol","locationSet":{"include":["us-ut"]},"geometry":["point","area"],"matchScore":2,"terms":["uhp","utah highway patrol"],"tags":{"amenity":"police","operator:wikidata":"Q7902372"},"addTags":{"amenity":"police","operator":"Utah Highway Patrol","operator:short":"UHP","operator:wikidata":"Q7902372","operator:wikipedia":"en:Utah Highway Patrol"}},"amenity/school/alpineschooldistrict-614f2b":{"name":"Alpine School District","locationSet":{"include":["us-ut"]},"geometry":["area","point"],"matchScore":2,"terms":["alpine school district","asd"],"tags":{"amenity":"school","operator:wikidata":"Q4735517"},"addTags":{"amenity":"school","operator":"Alpine School District","operator:short":"ASD","operator:type":"public","operator:wikidata":"Q4735517","operator:wikipedia":"en:Alpine School District"}},"amenity/school/neboschooldistrict-614f2b":{"name":"Nebo School District","locationSet":{"include":["us-ut"]},"geometry":["area","point"],"matchScore":2,"terms":["nebo school district","nsd"],"tags":{"amenity":"school","operator:wikidata":"Q6984625"},"addTags":{"amenity":"school","operator":"Nebo School District","operator:short":"NSD","operator:type":"public","operator:wikidata":"Q6984625","operator:wikipedia":"en:Nebo School District"}},"leisure/nature_reserve/utahstateparks-7625dc":{"name":"Utah State Parks","locationSet":{"include":["us-ut"]},"geometry":["area","point"],"matchScore":2,"terms":["utah state parks"],"tags":{"leisure":"nature_reserve","operator:wikidata":"Q109292618"},"addTags":{"leisure":"nature_reserve","operator":"Utah State Parks","operator:type":"public","operator:wikidata":"Q109292618"}},"leisure/park/utahstateparks-535432":{"name":"Utah State Parks","locationSet":{"include":["us-ut"]},"geometry":["area","point"],"matchScore":2,"terms":["utah state parks"],"tags":{"leisure":"park","operator:wikidata":"Q109292618"},"addTags":{"leisure":"park","operator":"Utah State Parks","operator:type":"public","operator:wikidata":"Q109292618"}},"public_transport/platform/bus_point/uta-58d8ca":{"name":"UTA","locationSet":{"include":["us-ut"]},"geometry":["point","vertex"],"matchScore":2,"terms":["uta"],"reference":{"key":"public_transport","value":"platform"},"tags":{"bus":"yes","network:wikidata":"Q7902494","public_transport":"platform"},"addTags":{"bus":"yes","highway":"bus_stop","network":"UTA","network:wikidata":"Q7902494","network:wikipedia":"en:Utah Transit Authority","public_transport":"platform"}},"type/route/bus/uta-31c02a":{"name":"UTA","locationSet":{"include":["us-ut"]},"geometry":["relation"],"matchScore":2,"terms":["uta"],"reference":{"key":"route","value":"bus"},"tags":{"network:wikidata":"Q7902494","route":"bus","type":"route"},"addTags":{"network":"UTA","network:wikidata":"Q7902494","network:wikipedia":"en:Utah Transit Authority","route":"bus","type":"route"}}}