{"amenity/atm/fnb-2eaa9a":{"name":"FNB (South Africa)","locationSet":{"include":["bw","mz","na","za","zm"]},"geometry":["point","vertex"],"matchScore":2,"terms":["first national bank","fnb"],"tags":{"amenity":"atm","brand:wikidata":"Q3072956"},"addTags":{"amenity":"atm","brand":"FNB","brand:wikidata":"Q3072956","name":"FNB","official_name":"First National Bank","operator":"FNB","operator:wikidata":"Q3072956"}},"amenity/bank/fnb-154feb":{"name":"FNB (South Africa)","locationSet":{"include":["bw","mz","na","za","zm"]},"geometry":["point","area"],"matchScore":2,"terms":["first national bank","fnb"],"tags":{"amenity":"bank","brand:wikidata":"Q3072956"},"addTags":{"amenity":"bank","brand":"FNB","brand:wikidata":"Q3072956","name":"FNB","official_name":"First National Bank"}},"amenity/fast_food/pizza/debonairspizza-10dad6":{"name":"Debonairs Pizza","locationSet":{"include":["ae","bw","ke","ls","mu","mw","mz","na","ng","sd","ss","sz","za","zm"]},"geometry":["point","area"],"matchScore":2,"terms":["debonairs","debonairs pizza"],"reference":{"key":"cuisine","value":"pizza"},"tags":{"amenity":"fast_food","brand:wikidata":"Q65079407","cuisine":"pizza"},"addTags":{"amenity":"fast_food","brand":"Debonairs Pizza","brand:wikidata":"Q65079407","cuisine":"pizza","name":"Debonairs Pizza","takeaway":"yes"}},"amenity/fuel/engen-b7f522":{"name":"Engen","locationSet":{"include":["dz","eg","ly","ma","sd","tn","eh","io","bi","km","dj","er","et","tf","ke","mg","mw","mu","yt","mz","re","rw","sc","so","ss","ug","tz","zm","zw","ao","cm","cf","td","cg","cd","gq","ga","st","bw","sz","ls","na","za","bj","bf","cv","ci","gm","gh","gn","gw","lr","ml","mr","ne","ng","sn","sl","tg","sh"]},"geometry":["point","area"],"matchScore":2,"terms":["engen","engen petroleum"],"fields":["name","brand","{amenity/fuel}"],"tags":{"amenity":"fuel","brand:wikidata":"Q3054251"},"addTags":{"amenity":"fuel","brand":"Engen","brand:wikidata":"Q3054251","name":"Engen"}},"amenity/restaurant/nandos-32ebee":{"name":"Nando's","locationSet":{"include":["ae","au","bd","bh","bw","ca","fj","gb","ie","in","mu","my","nz","om","pk","qa","sa","sg","sz","us","za","zm","zw"]},"geometry":["point","area"],"matchScore":2,"terms":["nando's"],"tags":{"amenity":"restaurant","brand:wikidata":"Q3472954"},"addTags":{"amenity":"restaurant","brand":"Nando's","brand:wikidata":"Q3472954","cuisine":"chicken;portuguese","name":"Nando's"}},"amenity/restaurant/seafood/oceanbasket-5d9698":{"name":"Ocean Basket","locationSet":{"include":["ae","bw","cy","gb","ke","kw","kz","mt","mu","na","ng","qa","ru","sa","sz","za","zw"]},"geometry":["point","area"],"matchScore":2,"terms":["ocean basket"],"reference":{"key":"cuisine","value":"seafood"},"tags":{"amenity":"restaurant","brand:wikidata":"Q62075311","cuisine":"seafood"},"addTags":{"amenity":"restaurant","brand":"Ocean Basket","brand:wikidata":"Q62075311","cuisine":"seafood","name":"Ocean Basket"}},"leisure/fitness_centre/virginactive-4a682e":{"name":"Virgin Active","locationSet":{"include":["au","bw","gb","it","na","sg","th","za"]},"geometry":["point","area"],"matchScore":2,"terms":["virgin active"],"tags":{"brand:wikidata":"Q4013942","leisure":"fitness_centre"},"addTags":{"brand":"Virgin Active","brand:wikidata":"Q4013942","leisure":"fitness_centre","name":"Virgin Active"}},"shop/clothes/ackermans-c712e2":{"name":"Ackermans","locationSet":{"include":["bw","ls","na","sz","za"]},"geometry":["point","area"],"matchScore":2,"terms":["ackermans"],"tags":{"brand:wikidata":"Q4674255","shop":"clothes"},"addTags":{"brand":"Ackermans","brand:wikidata":"Q4674255","name":"Ackermans","shop":"clothes"}},"shop/clothes/pep-c712e2":{"name":"Pep","locationSet":{"include":["bw","ls","na","sz","za"]},"geometry":["point","area"],"matchScore":2,"terms":["pep"],"tags":{"brand:wikidata":"Q7166182","shop":"clothes"},"addTags":{"brand":"Pep","brand:wikidata":"Q7166182","name":"Pep","shop":"clothes"}},"shop/department_store/edgars-34fd38":{"name":"Edgars","locationSet":{"include":["bw","gh","ls","na","sz","za","zm"]},"geometry":["point","area"],"matchScore":2,"terms":["edgars"],"tags":{"brand:wikidata":"Q97276073","shop":"department_store"},"addTags":{"brand":"Edgars","brand:wikidata":"Q97276073","name":"Edgars","shop":"department_store"}},"shop/mobile_phone/mtn-fe03c5":{"name":"MTN","locationSet":{"include":["af","bj","bw","cg","ci","cm","gn","gw","ir","lr","ni","rw","sd","ss","sy","ug","ye","za","zm"]},"geometry":["point","area"],"matchScore":2,"terms":["agence mtn","mtn"],"tags":{"brand:wikidata":"Q1813361","shop":"mobile_phone"},"addTags":{"brand":"MTN","brand:wikidata":"Q1813361","name":"MTN","shop":"mobile_phone"}},"shop/supermarket/checkers-a0d53f":{"name":"Checkers","locationSet":{"include":["bw","na","za"]},"geometry":["point","area"],"matchScore":2,"terms":["checkers"],"tags":{"brand:wikidata":"Q5089126","shop":"supermarket"},"addTags":{"brand":"Checkers","brand:wikidata":"Q5089126","name":"Checkers","shop":"supermarket"}},"shop/supermarket/choppies-8c44d4":{"name":"Choppies","locationSet":{"include":["bw","zm","zw"]},"geometry":["point","area"],"matchScore":2,"terms":["choppies"],"tags":{"brand:wikidata":"Q5104860","shop":"supermarket"},"addTags":{"brand":"Choppies","brand:wikidata":"Q5104860","name":"Choppies","shop":"supermarket"}},"shop/supermarket/shoprite-56f959":{"name":"Shoprite (Africa)","locationSet":{"include":["ao","bw","cd","gh","ls","mg","mu","mw","mz","na","ng","sz","ug","za","zm"]},"geometry":["point","area"],"matchScore":2,"terms":["shoprite"],"tags":{"brand:wikidata":"Q1857639","shop":"supermarket"},"addTags":{"brand":"Shoprite","brand:wikidata":"Q1857639","name":"Shoprite","shop":"supermarket"}},"tourism/hotel/avanihotelsandresorts-e9c192":{"name":"AVANI","locationSet":{"include":["ae","au","bw","id","kh","kr","la","lk","ls","my","mz","na","nz","om","pt","sc","th","vn","zm"]},"geometry":["point","area"],"matchScore":2,"terms":["avani hotels & resorts"],"fields":["name","brand","{tourism/hotel}"],"tags":{"brand:wikidata":"Q48989823","tourism":"hotel"},"addTags":{"brand":"Avani Hotels & Resorts","brand:wikidata":"Q48989823","name":"Avani Hotels & Resorts","tourism":"hotel"}},"power/line/botswanapower-fb59b6":{"name":"Botswana Power Corporation","locationSet":{"include":["bw"]},"geometry":["line"],"matchScore":2,"terms":["botswana power","bpc"],"tags":{"operator:wikidata":"Q4948910","power":"line"},"addTags":{"operator":"Botswana Power","operator:short":"BPC","operator:wikidata":"Q4948910","power":"line"}},"power/minor_line/botswanapower-a5c56c":{"name":"Botswana Power Corporation","locationSet":{"include":["bw"]},"geometry":["line"],"matchScore":2,"terms":["botswana power","bpc"],"tags":{"operator:wikidata":"Q4948910","power":"minor_line"},"addTags":{"operator":"Botswana Power","operator:short":"BPC","operator:wikidata":"Q4948910","power":"minor_line"}},"power/pole/botswanapower-9abe55":{"name":"Botswana Power Corporation","locationSet":{"include":["bw"]},"geometry":["point","vertex"],"matchScore":2,"terms":["botswana power","bpc"],"tags":{"operator:wikidata":"Q4948910","power":"pole"},"addTags":{"operator":"Botswana Power","operator:short":"BPC","operator:wikidata":"Q4948910","power":"pole"}},"power/substation/botswanapower-29685e":{"name":"Botswana Power Corporation","locationSet":{"include":["bw"]},"geometry":["area","point"],"matchScore":2,"terms":["botswana power","bpc"],"tags":{"operator:wikidata":"Q4948910","power":"substation"},"addTags":{"operator":"Botswana Power","operator:short":"BPC","operator:wikidata":"Q4948910","power":"substation"}},"power/tower/botswanapower-013d73":{"name":"Botswana Power Corporation","locationSet":{"include":["bw"]},"geometry":["point","vertex"],"matchScore":2,"terms":["botswana power","bpc"],"tags":{"operator:wikidata":"Q4948910","power":"tower"},"addTags":{"operator":"Botswana Power","operator:short":"BPC","operator:wikidata":"Q4948910","power":"tower"}},"power/transformer/botswanapower-e7e365":{"name":"Botswana Power Corporation","locationSet":{"include":["bw"]},"geometry":["point","vertex"],"matchScore":2,"terms":["botswana power","bpc"],"tags":{"operator:wikidata":"Q4948910","power":"transformer"},"addTags":{"operator":"Botswana Power","operator:short":"BPC","operator:wikidata":"Q4948910","power":"transformer"}}}