{"advertising/totem/engen-be6bfd":{"name":"Engen","locationSet":{"include":["dz","eg","ly","ma","sd","tn","eh","io","bi","km","dj","er","et","tf","ke","mg","mw","mu","yt","mz","re","rw","sc","so","ss","ug","tz","zm","zw","ao","cm","cf","td","cg","cd","gq","ga","st","bw","sz","ls","na","za","bj","bf","cv","ci","gm","gh","gn","gw","lr","ml","mr","ne","ng","sn","sl","tg","sh"]},"geometry":["point","line"],"matchScore":2,"terms":["engen","engen petroleum"],"tags":{"advertising":"totem","brand:wikidata":"Q3054251"},"addTags":{"advertising":"totem","brand":"Engen","brand:wikidata":"Q3054251"}},"advertising/totem/shiptech-960b09":{"name":"Shiptech","locationSet":{"include":["cd","mw","za","zm","zw"]},"geometry":["point","line"],"matchScore":2,"terms":["shiptech"],"tags":{"advertising":"totem","brand:wikidata":"Q116894475"},"addTags":{"advertising":"totem","brand":"Shiptech","brand:wikidata":"Q116894475"}},"amenity/atm/accessbank-3f49d1":{"name":"Access Bank","locationSet":{"include":["cd","gb","gh","gm","mz","rw","sl","zm"]},"geometry":["point","vertex"],"matchScore":2,"terms":["access bank","diamond bank"],"fields":["name","brand","{amenity/atm}"],"tags":{"amenity":"atm","brand:wikidata":"Q4672418"},"addTags":{"amenity":"atm","brand":"Access Bank","brand:wikidata":"Q4672418","operator":"Access Bank","operator:wikidata":"Q4672418"}},"amenity/atm/attijariwafabank-e568eb":{"name":"Attijariwafa Bank (التجاري وفا بنك)","locationSet":{"include":["ae","be","bf","bj","ca","cd","cg","ch","ci","cm","eg","es","fr","ga","gb","it","ma","mr","nl","sa","sn","tg","tn"]},"geometry":["point","vertex"],"matchScore":2,"terms":["attijariwafa bank","attijariwafa bank التجاري وفا بنك","التجاري وفا بنك"],"fields":["name","brand","{amenity/atm}"],"tags":{"amenity":"atm","brand:wikidata":"Q758052"},"addTags":{"amenity":"atm","brand":"Attijariwafa Bank","brand:ar":"التجاري وفا بنك","brand:en":"Attijariwafa Bank","brand:wikidata":"Q758052","name:ar":"التجاري وفا بنك","name:en":"Attijariwafa Bank","operator":"Attijariwafa Bank","operator:wikidata":"Q758052"}},"amenity/atm/bankofafrica-0517a4":{"name":"Bank of Africa","locationSet":{"include":["bf","bi","bj","cd","ci","dj","et","fr","gh","ke","mg","ml","ne","rw","sn","tg","tz","ug"]},"geometry":["point","vertex"],"matchScore":2,"terms":["bank of africa","boa"],"fields":["name","brand","{amenity/atm}"],"tags":{"amenity":"atm","brand:wikidata":"Q2882627"},"addTags":{"amenity":"atm","brand":"Bank of Africa","brand:wikidata":"Q2882627","operator":"Bank of Africa","operator:wikidata":"Q2882627","short_name":"BOA"}},"amenity/atm/equitybank-39f68b":{"name":"Equity Bank (Congo)","locationSet":{"include":["cd"]},"geometry":["point","vertex"],"matchScore":2,"terms":["equity bank"],"fields":["name","brand","{amenity/atm}"],"tags":{"amenity":"atm","brand:wikidata":"Q21178738"},"addTags":{"amenity":"atm","brand":"Equity Bank","brand:wikidata":"Q21178738","operator":"Equity Bank","operator:wikidata":"Q21178738"}},"amenity/atm/uba-69edd8":{"name":"UBA","locationSet":{"include":["bf","bj","cd","cg","ci","cm","fr","ga","gb","gh","gn","ke","lr","ml","mz","ng","sl","sn","td","tz","ug","us","zm"]},"geometry":["point","vertex"],"matchScore":2,"terms":["uba","united bank for africa"],"fields":["name","brand","{amenity/atm}"],"tags":{"amenity":"atm","brand:wikidata":"Q513457"},"addTags":{"amenity":"atm","brand":"UBA","brand:wikidata":"Q513457","official_name":"United Bank for Africa","operator":"UBA","operator:wikidata":"Q513457"}},"amenity/bank/accessbank-175004":{"name":"Access Bank","locationSet":{"include":["cd","gb","gh","gm","mz","rw","sl","zm"]},"geometry":["point","area"],"matchScore":2,"terms":["access bank","diamond bank"],"tags":{"amenity":"bank","brand:wikidata":"Q4672418"},"addTags":{"amenity":"bank","brand":"Access Bank","brand:wikidata":"Q4672418","name":"Access Bank"}},"amenity/bank/attijariwafabank-c1cae6":{"name":"Attijariwafa Bank (التجاري وفا بنك)","locationSet":{"include":["ae","be","bf","bj","ca","cd","cg","ch","ci","cm","eg","es","fr","ga","gb","it","ma","mr","nl","sa","sn","tg","tn"]},"geometry":["point","area"],"matchScore":2,"terms":["attijariwafa bank","attijariwafa bank التجاري وفا بنك","التجاري وفا بنك"],"tags":{"amenity":"bank","brand:wikidata":"Q758052"},"addTags":{"amenity":"bank","brand":"Attijariwafa Bank","brand:ar":"التجاري وفا بنك","brand:en":"Attijariwafa Bank","brand:wikidata":"Q758052","name:ar":"التجاري وفا بنك","name:en":"Attijariwafa Bank"}},"amenity/bank/bankofafrica-0bcfcb":{"name":"Bank of Africa","locationSet":{"include":["bf","bi","bj","cd","ci","dj","et","fr","gh","ke","mg","ml","ne","rw","sn","tg","tz","ug"]},"geometry":["point","area"],"matchScore":2,"terms":["bank of africa","boa"],"tags":{"amenity":"bank","brand:wikidata":"Q2882627"},"addTags":{"amenity":"bank","brand":"Bank of Africa","brand:wikidata":"Q2882627","name":"Bank of Africa","short_name":"BOA"}},"amenity/bank/equitybank-0eac7f":{"name":"Equity Bank (Congo)","locationSet":{"include":["cd"]},"geometry":["point","area"],"matchScore":2,"terms":["equity bank"],"tags":{"amenity":"bank","brand:wikidata":"Q21178738"},"addTags":{"amenity":"bank","brand":"Equity Bank","brand:wikidata":"Q21178738","name":"Equity Bank"}},"amenity/bank/uba-95540f":{"name":"UBA","locationSet":{"include":["bf","bj","cd","cg","ci","cm","fr","ga","gb","gh","gn","ke","lr","ml","mz","ng","sl","sn","td","tz","ug","us","zm"]},"geometry":["point","area"],"matchScore":2,"terms":["uba","united bank for africa"],"tags":{"amenity":"bank","brand:wikidata":"Q513457"},"addTags":{"amenity":"bank","brand":"UBA","brand:wikidata":"Q513457","name":"UBA","official_name":"United Bank for Africa"}},"amenity/fast_food/chicken/galitos-00ffa4":{"name":"Galito's","locationSet":{"include":["ae","ca","cd","gh","in","ke","ls","mu","mw","pk","rs","sz","us","za","zm"]},"geometry":["point","area"],"matchScore":2,"terms":["galito's"],"reference":{"key":"cuisine","value":"chicken"},"tags":{"amenity":"fast_food","brand:wikidata":"Q116619555","cuisine":"chicken"},"addTags":{"amenity":"fast_food","brand":"Galito's","brand:wikidata":"Q116619555","cuisine":"chicken","name":"Galito's","takeaway":"yes"}},"amenity/fuel/engen-b7f522":{"name":"Engen","locationSet":{"include":["dz","eg","ly","ma","sd","tn","eh","io","bi","km","dj","er","et","tf","ke","mg","mw","mu","yt","mz","re","rw","sc","so","ss","ug","tz","zm","zw","ao","cm","cf","td","cg","cd","gq","ga","st","bw","sz","ls","na","za","bj","bf","cv","ci","gm","gh","gn","gw","lr","ml","mr","ne","ng","sn","sl","tg","sh"]},"geometry":["point","area"],"matchScore":2,"terms":["engen","engen petroleum"],"fields":["name","brand","{amenity/fuel}"],"tags":{"amenity":"fuel","brand:wikidata":"Q3054251"},"addTags":{"amenity":"fuel","brand":"Engen","brand:wikidata":"Q3054251","name":"Engen"}},"amenity/fuel/shiptech-ddc474":{"name":"Shiptech","locationSet":{"include":["cd","mw","za","zm","zw"]},"geometry":["point","area"],"matchScore":2,"terms":["shiptech"],"fields":["name","brand","{amenity/fuel}"],"tags":{"amenity":"fuel","brand:wikidata":"Q116894475"},"addTags":{"amenity":"fuel","brand":"Shiptech","brand:wikidata":"Q116894475","name":"Shiptech"}},"shop/mobile_phone/airtel-62d34e":{"name":"Airtel","locationSet":{"include":["io","bi","km","dj","er","et","tf","ke","mg","mw","mu","yt","mz","re","rw","sc","so","ss","ug","tz","zm","zw","ao","cm","cf","td","cg","cd","gq","ga","st","bw","sz","ls","na","za","bj","bf","cv","ci","gm","gh","gn","gw","lr","ml","mr","ne","ng","sn","sl","tg","sh","in"]},"geometry":["point","area"],"matchScore":2,"terms":["airtel"],"tags":{"brand:wikidata":"Q854867","shop":"mobile_phone"},"addTags":{"brand":"Airtel","brand:wikidata":"Q854867","name":"Airtel","shop":"mobile_phone"}},"shop/mobile_phone/vodacom-12caeb":{"name":"Vodacom","locationSet":{"include":["cd","et","ke","ls","mz","tz","za"]},"geometry":["point","area"],"matchScore":2,"terms":["vodacom"],"tags":{"brand:wikidata":"Q1856518","shop":"mobile_phone"},"addTags":{"brand":"Vodacom","brand:wikidata":"Q1856518","name":"Vodacom","shop":"mobile_phone"}},"shop/supermarket/shoprite-56f959":{"name":"Shoprite (Africa)","locationSet":{"include":["ao","bw","cd","gh","ls","mg","mu","mw","mz","na","ng","sz","ug","za","zm"]},"geometry":["point","area"],"matchScore":2,"terms":["shoprite"],"tags":{"brand:wikidata":"Q1857639","shop":"supermarket"},"addTags":{"brand":"Shoprite","brand:wikidata":"Q1857639","name":"Shoprite","shop":"supermarket"}},"tourism/hotel/serenahotels-b76fe0":{"name":"Serena Hotels","locationSet":{"include":["af","cd","ke","pk","rw","tj","tz","ug"]},"geometry":["point","area"],"matchScore":2,"terms":["serena hotels"],"fields":["name","brand","{tourism/hotel}"],"tags":{"brand:wikidata":"Q7453121","tourism":"hotel"},"addTags":{"brand":"Serena Hotels","brand:wikidata":"Q7453121","name":"Serena Hotels","tourism":"hotel"}},"man_made/mast/communication/vodacom-02eecb":{"name":"Vodacom","locationSet":{"include":["cd","et","ke","ls","mz","tz","za"]},"geometry":["point","vertex"],"matchScore":2,"terms":["vodacom"],"reference":{"key":"tower:type","value":"communication"},"tags":{"man_made":"mast","operator:wikidata":"Q1856518","tower:type":"communication"},"addTags":{"man_made":"mast","operator":"Vodacom","operator:wikidata":"Q1856518","tower:type":"communication"}},"man_made/tower/communication/vodacom-7f20fe":{"name":"Vodacom","locationSet":{"include":["cd","et","ke","ls","mz","tz","za"]},"geometry":["point","vertex","area"],"matchScore":2,"terms":["vodacom"],"reference":{"key":"tower:type","value":"communication"},"tags":{"man_made":"tower","operator:wikidata":"Q1856518","tower:type":"communication"},"addTags":{"man_made":"tower","operator":"Vodacom","operator:wikidata":"Q1856518","tower:type":"communication"}},"power/catenary_mast/sncc-374ff8":{"name":"SNCC","locationSet":{"include":["cd"]},"geometry":["point","vertex"],"matchScore":2,"terms":["sncc","société nationale des chemins de fer du congo"],"tags":{"operator:wikidata":"Q1481581","power":"catenary_mast"},"addTags":{"operator":"SNCC","operator:wikidata":"Q1481581","power":"catenary_mast"}},"type/route/railway/sncc-398c7e":{"name":"SNCC","locationSet":{"include":["cd"]},"geometry":["relation"],"matchScore":2,"terms":["sncc","société nationale des chemins de fer du congo"],"reference":{"key":"route","value":"railway"},"tags":{"operator:wikidata":"Q1481581","route":"railway","type":"route"},"addTags":{"operator":"SNCC","operator:wikidata":"Q1481581","route":"railway","type":"route"}}}