{"amenity/atm/hawaiianfirstbank-bc3288":{"name":"Hawaiian First Bank","locationSet":{"include":["gu","mp","us-hi"]},"geometry":["point","vertex"],"matchScore":2,"terms":["hawaiian first bank"],"fields":["name","brand","{amenity/atm}"],"tags":{"amenity":"atm","brand:wikidata":"Q3072937"},"addTags":{"amenity":"atm","brand":"Hawaiian First Bank","brand:wikidata":"Q3072937","operator":"Hawaiian First Bank","operator:wikidata":"Q3072937"}},"amenity/atm/homestreetbank-9527f3":{"name":"HomeStreet Bank","locationSet":{"include":["us-ca","us-hi","us-id","us-or","us-ut","us-wa"]},"geometry":["point","vertex"],"matchScore":2,"terms":["homestreet bank"],"fields":["name","brand","{amenity/atm}"],"tags":{"amenity":"atm","brand:wikidata":"Q60762481"},"addTags":{"amenity":"atm","brand":"HomeStreet Bank","brand:wikidata":"Q60762481","operator":"HomeStreet Bank","operator:wikidata":"Q60762481"}},"amenity/bank/hawaiianfirstbank-ae6ba2":{"name":"Hawaiian First Bank","locationSet":{"include":["gu","mp","us-hi"]},"geometry":["point","area"],"matchScore":2,"terms":["hawaiian first bank"],"tags":{"amenity":"bank","brand:wikidata":"Q3072937"},"addTags":{"amenity":"bank","brand":"Hawaiian First Bank","brand:wikidata":"Q3072937","name":"Hawaiian First Bank"}},"amenity/bank/homestreetbank-80e3ed":{"name":"HomeStreet Bank","locationSet":{"include":["us-ca","us-hi","us-id","us-or","us-ut","us-wa"]},"geometry":["point","area"],"matchScore":2,"terms":["homestreet bank"],"tags":{"amenity":"bank","brand:wikidata":"Q60762481"},"addTags":{"amenity":"bank","brand":"HomeStreet Bank","brand:wikidata":"Q60762481","name":"HomeStreet Bank"}},"amenity/fast_food/burger/teddysbiggerburgers-7b6848":{"name":"Teddy's Bigger Burgers","locationSet":{"include":["jp","ph","us-hi","us-ia"]},"geometry":["point","area"],"matchScore":2,"terms":["teddy's bigger burgers"],"reference":{"key":"cuisine","value":"burger"},"tags":{"amenity":"fast_food","brand:wikidata":"Q21188859","cuisine":"burger"},"addTags":{"amenity":"fast_food","brand":"Teddy's Bigger Burgers","brand:wikidata":"Q21188859","cuisine":"burger","name":"Teddy's Bigger Burgers","takeaway":"yes"}},"amenity/fuel/hele-45054e":{"name":"Hele","locationSet":{"include":["us-hi"]},"geometry":["point","area"],"matchScore":2,"terms":["hele"],"fields":["name","brand","{amenity/fuel}"],"tags":{"amenity":"fuel","brand:wikidata":"Q99196505"},"addTags":{"amenity":"fuel","brand":"Hele","brand:wikidata":"Q99196505","name":"Hele"}},"amenity/pharmacy/longsdrugs-f53864":{"name":"Longs Drugs","locationSet":{"include":["us-hi"]},"geometry":["point","area"],"matchScore":2,"terms":["cvs pharmacy","longs","longs drugs"],"reference":{"key":"amenity","value":"pharmacy"},"tags":{"amenity":"pharmacy","brand:wikidata":"Q16931196"},"addTags":{"amenity":"pharmacy","brand":"Longs Drugs","brand:wikidata":"Q16931196","healthcare":"pharmacy","name":"Longs Drugs","operator":"CVS Pharmacy","operator:wikidata":"Q2078880","short_name":"Longs"}},"shop/chemist/longsdrugs-485466":{"name":"Longs Drugs","locationSet":{"include":["us-hi"]},"geometry":["point","area"],"matchScore":2,"terms":["cvs pharmacy","longs","longs drugs"],"tags":{"brand:wikidata":"Q16931196","shop":"chemist"},"addTags":{"brand":"Longs Drugs","brand:wikidata":"Q16931196","name":"Longs Drugs","operator":"CVS Pharmacy","operator:wikidata":"Q2078880","shop":"chemist","short_name":"Longs"}},"shop/convenience/abc-540f13":{"name":"ABC (Hawaii)","locationSet":{"include":["us-hi"]},"geometry":["point","area"],"matchScore":2,"terms":["abc","abc stores"],"tags":{"brand:wikidata":"Q4650251","shop":"convenience"},"addTags":{"brand":"ABC","brand:wikidata":"Q4650251","name":"ABC","shop":"convenience"}},"shop/storage_rental/thelockup-b15f96":{"name":"The Lock Up","locationSet":{"include":["us-ct","us-fl","us-hi","us-il","us-ma","us-mn","us-nj","us-ny"]},"geometry":["point","area"],"matchScore":2,"terms":["the lock up"],"tags":{"brand:wikidata":"Q17089825","shop":"storage_rental"},"addTags":{"brand":"The Lock Up","brand:wikidata":"Q17089825","name":"The Lock Up","shop":"storage_rental"}},"shop/supermarket/foodland-34b4ac":{"name":"Foodland (Hawaii)","locationSet":{"include":["us-hi"]},"geometry":["point","area"],"matchScore":2,"terms":["foodland"],"tags":{"brand:wikidata":"Q5465560","shop":"supermarket"},"addTags":{"brand":"Foodland","brand:wikidata":"Q5465560","name":"Foodland","shop":"supermarket"}},"shop/supermarket/ktasuperstores-34b4ac":{"name":"KTA Super Stores","locationSet":{"include":["us-hi"]},"geometry":["point","area"],"matchScore":2,"terms":["kta super stores"],"tags":{"brand:wikidata":"Q44361030","shop":"supermarket"},"addTags":{"brand":"KTA Super Stores","brand:wikidata":"Q44361030","name":"KTA Super Stores","shop":"supermarket"}},"shop/variety_store/dondondonki-717fd7":{"name":"Don Don Donki","locationSet":{"include":["hk","my","sg","th","tw","us-hi"]},"geometry":["point","area"],"matchScore":2,"terms":["don don donki"],"tags":{"brand:wikidata":"Q1185381","shop":"variety_store"},"addTags":{"brand":"Don Don Donki","brand:wikidata":"Q1185381","name":"Don Don Donki","shop":"variety_store"}},"amenity/library/hawaiistatepubliclibrarysystem-2f64e5":{"name":"Hawaii State Public Library System","locationSet":{"include":["us-hi"]},"geometry":["point","area"],"matchScore":2,"terms":["hawaii state public library system","hspls"],"tags":{"amenity":"library","operator:wikidata":"Q5684409"},"addTags":{"amenity":"library","operator":"Hawaii State Public Library System","operator:short":"HSPLS","operator:wikidata":"Q5684409"}},"amenity/police/honolulupolicedepartment-ac982f":{"name":"Honolulu Police Department","locationSet":{"include":["us-hi"]},"geometry":["point","area"],"matchScore":2,"terms":["honolulu police department"],"tags":{"amenity":"police","operator:wikidata":"Q3140166"},"addTags":{"amenity":"police","operator":"Honolulu Police Department","operator:wikidata":"Q3140166"}},"leisure/nature_reserve/countyofmaui-589011":{"name":"County of Maui","locationSet":{"include":["us-hi"]},"geometry":["area","point"],"matchScore":2,"terms":["county of maui"],"tags":{"leisure":"nature_reserve","operator:wikidata":"Q111409"},"addTags":{"leisure":"nature_reserve","operator":"County of Maui","operator:type":"public","operator:wikidata":"Q111409"}},"leisure/nature_reserve/hawaiidivisionofstateparks-589011":{"name":"Hawaii Division of State Parks","locationSet":{"include":["us-hi"]},"geometry":["area","point"],"matchScore":2,"terms":["hawaii division of state parks"],"tags":{"leisure":"nature_reserve","operator:wikidata":"Q109328405"},"addTags":{"leisure":"nature_reserve","operator":"Hawaii Division of State Parks","operator:type":"public","operator:wikidata":"Q109328405"}},"leisure/park/countyofmaui-ea65bf":{"name":"County of Maui","locationSet":{"include":["us-hi"]},"geometry":["area","point"],"matchScore":2,"terms":["county of maui"],"tags":{"leisure":"park","operator:wikidata":"Q111409"},"addTags":{"leisure":"park","operator":"County of Maui","operator:type":"public","operator:wikidata":"Q111409"}},"leisure/park/hawaiidivisionofstateparks-ea65bf":{"name":"Hawaii Division of State Parks","locationSet":{"include":["us-hi"]},"geometry":["area","point"],"matchScore":2,"terms":["hawaii division of state parks"],"tags":{"leisure":"park","operator:wikidata":"Q109328405"},"addTags":{"leisure":"park","operator":"Hawaii Division of State Parks","operator:type":"public","operator:wikidata":"Q109328405"}},"power/line/hawaiianelectriccompany-a27456":{"name":"Hawaiian Electric Company","locationSet":{"include":["us-hi"]},"geometry":["line"],"matchScore":2,"terms":["hawaiian electric company"],"tags":{"operator:wikidata":"Q5684524","power":"line"},"addTags":{"operator":"Hawaiian Electric Company","operator:wikidata":"Q5684524","power":"line"}},"power/minor_line/hawaiianelectriccompany-6e2dd9":{"name":"Hawaiian Electric Company","locationSet":{"include":["us-hi"]},"geometry":["line"],"matchScore":2,"terms":["hawaiian electric company"],"tags":{"operator:wikidata":"Q5684524","power":"minor_line"},"addTags":{"operator":"Hawaiian Electric Company","operator:wikidata":"Q5684524","power":"minor_line"}},"power/pole/hawaiianelectriccompany-ef03b3":{"name":"Hawaiian Electric Company","locationSet":{"include":["us-hi"]},"geometry":["point","vertex"],"matchScore":2,"terms":["hawaiian electric company"],"tags":{"operator:wikidata":"Q5684524","power":"pole"},"addTags":{"operator":"Hawaiian Electric Company","operator:wikidata":"Q5684524","power":"pole"}},"power/substation/hawaiianelectriccompany-5d1a50":{"name":"Hawaiian Electric Company","locationSet":{"include":["us-hi"]},"geometry":["area","point"],"matchScore":2,"terms":["hawaiian electric company"],"tags":{"operator:wikidata":"Q5684524","power":"substation"},"addTags":{"operator":"Hawaiian Electric Company","operator:wikidata":"Q5684524","power":"substation"}},"power/tower/hawaiianelectriccompany-bc01c1":{"name":"Hawaiian Electric Company","locationSet":{"include":["us-hi"]},"geometry":["point","vertex"],"matchScore":2,"terms":["hawaiian electric company"],"tags":{"operator:wikidata":"Q5684524","power":"tower"},"addTags":{"operator":"Hawaiian Electric Company","operator:wikidata":"Q5684524","power":"tower"}},"power/transformer/hawaiianelectriccompany-151da3":{"name":"Hawaiian Electric Company","locationSet":{"include":["us-hi"]},"geometry":["point","vertex"],"matchScore":2,"terms":["hawaiian electric company"],"tags":{"operator:wikidata":"Q5684524","power":"transformer"},"addTags":{"operator":"Hawaiian Electric Company","operator:wikidata":"Q5684524","power":"transformer"}},"shop/charity/goodwillhawaii-7d314b":{"name":"Goodwill Hawaii","locationSet":{"include":["us-hi"]},"geometry":["point","area"],"matchScore":2,"terms":["goodwill","goodwill hawaii"],"tags":{"operator:wikidata":"Q114922720","shop":"charity"},"addTags":{"brand":"Goodwill","brand:wikidata":"Q5583655","name":"Goodwill","operator":"Goodwill Hawaii","operator:wikidata":"Q114922720","shop":"charity"}},"public_transport/platform/bus_point/heleonbus-03d77f":{"name":"Hele-On Bus","locationSet":{"include":["us-hi"]},"geometry":["point","vertex"],"matchScore":2,"terms":["hawai'i county mass transit agency","hele-on bus"],"reference":{"key":"public_transport","value":"platform"},"tags":{"bus":"yes","network:wikidata":"Q59314153","public_transport":"platform"},"addTags":{"bus":"yes","highway":"bus_stop","network":"Hele-On Bus","network:wikidata":"Q59314153","operator":"Hawai'i County Mass Transit Agency","public_transport":"platform"}},"public_transport/platform/bus_point/mauibus-03d77f":{"name":"Maui Bus","locationSet":{"include":["us-hi"]},"geometry":["point","vertex"],"matchScore":2,"terms":["maui bus"],"reference":{"key":"public_transport","value":"platform"},"tags":{"bus":"yes","network:wikidata":"Q6792371","public_transport":"platform"},"addTags":{"bus":"yes","highway":"bus_stop","network":"Maui Bus","network:wikidata":"Q6792371","public_transport":"platform"}},"public_transport/platform/bus_point/countyofkauai-03d77f":{"name":"The Kauaʻi Bus","locationSet":{"include":["us-hi"]},"geometry":["point","vertex"],"matchScore":2,"terms":["county of kaua\u2018i","the kauaʻi bus"],"reference":{"key":"public_transport","value":"platform"},"tags":{"bus":"yes","network:wikidata":"Q7744015","public_transport":"platform"},"addTags":{"bus":"yes","highway":"bus_stop","network":"The Kauaʻi Bus","network:wikidata":"Q7744015","operator":"County of Kaua\u2018i","public_transport":"platform"}},"public_transport/platform/bus_point/thebus-03d77f":{"name":"TheBus (Oʻahu)","locationSet":{"include":["us-hi"]},"geometry":["point","vertex"],"matchScore":2,"terms":["oʻahu transit services inc.","thebus"],"reference":{"key":"public_transport","value":"platform"},"tags":{"bus":"yes","network:wikidata":"Q7711627","public_transport":"platform"},"addTags":{"bus":"yes","highway":"bus_stop","network":"TheBus","network:wikidata":"Q7711627","operator":"Oʻahu Transit Services Inc.","public_transport":"platform"}},"type/route/bus/heleonbus-ee493e":{"name":"Hele-On Bus","locationSet":{"include":["us-hi"]},"geometry":["relation"],"matchScore":2,"terms":["hawai'i county mass transit agency","hele-on bus"],"reference":{"key":"route","value":"bus"},"tags":{"network:wikidata":"Q59314153","route":"bus","type":"route"},"addTags":{"network":"Hele-On Bus","network:wikidata":"Q59314153","operator":"Hawai'i County Mass Transit Agency","route":"bus","type":"route"}},"type/route/bus/mauibus-ee493e":{"name":"Maui Bus","locationSet":{"include":["us-hi"]},"geometry":["relation"],"matchScore":2,"terms":["maui bus"],"reference":{"key":"route","value":"bus"},"tags":{"network:wikidata":"Q6792371","route":"bus","type":"route"},"addTags":{"network":"Maui Bus","network:wikidata":"Q6792371","route":"bus","type":"route"}},"type/route/bus/countyofkauai-ee493e":{"name":"The Kauaʻi Bus","locationSet":{"include":["us-hi"]},"geometry":["relation"],"matchScore":2,"terms":["county of kaua\u2018i","the kauaʻi bus"],"reference":{"key":"route","value":"bus"},"tags":{"network:wikidata":"Q7744015","route":"bus","type":"route"},"addTags":{"network":"The Kauaʻi Bus","network:wikidata":"Q7744015","operator":"County of Kaua\u2018i","route":"bus","type":"route"}},"type/route/bus/thebus-ee493e":{"name":"TheBus (Oʻahu)","locationSet":{"include":["us-hi"]},"geometry":["relation"],"matchScore":2,"terms":["oʻahu transit services inc.","thebus"],"reference":{"key":"route","value":"bus"},"tags":{"network:wikidata":"Q7711627","route":"bus","type":"route"},"addTags":{"network":"TheBus","network:wikidata":"Q7711627","operator":"Oʻahu Transit Services Inc.","route":"bus","type":"route"}}}