{"amenity/atm/bluefederalcreditunion-7e60b6":{"name":"Blue Federal Credit Union","locationSet":{"include":["us-co","us-wy"]},"geometry":["point","vertex"],"matchScore":2,"terms":["blue federal credit union"],"fields":["name","brand","{amenity/atm}"],"tags":{"amenity":"atm","brand:wikidata":"Q113495617"},"addTags":{"amenity":"atm","brand":"Blue Federal Credit Union","brand:wikidata":"Q113495617","operator":"Blue Federal Credit Union","operator:wikidata":"Q113495617"}},"amenity/atm/pinnaclebank-495a05":{"name":"Pinnacle Bank (US Midwest & Southwest)","locationSet":{"include":["us-az","us-co","us-ks","us-mo","us-ne","us-nm","us-tx","us-wy"]},"geometry":["point","vertex"],"matchScore":2,"terms":["pinnacle bank"],"fields":["name","brand","{amenity/atm}"],"tags":{"amenity":"atm","brand:wikidata":"Q124021658"},"addTags":{"amenity":"atm","brand":"Pinnacle Bank","brand:wikidata":"Q124021658","operator":"Pinnacle Bank","operator:wikidata":"Q124021658"}},"amenity/atm/plattevalleybank-599017":{"name":"Platte Valley Bank","locationSet":{"include":["us-ne","us-wy"]},"geometry":["point","vertex"],"matchScore":2,"terms":["platte valley bank"],"fields":["name","brand","{amenity/atm}"],"tags":{"amenity":"atm","brand:wikidata":"Q113483051"},"addTags":{"amenity":"atm","brand":"Platte Valley Bank","brand:wikidata":"Q113483051","operator":"Platte Valley Bank","operator:wikidata":"Q113483051"}},"amenity/bank/bluefederalcreditunion-406be7":{"name":"Blue Federal Credit Union","locationSet":{"include":["us-co","us-wy"]},"geometry":["point","area"],"matchScore":2,"terms":["blue federal credit union"],"tags":{"amenity":"bank","brand:wikidata":"Q113495617"},"addTags":{"amenity":"bank","brand":"Blue Federal Credit Union","brand:wikidata":"Q113495617","name":"Blue Federal Credit Union"}},"amenity/bank/pinnaclebank-ebf4c6":{"name":"Pinnacle Bank (US Midwest & Southwest)","locationSet":{"include":["us-az","us-co","us-ks","us-mo","us-ne","us-nm","us-tx","us-wy"]},"geometry":["point","area"],"matchScore":2,"terms":["pinnacle bank"],"tags":{"amenity":"bank","brand:wikidata":"Q124021658"},"addTags":{"amenity":"bank","brand":"Pinnacle Bank","brand:wikidata":"Q124021658","name":"Pinnacle Bank"}},"amenity/bank/plattevalleybank-a53937":{"name":"Platte Valley Bank","locationSet":{"include":["us-ne","us-wy"]},"geometry":["point","area"],"matchScore":2,"terms":["platte valley bank"],"tags":{"amenity":"bank","brand:wikidata":"Q113483051"},"addTags":{"amenity":"bank","brand":"Platte Valley Bank","brand:wikidata":"Q113483051","name":"Platte Valley Bank"}},"shop/trade/rplumber-ab5d0f":{"name":"RP Lumber","locationSet":{"include":["us-ia","us-il","us-mo","us-wi","us-wy"]},"geometry":["point","area"],"matchScore":2,"terms":["rp lumber"],"tags":{"brand:wikidata":"Q116671972","shop":"trade"},"addTags":{"brand":"RP Lumber","brand:wikidata":"Q116671972","name":"RP Lumber","shop":"trade","trade":"building_supplies"}},"shop/trade/tractorandequipmentco-10c19f":{"name":"Tractor & Equipment Co.","locationSet":{"include":["us-mt","us-nd","us-wy"]},"geometry":["point","area"],"matchScore":2,"terms":["tractor & equipment co."],"tags":{"brand:wikidata":"Q115486509","shop":"trade"},"addTags":{"brand":"Tractor & Equipment Co.","brand:wikidata":"Q115486509","name":"Tractor & Equipment Co.","shop":"trade","trade":"construction_equipment"}},"shop/trade/westernstatescat-8cb1bb":{"name":"Western States CAT","locationSet":{"include":["us-id","us-mt","us-or","us-wa","us-wy"]},"geometry":["point","area"],"matchScore":2,"terms":["western states cat"],"tags":{"brand:wikidata":"Q109615463","shop":"trade"},"addTags":{"brand":"Western States CAT","brand:wikidata":"Q109615463","name":"Western States CAT","shop":"trade","trade":"construction_equipment"}},"shop/trade/wyomingequipmentcompany-5a0680":{"name":"Wyoming Equipment Company","locationSet":{"include":["us-wy"]},"geometry":["point","area"],"matchScore":2,"terms":["wyoming equipment company"],"tags":{"brand:wikidata":"Q115486618","shop":"trade"},"addTags":{"brand":"Wyoming Equipment Company","brand:wikidata":"Q115486618","name":"Wyoming Equipment Company","shop":"trade","trade":"construction_equipment"}},"amenity/police/wyominghighwaypatrol-07de7e":{"name":"Wyoming Highway Patrol","locationSet":{"include":["us-wy"]},"geometry":["point","area"],"matchScore":2,"terms":["whp","wyoming highway patrol"],"tags":{"amenity":"police","operator:wikidata":"Q8040352"},"addTags":{"amenity":"police","operator":"Wyoming Highway Patrol","operator:short":"WHP","operator:wikidata":"Q8040352"}},"amenity/school/albanycountyschooldistrict1-a56222":{"name":"Albany County School District #1","locationSet":{"include":["us-wy"]},"geometry":["area","point"],"matchScore":2,"terms":["acsd#1","albany county school district #1"],"tags":{"amenity":"school","operator:wikidata":"Q4709305"},"addTags":{"amenity":"school","operator":"Albany County School District #1","operator:short":"ACSD#1","operator:type":"public","operator:wikidata":"Q4709305"}},"amenity/school/campbellcountyschooldistrictnumber1-a56222":{"name":"Campbell County School District","locationSet":{"include":["us-wy"]},"geometry":["area","point"],"matchScore":2,"terms":["campbell county school district number 1","ccsd"],"tags":{"amenity":"school","operator:wikidata":"Q5028046"},"addTags":{"amenity":"school","operator":"Campbell County School District Number 1","operator:short":"CCSD","operator:type":"public","operator:wikidata":"Q5028046"}},"amenity/school/laramiecountyschooldistrict1-a56222":{"name":"Laramie County School District 1","locationSet":{"include":["us-wy"]},"geometry":["area","point"],"matchScore":2,"terms":["laramie county school district 1","lcsd1"],"tags":{"amenity":"school","operator:wikidata":"Q6488659"},"addTags":{"amenity":"school","operator":"Laramie County School District 1","operator:short":"LCSD1","operator:type":"public","operator:wikidata":"Q6488659"}},"leisure/nature_reserve/wyomingdivisionofstateparksandhistoricsites-6870e0":{"name":"WYO Parks","locationSet":{"include":["us-wy"]},"geometry":["area","point"],"matchScore":2,"terms":["wyo parks","wyoming division of state parks and historic sites","wyoming state parks"],"tags":{"leisure":"nature_reserve","operator:wikidata":"Q8040334"},"addTags":{"leisure":"nature_reserve","operator":"Wyoming Division of State Parks and Historic Sites","operator:short":"WYO Parks","operator:type":"public","operator:wikidata":"Q8040334"}},"leisure/park/wyomingdivisionofstateparksandhistoricsites-cea54e":{"name":"WYO Parks","locationSet":{"include":["us-wy"]},"geometry":["area","point"],"matchScore":2,"terms":["wyo parks","wyoming division of state parks and historic sites","wyoming state parks"],"tags":{"leisure":"park","operator:wikidata":"Q8040334"},"addTags":{"leisure":"park","operator":"Wyoming Division of State Parks and Historic Sites","operator:short":"WYO Parks","operator:type":"public","operator:wikidata":"Q8040334"}},"power/line/idahopower-3cf0c1":{"name":"Idaho Power","locationSet":{"include":["us-id","us-or","us-wy"]},"geometry":["line"],"matchScore":2,"terms":["idaho power","idaho power company"],"tags":{"operator:wikidata":"Q3147780","power":"line"},"addTags":{"operator":"Idaho Power","operator:wikidata":"Q3147780","power":"line"}},"power/line/rockymountainpower-5acb27":{"name":"Rocky Mountain Power","locationSet":{"include":["us-id","us-ut","us-wy"]},"geometry":["line"],"matchScore":2,"terms":["rocky mountain power"],"tags":{"operator:wikidata":"Q2045479","power":"line"},"addTags":{"operator":"Rocky Mountain Power","operator:wikidata":"Q2045479","power":"line"}},"power/minor_line/idahopower-2b3157":{"name":"Idaho Power","locationSet":{"include":["us-id","us-or","us-wy"]},"geometry":["line"],"matchScore":2,"terms":["idaho power","idaho power company"],"tags":{"operator:wikidata":"Q3147780","power":"minor_line"},"addTags":{"operator":"Idaho Power","operator:wikidata":"Q3147780","power":"minor_line"}},"power/minor_line/rockymountainpower-900587":{"name":"Rocky Mountain Power","locationSet":{"include":["us-id","us-ut","us-wy"]},"geometry":["line"],"matchScore":2,"terms":["rocky mountain power"],"tags":{"operator:wikidata":"Q2045479","power":"minor_line"},"addTags":{"operator":"Rocky Mountain Power","operator:wikidata":"Q2045479","power":"minor_line"}},"power/plant/basinelectricpowercooperative-26f854":{"name":"Basin Electric Power Cooperative","locationSet":{"include":["us-nd","us-sd","us-wy"]},"geometry":["area"],"matchScore":2,"terms":["basin electric power coop","basin electric power cooperative"],"tags":{"operator:wikidata":"Q4867481","power":"plant"},"addTags":{"operator":"Basin Electric Power Cooperative","operator:wikidata":"Q4867481","power":"plant"}},"power/plant/idahopower-02d2e7":{"name":"Idaho Power","locationSet":{"include":["us-id","us-or","us-wy"]},"geometry":["area"],"matchScore":2,"terms":["idaho power","idaho power co"],"tags":{"operator:wikidata":"Q3147780","power":"plant"},"addTags":{"operator":"Idaho Power","operator:wikidata":"Q3147780","power":"plant"}},"power/pole/idahopower-01bcc3":{"name":"Idaho Power","locationSet":{"include":["us-id","us-or","us-wy"]},"geometry":["point","vertex"],"matchScore":2,"terms":["idaho power","idaho power company"],"tags":{"operator:wikidata":"Q3147780","power":"pole"},"addTags":{"operator":"Idaho Power","operator:wikidata":"Q3147780","power":"pole"}},"power/pole/rockymountainpower-3a4568":{"name":"Rocky Mountain Power","locationSet":{"include":["us-id","us-ut","us-wy"]},"geometry":["point","vertex"],"matchScore":2,"terms":["rocky mountain power"],"tags":{"operator:wikidata":"Q2045479","power":"pole"},"addTags":{"operator":"Rocky Mountain Power","operator:wikidata":"Q2045479","power":"pole"}},"power/substation/idahopower-7bf1a6":{"name":"Idaho Power","locationSet":{"include":["us-id","us-or","us-wy"]},"geometry":["area","point"],"matchScore":2,"terms":["idaho power"],"tags":{"operator:wikidata":"Q3147780","power":"substation"},"addTags":{"operator":"Idaho Power","operator:wikidata":"Q3147780","power":"substation"}},"power/substation/rockymountainpower-d898d7":{"name":"Rocky Mountain Power","locationSet":{"include":["us-id","us-ut","us-wy"]},"geometry":["area","point"],"matchScore":2,"terms":["rocky mountain power"],"tags":{"operator:wikidata":"Q2045479","power":"substation"},"addTags":{"operator":"Rocky Mountain Power","operator:wikidata":"Q2045479","power":"substation"}},"power/tower/idahopower-597e0c":{"name":"Idaho Power","locationSet":{"include":["us-id","us-or","us-wy"]},"geometry":["point","vertex"],"matchScore":2,"terms":["idaho power","idaho power company"],"tags":{"operator:wikidata":"Q3147780","power":"tower"},"addTags":{"operator":"Idaho Power","operator:wikidata":"Q3147780","power":"tower"}},"power/tower/rockymountainpower-abd620":{"name":"Rocky Mountain Power","locationSet":{"include":["us-id","us-ut","us-wy"]},"geometry":["point","vertex"],"matchScore":2,"terms":["rocky mountain power"],"tags":{"operator:wikidata":"Q2045479","power":"tower"},"addTags":{"operator":"Rocky Mountain Power","operator:wikidata":"Q2045479","power":"tower"}},"power/transformer/idahopower-0840f5":{"name":"Idaho Power","locationSet":{"include":["us-id","us-or","us-wy"]},"geometry":["point","vertex"],"matchScore":2,"terms":["idaho power"],"tags":{"operator:wikidata":"Q3147780","power":"transformer"},"addTags":{"operator":"Idaho Power","operator:wikidata":"Q3147780","power":"transformer"}},"power/transformer/rockymountainpower-b2dffe":{"name":"Rocky Mountain Power","locationSet":{"include":["us-id","us-ut","us-wy"]},"geometry":["point","vertex"],"matchScore":2,"terms":["rocky mountain power"],"tags":{"operator:wikidata":"Q2045479","power":"transformer"},"addTags":{"operator":"Rocky Mountain Power","operator:wikidata":"Q2045479","power":"transformer"}},"shop/charity/goodwillindustriesofwyoming-7ddffb":{"name":"Goodwill Industries of Wyoming","locationSet":{"include":["us-wy"]},"geometry":["point","area"],"matchScore":2,"terms":["goodwill","goodwill industries of wyoming"],"tags":{"operator:wikidata":"Q114927783","shop":"charity"},"addTags":{"brand":"Goodwill","brand:wikidata":"Q5583655","name":"Goodwill","operator":"Goodwill Industries of Wyoming","operator:wikidata":"Q114927783","shop":"charity"}}}