{"amenity/fuel/cefco-7de6f8":{"name":"CEFCO","locationSet":{"include":["us-al","us-fl","us-la","us-ms","us-tx"]},"geometry":["point","area"],"matchScore":2,"terms":["cefco"],"fields":["name","brand","{amenity/fuel}"],"tags":{"amenity":"fuel","brand:wikidata":"Q110209230"},"addTags":{"amenity":"fuel","brand":"CEFCO","brand:wikidata":"Q110209230","name":"CEFCO"}},"shop/convenience/cefco-abc9e1":{"name":"CEFCO","locationSet":{"include":["us-al","us-fl","us-la","us-ms","us-tx"]},"geometry":["point","area"],"matchScore":2,"terms":["cefco"],"tags":{"brand:wikidata":"Q110209230","shop":"convenience"},"addTags":{"amenity":"fuel","brand":"CEFCO","brand:wikidata":"Q110209230","name":"CEFCO","shop":"convenience"}},"leisure/nature_reserve/brec-615c8d":{"name":"BREC","locationSet":{"include":["us-la"]},"geometry":["area","point"],"matchScore":2,"terms":["brec"],"tags":{"leisure":"nature_reserve","operator:wikidata":"Q110063067"},"addTags":{"leisure":"nature_reserve","operator":"BREC","operator:type":"public","operator:wikidata":"Q110063067"}},"leisure/nature_reserve/louisianaofficeofstateparks-615c8d":{"name":"Louisiana State Parks","locationSet":{"include":["us-la"]},"geometry":["area","point"],"matchScore":2,"terms":["louisiana office of state parks"],"tags":{"leisure":"nature_reserve","operator:wikidata":"Q109319012"},"addTags":{"leisure":"nature_reserve","operator":"Louisiana Office of State Parks","operator:type":"public","operator:wikidata":"Q109319012"}},"leisure/park/brec-4221d5":{"name":"BREC","locationSet":{"include":["us-la"]},"geometry":["area","point"],"matchScore":2,"terms":["brec"],"tags":{"leisure":"park","operator:wikidata":"Q110063067"},"addTags":{"leisure":"park","operator":"BREC","operator:type":"public","operator:wikidata":"Q110063067"}},"leisure/park/louisianaofficeofstateparks-4221d5":{"name":"Louisiana State Parks","locationSet":{"include":["us-la"]},"geometry":["area","point"],"matchScore":2,"terms":["louisiana office of state parks"],"tags":{"leisure":"park","operator:wikidata":"Q109319012"},"addTags":{"leisure":"park","operator":"Louisiana Office of State Parks","operator:type":"public","operator:wikidata":"Q109319012"}},"public_transport/platform/bus_point/jet-e26034":{"name":"JeT (Lousiana)","locationSet":{"include":["us-la"]},"geometry":["point","vertex"],"matchScore":2,"terms":["jet"],"reference":{"key":"public_transport","value":"platform"},"tags":{"bus":"yes","network:wikidata":"Q6175697","public_transport":"platform"},"addTags":{"bus":"yes","highway":"bus_stop","network":"JeT","network:wikidata":"Q6175697","public_transport":"platform"}},"public_transport/platform/bus_point/rta-e26034":{"name":"RTA","locationSet":{"include":["us-la"]},"geometry":["point","vertex"],"matchScore":2,"terms":["new orleans regional transit authority","norta","rta"],"reference":{"key":"public_transport","value":"platform"},"tags":{"bus":"yes","network:wikidata":"Q2138272","public_transport":"platform"},"addTags":{"bus":"yes","highway":"bus_stop","network":"RTA","network:wikidata":"Q2138272","operator":"New Orleans Regional Transit Authority","public_transport":"platform"}},"type/route/bus/jet-c0ab96":{"name":"JeT (Lousiana)","locationSet":{"include":["us-la"]},"geometry":["relation"],"matchScore":2,"terms":["jet"],"reference":{"key":"route","value":"bus"},"tags":{"network:wikidata":"Q6175697","route":"bus","type":"route"},"addTags":{"network":"JeT","network:wikidata":"Q6175697","route":"bus","type":"route"}},"type/route/bus/rta-c0ab96":{"name":"RTA","locationSet":{"include":["us-la"]},"geometry":["relation"],"matchScore":2,"terms":["new orleans regional transit authority","norta","rta"],"reference":{"key":"route","value":"bus"},"tags":{"network:wikidata":"Q2138272","route":"bus","type":"route"},"addTags":{"network":"RTA","network:wikidata":"Q2138272","operator":"New Orleans Regional Transit Authority","route":"bus","type":"route"}}}