{"advertising/totem/disa-a0a030":{"name":"Disa","locationSet":{"include":["ic"]},"geometry":["point","line"],"matchScore":2,"terms":["disa"],"tags":{"advertising":"totem","brand:wikidata":"Q5797102"},"addTags":{"advertising":"totem","brand":"Disa","brand:wikidata":"Q5797102"}},"amenity/fuel/disa-2e774c":{"name":"Disa","locationSet":{"include":["ic"]},"geometry":["point","area"],"matchScore":2,"terms":["disa"],"fields":["name","brand","{amenity/fuel}"],"preserveTags":["^name"],"tags":{"amenity":"fuel","brand:wikidata":"Q5797102"},"addTags":{"amenity":"fuel","brand":"Disa","brand:wikidata":"Q5797102","name":"Disa"}},"shop/clothes/lefties-4f47d2":{"name":"Lefties","locationSet":{"include":["es","ic","mx","pt"]},"geometry":["point","area"],"matchScore":2,"terms":["lefties"],"tags":{"brand:wikidata":"Q12391713","shop":"clothes"},"addTags":{"brand":"Lefties","brand:wikidata":"Q12391713","name":"Lefties","shop":"clothes"}},"amenity/school/gobiernodecanarias-282164":{"name":"Gobierno de Canarias","locationSet":{"include":["ic"]},"geometry":["area","point"],"matchScore":2,"terms":["gobierno de canarias"],"tags":{"amenity":"school","operator:wikidata":"Q578830"},"addTags":{"amenity":"school","operator":"Gobierno de Canarias","operator:type":"government","operator:wikidata":"Q578830"}},"public_transport/platform/bus_point/titsa-891130":{"name":"Titsa","locationSet":{"include":["ic"]},"geometry":["point","vertex"],"matchScore":2,"terms":["titsa"],"reference":{"key":"public_transport","value":"platform"},"tags":{"bus":"yes","network:wikidata":"Q7670460","public_transport":"platform"},"addTags":{"bus":"yes","highway":"bus_stop","network":"Titsa","network:wikidata":"Q7670460","operator":"Titsa","public_transport":"platform"}},"railway/tram_stop/metrotenerife-bb803d":{"name":"MetroTenerife","locationSet":{"include":["ic"]},"geometry":["vertex"],"matchScore":2,"terms":["metrotenerife"],"tags":{"network:wikidata":"Q185464","railway":"tram_stop"},"addTags":{"network":"MetroTenerife","network:wikidata":"Q185464","operator":"MetroTenerife","railway":"tram_stop"}},"type/route/bus/titsa-2b591b":{"name":"Titsa","locationSet":{"include":["ic"]},"geometry":["relation"],"matchScore":2,"terms":["titsa"],"reference":{"key":"route","value":"bus"},"tags":{"network:wikidata":"Q7670460","route":"bus","type":"route"},"addTags":{"network":"Titsa","network:wikidata":"Q7670460","operator":"Titsa","route":"bus","type":"route"}},"type/route/tram/metrotenerife-609718":{"name":"MetroTenerife","locationSet":{"include":["ic"]},"geometry":["relation"],"matchScore":2,"terms":["metrotenerife"],"reference":{"key":"route","value":"tram"},"tags":{"network:wikidata":"Q185464","route":"tram","type":"route"},"addTags":{"network":"MetroTenerife","network:wikidata":"Q185464","operator":"MetroTenerife","route":"tram","type":"route"}}}