{"amenity/atm/citizensbank-0bad27":{"name":"Citizens Bank (Eastern USA)","locationSet":{"include":["us-ct","us-de","us-ma","us-mi","us-nh","us-nj","us-ny","us-oh","us-pa","us-ri","us-va","us-vt"]},"geometry":["point","vertex"],"matchScore":2,"terms":["citizens","citizens bank"],"fields":["name","brand","{amenity/atm}"],"tags":{"amenity":"atm","brand:wikidata":"Q5122694"},"addTags":{"amenity":"atm","brand":"Citizens Bank","brand:wikidata":"Q5122694","operator":"Citizens Bank","operator:wikidata":"Q5122694","short_name":"Citizens"}},"amenity/atm/citynationalbank-97e06e":{"name":"City National Bank (California)","locationSet":{"include":["us-ca","us-dc","us-de","us-fl","us-ga","us-ma","us-mn","us-nv","us-ny","us-tn","us-va"]},"geometry":["point","vertex"],"matchScore":2,"terms":["city national bank"],"fields":["name","brand","{amenity/atm}"],"tags":{"amenity":"atm","brand:wikidata":"Q5123314"},"addTags":{"amenity":"atm","brand":"City National Bank","brand:wikidata":"Q5123314","operator":"City National Bank","operator:wikidata":"Q5123314"}},"amenity/atm/firstnationalbankoflongisland-85c59a":{"name":"First National Bank of Long Island","locationSet":{"include":["us-ny"]},"geometry":["point","vertex"],"matchScore":2,"terms":["first national bank of long island"],"fields":["name","brand","{amenity/atm}"],"tags":{"amenity":"atm","brand:wikidata":"Q110265410"},"addTags":{"amenity":"atm","brand":"First National Bank of Long Island","brand:wikidata":"Q110265410","operator":"First National Bank of Long Island","operator:wikidata":"Q110265410"}},"amenity/atm/northwestbank-dd05cf":{"name":"Northwest Bank","locationSet":{"include":["us-in","us-ny","us-oh","us-pa"]},"geometry":["point","vertex"],"matchScore":2,"terms":["northwest bank"],"fields":["name","brand","{amenity/atm}"],"tags":{"amenity":"atm","brand:wikidata":"Q7060191"},"addTags":{"amenity":"atm","brand":"Northwest Bank","brand:wikidata":"Q7060191","operator":"Northwest Bank","operator:wikidata":"Q7060191"}},"amenity/atm/republicbank-9bba96":{"name":"Republic Bank (Philadelphia)","locationSet":{"include":["us-nj","us-ny","us-pa"]},"geometry":["point","vertex"],"matchScore":2,"terms":["republic bank"],"fields":["name","brand","{amenity/atm}"],"tags":{"amenity":"atm","brand:wikidata":"Q55316482"},"addTags":{"amenity":"atm","brand":"Republic Bank","brand:wikidata":"Q55316482","operator":"Republic Bank","operator:wikidata":"Q55316482"}},"amenity/bank/citizensbank-8621dd":{"name":"Citizens Bank (Eastern USA)","locationSet":{"include":["us-ct","us-de","us-ma","us-mi","us-nh","us-nj","us-ny","us-oh","us-pa","us-ri","us-va","us-vt"]},"geometry":["point","area"],"matchScore":2,"terms":["citizens","citizens bank"],"tags":{"amenity":"bank","brand:wikidata":"Q5122694"},"addTags":{"amenity":"bank","brand":"Citizens Bank","brand:wikidata":"Q5122694","name":"Citizens Bank","short_name":"Citizens"}},"amenity/bank/citynationalbank-0b143b":{"name":"City National Bank (California)","locationSet":{"include":["us-ca","us-dc","us-de","us-fl","us-ga","us-ma","us-mn","us-nv","us-ny","us-tn","us-va"]},"geometry":["point","area"],"matchScore":2,"terms":["city national bank"],"tags":{"amenity":"bank","brand:wikidata":"Q5123314"},"addTags":{"amenity":"bank","brand":"City National Bank","brand:wikidata":"Q5123314","name":"City National Bank"}},"amenity/bank/firstnationalbankoflongisland-51c67b":{"name":"First National Bank of Long Island","locationSet":{"include":["us-ny"]},"geometry":["point","area"],"matchScore":2,"terms":["first national bank of long island"],"tags":{"amenity":"bank","brand:wikidata":"Q110265410"},"addTags":{"amenity":"bank","brand":"First National Bank of Long Island","brand:wikidata":"Q110265410","name":"First National Bank of Long Island"}},"amenity/bank/northwestbank-7df23e":{"name":"Northwest Bank","locationSet":{"include":["us-in","us-ny","us-oh","us-pa"]},"geometry":["point","area"],"matchScore":2,"terms":["northwest bank"],"tags":{"amenity":"bank","brand:wikidata":"Q7060191"},"addTags":{"amenity":"bank","brand":"Northwest Bank","brand:wikidata":"Q7060191","name":"Northwest Bank"}},"amenity/bank/republicbank-9c6083":{"name":"Republic Bank (Philadelphia)","locationSet":{"include":["us-nj","us-ny","us-pa"]},"geometry":["point","area"],"matchScore":2,"terms":["republic bank"],"tags":{"amenity":"bank","brand:wikidata":"Q55316482"},"addTags":{"amenity":"bank","brand":"Republic Bank","brand:wikidata":"Q55316482","name":"Republic Bank"}},"amenity/bicycle_rental/citibike-7456a4":{"name":"Citi Bike","locationSet":{"include":["us-ny"]},"geometry":["point","vertex","area"],"matchScore":2,"terms":["citi bike","lyft","lyft bike","nyc bike share"],"fields":["name","brand","{amenity/bicycle_rental}"],"tags":{"amenity":"bicycle_rental","brand:wikidata":"Q2974438"},"addTags":{"amenity":"bicycle_rental","brand":"Citi Bike","brand:wikidata":"Q2974438","fee":"yes","name":"Citi Bike","network":"Citi Bike","network:wikidata":"Q2974438","operator":"Lyft","operator:type":"private","operator:wikidata":"Q17077936"}},"amenity/clinic/gohealthurgentcare-a9ca6f":{"name":"Northwell-GoHealth Urgent Care","locationSet":{"include":["us-ny"]},"geometry":["point","area"],"matchScore":2,"terms":["gohealth urgent care","northwell health"],"reference":{"key":"amenity","value":"clinic"},"tags":{"amenity":"clinic","brand:wikidata":"Q110282081"},"addTags":{"amenity":"clinic","brand":"GoHealth Urgent Care","brand:wikidata":"Q110282081","healthcare":"clinic","operator":"Northwell Health","operator:wikidata":"Q7056650"}},"amenity/fast_food/pokebros-eebea8":{"name":"Poke Bros.","locationSet":{"include":["us-de","us-fl","us-il","us-in","us-ky","us-nc","us-nj","us-ny","us-oh","us-pa","us-ri","us-sc","us-tn"]},"geometry":["point","area"],"matchScore":2,"terms":["poke bros."],"tags":{"amenity":"fast_food","brand:wikidata":"Q113640421"},"addTags":{"amenity":"fast_food","brand":"Poke Bros.","brand:wikidata":"Q113640421","cuisine":"poke","name":"Poke Bros.","takeaway":"yes"}},"leisure/sports_centre/xgolf-8a88af":{"name":"X Golf","locationSet":{"include":["us-al","us-co","us-ga","us-il","us-in","us-ks","us-ma","us-me","us-mi","us-mn","us-mo","us-nd","us-ne","us-ny","us-oh","us-or","us-pa","us-ri","us-sc","us-sd","us-ut","us-va","us-wa","us-wi"]},"geometry":["point","area"],"matchScore":2,"terms":["x golf"],"fields":["name","brand","{leisure/sports_centre}"],"tags":{"brand:wikidata":"Q111585369","leisure":"sports_centre"},"addTags":{"brand":"X Golf","brand:wikidata":"Q111585369","indoor":"yes","leisure":"sports_centre","name":"X Golf","sport":"golf"}},"shop/cannabis/cannabist-c9b3a7":{"name":"Cannabist","locationSet":{"include":["us-az","us-ca","us-fl","us-il","us-ma","us-mo","us-nj","us-ny","us-ut","us-va","us-wv"]},"geometry":["point","area"],"matchScore":2,"terms":["cannabist"],"tags":{"brand:wikidata":"Q114896590","shop":"cannabis"},"addTags":{"brand":"Cannabist","brand:wikidata":"Q114896590","name":"Cannabist","shop":"cannabis"}},"shop/cannabis/curaleaf-4b9e8a":{"name":"Curaleaf","locationSet":{"include":["us-az","us-ct","us-fl","us-il","us-ma","us-md","us-me","us-mi","us-nd","us-nj","us-nv","us-ny","us-oh","us-or","us-pa","us-ut","us-vt"]},"geometry":["point","area"],"matchScore":2,"terms":["curaleaf"],"tags":{"brand:wikidata":"Q85754829","shop":"cannabis"},"addTags":{"brand":"Curaleaf","brand:wikidata":"Q85754829","name":"Curaleaf","shop":"cannabis"}},"shop/cannabis/sunnyside-d4e7e6":{"name":"Sunnyside","locationSet":{"include":["us-az","us-fl","us-il","us-ma","us-ny","us-oh","us-pa"]},"geometry":["point","area"],"matchScore":2,"terms":["sunnyside"],"tags":{"brand:wikidata":"Q114880592","shop":"cannabis"},"addTags":{"brand":"Sunnyside","brand:wikidata":"Q114880592","name":"Sunnyside","shop":"cannabis"}},"shop/country_store/countrymax-dbe0bc":{"name":"CountryMax","locationSet":{"include":["us-ny"]},"geometry":["point","area"],"matchScore":2,"terms":["countrymax"],"tags":{"brand:wikidata":"Q111145969","shop":"country_store"},"addTags":{"brand":"CountryMax","brand:wikidata":"Q111145969","name":"CountryMax","shop":"country_store"}},"shop/hairdresser/imagestudios-0d42d5":{"name":"Image Studios","locationSet":{"include":["us-ca","us-co","us-fl","us-ga","us-ky","us-mo","us-nc","us-nj","us-nv","us-ny","us-oh","us-or","us-sc","us-tn","us-tx","us-ut"]},"geometry":["point","area"],"matchScore":2,"terms":["image studios"],"tags":{"brand:wikidata":"Q110998819","shop":"hairdresser"},"addTags":{"brand":"Image Studios","brand:wikidata":"Q110998819","name":"Image Studios","shop":"hairdresser"}},"shop/storage_rental/metroselfstorage-5b962b":{"name":"Metro Self Storage","locationSet":{"include":["us-al","us-ct","us-fl","us-ga","us-il","us-mn","us-nj","us-ny","us-pa","us-tn","us-tx","us-wi"]},"geometry":["point","area"],"matchScore":2,"terms":["metro self storage"],"tags":{"brand:wikidata":"Q114515454","shop":"storage_rental"},"addTags":{"brand":"Metro Self Storage","brand:wikidata":"Q114515454","name":"Metro Self Storage","shop":"storage_rental"}},"shop/storage_rental/thelockup-b15f96":{"name":"The Lock Up","locationSet":{"include":["us-ct","us-fl","us-hi","us-il","us-ma","us-mn","us-nj","us-ny"]},"geometry":["point","area"],"matchScore":2,"terms":["the lock up"],"tags":{"brand:wikidata":"Q17089825","shop":"storage_rental"},"addTags":{"brand":"The Lock Up","brand:wikidata":"Q17089825","name":"The Lock Up","shop":"storage_rental"}},"shop/supermarket/pricechopper-7d1b36":{"name":"Price Chopper (New England)","locationSet":{"include":["us-ct","us-ma","us-nh","us-ny","us-pa","us-vt"]},"geometry":["point","area"],"matchScore":2,"terms":["price chopper"],"tags":{"brand:wikidata":"Q7242574","shop":"supermarket"},"addTags":{"brand":"Price Chopper","brand:wikidata":"Q7242574","name":"Price Chopper","shop":"supermarket"}},"tourism/hotel/nhcollectionhotels-f05c75":{"name":"NH Collection Hotels","locationSet":{"include":["ad","ar","at","be","cl","co","cu","cz","de","dk","ec","es","fr","hu","it","mx","nl","pt","qa","us-ny"]},"geometry":["point","area"],"matchScore":2,"terms":["nh collection hotels"],"fields":["name","brand","{tourism/hotel}"],"tags":{"brand:wikidata":"Q1604631","tourism":"hotel"},"addTags":{"brand":"NH Collection Hotels","brand:wikidata":"Q1604631","name":"NH Collection Hotels","tourism":"hotel"}},"tourism/hotel/yotel-ebcca5":{"name":"YOTEL","locationSet":{"include":["ae","ch","fx","gb","nl","pt","sg","tr","us-ca","us-dc","us-fl","us-ma","us-ny"]},"geometry":["point","area"],"matchScore":2,"terms":["yotel"],"fields":["name","brand","{tourism/hotel}"],"tags":{"brand:wikidata":"Q8046002","tourism":"hotel"},"addTags":{"brand":"YOTEL","brand:wikidata":"Q8046002","name":"YOTEL","tourism":"hotel"}},"amenity/clinic/citymd-1972a2":{"name":"CityMD","locationSet":{"include":["us-nj","us-ny"]},"geometry":["point","area"],"matchScore":2,"terms":["citymd"],"fields":["name","operator","{amenity/clinic}"],"reference":{"key":"amenity","value":"clinic"},"tags":{"amenity":"clinic","operator:wikidata":"Q22295471"},"addTags":{"amenity":"clinic","healthcare":"clinic","name":"CityMD","operator":"CityMD","operator:wikidata":"Q22295471"}},"amenity/clinic/nyulangonehealth-1972a2":{"name":"NYU Langone Health","locationSet":{"include":["us-nj","us-ny"]},"geometry":["point","area"],"matchScore":2,"terms":["nyu langone health"],"fields":["name","operator","{amenity/clinic}"],"reference":{"key":"amenity","value":"clinic"},"tags":{"amenity":"clinic","operator:wikidata":"Q6956114"},"addTags":{"amenity":"clinic","healthcare":"clinic","operator":"NYU Langone Health","operator:wikidata":"Q6956114"}},"amenity/hospital/northwellhealth-27bc64":{"name":"Northwell Health","locationSet":{"include":["us-ny"]},"geometry":["area","point"],"matchScore":2,"terms":["northwell health"],"fields":["name","operator","{amenity/hospital}"],"reference":{"key":"amenity","value":"hospital"},"tags":{"amenity":"hospital","operator:wikidata":"Q7056650"},"addTags":{"amenity":"hospital","healthcare":"hospital","operator":"Northwell Health","operator:wikidata":"Q7056650"}},"amenity/library/monroecountylibrarysystem-4be4fd":{"name":"Monroe County Library System (New York)","locationSet":{"include":["us-ny"]},"geometry":["point","area"],"matchScore":2,"terms":["mcls","monroe county library system"],"tags":{"amenity":"library","operator:wikidata":"Q108636649"},"addTags":{"amenity":"library","operator":"Monroe County Library System","operator:short":"MCLS","operator:type":"public","operator:wikidata":"Q108636649"}},"amenity/library/onondagacountypubliclibrary-4be4fd":{"name":"Onondaga County Public Library","locationSet":{"include":["us-ny"]},"geometry":["point","area"],"matchScore":2,"terms":["ocpl","onondaga county public library"],"tags":{"amenity":"library","operator:wikidata":"Q69486331"},"addTags":{"amenity":"library","operator":"Onondaga County Public Library","operator:short":"OCPL","operator:type":"public","operator:wikidata":"Q69486331"}},"amenity/library/rochesterpubliclibrary-4be4fd":{"name":"Rochester Public Library","locationSet":{"include":["us-ny"]},"geometry":["point","area"],"matchScore":2,"terms":["rochester public library","rpl"],"tags":{"amenity":"library","operator:wikidata":"Q69486450"},"addTags":{"amenity":"library","operator":"Rochester Public Library","operator:short":"RPL","operator:type":"public","operator:wikidata":"Q69486450"}},"amenity/school/lawrencepublicschools-7d0023":{"name":"Lawrence Public Schools (New York)","locationSet":{"include":["us-ny"]},"geometry":["area","point"],"matchScore":2,"terms":["lawrence public schools","lps"],"tags":{"amenity":"school","operator:wikidata":"Q6504502"},"addTags":{"amenity":"school","operator":"Lawrence Public Schools","operator:short":"LPS","operator:type":"public","operator:wikidata":"Q6504502"}},"amenity/school/rochestercityschooldistrict-7d0023":{"name":"Rochester City School District","locationSet":{"include":["us-ny"]},"geometry":["area","point"],"matchScore":2,"terms":["rcsd","rochester city school district"],"tags":{"amenity":"school","operator:wikidata":"Q7353959"},"addTags":{"amenity":"school","operator":"Rochester City School District","operator:short":"RCSD","operator:type":"public","operator:wikidata":"Q7353959"}},"leisure/nature_reserve/cityofbuffalo-5fa58e":{"name":"City of Buffalo","locationSet":{"include":["us-ny"]},"geometry":["area","point"],"matchScore":2,"terms":["city of buffalo","city of buffalo division of parks & recreation","city of buffalo parks & recreation"],"tags":{"leisure":"nature_reserve","operator:wikidata":"Q40435"},"addTags":{"leisure":"nature_reserve","operator":"City of Buffalo","operator:type":"public","operator:wikidata":"Q40435"}},"leisure/nature_reserve/cityofgeneva-5fa58e":{"name":"City of Geneva (New York)","locationSet":{"include":["us-ny"]},"geometry":["area","point"],"matchScore":2,"terms":["city of geneva"],"tags":{"leisure":"nature_reserve","operator:wikidata":"Q1378284"},"addTags":{"leisure":"nature_reserve","operator":"City of Geneva","operator:type":"public","operator:wikidata":"Q1378284"}},"leisure/nature_reserve/cityofgloversville-5fa58e":{"name":"City of Gloversville","locationSet":{"include":["us-ny"]},"geometry":["area","point"],"matchScore":2,"terms":["city of gloversville"],"tags":{"leisure":"nature_reserve","operator:wikidata":"Q1380511"},"addTags":{"leisure":"nature_reserve","operator":"City of Gloversville","operator:type":"public","operator:wikidata":"Q1380511"}},"leisure/nature_reserve/cityofmiddletown-5fa58e":{"name":"City of Middletown (New York)","locationSet":{"include":["us-ny"]},"geometry":["area","point"],"matchScore":2,"terms":["city of middletown"],"tags":{"leisure":"nature_reserve","operator:wikidata":"Q304801"},"addTags":{"leisure":"nature_reserve","operator":"City of Middletown","operator:type":"public","operator:wikidata":"Q304801"}},"leisure/nature_reserve/cityofrochester-5fa58e":{"name":"City of Rochester (New York)","locationSet":{"include":["us-ny"]},"geometry":["area","point"],"matchScore":2,"terms":["city of rochester"],"tags":{"leisure":"nature_reserve","operator:wikidata":"Q49218"},"addTags":{"leisure":"nature_reserve","operator":"City of Rochester","operator:type":"public","operator:wikidata":"Q49218"}},"leisure/nature_reserve/incorporatedvillageofflowerhill-5fa58e":{"name":"Incorporated Village of Flower Hill","locationSet":{"include":["us-ny"]},"geometry":["area","point"],"matchScore":2,"terms":["incorporated village of flower hill"],"tags":{"leisure":"nature_reserve","operator:wikidata":"Q3451947"},"addTags":{"leisure":"nature_reserve","operator":"Incorporated Village of Flower Hill","operator:type":"public","operator:wikidata":"Q3451947"}},"leisure/nature_reserve/newyorkstateofficeofparksrecreationandhistoricpreservation-5fa58e":{"name":"NY State Parks","locationSet":{"include":["us-ny"]},"geometry":["area","point"],"matchScore":2,"terms":["new york state office of parks, recreation and historic preservation"],"tags":{"leisure":"nature_reserve","operator:wikidata":"Q1706660"},"addTags":{"leisure":"nature_reserve","operator":"New York State Office of Parks, Recreation and Historic Preservation","operator:type":"public","operator:wikidata":"Q1706660"}},"leisure/nature_reserve/newyorkstatedepartmentofenvironmentalconservation-5fa58e":{"name":"NYSDEC","locationSet":{"include":["us-ny"]},"geometry":["area","point"],"matchScore":2,"terms":["new york state department of environmental conservation","nysdec"],"tags":{"leisure":"nature_reserve","operator:wikidata":"Q3339061"},"addTags":{"leisure":"nature_reserve","operator":"New York State Department of Environmental Conservation","operator:short":"NYSDEC","operator:type":"public","operator:wikidata":"Q3339061"}},"leisure/nature_reserve/townofamherst-5fa58e":{"name":"Town of Amherst (New York)","locationSet":{"include":["us-ny"]},"geometry":["area","point"],"matchScore":2,"terms":["town of amherst"],"tags":{"leisure":"nature_reserve","operator:wikidata":"Q470592"},"addTags":{"leisure":"nature_reserve","operator":"Town of Amherst","operator:type":"public","operator:wikidata":"Q470592"}},"leisure/nature_reserve/townofnorthhempstead-5fa58e":{"name":"Town of North Hempstead","locationSet":{"include":["us-ny"]},"geometry":["area","point"],"matchScore":2,"terms":["town of north hempstead"],"tags":{"leisure":"nature_reserve","operator:wikidata":"Q2723817"},"addTags":{"leisure":"nature_reserve","operator":"Town of North Hempstead","operator:type":"public","operator:wikidata":"Q2723817"}},"leisure/nature_reserve/villageoffayetteville-5fa58e":{"name":"Village of Fayetteville","locationSet":{"include":["us-ny"]},"geometry":["area","point"],"matchScore":2,"terms":["village of fayetteville"],"tags":{"leisure":"nature_reserve","operator:wikidata":"Q3461710"},"addTags":{"leisure":"nature_reserve","operator":"Village of Fayetteville","operator:type":"public","operator:wikidata":"Q3461710"}},"leisure/park/cityofbuffalo-932a36":{"name":"City of Buffalo","locationSet":{"include":["us-ny"]},"geometry":["area","point"],"matchScore":2,"terms":["city of buffalo","city of buffalo division of parks & recreation","city of buffalo parks & recreation"],"tags":{"leisure":"park","operator:wikidata":"Q40435"},"addTags":{"leisure":"park","operator":"City of Buffalo","operator:type":"public","operator:wikidata":"Q40435"}},"leisure/park/cityofgeneva-932a36":{"name":"City of Geneva (New York)","locationSet":{"include":["us-ny"]},"geometry":["area","point"],"matchScore":2,"terms":["city of geneva"],"tags":{"leisure":"park","operator:wikidata":"Q1378284"},"addTags":{"leisure":"park","operator":"City of Geneva","operator:type":"public","operator:wikidata":"Q1378284"}},"leisure/park/cityofgloversville-932a36":{"name":"City of Gloversville","locationSet":{"include":["us-ny"]},"geometry":["area","point"],"matchScore":2,"terms":["city of gloversville"],"tags":{"leisure":"park","operator:wikidata":"Q1380511"},"addTags":{"leisure":"park","operator":"City of Gloversville","operator:type":"public","operator:wikidata":"Q1380511"}},"leisure/park/cityofmiddletown-932a36":{"name":"City of Middletown (New York)","locationSet":{"include":["us-ny"]},"geometry":["area","point"],"matchScore":2,"terms":["city of middletown"],"tags":{"leisure":"park","operator:wikidata":"Q304801"},"addTags":{"leisure":"park","operator":"City of Middletown","operator:type":"public","operator:wikidata":"Q304801"}},"leisure/park/cityofrochester-932a36":{"name":"City of Rochester (New York)","locationSet":{"include":["us-ny"]},"geometry":["area","point"],"matchScore":2,"terms":["city of rochester"],"tags":{"leisure":"park","operator:wikidata":"Q49218"},"addTags":{"leisure":"park","operator":"City of Rochester","operator:type":"public","operator:wikidata":"Q49218"}},"leisure/park/incorporatedvillageofflowerhill-932a36":{"name":"Incorporated Village of Flower Hill","locationSet":{"include":["us-ny"]},"geometry":["area","point"],"matchScore":2,"terms":["incorporated village of flower hill"],"tags":{"leisure":"park","operator:wikidata":"Q3451947"},"addTags":{"leisure":"park","operator":"Incorporated Village of Flower Hill","operator:type":"public","operator:wikidata":"Q3451947"}},"leisure/park/newyorkstateofficeofparksrecreationandhistoricpreservation-932a36":{"name":"NY State Parks","locationSet":{"include":["us-ny"]},"geometry":["area","point"],"matchScore":2,"terms":["new york state office of parks, recreation and historic preservation"],"tags":{"leisure":"park","operator:wikidata":"Q1706660"},"addTags":{"leisure":"park","operator":"New York State Office of Parks, Recreation and Historic Preservation","operator:type":"public","operator:wikidata":"Q1706660"}},"leisure/park/newyorkstatedepartmentofenvironmentalconservation-932a36":{"name":"NYSDEC","locationSet":{"include":["us-ny"]},"geometry":["area","point"],"matchScore":2,"terms":["new york state department of environmental conservation","nysdec"],"tags":{"leisure":"park","operator:wikidata":"Q3339061"},"addTags":{"leisure":"park","operator":"New York State Department of Environmental Conservation","operator:short":"NYSDEC","operator:type":"public","operator:wikidata":"Q3339061"}},"leisure/park/townofamherst-932a36":{"name":"Town of Amherst (New York)","locationSet":{"include":["us-ny"]},"geometry":["area","point"],"matchScore":2,"terms":["town of amherst"],"tags":{"leisure":"park","operator:wikidata":"Q470592"},"addTags":{"leisure":"park","operator":"Town of Amherst","operator:type":"public","operator:wikidata":"Q470592"}},"leisure/park/townofnorthhempstead-932a36":{"name":"Town of North Hempstead","locationSet":{"include":["us-ny"]},"geometry":["area","point"],"matchScore":2,"terms":["town of north hempstead"],"tags":{"leisure":"park","operator:wikidata":"Q2723817"},"addTags":{"leisure":"park","operator":"Town of North Hempstead","operator:type":"public","operator:wikidata":"Q2723817"}},"leisure/park/villageoffayetteville-932a36":{"name":"Village of Fayetteville","locationSet":{"include":["us-ny"]},"geometry":["area","point"],"matchScore":2,"terms":["village of fayetteville"],"tags":{"leisure":"park","operator:wikidata":"Q3461710"},"addTags":{"leisure":"park","operator":"Village of Fayetteville","operator:type":"public","operator:wikidata":"Q3461710"}},"office/government/newyorkstatedepartmentofmotorvehicles-b00967":{"name":"New York DMV","locationSet":{"include":["us-ny"]},"geometry":["point","area"],"matchScore":2,"terms":["dmv","new york dmv","new york state department of motor vehicles"],"fields":["name","operator","{office/government}"],"tags":{"office":"government","operator:wikidata":"Q17109616"},"addTags":{"government":"transportation","office":"government","operator":"New York State Department of Motor Vehicles","operator:short":"New York DMV","operator:wikidata":"Q17109616"}},"shop/charity/goodwillnynj-af8277":{"name":"Goodwill NYNJ","locationSet":{"include":["us-nj","us-ny"]},"geometry":["point","area"],"matchScore":2,"terms":["goodwill","goodwill industries of greater new york & northern new jersey","goodwill nynj"],"tags":{"operator:wikidata":"Q54557261","shop":"charity"},"addTags":{"brand":"Goodwill","brand:wikidata":"Q5583655","name":"Goodwill","operator":"Goodwill NYNJ","operator:wikidata":"Q54557261","shop":"charity"}},"shop/charity/goodwillofthefingerlakes-94c896":{"name":"Goodwill of the Finger Lakes","locationSet":{"include":["us-ny"]},"geometry":["point","area"],"matchScore":2,"terms":["abvi","abvi goodwill","goodwill","goodwill of the finger lakes","goodwill of the finger lakes, rochester, and syracuse"],"tags":{"operator:wikidata":"Q109721586","shop":"charity"},"addTags":{"brand":"Goodwill","brand:wikidata":"Q5583655","name":"Goodwill","operator":"Goodwill of the Finger Lakes","operator:wikidata":"Q109721586","shop":"charity"}},"public_transport/station_ferry/libertylandingferry-b4755d":{"name":"Liberty Landing Ferry","locationSet":{"include":["us-nj","us-ny"]},"geometry":["vertex","point","area"],"matchScore":2,"terms":["liberty landing ferry"],"reference":{"key":"amenity","value":"ferry_terminal"},"tags":{"ferry":"yes","network:wikidata":"Q6542171","public_transport":"station"},"addTags":{"amenity":"ferry_terminal","ferry":"yes","network":"Liberty Landing Ferry","network:wikidata":"Q6542171","public_transport":"station"}},"public_transport/station_ferry/nywaterway-b4755d":{"name":"NY Waterway","locationSet":{"include":["us-nj","us-ny"]},"geometry":["vertex","point","area"],"matchScore":2,"terms":["ny waterway"],"reference":{"key":"amenity","value":"ferry_terminal"},"tags":{"ferry":"yes","network:wikidata":"Q6956135","public_transport":"station"},"addTags":{"amenity":"ferry_terminal","ferry":"yes","network":"NY Waterway","network:wikidata":"Q6956135","public_transport":"station"}},"public_transport/platform/bus_point/cdta-2a3b9d":{"name":"CDTA","locationSet":{"include":["us-ny"]},"geometry":["point","vertex"],"matchScore":2,"terms":["cdta"],"reference":{"key":"public_transport","value":"platform"},"tags":{"bus":"yes","network:wikidata":"Q5035551","public_transport":"platform"},"addTags":{"bus":"yes","highway":"bus_stop","network":"CDTA","network:wikidata":"Q5035551","public_transport":"platform"}},"public_transport/platform/bus_point/centrooswego-2a3b9d":{"name":"Centro Oswego","locationSet":{"include":["us-ny"]},"geometry":["point","vertex"],"matchScore":2,"terms":["central new york regional transportation authority","centro","centro oswego"],"reference":{"key":"public_transport","value":"platform"},"tags":{"bus":"yes","network:wikidata":"Q5061513","public_transport":"platform"},"addTags":{"bus":"yes","highway":"bus_stop","network":"Centro Oswego","network:wikidata":"Q5061513","operator":"Central New York Regional Transportation Authority","operator:short":"Centro","public_transport":"platform"}},"public_transport/platform/bus_point/centrosyracuse-2a3b9d":{"name":"Centro Syracuse","locationSet":{"include":["us-ny"]},"geometry":["point","vertex"],"matchScore":2,"terms":["central new york regional transportation authority","centro","centro syracuse"],"reference":{"key":"public_transport","value":"platform"},"tags":{"bus":"yes","network:wikidata":"Q5061513","public_transport":"platform"},"addTags":{"bus":"yes","highway":"bus_stop","network":"Centro Syracuse","network:wikidata":"Q5061513","operator":"Central New York Regional Transportation Authority","operator:short":"Centro","public_transport":"platform"}},"public_transport/platform/bus_point/centroutica-2a3b9d":{"name":"Centro Utica","locationSet":{"include":["us-ny"]},"geometry":["point","vertex"],"matchScore":2,"terms":["central new york regional transportation authority","centro","centro utica"],"reference":{"key":"public_transport","value":"platform"},"tags":{"bus":"yes","network:wikidata":"Q5061513","public_transport":"platform"},"addTags":{"bus":"yes","highway":"bus_stop","network":"Centro Utica","network:wikidata":"Q5061513","operator":"Central New York Regional Transportation Authority","operator:short":"Centro","public_transport":"platform"}},"public_transport/platform/bus_point/nftametro-2a3b9d":{"name":"NFTA Metro","locationSet":{"include":["us-ny"]},"geometry":["point","vertex"],"matchScore":2,"terms":["nfta","nfta metro","niagara frontier transportation authority"],"reference":{"key":"public_transport","value":"platform"},"tags":{"bus":"yes","network:wikidata":"Q15114900","public_transport":"platform"},"addTags":{"bus":"yes","highway":"bus_stop","network":"NFTA Metro","network:wikidata":"Q15114900","operator":"Niagara Frontier Transportation Authority","operator:short":"NFTA","public_transport":"platform"}},"public_transport/platform/bus_point/nassauintercountyexpress-2a3b9d":{"name":"NICE","locationSet":{"include":["us-ny"]},"geometry":["point","vertex"],"matchScore":2,"terms":["nassau inter-county express","nice","transdev"],"reference":{"key":"public_transport","value":"platform"},"tags":{"bus":"yes","network:wikidata":"Q6967576","public_transport":"platform"},"addTags":{"bus":"yes","highway":"bus_stop","network":"Nassau Inter-County Express","network:short":"NICE","network:wikidata":"Q6967576","operator":"Transdev","operator:wikidata":"Q104185516","public_transport":"platform"}},"public_transport/platform/bus_point/njtransit-aa25f3":{"name":"NJ Transit","locationSet":{"include":["us-nj","us-ny","us-pa"]},"geometry":["point","vertex"],"matchScore":2,"terms":["new jersey transit","nj transit","njt"],"reference":{"key":"public_transport","value":"platform"},"tags":{"bus":"yes","network:wikidata":"Q498553","public_transport":"platform"},"addTags":{"bus":"yes","highway":"bus_stop","network":"NJ Transit","network:short":"NJT","network:wikidata":"Q498553","public_transport":"platform"}},"public_transport/platform/bus_point/rts-2a3b9d":{"name":"RTS","locationSet":{"include":["us-ny"]},"geometry":["point","vertex"],"matchScore":2,"terms":["rochester-genesee regional transportation authority","rts"],"reference":{"key":"public_transport","value":"platform"},"tags":{"bus":"yes","network:wikidata":"Q7353936","public_transport":"platform"},"addTags":{"bus":"yes","highway":"bus_stop","network":"RTS","network:wikidata":"Q7353936","operator":"Rochester-Genesee Regional Transportation Authority","public_transport":"platform"}},"public_transport/platform/bus_point/rtsontario-2a3b9d":{"name":"RTS Ontario","locationSet":{"include":["us-ny"]},"geometry":["point","vertex"],"matchScore":2,"terms":["rochester-genesee regional transportation authority","rts ontario"],"reference":{"key":"public_transport","value":"platform"},"tags":{"bus":"yes","network:wikidata":"Q7353936","public_transport":"platform"},"addTags":{"bus":"yes","highway":"bus_stop","network":"RTS Ontario","network:wikidata":"Q7353936","operator":"Rochester-Genesee Regional Transportation Authority","public_transport":"platform"}},"public_transport/platform/bus_point/suffolkcountytransit-2a3b9d":{"name":"Suffolk County Transit","locationSet":{"include":["us-ny"]},"geometry":["point","vertex"],"matchScore":2,"terms":["suffolk county transit"],"reference":{"key":"public_transport","value":"platform"},"tags":{"bus":"yes","network:wikidata":"Q7634561","public_transport":"platform"},"addTags":{"bus":"yes","highway":"bus_stop","network":"Suffolk County Transit","network:wikidata":"Q7634561","public_transport":"platform"}},"type/route/bus/cdta-361a78":{"name":"CDTA","locationSet":{"include":["us-ny"]},"geometry":["relation"],"matchScore":2,"terms":["cdta"],"reference":{"key":"route","value":"bus"},"tags":{"network:wikidata":"Q5035551","route":"bus","type":"route"},"addTags":{"network":"CDTA","network:wikidata":"Q5035551","route":"bus","type":"route"}},"type/route/bus/centrooswego-361a78":{"name":"Centro Oswego","locationSet":{"include":["us-ny"]},"geometry":["relation"],"matchScore":2,"terms":["central new york regional transportation authority","centro","centro oswego"],"reference":{"key":"route","value":"bus"},"tags":{"network:wikidata":"Q5061513","route":"bus","type":"route"},"addTags":{"network":"Centro Oswego","network:wikidata":"Q5061513","operator":"Central New York Regional Transportation Authority","operator:short":"Centro","route":"bus","type":"route"}},"type/route/bus/centrosyracuse-361a78":{"name":"Centro Syracuse","locationSet":{"include":["us-ny"]},"geometry":["relation"],"matchScore":2,"terms":["central new york regional transportation authority","centro","centro syracuse"],"reference":{"key":"route","value":"bus"},"tags":{"network:wikidata":"Q5061513","route":"bus","type":"route"},"addTags":{"network":"Centro Syracuse","network:wikidata":"Q5061513","operator":"Central New York Regional Transportation Authority","operator:short":"Centro","route":"bus","type":"route"}},"type/route/bus/centroutica-361a78":{"name":"Centro Utica","locationSet":{"include":["us-ny"]},"geometry":["relation"],"matchScore":2,"terms":["central new york regional transportation authority","centro","centro utica"],"reference":{"key":"route","value":"bus"},"tags":{"network:wikidata":"Q5061513","route":"bus","type":"route"},"addTags":{"network":"Centro Utica","network:wikidata":"Q5061513","operator":"Central New York Regional Transportation Authority","operator:short":"Centro","route":"bus","type":"route"}},"type/route/bus/nftametro-361a78":{"name":"NFTA Metro","locationSet":{"include":["us-ny"]},"geometry":["relation"],"matchScore":2,"terms":["nfta","nfta metro","niagara frontier transportation authority"],"reference":{"key":"route","value":"bus"},"tags":{"network:wikidata":"Q15114900","route":"bus","type":"route"},"addTags":{"network":"NFTA Metro","network:wikidata":"Q15114900","operator":"Niagara Frontier Transportation Authority","operator:short":"NFTA","route":"bus","type":"route"}},"type/route/bus/nassauintercountyexpress-361a78":{"name":"NICE","locationSet":{"include":["us-ny"]},"geometry":["relation"],"matchScore":2,"terms":["nassau inter-county express","nice","transdev"],"reference":{"key":"route","value":"bus"},"tags":{"network:wikidata":"Q6967576","route":"bus","type":"route"},"addTags":{"network":"Nassau Inter-County Express","network:short":"NICE","network:wikidata":"Q6967576","operator":"Transdev","operator:wikidata":"Q104185516","route":"bus","type":"route"}},"type/route/bus/njtransit-18372d":{"name":"NJ Transit","locationSet":{"include":["us-nj","us-ny","us-pa"]},"geometry":["relation"],"matchScore":2,"terms":["new jersey transit","nj transit","njt"],"reference":{"key":"route","value":"bus"},"tags":{"network:wikidata":"Q498553","route":"bus","type":"route"},"addTags":{"network":"NJ Transit","network:short":"NJT","network:wikidata":"Q498553","route":"bus","type":"route"}},"type/route/bus/rts-361a78":{"name":"RTS","locationSet":{"include":["us-ny"]},"geometry":["relation"],"matchScore":2,"terms":["rochester-genesee regional transportation authority","rts"],"reference":{"key":"route","value":"bus"},"tags":{"network:wikidata":"Q7353936","route":"bus","type":"route"},"addTags":{"network":"RTS","network:wikidata":"Q7353936","operator":"Rochester-Genesee Regional Transportation Authority","route":"bus","type":"route"}},"type/route/bus/rtsontario-361a78":{"name":"RTS Ontario","locationSet":{"include":["us-ny"]},"geometry":["relation"],"matchScore":2,"terms":["rochester-genesee regional transportation authority","rts ontario"],"reference":{"key":"route","value":"bus"},"tags":{"network:wikidata":"Q7353936","route":"bus","type":"route"},"addTags":{"network":"RTS Ontario","network:wikidata":"Q7353936","operator":"Rochester-Genesee Regional Transportation Authority","route":"bus","type":"route"}},"type/route/bus/suffolkcountytransit-361a78":{"name":"Suffolk County Transit","locationSet":{"include":["us-ny"]},"geometry":["relation"],"matchScore":2,"terms":["suffolk county transit"],"reference":{"key":"route","value":"bus"},"tags":{"network:wikidata":"Q7634561","route":"bus","type":"route"},"addTags":{"network":"Suffolk County Transit","network:wikidata":"Q7634561","route":"bus","type":"route"}},"type/route/ferry/libertylandingferry-8befc2":{"name":"Liberty Landing Ferry","locationSet":{"include":["us-nj","us-ny"]},"geometry":["relation"],"matchScore":2,"terms":["liberty landing ferry"],"reference":{"key":"route","value":"ferry"},"tags":{"network:wikidata":"Q6542171","route":"ferry","type":"route"},"addTags":{"network":"Liberty Landing Ferry","network:wikidata":"Q6542171","route":"ferry","type":"route"}},"type/route/ferry/nywaterway-8befc2":{"name":"NY Waterway","locationSet":{"include":["us-nj","us-ny"]},"geometry":["relation"],"matchScore":2,"terms":["ny waterway"],"reference":{"key":"route","value":"ferry"},"tags":{"network:wikidata":"Q6956135","route":"ferry","type":"route"},"addTags":{"network":"NY Waterway","network:wikidata":"Q6956135","route":"ferry","type":"route"}},"route/ferry/libertylandingferry-8befc2":{"name":"Liberty Landing Ferry","locationSet":{"include":["us-nj","us-ny"]},"geometry":["line"],"matchScore":2,"terms":["liberty landing ferry"],"tags":{"network:wikidata":"Q6542171","route":"ferry"},"addTags":{"network":"Liberty Landing Ferry","network:wikidata":"Q6542171","route":"ferry"}},"route/ferry/nywaterway-8befc2":{"name":"NY Waterway","locationSet":{"include":["us-nj","us-ny"]},"geometry":["line"],"matchScore":2,"terms":["ny waterway"],"tags":{"network:wikidata":"Q6956135","route":"ferry"},"addTags":{"network":"NY Waterway","network:wikidata":"Q6956135","route":"ferry"}},"type/route/train/lirr-94d192":{"name":"LIRR","locationSet":{"include":["us-ny"]},"geometry":["relation"],"matchScore":2,"terms":["lirr","long island rail road"],"reference":{"key":"route","value":"train"},"tags":{"network:wikidata":"Q125943","route":"train","type":"route"},"addTags":{"network":"LIRR","network:wikidata":"Q125943","operator":"Long Island Rail Road","operator:wikidata":"Q125943","route":"train","type":"route"}},"type/route/train/njtransit-2ecabe":{"name":"NJ Transit","locationSet":{"include":["us-nj","us-ny","us-pa"]},"geometry":["relation"],"matchScore":2,"terms":["new jersey transit","nj transit"],"reference":{"key":"route","value":"train"},"tags":{"network:wikidata":"Q498553","route":"train","type":"route"},"addTags":{"network":"NJ Transit","network:wikidata":"Q498553","route":"train","type":"route"}}}