{"advertising/totem/usmile-b9aca4":{"name":"uSmile","locationSet":{"include":["hk","mo"]},"geometry":["point","line"],"matchScore":2,"terms":["usmile"],"tags":{"advertising":"totem","brand:wikidata":"Q66480830"},"addTags":{"advertising":"totem","brand":"uSmile","brand:en":"uSmile","brand:wikidata":"Q66480830","brand:zh":"uSmile","name:en":"uSmile"}},"amenity/atm/chinaconstructionbank-a6c792":{"name":"中國建設銀行 Banco de Construção da China","locationSet":{"include":["mo"]},"geometry":["point","vertex"],"matchScore":2,"terms":["banco de construção da china","ccb","china construction bank","中國建設銀行","中國建設銀行 banco de construção da china","建行","建設銀行"],"fields":["name","brand","{amenity/atm}"],"tags":{"amenity":"atm","brand:wikidata":"Q26299"},"addTags":{"amenity":"atm","brand":"中國建設銀行 Banco de Construção da China","brand:en":"China Construction Bank","brand:pt":"Banco de Construção da China","brand:wikidata":"Q26299","brand:zh":"中國建設銀行","brand:zh-Hans":"中国建设银行","brand:zh-Hant":"中國建設銀行","name:en":"China Construction Bank","name:pt":"Banco de Construção da China","name:zh":"中國建設銀行","name:zh-Hans":"中国建设银行","name:zh-Hant":"中國建設銀行","operator":"中國建設銀行 Banco de Construção da China","operator:wikidata":"Q26299"}},"amenity/atm/bankofchina-a6c792":{"name":"中國銀行","locationSet":{"include":["mo"]},"geometry":["point","vertex"],"matchScore":2,"terms":["banco da china","bank of china","中國銀行","中行","中銀","中銀澳門"],"fields":["name","brand","{amenity/atm}"],"tags":{"amenity":"atm","brand:wikidata":"Q790068"},"addTags":{"amenity":"atm","brand":"中國銀行","brand:en":"Bank of China","brand:pt":"Banco da China","brand:wikidata":"Q790068","brand:zh":"中國銀行","brand:zh-Hans":"中国银行","brand:zh-Hant":"中國銀行","name:en":"Bank of China","name:pt":"Banco da China","name:zh":"中國銀行","name:zh-Hans":"中国银行","name:zh-Hant":"中國銀行","operator":"中國銀行","operator:wikidata":"Q790068"}},"amenity/atm/chonghingbank-aa3d3d":{"name":"創興銀行 Chong Hing Bank","locationSet":{"include":["hk","mo"]},"geometry":["point","vertex"],"matchScore":2,"terms":["chong hing bank","創興","創興銀行","創興銀行 chong hing bank"],"fields":["name","brand","{amenity/atm}"],"tags":{"amenity":"atm","brand:wikidata":"Q5104600"},"addTags":{"amenity":"atm","brand":"創興銀行 Chong Hing Bank","brand:en":"Chong Hing Bank","brand:wikidata":"Q5104600","brand:zh":"創興銀行","brand:zh-Hans":"创兴银行","brand:zh-Hant":"創興銀行","name:en":"Chong Hing Bank","name:zh":"創興銀行","name:zh-Hans":"创兴银行","name:zh-Hant":"創興銀行","operator":"創興銀行 Chong Hing Bank","operator:wikidata":"Q5104600"}},"amenity/atm/2997e9-a6c792":{"name":"大西洋銀行 Banco Nacional Ultramarino","locationSet":{"include":["mo"]},"geometry":["point","vertex"],"matchScore":2,"terms":["banco nacional ultramarino","bnu","大西洋銀行","大西洋銀行 banco nacional ultramarino"],"fields":["name","brand","{amenity/atm}"],"searchable":false,"tags":{"amenity":"atm","brand:wikidata":"Q806190"},"addTags":{"amenity":"atm","brand":"大西洋銀行 Banco Nacional Ultramarino","brand:pt":"Banco Nacional Ultramarino","brand:wikidata":"Q806190","brand:zh":"大西洋銀行","name:pt":"Banco Nacional Ultramarino","name:zh":"大西洋銀行","operator":"大西洋銀行 Banco Nacional Ultramarino","operator:wikidata":"Q806190"}},"amenity/atm/taifungbank-a6c792":{"name":"大豐銀行 Banco Tai Fung","locationSet":{"include":["mo"]},"geometry":["point","vertex"],"matchScore":2,"terms":["banco tai fung","tai fung bank","大豐銀行","大豐銀行 banco tai fung"],"fields":["name","brand","{amenity/atm}"],"tags":{"amenity":"atm","brand:wikidata":"Q10938051"},"addTags":{"amenity":"atm","brand":"大豐銀行 Banco Tai Fung","brand:en":"Tai Fung Bank","brand:pt":"Banco Tai Fung","brand:wikidata":"Q10938051","brand:zh":"大豐銀行","name:en":"Tai Fung Bank","name:pt":"Banco Tai Fung","name:zh":"大豐銀行","operator":"大豐銀行 Banco Tai Fung","operator:wikidata":"Q10938051"}},"amenity/atm/icbc-a6c792":{"name":"工銀澳門 ICBC","locationSet":{"include":["mo"]},"geometry":["point","vertex"],"matchScore":2,"terms":["icbc","industrial and commercial bank of china","中國工商銀行","中國工商銀行（澳門）","工商銀行","工行","工銀","工銀澳門"],"fields":["name","brand","{amenity/atm}"],"tags":{"amenity":"atm","brand:wikidata":"Q26463"},"addTags":{"amenity":"atm","brand":"中國工商銀行","brand:en":"Industrial and Commercial Bank of China","brand:wikidata":"Q26463","brand:zh":"中國工商銀行","brand:zh-Hans":"中国工商银行","brand:zh-Hant":"中國工商銀行","name:en":"ICBC","name:zh":"工銀澳門","name:zh-Hans":"工银澳门","name:zh-Hant":"工銀澳門","operator":"中國工商銀行","operator:wikidata":"Q26463"}},"amenity/atm/hangsengbank-aa3d3d":{"name":"恒生銀行 Hang Seng Bank","locationSet":{"include":["hk","mo"]},"geometry":["point","vertex"],"matchScore":2,"terms":["hang sang bank","hang seng bank","hase","hsb","恆生","恆生銀行","恒生","恒生銀行","恒生銀行 hang seng bank"],"fields":["name","brand","{amenity/atm}"],"tags":{"amenity":"atm","brand:wikidata":"Q1575470"},"addTags":{"amenity":"atm","brand":"恒生銀行 Hang Seng Bank","brand:en":"Hang Seng Bank","brand:wikidata":"Q1575470","brand:zh":"恒生銀行","brand:zh-Hans":"恒生银行","brand:zh-Hant":"恒生銀行","name:en":"Hang Seng Bank","name:zh":"恒生銀行","name:zh-Hans":"恒生银行","name:zh-Hant":"恒生銀行","operator":"恒生銀行 Hang Seng Bank","operator:wikidata":"Q1575470"}},"amenity/atm/dbs-aa3d3d":{"name":"星展銀行 DBS","locationSet":{"include":["hk","mo"]},"geometry":["point","vertex"],"matchScore":2,"terms":["dbs","星展銀行","星展銀行 dbs"],"fields":["name","brand","{amenity/atm}"],"tags":{"amenity":"atm","brand:wikidata":"Q705417"},"addTags":{"amenity":"atm","brand":"星展銀行 DBS","brand:en":"DBS","brand:wikidata":"Q705417","brand:zh":"星展銀行","brand:zh-Hans":"星展银行","brand:zh-Hant":"星展銀行","name:en":"DBS","name:zh":"星展銀行","name:zh-Hans":"星展银行","name:zh-Hant":"星展銀行","operator":"星展銀行 DBS","operator:wikidata":"Q705417"}},"amenity/atm/f9b3fb-a6c792":{"name":"澳門商業銀行 Banco Comercial de Macau","locationSet":{"include":["mo"]},"geometry":["point","vertex"],"matchScore":2,"terms":["banco comercial de macau","bcm","澳門商業銀行","澳門商業銀行 banco comercial de macau"],"fields":["name","brand","{amenity/atm}"],"tags":{"amenity":"atm","brand:wikidata":"Q22099041"},"addTags":{"amenity":"atm","brand":"澳門商業銀行 Banco Comercial de Macau","brand:pt":"Banco Comercial de Macau","brand:wikidata":"Q22099041","brand:zh":"澳門商業銀行","name:pt":"Banco Comercial de Macau","name:zh":"澳門商業銀行","operator":"澳門商業銀行 Banco Comercial de Macau","operator:wikidata":"Q22099041"}},"amenity/atm/lusointernationalbanking-a6c792":{"name":"澳門國際銀行 Banco Luso Internacional","locationSet":{"include":["mo"]},"geometry":["point","vertex"],"matchScore":2,"terms":["banco luso internacional","luso international banking","澳門國際銀行","澳門國際銀行 banco luso internacional"],"fields":["name","brand","{amenity/atm}"],"tags":{"amenity":"atm","brand:wikidata":"Q15934810"},"addTags":{"amenity":"atm","brand":"澳門國際銀行 Banco Luso Internacional","brand:en":"Luso International Banking","brand:pt":"Banco Luso Internacional","brand:wikidata":"Q15934810","brand:zh":"澳門國際銀行","name:en":"Luso International Banking","name:pt":"Banco Luso Internacional","name:zh":"澳門國際銀行","operator":"澳門國際銀行 Banco Luso Internacional","operator:wikidata":"Q15934810"}},"amenity/atm/welllinkbank-a6c792":{"name":"立橋銀行 Well Link Bank","locationSet":{"include":["mo"]},"geometry":["point","vertex"],"matchScore":2,"terms":["banco well link","well link bank","wlb","wlbank","立橋銀行","立橋銀行 well link bank"],"fields":["name","brand","{amenity/atm}"],"tags":{"amenity":"atm","brand:wikidata":"Q117599325"},"addTags":{"amenity":"atm","brand":"立橋銀行 Well Link Bank","brand:en":"Well Link Bank","brand:pt":"Banco Well Link","brand:wikidata":"Q117599325","brand:zh":"立橋銀行","name:en":"Well Link Bank","name:pt":"Banco Well Link","name:zh":"立橋銀行","operator":"立橋銀行 Well Link Bank","operator:wikidata":"Q117599325"}},"amenity/atm/ocbcbank-a6c792":{"name":"華僑銀行 Banco OCBC","locationSet":{"include":["mo"]},"geometry":["point","vertex"],"matchScore":2,"terms":["banco ocbc","banco ocbc weng hang","banco weng hang","ocbc","ocbc bank","whb","wing hang bank","永亨","永亨銀行","華僑","華僑永亨銀行","華僑銀行","華僑銀行 banco ocbc"],"fields":["name","brand","{amenity/atm}"],"tags":{"amenity":"atm","brand:wikidata":"Q837147"},"addTags":{"amenity":"atm","brand":"華僑銀行 Banco OCBC","brand:en":"OCBC Bank","brand:pt":"Banco OCBC","brand:wikidata":"Q837147","brand:zh":"華僑銀行","brand:zh-Hans":"华侨银行","brand:zh-Hant":"華僑銀行","name:en":"OCBC Bank","name:pt":"Banco OCBC","name:zh":"華僑銀行","name:zh-Hans":"华侨银行","name:zh-Hant":"華僑銀行","operator":"華僑銀行 Banco OCBC","operator:wikidata":"Q837147"}},"amenity/atm/hsbc-aa3d3d":{"name":"香港上海滙豐銀行 HSBC","locationSet":{"include":["hk","mo"]},"geometry":["point","vertex"],"matchScore":2,"terms":["hsbc","hsbc hong kong","滙豐","滙豐銀行","香港上海滙豐銀行","香港上海滙豐銀行 hsbc"],"fields":["name","brand","{amenity/atm}"],"tags":{"amenity":"atm","brand:wikidata":"Q190464"},"addTags":{"amenity":"atm","brand":"香港上海滙豐銀行 HSBC","brand:en":"HSBC","brand:wikidata":"Q190464","brand:zh":"香港上海滙豐銀行","brand:zh-Hans":"香港上海汇丰银行","brand:zh-Hant":"香港上海滙豐銀行","name:en":"HSBC","name:zh":"滙豐銀行","name:zh-Hans":"汇丰银行","name:zh-Hant":"滙豐銀行","operator":"香港上海滙豐銀行 HSBC","operator:wikidata":"Q190464"}},"amenity/bank/chinaconstructionbank-fa24a7":{"name":"中國建設銀行 Banco de Construção da China","locationSet":{"include":["mo"]},"geometry":["point","area"],"matchScore":2,"terms":["banco de construção da china","ccb","china construction bank","中國建設銀行","中國建設銀行 banco de construção da china","建行","建設銀行"],"tags":{"amenity":"bank","brand:wikidata":"Q26299"},"addTags":{"amenity":"bank","brand":"中國建設銀行 Banco de Construção da China","brand:en":"China Construction Bank","brand:pt":"Banco de Construção da China","brand:wikidata":"Q26299","brand:zh":"中國建設銀行","brand:zh-Hans":"中国建设银行","brand:zh-Hant":"中國建設銀行","name":"中國建設銀行 Banco de Construção da China","name:en":"China Construction Bank","name:pt":"Banco de Construção da China","name:zh":"中國建設銀行","name:zh-Hans":"中国建设银行","name:zh-Hant":"中國建設銀行"}},"amenity/bank/bankofchina-fa24a7":{"name":"中國銀行","locationSet":{"include":["mo"]},"geometry":["point","area"],"matchScore":2,"terms":["banco da china","bank of china","中國銀行","中行","中銀","中銀澳門"],"tags":{"amenity":"bank","brand:wikidata":"Q790068"},"addTags":{"amenity":"bank","brand":"中國銀行","brand:en":"Bank of China","brand:pt":"Banco da China","brand:wikidata":"Q790068","brand:zh":"中國銀行","brand:zh-Hans":"中国银行","brand:zh-Hant":"中國銀行","name":"中國銀行 Banco da China","name:en":"Bank of China","name:pt":"Banco da China","name:zh":"中國銀行","name:zh-Hans":"中国银行","name:zh-Hant":"中國銀行"}},"amenity/bank/chonghingbank-075cf6":{"name":"創興銀行 Chong Hing Bank","locationSet":{"include":["hk","mo"]},"geometry":["point","area"],"matchScore":2,"terms":["chong hing bank","創興","創興銀行","創興銀行 chong hing bank"],"tags":{"amenity":"bank","brand:wikidata":"Q5104600"},"addTags":{"amenity":"bank","brand":"創興銀行 Chong Hing Bank","brand:en":"Chong Hing Bank","brand:wikidata":"Q5104600","brand:zh":"創興銀行","brand:zh-Hans":"创兴银行","brand:zh-Hant":"創興銀行","name":"創興銀行 Chong Hing Bank","name:en":"Chong Hing Bank","name:zh":"創興銀行","name:zh-Hans":"创兴银行","name:zh-Hant":"創興銀行"}},"amenity/bank/2997e9-fa24a7":{"name":"大西洋銀行 Banco Nacional Ultramarino","locationSet":{"include":["mo"]},"geometry":["point","area"],"matchScore":2,"terms":["banco nacional ultramarino","bnu","大西洋銀行","大西洋銀行 banco nacional ultramarino"],"searchable":false,"tags":{"amenity":"bank","brand:wikidata":"Q806190"},"addTags":{"amenity":"bank","brand":"大西洋銀行 Banco Nacional Ultramarino","brand:pt":"Banco Nacional Ultramarino","brand:wikidata":"Q806190","brand:zh":"大西洋銀行","name":"大西洋銀行 Banco Nacional Ultramarino","name:pt":"Banco Nacional Ultramarino","name:zh":"大西洋銀行"}},"amenity/bank/taifungbank-fa24a7":{"name":"大豐銀行 Banco Tai Fung","locationSet":{"include":["mo"]},"geometry":["point","area"],"matchScore":2,"terms":["banco tai fung","tai fung bank","大豐銀行","大豐銀行 banco tai fung"],"tags":{"amenity":"bank","brand:wikidata":"Q10938051"},"addTags":{"amenity":"bank","brand":"大豐銀行 Banco Tai Fung","brand:en":"Tai Fung Bank","brand:pt":"Banco Tai Fung","brand:wikidata":"Q10938051","brand:zh":"大豐銀行","name":"大豐銀行 Banco Tai Fung","name:en":"Tai Fung Bank","name:pt":"Banco Tai Fung","name:zh":"大豐銀行"}},"amenity/bank/icbc-fa24a7":{"name":"工銀澳門 ICBC","locationSet":{"include":["mo"]},"geometry":["point","area"],"matchScore":2,"terms":["icbc","industrial and commercial bank of china","中國工商銀行","中國工商銀行（澳門）","工商銀行","工行","工銀","工銀澳門"],"tags":{"amenity":"bank","brand:wikidata":"Q26463"},"addTags":{"amenity":"bank","brand":"中國工商銀行","brand:en":"Industrial and Commercial Bank of China","brand:wikidata":"Q26463","brand:zh":"中國工商銀行","brand:zh-Hans":"中国工商银行","brand:zh-Hant":"中國工商銀行","name":"工銀澳門 ICBC","name:en":"ICBC","name:zh":"工銀澳門","name:zh-Hans":"工银澳门","name:zh-Hant":"工銀澳門"}},"amenity/bank/hangsengbank-075cf6":{"name":"恒生銀行 Hang Seng Bank","locationSet":{"include":["hk","mo"]},"geometry":["point","area"],"matchScore":2,"terms":["hang sang bank","hang seng bank","hase","hsb","恆生","恆生銀行","恒生","恒生銀行","恒生銀行 hang seng bank"],"tags":{"amenity":"bank","brand:wikidata":"Q1575470"},"addTags":{"amenity":"bank","brand":"恒生銀行 Hang Seng Bank","brand:en":"Hang Seng Bank","brand:wikidata":"Q1575470","brand:zh":"恒生銀行","brand:zh-Hans":"恒生银行","brand:zh-Hant":"恒生銀行","name":"恒生銀行 Hang Seng Bank","name:en":"Hang Seng Bank","name:zh":"恒生銀行","name:zh-Hans":"恒生银行","name:zh-Hant":"恒生銀行"}},"amenity/bank/dbs-075cf6":{"name":"星展銀行 DBS","locationSet":{"include":["hk","mo"]},"geometry":["point","area"],"matchScore":2,"terms":["dbs","星展銀行","星展銀行 dbs"],"tags":{"amenity":"bank","brand:wikidata":"Q705417"},"addTags":{"amenity":"bank","brand":"星展銀行 DBS","brand:en":"DBS","brand:wikidata":"Q705417","brand:zh":"星展銀行","brand:zh-Hans":"星展银行","brand:zh-Hant":"星展銀行","name":"星展銀行 DBS","name:en":"DBS","name:zh":"星展銀行","name:zh-Hans":"星展银行","name:zh-Hant":"星展銀行"}},"amenity/bank/f9b3fb-fa24a7":{"name":"澳門商業銀行 Banco Comercial de Macau","locationSet":{"include":["mo"]},"geometry":["point","area"],"matchScore":2,"terms":["banco comercial de macau","bcm","澳門商業銀行","澳門商業銀行 banco comercial de macau"],"tags":{"amenity":"bank","brand:wikidata":"Q22099041"},"addTags":{"amenity":"bank","brand":"澳門商業銀行 Banco Comercial de Macau","brand:pt":"Banco Comercial de Macau","brand:wikidata":"Q22099041","brand:zh":"澳門商業銀行","name":"澳門商業銀行 Banco Comercial de Macau","name:pt":"Banco Comercial de Macau","name:zh":"澳門商業銀行"}},"amenity/bank/lusointernationalbanking-fa24a7":{"name":"澳門國際銀行 Banco Luso Internacional","locationSet":{"include":["mo"]},"geometry":["point","area"],"matchScore":2,"terms":["banco luso internacional","luso international banking","澳門國際銀行","澳門國際銀行 banco luso internacional"],"tags":{"amenity":"bank","brand:wikidata":"Q15934810"},"addTags":{"amenity":"bank","brand":"澳門國際銀行 Banco Luso Internacional","brand:en":"Luso International Banking","brand:pt":"Banco Luso Internacional","brand:wikidata":"Q15934810","brand:zh":"澳門國際銀行","name":"澳門國際銀行 Banco Luso Internacional","name:en":"Luso International Banking","name:pt":"Banco Luso Internacional","name:zh":"澳門國際銀行"}},"amenity/bank/welllinkbank-fa24a7":{"name":"立橋銀行 Well Link Bank","locationSet":{"include":["mo"]},"geometry":["point","area"],"matchScore":2,"terms":["banco well link","well link bank","wlb","wlbank","立橋銀行","立橋銀行 well link bank"],"tags":{"amenity":"bank","brand:wikidata":"Q117599325"},"addTags":{"amenity":"bank","brand":"立橋銀行 Well Link Bank","brand:en":"Well Link Bank","brand:pt":"Banco Well Link","brand:wikidata":"Q117599325","brand:zh":"立橋銀行","name":"立橋銀行 Well Link Bank","name:en":"Well Link Bank","name:pt":"Banco Well Link","name:zh":"立橋銀行"}},"amenity/bank/ocbcbank-fa24a7":{"name":"華僑銀行 Banco OCBC","locationSet":{"include":["mo"]},"geometry":["point","area"],"matchScore":2,"terms":["banco ocbc","banco ocbc weng hang","banco weng hang","ocbc","ocbc bank","whb","wing hang bank","永亨","永亨銀行","華僑","華僑永亨銀行","華僑銀行","華僑銀行 banco ocbc"],"tags":{"amenity":"bank","brand:wikidata":"Q837147"},"addTags":{"amenity":"bank","brand":"華僑銀行 Banco OCBC","brand:en":"OCBC Bank","brand:pt":"Banco OCBC","brand:wikidata":"Q837147","brand:zh":"華僑銀行","brand:zh-Hans":"华侨银行","brand:zh-Hant":"華僑銀行","name":"華僑銀行 Banco OCBC","name:en":"OCBC Bank","name:pt":"Banco OCBC","name:zh":"華僑銀行","name:zh-Hans":"华侨银行","name:zh-Hant":"華僑銀行"}},"amenity/bank/hsbc-075cf6":{"name":"香港上海滙豐銀行 HSBC","locationSet":{"include":["hk","mo"]},"geometry":["point","area"],"matchScore":2,"terms":["hsbc","hsbc hong kong","滙豐","滙豐銀行","香港上海滙豐銀行","香港上海滙豐銀行 hsbc"],"tags":{"amenity":"bank","brand:wikidata":"Q190464"},"addTags":{"amenity":"bank","brand":"香港上海滙豐銀行 HSBC","brand:en":"HSBC","brand:wikidata":"Q190464","brand:zh":"香港上海滙豐銀行","brand:zh-Hans":"香港上海汇丰银行","brand:zh-Hant":"香港上海滙豐銀行","name":"滙豐銀行 HSBC","name:en":"HSBC","name:zh":"滙豐銀行","name:zh-Hans":"汇丰银行","name:zh-Hant":"滙豐銀行"}},"amenity/cafe/coffee_shop/947985-b3d618":{"name":"85度C 85°C Bakery Cafe","locationSet":{"include":["hk","mo"]},"geometry":["point","area"],"matchScore":2,"terms":["85°c bakery cafe","85c","85c bakery cafe","85oc","85度c","85度c 85°c bakery cafe"],"reference":{"key":"cuisine","value":"coffee_shop"},"tags":{"amenity":"cafe","brand:wikidata":"Q4644852","cuisine":"coffee_shop"},"addTags":{"amenity":"cafe","brand":"85度C 85°C Bakery Cafe","brand:en":"85°C Bakery Cafe","brand:wikidata":"Q4644852","brand:zh":"85度C","cuisine":"coffee_shop","name":"85度C 85°C Bakery Cafe","name:en":"85°C Bakery Cafe","name:zh":"85度C","takeaway":"yes"}},"amenity/cafe/bubble_tea/thealley-b3d618":{"name":"The Alley","locationSet":{"include":["hk","mo"]},"geometry":["point","area"],"matchScore":2,"terms":["the alley","鹿角巷"],"reference":{"key":"cuisine","value":"bubble_tea"},"tags":{"amenity":"cafe","brand:wikidata":"Q126456355","cuisine":"bubble_tea"},"addTags":{"amenity":"cafe","brand":"The Alley","brand:en":"The Alley","brand:wikidata":"Q126456355","brand:zh":"鹿角巷","cuisine":"bubble_tea","name":"The Alley","name:en":"The Alley","name:zh":"鹿角巷","takeaway":"yes"}},"amenity/cafe/coffee_shop/tomntoms-16c022":{"name":"Tom N Toms","locationSet":{"include":["au","ch","hk","kr","mn","mo","my","ph","sg","th","us"]},"geometry":["point","area"],"matchScore":2,"terms":["tom n toms","탐앤탐스"],"reference":{"key":"cuisine","value":"coffee_shop"},"tags":{"amenity":"cafe","brand:wikidata":"Q18142418","cuisine":"coffee_shop;pretzel;smoothie;tea;bread"},"addTags":{"amenity":"cafe","brand":"Tom N Toms","brand:en":"Tom N Toms","brand:ko":"탐앤탐스","brand:wikidata":"Q18142418","cuisine":"coffee_shop;pretzel;smoothie;tea;bread","name":"Tom N Toms","takeaway":"yes"}},"amenity/cafe/bubble_tea/onezotapioca-783c92":{"name":"丸作食茶","locationSet":{"include":["hk","mo","tw"]},"geometry":["point","area"],"matchScore":2,"terms":["onezo","onezo tapioca","onezo tea","丸作","丸作食茶"],"reference":{"key":"cuisine","value":"bubble_tea"},"tags":{"amenity":"cafe","brand:wikidata":"Q111537052","cuisine":"bubble_tea"},"addTags":{"amenity":"cafe","brand":"丸作食茶","brand:en":"OneZo Tapioca","brand:wikidata":"Q111537052","brand:zh":"丸作食茶","cuisine":"bubble_tea","name":"丸作食茶","name:en":"OneZo Tapioca","name:zh":"丸作食茶","takeaway":"yes"}},"amenity/cafe/bubble_tea/heytea-b3d618":{"name":"喜茶 Heytea","locationSet":{"include":["hk","mo"]},"geometry":["point","area"],"matchScore":2,"terms":["heytea","喜茶","喜茶 heytea"],"reference":{"key":"cuisine","value":"bubble_tea"},"tags":{"amenity":"cafe","brand:wikidata":"Q60875376","cuisine":"bubble_tea"},"addTags":{"amenity":"cafe","brand":"喜茶 Heytea","brand:en":"Heytea","brand:wikidata":"Q60875376","brand:zh":"喜茶","cuisine":"bubble_tea","name":"喜茶 Heytea","name:en":"Heytea","name:zh":"喜茶","takeaway":"yes"}},"amenity/cafe/nuttea-b3d618":{"name":"堅果奶茶 NUTTEA","locationSet":{"include":["hk","mo"]},"geometry":["point","area"],"matchScore":2,"terms":["nuttea","堅果奶茶","堅果奶茶 nuttea"],"tags":{"amenity":"cafe","brand:wikidata":"Q111313216"},"addTags":{"amenity":"cafe","brand":"堅果奶茶 NUTTEA","brand:en":"NUTTEA","brand:wikidata":"Q111313216","brand:zh":"堅果奶茶","brand:zh-Hans":"坚果奶茶","brand:zh-Hant":"堅果奶茶","cuisine":"tea","name":"堅果奶茶 NUTTEA","name:en":"NUTTEA","name:zh":"堅果奶茶","name:zh-Hans":"坚果奶茶","name:zh-Hant":"堅果奶茶","takeaway":"yes"}},"amenity/cafe/coffee_shop/pacificcoffee-b3d618":{"name":"太平洋咖啡 Pacific Coffee","locationSet":{"include":["hk","mo"]},"geometry":["point","area"],"matchScore":2,"terms":["pacific coffee","太平洋咖啡","太平洋咖啡 pacific coffee"],"reference":{"key":"cuisine","value":"coffee_shop"},"tags":{"amenity":"cafe","brand:wikidata":"Q7122398","cuisine":"coffee_shop"},"addTags":{"amenity":"cafe","brand":"太平洋咖啡 Pacific Coffee","brand:en":"Pacific Coffee","brand:wikidata":"Q7122398","brand:zh":"太平洋咖啡","cuisine":"coffee_shop","name":"太平洋咖啡 Pacific Coffee","name:en":"Pacific Coffee","name:zh":"太平洋咖啡","takeaway":"yes"}},"amenity/cafe/coffee_shop/starbucks-b3d618":{"name":"星巴克 Starbucks","locationSet":{"include":["hk","mo"]},"geometry":["point","area"],"matchScore":2,"terms":["starbucks","星巴克","星巴克 starbucks"],"reference":{"key":"cuisine","value":"coffee_shop"},"tags":{"amenity":"cafe","brand:wikidata":"Q37158","cuisine":"coffee_shop"},"addTags":{"amenity":"cafe","brand":"星巴克 Starbucks","brand:en":"Starbucks","brand:wikidata":"Q37158","brand:zh":"星巴克","cuisine":"coffee_shop","name":"星巴克 Starbucks","name:en":"Starbucks","name:zh":"星巴克","takeaway":"yes"}},"amenity/cafe/huilaushan-b3d618":{"name":"許留山 Hui Lau Shan","locationSet":{"include":["hk","mo"]},"geometry":["point","area"],"matchScore":2,"terms":["hui lau shan","許留山","許留山 hui lau shan"],"tags":{"amenity":"cafe","brand:wikidata":"Q5934913"},"addTags":{"amenity":"cafe","brand":"許留山 Hui Lau Shan","brand:en":"Hui Lau Shan","brand:wikidata":"Q5934913","brand:zh":"許留山","cuisine":"asian;dessert","name":"許留山 Hui Lau Shan","name:en":"Hui Lau Shan","name:zh":"許留山","takeaway":"yes"}},"amenity/cafe/bubble_tea/gongcha-b3d618":{"name":"貢茶 Gong Cha","locationSet":{"include":["hk","mo"]},"geometry":["point","area"],"matchScore":2,"terms":["gong cha","貢茶","貢茶 gong cha"],"reference":{"key":"cuisine","value":"bubble_tea"},"tags":{"amenity":"cafe","brand:wikidata":"Q5581670","cuisine":"bubble_tea"},"addTags":{"amenity":"cafe","brand":"貢茶 Gong Cha","brand:en":"Gong Cha","brand:wikidata":"Q5581670","brand:zh":"貢茶","cuisine":"bubble_tea","name":"貢茶 Gong Cha","name:en":"Gong Cha","name:zh":"貢茶","takeaway":"yes"}},"amenity/cinema/broadwaycircuit-03b75b":{"name":"百老匯戲院 Broadway Circuit","locationSet":{"include":["hk","mo"]},"geometry":["point","area"],"matchScore":2,"terms":["broadway circuit","百老匯戲院","百老匯戲院 broadway circuit","百老匯院線"],"fields":["name","brand","{amenity/cinema}"],"tags":{"amenity":"cinema","brand:wikidata":"Q15909979"},"addTags":{"amenity":"cinema","brand":"百老匯戲院 Broadway Circuit","brand:en":"Broadway Circuit","brand:wikidata":"Q15909979","brand:zh":"百老匯戲院","name":"百老匯戲院 Broadway Circuit","name:en":"Broadway Circuit","name:zh":"百老匯戲院"}},"amenity/cinema/emperorcinemas-03b75b":{"name":"英皇戲院 Emperor Cinemas","locationSet":{"include":["hk","mo"]},"geometry":["point","area"],"matchScore":2,"terms":["emperor cinemas","英皇戲院","英皇戲院 emperor cinemas"],"fields":["name","brand","{amenity/cinema}"],"tags":{"amenity":"cinema","brand:wikidata":"Q67934947"},"addTags":{"amenity":"cinema","brand":"英皇戲院 Emperor Cinemas","brand:en":"Emperor Cinemas","brand:wikidata":"Q67934947","brand:zh":"英皇戲院","name":"英皇戲院 Emperor Cinemas","name:en":"Emperor Cinemas","name:zh":"英皇戲院"}},"amenity/fast_food/bafangdumpling-17dd9a":{"name":"八方雲集 Bafang Dumpling","locationSet":{"include":["hk","mo"]},"geometry":["point","area"],"matchScore":2,"terms":["bafang dumpling","八方雲集","八方雲集 bafang dumpling"],"tags":{"amenity":"fast_food","brand:wikidata":"Q28417381"},"addTags":{"amenity":"fast_food","brand":"八方雲集 Bafang Dumpling","brand:en":"Bafang Dumpling","brand:wikidata":"Q28417381","brand:zh":"八方雲集","brand:zh-Hans":"八方云集","brand:zh-Hant":"八方雲集","cuisine":"dumplings","name":"八方雲集 Bafang Dumpling","name:en":"Bafang Dumpling","name:zh":"八方雲集","name:zh-Hans":"八方云集","name:zh-Hant":"八方雲集","takeaway":"yes"}},"amenity/fast_food/yoshinoya-17dd9a":{"name":"吉野家 Yoshinoya","locationSet":{"include":["hk","mo"]},"geometry":["point","area"],"matchScore":2,"terms":["yoshinoya","吉野家","吉野家 yoshinoya"],"tags":{"amenity":"fast_food","brand:wikidata":"Q776272"},"addTags":{"amenity":"fast_food","brand":"吉野家 Yoshinoya","brand:en":"Yoshinoya","brand:ja":"吉野家","brand:wikidata":"Q776272","brand:zh":"吉野家","brand:zh-Hans":"吉野家","brand:zh-Hant":"吉野家","cuisine":"beef_bowl","name":"吉野家 Yoshinoya","name:en":"Yoshinoya","name:ja":"吉野家","name:zh":"吉野家","name:zh-Hans":"吉野家","name:zh-Hant":"吉野家","takeaway":"yes"}},"amenity/fast_food/cafedecoral-17dd9a":{"name":"大家樂 Café de Coral","locationSet":{"include":["hk","mo"]},"geometry":["point","area"],"matchScore":2,"terms":["café de coral","大家樂","大家樂 café de coral"],"tags":{"amenity":"fast_food","brand:wikidata":"Q16241484"},"addTags":{"amenity":"fast_food","brand":"大家樂 Café de Coral","brand:en":"Café de Coral","brand:wikidata":"Q16241484","brand:zh":"大家樂","brand:zh-Hans":"大家乐","brand:zh-Hant":"大家樂","cuisine":"cantonese;western","name":"大家樂 Café de Coral","name:en":"Café de Coral","name:zh":"大家樂","name:zh-Hans":"大家乐","name:zh-Hant":"大家樂","takeaway":"yes"}},"amenity/fast_food/ikearestaurant-17dd9a":{"name":"宜家家居餐廳 IKEA Restaurant","locationSet":{"include":["hk","mo"]},"geometry":["point","area"],"matchScore":2,"terms":["ikea","ikea restaurant","宜家","宜家家居","宜家家居餐廳"],"tags":{"amenity":"fast_food","brand:wikidata":"Q54078"},"addTags":{"amenity":"fast_food","brand":"IKEA","brand:en":"IKEA","brand:wikidata":"Q54078","brand:zh":"宜家家居","cuisine":"swedish","name":"宜家家居餐廳","name:en":"IKEA Restaurant","name:zh":"宜家家居餐廳","takeaway":"yes"}},"amenity/fast_food/burger/dicos-17dd9a":{"name":"德克士 Dicos","locationSet":{"include":["hk","mo"]},"geometry":["point","area"],"matchScore":2,"terms":["dicos","德克士","德克士 dicos"],"reference":{"key":"cuisine","value":"burger"},"tags":{"amenity":"fast_food","brand:wikidata":"Q5273883","cuisine":"burger;chicken"},"addTags":{"amenity":"fast_food","brand":"德克士 Dicos","brand:en":"Dicos","brand:wikidata":"Q5273883","brand:zh":"德克士","cuisine":"burger;chicken","name":"德克士 Dicos","name:en":"Dicos","name:zh":"德克士","takeaway":"yes"}},"amenity/fast_food/burger/mosburger-17dd9a":{"name":"摩斯漢堡 MOS Burger","locationSet":{"include":["hk","mo"]},"geometry":["point","area"],"matchScore":2,"terms":["mos burger","摩斯漢堡","摩斯漢堡 mos burger"],"reference":{"key":"cuisine","value":"burger"},"tags":{"amenity":"fast_food","brand:wikidata":"Q1204169","cuisine":"burger"},"addTags":{"amenity":"fast_food","brand":"摩斯漢堡 MOS Burger","brand:en":"MOS Burger","brand:wikidata":"Q1204169","brand:zh":"摩斯漢堡","brand:zh-Hans":"摩斯汉堡","brand:zh-Hant":"摩斯漢堡","cuisine":"burger","name":"摩斯漢堡 MOS Burger","name:en":"MOS Burger","name:zh":"摩斯漢堡","name:zh-Hans":"摩斯汉堡","name:zh-Hant":"摩斯漢堡","takeaway":"yes"}},"amenity/fast_food/jandgfriedchicken-17dd9a":{"name":"繼光香香雞 J&G Fried Chicken","locationSet":{"include":["hk","mo"]},"geometry":["point","area"],"matchScore":2,"terms":["j&g fried chicken","繼光香香雞"],"tags":{"amenity":"fast_food","brand:wikidata":"Q110256533"},"addTags":{"amenity":"fast_food","brand":"繼光香香雞","brand:en":"J&G Fried Chicken","brand:wikidata":"Q110256533","brand:zh":"繼光香香雞","cuisine":"fried_food","name":"繼光香香雞 J&G Fried Chicken","name:en":"J&G Fried Chicken","name:zh":"繼光香香雞","takeaway":"yes"}},"amenity/fast_food/tsuiwahrestaurant-8b51a0":{"name":"翠華餐廳 Tsui Wah Restaurant","locationSet":{"include":["hk","mo","sg"]},"geometry":["point","area"],"matchScore":2,"terms":["tsui wah restaurant","翠華餐廳","翠華餐廳 tsui wah restaurant"],"tags":{"amenity":"fast_food","brand:wikidata":"Q7850018"},"addTags":{"amenity":"fast_food","brand":"翠華餐廳 Tsui Wah Restaurant","brand:en":"Tsui Wah Restaurant","brand:wikidata":"Q7850018","brand:zh":"翠華餐廳","cuisine":"cantonese","name":"翠華餐廳 Tsui Wah Restaurant","name:en":"Tsui Wah Restaurant","name:zh":"翠華餐廳","takeaway":"yes"}},"amenity/fast_food/chicken/kfc-17dd9a":{"name":"肯德基 KFC","locationSet":{"include":["hk","mo"]},"geometry":["point","area"],"matchScore":2,"terms":["kfc","肯德基","肯德基 kfc"],"reference":{"key":"cuisine","value":"chicken"},"tags":{"amenity":"fast_food","brand:wikidata":"Q524757","cuisine":"chicken"},"addTags":{"amenity":"fast_food","brand":"肯德基 KFC","brand:en":"KFC","brand:wikidata":"Q524757","brand:zh":"肯德基","brand:zh-Hans":"肯德基","brand:zh-Hant":"肯德基","cuisine":"chicken","name":"肯德基 KFC","name:en":"KFC","name:zh":"肯德基","name:zh-Hans":"肯德基","name:zh-Hant":"肯德基","takeaway":"yes"}},"amenity/fast_food/burger/mcdonalds-17dd9a":{"name":"麥當勞 McDonald's","locationSet":{"include":["hk","mo"]},"geometry":["point","area"],"matchScore":2,"terms":["mcdonald's","m記","麥當勞","麥當勞 mcdonald's","麥記"],"reference":{"key":"cuisine","value":"burger"},"tags":{"amenity":"fast_food","brand:wikidata":"Q38076","cuisine":"burger"},"addTags":{"amenity":"fast_food","brand":"麥當勞 McDonald's","brand:en":"McDonald's","brand:wikidata":"Q38076","brand:zh":"麥當勞","brand:zh-Hans":"麦当劳","brand:zh-Hant":"麥當勞","cuisine":"burger","name":"麥當勞 McDonald's","name:en":"McDonald's","name:zh":"麥當勞","name:zh-Hans":"麦当劳","name:zh-Hant":"麥當勞","takeaway":"yes"}},"amenity/fuel/usmile-6d1a35":{"name":"uSmile","locationSet":{"include":["hk","mo"]},"geometry":["point","area"],"matchScore":2,"terms":["usmile"],"fields":["name","brand","{amenity/fuel}"],"tags":{"amenity":"fuel","brand:wikidata":"Q66480830"},"addTags":{"amenity":"fuel","brand":"uSmile","brand:en":"uSmile","brand:wikidata":"Q66480830","brand:zh":"uSmile","name":"uSmile","name:en":"uSmile"}},"amenity/ice_cream/meetfresh-cccbe8":{"name":"鮮芋仙 Meet Fresh","locationSet":{"include":["hk","mo"]},"geometry":["point","area"],"matchScore":2,"terms":["meet fresh","鮮芋仙","鮮芋仙 meet fresh"],"tags":{"amenity":"ice_cream","brand:wikidata":"Q11172707"},"addTags":{"amenity":"ice_cream","brand":"鮮芋仙 Meet Fresh","brand:en":"Meet Fresh","brand:wikidata":"Q11172707","brand:zh":"鮮芋仙","cuisine":"taiwanese","name":"鮮芋仙 Meet Fresh","name:en":"Meet Fresh","name:zh":"鮮芋仙"}},"amenity/parcel_locker/sflocker-482a52":{"name":"順豐自助櫃 EF Locker","locationSet":{"include":["hk","mo"]},"geometry":["point","vertex","area"],"matchScore":2,"terms":["sf express","sf locker","順豐自助櫃","順豐速運","順豐速運 sf express"],"fields":["name","brand","{amenity/parcel_locker}"],"reference":{"key":"amenity","value":"parcel_locker"},"tags":{"amenity":"parcel_locker","brand:wikidata":"Q7390019"},"addTags":{"amenity":"parcel_locker","brand":"順豐速運 SF Express","brand:en":"SF Express","brand:wikidata":"Q7390019","brand:zh":"順豐速運","name":"順豐自助櫃 SF Locker","name:en":"SF Locker","name:zh":"順豐自助櫃","operator":"順豐速運 SF Express","operator:en":"SF Express","operator:wikidata":"Q7390019","operator:zh":"順豐速運","parcel_mail_in":"yes","parcel_pickup":"yes"}},"amenity/pharmacy/beijingtongrentang-ccc53f":{"name":"北京同仁堂 Beijing Tong Ren Tang","locationSet":{"include":["hk","mo"]},"geometry":["point","area"],"matchScore":2,"terms":["beijing tong ren tang","tongrentang","北京同仁堂","北京同仁堂 beijing tong ren tang","同仁堂"],"reference":{"key":"amenity","value":"pharmacy"},"tags":{"amenity":"pharmacy","brand:wikidata":"Q842099"},"addTags":{"amenity":"pharmacy","brand":"北京同仁堂 Beijing Tong Ren Tang","brand:en":"Beijing Tong Ren Tang","brand:wikidata":"Q842099","brand:zh":"北京同仁堂","brand:zh-Hans":"北京同仁堂","brand:zh-Hant":"北京同仁堂","healthcare":"pharmacy","name":"北京同仁堂 Beijing Tong Ren Tang","name:en":"Beijing Tong Ren Tang","name:zh":"北京同仁堂","name:zh-Hans":"北京同仁堂","name:zh-Hant":"北京同仁堂"}},"amenity/restaurant/dintaifung-4a64f1":{"name":"Din Tai Fung","locationSet":{"include":["ae","au","gb","id","jp","kr","mo","my","ph","sg","th","us"]},"geometry":["point","area"],"matchScore":2,"terms":["din tai fung","鼎泰豐"],"tags":{"amenity":"restaurant","brand:wikidata":"Q699142"},"addTags":{"amenity":"restaurant","brand":"Din Tai Fung","brand:en":"Din Tai Fung","brand:wikidata":"Q699142","brand:zh":"鼎泰豐","cuisine":"taiwanese","name":"Din Tai Fung","name:en":"Din Tai Fung","name:zh":"鼎泰豐"}},"amenity/restaurant/pizza/pizzaexpress-ebbd3d":{"name":"PizzaExpress","locationSet":{"include":["ae","cy","es","gb","hk","id","ie","in","kw","mo","ph","sg"]},"geometry":["point","area"],"matchScore":2,"terms":["pizzaexpress"],"reference":{"key":"cuisine","value":"pizza"},"tags":{"amenity":"restaurant","brand:wikidata":"Q662845","cuisine":"pizza"},"addTags":{"amenity":"restaurant","brand":"PizzaExpress","brand:wikidata":"Q662845","cuisine":"pizza","name":"PizzaExpress"}},"amenity/restaurant/ramen/ippudo-8a40ea":{"name":"一風堂","locationSet":{"include":["hk","jp","mo","tw"]},"geometry":["point","area"],"matchScore":2,"terms":["ippudo","一風堂"],"reference":{"key":"cuisine","value":"ramen"},"tags":{"amenity":"restaurant","brand:wikidata":"Q6065417","cuisine":"ramen"},"addTags":{"amenity":"restaurant","brand":"一風堂","brand:en":"Ippudo","brand:ja":"一風堂","brand:wikidata":"Q6065417","brand:zh":"一風堂","cuisine":"ramen","name":"一風堂","name:en":"Ippudo","name:ja":"一風堂","name:zh":"一風堂"}},"amenity/restaurant/pizza/pizzahut-edf541":{"name":"必勝客 Pizza Hut","locationSet":{"include":["hk","mo"]},"geometry":["point","area"],"matchScore":2,"terms":["pizza hut","必勝客","必勝客 pizza hut"],"reference":{"key":"cuisine","value":"pizza"},"tags":{"amenity":"restaurant","brand:wikidata":"Q191615","cuisine":"pizza"},"addTags":{"amenity":"restaurant","brand":"必勝客 Pizza Hut","brand:en":"Pizza Hut","brand:wikidata":"Q191615","brand:zh":"必勝客","brand:zh-Hans":"必胜客","brand:zh-Hant":"必勝客","cuisine":"pizza","name":"必勝客 Pizza Hut","name:en":"Pizza Hut","name:zh":"必勝客","name:zh-Hans":"必胜客","name:zh-Hant":"必勝客"}},"amenity/restaurant/chinese/haidilaohotpot-edf541":{"name":"海底撈火鍋 Haidilao Hot Pot","locationSet":{"include":["hk","mo"]},"geometry":["point","area"],"matchScore":2,"terms":["haidilao hot pot","海底撈","海底撈火鍋","海底撈火鍋 haidilao hot pot"],"reference":{"key":"cuisine","value":"chinese"},"tags":{"amenity":"restaurant","brand:wikidata":"Q5638920","cuisine":"chinese;hot_pot"},"addTags":{"amenity":"restaurant","brand":"海底撈火鍋 Haidilao Hot Pot","brand:en":"Haidilao Hot Pot","brand:wikidata":"Q5638920","brand:zh":"海底撈火鍋","brand:zh-Hans":"海底捞火锅","brand:zh-Hant":"海底撈火鍋","cuisine":"chinese;hot_pot","name":"海底撈火鍋 Haidilao Hot Pot","name:en":"Haidilao Hot Pot","name:zh":"海底撈火鍋","name:zh-Hans":"海底捞火锅","name:zh-Hant":"海底撈火鍋"}},"amenity/social_facility/caritas-c6051e":{"name":"明愛會 Caritas","locationSet":{"include":["hk","mo"]},"geometry":["point","area"],"matchScore":2,"terms":["caritas","明愛會","明愛會 caritas"],"tags":{"amenity":"social_facility","brand:wikidata":"Q533143"},"addTags":{"amenity":"social_facility","brand":"明愛會 Caritas","brand:en":"Caritas","brand:wikidata":"Q533143","brand:zh":"明愛會","name":"明愛會 Caritas","name:en":"Caritas","name:zh":"明愛會"}},"office/estate_agent/century21-295f7a":{"name":"世紀21 Century 21","locationSet":{"include":["hk","mo"]},"geometry":["point","area"],"matchScore":2,"terms":["century 21","世紀21","世紀21 century 21"],"tags":{"brand:wikidata":"Q1054480","office":"estate_agent"},"addTags":{"brand":"世紀21 Century 21","brand:en":"Century 21","brand:wikidata":"Q1054480","brand:zh":"世紀21","name":"世紀21 Century 21","name:en":"Century 21","name:zh":"世紀21","office":"estate_agent"}},"office/estate_agent/centalineproperty-295f7a":{"name":"中原地產 Centaline Property","locationSet":{"include":["hk","mo"]},"geometry":["point","area"],"matchScore":2,"terms":["centaline property","中原地產","中原地產 centaline property"],"tags":{"brand:wikidata":"Q5058993","office":"estate_agent"},"addTags":{"brand":"中原地產 Centaline Property","brand:en":"Centaline Property","brand:wikidata":"Q5058993","brand:zh":"中原地產","name":"中原地產 Centaline Property","name:en":"Centaline Property","name:zh":"中原地產","office":"estate_agent"}},"office/estate_agent/midlandrealty-295f7a":{"name":"美聯物業 Midland Realty","locationSet":{"include":["hk","mo"]},"geometry":["point","area"],"matchScore":2,"terms":["midland realty","美聯物業","美聯物業 midland realty"],"tags":{"brand:wikidata":"Q6842356","office":"estate_agent"},"addTags":{"brand":"美聯物業 Midland Realty","brand:en":"Midland Realty","brand:wikidata":"Q6842356","brand:zh":"美聯物業","name":"美聯物業 Midland Realty","name:en":"Midland Realty","name:zh":"美聯物業","office":"estate_agent"}},"shop/bakery/sainthonorecakeshop-757d2b":{"name":"聖安娜餅屋 Saint Honore Cake Shop","locationSet":{"include":["hk","mo"]},"geometry":["point","area"],"matchScore":2,"terms":["saint honore cake shop","聖安娜餅屋","聖安娜餅屋 saint honore cake shop"],"tags":{"brand:wikidata":"Q7401373","shop":"bakery"},"addTags":{"brand":"聖安娜餅屋 Saint Honore Cake Shop","brand:en":"Saint Honore Cake Shop","brand:wikidata":"Q7401373","brand:zh":"聖安娜餅屋","name":"聖安娜餅屋 Saint Honore Cake Shop","name:en":"Saint Honore Cake Shop","name:zh":"聖安娜餅屋","shop":"bakery"}},"shop/bakery/breadtalk-757d2b":{"name":"麵包新語 BreadTalk","locationSet":{"include":["hk","mo"]},"geometry":["point","area"],"matchScore":2,"terms":["breadtalk","麵包新語","麵包新語 breadtalk"],"tags":{"brand:wikidata":"Q1106640","shop":"bakery"},"addTags":{"brand":"麵包新語 BreadTalk","brand:en":"BreadTalk","brand:wikidata":"Q1106640","brand:zh":"麵包新語","name":"麵包新語 BreadTalk","name:en":"BreadTalk","name:zh":"麵包新語","shop":"bakery"}},"shop/books/eslitebookstore-e5bda4":{"name":"誠品書店 Eslite Bookstore","locationSet":{"include":["hk","mo"]},"geometry":["point","area"],"matchScore":2,"terms":["eslite bookstore","誠品書店","誠品書店 eslite bookstore"],"tags":{"brand:wikidata":"Q391988","shop":"books"},"addTags":{"brand":"誠品書店 Eslite Bookstore","brand:en":"Eslite Bookstore","brand:wikidata":"Q391988","brand:zh":"誠品書店","brand:zh-Hans":"诚品书店","brand:zh-Hant":"誠品書店","name":"誠品書店 Eslite Bookstore","name:en":"Eslite Bookstore","name:zh":"誠品書店","name:zh-Hans":"诚品书店","name:zh-Hant":"誠品書店","shop":"books"}},"shop/chemist/watsons-d89f96":{"name":"屈臣氏 Watsons","locationSet":{"include":["hk","mo"]},"geometry":["point","area"],"matchScore":2,"terms":["watsons","屈臣氏","屈臣氏 watsons"],"tags":{"brand:wikidata":"Q7974785","shop":"chemist"},"addTags":{"brand":"屈臣氏 Watsons","brand:en":"Watsons","brand:wikidata":"Q7974785","brand:zh":"屈臣氏","name":"屈臣氏 Watsons","name:en":"Watsons","name:zh":"屈臣氏","shop":"chemist"}},"shop/chemist/mannings-d89f96":{"name":"萬寧 Mannings","locationSet":{"include":["hk","mo"]},"geometry":["point","area"],"matchScore":2,"terms":["mannings","萬寧","萬寧 mannings"],"tags":{"brand:wikidata":"Q13646560","shop":"chemist"},"addTags":{"amenity":"pharmacy","brand":"萬寧 Mannings","brand:en":"Mannings","brand:wikidata":"Q13646560","brand:zh":"萬寧","brand:zh-Hans":"万宁","brand:zh-Hant":"萬寧","healthcare":"pharmacy","name":"萬寧 Mannings","name:en":"Mannings","name:zh":"萬寧","name:zh-Hans":"万宁","name:zh-Hant":"萬寧","shop":"chemist"}},"shop/clothes/adlib-33ce1a":{"name":"ad-lib","locationSet":{"include":["hk","mo"]},"geometry":["point","area"],"matchScore":2,"terms":["ad-lib"],"tags":{"brand:wikidata":"Q117014226","shop":"clothes"},"addTags":{"brand":"ad-lib","brand:en":"ad-lib","brand:wikidata":"Q117014226","clothes":"men;women","name":"ad-lib","name:en":"ad-lib","shop":"clothes"}},"shop/clothes/bossini-f4691e":{"name":"bossini","locationSet":{"include":["hk","mo","my","sg"]},"geometry":["point","area"],"matchScore":2,"terms":["bossini","堡獅龍"],"tags":{"brand:wikidata":"Q4035334","shop":"clothes"},"addTags":{"brand":"bossini","brand:en":"bossini","brand:wikidata":"Q4035334","brand:zh":"堡獅龍","name":"bossini","name:en":"bossini","name:zh":"堡獅龍","shop":"clothes"}},"shop/clothes/jackwills-75e7ba":{"name":"Jack Wills","locationSet":{"include":["ae","gb","hk","ie","kw","lb","mo","sg","us"]},"geometry":["point","area"],"matchScore":2,"terms":["jack wills"],"tags":{"brand:wikidata":"Q6115814","shop":"clothes"},"addTags":{"brand":"Jack Wills","brand:wikidata":"Q6115814","name":"Jack Wills","shop":"clothes"}},"shop/clothes/giordano-33ce1a":{"name":"佐丹奴 Giordano","locationSet":{"include":["hk","mo"]},"geometry":["point","area"],"matchScore":2,"terms":["giordano","佐丹奴","佐丹奴 giordano"],"tags":{"brand:wikidata":"Q4115012","shop":"clothes"},"addTags":{"brand":"佐丹奴 Giordano","brand:en":"Giordano","brand:wikidata":"Q4115012","brand:zh":"佐丹奴","name":"佐丹奴 Giordano","name:en":"Giordano","name:zh":"佐丹奴","shop":"clothes"}},"shop/convenience/circlek-132595":{"name":"OK便利店 Circle K","locationSet":{"include":["hk","mo"]},"geometry":["point","area"],"matchScore":2,"terms":["circle k","ok便利商店","ok便利店","ok便利店 circle k"],"tags":{"brand:wikidata":"Q3268010","shop":"convenience"},"addTags":{"brand":"OK便利店 Circle K","brand:en":"Circle K","brand:wikidata":"Q3268010","brand:zh":"OK便利店","brand:zh-Hans":"OK便利店","brand:zh-Hant":"OK便利店","name":"OK便利店 Circle K","name:en":"Circle K","name:zh":"OK便利店","name:zh-Hans":"OK便利店","name:zh-Hant":"OK便利店","shop":"convenience"}},"shop/cosmetics/bonjour-03ac43":{"name":"卓悅 Bonjour","locationSet":{"include":["hk","mo"]},"geometry":["point","area"],"matchScore":2,"terms":["bonjour","卓悅","卓悅 bonjour"],"tags":{"brand:wikidata":"Q10906081","shop":"cosmetics"},"addTags":{"brand":"卓悅 Bonjour","brand:en":"Bonjour","brand:wikidata":"Q10906081","brand:zh":"卓悅","name":"卓悅 Bonjour","name:en":"Bonjour","name:zh":"卓悅","shop":"cosmetics"}},"shop/cosmetics/colourmix-03ac43":{"name":"卡萊美 Colourmix","locationSet":{"include":["hk","mo"]},"geometry":["point","area"],"matchScore":2,"terms":["colourmix","卡萊美","卡萊美 colourmix"],"tags":{"brand:wikidata":"Q111494580","shop":"cosmetics"},"addTags":{"brand":"卡萊美 Colourmix","brand:en":"Colourmix","brand:wikidata":"Q111494580","brand:zh":"卡萊美","name":"卡萊美 Colourmix","name:en":"Colourmix","name:zh":"卡萊美","shop":"cosmetics"}},"shop/cosmetics/sasa-03ac43":{"name":"莎莎 Sasa","locationSet":{"include":["hk","mo"]},"geometry":["point","area"],"matchScore":2,"terms":["sasa","莎莎","莎莎 sasa"],"tags":{"brand:wikidata":"Q15910675","shop":"cosmetics"},"addTags":{"brand":"莎莎 Sasa","brand:en":"Sasa","brand:wikidata":"Q15910675","brand:zh":"莎莎","name":"莎莎 Sasa","name:en":"Sasa","name:zh":"莎莎","shop":"cosmetics"}},"shop/department_store/miniso-d07f6f":{"name":"名創優品 MINISO","locationSet":{"include":["hk","mo"]},"geometry":["point","area"],"matchScore":2,"terms":["miniso","名創優品","名創優品 miniso"],"tags":{"brand:wikidata":"Q20732498","shop":"department_store"},"addTags":{"brand":"名創優品 MINISO","brand:en":"MINISO","brand:wikidata":"Q20732498","brand:zh":"名創優品","name":"名創優品 MINISO","name:en":"MINISO","name:zh":"名創優品","shop":"department_store"}},"shop/department_store/muji-d07f6f":{"name":"無印良品 Muji","locationSet":{"include":["hk","mo"]},"geometry":["point","area"],"matchScore":2,"terms":["muji","無印良品","無印良品 muji","良品計画"],"tags":{"brand:wikidata":"Q708789","shop":"department_store"},"addTags":{"brand":"無印良品 Muji","brand:en":"Muji","brand:ja":"無印良品","brand:wikidata":"Q708789","name":"無印良品 Muji","name:en":"Muji","name:ja":"無印良品","shop":"department_store"}},"shop/electronics/fortress-803084":{"name":"豐澤 Fortress","locationSet":{"include":["hk","mo"]},"geometry":["point","area"],"matchScore":2,"terms":["fortress","豐澤","豐澤 fortress"],"tags":{"brand:wikidata":"Q15904138","shop":"electronics"},"addTags":{"brand":"豐澤 Fortress","brand:en":"Fortress","brand:wikidata":"Q15904138","brand:zh":"豐澤","name":"豐澤 Fortress","name:en":"Fortress","name:zh":"豐澤","shop":"electronics"}},"shop/furniture/nitori-a040a8":{"name":"Nitori","locationSet":{"include":["hk","mo","my","sg","us"]},"geometry":["point","area"],"matchScore":2,"terms":["nitori","ニトリ"],"tags":{"brand:wikidata":"Q10801453","shop":"furniture"},"addTags":{"brand":"Nitori","brand:en":"Nitori","brand:ja":"ニトリ","brand:wikidata":"Q10801453","name":"Nitori","name:en":"Nitori","name:ja":"ニトリ","shop":"furniture"}},"shop/furniture/ikea-2365c1":{"name":"宜家家居 IKEA","locationSet":{"include":["hk","mo"]},"geometry":["point","area"],"matchScore":2,"terms":["ikea","宜家","宜家傢俬","宜家家居","宜家家居 ikea"],"tags":{"brand:wikidata":"Q54078","shop":"furniture"},"addTags":{"brand":"宜家家居 IKEA","brand:en":"IKEA","brand:wikidata":"Q54078","brand:zh":"宜家家居","name":"宜家家居 IKEA","name:en":"IKEA","name:zh":"宜家家居","shop":"furniture"}},"shop/herbalist/euyansang-ed4bac":{"name":"余仁生 Eu Yan Sang","locationSet":{"include":["hk","mo"]},"geometry":["point","area"],"matchScore":2,"terms":["eu yan sang","余仁生","余仁生 eu yan sang"],"tags":{"brand:wikidata":"Q4207246","shop":"herbalist"},"addTags":{"brand":"余仁生 Eu Yan Sang","brand:en":"Eu Yan Sang","brand:wikidata":"Q4207246","brand:zh":"余仁生","name":"余仁生 Eu Yan Sang","name:en":"Eu Yan Sang","name:zh":"余仁生","shop":"herbalist"}},"shop/houseware/jhc-067b48":{"name":"日本城 JHC","locationSet":{"include":["hk","mo"]},"geometry":["point","area"],"matchScore":2,"terms":["japan home","japan home centre","jhc","日本城","日本城 jhc"],"tags":{"brand:wikidata":"Q11507765","shop":"houseware"},"addTags":{"brand":"日本城 JHC","brand:en":"JHC","brand:wikidata":"Q11507765","brand:zh":"日本城","name":"日本城 JHC","name:en":"JHC","name:zh":"日本城","shop":"houseware"}},"shop/jewelry/lukfookjewellery-2f2ea0":{"name":"六福珠寶 Lukfook Jewellery","locationSet":{"include":["hk","mo"]},"geometry":["point","area"],"matchScore":2,"terms":["lukfook jewellery","六福","六福珠寶","六福珠寶 lukfook jewellery"],"tags":{"brand:wikidata":"Q10893397","shop":"jewelry"},"addTags":{"brand":"六福珠寶 Lukfook Jewellery","brand:en":"Lukfook Jewellery","brand:wikidata":"Q10893397","brand:zh":"六福珠寶","brand:zh-Hans":"六福珠宝","brand:zh-Hant":"六福珠寶","name":"六福珠寶 Lukfook Jewellery","name:en":"Lukfook Jewellery","name:zh":"六福珠寶","name:zh-Hans":"六福珠宝","name:zh-Hant":"六福珠寶","shop":"jewelry"}},"shop/jewelry/chowtaifook-2f2ea0":{"name":"周大福 Chow Tai Fook","locationSet":{"include":["hk","mo"]},"geometry":["point","area"],"matchScore":2,"terms":["chow tai fook","周大福","周大福 chow tai fook"],"tags":{"brand:wikidata":"Q48880993","shop":"jewelry"},"addTags":{"brand":"周大福 Chow Tai Fook","brand:en":"Chow Tai Fook","brand:wikidata":"Q48880993","brand:zh":"周大福","brand:zh-Hans":"周大福","brand:zh-Hant":"周大福","name":"周大福 Chow Tai Fook","name:en":"Chow Tai Fook","name:zh":"周大福","name:zh-Hans":"周大福","name:zh-Hant":"周大福","shop":"jewelry"}},"shop/jewelry/chowsangsang-2f2ea0":{"name":"周生生 Chow Sang Sang","locationSet":{"include":["hk","mo"]},"geometry":["point","area"],"matchScore":2,"terms":["chow sang sang","周生生","周生生 chow sang sang"],"tags":{"brand:wikidata":"Q10920877","shop":"jewelry"},"addTags":{"brand":"周生生 Chow Sang Sang","brand:en":"Chow Sang Sang","brand:wikidata":"Q10920877","brand:zh":"周生生","brand:zh-Hans":"周生生","brand:zh-Hant":"周生生","name":"周生生 Chow Sang Sang","name:en":"Chow Sang Sang","name:zh":"周生生","name:zh-Hans":"周生生","name:zh-Hant":"周生生","shop":"jewelry"}},"shop/jewelry/laofengxiang-2f2ea0":{"name":"老鳳祥銀樓 Lao Feng Xiang Jewellery","locationSet":{"include":["hk","mo"]},"geometry":["point","area"],"matchScore":2,"terms":["lao feng xiang","lao feng xiang jewellery","老鳳祥","老鳳祥銀樓","老鳳祥銀樓 lao feng xiang jewellery"],"tags":{"brand:wikidata":"Q15910313","shop":"jewelry"},"addTags":{"brand":"老鳳祥銀樓 Lao Feng Xiang Jewellery","brand:en":"Lao Feng Xiang Jewellery","brand:wikidata":"Q15910313","brand:zh":"老鳳祥銀樓","brand:zh-Hans":"老凤祥银楼","brand:zh-Hant":"老鳳祥銀樓","name":"老鳳祥銀樓 Lao Feng Xiang Jewellery","name:en":"Lao Feng Xiang","name:zh":"老鳳祥銀樓","name:zh-Hans":"老凤祥银楼","name:zh-Hant":"老鳳祥銀樓","shop":"jewelry"}},"shop/jewelry/tsl-2f2ea0":{"name":"謝瑞麟珠寶 TSL Jewellery","locationSet":{"include":["hk","mo"]},"geometry":["point","area"],"matchScore":2,"terms":["tsl","謝瑞麟","謝瑞麟珠寶","謝瑞麟珠寶 tsl jewellery"],"tags":{"brand:wikidata":"Q13164530","shop":"jewelry"},"addTags":{"brand":"謝瑞麟珠寶 TSL Jewellery","brand:en":"TSL","brand:wikidata":"Q13164530","brand:zh":"謝瑞麟珠寶","brand:zh-Hans":"谢瑞麟珠宝","brand:zh-Hant":"謝瑞麟珠寶","name":"謝瑞麟 TSL","name:en":"TSL","name:zh-Hans":"谢瑞麟","name:zh-Hant":"謝瑞麟","shop":"jewelry"}},"shop/mobile_phone/mi-5c8743":{"name":"小米 Xiaomi","locationSet":{"include":["hk","mo"]},"geometry":["point","area"],"matchScore":2,"terms":["mi","xiaomi","小米","小米 xiaomi","小米之家"],"tags":{"brand:wikidata":"Q1636958","shop":"mobile_phone"},"addTags":{"brand":"小米 Xiaomi","brand:en":"Xiaomi","brand:wikidata":"Q1636958","brand:zh":"小米","name":"小米之家 Mi","name:en":"Mi","name:zh":"小米之家","shop":"mobile_phone"}},"shop/supermarket/parknshop-3601ab":{"name":"百佳超級市場 PARKnSHOP","locationSet":{"include":["hk","mo"]},"geometry":["point","area"],"matchScore":2,"terms":["a.s. watson group","parknshop","屈臣氏集團","屈臣氏集團 a.s. watson group","百佳","百佳超級市場","百佳超級市場 parknshop"],"tags":{"brand:wikidata":"Q7138619","shop":"supermarket"},"addTags":{"brand":"百佳超級市場 PARKnSHOP","brand:en":"PARKnSHOP","brand:wikidata":"Q7138619","brand:zh":"百佳超級市場","brand:zh-Hans":"百佳超級市場","brand:zh-Hant":"百佳超级市场","name":"百佳 PARKnSHOP","name:en":"PARKnSHOP","name:zh":"百佳","name:zh-Hans":"百佳","name:zh-Hant":"百佳","operator":"屈臣氏集團 A.S. Watson Group","operator:en":"A.S. Watson Group","operator:wikidata":"Q4647401","operator:zh":"屈臣氏集團","operator:zh-Hans":"屈臣氏集团","operator:zh-Hant":"屈臣氏集團","shop":"supermarket"}},"shop/telecommunication/three-063284":{"name":"3","locationSet":{"include":["hk","mo"]},"geometry":["point","area"],"matchScore":2,"terms":["3","three."],"tags":{"brand:wikidata":"Q407009","shop":"telecommunication"},"addTags":{"brand":"3","brand:en":"3","brand:wikidata":"Q407009","name":"Three.","name:en":"Three.","shop":"telecommunication"}},"shop/telecommunication/chinatelecom-37ccdd":{"name":"中國電信 China Telecom","locationSet":{"include":["mo"]},"geometry":["point","area"],"matchScore":2,"terms":["china telecom","中國電信","中國電信 china telecom"],"tags":{"brand:wikidata":"Q1073540","shop":"telecommunication"},"addTags":{"brand":"中國電信 China Telecom","brand:en":"China Telecom","brand:wikidata":"Q1073540","brand:zh":"中國電信","brand:zh-Hans":"中国电信","brand:zh-Hant":"中國電信","name":"中國電信 China Telecom","name:en":"China Telecom","name:zh":"中國電信","name:zh-Hans":"中国电信","name:zh-Hant":"中國電信","shop":"telecommunication"}},"shop/telecommunication/smartone-063284":{"name":"數碼通 SmarTone","locationSet":{"include":["hk","mo"]},"geometry":["point","area"],"matchScore":2,"terms":["smartone","數碼通","數碼通 smartone"],"tags":{"brand:wikidata":"Q11079498","shop":"telecommunication"},"addTags":{"brand":"數碼通 SmarTone","brand:en":"SmarTone","brand:wikidata":"Q11079498","brand:zh":"數碼通","brand:zh-Hans":"数码通","brand:zh-Hant":"數碼通","name":"數碼通 SmarTone","name:en":"SmarTone","name:zh":"數碼通","name:zh-Hans":"数码通","name:zh-Hant":"數碼通","shop":"telecommunication"}},"shop/telecommunication/ctm-37ccdd":{"name":"澳門電訊 CTM","locationSet":{"include":["mo"]},"geometry":["point","area"],"matchScore":2,"terms":["ctm","澳門電訊","澳門電訊 ctm"],"tags":{"brand:wikidata":"Q2990317","shop":"telecommunication"},"addTags":{"brand":"澳門電訊 CTM","brand:en":"CTM","brand:pt":"CTM","brand:wikidata":"Q2990317","brand:zh":"澳門電訊","brand:zh-Hans":"澳门电讯","brand:zh-Hant":"澳門電訊","name":"澳門電訊 CTM","name:en":"CTM","name:pt":"CTM","name:zh":"澳門電訊","name:zh-Hans":"澳门电讯","name:zh-Hant":"澳門電訊","shop":"telecommunication"}},"shop/toys/toysrus-3ab846":{"name":"玩具反斗城 Toys R Us","locationSet":{"include":["hk","mo"]},"geometry":["point","area"],"matchScore":2,"terms":["toys r us","玩具反斗城","玩具反斗城 toys r us"],"searchable":false,"tags":{"brand:wikidata":"Q696334","shop":"toys"},"addTags":{"brand":"玩具反斗城 Toys R Us","brand:en":"Toys R Us","brand:wikidata":"Q696334","brand:zh":"玩具反斗城","name":"玩具反斗城 Toys R Us","name:en":"Toys R Us","name:zh":"玩具反斗城","shop":"toys"}},"shop/variety_store/miniso-264ade":{"name":"名創優品 Miniso","locationSet":{"include":["hk","mo"]},"geometry":["point","area"],"matchScore":2,"terms":["miniso","名創優品","名創優品 miniso"],"tags":{"brand:wikidata":"Q20732498","shop":"variety_store"},"addTags":{"brand":"名創優品 Miniso","brand:en":"Miniso","brand:wikidata":"Q20732498","brand:zh":"名創優品","brand:zh-Hans":"名创优品","brand:zh-Hant":"名創優品","name":"名創優品 Miniso","name:en":"Miniso","name:zh":"名創優品","name:zh-Hans":"名创优品","name:zh-Hant":"名創優品","shop":"variety_store"}},"tourism/hotel/mandarinorientalhotel-6fa074":{"name":"文華東方酒店集團 Mandarin Oriental Hotel","locationSet":{"include":["hk","mo"]},"geometry":["point","area"],"matchScore":2,"terms":["mandarin oriental hotel","文華東方酒店集團","文華東方酒店集團 mandarin oriental hotel"],"fields":["name","brand","{tourism/hotel}"],"tags":{"brand:wikidata":"Q1236521","tourism":"hotel"},"addTags":{"brand":"文華東方酒店集團 Mandarin Oriental Hotel","brand:en":"Mandarin Oriental Hotel","brand:wikidata":"Q1236521","brand:zh":"文華東方酒店集團","tourism":"hotel"}},"amenity/fire_station/macaofireservicesbureau-2187d2":{"name":"澳門消防局 Corpo de Bombeiros de Macau","locationSet":{"include":["mo"]},"geometry":["point","area"],"matchScore":2,"terms":["corpo de bombeiros de macau","macao fire services bureau","澳門消防局","澳門消防局 corpo de bombeiros de macau"],"tags":{"amenity":"fire_station","operator:wikidata":"Q3133076"},"addTags":{"amenity":"fire_station","operator":"澳門消防局 Corpo de Bombeiros de Macau","operator:en":"Macao Fire Services Bureau","operator:pt":"Corpo de Bombeiros de Macau","operator:short:en":"FSM","operator:short:pt":"CB","operator:wikidata":"Q3133076","operator:zh":"澳門消防局"}},"amenity/police/publicsecuritypoliceforce-ff7137":{"name":"治安警察局 Corpo de Polícia de Segurança Pública","locationSet":{"include":["mo"]},"geometry":["point","area"],"matchScore":2,"terms":["corpo de polícia de segurança pública","cpsp","public security police force","治安警察局","治安警察局 corpo de polícia de segurança pública"],"tags":{"amenity":"police","operator:wikidata":"Q16926796"},"addTags":{"amenity":"police","operator":"治安警察局 Corpo de Polícia de Segurança Pública","operator:en":"Public Security Police Force","operator:pt":"Corpo de Polícia de Segurança Pública","operator:short":"CPSP","operator:wikidata":"Q16926796","operator:zh":"治安警察局"}},"amenity/post_box/ctt-e54f67":{"name":"CTT (Macau)","locationSet":{"include":["mo"]},"geometry":["point","vertex"],"matchScore":2,"terms":["ctt"],"tags":{"amenity":"post_box","operator:wikidata":"Q909429"},"addTags":{"amenity":"post_box","operator":"CTT","operator:wikidata":"Q909429"}},"amenity/post_office/ctt-13f722":{"name":"CTT (Macau)","locationSet":{"include":["mo"]},"geometry":["point","area"],"matchScore":2,"terms":["ctt"],"fields":["name","operator","{amenity/post_office}"],"tags":{"amenity":"post_office","operator:wikidata":"Q909429"},"addTags":{"amenity":"post_office","operator":"CTT","operator:wikidata":"Q909429"}},"man_made/surveillance/dsat-3810f7":{"name":"DSAT","locationSet":{"include":["mo"]},"geometry":["point","vertex"],"matchScore":2,"terms":["dsat"],"tags":{"man_made":"surveillance","operator:wikidata":"Q3133069"},"addTags":{"man_made":"surveillance","operator":"DSAT","operator:wikidata":"Q3133069"}},"power/substation/e30df9-9f60fb":{"name":"澳門電力股份有限公司 Companhia de Electricidade de Macau","locationSet":{"include":["mo"]},"geometry":["area","point"],"matchScore":2,"terms":["companhia de electricidade de macau","澳門電力股份有限公司","澳門電力股份有限公司 companhia de electricidade de macau","澳電 cem"],"tags":{"operator:wikidata":"Q5010269","power":"substation"},"addTags":{"operator":"澳門電力股份有限公司 Companhia de Electricidade de Macau","operator:pt":"Companhia de Electricidade de Macau","operator:short":"澳電 CEM","operator:short:pt":"CEM","operator:short:zh":"澳電","operator:short:zh-Hans":"澳电","operator:short:zh-Hant":"澳電","operator:wikidata":"Q5010269","operator:zh":"澳門電力股份有限公司","operator:zh-Hans":"澳门电力股份有限公司","operator:zh-Hant":"澳門電力股份有限公司","power":"substation"}},"power/transformer/e30df9-6b1c5a":{"name":"澳門電力股份有限公司 Companhia de Electricidade de Macau","locationSet":{"include":["mo"]},"geometry":["point","vertex"],"matchScore":2,"terms":["companhia de electricidade de macau","澳門電力股份有限公司","澳門電力股份有限公司 companhia de electricidade de macau","澳電 cem"],"tags":{"operator:wikidata":"Q5010269","power":"transformer"},"addTags":{"operator":"澳門電力股份有限公司 Companhia de Electricidade de Macau","operator:pt":"Companhia de Electricidade de Macau","operator:short":"澳電 CEM","operator:short:pt":"CEM","operator:short:zh":"澳電","operator:short:zh-Hans":"澳电","operator:short:zh-Hant":"澳電","operator:wikidata":"Q5010269","operator:zh":"澳門電力股份有限公司","operator:zh-Hans":"澳门电力股份有限公司","operator:zh-Hant":"澳門電力股份有限公司","power":"transformer"}},"public_transport/station_subway/macaulightrailtransit-97498b":{"name":"澳門輕軌","locationSet":{"include":["mo"]},"geometry":["point","area"],"matchScore":2,"terms":["macau light rail transit","metro ligeiro de macau","mtr corporation","澳門輕軌","澳門輕軌 metro ligeiro de macau","香港鐵路有限公司","香港鐵路有限公司 mtr corporation"],"reference":{"key":"station","value":"subway"},"tags":{"network:wikidata":"Q866024","public_transport":"station","subway":"yes"},"addTags":{"network":"澳門輕軌 Metro Ligeiro de Macau","network:en":"Macau Light Rail Transit","network:pt":"Metro Ligeiro de Macau","network:wikidata":"Q866024","network:zh":"澳門輕軌","network:zh-Hans":"澳门轻轨","network:zh-Hant":"澳門輕軌","operator":"香港鐵路有限公司 MTR Corporation","operator:en":"MTR Corporation","operator:wikidata":"Q1479375","operator:zh":"香港鐵路有限公司","operator:zh-Hans":"香港铁路有限公司","operator:zh-Hant":"香港鐵路有限公司","public_transport":"station","railway":"station","station":"subway","subway":"yes"}},"type/route/subway/macaulightrailtransit-c1c777":{"name":"澳門輕軌","locationSet":{"include":["mo"]},"geometry":["relation"],"matchScore":2,"terms":["macau light rail transit","metro ligeiro de macau","mtr corporation","澳門輕軌","澳門輕軌 metro ligeiro de macau","香港鐵路有限公司","香港鐵路有限公司 mtr corporation"],"reference":{"key":"route","value":"subway"},"tags":{"network:wikidata":"Q866024","route":"subway","type":"route"},"addTags":{"network":"澳門輕軌 Metro Ligeiro de Macau","network:en":"Macau Light Rail Transit","network:pt":"Metro Ligeiro de Macau","network:wikidata":"Q866024","network:zh":"澳門輕軌","network:zh-Hans":"澳门轻轨","network:zh-Hant":"澳門輕軌","operator":"香港鐵路有限公司 MTR Corporation","operator:en":"MTR Corporation","operator:wikidata":"Q1479375","operator:zh":"香港鐵路有限公司","operator:zh-Hans":"香港铁路有限公司","operator:zh-Hant":"香港鐵路有限公司","route":"subway","type":"route"}}}