{"amenity/atm/cadencebank-4b4e36":{"name":"Cadence Bank","locationSet":{"include":["us-al","us-ar","us-fl","us-ga","us-il","us-la","us-ms","us-tn","us-tx"]},"geometry":["point","vertex"],"matchScore":2,"terms":["bankcorpsouth","bankcorpsouth bank","cadence bank"],"fields":["name","brand","{amenity/atm}"],"tags":{"amenity":"atm","brand:wikidata":"Q4854138"},"addTags":{"amenity":"atm","brand":"Cadence Bank","brand:wikidata":"Q4854138","operator":"Cadence Bank","operator:wikidata":"Q4854138"}},"amenity/atm/firstsecuritybank-0e6416":{"name":"First Security Bank (Arkansas)","locationSet":{"include":["us-ar"]},"geometry":["point","vertex"],"matchScore":2,"terms":["first security bank"],"fields":["name","brand","{amenity/atm}"],"tags":{"amenity":"atm","brand:wikidata":"Q5453784"},"addTags":{"amenity":"atm","brand":"First Security Bank","brand:wikidata":"Q5453784","operator":"First Security Bank","operator:wikidata":"Q5453784"}},"amenity/atm/southernbank-39c83a":{"name":"Southern Bank (Midwest USA)","locationSet":{"include":["us-ar","us-il","us-ks","us-mo"]},"geometry":["point","vertex"],"matchScore":2,"terms":["southern bank"],"fields":["name","brand","{amenity/atm}"],"tags":{"amenity":"atm","brand:wikidata":"Q130551561"},"addTags":{"amenity":"atm","brand":"Southern Bank","brand:wikidata":"Q130551561","operator":"Southern Bank","operator:wikidata":"Q130551561"}},"amenity/atm/unitedfederalcreditunion-d941c3":{"name":"United Federal Credit Union","locationSet":{"include":["us-ar","us-in","us-mi","us-nc","us-nv","us-oh"]},"geometry":["point","vertex"],"matchScore":2,"terms":["united federal credit union"],"fields":["name","brand","{amenity/atm}"],"tags":{"amenity":"atm","brand:wikidata":"Q7887758"},"addTags":{"amenity":"atm","brand":"United Federal Credit Union","brand:wikidata":"Q7887758","operator":"United Federal Credit Union","operator:wikidata":"Q7887758"}},"amenity/bank/cadencebank-e05e09":{"name":"Cadence Bank","locationSet":{"include":["us-al","us-ar","us-fl","us-ga","us-il","us-la","us-ms","us-tn","us-tx"]},"geometry":["point","area"],"matchScore":2,"terms":["bankcorpsouth","bankcorpsouth bank","cadence bank"],"tags":{"amenity":"bank","brand:wikidata":"Q4854138"},"addTags":{"amenity":"bank","brand":"Cadence Bank","brand:wikidata":"Q4854138","name":"Cadence Bank"}},"amenity/bank/firstsecuritybank-76df1a":{"name":"First Security Bank (Arkansas)","locationSet":{"include":["us-ar"]},"geometry":["point","area"],"matchScore":2,"terms":["first security bank"],"tags":{"amenity":"bank","brand:wikidata":"Q5453784"},"addTags":{"amenity":"bank","brand":"First Security Bank","brand:wikidata":"Q5453784","name":"First Security Bank"}},"amenity/bank/southernbank-c8bf03":{"name":"Southern Bank (Midwest USA)","locationSet":{"include":["us-ar","us-il","us-ks","us-mo"]},"geometry":["point","area"],"matchScore":2,"terms":["southern bank"],"tags":{"amenity":"bank","brand:wikidata":"Q130551561"},"addTags":{"amenity":"bank","brand":"Southern Bank","brand:wikidata":"Q130551561","name":"Southern Bank"}},"amenity/bank/unitedfederalcreditunion-2e0d3f":{"name":"United Federal Credit Union","locationSet":{"include":["us-ar","us-in","us-mi","us-nc","us-nv","us-oh"]},"geometry":["point","area"],"matchScore":2,"terms":["united federal credit union"],"tags":{"amenity":"bank","brand:wikidata":"Q7887758"},"addTags":{"amenity":"bank","brand":"United Federal Credit Union","brand:wikidata":"Q7887758","name":"United Federal Credit Union"}},"amenity/fast_food/chicken/chickenexpress-aef212":{"name":"Chicken Express","locationSet":{"include":["us-ar","us-la","us-ok","us-tx"]},"geometry":["point","area"],"matchScore":2,"terms":["chicken express"],"reference":{"key":"cuisine","value":"chicken"},"tags":{"amenity":"fast_food","brand:wikidata":"Q5096235","cuisine":"chicken"},"addTags":{"amenity":"fast_food","brand":"Chicken Express","brand:wikidata":"Q5096235","cuisine":"chicken","name":"Chicken Express","takeaway":"yes"}},"amenity/fast_food/donut/duckdonuts-6333a9":{"name":"Duck Donuts","locationSet":{"include":["ca-on","eg","sa","us-ar","us-az","us-ca","us-co","us-fl","us-ga","us-id","us-il","us-ks","us-ky","us-md","us-mi","us-mn","us-mo","us-nc","us-nj","us-ny","us-oh","us-pa","us-sc","us-tn","us-tx","us-ut","us-va"]},"geometry":["point","area"],"matchScore":2,"terms":["duck donuts","duck doughnuts"],"reference":{"key":"cuisine","value":"donut"},"tags":{"amenity":"fast_food","brand:wikidata":"Q54958282","cuisine":"donut"},"addTags":{"amenity":"fast_food","brand":"Duck Donuts","brand:wikidata":"Q54958282","cuisine":"donut","name":"Duck Donuts","takeaway":"yes"}},"shop/cannabis/zenleaf-65d11e":{"name":"Zen Leaf","locationSet":{"include":["us-ar","us-az","us-il","us-ma","us-md","us-mi","us-nj","us-nv","us-oh","us-pa"]},"geometry":["point","area"],"matchScore":2,"terms":["zen leaf"],"tags":{"brand:wikidata":"Q108911834","shop":"cannabis"},"addTags":{"brand":"Zen Leaf","brand:wikidata":"Q108911834","name":"Zen Leaf","shop":"cannabis"}},"shop/convenience/bigred-087ec0":{"name":"Big Red Stores","locationSet":{"include":["us-ar"]},"geometry":["point","area"],"matchScore":2,"terms":["big red stores"],"tags":{"brand:wikidata":"Q109648675","shop":"convenience"},"addTags":{"brand":"Big Red Stores","brand:wikidata":"Q109648675","name":"Big Red","shop":"convenience"}},"amenity/clinic/mercy-0636e2":{"name":"Mercy","locationSet":{"include":["us-ar","us-mo","us-ok"]},"geometry":["point","area"],"matchScore":2,"terms":["mercy"],"fields":["name","operator","{amenity/clinic}"],"reference":{"key":"amenity","value":"clinic"},"tags":{"amenity":"clinic","operator:wikidata":"Q19896177"},"addTags":{"amenity":"clinic","healthcare":"clinic","operator":"Mercy","operator:type":"private","operator:wikidata":"Q19896177"}},"amenity/prison/arkansasdepartmentofcorrections-079086":{"name":"Arkansas Department of Corrections","locationSet":{"include":["us-ar"]},"geometry":["area","point"],"matchScore":2,"terms":["adc","arkansas department of correction","arkansas department of corrections"],"fields":["name","operator","{amenity/prison}"],"tags":{"amenity":"prison","operator:wikidata":"Q4791765"},"addTags":{"amenity":"prison","operator":"Arkansas Department of Corrections","operator:type":"government","operator:wikidata":"Q4791765"}},"amenity/school/fayettevillepublicschools-c3d23c":{"name":"Fayetteville Public Schools","locationSet":{"include":["us-ar"]},"geometry":["area","point"],"matchScore":2,"terms":["fayetteville public schools","fps"],"tags":{"amenity":"school","operator:wikidata":"Q5439061"},"addTags":{"amenity":"school","operator":"Fayetteville Public Schools","operator:short":"FPS","operator:type":"public","operator:wikidata":"Q5439061"}},"amenity/school/littlerockschooldistrict-c3d23c":{"name":"Little Rock School District","locationSet":{"include":["us-ar"]},"geometry":["area","point"],"matchScore":2,"terms":["little rock school district"],"tags":{"amenity":"school","operator:wikidata":"Q6651765"},"addTags":{"amenity":"school","operator":"Little Rock School District","operator:type":"public","operator:wikidata":"Q6651765"}},"amenity/school/springdalepublicschools-c3d23c":{"name":"Springdale Public Schools (Arkansas)","locationSet":{"include":["us-ar"]},"geometry":["area","point"],"matchScore":2,"terms":["springdale public schools","sps"],"tags":{"amenity":"school","operator:wikidata":"Q7580851"},"addTags":{"amenity":"school","operator":"Springdale Public Schools","operator:short":"SPS","operator:type":"public","operator:wikidata":"Q7580851"}},"leisure/nature_reserve/arkansasstateparks-0cc157":{"name":"Arkansas State Parks","locationSet":{"include":["us-ar"]},"geometry":["area","point"],"matchScore":2,"terms":["arkansas state parks"],"tags":{"leisure":"nature_reserve","operator:wikidata":"Q109319503"},"addTags":{"leisure":"nature_reserve","operator":"Arkansas State Parks","operator:type":"government","operator:wikidata":"Q109319503"}},"leisure/nature_reserve/cityoffayetteville-0cc157":{"name":"City of Fayetteville (Arkansas)","locationSet":{"include":["us-ar"]},"geometry":["area","point"],"matchScore":2,"terms":["city of fayetteville"],"tags":{"leisure":"nature_reserve","operator:wikidata":"Q219526"},"addTags":{"leisure":"nature_reserve","operator":"City of Fayetteville","operator:type":"government","operator:wikidata":"Q219526"}},"leisure/park/arkansasstateparks-2e75ab":{"name":"Arkansas State Parks","locationSet":{"include":["us-ar"]},"geometry":["area","point"],"matchScore":2,"terms":["arkansas state parks"],"tags":{"leisure":"park","operator:wikidata":"Q109319503"},"addTags":{"leisure":"park","operator":"Arkansas State Parks","operator:type":"government","operator:wikidata":"Q109319503"}},"leisure/park/cityoffayetteville-2e75ab":{"name":"City of Fayetteville (Arkansas)","locationSet":{"include":["us-ar"]},"geometry":["area","point"],"matchScore":2,"terms":["city of fayetteville"],"tags":{"leisure":"park","operator:wikidata":"Q219526"},"addTags":{"leisure":"park","operator":"City of Fayetteville","operator:type":"government","operator:wikidata":"Q219526"}},"man_made/pipeline/meritenergycompany-ccd82f":{"name":"Merit Energy Company","locationSet":{"include":["us-ar","us-tx"]},"geometry":["line"],"matchScore":2,"terms":["merit energy company"],"tags":{"man_made":"pipeline","operator:wikidata":"Q6819524"},"addTags":{"man_made":"pipeline","operator":"Merit Energy Company","operator:wikidata":"Q6819524"}},"man_made/pipeline/townofgillham-251ea2":{"name":"Town of Gillham","locationSet":{"include":["us-ar"]},"geometry":["line"],"matchScore":2,"terms":["town of gillham"],"tags":{"man_made":"pipeline","operator:wikidata":"Q2082067"},"addTags":{"man_made":"pipeline","operator":"Town of Gillham","operator:wikidata":"Q2082067"}},"pipeline/substation/meritenergycompany-afab9c":{"name":"Merit Energy Company","locationSet":{"include":["us-ar","us-tx"]},"geometry":["area","point"],"matchScore":2,"terms":["merit energy company"],"tags":{"operator:wikidata":"Q6819524","pipeline":"substation"},"addTags":{"operator":"Merit Energy Company","operator:wikidata":"Q6819524","pipeline":"substation"}},"pipeline/substation/townofgillham-e4be4f":{"name":"Town of Gillham","locationSet":{"include":["us-ar"]},"geometry":["area","point"],"matchScore":2,"terms":["town of gillham"],"tags":{"operator:wikidata":"Q2082067","pipeline":"substation"},"addTags":{"operator":"Town of Gillham","operator:wikidata":"Q2082067","pipeline":"substation"}},"power/generator/entergylouisiana-35de23":{"name":"Entergy Louisiana","locationSet":{"include":["us-ar","us-la"]},"geometry":["point","vertex","area"],"matchScore":2,"terms":["entergy","entergy louisiana"],"tags":{"operator:wikidata":"Q87759318","power":"generator"},"addTags":{"operator":"Entergy Louisiana","operator:wikidata":"Q87759318","power":"generator"}},"power/generator/oklahomagasandelectric-7551be":{"name":"Oklahoma Gas & Electric","locationSet":{"include":["us-ar","us-ok"]},"geometry":["point","vertex","area"],"matchScore":2,"terms":["og+e","oklahoma gas & electric"],"tags":{"operator:wikidata":"Q2007484","power":"generator"},"addTags":{"operator":"Oklahoma Gas & Electric","operator:short":"OG+E","operator:wikidata":"Q2007484","power":"generator"}},"power/line/arkansaselectriccooperativecorporation-527b39":{"name":"Arkansas Electric Cooperative Corporation","locationSet":{"include":["us-ar"]},"geometry":["line"],"matchScore":2,"terms":["arkansas electric cooperative corporation"],"tags":{"operator:wikidata":"Q16161271","power":"line"},"addTags":{"operator":"Arkansas Electric Cooperative Corporation","operator:wikidata":"Q16161271","power":"line"}},"power/line/arkansasvalleyelectriccooperative-527b39":{"name":"Arkansas Valley Electric Cooperative","locationSet":{"include":["us-ar"]},"geometry":["line"],"matchScore":2,"terms":["arkansas valley electric cooperative"],"tags":{"operator:wikidata":"Q4791898","power":"line"},"addTags":{"operator":"Arkansas Valley Electric Cooperative","operator:wikidata":"Q4791898","power":"line"}},"power/line/carrollelectriccooperative-3a58f1":{"name":"Carroll Electric Cooperative","locationSet":{"include":["us-ar","us-mo"]},"geometry":["line"],"matchScore":2,"terms":["carroll electric cooperative","carroll electric cooperative corporation"],"tags":{"operator:wikidata":"Q5046558","power":"line"},"addTags":{"operator":"Carroll Electric Cooperative","operator:wikidata":"Q5046558","power":"line"}},"power/line/entergyarkansas-527b39":{"name":"Entergy Arkansas","locationSet":{"include":["us-ar"]},"geometry":["line"],"matchScore":2,"terms":["entergy","entergy arkansas"],"tags":{"operator:wikidata":"Q130226450","power":"line"},"addTags":{"operator":"Entergy Arkansas","operator:wikidata":"Q130226450","power":"line"}},"power/line/entergylouisiana-c5977e":{"name":"Entergy Louisiana","locationSet":{"include":["us-ar","us-la"]},"geometry":["line"],"matchScore":2,"terms":["entergy","entergy louisiana"],"tags":{"operator:wikidata":"Q87759318","power":"line"},"addTags":{"operator":"Entergy Louisiana","operator:wikidata":"Q87759318","power":"line"}},"power/line/grandriverdamauthority-67f39c":{"name":"Grand River Dam Authority","locationSet":{"include":["us-ar","us-ok"]},"geometry":["line"],"matchScore":2,"terms":["grand river dam authority","grda"],"tags":{"operator:wikidata":"Q5595045","power":"line"},"addTags":{"operator":"Grand River Dam Authority","operator:short":"GRDA","operator:wikidata":"Q5595045","power":"line"}},"power/line/jonesborocitywaterandlight-527b39":{"name":"Jonesboro City Water and Light","locationSet":{"include":["us-ar"]},"geometry":["line"],"matchScore":2,"terms":["jonesboro city water and light"],"tags":{"operator:wikidata":"Q130233065","power":"line"},"addTags":{"operator":"Jonesboro City Water and Light","operator:wikidata":"Q130233065","power":"line"}},"power/line/northarkansaselectriccooperative-527b39":{"name":"North Arkansas Electric Cooperative","locationSet":{"include":["us-ar"]},"geometry":["line"],"matchScore":2,"terms":["north arkansas electric cooperative"],"tags":{"operator:wikidata":"Q7053959","power":"line"},"addTags":{"operator":"North Arkansas Electric Cooperative","operator:wikidata":"Q7053959","power":"line"}},"power/line/oklahomagasandelectric-67f39c":{"name":"Oklahoma Gas & Electric","locationSet":{"include":["us-ar","us-ok"]},"geometry":["line"],"matchScore":2,"terms":["og+e","oklahoma gas & electric"],"tags":{"operator:wikidata":"Q2007484","power":"line"},"addTags":{"operator":"Oklahoma Gas & Electric","operator:short":"OG+E","operator:wikidata":"Q2007484","power":"line"}},"power/line/ozarkselectriccooperative-67f39c":{"name":"Ozarks Electric Cooperative","locationSet":{"include":["us-ar","us-ok"]},"geometry":["line"],"matchScore":2,"terms":["ozarks electric cooperative","ozarks electric cooperative corporation"],"tags":{"operator:wikidata":"Q7116526","power":"line"},"addTags":{"operator":"Ozarks Electric Cooperative","operator:wikidata":"Q7116526","power":"line"}},"power/line/southwestarkansaselectriccooperative-527b39":{"name":"Southwest Arkansas Electric Cooperative","locationSet":{"include":["us-ar"]},"geometry":["line"],"matchScore":2,"terms":["southwest arkansas electric cooperative"],"tags":{"operator:wikidata":"Q130232517","power":"line"},"addTags":{"operator":"Southwest Arkansas Electric Cooperative","operator:wikidata":"Q130232517","power":"line"}},"power/line/southwesternpoweradministration-a65d99":{"name":"Southwestern Power Administration","locationSet":{"include":["us-ar","us-mo","us-ok"]},"geometry":["line"],"matchScore":2,"terms":["southwestern power administration"],"tags":{"operator:wikidata":"Q7571440","power":"line"},"addTags":{"operator":"Southwestern Power Administration","operator:wikidata":"Q7571440","power":"line"}},"power/line/southwesternelectricpowercompany-43998f":{"name":"SWEPCO","locationSet":{"include":["us-ar","us-la","us-tx"]},"geometry":["line"],"matchScore":2,"terms":["southwestern electric power company","swepco"],"tags":{"operator:wikidata":"Q109016018","power":"line"},"addTags":{"operator":"Southwestern Electric Power Company","operator:short":"SWEPCO","operator:wikidata":"Q109016018","power":"line"}},"power/minor_line/arkansaselectriccooperativecorporation-20ede4":{"name":"Arkansas Electric Cooperative Corporation","locationSet":{"include":["us-ar"]},"geometry":["line"],"matchScore":2,"terms":["arkansas electric cooperative corporation"],"tags":{"operator:wikidata":"Q16161271","power":"minor_line"},"addTags":{"operator":"Arkansas Electric Cooperative Corporation","operator:wikidata":"Q16161271","power":"minor_line"}},"power/minor_line/arkansasvalleyelectriccooperative-20ede4":{"name":"Arkansas Valley Electric Cooperative","locationSet":{"include":["us-ar"]},"geometry":["line"],"matchScore":2,"terms":["arkansas valley electric cooperative"],"tags":{"operator:wikidata":"Q4791898","power":"minor_line"},"addTags":{"operator":"Arkansas Valley Electric Cooperative","operator:wikidata":"Q4791898","power":"minor_line"}},"power/minor_line/carrollelectriccooperative-61c600":{"name":"Carroll Electric Cooperative","locationSet":{"include":["us-ar","us-mo"]},"geometry":["line"],"matchScore":2,"terms":["carroll electric cooperative","carroll electric cooperative corporation"],"tags":{"operator:wikidata":"Q5046558","power":"minor_line"},"addTags":{"operator":"Carroll Electric Cooperative","operator:wikidata":"Q5046558","power":"minor_line"}},"power/minor_line/entergyarkansas-20ede4":{"name":"Entergy Arkansas","locationSet":{"include":["us-ar"]},"geometry":["line"],"matchScore":2,"terms":["entergy","entergy arkansas"],"tags":{"operator:wikidata":"Q130226450","power":"minor_line"},"addTags":{"operator":"Entergy Arkansas","operator:wikidata":"Q130226450","power":"minor_line"}},"power/minor_line/entergylouisiana-03a962":{"name":"Entergy Louisiana","locationSet":{"include":["us-ar","us-la"]},"geometry":["line"],"matchScore":2,"terms":["entergy","entergy louisiana"],"tags":{"operator:wikidata":"Q87759318","power":"minor_line"},"addTags":{"operator":"Entergy Louisiana","operator:wikidata":"Q87759318","power":"minor_line"}},"power/minor_line/grandriverdamauthority-cdec2d":{"name":"Grand River Dam Authority","locationSet":{"include":["us-ar","us-ok"]},"geometry":["line"],"matchScore":2,"terms":["grand river dam authority","grda"],"tags":{"operator:wikidata":"Q5595045","power":"minor_line"},"addTags":{"operator":"Grand River Dam Authority","operator:short":"GRDA","operator:wikidata":"Q5595045","power":"minor_line"}},"power/minor_line/jonesborocitywaterandlight-20ede4":{"name":"Jonesboro City Water and Light","locationSet":{"include":["us-ar"]},"geometry":["line"],"matchScore":2,"terms":["jonesboro city water and light"],"tags":{"operator:wikidata":"Q130233065","power":"minor_line"},"addTags":{"operator":"Jonesboro City Water and Light","operator:wikidata":"Q130233065","power":"minor_line"}},"power/minor_line/northarkansaselectriccooperative-20ede4":{"name":"North Arkansas Electric Cooperative","locationSet":{"include":["us-ar"]},"geometry":["line"],"matchScore":2,"terms":["north arkansas electric cooperative"],"tags":{"operator:wikidata":"Q7053959","power":"minor_line"},"addTags":{"operator":"North Arkansas Electric Cooperative","operator:wikidata":"Q7053959","power":"minor_line"}},"power/minor_line/oklahomagasandelectric-cdec2d":{"name":"Oklahoma Gas & Electric","locationSet":{"include":["us-ar","us-ok"]},"geometry":["line"],"matchScore":2,"terms":["og+e","oklahoma gas & electric"],"tags":{"operator:wikidata":"Q2007484","power":"minor_line"},"addTags":{"operator":"Oklahoma Gas & Electric","operator:short":"OG+E","operator:wikidata":"Q2007484","power":"minor_line"}},"power/minor_line/ozarkselectriccooperative-cdec2d":{"name":"Ozarks Electric Cooperative","locationSet":{"include":["us-ar","us-ok"]},"geometry":["line"],"matchScore":2,"terms":["ozarks electric cooperative","ozarks electric cooperative corporation"],"tags":{"operator:wikidata":"Q7116526","power":"minor_line"},"addTags":{"operator":"Ozarks Electric Cooperative","operator:wikidata":"Q7116526","power":"minor_line"}},"power/minor_line/southwestarkansaselectriccooperative-20ede4":{"name":"Southwest Arkansas Electric Cooperative","locationSet":{"include":["us-ar"]},"geometry":["line"],"matchScore":2,"terms":["southwest arkansas electric cooperative"],"tags":{"operator:wikidata":"Q130232517","power":"minor_line"},"addTags":{"operator":"Southwest Arkansas Electric Cooperative","operator:wikidata":"Q130232517","power":"minor_line"}},"power/minor_line/southwesternpoweradministration-592154":{"name":"Southwestern Power Administration","locationSet":{"include":["us-ar","us-mo","us-ok"]},"geometry":["line"],"matchScore":2,"terms":["southwestern power administration"],"tags":{"operator:wikidata":"Q7571440","power":"minor_line"},"addTags":{"operator":"Southwestern Power Administration","operator:wikidata":"Q7571440","power":"minor_line"}},"power/minor_line/southwesternelectricpowercompany-4550ee":{"name":"SWEPCO","locationSet":{"include":["us-ar","us-la","us-tx"]},"geometry":["line"],"matchScore":2,"terms":["southwestern electric power company","swepco"],"tags":{"operator:wikidata":"Q109016018","power":"minor_line"},"addTags":{"operator":"Southwestern Electric Power Company","operator:short":"SWEPCO","operator:wikidata":"Q109016018","power":"minor_line"}},"power/plant/entergylouisiana-87cc41":{"name":"Entergy Louisiana","locationSet":{"include":["us-ar","us-la"]},"geometry":["area"],"matchScore":2,"terms":["entergy","entergy louisiana","entergy louisiana llc"],"tags":{"operator:wikidata":"Q87759318","power":"plant"},"addTags":{"operator":"Entergy Louisiana","operator:wikidata":"Q87759318","power":"plant"}},"power/plant/oklahomagasandelectric-66347c":{"name":"Oklahoma Gas & Electric","locationSet":{"include":["us-ar","us-ok"]},"geometry":["area"],"matchScore":2,"terms":["og+e","oklahoma gas & electric","oklahoma gas & electric co"],"tags":{"operator:wikidata":"Q2007484","power":"plant"},"addTags":{"operator":"Oklahoma Gas & Electric","operator:short":"OG+E","operator:wikidata":"Q2007484","power":"plant"}},"power/pole/arkansaselectriccooperativecorporation-ab0eee":{"name":"Arkansas Electric Cooperative Corporation","locationSet":{"include":["us-ar"]},"geometry":["point","vertex"],"matchScore":2,"terms":["arkansas electric cooperative corporation"],"tags":{"operator:wikidata":"Q16161271","power":"pole"},"addTags":{"operator":"Arkansas Electric Cooperative Corporation","operator:wikidata":"Q16161271","power":"pole"}},"power/pole/arkansasvalleyelectriccooperative-ab0eee":{"name":"Arkansas Valley Electric Cooperative","locationSet":{"include":["us-ar"]},"geometry":["point","vertex"],"matchScore":2,"terms":["arkansas valley electric cooperative"],"tags":{"operator:wikidata":"Q4791898","power":"pole"},"addTags":{"operator":"Arkansas Valley Electric Cooperative","operator:wikidata":"Q4791898","power":"pole"}},"power/pole/carrollelectriccooperative-9e9307":{"name":"Carroll Electric Cooperative","locationSet":{"include":["us-ar","us-mo"]},"geometry":["point","vertex"],"matchScore":2,"terms":["carroll electric cooperative","carroll electric cooperative corporation"],"tags":{"operator:wikidata":"Q5046558","power":"pole"},"addTags":{"operator":"Carroll Electric Cooperative","operator:wikidata":"Q5046558","power":"pole"}},"power/pole/entergyarkansas-ab0eee":{"name":"Entergy Arkansas","locationSet":{"include":["us-ar"]},"geometry":["point","vertex"],"matchScore":2,"terms":["entergy","entergy arkansas"],"tags":{"operator:wikidata":"Q130226450","power":"pole"},"addTags":{"operator":"Entergy Arkansas","operator:wikidata":"Q130226450","power":"pole"}},"power/pole/entergylouisiana-acd049":{"name":"Entergy Louisiana","locationSet":{"include":["us-ar","us-la"]},"geometry":["point","vertex"],"matchScore":2,"terms":["entergy","entergy louisiana"],"tags":{"operator:wikidata":"Q87759318","power":"pole"},"addTags":{"operator":"Entergy Louisiana","operator:wikidata":"Q87759318","power":"pole"}},"power/pole/grandriverdamauthority-0874bd":{"name":"Grand River Dam Authority","locationSet":{"include":["us-ar","us-ok"]},"geometry":["point","vertex"],"matchScore":2,"terms":["grand river dam authority","grda"],"tags":{"operator:wikidata":"Q5595045","power":"pole"},"addTags":{"operator":"Grand River Dam Authority","operator:short":"GRDA","operator:wikidata":"Q5595045","power":"pole"}},"power/pole/jonesborocitywaterandlight-ab0eee":{"name":"Jonesboro City Water and Light","locationSet":{"include":["us-ar"]},"geometry":["point","vertex"],"matchScore":2,"terms":["jonesboro city water and light"],"tags":{"operator:wikidata":"Q130233065","power":"pole"},"addTags":{"operator":"Jonesboro City Water and Light","operator:wikidata":"Q130233065","power":"pole"}},"power/pole/northarkansaselectriccooperative-ab0eee":{"name":"North Arkansas Electric Cooperative","locationSet":{"include":["us-ar"]},"geometry":["point","vertex"],"matchScore":2,"terms":["north arkansas electric cooperative"],"tags":{"operator:wikidata":"Q7053959","power":"pole"},"addTags":{"operator":"North Arkansas Electric Cooperative","operator:wikidata":"Q7053959","power":"pole"}},"power/pole/oklahomagasandelectric-0874bd":{"name":"Oklahoma Gas & Electric","locationSet":{"include":["us-ar","us-ok"]},"geometry":["point","vertex"],"matchScore":2,"terms":["og+e","oklahoma gas & electric"],"tags":{"operator:wikidata":"Q2007484","power":"pole"},"addTags":{"operator":"Oklahoma Gas & Electric","operator:short":"OG+E","operator:wikidata":"Q2007484","power":"pole"}},"power/pole/ozarkselectriccooperative-0874bd":{"name":"Ozarks Electric Cooperative","locationSet":{"include":["us-ar","us-ok"]},"geometry":["point","vertex"],"matchScore":2,"terms":["ozarks electric cooperative","ozarks electric cooperative corporation"],"tags":{"operator:wikidata":"Q7116526","power":"pole"},"addTags":{"operator":"Ozarks Electric Cooperative","operator:wikidata":"Q7116526","power":"pole"}},"power/pole/southwestarkansaselectriccooperative-ab0eee":{"name":"Southwest Arkansas Electric Cooperative","locationSet":{"include":["us-ar"]},"geometry":["point","vertex"],"matchScore":2,"terms":["southwest arkansas electric cooperative"],"tags":{"operator:wikidata":"Q130232517","power":"pole"},"addTags":{"operator":"Southwest Arkansas Electric Cooperative","operator:wikidata":"Q130232517","power":"pole"}},"power/pole/southwesternpoweradministration-181c8a":{"name":"Southwestern Power Administration","locationSet":{"include":["us-ar","us-mo","us-ok"]},"geometry":["point","vertex"],"matchScore":2,"terms":["southwestern power administration"],"tags":{"operator:wikidata":"Q7571440","power":"pole"},"addTags":{"operator":"Southwestern Power Administration","operator:wikidata":"Q7571440","power":"pole"}},"power/pole/southwesternelectricpowercompany-79abae":{"name":"SWEPCO","locationSet":{"include":["us-ar","us-la","us-tx"]},"geometry":["point","vertex"],"matchScore":2,"terms":["southwestern electric power company","swepco"],"tags":{"operator:wikidata":"Q109016018","power":"pole"},"addTags":{"operator":"Southwestern Electric Power Company","operator:short":"SWEPCO","operator:wikidata":"Q109016018","power":"pole"}},"power/substation/arkansaselectriccooperativecorporation-5f1fb8":{"name":"Arkansas Electric Cooperative Corporation","locationSet":{"include":["us-ar"]},"geometry":["area","point"],"matchScore":2,"terms":["arkansas electric cooperative corporation"],"tags":{"operator:wikidata":"Q16161271","power":"substation"},"addTags":{"operator":"Arkansas Electric Cooperative Corporation","operator:wikidata":"Q16161271","power":"substation"}},"power/substation/arkansasvalleyelectriccooperative-5f1fb8":{"name":"Arkansas Valley Electric Cooperative","locationSet":{"include":["us-ar"]},"geometry":["area","point"],"matchScore":2,"terms":["arkansas valley electric cooperative"],"tags":{"operator:wikidata":"Q4791898","power":"substation"},"addTags":{"operator":"Arkansas Valley Electric Cooperative","operator:wikidata":"Q4791898","power":"substation"}},"power/substation/carrollelectriccooperative-a7f382":{"name":"Carroll Electric Cooperative","locationSet":{"include":["us-ar","us-mo"]},"geometry":["area","point"],"matchScore":2,"terms":["carroll electric cooperative","carroll electric cooperative corporation"],"tags":{"operator:wikidata":"Q5046558","power":"substation"},"addTags":{"operator":"Carroll Electric Cooperative","operator:wikidata":"Q5046558","power":"substation"}},"power/substation/entergyarkansas-5f1fb8":{"name":"Entergy Arkansas","locationSet":{"include":["us-ar"]},"geometry":["area","point"],"matchScore":2,"terms":["entergy","entergy arkansas"],"tags":{"operator:wikidata":"Q130226450","power":"substation"},"addTags":{"operator":"Entergy Arkansas","operator:wikidata":"Q130226450","power":"substation"}},"power/substation/entergylouisiana-3e5609":{"name":"Entergy Louisiana","locationSet":{"include":["us-ar","us-la"]},"geometry":["area","point"],"matchScore":2,"terms":["entergy","entergy louisiana"],"tags":{"operator:wikidata":"Q87759318","power":"substation"},"addTags":{"operator":"Entergy Louisiana","operator:wikidata":"Q87759318","power":"substation"}},"power/substation/firstelectriccooperative-5f1fb8":{"name":"First Electric Cooperative","locationSet":{"include":["us-ar"]},"geometry":["area","point"],"matchScore":2,"terms":["first electric cooperative","first electric cooperative cooperation","first electric cooperative corporation"],"tags":{"operator:wikidata":"Q16993371","power":"substation"},"addTags":{"operator":"First Electric Cooperative","operator:wikidata":"Q16993371","power":"substation"}},"power/substation/grandriverdamauthority-3e7f38":{"name":"Grand River Dam Authority","locationSet":{"include":["us-ar","us-ok"]},"geometry":["area","point"],"matchScore":2,"terms":["grand river dam authority","grda"],"tags":{"operator:wikidata":"Q5595045","power":"substation"},"addTags":{"operator":"Grand River Dam Authority","operator:short":"GRDA","operator:wikidata":"Q5595045","power":"substation"}},"power/substation/jonesborocitywaterandlight-5f1fb8":{"name":"Jonesboro City Water and Light","locationSet":{"include":["us-ar"]},"geometry":["area","point"],"matchScore":2,"terms":["jonesboro city water and light"],"tags":{"operator:wikidata":"Q130233065","power":"substation"},"addTags":{"operator":"Jonesboro City Water and Light","operator:wikidata":"Q130233065","power":"substation"}},"power/substation/northarkansaselectriccooperative-5f1fb8":{"name":"North Arkansas Electric Cooperative","locationSet":{"include":["us-ar"]},"geometry":["area","point"],"matchScore":2,"terms":["north arkansas electric cooperative"],"tags":{"operator:wikidata":"Q7053959","power":"substation"},"addTags":{"operator":"North Arkansas Electric Cooperative","operator:wikidata":"Q7053959","power":"substation"}},"power/substation/oklahomagasandelectric-3e7f38":{"name":"Oklahoma Gas & Electric","locationSet":{"include":["us-ar","us-ok"]},"geometry":["area","point"],"matchScore":2,"terms":["og+e","oklahoma gas & electric"],"tags":{"operator:wikidata":"Q2007484","power":"substation"},"addTags":{"operator":"Oklahoma Gas & Electric","operator:short":"OG+E","operator:wikidata":"Q2007484","power":"substation"}},"power/substation/ozarkselectriccooperative-3e7f38":{"name":"Ozarks Electric Cooperative","locationSet":{"include":["us-ar","us-ok"]},"geometry":["area","point"],"matchScore":2,"terms":["ozarks electric cooperative","ozarks electric cooperative corporation"],"tags":{"operator:wikidata":"Q7116526","power":"substation"},"addTags":{"operator":"Ozarks Electric Cooperative","operator:wikidata":"Q7116526","power":"substation"}},"power/substation/southwestarkansaselectriccooperative-5f1fb8":{"name":"Southwest Arkansas Electric Cooperative","locationSet":{"include":["us-ar"]},"geometry":["area","point"],"matchScore":2,"terms":["southwest arkansas electric cooperative"],"tags":{"operator:wikidata":"Q130232517","power":"substation"},"addTags":{"operator":"Southwest Arkansas Electric Cooperative","operator:wikidata":"Q130232517","power":"substation"}},"power/substation/southwesternpoweradministration-6f5c1b":{"name":"Southwestern Power Administration","locationSet":{"include":["us-ar","us-mo","us-ok"]},"geometry":["area","point"],"matchScore":2,"terms":["southwestern power administration"],"tags":{"operator:wikidata":"Q7571440","power":"substation"},"addTags":{"operator":"Southwestern Power Administration","operator:wikidata":"Q7571440","power":"substation"}},"power/substation/southwesternelectricpowercompany-815b02":{"name":"SWEPCO","locationSet":{"include":["us-ar","us-la","us-tx"]},"geometry":["area","point"],"matchScore":2,"terms":["southwestern electric power company","swepco"],"tags":{"operator:wikidata":"Q109016018","power":"substation"},"addTags":{"operator":"Southwestern Electric Power Company","operator:short":"SWEPCO","operator:wikidata":"Q109016018","power":"substation"}},"power/tower/arkansaselectriccooperativecorporation-fbadb0":{"name":"Arkansas Electric Cooperative Corporation","locationSet":{"include":["us-ar"]},"geometry":["point","vertex"],"matchScore":2,"terms":["arkansas electric cooperative corporation"],"tags":{"operator:wikidata":"Q16161271","power":"tower"},"addTags":{"operator":"Arkansas Electric Cooperative Corporation","operator:wikidata":"Q16161271","power":"tower"}},"power/tower/arkansasvalleyelectriccooperative-fbadb0":{"name":"Arkansas Valley Electric Cooperative","locationSet":{"include":["us-ar"]},"geometry":["point","vertex"],"matchScore":2,"terms":["arkansas valley electric cooperative"],"tags":{"operator:wikidata":"Q4791898","power":"tower"},"addTags":{"operator":"Arkansas Valley Electric Cooperative","operator:wikidata":"Q4791898","power":"tower"}},"power/tower/carrollelectriccooperative-3270be":{"name":"Carroll Electric Cooperative","locationSet":{"include":["us-ar","us-mo"]},"geometry":["point","vertex"],"matchScore":2,"terms":["carroll electric cooperative","carroll electric cooperative corporation"],"tags":{"operator:wikidata":"Q5046558","power":"tower"},"addTags":{"operator":"Carroll Electric Cooperative","operator:wikidata":"Q5046558","power":"tower"}},"power/tower/entergyarkansas-fbadb0":{"name":"Entergy Arkansas","locationSet":{"include":["us-ar"]},"geometry":["point","vertex"],"matchScore":2,"terms":["entergy","entergy arkansas"],"tags":{"operator:wikidata":"Q130226450","power":"tower"},"addTags":{"operator":"Entergy Arkansas","operator:wikidata":"Q130226450","power":"tower"}},"power/tower/entergylouisiana-2a5830":{"name":"Entergy Louisiana","locationSet":{"include":["us-ar","us-la"]},"geometry":["point","vertex"],"matchScore":2,"terms":["entergy","entergy louisiana"],"tags":{"operator:wikidata":"Q87759318","power":"tower"},"addTags":{"operator":"Entergy Louisiana","operator:wikidata":"Q87759318","power":"tower"}},"power/tower/grandriverdamauthority-f05dd4":{"name":"Grand River Dam Authority","locationSet":{"include":["us-ar","us-ok"]},"geometry":["point","vertex"],"matchScore":2,"terms":["grand river dam authority","grda"],"tags":{"operator:wikidata":"Q5595045","power":"tower"},"addTags":{"operator":"Grand River Dam Authority","operator:short":"GRDA","operator:wikidata":"Q5595045","power":"tower"}},"power/tower/jonesborocitywaterandlight-fbadb0":{"name":"Jonesboro City Water and Light","locationSet":{"include":["us-ar"]},"geometry":["point","vertex"],"matchScore":2,"terms":["jonesboro city water and light"],"tags":{"operator:wikidata":"Q130233065","power":"tower"},"addTags":{"operator":"Jonesboro City Water and Light","operator:wikidata":"Q130233065","power":"tower"}},"power/tower/northarkansaselectriccooperative-fbadb0":{"name":"North Arkansas Electric Cooperative","locationSet":{"include":["us-ar"]},"geometry":["point","vertex"],"matchScore":2,"terms":["north arkansas electric cooperative"],"tags":{"operator:wikidata":"Q7053959","power":"tower"},"addTags":{"operator":"North Arkansas Electric Cooperative","operator:wikidata":"Q7053959","power":"tower"}},"power/tower/oklahomagasandelectric-f05dd4":{"name":"Oklahoma Gas & Electric","locationSet":{"include":["us-ar","us-ok"]},"geometry":["point","vertex"],"matchScore":2,"terms":["og+e","oklahoma gas & electric"],"tags":{"operator:wikidata":"Q2007484","power":"tower"},"addTags":{"operator":"Oklahoma Gas & Electric","operator:short":"OG+E","operator:wikidata":"Q2007484","power":"tower"}},"power/tower/ozarkselectriccooperative-f05dd4":{"name":"Ozarks Electric Cooperative","locationSet":{"include":["us-ar","us-ok"]},"geometry":["point","vertex"],"matchScore":2,"terms":["ozarks electric cooperative","ozarks electric cooperative corporation"],"tags":{"operator:wikidata":"Q7116526","power":"tower"},"addTags":{"operator":"Ozarks Electric Cooperative","operator:wikidata":"Q7116526","power":"tower"}},"power/tower/southwestarkansaselectriccooperative-fbadb0":{"name":"Southwest Arkansas Electric Cooperative","locationSet":{"include":["us-ar"]},"geometry":["point","vertex"],"matchScore":2,"terms":["southwest arkansas electric cooperative"],"tags":{"operator:wikidata":"Q130232517","power":"tower"},"addTags":{"operator":"Southwest Arkansas Electric Cooperative","operator:wikidata":"Q130232517","power":"tower"}},"power/tower/southwesternpoweradministration-f02ab4":{"name":"Southwestern Power Administration","locationSet":{"include":["us-ar","us-mo","us-ok"]},"geometry":["point","vertex"],"matchScore":2,"terms":["southwestern power administration"],"tags":{"operator:wikidata":"Q7571440","power":"tower"},"addTags":{"operator":"Southwestern Power Administration","operator:wikidata":"Q7571440","power":"tower"}},"power/tower/southwesternelectricpowercompany-0d5051":{"name":"SWEPCO","locationSet":{"include":["us-ar","us-la","us-tx"]},"geometry":["point","vertex"],"matchScore":2,"terms":["southwestern electric power company","swepco"],"tags":{"operator:wikidata":"Q109016018","power":"tower"},"addTags":{"operator":"Southwestern Electric Power Company","operator:short":"SWEPCO","operator:wikidata":"Q109016018","power":"tower"}},"power/transformer/arkansaselectriccooperativecorporation-0a90d3":{"name":"Arkansas Electric Cooperative Corporation","locationSet":{"include":["us-ar"]},"geometry":["point","vertex"],"matchScore":2,"terms":["arkansas electric cooperative corporation"],"tags":{"operator:wikidata":"Q16161271","power":"transformer"},"addTags":{"operator":"Arkansas Electric Cooperative Corporation","operator:wikidata":"Q16161271","power":"transformer"}},"power/transformer/arkansasvalleyelectriccooperative-0a90d3":{"name":"Arkansas Valley Electric Cooperative","locationSet":{"include":["us-ar"]},"geometry":["point","vertex"],"matchScore":2,"terms":["arkansas valley electric cooperative"],"tags":{"operator:wikidata":"Q4791898","power":"transformer"},"addTags":{"operator":"Arkansas Valley Electric Cooperative","operator:wikidata":"Q4791898","power":"transformer"}},"power/transformer/carrollelectriccooperative-547ec9":{"name":"Carroll Electric Cooperative","locationSet":{"include":["us-ar","us-mo"]},"geometry":["point","vertex"],"matchScore":2,"terms":["carroll electric cooperative","carroll electric cooperative corporation"],"tags":{"operator:wikidata":"Q5046558","power":"transformer"},"addTags":{"operator":"Carroll Electric Cooperative","operator:wikidata":"Q5046558","power":"transformer"}},"power/transformer/entergyarkansas-0a90d3":{"name":"Entergy Arkansas","locationSet":{"include":["us-ar"]},"geometry":["point","vertex"],"matchScore":2,"terms":["entergy","entergy arkansas"],"tags":{"operator:wikidata":"Q130226450","power":"transformer"},"addTags":{"operator":"Entergy Arkansas","operator:wikidata":"Q130226450","power":"transformer"}},"power/transformer/entergylouisiana-785c01":{"name":"Entergy Louisiana","locationSet":{"include":["us-ar","us-la"]},"geometry":["point","vertex"],"matchScore":2,"terms":["entergy","entergy louisiana"],"tags":{"operator:wikidata":"Q87759318","power":"transformer"},"addTags":{"operator":"Entergy Louisiana","operator:wikidata":"Q87759318","power":"transformer"}},"power/transformer/firstelectriccooperative-0a90d3":{"name":"First Electric Cooperative","locationSet":{"include":["us-ar"]},"geometry":["point","vertex"],"matchScore":2,"terms":["first electric cooperative","first electric cooperative cooperation","first electric cooperative corporation"],"tags":{"operator:wikidata":"Q16993371","power":"transformer"},"addTags":{"operator":"First Electric Cooperative","operator:wikidata":"Q16993371","power":"transformer"}},"power/transformer/grandriverdamauthority-bab4e4":{"name":"Grand River Dam Authority","locationSet":{"include":["us-ar","us-ok"]},"geometry":["point","vertex"],"matchScore":2,"terms":["grand river dam authority","grda"],"tags":{"operator:wikidata":"Q5595045","power":"transformer"},"addTags":{"operator":"Grand River Dam Authority","operator:short":"GRDA","operator:wikidata":"Q5595045","power":"transformer"}},"power/transformer/jonesborocitywaterandlight-0a90d3":{"name":"Jonesboro City Water and Light","locationSet":{"include":["us-ar"]},"geometry":["point","vertex"],"matchScore":2,"terms":["jonesboro city water and light"],"tags":{"operator:wikidata":"Q130233065","power":"transformer"},"addTags":{"operator":"Jonesboro City Water and Light","operator:wikidata":"Q130233065","power":"transformer"}},"power/transformer/northarkansaselectriccooperative-0a90d3":{"name":"North Arkansas Electric Cooperative","locationSet":{"include":["us-ar"]},"geometry":["point","vertex"],"matchScore":2,"terms":["north arkansas electric cooperative"],"tags":{"operator:wikidata":"Q7053959","power":"transformer"},"addTags":{"operator":"North Arkansas Electric Cooperative","operator:wikidata":"Q7053959","power":"transformer"}},"power/transformer/oklahomagasandelectric-bab4e4":{"name":"Oklahoma Gas & Electric","locationSet":{"include":["us-ar","us-ok"]},"geometry":["point","vertex"],"matchScore":2,"terms":["og+e","oklahoma gas & electric"],"tags":{"operator:wikidata":"Q2007484","power":"transformer"},"addTags":{"operator":"Oklahoma Gas & Electric","operator:short":"OG+E","operator:wikidata":"Q2007484","power":"transformer"}},"power/transformer/ozarkselectriccooperative-bab4e4":{"name":"Ozarks Electric Cooperative","locationSet":{"include":["us-ar","us-ok"]},"geometry":["point","vertex"],"matchScore":2,"terms":["ozarks electric cooperative","ozarks electric cooperative corporation"],"tags":{"operator:wikidata":"Q7116526","power":"transformer"},"addTags":{"operator":"Ozarks Electric Cooperative","operator:wikidata":"Q7116526","power":"transformer"}},"power/transformer/southwestarkansaselectriccooperative-0a90d3":{"name":"Southwest Arkansas Electric Cooperative","locationSet":{"include":["us-ar"]},"geometry":["point","vertex"],"matchScore":2,"terms":["southwest arkansas electric cooperative"],"tags":{"operator:wikidata":"Q130232517","power":"transformer"},"addTags":{"operator":"Southwest Arkansas Electric Cooperative","operator:wikidata":"Q130232517","power":"transformer"}},"power/transformer/southwesternpoweradministration-7a7cb9":{"name":"Southwestern Power Administration","locationSet":{"include":["us-ar","us-mo","us-ok"]},"geometry":["point","vertex"],"matchScore":2,"terms":["southwestern power administration"],"tags":{"operator:wikidata":"Q7571440","power":"transformer"},"addTags":{"operator":"Southwestern Power Administration","operator:wikidata":"Q7571440","power":"transformer"}},"power/transformer/southwesternelectricpowercompany-24511b":{"name":"SWEPCO","locationSet":{"include":["us-ar","us-la","us-tx"]},"geometry":["point","vertex"],"matchScore":2,"terms":["southwestern electric power company","swepco"],"tags":{"operator:wikidata":"Q109016018","power":"transformer"},"addTags":{"operator":"Southwestern Electric Power Company","operator:short":"SWEPCO","operator:wikidata":"Q109016018","power":"transformer"}},"type/route/power/southwesternelectricpowercompany-a8c872":{"name":"SWEPCO","locationSet":{"include":["us-ar","us-la","us-tx"]},"geometry":["relation"],"matchScore":2,"terms":["southwestern electric power company","swepco"],"reference":{"key":"route","value":"power"},"tags":{"operator:wikidata":"Q109016018","route":"power","type":"route"},"addTags":{"operator":"Southwestern Electric Power Company","operator:short":"SWEPCO","operator:wikidata":"Q109016018","route":"power","type":"route"}},"shop/charity/goodwillindustriesofarkansas-99d5c9":{"name":"Goodwill Industries of Arkansas","locationSet":{"include":["us-ar"]},"geometry":["point","area"],"matchScore":2,"terms":["goodwill","goodwill industries of arkansas"],"tags":{"operator:wikidata":"Q126845113","shop":"charity"},"addTags":{"brand":"Goodwill","brand:wikidata":"Q5583655","name":"Goodwill","operator":"Goodwill Industries of Arkansas","operator:wikidata":"Q126845113","shop":"charity"}},"public_transport/platform/bus_point/ort-752ff2":{"name":"ORT","locationSet":{"include":["us-ar"]},"geometry":["point","vertex"],"matchScore":2,"terms":["ort","ozark regional transit"],"reference":{"key":"public_transport","value":"platform"},"tags":{"bus":"yes","network:wikidata":"Q7116506","public_transport":"platform"},"addTags":{"bus":"yes","highway":"bus_stop","network":"ORT","network:wikidata":"Q7116506","operator":"Ozark Regional Transit","public_transport":"platform"}},"public_transport/platform/bus_point/rockregionmetro-752ff2":{"name":"Rock Region Metro","locationSet":{"include":["us-ar"]},"geometry":["point","vertex"],"matchScore":2,"terms":["rock region metro","rock region metropolitan transit authority"],"reference":{"key":"public_transport","value":"platform"},"tags":{"bus":"yes","network:wikidata":"Q5060353","public_transport":"platform"},"addTags":{"bus":"yes","highway":"bus_stop","network":"Rock Region Metro","network:wikidata":"Q5060353","operator":"Rock Region Metropolitan Transit Authority","public_transport":"platform"}},"type/route/bus/ort-ac94ab":{"name":"ORT","locationSet":{"include":["us-ar"]},"geometry":["relation"],"matchScore":2,"terms":["ort","ozark regional transit"],"reference":{"key":"route","value":"bus"},"tags":{"network:wikidata":"Q7116506","route":"bus","type":"route"},"addTags":{"network":"ORT","network:wikidata":"Q7116506","operator":"Ozark Regional Transit","route":"bus","type":"route"}},"type/route/bus/rockregionmetro-ac94ab":{"name":"Rock Region Metro","locationSet":{"include":["us-ar"]},"geometry":["relation"],"matchScore":2,"terms":["rock region metro","rock region metropolitan transit authority"],"reference":{"key":"route","value":"bus"},"tags":{"network:wikidata":"Q5060353","route":"bus","type":"route"},"addTags":{"network":"Rock Region Metro","network:wikidata":"Q5060353","operator":"Rock Region Metropolitan Transit Authority","route":"bus","type":"route"}}}