{"shop/chocolate/jeffdebruges-d57ca4":{"name":"Jeff de Bruges","locationSet":{"include":["at","bg","ca","cz","de","ee","es","fr","gb","it","jo","lu","ma","om","pf","sa","sk","sn","tn"]},"geometry":["point","area"],"matchScore":2,"terms":["jeff de bruges"],"tags":{"brand:wikidata":"Q3176626","shop":"chocolate"},"addTags":{"brand":"Jeff de Bruges","brand:wikidata":"Q3176626","name":"Jeff de Bruges","shop":"chocolate"}},"shop/clothes/underwear/undiz-f30927":{"name":"Undiz","locationSet":{"include":["ae","ch","es","fr","gf","gp","lb","ma","mq","nc","pf","qa","re","sa","za"]},"geometry":["point","area"],"matchScore":2,"terms":["undiz"],"reference":{"key":"clothes","value":"underwear"},"tags":{"brand:wikidata":"Q105306275","clothes":"underwear","shop":"clothes"},"addTags":{"brand":"Undiz","brand:wikidata":"Q105306275","clothes":"underwear","name":"Undiz","shop":"clothes"}},"tourism/hotel/conrad-ee1a43":{"name":"Conrad Hotels & Resorts","locationSet":{"include":["ae","ca","cn","eg","gb","id","ie","in","jp","kr","mv","pf","ph","pt","sa","sg","th","tr","us"]},"geometry":["point","area"],"matchScore":2,"terms":["conrad"],"fields":["name","brand","{tourism/hotel}"],"tags":{"brand:wikidata":"Q855525","tourism":"hotel"},"addTags":{"brand":"Conrad","brand:wikidata":"Q855525","name":"Conrad","tourism":"hotel"}},"amenity/post_box/opt-e94386":{"name":"OPT","locationSet":{"include":["pf"]},"geometry":["point","vertex"],"matchScore":2,"terms":["opt"],"tags":{"amenity":"post_box","operator:wikidata":"Q3349602"},"addTags":{"amenity":"post_box","operator":"OPT","operator:wikidata":"Q3349602"}},"amenity/post_office/opt-d4df4a":{"name":"OPT","locationSet":{"include":["pf"]},"geometry":["point","area"],"matchScore":2,"terms":["opt"],"fields":["name","operator","{amenity/post_office}"],"tags":{"amenity":"post_office","operator:wikidata":"Q3349602"},"addTags":{"amenity":"post_office","operator":"OPT","operator:wikidata":"Q3349602"}},"amenity/telephone/officedespostesettelecommunicationsdepolynesiefrancaise-6c2af3":{"name":"OPT (Polynésie française)","locationSet":{"include":["pf"]},"geometry":["point","vertex"],"matchScore":2,"terms":["office des postes et télécommunications de polynésie française","opt"],"fields":["name","operator","{amenity/telephone}"],"tags":{"amenity":"telephone","operator:wikidata":"Q3349602"},"addTags":{"amenity":"telephone","operator":"Office des postes et télécommunications de Polynésie française","operator:short":"OPT","operator:wikidata":"Q3349602"}}}