{"amenity/atm/buseybank-25700e":{"name":"Busey Bank","locationSet":{"include":["us-il","us-in","us-mo"]},"geometry":["point","vertex"],"matchScore":2,"terms":["busey bank"],"fields":["name","brand","{amenity/atm}"],"tags":{"amenity":"atm","brand:wikidata":"Q5001347"},"addTags":{"amenity":"atm","brand":"Busey Bank","brand:wikidata":"Q5001347","operator":"Busey Bank","operator:wikidata":"Q5001347"}},"amenity/atm/cadencebank-4b4e36":{"name":"Cadence Bank","locationSet":{"include":["us-al","us-ar","us-fl","us-ga","us-il","us-la","us-ms","us-tn","us-tx"]},"geometry":["point","vertex"],"matchScore":2,"terms":["bankcorpsouth","bankcorpsouth bank","cadence bank"],"fields":["name","brand","{amenity/atm}"],"tags":{"amenity":"atm","brand:wikidata":"Q4854138"},"addTags":{"amenity":"atm","brand":"Cadence Bank","brand:wikidata":"Q4854138","operator":"Cadence Bank","operator:wikidata":"Q4854138"}},"amenity/atm/centralbank-5249e2":{"name":"Central Bank","locationSet":{"include":["us-fl","us-il","us-ks","us-mo","us-nc","us-ok","us-tn"]},"geometry":["point","vertex"],"matchScore":2,"terms":["central bank"],"fields":["name","brand","{amenity/atm}"],"tags":{"amenity":"atm","brand:wikidata":"Q113482320"},"addTags":{"amenity":"atm","brand":"Central Bank","brand:wikidata":"Q113482320","operator":"Central Bank","operator:wikidata":"Q113482320"}},"amenity/atm/consumerscreditunion-09683f":{"name":"Consumers Credit Union (Illinois)","locationSet":{"include":["us-il"]},"geometry":["point","vertex"],"matchScore":2,"terms":["consumers credit union"],"fields":["name","brand","{amenity/atm}"],"tags":{"amenity":"atm","brand:wikidata":"Q111381516"},"addTags":{"amenity":"atm","brand":"Consumers Credit Union","brand:wikidata":"Q111381516","operator":"Consumers Credit Union","operator:wikidata":"Q111381516"}},"amenity/atm/greenstatecreditunion-897a9e":{"name":"GreenState Credit Union","locationSet":{"include":["us-ia","us-il"]},"geometry":["point","vertex"],"matchScore":2,"terms":["greenstate credit union"],"fields":["name","brand","{amenity/atm}"],"tags":{"amenity":"atm","brand:wikidata":"Q111381336"},"addTags":{"amenity":"atm","brand":"GreenState Credit Union","brand:wikidata":"Q111381336","operator":"GreenState Credit Union","operator:wikidata":"Q111381336"}},"amenity/atm/heartlandbank-09683f":{"name":"Heartland Bank (Illinois)","locationSet":{"include":["us-il"]},"geometry":["point","vertex"],"matchScore":2,"terms":["heartland bank","heartland bank and trust company"],"fields":["name","brand","{amenity/atm}"],"tags":{"amenity":"atm","brand:wikidata":"Q109870322"},"addTags":{"amenity":"atm","brand":"Heartland Bank","brand:wikidata":"Q109870322","official_name":"Heartland Bank and Trust Company","operator":"Heartland Bank","operator:wikidata":"Q109870322"}},"amenity/atm/oldsecondnationalbank-09683f":{"name":"Old Second National Bank","locationSet":{"include":["us-il"]},"geometry":["point","vertex"],"matchScore":2,"terms":["old second national bank"],"fields":["name","brand","{amenity/atm}"],"tags":{"amenity":"atm","brand:wikidata":"Q108916891"},"addTags":{"amenity":"atm","brand":"Old Second National Bank","brand:wikidata":"Q108916891","operator":"Old Second National Bank","operator:wikidata":"Q108916891"}},"amenity/atm/selfhelpfederalcreditunion-f52673":{"name":"Self-Help Federal Credit Union","locationSet":{"include":["us-ca","us-il","us-wa","us-wi"]},"geometry":["point","vertex"],"matchScore":2,"terms":["self-help federal credit union"],"fields":["name","brand","{amenity/atm}"],"tags":{"amenity":"atm","brand:wikidata":"Q111381724"},"addTags":{"amenity":"atm","brand":"Self-Help Federal Credit Union","brand:wikidata":"Q111381724","operator":"Self-Help Federal Credit Union","operator:wikidata":"Q111381724"}},"amenity/bank/buseybank-8fb7e1":{"name":"Busey Bank","locationSet":{"include":["us-il","us-in","us-mo"]},"geometry":["point","area"],"matchScore":2,"terms":["busey bank"],"tags":{"amenity":"bank","brand:wikidata":"Q5001347"},"addTags":{"amenity":"bank","brand":"Busey Bank","brand:wikidata":"Q5001347","name":"Busey Bank"}},"amenity/bank/cadencebank-e05e09":{"name":"Cadence Bank","locationSet":{"include":["us-al","us-ar","us-fl","us-ga","us-il","us-la","us-ms","us-tn","us-tx"]},"geometry":["point","area"],"matchScore":2,"terms":["bankcorpsouth","bankcorpsouth bank","cadence bank"],"tags":{"amenity":"bank","brand:wikidata":"Q4854138"},"addTags":{"amenity":"bank","brand":"Cadence Bank","brand:wikidata":"Q4854138","name":"Cadence Bank"}},"amenity/bank/centralbank-43524a":{"name":"Central Bank","locationSet":{"include":["us-fl","us-il","us-ks","us-mo","us-nc","us-ok","us-tn"]},"geometry":["point","area"],"matchScore":2,"terms":["central bank"],"tags":{"amenity":"bank","brand:wikidata":"Q113482320"},"addTags":{"amenity":"bank","brand":"Central Bank","brand:wikidata":"Q113482320","name":"Central Bank"}},"amenity/bank/consumerscreditunion-6bd15c":{"name":"Consumers Credit Union (Illinois)","locationSet":{"include":["us-il"]},"geometry":["point","area"],"matchScore":2,"terms":["consumers credit union"],"tags":{"amenity":"bank","brand:wikidata":"Q111381516"},"addTags":{"amenity":"bank","brand":"Consumers Credit Union","brand:wikidata":"Q111381516","name":"Consumers Credit Union"}},"amenity/bank/greenstatecreditunion-9a0c47":{"name":"GreenState Credit Union","locationSet":{"include":["us-ia","us-il"]},"geometry":["point","area"],"matchScore":2,"terms":["greenstate credit union"],"tags":{"amenity":"bank","brand:wikidata":"Q111381336"},"addTags":{"amenity":"bank","brand":"GreenState Credit Union","brand:wikidata":"Q111381336","name":"GreenState Credit Union"}},"amenity/bank/heartlandbank-6bd15c":{"name":"Heartland Bank (Illinois)","locationSet":{"include":["us-il"]},"geometry":["point","area"],"matchScore":2,"terms":["heartland bank","heartland bank and trust company"],"tags":{"amenity":"bank","brand:wikidata":"Q109870322"},"addTags":{"amenity":"bank","brand":"Heartland Bank","brand:wikidata":"Q109870322","name":"Heartland Bank","official_name":"Heartland Bank and Trust Company"}},"amenity/bank/oldsecondnationalbank-6bd15c":{"name":"Old Second National Bank","locationSet":{"include":["us-il"]},"geometry":["point","area"],"matchScore":2,"terms":["old second national bank"],"tags":{"amenity":"bank","brand:wikidata":"Q108916891"},"addTags":{"amenity":"bank","brand":"Old Second National Bank","brand:wikidata":"Q108916891","name":"Old Second National Bank"}},"amenity/bank/selfhelpfederalcreditunion-8dbd99":{"name":"Self-Help Federal Credit Union","locationSet":{"include":["us-ca","us-il","us-wa","us-wi"]},"geometry":["point","area"],"matchScore":2,"terms":["self-help federal credit union"],"tags":{"amenity":"bank","brand:wikidata":"Q111381724"},"addTags":{"amenity":"bank","brand":"Self-Help Federal Credit Union","brand:wikidata":"Q111381724","name":"Self-Help Federal Credit Union"}},"amenity/bicycle_rental/divvy-6b0679":{"name":"Divvy","locationSet":{"include":["us-il"]},"geometry":["point","vertex","area"],"matchScore":2,"terms":["divvy","lyft","lyft bike"],"fields":["name","brand","{amenity/bicycle_rental}"],"tags":{"amenity":"bicycle_rental","brand:wikidata":"Q16973938"},"addTags":{"amenity":"bicycle_rental","brand":"Divvy","brand:wikidata":"Q16973938","fee":"yes","name":"Divvy","network":"Divvy","network:wikidata":"Q16973938","operator":"Lyft","operator:type":"private","operator:wikidata":"Q17077936"}},"amenity/clinic/northwesternmedicine-7453f3":{"name":"Northwestern Medicine","locationSet":{"include":["us-il"]},"geometry":["point","area"],"matchScore":2,"terms":["northwestern medicine","northwestern memorial healthcare"],"reference":{"key":"amenity","value":"clinic"},"tags":{"amenity":"clinic","brand:wikidata":"Q50036890"},"addTags":{"amenity":"clinic","brand":"Northwestern Medicine","brand:wikidata":"Q50036890","healthcare":"clinic"}},"amenity/clinic/veinclinicsofamerica-12a747":{"name":"Vein Clinics of America","locationSet":{"include":["us-ct","us-ga","us-il","us-in","us-ks","us-md","us-mn","us-mo","us-nc","us-oh","us-tn","us-tx","us-va","us-wi"]},"geometry":["point","area"],"matchScore":2,"terms":["vein clinics of america"],"reference":{"key":"amenity","value":"clinic"},"tags":{"amenity":"clinic","brand:wikidata":"Q113712355"},"addTags":{"amenity":"clinic","brand":"Vein Clinics of America","brand:wikidata":"Q113712355","healthcare":"clinic"}},"amenity/dentist/dentalworks-f3d61f":{"name":"DentalWorks","locationSet":{"include":["us-az","us-co","us-il","us-in","us-ky","us-mi","us-nc","us-oh","us-pa","us-sc","us-tn","us-tx","us-wi"]},"geometry":["point","area"],"matchScore":2,"terms":["dentalworks"],"reference":{"key":"amenity","value":"dentist"},"tags":{"amenity":"dentist","brand:wikidata":"Q113712187"},"addTags":{"amenity":"dentist","brand":"DentalWorks","brand:wikidata":"Q113712187","healthcare":"dentist","name":"DentalWorks"}},"amenity/fast_food/sandwich/alsbeef-0e88aa":{"name":"Al's Beef","locationSet":{"include":["us-il"]},"geometry":["point","area"],"matchScore":2,"terms":["al's beef"],"reference":{"key":"cuisine","value":"sandwich"},"tags":{"amenity":"fast_food","brand:wikidata":"Q110609570","cuisine":"sandwich"},"addTags":{"amenity":"fast_food","brand":"Al's Beef","brand:wikidata":"Q110609570","cuisine":"sandwich","name":"Al's Beef","takeaway":"yes"}},"amenity/fast_food/alohapokeco-6b3f2b":{"name":"Aloha Pokē Co","locationSet":{"include":["us-dc","us-fl","us-ga","us-il","us-mn","us-tx","us-wi"]},"geometry":["point","area"],"matchScore":2,"terms":["aloha pokē co"],"tags":{"amenity":"fast_food","brand:wikidata":"Q111231031"},"addTags":{"amenity":"fast_food","brand":"Aloha Pokē Co","brand:wikidata":"Q111231031","cuisine":"poke","name":"Aloha Pokē Co","takeaway":"yes"}},"amenity/fast_food/donut/duckdonuts-6333a9":{"name":"Duck Donuts","locationSet":{"include":["ca-on","eg","sa","us-ar","us-az","us-ca","us-co","us-fl","us-ga","us-id","us-il","us-ks","us-ky","us-md","us-mi","us-mn","us-mo","us-nc","us-nj","us-ny","us-oh","us-pa","us-sc","us-tn","us-tx","us-ut","us-va"]},"geometry":["point","area"],"matchScore":2,"terms":["duck donuts","duck doughnuts"],"reference":{"key":"cuisine","value":"donut"},"tags":{"amenity":"fast_food","brand:wikidata":"Q54958282","cuisine":"donut"},"addTags":{"amenity":"fast_food","brand":"Duck Donuts","brand:wikidata":"Q54958282","cuisine":"donut","name":"Duck Donuts","takeaway":"yes"}},"amenity/fast_food/chicken/haroldschickenshack-f76ba8":{"name":"Harold's Chicken Shack","locationSet":{"include":["us-az","us-ca","us-ga","us-il","us-in","us-mo","us-nv"]},"geometry":["point","area"],"matchScore":2,"terms":["harold's","harold's chicken","harold's chicken shack","the fried chicken king"],"reference":{"key":"cuisine","value":"chicken"},"tags":{"amenity":"fast_food","brand:wikidata":"Q5659832","cuisine":"chicken"},"addTags":{"amenity":"fast_food","brand":"Harold's Chicken Shack","brand:wikidata":"Q5659832","cuisine":"chicken","name":"Harold's Chicken Shack","takeaway":"yes"}},"amenity/fast_food/lemonsharkpoke-44dd3c":{"name":"LemonShark Poké","locationSet":{"include":["us-az","us-ca","us-fl","us-il","us-la","us-nc","us-oh","us-tx"]},"geometry":["point","area"],"matchScore":2,"terms":["lemonshark poké"],"tags":{"amenity":"fast_food","brand:wikidata":"Q115411660"},"addTags":{"amenity":"fast_food","brand":"LemonShark Poké","brand:wikidata":"Q115411660","cuisine":"poke","name":"LemonShark Poké.","takeaway":"yes"}},"amenity/fast_food/pokebros-eebea8":{"name":"Poke Bros.","locationSet":{"include":["us-de","us-fl","us-il","us-in","us-ky","us-nc","us-nj","us-ny","us-oh","us-pa","us-ri","us-sc","us-tn"]},"geometry":["point","area"],"matchScore":2,"terms":["poke bros."],"tags":{"amenity":"fast_food","brand:wikidata":"Q113640421"},"addTags":{"amenity":"fast_food","brand":"Poke Bros.","brand:wikidata":"Q113640421","cuisine":"poke","name":"Poke Bros.","takeaway":"yes"}},"amenity/fuel/faststop-13feb8":{"name":"FAST STOP","locationSet":{"include":["us-ia","us-il","us-mi","us-mo","us-ne","us-wi"]},"geometry":["point","area"],"matchScore":2,"terms":["fast stop"],"fields":["name","brand","{amenity/fuel}"],"tags":{"amenity":"fuel","brand:wikidata":"Q116734101"},"addTags":{"amenity":"fuel","brand":"FAST STOP","brand:wikidata":"Q116734101","name":"FAST STOP"}},"amenity/fuel/food4less-25dc49":{"name":"Food 4 Less","locationSet":{"include":["us-ca","us-il","us-in"]},"geometry":["point","area"],"matchScore":2,"terms":["food 4 less"],"fields":["name","brand","{amenity/fuel}"],"tags":{"amenity":"fuel","brand:wikidata":"Q5465282"},"addTags":{"amenity":"fuel","brand":"Food 4 Less","brand:wikidata":"Q5465282","name":"Food 4 Less"}},"amenity/fuel/qiknez-e7bc16":{"name":"Qik-n-EZ","locationSet":{"include":["us-il"]},"geometry":["point","area"],"matchScore":2,"terms":["qik-n-ez"],"fields":["name","brand","{amenity/fuel}"],"tags":{"amenity":"fuel","brand:wikidata":"Q113629559"},"addTags":{"amenity":"fuel","brand":"Qik-n-EZ","brand:wikidata":"Q113629559","name":"Qik-n-EZ"}},"amenity/fuel/rhodes-03973e":{"name":"Rhodes","locationSet":{"include":["us-il","us-mo"]},"geometry":["point","area"],"matchScore":2,"terms":["rhodes","rhodes 101"],"fields":["name","brand","{amenity/fuel}"],"tags":{"amenity":"fuel","brand:wikidata":"Q114570150"},"addTags":{"amenity":"fuel","brand":"Rhodes","brand:wikidata":"Q114570150","name":"Rhodes"}},"amenity/ice_cream/jenissplendidicecreams-53b2e0":{"name":"Jeni's Splendid Ice Cream","locationSet":{"include":["us-al","us-ca","us-dc","us-fl","us-ga","us-il","us-mo","us-nc","us-oh","us-pa","us-sc","us-tn","us-tx"]},"geometry":["point","area"],"matchScore":2,"terms":["jeni's","jeni's splendid ice creams"],"tags":{"amenity":"ice_cream","brand:wikidata":"Q16851196"},"addTags":{"amenity":"ice_cream","brand":"Jeni's Splendid Ice Creams","brand:wikidata":"Q16851196","name":"Jeni's Splendid Ice Creams","short_name":"Jeni's"}},"amenity/restaurant/pizza/beggarspizza-b2316d":{"name":"Beggars Pizza","locationSet":{"include":["us-il"]},"geometry":["point","area"],"matchScore":2,"terms":["beggars pizza"],"reference":{"key":"cuisine","value":"pizza"},"tags":{"amenity":"restaurant","brand:wikidata":"Q113946029","cuisine":"pizza"},"addTags":{"amenity":"restaurant","brand":"Beggars Pizza","brand:wikidata":"Q113946029","cuisine":"pizza","name":"Beggars Pizza"}},"amenity/restaurant/pizza/homeruninnpizzeria-b2316d":{"name":"Home Run Inn Pizzeria","locationSet":{"include":["us-il"]},"geometry":["point","area"],"matchScore":2,"terms":["home run inn"],"reference":{"key":"cuisine","value":"pizza"},"tags":{"amenity":"restaurant","brand:wikidata":"Q16995746","cuisine":"pizza"},"addTags":{"amenity":"restaurant","brand":"Home Run Inn","brand:wikidata":"Q16995746","cuisine":"pizza","name":"Home Run Inn Pizzeria"}},"amenity/restaurant/american/lazydog-f4f1ab":{"name":"Lazy Dog","locationSet":{"include":["us-ca","us-co","us-fl","us-ga","us-il","us-nv","us-tx","us-va"]},"geometry":["point","area"],"matchScore":2,"terms":["lazy dog"],"reference":{"key":"cuisine","value":"american"},"tags":{"amenity":"restaurant","brand:wikidata":"Q111304278","cuisine":"american"},"addTags":{"amenity":"restaurant","brand":"Lazy Dog","brand:wikidata":"Q111304278","cuisine":"american","name":"Lazy Dog"}},"amenity/restaurant/italian/maggianoslittleitaly-acf8ec":{"name":"Maggiano's Little Italy","locationSet":{"include":["us-az","us-ca","us-co","us-dc","us-fl","us-ga","us-il","us-in","us-ks","us-ma","us-md","us-mi","us-mo","us-nc","us-nj","us-nv","us-ny","us-oh","us-pa","us-tn","us-tx","us-va","us-wa","us-wi"]},"geometry":["point","area"],"matchScore":2,"terms":["maggiano's little italy"],"reference":{"key":"cuisine","value":"italian"},"tags":{"amenity":"restaurant","brand:wikidata":"Q6730149","cuisine":"italian"},"addTags":{"amenity":"restaurant","brand":"Maggiano's Little Italy","brand:wikidata":"Q6730149","cuisine":"italian","name":"Maggiano's Little Italy"}},"amenity/restaurant/pizza/monicalspizza-18638b":{"name":"Monical's Pizza","locationSet":{"include":["us-il","us-in","us-mo","us-wi"]},"geometry":["point","area"],"matchScore":2,"terms":["monical's pizza"],"reference":{"key":"cuisine","value":"pizza"},"tags":{"amenity":"restaurant","brand:wikidata":"Q6900121","cuisine":"pizza"},"addTags":{"amenity":"restaurant","brand":"Monical's Pizza","brand:wikidata":"Q6900121","cuisine":"pizza","name":"Monical's Pizza"}},"amenity/restaurant/pizza/nativegrillandwings-b39dfd":{"name":"Native Grill & Wings","locationSet":{"include":["us-az","us-il","us-tx"]},"geometry":["point","area"],"matchScore":2,"terms":["native grill","native grill & wings"],"reference":{"key":"cuisine","value":"pizza"},"tags":{"amenity":"restaurant","brand:wikidata":"Q69599983","cuisine":"wings;pizza;burger"},"addTags":{"amenity":"restaurant","brand":"Native Grill & Wings","brand:wikidata":"Q69599983","cuisine":"wings;pizza;burger","name":"Native Grill & Wings"}},"leisure/fitness_centre/theedgefitnessclub-773501":{"name":"The Edge Fitness Club","locationSet":{"include":["us-ct","us-de","us-il","us-mi","us-mo","us-nj","us-pa","us-ri"]},"geometry":["point","area"],"matchScore":2,"terms":["the edge fitness club"],"tags":{"brand:wikidata":"Q109339519","leisure":"fitness_centre"},"addTags":{"brand":"The Edge Fitness Club","brand:wikidata":"Q109339519","leisure":"fitness_centre","name":"The Edge Fitness Club"}},"leisure/sports_centre/xgolf-8a88af":{"name":"X Golf","locationSet":{"include":["us-al","us-co","us-ga","us-il","us-in","us-ks","us-ma","us-me","us-mi","us-mn","us-mo","us-nd","us-ne","us-ny","us-oh","us-or","us-pa","us-ri","us-sc","us-sd","us-ut","us-va","us-wa","us-wi"]},"geometry":["point","area"],"matchScore":2,"terms":["x golf"],"fields":["name","brand","{leisure/sports_centre}"],"tags":{"brand:wikidata":"Q111585369","leisure":"sports_centre"},"addTags":{"brand":"X Golf","brand:wikidata":"Q111585369","indoor":"yes","leisure":"sports_centre","name":"X Golf","sport":"golf"}},"office/insurance/insurancenavybrokers-082118":{"name":"Insurance Navy Brokers","locationSet":{"include":["us-ca","us-il","us-tx"]},"geometry":["point","area"],"matchScore":2,"terms":["insurance navy brokers"],"fields":["name","brand","{office/insurance}"],"tags":{"brand:wikidata":"Q106564453","office":"insurance"},"addTags":{"brand":"Insurance Navy Brokers","brand:wikidata":"Q106564453","name":"Insurance Navy Brokers","office":"insurance"}},"shop/alcohol/binnysbeveragedepot-b97ce0":{"name":"Binny's Beverage Depot","locationSet":{"include":["us-il"]},"geometry":["point","area"],"matchScore":2,"terms":["binny's beverage depot"],"tags":{"brand:wikidata":"Q30687714","shop":"alcohol"},"addTags":{"brand":"Binny's Beverage Depot","brand:wikidata":"Q30687714","name":"Binny's Beverage Depot","shop":"alcohol"}},"shop/cannabis/beyondhello-f81ec6":{"name":"Beyond Hello","locationSet":{"include":["us-ca","us-il","us-ma","us-nv","us-oh","us-pa","us-va"]},"geometry":["point","area"],"matchScore":2,"terms":["beyond hello"],"tags":{"brand:wikidata":"Q116734157","shop":"cannabis"},"addTags":{"brand":"Beyond Hello","brand:wikidata":"Q116734157","name":"Beyond Hello","shop":"cannabis"}},"shop/cannabis/cannabist-c9b3a7":{"name":"Cannabist","locationSet":{"include":["us-az","us-ca","us-fl","us-il","us-ma","us-mo","us-nj","us-ny","us-ut","us-va","us-wv"]},"geometry":["point","area"],"matchScore":2,"terms":["cannabist"],"tags":{"brand:wikidata":"Q114896590","shop":"cannabis"},"addTags":{"brand":"Cannabist","brand:wikidata":"Q114896590","name":"Cannabist","shop":"cannabis"}},"shop/cannabis/consume-f6bf2f":{"name":"Consume","locationSet":{"include":["us-az","us-il","us-mi"]},"geometry":["point","area"],"matchScore":2,"terms":["consume"],"tags":{"brand:wikidata":"Q114918005","shop":"cannabis"},"addTags":{"brand":"Consume","brand:wikidata":"Q114918005","name":"Consume","shop":"cannabis"}},"shop/cannabis/curaleaf-4b9e8a":{"name":"Curaleaf","locationSet":{"include":["us-az","us-ct","us-fl","us-il","us-ma","us-md","us-me","us-mi","us-nd","us-nj","us-nv","us-ny","us-oh","us-or","us-pa","us-ut","us-vt"]},"geometry":["point","area"],"matchScore":2,"terms":["curaleaf"],"tags":{"brand:wikidata":"Q85754829","shop":"cannabis"},"addTags":{"brand":"Curaleaf","brand:wikidata":"Q85754829","name":"Curaleaf","shop":"cannabis"}},"shop/cannabis/rise-ce371d":{"name":"RISE","locationSet":{"include":["us-fl","us-il","us-ma","us-md","us-nj","us-nv","us-oh","us-pa","us-va"]},"geometry":["point","area"],"matchScore":2,"terms":["rise"],"tags":{"brand:wikidata":"Q108911841","shop":"cannabis"},"addTags":{"brand":"RISE","brand:wikidata":"Q108911841","name":"RISE","shop":"cannabis"}},"shop/cannabis/sunnyside-d4e7e6":{"name":"Sunnyside","locationSet":{"include":["us-az","us-fl","us-il","us-ma","us-ny","us-oh","us-pa"]},"geometry":["point","area"],"matchScore":2,"terms":["sunnyside"],"tags":{"brand:wikidata":"Q114880592","shop":"cannabis"},"addTags":{"brand":"Sunnyside","brand:wikidata":"Q114880592","name":"Sunnyside","shop":"cannabis"}},"shop/cannabis/zenleaf-65d11e":{"name":"Zen Leaf","locationSet":{"include":["us-ar","us-az","us-il","us-ma","us-md","us-mi","us-nj","us-nv","us-oh","us-pa"]},"geometry":["point","area"],"matchScore":2,"terms":["zen leaf"],"tags":{"brand:wikidata":"Q108911834","shop":"cannabis"},"addTags":{"brand":"Zen Leaf","brand:wikidata":"Q108911834","name":"Zen Leaf","shop":"cannabis"}},"shop/convenience/rhodes-37aedb":{"name":"Rhodes","locationSet":{"include":["us-il","us-mo"]},"geometry":["point","area"],"matchScore":2,"terms":["rhodes","rhodes 101"],"tags":{"brand:wikidata":"Q114570150","shop":"convenience"},"addTags":{"brand":"Rhodes","brand:wikidata":"Q114570150","name":"Rhodes","shop":"convenience"}},"shop/gas/hicksgas-7ee0a0":{"name":"Hicksgas","locationSet":{"include":["us-il","us-in"]},"geometry":["point","area"],"matchScore":2,"terms":["hicksgas"],"tags":{"brand:wikidata":"Q116734529","shop":"gas"},"addTags":{"brand":"Hicksgas","brand:wikidata":"Q116734529","fuel:lpg":"yes","name":"Hicksgas","shop":"gas"}},"shop/gift/atticsalt-ae6503":{"name":"Attic Salt","locationSet":{"include":["us-az","us-ca","us-co","us-id","us-il","us-in","us-ks","us-la","us-mo","us-ne","us-nv","us-ok","us-or","us-tx","us-ut","us-wa"]},"geometry":["point","area"],"matchScore":2,"terms":["attic salt"],"tags":{"brand:wikidata":"Q108409773","shop":"gift"},"addTags":{"brand":"Attic Salt","brand:wikidata":"Q108409773","name":"Attic Salt","shop":"gift"}},"shop/pastry/mrsfields-e944b6":{"name":"Mrs. Fields","locationSet":{"include":["au","ph","us-ak","us-al","us-az","us-ca","us-co","us-de","us-fl","us-ga","us-hi","us-id","us-il","us-in","us-ks","us-la","us-ma","us-md","us-me","us-mi","us-mo","us-ms","us-nc","us-nj","us-nv","us-ny","us-oh","us-ok","us-pa","us-tx","us-ut","us-wi"]},"geometry":["point","area"],"matchScore":2,"terms":["mrs. fields"],"tags":{"brand:wikidata":"Q3866841","shop":"pastry"},"addTags":{"brand":"Mrs. Fields","brand:wikidata":"Q3866841","name":"Mrs. Fields","shop":"pastry"}},"shop/storage_rental/metroselfstorage-5b962b":{"name":"Metro Self Storage","locationSet":{"include":["us-al","us-ct","us-fl","us-ga","us-il","us-mn","us-nj","us-ny","us-pa","us-tn","us-tx","us-wi"]},"geometry":["point","area"],"matchScore":2,"terms":["metro self storage"],"tags":{"brand:wikidata":"Q114515454","shop":"storage_rental"},"addTags":{"brand":"Metro Self Storage","brand:wikidata":"Q114515454","name":"Metro Self Storage","shop":"storage_rental"}},"shop/storage_rental/thelockup-b15f96":{"name":"The Lock Up","locationSet":{"include":["us-ct","us-fl","us-hi","us-il","us-ma","us-mn","us-nj","us-ny"]},"geometry":["point","area"],"matchScore":2,"terms":["the lock up"],"tags":{"brand:wikidata":"Q17089825","shop":"storage_rental"},"addTags":{"brand":"The Lock Up","brand:wikidata":"Q17089825","name":"The Lock Up","shop":"storage_rental"}},"shop/storage_rental/ustorit-a1f08e":{"name":"U-Stor-It","locationSet":{"include":["us-ca","us-il","us-in"]},"geometry":["point","area"],"matchScore":2,"terms":["u-stor-it"],"tags":{"brand:wikidata":"Q116225856","shop":"storage_rental"},"addTags":{"brand":"U-Stor-It","brand:wikidata":"Q116225856","name":"U-Stor-It","shop":"storage_rental"}},"shop/supermarket/angelocaputosfreshmarkets-5ca8e2":{"name":"Angelo Caputo's Fresh Markets","locationSet":{"include":["us-il"]},"geometry":["point","area"],"matchScore":2,"terms":["angelo caputo's fresh markets"],"tags":{"brand:wikidata":"Q118594294","shop":"supermarket"},"addTags":{"brand":"Angelo Caputo's Fresh Markets","brand:wikidata":"Q118594294","name":"Angelo Caputo's Fresh Markets","shop":"supermarket"}},"shop/supermarket/berkotssuperfoods-5dc7ba":{"name":"Berkot's Super Foods","locationSet":{"include":["us-il","us-wi"]},"geometry":["point","area"],"matchScore":2,"terms":["berkot's super foods"],"tags":{"brand:wikidata":"Q118594324","shop":"supermarket"},"addTags":{"brand":"Berkot's Super Foods","brand:wikidata":"Q118594324","name":"Berkot's Super Foods","shop":"supermarket"}},"shop/supermarket/buteramarket-5ca8e2":{"name":"Butera Market","locationSet":{"include":["us-il"]},"geometry":["point","area"],"matchScore":2,"terms":["butera market"],"tags":{"brand:wikidata":"Q118629448","shop":"supermarket"},"addTags":{"brand":"Butera Market","brand:wikidata":"Q118629448","name":"Butera Market","shop":"supermarket"}},"shop/supermarket/cermakfreshmarket-5ca8e2":{"name":"Cermak Fresh Market","locationSet":{"include":["us-il"]},"geometry":["point","area"],"matchScore":2,"terms":["cermak fresh market"],"tags":{"brand:wikidata":"Q118865499","shop":"supermarket"},"addTags":{"brand":"Cermak Fresh Market","brand:wikidata":"Q118865499","name":"Cermak Fresh Market","shop":"supermarket"}},"shop/supermarket/food4less-f69edf":{"name":"Food 4 Less","locationSet":{"include":["us-ca","us-il","us-in"]},"geometry":["point","area"],"matchScore":2,"terms":["food 4 less"],"tags":{"brand:wikidata":"Q5465282","shop":"supermarket"},"addTags":{"brand":"Food 4 Less","brand:wikidata":"Q5465282","name":"Food 4 Less","shop":"supermarket"}},"shop/supermarket/marianosfreshmarket-5ca8e2":{"name":"Mariano's Fresh Market","locationSet":{"include":["us-il"]},"geometry":["point","area"],"matchScore":2,"terms":["mariano's","mariano's fresh market"],"tags":{"brand:wikidata":"Q55622168","shop":"supermarket"},"addTags":{"brand":"Mariano's Fresh Market","brand:wikidata":"Q55622168","name":"Mariano's Fresh Market","shop":"supermarket","short_name":"Mariano's"}},"shop/supermarket/petesmarket-5ca8e2":{"name":"Pete's Market","locationSet":{"include":["us-il"]},"geometry":["point","area"],"matchScore":2,"terms":["pete's market"],"tags":{"brand:wikidata":"Q118793358","shop":"supermarket"},"addTags":{"brand":"Pete's Market","brand:wikidata":"Q118793358","name":"Pete's Market","shop":"supermarket"}},"shop/supermarket/tonysfreshmarket-5ca8e2":{"name":"Tony's Fresh Market","locationSet":{"include":["us-il"]},"geometry":["point","area"],"matchScore":2,"terms":["tony's fresh market"],"tags":{"brand:wikidata":"Q118594253","shop":"supermarket"},"addTags":{"brand":"Tony's Fresh Market","brand:wikidata":"Q118594253","name":"Tony's Fresh Market","shop":"supermarket"}},"shop/supermarket/woodmansmarkets-5dc7ba":{"name":"Woodman's Markets","locationSet":{"include":["us-il","us-wi"]},"geometry":["point","area"],"matchScore":2,"terms":["woodman's markets"],"tags":{"brand:wikidata":"Q8033073","shop":"supermarket"},"addTags":{"brand":"Woodman's Markets","brand:wikidata":"Q8033073","name":"Woodman's Markets","shop":"supermarket"}},"shop/trade/altorfercat-786476":{"name":"Altorfer CAT","locationSet":{"include":["us-ia","us-il","us-in","us-mo"]},"geometry":["point","area"],"matchScore":2,"terms":["altorfer cat"],"tags":{"brand:wikidata":"Q109616115","shop":"trade"},"addTags":{"brand":"Altorfer CAT","brand:wikidata":"Q109616115","name":"Altorfer CAT","shop":"trade","trade":"construction_equipment"}},"shop/trade/americanroofingsupply-930674":{"name":"American Roofing Supply","locationSet":{"include":["us-az","us-co","us-id","us-il","us-in","us-mn","us-nd","us-ne","us-sd","us-wi"]},"geometry":["point","area"],"matchScore":2,"terms":["american roofing supply"],"tags":{"brand:wikidata":"Q114515313","shop":"trade"},"addTags":{"brand":"American Roofing Supply","brand:wikidata":"Q114515313","name":"American Roofing Supply","shop":"trade","trade":"roofing"}},"shop/trade/fabickcat-755a12":{"name":"Fabick CAT","locationSet":{"include":["us-il","us-mi","us-mo","us-wi"]},"geometry":["point","area"],"matchScore":2,"terms":["fabick cat"],"tags":{"brand:wikidata":"Q109619462","shop":"trade"},"addTags":{"brand":"Fabick CAT","brand:wikidata":"Q109619462","name":"Fabick CAT","shop":"trade","trade":"construction_equipment"}},"shop/trade/rplumber-ab5d0f":{"name":"RP Lumber","locationSet":{"include":["us-ia","us-il","us-mo","us-wi","us-wy"]},"geometry":["point","area"],"matchScore":2,"terms":["rp lumber"],"tags":{"brand:wikidata":"Q116671972","shop":"trade"},"addTags":{"brand":"RP Lumber","brand:wikidata":"Q116671972","name":"RP Lumber","shop":"trade","trade":"building_supplies"}},"shop/trade/springfieldelectric-5a9be2":{"name":"Springfield Electric","locationSet":{"include":["us-il"]},"geometry":["point","area"],"matchScore":2,"terms":["springfield electric","springfield electric supply company"],"tags":{"brand:wikidata":"Q109859496","shop":"trade"},"addTags":{"brand":"Springfield Electric","brand:wikidata":"Q109859496","name":"Springfield Electric","shop":"trade","trade":"building_supplies"}},"man_made/flagpole/chicago-285034":{"name":"Chicago","locationSet":{"include":["us-il"]},"geometry":["point","vertex"],"matchScore":2,"terms":["chicago"],"tags":{"flag:wikidata":"Q1402799","man_made":"flagpole"},"addTags":{"flag:colour":"white","flag:name":"Chicago","flag:type":"municipal","flag:wikidata":"Q1402799","man_made":"flagpole","subject":"Chicago","subject:wikidata":"Q1297"}},"amenity/clinic/cookcountyhealth-15fccf":{"name":"Cook County Health","locationSet":{"include":["us-il"]},"geometry":["point","area"],"matchScore":2,"terms":["cch","cook county health"],"fields":["name","operator","{amenity/clinic}"],"reference":{"key":"amenity","value":"clinic"},"tags":{"amenity":"clinic","operator:wikidata":"Q30286975"},"addTags":{"amenity":"clinic","healthcare":"clinic","operator":"Cook County Health","operator:short":"CCH","operator:wikidata":"Q30286975"}},"amenity/clinic/dulyhealthandcare-15fccf":{"name":"Duly Health & Care","locationSet":{"include":["us-il"]},"geometry":["point","area"],"matchScore":2,"terms":["dmg","duly","duly health & care","dupage medical group"],"fields":["name","operator","{amenity/clinic}"],"reference":{"key":"amenity","value":"clinic"},"tags":{"amenity":"clinic","operator:wikidata":"Q43896861"},"addTags":{"amenity":"clinic","healthcare":"clinic","operator":"Duly Health & Care","operator:wikidata":"Q43896861"}},"amenity/clinic/unitypointhealth-37d845":{"name":"UnityPoint Health","locationSet":{"include":["us-ia","us-il","us-wi"]},"geometry":["point","area"],"matchScore":2,"terms":["unitypoint health"],"fields":["name","operator","{amenity/clinic}"],"reference":{"key":"amenity","value":"clinic"},"searchable":false,"tags":{"amenity":"clinic","operator:wikidata":"Q17078774"},"addTags":{"amenity":"clinic","healthcare":"clinic","operator":"UnityPoint Health","operator:wikidata":"Q17078774"}},"amenity/courthouse/circuitcourtofcookcounty-ca7500":{"name":"Circuit Court of Cook County","locationSet":{"include":["us-il"]},"geometry":["point","area"],"matchScore":2,"terms":["circuit court of cook county"],"tags":{"amenity":"courthouse","operator:wikidata":"Q5121577"},"addTags":{"amenity":"courthouse","operator":"Circuit Court of Cook County","operator:wikidata":"Q5121577"}},"amenity/fire_station/napervillefiredepartment-67e5e3":{"name":"Naperville Fire Department","locationSet":{"include":["us-il"]},"geometry":["point","area"],"matchScore":2,"terms":["naperville fire department"],"tags":{"amenity":"fire_station","operator:wikidata":"Q17082395"},"addTags":{"amenity":"fire_station","operator":"Naperville Fire Department","operator:wikidata":"Q17082395"}},"amenity/hospital/northwesternmedicine-1d2216":{"name":"Northwestern Medicine","locationSet":{"include":["us-il"]},"geometry":["area","point"],"matchScore":2,"terms":["northwestern medicine","northwestern memorial healthcare"],"fields":["name","operator","{amenity/hospital}"],"reference":{"key":"amenity","value":"hospital"},"tags":{"amenity":"hospital","operator:wikidata":"Q50036890"},"addTags":{"amenity":"hospital","healthcare":"hospital","operator":"Northwestern Medicine","operator:wikidata":"Q50036890"}},"amenity/hospital/unitypointhealth-ac6cc4":{"name":"UnityPoint Health","locationSet":{"include":["us-ia","us-il","us-wi"]},"geometry":["area","point"],"matchScore":2,"terms":["unitypoint health"],"fields":["name","operator","{amenity/hospital}"],"reference":{"key":"amenity","value":"hospital"},"searchable":false,"tags":{"amenity":"hospital","operator:wikidata":"Q17078774"},"addTags":{"amenity":"hospital","healthcare":"hospital","operator":"UnityPoint Health","operator:wikidata":"Q17078774"}},"amenity/library/chicagopubliclibrary-f51cb2":{"name":"Chicago Public Library","locationSet":{"include":["us-il"]},"geometry":["point","area"],"matchScore":2,"terms":["chicago public library","cpl"],"tags":{"amenity":"library","operator:wikidata":"Q1060421"},"addTags":{"amenity":"library","operator":"Chicago Public Library","operator:short":"CPL","operator:type":"public","operator:wikidata":"Q1060421"}},"amenity/police/illinoisstatepolice-157c12":{"name":"Illinois State Police","locationSet":{"include":["us-il"]},"geometry":["point","area"],"matchScore":2,"terms":["illinois state police","isp"],"tags":{"amenity":"police","operator:wikidata":"Q3148730"},"addTags":{"amenity":"police","operator":"Illinois State Police","operator:short":"ISP","operator:wikidata":"Q3148730"}},"amenity/prison/illinoisdepartmentofcorrections-ab530c":{"name":"Illinois Department of Corrections","locationSet":{"include":["us-il"]},"geometry":["area","point"],"matchScore":2,"terms":["idoc","illinois department of corrections"],"fields":["name","operator","{amenity/prison}"],"tags":{"amenity":"prison","operator:wikidata":"Q5999423"},"addTags":{"amenity":"prison","operator":"Illinois Department of Corrections","operator:wikidata":"Q5999423"}},"amenity/school/archdioceseofchicago-6d6198":{"name":"Archdiocese of Chicago","locationSet":{"include":["us-il"]},"geometry":["area","point"],"matchScore":2,"terms":["archdiocese of chicago"],"tags":{"amenity":"school","operator:wikidata":"Q1364344"},"addTags":{"amenity":"school","operator":"Archdiocese of Chicago","operator:type":"religious","operator:wikidata":"Q1364344"}},"amenity/school/arlingtonheightsschooldistrict25-6d6198":{"name":"Arlington Heights School District 25","locationSet":{"include":["us-il"]},"geometry":["area","point"],"matchScore":2,"terms":["ahsd25","arlington heights school district 25"],"tags":{"amenity":"school","operator:wikidata":"Q4792334"},"addTags":{"amenity":"school","operator":"Arlington Heights School District 25","operator:short":"AHSD25","operator:type":"public","operator:wikidata":"Q4792334"}},"amenity/school/bataviapublicschooldistrict101-6d6198":{"name":"Batavia Public School District 101","locationSet":{"include":["us-il"]},"geometry":["area","point"],"matchScore":2,"terms":["batavia public school district 101"],"tags":{"amenity":"school","operator:wikidata":"Q85745705"},"addTags":{"amenity":"school","operator":"Batavia Public School District 101","operator:type":"public","operator:wikidata":"Q85745705"}},"amenity/school/berwynnorthschooldistrict98-6d6198":{"name":"Berwyn North School District 98","locationSet":{"include":["us-il"]},"geometry":["area","point"],"matchScore":2,"terms":["berwyn north school district 98","bn98"],"tags":{"amenity":"school","operator:wikidata":"Q4896040"},"addTags":{"amenity":"school","operator":"Berwyn North School District 98","operator:short":"BN98","operator:type":"public","operator:wikidata":"Q4896040"}},"amenity/school/berwynsouthschooldistrict100-6d6198":{"name":"Berwyn South School District 100","locationSet":{"include":["us-il"]},"geometry":["area","point"],"matchScore":2,"terms":["berwyn south school district 100","bsd100"],"tags":{"amenity":"school","operator:wikidata":"Q4896043"},"addTags":{"amenity":"school","operator":"Berwyn South School District 100","operator:short":"BSD100","operator:type":"public","operator:wikidata":"Q4896043"}},"amenity/school/centralcommunityunitschooldistrict301-6d6198":{"name":"Central Community Unit School District 301","locationSet":{"include":["us-il"]},"geometry":["area","point"],"matchScore":2,"terms":["central community unit school district 301"],"tags":{"amenity":"school","operator:wikidata":"Q5060628"},"addTags":{"amenity":"school","operator":"Central Community Unit School District 301","operator:type":"public","operator:wikidata":"Q5060628"}},"amenity/school/chicagoheightsschooldistrict170-6d6198":{"name":"Chicago Heights School District 170","locationSet":{"include":["us-il"]},"geometry":["area","point"],"matchScore":2,"terms":["chicago heights school district 170","chsd170"],"tags":{"amenity":"school","operator:wikidata":"Q107645994"},"addTags":{"amenity":"school","operator":"Chicago Heights School District 170","operator:short":"CHSD170","operator:type":"public","operator:wikidata":"Q107645994"}},"amenity/school/chicagopublicschools-6d6198":{"name":"Chicago Public Schools","locationSet":{"include":["us-il"]},"geometry":["area","point"],"matchScore":2,"terms":["chicago public schools","cps"],"tags":{"amenity":"school","operator:wikidata":"Q2963340"},"addTags":{"amenity":"school","operator":"Chicago Public Schools","operator:short":"CPS","operator:type":"public","operator:wikidata":"Q2963340"}},"amenity/school/ciceroschooldistrict99-6d6198":{"name":"Cicero School District 99","locationSet":{"include":["us-il"]},"geometry":["area","point"],"matchScore":2,"terms":["cicero school district 99","d99"],"tags":{"amenity":"school","operator:wikidata":"Q5119369"},"addTags":{"amenity":"school","operator":"Cicero School District 99","operator:short":"D99","operator:type":"public","operator:wikidata":"Q5119369"}},"amenity/school/communityconsolidatedschooldistrict15-6d6198":{"name":"Community Consolidated School District 15","locationSet":{"include":["us-il"]},"geometry":["area","point"],"matchScore":2,"terms":["ccsd15","community consolidated school district 15","district 15"],"tags":{"amenity":"school","operator:wikidata":"Q16959009"},"addTags":{"amenity":"school","operator":"Community Consolidated School District 15","operator:short":"CCSD15","operator:type":"public","operator:wikidata":"Q16959009"}},"amenity/school/communityconsolidatedschooldistrict54-6d6198":{"name":"Community Consolidated School District 54","locationSet":{"include":["us-il"]},"geometry":["area","point"],"matchScore":2,"terms":["ccsd54","community consolidated school district 54","district 54"],"tags":{"amenity":"school","operator:wikidata":"Q5154701"},"addTags":{"amenity":"school","operator":"Community Consolidated School District 54","operator:short":"CCSD54","operator:type":"public","operator:wikidata":"Q5154701"}},"amenity/school/communityconsolidatedschooldistrict59-6d6198":{"name":"Community Consolidated School District 59","locationSet":{"include":["us-il"]},"geometry":["area","point"],"matchScore":2,"terms":["ccsd59","community consolidated school district 59"],"tags":{"amenity":"school","operator:wikidata":"Q5154702"},"addTags":{"amenity":"school","operator":"Community Consolidated School District 59","operator:short":"CCSD59","operator:type":"public","operator:wikidata":"Q5154702"}},"amenity/school/communityconsolidatedschooldistrict62-6d6198":{"name":"Community Consolidated School District 62","locationSet":{"include":["us-il"]},"geometry":["area","point"],"matchScore":2,"terms":["ccsd62","community consolidated school district 62","district 62"],"tags":{"amenity":"school","operator:wikidata":"Q5154703"},"addTags":{"amenity":"school","operator":"Community Consolidated School District 62","operator:short":"CCSD62","operator:type":"public","operator:wikidata":"Q5154703"}},"amenity/school/communityunitschooldistrict200-6d6198":{"name":"Community Unit School District 200","locationSet":{"include":["us-il"]},"geometry":["area","point"],"matchScore":2,"terms":["community unit school district 200"],"tags":{"amenity":"school","operator:wikidata":"Q5154901"},"addTags":{"amenity":"school","operator":"Community Unit School District 200","operator:type":"public","operator:wikidata":"Q5154901"}},"amenity/school/downersgrovegradeschooldistrict58-6d6198":{"name":"Downers Grove Grade School District 58","locationSet":{"include":["us-il"]},"geometry":["area","point"],"matchScore":2,"terms":["downers grove grade school district 58"],"tags":{"amenity":"school","operator:wikidata":"Q110810727"},"addTags":{"amenity":"school","operator":"Downers Grove Grade School District 58","operator:wikidata":"Q110810727"}},"amenity/school/eastaurorapublicschooldistrict131-6d6198":{"name":"East Aurora Public School District 131","locationSet":{"include":["us-il"]},"geometry":["area","point"],"matchScore":2,"terms":["d131","east aurora public school district 131"],"tags":{"amenity":"school","operator:wikidata":"Q5327762"},"addTags":{"amenity":"school","operator":"East Aurora Public School District 131","operator:short":"D131","operator:type":"public","operator:wikidata":"Q5327762"}},"amenity/school/elginareaschooldistrictu46-6d6198":{"name":"Elgin Area School District U46","locationSet":{"include":["us-il"]},"geometry":["area","point"],"matchScore":2,"terms":["elgin area school district u46","u-46"],"tags":{"amenity":"school","operator:wikidata":"Q2919833"},"addTags":{"amenity":"school","operator":"Elgin Area School District U46","operator:short":"U-46","operator:type":"public","operator:wikidata":"Q2919833"}},"amenity/school/elmwoodparkcommunityunitschooldistrict401-6d6198":{"name":"Elmwood Park Community Unit School District 401","locationSet":{"include":["us-il"]},"geometry":["area","point"],"matchScore":2,"terms":["elmwood park community unit school district 401","epcusd 401"],"tags":{"amenity":"school","operator:wikidata":"Q96377175"},"addTags":{"amenity":"school","operator":"Elmwood Park Community Unit School District 401","operator:short":"EPCUSD 401","operator:type":"public","operator:wikidata":"Q96377175"}},"amenity/school/evanstonskokieschooldistrict65-6d6198":{"name":"Evanston/Skokie School District 65","locationSet":{"include":["us-il"]},"geometry":["area","point"],"matchScore":2,"terms":["d65","evanston school district 65","evanston/skokie school district 65"],"tags":{"amenity":"school","operator:wikidata":"Q16992798"},"addTags":{"amenity":"school","operator":"Evanston/Skokie School District 65","operator:short":"D65","operator:type":"public","operator:wikidata":"Q16992798"}},"amenity/school/glenviewschooldistrict34-6d6198":{"name":"Glenview School District 34","locationSet":{"include":["us-il"]},"geometry":["area","point"],"matchScore":2,"terms":["dsd34","glenview school district 34"],"tags":{"amenity":"school","operator:wikidata":"Q5569395"},"addTags":{"amenity":"school","operator":"Glenview School District 34","operator:short":"DSD34","operator:type":"public","operator:wikidata":"Q5569395"}},"amenity/school/indianprairieschooldistrict204-6d6198":{"name":"Indian Prairie School District 204","locationSet":{"include":["us-il"]},"geometry":["area","point"],"matchScore":2,"terms":["indian prairie school district 204"],"tags":{"amenity":"school","operator:wikidata":"Q16996857"},"addTags":{"amenity":"school","operator":"Indian Prairie School District 204","operator:type":"public","operator:wikidata":"Q16996857"}},"amenity/school/jolietpublicschoolsdistrict86-6d6198":{"name":"Joliet Public Schools District 86","locationSet":{"include":["us-il"]},"geometry":["area","point"],"matchScore":2,"terms":["joliet district 86","joliet public schools district 86"],"tags":{"amenity":"school","operator:wikidata":"Q20747231"},"addTags":{"amenity":"school","operator":"Joliet Public Schools District 86","operator:short":"Joliet District 86","operator:type":"public","operator:wikidata":"Q20747231"}},"amenity/school/joliettownshiphighschooldistrict204-6d6198":{"name":"Joliet Township High School District 204","locationSet":{"include":["us-il"]},"geometry":["area","point"],"matchScore":2,"terms":["joliet township high school district 204","jths204"],"tags":{"amenity":"school","operator:wikidata":"Q6269999"},"addTags":{"amenity":"school","operator":"Joliet Township High School District 204","operator:short":"JTHS204","operator:type":"public","operator:wikidata":"Q6269999"}},"amenity/school/kanelandcommunityunitschooldistrict302-6d6198":{"name":"Kaneland Community Unit School District 302","locationSet":{"include":["us-il"]},"geometry":["area","point"],"matchScore":2,"terms":["kaneland community unit school district 302"],"tags":{"amenity":"school","operator:wikidata":"Q85773485"},"addTags":{"amenity":"school","operator":"Kaneland Community Unit School District 302","operator:type":"public","operator:wikidata":"Q85773485"}},"amenity/school/lislecommunityunitschooldistrict202-6d6198":{"name":"Lisle Community Unit School District 202","locationSet":{"include":["us-il"]},"geometry":["area","point"],"matchScore":2,"terms":["lisle community unit school district 202"],"tags":{"amenity":"school","operator:wikidata":"Q26258565"},"addTags":{"amenity":"school","operator":"Lisle Community Unit School District 202","operator:type":"public","operator:wikidata":"Q26258565"}},"amenity/school/mainetownshiphighschooldistrict207-6d6198":{"name":"Maine Township High School District 207","locationSet":{"include":["us-il"]},"geometry":["area","point"],"matchScore":2,"terms":["maine township high school district 207"],"tags":{"amenity":"school","operator:wikidata":"Q6736527"},"addTags":{"amenity":"school","operator":"Maine Township High School District 207","operator:type":"public","operator:wikidata":"Q6736527"}},"amenity/school/marquardtschooldistrict15-6d6198":{"name":"Marquardt School District 15","locationSet":{"include":["us-il"]},"geometry":["area","point"],"matchScore":2,"terms":["marquardt school district 15"],"tags":{"amenity":"school","operator:wikidata":"Q30694384"},"addTags":{"amenity":"school","operator":"Marquardt School District 15","operator:wikidata":"Q30694384"}},"amenity/school/napervillecommunityunitschooldistrict203-6d6198":{"name":"Naperville Community Unit School District 203","locationSet":{"include":["us-il"]},"geometry":["area","point"],"matchScore":2,"terms":["naperville community unit school district 203"],"tags":{"amenity":"school","operator:wikidata":"Q6964850"},"addTags":{"amenity":"school","operator":"Naperville Community Unit School District 203","operator:type":"public","operator:wikidata":"Q6964850"}},"amenity/school/nilestownshiphighschooldistrict219-6d6198":{"name":"Niles Township High School District 219","locationSet":{"include":["us-il"]},"geometry":["area","point"],"matchScore":2,"terms":["d219","niles township high school district 219"],"tags":{"amenity":"school","operator:wikidata":"Q7037048"},"addTags":{"amenity":"school","operator":"Niles Township High School District 219","operator:short":"D219","operator:type":"public","operator:wikidata":"Q7037048"}},"amenity/school/oakparkelementaryschooldistrict97-6d6198":{"name":"Oak Park Elementary School District 97","locationSet":{"include":["us-il"]},"geometry":["area","point"],"matchScore":2,"terms":["oak park elementary school district","oak park elementary school district 97","opesd97"],"tags":{"amenity":"school","operator:wikidata":"Q7073660"},"addTags":{"amenity":"school","operator":"Oak Park Elementary School District 97","operator:short":"OPESD97","operator:type":"public","operator:wikidata":"Q7073660"}},"amenity/school/oswegocommunityunitschooldistrict308-6d6198":{"name":"Oswego Community Unit School District 308","locationSet":{"include":["us-il"]},"geometry":["area","point"],"matchScore":2,"terms":["oswego community unit school district 308"],"tags":{"amenity":"school","operator:wikidata":"Q7108226"},"addTags":{"amenity":"school","operator":"Oswego Community Unit School District 308","operator:wikidata":"Q7108226"}},"amenity/school/plainfieldcommunityconsolidatedschooldistrict202-6d6198":{"name":"Plainfield Community Consolidated School District 202","locationSet":{"include":["us-il"]},"geometry":["area","point"],"matchScore":2,"terms":["plainfield community consolidated school district 202"],"tags":{"amenity":"school","operator:wikidata":"Q7200683"},"addTags":{"amenity":"school","operator":"Plainfield Community Consolidated School District 202","operator:type":"public","operator:wikidata":"Q7200683"}},"amenity/school/queenbeeschooldistrict16-6d6198":{"name":"Queen Bee School District 16","locationSet":{"include":["us-il"]},"geometry":["area","point"],"matchScore":2,"terms":["qbsd16","queen bee school district 16"],"tags":{"amenity":"school","operator:wikidata":"Q114008996"},"addTags":{"amenity":"school","operator":"Queen Bee School District 16","operator:short":"QBSD16","operator:type":"public","operator:wikidata":"Q114008996"}},"amenity/school/rockislandmilanschooldistrict41-6d6198":{"name":"Rock Island - Milan School District #41","locationSet":{"include":["us-il"]},"geometry":["area","point"],"matchScore":2,"terms":["rimsd#41","rock island - milan school district #41"],"tags":{"amenity":"school","operator:wikidata":"Q7354491"},"addTags":{"amenity":"school","operator":"Rock Island - Milan School District #41","operator:short":"RIMSD#41","operator:type":"public","operator:wikidata":"Q7354491"}},"amenity/school/springfieldpublicschools-6d6198":{"name":"Springfield Public Schools (Illinois)","locationSet":{"include":["us-il"]},"geometry":["area","point"],"matchScore":2,"terms":["springfield public schools","sps"],"tags":{"amenity":"school","operator:wikidata":"Q19881878"},"addTags":{"amenity":"school","operator":"Springfield Public Schools","operator:short":"SPS","operator:type":"public","operator:wikidata":"Q19881878"}},"amenity/school/stcharlescommunityunitschooldistrict303-6d6198":{"name":"St. Charles Community Unit School District 303","locationSet":{"include":["us-il"]},"geometry":["area","point"],"matchScore":2,"terms":["st. charles community unit school district 303"],"tags":{"amenity":"school","operator:wikidata":"Q5154903"},"addTags":{"amenity":"school","operator":"St. Charles Community Unit School District 303","operator:wikidata":"Q5154903"}},"amenity/school/thorntonfractionaltownshiphighschooldistrict215-6d6198":{"name":"Thornton Fractional Township High School District 215","locationSet":{"include":["us-il"]},"geometry":["area","point"],"matchScore":2,"terms":["t.f. district 215","thornton fractional township high school district 215"],"tags":{"amenity":"school","operator:wikidata":"Q7796527"},"addTags":{"amenity":"school","operator":"Thornton Fractional Township High School District 215","operator:short":"T.F. District 215","operator:type":"public","operator:wikidata":"Q7796527"}},"amenity/school/thorntontownshiphighschooldistrict205-6d6198":{"name":"Thornton Township High School District 205","locationSet":{"include":["us-il"]},"geometry":["area","point"],"matchScore":2,"terms":["thornton township high school district 205","tthsd205"],"tags":{"amenity":"school","operator:wikidata":"Q7796562"},"addTags":{"amenity":"school","operator":"Thornton Township High School District 205","operator:short":"TTHSD205","operator:type":"public","operator:wikidata":"Q7796562"}},"amenity/school/townshiphighschooldistrict211-6d6198":{"name":"Township High School District 211","locationSet":{"include":["us-il"]},"geometry":["area","point"],"matchScore":2,"terms":["d211","township high school district 211"],"tags":{"amenity":"school","operator:wikidata":"Q7830251"},"addTags":{"amenity":"school","operator":"Township High School District 211","operator:short":"D211","operator:type":"public","operator:wikidata":"Q7830251"}},"amenity/school/townshiphighschooldistrict214-6d6198":{"name":"Township High School District 214","locationSet":{"include":["us-il"]},"geometry":["area","point"],"matchScore":2,"terms":["d214","township high school district 214"],"tags":{"amenity":"school","operator:wikidata":"Q7830252"},"addTags":{"amenity":"school","operator":"Township High School District 214","operator:short":"D214","operator:type":"public","operator:wikidata":"Q7830252"}},"amenity/school/valleyviewcommunityunitschooldistrict365u-6d6198":{"name":"Valley View Community Unit School District 365U","locationSet":{"include":["us-il"]},"geometry":["area","point"],"matchScore":2,"terms":["valley view community unit school district 365u"],"tags":{"amenity":"school","operator:wikidata":"Q7912268"},"addTags":{"amenity":"school","operator":"Valley View Community Unit School District 365U","operator:wikidata":"Q7912268"}},"amenity/school/waukegancommunityunitschooldistrict60-6d6198":{"name":"Waukegan Community Unit School District 60","locationSet":{"include":["us-il"]},"geometry":["area","point"],"matchScore":2,"terms":["waukegan community unit school district 60","wcusd60"],"tags":{"amenity":"school","operator:wikidata":"Q7975148"},"addTags":{"amenity":"school","operator":"Waukegan Community Unit School District 60","operator:short":"WCUSD60","operator:type":"public","operator:wikidata":"Q7975148"}},"amenity/school/westaurorapublicschooldistrict129-6d6198":{"name":"West Aurora Public School District 129","locationSet":{"include":["us-il"]},"geometry":["area","point"],"matchScore":2,"terms":["west aurora public school district 129"],"tags":{"amenity":"school","operator:wikidata":"Q7984347"},"addTags":{"amenity":"school","operator":"West Aurora Public School District 129","operator:wikidata":"Q7984347"}},"amenity/school/westmontcommunityunitschooldistrict201-6d6198":{"name":"Westmont Community Unit School District 201","locationSet":{"include":["us-il"]},"geometry":["area","point"],"matchScore":2,"terms":["westmont community unit school district 201"],"tags":{"amenity":"school","operator:wikidata":"Q7989247"},"addTags":{"amenity":"school","operator":"Westmont Community Unit School District 201","operator:wikidata":"Q7989247"}},"amenity/school/wheelingcommunityconsolidatedschooldistrict21-6d6198":{"name":"Wheeling Community Consolidated School District 21","locationSet":{"include":["us-il"]},"geometry":["area","point"],"matchScore":2,"terms":["ccsd21","wheeling community consolidated school district 21"],"tags":{"amenity":"school","operator:wikidata":"Q17091399"},"addTags":{"amenity":"school","operator":"Wheeling Community Consolidated School District 21","operator:short":"CCSD21","operator:type":"public","operator:wikidata":"Q17091399"}},"amenity/school/wilmettepublicschoolsdistrict39-6d6198":{"name":"Wilmette Public Schools District 39","locationSet":{"include":["us-il"]},"geometry":["area","point"],"matchScore":2,"terms":["wilmette public schools district 39","wpsd39"],"tags":{"amenity":"school","operator:wikidata":"Q5757923"},"addTags":{"amenity":"school","operator":"Wilmette Public Schools District 39","operator:short":"WPSD39","operator:type":"public","operator:wikidata":"Q5757923"}},"amenity/school/woodridgeschooldistrict68-6d6198":{"name":"Woodridge School District 68","locationSet":{"include":["us-il"]},"geometry":["area","point"],"matchScore":2,"terms":["woodridge school district 68"],"tags":{"amenity":"school","operator:wikidata":"Q85816135"},"addTags":{"amenity":"school","operator":"Woodridge School District 68","operator:type":"public","operator:wikidata":"Q85816135"}},"amenity/school/yorkvillecommunityunitschooldistrict115-6d6198":{"name":"Yorkville Community Unit School District 115","locationSet":{"include":["us-il"]},"geometry":["area","point"],"matchScore":2,"terms":["yorkville community unit school district 115"],"tags":{"amenity":"school","operator:wikidata":"Q21074289"},"addTags":{"amenity":"school","operator":"Yorkville Community Unit School District 115","operator:type":"public","operator:wikidata":"Q21074289"}},"boundary/illinoisdepartmentofnaturalresources-8c9c28":{"name":"Illinois Department of Natural Resources","locationSet":{"include":["us-il"]},"geometry":["line"],"matchScore":2,"terms":["illinois department of natural resources","illinois dnr"],"tags":{"boundary":"protected_area","operator:wikidata":"Q16846582"},"addTags":{"boundary":"protected_area","operator":"Illinois Department of Natural Resources","operator:short":"Illinois DNR","operator:wikidata":"Q16846582"}},"highway/toll_gantry/illinoistollway-6b4377":{"name":"Illinois Tollway","locationSet":{"include":["us-il"]},"geometry":["vertex"],"matchScore":2,"terms":["illinois tollway"],"fields":["name","operator","{highway/toll_gantry}"],"tags":{"highway":"toll_gantry","operator:wikidata":"Q1071617"},"addTags":{"highway":"toll_gantry","operator":"Illinois Tollway","operator:wikidata":"Q1071617"}},"leisure/nature_reserve/forestpreservedistrictofdupagecounty-6b40ef":{"name":"Forest Preserve District of DuPage County","locationSet":{"include":["us-il"]},"geometry":["area","point"],"matchScore":2,"terms":["forest preserve district of dupage county"],"tags":{"leisure":"nature_reserve","operator:wikidata":"Q5469079"},"addTags":{"leisure":"nature_reserve","operator":"Forest Preserve District of DuPage County","operator:type":"public","operator:wikidata":"Q5469079"}},"leisure/nature_reserve/lakecountyforestpreserves-6b40ef":{"name":"Lake County Forest Preserves","locationSet":{"include":["us-il"]},"geometry":["area","point"],"matchScore":2,"terms":["lake county forest preserves"],"tags":{"leisure":"nature_reserve","operator:wikidata":"Q17068552"},"addTags":{"leisure":"nature_reserve","operator":"Lake County Forest Preserves","operator:type":"government","operator:wikidata":"Q17068552"}},"leisure/nature_reserve/arlingtonheightsparkdistrict-6b40ef":{"name":"Arlington Heights Park District","locationSet":{"include":["us-il"]},"geometry":["area","point"],"matchScore":2,"terms":["ahpd","arlington heights park district"],"tags":{"leisure":"nature_reserve","operator:wikidata":"Q4792332"},"addTags":{"leisure":"nature_reserve","operator":"Arlington Heights Park District","operator:short":"AHPD","operator:type":"public","operator:wikidata":"Q4792332"}},"leisure/nature_reserve/bolingbrookparkdistrict-6b40ef":{"name":"Bolingbrook Park District","locationSet":{"include":["us-il"]},"geometry":["area","point"],"matchScore":2,"terms":["bolingbrook park district"],"tags":{"leisure":"nature_reserve","operator:wikidata":"Q111214103"},"addTags":{"leisure":"nature_reserve","operator":"Bolingbrook Park District","operator:type":"public","operator:wikidata":"Q111214103"}},"leisure/nature_reserve/calumetmemorialparkdistrict-6b40ef":{"name":"Calumet Memorial Park District","locationSet":{"include":["us-il"]},"geometry":["area","point"],"matchScore":2,"terms":["calumet memorial park district","cmpd"],"tags":{"leisure":"nature_reserve","operator:wikidata":"Q118594118"},"addTags":{"leisure":"nature_reserve","operator":"Calumet Memorial Park District","operator:short":"CMPD","operator:type":"public","operator:wikidata":"Q118594118"}},"leisure/nature_reserve/carolstreamparkdistrict-6b40ef":{"name":"Carol Stream Park District","locationSet":{"include":["us-il"]},"geometry":["area","point"],"matchScore":2,"terms":["carol stream park district"],"tags":{"leisure":"nature_reserve","operator:wikidata":"Q114358374"},"addTags":{"leisure":"nature_reserve","operator":"Carol Stream Park District","operator:type":"public","operator:wikidata":"Q114358374"}},"leisure/nature_reserve/chicagoheightsparkdistrict-6b40ef":{"name":"Chicago Heights Park District","locationSet":{"include":["us-il"]},"geometry":["area","point"],"matchScore":2,"terms":["chicago heights park district"],"tags":{"leisure":"nature_reserve","operator:wikidata":"Q30286803"},"addTags":{"leisure":"nature_reserve","operator":"Chicago Heights Park District","operator:type":"public","operator:wikidata":"Q30286803"}},"leisure/nature_reserve/chicagoparkdistrict-6b40ef":{"name":"Chicago Park District","locationSet":{"include":["us-il"]},"geometry":["area","point"],"matchScore":2,"terms":["chicago park district","chicago parks district"],"tags":{"leisure":"nature_reserve","operator:wikidata":"Q2963322"},"addTags":{"leisure":"nature_reserve","operator":"Chicago Park District","operator:type":"public","operator:wikidata":"Q2963322"}},"leisure/nature_reserve/clydeparkdistrict-6b40ef":{"name":"Clyde Park District","locationSet":{"include":["us-il"]},"geometry":["area","point"],"matchScore":2,"terms":["clyde park district"],"tags":{"leisure":"nature_reserve","operator:wikidata":"Q112220888"},"addTags":{"leisure":"nature_reserve","operator":"Clyde Park District","operator:type":"public","operator:wikidata":"Q112220888"}},"leisure/nature_reserve/crystallakeparkdistrict-6b40ef":{"name":"Crystal Lake Park District","locationSet":{"include":["us-il"]},"geometry":["area","point"],"matchScore":2,"terms":["crystal lake park district"],"tags":{"leisure":"nature_reserve","operator:wikidata":"Q110064003"},"addTags":{"leisure":"nature_reserve","operator":"Crystal Lake Park District","operator:type":"public","operator:wikidata":"Q110064003"}},"leisure/nature_reserve/downersgroveparkdistrict-6b40ef":{"name":"Downers Grove Park District","locationSet":{"include":["us-il"]},"geometry":["area","point"],"matchScore":2,"terms":["downers grove park district"],"tags":{"leisure":"nature_reserve","operator:wikidata":"Q112060184"},"addTags":{"leisure":"nature_reserve","operator":"Downers Grove Park District","operator:type":"public","operator:wikidata":"Q112060184"}},"leisure/nature_reserve/evanstonparksandrecreation-6b40ef":{"name":"Evanston Parks & Recreation","locationSet":{"include":["us-il"]},"geometry":["area","point"],"matchScore":2,"terms":["evanston park district","evanston parks & recreation"],"tags":{"leisure":"nature_reserve","operator:wikidata":"Q110064075"},"addTags":{"leisure":"nature_reserve","operator":"Evanston Parks & Recreation","operator:type":"public","operator:wikidata":"Q110064075"}},"leisure/nature_reserve/forestpreservedistrictofcookcounty-6b40ef":{"name":"Forest Preserve District of Cook County","locationSet":{"include":["us-il"]},"geometry":["area","point"],"matchScore":2,"terms":["forest preserve district of cook county"],"tags":{"leisure":"nature_reserve","operator:wikidata":"Q5469080"},"addTags":{"leisure":"nature_reserve","operator":"Forest Preserve District of Cook County","operator:type":"public","operator:wikidata":"Q5469080"}},"leisure/nature_reserve/foxvalleyparkdistrict-6b40ef":{"name":"Fox Valley Park District","locationSet":{"include":["us-il"]},"geometry":["area","point"],"matchScore":2,"terms":["fox valley park district"],"tags":{"leisure":"nature_reserve","operator:wikidata":"Q8565229"},"addTags":{"leisure":"nature_reserve","operator":"Fox Valley Park District","operator:type":"public","operator:wikidata":"Q8565229"}},"leisure/nature_reserve/genevaparkdistrict-6b40ef":{"name":"Geneva Park District","locationSet":{"include":["us-il"]},"geometry":["area","point"],"matchScore":2,"terms":["geneva park district"],"tags":{"leisure":"nature_reserve","operator:wikidata":"Q112157564"},"addTags":{"leisure":"nature_reserve","operator":"Geneva Park District","operator:type":"public","operator:wikidata":"Q112157564"}},"leisure/nature_reserve/glenellynparkdistrict-6b40ef":{"name":"Glen Ellyn Park District","locationSet":{"include":["us-il"]},"geometry":["area","point"],"matchScore":2,"terms":["glen ellyn park district"],"tags":{"leisure":"nature_reserve","operator:wikidata":"Q112057709"},"addTags":{"leisure":"nature_reserve","operator":"Glen Ellyn Park District","operator:type":"public","operator:wikidata":"Q112057709"}},"leisure/nature_reserve/glencoeparkdistrict-6b40ef":{"name":"Glencoe Park District","locationSet":{"include":["us-il"]},"geometry":["area","point"],"matchScore":2,"terms":["glencoe park district"],"tags":{"leisure":"nature_reserve","operator:wikidata":"Q112220906"},"addTags":{"leisure":"nature_reserve","operator":"Glencoe Park District","operator:type":"public","operator:wikidata":"Q112220906"}},"leisure/nature_reserve/glenviewparkdistrict-6b40ef":{"name":"Glenview Park District","locationSet":{"include":["us-il"]},"geometry":["area","point"],"matchScore":2,"terms":["glenview park district"],"tags":{"leisure":"nature_reserve","operator:wikidata":"Q110064219"},"addTags":{"leisure":"nature_reserve","operator":"Glenview Park District","operator:type":"public","operator:wikidata":"Q110064219"}},"leisure/nature_reserve/illinoisdepartmentofnaturalresources-6b40ef":{"name":"Illinois DNR","locationSet":{"include":["us-il"]},"geometry":["area","point"],"matchScore":2,"terms":["illinois department of natural resources","illinois dnr"],"tags":{"leisure":"nature_reserve","operator:wikidata":"Q16846582"},"addTags":{"leisure":"nature_reserve","operator":"Illinois Department of Natural Resources","operator:short":"Illinois DNR","operator:type":"public","operator:wikidata":"Q16846582"}},"leisure/nature_reserve/kankakeevalleyparkdistrict-6b40ef":{"name":"Kankakee Valley Park District","locationSet":{"include":["us-il"]},"geometry":["area","point"],"matchScore":2,"terms":["kankakee valley park district","kvpd"],"tags":{"leisure":"nature_reserve","operator:wikidata":"Q110064433"},"addTags":{"leisure":"nature_reserve","operator":"Kankakee Valley Park District","operator:short":"KVPD","operator:type":"public","operator:wikidata":"Q110064433"}},"leisure/nature_reserve/lincolnwoodparksandrecreation-6b40ef":{"name":"Lincolnwood Parks and Recreation","locationSet":{"include":["us-il"]},"geometry":["area","point"],"matchScore":2,"terms":["lincolnwood park district","lincolnwood parks and recreation"],"tags":{"leisure":"nature_reserve","operator:wikidata":"Q110072249"},"addTags":{"leisure":"nature_reserve","operator":"Lincolnwood Parks and Recreation","operator:type":"public","operator:wikidata":"Q110072249"}},"leisure/nature_reserve/lisleparkdistrict-6b40ef":{"name":"Lisle Park District","locationSet":{"include":["us-il"]},"geometry":["area","point"],"matchScore":2,"terms":["lisle park district"],"tags":{"leisure":"nature_reserve","operator:wikidata":"Q111212363"},"addTags":{"leisure":"nature_reserve","operator":"Lisle Park District","operator:type":"public","operator:wikidata":"Q111212363"}},"leisure/nature_reserve/mortongroveparkdistrict-6b40ef":{"name":"Morton Grove Park District","locationSet":{"include":["us-il"]},"geometry":["area","point"],"matchScore":2,"terms":["morton grove park district"],"tags":{"leisure":"nature_reserve","operator:wikidata":"Q110072677"},"addTags":{"leisure":"nature_reserve","operator":"Morton Grove Park District","operator:type":"public","operator:wikidata":"Q110072677"}},"leisure/nature_reserve/napervilleparkdistrict-6b40ef":{"name":"Naperville Park District","locationSet":{"include":["us-il"]},"geometry":["area","point"],"matchScore":2,"terms":["naperville park district"],"tags":{"leisure":"nature_reserve","operator:wikidata":"Q6964855"},"addTags":{"leisure":"nature_reserve","operator":"Naperville Park District","operator:type":"public","operator:wikidata":"Q6964855"}},"leisure/nature_reserve/nilesparkdistrict-6b40ef":{"name":"Niles Park District","locationSet":{"include":["us-il"]},"geometry":["area","point"],"matchScore":2,"terms":["niles park district"],"tags":{"leisure":"nature_reserve","operator:wikidata":"Q110073017"},"addTags":{"leisure":"nature_reserve","operator":"Niles Park District","operator:type":"public","operator:wikidata":"Q110073017"}},"leisure/nature_reserve/oswegolandparkdistrict-6b40ef":{"name":"Oswegoland Park District","locationSet":{"include":["us-il"]},"geometry":["area","point"],"matchScore":2,"terms":["oswegoland park district"],"tags":{"leisure":"nature_reserve","operator:wikidata":"Q112134936"},"addTags":{"leisure":"nature_reserve","operator":"Oswegoland Park District","operator:type":"public","operator:wikidata":"Q112134936"}},"leisure/nature_reserve/palatineparkdistrict-6b40ef":{"name":"Palatine Park District","locationSet":{"include":["us-il"]},"geometry":["area","point"],"matchScore":2,"terms":["palatine park district"],"tags":{"leisure":"nature_reserve","operator:wikidata":"Q112220961"},"addTags":{"leisure":"nature_reserve","operator":"Palatine Park District","operator:type":"public","operator:wikidata":"Q112220961"}},"leisure/nature_reserve/parkdistrictofoakpark-6b40ef":{"name":"Park District of Oak Park","locationSet":{"include":["us-il"]},"geometry":["area","point"],"matchScore":2,"terms":["park district of oak park","pdop"],"tags":{"leisure":"nature_reserve","operator:wikidata":"Q112220982"},"addTags":{"leisure":"nature_reserve","operator":"Park District of Oak Park","operator:short":"PDOP","operator:type":"public","operator:wikidata":"Q112220982"}},"leisure/nature_reserve/parkridgeparkdistrict-6b40ef":{"name":"Park Ridge Park District","locationSet":{"include":["us-il"]},"geometry":["area","point"],"matchScore":2,"terms":["park ridge park district"],"tags":{"leisure":"nature_reserve","operator:wikidata":"Q112221067"},"addTags":{"leisure":"nature_reserve","operator":"Park Ridge Park District","operator:type":"public","operator:wikidata":"Q112221067"}},"leisure/nature_reserve/peoriaparkdistrict-6b40ef":{"name":"Peoria Park District","locationSet":{"include":["us-il"]},"geometry":["area","point"],"matchScore":2,"terms":["peoria park district","ppd"],"tags":{"leisure":"nature_reserve","operator:wikidata":"Q112221103"},"addTags":{"leisure":"nature_reserve","operator":"Peoria Park District","operator:short":"PPD","operator:type":"public","operator:wikidata":"Q112221103"}},"leisure/nature_reserve/plainfieldparkdistrict-6b40ef":{"name":"Plainfield Park District","locationSet":{"include":["us-il"]},"geometry":["area","point"],"matchScore":2,"terms":["plainfield park district"],"tags":{"leisure":"nature_reserve","operator:wikidata":"Q111209760"},"addTags":{"leisure":"nature_reserve","operator":"Plainfield Park District","operator:type":"public","operator:wikidata":"Q111209760"}},"leisure/nature_reserve/roselleparkdistrict-6b40ef":{"name":"Roselle Park District","locationSet":{"include":["us-il"]},"geometry":["area","point"],"matchScore":2,"terms":["roselle park district"],"tags":{"leisure":"nature_reserve","operator:wikidata":"Q114357550"},"addTags":{"leisure":"nature_reserve","operator":"Roselle Park District","operator:type":"public","operator:wikidata":"Q114357550"}},"leisure/nature_reserve/skokieparkdistrict-6b40ef":{"name":"Skokie Park District","locationSet":{"include":["us-il"]},"geometry":["area","point"],"matchScore":2,"terms":["skokie park district"],"tags":{"leisure":"nature_reserve","operator:wikidata":"Q112228684"},"addTags":{"leisure":"nature_reserve","operator":"Skokie Park District","operator:type":"public","operator:wikidata":"Q112228684"}},"leisure/nature_reserve/springfieldparkdistrict-6b40ef":{"name":"Springfield Park District","locationSet":{"include":["us-il"]},"geometry":["area","point"],"matchScore":2,"terms":["springfield park district","springfield parks district"],"tags":{"leisure":"nature_reserve","operator:wikidata":"Q23073350"},"addTags":{"leisure":"nature_reserve","operator":"Springfield Park District","operator:type":"public","operator:wikidata":"Q23073350"}},"leisure/nature_reserve/villageofbourbonnais-6b40ef":{"name":"Village of Bourbonnais","locationSet":{"include":["us-il"]},"geometry":["area","point"],"matchScore":2,"terms":["village of bourbonnais"],"tags":{"leisure":"nature_reserve","operator:wikidata":"Q2110162"},"addTags":{"leisure":"nature_reserve","operator":"Village of Bourbonnais","operator:type":"public","operator:wikidata":"Q2110162"}},"leisure/nature_reserve/warrenvilleparkdistrict-6b40ef":{"name":"Warrenville Park District","locationSet":{"include":["us-il"]},"geometry":["area","point"],"matchScore":2,"terms":["warrenville park district"],"tags":{"leisure":"nature_reserve","operator:wikidata":"Q111213006"},"addTags":{"leisure":"nature_reserve","operator":"Warrenville Park District","operator:type":"public","operator:wikidata":"Q111213006"}},"leisure/nature_reserve/westchicagoparkdistrict-6b40ef":{"name":"West Chicago Park District","locationSet":{"include":["us-il"]},"geometry":["area","point"],"matchScore":2,"terms":["west chicago park district"],"tags":{"leisure":"nature_reserve","operator:wikidata":"Q112058771"},"addTags":{"leisure":"nature_reserve","operator":"West Chicago Park District","operator:type":"public","operator:wikidata":"Q112058771"}},"leisure/nature_reserve/westernspringsparkdistrict-6b40ef":{"name":"Western Springs Park District","locationSet":{"include":["us-il"]},"geometry":["area","point"],"matchScore":2,"terms":["western springs park district"],"tags":{"leisure":"nature_reserve","operator:wikidata":"Q112228971"},"addTags":{"leisure":"nature_reserve","operator":"Western Springs Park District","operator:type":"public","operator:wikidata":"Q112228971"}},"leisure/nature_reserve/wheatonparkdistrict-6b40ef":{"name":"Wheaton Park District","locationSet":{"include":["us-il"]},"geometry":["area","point"],"matchScore":2,"terms":["wheaton park district"],"tags":{"leisure":"nature_reserve","operator:wikidata":"Q17091394"},"addTags":{"leisure":"nature_reserve","operator":"Wheaton Park District","operator:type":"public","operator:wikidata":"Q17091394"}},"leisure/nature_reserve/wilmetteparkdistrict-6b40ef":{"name":"Wilmette Park District","locationSet":{"include":["us-il"]},"geometry":["area","point"],"matchScore":2,"terms":["wilmette park district"],"tags":{"leisure":"nature_reserve","operator:wikidata":"Q112228979"},"addTags":{"leisure":"nature_reserve","operator":"Wilmette Park District","operator:type":"public","operator:wikidata":"Q112228979"}},"leisure/nature_reserve/winfieldparkdistrict-6b40ef":{"name":"Winfield Park District","locationSet":{"include":["us-il"]},"geometry":["area","point"],"matchScore":2,"terms":["winfield park district"],"tags":{"leisure":"nature_reserve","operator:wikidata":"Q111221769"},"addTags":{"leisure":"nature_reserve","operator":"Winfield Park District","operator:type":"public","operator:wikidata":"Q111221769"}},"leisure/nature_reserve/winnetkaparkdistrict-6b40ef":{"name":"Winnetka Park District","locationSet":{"include":["us-il"]},"geometry":["area","point"],"matchScore":2,"terms":["winnetka park district"],"tags":{"leisure":"nature_reserve","operator:wikidata":"Q112228982"},"addTags":{"leisure":"nature_reserve","operator":"Winnetka Park District","operator:type":"public","operator:wikidata":"Q112228982"}},"leisure/nature_reserve/woodridgeparkdistrict-6b40ef":{"name":"Woodridge Park District","locationSet":{"include":["us-il"]},"geometry":["area","point"],"matchScore":2,"terms":["woodridge park district"],"tags":{"leisure":"nature_reserve","operator:wikidata":"Q111213095"},"addTags":{"leisure":"nature_reserve","operator":"Woodridge Park District","operator:type":"public","operator:wikidata":"Q111213095"}},"leisure/park/arlingtonheightsparkdistrict-17eabc":{"name":"Arlington Heights Park District","locationSet":{"include":["us-il"]},"geometry":["area","point"],"matchScore":2,"terms":["ahpd","arlington heights park district"],"tags":{"leisure":"park","operator:wikidata":"Q4792332"},"addTags":{"leisure":"park","operator":"Arlington Heights Park District","operator:short":"AHPD","operator:type":"public","operator:wikidata":"Q4792332"}},"leisure/park/bolingbrookparkdistrict-17eabc":{"name":"Bolingbrook Park District","locationSet":{"include":["us-il"]},"geometry":["area","point"],"matchScore":2,"terms":["bolingbrook park district"],"tags":{"leisure":"park","operator:wikidata":"Q111214103"},"addTags":{"leisure":"park","operator":"Bolingbrook Park District","operator:type":"public","operator:wikidata":"Q111214103"}},"leisure/park/calumetmemorialparkdistrict-17eabc":{"name":"Calumet Memorial Park District","locationSet":{"include":["us-il"]},"geometry":["area","point"],"matchScore":2,"terms":["calumet memorial park district","cmpd"],"tags":{"leisure":"park","operator:wikidata":"Q118594118"},"addTags":{"leisure":"park","operator":"Calumet Memorial Park District","operator:short":"CMPD","operator:type":"public","operator:wikidata":"Q118594118"}},"leisure/park/carolstreamparkdistrict-17eabc":{"name":"Carol Stream Park District","locationSet":{"include":["us-il"]},"geometry":["area","point"],"matchScore":2,"terms":["carol stream park district"],"tags":{"leisure":"park","operator:wikidata":"Q114358374"},"addTags":{"leisure":"park","operator":"Carol Stream Park District","operator:type":"public","operator:wikidata":"Q114358374"}},"leisure/park/chicagoheightsparkdistrict-17eabc":{"name":"Chicago Heights Park District","locationSet":{"include":["us-il"]},"geometry":["area","point"],"matchScore":2,"terms":["chicago heights park district"],"tags":{"leisure":"park","operator:wikidata":"Q30286803"},"addTags":{"leisure":"park","operator":"Chicago Heights Park District","operator:type":"public","operator:wikidata":"Q30286803"}},"leisure/park/chicagoparkdistrict-17eabc":{"name":"Chicago Park District","locationSet":{"include":["us-il"]},"geometry":["area","point"],"matchScore":2,"terms":["chicago park district","chicago parks district"],"tags":{"leisure":"park","operator:wikidata":"Q2963322"},"addTags":{"leisure":"park","operator":"Chicago Park District","operator:type":"public","operator:wikidata":"Q2963322"}},"leisure/park/clydeparkdistrict-17eabc":{"name":"Clyde Park District","locationSet":{"include":["us-il"]},"geometry":["area","point"],"matchScore":2,"terms":["clyde park district"],"tags":{"leisure":"park","operator:wikidata":"Q112220888"},"addTags":{"leisure":"park","operator":"Clyde Park District","operator:type":"public","operator:wikidata":"Q112220888"}},"leisure/park/crystallakeparkdistrict-17eabc":{"name":"Crystal Lake Park District","locationSet":{"include":["us-il"]},"geometry":["area","point"],"matchScore":2,"terms":["crystal lake park district"],"tags":{"leisure":"park","operator:wikidata":"Q110064003"},"addTags":{"leisure":"park","operator":"Crystal Lake Park District","operator:type":"public","operator:wikidata":"Q110064003"}},"leisure/park/downersgroveparkdistrict-17eabc":{"name":"Downers Grove Park District","locationSet":{"include":["us-il"]},"geometry":["area","point"],"matchScore":2,"terms":["downers grove park district"],"tags":{"leisure":"park","operator:wikidata":"Q112060184"},"addTags":{"leisure":"park","operator":"Downers Grove Park District","operator:type":"public","operator:wikidata":"Q112060184"}},"leisure/park/evanstonparksandrecreation-17eabc":{"name":"Evanston Parks & Recreation","locationSet":{"include":["us-il"]},"geometry":["area","point"],"matchScore":2,"terms":["evanston park district","evanston parks & recreation"],"tags":{"leisure":"park","operator:wikidata":"Q110064075"},"addTags":{"leisure":"park","operator":"Evanston Parks & Recreation","operator:type":"public","operator:wikidata":"Q110064075"}},"leisure/park/forestpreservedistrictofcookcounty-17eabc":{"name":"Forest Preserve District of Cook County","locationSet":{"include":["us-il"]},"geometry":["area","point"],"matchScore":2,"terms":["forest preserve district of cook county"],"tags":{"leisure":"park","operator:wikidata":"Q5469080"},"addTags":{"leisure":"park","operator":"Forest Preserve District of Cook County","operator:type":"public","operator:wikidata":"Q5469080"}},"leisure/park/foxvalleyparkdistrict-17eabc":{"name":"Fox Valley Park District","locationSet":{"include":["us-il"]},"geometry":["area","point"],"matchScore":2,"terms":["fox valley park district"],"tags":{"leisure":"park","operator:wikidata":"Q8565229"},"addTags":{"leisure":"park","operator":"Fox Valley Park District","operator:type":"public","operator:wikidata":"Q8565229"}},"leisure/park/genevaparkdistrict-17eabc":{"name":"Geneva Park District","locationSet":{"include":["us-il"]},"geometry":["area","point"],"matchScore":2,"terms":["geneva park district"],"tags":{"leisure":"park","operator:wikidata":"Q112157564"},"addTags":{"leisure":"park","operator":"Geneva Park District","operator:type":"public","operator:wikidata":"Q112157564"}},"leisure/park/glenellynparkdistrict-17eabc":{"name":"Glen Ellyn Park District","locationSet":{"include":["us-il"]},"geometry":["area","point"],"matchScore":2,"terms":["glen ellyn park district"],"tags":{"leisure":"park","operator:wikidata":"Q112057709"},"addTags":{"leisure":"park","operator":"Glen Ellyn Park District","operator:type":"public","operator:wikidata":"Q112057709"}},"leisure/park/glencoeparkdistrict-17eabc":{"name":"Glencoe Park District","locationSet":{"include":["us-il"]},"geometry":["area","point"],"matchScore":2,"terms":["glencoe park district"],"tags":{"leisure":"park","operator:wikidata":"Q112220906"},"addTags":{"leisure":"park","operator":"Glencoe Park District","operator:type":"public","operator:wikidata":"Q112220906"}},"leisure/park/glenviewparkdistrict-17eabc":{"name":"Glenview Park District","locationSet":{"include":["us-il"]},"geometry":["area","point"],"matchScore":2,"terms":["glenview park district"],"tags":{"leisure":"park","operator:wikidata":"Q110064219"},"addTags":{"leisure":"park","operator":"Glenview Park District","operator:type":"public","operator:wikidata":"Q110064219"}},"leisure/park/illinoisdepartmentofnaturalresources-17eabc":{"name":"Illinois DNR","locationSet":{"include":["us-il"]},"geometry":["area","point"],"matchScore":2,"terms":["illinois department of natural resources","illinois dnr"],"tags":{"leisure":"park","operator:wikidata":"Q16846582"},"addTags":{"leisure":"park","operator":"Illinois Department of Natural Resources","operator:short":"Illinois DNR","operator:type":"public","operator:wikidata":"Q16846582"}},"leisure/park/kankakeevalleyparkdistrict-17eabc":{"name":"Kankakee Valley Park District","locationSet":{"include":["us-il"]},"geometry":["area","point"],"matchScore":2,"terms":["kankakee valley park district","kvpd"],"tags":{"leisure":"park","operator:wikidata":"Q110064433"},"addTags":{"leisure":"park","operator":"Kankakee Valley Park District","operator:short":"KVPD","operator:type":"public","operator:wikidata":"Q110064433"}},"leisure/park/lincolnwoodparksandrecreation-17eabc":{"name":"Lincolnwood Parks and Recreation","locationSet":{"include":["us-il"]},"geometry":["area","point"],"matchScore":2,"terms":["lincolnwood park district","lincolnwood parks and recreation"],"tags":{"leisure":"park","operator:wikidata":"Q110072249"},"addTags":{"leisure":"park","operator":"Lincolnwood Parks and Recreation","operator:type":"public","operator:wikidata":"Q110072249"}},"leisure/park/lisleparkdistrict-17eabc":{"name":"Lisle Park District","locationSet":{"include":["us-il"]},"geometry":["area","point"],"matchScore":2,"terms":["lisle park district"],"tags":{"leisure":"park","operator:wikidata":"Q111212363"},"addTags":{"leisure":"park","operator":"Lisle Park District","operator:type":"public","operator:wikidata":"Q111212363"}},"leisure/park/mortongroveparkdistrict-17eabc":{"name":"Morton Grove Park District","locationSet":{"include":["us-il"]},"geometry":["area","point"],"matchScore":2,"terms":["morton grove park district"],"tags":{"leisure":"park","operator:wikidata":"Q110072677"},"addTags":{"leisure":"park","operator":"Morton Grove Park District","operator:type":"public","operator:wikidata":"Q110072677"}},"leisure/park/napervilleparkdistrict-17eabc":{"name":"Naperville Park District","locationSet":{"include":["us-il"]},"geometry":["area","point"],"matchScore":2,"terms":["naperville park district"],"tags":{"leisure":"park","operator:wikidata":"Q6964855"},"addTags":{"leisure":"park","operator":"Naperville Park District","operator:type":"public","operator:wikidata":"Q6964855"}},"leisure/park/nilesparkdistrict-17eabc":{"name":"Niles Park District","locationSet":{"include":["us-il"]},"geometry":["area","point"],"matchScore":2,"terms":["niles park district"],"tags":{"leisure":"park","operator:wikidata":"Q110073017"},"addTags":{"leisure":"park","operator":"Niles Park District","operator:type":"public","operator:wikidata":"Q110073017"}},"leisure/park/oswegolandparkdistrict-17eabc":{"name":"Oswegoland Park District","locationSet":{"include":["us-il"]},"geometry":["area","point"],"matchScore":2,"terms":["oswegoland park district"],"tags":{"leisure":"park","operator:wikidata":"Q112134936"},"addTags":{"leisure":"park","operator":"Oswegoland Park District","operator:type":"public","operator:wikidata":"Q112134936"}},"leisure/park/palatineparkdistrict-17eabc":{"name":"Palatine Park District","locationSet":{"include":["us-il"]},"geometry":["area","point"],"matchScore":2,"terms":["palatine park district"],"tags":{"leisure":"park","operator:wikidata":"Q112220961"},"addTags":{"leisure":"park","operator":"Palatine Park District","operator:type":"public","operator:wikidata":"Q112220961"}},"leisure/park/parkdistrictofoakpark-17eabc":{"name":"Park District of Oak Park","locationSet":{"include":["us-il"]},"geometry":["area","point"],"matchScore":2,"terms":["park district of oak park","pdop"],"tags":{"leisure":"park","operator:wikidata":"Q112220982"},"addTags":{"leisure":"park","operator":"Park District of Oak Park","operator:short":"PDOP","operator:type":"public","operator:wikidata":"Q112220982"}},"leisure/park/parkridgeparkdistrict-17eabc":{"name":"Park Ridge Park District","locationSet":{"include":["us-il"]},"geometry":["area","point"],"matchScore":2,"terms":["park ridge park district"],"tags":{"leisure":"park","operator:wikidata":"Q112221067"},"addTags":{"leisure":"park","operator":"Park Ridge Park District","operator:type":"public","operator:wikidata":"Q112221067"}},"leisure/park/peoriaparkdistrict-17eabc":{"name":"Peoria Park District","locationSet":{"include":["us-il"]},"geometry":["area","point"],"matchScore":2,"terms":["peoria park district","ppd"],"tags":{"leisure":"park","operator:wikidata":"Q112221103"},"addTags":{"leisure":"park","operator":"Peoria Park District","operator:short":"PPD","operator:type":"public","operator:wikidata":"Q112221103"}},"leisure/park/plainfieldparkdistrict-17eabc":{"name":"Plainfield Park District","locationSet":{"include":["us-il"]},"geometry":["area","point"],"matchScore":2,"terms":["plainfield park district"],"tags":{"leisure":"park","operator:wikidata":"Q111209760"},"addTags":{"leisure":"park","operator":"Plainfield Park District","operator:type":"public","operator:wikidata":"Q111209760"}},"leisure/park/roselleparkdistrict-17eabc":{"name":"Roselle Park District","locationSet":{"include":["us-il"]},"geometry":["area","point"],"matchScore":2,"terms":["roselle park district"],"tags":{"leisure":"park","operator:wikidata":"Q114357550"},"addTags":{"leisure":"park","operator":"Roselle Park District","operator:type":"public","operator:wikidata":"Q114357550"}},"leisure/park/skokieparkdistrict-17eabc":{"name":"Skokie Park District","locationSet":{"include":["us-il"]},"geometry":["area","point"],"matchScore":2,"terms":["skokie park district"],"tags":{"leisure":"park","operator:wikidata":"Q112228684"},"addTags":{"leisure":"park","operator":"Skokie Park District","operator:type":"public","operator:wikidata":"Q112228684"}},"leisure/park/springfieldparkdistrict-17eabc":{"name":"Springfield Park District","locationSet":{"include":["us-il"]},"geometry":["area","point"],"matchScore":2,"terms":["springfield park district","springfield parks district"],"tags":{"leisure":"park","operator:wikidata":"Q23073350"},"addTags":{"leisure":"park","operator":"Springfield Park District","operator:type":"public","operator:wikidata":"Q23073350"}},"leisure/park/villageofbourbonnais-17eabc":{"name":"Village of Bourbonnais","locationSet":{"include":["us-il"]},"geometry":["area","point"],"matchScore":2,"terms":["village of bourbonnais"],"tags":{"leisure":"park","operator:wikidata":"Q2110162"},"addTags":{"leisure":"park","operator":"Village of Bourbonnais","operator:type":"public","operator:wikidata":"Q2110162"}},"leisure/park/warrenvilleparkdistrict-17eabc":{"name":"Warrenville Park District","locationSet":{"include":["us-il"]},"geometry":["area","point"],"matchScore":2,"terms":["warrenville park district"],"tags":{"leisure":"park","operator:wikidata":"Q111213006"},"addTags":{"leisure":"park","operator":"Warrenville Park District","operator:type":"public","operator:wikidata":"Q111213006"}},"leisure/park/westchicagoparkdistrict-17eabc":{"name":"West Chicago Park District","locationSet":{"include":["us-il"]},"geometry":["area","point"],"matchScore":2,"terms":["west chicago park district"],"tags":{"leisure":"park","operator:wikidata":"Q112058771"},"addTags":{"leisure":"park","operator":"West Chicago Park District","operator:type":"public","operator:wikidata":"Q112058771"}},"leisure/park/westernspringsparkdistrict-17eabc":{"name":"Western Springs Park District","locationSet":{"include":["us-il"]},"geometry":["area","point"],"matchScore":2,"terms":["western springs park district"],"tags":{"leisure":"park","operator:wikidata":"Q112228971"},"addTags":{"leisure":"park","operator":"Western Springs Park District","operator:type":"public","operator:wikidata":"Q112228971"}},"leisure/park/wheatonparkdistrict-17eabc":{"name":"Wheaton Park District","locationSet":{"include":["us-il"]},"geometry":["area","point"],"matchScore":2,"terms":["wheaton park district"],"tags":{"leisure":"park","operator:wikidata":"Q17091394"},"addTags":{"leisure":"park","operator":"Wheaton Park District","operator:type":"public","operator:wikidata":"Q17091394"}},"leisure/park/wilmetteparkdistrict-17eabc":{"name":"Wilmette Park District","locationSet":{"include":["us-il"]},"geometry":["area","point"],"matchScore":2,"terms":["wilmette park district"],"tags":{"leisure":"park","operator:wikidata":"Q112228979"},"addTags":{"leisure":"park","operator":"Wilmette Park District","operator:type":"public","operator:wikidata":"Q112228979"}},"leisure/park/winfieldparkdistrict-17eabc":{"name":"Winfield Park District","locationSet":{"include":["us-il"]},"geometry":["area","point"],"matchScore":2,"terms":["winfield park district"],"tags":{"leisure":"park","operator:wikidata":"Q111221769"},"addTags":{"leisure":"park","operator":"Winfield Park District","operator:type":"public","operator:wikidata":"Q111221769"}},"leisure/park/winnetkaparkdistrict-17eabc":{"name":"Winnetka Park District","locationSet":{"include":["us-il"]},"geometry":["area","point"],"matchScore":2,"terms":["winnetka park district"],"tags":{"leisure":"park","operator:wikidata":"Q112228982"},"addTags":{"leisure":"park","operator":"Winnetka Park District","operator:type":"public","operator:wikidata":"Q112228982"}},"leisure/park/woodridgeparkdistrict-17eabc":{"name":"Woodridge Park District","locationSet":{"include":["us-il"]},"geometry":["area","point"],"matchScore":2,"terms":["woodridge park district"],"tags":{"leisure":"park","operator:wikidata":"Q111213095"},"addTags":{"leisure":"park","operator":"Woodridge Park District","operator:type":"public","operator:wikidata":"Q111213095"}},"man_made/wastewater_plant/metropolitanwaterreclamationdistrictofgreaterchicago-eb5ed3":{"name":"MWRD","locationSet":{"include":["us-il"]},"geometry":["point","area"],"matchScore":2,"terms":["metropolitan water reclamation district of greater chicago","mwrd"],"tags":{"man_made":"wastewater_plant","operator:wikidata":"Q6825322"},"addTags":{"man_made":"wastewater_plant","operator":"Metropolitan Water Reclamation District of Greater Chicago","operator:short":"MWRD","operator:wikidata":"Q6825322"}},"office/government/illinoissecretaryofstate-4714be":{"name":"Illinois Secretary of State","locationSet":{"include":["us-il"]},"geometry":["point","area"],"matchScore":2,"terms":["illinois secretary of state","secretary of state"],"fields":["name","operator","{office/government}"],"tags":{"office":"government","operator:wikidata":"Q3477292"},"addTags":{"office":"government","operator":"Illinois Secretary of State","operator:wikidata":"Q3477292"}},"shop/charity/goodwillindustriesofsoutheasternwisconsin-fd97cd":{"name":"Goodwill Industries of Southeastern Wisconsin","locationSet":{"include":["us-il","us-wi"]},"geometry":["point","area"],"matchScore":2,"terms":["goodwill","goodwill industries of southeastern wisconsin","goodwill industries of southeastern wisconsin and metropolitan chicago"],"tags":{"operator:wikidata":"Q54624107","shop":"charity"},"addTags":{"brand":"Goodwill","brand:wikidata":"Q5583655","name":"Goodwill","operator":"Goodwill Industries of Southeastern Wisconsin","operator:wikidata":"Q54624107","shop":"charity"}},"shop/charity/goodwillofnorthernillinois-fd97cd":{"name":"Goodwill of Northern Illinois","locationSet":{"include":["us-il","us-wi"]},"geometry":["point","area"],"matchScore":2,"terms":["goodwill","goodwill of north illinois","goodwill of northern illinois"],"tags":{"operator:wikidata":"Q109722460","shop":"charity"},"addTags":{"brand":"Goodwill","brand:wikidata":"Q5583655","name":"Goodwill","operator":"Goodwill of Northern Illinois","operator:wikidata":"Q109722460","shop":"charity"}},"shop/charity/landoflincolngoodwillindustries-4e33ec":{"name":"Land of Lincoln Goodwill Industries","locationSet":{"include":["us-il","us-in"]},"geometry":["point","area"],"matchScore":2,"terms":["goodwill","land of lincoln goodwill industries","land of lincoln goodwill industries, inc","land of lincoln goodwill industries, incorporated"],"tags":{"operator:wikidata":"Q109729046","shop":"charity"},"addTags":{"brand":"Goodwill","brand:wikidata":"Q5583655","name":"Goodwill","operator":"Land of Lincoln Goodwill Industries","operator:wikidata":"Q109729046","shop":"charity"}},"public_transport/platform/bus_point/dmt-02e451":{"name":"DMT","locationSet":{"include":["us-il"]},"geometry":["point","vertex"],"matchScore":2,"terms":["danville mass transit","dmt"],"reference":{"key":"public_transport","value":"platform"},"tags":{"bus":"yes","network:wikidata":"Q115938980","public_transport":"platform"},"addTags":{"bus":"yes","highway":"bus_stop","network":"DMT","network:wikidata":"Q115938980","operator":"Danville Mass Transit","public_transport":"platform"}},"public_transport/platform/bus_point/mtd-02e451":{"name":"MTD","locationSet":{"include":["us-il"]},"geometry":["point","vertex"],"matchScore":2,"terms":["mtd"],"reference":{"key":"public_transport","value":"platform"},"tags":{"bus":"yes","network:wikidata":"Q5069909","public_transport":"platform"},"addTags":{"bus":"yes","highway":"bus_stop","network":"MTD","network:wikidata":"Q5069909","public_transport":"platform"}},"public_transport/platform/bus_point/pace-02e451":{"name":"Pace","locationSet":{"include":["us-il"]},"geometry":["point","vertex"],"matchScore":2,"terms":["pace","regional transportation authority","rta"],"reference":{"key":"public_transport","value":"platform"},"tags":{"bus":"yes","network:wikidata":"Q3360030","public_transport":"platform"},"addTags":{"bus":"yes","highway":"bus_stop","network":"Pace","network:wikidata":"Q3360030","operator":"Regional Transportation Authority","operator:short":"RTA","operator:wikidata":"Q3423544","public_transport":"platform"}},"public_transport/platform/bus_point/rmtd-02e451":{"name":"RMTD","locationSet":{"include":["us-il"]},"geometry":["point","vertex"],"matchScore":2,"terms":["rmtd","rockford mass transit district"],"reference":{"key":"public_transport","value":"platform"},"tags":{"bus":"yes","network:wikidata":"Q7355246","public_transport":"platform"},"addTags":{"bus":"yes","highway":"bus_stop","network":"RMTD","network:wikidata":"Q7355246","operator":"Rockford Mass Transit District","public_transport":"platform"}},"public_transport/platform/bus_point/rvmmtd-02e451":{"name":"RVMMTD (River Valley Metro Mass Transit District)","locationSet":{"include":["us-il"]},"geometry":["point","vertex"],"matchScore":2,"terms":["river valley metro mass transit district","rvmmtd"],"reference":{"key":"public_transport","value":"platform"},"tags":{"bus":"yes","network:wikidata":"Q7337932","public_transport":"platform"},"addTags":{"bus":"yes","highway":"bus_stop","network":"RVMMTD","network:wikidata":"Q7337932","operator":"River Valley Metro Mass Transit District","public_transport":"platform"}},"public_transport/platform/bus_point/smtd-02e451":{"name":"SMTD","locationSet":{"include":["us-il"]},"geometry":["point","vertex"],"matchScore":2,"terms":["sangamon mass transit district","smtd"],"reference":{"key":"public_transport","value":"platform"},"tags":{"bus":"yes","network:wikidata":"Q7580990","public_transport":"platform"},"addTags":{"bus":"yes","highway":"bus_stop","network":"SMTD","network:wikidata":"Q7580990","operator":"Sangamon Mass Transit District","public_transport":"platform"}},"railway/station/metra-2151f9":{"name":"Metra","locationSet":{"include":["us-il","us-wi"]},"geometry":["point","vertex","area"],"matchScore":2,"terms":["metra"],"tags":{"network:wikidata":"Q1814208","railway":"station"},"addTags":{"network":"Metra","network:wikidata":"Q1814208","public_transport":"station","railway":"station","train":"yes"}},"type/route/bus/dmt-f1e980":{"name":"DMT","locationSet":{"include":["us-il"]},"geometry":["relation"],"matchScore":2,"terms":["danville mass transit","dmt"],"reference":{"key":"route","value":"bus"},"tags":{"network:wikidata":"Q115938980","route":"bus","type":"route"},"addTags":{"network":"DMT","network:wikidata":"Q115938980","operator":"Danville Mass Transit","route":"bus","type":"route"}},"type/route/bus/mtd-f1e980":{"name":"MTD","locationSet":{"include":["us-il"]},"geometry":["relation"],"matchScore":2,"terms":["mtd"],"reference":{"key":"route","value":"bus"},"tags":{"network:wikidata":"Q5069909","route":"bus","type":"route"},"addTags":{"network":"MTD","network:wikidata":"Q5069909","route":"bus","type":"route"}},"type/route/bus/pace-f1e980":{"name":"Pace","locationSet":{"include":["us-il"]},"geometry":["relation"],"matchScore":2,"terms":["pace","regional transportation authority","rta"],"reference":{"key":"route","value":"bus"},"tags":{"network:wikidata":"Q3360030","route":"bus","type":"route"},"addTags":{"network":"Pace","network:wikidata":"Q3360030","operator":"Regional Transportation Authority","operator:short":"RTA","operator:wikidata":"Q3423544","route":"bus","type":"route"}},"type/route/bus/rmtd-f1e980":{"name":"RMTD","locationSet":{"include":["us-il"]},"geometry":["relation"],"matchScore":2,"terms":["rmtd","rockford mass transit district"],"reference":{"key":"route","value":"bus"},"tags":{"network:wikidata":"Q7355246","route":"bus","type":"route"},"addTags":{"network":"RMTD","network:wikidata":"Q7355246","operator":"Rockford Mass Transit District","route":"bus","type":"route"}},"type/route/bus/rvmmtd-f1e980":{"name":"RVMMTD (River Valley Metro Mass Transit District)","locationSet":{"include":["us-il"]},"geometry":["relation"],"matchScore":2,"terms":["river valley metro mass transit district","rvmmtd"],"reference":{"key":"route","value":"bus"},"tags":{"network:wikidata":"Q7337932","route":"bus","type":"route"},"addTags":{"network":"RVMMTD","network:wikidata":"Q7337932","operator":"River Valley Metro Mass Transit District","route":"bus","type":"route"}},"type/route/bus/smtd-f1e980":{"name":"SMTD","locationSet":{"include":["us-il"]},"geometry":["relation"],"matchScore":2,"terms":["sangamon mass transit district","smtd"],"reference":{"key":"route","value":"bus"},"tags":{"network:wikidata":"Q7580990","route":"bus","type":"route"},"addTags":{"network":"SMTD","network:wikidata":"Q7580990","operator":"Sangamon Mass Transit District","route":"bus","type":"route"}},"type/route/train/metra-bffe2a":{"name":"Metra","locationSet":{"include":["us-il","us-wi"]},"geometry":["relation"],"matchScore":2,"terms":["metra"],"reference":{"key":"route","value":"train"},"tags":{"network:wikidata":"Q1814208","route":"train","type":"route"},"addTags":{"network":"Metra","network:wikidata":"Q1814208","route":"train","type":"route"}}}