{"amenity/atm/firstsecuritybank-4fe039":{"name":"First Security Bank Montana","locationSet":{"include":["us-mt"]},"geometry":["point","vertex"],"matchScore":2,"terms":["first security bank"],"fields":["name","brand","{amenity/atm}"],"tags":{"amenity":"atm","brand:wikidata":"Q5453785"},"addTags":{"amenity":"atm","brand":"First Security Bank","brand:wikidata":"Q5453785","operator":"First Security Bank","operator:wikidata":"Q5453785"}},"amenity/atm/horizoncreditunion-e9287c":{"name":"Horizon Credit Union","locationSet":{"include":["us-id","us-mt","us-or","us-wa"]},"geometry":["point","vertex"],"matchScore":2,"terms":["horizon credit union"],"fields":["name","brand","{amenity/atm}"],"tags":{"amenity":"atm","brand:wikidata":"Q115677986"},"addTags":{"amenity":"atm","brand":"Horizon Credit Union","brand:wikidata":"Q115677986","operator":"Horizon Credit Union","operator:wikidata":"Q115677986"}},"amenity/bank/firstsecuritybank-d96d23":{"name":"First Security Bank Montana","locationSet":{"include":["us-mt"]},"geometry":["point","area"],"matchScore":2,"terms":["first security bank"],"tags":{"amenity":"bank","brand:wikidata":"Q5453785"},"addTags":{"amenity":"bank","brand":"First Security Bank","brand:wikidata":"Q5453785","name":"First Security Bank"}},"amenity/bank/horizoncreditunion-420495":{"name":"Horizon Credit Union","locationSet":{"include":["us-id","us-mt","us-or","us-wa"]},"geometry":["point","area"],"matchScore":2,"terms":["horizon credit union"],"tags":{"amenity":"bank","brand:wikidata":"Q115677986"},"addTags":{"amenity":"bank","brand":"Horizon Credit Union","brand:wikidata":"Q115677986","name":"Horizon Credit Union"}},"shop/supermarket/rosauers-e2c16a":{"name":"Rosauers","locationSet":{"include":["us-id","us-mt","us-or","us-wa"]},"geometry":["point","area"],"matchScore":2,"terms":["rosauers"],"tags":{"brand:wikidata":"Q7367458","shop":"supermarket"},"addTags":{"brand":"Rosauers","brand:wikidata":"Q7367458","name":"Rosauers","shop":"supermarket"}},"shop/trade/tractorandequipmentco-10c19f":{"name":"Tractor & Equipment Co.","locationSet":{"include":["us-mt","us-nd","us-wy"]},"geometry":["point","area"],"matchScore":2,"terms":["tractor & equipment co."],"tags":{"brand:wikidata":"Q115486509","shop":"trade"},"addTags":{"brand":"Tractor & Equipment Co.","brand:wikidata":"Q115486509","name":"Tractor & Equipment Co.","shop":"trade","trade":"construction_equipment"}},"shop/trade/westernstatescat-8cb1bb":{"name":"Western States CAT","locationSet":{"include":["us-id","us-mt","us-or","us-wa","us-wy"]},"geometry":["point","area"],"matchScore":2,"terms":["western states cat"],"tags":{"brand:wikidata":"Q109615463","shop":"trade"},"addTags":{"brand":"Western States CAT","brand:wikidata":"Q109615463","name":"Western States CAT","shop":"trade","trade":"construction_equipment"}},"amenity/police/montanahighwaypatrol-ac9f9b":{"name":"Montana Highway Patrol","locationSet":{"include":["us-mt"]},"geometry":["point","area"],"matchScore":2,"terms":["mhp","montana highway patrol"],"tags":{"amenity":"police","operator:wikidata":"Q6904270"},"addTags":{"amenity":"police","operator":"Montana Highway Patrol","operator:short":"MHP","operator:wikidata":"Q6904270"}},"amenity/school/helenapublicschools-15c3b4":{"name":"Helena Public Schools","locationSet":{"include":["us-mt"]},"geometry":["area","point"],"matchScore":2,"terms":["helena public schools","hps"],"tags":{"amenity":"school","operator:wikidata":"Q14704554"},"addTags":{"amenity":"school","operator":"Helena Public Schools","operator:short":"HPS","operator:type":"public","operator:wikidata":"Q14704554"}},"leisure/nature_reserve/montanadepartmentoffishwildlifeandparks-863db2":{"name":"Montana State Parks","locationSet":{"include":["us-mt"]},"geometry":["area","point"],"matchScore":2,"terms":["montana department of fish, wildlife and parks","montana fwp","montana state parks"],"tags":{"leisure":"nature_reserve","operator:wikidata":"Q17019742"},"addTags":{"leisure":"nature_reserve","operator":"Montana Department of Fish, Wildlife and Parks","operator:short":"Montana FWP","operator:type":"public","operator:wikidata":"Q17019742"}},"leisure/park/montanadepartmentoffishwildlifeandparks-7d0f2d":{"name":"Montana State Parks","locationSet":{"include":["us-mt"]},"geometry":["area","point"],"matchScore":2,"terms":["montana department of fish, wildlife and parks","montana fwp","montana state parks"],"tags":{"leisure":"park","operator:wikidata":"Q17019742"},"addTags":{"leisure":"park","operator":"Montana Department of Fish, Wildlife and Parks","operator:short":"Montana FWP","operator:type":"public","operator:wikidata":"Q17019742"}},"shop/charity/eastersealsgoodwillnorthernrockymountain-72b5ff":{"name":"Easterseals-Goodwill","locationSet":{"include":["us-id","us-mt","us-ut"]},"geometry":["point","area"],"matchScore":2,"terms":["easterseals-goodwill northern rocky mountain","goodwill"],"tags":{"operator:wikidata":"Q114923320","shop":"charity"},"addTags":{"brand":"Goodwill","brand:wikidata":"Q5583655","name":"Goodwill","operator":"Easterseals-Goodwill Northern Rocky Mountain","operator:wikidata":"Q114923320","shop":"charity"}},"telecom/exchange/ziplyfiber-a4e28f":{"name":"Ziply Fiber","locationSet":{"include":["us-id","us-mt","us-or","us-wa"]},"geometry":["point","area"],"matchScore":2,"terms":["frontier","ziply fiber"],"fields":["name","operator","{telecom/exchange}"],"tags":{"operator:wikidata":"Q5505968","telecom":"exchange"},"addTags":{"name":"Ziply Fiber","operator":"Ziply Fiber","operator:wikidata":"Q5505968","telecom":"exchange"}}}