{"shop/alcohol/lcbo-19c622":{"name":"LCBO","locationSet":{"include":["ca-on"]},"geometry":["point","area"],"matchScore":2,"terms":["lcbo","liquor control board of ontario"],"tags":{"brand:wikidata":"Q845263","shop":"alcohol"},"addTags":{"brand":"LCBO","brand:wikidata":"Q845263","brand:wikipedia":"en:Liquor Control Board of Ontario","name":"LCBO","shop":"alcohol"}},"shop/alcohol/thebeerstore-19c622":{"name":"The Beer Store","locationSet":{"include":["ca-on"]},"geometry":["point","area"],"matchScore":2,"terms":["the beer store"],"tags":{"brand:wikidata":"Q16243674","shop":"alcohol"},"addTags":{"brand":"The Beer Store","brand:wikidata":"Q16243674","brand:wikipedia":"en:The Beer Store","name":"The Beer Store","shop":"alcohol"}},"shop/supermarket/longos-388e9d":{"name":"Longo's","locationSet":{"include":["ca-on"]},"geometry":["point","area"],"matchScore":2,"terms":["longo's"],"tags":{"brand:wikidata":"Q6674182","shop":"supermarket"},"addTags":{"brand":"Longo's","brand:wikidata":"Q6674182","brand:wikipedia":"en:Longo's","name":"Longo's","shop":"supermarket"}},"shop/supermarket/metro-388e9d":{"name":"Metro (Ontario)","locationSet":{"include":["ca-on"]},"geometry":["point","area"],"matchScore":2,"terms":["metro"],"tags":{"brand:wikidata":"Q1145669","shop":"supermarket"},"addTags":{"brand":"Metro","brand:wikidata":"Q1145669","brand:wikipedia":"en:Metro Inc.","name":"Metro","shop":"supermarket"}},"shop/supermarket/rabba-388e9d":{"name":"Rabba","locationSet":{"include":["ca-on"]},"geometry":["point","area"],"matchScore":2,"terms":["rabba","rabba fine foods"],"tags":{"brand:wikidata":"Q109659398","shop":"supermarket"},"addTags":{"brand":"Rabba","brand:wikidata":"Q109659398","name":"Rabba","shop":"supermarket"}},"shop/trade/toromontcat-321e1f":{"name":"Toromont CAT","locationSet":{"include":["ca-mb","ca-nb","ca-nl","ca-ns","ca-nu","ca-on","ca-pe","ca-qc"]},"geometry":["point","area"],"matchScore":2,"terms":["toromont cat"],"tags":{"brand:wikidata":"Q109619691","shop":"trade"},"addTags":{"brand":"Toromont CAT","brand:wikidata":"Q109619691","name":"Toromont CAT","shop":"trade","trade":"construction_equipment"}},"amenity/library/brucecountypubliclibrary-b0fd6b":{"name":"Bruce County Public Library","locationSet":{"include":["ca-on"]},"geometry":["point","area"],"matchScore":2,"terms":["bcpl","bruce county public library"],"tags":{"amenity":"library","operator:wikidata":"Q53677843"},"addTags":{"amenity":"library","operator":"Bruce County Public Library","operator:short":"BCPL","operator:type":"public","operator:wikidata":"Q53677843"}},"amenity/library/huroncountylibrary-b0fd6b":{"name":"Huron County Library","locationSet":{"include":["ca-on"]},"geometry":["point","area"],"matchScore":2,"terms":["huron county library"],"tags":{"amenity":"library","operator:wikidata":"Q53677986"},"addTags":{"amenity":"library","operator":"Huron County Library","operator:type":"public","operator:wikidata":"Q53677986"}},"amenity/library/kawarthalakespubliclibrary-b0fd6b":{"name":"Kawartha Lakes Public Library","locationSet":{"include":["ca-on"]},"geometry":["point","area"],"matchScore":2,"terms":["kawartha lakes public library"],"tags":{"amenity":"library","operator:wikidata":"Q53677996"},"addTags":{"amenity":"library","operator":"Kawartha Lakes Public Library","operator:type":"public","operator:wikidata":"Q53677996"}},"amenity/library/kingstonfrontenacpubliclibrary-b0fd6b":{"name":"Kingston Frontenac Public Library","locationSet":{"include":["ca-on"]},"geometry":["point","area"],"matchScore":2,"terms":["kfpl","kingston frontenac public library"],"tags":{"amenity":"library","operator:wikidata":"Q6413526"},"addTags":{"amenity":"library","operator":"Kingston Frontenac Public Library","operator:short":"KFPL","operator:type":"public","operator:wikidata":"Q6413526","operator:wikipedia":"en:Kingston Frontenac Public Library"}},"amenity/library/lambtoncountylibrary-b0fd6b":{"name":"Lambton County Library","locationSet":{"include":["ca-on"]},"geometry":["point","area"],"matchScore":2,"terms":["lambton county library"],"tags":{"amenity":"library","operator:wikidata":"Q53678013"},"addTags":{"amenity":"library","operator":"Lambton County Library","operator:type":"public","operator:wikidata":"Q53678013"}},"amenity/library/londonpubliclibrary-b0fd6b":{"name":"London Public Library","locationSet":{"include":["ca-on"]},"geometry":["point","area"],"matchScore":2,"terms":["london public library","lpl"],"tags":{"amenity":"library","operator:wikidata":"Q6670681"},"addTags":{"amenity":"library","operator":"London Public Library","operator:short":"LPL","operator:type":"public","operator:wikidata":"Q6670681","operator:wikipedia":"en:London Public Library"}},"amenity/library/mississaugalibrary-b0fd6b":{"name":"Mississauga Library","locationSet":{"include":["ca-on"]},"geometry":["point","area"],"matchScore":2,"terms":["mississauga library"],"tags":{"amenity":"library","operator:wikidata":"Q6878971"},"addTags":{"amenity":"library","operator":"Mississauga Library","operator:type":"public","operator:wikidata":"Q6878971","operator:wikipedia":"en:Mississauga Library System"}},"amenity/library/oxfordcountylibrary-b0fd6b":{"name":"Oxford County Library","locationSet":{"include":["ca-on"]},"geometry":["point","area"],"matchScore":2,"terms":["ocl","oxford county library"],"tags":{"amenity":"library","operator:wikidata":"Q53678096"},"addTags":{"amenity":"library","operator":"Oxford County Library","operator:short":"OCL","operator:type":"public","operator:wikidata":"Q53678096"}},"amenity/library/torontopubliclibrary-b0fd6b":{"name":"Toronto Public Library","locationSet":{"include":["ca-on"]},"geometry":["point","area"],"matchScore":2,"terms":["toronto public library","tpl"],"tags":{"amenity":"library","operator:wikidata":"Q2901516"},"addTags":{"amenity":"library","operator":"Toronto Public Library","operator:short":"TPL","operator:type":"public","operator:wikidata":"Q2901516","operator:wikipedia":"en:Toronto Public Library"}},"amenity/library/universityoftoronto-b0fd6b":{"name":"University of Toronto","locationSet":{"include":["ca-on"]},"geometry":["point","area"],"matchScore":2,"terms":["university of toronto"],"tags":{"amenity":"library","operator:wikidata":"Q180865"},"addTags":{"amenity":"library","operator":"University of Toronto","operator:type":"university","operator:wikidata":"Q180865","operator:wikipedia":"en:University of Toronto"}},"amenity/library/wellingtoncountylibrary-b0fd6b":{"name":"Wellington County Library","locationSet":{"include":["ca-on"]},"geometry":["point","area"],"matchScore":2,"terms":["wcl","wellington county library"],"tags":{"amenity":"library","operator:wikidata":"Q53678310"},"addTags":{"amenity":"library","operator":"Wellington County Library","operator:short":"WCL","operator:type":"public","operator:wikidata":"Q53678310"}},"amenity/school/algomadistrictschoolboard-57bf82":{"name":"Algoma District School Board","locationSet":{"include":["ca-on"]},"geometry":["area","point"],"matchScore":2,"terms":["adsb","algoma district school board"],"tags":{"amenity":"school","operator:wikidata":"Q4724295"},"addTags":{"amenity":"school","operator":"Algoma District School Board","operator:short":"ADSB","operator:type":"public","operator:wikidata":"Q4724295","operator:wikipedia":"en:Algoma District School Board"}},"amenity/school/algonquinandlakeshorecatholicdistrictschoolboard-57bf82":{"name":"Algonquin and Lakeshore Catholic District School Board","locationSet":{"include":["ca-on"]},"geometry":["area","point"],"matchScore":2,"terms":["alcdsb","algonquin and lakeshore catholic district school board"],"tags":{"amenity":"school","operator:wikidata":"Q4724342"},"addTags":{"amenity":"school","operator":"Algonquin and Lakeshore Catholic District School Board","operator:short":"ALCDSB","operator:type":"public","operator:wikidata":"Q4724342","operator:wikipedia":"en:Algonquin and Lakeshore Catholic District School Board"}},"amenity/school/avonmaitlanddistrictschoolboard-57bf82":{"name":"Avon Maitland District School Board","locationSet":{"include":["ca-on"]},"geometry":["area","point"],"matchScore":2,"terms":["amdsb","avon maitland district school board"],"tags":{"amenity":"school","operator:wikidata":"Q4829220"},"addTags":{"amenity":"school","operator":"Avon Maitland District School Board","operator:short":"AMDSB","operator:type":"public","operator:wikidata":"Q4829220","operator:wikipedia":"en:Avon Maitland District School Board"}},"amenity/school/bluewaterdistrictschoolboard-57bf82":{"name":"Bluewater District School Board","locationSet":{"include":["ca-on"]},"geometry":["area","point"],"matchScore":2,"terms":["bdsb","bluewater district school board"],"tags":{"amenity":"school","operator:wikidata":"Q4930609"},"addTags":{"amenity":"school","operator":"Bluewater District School Board","operator:short":"BDSB","operator:type":"public","operator:wikidata":"Q4930609","operator:wikipedia":"en:Bluewater District School Board"}},"amenity/school/branthaldimandnorfolkcatholicdistrictschoolboard-57bf82":{"name":"Brant Haldimand Norfolk Catholic District School Board","locationSet":{"include":["ca-on"]},"geometry":["area","point"],"matchScore":2,"terms":["bhncdsb","brant haldimand norfolk catholic district school board"],"tags":{"amenity":"school","operator:wikidata":"Q4957605"},"addTags":{"amenity":"school","operator":"Brant Haldimand Norfolk Catholic District School Board","operator:short":"BHNCDSB","operator:type":"public","operator:wikidata":"Q4957605","operator:wikipedia":"en:Brant Haldimand Norfolk Catholic District School Board"}},"amenity/school/brucegreycatholicdistrictschoolboard-57bf82":{"name":"Bruce-Grey Catholic District School Board","locationSet":{"include":["ca-on"]},"geometry":["area","point"],"matchScore":2,"terms":["bgcdsb","bruce-grey catholic district school board"],"tags":{"amenity":"school","operator:wikidata":"Q4977010"},"addTags":{"amenity":"school","operator":"Bruce-Grey Catholic District School Board","operator:short":"BGCDSB","operator:type":"public","operator:wikidata":"Q4977010","operator:wikipedia":"en:Bruce-Grey Catholic District School Board"}},"amenity/school/catholicdistrictschoolboardofeasternontario-57bf82":{"name":"Catholic District School Board of Eastern Ontario","locationSet":{"include":["ca-on"]},"geometry":["area","point"],"matchScore":2,"terms":["catholic district school board of eastern ontario","cdsbeo"],"tags":{"amenity":"school","operator:wikidata":"Q5053150"},"addTags":{"amenity":"school","operator":"Catholic District School Board of Eastern Ontario","operator:short":"CDSBEO","operator:type":"public","operator:wikidata":"Q5053150","operator:wikipedia":"en:Catholic District School Board of Eastern Ontario"}},"amenity/school/districtschoolboardofniagara-57bf82":{"name":"District School Board of Niagara","locationSet":{"include":["ca-on"]},"geometry":["area","point"],"matchScore":2,"terms":["district school board of niagara","dsbn"],"tags":{"amenity":"school","operator:wikidata":"Q5283366"},"addTags":{"amenity":"school","operator":"District School Board of Niagara","operator:short":"DSBN","operator:type":"public","operator:wikidata":"Q5283366","operator:wikipedia":"en:District School Board of Niagara"}},"amenity/school/districtschoolboardontarionortheast-57bf82":{"name":"District School Board Ontario North East","locationSet":{"include":["ca-on"]},"geometry":["area","point"],"matchScore":2,"terms":["district school board ontario north east","one"],"tags":{"amenity":"school","operator:wikidata":"Q5283365"},"addTags":{"amenity":"school","operator":"District School Board Ontario North East","operator:short":"ONE","operator:type":"public","operator:wikidata":"Q5283365","operator:wikipedia":"en:District School Board Ontario North East"}},"amenity/school/dufferinpeelcatholicdistrictschoolboard-57bf82":{"name":"Dufferin-Peel Catholic District School Board","locationSet":{"include":["ca-on"]},"geometry":["area","point"],"matchScore":2,"terms":["dpcdsb","dufferin-peel catholic district school board"],"tags":{"amenity":"school","operator:wikidata":"Q642703"},"addTags":{"amenity":"school","operator":"Dufferin-Peel Catholic District School Board","operator:short":"DPCDSB","operator:type":"public","operator:wikidata":"Q642703","operator:wikipedia":"en:Dufferin-Peel Catholic District School Board"}},"amenity/school/durhamcatholicdistrictschoolboard-57bf82":{"name":"Durham Catholic District School Board","locationSet":{"include":["ca-on"]},"geometry":["area","point"],"matchScore":2,"terms":["dcdsb","durham catholic district school board"],"tags":{"amenity":"school","operator:wikidata":"Q5316471"},"addTags":{"amenity":"school","operator":"Durham Catholic District School Board","operator:short":"DCDSB","operator:type":"public","operator:wikidata":"Q5316471","operator:wikipedia":"en:Durham Catholic District School Board"}},"amenity/school/durhamdistrictschoolboard-57bf82":{"name":"Durham District School Board","locationSet":{"include":["ca-on"]},"geometry":["area","point"],"matchScore":2,"terms":["ddsb","durham district school board"],"tags":{"amenity":"school","operator:wikidata":"Q5316505"},"addTags":{"amenity":"school","operator":"Durham District School Board","operator:short":"DDSB","operator:type":"public","operator:wikidata":"Q5316505","operator:wikipedia":"en:Durham District School Board"}},"amenity/school/granderiedistrictschoolboard-57bf82":{"name":"Grand Erie District School Board","locationSet":{"include":["ca-on"]},"geometry":["area","point"],"matchScore":2,"terms":["gedsb","grand erie district school board"],"tags":{"amenity":"school","operator:wikidata":"Q5594529"},"addTags":{"amenity":"school","operator":"Grand Erie District School Board","operator:short":"GEDSB","operator:type":"public","operator:wikidata":"Q5594529","operator:wikipedia":"en:Grand Erie District School Board"}},"amenity/school/greateressexcountydistrictschoolboard-57bf82":{"name":"Greater Essex County District School Board","locationSet":{"include":["ca-on"]},"geometry":["area","point"],"matchScore":2,"terms":["gecdsb","greater essex county district school board"],"tags":{"amenity":"school","operator:wikidata":"Q5600539"},"addTags":{"amenity":"school","operator":"Greater Essex County District School Board","operator:short":"GECDSB","operator:type":"public","operator:wikidata":"Q5600539","operator:wikipedia":"en:Greater Essex County District School Board"}},"amenity/school/haltoncatholicdistrictschoolboard-57bf82":{"name":"Halton Catholic District School Board","locationSet":{"include":["ca-on"]},"geometry":["area","point"],"matchScore":2,"terms":["halton catholic district school board","hcdsb"],"tags":{"amenity":"school","operator:wikidata":"Q5643629"},"addTags":{"amenity":"school","operator":"Halton Catholic District School Board","operator:short":"HCDSB","operator:type":"public","operator:wikidata":"Q5643629","operator:wikipedia":"en:Halton Catholic District School Board"}},"amenity/school/haltondistrictschoolboard-57bf82":{"name":"Halton District School Board","locationSet":{"include":["ca-on"]},"geometry":["area","point"],"matchScore":2,"terms":["halton district school board","hdsb"],"tags":{"amenity":"school","operator:wikidata":"Q5643647"},"addTags":{"amenity":"school","operator":"Halton District School Board","operator:short":"HDSB","operator:type":"public","operator:wikidata":"Q5643647","operator:wikipedia":"en:Halton District School Board"}},"amenity/school/hamiltonwentworthcatholicdistrictschoolboard-57bf82":{"name":"Hamilton-Wentworth Catholic District School Board","locationSet":{"include":["ca-on"]},"geometry":["area","point"],"matchScore":2,"terms":["hamilton-wentworth catholic district school board","hwcdsb"],"tags":{"amenity":"school","operator:wikidata":"Q5644809"},"addTags":{"amenity":"school","operator":"Hamilton-Wentworth Catholic District School Board","operator:short":"HWCDSB","operator:type":"public","operator:wikidata":"Q5644809","operator:wikipedia":"en:Hamilton-Wentworth Catholic District School Board"}},"amenity/school/hamiltonwentworthdistrictschoolboard-57bf82":{"name":"Hamilton-Wentworth District School Board","locationSet":{"include":["ca-on"]},"geometry":["area","point"],"matchScore":2,"terms":["hamilton-wentworth district school board","hwdsb"],"tags":{"amenity":"school","operator:wikidata":"Q5644811"},"addTags":{"amenity":"school","operator":"Hamilton-Wentworth District School Board","operator:short":"HWDSB","operator:type":"public","operator:wikidata":"Q5644811","operator:wikipedia":"en:Hamilton-Wentworth District School Board"}},"amenity/school/hastingsandprinceedwarddistrictschoolboard-57bf82":{"name":"Hastings and Prince Edward District School Board","locationSet":{"include":["ca-on"]},"geometry":["area","point"],"matchScore":2,"terms":["hastings and prince edward district school board","hpe"],"tags":{"amenity":"school","operator:wikidata":"Q5674524"},"addTags":{"amenity":"school","operator":"Hastings and Prince Edward District School Board","operator:short":"HPE","operator:type":"public","operator:wikidata":"Q5674524","operator:wikipedia":"en:Hartford Public Schools (Michigan)"}},"amenity/school/huronperthcatholicdistrictschoolboard-57bf82":{"name":"Huron-Perth Catholic District School Board","locationSet":{"include":["ca-on"]},"geometry":["area","point"],"matchScore":2,"terms":["hpcdsb","huron-perth catholic district school board"],"tags":{"amenity":"school","operator:wikidata":"Q5946827"},"addTags":{"amenity":"school","operator":"Huron-Perth Catholic District School Board","operator:short":"HPCDSB","operator:type":"public","operator:wikidata":"Q5946827","operator:wikipedia":"en:Huron-Perth Catholic District School Board"}},"amenity/school/huronsuperiorcatholicdistrictschoolboard-57bf82":{"name":"Huron-Superior Catholic District School Board","locationSet":{"include":["ca-on"]},"geometry":["area","point"],"matchScore":2,"terms":["hscdsb","huron-superior catholic district school board"],"tags":{"amenity":"school","operator:wikidata":"Q14875200"},"addTags":{"amenity":"school","operator":"Huron-Superior Catholic District School Board","operator:short":"HSCDSB","operator:type":"public","operator:wikidata":"Q14875200","operator:wikipedia":"en:Huron-Superior Catholic District School Board"}},"amenity/school/kawarthapineridgedistrictschoolboard-57bf82":{"name":"Kawartha Pine Ridge District School Board","locationSet":{"include":["ca-on"]},"geometry":["area","point"],"matchScore":2,"terms":["kawartha pine ridge district school board","kprdsb"],"tags":{"amenity":"school","operator:wikidata":"Q16253662"},"addTags":{"amenity":"school","operator":"Kawartha Pine Ridge District School Board","operator:short":"KPRDSB","operator:type":"public","operator:wikidata":"Q16253662","operator:wikipedia":"en:Kawartha Pine Ridge District School Board"}},"amenity/school/keewatinpatriciadistrictschoolboard-57bf82":{"name":"Keewatin-Patricia District School Board","locationSet":{"include":["ca-on"]},"geometry":["area","point"],"matchScore":2,"terms":["keewatin-patricia district school board","kpdsb"],"tags":{"amenity":"school","operator:wikidata":"Q6383351"},"addTags":{"amenity":"school","operator":"Keewatin-Patricia District School Board","operator:short":"KPDSB","operator:type":"public","operator:wikidata":"Q6383351","operator:wikipedia":"en:Keewatin-Patricia District School Board"}},"amenity/school/lakeheaddistrictschoolboard-57bf82":{"name":"Lakehead District School Board","locationSet":{"include":["ca-on"]},"geometry":["area","point"],"matchScore":2,"terms":["lakehead district school board","ldsb"],"tags":{"amenity":"school","operator:wikidata":"Q6478735"},"addTags":{"amenity":"school","operator":"Lakehead District School Board","operator:short":"LDSB","operator:type":"public","operator:wikidata":"Q6478735","operator:wikipedia":"en:Lakehead District School Board"}},"amenity/school/lambtonkentdistrictschoolboard-57bf82":{"name":"Lambton Kent District School Board","locationSet":{"include":["ca-on"]},"geometry":["area","point"],"matchScore":2,"terms":["lambton kent district school board","lkdsb"],"tags":{"amenity":"school","operator:wikidata":"Q6481601"},"addTags":{"amenity":"school","operator":"Lambton Kent District School Board","operator:short":"LKDSB","operator:type":"public","operator:wikidata":"Q6481601","operator:wikipedia":"en:Lambton Kent District School Board"}},"amenity/school/limestonedistrictschoolboard-57bf82":{"name":"Limestone District School Board","locationSet":{"include":["ca-on"]},"geometry":["area","point"],"matchScore":2,"terms":["ldsb","limestone district school board"],"tags":{"amenity":"school","operator:wikidata":"Q6549324"},"addTags":{"amenity":"school","operator":"Limestone District School Board","operator:short":"LDSB","operator:type":"public","operator:wikidata":"Q6549324","operator:wikipedia":"en:Limestone District School Board"}},"amenity/school/londondistrictcatholicschoolboard-57bf82":{"name":"London District Catholic School Board","locationSet":{"include":["ca-on"]},"geometry":["area","point"],"matchScore":2,"terms":["ldcsb","london district catholic school board"],"tags":{"amenity":"school","operator:wikidata":"Q6670327"},"addTags":{"amenity":"school","operator":"London District Catholic School Board","operator:short":"LDCSB","operator:type":"public","operator:wikidata":"Q6670327","operator:wikipedia":"en:London District Catholic School Board"}},"amenity/school/nearnorthdistrictschoolboard-57bf82":{"name":"Near North District School Board","locationSet":{"include":["ca-on"]},"geometry":["area","point"],"matchScore":2,"terms":["near north district school board","nndsb"],"tags":{"amenity":"school","operator:wikidata":"Q6984376"},"addTags":{"amenity":"school","operator":"Near North District School Board","operator:short":"NNDSB","operator:type":"public","operator:wikidata":"Q6984376","operator:wikipedia":"en:Near North District School Board"}},"amenity/school/niagaracatholicdistrictschoolboard-57bf82":{"name":"Niagara Catholic District School Board","locationSet":{"include":["ca-on"]},"geometry":["area","point"],"matchScore":2,"terms":["ncdsb","niagara catholic district school board"],"tags":{"amenity":"school","operator:wikidata":"Q16957770"},"addTags":{"amenity":"school","operator":"Niagara Catholic District School Board","operator:short":"NCDSB","operator:type":"public","operator:wikidata":"Q16957770","operator:wikipedia":"en:Niagara Catholic District School Board"}},"amenity/school/nipissingparrysoundcatholicdistrictschoolboard-57bf82":{"name":"Nipissing-Parry Sound Catholic District School Board","locationSet":{"include":["ca-on"]},"geometry":["area","point"],"matchScore":2,"terms":["nipissing-parry sound catholic district school board","npsc"],"tags":{"amenity":"school","operator:wikidata":"Q7039507"},"addTags":{"amenity":"school","operator":"Nipissing-Parry Sound Catholic District School Board","operator:short":"NPSC","operator:type":"public","operator:wikidata":"Q7039507","operator:wikipedia":"en:Nipissing-Parry Sound Catholic District School Board"}},"amenity/school/northeasterncatholicdistrictschoolboard-57bf82":{"name":"Northeastern Catholic District School Board","locationSet":{"include":["ca-on"]},"geometry":["area","point"],"matchScore":2,"terms":["ncdsb","northeastern catholic district school board"],"tags":{"amenity":"school","operator:wikidata":"Q16958857"},"addTags":{"amenity":"school","operator":"Northeastern Catholic District School Board","operator:short":"NCDSB","operator:type":"public","operator:wikidata":"Q16958857","operator:wikipedia":"en:Northeastern Catholic District School Board"}},"amenity/school/ottawacatholicschoolboard-57bf82":{"name":"Ottawa Catholic School Board","locationSet":{"include":["ca-on"]},"geometry":["area","point"],"matchScore":2,"terms":["ocsb","ottawa catholic school board"],"tags":{"amenity":"school","operator:wikidata":"Q3357758"},"addTags":{"amenity":"school","operator":"Ottawa Catholic School Board","operator:short":"OCSB","operator:type":"public","operator:wikidata":"Q3357758","operator:wikipedia":"en:Ottawa Catholic School Board"}},"amenity/school/ottawacarletondistrictschoolboard-57bf82":{"name":"Ottawa-Carleton District School Board","locationSet":{"include":["ca-on"]},"geometry":["area","point"],"matchScore":2,"terms":["ocdsb","ottawa-carleton district school board"],"tags":{"amenity":"school","operator:wikidata":"Q7109129"},"addTags":{"amenity":"school","operator":"Ottawa-Carleton District School Board","operator:short":"OCDSB","operator:type":"public","operator:wikidata":"Q7109129","operator:wikipedia":"en:Ottawa-Carleton District School Board"}},"amenity/school/peeldistrictschoolboard-57bf82":{"name":"Peel District School Board","locationSet":{"include":["ca-on"]},"geometry":["area","point"],"matchScore":2,"terms":["pdsb","peel district school board"],"tags":{"amenity":"school","operator:wikidata":"Q594991"},"addTags":{"amenity":"school","operator":"Peel District School Board","operator:short":"PDSB","operator:type":"public","operator:wikidata":"Q594991","operator:wikipedia":"en:Peel District School Board"}},"amenity/school/peterboroughvictorianorthumberlandandclaringtoncatholicdistrictschoolboard-57bf82":{"name":"Peterborough Victoria Northumberland and Clarington Catholic District School Board","locationSet":{"include":["ca-on"]},"geometry":["area","point"],"matchScore":2,"terms":["peterborough victoria northumberland and clarington catholic district school board","pvnccdsb"],"tags":{"amenity":"school","operator:wikidata":"Q7178038"},"addTags":{"amenity":"school","operator":"Peterborough Victoria Northumberland and Clarington Catholic District School Board","operator:short":"PVNCCDSB","operator:type":"public","operator:wikidata":"Q7178038","operator:wikipedia":"en:Peterborough Victoria Northumberland and Clarington Catholic District School Board"}},"amenity/school/rainbowdistrictschoolboard-57bf82":{"name":"Rainbow District School Board","locationSet":{"include":["ca-on"]},"geometry":["area","point"],"matchScore":2,"terms":["rainbow district school board","rdsb"],"tags":{"amenity":"school","operator:wikidata":"Q7284614"},"addTags":{"amenity":"school","operator":"Rainbow District School Board","operator:short":"RDSB","operator:type":"public","operator:wikidata":"Q7284614","operator:wikipedia":"en:Rainbow District School Board"}},"amenity/school/rainyriverdistrictschoolboard-57bf82":{"name":"Rainy River District School Board","locationSet":{"include":["ca-on"]},"geometry":["area","point"],"matchScore":2,"terms":["rainy river district school board","rrdsb"],"tags":{"amenity":"school","operator:wikidata":"Q7285020"},"addTags":{"amenity":"school","operator":"Rainy River District School Board","operator:short":"RRDSB","operator:type":"public","operator:wikidata":"Q7285020","operator:wikipedia":"en:Rainy River District School Board"}},"amenity/school/renfrewcountycatholicdistrictschoolboard-57bf82":{"name":"Renfrew County Catholic District School Board","locationSet":{"include":["ca-on"]},"geometry":["area","point"],"matchScore":2,"terms":["rccdsb","renfrew county catholic district school board"],"tags":{"amenity":"school","operator:wikidata":"Q7313159"},"addTags":{"amenity":"school","operator":"Renfrew County Catholic District School Board","operator:short":"RCCDSB","operator:type":"public","operator:wikidata":"Q7313159","operator:wikipedia":"en:Renfrew County Catholic District School Board"}},"amenity/school/renfrewcountydistrictschoolboard-57bf82":{"name":"Renfrew County District School Board","locationSet":{"include":["ca-on"]},"geometry":["area","point"],"matchScore":2,"terms":["rcdsb","renfrew county district school board"],"tags":{"amenity":"school","operator:wikidata":"Q7313163"},"addTags":{"amenity":"school","operator":"Renfrew County District School Board","operator:short":"RCDSB","operator:type":"public","operator:wikidata":"Q7313163","operator:wikipedia":"en:Renfrew County District School Board"}},"amenity/school/simcoecountydistrictschoolboard-57bf82":{"name":"Simcoe County District School Board","locationSet":{"include":["ca-on"]},"geometry":["area","point"],"matchScore":2,"terms":["scdsb","simcoe county district school board"],"tags":{"amenity":"school","operator:wikidata":"Q7517495"},"addTags":{"amenity":"school","operator":"Simcoe County District School Board","operator:short":"SCDSB","operator:type":"public","operator:wikidata":"Q7517495","operator:wikipedia":"en:Simcoe County District School Board"}},"amenity/school/simcoemuskokacatholicdistrictschoolboard-57bf82":{"name":"Simcoe Muskoka Catholic District School Board","locationSet":{"include":["ca-on"]},"geometry":["area","point"],"matchScore":2,"terms":["simcoe muskoka catholic district school board","smcdsb"],"tags":{"amenity":"school","operator:wikidata":"Q7517502"},"addTags":{"amenity":"school","operator":"Simcoe Muskoka Catholic District School Board","operator:short":"SMCDSB","operator:type":"public","operator:wikidata":"Q7517502","operator:wikipedia":"en:Simcoe Muskoka Catholic District School Board"}},"amenity/school/stclaircatholicdistrictschoolboard-57bf82":{"name":"St. Clair Catholic District School Board","locationSet":{"include":["ca-on"]},"geometry":["area","point"],"matchScore":2,"terms":["sccdsb","st. clair catholic district school board"],"tags":{"amenity":"school","operator:wikidata":"Q7587563"},"addTags":{"amenity":"school","operator":"St. Clair Catholic District School Board","operator:short":"SCCDSB","operator:type":"public","operator:wikidata":"Q7587563","operator:wikipedia":"en:St. Clair Catholic District School Board"}},"amenity/school/sudburycatholicdistrictschoolboard-57bf82":{"name":"Sudbury Catholic District School Board","locationSet":{"include":["ca-on"]},"geometry":["area","point"],"matchScore":2,"terms":["scdsb","sudbury catholic district school board"],"tags":{"amenity":"school","operator:wikidata":"Q7633503"},"addTags":{"amenity":"school","operator":"Sudbury Catholic District School Board","operator:short":"SCDSB","operator:type":"public","operator:wikidata":"Q7633503","operator:wikipedia":"en:Sudbury Catholic District School Board"}},"amenity/school/superiorgreenstonedistrictschoolboard-57bf82":{"name":"Superior-Greenstone District School Board","locationSet":{"include":["ca-on"]},"geometry":["area","point"],"matchScore":2,"terms":["sgdsb","superior-greenstone district school board"],"tags":{"amenity":"school","operator:wikidata":"Q17144626"},"addTags":{"amenity":"school","operator":"Superior-Greenstone District School Board","operator:short":"SGDSB","operator:type":"public","operator:wikidata":"Q17144626","operator:wikipedia":"en:Superior-Greenstone District School Board"}},"amenity/school/thamesvalleydistrictschoolboard-57bf82":{"name":"Thames Valley District School Board","locationSet":{"include":["ca-on"]},"geometry":["area","point"],"matchScore":2,"terms":["thames valley district school board","tvdsb"],"tags":{"amenity":"school","operator:wikidata":"Q7709930"},"addTags":{"amenity":"school","operator":"Thames Valley District School Board","operator:short":"TVDSB","operator:type":"public","operator:wikidata":"Q7709930","operator:wikipedia":"en:Thames Valley District School Board"}},"amenity/school/thunderbaycatholicdistrictschoolboard-57bf82":{"name":"Thunder Bay Catholic District School Board","locationSet":{"include":["ca-on"]},"geometry":["area","point"],"matchScore":2,"terms":["tbcdsb","thunder bay catholic district school board"],"tags":{"amenity":"school","operator:wikidata":"Q7798917"},"addTags":{"amenity":"school","operator":"Thunder Bay Catholic District School Board","operator:short":"TBCDSB","operator:type":"public","operator:wikidata":"Q7798917","operator:wikipedia":"en:Thunder Bay Catholic District School Board"}},"amenity/school/torontocatholicdistrictschoolboard-57bf82":{"name":"Toronto Catholic District School Board","locationSet":{"include":["ca-on"]},"geometry":["area","point"],"matchScore":2,"terms":["tcdsb","toronto catholic district school board"],"tags":{"amenity":"school","operator:wikidata":"Q405337"},"addTags":{"amenity":"school","operator":"Toronto Catholic District School Board","operator:short":"TCDSB","operator:type":"public","operator:wikidata":"Q405337","operator:wikipedia":"en:Toronto Catholic District School Board"}},"amenity/school/torontodistrictschoolboard-57bf82":{"name":"Toronto District School Board","locationSet":{"include":["ca-on"]},"geometry":["area","point"],"matchScore":2,"terms":["tdsb","toronto district school board"],"tags":{"amenity":"school","operator:wikidata":"Q1189302"},"addTags":{"amenity":"school","operator":"Toronto District School Board","operator:short":"TDSB","operator:type":"public","operator:wikidata":"Q1189302","operator:wikipedia":"en:Toronto District School Board"}},"amenity/school/trilliumlakelandsdistrictschoolboard-57bf82":{"name":"Trillium Lakelands District School Board","locationSet":{"include":["ca-on"]},"geometry":["area","point"],"matchScore":2,"terms":["tldsb","trillium lakelands district school board"],"tags":{"amenity":"school","operator:wikidata":"Q7842045"},"addTags":{"amenity":"school","operator":"Trillium Lakelands District School Board","operator:short":"TLDSB","operator:type":"public","operator:wikidata":"Q7842045","operator:wikipedia":"en:Trillium Lakelands District School Board"}},"amenity/school/uppercanadadistrictschoolboard-57bf82":{"name":"Upper Canada District School Board","locationSet":{"include":["ca-on"]},"geometry":["area","point"],"matchScore":2,"terms":["ucdsb","upper canada district school board"],"tags":{"amenity":"school","operator:wikidata":"Q7898536"},"addTags":{"amenity":"school","operator":"Upper Canada District School Board","operator:short":"UCDSB","operator:type":"public","operator:wikidata":"Q7898536","operator:wikipedia":"en:Upper Canada District School Board"}},"amenity/school/uppergranddistrictschoolboard-57bf82":{"name":"Upper Grand District School Board","locationSet":{"include":["ca-on"]},"geometry":["area","point"],"matchScore":2,"terms":["ugdsb","upper grand district school board"],"tags":{"amenity":"school","operator:wikidata":"Q7898663"},"addTags":{"amenity":"school","operator":"Upper Grand District School Board","operator:short":"UGDSB","operator:type":"public","operator:wikidata":"Q7898663","operator:wikipedia":"en:Upper Grand District School Board"}},"amenity/school/waterloocatholicdistrictschoolboard-57bf82":{"name":"Waterloo Catholic District School Board","locationSet":{"include":["ca-on"]},"geometry":["area","point"],"matchScore":2,"terms":["waterloo catholic district school board","wcdsb"],"tags":{"amenity":"school","operator:wikidata":"Q7974216"},"addTags":{"amenity":"school","operator":"Waterloo Catholic District School Board","operator:short":"WCDSB","operator:type":"public","operator:wikidata":"Q7974216","operator:wikipedia":"en:Waterloo Catholic District School Board"}},"amenity/school/waterlooregiondistrictschoolboard-57bf82":{"name":"Waterloo Region District School Board","locationSet":{"include":["ca-on"]},"geometry":["area","point"],"matchScore":2,"terms":["waterloo region district school board","wrdsb"],"tags":{"amenity":"school","operator:wikidata":"Q69406620"},"addTags":{"amenity":"school","operator":"Waterloo Region District School Board","operator:short":"WRDSB","operator:type":"public","operator:wikidata":"Q69406620","operator:wikipedia":"en:Waterloo Region District School Board"}},"amenity/school/wellingtoncatholicdistrictschoolboard-57bf82":{"name":"Wellington Catholic District School Board","locationSet":{"include":["ca-on"]},"geometry":["area","point"],"matchScore":2,"terms":["wcdsb","wellington catholic district school board"],"tags":{"amenity":"school","operator:wikidata":"Q7981343"},"addTags":{"amenity":"school","operator":"Wellington Catholic District School Board","operator:short":"WCDSB","operator:type":"public","operator:wikidata":"Q7981343","operator:wikipedia":"en:Wellington Catholic District School Board"}},"amenity/school/windsoressexcatholicdistrictschoolboard-57bf82":{"name":"Windsor Essex Catholic District School Board","locationSet":{"include":["ca-on"]},"geometry":["area","point"],"matchScore":2,"terms":["wecdsb","windsor essex catholic district school board"],"tags":{"amenity":"school","operator:wikidata":"Q8024547"},"addTags":{"amenity":"school","operator":"Windsor Essex Catholic District School Board","operator:short":"WECDSB","operator:type":"public","operator:wikidata":"Q8024547","operator:wikipedia":"en:Windsor-Essex Catholic District School Board"}},"amenity/school/yorkcatholicdistrictschoolboard-57bf82":{"name":"York Catholic District School Board","locationSet":{"include":["ca-on"]},"geometry":["area","point"],"matchScore":2,"terms":["ycdsb","york catholic district school board"],"tags":{"amenity":"school","operator:wikidata":"Q8055376"},"addTags":{"amenity":"school","operator":"York Catholic District School Board","operator:short":"YCDSB","operator:type":"public","operator:wikidata":"Q8055376","operator:wikipedia":"en:York Catholic District School Board"}},"amenity/school/yorkregiondistrictschoolboard-57bf82":{"name":"York Region District School Board","locationSet":{"include":["ca-on"]},"geometry":["area","point"],"matchScore":2,"terms":["york region district school board","yrdsb"],"tags":{"amenity":"school","operator:wikidata":"Q5275021"},"addTags":{"amenity":"school","operator":"York Region District School Board","operator:short":"YRDSB","operator:type":"public","operator:wikidata":"Q5275021","operator:wikipedia":"en:York Region District School Board"}},"leisure/nature_reserve/cityofottawa-45bb01":{"name":"City of Ottawa","locationSet":{"include":["ca-on"]},"geometry":["area","point"],"matchScore":2,"terms":["city of ottawa","ottawa"],"tags":{"leisure":"nature_reserve","operator:wikidata":"Q1930"},"addTags":{"leisure":"nature_reserve","operator":"City of Ottawa","operator:type":"public","operator:wikidata":"Q1930","operator:wikipedia":"en:Ottawa"}},"leisure/nature_reserve/nationalcapitalcommission-45bb01":{"name":"NCC","locationSet":{"include":["ca-on"]},"geometry":["area","point"],"matchScore":2,"terms":["national capital commission","ncc"],"tags":{"leisure":"nature_reserve","operator:wikidata":"Q613449"},"addTags":{"leisure":"nature_reserve","operator":"National Capital Commission","operator:short":"NCC","operator:type":"government","operator:wikidata":"Q613449","operator:wikipedia":"en:National Capital Commission"}},"leisure/nature_reserve/ontarioparks-45bb01":{"name":"Ontario Parks","locationSet":{"include":["ca-on"]},"geometry":["area","point"],"matchScore":2,"terms":["ontario parks"],"tags":{"leisure":"nature_reserve","operator:wikidata":"Q3364902"},"addTags":{"leisure":"nature_reserve","operator":"Ontario Parks","operator:type":"public","operator:wikidata":"Q3364902","operator:wikipedia":"en:Ontario Parks"}},"leisure/park/cityofottawa-62b82e":{"name":"City of Ottawa","locationSet":{"include":["ca-on"]},"geometry":["area","point"],"matchScore":2,"terms":["city of ottawa","ottawa"],"tags":{"leisure":"park","operator:wikidata":"Q1930"},"addTags":{"leisure":"park","operator":"City of Ottawa","operator:type":"public","operator:wikidata":"Q1930","operator:wikipedia":"en:Ottawa"}},"leisure/park/nationalcapitalcommission-62b82e":{"name":"NCC","locationSet":{"include":["ca-on"]},"geometry":["area","point"],"matchScore":2,"terms":["national capital commission","ncc"],"tags":{"leisure":"park","operator:wikidata":"Q613449"},"addTags":{"leisure":"park","operator":"National Capital Commission","operator:short":"NCC","operator:type":"government","operator:wikidata":"Q613449","operator:wikipedia":"en:National Capital Commission"}},"leisure/park/ontarioparks-62b82e":{"name":"Ontario Parks","locationSet":{"include":["ca-on"]},"geometry":["area","point"],"matchScore":2,"terms":["ontario parks"],"tags":{"leisure":"park","operator:wikidata":"Q3364902"},"addTags":{"leisure":"park","operator":"Ontario Parks","operator:type":"public","operator:wikidata":"Q3364902","operator:wikipedia":"en:Ontario Parks"}},"power/line/epcor-ec456d":{"name":"EPCOR","locationSet":{"include":["ca-ab","ca-bc","ca-on","us-az","us-nm","us-tx"]},"geometry":["line"],"matchScore":2,"terms":["aqualta","eltec","epcor"],"tags":{"operator:wikidata":"Q5323849","power":"line"},"addTags":{"operator":"EPCOR","operator:wikidata":"Q5323849","operator:wikipedia":"en:EPCOR Utilities","power":"line"}},"power/line/hydroone-c48131":{"name":"Hydro One","locationSet":{"include":["ca-on"]},"geometry":["line"],"matchScore":2,"terms":["hydro one"],"tags":{"operator:wikidata":"Q3143709","power":"line"},"addTags":{"operator":"Hydro One","operator:wikidata":"Q3143709","operator:wikipedia":"en:Hydro One","power":"line"}},"power/minor_line/hydroottawa-e22604":{"name":"Hydro Ottawa","locationSet":{"include":["ca-on"]},"geometry":["line"],"matchScore":2,"terms":["hydro ottawa"],"tags":{"operator:wikidata":"Q3143710","power":"minor_line"},"addTags":{"operator":"Hydro Ottawa","operator:wikidata":"Q3143710","operator:wikipedia":"en:Hydro Ottawa","power":"minor_line"}},"power/minor_line/torontohydro-e22604":{"name":"Toronto Hydro","locationSet":{"include":["ca-on"]},"geometry":["line"],"matchScore":2,"terms":["toronto hydro"],"tags":{"operator:wikidata":"Q7826411","power":"minor_line"},"addTags":{"operator":"Toronto Hydro","operator:wikidata":"Q7826411","operator:wikipedia":"en:Toronto Hydro","power":"minor_line"}},"power/minor_line/epcor-dda2f7":{"name":"EPCOR","locationSet":{"include":["ca-ab","ca-bc","ca-on","us-az","us-nm","us-tx"]},"geometry":["line"],"matchScore":2,"terms":["aqualta","eltec","epcor"],"tags":{"operator:wikidata":"Q5323849","power":"minor_line"},"addTags":{"operator":"EPCOR","operator:wikidata":"Q5323849","operator:wikipedia":"en:EPCOR Utilities","power":"minor_line"}},"power/minor_line/hydroone-e22604":{"name":"Hydro One","locationSet":{"include":["ca-on"]},"geometry":["line"],"matchScore":2,"terms":["hydro one"],"tags":{"operator:wikidata":"Q3143709","power":"minor_line"},"addTags":{"operator":"Hydro One","operator:wikidata":"Q3143709","operator:wikipedia":"en:Hydro One","power":"minor_line"}},"power/plant/ontariopowergeneration-fa3428":{"name":"Ontario Power Generation","locationSet":{"include":["ca-on"]},"geometry":["area"],"matchScore":2,"terms":["ontario power generation"],"tags":{"operator:wikidata":"Q1129706","power":"plant"},"addTags":{"operator":"Ontario Power Generation","operator:wikidata":"Q1129706","operator:wikipedia":"en:Ontario Power Generation","power":"plant"}},"power/pole/hydroottawa-4c765c":{"name":"Hydro Ottawa","locationSet":{"include":["ca-on"]},"geometry":["point","vertex"],"matchScore":2,"terms":["hydro ottawa"],"tags":{"operator:wikidata":"Q3143710","power":"pole"},"addTags":{"operator":"Hydro Ottawa","operator:wikidata":"Q3143710","operator:wikipedia":"en:Hydro Ottawa","power":"pole"}},"power/pole/torontohydro-4c765c":{"name":"Toronto Hydro","locationSet":{"include":["ca-on"]},"geometry":["point","vertex"],"matchScore":2,"terms":["toronto hydro"],"tags":{"operator:wikidata":"Q7826411","power":"pole"},"addTags":{"operator":"Toronto Hydro","operator:wikidata":"Q7826411","operator:wikipedia":"en:Toronto Hydro","power":"pole"}},"power/pole/epcor-e09e4b":{"name":"EPCOR","locationSet":{"include":["ca-ab","ca-bc","ca-on","us-az","us-nm","us-tx"]},"geometry":["point","vertex"],"matchScore":2,"terms":["aqualta","eltec","epcor"],"tags":{"operator:wikidata":"Q5323849","power":"pole"},"addTags":{"operator":"EPCOR","operator:wikidata":"Q5323849","operator:wikipedia":"en:EPCOR Utilities","power":"pole"}},"power/pole/hydroone-4c765c":{"name":"Hydro One","locationSet":{"include":["ca-on"]},"geometry":["point","vertex"],"matchScore":2,"terms":["hydro one"],"tags":{"operator:wikidata":"Q3143709","power":"pole"},"addTags":{"operator":"Hydro One","operator:wikidata":"Q3143709","operator:wikipedia":"en:Hydro One","power":"pole"}},"power/substation/epcor-b7915e":{"name":"EPCOR","locationSet":{"include":["ca-ab","ca-bc","ca-on","us-az","us-nm","us-tx"]},"geometry":["area","point"],"matchScore":2,"terms":["aqualta","eltec","epcor"],"tags":{"operator:wikidata":"Q5323849","power":"substation"},"addTags":{"operator":"EPCOR","operator:wikidata":"Q5323849","operator:wikipedia":"en:EPCOR Utilities","power":"substation"}},"power/substation/hydroone-214de1":{"name":"Hydro One","locationSet":{"include":["ca-on"]},"geometry":["area","point"],"matchScore":2,"terms":["hydro one"],"tags":{"operator:wikidata":"Q3143709","power":"substation"},"addTags":{"operator":"Hydro One","operator:wikidata":"Q3143709","operator:wikipedia":"en:Hydro One","power":"substation"}},"power/substation/hydroottawa-214de1":{"name":"Hydro Ottawa","locationSet":{"include":["ca-on"]},"geometry":["area","point"],"matchScore":2,"terms":["hydro ottawa"],"tags":{"operator:wikidata":"Q3143710","power":"substation"},"addTags":{"operator":"Hydro Ottawa","operator:wikidata":"Q3143710","operator:wikipedia":"en:Hydro Ottawa","power":"substation"}},"power/substation/torontohydro-214de1":{"name":"Toronto Hydro","locationSet":{"include":["ca-on"]},"geometry":["area","point"],"matchScore":2,"terms":["toronto hydro"],"tags":{"operator:wikidata":"Q7826411","power":"substation"},"addTags":{"operator":"Toronto Hydro","operator:wikidata":"Q7826411","operator:wikipedia":"en:Toronto Hydro","power":"substation"}},"power/tower/epcor-f12bdc":{"name":"EPCOR","locationSet":{"include":["ca-ab","ca-bc","ca-on","us-az","us-nm","us-tx"]},"geometry":["point","vertex"],"matchScore":2,"terms":["aqualta","eltec","epcor"],"tags":{"operator:wikidata":"Q5323849","power":"tower"},"addTags":{"operator":"EPCOR","operator:wikidata":"Q5323849","operator:wikipedia":"en:EPCOR Utilities","power":"tower"}},"power/tower/hydroone-a0c328":{"name":"Hydro One","locationSet":{"include":["ca-on"]},"geometry":["point","vertex"],"matchScore":2,"terms":["hydro one"],"tags":{"operator:wikidata":"Q3143709","power":"tower"},"addTags":{"operator":"Hydro One","operator:wikidata":"Q3143709","operator:wikipedia":"en:Hydro One","power":"tower"}},"power/transformer/epcor-f6996f":{"name":"EPCOR","locationSet":{"include":["ca-ab","ca-bc","ca-on","us-az","us-nm","us-tx"]},"geometry":["point","vertex"],"matchScore":2,"terms":["aqualta","eltec","epcor"],"tags":{"operator:wikidata":"Q5323849","power":"transformer"},"addTags":{"operator":"EPCOR","operator:wikidata":"Q5323849","operator:wikipedia":"en:EPCOR Utilities","power":"transformer"}},"power/transformer/hydroone-88d972":{"name":"Hydro One","locationSet":{"include":["ca-on"]},"geometry":["point","vertex"],"matchScore":2,"terms":["hydro one"],"tags":{"operator:wikidata":"Q3143709","power":"transformer"},"addTags":{"operator":"Hydro One","operator:wikidata":"Q3143709","operator:wikipedia":"en:Hydro One","power":"transformer"}},"power/transformer/hydroottawa-88d972":{"name":"Hydro Ottawa","locationSet":{"include":["ca-on"]},"geometry":["point","vertex"],"matchScore":2,"terms":["hydro ottawa"],"tags":{"operator:wikidata":"Q3143710","power":"transformer"},"addTags":{"operator":"Hydro Ottawa","operator:wikidata":"Q3143710","operator:wikipedia":"en:Hydro Ottawa","power":"transformer"}},"power/transformer/torontohydro-88d972":{"name":"Toronto Hydro","locationSet":{"include":["ca-on"]},"geometry":["point","vertex"],"matchScore":2,"terms":["toronto hydro"],"tags":{"operator:wikidata":"Q7826411","power":"transformer"},"addTags":{"operator":"Toronto Hydro","operator:wikidata":"Q7826411","operator:wikipedia":"en:Toronto Hydro","power":"transformer"}},"public_transport/platform/bus_point/bramptontransit-f5d42f":{"name":"Brampton Transit","locationSet":{"include":["ca-on"]},"geometry":["point","vertex"],"matchScore":2,"terms":["brampton transit"],"reference":{"key":"public_transport","value":"platform"},"tags":{"bus":"yes","network:wikidata":"Q4956262","public_transport":"platform"},"addTags":{"bus":"yes","highway":"bus_stop","network":"Brampton Transit","network:wikidata":"Q4956262","network:wikipedia":"en:Brampton Transit","public_transport":"platform"}},"public_transport/platform/bus_point/burlingtontransit-f5d42f":{"name":"Burlington Transit","locationSet":{"include":["ca-on"]},"geometry":["point","vertex"],"matchScore":2,"terms":["burlington transit"],"reference":{"key":"public_transport","value":"platform"},"tags":{"bus":"yes","network:wikidata":"Q2928517","public_transport":"platform"},"addTags":{"bus":"yes","highway":"bus_stop","network":"Burlington Transit","network:wikidata":"Q2928517","network:wikipedia":"en:Burlington Transit","public_transport":"platform"}},"public_transport/platform/bus_point/durhamregiontransit-f5d42f":{"name":"Durham Region Transit","locationSet":{"include":["ca-on"]},"geometry":["point","vertex"],"matchScore":2,"terms":["durham region transit"],"reference":{"key":"public_transport","value":"platform"},"tags":{"bus":"yes","network:wikidata":"Q5316548","public_transport":"platform"},"addTags":{"bus":"yes","highway":"bus_stop","network":"Durham Region Transit","network:wikidata":"Q5316548","network:wikipedia":"en:Durham Region Transit","public_transport":"platform"}},"public_transport/platform/bus_point/gotransit-f5d42f":{"name":"GO Transit(Bus)","locationSet":{"include":["ca-on"]},"geometry":["point","vertex"],"matchScore":2,"terms":["go bus","go transit","metrolinx"],"reference":{"key":"public_transport","value":"platform"},"tags":{"bus":"yes","network:wikidata":"Q1357727","public_transport":"platform"},"addTags":{"bus":"yes","highway":"bus_stop","network":"GO Transit","network:wikidata":"Q1357727","network:wikipedia":"en:GO Transit","operator":"Metrolinx","operator:wikidata":"Q3307451","operator:wikipedia":"en:Metrolinx","public_transport":"platform"}},"public_transport/platform/bus_point/gova-f5d42f":{"name":"GOVA","locationSet":{"include":["ca-on"]},"geometry":["point","vertex"],"matchScore":2,"terms":["gova","greater sudbury transit"],"reference":{"key":"public_transport","value":"platform"},"tags":{"bus":"yes","network:wikidata":"Q5600768","public_transport":"platform"},"addTags":{"bus":"yes","highway":"bus_stop","network":"GOVA","network:wikidata":"Q5600768","network:wikipedia":"en:GOVA","public_transport":"platform"}},"public_transport/platform/bus_point/grt-f5d42f":{"name":"GRT","locationSet":{"include":["ca-on"]},"geometry":["point","vertex"],"matchScore":2,"terms":["grt"],"reference":{"key":"public_transport","value":"platform"},"tags":{"bus":"yes","network:wikidata":"Q3459117","public_transport":"platform"},"addTags":{"bus":"yes","highway":"bus_stop","network":"GRT","network:wikidata":"Q3459117","network:wikipedia":"en:Grand River Transit","public_transport":"platform"}},"public_transport/platform/bus_point/guelphtransit-f5d42f":{"name":"Guelph Transit","locationSet":{"include":["ca-on"]},"geometry":["point","vertex"],"matchScore":2,"terms":["guelph transit"],"reference":{"key":"public_transport","value":"platform"},"tags":{"bus":"yes","network:wikidata":"Q5614797","public_transport":"platform"},"addTags":{"bus":"yes","highway":"bus_stop","network":"Guelph Transit","network:wikidata":"Q5614797","network:wikipedia":"en:Guelph Transit","public_transport":"platform"}},"public_transport/platform/bus_point/hamiltonstreetrailway-f5d42f":{"name":"Hamilton Street Railway","locationSet":{"include":["ca-on"]},"geometry":["point","vertex"],"matchScore":2,"terms":["hamilton street railway","hsr"],"reference":{"key":"public_transport","value":"platform"},"tags":{"bus":"yes","network:wikidata":"Q3126462","public_transport":"platform"},"addTags":{"bus":"yes","highway":"bus_stop","network":"Hamilton Street Railway","network:wikidata":"Q3126462","network:wikipedia":"en:Hamilton Street Railway","operator":"Hamilton Street Railway","public_transport":"platform"}},"public_transport/platform/bus_point/kingstontransit-f5d42f":{"name":"Kingston Transit","locationSet":{"include":["ca-on"]},"geometry":["point","vertex"],"matchScore":2,"terms":["kingston transit"],"reference":{"key":"public_transport","value":"platform"},"tags":{"bus":"yes","network:wikidata":"Q6413628","public_transport":"platform"},"addTags":{"bus":"yes","highway":"bus_stop","network":"Kingston Transit","network:wikidata":"Q6413628","network:wikipedia":"en:Kingston Transit","public_transport":"platform"}},"public_transport/platform/bus_point/londontransit-f5d42f":{"name":"London Transit (Ontario)","locationSet":{"include":["ca-on"]},"geometry":["point","vertex"],"matchScore":2,"terms":["london transit"],"reference":{"key":"public_transport","value":"platform"},"tags":{"bus":"yes","network:wikidata":"Q6670860","public_transport":"platform"},"addTags":{"bus":"yes","highway":"bus_stop","network":"London Transit","network:wikidata":"Q6670860","network:wikipedia":"en:London Transit","public_transport":"platform"}},"public_transport/platform/bus_point/miltontransit-f5d42f":{"name":"Milton Transit","locationSet":{"include":["ca-on"]},"geometry":["point","vertex"],"matchScore":2,"terms":["milton transit"],"reference":{"key":"public_transport","value":"platform"},"tags":{"bus":"yes","network:wikidata":"Q6861499","public_transport":"platform"},"addTags":{"bus":"yes","highway":"bus_stop","network":"Milton Transit","network:wikidata":"Q6861499","network:wikipedia":"en:Milton Transit","public_transport":"platform"}},"public_transport/platform/bus_point/miway-f5d42f":{"name":"MiWay","locationSet":{"include":["ca-on"]},"geometry":["point","vertex"],"matchScore":2,"terms":["miway"],"reference":{"key":"public_transport","value":"platform"},"tags":{"bus":"yes","network:wikidata":"Q1526431","public_transport":"platform"},"addTags":{"bus":"yes","highway":"bus_stop","network":"MiWay","network:wikidata":"Q1526431","network:wikipedia":"en:MiWay","public_transport":"platform"}},"public_transport/platform/bus_point/niagarafallstransit-f5d42f":{"name":"Niagara Falls Transit","locationSet":{"include":["ca-on"]},"geometry":["point","vertex"],"matchScore":2,"terms":["niagara falls transit"],"reference":{"key":"public_transport","value":"platform"},"tags":{"bus":"yes","network:wikidata":"Q7023691","public_transport":"platform"},"addTags":{"bus":"yes","highway":"bus_stop","network":"Niagara Falls Transit","network:wikidata":"Q7023691","network:wikipedia":"en:Niagara Falls Transit","public_transport":"platform"}},"public_transport/platform/bus_point/oakvilletransit-f5d42f":{"name":"Oakville Transit","locationSet":{"include":["ca-on"]},"geometry":["point","vertex"],"matchScore":2,"terms":["oakville transit"],"reference":{"key":"public_transport","value":"platform"},"tags":{"bus":"yes","network:wikidata":"Q7074262","public_transport":"platform"},"addTags":{"bus":"yes","highway":"bus_stop","network":"Oakville Transit","network:wikidata":"Q7074262","network:wikipedia":"en:Oakville Transit","public_transport":"platform"}},"public_transport/platform/bus_point/octranspo-f5d42f":{"name":"OC Transpo","locationSet":{"include":["ca-on"]},"geometry":["point","vertex"],"matchScore":2,"terms":["oc transpo"],"reference":{"key":"public_transport","value":"platform"},"tags":{"bus":"yes","network:wikidata":"Q3347525","public_transport":"platform"},"addTags":{"bus":"yes","highway":"bus_stop","network":"OC Transpo","network:wikidata":"Q3347525","network:wikipedia":"en:OC Transpo","public_transport":"platform"}},"public_transport/platform/bus_point/peterboroughtransit-f5d42f":{"name":"Peterborough Transit","locationSet":{"include":["ca-on"]},"geometry":["point","vertex"],"matchScore":2,"terms":["peterborough transit"],"reference":{"key":"public_transport","value":"platform"},"tags":{"bus":"yes","network:wikidata":"Q7178037","public_transport":"platform"},"addTags":{"bus":"yes","highway":"bus_stop","network":"Peterborough Transit","network:wikidata":"Q7178037","network:wikipedia":"en:Peterborough Transit","public_transport":"platform"}},"public_transport/platform/bus_point/sarniatransit-f5d42f":{"name":"Sarnia Transit","locationSet":{"include":["ca-on"]},"geometry":["point","vertex"],"matchScore":2,"terms":["sarnia transit"],"reference":{"key":"public_transport","value":"platform"},"tags":{"bus":"yes","network:wikidata":"Q7424351","public_transport":"platform"},"addTags":{"bus":"yes","highway":"bus_stop","network":"Sarnia Transit","network:wikidata":"Q7424351","network:wikipedia":"en:Sarnia Transit","public_transport":"platform"}},"public_transport/platform/bus_point/stcatharinestransit-f5d42f":{"name":"St. Catharines Transit","locationSet":{"include":["ca-on"]},"geometry":["point","vertex"],"matchScore":2,"terms":["st. catharines transit"],"reference":{"key":"public_transport","value":"platform"},"tags":{"bus":"yes","network:wikidata":"Q7587418","public_transport":"platform"},"addTags":{"bus":"yes","highway":"bus_stop","network":"St. Catharines Transit","network:wikidata":"Q7587418","network:wikipedia":"en:St. Catharines Transit","public_transport":"platform"}},"public_transport/platform/bus_point/thunderbaytransit-f5d42f":{"name":"Thunder Bay Transit","locationSet":{"include":["ca-on"]},"geometry":["point","vertex"],"matchScore":2,"terms":["thunder bay transit"],"reference":{"key":"public_transport","value":"platform"},"tags":{"bus":"yes","network:wikidata":"Q7798949","public_transport":"platform"},"addTags":{"bus":"yes","highway":"bus_stop","network":"Thunder Bay Transit","network:wikidata":"Q7798949","network:wikipedia":"en:Thunder Bay Transit","public_transport":"platform"}},"public_transport/platform/bus_point/ttc-f5d42f":{"name":"TTC (Toronto)","locationSet":{"include":["ca-on"]},"geometry":["point","vertex"],"matchScore":2,"terms":["toronto transit commision","ttc","ttc bus"],"reference":{"key":"public_transport","value":"platform"},"tags":{"bus":"yes","network:wikidata":"Q6612865","public_transport":"platform"},"addTags":{"bus":"yes","highway":"bus_stop","network":"TTC","network:wikidata":"Q6612865","network:wikipedia":"en:Toronto Transit Commission bus system","public_transport":"platform"}},"public_transport/platform/bus_point/yorkregiontransit-f5d42f":{"name":"York Region Transit","locationSet":{"include":["ca-on"]},"geometry":["point","vertex"],"matchScore":2,"terms":["york region transit"],"reference":{"key":"public_transport","value":"platform"},"tags":{"bus":"yes","network:wikidata":"Q5182500","public_transport":"platform"},"addTags":{"bus":"yes","highway":"bus_stop","network":"York Region Transit","network:wikidata":"Q5182500","network:wikipedia":"en:York Region Transit","public_transport":"platform"}},"type/route/bus/bramptontransit-6d07fa":{"name":"Brampton Transit","locationSet":{"include":["ca-on"]},"geometry":["relation"],"matchScore":2,"terms":["brampton transit"],"reference":{"key":"route","value":"bus"},"tags":{"network:wikidata":"Q4956262","route":"bus","type":"route"},"addTags":{"network":"Brampton Transit","network:wikidata":"Q4956262","network:wikipedia":"en:Brampton Transit","route":"bus","type":"route"}},"type/route/bus/burlingtontransit-6d07fa":{"name":"Burlington Transit","locationSet":{"include":["ca-on"]},"geometry":["relation"],"matchScore":2,"terms":["burlington transit"],"reference":{"key":"route","value":"bus"},"tags":{"network:wikidata":"Q2928517","route":"bus","type":"route"},"addTags":{"network":"Burlington Transit","network:wikidata":"Q2928517","network:wikipedia":"en:Burlington Transit","route":"bus","type":"route"}},"type/route/bus/durhamregiontransit-6d07fa":{"name":"Durham Region Transit","locationSet":{"include":["ca-on"]},"geometry":["relation"],"matchScore":2,"terms":["durham region transit"],"reference":{"key":"route","value":"bus"},"tags":{"network:wikidata":"Q5316548","route":"bus","type":"route"},"addTags":{"network":"Durham Region Transit","network:wikidata":"Q5316548","network:wikipedia":"en:Durham Region Transit","route":"bus","type":"route"}},"type/route/bus/gotransit-6d07fa":{"name":"GO Transit(Bus)","locationSet":{"include":["ca-on"]},"geometry":["relation"],"matchScore":2,"terms":["go bus","go transit","metrolinx"],"reference":{"key":"route","value":"bus"},"tags":{"network:wikidata":"Q1357727","route":"bus","type":"route"},"addTags":{"network":"GO Transit","network:wikidata":"Q1357727","network:wikipedia":"en:GO Transit","operator":"Metrolinx","operator:wikidata":"Q3307451","operator:wikipedia":"en:Metrolinx","route":"bus","type":"route"}},"type/route/bus/gova-6d07fa":{"name":"GOVA","locationSet":{"include":["ca-on"]},"geometry":["relation"],"matchScore":2,"terms":["gova","greater sudbury transit"],"reference":{"key":"route","value":"bus"},"tags":{"network:wikidata":"Q5600768","route":"bus","type":"route"},"addTags":{"network":"GOVA","network:wikidata":"Q5600768","network:wikipedia":"en:GOVA","route":"bus","type":"route"}},"type/route/bus/grt-6d07fa":{"name":"GRT","locationSet":{"include":["ca-on"]},"geometry":["relation"],"matchScore":2,"terms":["grt"],"reference":{"key":"route","value":"bus"},"tags":{"network:wikidata":"Q3459117","route":"bus","type":"route"},"addTags":{"network":"GRT","network:wikidata":"Q3459117","network:wikipedia":"en:Grand River Transit","route":"bus","type":"route"}},"type/route/bus/guelphtransit-6d07fa":{"name":"Guelph Transit","locationSet":{"include":["ca-on"]},"geometry":["relation"],"matchScore":2,"terms":["guelph transit"],"reference":{"key":"route","value":"bus"},"tags":{"network:wikidata":"Q5614797","route":"bus","type":"route"},"addTags":{"network":"Guelph Transit","network:wikidata":"Q5614797","network:wikipedia":"en:Guelph Transit","route":"bus","type":"route"}},"type/route/bus/hamiltonstreetrailway-6d07fa":{"name":"Hamilton Street Railway","locationSet":{"include":["ca-on"]},"geometry":["relation"],"matchScore":2,"terms":["hamilton street railway","hsr"],"reference":{"key":"route","value":"bus"},"tags":{"network:wikidata":"Q3126462","route":"bus","type":"route"},"addTags":{"network":"Hamilton Street Railway","network:wikidata":"Q3126462","network:wikipedia":"en:Hamilton Street Railway","operator":"Hamilton Street Railway","route":"bus","type":"route"}},"type/route/bus/kingstontransit-6d07fa":{"name":"Kingston Transit","locationSet":{"include":["ca-on"]},"geometry":["relation"],"matchScore":2,"terms":["kingston transit"],"reference":{"key":"route","value":"bus"},"tags":{"network:wikidata":"Q6413628","route":"bus","type":"route"},"addTags":{"network":"Kingston Transit","network:wikidata":"Q6413628","network:wikipedia":"en:Kingston Transit","route":"bus","type":"route"}},"type/route/bus/londontransit-6d07fa":{"name":"London Transit (Ontario)","locationSet":{"include":["ca-on"]},"geometry":["relation"],"matchScore":2,"terms":["london transit"],"reference":{"key":"route","value":"bus"},"tags":{"network:wikidata":"Q6670860","route":"bus","type":"route"},"addTags":{"network":"London Transit","network:wikidata":"Q6670860","network:wikipedia":"en:London Transit","route":"bus","type":"route"}},"type/route/bus/miltontransit-6d07fa":{"name":"Milton Transit","locationSet":{"include":["ca-on"]},"geometry":["relation"],"matchScore":2,"terms":["milton transit"],"reference":{"key":"route","value":"bus"},"tags":{"network:wikidata":"Q6861499","route":"bus","type":"route"},"addTags":{"network":"Milton Transit","network:wikidata":"Q6861499","network:wikipedia":"en:Milton Transit","route":"bus","type":"route"}},"type/route/bus/miway-6d07fa":{"name":"MiWay","locationSet":{"include":["ca-on"]},"geometry":["relation"],"matchScore":2,"terms":["miway"],"reference":{"key":"route","value":"bus"},"tags":{"network:wikidata":"Q1526431","route":"bus","type":"route"},"addTags":{"network":"MiWay","network:wikidata":"Q1526431","network:wikipedia":"en:MiWay","route":"bus","type":"route"}},"type/route/bus/niagarafallstransit-6d07fa":{"name":"Niagara Falls Transit","locationSet":{"include":["ca-on"]},"geometry":["relation"],"matchScore":2,"terms":["niagara falls transit"],"reference":{"key":"route","value":"bus"},"tags":{"network:wikidata":"Q7023691","route":"bus","type":"route"},"addTags":{"network":"Niagara Falls Transit","network:wikidata":"Q7023691","network:wikipedia":"en:Niagara Falls Transit","route":"bus","type":"route"}},"type/route/bus/oakvilletransit-6d07fa":{"name":"Oakville Transit","locationSet":{"include":["ca-on"]},"geometry":["relation"],"matchScore":2,"terms":["oakville transit"],"reference":{"key":"route","value":"bus"},"tags":{"network:wikidata":"Q7074262","route":"bus","type":"route"},"addTags":{"network":"Oakville Transit","network:wikidata":"Q7074262","network:wikipedia":"en:Oakville Transit","route":"bus","type":"route"}},"type/route/bus/octranspo-6d07fa":{"name":"OC Transpo","locationSet":{"include":["ca-on"]},"geometry":["relation"],"matchScore":2,"terms":["oc transpo"],"reference":{"key":"route","value":"bus"},"tags":{"network:wikidata":"Q3347525","route":"bus","type":"route"},"addTags":{"network":"OC Transpo","network:wikidata":"Q3347525","network:wikipedia":"en:OC Transpo","route":"bus","type":"route"}},"type/route/bus/peterboroughtransit-6d07fa":{"name":"Peterborough Transit","locationSet":{"include":["ca-on"]},"geometry":["relation"],"matchScore":2,"terms":["peterborough transit"],"reference":{"key":"route","value":"bus"},"tags":{"network:wikidata":"Q7178037","route":"bus","type":"route"},"addTags":{"network":"Peterborough Transit","network:wikidata":"Q7178037","network:wikipedia":"en:Peterborough Transit","route":"bus","type":"route"}},"type/route/bus/sarniatransit-6d07fa":{"name":"Sarnia Transit","locationSet":{"include":["ca-on"]},"geometry":["relation"],"matchScore":2,"terms":["sarnia transit"],"reference":{"key":"route","value":"bus"},"tags":{"network:wikidata":"Q7424351","route":"bus","type":"route"},"addTags":{"network":"Sarnia Transit","network:wikidata":"Q7424351","network:wikipedia":"en:Sarnia Transit","route":"bus","type":"route"}},"type/route/bus/stcatharinestransit-6d07fa":{"name":"St. Catharines Transit","locationSet":{"include":["ca-on"]},"geometry":["relation"],"matchScore":2,"terms":["st. catharines transit"],"reference":{"key":"route","value":"bus"},"tags":{"network:wikidata":"Q7587418","route":"bus","type":"route"},"addTags":{"network":"St. Catharines Transit","network:wikidata":"Q7587418","network:wikipedia":"en:St. Catharines Transit","route":"bus","type":"route"}},"type/route/bus/thunderbaytransit-6d07fa":{"name":"Thunder Bay Transit","locationSet":{"include":["ca-on"]},"geometry":["relation"],"matchScore":2,"terms":["thunder bay transit"],"reference":{"key":"route","value":"bus"},"tags":{"network:wikidata":"Q7798949","route":"bus","type":"route"},"addTags":{"network":"Thunder Bay Transit","network:wikidata":"Q7798949","network:wikipedia":"en:Thunder Bay Transit","route":"bus","type":"route"}},"type/route/bus/ttc-6d07fa":{"name":"TTC (Toronto)","locationSet":{"include":["ca-on"]},"geometry":["relation"],"matchScore":2,"terms":["toronto transit commision","ttc","ttc bus"],"reference":{"key":"route","value":"bus"},"tags":{"network:wikidata":"Q6612865","route":"bus","type":"route"},"addTags":{"network":"TTC","network:wikidata":"Q6612865","network:wikipedia":"en:Toronto Transit Commission bus system","route":"bus","type":"route"}},"type/route/bus/yorkregiontransit-6d07fa":{"name":"York Region Transit","locationSet":{"include":["ca-on"]},"geometry":["relation"],"matchScore":2,"terms":["york region transit"],"reference":{"key":"route","value":"bus"},"tags":{"network:wikidata":"Q5182500","route":"bus","type":"route"},"addTags":{"network":"York Region Transit","network:wikidata":"Q5182500","network:wikipedia":"en:York Region Transit","route":"bus","type":"route"}},"type/route/train/gotransit-0113b1":{"name":"GO Transit(Train)","locationSet":{"include":["ca-on"]},"geometry":["relation"],"matchScore":2,"terms":["alstom","go train","go transit"],"reference":{"key":"route","value":"train"},"tags":{"network:wikidata":"Q1357727","route":"train","type":"route"},"addTags":{"network":"GO Transit","network:wikidata":"Q1357727","network:wikipedia":"en:GO Transit","operator":"Alstom","operator:wikidata":"Q309084","operator:wikipedia":"en:Alstom","route":"train","type":"route"}}}