{"amenity/atm/fidelitybank-f95bbc":{"name":"Fidelity Bank (Nigeria)","locationSet":{"include":["ng"]},"geometry":["point","vertex"],"matchScore":2,"terms":["fidelity bank"],"tags":{"amenity":"atm","brand:wikidata":"Q5446777"},"addTags":{"amenity":"atm","brand":"Fidelity Bank","brand:wikidata":"Q5446777","brand:wikipedia":"en:Fidelity Bank Nigeria","name":"Fidelity Bank","operator":"Fidelity Bank","operator:wikidata":"Q5446777","operator:wikipedia":"en:Fidelity Bank Nigeria"}},"amenity/atm/gtbank-55d972":{"name":"GT Bank","locationSet":{"include":["ci","gb","gh","gm","ke","lr","ng","rw","tz","ug"]},"geometry":["point","vertex"],"matchScore":2,"terms":["gt bank","guaranty trust bank"],"tags":{"amenity":"atm","brand:wikidata":"Q579747"},"addTags":{"amenity":"atm","brand":"GT Bank","brand:wikidata":"Q579747","brand:wikipedia":"en:Guaranty Trust Holding Company PLC","name":"GT Bank","official_name":"Guaranty Trust Bank","operator":"GT Bank","operator:wikidata":"Q579747","operator:wikipedia":"en:Guaranty Trust Holding Company PLC"}},"amenity/atm/heritagebank-f95bbc":{"name":"Heritage Bank (Nigeria)","locationSet":{"include":["ng"]},"geometry":["point","vertex"],"matchScore":2,"terms":["heritage bank"],"tags":{"amenity":"atm","brand:wikidata":"Q17022606"},"addTags":{"amenity":"atm","brand":"Heritage Bank","brand:wikidata":"Q17022606","brand:wikipedia":"en:Heritage Bank (Nigeria)","name":"Heritage Bank","operator":"Heritage Bank","operator:wikidata":"Q17022606","operator:wikipedia":"en:Heritage Bank (Nigeria)"}},"amenity/atm/kudamicrofinancebank-f95bbc":{"name":"Kuda Bank","locationSet":{"include":["ng"]},"geometry":["point","vertex"],"matchScore":2,"terms":["kuda bank"],"tags":{"amenity":"atm","brand:wikidata":"Q108919305"},"addTags":{"amenity":"atm","brand":"Kuda Bank","brand:wikidata":"Q108919305","brand:wikipedia":"en:Kuda Bank","name":"Kuda Microfinance Bank","operator":"Kuda Bank","operator:wikidata":"Q108919305","operator:wikipedia":"en:Kuda Bank"}},"amenity/atm/uba-69edd8":{"name":"UBA","locationSet":{"include":["bf","bj","cd","cg","ci","cm","fr","ga","gb","gh","gn","ke","lr","ml","mz","ng","sl","sn","td","tz","ug","us","zm"]},"geometry":["point","vertex"],"matchScore":2,"terms":["uba","united bank for africa"],"tags":{"amenity":"atm","brand:wikidata":"Q513457"},"addTags":{"amenity":"atm","brand":"UBA","brand:wikidata":"Q513457","brand:wikipedia":"en:United Bank for Africa","name":"UBA","official_name":"United Bank for Africa","operator":"UBA","operator:wikidata":"Q513457","operator:wikipedia":"en:United Bank for Africa"}},"amenity/atm/zenithbank-a665db":{"name":"Zenith Bank","locationSet":{"include":["gb","gh","gm","ng","sl","za"]},"geometry":["point","vertex"],"matchScore":2,"terms":["zenith bank"],"tags":{"amenity":"atm","brand:wikidata":"Q5978240"},"addTags":{"amenity":"atm","brand":"Zenith Bank","brand:wikidata":"Q5978240","brand:wikipedia":"en:Zenith Bank","name":"Zenith Bank","operator":"Zenith Bank","operator:wikidata":"Q5978240","operator:wikipedia":"en:Zenith Bank"}},"amenity/bank/fidelitybank-db0de1":{"name":"Fidelity Bank (Nigeria)","locationSet":{"include":["ng"]},"geometry":["point","area"],"matchScore":2,"terms":["fidelity bank"],"tags":{"amenity":"bank","brand:wikidata":"Q5446777"},"addTags":{"amenity":"bank","brand":"Fidelity Bank","brand:wikidata":"Q5446777","brand:wikipedia":"en:Fidelity Bank Nigeria","name":"Fidelity Bank"}},"amenity/bank/gtbank-b3c39a":{"name":"GT Bank","locationSet":{"include":["ci","gb","gh","gm","ke","lr","ng","rw","tz","ug"]},"geometry":["point","area"],"matchScore":2,"terms":["gt bank","guaranty trust bank"],"tags":{"amenity":"bank","brand:wikidata":"Q579747"},"addTags":{"amenity":"bank","brand":"GT Bank","brand:wikidata":"Q579747","brand:wikipedia":"en:Guaranty Trust Holding Company PLC","name":"GT Bank","official_name":"Guaranty Trust Bank"}},"amenity/bank/heritagebank-db0de1":{"name":"Heritage Bank (Nigeria)","locationSet":{"include":["ng"]},"geometry":["point","area"],"matchScore":2,"terms":["heritage bank"],"tags":{"amenity":"bank","brand:wikidata":"Q17022606"},"addTags":{"amenity":"bank","brand":"Heritage Bank","brand:wikidata":"Q17022606","brand:wikipedia":"en:Heritage Bank (Nigeria)","name":"Heritage Bank"}},"amenity/bank/kudamicrofinancebank-db0de1":{"name":"Kuda Bank","locationSet":{"include":["ng"]},"geometry":["point","area"],"matchScore":2,"terms":["kuda bank"],"tags":{"amenity":"bank","brand:wikidata":"Q108919305"},"addTags":{"amenity":"bank","brand":"Kuda Bank","brand:wikidata":"Q108919305","brand:wikipedia":"en:Kuda Bank","name":"Kuda Microfinance Bank"}},"amenity/bank/uba-95540f":{"name":"UBA","locationSet":{"include":["bf","bj","cd","cg","ci","cm","fr","ga","gb","gh","gn","ke","lr","ml","mz","ng","sl","sn","td","tz","ug","us","zm"]},"geometry":["point","area"],"matchScore":2,"terms":["uba","united bank for africa"],"tags":{"amenity":"bank","brand:wikidata":"Q513457"},"addTags":{"amenity":"bank","brand":"UBA","brand:wikidata":"Q513457","brand:wikipedia":"en:United Bank for Africa","name":"UBA","official_name":"United Bank for Africa"}},"amenity/bank/zenithbank-603eac":{"name":"Zenith Bank","locationSet":{"include":["gb","gh","gm","ng","sl","za"]},"geometry":["point","area"],"matchScore":2,"terms":["zenith bank"],"tags":{"amenity":"bank","brand:wikidata":"Q5978240"},"addTags":{"amenity":"bank","brand":"Zenith Bank","brand:wikidata":"Q5978240","brand:wikipedia":"en:Zenith Bank","name":"Zenith Bank"}},"amenity/fast_food/chicken/chickenrepublic-3eb11d":{"name":"Chicken Republic","locationSet":{"include":["ng"]},"geometry":["point","area"],"matchScore":2,"terms":["chicken republic"],"reference":{"key":"cuisine","value":"chicken"},"tags":{"amenity":"fast_food","brand:wikidata":"Q23461416","cuisine":"chicken"},"addTags":{"amenity":"fast_food","brand":"Chicken Republic","brand:wikidata":"Q23461416","brand:wikipedia":"en:Chicken Republic","cuisine":"chicken","name":"Chicken Republic","takeaway":"yes"}},"amenity/fast_food/pizza/debonairspizza-10dad6":{"name":"Debonairs Pizza","locationSet":{"include":["ae","bw","ke","ls","mu","mw","mz","na","ng","sd","ss","sz","za","zm"]},"geometry":["point","area"],"matchScore":2,"terms":["debonairs","debonairs pizza"],"reference":{"key":"cuisine","value":"pizza"},"tags":{"amenity":"fast_food","brand:wikidata":"Q65079407","cuisine":"pizza"},"addTags":{"amenity":"fast_food","brand":"Debonairs Pizza","brand:wikidata":"Q65079407","brand:wikipedia":"en:Debonairs Pizza","cuisine":"pizza","name":"Debonairs Pizza","takeaway":"yes"}},"amenity/fast_food/kilimanjaro-3eb11d":{"name":"Kilimanjaro","locationSet":{"include":["ng"]},"geometry":["point","area"],"matchScore":2,"terms":["kilimanjaro"],"tags":{"amenity":"fast_food","brand:wikidata":"Q28453128"},"addTags":{"amenity":"fast_food","brand":"Kilimanjaro","brand:wikidata":"Q28453128","brand:wikipedia":"en:Kilimanjaro (restaurant)","cuisine":"nigerian","name":"Kilimanjaro","takeaway":"yes"}},"amenity/fast_food/mrbiggs-282078":{"name":"Mr Bigg's","locationSet":{"include":["gh","ng"]},"geometry":["point","area"],"matchScore":2,"terms":["mr bigg's"],"tags":{"amenity":"fast_food","brand:wikidata":"Q955488"},"addTags":{"amenity":"fast_food","brand":"Mr Bigg's","brand:wikidata":"Q955488","brand:wikipedia":"en:Mr Bigg's","cuisine":"nigerian","name":"Mr Bigg's","takeaway":"yes"}},"amenity/fast_food/tantalizers-3eb11d":{"name":"Tantalizers","locationSet":{"include":["ng"]},"geometry":["point","area"],"matchScore":2,"terms":["tantalizers"],"tags":{"amenity":"fast_food","brand:wikidata":"Q7683795"},"addTags":{"amenity":"fast_food","brand":"Tantalizers","brand:wikidata":"Q7683795","brand:wikipedia":"en:Tantalizers","cuisine":"nigerian","name":"Tantalizers","takeaway":"yes"}},"amenity/fast_food/chicken/tasteefriedchicken-3eb11d":{"name":"Tastee Fried Chicken","locationSet":{"include":["ng"]},"geometry":["point","area"],"matchScore":2,"terms":["tastee","tastee fried chicken"],"reference":{"key":"cuisine","value":"chicken"},"tags":{"amenity":"fast_food","brand:wikidata":"Q7687722","cuisine":"chicken"},"addTags":{"amenity":"fast_food","brand":"Tastee Fried Chicken","brand:wikidata":"Q7687722","brand:wikipedia":"en:Tastee Fried Chicken","cuisine":"chicken","name":"Tastee Fried Chicken","short_name":"Tastee","takeaway":"yes"}},"amenity/fuel/mrs-0edd09":{"name":"MRS","locationSet":{"include":["bj","cm","gh","ng","tg"]},"geometry":["point","area"],"matchScore":2,"terms":["mrs"],"fields":["name","brand","{amenity/fuel}"],"tags":{"amenity":"fuel","brand:wikidata":"Q56274919"},"addTags":{"amenity":"fuel","brand":"MRS","brand:wikidata":"Q56274919","brand:wikipedia":"en:MRS Oil Nigeria Plc","name":"MRS"}},"amenity/ice_cream/coldstonecreamery-2155b4":{"name":"Cold Stone Creamery","locationSet":{"include":["ng","us"]},"geometry":["point","area"],"matchScore":2,"terms":["cold stone","cold stone creamery"],"tags":{"amenity":"ice_cream","brand:wikidata":"Q1094923"},"addTags":{"amenity":"ice_cream","brand":"Cold Stone Creamery","brand:wikidata":"Q1094923","brand:wikipedia":"en:Cold Stone Creamery","cuisine":"ice_cream","name":"Cold Stone Creamery"}},"amenity/restaurant/seafood/oceanbasket-5d9698":{"name":"Ocean Basket","locationSet":{"include":["ae","bw","cy","gb","ke","kw","kz","mt","mu","na","ng","qa","ru","sa","sz","za","zw"]},"geometry":["point","area"],"matchScore":2,"terms":["ocean basket"],"reference":{"key":"cuisine","value":"seafood"},"tags":{"amenity":"restaurant","brand:wikidata":"Q62075311","cuisine":"seafood"},"addTags":{"amenity":"restaurant","brand":"Ocean Basket","brand:wikidata":"Q62075311","cuisine":"seafood","name":"Ocean Basket"}},"office/coworking/cocreationhub-745387":{"name":"Co-Creation Hub","locationSet":{"include":["ng"]},"geometry":["point","area"],"matchScore":2,"terms":["cc-hub"],"reference":{"key":"amenity","value":"coworking_space"},"tags":{"brand:wikidata":"Q26822232","office":"coworking"},"addTags":{"brand":"Cc-Hub","brand:wikidata":"Q26822232","brand:wikipedia":"en:Co-Creation Hub","fee":"yes","name":"Co-Creation Hub","office":"coworking"}},"shop/supermarket/shoprite-56f959":{"name":"Shoprite (Africa)","locationSet":{"include":["ao","bw","cd","gh","ls","mg","mu","mw","mz","na","ng","sz","ug","za","zm"]},"geometry":["point","area"],"matchScore":2,"terms":["shoprite"],"tags":{"brand:wikidata":"Q1857639","shop":"supermarket"},"addTags":{"brand":"Shoprite","brand:wikidata":"Q1857639","brand:wikipedia":"en:Shoprite Holdings Ltd","name":"Shoprite","shop":"supermarket"}},"tourism/hotel/ekohotels-3e7857":{"name":"Eko Hotels and Suites","locationSet":{"include":["ng"]},"geometry":["point","area"],"matchScore":2,"terms":["eko hotels and suites"],"fields":["name","brand","{tourism/hotel}"],"tags":{"brand:wikidata":"Q23777901","tourism":"hotel"},"addTags":{"brand":"Eko Hotels and Suites","brand:wikidata":"Q23777901","brand:wikipedia":"en:Eko Hotels and Suites","name":"Eko Hotels","official_name":"Eko Hotels and Suites","tourism":"hotel"}},"amenity/hospital/federalministryofhealth-f23e0b":{"name":"Federal Ministry of Health (Nigeria)","locationSet":{"include":["ng"]},"geometry":["area","point"],"matchScore":2,"terms":["federal ministry of health","ministry of health"],"fields":["name","operator","{amenity/hospital}"],"reference":{"key":"amenity","value":"hospital"},"tags":{"amenity":"hospital","operator:wikidata":"Q5440303"},"addTags":{"amenity":"hospital","healthcare":"hospital","operator":"Federal Ministry of Health","operator:wikidata":"Q5440303","operator:wikipedia":"en:Federal Ministry of Health (Nigeria)"}},"amenity/hospital/stateministryofhealth-f23e0b":{"name":"State Ministry Of Health (Nigeria)","locationSet":{"include":["ng"]},"geometry":["area","point"],"matchScore":2,"terms":["state ministry of health"],"fields":["name","operator","{amenity/hospital}"],"reference":{"key":"amenity","value":"hospital"},"tags":{"amenity":"hospital","operator:wikidata":"Q19604794"},"addTags":{"amenity":"hospital","healthcare":"hospital","operator":"State Ministry Of Health","operator:wikidata":"Q19604794","operator:wikipedia":"en:Lagos State Ministry of Health"}},"telecom/exchange/glo-d6ad77":{"name":"Glo","locationSet":{"include":["bj","ng"]},"geometry":["point","area"],"matchScore":2,"terms":["globacom"],"fields":["name","operator","{telecom/exchange}"],"tags":{"operator:wikidata":"Q5570033","telecom":"exchange"},"addTags":{"name":"Glo","operator":"Globacom","operator:wikidata":"Q5570033","operator:wikipedia":"en:Glo (company)","telecom":"exchange"}},"public_transport/platform/bus_point/lagosbusrapidtransitsystem-1d088e":{"name":"BRT (Lagos, Nigeria)","locationSet":{"include":["ng"]},"geometry":["point","vertex"],"matchScore":2,"terms":["lagos brt","lagos bus rapid transit system"],"reference":{"key":"public_transport","value":"platform"},"tags":{"bus":"yes","network:wikidata":"Q6472593","public_transport":"platform"},"addTags":{"bus":"yes","highway":"bus_stop","network":"Lagos Bus Rapid Transit System","network:wikidata":"Q6472593","network:wikipedia":"en:Lagos Bus Rapid Transit System","public_transport":"platform"}},"type/route/bus/lagosbusrapidtransitsystem-85801e":{"name":"BRT (Lagos, Nigeria)","locationSet":{"include":["ng"]},"geometry":["relation"],"matchScore":2,"terms":["lagos brt","lagos bus rapid transit system"],"reference":{"key":"route","value":"bus"},"tags":{"network:wikidata":"Q6472593","route":"bus","type":"route"},"addTags":{"network":"Lagos Bus Rapid Transit System","network:wikidata":"Q6472593","network:wikipedia":"en:Lagos Bus Rapid Transit System","route":"bus","type":"route"}}}