{"amenity/atm/republica-78a393":{"name":"República","locationSet":{"include":["uy"]},"geometry":["point","vertex"],"matchScore":2,"terms":["república"],"tags":{"amenity":"atm","brand:wikidata":"Q4077337"},"addTags":{"amenity":"atm","brand":"República","brand:wikidata":"Q4077337","name":"República","operator":"República","operator:wikidata":"Q4077337"}},"amenity/bank/republica-146753":{"name":"República","locationSet":{"include":["uy"]},"geometry":["point","area"],"matchScore":2,"terms":["república"],"tags":{"amenity":"bank","brand:wikidata":"Q4077337"},"addTags":{"amenity":"bank","brand":"República","brand:wikidata":"Q4077337","name":"República"}},"amenity/casino/codere-3dfd07":{"name":"Codere","locationSet":{"include":["ar","co","es","it","mx","pa","uy"]},"geometry":["point","area"],"matchScore":2,"terms":["codere"],"tags":{"amenity":"casino","brand:wikidata":"Q2918415"},"addTags":{"amenity":"casino","brand":"Codere","brand:wikidata":"Q2918415","name":"Codere"}},"amenity/fuel/ancap-c21fc2":{"name":"ANCAP","locationSet":{"include":["uy"]},"geometry":["point","area"],"matchScore":2,"terms":["administración nacional de combustibles, alcoholes y portland","ancap"],"fields":["name","brand","{amenity/fuel}"],"tags":{"amenity":"fuel","brand:wikidata":"Q2824522"},"addTags":{"amenity":"fuel","brand":"ANCAP","brand:wikidata":"Q2824522","name":"ANCAP","official_name":"Administración Nacional de Combustibles, Alcoholes y Portland"}},"amenity/fuel/axion-b21aa1":{"name":"Axion","locationSet":{"include":["ar","py","uy"]},"geometry":["point","area"],"matchScore":2,"terms":["axion"],"fields":["name","brand","{amenity/fuel}"],"tags":{"amenity":"fuel","brand:wikidata":"Q62131749"},"addTags":{"amenity":"fuel","brand":"Axion","brand:wikidata":"Q62131749","name":"Axion"}},"amenity/ice_cream/freddo-3a94a6":{"name":"Freddo","locationSet":{"include":["ar","bo","br","cl","gb","it","us","uy"]},"geometry":["point","area"],"matchScore":2,"terms":["freddo"],"tags":{"amenity":"ice_cream","brand:wikidata":"Q28823999"},"addTags":{"amenity":"ice_cream","brand":"Freddo","brand:wikidata":"Q28823999","cuisine":"ice_cream","name":"Freddo"}},"amenity/payment_centre/abitab-80cf76":{"name":"Abitab","locationSet":{"include":["uy"]},"geometry":["point","area"],"matchScore":2,"terms":["abitab"],"tags":{"amenity":"payment_centre","brand:wikidata":"Q16488129"},"addTags":{"amenity":"payment_centre","brand":"Abitab","brand:wikidata":"Q16488129","name":"Abitab"}},"shop/clothes/renner-41b5c2":{"name":"Renner","locationSet":{"include":["ar","br","uy"]},"geometry":["point","area"],"matchScore":2,"terms":["lojas renner","rener","renner"],"tags":{"brand:wikidata":"Q3064071","shop":"clothes"},"addTags":{"brand":"Renner","brand:wikidata":"Q3064071","name":"Renner","shop":"clothes"}},"shop/doityourself/sodimac-0b4811":{"name":"Sodimac","locationSet":{"include":["ar","br","cl","co","mx","pe","uy"]},"geometry":["point","area"],"matchScore":2,"terms":["sodimac","sodimac constructor"],"tags":{"brand:wikidata":"Q7553274","shop":"doityourself"},"addTags":{"brand":"Sodimac","brand:wikidata":"Q7553274","name":"Sodimac","shop":"doityourself"}},"shop/mobile_phone/claro-1c9651":{"name":"Claro","locationSet":{"include":["ar","br","cl","co","cr","do","ec","gt","hn","ni","pa","pe","pr","py","sv","uy"]},"geometry":["point","area"],"matchScore":2,"terms":["claro"],"tags":{"brand:wikidata":"Q1770208","shop":"mobile_phone"},"addTags":{"brand":"Claro","brand:wikidata":"Q1770208","name":"Claro","shop":"mobile_phone"}},"shop/mobile_phone/iplace-1b1a0a":{"name":"iPlace","locationSet":{"include":["br","uy"]},"geometry":["point","area"],"matchScore":2,"terms":["iplace"],"tags":{"brand:wikidata":"Q110417768","shop":"mobile_phone"},"addTags":{"brand":"iPlace","brand:wikidata":"Q110417768","name":"iPlace","shop":"mobile_phone"}},"shop/mobile_phone/movistar-acd455":{"name":"Movistar","locationSet":{"include":["ar","cl","co","cr","ec","gt","mx","ni","pa","pe","sv","uy","ve"]},"geometry":["point","area"],"matchScore":2,"terms":["movistar"],"tags":{"brand:wikidata":"Q967735","shop":"mobile_phone"},"addTags":{"brand":"Movistar","brand:wikidata":"Q967735","name":"Movistar","shop":"mobile_phone"}},"shop/supermarket/disco-f37fd6":{"name":"Disco (Uruguay)","locationSet":{"include":["uy"]},"geometry":["point","area"],"matchScore":2,"terms":["disco"],"tags":{"brand:wikidata":"Q16636819","shop":"supermarket"},"addTags":{"brand":"Disco","brand:wikidata":"Q16636819","name":"Disco","shop":"supermarket"}},"shop/supermarket/supersol-0a1807":{"name":"Supersol","locationSet":{"include":["ar","es","ma","uy"]},"geometry":["point","area"],"matchScore":2,"terms":["supersol"],"tags":{"brand:wikidata":"Q62073427","shop":"supermarket"},"addTags":{"brand":"Supersol","brand:wikidata":"Q62073427","name":"Supersol","shop":"supermarket"}},"shop/tea/teashop-d87694":{"name":"Tea Shop","locationSet":{"include":["ar","br","es","it","pt","uy"]},"geometry":["point","area"],"matchScore":2,"terms":["tea shop"],"tags":{"brand:wikidata":"Q111730818","shop":"tea"},"addTags":{"brand":"Tea Shop","brand:wikidata":"Q111730818","name":"Tea Shop","shop":"tea"}},"amenity/clinic/asse-576018":{"name":"ASSE","locationSet":{"include":["uy"]},"geometry":["point","area"],"matchScore":2,"terms":["asse"],"fields":["name","operator","{amenity/clinic}"],"reference":{"key":"amenity","value":"clinic"},"tags":{"amenity":"clinic","operator:wikidata":"Q5657845"},"addTags":{"amenity":"clinic","healthcare":"clinic","operator":"ASSE","operator:wikidata":"Q5657845"}},"amenity/hospital/asse-d92411":{"name":"ASSE","locationSet":{"include":["uy"]},"geometry":["area","point"],"matchScore":2,"terms":["asse"],"fields":["name","operator","{amenity/hospital}"],"reference":{"key":"amenity","value":"hospital"},"tags":{"amenity":"hospital","operator:wikidata":"Q5657845"},"addTags":{"amenity":"hospital","healthcare":"hospital","operator":"ASSE","operator:wikidata":"Q5657845"}},"amenity/police/policianacionaldeuruguay-2c325e":{"name":"Policía Nacional de Uruguay","locationSet":{"include":["uy"]},"geometry":["point","area"],"matchScore":2,"terms":["ministerio de interior","ministerio del interior","policía nacional de uruguay"],"tags":{"amenity":"police","operator:wikidata":"Q3817054"},"addTags":{"amenity":"police","operator":"Policía Nacional de Uruguay","operator:wikidata":"Q3817054"}},"amenity/school/consejodeeducacionsecundaria-6176b9":{"name":"Consejo de Educación Secundaria","locationSet":{"include":["uy"]},"geometry":["area","point"],"matchScore":2,"terms":["consejo de educación secundaria"],"tags":{"amenity":"school","operator:wikidata":"Q5783997"},"addTags":{"amenity":"school","operator":"Consejo de Educación Secundaria","operator:wikidata":"Q5783997"}},"amenity/telephone/antel-106ca3":{"name":"Antel","locationSet":{"include":["uy"]},"geometry":["point","vertex"],"matchScore":2,"terms":["antel"],"fields":["name","operator","{amenity/telephone}"],"tags":{"amenity":"telephone","operator:wikidata":"Q295780"},"addTags":{"amenity":"telephone","operator":"Antel","operator:wikidata":"Q295780"}},"amenity/telephone/claro-6490cd":{"name":"Claro","locationSet":{"include":["ai","ag","aw","bs","bb","bq","vg","ky","cu","cw","dm","do","gd","gp","ht","jm","mq","ms","pr","bl","kn","lc","mf","vc","sx","tt","tc","vi","bz","cr","sv","gt","hn","mx","ni","pa","ar","bo","bv","br","cl","co","ec","fk","gf","gy","py","pe","gs","sr","uy","ve"]},"geometry":["point","vertex"],"matchScore":2,"terms":["claro"],"fields":["name","operator","{amenity/telephone}"],"tags":{"amenity":"telephone","operator:wikidata":"Q1770208"},"addTags":{"amenity":"telephone","operator":"Claro","operator:wikidata":"Q1770208"}},"power/generator/ute-626380":{"name":"UTE","locationSet":{"include":["uy"]},"geometry":["point","vertex","area"],"matchScore":2,"terms":["ute"],"tags":{"operator:wikidata":"Q1665583","power":"generator"},"addTags":{"operator":"UTE","operator:wikidata":"Q1665583","power":"generator"}},"power/line/ute-a0eb04":{"name":"UTE","locationSet":{"include":["uy"]},"geometry":["line"],"matchScore":2,"terms":["ute"],"tags":{"operator:wikidata":"Q1665583","power":"line"},"addTags":{"operator":"UTE","operator:wikidata":"Q1665583","power":"line"}},"power/minor_line/ute-247b3b":{"name":"UTE","locationSet":{"include":["uy"]},"geometry":["line"],"matchScore":2,"terms":["ute"],"tags":{"operator:wikidata":"Q1665583","power":"minor_line"},"addTags":{"operator":"UTE","operator:wikidata":"Q1665583","power":"minor_line"}},"power/plant/ute-39af9f":{"name":"UTE","locationSet":{"include":["uy"]},"geometry":["area"],"matchScore":2,"terms":["ute"],"tags":{"operator:wikidata":"Q1665583","power":"plant"},"addTags":{"operator":"UTE","operator:wikidata":"Q1665583","power":"plant"}},"power/pole/ute-ad3803":{"name":"UTE","locationSet":{"include":["uy"]},"geometry":["point","vertex"],"matchScore":2,"terms":["ute"],"tags":{"operator:wikidata":"Q1665583","power":"pole"},"addTags":{"operator":"UTE","operator:wikidata":"Q1665583","power":"pole"}},"power/substation/ute-69a3df":{"name":"UTE","locationSet":{"include":["uy"]},"geometry":["area","point"],"matchScore":2,"terms":["ute"],"tags":{"operator:wikidata":"Q1665583","power":"substation"},"addTags":{"operator":"UTE","operator:wikidata":"Q1665583","power":"substation"}},"power/tower/ute-970753":{"name":"UTE","locationSet":{"include":["uy"]},"geometry":["point","vertex"],"matchScore":2,"terms":["ute"],"tags":{"operator:wikidata":"Q1665583","power":"tower"},"addTags":{"operator":"UTE","operator:wikidata":"Q1665583","power":"tower"}},"power/transformer/ute-caa7d8":{"name":"UTE","locationSet":{"include":["uy"]},"geometry":["point","vertex"],"matchScore":2,"terms":["ute"],"tags":{"operator:wikidata":"Q1665583","power":"transformer"},"addTags":{"operator":"UTE","operator:wikidata":"Q1665583","power":"transformer"}},"public_transport/platform/bus_point/stm-db6750":{"name":"STM (Sistema de Transporte Metropolitano)","locationSet":{"include":["uy"]},"geometry":["point","vertex"],"matchScore":2,"terms":["stm"],"reference":{"key":"public_transport","value":"platform"},"tags":{"bus":"yes","network:wikidata":"Q6129772","public_transport":"platform"},"addTags":{"bus":"yes","highway":"bus_stop","network":"STM","network:wikidata":"Q6129772","public_transport":"platform"}},"type/route/bus/stm-17b2e4":{"name":"STM (Sistema de Transporte Metropolitano)","locationSet":{"include":["uy"]},"geometry":["relation"],"matchScore":2,"terms":["stm"],"reference":{"key":"route","value":"bus"},"tags":{"network:wikidata":"Q6129772","route":"bus","type":"route"},"addTags":{"network":"STM","network:wikidata":"Q6129772","route":"bus","type":"route"}}}