{"amenity/atm/pinnaclebank-495a05":{"name":"Pinnacle Bank (US Midwest & Southwest)","locationSet":{"include":["us-az","us-co","us-ks","us-mo","us-ne","us-nm","us-tx","us-wy"]},"geometry":["point","vertex"],"matchScore":2,"terms":["pinnacle bank"],"fields":["name","brand","{amenity/atm}"],"tags":{"amenity":"atm","brand:wikidata":"Q124021658"},"addTags":{"amenity":"atm","brand":"Pinnacle Bank","brand:wikidata":"Q124021658","operator":"Pinnacle Bank","operator:wikidata":"Q124021658"}},"amenity/bank/pinnaclebank-ebf4c6":{"name":"Pinnacle Bank (US Midwest & Southwest)","locationSet":{"include":["us-az","us-co","us-ks","us-mo","us-ne","us-nm","us-tx","us-wy"]},"geometry":["point","area"],"matchScore":2,"terms":["pinnacle bank"],"tags":{"amenity":"bank","brand:wikidata":"Q124021658"},"addTags":{"amenity":"bank","brand":"Pinnacle Bank","brand:wikidata":"Q124021658","name":"Pinnacle Bank"}},"amenity/fast_food/burger/twisters-14d357":{"name":"Twisters","locationSet":{"include":["us-co","us-nm"]},"geometry":["point","area"],"matchScore":2,"terms":["twisters","twisters burgers & burritos"],"reference":{"key":"cuisine","value":"burger"},"tags":{"amenity":"fast_food","brand:wikidata":"Q18062004","cuisine":"burger"},"addTags":{"amenity":"fast_food","brand":"Twisters","brand:wikidata":"Q18062004","cuisine":"burger","name":"Twisters","official_name":"Twisters Burgers & Burritos","takeaway":"yes"}},"amenity/payment_terminal/newmexicomvddirect-832682":{"name":"New Mexico MVD Direct","locationSet":{"include":["us-nm"]},"geometry":["point"],"matchScore":2,"terms":["new mexico motor vehicle division","new mexico mvd direct"],"tags":{"amenity":"payment_terminal","brand:wikidata":"Q115413442"},"addTags":{"amenity":"payment_terminal","brand":"New Mexico MVD Direct","brand:wikidata":"Q115413442","name":"New Mexico MVD Direct","operator":"New Mexico Motor Vehicle Division","operator:wikidata":"Q16982577"}},"shop/convenience/kentkwik-c3f9f6":{"name":"Kent Kwik","locationSet":{"include":["us-nm","us-ok","us-tx"]},"geometry":["point","area"],"matchScore":2,"terms":["kent kwik"],"tags":{"brand:wikidata":"Q110622262","shop":"convenience"},"addTags":{"brand":"Kent Kwik","brand:wikidata":"Q110622262","name":"Kent Kwik","shop":"convenience"}},"shop/doityourself/mccoys-27ed78":{"name":"McCoy's Building Supply","locationSet":{"include":["us-nm","us-ok","us-tx"]},"geometry":["point","area"],"matchScore":2,"terms":["mccoy's"],"tags":{"brand:wikidata":"Q27877295","shop":"doityourself"},"addTags":{"brand":"McCoy's","brand:wikidata":"Q27877295","name":"McCoy's","shop":"doityourself"}},"shop/supermarket/albertsonsmarket-ba1fb8":{"name":"Albertsons Market","locationSet":{"include":["us-nm"]},"geometry":["point","area"],"matchScore":2,"terms":["albertsons market"],"tags":{"brand:wikidata":"Q115350320","shop":"supermarket"},"addTags":{"brand":"Albertsons Market","brand:wikidata":"Q115350320","name":"Albertsons Market","shop":"supermarket"}},"shop/supermarket/marketstreet-fa4d34":{"name":"Market Street","locationSet":{"include":["us-nm","us-tx"]},"geometry":["point","area"],"matchScore":2,"terms":["market street"],"tags":{"brand:wikidata":"Q119405196","shop":"supermarket"},"addTags":{"brand":"Market Street","brand:wikidata":"Q119405196","name":"Market Street","shop":"supermarket"}},"shop/trade/wagnercat-ca7f61":{"name":"Wagner CAT","locationSet":{"include":["us-co","us-nm"]},"geometry":["point","area"],"matchScore":2,"terms":["wagner cat"],"tags":{"brand:wikidata":"Q109615846","shop":"trade"},"addTags":{"brand":"Wagner CAT","brand:wikidata":"Q109615846","name":"Wagner CAT","shop":"trade","trade":"construction_equipment"}},"amenity/hospital/covenanthealth-94a05e":{"name":"Covenant Health (Texas)","locationSet":{"include":["us-nm","us-tx"]},"geometry":["area","point"],"matchScore":2,"terms":["covenant health"],"fields":["name","operator","{amenity/hospital}"],"reference":{"key":"amenity","value":"hospital"},"tags":{"amenity":"hospital","operator:wikidata":"Q5178997"},"addTags":{"amenity":"hospital","healthcare":"hospital","operator":"Covenant Health","operator:wikidata":"Q5178997"}},"amenity/police/newmexicostatepolice-09cc93":{"name":"New Mexico State Police","locationSet":{"include":["us-nm"]},"geometry":["point","area"],"matchScore":2,"terms":["new mexico state police","nmsp"],"tags":{"amenity":"police","operator:wikidata":"Q7010251"},"addTags":{"amenity":"police","operator":"New Mexico State Police","operator:short":"NMSP","operator:wikidata":"Q7010251"}},"amenity/school/albuquerquepublicschools-2a40d4":{"name":"Albuquerque Public Schools","locationSet":{"include":["us-nm"]},"geometry":["area","point"],"matchScore":2,"terms":["albuquerque public schools","albuquerque public schools (aps)","albuquerque public schools (http://www.aps.edu/)","aps"],"tags":{"amenity":"school","operator:wikidata":"Q4712830"},"addTags":{"amenity":"school","operator":"Albuquerque Public Schools","operator:short":"APS","operator:type":"public","operator:wikidata":"Q4712830"}},"leisure/nature_reserve/cityoffarmington-9edcaa":{"name":"City of Farmington","locationSet":{"include":["us-nm"]},"geometry":["area","point"],"matchScore":2,"terms":["city of farmington"],"tags":{"leisure":"nature_reserve","operator:wikidata":"Q1012695"},"addTags":{"leisure":"nature_reserve","operator":"City of Farmington","operator:type":"public","operator:wikidata":"Q1012695"}},"leisure/nature_reserve/cityofsantafe-9edcaa":{"name":"City of Santa Fe","locationSet":{"include":["us-nm"]},"geometry":["area","point"],"matchScore":2,"terms":["city of santa fe"],"tags":{"leisure":"nature_reserve","operator:wikidata":"Q38555"},"addTags":{"leisure":"nature_reserve","operator":"City of Santa Fe","operator:type":"public","operator:wikidata":"Q38555"}},"leisure/park/cityoffarmington-c18344":{"name":"City of Farmington","locationSet":{"include":["us-nm"]},"geometry":["area","point"],"matchScore":2,"terms":["city of farmington"],"tags":{"leisure":"park","operator:wikidata":"Q1012695"},"addTags":{"leisure":"park","operator":"City of Farmington","operator:type":"public","operator:wikidata":"Q1012695"}},"leisure/park/cityofsantafe-c18344":{"name":"City of Santa Fe","locationSet":{"include":["us-nm"]},"geometry":["area","point"],"matchScore":2,"terms":["city of santa fe"],"tags":{"leisure":"park","operator:wikidata":"Q38555"},"addTags":{"leisure":"park","operator":"City of Santa Fe","operator:type":"public","operator:wikidata":"Q38555"}},"office/government/newmexicomotorvehicledivision-5098d2":{"name":"MVD New Mexico","locationSet":{"include":["us-nm"]},"geometry":["point","area"],"matchScore":2,"terms":["mvd","mvd new mexico","new mexico motor vehicle division"],"fields":["name","operator","{office/government}"],"tags":{"office":"government","operator:wikidata":"Q16982577"},"addTags":{"government":"transportation","office":"government","operator":"New Mexico Motor Vehicle Division","operator:short":"MVD New Mexico","operator:wikidata":"Q16982577"}},"power/line/epcor-ec456d":{"name":"EPCOR","locationSet":{"include":["ca-ab","ca-bc","ca-on","us-az","us-nm","us-tx"]},"geometry":["line"],"matchScore":2,"terms":["aqualta","eltec","epcor"],"tags":{"operator:wikidata":"Q5323849","power":"line"},"addTags":{"operator":"EPCOR","operator:wikidata":"Q5323849","power":"line"}},"power/line/publicservicecompanyofnewmexico-07c80d":{"name":"PNM","locationSet":{"include":["us-az","us-nm"]},"geometry":["line"],"matchScore":2,"terms":["pnm","public service company of new mexico"],"tags":{"operator:wikidata":"Q112271592","power":"line"},"addTags":{"operator":"Public Service Company of New Mexico","operator:short":"PNM","operator:wikidata":"Q112271592","power":"line"}},"power/minor_line/epcor-dda2f7":{"name":"EPCOR","locationSet":{"include":["ca-ab","ca-bc","ca-on","us-az","us-nm","us-tx"]},"geometry":["line"],"matchScore":2,"terms":["aqualta","eltec","epcor"],"tags":{"operator:wikidata":"Q5323849","power":"minor_line"},"addTags":{"operator":"EPCOR","operator:wikidata":"Q5323849","power":"minor_line"}},"power/minor_line/publicservicecompanyofnewmexico-0194af":{"name":"PNM","locationSet":{"include":["us-az","us-nm"]},"geometry":["line"],"matchScore":2,"terms":["pnm","public service company of new mexico"],"tags":{"operator:wikidata":"Q112271592","power":"minor_line"},"addTags":{"operator":"Public Service Company of New Mexico","operator:short":"PNM","operator:wikidata":"Q112271592","power":"minor_line"}},"power/pole/epcor-e09e4b":{"name":"EPCOR","locationSet":{"include":["ca-ab","ca-bc","ca-on","us-az","us-nm","us-tx"]},"geometry":["point","vertex"],"matchScore":2,"terms":["aqualta","eltec","epcor"],"tags":{"operator:wikidata":"Q5323849","power":"pole"},"addTags":{"operator":"EPCOR","operator:wikidata":"Q5323849","power":"pole"}},"power/pole/publicservicecompanyofnewmexico-abbcc9":{"name":"PNM","locationSet":{"include":["us-az","us-nm"]},"geometry":["point","vertex"],"matchScore":2,"terms":["pnm","public service company of new mexico"],"tags":{"operator:wikidata":"Q112271592","power":"pole"},"addTags":{"operator":"Public Service Company of New Mexico","operator:short":"PNM","operator:wikidata":"Q112271592","power":"pole"}},"power/substation/epcor-b7915e":{"name":"EPCOR","locationSet":{"include":["ca-ab","ca-bc","ca-on","us-az","us-nm","us-tx"]},"geometry":["area","point"],"matchScore":2,"terms":["aqualta","eltec","epcor"],"tags":{"operator:wikidata":"Q5323849","power":"substation"},"addTags":{"operator":"EPCOR","operator:wikidata":"Q5323849","power":"substation"}},"power/substation/publicservicecompanyofnewmexico-553e38":{"name":"PNM","locationSet":{"include":["us-az","us-nm"]},"geometry":["area","point"],"matchScore":2,"terms":["pnm","public service company of new mexico"],"tags":{"operator:wikidata":"Q112271592","power":"substation"},"addTags":{"operator":"Public Service Company of New Mexico","operator:short":"PNM","operator:wikidata":"Q112271592","power":"substation"}},"power/tower/epcor-f12bdc":{"name":"EPCOR","locationSet":{"include":["ca-ab","ca-bc","ca-on","us-az","us-nm","us-tx"]},"geometry":["point","vertex"],"matchScore":2,"terms":["aqualta","eltec","epcor"],"tags":{"operator:wikidata":"Q5323849","power":"tower"},"addTags":{"operator":"EPCOR","operator:wikidata":"Q5323849","power":"tower"}},"power/tower/publicservicecompanyofnewmexico-b4f0f3":{"name":"PNM","locationSet":{"include":["us-az","us-nm"]},"geometry":["point","vertex"],"matchScore":2,"terms":["pnm","public service company of new mexico"],"tags":{"operator:wikidata":"Q112271592","power":"tower"},"addTags":{"operator":"Public Service Company of New Mexico","operator:short":"PNM","operator:wikidata":"Q112271592","power":"tower"}},"power/transformer/epcor-f6996f":{"name":"EPCOR","locationSet":{"include":["ca-ab","ca-bc","ca-on","us-az","us-nm","us-tx"]},"geometry":["point","vertex"],"matchScore":2,"terms":["aqualta","eltec","epcor"],"tags":{"operator:wikidata":"Q5323849","power":"transformer"},"addTags":{"operator":"EPCOR","operator:wikidata":"Q5323849","power":"transformer"}},"power/transformer/publicservicecompanyofnewmexico-78bc42":{"name":"PNM","locationSet":{"include":["us-az","us-nm"]},"geometry":["point","vertex"],"matchScore":2,"terms":["pnm","public service company of new mexico"],"tags":{"operator:wikidata":"Q112271592","power":"transformer"},"addTags":{"operator":"Public Service Company of New Mexico","operator:short":"PNM","operator:wikidata":"Q112271592","power":"transformer"}},"public_transport/platform/bus_point/abqride-9362a2":{"name":"ABQ RIDE","locationSet":{"include":["us-nm"]},"geometry":["point","vertex"],"matchScore":2,"terms":["abq ride"],"reference":{"key":"public_transport","value":"platform"},"tags":{"bus":"yes","network:wikidata":"Q580832","public_transport":"platform"},"addTags":{"bus":"yes","highway":"bus_stop","network":"ABQ RIDE","network:wikidata":"Q580832","public_transport":"platform"}},"type/route/bus/abqride-f3ecad":{"name":"ABQ RIDE","locationSet":{"include":["us-nm"]},"geometry":["relation"],"matchScore":2,"terms":["abq ride"],"reference":{"key":"route","value":"bus"},"tags":{"network:wikidata":"Q580832","route":"bus","type":"route"},"addTags":{"network":"ABQ RIDE","network:wikidata":"Q580832","route":"bus","type":"route"}}}