{"advertising/totem/kobil-97f5e9":{"name":"Kobil","locationSet":{"include":["bi","et","ke","rw","tz","ug","zm"]},"geometry":["point","line"],"matchScore":2,"terms":["kobil"],"tags":{"advertising":"totem","brand:wikidata":"Q22906119"},"addTags":{"advertising":"totem","brand":"Kobil","brand:wikidata":"Q22906119"}},"advertising/totem/oilibya-11febf":{"name":"Oilibya","locationSet":{"include":["dz","eg","ly","ma","sd","tn","eh","io","bi","km","dj","er","et","tf","ke","mg","mw","mu","yt","mz","re","rw","sc","so","ss","ug","tz","zm","zw","ao","cm","cf","td","cg","cd","gq","ga","st","bw","sz","ls","na","za","bj","bf","cv","ci","gm","gh","gn","gw","lr","ml","mr","ne","ng","sn","sl","tg","sh","bd"]},"geometry":["point","line"],"matchScore":2,"terms":["oilibia","oilibiya","oilibya","oillibia","oilliby","oillibya","oillybia","oilybia","olibya","olybia","أويليبيا"],"tags":{"advertising":"totem","brand:wikidata":"Q7081491"},"addTags":{"advertising":"totem","brand":"Oilibya","brand:wikidata":"Q7081491","name:ar":"أويليبيا","name:en":"Oilibya"}},"amenity/atm/bankofafrica-daf274":{"name":"Bank of Africa","locationSet":{"include":["bf","bi","bj","cd","ci","dj","et","fr","ke","mg","ml","ne","rw","sn","tg","tz","ug"]},"geometry":["point","vertex"],"matchScore":2,"terms":["bank of africa","boa"],"fields":["name","brand","{amenity/atm}"],"tags":{"amenity":"atm","brand:wikidata":"Q2882627"},"addTags":{"amenity":"atm","brand":"Bank of Africa","brand:wikidata":"Q2882627","operator":"Bank of Africa","operator:wikidata":"Q2882627","short_name":"BOA"}},"amenity/atm/commercialbankofethiopia-b796ca":{"name":"Commercial Bank of Ethiopia","locationSet":{"include":["et"]},"geometry":["point","vertex"],"matchScore":2,"terms":["commercial bank","commercial bank of ethiopia","የኢትዮጵያ ንግድ ባንክ"],"fields":["name","brand","{amenity/atm}"],"tags":{"amenity":"atm","brand:wikidata":"Q495172"},"addTags":{"amenity":"atm","brand":"Commercial Bank of Ethiopia","brand:wikidata":"Q495172","name:am":"የኢትዮጵያ ንግድ ባንክ","name:en":"Commercial Bank of Ethiopia","operator":"Commercial Bank of Ethiopia","operator:wikidata":"Q495172"}},"amenity/atm/stanbicbank-71787f":{"name":"Stanbic Bank","locationSet":{"include":["dz","eg","ly","ma","sd","tn","eh","io","bi","km","dj","er","et","tf","ke","mg","mw","mu","yt","mz","re","rw","sc","so","ss","ug","tz","zm","zw","ao","cm","cf","td","cg","cd","gq","ga","st","bw","sz","ls","na","za","bj","bf","cv","ci","gm","gh","gn","gw","lr","ml","mr","ne","ng","sn","sl","tg","sh"],"exclude":["gh"]},"geometry":["point","vertex"],"matchScore":2,"terms":["stanbic bank"],"fields":["name","brand","{amenity/atm}"],"tags":{"amenity":"atm","brand:wikidata":"Q7597999"},"addTags":{"amenity":"atm","brand":"Stanbic Bank","brand:wikidata":"Q7597999","operator":"Stanbic Bank","operator:wikidata":"Q7597999"}},"amenity/bank/bankofafrica-dae5c5":{"name":"Bank of Africa","locationSet":{"include":["bf","bi","bj","cd","ci","dj","et","fr","ke","mg","ml","ne","rw","sn","tg","tz","ug"]},"geometry":["point","area"],"matchScore":2,"terms":["bank of africa","boa"],"tags":{"amenity":"bank","brand:wikidata":"Q2882627"},"addTags":{"amenity":"bank","brand":"Bank of Africa","brand:wikidata":"Q2882627","name":"Bank of Africa","short_name":"BOA"}},"amenity/bank/commercialbankofethiopia-60242d":{"name":"Commercial Bank of Ethiopia","locationSet":{"include":["et"]},"geometry":["point","area"],"matchScore":2,"terms":["commercial bank","commercial bank of ethiopia","የኢትዮጵያ ንግድ ባንክ"],"tags":{"amenity":"bank","brand:wikidata":"Q495172"},"addTags":{"amenity":"bank","brand":"Commercial Bank of Ethiopia","brand:wikidata":"Q495172","name":"Commercial Bank of Ethiopia","name:am":"የኢትዮጵያ ንግድ ባንክ","name:en":"Commercial Bank of Ethiopia"}},"amenity/bank/stanbicbank-b79c2d":{"name":"Stanbic Bank","locationSet":{"include":["dz","eg","ly","ma","sd","tn","eh","io","bi","km","dj","er","et","tf","ke","mg","mw","mu","yt","mz","re","rw","sc","so","ss","ug","tz","zm","zw","ao","cm","cf","td","cg","cd","gq","ga","st","bw","sz","ls","na","za","bj","bf","cv","ci","gm","gh","gn","gw","lr","ml","mr","ne","ng","sn","sl","tg","sh"],"exclude":["gh"]},"geometry":["point","area"],"matchScore":2,"terms":["stanbic bank"],"tags":{"amenity":"bank","brand:wikidata":"Q7597999"},"addTags":{"amenity":"bank","brand":"Stanbic Bank","brand:wikidata":"Q7597999","name":"Stanbic Bank"}},"amenity/fuel/kobil-568233":{"name":"Kobil","locationSet":{"include":["bi","et","ke","rw","tz","ug","zm"]},"geometry":["point","area"],"matchScore":2,"terms":["kobil"],"fields":["name","brand","{amenity/fuel}"],"tags":{"amenity":"fuel","brand:wikidata":"Q22906119"},"addTags":{"amenity":"fuel","brand":"Kobil","brand:wikidata":"Q22906119","name":"Kobil"}},"amenity/fuel/oilibya-5288c9":{"name":"Oilibya","locationSet":{"include":["dz","eg","ly","ma","sd","tn","eh","io","bi","km","dj","er","et","tf","ke","mg","mw","mu","yt","mz","re","rw","sc","so","ss","ug","tz","zm","zw","ao","cm","cf","td","cg","cd","gq","ga","st","bw","sz","ls","na","za","bj","bf","cv","ci","gm","gh","gn","gw","lr","ml","mr","ne","ng","sn","sl","tg","sh","bd"]},"geometry":["point","area"],"matchScore":2,"terms":["oilibia","oilibiya","oilibya","oillibia","oilliby","oillibya","oillybia","oilybia","olibya","olybia","أويليبيا"],"fields":["name","brand","{amenity/fuel}"],"tags":{"amenity":"fuel","brand:wikidata":"Q7081491"},"addTags":{"amenity":"fuel","brand":"Oilibya","brand:wikidata":"Q7081491","name":"Oilibya","name:ar":"أويليبيا","name:en":"Oilibya"}},"shop/mobile_phone/airtel-62d34e":{"name":"Airtel","locationSet":{"include":["io","bi","km","dj","er","et","tf","ke","mg","mw","mu","yt","mz","re","rw","sc","so","ss","ug","tz","zm","zw","ao","cm","cf","td","cg","cd","gq","ga","st","bw","sz","ls","na","za","bj","bf","cv","ci","gm","gh","gn","gw","lr","ml","mr","ne","ng","sn","sl","tg","sh","in"]},"geometry":["point","area"],"matchScore":2,"terms":["airtel"],"tags":{"brand:wikidata":"Q854867","shop":"mobile_phone"},"addTags":{"brand":"Airtel","brand:wikidata":"Q854867","name":"Airtel","shop":"mobile_phone"}},"shop/mobile_phone/safaricom-158a4a":{"name":"Safaricom (Ethiopia)","locationSet":{"include":["et"]},"geometry":["point","area"],"matchScore":2,"terms":["safaricom"],"tags":{"brand:wikidata":"Q107175263","shop":"mobile_phone"},"addTags":{"brand":"Safaricom","brand:wikidata":"Q107175263","name":"Safaricom","shop":"mobile_phone"}},"shop/supermarket/game-910aca":{"name":"Game","locationSet":{"include":["io","bi","km","dj","er","et","tf","ke","mg","mw","mu","yt","mz","re","rw","sc","so","ss","ug","tz","zm","zw","ao","cm","cf","td","cg","cd","gq","ga","st","bw","sz","ls","na","za","bj","bf","cv","ci","gm","gh","gn","gw","lr","ml","mr","ne","ng","sn","sl","tg","sh"]},"geometry":["point","area"],"matchScore":2,"terms":["game"],"tags":{"brand:wikidata":"Q126811048","shop":"supermarket"},"addTags":{"brand":"Game","brand:wikidata":"Q126811048","name":"Game","shop":"supermarket"}},"tourism/hotel/marriottexecutiveapartments-b2f419":{"name":"Marriott Executive Apartments","locationSet":{"include":["ae","be","bh","br","cn","et","gb","hu","id","in","kr","kz","pa","sa","th","za"]},"geometry":["point","area"],"matchScore":2,"terms":["marriott executive apartments"],"fields":["name","brand","{tourism/hotel}"],"tags":{"brand:wikidata":"Q72636824","tourism":"hotel"},"addTags":{"brand":"Marriott Executive Apartments","brand:wikidata":"Q72636824","name":"Marriott Executive Apartments","tourism":"hotel"}},"amenity/telephone/ethiotelecom-636f14":{"name":"ethio telecom","locationSet":{"include":["et"]},"geometry":["point","vertex"],"matchScore":2,"terms":["etc","ethio telecom","ethiopian telecommunications corporation"],"fields":["name","operator","{amenity/telephone}"],"tags":{"amenity":"telephone","operator:wikidata":"Q5403583"},"addTags":{"amenity":"telephone","operator":"ethio telecom","operator:wikidata":"Q5403583"}},"power/generator/ethiopianelectricpower-f81514":{"name":"Ethiopian Electric Power","locationSet":{"include":["et"]},"geometry":["point","vertex","area"],"matchScore":2,"terms":["eepco","ethiopian electric power"],"tags":{"operator:wikidata":"Q55639670","power":"generator"},"addTags":{"operator":"Ethiopian Electric Power","operator:short":"EEPCO","operator:wikidata":"Q55639670","power":"generator"}},"power/line/ethiopianelectricpower-079142":{"name":"Ethiopian Electric Power","locationSet":{"include":["et"]},"geometry":["line"],"matchScore":2,"terms":["eepco","ethiopian electric power","ethiopian electric power (eep)"],"tags":{"operator:wikidata":"Q55639670","power":"line"},"addTags":{"operator":"Ethiopian Electric Power","operator:short":"EEPCO","operator:wikidata":"Q55639670","power":"line"}},"power/minor_line/ethiopianelectricpower-02869f":{"name":"Ethiopian Electric Power","locationSet":{"include":["et"]},"geometry":["line"],"matchScore":2,"terms":["eepco","ethiopian electric power","ethiopian electric power (eep)"],"tags":{"operator:wikidata":"Q55639670","power":"minor_line"},"addTags":{"operator":"Ethiopian Electric Power","operator:short":"EEPCO","operator:wikidata":"Q55639670","power":"minor_line"}},"power/pole/ethiopianelectricpower-d64a98":{"name":"Ethiopian Electric Power","locationSet":{"include":["et"]},"geometry":["point","vertex"],"matchScore":2,"terms":["eepco","ethiopian electric power","ethiopian electric power (eep)"],"tags":{"operator:wikidata":"Q55639670","power":"pole"},"addTags":{"operator":"Ethiopian Electric Power","operator:short":"EEPCO","operator:wikidata":"Q55639670","power":"pole"}},"power/substation/ethiopianelectricpower-08b603":{"name":"Ethiopian Electric Power","locationSet":{"include":["et"]},"geometry":["area","point"],"matchScore":2,"terms":["eepco","ethiopian electric power","ethiopian electric power (eep)"],"tags":{"operator:wikidata":"Q55639670","power":"substation"},"addTags":{"operator":"Ethiopian Electric Power","operator:short":"EEPCO","operator:wikidata":"Q55639670","power":"substation"}},"power/tower/ethiopianelectricpower-96e206":{"name":"Ethiopian Electric Power","locationSet":{"include":["et"]},"geometry":["point","vertex"],"matchScore":2,"terms":["eepco","ethiopian electric power","ethiopian electric power (eep)"],"tags":{"operator:wikidata":"Q55639670","power":"tower"},"addTags":{"operator":"Ethiopian Electric Power","operator:short":"EEPCO","operator:wikidata":"Q55639670","power":"tower"}},"power/transformer/ethiopianelectricpower-5e1f94":{"name":"Ethiopian Electric Power","locationSet":{"include":["et"]},"geometry":["point","vertex"],"matchScore":2,"terms":["eepco","ethiopian electric power","ethiopian electric power (eep)"],"tags":{"operator:wikidata":"Q55639670","power":"transformer"},"addTags":{"operator":"Ethiopian Electric Power","operator:short":"EEPCO","operator:wikidata":"Q55639670","power":"transformer"}}}