{"advertising/totem/aegis-875bd4":{"name":"Aegis","locationSet":{"include":["gh"]},"geometry":["point","line"],"matchScore":2,"terms":["aegis","aegis huile company limited"],"tags":{"advertising":"totem","brand:wikidata":"Q127686527"},"addTags":{"advertising":"totem","brand":"Aegis","brand:wikidata":"Q127686527","operator":"Aegis Huile Company Limited","operator:wikidata":"Q127686527"}},"advertising/totem/agapet-875bd4":{"name":"Agapet Limited","locationSet":{"include":["gh"]},"geometry":["point","line"],"matchScore":2,"terms":["agapet","agapet limited"],"tags":{"advertising":"totem","brand:wikidata":"Q126110796"},"addTags":{"advertising":"totem","brand":"Agapet","brand:wikidata":"Q126110796","operator":"Agapet Limited","operator:type":"private"}},"advertising/totem/alincooil-875bd4":{"name":"Alinco Oil","locationSet":{"include":["gh"]},"geometry":["point","line"],"matchScore":2,"terms":["alinco oil","alinco oil company limited"],"tags":{"advertising":"totem","brand:wikidata":"Q127686588"},"addTags":{"advertising":"totem","brand":"Alinco Oil","brand:wikidata":"Q127686588","operator":"Alinco Oil Company Limited","operator:wikidata":"Q127686588"}},"advertising/totem/allied-875bd4":{"name":"Allied Ghana","locationSet":{"include":["gh"]},"geometry":["point","line"],"matchScore":2,"terms":["allied","allied company limited","allied oil"],"tags":{"advertising":"totem","brand:wikidata":"Q126097124"},"addTags":{"advertising":"totem","brand":"Allied","brand:wikidata":"Q126097124","operator":"Allied Company Limited","operator:type":"private"}},"advertising/totem/benaboil-875bd4":{"name":"Benab Oil","locationSet":{"include":["gh"]},"geometry":["point","line"],"matchScore":2,"terms":["benab oil","benab oil company limited"],"tags":{"advertising":"totem","brand:wikidata":"Q127419392"},"addTags":{"advertising":"totem","brand":"Benab Oil","brand:wikidata":"Q127419392","operator":"Benab Oil Company Limited","operator:wikidata":"Q127419392"}},"advertising/totem/champion-875bd4":{"name":"Champion Oil","locationSet":{"include":["gh"]},"geometry":["point","line"],"matchScore":2,"terms":["champion","champion oil company limited"],"tags":{"advertising":"totem","brand:wikidata":"Q126110715"},"addTags":{"advertising":"totem","brand":"Champion","brand:wikidata":"Q126110715","operator":"Champion Oil Company Limited","operator:type":"private"}},"advertising/totem/fragaoil-875bd4":{"name":"Fraga Oil","locationSet":{"include":["gh"]},"geometry":["point","line"],"matchScore":2,"terms":["fraga oil","fraga oil company limited"],"tags":{"advertising":"totem","brand:wikidata":"Q127419564"},"addTags":{"advertising":"totem","brand":"Fraga Oil","brand:wikidata":"Q127419564","operator":"Fraga Oil Company Limited","operator:wikidata":"Q127419564"}},"advertising/totem/frimps-875bd4":{"name":"Frimps Oil","locationSet":{"include":["gh"]},"geometry":["point","line"],"matchScore":2,"terms":["frimps","frimps oil company limited"],"tags":{"advertising":"totem","brand:wikidata":"Q119041815"},"addTags":{"advertising":"totem","brand":"Frimps","brand:wikidata":"Q119041815","operator":"Frimps Oil Company Limited","operator:type":"private"}},"advertising/totem/gloryoil-875bd4":{"name":"Glory Oil","locationSet":{"include":["gh"]},"geometry":["point","line"],"matchScore":2,"terms":["glory oil","glory oil company limited"],"tags":{"advertising":"totem","brand:wikidata":"Q127419520"},"addTags":{"advertising":"totem","brand":"Glory Oil","brand:wikidata":"Q127419520","operator":"Glory Oil Company Limited","operator:wikidata":"Q127419520"}},"advertising/totem/goil-875bd4":{"name":"Goil","locationSet":{"include":["gh"]},"geometry":["point","line"],"matchScore":2,"terms":["goil"],"tags":{"advertising":"totem","brand:wikidata":"Q5555383"},"addTags":{"advertising":"totem","brand":"Goil","brand:wikidata":"Q5555383"}},"advertising/totem/mrs-9410e5":{"name":"MRS","locationSet":{"include":["bj","cm","gh","ng","tg"]},"geometry":["point","line"],"matchScore":2,"terms":["mrs"],"tags":{"advertising":"totem","brand:wikidata":"Q56274919"},"addTags":{"advertising":"totem","brand":"MRS","brand:wikidata":"Q56274919"}},"advertising/totem/nasona-875bd4":{"name":"Nasona Oil","locationSet":{"include":["gh"]},"geometry":["point","line"],"matchScore":2,"terms":["nasona","nasona oil"],"tags":{"advertising":"totem","brand:wikidata":"Q126110741"},"addTags":{"advertising":"totem","brand":"Nasona","brand:wikidata":"Q126110741","operator":"Nasona Oil","operator:type":"private"}},"advertising/totem/pacific-875bd4":{"name":"Pacific Oil Ghana","locationSet":{"include":["gh"]},"geometry":["point","line"],"matchScore":2,"terms":["pacific","pacific oil ghana ltd"],"tags":{"advertising":"totem","brand:wikidata":"Q126096692"},"addTags":{"advertising":"totem","brand":"Pacific","brand:wikidata":"Q126096692","operator":"Pacific Oil Ghana Ltd","operator:type":"private"}},"advertising/totem/petrosol-875bd4":{"name":"Petrosol Ghana","locationSet":{"include":["gh"]},"geometry":["point","line"],"matchScore":2,"terms":["petrosol","petrosol ghana ltd"],"tags":{"advertising":"totem","brand:wikidata":"Q126096818"},"addTags":{"advertising":"totem","brand":"Petrosol","brand:wikidata":"Q126096818","operator":"Petrosol Ghana Ltd","operator:type":"private"}},"advertising/totem/staroil-875bd4":{"name":"StarOil (Ghana)","locationSet":{"include":["gh"]},"geometry":["point","line"],"matchScore":2,"terms":["staroil","staroil company limited"],"tags":{"advertising":"totem","brand:wikidata":"Q126096894"},"addTags":{"advertising":"totem","brand":"StarOil","brand:wikidata":"Q126096894","operator":"StarOil Company Limited","operator:type":"private"}},"advertising/totem/telenergy-875bd4":{"name":"Telenergy","locationSet":{"include":["gh"]},"geometry":["point","line"],"matchScore":2,"terms":["tel energy limited","telenergy"],"tags":{"advertising":"totem","brand:wikidata":"Q126110861"},"addTags":{"advertising":"totem","brand":"Telenergy","brand:wikidata":"Q126110861","operator":"Tel Energy Limited","operator:type":"private"}},"advertising/totem/topoil-875bd4":{"name":"Top Oil","locationSet":{"include":["gh"]},"geometry":["point","line"],"matchScore":2,"terms":["top oil","top oil company limited"],"tags":{"advertising":"totem","brand:wikidata":"Q127419549"},"addTags":{"advertising":"totem","brand":"Top Oil","brand:wikidata":"Q127419549","operator":"Top Oil Company Limited","operator:wikidata":"Q127419549"}},"advertising/totem/unityoil-875bd4":{"name":"Unity Oil","locationSet":{"include":["gh"]},"geometry":["point","line"],"matchScore":2,"terms":["unity oil","unity oil company limited"],"tags":{"advertising":"totem","brand:wikidata":"Q127419577"},"addTags":{"advertising":"totem","brand":"Unity Oil","brand:wikidata":"Q127419577","operator":"Unity Oil Company Limited","operator:wikidata":"Q127419577"}},"advertising/totem/zen-875bd4":{"name":"ZEN Petroleum","locationSet":{"include":["gh"]},"geometry":["point","line"],"matchScore":2,"terms":["zen","zen petroleum limited"],"tags":{"advertising":"totem","brand:wikidata":"Q126096992"},"addTags":{"advertising":"totem","brand":"ZEN","brand:wikidata":"Q126096992","operator":"ZEN Petroleum Limited","operator:type":"private"}},"amenity/atm/oldmutual-ff45b4":{"name":"Old Mutual","locationSet":{"include":["bw","cn","gh","ke","mw","na","ng","rw","ss","sz","tz","ug","za","zw"]},"geometry":["point","vertex"],"matchScore":2,"terms":["old mutual"],"fields":["name","brand","{amenity/atm}"],"tags":{"amenity":"atm","brand:wikidata":"Q289704"},"addTags":{"amenity":"atm","brand":"Old Mutual","brand:wikidata":"Q289704"}},"amenity/atm/absa-843442":{"name":"Absa (Ghana)","locationSet":{"include":["gh"]},"geometry":["point","vertex"],"matchScore":2,"terms":["absa"],"fields":["name","brand","{amenity/atm}"],"tags":{"amenity":"atm","brand:wikidata":"Q58641733"},"addTags":{"amenity":"atm","brand":"Absa","brand:wikidata":"Q58641733","operator":"Absa","operator:type":"public","operator:wikidata":"Q58641733"}},"amenity/atm/accessbank-843442":{"name":"Access Bank (Ghana)","locationSet":{"include":["gh"]},"geometry":["point","vertex"],"matchScore":2,"terms":["access bank"],"fields":["name","brand","{amenity/atm}"],"tags":{"amenity":"atm","brand:wikidata":"Q4672420"},"addTags":{"amenity":"atm","brand":"Access Bank","brand:wikidata":"Q4672420","operator":"Access Bank","operator:type":"public","operator:wikidata":"Q4672420"}},"amenity/atm/adb-843442":{"name":"ADB (Ghana)","locationSet":{"include":["gh"]},"geometry":["point","vertex"],"matchScore":2,"terms":["adb","agricultural development bank"],"fields":["name","brand","{amenity/atm}"],"tags":{"amenity":"atm","brand:wikidata":"Q4693885"},"addTags":{"alt_name":"Agricultural Development Bank","amenity":"atm","brand":"ADB","brand:wikidata":"Q4693885","operator":"ADB","operator:type":"parastatal","operator:wikidata":"Q4693885"}},"amenity/atm/bankofafrica-843442":{"name":"Bank of Africa (Ghana)","locationSet":{"include":["gh"]},"geometry":["point","vertex"],"matchScore":2,"terms":["bank of africa","boa ghana"],"fields":["name","brand","{amenity/atm}"],"tags":{"amenity":"atm","brand:wikidata":"Q2882627"},"addTags":{"alt_name":"BOA Ghana","amenity":"atm","brand":"Bank of Africa","brand:wikidata":"Q2882627","operator":"Bank of Africa","operator:type":"private","operator:wikidata":"Q2882627"}},"amenity/atm/calbank-843442":{"name":"CalBank","locationSet":{"include":["gh"]},"geometry":["point","vertex"],"matchScore":2,"terms":["calbank"],"fields":["name","brand","{amenity/atm}"],"tags":{"amenity":"atm","brand:wikidata":"Q4035559"},"addTags":{"amenity":"atm","brand":"CalBank","brand:wikidata":"Q4035559","operator":"CalBank","operator:type":"public","operator:wikidata":"Q4035559"}},"amenity/atm/consolidatedbankghana-843442":{"name":"Consolidated Bank Ghana","locationSet":{"include":["gh"]},"geometry":["point","vertex"],"matchScore":2,"terms":["cbg","consolidated bank ghana"],"fields":["name","brand","{amenity/atm}"],"tags":{"amenity":"atm","brand:wikidata":"Q56277912"},"addTags":{"amenity":"atm","brand":"Consolidated Bank Ghana","brand:wikidata":"Q56277912","operator":"Consolidated Bank Ghana","operator:type":"parastatal","operator:wikidata":"Q56277912","short_name":"CBG"}},"amenity/atm/ecobank-843442":{"name":"Ecobank (Ghana)","locationSet":{"include":["gh"]},"geometry":["point","vertex"],"matchScore":2,"terms":["ecobank"],"fields":["name","brand","{amenity/atm}"],"tags":{"amenity":"atm","brand:wikidata":"Q930225"},"addTags":{"amenity":"atm","brand":"Ecobank","brand:wikidata":"Q930225","operator":"Ecobank","operator:type":"public","operator:wikidata":"Q930225"}},"amenity/atm/fidelitybank-843442":{"name":"Fidelity Bank (Ghana)","locationSet":{"include":["gh"]},"geometry":["point","vertex"],"matchScore":2,"terms":["fidelity bank"],"fields":["name","brand","{amenity/atm}"],"tags":{"amenity":"atm","brand:wikidata":"Q5446778"},"addTags":{"amenity":"atm","brand":"Fidelity Bank","brand:wikidata":"Q5446778","operator":"Fidelity Bank","operator:type":"public","operator:wikidata":"Q5446778"}},"amenity/atm/firstatlanticbank-843442":{"name":"First Atlantic Bank","locationSet":{"include":["gh"]},"geometry":["point","vertex"],"matchScore":2,"terms":["first atlantic bank"],"fields":["name","brand","{amenity/atm}"],"tags":{"amenity":"atm","brand:wikidata":"Q30688785"},"addTags":{"amenity":"atm","brand":"First Atlantic Bank","brand:wikidata":"Q30688785","operator":"First Atlantic Bank","operator:type":"private","operator:wikidata":"Q30688785"}},"amenity/atm/firstnationalbankfnb-843442":{"name":"First National Bank (Ghana)","locationSet":{"include":["gh"]},"geometry":["point","vertex"],"matchScore":2,"terms":["first national bank (fnb)"],"fields":["name","brand","{amenity/atm}"],"tags":{"amenity":"atm","brand:wikidata":"Q3072956"},"addTags":{"amenity":"atm","brand":"First National Bank (FNB)","brand:wikidata":"Q3072956","operator":"First National Bank (FNB)","operator:type":"public","operator:wikidata":"Q3072956"}},"amenity/atm/firstbankofnigeria-843442":{"name":"FirstBank Ghana","locationSet":{"include":["gh"]},"geometry":["point","vertex"],"matchScore":2,"terms":["fbnbank","first bank of nigeria"],"fields":["name","brand","{amenity/atm}"],"tags":{"amenity":"atm","brand:wikidata":"Q5452342"},"addTags":{"amenity":"atm","brand":"First Bank of Nigeria","brand:wikidata":"Q5452342","old_name":"FBNBank","operator":"First Bank of Nigeria","operator:type":"public","operator:wikidata":"Q5452342"}},"amenity/atm/gcbbank-843442":{"name":"GCB Bank","locationSet":{"include":["gh"]},"geometry":["point","vertex"],"matchScore":2,"terms":["gcb bank","ghana commercial bank"],"fields":["name","brand","{amenity/atm}"],"tags":{"amenity":"atm","brand:wikidata":"Q1521346"},"addTags":{"amenity":"atm","brand":"GCB Bank","brand:wikidata":"Q1521346","operator":"GCB Bank","operator:type":"public","operator:wikidata":"Q1521346"}},"amenity/atm/gtbank-55d972":{"name":"GT Bank","locationSet":{"include":["ci","gb","gh","gm","ke","lr","ng","rw","tz","ug"]},"geometry":["point","vertex"],"matchScore":2,"terms":["gt bank","guaranty trust bank"],"fields":["name","brand","{amenity/atm}"],"tags":{"amenity":"atm","brand:wikidata":"Q579747"},"addTags":{"amenity":"atm","brand":"GT Bank","brand:wikidata":"Q579747","official_name":"Guaranty Trust Bank","operator":"GT Bank","operator:wikidata":"Q579747"}},"amenity/atm/nationalinvestmentbank-843442":{"name":"National Investment Bank (Ghana)","locationSet":{"include":["gh"]},"geometry":["point","vertex"],"matchScore":2,"terms":["national investment bank","nib"],"fields":["name","brand","{amenity/atm}"],"tags":{"amenity":"atm","brand:wikidata":"Q6973844"},"addTags":{"amenity":"atm","brand":"National Investment Bank","brand:wikidata":"Q6973844","operator":"National Investment Bank","operator:type":"parastatal","operator:wikidata":"Q6973844","short_name":"NIB"}},"amenity/atm/omnibsicbank-843442":{"name":"OmniBSIC Bank","locationSet":{"include":["gh"]},"geometry":["point","vertex"],"matchScore":2,"terms":["omnibsic bank"],"fields":["name","brand","{amenity/atm}"],"tags":{"amenity":"atm","brand:wikidata":"Q96397377"},"addTags":{"amenity":"atm","brand":"OmniBSIC Bank","brand:wikidata":"Q96397377","operator":"OmniBSIC Bank","operator:type":"private","operator:wikidata":"Q96397377"}},"amenity/atm/prudentialbank-843442":{"name":"Prudential Bank","locationSet":{"include":["gh"]},"geometry":["point","vertex"],"matchScore":2,"terms":["prudential bank"],"fields":["name","brand","{amenity/atm}"],"tags":{"amenity":"atm","brand:wikidata":"Q7252979"},"addTags":{"amenity":"atm","brand":"Prudential Bank","brand:wikidata":"Q7252979","operator":"Prudential Bank","operator:type":"private","operator:wikidata":"Q7252979"}},"amenity/atm/republicbank-843442":{"name":"Republic Bank (Ghana)","locationSet":{"include":["gh"]},"geometry":["point","vertex"],"matchScore":2,"terms":["republic bank"],"fields":["name","brand","{amenity/atm}"],"tags":{"amenity":"atm","brand:wikidata":"Q7314386"},"addTags":{"amenity":"atm","brand":"Republic Bank","brand:wikidata":"Q7314386","operator":"Republic Bank","operator:type":"public","operator:wikidata":"Q7314386"}},"amenity/atm/societegenerale-843442":{"name":"Société Générale (Ghana)","locationSet":{"include":["gh"]},"geometry":["point","vertex"],"matchScore":2,"terms":["société générale"],"fields":["name","brand","{amenity/atm}"],"tags":{"amenity":"atm","brand:wikidata":"Q270363"},"addTags":{"amenity":"atm","brand":"Société Générale","brand:wikidata":"Q270363","operator":"Société Générale","operator:type":"public","operator:wikidata":"Q270363"}},"amenity/atm/standardbank-843442":{"name":"Stanbic Bank (Ghana)","locationSet":{"include":["gh"]},"geometry":["point","vertex"],"matchScore":2,"terms":["standard bank"],"fields":["name","brand","{amenity/atm}"],"tags":{"amenity":"atm","brand:wikidata":"Q1576610"},"addTags":{"amenity":"atm","brand":"Standard Bank","brand:wikidata":"Q1576610","operator":"Standard Bank","operator:type":"public","operator:wikidata":"Q1576610"}},"amenity/atm/standardchartered-843442":{"name":"Standard Chartered (Ghana)","locationSet":{"include":["gh"]},"geometry":["point","vertex"],"matchScore":2,"terms":["standard chartered"],"fields":["name","brand","{amenity/atm}"],"tags":{"amenity":"atm","brand:wikidata":"Q548278"},"addTags":{"amenity":"atm","brand":"Standard Chartered","brand:wikidata":"Q548278","operator":"Standard Chartered","operator:type":"public","operator:wikidata":"Q548278"}},"amenity/atm/uba-69edd8":{"name":"UBA","locationSet":{"include":["bf","bj","cd","cg","ci","cm","fr","ga","gb","gh","gn","ke","lr","ml","mz","ng","sl","sn","td","tz","ug","us","zm"]},"geometry":["point","vertex"],"matchScore":2,"terms":["uba","united bank for africa"],"fields":["name","brand","{amenity/atm}"],"tags":{"amenity":"atm","brand:wikidata":"Q513457"},"addTags":{"amenity":"atm","brand":"UBA","brand:wikidata":"Q513457","official_name":"United Bank for Africa","operator":"UBA","operator:wikidata":"Q513457"}},"amenity/atm/universalmerchantbank-843442":{"name":"Universal Merchant Bank","locationSet":{"include":["gh"]},"geometry":["point","vertex"],"matchScore":2,"terms":["umb","universal merchant bank"],"fields":["name","brand","{amenity/atm}"],"tags":{"amenity":"atm","brand:wikidata":"Q19604603"},"addTags":{"amenity":"atm","brand":"Universal Merchant Bank","brand:wikidata":"Q19604603","operator":"Universal Merchant Bank","operator:type":"private","operator:wikidata":"Q19604603","short_name":"UMB"}},"amenity/atm/zenithbank-a665db":{"name":"Zenith Bank","locationSet":{"include":["gb","gh","gm","ng","sl","za"]},"geometry":["point","vertex"],"matchScore":2,"terms":["zenith bank"],"fields":["name","brand","{amenity/atm}"],"tags":{"amenity":"atm","brand:wikidata":"Q5978240"},"addTags":{"amenity":"atm","brand":"Zenith Bank","brand:wikidata":"Q5978240","operator":"Zenith Bank","operator:wikidata":"Q5978240"}},"amenity/bank/absa-9d35ea":{"name":"Absa (Ghana)","locationSet":{"include":["gh"]},"geometry":["point","area"],"matchScore":2,"terms":["absa","absa bank ghana limited"],"tags":{"amenity":"bank","brand:wikidata":"Q58641733"},"addTags":{"amenity":"bank","brand":"Absa","brand:wikidata":"Q58641733","name":"Absa","operator":"Absa Bank Ghana Limited","operator:type":"public","operator:wikidata":"Q96371413"}},"amenity/bank/accessbank-9d35ea":{"name":"Access Bank (Ghana)","locationSet":{"include":["gh"]},"geometry":["point","area"],"matchScore":2,"terms":["access bank","access bank ghana plc"],"tags":{"amenity":"bank","brand:wikidata":"Q4672420"},"addTags":{"amenity":"bank","brand":"Access Bank","brand:wikidata":"Q4672420","name":"Access Bank","operator":"Access Bank Ghana Plc","operator:type":"public","operator:wikidata":"Q24915128"}},"amenity/bank/adb-9d35ea":{"name":"ADB (Ghana)","locationSet":{"include":["gh"]},"geometry":["point","area"],"matchScore":2,"terms":["adb","agricultural development bank","agricultural development bank of ghana"],"tags":{"amenity":"bank","brand:wikidata":"Q4693885"},"addTags":{"alt_name":"Agricultural Development Bank","amenity":"bank","brand":"ADB","brand:wikidata":"Q4693885","name":"ADB","operator":"Agricultural Development Bank of Ghana","operator:type":"parastatal","operator:wikidata":"Q4693885"}},"amenity/bank/bankofafrica-9d35ea":{"name":"Bank of Africa (Ghana)","locationSet":{"include":["gh"]},"geometry":["point","area"],"matchScore":2,"terms":["bank of africa","bank of africa ghana limited","boa ghana"],"tags":{"amenity":"bank","brand:wikidata":"Q2882627"},"addTags":{"alt_name":"BOA Ghana","amenity":"bank","brand":"Bank of Africa","brand:wikidata":"Q2882627","name":"Bank of Africa","operator":"Bank of Africa Ghana Limited","operator:type":"private","operator:wikidata":"Q4856014"}},"amenity/bank/calbank-9d35ea":{"name":"CalBank","locationSet":{"include":["gh"]},"geometry":["point","area"],"matchScore":2,"terms":["calbank","calbank plc"],"tags":{"amenity":"bank","brand:wikidata":"Q4035559"},"addTags":{"amenity":"bank","brand":"CalBank","brand:wikidata":"Q4035559","name":"CalBank","operator":"CalBank PLC","operator:type":"public","operator:wikidata":"Q4035559"}},"amenity/bank/consolidatedbankghana-9d35ea":{"name":"Consolidated Bank Ghana","locationSet":{"include":["gh"]},"geometry":["point","area"],"matchScore":2,"terms":["cbg","consolidated bank ghana","consolidated bank ghana limited"],"tags":{"amenity":"bank","brand:wikidata":"Q56277912"},"addTags":{"amenity":"bank","brand":"Consolidated Bank Ghana","brand:wikidata":"Q56277912","name":"Consolidated Bank Ghana","operator":"Consolidated Bank Ghana Limited","operator:type":"parastatal","operator:wikidata":"Q56277912","short_name":"CBG"}},"amenity/bank/ecobank-9d35ea":{"name":"Ecobank (Ghana)","locationSet":{"include":["gh"]},"geometry":["point","area"],"matchScore":2,"terms":["ecobank","ecobank ghana plc"],"tags":{"amenity":"bank","brand:wikidata":"Q930225"},"addTags":{"amenity":"bank","brand":"Ecobank","brand:wikidata":"Q930225","name":"Ecobank","operator":"Ecobank Ghana PLC","operator:type":"public","operator:wikidata":"Q5333155"}},"amenity/bank/fidelitybank-9d35ea":{"name":"Fidelity Bank (Ghana)","locationSet":{"include":["gh"]},"geometry":["point","area"],"matchScore":2,"terms":["fidelity bank","fidelity bank ghana limited"],"tags":{"amenity":"bank","brand:wikidata":"Q5446778"},"addTags":{"amenity":"bank","brand":"Fidelity Bank","brand:wikidata":"Q5446778","name":"Fidelity Bank","operator":"Fidelity Bank Ghana Limited","operator:type":"public","operator:wikidata":"Q5446778"}},"amenity/bank/firstatlanticbank-9d35ea":{"name":"First Atlantic Bank","locationSet":{"include":["gh"]},"geometry":["point","area"],"matchScore":2,"terms":["first atlantic bank","first atlantic bank (ghana) limited"],"tags":{"amenity":"bank","brand:wikidata":"Q30688785"},"addTags":{"amenity":"bank","brand":"First Atlantic Bank","brand:wikidata":"Q30688785","name":"First Atlantic Bank","operator":"First Atlantic Bank (Ghana) Limited","operator:type":"private","operator:wikidata":"Q30688785"}},"amenity/bank/firstnationalbank-9d35ea":{"name":"First National Bank (Ghana)","locationSet":{"include":["gh"]},"geometry":["point","area"],"matchScore":2,"terms":["first national bank (fnb)","first national bank ghana"],"tags":{"amenity":"bank","brand:wikidata":"Q3072956"},"addTags":{"amenity":"bank","brand":"First National Bank (FNB)","brand:wikidata":"Q3072956","name":"First National Bank","operator":"First National Bank Ghana","operator:type":"public","operator:wikidata":"Q96377981"}},"amenity/bank/firstbankghana-9d35ea":{"name":"FirstBank Ghana","locationSet":{"include":["gh"]},"geometry":["point","area"],"matchScore":2,"terms":["fbnbank","fbnbank ghana limited","first bank of nigeria"],"tags":{"amenity":"bank","brand:wikidata":"Q5452342"},"addTags":{"amenity":"bank","brand":"First Bank of Nigeria","brand:wikidata":"Q5452342","name":"FirstBank Ghana","old_name":"FBNBank","operator":"FBNBank Ghana Limited","operator:type":"public"}},"amenity/bank/gcbbank-9d35ea":{"name":"GCB Bank","locationSet":{"include":["gh"]},"geometry":["point","area"],"matchScore":2,"terms":["gcb bank","gcb bank limited","ghana commercial bank"],"tags":{"amenity":"bank","brand:wikidata":"Q1521346"},"addTags":{"amenity":"bank","brand":"GCB Bank","brand:wikidata":"Q1521346","name":"GCB Bank","operator":"GCB Bank Limited","operator:type":"public","operator:wikidata":"Q1521346"}},"amenity/bank/gtbank-b3c39a":{"name":"GT Bank","locationSet":{"include":["ci","gb","gh","gm","ke","lr","ng","rw","tz","ug"]},"geometry":["point","area"],"matchScore":2,"terms":["gt bank","guaranty trust bank"],"tags":{"amenity":"bank","brand:wikidata":"Q579747"},"addTags":{"amenity":"bank","brand":"GT Bank","brand:wikidata":"Q579747","name":"GT Bank","official_name":"Guaranty Trust Bank"}},"amenity/bank/nationalinvestmentbank-9d35ea":{"name":"National Investment Bank (Ghana)","locationSet":{"include":["gh"]},"geometry":["point","area"],"matchScore":2,"terms":["national investment bank","national investment bank limited","nib"],"tags":{"amenity":"bank","brand:wikidata":"Q6973844"},"addTags":{"amenity":"bank","brand":"National Investment Bank","brand:wikidata":"Q6973844","name":"National Investment Bank","operator":"National Investment Bank Limited","operator:type":"parastatal","operator:wikidata":"Q6973844","short_name":"NIB"}},"amenity/bank/omnibsicbank-9d35ea":{"name":"OmniBSIC Bank","locationSet":{"include":["gh"]},"geometry":["point","area"],"matchScore":2,"terms":["omnibsic bank","omnibsic bank ghana limited"],"tags":{"amenity":"bank","brand:wikidata":"Q96397377"},"addTags":{"amenity":"bank","brand":"OmniBSIC Bank","brand:wikidata":"Q96397377","name":"OmniBSIC Bank","operator":"OmniBSIC Bank Ghana Limited","operator:type":"private","operator:wikidata":"Q96397377"}},"amenity/bank/prudentialbank-9d35ea":{"name":"Prudential Bank","locationSet":{"include":["gh"]},"geometry":["point","area"],"matchScore":2,"terms":["prudential bank","prudential bank limited"],"tags":{"amenity":"bank","brand:wikidata":"Q7252979"},"addTags":{"amenity":"bank","brand":"Prudential Bank","brand:wikidata":"Q7252979","name":"Prudential Bank","operator":"Prudential Bank Limited","operator:type":"private","operator:wikidata":"Q7252979"}},"amenity/bank/republicbank-9d35ea":{"name":"Republic Bank (Ghana)","locationSet":{"include":["gh"]},"geometry":["point","area"],"matchScore":2,"terms":["republic bank","republic bank ghana limited"],"tags":{"amenity":"bank","brand:wikidata":"Q7314386"},"addTags":{"amenity":"bank","brand":"Republic Bank","brand:wikidata":"Q7314386","name":"Republic Bank","operator":"Republic Bank Ghana Limited","operator:type":"public","operator:wikidata":"Q4039966"}},"amenity/bank/societegenerale-9d35ea":{"name":"Société Générale (Ghana)","locationSet":{"include":["gh"]},"geometry":["point","area"],"matchScore":2,"terms":["société générale","société générale ghana limited"],"tags":{"amenity":"bank","brand:wikidata":"Q270363"},"addTags":{"amenity":"bank","brand":"Société Générale","brand:wikidata":"Q270363","name":"Société Générale","operator":"Société Générale Ghana Limited","operator:type":"public","operator:wikidata":"Q7390038"}},"amenity/bank/stanbicbank-9d35ea":{"name":"Stanbic Bank (Ghana)","locationSet":{"include":["gh"]},"geometry":["point","area"],"matchScore":2,"terms":["stanbic bank ghana limited","standard bank"],"tags":{"amenity":"bank","brand:wikidata":"Q1576610"},"addTags":{"amenity":"bank","brand":"Standard Bank","brand:wikidata":"Q1576610","name":"Stanbic Bank","operator":"Stanbic Bank Ghana Limited","operator:type":"public"}},"amenity/bank/standardchartered-9d35ea":{"name":"Standard Chartered (Ghana)","locationSet":{"include":["gh"]},"geometry":["point","area"],"matchScore":2,"terms":["standard chartered","standard chartered ghana"],"tags":{"amenity":"bank","brand:wikidata":"Q548278"},"addTags":{"amenity":"bank","brand":"Standard Chartered","brand:wikidata":"Q548278","name":"Standard Chartered","operator":"Standard Chartered Ghana","operator:type":"public","operator:wikidata":"Q7598195"}},"amenity/bank/uba-95540f":{"name":"UBA","locationSet":{"include":["bf","bj","cd","cg","ci","cm","fr","ga","gb","gh","gn","ke","lr","ml","mz","ng","sl","sn","td","tz","ug","us","zm"]},"geometry":["point","area"],"matchScore":2,"terms":["uba","united bank for africa"],"tags":{"amenity":"bank","brand:wikidata":"Q513457"},"addTags":{"amenity":"bank","brand":"UBA","brand:wikidata":"Q513457","name":"UBA","official_name":"United Bank for Africa"}},"amenity/bank/universalmerchantbank-9d35ea":{"name":"Universal Merchant Bank","locationSet":{"include":["gh"]},"geometry":["point","area"],"matchScore":2,"terms":["umb","universal merchant bank","universal merchant bank limited"],"tags":{"amenity":"bank","brand:wikidata":"Q19604603"},"addTags":{"amenity":"bank","brand":"Universal Merchant Bank","brand:wikidata":"Q19604603","name":"Universal Merchant Bank","operator":"Universal Merchant Bank Limited","operator:type":"private","operator:wikidata":"Q19604603","short_name":"UMB"}},"amenity/bank/zenithbank-603eac":{"name":"Zenith Bank","locationSet":{"include":["gb","gh","gm","ng","sl","za"]},"geometry":["point","area"],"matchScore":2,"terms":["zenith bank"],"tags":{"amenity":"bank","brand:wikidata":"Q5978240"},"addTags":{"amenity":"bank","brand":"Zenith Bank","brand:wikidata":"Q5978240","name":"Zenith Bank"}},"amenity/cafe/coffee_shop/vidaecaffe-79a73c":{"name":"Vida e caffè","locationSet":{"include":["bw","gh","mu","sz","za"]},"geometry":["point","area"],"matchScore":2,"terms":["vida a caffè","vida e caffè"],"reference":{"key":"cuisine","value":"coffee_shop"},"tags":{"amenity":"cafe","brand:wikidata":"Q7927650","cuisine":"coffee_shop"},"addTags":{"amenity":"cafe","brand":"Vida e Caffè","brand:wikidata":"Q7927650","cuisine":"coffee_shop","name":"Vida e Caffè","takeaway":"yes"}},"amenity/fast_food/pizza/cheezzypizza-0ae65d":{"name":"Cheezzy pizza","locationSet":{"include":["gh"]},"geometry":["point","area"],"matchScore":2,"terms":["cheezzy pizza"],"reference":{"key":"cuisine","value":"pizza"},"tags":{"amenity":"fast_food","brand:wikidata":"Q125895139","cuisine":"pizza"},"addTags":{"amenity":"fast_food","brand":"Cheezzy pizza","brand:wikidata":"Q125895139","cuisine":"pizza","delivery":"yes","name":"Cheezzy pizza","takeaway":"yes"}},"amenity/fast_food/pizza/eddyspizza-0ae65d":{"name":"Eddys Pizza","locationSet":{"include":["gh"]},"geometry":["point","area"],"matchScore":2,"terms":["eddys pizza"],"reference":{"key":"cuisine","value":"pizza"},"tags":{"amenity":"fast_food","brand:wikidata":"Q115571642","cuisine":"pizza"},"addTags":{"amenity":"fast_food","brand":"Eddys Pizza","brand:wikidata":"Q115571642","cuisine":"pizza","delivery":"yes","name":"Eddys Pizza","takeaway":"yes"}},"amenity/fast_food/chicken/galitos-00ffa4":{"name":"Galito's","locationSet":{"include":["ae","ca","cd","gh","in","ke","ls","mu","mw","pk","rs","sz","us","za","zm"]},"geometry":["point","area"],"matchScore":2,"terms":["galito's"],"reference":{"key":"cuisine","value":"chicken"},"tags":{"amenity":"fast_food","brand:wikidata":"Q116619555","cuisine":"chicken"},"addTags":{"amenity":"fast_food","brand":"Galito's","brand:wikidata":"Q116619555","cuisine":"chicken","name":"Galito's","takeaway":"yes"}},"amenity/fast_food/mrbiggs-282078":{"name":"Mr Bigg's","locationSet":{"include":["gh","ng"]},"geometry":["point","area"],"matchScore":2,"terms":["mr bigg's"],"tags":{"amenity":"fast_food","brand:wikidata":"Q955488"},"addTags":{"amenity":"fast_food","brand":"Mr Bigg's","brand:wikidata":"Q955488","cuisine":"nigerian","name":"Mr Bigg's","takeaway":"yes"}},"amenity/fast_food/pizza/papaspizza-0ae65d":{"name":"Papa's Pizza","locationSet":{"include":["gh"]},"geometry":["point","area"],"matchScore":2,"terms":["papa's pizza"],"reference":{"key":"cuisine","value":"pizza"},"tags":{"amenity":"fast_food","brand:wikidata":"Q125895068","cuisine":"pizza"},"addTags":{"amenity":"fast_food","brand":"Papa's Pizza","brand:wikidata":"Q125895068","cuisine":"pizza","delivery":"yes","name":"Papa's Pizza","takeaway":"yes"}},"amenity/fast_food/papayefastfood-0ae65d":{"name":"Papaye Fast Food","locationSet":{"include":["gh"]},"geometry":["point","area"],"matchScore":2,"terms":["papaye","papaye fast food","papaye fast foods limited"],"tags":{"amenity":"fast_food","brand:wikidata":"Q96104325"},"addTags":{"amenity":"fast_food","brand":"Papaye Fast Food","brand:wikidata":"Q96104325","cuisine":"local","name":"Papaye Fast Food","operator":"Papaye Fast Foods Limited","operator:type":"private","takeaway":"yes"}},"amenity/fast_food/pizza/pizzamanchickenman-0ae65d":{"name":"Pizzaman Chickenman","locationSet":{"include":["gh"]},"geometry":["point","area"],"matchScore":2,"terms":["ceqa foods & beverages","pizzaman chickenman"],"reference":{"key":"cuisine","value":"pizza"},"tags":{"amenity":"fast_food","brand:wikidata":"Q123097576","cuisine":"pizza;chicken"},"addTags":{"amenity":"fast_food","brand":"Pizzaman Chickenman","brand:wikidata":"Q123097576","cuisine":"pizza;chicken","name":"Pizzaman Chickenman","operator":"Ceqa Foods & Beverages","operator:type":"private","takeaway":"yes"}},"amenity/fuel/aegis-fdaf22":{"name":"Aegis","locationSet":{"include":["gh"]},"geometry":["point","area"],"matchScore":2,"terms":["aegis","aegis huile company limited"],"fields":["name","brand","{amenity/fuel}"],"tags":{"amenity":"fuel","brand:wikidata":"Q127686527"},"addTags":{"amenity":"fuel","brand":"Aegis","brand:wikidata":"Q127686527","name":"Aegis","operator":"Aegis Huile Company Limited","operator:wikidata":"Q127686527"}},"amenity/fuel/agapet-fdaf22":{"name":"Agapet Limited","locationSet":{"include":["gh"]},"geometry":["point","area"],"matchScore":2,"terms":["agapet","agapet limited"],"fields":["name","brand","{amenity/fuel}"],"tags":{"amenity":"fuel","brand:wikidata":"Q126110796"},"addTags":{"amenity":"fuel","brand":"Agapet","brand:wikidata":"Q126110796","name":"Agapet","operator":"Agapet Limited","operator:type":"private"}},"amenity/fuel/alincooil-fdaf22":{"name":"Alinco Oil","locationSet":{"include":["gh"]},"geometry":["point","area"],"matchScore":2,"terms":["alinco oil","alinco oil company limited"],"fields":["name","brand","{amenity/fuel}"],"tags":{"amenity":"fuel","brand:wikidata":"Q127686588"},"addTags":{"amenity":"fuel","brand":"Alinco Oil","brand:wikidata":"Q127686588","name":"Alinco Oil","operator":"Alinco Oil Company Limited","operator:wikidata":"Q127686588"}},"amenity/fuel/allied-fdaf22":{"name":"Allied Ghana","locationSet":{"include":["gh"]},"geometry":["point","area"],"matchScore":2,"terms":["allied","allied company limited","allied oil"],"fields":["name","brand","{amenity/fuel}"],"tags":{"amenity":"fuel","brand:wikidata":"Q126097124"},"addTags":{"amenity":"fuel","brand":"Allied","brand:wikidata":"Q126097124","name":"Allied","operator":"Allied Company Limited","operator:type":"private"}},"amenity/fuel/benaboil-fdaf22":{"name":"Benab Oil","locationSet":{"include":["gh"]},"geometry":["point","area"],"matchScore":2,"terms":["benab oil","benab oil company limited"],"fields":["name","brand","{amenity/fuel}"],"tags":{"amenity":"fuel","brand:wikidata":"Q127419392"},"addTags":{"amenity":"fuel","brand":"Benab Oil","brand:wikidata":"Q127419392","name":"Benab Oil","operator":"Benab Oil Company Limited","operator:wikidata":"Q127419392"}},"amenity/fuel/champion-fdaf22":{"name":"Champion Oil","locationSet":{"include":["gh"]},"geometry":["point","area"],"matchScore":2,"terms":["champion","champion oil company limited"],"fields":["name","brand","{amenity/fuel}"],"tags":{"amenity":"fuel","brand:wikidata":"Q126110715"},"addTags":{"amenity":"fuel","brand":"Champion","brand:wikidata":"Q126110715","name":"Champion","operator":"Champion Oil Company Limited","operator:type":"private"}},"amenity/fuel/fragaoil-fdaf22":{"name":"Fraga Oil","locationSet":{"include":["gh"]},"geometry":["point","area"],"matchScore":2,"terms":["fraga oil","fraga oil company limited"],"fields":["name","brand","{amenity/fuel}"],"tags":{"amenity":"fuel","brand:wikidata":"Q127419564"},"addTags":{"amenity":"fuel","brand":"Fraga Oil","brand:wikidata":"Q127419564","name":"Fraga Oil","operator":"Fraga Oil Company Limited","operator:wikidata":"Q127419564"}},"amenity/fuel/frimps-fdaf22":{"name":"Frimps Oil","locationSet":{"include":["gh"]},"geometry":["point","area"],"matchScore":2,"terms":["frimps","frimps oil company limited"],"fields":["name","brand","{amenity/fuel}"],"tags":{"amenity":"fuel","brand:wikidata":"Q119041815"},"addTags":{"amenity":"fuel","brand":"Frimps","brand:wikidata":"Q119041815","name":"Frimps","operator":"Frimps Oil Company Limited","operator:type":"private"}},"amenity/fuel/gloryoil-fdaf22":{"name":"Glory Oil","locationSet":{"include":["gh"]},"geometry":["point","area"],"matchScore":2,"terms":["glory oil","glory oil company limited"],"fields":["name","brand","{amenity/fuel}"],"tags":{"amenity":"fuel","brand:wikidata":"Q127419520"},"addTags":{"amenity":"fuel","brand":"Glory Oil","brand:wikidata":"Q127419520","name":"Glory Oil","operator":"Glory Oil Company Limited","operator:wikidata":"Q127419520"}},"amenity/fuel/goil-fdaf22":{"name":"Goil","locationSet":{"include":["gh"]},"geometry":["point","area"],"matchScore":2,"terms":["goil"],"fields":["name","brand","{amenity/fuel}"],"tags":{"amenity":"fuel","brand:wikidata":"Q5555383"},"addTags":{"amenity":"fuel","brand":"Goil","brand:wikidata":"Q5555383","name":"Goil"}},"amenity/fuel/mrs-0edd09":{"name":"MRS","locationSet":{"include":["bj","cm","gh","ng","tg"]},"geometry":["point","area"],"matchScore":2,"terms":["mrs"],"fields":["name","brand","{amenity/fuel}"],"tags":{"amenity":"fuel","brand:wikidata":"Q56274919"},"addTags":{"amenity":"fuel","brand":"MRS","brand:wikidata":"Q56274919","name":"MRS"}},"amenity/fuel/nasona-fdaf22":{"name":"Nasona Oil","locationSet":{"include":["gh"]},"geometry":["point","area"],"matchScore":2,"terms":["nasona","nasona oil"],"fields":["name","brand","{amenity/fuel}"],"tags":{"amenity":"fuel","brand:wikidata":"Q126110741"},"addTags":{"amenity":"fuel","brand":"Nasona","brand:wikidata":"Q126110741","name":"Nasona","operator":"Nasona Oil","operator:type":"private"}},"amenity/fuel/pacific-fdaf22":{"name":"Pacific Oil Ghana","locationSet":{"include":["gh"]},"geometry":["point","area"],"matchScore":2,"terms":["pacific","pacific oil ghana ltd"],"fields":["name","brand","{amenity/fuel}"],"tags":{"amenity":"fuel","brand:wikidata":"Q126096692"},"addTags":{"amenity":"fuel","brand":"Pacific","brand:wikidata":"Q126096692","name":"Pacific","operator":"Pacific Oil Ghana Ltd","operator:type":"private"}},"amenity/fuel/petrosol-fdaf22":{"name":"Petrosol Ghana","locationSet":{"include":["gh"]},"geometry":["point","area"],"matchScore":2,"terms":["petrosol","petrosol ghana ltd"],"fields":["name","brand","{amenity/fuel}"],"tags":{"amenity":"fuel","brand:wikidata":"Q126096818"},"addTags":{"amenity":"fuel","brand":"Petrosol","brand:wikidata":"Q126096818","name":"Petrosol","operator":"Petrosol Ghana Ltd","operator:type":"private"}},"amenity/fuel/staroil-fdaf22":{"name":"StarOil (Ghana)","locationSet":{"include":["gh"]},"geometry":["point","area"],"matchScore":2,"terms":["staroil","staroil company limited"],"fields":["name","brand","{amenity/fuel}"],"tags":{"amenity":"fuel","brand:wikidata":"Q126096894"},"addTags":{"amenity":"fuel","brand":"StarOil","brand:wikidata":"Q126096894","name":"StarOil","operator":"StarOil Company Limited","operator:type":"private"}},"amenity/fuel/telenergy-fdaf22":{"name":"Telenergy","locationSet":{"include":["gh"]},"geometry":["point","area"],"matchScore":2,"terms":["tel energy limited","telenergy"],"fields":["name","brand","{amenity/fuel}"],"tags":{"amenity":"fuel","brand:wikidata":"Q126110861"},"addTags":{"amenity":"fuel","brand":"Telenergy","brand:wikidata":"Q126110861","name":"Telenergy","operator":"Tel Energy Limited","operator:type":"private"}},"amenity/fuel/topoil-fdaf22":{"name":"Top Oil","locationSet":{"include":["gh"]},"geometry":["point","area"],"matchScore":2,"terms":["top oil","top oil company limited"],"fields":["name","brand","{amenity/fuel}"],"tags":{"amenity":"fuel","brand:wikidata":"Q127419549"},"addTags":{"amenity":"fuel","brand":"Top Oil","brand:wikidata":"Q127419549","name":"Top Oil","operator":"Top Oil Company Limited","operator:wikidata":"Q127419549"}},"amenity/fuel/unityoil-fdaf22":{"name":"Unity Oil","locationSet":{"include":["gh"]},"geometry":["point","area"],"matchScore":2,"terms":["unity oil","unity oil company limited"],"fields":["name","brand","{amenity/fuel}"],"tags":{"amenity":"fuel","brand:wikidata":"Q127419577"},"addTags":{"amenity":"fuel","brand":"Unity Oil","brand:wikidata":"Q127419577","name":"Unity Oil","operator":"Unity Oil Company Limited","operator:wikidata":"Q127419577"}},"amenity/fuel/zen-fdaf22":{"name":"ZEN Petroleum","locationSet":{"include":["gh"]},"geometry":["point","area"],"matchScore":2,"terms":["zen","zen petroleum limited"],"fields":["name","brand","{amenity/fuel}"],"tags":{"amenity":"fuel","brand:wikidata":"Q126096992"},"addTags":{"amenity":"fuel","brand":"ZEN","brand:wikidata":"Q126096992","name":"Zen","operator":"ZEN Petroleum Limited","operator:type":"private"}},"amenity/restaurant/laspalmasfoodcentre-e66c3e":{"name":"Las Palmas Food Centre","locationSet":{"include":["gh"]},"geometry":["point","area"],"matchScore":2,"terms":["las palmas food centre"],"tags":{"amenity":"restaurant","brand:wikidata":"Q125886007"},"addTags":{"amenity":"restaurant","brand":"Las Palmas Food Centre","brand:wikidata":"Q125886007","cuisine":"ghanaian","delivery":"yes","name":"Las Palmas Food Centre","takeaway":"yes"}},"amenity/restaurant/rocomamas-a7acfa":{"name":"RocoMamas","locationSet":{"include":["au","bw","cd","gh","ke","na","sa","sz","za","zm","zw"]},"geometry":["point","area"],"matchScore":2,"terms":["rocomamas"],"tags":{"amenity":"restaurant","brand:wikidata":"Q123034964"},"addTags":{"amenity":"restaurant","brand":"RocoMamas","brand:wikidata":"Q123034964","cuisine":"burger","name":"RocoMamas"}},"office/financial/oldmutualfinance-38693f":{"name":"Old Mutual Finance","locationSet":{"include":["bw","cn","gh","ke","mw","na","ng","rw","ss","sz","tz","ug","za","zw"]},"geometry":["point","area"],"matchScore":2,"terms":["old mutual finance"],"tags":{"brand:wikidata":"Q289704","office":"financial"},"addTags":{"brand":"Old Mutual Finance","brand:wikidata":"Q289704","name":"Old Mutual Finance","office":"financial"}},"office/insurance/allianz-332499":{"name":"Allianz","locationSet":{"include":["ae","ar","at","au","be","bg","bh","bm","bn","br","ca","cg","ch","ci","cm","cn","co","cy","cz","de","dk","ee","eg","es","fi","fr","gb","gf","gg","gh","gp","gr","hk","hr","hu","id","ie","in","is","it","ja","ke","kr","kw","la","li","lk","lt","lu","lv","ma","mg","mx","my","ng","nl","no","nz","om","ph","pk","pl","pt","qa","ro","ru","sa","se","sg","si","sk","sn","th","tr","tw","ua","us","za"]},"geometry":["point","area"],"matchScore":2,"terms":["allianz","allianz versicherung"],"fields":["name","brand","{office/insurance}"],"tags":{"brand:wikidata":"Q487292","office":"insurance"},"addTags":{"brand":"Allianz","brand:wikidata":"Q487292","name":"Allianz","office":"insurance"}},"office/insurance/oldmutualinsure-170662":{"name":"Old Mutual Insure","locationSet":{"include":["bw","cn","gh","ke","mw","na","ng","rw","ss","sz","tz","ug","za","zw"]},"geometry":["point","area"],"matchScore":2,"terms":["old mutual insure"],"fields":["name","brand","{office/insurance}"],"tags":{"brand:wikidata":"Q289704","office":"insurance"},"addTags":{"brand":"Old Mutual Insure","brand:wikidata":"Q289704","name":"Old Mutual Insure","office":"insurance"}},"shop/clothes/markham-b23c0b":{"name":"Markham","locationSet":{"include":["bw","gh","ls","na","sz","za","zm"]},"geometry":["point","area"],"matchScore":2,"terms":["markham"],"tags":{"brand:wikidata":"Q116378583","shop":"clothes"},"addTags":{"brand":"Markham","brand:wikidata":"Q116378583","name":"Markham","shop":"clothes"}},"shop/clothes/mrprice-445d46":{"name":"Mr Price","locationSet":{"include":["bw","gh","ke","ls","na","sz","za","zm"]},"geometry":["point","area"],"matchScore":2,"terms":["mr price"],"tags":{"brand:wikidata":"Q129561257","shop":"clothes"},"addTags":{"brand":"Mr Price","brand:wikidata":"Q129561257","name":"Mr Price","shop":"clothes"}},"shop/clothes/mrpricesport-445d46":{"name":"Mr Price Sport","locationSet":{"include":["bw","gh","ke","ls","na","sz","za","zm"]},"geometry":["point","area"],"matchScore":2,"terms":["mr price sport"],"tags":{"brand:wikidata":"Q129561262","shop":"clothes"},"addTags":{"brand":"Mr Price Sport","brand:wikidata":"Q129561262","clothes":"sports","name":"Mr Price Sport","shop":"clothes"}},"shop/department_store/edgars-34fd38":{"name":"Edgars","locationSet":{"include":["bw","gh","ls","na","sz","za","zm"]},"geometry":["point","area"],"matchScore":2,"terms":["edgars"],"tags":{"brand:wikidata":"Q97276073","shop":"department_store"},"addTags":{"brand":"Edgars","brand:wikidata":"Q97276073","name":"Edgars","shop":"department_store"}},"shop/houseware/home-dd60e2":{"name":"@home","locationSet":{"include":["bw","gh","mz","na","za"]},"geometry":["point","area"],"matchScore":2,"terms":["@home"],"tags":{"brand:wikidata":"Q116429887","shop":"houseware"},"addTags":{"brand":"@home","brand:wikidata":"Q116429887","name":"@home","shop":"houseware"}},"shop/houseware/homelivingspace-dd60e2":{"name":"@Home Livingspace","locationSet":{"include":["bw","gh","mz","na","za"]},"geometry":["point","area"],"matchScore":2,"terms":["@home livingspace"],"tags":{"brand:wikidata":"Q117406343","shop":"houseware"},"addTags":{"brand":"@Home Livingspace","brand:wikidata":"Q117406343","name":"@Home Livingspace","shop":"houseware"}},"shop/houseware/mrpricehome-764653":{"name":"Mr Price Home","locationSet":{"include":["bw","gh","ke","ls","na","sz","za","zm"]},"geometry":["point","area"],"matchScore":2,"terms":["mr price home"],"tags":{"brand:wikidata":"Q129561270","shop":"houseware"},"addTags":{"brand":"Mr Price Home","brand:wikidata":"Q129561270","name":"Mr Price Home","shop":"houseware"}},"shop/kitchen/ixina-d089d8":{"name":"Ixina","locationSet":{"include":["ae","au","be","bf","bh","bj","ca","ci","cm","cn","cz","dz","ee","eg","fr","gh","hr","ke","kw","lu","ly","ma","mu","nl","pl","qa","ro","ru","sa","se","sn","tg","th","tn","vn"]},"geometry":["point","area"],"matchScore":2,"terms":["ixina"],"tags":{"brand:wikidata":"Q3156424","shop":"kitchen"},"addTags":{"brand":"Ixina","brand:wikidata":"Q3156424","name":"Ixina","shop":"kitchen"}},"shop/mobile_phone/airtel-62d34e":{"name":"Airtel","locationSet":{"include":["io","bi","km","dj","er","et","tf","ke","mg","mw","mu","yt","mz","re","rw","sc","so","ss","ug","tz","zm","zw","ao","cm","cf","td","cg","cd","gq","ga","st","bw","sz","ls","na","za","bj","bf","cv","ci","gm","gh","gn","gw","lr","ml","mr","ne","ng","sn","sl","tg","sh","in"]},"geometry":["point","area"],"matchScore":2,"terms":["airtel"],"tags":{"brand:wikidata":"Q854867","shop":"mobile_phone"},"addTags":{"brand":"Airtel","brand:wikidata":"Q854867","name":"Airtel","shop":"mobile_phone"}},"shop/supermarket/game-910aca":{"name":"Game","locationSet":{"include":["io","bi","km","dj","er","et","tf","ke","mg","mw","mu","yt","mz","re","rw","sc","so","ss","ug","tz","zm","zw","ao","cm","cf","td","cg","cd","gq","ga","st","bw","sz","ls","na","za","bj","bf","cv","ci","gm","gh","gn","gw","lr","ml","mr","ne","ng","sn","sl","tg","sh"]},"geometry":["point","area"],"matchScore":2,"terms":["game"],"tags":{"brand:wikidata":"Q129263113","shop":"supermarket"},"addTags":{"brand":"Game","brand:wikidata":"Q129263113","name":"Game","shop":"supermarket"}},"shop/supermarket/shoprite-56f959":{"name":"Shoprite (Africa)","locationSet":{"include":["ao","bw","cd","gh","ls","mg","mu","mw","mz","na","ng","sz","ug","za","zm"]},"geometry":["point","area"],"matchScore":2,"terms":["shoprite"],"tags":{"brand:wikidata":"Q1857639","shop":"supermarket"},"addTags":{"brand":"Shoprite","brand:wikidata":"Q1857639","name":"Shoprite","shop":"supermarket"}},"amenity/clinic/ghanahealthservice-7981f3":{"name":"Ghana Health Service","locationSet":{"include":["gh"]},"geometry":["point","area"],"matchScore":2,"terms":["ghana health service"],"fields":["name","operator","{amenity/clinic}"],"reference":{"key":"amenity","value":"clinic"},"tags":{"amenity":"clinic","operator:wikidata":"Q5555350"},"addTags":{"amenity":"clinic","healthcare":"clinic","operator":"Ghana Health Service","operator:wikidata":"Q5555350"}},"amenity/post_box/ghanapost-f32027":{"name":"Ghana Post","locationSet":{"include":["gh"]},"geometry":["point","vertex"],"matchScore":2,"terms":["ghana post"],"tags":{"amenity":"post_box","operator:wikidata":"Q4351971"},"addTags":{"amenity":"post_box","operator":"Ghana Post","operator:wikidata":"Q4351971"}},"amenity/post_office/ghanapost-aa5324":{"name":"Ghana Post","locationSet":{"include":["gh"]},"geometry":["point","area"],"matchScore":2,"terms":["ghana post"],"fields":["name","operator","{amenity/post_office}"],"tags":{"amenity":"post_office","operator:wikidata":"Q4351971"},"addTags":{"amenity":"post_office","operator":"Ghana Post","operator:wikidata":"Q4351971"}},"amenity/school/ghanaeducationservice-05a503":{"name":"Ghana Education Service","locationSet":{"include":["gh"]},"geometry":["area","point"],"matchScore":2,"terms":["ges","ghana education service"],"tags":{"amenity":"school","operator:wikidata":"Q30263788"},"addTags":{"amenity":"school","operator":"Ghana Education Service","operator:short":"GES","operator:type":"public","operator:wikidata":"Q30263788"}},"power/line/electricitycompanyofghana-a4e165":{"name":"Electricity Company of Ghana","locationSet":{"include":["gh"]},"geometry":["line"],"matchScore":2,"terms":["ecg","electricity company of ghana"],"tags":{"operator:wikidata":"Q16733491","power":"line"},"addTags":{"operator":"Electricity Company of Ghana","operator:short":"ECG","operator:wikidata":"Q16733491","power":"line"}},"power/line/ghanagridcompany-a4e165":{"name":"Ghana Grid Company","locationSet":{"include":["gh"]},"geometry":["line"],"matchScore":2,"terms":["ghana grid company","gridco"],"tags":{"operator:wikidata":"Q16733560","power":"line"},"addTags":{"operator":"Ghana Grid Company","operator:wikidata":"Q16733560","power":"line"}},"power/line/nedco-a4e165":{"name":"NEDCo","locationSet":{"include":["gh"]},"geometry":["line"],"matchScore":2,"terms":["nedco","northern electricity distribution company"],"tags":{"operator:wikidata":"Q16733950","power":"line"},"addTags":{"operator":"NEDCo","operator:wikidata":"Q16733950","power":"line"}},"power/minor_line/electricitycompanyofghana-df0bcc":{"name":"Electricity Company of Ghana","locationSet":{"include":["gh"]},"geometry":["line"],"matchScore":2,"terms":["ecg","electricity company of ghana"],"tags":{"operator:wikidata":"Q16733491","power":"minor_line"},"addTags":{"operator":"Electricity Company of Ghana","operator:short":"ECG","operator:wikidata":"Q16733491","power":"minor_line"}},"power/minor_line/ghanagridcompany-df0bcc":{"name":"Ghana Grid Company","locationSet":{"include":["gh"]},"geometry":["line"],"matchScore":2,"terms":["ghana grid company","gridco"],"tags":{"operator:wikidata":"Q16733560","power":"minor_line"},"addTags":{"operator":"Ghana Grid Company","operator:wikidata":"Q16733560","power":"minor_line"}},"power/minor_line/nedco-df0bcc":{"name":"NEDCo","locationSet":{"include":["gh"]},"geometry":["line"],"matchScore":2,"terms":["nedco","northern electricity distribution company"],"tags":{"operator:wikidata":"Q16733950","power":"minor_line"},"addTags":{"operator":"NEDCo","operator:wikidata":"Q16733950","power":"minor_line"}},"power/pole/electricitycompanyofghana-55eaef":{"name":"Electricity Company of Ghana","locationSet":{"include":["gh"]},"geometry":["point","vertex"],"matchScore":2,"terms":["ecg","electricity company of ghana"],"tags":{"operator:wikidata":"Q16733491","power":"pole"},"addTags":{"operator":"Electricity Company of Ghana","operator:short":"ECG","operator:wikidata":"Q16733491","power":"pole"}},"power/pole/ghanagridcompany-55eaef":{"name":"Ghana Grid Company","locationSet":{"include":["gh"]},"geometry":["point","vertex"],"matchScore":2,"terms":["ghana grid company","gridco"],"tags":{"operator:wikidata":"Q16733560","power":"pole"},"addTags":{"operator":"Ghana Grid Company","operator:wikidata":"Q16733560","power":"pole"}},"power/pole/nedco-55eaef":{"name":"NEDCo","locationSet":{"include":["gh"]},"geometry":["point","vertex"],"matchScore":2,"terms":["nedco","northern electricity distribution company"],"tags":{"operator:wikidata":"Q16733950","power":"pole"},"addTags":{"operator":"NEDCo","operator:wikidata":"Q16733950","power":"pole"}},"power/substation/electricitycompanyofghana-d85383":{"name":"Electricity Company of Ghana","locationSet":{"include":["gh"]},"geometry":["area","point"],"matchScore":2,"terms":["ecg","electricity company of ghana"],"tags":{"operator:wikidata":"Q16733491","power":"substation"},"addTags":{"operator":"Electricity Company of Ghana","operator:short":"ECG","operator:wikidata":"Q16733491","power":"substation","substation":"distribution"}},"power/substation/ghanagridcompany-d85383":{"name":"Ghana Grid Company","locationSet":{"include":["gh"]},"geometry":["area","point"],"matchScore":2,"terms":["ghana grid company","gridco"],"tags":{"operator:wikidata":"Q16733560","power":"substation"},"addTags":{"operator":"Ghana Grid Company","operator:wikidata":"Q16733560","power":"substation","substation":"transmission"}},"power/substation/nedco-d85383":{"name":"NEDCo","locationSet":{"include":["gh"]},"geometry":["area","point"],"matchScore":2,"terms":["nedco","northern electricity distribution company"],"tags":{"operator:wikidata":"Q16733950","power":"substation"},"addTags":{"operator":"NEDCo","operator:wikidata":"Q16733950","power":"substation","substation":"distribution"}},"power/tower/electricitycompanyofghana-3e31f4":{"name":"Electricity Company of Ghana","locationSet":{"include":["gh"]},"geometry":["point","vertex"],"matchScore":2,"terms":["ecg","electricity company of ghana"],"tags":{"operator:wikidata":"Q16733491","power":"tower"},"addTags":{"operator":"Electricity Company of Ghana","operator:short":"ECG","operator:wikidata":"Q16733491","power":"tower"}},"power/tower/ghanagridcompany-3e31f4":{"name":"Ghana Grid Company","locationSet":{"include":["gh"]},"geometry":["point","vertex"],"matchScore":2,"terms":["ghana grid company","gridco"],"tags":{"operator:wikidata":"Q16733560","power":"tower"},"addTags":{"operator":"Ghana Grid Company","operator:wikidata":"Q16733560","power":"tower"}},"power/tower/nedco-3e31f4":{"name":"NEDCo","locationSet":{"include":["gh"]},"geometry":["point","vertex"],"matchScore":2,"terms":["nedco","northern electricity distribution company"],"tags":{"operator:wikidata":"Q16733950","power":"tower"},"addTags":{"operator":"NEDCo","operator:wikidata":"Q16733950","power":"tower"}},"power/transformer/electricitycompanyofghana-059841":{"name":"Electricity Company of Ghana","locationSet":{"include":["gh"]},"geometry":["point","vertex"],"matchScore":2,"terms":["ecg","electricity company of ghana"],"tags":{"operator:wikidata":"Q16733491","power":"transformer"},"addTags":{"operator":"Electricity Company of Ghana","operator:short":"ECG","operator:wikidata":"Q16733491","power":"transformer","substation":"distribution"}},"power/transformer/ghanagridcompany-059841":{"name":"Ghana Grid Company","locationSet":{"include":["gh"]},"geometry":["point","vertex"],"matchScore":2,"terms":["ghana grid company","gridco"],"tags":{"operator:wikidata":"Q16733560","power":"transformer"},"addTags":{"operator":"Ghana Grid Company","operator:wikidata":"Q16733560","power":"transformer","substation":"transmission"}},"power/transformer/nedco-059841":{"name":"NEDCo","locationSet":{"include":["gh"]},"geometry":["point","vertex"],"matchScore":2,"terms":["nedco","northern electricity distribution company"],"tags":{"operator:wikidata":"Q16733950","power":"transformer"},"addTags":{"operator":"NEDCo","operator:wikidata":"Q16733950","power":"transformer","substation":"distribution"}},"public_transport/platform/bus_point/trotro-e5d105":{"name":"trô trô","locationSet":{"include":["gh"]},"geometry":["point","vertex"],"matchScore":2,"terms":["trô trô"],"reference":{"key":"public_transport","value":"platform"},"tags":{"bus":"yes","network:wikidata":"Q2454552","public_transport":"platform"},"addTags":{"bus":"yes","highway":"bus_stop","network":"trô trô","network:wikidata":"Q2454552","public_transport":"platform"}},"type/route/bus/trotro-aa37e6":{"name":"trô trô","locationSet":{"include":["gh"]},"geometry":["relation"],"matchScore":2,"terms":["trô trô"],"reference":{"key":"route","value":"bus"},"tags":{"network:wikidata":"Q2454552","route":"bus","type":"route"},"addTags":{"network":"trô trô","network:wikidata":"Q2454552","route":"bus","type":"route"}}}