{"amenity/ice_cream/amorino-6cf168":{"name":"Amorino","locationSet":{"include":["ae","ch","cz","de","es","fr","gb","gr","ie","it","lu","ma","mt","mx","nc","pt","qa","re","us"]},"geometry":["point","area"],"matchScore":2,"terms":["amorino"],"tags":{"amenity":"ice_cream","brand:wikidata":"Q2843884"},"addTags":{"amenity":"ice_cream","brand":"Amorino","brand:wikidata":"Q2843884","name":"Amorino"}},"shop/clothes/underwear/undiz-f30927":{"name":"Undiz","locationSet":{"include":["ae","ch","es","fr","gf","gp","lb","ma","mq","nc","pf","qa","re","sa","za"]},"geometry":["point","area"],"matchScore":2,"terms":["undiz"],"reference":{"key":"clothes","value":"underwear"},"tags":{"brand:wikidata":"Q105306275","clothes":"underwear","shop":"clothes"},"addTags":{"brand":"Undiz","brand:wikidata":"Q105306275","clothes":"underwear","name":"Undiz","shop":"clothes"}},"shop/paint/resene-7091e6":{"name":"Resene","locationSet":{"include":["au","nc","nz"]},"geometry":["point","area"],"matchScore":2,"terms":["resene"],"fields":["name","brand","{shop/paint}"],"tags":{"brand:wikidata":"Q111951487","shop":"paint"},"addTags":{"brand":"Resene","brand:wikidata":"Q111951487","name":"Resene","shop":"paint"}},"shop/variety_store/lafoirfouille-af2034":{"name":"La Foir'Fouille","locationSet":{"include":["be","fr","lu","mu","nc"]},"geometry":["point","area"],"matchScore":2,"terms":["la foir'fouille"],"tags":{"brand:wikidata":"Q3209040","shop":"variety_store"},"addTags":{"brand":"La Foir'Fouille","brand:wikidata":"Q3209040","name":"La Foir'Fouille","shop":"variety_store"}},"amenity/telephone/officedespostesettelecommunicationsdenouvellecaledonie-32dfcb":{"name":"OPT (Nouvelle-Calédonie)","locationSet":{"include":["nc"]},"geometry":["point","vertex"],"matchScore":2,"terms":["office des postes et télécommunications de nouvelle-calédonie","opt"],"fields":["name","operator","{amenity/telephone}"],"tags":{"amenity":"telephone","operator:wikidata":"Q3349600"},"addTags":{"amenity":"telephone","operator":"Office des postes et télécommunications de Nouvelle-Calédonie","operator:short":"OPT","operator:wikidata":"Q3349600"}},"amenity/university/keiseruniversity-3242ba":{"name":"Keiser University","locationSet":{"include":["cn","nc","us"]},"geometry":["area","point"],"matchScore":2,"terms":["keiser","keiser university"],"fields":["name","operator","{amenity/university}"],"tags":{"amenity":"university","operator:wikidata":"Q1523211"},"addTags":{"amenity":"university","name":"Keiser University","operator":"Keiser University","operator:wikidata":"Q1523211","short_name":"Keiser"}}}