{"amenity/atm/f25812-e91767":{"name":"Народный банк","locationSet":{"include":["kg","kz","uz"]},"geometry":["point","vertex"],"matchScore":2,"terms":["народный банк"],"fields":["name","brand","{amenity/atm}"],"tags":{"amenity":"atm","brand:wikidata":"Q1046186"},"addTags":{"amenity":"atm","brand":"Народный банк","brand:wikidata":"Q1046186","operator":"Народный банк","operator:wikidata":"Q1046186"}},"amenity/bank/f25812-894181":{"name":"Народный банк","locationSet":{"include":["kg","kz","uz"]},"geometry":["point","area"],"matchScore":2,"terms":["народный банк"],"tags":{"amenity":"bank","brand:wikidata":"Q1046186"},"addTags":{"amenity":"bank","brand":"Народный банк","brand:wikidata":"Q1046186","name":"Народный банк"}},"amenity/bar/coyoteugly-163d6e":{"name":"Coyote Ugly","locationSet":{"include":["de","gb","jp","kg","ru","us"]},"geometry":["point","area"],"matchScore":2,"terms":["coyote ugly saloon"],"fields":["name","brand","{amenity/bar}"],"tags":{"amenity":"bar","brand:wikidata":"Q4131558"},"addTags":{"amenity":"bar","brand":"Coyote Ugly Saloon","brand:wikidata":"Q4131558","name":"Coyote Ugly"}},"amenity/fuel/0b910f-bb6729":{"name":"Газпромнефть","locationSet":{"include":["by","kg","kz","ru","tj"]},"geometry":["point","area"],"matchScore":2,"terms":["газпром","газпромнефть"],"fields":["name","brand","{amenity/fuel}"],"tags":{"amenity":"fuel","brand:wikidata":"Q1461799"},"addTags":{"amenity":"fuel","brand":"Газпромнефть","brand:wikidata":"Q1461799","name":"Газпромнефть"}},"amenity/ice_cream/fd1d7e-3c9560":{"name":"33 пингвина","locationSet":{"include":["by","kg","kz","ru","uz"]},"geometry":["point","area"],"matchScore":2,"terms":["33 пингвина"],"tags":{"amenity":"ice_cream","brand:wikidata":"Q110147993"},"addTags":{"amenity":"ice_cream","brand":"33 пингвина","brand:wikidata":"Q110147993","name":"33 пингвина"}},"office/telecommunication/beeline-c5e7fc":{"name":"Билайн","locationSet":{"include":["ge","kg","kz","ru"]},"geometry":["point","area"],"matchScore":2,"terms":["beeline","билайн"],"tags":{"brand:wikidata":"Q402880","office":"telecommunication"},"addTags":{"brand":"Билайн","brand:en":"Beeline","brand:ru":"Билайн","brand:wikidata":"Q402880","name":"Билайн","name:en":"Beeline","name:ru":"Билайн","office":"telecommunication"}},"shop/clothes/sela-2d1caa":{"name":"Sela","locationSet":{"include":["kg","ru"]},"geometry":["point","area"],"matchScore":2,"terms":["sela"],"tags":{"brand:wikidata":"Q62075111","shop":"clothes"},"addTags":{"brand":"Sela","brand:wikidata":"Q62075111","name":"Sela","shop":"clothes"}},"shop/mobile_phone/beeline-3f097a":{"name":"Билайн","locationSet":{"include":["kg","kz","ru"]},"geometry":["point","area"],"matchScore":2,"terms":["beeline","билайн"],"tags":{"brand:wikidata":"Q402880","shop":"mobile_phone"},"addTags":{"brand":"Билайн","brand:en":"Beeline","brand:wikidata":"Q402880","name":"Билайн","name:en":"Beeline","shop":"mobile_phone"}}}