{"amenity/college/tafequeensland-fa7e1f":{"name":"TAFE Queensland","locationSet":{"include":["au-qld"]},"geometry":["area","point"],"matchScore":2,"terms":["tafe queensland"],"tags":{"amenity":"college","operator:wikidata":"Q18166659"},"addTags":{"amenity":"college","operator":"TAFE Queensland","operator:type":"government","operator:wikidata":"Q18166659"}},"amenity/library/brisbanecitycouncil-8e5058":{"name":"Brisbane City Council","locationSet":{"include":["au-qld"]},"geometry":["point","area"],"matchScore":2,"terms":["brisbane city council"],"tags":{"amenity":"library","operator:wikidata":"Q917682"},"addTags":{"amenity":"library","operator":"Brisbane City Council","operator:type":"government","operator:wikidata":"Q917682"}},"amenity/library/cityofmoretonbay-8e5058":{"name":"City of Moreton Bay","locationSet":{"include":["au-qld"]},"geometry":["point","area"],"matchScore":2,"terms":["city of moreton bay"],"tags":{"amenity":"library","operator:wikidata":"Q85372032"},"addTags":{"amenity":"library","operator":"City of Moreton Bay","operator:wikidata":"Q85372032"}},"amenity/police/queenslandpoliceservice-079051":{"name":"Queensland Police Service","locationSet":{"include":["au-qld"]},"geometry":["point","area"],"matchScore":2,"terms":["queensland police service"],"tags":{"amenity":"police","operator:wikidata":"Q7270980"},"addTags":{"amenity":"police","operator":"Queensland Police Service","operator:wikidata":"Q7270980"}},"amenity/school/brisbanecatholiceducation-37f40e":{"name":"Brisbane Catholic Education","locationSet":{"include":["au-qld"]},"geometry":["area","point"],"matchScore":2,"terms":["brisbane catholic education"],"tags":{"amenity":"school","operator:wikidata":"Q4968546"},"addTags":{"amenity":"school","operator":"Brisbane Catholic Education","operator:type":"religious","operator:wikidata":"Q4968546"}},"amenity/school/queenslanddepartmentofeducation-37f40e":{"name":"Department of Education (Queensland)","locationSet":{"include":["au-qld"]},"geometry":["area","point"],"matchScore":2,"terms":["department of education","education queensland","queensland department of education"],"tags":{"amenity":"school","operator:wikidata":"Q5260277"},"addTags":{"amenity":"school","operator":"Queensland Department of Education","operator:type":"public","operator:wikidata":"Q5260277"}},"amenity/school/independentschoolsqueensland-37f40e":{"name":"Independent Schools Queensland","locationSet":{"include":["au-qld"]},"geometry":["area","point"],"matchScore":2,"terms":["independent schools queensland"],"tags":{"amenity":"school","operator:wikidata":"Q70793767"},"addTags":{"amenity":"school","operator":"Independent Schools Queensland","operator:type":"private","operator:wikidata":"Q70793767"}},"amenity/ticket_validator/translink-2260c1":{"name":"Translink","locationSet":{"include":["au-qld"]},"geometry":["point"],"matchScore":2,"terms":["translink"],"tags":{"amenity":"ticket_validator","operator:wikidata":"Q7833625"},"addTags":{"amenity":"ticket_validator","operator":"Translink","operator:wikidata":"Q7833625"}},"amenity/vending_machine/public_transport_tickets/translink-b39439":{"name":"Translink","locationSet":{"include":["au-qld"]},"geometry":["point","vertex"],"matchScore":2,"terms":["translink"],"reference":{"key":"vending","value":"public_transport_tickets"},"tags":{"amenity":"vending_machine","operator:wikidata":"Q7833625","vending":"public_transport_tickets"},"addTags":{"amenity":"vending_machine","operator":"Translink","operator:wikidata":"Q7833625","payment:coins":"yes","payment:contactless":"yes","payment:credit_cards":"yes","payment:debit_cards":"yes","payment:notes":"yes","vending":"public_transport_tickets"}},"boundary/queenslandparksandwildlifeservice-223e1e":{"name":"Queensland Parks and Wildlife Service","locationSet":{"include":["au-qld"]},"geometry":["line"],"matchScore":2,"terms":["queensland parks and wildlife service"],"tags":{"boundary":"national_park","operator:wikidata":"Q2122615"},"addTags":{"boundary":"national_park","operator":"Queensland Parks and Wildlife Service","operator:wikidata":"Q2122615"}},"emergency/ambulance_station/queenslandambulanceservice-958c13":{"name":"Queensland Ambulance Service","locationSet":{"include":["au-qld"]},"geometry":["point","area"],"matchScore":2,"terms":["queensland ambulance service"],"tags":{"emergency":"ambulance_station","operator:wikidata":"Q7270899"},"addTags":{"emergency":"ambulance_station","operator":"Queensland Ambulance Service","operator:wikidata":"Q7270899"}},"leisure/nature_reserve/brisbanecitycouncil-aa8094":{"name":"Brisbane City Council","locationSet":{"include":["au-qld"]},"geometry":["area","point"],"matchScore":2,"terms":["brisbane city council"],"tags":{"leisure":"nature_reserve","operator:wikidata":"Q56477660"},"addTags":{"leisure":"nature_reserve","operator":"Brisbane City Council","operator:type":"government","operator:wikidata":"Q56477660"}},"leisure/nature_reserve/cityofmoretonbay-aa8094":{"name":"City of Moreton Bay","locationSet":{"include":["au-qld"]},"geometry":["area","point"],"matchScore":2,"terms":["city of moreton bay","moreton bay regional council"],"tags":{"leisure":"nature_reserve","operator:wikidata":"Q85372032"},"addTags":{"leisure":"nature_reserve","operator":"City of Moreton Bay","operator:type":"government","operator:wikidata":"Q85372032"}},"leisure/nature_reserve/goldcoastcitycouncil-aa8094":{"name":"GCCC","locationSet":{"include":["au-qld"]},"geometry":["area","point"],"matchScore":2,"terms":["gccc","gold coast city council"],"tags":{"leisure":"nature_reserve","operator:wikidata":"Q30267253"},"addTags":{"leisure":"nature_reserve","operator":"Gold Coast City Council","operator:short":"GCCC","operator:type":"government","operator:wikidata":"Q30267253"}},"leisure/nature_reserve/logancitycouncil-aa8094":{"name":"Logan City Council","locationSet":{"include":["au-qld"]},"geometry":["area","point"],"matchScore":2,"terms":["logan city council"],"tags":{"leisure":"nature_reserve","operator:wikidata":"Q30267313"},"addTags":{"leisure":"nature_reserve","operator":"Logan City Council","operator:type":"government","operator:wikidata":"Q30267313"}},"leisure/nature_reserve/sunshinecoastcouncil-aa8094":{"name":"Sunshine Coast Council","locationSet":{"include":["au-qld"]},"geometry":["area","point"],"matchScore":2,"terms":["sunshine coast council","sunshine coast regional council"],"tags":{"leisure":"nature_reserve","operator:wikidata":"Q56477664"},"addTags":{"leisure":"nature_reserve","operator":"Sunshine Coast Council","operator:type":"government","operator:wikidata":"Q56477664"}},"leisure/park/brisbanecitycouncil-f88a26":{"name":"Brisbane City Council","locationSet":{"include":["au-qld"]},"geometry":["area","point"],"matchScore":2,"terms":["brisbane city council"],"tags":{"leisure":"park","operator:wikidata":"Q56477660"},"addTags":{"leisure":"park","operator":"Brisbane City Council","operator:type":"government","operator:wikidata":"Q56477660"}},"leisure/park/cityofmoretonbay-f88a26":{"name":"City of Moreton Bay","locationSet":{"include":["au-qld"]},"geometry":["area","point"],"matchScore":2,"terms":["city of moreton bay","moreton bay regional council"],"tags":{"leisure":"park","operator:wikidata":"Q85372032"},"addTags":{"leisure":"park","operator":"City of Moreton Bay","operator:type":"government","operator:wikidata":"Q85372032"}},"leisure/park/goldcoastcitycouncil-f88a26":{"name":"GCCC","locationSet":{"include":["au-qld"]},"geometry":["area","point"],"matchScore":2,"terms":["gccc","gold coast city council"],"tags":{"leisure":"park","operator:wikidata":"Q30267253"},"addTags":{"leisure":"park","operator":"Gold Coast City Council","operator:short":"GCCC","operator:type":"government","operator:wikidata":"Q30267253"}},"leisure/park/logancitycouncil-f88a26":{"name":"Logan City Council","locationSet":{"include":["au-qld"]},"geometry":["area","point"],"matchScore":2,"terms":["logan city council"],"tags":{"leisure":"park","operator:wikidata":"Q30267313"},"addTags":{"leisure":"park","operator":"Logan City Council","operator:type":"government","operator:wikidata":"Q30267313"}},"leisure/park/sunshinecoastcouncil-f88a26":{"name":"Sunshine Coast Council","locationSet":{"include":["au-qld"]},"geometry":["area","point"],"matchScore":2,"terms":["sunshine coast council","sunshine coast regional council"],"tags":{"leisure":"park","operator:wikidata":"Q56477664"},"addTags":{"leisure":"park","operator":"Sunshine Coast Council","operator:type":"government","operator:wikidata":"Q56477664"}},"man_made/wastewater_plant/seqwater-b109db":{"name":"Seqwater","locationSet":{"include":["au-qld"]},"geometry":["point","area"],"matchScore":2,"terms":["seqwater"],"tags":{"man_made":"wastewater_plant","operator:wikidata":"Q7452585"},"addTags":{"man_made":"wastewater_plant","operator":"Seqwater","operator:wikidata":"Q7452585"}},"man_made/water_works/seqwater-10fc82":{"name":"Seqwater","locationSet":{"include":["au-qld"]},"geometry":["point","area"],"matchScore":2,"terms":["seqwater"],"tags":{"man_made":"water_works","operator:wikidata":"Q7452585"},"addTags":{"man_made":"water_works","operator":"Seqwater","operator:wikidata":"Q7452585"}},"power/substation/essentialenergy-b07c08":{"name":"Essential Energy","locationSet":{"include":["au-nsw","au-qld"]},"geometry":["area","point"],"matchScore":2,"terms":["essential energy"],"tags":{"operator:wikidata":"Q17003842","power":"substation"},"addTags":{"operator":"Essential Energy","operator:wikidata":"Q17003842","power":"substation"}},"power/transformer/essentialenergy-028f77":{"name":"Essential Energy","locationSet":{"include":["au-nsw","au-qld"]},"geometry":["point","vertex"],"matchScore":2,"terms":["essential energy"],"tags":{"operator:wikidata":"Q17003842","power":"transformer"},"addTags":{"operator":"Essential Energy","operator:wikidata":"Q17003842","power":"transformer"}},"public_transport/station_ferry/translink-be05d1":{"name":"RiverCity Ferries","locationSet":{"include":["au-qld"]},"geometry":["vertex","point","area"],"matchScore":2,"terms":["rivercity ferries","translink"],"reference":{"key":"amenity","value":"ferry_terminal"},"tags":{"ferry":"yes","network:wikidata":"Q7833625","public_transport":"station"},"addTags":{"amenity":"ferry_terminal","ferry":"yes","network":"Translink","network:wikidata":"Q7833625","operator":"RiverCity Ferries","operator:wikidata":"Q97194713","public_transport":"station"}},"public_transport/platform/bus_point/translink-965a17":{"name":"Translink (Queensland)","locationSet":{"include":["au-qld"]},"geometry":["point","vertex"],"matchScore":2,"terms":["translink","translink cairns","translink seq"],"reference":{"key":"public_transport","value":"platform"},"tags":{"bus":"yes","network:wikidata":"Q7833625","public_transport":"platform"},"addTags":{"bus":"yes","highway":"bus_stop","network":"Translink","network:wikidata":"Q7833625","public_transport":"platform"}},"railway/station/translink-1030fd":{"name":"Translink","locationSet":{"include":["au-qld"]},"geometry":["point","vertex","area"],"matchScore":2,"terms":["translink"],"tags":{"network:wikidata":"Q7833625","railway":"station"},"addTags":{"network":"Translink","network:wikidata":"Q7833625","public_transport":"station","railway":"station","train":"yes"}},"type/route/bus/translink-322d6c":{"name":"Translink (Queensland)","locationSet":{"include":["au-qld"]},"geometry":["relation"],"matchScore":2,"terms":["translink","translink cairns","translink seq"],"reference":{"key":"route","value":"bus"},"tags":{"network:wikidata":"Q7833625","route":"bus","type":"route"},"addTags":{"network":"Translink","network:wikidata":"Q7833625","route":"bus","type":"route"}},"type/route/ferry/translink-98c650":{"name":"RiverCity Ferries","locationSet":{"include":["au-qld"]},"geometry":["relation"],"matchScore":2,"terms":["rivercity ferries","translink"],"reference":{"key":"route","value":"ferry"},"tags":{"network:wikidata":"Q7833625","route":"ferry","type":"route"},"addTags":{"network":"Translink","network:wikidata":"Q7833625","operator":"RiverCity Ferries","operator:wikidata":"Q97194713","route":"ferry","type":"route"}},"route/ferry/translink-98c650":{"name":"RiverCity Ferries","locationSet":{"include":["au-qld"]},"geometry":["line"],"matchScore":2,"terms":["rivercity ferries","translink"],"tags":{"network:wikidata":"Q7833625","route":"ferry"},"addTags":{"network":"Translink","network:wikidata":"Q7833625","operator":"RiverCity Ferries","operator:wikidata":"Q97194713","route":"ferry"}},"type/route/light_rail/translink-24ef8b":{"name":"G:Link","locationSet":{"include":["au-qld"]},"geometry":["relation"],"matchScore":2,"terms":["keolis downer","translink"],"reference":{"key":"route","value":"light_rail"},"tags":{"network:wikidata":"Q7833625","route":"light_rail","type":"route"},"addTags":{"brand":"G:Link","brand:wikidata":"Q10329246","network":"Translink","network:wikidata":"Q7833625","operator":"Keolis Downer","operator:wikidata":"Q6328065","route":"light_rail","type":"route"}},"type/route/train/translink-53220b":{"name":"Translink","locationSet":{"include":["au-qld"]},"geometry":["relation"],"matchScore":2,"terms":["translink"],"reference":{"key":"route","value":"train"},"tags":{"network:wikidata":"Q7833625","route":"train","type":"route"},"addTags":{"network":"Translink","network:wikidata":"Q7833625","route":"train","type":"route"}}}