{"amenity/atm/bancoagrario-850243":{"name":"Banco Agrario","locationSet":{"include":["co"]},"geometry":["point","vertex"],"matchScore":2,"terms":["banco agrario","banco agrario de colombia"],"tags":{"amenity":"atm","brand:wikidata":"Q20013358"},"addTags":{"amenity":"atm","brand":"Banco Agrario","brand:wikidata":"Q20013358","name":"Banco Agrario","official_name":"Banco Agrario de Colombia","operator":"Banco Agrario","operator:wikidata":"Q20013358"}},"amenity/atm/bancoavvillas-850243":{"name":"Banco AV Villas","locationSet":{"include":["co"]},"geometry":["point","vertex"],"matchScore":2,"terms":["banco av villas"],"tags":{"amenity":"atm","brand:wikidata":"Q4854068"},"addTags":{"amenity":"atm","brand":"Banco AV Villas","brand:wikidata":"Q4854068","name":"Banco AV Villas","operator":"Banco AV Villas","operator:wikidata":"Q4854068"}},"amenity/atm/bancocajasocial-850243":{"name":"Banco Caja Social","locationSet":{"include":["co"]},"geometry":["point","vertex"],"matchScore":2,"terms":["banco caja social"],"tags":{"amenity":"atm","brand:wikidata":"Q5717869"},"addTags":{"amenity":"atm","brand":"Banco Caja Social","brand:wikidata":"Q5717869","name":"Banco Caja Social","operator":"Banco Caja Social","operator:wikidata":"Q5717869"}},"amenity/atm/bancodebogota-850243":{"name":"Banco de Bogotá","locationSet":{"include":["co"]},"geometry":["point","vertex"],"matchScore":2,"terms":["banco de bogotá"],"tags":{"amenity":"atm","brand:wikidata":"Q4854122"},"addTags":{"amenity":"atm","brand":"Banco de Bogotá","brand:wikidata":"Q4854122","name":"Banco de Bogotá","operator":"Banco de Bogotá","operator:wikidata":"Q4854122"}},"amenity/atm/bancodeoccidente-850243":{"name":"Banco de Occidente (Colombia)","locationSet":{"include":["co"]},"geometry":["point","vertex"],"matchScore":2,"terms":["banco de occidente"],"tags":{"amenity":"atm","brand:wikidata":"Q4854127"},"addTags":{"amenity":"atm","brand":"Banco de Occidente","brand:wikidata":"Q4854127","name":"Banco de Occidente","operator":"Banco de Occidente","operator:wikidata":"Q4854127"}},"amenity/atm/bancofalabella-b9bb6a":{"name":"Banco Falabella","locationSet":{"include":["cl","co","pe"]},"geometry":["point","vertex"],"matchScore":2,"terms":["banco falabella"],"tags":{"amenity":"atm","brand:wikidata":"Q4854088"},"addTags":{"amenity":"atm","brand":"Banco Falabella","brand:wikidata":"Q4854088","name":"Banco Falabella","operator":"Banco Falabella","operator:wikidata":"Q4854088"}},"amenity/atm/bancopichincha-89e930":{"name":"Banco Pichincha","locationSet":{"include":["co","ec","pe"]},"geometry":["point","vertex"],"matchScore":2,"terms":["banco pichincha"],"tags":{"amenity":"atm","brand:wikidata":"Q4854135"},"addTags":{"amenity":"atm","brand":"Banco Pichincha","brand:wikidata":"Q4854135","name":"Banco Pichincha","operator":"Banco Pichincha","operator:wikidata":"Q4854135"}},"amenity/atm/bancolombia-850243":{"name":"Bancolombia","locationSet":{"include":["co"]},"geometry":["point","vertex"],"matchScore":2,"terms":["bancolombia"],"tags":{"amenity":"atm","brand:wikidata":"Q806206"},"addTags":{"amenity":"atm","brand":"Bancolombia","brand:wikidata":"Q806206","name":"Bancolombia","operator":"Bancolombia","operator:wikidata":"Q806206"}},"amenity/atm/bnpparibas-6b438a":{"name":"BNP Paribas","locationSet":{"include":["ae","af","ar","at","bf","bg","bh","br","ca","ch","ci","cl","co","cz","de","dk","dz","es","fi","fr","gb","gf","gp","hu","ie","il","it","kw","lu","ma","ml","mq","mx","nl","no","pe","pt","qa","re","ro","ru","sa","se","sk","sn","tn","tr","us"]},"geometry":["point","vertex"],"matchScore":2,"terms":["bnp paribas"],"tags":{"amenity":"atm","brand:wikidata":"Q499707"},"addTags":{"amenity":"atm","brand":"BNP Paribas","brand:wikidata":"Q499707","name":"BNP Paribas","operator":"BNP Paribas","operator:wikidata":"Q499707"}},"amenity/atm/davivienda-ad7b0d":{"name":"Davivienda","locationSet":{"include":["co","cr","hn","pa","sv"]},"geometry":["point","vertex"],"matchScore":2,"terms":["banco davivienda","davivienda"],"tags":{"amenity":"atm","brand:wikidata":"Q5242054"},"addTags":{"amenity":"atm","brand":"Davivienda","brand:wikidata":"Q5242054","name":"Davivienda","operator":"Davivienda","operator:wikidata":"Q5242054"}},"amenity/bank/bancoagrario-d049bf":{"name":"Banco Agrario","locationSet":{"include":["co"]},"geometry":["point","area"],"matchScore":2,"terms":["banco agrario","banco agrario de colombia"],"tags":{"amenity":"bank","brand:wikidata":"Q20013358"},"addTags":{"amenity":"bank","brand":"Banco Agrario","brand:wikidata":"Q20013358","name":"Banco Agrario","official_name":"Banco Agrario de Colombia"}},"amenity/bank/bancoavvillas-d049bf":{"name":"Banco AV Villas","locationSet":{"include":["co"]},"geometry":["point","area"],"matchScore":2,"terms":["banco av villas"],"tags":{"amenity":"bank","brand:wikidata":"Q4854068"},"addTags":{"amenity":"bank","brand":"Banco AV Villas","brand:wikidata":"Q4854068","name":"Banco AV Villas"}},"amenity/bank/bancocajasocial-d049bf":{"name":"Banco Caja Social","locationSet":{"include":["co"]},"geometry":["point","area"],"matchScore":2,"terms":["banco caja social"],"tags":{"amenity":"bank","brand:wikidata":"Q5717869"},"addTags":{"amenity":"bank","brand":"Banco Caja Social","brand:wikidata":"Q5717869","name":"Banco Caja Social"}},"amenity/bank/bancodebogota-d049bf":{"name":"Banco de Bogotá","locationSet":{"include":["co"]},"geometry":["point","area"],"matchScore":2,"terms":["banco de bogotá"],"tags":{"amenity":"bank","brand:wikidata":"Q4854122"},"addTags":{"amenity":"bank","brand":"Banco de Bogotá","brand:wikidata":"Q4854122","name":"Banco de Bogotá"}},"amenity/bank/bancodeoccidente-d049bf":{"name":"Banco de Occidente (Colombia)","locationSet":{"include":["co"]},"geometry":["point","area"],"matchScore":2,"terms":["banco de occidente"],"tags":{"amenity":"bank","brand:wikidata":"Q4854127"},"addTags":{"amenity":"bank","brand":"Banco de Occidente","brand:wikidata":"Q4854127","name":"Banco de Occidente"}},"amenity/bank/bancofalabella-7e72a9":{"name":"Banco Falabella","locationSet":{"include":["cl","co","pe"]},"geometry":["point","area"],"matchScore":2,"terms":["banco falabella"],"tags":{"amenity":"bank","brand:wikidata":"Q4854088"},"addTags":{"amenity":"bank","brand":"Banco Falabella","brand:wikidata":"Q4854088","name":"Banco Falabella"}},"amenity/bank/bancopichincha-6de7b0":{"name":"Banco Pichincha","locationSet":{"include":["co","ec","pe"]},"geometry":["point","area"],"matchScore":2,"terms":["banco pichincha"],"tags":{"amenity":"bank","brand:wikidata":"Q4854135"},"addTags":{"amenity":"bank","brand":"Banco Pichincha","brand:wikidata":"Q4854135","name":"Banco Pichincha"}},"amenity/bank/bancolombia-d049bf":{"name":"Bancolombia","locationSet":{"include":["co"]},"geometry":["point","area"],"matchScore":2,"terms":["bancolombia"],"tags":{"amenity":"bank","brand:wikidata":"Q806206"},"addTags":{"amenity":"bank","brand":"Bancolombia","brand:wikidata":"Q806206","name":"Bancolombia"}},"amenity/bank/bnpparibas-42efac":{"name":"BNP Paribas","locationSet":{"include":["ae","af","ar","at","bf","bg","bh","br","ca","ch","ci","cl","co","cz","de","dk","dz","es","fi","fr","gb","gf","gp","hu","ie","il","it","kw","lu","ma","ml","mq","mx","nl","no","pe","pt","qa","re","ro","ru","sa","se","sk","sn","tn","tr","us"]},"geometry":["point","area"],"matchScore":2,"terms":["bnp paribas"],"tags":{"amenity":"bank","brand:wikidata":"Q499707"},"addTags":{"amenity":"bank","brand":"BNP Paribas","brand:wikidata":"Q499707","name":"BNP Paribas"}},"amenity/bank/davivienda-0357a0":{"name":"Davivienda","locationSet":{"include":["co","cr","hn","pa","sv"]},"geometry":["point","area"],"matchScore":2,"terms":["banco davivienda","davivienda"],"tags":{"amenity":"bank","brand:wikidata":"Q5242054"},"addTags":{"amenity":"bank","brand":"Davivienda","brand:wikidata":"Q5242054","name":"Davivienda"}},"amenity/bicycle_rental/encicla-2d08e5":{"name":"EnCicla","locationSet":{"include":["co"]},"geometry":["point","vertex","area"],"matchScore":2,"terms":["encicla"],"fields":["name","brand","{amenity/bicycle_rental}"],"tags":{"amenity":"bicycle_rental","brand:wikidata":"Q18644128"},"addTags":{"amenity":"bicycle_rental","brand":"EnCicla","brand:wikidata":"Q18644128","operator":"EnCicla"}},"amenity/cafe/coffee_shop/cafeoma-6b7f50":{"name":"Café OMA","locationSet":{"include":["co"]},"geometry":["point","area"],"matchScore":2,"terms":["café oma","oma"],"reference":{"key":"cuisine","value":"coffee_shop"},"tags":{"amenity":"cafe","brand:wikidata":"Q108929487","cuisine":"coffee_shop"},"addTags":{"amenity":"cafe","brand":"Café OMA","brand:wikidata":"Q108929487","cuisine":"coffee_shop","name":"Café OMA","takeaway":"yes"}},"amenity/cafe/coffee_shop/thecoffee-a48d6b":{"name":"The Coffee","locationSet":{"include":["br","co","es","fr","pt"]},"geometry":["point","area"],"matchScore":2,"terms":["the coffee"],"reference":{"key":"cuisine","value":"coffee_shop"},"tags":{"amenity":"cafe","brand:wikidata":"Q112042753","cuisine":"coffee_shop"},"addTags":{"amenity":"cafe","brand":"The Coffee","brand:wikidata":"Q112042753","cuisine":"coffee_shop","name":"The Coffee","takeaway":"yes"}},"amenity/cafe/coffee_shop/tostao-6b7f50":{"name":"Tostao\u2019","locationSet":{"include":["co"]},"geometry":["point","area"],"matchScore":2,"terms":["tostao\u2019","tostao\u2019 café & pan"],"reference":{"key":"cuisine","value":"coffee_shop"},"tags":{"amenity":"cafe","brand:wikidata":"Q60632476","cuisine":"coffee_shop"},"addTags":{"amenity":"cafe","brand":"Tostao\u2019","brand:wikidata":"Q60632476","cuisine":"coffee_shop","name":"Tostao\u2019","official_name":"TOSTAO\u2019 Café & Pan","takeaway":"yes"}},"amenity/casino/codere-3dfd07":{"name":"Codere","locationSet":{"include":["ar","co","es","it","mx","pa","uy"]},"geometry":["point","area"],"matchScore":2,"terms":["codere"],"tags":{"amenity":"casino","brand:wikidata":"Q2918415"},"addTags":{"amenity":"casino","brand":"Codere","brand:wikidata":"Q2918415","name":"Codere"}},"amenity/fast_food/burger/elcorral-9bc101":{"name":"El Corral","locationSet":{"include":["co"]},"geometry":["point","area"],"matchScore":2,"terms":["el corral","hamburguesas el corral"],"reference":{"key":"cuisine","value":"burger"},"tags":{"amenity":"fast_food","brand:wikidata":"Q4703422","cuisine":"burger"},"addTags":{"amenity":"fast_food","brand":"El Corral","brand:wikidata":"Q4703422","cuisine":"burger","name":"El Corral","official_name":"Hamburguesas El Corral","takeaway":"yes"}},"amenity/fast_food/burger/fasfuburgers-d62fc7":{"name":"Fasfú Burgers","locationSet":{"include":["co","es","mx","pe"]},"geometry":["point","area"],"matchScore":2,"terms":["fasf","fasfú burgers"],"reference":{"key":"cuisine","value":"burger"},"tags":{"amenity":"fast_food","brand:wikidata":"Q109324172","cuisine":"burger"},"addTags":{"amenity":"fast_food","brand":"Fasfú Burgers","brand:wikidata":"Q109324172","cuisine":"burger","delivery":"yes","name":"Fasfú Burgers","takeaway":"yes"}},"amenity/fast_food/chicken/frisby-9bc101":{"name":"Frisby","locationSet":{"include":["co"]},"geometry":["point","area"],"matchScore":2,"terms":["frisby"],"reference":{"key":"cuisine","value":"chicken"},"tags":{"amenity":"fast_food","brand:wikidata":"Q7225732","cuisine":"chicken"},"addTags":{"amenity":"fast_food","brand":"Frisby","brand:wikidata":"Q7225732","cuisine":"chicken","delivery":"yes","name":"Frisby","takeaway":"yes"}},"amenity/fast_food/pizza/jenospizza-9bc101":{"name":"Jeno's Pizza","locationSet":{"include":["co"]},"geometry":["point","area"],"matchScore":2,"terms":["jeno's pizza"],"reference":{"key":"cuisine","value":"pizza"},"tags":{"amenity":"fast_food","brand:wikidata":"Q4269128","cuisine":"pizza"},"addTags":{"amenity":"fast_food","brand":"Jeno's Pizza","brand:wikidata":"Q4269128","cuisine":"pizza","name":"Jeno's Pizza","takeaway":"yes"}},"amenity/fast_food/chicken/kokoriko-9bc101":{"name":"Kokoriko","locationSet":{"include":["co"]},"geometry":["point","area"],"matchScore":2,"terms":["kokoriko"],"reference":{"key":"cuisine","value":"chicken"},"tags":{"amenity":"fast_food","brand:wikidata":"Q99433560","cuisine":"chicken"},"addTags":{"amenity":"fast_food","brand":"Kokoriko","brand:wikidata":"Q99433560","cuisine":"chicken","name":"Kokoriko","takeaway":"yes"}},"amenity/fast_food/oakberryacaibowls-df46eb":{"name":"Oakberry Açaí bowls","locationSet":{"include":["ae","au","bh","br","ch","cl","co","de","es","gr","hr","il","mt","mx","pe","pt","py","sa","th","us"]},"geometry":["point","area"],"matchScore":2,"terms":["oakberry açaí bowls"],"tags":{"amenity":"fast_food","brand:wikidata":"Q104870840"},"addTags":{"amenity":"fast_food","brand":"Oakberry Açaí bowls","brand:wikidata":"Q104870840","cuisine":"açaí","name":"Oakberry Açaí bowls","takeaway":"yes"}},"amenity/fast_food/sandwich/sandwichqbano-9bc101":{"name":"Sándwich Qbano","locationSet":{"include":["co"]},"geometry":["point","area"],"matchScore":2,"terms":["sandwich cubano","sándwich qbano"],"reference":{"key":"cuisine","value":"sandwich"},"tags":{"amenity":"fast_food","brand:wikidata":"Q20022286","cuisine":"sandwich"},"addTags":{"amenity":"fast_food","brand":"Sándwich Qbano","brand:wikidata":"Q20022286","cuisine":"sandwich","name":"Sándwich Qbano","takeaway":"yes"}},"amenity/fuel/biomax-a98521":{"name":"Biomax","locationSet":{"include":["co"]},"geometry":["point","area"],"matchScore":2,"terms":["biomax"],"fields":["name","brand","{amenity/fuel}"],"tags":{"amenity":"fuel","brand:wikidata":"Q62274413"},"addTags":{"amenity":"fuel","brand":"Biomax","brand:wikidata":"Q62274413","name":"Biomax"}},"amenity/fuel/gazel-419915":{"name":"Gazel","locationSet":{"include":["co","mx","pe"]},"geometry":["point","area"],"matchScore":2,"terms":["gazel"],"fields":["name","brand","{amenity/fuel}"],"tags":{"amenity":"fuel","brand:wikidata":"Q62529885"},"addTags":{"amenity":"fuel","brand":"Gazel","brand:wikidata":"Q62529885","name":"Gazel"}},"amenity/fuel/terpel-23f925":{"name":"Terpel","locationSet":{"include":["cl","co","do","ec","mx","pa"]},"geometry":["point","area"],"matchScore":2,"terms":["terpel"],"fields":["name","brand","{amenity/fuel}"],"tags":{"amenity":"fuel","brand:wikidata":"Q7703003"},"addTags":{"amenity":"fuel","brand":"Terpel","brand:wikidata":"Q7703003","name":"Terpel"}},"amenity/ice_cream/llaollao-dd9462":{"name":"Llaollao","locationSet":{"include":["au","ch","cl","co","ec","es","fr","gt","hr","id","iq","kw","ma","my","ph","pt","sa","sg","si","sv","us","vn"]},"geometry":["point","area"],"matchScore":2,"terms":["llaollao"],"tags":{"amenity":"ice_cream","brand:wikidata":"Q12163048"},"addTags":{"amenity":"ice_cream","brand":"Llaollao","brand:wikidata":"Q12163048","cuisine":"frozen_yogurt","name":"Llaollao"}},"amenity/ice_cream/popsy-d81526":{"name":"Popsy","locationSet":{"include":["co"]},"geometry":["point","area"],"matchScore":2,"terms":["heladeria popsi","heladeria popsy","helados gourmet popsy","popsi","popsy","potsi"],"tags":{"amenity":"ice_cream","brand:wikidata":"Q100156171"},"addTags":{"amenity":"ice_cream","brand":"Popsy","brand:wikidata":"Q100156171","cuisine":"ice_cream","name":"Popsy","official_name":"Helados Gourmet Popsy","takeaway":"yes"}},"amenity/music_school/schoolofrock-4e6205":{"name":"School of Rock","locationSet":{"include":["au","br","ca","cl","co","es","mx","pe","ph","py","tw","us","za"]},"geometry":["point","area"],"matchScore":2,"terms":["school of rock"],"fields":["name","brand","{amenity/music_school}"],"tags":{"amenity":"music_school","brand:wikidata":"Q7756376"},"addTags":{"amenity":"music_school","brand":"School of Rock","brand:wikidata":"Q7756376","name":"School of Rock"}},"amenity/pharmacy/farmacenter-e95dde":{"name":"Farmacenter (Colombia)","locationSet":{"include":["co"]},"geometry":["point","area"],"matchScore":2,"terms":["farmacenter"],"reference":{"key":"amenity","value":"pharmacy"},"tags":{"amenity":"pharmacy","brand:wikidata":"Q62563928"},"addTags":{"amenity":"pharmacy","brand":"Farmacenter","brand:wikidata":"Q62563928","healthcare":"pharmacy","name":"Farmacenter"}},"amenity/pharmacy/puntofarma-e95dde":{"name":"Punto Farma (Colombia)","locationSet":{"include":["co"]},"geometry":["point","area"],"matchScore":2,"terms":["punto farma"],"reference":{"key":"amenity","value":"pharmacy"},"tags":{"amenity":"pharmacy","brand:wikidata":"Q62595271"},"addTags":{"amenity":"pharmacy","brand":"Punto Farma","brand:wikidata":"Q62595271","healthcare":"pharmacy","name":"Punto Farma"}},"amenity/restaurant/seafood/bubbagumpshrimpcompany-90d54f":{"name":"Bubba Gump Shrimp Company","locationSet":{"include":["ca","co","gb","hk","id","jp","mp","mx","ph","us"]},"geometry":["point","area"],"matchScore":2,"terms":["bubba gump shrimp company"],"reference":{"key":"cuisine","value":"seafood"},"tags":{"amenity":"restaurant","brand:wikidata":"Q50024","cuisine":"seafood"},"addTags":{"amenity":"restaurant","brand":"Bubba Gump Shrimp Company","brand:wikidata":"Q50024","cuisine":"seafood","name":"Bubba Gump Shrimp Company"}},"amenity/restaurant/crepesandwaffles-7b5290":{"name":"Crepes & Waffles","locationSet":{"include":["br","cl","co","ec","es","mx","pa","pe","ve"]},"geometry":["point","area"],"matchScore":2,"terms":["crepes & waffles"],"tags":{"amenity":"restaurant","brand:wikidata":"Q5184238"},"addTags":{"alt_name":"Crepes & Waffles","amenity":"restaurant","brand":"Crepes & Waffles","brand:wikidata":"Q5184238","cuisine":"crepe;ice_cream","name":"Crepes & Waffles"}},"emergency/ambulance_station/cruzrojacolombiana-5927df":{"name":"Cruz Roja Colombiana","locationSet":{"include":["co"]},"geometry":["point","area"],"matchScore":2,"terms":["crc","cruz roja","cruz roja colombiana"],"fields":["name","brand","{emergency/ambulance_station}"],"tags":{"brand:wikidata":"Q5147946","emergency":"ambulance_station"},"addTags":{"brand":"Cruz Roja Colombiana","brand:wikidata":"Q5147946","emergency":"ambulance_station","name":"Cruz Roja Colombiana"}},"leisure/fitness_centre/bodytech-526e49":{"name":"Bodytech","locationSet":{"include":["cl","co","pe"]},"geometry":["point","area"],"matchScore":2,"terms":["boditech","bodytech","bodytek"],"tags":{"brand:wikidata":"Q16538274","leisure":"fitness_centre"},"addTags":{"brand":"Bodytech","brand:wikidata":"Q16538274","leisure":"fitness_centre","name":"Bodytech"}},"leisure/fitness_centre/smartfit-cd44e6":{"name":"Smart Fit","locationSet":{"include":["br","cl","co","do","mx","pe"]},"geometry":["point","area"],"matchScore":2,"terms":["smart fit"],"tags":{"brand:wikidata":"Q30930959","leisure":"fitness_centre"},"addTags":{"brand":"Smart Fit","brand:wikidata":"Q30930959","leisure":"fitness_centre","name":"Smart Fit"}},"leisure/trampoline_park/skyzone-746047":{"name":"Sky Zone","locationSet":{"include":["ae","ca","co","gb","gt","in","mx","no","om","pk","sa","us"]},"geometry":["point","area"],"matchScore":2,"terms":["sky zone"],"tags":{"brand:wikidata":"Q7537557","leisure":"trampoline_park"},"addTags":{"brand":"Sky Zone","brand:wikidata":"Q7537557","leisure":"trampoline_park","name":"Sky Zone"}},"office/insurance/allianz-332499":{"name":"Allianz","locationSet":{"include":["ae","ar","at","au","be","bg","bh","bm","bn","br","ca","cg","ch","ci","cm","cn","co","cy","cz","de","dk","ee","eg","es","fi","fr","gb","gf","gg","gh","gp","gr","hk","hr","hu","id","ie","in","is","it","ja","ke","kr","kw","la","li","lk","lt","lu","lv","ma","mg","mx","my","ng","nl","no","nz","om","ph","pk","pl","pt","qa","ro","ru","sa","se","sg","si","sk","sn","th","tr","tw","ua","us","za"]},"geometry":["point","area"],"matchScore":2,"terms":["allianz"],"fields":["name","brand","{office/insurance}"],"tags":{"brand:wikidata":"Q487292","office":"insurance"},"addTags":{"brand":"Allianz","brand:wikidata":"Q487292","name":"Allianz","office":"insurance"}},"office/insurance/axa-2e7672":{"name":"AXA","locationSet":{"include":["ae","ar","au","be","bh","bm","br","ca","ch","ci","cl","cm","cn","co","cz","de","dk","dz","eg","es","fi","fr","ga","gb","gr","hk","id","ie","in","it","jp","kr","lb","lu","ma","mu","mx","my","ng","nl","no","om","pa","pe","ph","pl","pt","qa","sa","se","sg","sk","sn","th","tr","tw","us"]},"geometry":["point","area"],"matchScore":2,"terms":["axa"],"fields":["name","brand","{office/insurance}"],"tags":{"brand:wikidata":"Q160054","office":"insurance"},"addTags":{"brand":"AXA","brand:wikidata":"Q160054","name":"AXA","office":"insurance"}},"office/insurance/zurich-2d6c95":{"name":"Zurich","locationSet":{"include":["ae","at","au","be","bh","br","ca","ch","cl","cn","co","de","ec","es","fi","fr","gb","hk","id","ie","it","ja","kw","lb","li","lu","mx","my","nl","no","nz","om","pt","qa","se","sg","sk","tr","us"]},"geometry":["point","area"],"matchScore":2,"terms":["zurich"],"fields":["name","brand","{office/insurance}"],"tags":{"brand:wikidata":"Q230426","office":"insurance"},"addTags":{"brand":"Zurich","brand:wikidata":"Q230426","name":"Zurich","office":"insurance"}},"shop/beauty/espacolaser-751030":{"name":"Espaçolaser","locationSet":{"include":["br","co"]},"geometry":["point","area"],"matchScore":2,"terms":["espaçolaser"],"tags":{"brand:wikidata":"Q112326409","shop":"beauty"},"addTags":{"beauty":"hair_removal","brand":"Espaçolaser","brand:wikidata":"Q112326409","name":"Espaçolaser","shop":"beauty"}},"shop/bookmaker/tipico-7054e9":{"name":"Tipico","locationSet":{"include":["at","co","de","gi","hr","mt"]},"geometry":["point","area"],"matchScore":2,"terms":["tipico"],"tags":{"brand:wikidata":"Q15851003","shop":"bookmaker"},"addTags":{"brand":"Tipico","brand:wikidata":"Q15851003","name":"Tipico","shop":"bookmaker"}},"shop/convenience/oxxo-8364f9":{"name":"Oxxo","locationSet":{"include":["br","cl","co","cr","mx","pe","us"]},"geometry":["point","area"],"matchScore":2,"terms":["oxxo"],"tags":{"brand:wikidata":"Q1342538","shop":"convenience"},"addTags":{"brand":"Oxxo","brand:wikidata":"Q1342538","name":"Oxxo","shop":"convenience"}},"shop/department_store/exito-96a609":{"name":"Éxito","locationSet":{"include":["co"]},"geometry":["point","area"],"matchScore":2,"terms":["éxito"],"tags":{"brand:wikidata":"Q106463667","shop":"department_store"},"addTags":{"brand":"Éxito","brand:wikidata":"Q106463667","name":"Éxito","shop":"department_store"}},"shop/department_store/falabella-f2bfac":{"name":"Falabella","locationSet":{"include":["ar","cl","co","pe"]},"geometry":["point","area"],"matchScore":2,"terms":["falabella","saga falabella"],"tags":{"brand:wikidata":"Q5135229","shop":"department_store"},"addTags":{"brand":"Falabella","brand:wikidata":"Q5135229","name":"Falabella","shop":"department_store"}},"shop/doityourself/easy-063ae0":{"name":"Easy","locationSet":{"include":["ar","cl","co"]},"geometry":["point","area"],"matchScore":2,"terms":["easy"],"tags":{"brand:wikidata":"Q5331091","shop":"doityourself"},"addTags":{"brand":"Easy","brand:wikidata":"Q5331091","name":"Easy","shop":"doityourself"}},"shop/doityourself/sodimac-0b4811":{"name":"Sodimac","locationSet":{"include":["ar","br","cl","co","mx","pe","uy"]},"geometry":["point","area"],"matchScore":2,"terms":["sodimac","sodimac constructor"],"tags":{"brand:wikidata":"Q7553274","shop":"doityourself"},"addTags":{"brand":"Sodimac","brand:wikidata":"Q7553274","name":"Sodimac","shop":"doityourself"}},"shop/electronics/steren-21e489":{"name":"Steren","locationSet":{"include":["co","cr","do","gt","mx"]},"geometry":["point","area"],"matchScore":2,"terms":["steren"],"tags":{"brand:wikidata":"Q5829102","shop":"electronics"},"addTags":{"brand":"Steren","brand:wikidata":"Q5829102","name":"Steren","shop":"electronics"}},"shop/fashion_accessories/chillibeans-a3a9e0":{"name":"Chilli Beans","locationSet":{"include":["br","co","kw","pe","pt","us"]},"geometry":["point","area"],"matchScore":2,"terms":["chilli beans"],"tags":{"brand:wikidata":"Q18463851","shop":"fashion_accessories"},"addTags":{"brand":"Chilli Beans","brand:wikidata":"Q18463851","name":"Chilli Beans","shop":"fashion_accessories"}},"shop/hearing_aids/gaes-681898":{"name":"GAES","locationSet":{"include":["ar","cl","co","ec","es","mx","pa"]},"geometry":["point","area"],"matchScore":2,"terms":["gaes"],"tags":{"brand:wikidata":"Q98492565","shop":"hearing_aids"},"addTags":{"brand":"GAES","brand:wikidata":"Q98492565","name":"GAES","shop":"hearing_aids"}},"shop/leather/velez-38a801":{"name":"Vélez","locationSet":{"include":["co"]},"geometry":["point","area"],"matchScore":2,"terms":["vélez"],"tags":{"brand:wikidata":"Q96246029","shop":"leather"},"addTags":{"brand":"Vélez","brand:wikidata":"Q96246029","name":"Vélez","shop":"leather"}},"shop/mobile_phone/claro-1c9651":{"name":"Claro","locationSet":{"include":["ar","br","cl","co","cr","do","ec","gt","hn","ni","pa","pe","pr","py","sv","uy"]},"geometry":["point","area"],"matchScore":2,"terms":["claro"],"tags":{"brand:wikidata":"Q1770208","shop":"mobile_phone"},"addTags":{"brand":"Claro","brand:wikidata":"Q1770208","name":"Claro","shop":"mobile_phone"}},"shop/mobile_phone/movistar-acd455":{"name":"Movistar","locationSet":{"include":["ar","cl","co","cr","ec","gt","mx","ni","pa","pe","sv","uy","ve"]},"geometry":["point","area"],"matchScore":2,"terms":["movistar"],"tags":{"brand:wikidata":"Q967735","shop":"mobile_phone"},"addTags":{"brand":"Movistar","brand:wikidata":"Q967735","name":"Movistar","shop":"mobile_phone"}},"shop/supermarket/ara-271a34":{"name":"Ara","locationSet":{"include":["co"]},"geometry":["point","area"],"matchScore":2,"terms":["ara"],"tags":{"brand:wikidata":"Q63148677","shop":"supermarket"},"addTags":{"brand":"Ara","brand:wikidata":"Q63148677","name":"Ara","shop":"supermarket"}},"shop/supermarket/carulla-271a34":{"name":"Carulla","locationSet":{"include":["co"]},"geometry":["point","area"],"matchScore":2,"terms":["carulla"],"tags":{"brand:wikidata":"Q5047480","shop":"supermarket"},"addTags":{"brand":"Carulla","brand:wikidata":"Q5047480","name":"Carulla","shop":"supermarket"}},"shop/supermarket/d1-271a34":{"name":"D1","locationSet":{"include":["co"]},"geometry":["point","area"],"matchScore":2,"terms":["d1"],"tags":{"brand:wikidata":"Q43403418","shop":"supermarket"},"addTags":{"brand":"D1","brand:wikidata":"Q43403418","name":"D1","shop":"supermarket"}},"shop/supermarket/olimpica-271a34":{"name":"Olímpica","locationSet":{"include":["co"]},"geometry":["point","area"],"matchScore":2,"terms":["olímpica"],"tags":{"brand:wikidata":"Q24749847","shop":"supermarket"},"addTags":{"brand":"Olímpica","brand:wikidata":"Q24749847","name":"Olímpica","shop":"supermarket"}},"shop/tool_hire/loxam-33fef8":{"name":"Loxam","locationSet":{"include":["ae","be","bh","br","ch","co","cz","de","dk","ee","es","fi","fr","gb","ie","it","kw","lt","lu","lv","ma","nl","no","om","pl","pt","qa","sa","se","sk"]},"geometry":["point","area"],"matchScore":2,"terms":["loxam"],"tags":{"brand:wikidata":"Q3264407","shop":"tool_hire"},"addTags":{"brand":"Loxam","brand:wikidata":"Q3264407","name":"Loxam","shop":"tool_hire"}},"tourism/hotel/cityexpress-c4ac5a":{"name":"City Express","locationSet":{"include":["cl","co","cr","mx"]},"geometry":["point","area"],"matchScore":2,"terms":["city express"],"fields":["name","brand","{tourism/hotel}"],"tags":{"brand:wikidata":"Q109329542","tourism":"hotel"},"addTags":{"brand":"City Express","brand:wikidata":"Q109329542","name":"City Express","tourism":"hotel"}},"tourism/hotel/laquintainn-a0e6b5":{"name":"La Quinta Inn","locationSet":{"include":["ca","cl","co","hn","mx","us"]},"geometry":["point","area"],"matchScore":2,"terms":["la quinta","la quinta inn","la quinta inn by wyndham"],"fields":["name","brand","{tourism/hotel}"],"tags":{"brand:wikidata":"Q6464734","tourism":"hotel"},"addTags":{"brand":"La Quinta Inn","brand:wikidata":"Q6464734","name":"La Quinta Inn","official_name":"La Quinta Inn by Wyndham","tourism":"hotel"}},"tourism/hotel/nhcollectionhotels-f05c75":{"name":"NH Collection Hotels","locationSet":{"include":["ad","ar","at","be","cl","co","cu","cz","de","dk","ec","es","fr","hu","it","mx","nl","pt","qa","us-ny"]},"geometry":["point","area"],"matchScore":2,"terms":["nh collection hotels"],"fields":["name","brand","{tourism/hotel}"],"tags":{"brand:wikidata":"Q1604631","tourism":"hotel"},"addTags":{"brand":"NH Collection Hotels","brand:wikidata":"Q1604631","name":"NH Collection Hotels","tourism":"hotel"}},"tourism/hotel/nhhotel-e9b4fb":{"name":"NH Hotels","locationSet":{"include":["ad","ar","at","be","br","ch","cl","co","cu","cz","de","es","fr","hu","it","lu","mx","nl","pl","pt"]},"geometry":["point","area"],"matchScore":2,"terms":["nh hotels"],"fields":["name","brand","{tourism/hotel}"],"tags":{"brand:wikidata":"Q1604631","tourism":"hotel"},"addTags":{"brand":"NH Hotels","brand:wikidata":"Q1604631","name":"NH Hotel","tourism":"hotel"}},"tourism/hotel/sonesta-690134":{"name":"Sonesta","locationSet":{"include":["ca","cl","co","ec","eg","pe","sx","us"]},"geometry":["point","area"],"matchScore":2,"terms":["sonesta","sonesta hotel"],"fields":["name","brand","{tourism/hotel}"],"tags":{"brand:wikidata":"Q81003878","tourism":"hotel"},"addTags":{"alt_name":"Sonesta Hotel","brand":"Sonesta","brand:wikidata":"Q81003878","name":"Sonesta","tourism":"hotel"}},"amenity/childcare/icbf-6a04ca":{"name":"ICBF","locationSet":{"include":["co"]},"geometry":["point","area"],"matchScore":2,"terms":["icbf"],"tags":{"amenity":"childcare","operator:wikidata":"Q5917268"},"addTags":{"amenity":"childcare","operator":"ICBF","operator:wikidata":"Q5917268"}},"amenity/hospital/cruzroja-16e9ec":{"name":"Cruz Roja","locationSet":{"include":["ar","cl","co","es","mx"]},"geometry":["area","point"],"matchScore":2,"terms":["cruz roja"],"fields":["name","operator","{amenity/hospital}"],"reference":{"key":"amenity","value":"hospital"},"tags":{"amenity":"hospital","operator:wikidata":"Q7178"},"addTags":{"amenity":"hospital","healthcare":"hospital","name":"Cruz Roja","operator":"Cruz Roja","operator:wikidata":"Q7178"}},"amenity/hospital/ministeriodesaludyproteccionsocial-d793a3":{"name":"Ministerio de Salud y Protección Social (Colombia)","locationSet":{"include":["co"]},"geometry":["area","point"],"matchScore":2,"terms":["ministerio de salud","ministerio de salud y protección social","minsalud"],"fields":["name","operator","{amenity/hospital}"],"reference":{"key":"amenity","value":"hospital"},"tags":{"amenity":"hospital","operator:wikidata":"Q6867116"},"addTags":{"amenity":"hospital","healthcare":"hospital","operator":"Ministerio de Salud y Protección Social","operator:short":"MinSalud","operator:wikidata":"Q6867116"}},"amenity/police/policianacionaldecolombia-057a57":{"name":"Policía Nacional de Colombia","locationSet":{"include":["co"]},"geometry":["point","area"],"matchScore":2,"terms":["ministerio de defensa","policia nacional","policía nacional de colombia"],"tags":{"amenity":"police","operator:wikidata":"Q3394180"},"addTags":{"amenity":"police","operator":"Policía Nacional de Colombia","operator:wikidata":"Q3394180"}},"amenity/post_box/472-3eebd4":{"name":"4-72","locationSet":{"include":["co"]},"geometry":["point","vertex"],"matchScore":2,"terms":["4-72","servicios postales nacionales","servicios postales nacionales s.a."],"tags":{"amenity":"post_box","operator:wikidata":"Q85800448"},"addTags":{"amenity":"post_box","official_name":"Servicios Postales Nacionales","operator":"4-72","operator:wikidata":"Q85800448"}},"amenity/post_box/coordinadora-3eebd4":{"name":"Coordinadora","locationSet":{"include":["co"]},"geometry":["point","vertex"],"matchScore":2,"terms":["coordinadora","coordinadora mercantil s.a."],"tags":{"amenity":"post_box","operator:wikidata":"Q109252162"},"addTags":{"amenity":"post_box","official_name":"Coordinadora Mercantil S.A.","operator":"Coordinadora","operator:wikidata":"Q109252162"}},"amenity/post_box/servientrega-3eebd4":{"name":"Servientrega","locationSet":{"include":["co"]},"geometry":["point","vertex"],"matchScore":2,"terms":["servientrega"],"tags":{"amenity":"post_box","operator:wikidata":"Q96094519"},"addTags":{"amenity":"post_box","operator":"Servientrega","operator:wikidata":"Q96094519"}},"amenity/post_box/tcc-3eebd4":{"name":"TCC","locationSet":{"include":["co"]},"geometry":["point","vertex"],"matchScore":2,"terms":["tcc","transcomerco"],"tags":{"amenity":"post_box","operator:wikidata":"Q27968821"},"addTags":{"amenity":"post_box","old_name":"Transcomerco","operator":"TCC","operator:wikidata":"Q27968821","short_name":"TCC"}},"amenity/post_office/472-754eb3":{"name":"4-72","locationSet":{"include":["co"]},"geometry":["point","area"],"matchScore":2,"terms":["4-72","servicios postales nacionales","servicios postales nacionales s.a."],"fields":["name","operator","{amenity/post_office}"],"tags":{"amenity":"post_office","operator:wikidata":"Q85800448"},"addTags":{"amenity":"post_office","official_name":"Servicios Postales Nacionales","operator":"4-72","operator:wikidata":"Q85800448"}},"amenity/post_office/coordinadora-754eb3":{"name":"Coordinadora","locationSet":{"include":["co"]},"geometry":["point","area"],"matchScore":2,"terms":["coordinadora","coordinadora mercantil s.a."],"fields":["name","operator","{amenity/post_office}"],"tags":{"amenity":"post_office","operator:wikidata":"Q109252162"},"addTags":{"amenity":"post_office","official_name":"Coordinadora Mercantil S.A.","operator":"Coordinadora","operator:wikidata":"Q109252162"}},"amenity/post_office/servientrega-754eb3":{"name":"Servientrega","locationSet":{"include":["co"]},"geometry":["point","area"],"matchScore":2,"terms":["servientrega"],"fields":["name","operator","{amenity/post_office}"],"tags":{"amenity":"post_office","operator:wikidata":"Q96094519"},"addTags":{"amenity":"post_office","operator":"Servientrega","operator:wikidata":"Q96094519"}},"amenity/post_office/tcc-754eb3":{"name":"TCC","locationSet":{"include":["co"]},"geometry":["point","area"],"matchScore":2,"terms":["tcc","transcomerco"],"fields":["name","operator","{amenity/post_office}"],"tags":{"amenity":"post_office","operator:wikidata":"Q27968821"},"addTags":{"amenity":"post_office","old_name":"Transcomerco","operator":"TCC","operator:wikidata":"Q27968821","short_name":"TCC"}},"amenity/telephone/claro-6490cd":{"name":"Claro","locationSet":{"include":["ai","ag","aw","bs","bb","bq","vg","ky","cu","cw","dm","do","gd","gp","ht","jm","mq","ms","pr","bl","kn","lc","mf","vc","sx","tt","tc","vi","bz","cr","sv","gt","hn","mx","ni","pa","ar","bo","bv","br","cl","co","ec","fk","gf","gy","py","pe","gs","sr","uy","ve"]},"geometry":["point","vertex"],"matchScore":2,"terms":["claro"],"fields":["name","operator","{amenity/telephone}"],"tags":{"amenity":"telephone","operator:wikidata":"Q1770208"},"addTags":{"amenity":"telephone","operator":"Claro","operator:wikidata":"Q1770208"}},"amenity/telephone/tigo-9cae6a":{"name":"Tigo","locationSet":{"include":["co"]},"geometry":["point","vertex"],"matchScore":2,"terms":["tigo","une"],"fields":["name","operator","{amenity/telephone}"],"tags":{"amenity":"telephone","operator:wikidata":"Q6155026"},"addTags":{"amenity":"telephone","operator":"Tigo","operator:wikidata":"Q6155026"}},"boundary/parquesnacionalesnaturales-570342":{"name":"Parques Nacionales Naturales","locationSet":{"include":["co"]},"geometry":["line"],"matchScore":2,"terms":["parques nacionales naturales"],"tags":{"boundary":"protected_area","operator:wikidata":"Q17081594"},"addTags":{"boundary":"protected_area","operator":"Parques Nacionales Naturales","operator:wikidata":"Q17081594"}},"leisure/nature_reserve/institutodistritalderecreacionydeporteidrd-7274bc":{"name":"Instituto Distrital de Recreación y Deporte (IDRD)","locationSet":{"include":["co"]},"geometry":["area","point"],"matchScore":2,"terms":["instituto distrital de recreación y deporte (idrd)"],"tags":{"leisure":"nature_reserve","operator:wikidata":"Q28500979"},"addTags":{"leisure":"nature_reserve","operator":"Instituto Distrital de Recreación y Deporte (IDRD)","operator:type":"public","operator:wikidata":"Q28500979"}},"leisure/park/institutodistritalderecreacionydeporteidrd-e0463d":{"name":"Instituto Distrital de Recreación y Deporte (IDRD)","locationSet":{"include":["co"]},"geometry":["area","point"],"matchScore":2,"terms":["instituto distrital de recreación y deporte (idrd)"],"tags":{"leisure":"park","operator:wikidata":"Q28500979"},"addTags":{"leisure":"park","operator":"Instituto Distrital de Recreación y Deporte (IDRD)","operator:type":"public","operator:wikidata":"Q28500979"}},"power/plant/epm-eb9540":{"name":"Empresas Públicas de Medellín","locationSet":{"include":["co"]},"geometry":["area"],"matchScore":2,"terms":["empresas públicas de medellín","epm"],"tags":{"operator:wikidata":"Q3053381","power":"plant"},"addTags":{"operator":"EPM","operator:short":"Empresas Públicas de Medellín","operator:wikidata":"Q3053381","power":"plant"}},"public_transport/platform/bus_point/sit-a14ac3":{"name":"SIT (Medellín)","locationSet":{"include":["co"]},"geometry":["point","vertex"],"matchScore":2,"terms":["sit"],"reference":{"key":"public_transport","value":"platform"},"tags":{"bus":"yes","network:wikidata":"Q18327035","public_transport":"platform"},"addTags":{"bus":"yes","highway":"bus_stop","network":"SIT","network:wikidata":"Q18327035","public_transport":"platform"}},"public_transport/platform/bus_point/sitp-a14ac3":{"name":"SITP","locationSet":{"include":["co"]},"geometry":["point","vertex"],"matchScore":2,"terms":["sitp"],"reference":{"key":"public_transport","value":"platform"},"tags":{"bus":"yes","network:wikidata":"Q6129638","public_transport":"platform"},"addTags":{"bus":"yes","highway":"bus_stop","network":"SITP","network:wikidata":"Q6129638","public_transport":"platform"}},"public_transport/platform/bus_point/transmetro-a14ac3":{"name":"Transmetro (Barranquilla)","locationSet":{"include":["co"]},"geometry":["point","vertex"],"matchScore":2,"terms":["transmetro"],"reference":{"key":"public_transport","value":"platform"},"tags":{"bus":"yes","network:wikidata":"Q4863244","public_transport":"platform"},"addTags":{"bus":"yes","highway":"bus_stop","network":"Transmetro","network:wikidata":"Q4863244","public_transport":"platform"}},"public_transport/platform/bus_point/transmilenio-a14ac3":{"name":"TransMilenio","locationSet":{"include":["co"]},"geometry":["point","vertex"],"matchScore":2,"terms":["transmilenio"],"reference":{"key":"public_transport","value":"platform"},"tags":{"bus":"yes","network:wikidata":"Q429748","public_transport":"platform"},"addTags":{"bus":"yes","highway":"bus_stop","network":"TransMilenio","network:wikidata":"Q429748","public_transport":"platform"}},"type/route/bus/sit-53ae69":{"name":"SIT (Medellín)","locationSet":{"include":["co"]},"geometry":["relation"],"matchScore":2,"terms":["sit"],"reference":{"key":"route","value":"bus"},"tags":{"network:wikidata":"Q18327035","route":"bus","type":"route"},"addTags":{"network":"SIT","network:wikidata":"Q18327035","route":"bus","type":"route"}},"type/route/bus/sitp-53ae69":{"name":"SITP","locationSet":{"include":["co"]},"geometry":["relation"],"matchScore":2,"terms":["sitp"],"reference":{"key":"route","value":"bus"},"tags":{"network:wikidata":"Q6129638","route":"bus","type":"route"},"addTags":{"network":"SITP","network:wikidata":"Q6129638","route":"bus","type":"route"}},"type/route/bus/transmetro-53ae69":{"name":"Transmetro (Barranquilla)","locationSet":{"include":["co"]},"geometry":["relation"],"matchScore":2,"terms":["transmetro"],"reference":{"key":"route","value":"bus"},"tags":{"network:wikidata":"Q4863244","route":"bus","type":"route"},"addTags":{"network":"Transmetro","network:wikidata":"Q4863244","route":"bus","type":"route"}},"type/route/bus/transmilenio-53ae69":{"name":"TransMilenio","locationSet":{"include":["co"]},"geometry":["relation"],"matchScore":2,"terms":["transmilenio"],"reference":{"key":"route","value":"bus"},"tags":{"network:wikidata":"Q429748","route":"bus","type":"route"},"addTags":{"network":"TransMilenio","network:wikidata":"Q429748","route":"bus","type":"route"}}}