{"amenity/atm/attijariwafabank-e568eb":{"name":"Attijariwafa Bank (التجاري وفا بنك)","locationSet":{"include":["ae","be","bf","bj","ca","cd","cg","ch","ci","cm","eg","es","fr","ga","gb","it","ma","mr","nl","sa","sn","tg","tn"]},"geometry":["point","vertex"],"matchScore":2,"terms":["attijariwafa bank","attijariwafa bank التجاري وفا بنك","التجاري وفا بنك"],"fields":["name","brand","{amenity/atm}"],"tags":{"amenity":"atm","brand:wikidata":"Q758052"},"addTags":{"amenity":"atm","brand":"Attijariwafa Bank","brand:ar":"التجاري وفا بنك","brand:en":"Attijariwafa Bank","brand:wikidata":"Q758052","name:ar":"التجاري وفا بنك","name:en":"Attijariwafa Bank","operator":"Attijariwafa Bank","operator:wikidata":"Q758052"}},"amenity/bank/attijariwafabank-c1cae6":{"name":"Attijariwafa Bank (التجاري وفا بنك)","locationSet":{"include":["ae","be","bf","bj","ca","cd","cg","ch","ci","cm","eg","es","fr","ga","gb","it","ma","mr","nl","sa","sn","tg","tn"]},"geometry":["point","area"],"matchScore":2,"terms":["attijariwafa bank","attijariwafa bank التجاري وفا بنك","التجاري وفا بنك"],"tags":{"amenity":"bank","brand:wikidata":"Q758052"},"addTags":{"amenity":"bank","brand":"Attijariwafa Bank","brand:ar":"التجاري وفا بنك","brand:en":"Attijariwafa Bank","brand:wikidata":"Q758052","name:ar":"التجاري وفا بنك","name:en":"Attijariwafa Bank"}},"amenity/cafe/coffee_shop/mikel-349bad":{"name":"Mikel","locationSet":{"include":["ae","au","cy","de","eg","gb","gr","sa","us"]},"geometry":["point","area"],"matchScore":2,"terms":["mikel"],"reference":{"key":"cuisine","value":"coffee_shop"},"tags":{"amenity":"cafe","brand:wikidata":"Q16952021","cuisine":"coffee_shop"},"addTags":{"amenity":"cafe","brand":"Mikel","brand:wikidata":"Q16952021","cuisine":"coffee_shop","name":"Mikel","takeaway":"yes"}},"amenity/cafe/coffee_shop/starbucks-0dcee5":{"name":"ستاربكس","locationSet":{"include":["ae","bh","dz","eg","iq","jo","kw","lb","ly","ma","om","qa","sa","tn"]},"geometry":["point","area"],"matchScore":2,"terms":["starbucks","starbucks coffee","ستاربكس","ستاربكس كافية"],"reference":{"key":"cuisine","value":"coffee_shop"},"tags":{"amenity":"cafe","brand:wikidata":"Q37158","cuisine":"coffee_shop"},"addTags":{"amenity":"cafe","brand":"ستاربكس","brand:ar":"ستاربكس","brand:en":"Starbucks","brand:wikidata":"Q37158","cuisine":"coffee_shop","name":"ستاربكس","name:ar":"ستاربكس","name:en":"Starbucks","official_name":"ستاربكس كافية","official_name:ar":"ستاربكس كافية","official_name:en":"Starbucks Coffee","takeaway":"yes"}},"amenity/cafe/coffee_shop/cariboucoffee-9bd633":{"name":"كاريبو كوفي","locationSet":{"include":["ae","bh","eg","kw","om","qa","sa"]},"geometry":["point","area"],"matchScore":2,"terms":["caribou coffee","كاريبو كوفي"],"reference":{"key":"cuisine","value":"coffee_shop"},"tags":{"amenity":"cafe","brand:wikidata":"Q5039494","cuisine":"coffee_shop"},"addTags":{"amenity":"cafe","brand":"كاريبو كوفي","brand:ar":"كاريبو كوفي","brand:en":"Caribou Coffee","brand:wikidata":"Q5039494","cuisine":"coffee_shop","name":"كاريبو كوفي","name:ar":"كاريبو كوفي","name:en":"Caribou Coffee","takeaway":"yes"}},"amenity/fast_food/sandwich/cookdoor-5f7df6":{"name":"Cook Door","locationSet":{"include":["ae","eg"]},"geometry":["point","area"],"matchScore":2,"terms":["cook door"],"reference":{"key":"cuisine","value":"sandwich"},"tags":{"amenity":"fast_food","brand:wikidata":"Q12236500","cuisine":"sandwich"},"addTags":{"amenity":"fast_food","brand":"Cook Door","brand:wikidata":"Q12236500","cuisine":"sandwich","name":"Cook Door","takeaway":"yes"}},"amenity/fast_food/donut/duckdonuts-6333a9":{"name":"Duck Donuts","locationSet":{"include":["ca-on","eg","sa","us-ar","us-az","us-ca","us-co","us-fl","us-ga","us-id","us-il","us-ks","us-ky","us-md","us-mi","us-mn","us-mo","us-nc","us-nj","us-ny","us-oh","us-pa","us-sc","us-tn","us-tx","us-ut","us-va"]},"geometry":["point","area"],"matchScore":2,"terms":["duck donuts","duck doughnuts"],"reference":{"key":"cuisine","value":"donut"},"tags":{"amenity":"fast_food","brand:wikidata":"Q54958282","cuisine":"donut"},"addTags":{"amenity":"fast_food","brand":"Duck Donuts","brand:wikidata":"Q54958282","cuisine":"donut","name":"Duck Donuts","takeaway":"yes"}},"amenity/fast_food/sandwich/momen-f39225":{"name":"Mo'men","locationSet":{"include":["bh","eg","kw","ly","my","sa","sd"]},"geometry":["point","area"],"matchScore":2,"terms":["mo'men"],"reference":{"key":"cuisine","value":"sandwich"},"tags":{"amenity":"fast_food","brand:wikidata":"Q3317535","cuisine":"sandwich"},"addTags":{"amenity":"fast_food","brand":"Mo'men","brand:wikidata":"Q3317535","cuisine":"sandwich","name":"Mo'men","takeaway":"yes"}},"amenity/fast_food/mrpretzels-c5a4fb":{"name":"Mr. Pretzels","locationSet":{"include":["br","ca","cl","eg","fr","il","kw","pr","uk","us","ve"]},"geometry":["point","area"],"matchScore":2,"terms":["mr. pretzels"],"tags":{"amenity":"fast_food","brand:wikidata":"Q115728208"},"addTags":{"amenity":"fast_food","brand":"Mr. Pretzels","brand:wikidata":"Q115728208","cuisine":"pretzel","name":"Mr. Pretzels","takeaway":"yes"}},"amenity/fast_food/sandwich/uppercrust-167d3f":{"name":"Upper Crust","locationSet":{"include":["de","dk","eg","es","fi","gb","ie","no","se"]},"geometry":["point","area"],"matchScore":2,"terms":["upper crust"],"reference":{"key":"cuisine","value":"sandwich"},"tags":{"amenity":"fast_food","brand:wikidata":"Q7898585","cuisine":"sandwich"},"addTags":{"amenity":"fast_food","brand":"Upper Crust","brand:wikidata":"Q7898585","cuisine":"sandwich","name":"Upper Crust","takeaway":"yes"}},"amenity/fast_food/chicken/altazaj-7c76bb":{"name":"الطازج","locationSet":{"include":["ae","bh","eg","jo","kw","lb","my","om","qa","sa","td","ye"]},"geometry":["point","area"],"matchScore":2,"terms":["al tazaj","الطازج"],"reference":{"key":"cuisine","value":"chicken"},"tags":{"amenity":"fast_food","brand:wikidata":"Q4704878","cuisine":"chicken"},"addTags":{"amenity":"fast_food","brand":"الطازج","brand:ar":"الطازج","brand:en":"Al Tazaj","brand:wikidata":"Q4704878","cuisine":"chicken","name":"الطازج","name:ar":"الطازج","name:en":"Al Tazaj","takeaway":"yes"}},"amenity/fast_food/donut/dunkindonuts-07d3e5":{"name":"دانكن دونتس'","locationSet":{"include":["ae","bh","eg","kw","lb","om","qa","sa"]},"geometry":["point","area"],"matchScore":2,"terms":["dunkin'","dunkin' donuts","dunkin's","دانكن","دانكن دونتس"],"reference":{"key":"cuisine","value":"donut"},"tags":{"amenity":"fast_food","brand:wikidata":"Q847743","cuisine":"donut;coffee_shop"},"addTags":{"amenity":"fast_food","brand":"دانكن","brand:ar":"دانكن","brand:en":"Dunkin'","brand:wikidata":"Q847743","cuisine":"donut;coffee_shop","name":"دانكن دونتس","name:ar":"دانكن دونتس","name:en":"Dunkin' Donuts","takeaway":"yes"}},"amenity/fast_food/chicken/kfc-15a250":{"name":"دجاج كنتاكي","locationSet":{"include":["ae","bh","eg","iq","jo","kw","lb","ly","ma","om","qa","sa","sd","sy","tn","ye"]},"geometry":["point","area"],"matchScore":2,"terms":["kfc","دجاج كنتاكي"],"reference":{"key":"cuisine","value":"chicken"},"tags":{"amenity":"fast_food","brand:wikidata":"Q524757","cuisine":"chicken"},"addTags":{"amenity":"fast_food","brand":"دجاج كنتاكي","brand:ar":"دجاج كنتاكي","brand:en":"KFC","brand:wikidata":"Q524757","cuisine":"chicken","name":"دجاج كنتاكي","name:ar":"دجاج كنتاكي","name:en":"KFC","takeaway":"yes"}},"amenity/fast_food/donut/krispykrem-e5f89b":{"name":"كرسبي كريم","locationSet":{"include":["ae","bh","eg","kw","lb","qa","sa"]},"geometry":["point","area"],"matchScore":2,"terms":["krispy krem","كرسبي كريم"],"reference":{"key":"cuisine","value":"donut"},"tags":{"amenity":"fast_food","brand:wikidata":"Q1192805","cuisine":"donut"},"addTags":{"amenity":"fast_food","brand":"كرسبي كريم","brand:ar":"كرسبي كريم","brand:en":"Krispy Krem","brand:wikidata":"Q1192805","cuisine":"donut","name":"كرسبي كريم","name:ar":"كرسبي كريم","name:en":"Krispy Krem","takeaway":"yes"}},"amenity/fast_food/burger/mcdonalds-19c993":{"name":"ماكدونالدز","locationSet":{"include":["ae","bh","eg","iq","jo","kw","lb","ma","om","qa","sa","sy","tn"]},"geometry":["point","area"],"matchScore":2,"terms":["mcdonald's","ماكدونالدز"],"reference":{"key":"cuisine","value":"burger"},"tags":{"amenity":"fast_food","brand:wikidata":"Q38076","cuisine":"burger"},"addTags":{"amenity":"fast_food","brand":"ماكدونالدز","brand:ar":"ماكدونالدز","brand:en":"McDonald's","brand:wikidata":"Q38076","cuisine":"burger","name":"ماكدونالدز","name:ar":"ماكدونالدز","name:en":"McDonald's","takeaway":"yes"}},"amenity/fast_food/burger/herfy-5a6b9f":{"name":"هرفي","locationSet":{"include":["ae","bd","bh","eg","kw","sa"]},"geometry":["point","area"],"matchScore":2,"terms":["herfy","هرفي"],"reference":{"key":"cuisine","value":"burger"},"tags":{"amenity":"fast_food","brand:wikidata":"Q5738371","cuisine":"burger"},"addTags":{"amenity":"fast_food","brand":"هرفي","brand:ar":"هرفي","brand:en":"Herfy","brand:wikidata":"Q5738371","cuisine":"burger","name":"هرفي","name:ar":"هرفي","name:en":"Herfy","takeaway":"yes"}},"amenity/fuel/caltex-a02c05":{"name":"Caltex","locationSet":{"include":["ae","au","eg","hk","id","kh","kr","lk","my","nz","ph","pk","sa","sg","th","vn","za"]},"geometry":["point","area"],"matchScore":2,"terms":["caltex"],"fields":["name","brand","{amenity/fuel}"],"tags":{"amenity":"fuel","brand:wikidata":"Q277470"},"addTags":{"amenity":"fuel","brand":"Caltex","brand:wikidata":"Q277470","name":"Caltex"}},"amenity/fuel/engen-b7f522":{"name":"Engen","locationSet":{"include":["dz","eg","ly","ma","sd","tn","eh","io","bi","km","dj","er","et","tf","ke","mg","mw","mu","yt","mz","re","rw","sc","so","ss","ug","tz","zm","zw","ao","cm","cf","td","cg","cd","gq","ga","st","bw","sz","ls","na","za","bj","bf","cv","ci","gm","gh","gn","gw","lr","ml","mr","ne","ng","sn","sl","tg","sh"]},"geometry":["point","area"],"matchScore":2,"terms":["engen","engen petroleum"],"fields":["name","brand","{amenity/fuel}"],"tags":{"amenity":"fuel","brand:wikidata":"Q3054251"},"addTags":{"amenity":"fuel","brand":"Engen","brand:wikidata":"Q3054251","name":"Engen"}},"amenity/fuel/shell-7a1cc2":{"name":"شل","locationSet":{"include":["eg","ma","om","tn"]},"geometry":["point","area"],"matchScore":2,"terms":["shell","shell شل","شل"],"fields":["name","brand","{amenity/fuel}"],"tags":{"amenity":"fuel","brand:wikidata":"Q110716465"},"addTags":{"amenity":"fuel","brand":"شل","brand:ar":"شل","brand:en":"Shell","brand:wikidata":"Q110716465","name":"شل","name:ar":"شل","name:en":"Shell"}},"amenity/ice_cream/redmango-73fcc9":{"name":"Red Mango","locationSet":{"include":["ae","bh","eg","kw","mx","qa","sa","sv","us"]},"geometry":["point","area"],"matchScore":2,"terms":["red mango"],"tags":{"amenity":"ice_cream","brand:wikidata":"Q7304565"},"addTags":{"amenity":"ice_cream","brand":"Red Mango","brand:wikidata":"Q7304565","name":"Red Mango"}},"amenity/restaurant/american/ponderosasteakhouse-56c3a6":{"name":"Ponderosa Steakhouse","locationSet":{"include":["ae","eg","qa","us"]},"geometry":["point","area"],"matchScore":2,"terms":["ponderosa","ponderosa steakhouse","龐德羅莎"],"reference":{"key":"cuisine","value":"american"},"tags":{"amenity":"restaurant","brand:wikidata":"Q64038204","cuisine":"american;steak;buffet"},"addTags":{"amenity":"restaurant","brand":"Ponderosa Steakhouse","brand:en":"Ponderosa Steakhouse","brand:wikidata":"Q64038204","brand:zh":"龐德羅莎","cuisine":"american;steak;buffet","name":"Ponderosa Steakhouse","name:en":"Ponderosa Steakhouse","name:zh":"龐德羅莎"}},"office/insurance/allianz-332499":{"name":"Allianz","locationSet":{"include":["ae","ar","at","au","be","bg","bh","bm","bn","br","ca","cg","ch","ci","cm","cn","co","cy","cz","de","dk","ee","eg","es","fi","fr","gb","gf","gg","gh","gp","gr","hk","hr","hu","id","ie","in","is","it","ja","ke","kr","kw","la","li","lk","lt","lu","lv","ma","mg","mx","my","ng","nl","no","nz","om","ph","pk","pl","pt","qa","ro","ru","sa","se","sg","si","sk","sn","th","tr","tw","ua","us","za"]},"geometry":["point","area"],"matchScore":2,"terms":["allianz"],"fields":["name","brand","{office/insurance}"],"tags":{"brand:wikidata":"Q487292","office":"insurance"},"addTags":{"brand":"Allianz","brand:wikidata":"Q487292","name":"Allianz","office":"insurance"}},"office/insurance/axa-2e7672":{"name":"AXA","locationSet":{"include":["ae","ar","au","be","bh","bm","br","ca","ch","ci","cl","cm","cn","co","cz","de","dk","dz","eg","es","fi","fr","ga","gb","gr","hk","id","ie","in","it","jp","kr","lb","lu","ma","mu","mx","my","ng","nl","no","om","pa","pe","ph","pl","pt","qa","sa","se","sg","sk","sn","th","tr","tw","us"]},"geometry":["point","area"],"matchScore":2,"terms":["axa"],"fields":["name","brand","{office/insurance}"],"tags":{"brand:wikidata":"Q160054","office":"insurance"},"addTags":{"brand":"AXA","brand:wikidata":"Q160054","name":"AXA","office":"insurance"}},"shop/bakery/milliescookies-376142":{"name":"Millie's Cookies","locationSet":{"include":["de","eg","fr","gb","hk","in","mt"]},"geometry":["point","area"],"matchScore":2,"terms":["millie's cookies"],"tags":{"brand:wikidata":"Q1935533","shop":"bakery"},"addTags":{"brand":"Millie's Cookies","brand:wikidata":"Q1935533","name":"Millie's Cookies","shop":"bakery"}},"shop/bakery/paul-652955":{"name":"Paul","locationSet":{"include":["ae","az","be","bh","by","ci","cy","cz","eg","es","fr","ga","gb","ge","gr","id","in","jo","jp","kw","kz","lb","lu","ma","mu","my","om","pa","ph","pl","pt","qa","ro","ru","sa","sg","th","tn","tw","ua","us","uz","vn","za"]},"geometry":["point","area"],"matchScore":2,"terms":["paul"],"tags":{"brand:wikidata":"Q3370417","shop":"bakery"},"addTags":{"brand":"Paul","brand:wikidata":"Q3370417","name":"Paul","shop":"bakery"}},"shop/car/proton-576082":{"name":"Proton","locationSet":{"include":["cl","eg","id","my","sg","th"]},"geometry":["point","area"],"matchScore":2,"terms":["proton"],"fields":["name","brand","{shop/car}"],"tags":{"brand:wikidata":"Q827306","shop":"car"},"addTags":{"brand":"Proton","brand:wikidata":"Q827306","name":"Proton","shop":"car"}},"shop/clothes/bsbfashion-3443a7":{"name":"BSB Fashion","locationSet":{"include":["al","am","bg","cy","eg","gr","ro","xk"]},"geometry":["point","area"],"matchScore":2,"terms":["bsb","bsb fashion"],"tags":{"brand:wikidata":"Q12721399","shop":"clothes"},"addTags":{"brand":"BSB Fashion","brand:wikidata":"Q12721399","clothes":"women","name":"BSB Fashion","shop":"clothes"}},"shop/kitchen/ixina-d089d8":{"name":"Ixina","locationSet":{"include":["ae","au","be","bf","bh","bj","ca","ci","cm","cn","cz","dz","ee","eg","fr","gh","hr","ke","kw","lu","ly","ma","mu","nl","pl","qa","ro","ru","sa","se","sn","tg","th","tn","vn"]},"geometry":["point","area"],"matchScore":2,"terms":["ixina"],"tags":{"brand:wikidata":"Q3156424","shop":"kitchen"},"addTags":{"brand":"Ixina","brand:wikidata":"Q3156424","name":"Ixina","shop":"kitchen"}},"shop/supermarket/luluhypermarket-7e55ed":{"name":"Lulu Hypermarket","locationSet":{"include":["ae","bh","eg","id","in","kw","my","om","qa"]},"geometry":["point","area"],"matchScore":2,"terms":["lulu hypermarket"],"tags":{"brand:wikidata":"Q6702930","shop":"supermarket"},"addTags":{"brand":"Lulu Hypermarket","brand:wikidata":"Q6702930","name":"Lulu Hypermarket","shop":"supermarket"}},"shop/supermarket/abdullahalothaimmarkets-6c5d99":{"name":"أسواق عبد الله العثيم","locationSet":{"include":["eg","sa"]},"geometry":["point","area"],"matchScore":2,"terms":["abdullah alothaim markets","othaim","أسواق عبد الله العثيم","العثيم"],"tags":{"brand:wikidata":"Q12218555","shop":"supermarket"},"addTags":{"alt_name:ar":"العثيم","alt_name:en":"Othaim","brand":"أسواق عبد الله العثيم","brand:ar":"أسواق عبد الله العثيم","brand:en":"Abdullah AlOthaim Markets","brand:wikidata":"Q12218555","name":"أسواق عبد الله العثيم","name:ar":"أسواق عبد الله العثيم","name:en":"Abdullah AlOthaim Markets","shop":"supermarket"}},"tourism/hotel/barcelohotelsandresorts-302c40":{"name":"Barceló","locationSet":{"include":["ae","aw","bg","cr","cu","cz","de","do","eg","es","gr","gt","hu","it","ma","mv","mx","ni","om","pt","sv","tn","tr","us"]},"geometry":["point","area"],"matchScore":2,"terms":["barceló hotels & resorts"],"fields":["name","brand","{tourism/hotel}"],"tags":{"brand:wikidata":"Q15148996","tourism":"hotel"},"addTags":{"brand":"Barceló Hotels & Resorts","brand:wikidata":"Q15148996","name":"Barceló Hotels & Resorts","tourism":"hotel"}},"tourism/hotel/conrad-ee1a43":{"name":"Conrad Hotels & Resorts","locationSet":{"include":["ae","ca","cn","eg","gb","id","ie","in","jp","kr","mv","pf","ph","pt","sa","sg","th","tr","us"]},"geometry":["point","area"],"matchScore":2,"terms":["conrad"],"fields":["name","brand","{tourism/hotel}"],"tags":{"brand:wikidata":"Q855525","tourism":"hotel"},"addTags":{"brand":"Conrad","brand:wikidata":"Q855525","name":"Conrad","tourism":"hotel"}},"tourism/hotel/sonesta-690134":{"name":"Sonesta","locationSet":{"include":["ca","cl","co","ec","eg","pe","sx","us"]},"geometry":["point","area"],"matchScore":2,"terms":["sonesta","sonesta hotel"],"fields":["name","brand","{tourism/hotel}"],"tags":{"brand:wikidata":"Q81003878","tourism":"hotel"},"addTags":{"alt_name":"Sonesta Hotel","brand":"Sonesta","brand:wikidata":"Q81003878","name":"Sonesta","tourism":"hotel"}},"tourism/hotel/waldorfastoria-665f74":{"name":"Waldorf Astoria","locationSet":{"include":["ae","au","cn","de","eg","fx","gb","il","it","kw","mv","mx","nl","pa","sa","th","us"]},"geometry":["point","area"],"matchScore":2,"terms":["waldorf astoria"],"fields":["name","brand","{tourism/hotel}"],"tags":{"brand:wikidata":"Q3239392","tourism":"hotel"},"addTags":{"brand":"Waldorf Astoria","brand:wikidata":"Q3239392","name":"Waldorf Astoria","tourism":"hotel"}},"office/energy_supplier/naturgy-e15d8a":{"name":"Naturgy","locationSet":{"include":["ar","au","be","br","cl","cn","cr","de","do","dz","eg","es","fr","gb","ie","in","jm","jo","jp","lu","ma","mx","nl","om","pa","pe","pk","pr","pt","sg"]},"geometry":["point","area"],"matchScore":2,"terms":["naturgy"],"tags":{"office":"energy_supplier","operator:wikidata":"Q474690"},"addTags":{"name":"Naturgy","office":"energy_supplier","operator":"Naturgy","operator:wikidata":"Q474690"}}}