{"amenity/casino/olympiccasino-7eadd8":{"name":"Olympic Casino","locationSet":{"include":["ee","it","lt","lv","mt","sk"]},"geometry":["point","area"],"matchScore":2,"terms":["olympic casino"],"tags":{"amenity":"casino","brand:wikidata":"Q11150186"},"addTags":{"amenity":"casino","brand":"Olympic Casino","brand:wikidata":"Q11150186","name":"Olympic Casino"}},"amenity/charging_station/ionity-b625d6":{"name":"Ionity","locationSet":{"include":["by","bg","cz","hu","pl","md","ro","ru","sk","ua","ax","gg","je","cq","dk","ee","fo","fi","is","ie","im","lv","lt","no","sj","se","gb","al","ad","ba","hr","gi","gr","va","it","mt","me","mk","pt","sm","rs","si","es","xk","at","be","fr","de","li","lu","mc","nl","ch"]},"geometry":["point","vertex","area"],"matchScore":2,"terms":["ionity","ionity gmbh"],"fields":["name","brand","{amenity/charging_station}"],"tags":{"amenity":"charging_station","brand:wikidata":"Q42717773"},"addTags":{"amenity":"charging_station","brand":"Ionity","brand:wikidata":"Q42717773"}},"amenity/fast_food/pizza/alice-8391d7":{"name":"Alice","locationSet":{"include":["es","it","mt","us"]},"geometry":["point","area"],"matchScore":2,"terms":["alice","alice pizza","alice pizza al taglio"],"reference":{"key":"cuisine","value":"pizza"},"tags":{"amenity":"fast_food","brand:wikidata":"Q113973272","cuisine":"pizza"},"addTags":{"amenity":"fast_food","brand":"Alice","brand:wikidata":"Q113973272","cuisine":"pizza","name":"Alice","takeaway":"yes"}},"amenity/fast_food/oakberryacaibowls-df46eb":{"name":"Oakberry Açaí bowls","locationSet":{"include":["ae","au","bh","br","ch","cl","co","de","es","gr","hr","il","mt","mx","pe","pt","py","sa","th","us"]},"geometry":["point","area"],"matchScore":2,"terms":["oakberry açaí bowls"],"tags":{"amenity":"fast_food","brand:wikidata":"Q104870840"},"addTags":{"amenity":"fast_food","brand":"Oakberry Açaí bowls","brand:wikidata":"Q104870840","cuisine":"açaí","name":"Oakberry Açaí bowls","takeaway":"yes"}},"amenity/fast_food/woktowalk-f5ada9":{"name":"Wok to Walk","locationSet":{"include":["ae","bg","co","cy","ec","ee","es","fx","gb","il","in","it","lt","lv","ma","mt","mx","nl","om","pa","pt","qa","sa","us"]},"geometry":["point","area"],"matchScore":2,"terms":["wok to walk"],"tags":{"amenity":"fast_food","brand:wikidata":"Q4020634"},"addTags":{"amenity":"fast_food","brand":"Wok to Walk","brand:wikidata":"Q4020634","cuisine":"asian","name":"Wok to Walk","takeaway":"yes"}},"amenity/fuel/auchan-fcb99f":{"name":"Auchan","locationSet":{"include":["al","ad","ba","hr","gi","gr","va","it","mt","me","mk","pt","sm","rs","si","es","xk","by","bg","cz","hu","pl","md","ro","ru","sk","ua","at","be","fr","de","li","lu","mc","nl","ch"]},"geometry":["point","area"],"matchScore":2,"terms":["auchan"],"fields":["name","brand","{amenity/fuel}"],"tags":{"amenity":"fuel","brand:wikidata":"Q758603"},"addTags":{"amenity":"fuel","brand":"Auchan","brand:wikidata":"Q758603","name":"Auchan"}},"amenity/ice_cream/amorino-6cf168":{"name":"Amorino","locationSet":{"include":["ae","ch","cz","de","es","fr","gb","gr","ie","it","lu","ma","mt","mx","nc","pt","qa","re","us"]},"geometry":["point","area"],"matchScore":2,"terms":["amorino"],"tags":{"amenity":"ice_cream","brand:wikidata":"Q2843884"},"addTags":{"amenity":"ice_cream","brand":"Amorino","brand:wikidata":"Q2843884","name":"Amorino"}},"amenity/parcel_locker/zbox-5a86e9":{"name":"Packeta","locationSet":{"include":["by","bg","cz","hu","pl","md","ro","ru","sk","ua","ax","gg","je","cq","dk","ee","fo","fi","is","ie","im","lv","lt","no","sj","se","gb","al","ad","ba","hr","gi","gr","va","it","mt","me","mk","pt","sm","rs","si","es","xk","at","be","fr","de","li","lu","mc","nl","ch"]},"geometry":["point","vertex","area"],"matchScore":2,"terms":["packeta"],"fields":["name","brand","{amenity/parcel_locker}"],"reference":{"key":"amenity","value":"parcel_locker"},"tags":{"amenity":"parcel_locker","brand:wikidata":"Q67809905"},"addTags":{"amenity":"parcel_locker","brand":"Packeta","brand:wikidata":"Q67809905","name":"Z-Box"}},"amenity/restaurant/seafood/oceanbasket-5d9698":{"name":"Ocean Basket","locationSet":{"include":["ae","bw","cy","gb","ke","kw","kz","mt","mu","na","ng","qa","ru","sa","sz","za","zw"]},"geometry":["point","area"],"matchScore":2,"terms":["ocean basket"],"reference":{"key":"cuisine","value":"seafood"},"tags":{"amenity":"restaurant","brand:wikidata":"Q62075311","cuisine":"seafood"},"addTags":{"amenity":"restaurant","brand":"Ocean Basket","brand:wikidata":"Q62075311","cuisine":"seafood","name":"Ocean Basket"}},"amenity/social_centre/ahepahall-30ca27":{"name":"AHEPA Hall","locationSet":{"include":["by","bg","cz","hu","pl","md","ro","ru","sk","ua","ax","gg","je","cq","dk","ee","fo","fi","is","ie","im","lv","lt","no","sj","se","gb","al","ad","ba","hr","gi","gr","va","it","mt","me","mk","pt","sm","rs","si","es","xk","at","be","fr","de","li","lu","mc","nl","ch","au","ca","cy","us"],"exclude":["ru"]},"geometry":["point","area"],"matchScore":2,"terms":["ahepa","american hellenic educational progressive association","the order of ahepa"],"fields":["name","brand","{amenity/social_centre}"],"tags":{"amenity":"social_centre","brand:wikidata":"Q4743973"},"addTags":{"amenity":"social_centre","brand":"AHEPA","brand:wikidata":"Q4743973","name":"AHEPA Hall"}},"amenity/vending_machine/bicycle_tube/continental-123edb":{"name":"Continental","locationSet":{"include":["by","bg","cz","hu","pl","md","ro","ru","sk","ua","ax","gg","je","cq","dk","ee","fo","fi","is","ie","im","lv","lt","no","sj","se","gb","al","ad","ba","hr","gi","gr","va","it","mt","me","mk","pt","sm","rs","si","es","xk","at","be","fr","de","li","lu","mc","nl","ch"]},"geometry":["point","vertex"],"matchScore":2,"terms":["continental"],"reference":{"key":"vending","value":"bicycle_tube"},"tags":{"amenity":"vending_machine","brand:wikidata":"Q64739247","vending":"bicycle_tube"},"addTags":{"amenity":"vending_machine","brand":"Continental","brand:wikidata":"Q64739247","name":"Continental","vending":"bicycle_tube"}},"amenity/vending_machine/bicycle_tube/schwalbe-123edb":{"name":"Schwalbe","locationSet":{"include":["by","bg","cz","hu","pl","md","ro","ru","sk","ua","ax","gg","je","cq","dk","ee","fo","fi","is","ie","im","lv","lt","no","sj","se","gb","al","ad","ba","hr","gi","gr","va","it","mt","me","mk","pt","sm","rs","si","es","xk","at","be","fr","de","li","lu","mc","nl","ch"]},"geometry":["point","vertex"],"matchScore":2,"terms":["schwalbe"],"reference":{"key":"vending","value":"bicycle_tube"},"tags":{"amenity":"vending_machine","brand:wikidata":"Q1312213","vending":"bicycle_tube"},"addTags":{"amenity":"vending_machine","brand":"Schwalbe","brand:wikidata":"Q1312213","name":"Schwalbe","vending":"bicycle_tube"}},"leisure/fitness_centre/fitinn-48d938":{"name":"FITINN","locationSet":{"include":["by","bg","cz","hu","pl","md","ro","ru","sk","ua","ax","gg","je","cq","dk","ee","fo","fi","is","ie","im","lv","lt","no","sj","se","gb","al","ad","ba","hr","gi","gr","va","it","mt","me","mk","pt","sm","rs","si","es","xk","at","be","fr","de","li","lu","mc","nl","ch"]},"geometry":["point","area"],"matchScore":2,"terms":["fitinn"],"tags":{"brand:wikidata":"Q1245564","leisure":"fitness_centre"},"addTags":{"brand":"FITINN","brand:wikidata":"Q1245564","leisure":"fitness_centre","name":"FITINN"}},"leisure/fitness_centre/holmesplace-901199":{"name":"Holmes Place","locationSet":{"include":["by","bg","cz","hu","pl","md","ro","ru","sk","ua","ax","gg","je","cq","dk","ee","fo","fi","is","ie","im","lv","lt","no","sj","se","gb","al","ad","ba","hr","gi","gr","va","it","mt","me","mk","pt","sm","rs","si","es","xk","at","be","fr","de","li","lu","mc","nl","ch","il"]},"geometry":["point","area"],"matchScore":2,"terms":["holmes place"],"tags":{"brand:wikidata":"Q15815819","leisure":"fitness_centre"},"addTags":{"brand":"Holmes Place","brand:wikidata":"Q15815819","leisure":"fitness_centre","name":"Holmes Place"}},"man_made/ionity-97d83d":{"name":"Ionity","locationSet":{"include":["by","bg","cz","hu","pl","md","ro","ru","sk","ua","ax","gg","je","cq","dk","ee","fo","fi","is","ie","im","lv","lt","no","sj","se","gb","al","ad","ba","hr","gi","gr","va","it","mt","me","mk","pt","sm","rs","si","es","xk","at","be","fr","de","li","lu","mc","nl","ch"]},"geometry":["point","vertex","line","area"],"matchScore":2,"terms":["ionity","ionity gmbh"],"fields":["name","brand","{man_made}"],"tags":{"brand:wikidata":"Q42717773","man_made":"charge_point"},"addTags":{"brand":"Ionity","brand:wikidata":"Q42717773","man_made":"charge_point"}},"office/estate_agent/vonpollrealestate-c99072":{"name":"von Poll Real Estate","locationSet":{"include":["by","bg","cz","hu","pl","md","ro","ru","sk","ua","ax","gg","je","cq","dk","ee","fo","fi","is","ie","im","lv","lt","no","sj","se","gb","al","ad","ba","hr","gi","gr","va","it","mt","me","mk","pt","sm","rs","si","es","xk","at","be","fr","de","li","lu","mc","nl","ch"],"exclude":["at","de"]},"geometry":["point","area"],"matchScore":2,"terms":["von poll immobilien","von poll real estate","vonpoll","vonpoll commercial"],"tags":{"brand:wikidata":"Q96026696","office":"estate_agent"},"addTags":{"brand":"von Poll Real Estate","brand:wikidata":"Q96026696","name":"von Poll Real Estate","office":"estate_agent"}},"office/insurance/nn-336e34":{"name":"NN","locationSet":{"include":["by","bg","cz","hu","pl","md","ro","ru","sk","ua","ax","gg","je","cq","dk","ee","fo","fi","is","ie","im","lv","lt","no","sj","se","gb","al","ad","ba","hr","gi","gr","va","it","mt","me","mk","pt","sm","rs","si","es","xk","at","be","fr","de","li","lu","mc","nl","ch"]},"geometry":["point","area"],"matchScore":2,"terms":["nationale-nederlanden","nn"],"fields":["name","brand","{office/insurance}"],"tags":{"brand:wikidata":"Q1834291","office":"insurance"},"addTags":{"brand":"NN","brand:wikidata":"Q1834291","name":"NN","office":"insurance","official_name":"Nationale-Nederlanden"}},"shop/bakery/milliescookies-376142":{"name":"Millie's Cookies","locationSet":{"include":["de","eg","fr","gb","hk","in","mt"]},"geometry":["point","area"],"matchScore":2,"terms":["millie's cookies"],"tags":{"brand:wikidata":"Q1935533","shop":"bakery"},"addTags":{"brand":"Millie's Cookies","brand:wikidata":"Q1935533","name":"Millie's Cookies","shop":"bakery"}},"shop/bookmaker/tipico-7054e9":{"name":"Tipico","locationSet":{"include":["at","co","de","gi","hr","mt"]},"geometry":["point","area"],"matchScore":2,"terms":["tipico"],"tags":{"brand:wikidata":"Q15851003","shop":"bookmaker"},"addTags":{"brand":"Tipico","brand:wikidata":"Q15851003","name":"Tipico","shop":"bookmaker"}},"shop/car/smart-b77732":{"name":"Smart","locationSet":{"include":["by","bg","cz","hu","pl","md","ro","ru","sk","ua","ax","gg","je","cq","dk","ee","fo","fi","is","ie","im","lv","lt","no","sj","se","gb","al","ad","ba","hr","gi","gr","va","it","mt","me","mk","pt","sm","rs","si","es","xk","at","be","fr","de","li","lu","mc","nl","ch","cn"]},"geometry":["point","area"],"matchScore":2,"terms":["smart"],"fields":["name","brand","{shop/car}"],"tags":{"brand:wikidata":"Q156490","shop":"car"},"addTags":{"brand":"Smart","brand:wikidata":"Q156490","name":"Smart","shop":"car"}},"shop/clothes/danjohn-96017f":{"name":"Dan John","locationSet":{"include":["be","es","fr","it","me","mk","mt","rs","ru"]},"geometry":["point","area"],"matchScore":2,"terms":["dan john"],"tags":{"brand:wikidata":"Q116304215","shop":"clothes"},"addTags":{"brand":"Dan John","brand:wikidata":"Q116304215","clothes":"men","name":"Dan John","shop":"clothes"}},"shop/clothes/maje-99ba8f":{"name":"Maje","locationSet":{"include":["by","bg","cz","hu","pl","md","ro","ru","sk","ua","ax","gg","je","cq","dk","ee","fo","fi","is","ie","im","lv","lt","no","sj","se","gb","al","ad","ba","hr","gi","gr","va","it","mt","me","mk","pt","sm","rs","si","es","xk","at","be","fr","de","li","lu","mc","nl","ch","cn","hk","sg","tw","us"]},"geometry":["point","area"],"matchScore":2,"terms":["maje"],"tags":{"brand:wikidata":"Q3280458","shop":"clothes"},"addTags":{"brand":"Maje","brand:wikidata":"Q3280458","clothes":"women","name":"Maje","shop":"clothes"}},"shop/clothes/soliver-fb408e":{"name":"s.Oliver","locationSet":{"include":["by","bg","cz","hu","pl","md","ro","ru","sk","ua","ax","gg","je","cq","dk","ee","fo","fi","is","ie","im","lv","lt","no","sj","se","gb","al","ad","ba","hr","gi","gr","va","it","mt","me","mk","pt","sm","rs","si","es","xk","at","be","fr","de","li","lu","mc","nl","ch","cn","in"]},"geometry":["point","area"],"matchScore":2,"terms":["s.oliver"],"tags":{"brand:wikidata":"Q265056","shop":"clothes"},"addTags":{"brand":"s.Oliver","brand:wikidata":"Q265056","name":"s.Oliver","shop":"clothes"}},"shop/clothes/weekday-b5590c":{"name":"Weekday","locationSet":{"include":["by","bg","cz","hu","pl","md","ro","ru","sk","ua","ax","gg","je","cq","dk","ee","fo","fi","is","ie","im","lv","lt","no","sj","se","gb","al","ad","ba","hr","gi","gr","va","it","mt","me","mk","pt","sm","rs","si","es","xk","at","be","fr","de","li","lu","mc","nl","ch"]},"geometry":["point","area"],"matchScore":2,"terms":["weekday"],"tags":{"brand:wikidata":"Q10719514","shop":"clothes"},"addTags":{"brand":"Weekday","brand:wikidata":"Q10719514","name":"Weekday","shop":"clothes"}},"shop/convenience/viva-856fe1":{"name":"Viva","locationSet":{"include":["by","bg","cz","hu","pl","md","ro","ru","sk","ua","ax","gg","je","cq","dk","ee","fo","fi","is","ie","im","lv","lt","no","sj","se","gb","al","ad","ba","hr","gi","gr","va","it","mt","me","mk","pt","sm","rs","si","es","xk","at","be","fr","de","li","lu","mc","nl","ch"]},"geometry":["point","area"],"matchScore":2,"terms":["viva"],"tags":{"brand:wikidata":"Q168238","shop":"convenience"},"addTags":{"brand":"Viva","brand:wikidata":"Q168238","name":"Viva","shop":"convenience"}},"shop/furniture/bolia-a18722":{"name":"Bolia","locationSet":{"include":["by","bg","cz","hu","pl","md","ro","ru","sk","ua","ax","gg","je","cq","dk","ee","fo","fi","is","ie","im","lv","lt","no","sj","se","gb","al","ad","ba","hr","gi","gr","va","it","mt","me","mk","pt","sm","rs","si","es","xk","at","be","fr","de","li","lu","mc","nl","ch"]},"geometry":["point","area"],"matchScore":2,"terms":["bolia"],"tags":{"brand:wikidata":"Q11961809","shop":"furniture"},"addTags":{"brand":"Bolia","brand:wikidata":"Q11961809","name":"Bolia","shop":"furniture"}},"shop/furniture/chateaudax-c96b56":{"name":"Chateau d'Ax","locationSet":{"include":["ao","be","ca","ch","cn","de","es","fx","gp","hk","hr","it","ma","mq","mt","mu","mz","pt","re","sg","si","tn","tw","us","vn"]},"geometry":["point","area"],"matchScore":2,"terms":["chateau d'ax"],"tags":{"brand:wikidata":"Q100249791","shop":"furniture"},"addTags":{"brand":"Chateau d'Ax","brand:wikidata":"Q100249791","name":"Chateau d'Ax","shop":"furniture"}},"shop/furniture/momax-a18722":{"name":"Mömax","locationSet":{"include":["by","bg","cz","hu","pl","md","ro","ru","sk","ua","ax","gg","je","cq","dk","ee","fo","fi","is","ie","im","lv","lt","no","sj","se","gb","al","ad","ba","hr","gi","gr","va","it","mt","me","mk","pt","sm","rs","si","es","xk","at","be","fr","de","li","lu","mc","nl","ch"]},"geometry":["point","area"],"matchScore":2,"terms":["mömax"],"tags":{"brand:wikidata":"Q56388481","shop":"furniture"},"addTags":{"brand":"Mömax","brand:wikidata":"Q56388481","name":"Mömax","shop":"furniture"}},"shop/furniture/poltronesofa-488b55":{"name":"Poltronesofà","locationSet":{"include":["be","ch","cy","fr","it","mt"]},"geometry":["point","area"],"matchScore":2,"terms":["poltronesofà"],"tags":{"brand:wikidata":"Q80833069","shop":"furniture"},"addTags":{"brand":"Poltronesofà","brand:wikidata":"Q80833069","name":"Poltronesofà","shop":"furniture"}},"shop/furniture/xxxlutz-5acc6e":{"name":"XXXLutz","locationSet":{"include":["by","bg","cz","hu","pl","md","ro","ru","sk","ua","ax","gg","je","cq","dk","ee","fo","fi","is","ie","im","lv","lt","no","sj","se","gb","al","ad","ba","hr","gi","gr","va","it","mt","me","mk","pt","sm","rs","si","es","xk","at","be","fr","de","li","lu","mc","nl","ch"],"exclude":["bg"]},"geometry":["point","area"],"matchScore":2,"terms":["xxxlutz"],"tags":{"brand:wikidata":"Q70339467","shop":"furniture"},"addTags":{"brand":"XXXLutz","brand:wikidata":"Q70339467","name":"XXXLutz","shop":"furniture"}},"shop/interior_decoration/butlers-85b078":{"name":"Butlers","locationSet":{"include":["at","ch","de","es","gb","hu","lu","mt","ua"]},"geometry":["point","area"],"matchScore":2,"terms":["butlers"],"tags":{"brand:wikidata":"Q1017972","shop":"interior_decoration"},"addTags":{"brand":"Butlers","brand:wikidata":"Q1017972","name":"Butlers","shop":"interior_decoration"}},"shop/supermarket/auchan-925d9b":{"name":"Auchan","locationSet":{"include":["al","ad","ba","hr","gi","gr","va","it","mt","me","mk","pt","sm","rs","si","es","xk","by","bg","cz","hu","pl","md","ro","ru","sk","ua","at","be","fr","de","li","lu","mc","nl","ch","cn"],"exclude":["ru"]},"geometry":["point","area"],"matchScore":2,"terms":["auchan"],"tags":{"brand:wikidata":"Q758603","shop":"supermarket"},"addTags":{"brand":"Auchan","brand:wikidata":"Q758603","name":"Auchan","shop":"supermarket"}},"shop/supermarket/eurospar-4b5e11":{"name":"Eurospar","locationSet":{"include":["by","bg","cz","hu","pl","md","ro","ru","sk","ua","ax","gg","je","cq","dk","ee","fo","fi","is","ie","im","lv","lt","no","sj","se","gb","al","ad","ba","hr","gi","gr","va","it","mt","me","mk","pt","sm","rs","si","es","xk","at","be","fr","de","li","lu","mc","nl","ch"]},"geometry":["point","area"],"matchScore":2,"terms":["eurospar"],"tags":{"brand:wikidata":"Q12309283","shop":"supermarket"},"addTags":{"brand":"Eurospar","brand:wikidata":"Q12309283","name":"Eurospar","shop":"supermarket"}},"shop/tattoo/veantattoo-eea007":{"name":"VeAn Tattoo","locationSet":{"include":["by","bg","cz","hu","pl","md","ro","ru","sk","ua","ax","gg","je","cq","dk","ee","fo","fi","is","ie","im","lv","lt","no","sj","se","gb","al","ad","ba","hr","gi","gr","va","it","mt","me","mk","pt","sm","rs","si","es","xk","at","be","fr","de","li","lu","mc","nl","ch"]},"geometry":["point","area"],"matchScore":2,"terms":["vean tattoo"],"tags":{"brand:wikidata":"Q116871240","shop":"tattoo"},"addTags":{"brand":"VeAn Tattoo","brand:wikidata":"Q116871240","name":"VeAn Tattoo","shop":"tattoo"}},"shop/variety_store/flyingtigercopenhagen-37d726":{"name":"Flying Tiger Copenhagen","locationSet":{"include":["at","be","ch","cy","cz","de","dk","ee","es","fi","fr","gb","gr","hu","ie","is","it","jp","kr","lt","lv","mt","nl","no","pl","pt","se","sk"]},"geometry":["point","area"],"matchScore":2,"terms":["flying tiger","flying tiger copenhagen","tgr","tiger"],"tags":{"brand:wikidata":"Q2786319","shop":"variety_store"},"addTags":{"brand":"Flying Tiger Copenhagen","brand:wikidata":"Q2786319","name":"Flying Tiger Copenhagen","shop":"variety_store","short_name":"Flying Tiger"}},"tourism/hotel/bandbhotel-fc8c2c":{"name":"B&B Hotel","locationSet":{"include":["by","bg","cz","hu","pl","md","ro","ru","sk","ua","ax","gg","je","cq","dk","ee","fo","fi","is","ie","im","lv","lt","no","sj","se","gb","al","ad","ba","hr","gi","gr","va","it","mt","me","mk","pt","sm","rs","si","es","xk","at","be","fr","de","li","lu","mc","nl","ch","br"]},"geometry":["point","area"],"matchScore":2,"terms":["b&b hotels"],"fields":["name","brand","{tourism/hotel}"],"tags":{"brand:wikidata":"Q794939","tourism":"hotel"},"addTags":{"brand":"B&B Hotels","brand:wikidata":"Q794939","name":"B&B Hotel","tourism":"hotel"}},"tourism/hotel/greet-046fe6":{"name":"greet","locationSet":{"include":["by","bg","cz","hu","pl","md","ro","ru","sk","ua","ax","gg","je","cq","dk","ee","fo","fi","is","ie","im","lv","lt","no","sj","se","gb","al","ad","ba","hr","gi","gr","va","it","mt","me","mk","pt","sm","rs","si","es","xk","at","be","fr","de","li","lu","mc","nl","ch"]},"geometry":["point","area"],"matchScore":2,"terms":["greet"],"fields":["name","brand","{tourism/hotel}"],"tags":{"brand:wikidata":"Q115489066","tourism":"hotel"},"addTags":{"brand":"greet","brand:wikidata":"Q115489066","name":"Greet","tourism":"hotel"}},"tourism/hotel/motelone-046fe6":{"name":"Motel One","locationSet":{"include":["by","bg","cz","hu","pl","md","ro","ru","sk","ua","ax","gg","je","cq","dk","ee","fo","fi","is","ie","im","lv","lt","no","sj","se","gb","al","ad","ba","hr","gi","gr","va","it","mt","me","mk","pt","sm","rs","si","es","xk","at","be","fr","de","li","lu","mc","nl","ch"]},"geometry":["point","area"],"matchScore":2,"terms":["motel one"],"fields":["name","brand","{tourism/hotel}"],"tags":{"brand:wikidata":"Q391080","tourism":"hotel"},"addTags":{"brand":"Motel One","brand:wikidata":"Q391080","name":"Motel One","tourism":"hotel"}},"amenity/charging_station/eon-7f623e":{"name":"E.ON","locationSet":{"include":["by","bg","cz","hu","pl","md","ro","ru","sk","ua","ax","gg","je","cq","dk","ee","fo","fi","is","ie","im","lv","lt","no","sj","se","gb","al","ad","ba","hr","gi","gr","va","it","mt","me","mk","pt","sm","rs","si","es","xk","at","be","fr","de","li","lu","mc","nl","ch"]},"geometry":["point","vertex","area"],"matchScore":2,"terms":["e-on drive","e.on"],"fields":["name","operator","{amenity/charging_station}"],"tags":{"amenity":"charging_station","operator:wikidata":"Q270223"},"addTags":{"amenity":"charging_station","operator":"E.ON","operator:wikidata":"Q270223"}},"amenity/charging_station/evbox-7f623e":{"name":"EVBox","locationSet":{"include":["by","bg","cz","hu","pl","md","ro","ru","sk","ua","ax","gg","je","cq","dk","ee","fo","fi","is","ie","im","lv","lt","no","sj","se","gb","al","ad","ba","hr","gi","gr","va","it","mt","me","mk","pt","sm","rs","si","es","xk","at","be","fr","de","li","lu","mc","nl","ch"]},"geometry":["point","vertex","area"],"matchScore":2,"terms":["evbox"],"fields":["name","operator","{amenity/charging_station}"],"tags":{"amenity":"charging_station","operator:wikidata":"Q28406392"},"addTags":{"amenity":"charging_station","operator":"EVBox","operator:wikidata":"Q28406392"}},"amenity/charging_station/qpark-7f623e":{"name":"Q-Park","locationSet":{"include":["by","bg","cz","hu","pl","md","ro","ru","sk","ua","ax","gg","je","cq","dk","ee","fo","fi","is","ie","im","lv","lt","no","sj","se","gb","al","ad","ba","hr","gi","gr","va","it","mt","me","mk","pt","sm","rs","si","es","xk","at","be","fr","de","li","lu","mc","nl","ch"]},"geometry":["point","vertex","area"],"matchScore":2,"terms":["q-park"],"fields":["name","operator","{amenity/charging_station}"],"tags":{"amenity":"charging_station","operator:wikidata":"Q1127798"},"addTags":{"amenity":"charging_station","operator":"Q-Park","operator:wikidata":"Q1127798"}},"amenity/police/pulizijatamalta-67380b":{"name":"Pulizija ta' Malta","locationSet":{"include":["mt"]},"geometry":["point","area"],"matchScore":2,"terms":["pulizija ta' malta"],"tags":{"amenity":"police","operator:wikidata":"Q2413538"},"addTags":{"amenity":"police","operator":"Pulizija ta' Malta","operator:wikidata":"Q2413538"}},"man_made/eon-22bfb3":{"name":"E.ON","locationSet":{"include":["by","bg","cz","hu","pl","md","ro","ru","sk","ua","ax","gg","je","cq","dk","ee","fo","fi","is","ie","im","lv","lt","no","sj","se","gb","al","ad","ba","hr","gi","gr","va","it","mt","me","mk","pt","sm","rs","si","es","xk","at","be","fr","de","li","lu","mc","nl","ch"]},"geometry":["point","vertex","line","area"],"matchScore":2,"terms":["e-on drive","e.on"],"fields":["name","operator","{man_made}"],"tags":{"man_made":"charge_point","operator:wikidata":"Q270223"},"addTags":{"man_made":"charge_point","operator":"E.ON","operator:wikidata":"Q270223"}},"man_made/evbox-22bfb3":{"name":"EVBox","locationSet":{"include":["by","bg","cz","hu","pl","md","ro","ru","sk","ua","ax","gg","je","cq","dk","ee","fo","fi","is","ie","im","lv","lt","no","sj","se","gb","al","ad","ba","hr","gi","gr","va","it","mt","me","mk","pt","sm","rs","si","es","xk","at","be","fr","de","li","lu","mc","nl","ch"]},"geometry":["point","vertex","line","area"],"matchScore":2,"terms":["evbox"],"fields":["name","operator","{man_made}"],"tags":{"man_made":"charge_point","operator:wikidata":"Q28406392"},"addTags":{"man_made":"charge_point","operator":"EVBox","operator:wikidata":"Q28406392"}},"man_made/qpark-22bfb3":{"name":"Q-Park","locationSet":{"include":["by","bg","cz","hu","pl","md","ro","ru","sk","ua","ax","gg","je","cq","dk","ee","fo","fi","is","ie","im","lv","lt","no","sj","se","gb","al","ad","ba","hr","gi","gr","va","it","mt","me","mk","pt","sm","rs","si","es","xk","at","be","fr","de","li","lu","mc","nl","ch"]},"geometry":["point","vertex","line","area"],"matchScore":2,"terms":["q-park"],"fields":["name","operator","{man_made}"],"tags":{"man_made":"charge_point","operator:wikidata":"Q1127798"},"addTags":{"man_made":"charge_point","operator":"Q-Park","operator:wikidata":"Q1127798"}},"power/generator/innogy-16c9d0":{"name":"Innogy","locationSet":{"include":["by","bg","cz","hu","pl","md","ro","ru","sk","ua","ax","gg","je","cq","dk","ee","fo","fi","is","ie","im","lv","lt","no","sj","se","gb","al","ad","ba","hr","gi","gr","va","it","mt","me","mk","pt","sm","rs","si","es","xk","at","be","fr","de","li","lu","mc","nl","ch"]},"geometry":["point","vertex","area"],"matchScore":2,"terms":["innogy"],"tags":{"operator:wikidata":"Q2124721","power":"generator"},"addTags":{"operator":"Innogy","operator:wikidata":"Q2124721","power":"generator"}},"power/generator/rwe-16c9d0":{"name":"RWE","locationSet":{"include":["by","bg","cz","hu","pl","md","ro","ru","sk","ua","ax","gg","je","cq","dk","ee","fo","fi","is","ie","im","lv","lt","no","sj","se","gb","al","ad","ba","hr","gi","gr","va","it","mt","me","mk","pt","sm","rs","si","es","xk","at","be","fr","de","li","lu","mc","nl","ch"]},"geometry":["point","vertex","area"],"matchScore":2,"terms":["rwe"],"tags":{"operator:wikidata":"Q138133","power":"generator"},"addTags":{"operator":"RWE","operator:wikidata":"Q138133","power":"generator"}},"power/generator/statkraft-16c9d0":{"name":"Statkraft","locationSet":{"include":["by","bg","cz","hu","pl","md","ro","ru","sk","ua","ax","gg","je","cq","dk","ee","fo","fi","is","ie","im","lv","lt","no","sj","se","gb","al","ad","ba","hr","gi","gr","va","it","mt","me","mk","pt","sm","rs","si","es","xk","at","be","fr","de","li","lu","mc","nl","ch"]},"geometry":["point","vertex","area"],"matchScore":2,"terms":["statkraft"],"tags":{"operator:wikidata":"Q1681145","power":"generator"},"addTags":{"operator":"Statkraft","operator:wikidata":"Q1681145","power":"generator"}},"power/generator/uniper-16c9d0":{"name":"Uniper","locationSet":{"include":["by","bg","cz","hu","pl","md","ro","ru","sk","ua","ax","gg","je","cq","dk","ee","fo","fi","is","ie","im","lv","lt","no","sj","se","gb","al","ad","ba","hr","gi","gr","va","it","mt","me","mk","pt","sm","rs","si","es","xk","at","be","fr","de","li","lu","mc","nl","ch"]},"geometry":["point","vertex","area"],"matchScore":2,"terms":["uniper"],"tags":{"operator:wikidata":"Q19839259","power":"generator"},"addTags":{"operator":"Uniper","operator:wikidata":"Q19839259","power":"generator"}},"power/generator/wpo-16c9d0":{"name":"WPO","locationSet":{"include":["by","bg","cz","hu","pl","md","ro","ru","sk","ua","ax","gg","je","cq","dk","ee","fo","fi","is","ie","im","lv","lt","no","sj","se","gb","al","ad","ba","hr","gi","gr","va","it","mt","me","mk","pt","sm","rs","si","es","xk","at","be","fr","de","li","lu","mc","nl","ch"]},"geometry":["point","vertex","area"],"matchScore":2,"terms":["wpo"],"tags":{"operator:wikidata":"Q64755627","power":"generator"},"addTags":{"operator":"WPO","operator:wikidata":"Q64755627","power":"generator"}},"power/substation/enemalta-79e49d":{"name":"Enemalta","locationSet":{"include":["mt"]},"geometry":["area","point"],"matchScore":2,"terms":["enemalta"],"tags":{"operator:wikidata":"Q1341101","power":"substation"},"addTags":{"operator":"Enemalta","operator:wikidata":"Q1341101","power":"substation"}},"power/transformer/enemalta-e6482f":{"name":"Enemalta","locationSet":{"include":["mt"]},"geometry":["point","vertex"],"matchScore":2,"terms":["enemalta"],"tags":{"operator:wikidata":"Q1341101","power":"transformer"},"addTags":{"operator":"Enemalta","operator:wikidata":"Q1341101","power":"transformer"}},"telecom/exchange/interoute-58ec5d":{"name":"Interoute","locationSet":{"include":["by","bg","cz","hu","pl","md","ro","ru","sk","ua","ax","gg","je","cq","dk","ee","fo","fi","is","ie","im","lv","lt","no","sj","se","gb","al","ad","ba","hr","gi","gr","va","it","mt","me","mk","pt","sm","rs","si","es","xk","at","be","fr","de","li","lu","mc","nl","ch"]},"geometry":["point","area"],"matchScore":2,"terms":["interoute"],"fields":["name","operator","{telecom/exchange}"],"tags":{"operator:wikidata":"Q1668090","telecom":"exchange"},"addTags":{"operator":"Interoute","operator:wikidata":"Q1668090","telecom":"exchange"}},"public_transport/platform/bus_point/flixbus-f5b4b3":{"name":"Flixbus","locationSet":{"include":["by","bg","cz","hu","pl","md","ro","ru","sk","ua","ax","gg","je","cq","dk","ee","fo","fi","is","ie","im","lv","lt","no","sj","se","gb","al","ad","ba","hr","gi","gr","va","it","mt","me","mk","pt","sm","rs","si","es","xk","at","be","fr","de","li","lu","mc","nl","ch","br","ca","us"]},"geometry":["point","vertex"],"matchScore":2,"terms":["flixbus"],"reference":{"key":"public_transport","value":"platform"},"tags":{"bus":"yes","network:wikidata":"Q15712258","public_transport":"platform"},"addTags":{"bus":"yes","highway":"bus_stop","network":"Flixbus","network:wikidata":"Q15712258","public_transport":"platform"}},"railway/station/eurocity-170b77":{"name":"EuroCity","locationSet":{"include":["by","bg","cz","hu","pl","md","ro","ru","sk","ua","ax","gg","je","cq","dk","ee","fo","fi","is","ie","im","lv","lt","no","sj","se","gb","al","ad","ba","hr","gi","gr","va","it","mt","me","mk","pt","sm","rs","si","es","xk","at","be","fr","de","li","lu","mc","nl","ch"]},"geometry":["point","vertex","area"],"matchScore":2,"terms":["eurocity"],"tags":{"network:wikidata":"Q753050","railway":"station"},"addTags":{"network":"EuroCity","network:wikidata":"Q753050","public_transport":"station","railway":"station","train":"yes"}},"railway/station/euronight-170b77":{"name":"EuroNight","locationSet":{"include":["by","bg","cz","hu","pl","md","ro","ru","sk","ua","ax","gg","je","cq","dk","ee","fo","fi","is","ie","im","lv","lt","no","sj","se","gb","al","ad","ba","hr","gi","gr","va","it","mt","me","mk","pt","sm","rs","si","es","xk","at","be","fr","de","li","lu","mc","nl","ch"]},"geometry":["point","vertex","area"],"matchScore":2,"terms":["euronight"],"tags":{"network:wikidata":"Q257307","railway":"station"},"addTags":{"network":"EuroNight","network:wikidata":"Q257307","public_transport":"station","railway":"station","train":"yes"}},"type/route/bus/flixbus-8cc9ca":{"name":"Flixbus","locationSet":{"include":["by","bg","cz","hu","pl","md","ro","ru","sk","ua","ax","gg","je","cq","dk","ee","fo","fi","is","ie","im","lv","lt","no","sj","se","gb","al","ad","ba","hr","gi","gr","va","it","mt","me","mk","pt","sm","rs","si","es","xk","at","be","fr","de","li","lu","mc","nl","ch","br","ca","us"]},"geometry":["relation"],"matchScore":2,"terms":["flixbus"],"reference":{"key":"route","value":"bus"},"tags":{"network:wikidata":"Q15712258","route":"bus","type":"route"},"addTags":{"network":"Flixbus","network:wikidata":"Q15712258","route":"bus","type":"route"}},"type/route/train/eurocity-6b9d23":{"name":"EuroCity","locationSet":{"include":["by","bg","cz","hu","pl","md","ro","ru","sk","ua","ax","gg","je","cq","dk","ee","fo","fi","is","ie","im","lv","lt","no","sj","se","gb","al","ad","ba","hr","gi","gr","va","it","mt","me","mk","pt","sm","rs","si","es","xk","at","be","fr","de","li","lu","mc","nl","ch"]},"geometry":["relation"],"matchScore":2,"terms":["eurocity"],"reference":{"key":"route","value":"train"},"tags":{"network:wikidata":"Q753050","route":"train","type":"route"},"addTags":{"network":"EuroCity","network:wikidata":"Q753050","route":"train","type":"route"}},"type/route/train/euronight-6b9d23":{"name":"EuroNight","locationSet":{"include":["by","bg","cz","hu","pl","md","ro","ru","sk","ua","ax","gg","je","cq","dk","ee","fo","fi","is","ie","im","lv","lt","no","sj","se","gb","al","ad","ba","hr","gi","gr","va","it","mt","me","mk","pt","sm","rs","si","es","xk","at","be","fr","de","li","lu","mc","nl","ch"]},"geometry":["relation"],"matchScore":2,"terms":["euronight"],"reference":{"key":"route","value":"train"},"tags":{"network:wikidata":"Q257307","route":"train","type":"route"},"addTags":{"network":"EuroNight","network:wikidata":"Q257307","route":"train","type":"route"}}}