{"amenity/atm/bai-d8c228":{"name":"BAI","locationSet":{"include":["ao"]},"geometry":["point","vertex"],"matchScore":2,"terms":["bai","banco africano de investimentos","banco angolano de investimentos"],"fields":["name","brand","{amenity/atm}"],"tags":{"amenity":"atm","brand:wikidata":"Q806172"},"addTags":{"amenity":"atm","brand":"BAI","brand:wikidata":"Q806172","official_name":"Banco Angolano de Investimentos","operator":"BAI","operator:wikidata":"Q806172"}},"amenity/atm/bancodefomentoangolabfa-d8c228":{"name":"Banco de Fomento Angola (BFA)","locationSet":{"include":["ao"]},"geometry":["point","vertex"],"matchScore":2,"terms":["banco de fomento angola (bfa)"],"fields":["name","brand","{amenity/atm}"],"tags":{"amenity":"atm","brand:wikidata":"Q806197"},"addTags":{"amenity":"atm","brand":"Banco de Fomento Angola (BFA)","brand:wikidata":"Q806197","operator":"Banco de Fomento Angola (BFA)","operator:wikidata":"Q806197"}},"amenity/atm/bancosol-d8c228":{"name":"Banco Sol (Angola)","locationSet":{"include":["ao"]},"geometry":["point","vertex"],"matchScore":2,"terms":["banco sol"],"fields":["name","brand","{amenity/atm}"],"tags":{"amenity":"atm","brand:wikidata":"Q62118744"},"addTags":{"amenity":"atm","brand":"Banco Sol","brand:wikidata":"Q62118744","operator":"Banco Sol","operator:wikidata":"Q62118744"}},"amenity/atm/bpc-d8c228":{"name":"BPC","locationSet":{"include":["ao"]},"geometry":["point","vertex"],"matchScore":2,"terms":["banco de poupança e crédito","bpc"],"fields":["name","brand","{amenity/atm}"],"tags":{"amenity":"atm","brand:wikidata":"Q4854132"},"addTags":{"amenity":"atm","brand":"BPC","brand:wikidata":"Q4854132","official_name":"Banco de Poupança e Crédito","operator":"BPC","operator:wikidata":"Q4854132"}},"amenity/bank/bai-706633":{"name":"BAI","locationSet":{"include":["ao"]},"geometry":["point","area"],"matchScore":2,"terms":["bai","banco africano de investimentos","banco angolano de investimentos"],"tags":{"amenity":"bank","brand:wikidata":"Q806172"},"addTags":{"amenity":"bank","brand":"BAI","brand:wikidata":"Q806172","name":"BAI","official_name":"Banco Angolano de Investimentos"}},"amenity/bank/bancodefomentoangolabfa-706633":{"name":"Banco de Fomento Angola (BFA)","locationSet":{"include":["ao"]},"geometry":["point","area"],"matchScore":2,"terms":["banco de fomento angola (bfa)"],"tags":{"amenity":"bank","brand:wikidata":"Q806197"},"addTags":{"amenity":"bank","brand":"Banco de Fomento Angola (BFA)","brand:wikidata":"Q806197","name":"Banco de Fomento Angola (BFA)"}},"amenity/bank/bancosol-706633":{"name":"Banco Sol (Angola)","locationSet":{"include":["ao"]},"geometry":["point","area"],"matchScore":2,"terms":["banco sol"],"tags":{"amenity":"bank","brand:wikidata":"Q62118744"},"addTags":{"amenity":"bank","brand":"Banco Sol","brand:wikidata":"Q62118744","name":"Banco Sol"}},"amenity/bank/bpc-706633":{"name":"BPC","locationSet":{"include":["ao"]},"geometry":["point","area"],"matchScore":2,"terms":["banco de poupança e crédito","bpc"],"tags":{"amenity":"bank","brand:wikidata":"Q4854132"},"addTags":{"amenity":"bank","brand":"BPC","brand:wikidata":"Q4854132","name":"BPC","official_name":"Banco de Poupança e Crédito"}},"amenity/fast_food/burger/bobs-02d9fb":{"name":"Bob's","locationSet":{"include":["ao","br","cl","pt"]},"geometry":["point","area"],"matchScore":2,"terms":["bob's"],"reference":{"key":"cuisine","value":"burger"},"tags":{"amenity":"fast_food","brand:wikidata":"Q1392113","cuisine":"burger"},"addTags":{"amenity":"fast_food","brand":"Bob's","brand:wikidata":"Q1392113","cuisine":"burger","name":"Bob's","takeaway":"yes"}},"amenity/fuel/engen-b7f522":{"name":"Engen","locationSet":{"include":["dz","eg","ly","ma","sd","tn","eh","io","bi","km","dj","er","et","tf","ke","mg","mw","mu","yt","mz","re","rw","sc","so","ss","ug","tz","zm","zw","ao","cm","cf","td","cg","cd","gq","ga","st","bw","sz","ls","na","za","bj","bf","cv","ci","gm","gh","gn","gw","lr","ml","mr","ne","ng","sn","sl","tg","sh"]},"geometry":["point","area"],"matchScore":2,"terms":["engen","engen petroleum"],"fields":["name","brand","{amenity/fuel}"],"tags":{"amenity":"fuel","brand:wikidata":"Q3054251"},"addTags":{"amenity":"fuel","brand":"Engen","brand:wikidata":"Q3054251","name":"Engen"}},"amenity/fuel/sonangol-a1d251":{"name":"Sonangol","locationSet":{"include":["ao"]},"geometry":["point","area"],"matchScore":2,"terms":["sonangol"],"fields":["name","brand","{amenity/fuel}"],"tags":{"amenity":"fuel","brand:wikidata":"Q677832"},"addTags":{"amenity":"fuel","brand":"Sonangol","brand:wikidata":"Q677832","name":"Sonangol"}},"amenity/ice_cream/smooy-bac155":{"name":"smöoy","locationSet":{"include":["ao","ci","cn","dz","ec","es","fr","gb","gn","it","ma","pa","pe","pt","re","sa"]},"geometry":["point","area"],"matchScore":2,"terms":["smöoy","softy cream"],"tags":{"amenity":"ice_cream","brand:wikidata":"Q21573945"},"addTags":{"amenity":"ice_cream","brand":"smöoy","brand:wikidata":"Q21573945","name":"smöoy","official_name":"Softy Cream"}},"office/insurance/ensa-3c8773":{"name":"ENSA","locationSet":{"include":["ao"]},"geometry":["point","area"],"matchScore":2,"terms":["ensa"],"fields":["name","brand","{office/insurance}"],"tags":{"brand:wikidata":"Q5323726","office":"insurance"},"addTags":{"brand":"ENSA","brand:wikidata":"Q5323726","name":"ENSA","office":"insurance"}},"shop/furniture/chateaudax-c96b56":{"name":"Chateau d'Ax","locationSet":{"include":["ao","be","ca","ch","cn","de","es","fx","gp","hk","hr","it","ma","mq","mt","mu","mz","pt","re","sg","si","tn","tw","us","vn"]},"geometry":["point","area"],"matchScore":2,"terms":["chateau d'ax"],"tags":{"brand:wikidata":"Q100249791","shop":"furniture"},"addTags":{"brand":"Chateau d'Ax","brand:wikidata":"Q100249791","name":"Chateau d'Ax","shop":"furniture"}},"shop/perfumery/equivalenza-59ad61":{"name":"Equivalenza","locationSet":{"include":["ad","ao","at","be","ca","cv","de","do","es","fr","gr","gt","ie","it","mx","mz","nl","pe","pt","ro","tn","uk"]},"geometry":["point","area"],"matchScore":2,"terms":["equivalenza"],"tags":{"brand:wikidata":"Q104649798","shop":"perfumery"},"addTags":{"brand":"Equivalenza","brand:wikidata":"Q104649798","name":"Equivalenza","shop":"perfumery"}},"shop/supermarket/shoprite-56f959":{"name":"Shoprite (Africa)","locationSet":{"include":["ao","bw","cd","gh","ls","mg","mu","mw","mz","na","ng","sz","ug","za","zm"]},"geometry":["point","area"],"matchScore":2,"terms":["shoprite"],"tags":{"brand:wikidata":"Q1857639","shop":"supermarket"},"addTags":{"brand":"Shoprite","brand:wikidata":"Q1857639","name":"Shoprite","shop":"supermarket"}},"power/generator/empresapublicadeproducaodeelectricidade-0ddd58":{"name":"Empresa Pública de Produção de Electricidade","locationSet":{"include":["ao"]},"geometry":["point","vertex","area"],"matchScore":2,"terms":["empresa pública de produção de electricidade","prodel","prodel - empresa pública de produção de electricidade, ep"],"tags":{"operator:wikidata":"Q106836436","power":"generator"},"addTags":{"operator":"Empresa Pública de Produção de Electricidade","operator:short":"PRODEL","operator:wikidata":"Q106836436","power":"generator"}}}