{"amenity/atm/accessbank-3f49d1":{"name":"Access Bank","locationSet":{"include":["cd","gb","gh","gm","mz","rw","sl","zm"]},"geometry":["point","vertex"],"matchScore":2,"terms":["access bank","diamond bank"],"tags":{"amenity":"atm","brand:wikidata":"Q4672418"},"addTags":{"amenity":"atm","brand":"Access Bank","brand:wikidata":"Q4672418","name":"Access Bank","operator":"Access Bank","operator:wikidata":"Q4672418"}},"amenity/atm/fnb-2eaa9a":{"name":"FNB (South Africa)","locationSet":{"include":["bw","mz","na","za","zm"]},"geometry":["point","vertex"],"matchScore":2,"terms":["first national bank","fnb"],"tags":{"amenity":"atm","brand:wikidata":"Q3072956"},"addTags":{"amenity":"atm","brand":"FNB","brand:wikidata":"Q3072956","name":"FNB","official_name":"First National Bank","operator":"FNB","operator:wikidata":"Q3072956"}},"amenity/atm/uba-69edd8":{"name":"UBA","locationSet":{"include":["bf","bj","cd","cg","ci","cm","fr","ga","gb","gh","gn","ke","lr","ml","mz","ng","sl","sn","td","tz","ug","us","zm"]},"geometry":["point","vertex"],"matchScore":2,"terms":["uba","united bank for africa"],"tags":{"amenity":"atm","brand:wikidata":"Q513457"},"addTags":{"amenity":"atm","brand":"UBA","brand:wikidata":"Q513457","name":"UBA","official_name":"United Bank for Africa","operator":"UBA","operator:wikidata":"Q513457"}},"amenity/bank/accessbank-175004":{"name":"Access Bank","locationSet":{"include":["cd","gb","gh","gm","mz","rw","sl","zm"]},"geometry":["point","area"],"matchScore":2,"terms":["access bank","diamond bank"],"tags":{"amenity":"bank","brand:wikidata":"Q4672418"},"addTags":{"amenity":"bank","brand":"Access Bank","brand:wikidata":"Q4672418","name":"Access Bank"}},"amenity/bank/fnb-154feb":{"name":"FNB (South Africa)","locationSet":{"include":["bw","mz","na","za","zm"]},"geometry":["point","area"],"matchScore":2,"terms":["first national bank","fnb"],"tags":{"amenity":"bank","brand:wikidata":"Q3072956"},"addTags":{"amenity":"bank","brand":"FNB","brand:wikidata":"Q3072956","name":"FNB","official_name":"First National Bank"}},"amenity/bank/uba-95540f":{"name":"UBA","locationSet":{"include":["bf","bj","cd","cg","ci","cm","fr","ga","gb","gh","gn","ke","lr","ml","mz","ng","sl","sn","td","tz","ug","us","zm"]},"geometry":["point","area"],"matchScore":2,"terms":["uba","united bank for africa"],"tags":{"amenity":"bank","brand:wikidata":"Q513457"},"addTags":{"amenity":"bank","brand":"UBA","brand:wikidata":"Q513457","name":"UBA","official_name":"United Bank for Africa"}},"amenity/fast_food/pizza/debonairspizza-10dad6":{"name":"Debonairs Pizza","locationSet":{"include":["ae","bw","ke","ls","mu","mw","mz","na","ng","sd","ss","sz","za","zm"]},"geometry":["point","area"],"matchScore":2,"terms":["debonairs","debonairs pizza"],"reference":{"key":"cuisine","value":"pizza"},"tags":{"amenity":"fast_food","brand:wikidata":"Q65079407","cuisine":"pizza"},"addTags":{"amenity":"fast_food","brand":"Debonairs Pizza","brand:wikidata":"Q65079407","cuisine":"pizza","name":"Debonairs Pizza","takeaway":"yes"}},"amenity/fuel/kobil-568233":{"name":"Kobil","locationSet":{"include":["bi","et","ke","rw","tz","ug","zm"]},"geometry":["point","area"],"matchScore":2,"terms":["kobil"],"fields":["name","brand","{amenity/fuel}"],"tags":{"amenity":"fuel","brand:wikidata":"Q22906119"},"addTags":{"amenity":"fuel","brand":"Kobil","brand:wikidata":"Q22906119","name":"Kobil"}},"amenity/restaurant/nandos-32ebee":{"name":"Nando's","locationSet":{"include":["ae","au","bd","bh","bw","ca","fj","gb","ie","in","mu","my","nz","om","pk","qa","sa","sg","sz","us","za","zm","zw"]},"geometry":["point","area"],"matchScore":2,"terms":["nando's"],"tags":{"amenity":"restaurant","brand:wikidata":"Q3472954"},"addTags":{"amenity":"restaurant","brand":"Nando's","brand:wikidata":"Q3472954","cuisine":"chicken;portuguese","name":"Nando's"}},"shop/department_store/edgars-34fd38":{"name":"Edgars","locationSet":{"include":["bw","gh","ls","na","sz","za","zm"]},"geometry":["point","area"],"matchScore":2,"terms":["edgars"],"tags":{"brand:wikidata":"Q97276073","shop":"department_store"},"addTags":{"brand":"Edgars","brand:wikidata":"Q97276073","name":"Edgars","shop":"department_store"}},"shop/mobile_phone/mtn-fe03c5":{"name":"MTN","locationSet":{"include":["af","bj","bw","cg","ci","cm","gn","gw","ir","lr","ni","rw","sd","ss","sy","ug","ye","za","zm"]},"geometry":["point","area"],"matchScore":2,"terms":["agence mtn","mtn"],"tags":{"brand:wikidata":"Q1813361","shop":"mobile_phone"},"addTags":{"brand":"MTN","brand:wikidata":"Q1813361","name":"MTN","shop":"mobile_phone"}},"shop/supermarket/choppies-8c44d4":{"name":"Choppies","locationSet":{"include":["bw","zm","zw"]},"geometry":["point","area"],"matchScore":2,"terms":["choppies"],"tags":{"brand:wikidata":"Q5104860","shop":"supermarket"},"addTags":{"brand":"Choppies","brand:wikidata":"Q5104860","name":"Choppies","shop":"supermarket"}},"shop/supermarket/shoprite-56f959":{"name":"Shoprite (Africa)","locationSet":{"include":["ao","bw","cd","gh","ls","mg","mu","mw","mz","na","ng","sz","ug","za","zm"]},"geometry":["point","area"],"matchScore":2,"terms":["shoprite"],"tags":{"brand:wikidata":"Q1857639","shop":"supermarket"},"addTags":{"brand":"Shoprite","brand:wikidata":"Q1857639","name":"Shoprite","shop":"supermarket"}},"amenity/hospital/ministryofhealth-ddfad3":{"name":"Ministry of Health (Zambia)","locationSet":{"include":["zm"]},"geometry":["area","point"],"matchScore":2,"terms":["ministry of health","moh"],"fields":["name","operator","{amenity/hospital}"],"reference":{"key":"amenity","value":"hospital"},"tags":{"amenity":"hospital","operator:wikidata":"Q6867107"},"addTags":{"amenity":"hospital","healthcare":"hospital","operator":"Ministry of Health","operator:wikidata":"Q6867107"}}}