{"amenity/cafe/coffee_shop/starbucks-0dcee5":{"name":"ستاربكس","locationSet":{"include":["ae","bh","dz","eg","iq","jo","kw","lb","ly","ma","om","qa","sa","tn"]},"geometry":["point","area"],"matchScore":2,"terms":["starbucks","starbucks coffee","ستاربكس","ستاربكس كافية"],"reference":{"key":"cuisine","value":"coffee_shop"},"tags":{"amenity":"cafe","brand:wikidata":"Q37158","cuisine":"coffee_shop"},"addTags":{"amenity":"cafe","brand":"ستاربكس","brand:ar":"ستاربكس","brand:en":"Starbucks","brand:wikidata":"Q37158","brand:wikipedia":"ar:ستاربكس","cuisine":"coffee_shop","name":"ستاربكس","name:ar":"ستاربكس","name:en":"Starbucks","official_name":"ستاربكس كافية","official_name:ar":"ستاربكس كافية","official_name:en":"Starbucks Coffee","takeaway":"yes"}},"amenity/fast_food/burger/burgerfuel-ba88db":{"name":"BurgerFuel","locationSet":{"include":["ae","iq","nz","sa","us"]},"geometry":["point","area"],"matchScore":2,"terms":["burgerfuel"],"reference":{"key":"cuisine","value":"burger"},"tags":{"amenity":"fast_food","brand:wikidata":"Q4998537","cuisine":"burger"},"addTags":{"amenity":"fast_food","brand":"BurgerFuel","brand:wikidata":"Q4998537","brand:wikipedia":"en:BurgerFuel","cuisine":"burger","name":"BurgerFuel","takeaway":"yes"}},"amenity/fast_food/shakeaway-3bfa70":{"name":"ShakeAway","locationSet":{"include":["gb","iq","jo","tl"]},"geometry":["point","area"],"matchScore":2,"terms":["shakeaway"],"tags":{"amenity":"fast_food","brand:wikidata":"Q108443709"},"addTags":{"amenity":"fast_food","brand":"ShakeAway","brand:wikidata":"Q108443709","cuisine":"frozen_yogurt;dessert","name":"ShakeAway","takeaway":"yes"}},"amenity/ice_cream/llaollao-dd9462":{"name":"Llaollao","locationSet":{"include":["au","ch","cl","co","ec","es","fr","gt","hr","id","iq","kw","ma","my","ph","pt","sa","sg","si","sv","us","vn"]},"geometry":["point","area"],"matchScore":2,"terms":["llaollao"],"tags":{"amenity":"ice_cream","brand:wikidata":"Q12163048"},"addTags":{"amenity":"ice_cream","brand":"Llaollao","brand:wikidata":"Q12163048","brand:wikipedia":"es:Llaollao","cuisine":"frozen_yogurt","name":"Llaollao"}}}