{"amenity/atm/centralbank-5249e2":{"name":"Central Bank","locationSet":{"include":["us-fl","us-il","us-ks","us-mo","us-nc","us-ok","us-tn"]},"geometry":["point","vertex"],"matchScore":2,"terms":["central bank"],"tags":{"amenity":"atm","brand:wikidata":"Q113482320"},"addTags":{"amenity":"atm","brand":"Central Bank","brand:wikidata":"Q113482320","name":"Central Bank","operator":"Central Bank","operator:wikidata":"Q113482320"}},"amenity/bank/centralbank-43524a":{"name":"Central Bank","locationSet":{"include":["us-fl","us-il","us-ks","us-mo","us-nc","us-ok","us-tn"]},"geometry":["point","area"],"matchScore":2,"terms":["central bank"],"tags":{"amenity":"bank","brand:wikidata":"Q113482320"},"addTags":{"amenity":"bank","brand":"Central Bank","brand:wikidata":"Q113482320","name":"Central Bank"}},"amenity/clinic/gohealthurgentcare-c4274f":{"name":"Mercy-GoHealth Urgent Care","locationSet":{"include":["us-ar","us-mo","us-ok"]},"geometry":["point","area"],"matchScore":2,"terms":["gohealth urgent care","mercy"],"reference":{"key":"amenity","value":"clinic"},"tags":{"amenity":"clinic","brand:wikidata":"Q110282081"},"addTags":{"amenity":"clinic","brand":"GoHealth Urgent Care","brand:wikidata":"Q110282081","healthcare":"clinic","operator":"Mercy","operator:wikidata":"Q19896177"}},"shop/convenience/kentkwik-c3f9f6":{"name":"Kent Kwik","locationSet":{"include":["us-nm","us-ok","us-tx"]},"geometry":["point","area"],"matchScore":2,"terms":["kent kwik"],"tags":{"brand:wikidata":"Q110622262","shop":"convenience"},"addTags":{"brand":"Kent Kwik","brand:wikidata":"Q110622262","name":"Kent Kwik","shop":"convenience"}},"shop/trade/warrencat-fc264f":{"name":"Warren CAT","locationSet":{"include":["us-ok","us-tx"]},"geometry":["point","area"],"matchScore":2,"terms":["warren cat"],"tags":{"brand:wikidata":"Q109615947","shop":"trade"},"addTags":{"brand":"Warren CAT","brand:wikidata":"Q109615947","name":"Warren CAT","shop":"trade","trade":"construction_equipment"}},"amenity/school/tulsapublicschools-68061d":{"name":"Tulsa Public Schools","locationSet":{"include":["us-ok"]},"geometry":["area","point"],"matchScore":2,"terms":["tulsa public schools"],"tags":{"amenity":"school","operator:wikidata":"Q7852353"},"addTags":{"amenity":"school","operator":"Tulsa Public Schools","operator:wikidata":"Q7852353"}},"leisure/nature_reserve/cityofnorman-726c77":{"name":"City of Norman","locationSet":{"include":["us-ok"]},"geometry":["area","point"],"matchScore":2,"terms":["city of norman"],"tags":{"leisure":"nature_reserve","operator:wikidata":"Q40347"},"addTags":{"leisure":"nature_reserve","operator":"City of Norman","operator:type":"public","operator:wikidata":"Q40347"}},"leisure/nature_reserve/cityofoklahomacity-726c77":{"name":"City of Oklahoma City","locationSet":{"include":["us-ok"]},"geometry":["area","point"],"matchScore":2,"terms":["city of oklahoma city"],"tags":{"leisure":"nature_reserve","operator:wikidata":"Q34863"},"addTags":{"leisure":"nature_reserve","operator":"City of Oklahoma City","operator:type":"public","operator:wikidata":"Q34863"}},"leisure/nature_reserve/oklahomacounty-726c77":{"name":"Oklahoma County","locationSet":{"include":["us-ok"]},"geometry":["area","point"],"matchScore":2,"terms":["oklahoma county"],"tags":{"leisure":"nature_reserve","operator:wikidata":"Q485038"},"addTags":{"leisure":"nature_reserve","operator":"Oklahoma County","operator:type":"public","operator:wikidata":"Q485038"}},"leisure/nature_reserve/oklahomadepartmentofwildlifeconservation-726c77":{"name":"Oklahoma Department of Wildlife Conservation","locationSet":{"include":["us-ok"]},"geometry":["area","point"],"matchScore":2,"terms":["oklahoma department of wildlife conservation"],"tags":{"leisure":"nature_reserve","operator:wikidata":"Q7082205"},"addTags":{"leisure":"nature_reserve","operator":"Oklahoma Department of Wildlife Conservation","operator:type":"public","operator:wikidata":"Q7082205"}},"leisure/nature_reserve/townofalva-726c77":{"name":"Town of Alva","locationSet":{"include":["us-ok"]},"geometry":["area","point"],"matchScore":2,"terms":["town of alva"],"tags":{"leisure":"nature_reserve","operator:wikidata":"Q998914"},"addTags":{"leisure":"nature_reserve","operator":"Town of Alva","operator:type":"public","operator:wikidata":"Q998914"}},"leisure/park/cityofnorman-930c38":{"name":"City of Norman","locationSet":{"include":["us-ok"]},"geometry":["area","point"],"matchScore":2,"terms":["city of norman"],"tags":{"leisure":"park","operator:wikidata":"Q40347"},"addTags":{"leisure":"park","operator":"City of Norman","operator:type":"public","operator:wikidata":"Q40347"}},"leisure/park/cityofoklahomacity-930c38":{"name":"City of Oklahoma City","locationSet":{"include":["us-ok"]},"geometry":["area","point"],"matchScore":2,"terms":["city of oklahoma city"],"tags":{"leisure":"park","operator:wikidata":"Q34863"},"addTags":{"leisure":"park","operator":"City of Oklahoma City","operator:type":"public","operator:wikidata":"Q34863"}},"leisure/park/oklahomacounty-930c38":{"name":"Oklahoma County","locationSet":{"include":["us-ok"]},"geometry":["area","point"],"matchScore":2,"terms":["oklahoma county"],"tags":{"leisure":"park","operator:wikidata":"Q485038"},"addTags":{"leisure":"park","operator":"Oklahoma County","operator:type":"public","operator:wikidata":"Q485038"}},"leisure/park/oklahomadepartmentofwildlifeconservation-930c38":{"name":"Oklahoma Department of Wildlife Conservation","locationSet":{"include":["us-ok"]},"geometry":["area","point"],"matchScore":2,"terms":["oklahoma department of wildlife conservation"],"tags":{"leisure":"park","operator:wikidata":"Q7082205"},"addTags":{"leisure":"park","operator":"Oklahoma Department of Wildlife Conservation","operator:type":"public","operator:wikidata":"Q7082205"}},"leisure/park/townofalva-930c38":{"name":"Town of Alva","locationSet":{"include":["us-ok"]},"geometry":["area","point"],"matchScore":2,"terms":["town of alva"],"tags":{"leisure":"park","operator:wikidata":"Q998914"},"addTags":{"leisure":"park","operator":"Town of Alva","operator:type":"public","operator:wikidata":"Q998914"}},"office/government/oklahomadepartmentofpublicsafety-1c35fb":{"name":"Oklahoma DPS","locationSet":{"include":["us-ok"]},"geometry":["point","area"],"matchScore":2,"terms":["dept of public safety","dps","drivers license testing","oklahoma department of public safety","oklahoma dps"],"fields":["name","operator","{office/government}"],"tags":{"office":"government","operator:wikidata":"Q17108253"},"addTags":{"office":"government","operator":"Oklahoma Department of Public Safety","operator:short":"Oklahoma DPS","operator:wikidata":"Q17108253"}},"power/generator/oklahomagasandelectric-7551be":{"name":"Oklahoma Gas & Electric","locationSet":{"include":["us-ar","us-ok"]},"geometry":["point","vertex","area"],"matchScore":2,"terms":["oklahoma gas & electric"],"tags":{"operator:wikidata":"Q2007484","power":"generator"},"addTags":{"operator":"Oklahoma Gas & Electric","operator:wikidata":"Q2007484","power":"generator"}},"power/line/oklahomagasandelectric-67f39c":{"name":"Oklahoma Gas & Electric","locationSet":{"include":["us-ar","us-ok"]},"geometry":["line"],"matchScore":2,"terms":["og+e","oklahoma gas & electric"],"tags":{"operator:wikidata":"Q2007484","power":"line"},"addTags":{"operator":"Oklahoma Gas & Electric","operator:short":"OG+E","operator:wikidata":"Q2007484","power":"line"}},"power/line/publicservicecompanyofoklahoma-bcec93":{"name":"PSO","locationSet":{"include":["us-ok"]},"geometry":["line"],"matchScore":2,"terms":["pso","public service company of oklahoma"],"tags":{"operator:wikidata":"Q109016015","power":"line"},"addTags":{"operator":"Public Service Company of Oklahoma","operator:short":"PSO","operator:wikidata":"Q109016015","power":"line"}},"power/minor_line/oklahomagasandelectric-cdec2d":{"name":"Oklahoma Gas & Electric","locationSet":{"include":["us-ar","us-ok"]},"geometry":["line"],"matchScore":2,"terms":["og+e","oklahoma gas & electric"],"tags":{"operator:wikidata":"Q2007484","power":"minor_line"},"addTags":{"operator":"Oklahoma Gas & Electric","operator:short":"OG+E","operator:wikidata":"Q2007484","power":"minor_line"}},"power/minor_line/publicservicecompanyofoklahoma-fab6f4":{"name":"PSO","locationSet":{"include":["us-ok"]},"geometry":["line"],"matchScore":2,"terms":["pso","public service company of oklahoma"],"tags":{"operator:wikidata":"Q109016015","power":"minor_line"},"addTags":{"operator":"Public Service Company of Oklahoma","operator:short":"PSO","operator:wikidata":"Q109016015","power":"minor_line"}},"power/plant/oklahomagasandelectric-66347c":{"name":"Oklahoma Gas & Electric","locationSet":{"include":["us-ar","us-ok"]},"geometry":["area"],"matchScore":2,"terms":["og+e","oklahoma gas & electric","oklahoma gas & electric co"],"tags":{"operator:wikidata":"Q2007484","power":"plant"},"addTags":{"operator":"Oklahoma Gas & Electric","operator:short":"OG+E","operator:wikidata":"Q2007484","power":"plant"}},"power/pole/oklahomagasandelectric-0874bd":{"name":"Oklahoma Gas & Electric","locationSet":{"include":["us-ar","us-ok"]},"geometry":["point","vertex"],"matchScore":2,"terms":["og+e","oklahoma gas & electric"],"tags":{"operator:wikidata":"Q2007484","power":"pole"},"addTags":{"operator":"Oklahoma Gas & Electric","operator:short":"OG+E","operator:wikidata":"Q2007484","power":"pole"}},"power/pole/publicservicecompanyofoklahoma-7b2677":{"name":"PSO","locationSet":{"include":["us-ok"]},"geometry":["point","vertex"],"matchScore":2,"terms":["pso","public service company of oklahoma"],"tags":{"operator:wikidata":"Q109016015","power":"pole"},"addTags":{"operator":"Public Service Company of Oklahoma","operator:short":"PSO","operator:wikidata":"Q109016015","power":"pole"}},"power/substation/oklahomagasandelectric-3e7f38":{"name":"Oklahoma Gas & Electric","locationSet":{"include":["us-ar","us-ok"]},"geometry":["area","point"],"matchScore":2,"terms":["og+e","oklahoma gas & electric"],"tags":{"operator:wikidata":"Q2007484","power":"substation"},"addTags":{"operator":"Oklahoma Gas & Electric","operator:short":"OG+E","operator:wikidata":"Q2007484","power":"substation"}},"power/substation/publicservicecompanyofoklahoma-b5d3f3":{"name":"PSO","locationSet":{"include":["us-ok"]},"geometry":["area","point"],"matchScore":2,"terms":["pso","public service company of oklahoma"],"tags":{"operator:wikidata":"Q109016015","power":"substation"},"addTags":{"operator":"Public Service Company of Oklahoma","operator:short":"PSO","operator:wikidata":"Q109016015","power":"substation"}},"power/tower/oklahomagasandelectric-f05dd4":{"name":"Oklahoma Gas & Electric","locationSet":{"include":["us-ar","us-ok"]},"geometry":["point","vertex"],"matchScore":2,"terms":["og+e","oklahoma gas & electric"],"tags":{"operator:wikidata":"Q2007484","power":"tower"},"addTags":{"operator":"Oklahoma Gas & Electric","operator:short":"OG+E","operator:wikidata":"Q2007484","power":"tower"}},"power/tower/publicservicecompanyofoklahoma-df4988":{"name":"PSO","locationSet":{"include":["us-ok"]},"geometry":["point","vertex"],"matchScore":2,"terms":["pso","public service company of oklahoma"],"tags":{"operator:wikidata":"Q109016015","power":"tower"},"addTags":{"operator":"Public Service Company of Oklahoma","operator:short":"PSO","operator:wikidata":"Q109016015","power":"tower"}},"power/transformer/oklahomagasandelectric-bab4e4":{"name":"Oklahoma Gas & Electric","locationSet":{"include":["us-ar","us-ok"]},"geometry":["point","vertex"],"matchScore":2,"terms":["og+e","oklahoma gas & electric"],"tags":{"operator:wikidata":"Q2007484","power":"transformer"},"addTags":{"operator":"Oklahoma Gas & Electric","operator:short":"OG+E","operator:wikidata":"Q2007484","power":"transformer"}},"power/transformer/publicservicecompanyofoklahoma-d15bf5":{"name":"PSO","locationSet":{"include":["us-ok"]},"geometry":["point","vertex"],"matchScore":2,"terms":["pso","public service company of oklahoma"],"tags":{"operator:wikidata":"Q109016015","power":"transformer"},"addTags":{"operator":"Public Service Company of Oklahoma","operator:short":"PSO","operator:wikidata":"Q109016015","power":"transformer"}},"public_transport/platform/bus_point/cotpa-b8c297":{"name":"COTPA","locationSet":{"include":["us-ok"]},"geometry":["point","vertex"],"matchScore":2,"terms":["cotpa"],"reference":{"key":"public_transport","value":"platform"},"tags":{"bus":"yes","network:wikidata":"Q6824747","public_transport":"platform"},"addTags":{"bus":"yes","highway":"bus_stop","network":"COTPA","network:wikidata":"Q6824747","public_transport":"platform"}},"type/route/bus/cotpa-731ce8":{"name":"COTPA","locationSet":{"include":["us-ok"]},"geometry":["relation"],"matchScore":2,"terms":["cotpa"],"reference":{"key":"route","value":"bus"},"tags":{"network:wikidata":"Q6824747","route":"bus","type":"route"},"addTags":{"network":"COTPA","network:wikidata":"Q6824747","route":"bus","type":"route"}}}