{"amenity/atm/bni-d4d2b6":{"name":"BNI","locationSet":{"include":["au","ca","gb","hk","id","jp","kr","mm","sg","us"]},"geometry":["point","vertex"],"matchScore":2,"terms":["bank bni","bank negara indonesia","bni"],"fields":["name","brand","{amenity/atm}"],"tags":{"amenity":"atm","brand:wikidata":"Q2882611"},"addTags":{"amenity":"atm","brand":"BNI","brand:wikidata":"Q2882611","official_name":"Bank Negara Indonesia","operator":"BNI","operator:wikidata":"Q2882611"}},"amenity/atm/eastwestbank-c14adf":{"name":"East West Bank","locationSet":{"include":["cn","hk","us"]},"geometry":["point","vertex"],"matchScore":2,"terms":["east west bank","華美銀行"],"fields":["name","brand","{amenity/atm}"],"tags":{"amenity":"atm","brand:wikidata":"Q3046549"},"addTags":{"amenity":"atm","brand":"East West Bank","brand:wikidata":"Q3046549","name:en":"East West Bank","name:zh":"華美銀行","name:zh-Hans":"华美银行","name:zh-Hant":"華美銀行","operator":"East West Bank","operator:wikidata":"Q3046549"}},"amenity/atm/uob-441a96":{"name":"UOB","locationSet":{"include":["au","bn","ca","cn","gb","hk","id","in","jp","kr","mm","my","ph","sg","th","us","vn"]},"geometry":["point","vertex"],"matchScore":2,"terms":["united overseas bank","uob","大华银行"],"fields":["name","brand","{amenity/atm}"],"tags":{"amenity":"atm","brand:wikidata":"Q2064074"},"addTags":{"amenity":"atm","brand":"UOB","brand:wikidata":"Q2064074","brand:zh":"大华银行","name:zh":"大华银行","operator":"UOB","operator:wikidata":"Q2064074"}},"amenity/atm/shanghaicommercialbank-e57d9a":{"name":"上海商業銀行 Shanghai Commercial Bank","locationSet":{"include":["hk"]},"geometry":["point","vertex"],"matchScore":2,"terms":["scb","shanghai commercial bank","上商","上海商業銀行","上海商業銀行 shanghai commercial bank","上海商行"],"fields":["name","brand","{amenity/atm}"],"tags":{"amenity":"atm","brand:wikidata":"Q7488421"},"addTags":{"amenity":"atm","brand":"上海商業銀行 Shanghai Commercial Bank","brand:en":"Shanghai Commercial Bank","brand:wikidata":"Q7488421","brand:zh":"上海商業銀行","brand:zh-Hans":"上海商业银行","brand:zh-Hant":"上海商業銀行","name:en":"Shanghai Commercial Bank","name:zh":"上海商業銀行","name:zh-Hans":"上海商业银行","name:zh-Hant":"上海商業銀行","operator":"上海商業銀行 Shanghai Commercial Bank","operator:wikidata":"Q7488421","short_name":"SCB"}},"amenity/atm/chinaciticbankinternational-e57d9a":{"name":"中信銀行（國際） China CITIC Bank International","locationSet":{"include":["hk"]},"geometry":["point","vertex"],"matchScore":2,"terms":["china citic bank","china citic bank international","中信銀行","中信銀行 china citic bank","中信銀行（國際）"],"fields":["name","brand","{amenity/atm}"],"tags":{"amenity":"atm","brand:wikidata":"Q38960"},"addTags":{"amenity":"atm","brand":"中信銀行 China CITIC Bank","brand:en":"China CITIC Bank","brand:wikidata":"Q38960","brand:zh":"中信銀行","brand:zh-Hans":"中信银行","brand:zh-Hant":"中信銀行","name:en":"China CITIC Bank International","name:zh":"中信銀行（國際）","name:zh-Hans":"中信银行（国际）","name:zh-Hant":"中信銀行（國際）","operator":"中信銀行 China CITIC Bank","operator:wikidata":"Q38960"}},"amenity/atm/icbcasia-e57d9a":{"name":"中國工商銀行（亞洲） Industrial and Commercial Bank of China (Asia)","locationSet":{"include":["hk"]},"geometry":["point","vertex"],"matchScore":2,"terms":["icbc","icbc (asia)","industrial and commercial bank of china","中國工商銀行","中國工商銀行（亞洲）","工商銀行","工行","工銀","工銀（亞洲）","工銀亞洲"],"fields":["name","brand","{amenity/atm}"],"tags":{"amenity":"atm","brand:wikidata":"Q26463"},"addTags":{"amenity":"atm","brand":"中國工商銀行","brand:en":"Industrial and Commercial Bank of China","brand:wikidata":"Q26463","brand:zh":"中國工商銀行","brand:zh-Hans":"中国工商银行","brand:zh-Hant":"中國工商銀行","name:en":"ICBC (Asia)","name:zh":"中國工商銀行（亞洲）","name:zh-Hans":"中国工商银行（亚洲）","name:zh-Hant":"中國工商銀行（亞洲）","operator":"中國工商銀行","operator:wikidata":"Q26463"}},"amenity/atm/ccbasia-e57d9a":{"name":"中國建設銀行（亞洲） China Construction Bank (Asia)","locationSet":{"include":["hk"]},"geometry":["point","vertex"],"matchScore":2,"terms":["ccb","ccb (asia)","china construction bank","中國建設銀行","中國建設銀行 china construction bank","中國建設銀行（亞洲）","建行","建行（亞洲）","建行亞洲","建設銀行"],"fields":["name","brand","{amenity/atm}"],"tags":{"amenity":"atm","brand:wikidata":"Q26299"},"addTags":{"amenity":"atm","brand":"中國建設銀行 China Construction Bank","brand:en":"China Construction Bank","brand:wikidata":"Q26299","brand:zh":"中國建設銀行","brand:zh-Hans":"中国建设银行","brand:zh-Hant":"中國建設銀行","name:en":"CCB (Asia)","name:zh":"中國建設銀行（亞洲）","name:zh-Hans":"中国建设银行（亚洲）","name:zh-Hant":"中國建設銀行（亞洲）","operator":"中國建設銀行 China Construction Bank","operator:wikidata":"Q26299"}},"amenity/atm/bankofchinahongkong-e57d9a":{"name":"中國銀行（香港） Bank of China (Hong Kong)","locationSet":{"include":["hk"]},"geometry":["point","vertex"],"matchScore":2,"terms":["bank of china","bank of china (hong kong)","boc","bochk","中國銀行 bank of china","中國銀行（香港）","中行","中銀","中銀香港"],"fields":["name","brand","{amenity/atm}"],"tags":{"amenity":"atm","brand:wikidata":"Q790068"},"addTags":{"amenity":"atm","brand":"中國銀行 Bank of China","brand:en":"Bank of China","brand:wikidata":"Q790068","brand:zh":"中國銀行（香港）","brand:zh-Hans":"中国银行（香港）","brand:zh-Hant":"中國銀行（香港）","name:en":"Bank of China (Hong Kong)","name:zh":"中國銀行（香港）","name:zh-Hans":"中国银行（香港）","name:zh-Hant":"中國銀行（香港）","operator":"中國銀行 Bank of China","operator:wikidata":"Q790068"}},"amenity/atm/bankofcommunications-e57d9a":{"name":"交通銀行 Bank of Communications","locationSet":{"include":["hk"]},"geometry":["point","vertex"],"matchScore":2,"terms":["bank of communications","交行","交通銀行","交通銀行 bank of communications"],"fields":["name","brand","{amenity/atm}"],"tags":{"amenity":"atm","brand:wikidata":"Q806680"},"addTags":{"amenity":"atm","brand":"交通銀行 Bank of Communications","brand:en":"Bank of Communications","brand:wikidata":"Q806680","brand:zh-Hans":"交通银行","brand:zh-Hant":"交通銀行","name:en":"Bank of Communications","name:zh":"交通銀行","name:zh-Hans":"交通银行","name:zh-Hant":"交通銀行","operator":"交通銀行 Bank of Communications","operator:wikidata":"Q806680"}},"amenity/atm/chonghingbank-aa3d3d":{"name":"創興銀行 Chong Hing Bank","locationSet":{"include":["hk","mo"]},"geometry":["point","vertex"],"matchScore":2,"terms":["chong hing bank","創興","創興銀行","創興銀行 chong hing bank"],"fields":["name","brand","{amenity/atm}"],"tags":{"amenity":"atm","brand:wikidata":"Q5104600"},"addTags":{"amenity":"atm","brand":"創興銀行 Chong Hing Bank","brand:en":"Chong Hing Bank","brand:wikidata":"Q5104600","brand:zh":"創興銀行","brand:zh-Hans":"创兴银行","brand:zh-Hant":"創興銀行","name:en":"Chong Hing Bank","name:zh":"創興銀行","name:zh-Hans":"创兴银行","name:zh-Hant":"創興銀行","operator":"創興銀行 Chong Hing Bank","operator:wikidata":"Q5104600"}},"amenity/atm/nanyangcommercialbank-e57d9a":{"name":"南洋商業銀行 Nanyang Commercial Bank","locationSet":{"include":["hk"]},"geometry":["point","vertex"],"matchScore":2,"terms":["nanyang commercial bank","ncb","南洋商業","南洋商業銀行","南洋商業銀行 nanyang commercial bank"],"fields":["name","brand","{amenity/atm}"],"tags":{"amenity":"atm","brand:wikidata":"Q3335816"},"addTags":{"amenity":"atm","brand":"南洋商業銀行 Nanyang Commercial Bank","brand:en":"Nanyang Commercial Bank","brand:wikidata":"Q3335816","brand:zh":"南洋商業銀行","brand:zh-Hans":"南洋商业银行","brand:zh-Hant":"南洋商業銀行","name:en":"Nanyang Commercial Bank","name:zh":"南洋商業銀行","name:zh-Hans":"南洋商业银行","name:zh-Hant":"南洋商業銀行","operator":"南洋商業銀行 Nanyang Commercial Bank","operator:wikidata":"Q3335816","short_name":"NCB"}},"amenity/atm/nantobank-3b4db7":{"name":"南都銀行","locationSet":{"include":["cn","hk","jp"]},"geometry":["point","vertex"],"matchScore":2,"terms":["nanto bank","南都銀行"],"fields":["name","brand","{amenity/atm}"],"tags":{"amenity":"atm","brand:wikidata":"Q4045062"},"addTags":{"amenity":"atm","brand":"南都銀行","brand:en":"Nanto Bank","brand:ja":"南都銀行","brand:wikidata":"Q4045062","name:en":"Nanto Bank","name:ja":"南都銀行","operator":"南都銀行","operator:wikidata":"Q4045062"}},"amenity/atm/dahsingbank-e57d9a":{"name":"大新銀行 Dah Sing Bank","locationSet":{"include":["hk"]},"geometry":["point","vertex"],"matchScore":2,"terms":["dah sing bank","大新","大新銀行","大新銀行 dah sing bank"],"fields":["name","brand","{amenity/atm}"],"tags":{"amenity":"atm","brand:wikidata":"Q5208707"},"addTags":{"amenity":"atm","brand":"大新銀行 Dah Sing Bank","brand:en":"Dah Sing Bank","brand:wikidata":"Q5208707","brand:zh":"大新銀行","brand:zh-Hans":"大新银行","brand:zh-Hant":"大新銀行","name:en":"Dah Sing Bank","name:zh":"大新銀行","name:zh-Hans":"大新银行","name:zh-Hant":"大新銀行","operator":"大新銀行 Dah Sing Bank","operator:wikidata":"Q5208707"}},"amenity/atm/publicbankhongkong-e57d9a":{"name":"大眾銀行（香港） Public Bank (Hong Kong)","locationSet":{"include":["hk"]},"geometry":["point","vertex"],"matchScore":2,"terms":["public bank","public bank (hong kong)","大眾銀行","大眾銀行 public bank","大眾銀行（香港）"],"fields":["name","brand","{amenity/atm}"],"tags":{"amenity":"atm","brand:wikidata":"Q3046561"},"addTags":{"amenity":"atm","brand":"大眾銀行 Public Bank","brand:en":"Public Bank","brand:wikidata":"Q3046561","brand:zh":"大眾銀行","brand:zh-Hans":"大众银行","brand:zh-Hant":"大眾銀行","name:en":"Public Bank (Hong Kong)","name:zh":"大眾銀行（香港）","name:zh-Hans":"大众银行（香港）","name:zh-Hant":"大眾銀行（香港）","operator":"大眾銀行 Public Bank","operator:wikidata":"Q3046561"}},"amenity/atm/fubonbank-e57d9a":{"name":"富邦銀行 Fubon Bank","locationSet":{"include":["hk"]},"geometry":["point","vertex"],"matchScore":2,"terms":["fubon bank","富邦銀行","富邦銀行 fubon bank"],"fields":["name","brand","{amenity/atm}"],"tags":{"amenity":"atm","brand:wikidata":"Q5506911"},"addTags":{"amenity":"atm","brand":"富邦銀行 Fubon Bank","brand:en":"Fubon Bank","brand:wikidata":"Q5506911","brand:zh":"富邦銀行","brand:zh-Hans":"富邦银行","brand:zh-Hant":"富邦銀行","name:en":"Fubon Bank","name:zh":"富邦銀行","name:zh-Hans":"富邦银行","name:zh-Hant":"富邦銀行","operator":"富邦銀行 Fubon Bank","operator:wikidata":"Q5506911"}},"amenity/atm/hangsengbank-aa3d3d":{"name":"恒生銀行 Hang Seng Bank","locationSet":{"include":["hk","mo"]},"geometry":["point","vertex"],"matchScore":2,"terms":["hang seng bank","恒生","恒生銀行","恒生銀行 hang seng bank"],"fields":["name","brand","{amenity/atm}"],"tags":{"amenity":"atm","brand:wikidata":"Q1575470"},"addTags":{"amenity":"atm","brand":"恒生銀行 Hang Seng Bank","brand:en":"Hang Seng Bank","brand:wikidata":"Q1575470","brand:zh":"恒生銀行","brand:zh-Hans":"恒生银行","brand:zh-Hant":"恒生銀行","name:en":"Hang Seng Bank","name:zh":"恒生銀行","name:zh-Hans":"恒生银行","name:zh-Hant":"恒生銀行","operator":"恒生銀行 Hang Seng Bank","operator:wikidata":"Q1575470"}},"amenity/atm/cmbwinglungbank-e57d9a":{"name":"招商永隆銀行 CMB Wing Lung Bank","locationSet":{"include":["hk"]},"geometry":["point","vertex"],"matchScore":2,"terms":["cmb wing lung bank","招商永隆銀行","招商永隆銀行 cmb wing lung bank","永隆","永隆銀行"],"fields":["name","brand","{amenity/atm}"],"tags":{"amenity":"atm","brand:wikidata":"Q8025114"},"addTags":{"amenity":"atm","brand":"招商永隆銀行 CMB Wing Lung Bank","brand:en":"CMB Wing Lung Bank","brand:wikidata":"Q8025114","brand:zh":"招商永隆銀行","brand:zh-Hans":"招商永隆银行","brand:zh-Hant":"招商永隆銀行","name:en":"CMB Wing Lung Bank","name:zh":"招商永隆銀行","name:zh-Hans":"招商永隆银行","name:zh-Hant":"招商永隆銀行","operator":"招商永隆銀行 CMB Wing Lung Bank","operator:wikidata":"Q8025114"}},"amenity/atm/dbs-aa3d3d":{"name":"星展銀行 DBS","locationSet":{"include":["hk","mo"]},"geometry":["point","vertex"],"matchScore":2,"terms":["dbs","星展銀行","星展銀行 dbs"],"fields":["name","brand","{amenity/atm}"],"tags":{"amenity":"atm","brand:wikidata":"Q705417"},"addTags":{"amenity":"atm","brand":"星展銀行 DBS","brand:en":"DBS","brand:wikidata":"Q705417","brand:zh":"星展銀行","brand:zh-Hans":"星展银行","brand:zh-Hant":"星展銀行","name:en":"DBS","name:zh":"星展銀行","name:zh-Hans":"星展银行","name:zh-Hant":"星展銀行","operator":"星展銀行 DBS","operator:wikidata":"Q705417"}},"amenity/atm/bankofeastasia-e57d9a":{"name":"東亞銀行 Bank of East Asia","locationSet":{"include":["hk"]},"geometry":["point","vertex"],"matchScore":2,"terms":["bank of east asia","bea","東亞","東亞銀行","東亞銀行 bank of east asia"],"fields":["name","brand","{amenity/atm}"],"tags":{"amenity":"atm","brand:wikidata":"Q806679"},"addTags":{"amenity":"atm","brand":"東亞銀行 Bank of East Asia","brand:en":"Bank of East Asia","brand:wikidata":"Q806679","brand:zh-Hans":"东亚银行","brand:zh-Hant":"東亞銀行","name:en":"Bank of East Asia","name:zh":"東亞銀行","name:zh-Hans":"东亚银行","name:zh-Hant":"東亞銀行","operator":"東亞銀行 Bank of East Asia","operator:wikidata":"Q806679","short_name":"BEA"}},"amenity/atm/standardchartered-e57d9a":{"name":"渣打銀行 Standard Chartered","locationSet":{"include":["hk"]},"geometry":["point","vertex"],"matchScore":2,"terms":["sc","standard chartered","渣打","渣打銀行","渣打銀行 standard chartered"],"fields":["name","brand","{amenity/atm}"],"tags":{"amenity":"atm","brand:wikidata":"Q548278"},"addTags":{"amenity":"atm","brand":"渣打銀行 Standard Chartered","brand:en":"Standard Chartered","brand:wikidata":"Q548278","brand:zh":"渣打銀行","brand:zh-Hans":"渣打银行","brand:zh-Hant":"渣打銀行","name:en":"Standard Chartered","name:zh":"渣打銀行","name:zh-Hans":"渣打银行","name:zh-Hant":"渣打銀行","operator":"渣打銀行 Standard Chartered","operator:wikidata":"Q548278"}},"amenity/atm/bangkokbank-e57d9a":{"name":"盤谷銀行 Bangkok Bank","locationSet":{"include":["hk"]},"geometry":["point","vertex"],"matchScore":2,"terms":["bangkok bank","盤谷銀行","盤谷銀行 bangkok bank"],"fields":["name","brand","{amenity/atm}"],"tags":{"amenity":"atm","brand:wikidata":"Q806483"},"addTags":{"amenity":"atm","brand":"盤谷銀行 Bangkok Bank","brand:en":"Bangkok Bank","brand:wikidata":"Q806483","brand:zh":"盤谷銀行","brand:zh-Hans":"盘谷银行","brand:zh-Hant":"盤谷銀行","name:en":"Bangkok Bank","name:zh":"盤谷銀行","name:zh-Hans":"盘谷银行","name:zh-Hant":"盤谷銀行","operator":"盤谷銀行 Bangkok Bank","operator:wikidata":"Q806483"}},"amenity/atm/citibank-e57d9a":{"name":"花旗銀行 Citibank","locationSet":{"include":["hk"]},"geometry":["point","vertex"],"matchScore":2,"terms":["citi","citibank","花旗","花旗銀行","花旗銀行 citibank"],"fields":["name","brand","{amenity/atm}"],"tags":{"amenity":"atm","brand:wikidata":"Q857063"},"addTags":{"amenity":"atm","brand":"花旗銀行 Citibank","brand:en":"Citibank","brand:wikidata":"Q857063","brand:zh":"花旗銀行","brand:zh-Hans":"花旗银行","brand:zh-Hant":"花旗銀行","name:en":"Citibank","name:zh":"花旗銀行","name:zh-Hans":"花旗银行","name:zh-Hant":"花旗銀行","operator":"花旗銀行 Citibank","operator:wikidata":"Q857063","short_name":"Citi"}},"amenity/atm/ocbcwinghangbank-e57d9a":{"name":"華僑永亨銀行 OCBC Wing Hang Bank","locationSet":{"include":["hk"]},"geometry":["point","vertex"],"matchScore":2,"terms":["ocbc","ocbc wing hang bank","wing hang bank","永亨","永亨銀行","華僑","華僑永亨銀行","華僑永亨銀行 ocbc wing hang bank","華僑銀行"],"fields":["name","brand","{amenity/atm}"],"tags":{"amenity":"atm","brand:wikidata":"Q837147"},"addTags":{"amenity":"atm","brand":"華僑永亨銀行 OCBC Wing Hang Bank","brand:en":"OCBC Wing Hang Bank","brand:wikidata":"Q837147","brand:zh":"華僑永亨銀行","brand:zh-Hans":"华侨永亨银行","brand:zh-Hant":"華僑永亨銀行","name:en":"OCBC Wing Hang Bank","name:zh":"華僑永亨銀行","name:zh-Hans":"华侨永亨银行","name:zh-Hant":"華僑永亨銀行","operator":"華僑永亨銀行 OCBC Wing Hang Bank","operator:wikidata":"Q837147"}},"amenity/atm/chiyubankingcorporation-e57d9a":{"name":"集友銀行 Chiyu Banking Corporation","locationSet":{"include":["hk"]},"geometry":["point","vertex"],"matchScore":2,"terms":["chiyu banking corporation","集友銀行","集友銀行 chiyu banking corporation"],"fields":["name","brand","{amenity/atm}"],"tags":{"amenity":"atm","brand:wikidata":"Q877121"},"addTags":{"amenity":"atm","brand":"集友銀行 Chiyu Banking Corporation","brand:en":"Chiyu Banking Corporation","brand:wikidata":"Q877121","brand:zh":"集友銀行","brand:zh-Hans":"集友银行","brand:zh-Hant":"集友銀行","name:en":"Chiyu Banking Corporation","name:zh":"集友銀行","name:zh-Hans":"集友银行","name:zh-Hant":"集友銀行","operator":"集友銀行 Chiyu Banking Corporation","operator:wikidata":"Q877121"}},"amenity/atm/hsbc-aa3d3d":{"name":"香港上海滙豐銀行 HSBC","locationSet":{"include":["hk","mo"]},"geometry":["point","vertex"],"matchScore":2,"terms":["hsbc","滙豐","滙豐銀行","香港上海滙豐銀行","香港上海滙豐銀行 hsbc"],"fields":["name","brand","{amenity/atm}"],"tags":{"amenity":"atm","brand:wikidata":"Q190464"},"addTags":{"amenity":"atm","brand":"香港上海滙豐銀行 HSBC","brand:en":"HSBC","brand:wikidata":"Q190464","brand:zh":"香港上海滙豐銀行","brand:zh-Hans":"香港上海汇丰银行","brand:zh-Hant":"香港上海滙豐銀行","name:en":"HSBC","name:zh":"滙豐銀行","name:zh-Hans":"汇丰银行","name:zh-Hant":"滙豐銀行","operator":"香港上海滙豐銀行 HSBC","operator:wikidata":"Q190464"}},"amenity/bank/bni-27dfb6":{"name":"BNI","locationSet":{"include":["au","ca","gb","hk","id","jp","kr","mm","sg","us"]},"geometry":["point","area"],"matchScore":2,"terms":["bank bni","bank negara indonesia","bni"],"tags":{"amenity":"bank","brand:wikidata":"Q2882611"},"addTags":{"amenity":"bank","brand":"BNI","brand:wikidata":"Q2882611","name":"BNI","official_name":"Bank Negara Indonesia"}},"amenity/bank/eastwestbank-a566ac":{"name":"East West Bank","locationSet":{"include":["cn","hk","us"]},"geometry":["point","area"],"matchScore":2,"terms":["east west bank","華美銀行"],"tags":{"amenity":"bank","brand:wikidata":"Q3046549"},"addTags":{"amenity":"bank","brand":"East West Bank","brand:wikidata":"Q3046549","name":"East West Bank","name:en":"East West Bank","name:zh":"華美銀行","name:zh-Hans":"华美银行","name:zh-Hant":"華美銀行"}},"amenity/bank/uob-dadccc":{"name":"UOB","locationSet":{"include":["au","bn","ca","cn","gb","hk","id","in","jp","kr","mm","my","ph","sg","th","us","vn"]},"geometry":["point","area"],"matchScore":2,"terms":["united overseas bank","uob","大华银行"],"tags":{"amenity":"bank","brand:wikidata":"Q2064074"},"addTags":{"amenity":"bank","brand":"UOB","brand:wikidata":"Q2064074","brand:zh":"大华银行","name":"UOB","name:zh":"大华银行"}},"amenity/bank/shanghaicommercialbank-442838":{"name":"上海商業銀行 Shanghai Commercial Bank","locationSet":{"include":["hk"]},"geometry":["point","area"],"matchScore":2,"terms":["scb","shanghai commercial bank","上商","上海商業銀行","上海商業銀行 shanghai commercial bank","上海商行"],"tags":{"amenity":"bank","brand:wikidata":"Q7488421"},"addTags":{"amenity":"bank","brand":"上海商業銀行 Shanghai Commercial Bank","brand:en":"Shanghai Commercial Bank","brand:wikidata":"Q7488421","brand:zh":"上海商業銀行","brand:zh-Hans":"上海商业银行","brand:zh-Hant":"上海商業銀行","name":"上海商業銀行 Shanghai Commercial Bank","name:en":"Shanghai Commercial Bank","name:zh":"上海商業銀行","name:zh-Hans":"上海商业银行","name:zh-Hant":"上海商業銀行","short_name":"SCB"}},"amenity/bank/chinaciticbankinternational-442838":{"name":"中信銀行（國際） China CITIC Bank International","locationSet":{"include":["hk"]},"geometry":["point","area"],"matchScore":2,"terms":["china citic bank","china citic bank international","中信銀行","中信銀行 china citic bank","中信銀行（國際）"],"tags":{"amenity":"bank","brand:wikidata":"Q38960"},"addTags":{"amenity":"bank","brand":"中信銀行 China CITIC Bank","brand:en":"China CITIC Bank","brand:wikidata":"Q38960","brand:zh":"中信銀行","brand:zh-Hans":"中信银行","brand:zh-Hant":"中信銀行","name":"中信銀行（國際） China CITIC Bank International","name:en":"China CITIC Bank International","name:zh":"中信銀行（國際）","name:zh-Hans":"中信银行（国际）","name:zh-Hant":"中信銀行（國際）"}},"amenity/bank/icbcasia-442838":{"name":"中國工商銀行（亞洲） Industrial and Commercial Bank of China (Asia)","locationSet":{"include":["hk"]},"geometry":["point","area"],"matchScore":2,"terms":["icbc","icbc (asia)","industrial and commercial bank of china","中國工商銀行","中國工商銀行（亞洲）","工商銀行","工行","工銀","工銀（亞洲）","工銀亞洲"],"tags":{"amenity":"bank","brand:wikidata":"Q26463"},"addTags":{"amenity":"bank","brand":"中國工商銀行","brand:en":"Industrial and Commercial Bank of China","brand:wikidata":"Q26463","brand:zh":"中國工商銀行","brand:zh-Hans":"中国工商银行","brand:zh-Hant":"中國工商銀行","name":"中國工商銀行（亞洲） ICBC (Asia)","name:en":"ICBC (Asia)","name:zh":"中國工商銀行（亞洲）","name:zh-Hans":"中国工商银行（亚洲）","name:zh-Hant":"中國工商銀行（亞洲）"}},"amenity/bank/ccbasia-442838":{"name":"中國建設銀行（亞洲） China Construction Bank (Asia)","locationSet":{"include":["hk"]},"geometry":["point","area"],"matchScore":2,"terms":["ccb","ccb (asia)","china construction bank","中國建設銀行","中國建設銀行 china construction bank","中國建設銀行（亞洲）","建行","建行（亞洲）","建行亞洲","建設銀行"],"tags":{"amenity":"bank","brand:wikidata":"Q26299"},"addTags":{"amenity":"bank","brand":"中國建設銀行 China Construction Bank","brand:en":"China Construction Bank","brand:wikidata":"Q26299","brand:zh":"中國建設銀行","brand:zh-Hans":"中国建设银行","brand:zh-Hant":"中國建設銀行","name":"中國建設銀行（亞洲） CCB (Asia)","name:en":"CCB (Asia)","name:zh":"中國建設銀行（亞洲）","name:zh-Hans":"中国建设银行（亚洲）","name:zh-Hant":"中國建設銀行（亞洲）"}},"amenity/bank/bankofchinahongkong-442838":{"name":"中國銀行（香港） Bank of China (Hong Kong)","locationSet":{"include":["hk"]},"geometry":["point","area"],"matchScore":2,"terms":["bank of china","bank of china (hong kong)","boc","bochk","中國銀行 bank of china","中國銀行（香港）","中行","中銀","中銀香港"],"tags":{"amenity":"bank","brand:wikidata":"Q790068"},"addTags":{"amenity":"bank","brand":"中國銀行 Bank of China","brand:en":"Bank of China","brand:wikidata":"Q790068","brand:zh":"中國銀行（香港）","brand:zh-Hans":"中国银行（香港）","brand:zh-Hant":"中國銀行（香港）","name":"中國銀行（香港） Bank of China (Hong Kong)","name:en":"Bank of China (Hong Kong)","name:zh":"中國銀行（香港）","name:zh-Hans":"中国银行（香港）","name:zh-Hant":"中國銀行（香港）"}},"amenity/bank/bankofcommunications-442838":{"name":"交通銀行 Bank of Communications","locationSet":{"include":["hk"]},"geometry":["point","area"],"matchScore":2,"terms":["bank of communications","交行","交通銀行","交通銀行 bank of communications"],"tags":{"amenity":"bank","brand:wikidata":"Q806680"},"addTags":{"amenity":"bank","brand":"交通銀行 Bank of Communications","brand:en":"Bank of Communications","brand:wikidata":"Q806680","brand:zh-Hans":"交通银行","brand:zh-Hant":"交通銀行","name":"交通銀行 Bank of Communications","name:en":"Bank of Communications","name:zh":"交通銀行","name:zh-Hans":"交通银行","name:zh-Hant":"交通銀行"}},"amenity/bank/chonghingbank-075cf6":{"name":"創興銀行 Chong Hing Bank","locationSet":{"include":["hk","mo"]},"geometry":["point","area"],"matchScore":2,"terms":["chong hing bank","創興","創興銀行","創興銀行 chong hing bank"],"tags":{"amenity":"bank","brand:wikidata":"Q5104600"},"addTags":{"amenity":"bank","brand":"創興銀行 Chong Hing Bank","brand:en":"Chong Hing Bank","brand:wikidata":"Q5104600","brand:zh":"創興銀行","brand:zh-Hans":"创兴银行","brand:zh-Hant":"創興銀行","name":"創興銀行 Chong Hing Bank","name:en":"Chong Hing Bank","name:zh":"創興銀行","name:zh-Hans":"创兴银行","name:zh-Hant":"創興銀行"}},"amenity/bank/nanyangcommercialbank-442838":{"name":"南洋商業銀行 Nanyang Commercial Bank","locationSet":{"include":["hk"]},"geometry":["point","area"],"matchScore":2,"terms":["nanyang commercial bank","ncb","南洋商業","南洋商業銀行","南洋商業銀行 nanyang commercial bank"],"tags":{"amenity":"bank","brand:wikidata":"Q3335816"},"addTags":{"amenity":"bank","brand":"南洋商業銀行 Nanyang Commercial Bank","brand:en":"Nanyang Commercial Bank","brand:wikidata":"Q3335816","brand:zh":"南洋商業銀行","brand:zh-Hans":"南洋商业银行","brand:zh-Hant":"南洋商業銀行","name":"南洋商業銀行 NCB","name:en":"Nanyang Commercial Bank","name:zh":"南洋商業銀行","name:zh-Hans":"南洋商业银行","name:zh-Hant":"南洋商業銀行","short_name":"NCB"}},"amenity/bank/nantobank-e30a8e":{"name":"南都銀行","locationSet":{"include":["cn","hk","jp"]},"geometry":["point","area"],"matchScore":2,"terms":["nanto bank","南都銀行"],"tags":{"amenity":"bank","brand:wikidata":"Q4045062"},"addTags":{"amenity":"bank","brand":"南都銀行","brand:en":"Nanto Bank","brand:ja":"南都銀行","brand:wikidata":"Q4045062","name":"南都銀行","name:en":"Nanto Bank","name:ja":"南都銀行"}},"amenity/bank/dahsingbank-442838":{"name":"大新銀行 Dah Sing Bank","locationSet":{"include":["hk"]},"geometry":["point","area"],"matchScore":2,"terms":["dah sing bank","大新","大新銀行","大新銀行 dah sing bank"],"tags":{"amenity":"bank","brand:wikidata":"Q5208707"},"addTags":{"amenity":"bank","brand":"大新銀行 Dah Sing Bank","brand:en":"Dah Sing Bank","brand:wikidata":"Q5208707","brand:zh":"大新銀行","brand:zh-Hans":"大新银行","brand:zh-Hant":"大新銀行","name":"大新銀行 Dah Sing Bank","name:en":"Dah Sing Bank","name:zh":"大新銀行","name:zh-Hans":"大新银行","name:zh-Hant":"大新銀行"}},"amenity/bank/publicbankhongkong-442838":{"name":"大眾銀行（香港） Public Bank (Hong Kong)","locationSet":{"include":["hk"]},"geometry":["point","area"],"matchScore":2,"terms":["public bank","public bank (hong kong)","大眾銀行","大眾銀行 public bank","大眾銀行（香港）"],"tags":{"amenity":"bank","brand:wikidata":"Q3046561"},"addTags":{"amenity":"bank","brand":"大眾銀行 Public Bank","brand:en":"Public Bank","brand:wikidata":"Q3046561","brand:zh":"大眾銀行","brand:zh-Hans":"大众银行","brand:zh-Hant":"大眾銀行","name":"大眾銀行（香港） Public Bank (Hong Kong)","name:en":"Public Bank (Hong Kong)","name:zh":"大眾銀行（香港）","name:zh-Hans":"大众银行（香港）","name:zh-Hant":"大眾銀行（香港）"}},"amenity/bank/fubonbank-442838":{"name":"富邦銀行 Fubon Bank","locationSet":{"include":["hk"]},"geometry":["point","area"],"matchScore":2,"terms":["fubon bank","富邦銀行","富邦銀行 fubon bank"],"tags":{"amenity":"bank","brand:wikidata":"Q5506911"},"addTags":{"amenity":"bank","brand":"富邦銀行 Fubon Bank","brand:en":"Fubon Bank","brand:wikidata":"Q5506911","brand:zh":"富邦銀行","brand:zh-Hans":"富邦银行","brand:zh-Hant":"富邦銀行","name":"富邦銀行 Fubon Bank","name:en":"Fubon Bank","name:zh":"富邦銀行","name:zh-Hans":"富邦银行","name:zh-Hant":"富邦銀行"}},"amenity/bank/hangsengbank-075cf6":{"name":"恒生銀行 Hang Seng Bank","locationSet":{"include":["hk","mo"]},"geometry":["point","area"],"matchScore":2,"terms":["hang seng bank","恒生","恒生銀行","恒生銀行 hang seng bank"],"tags":{"amenity":"bank","brand:wikidata":"Q1575470"},"addTags":{"amenity":"bank","brand":"恒生銀行 Hang Seng Bank","brand:en":"Hang Seng Bank","brand:wikidata":"Q1575470","brand:zh":"恒生銀行","brand:zh-Hans":"恒生银行","brand:zh-Hant":"恒生銀行","name":"恒生銀行 Hang Seng Bank","name:en":"Hang Seng Bank","name:zh":"恒生銀行","name:zh-Hans":"恒生银行","name:zh-Hant":"恒生銀行"}},"amenity/bank/cmbwinglungbank-442838":{"name":"招商永隆銀行 CMB Wing Lung Bank","locationSet":{"include":["hk"]},"geometry":["point","area"],"matchScore":2,"terms":["cmb wing lung bank","招商永隆銀行","招商永隆銀行 cmb wing lung bank","永隆","永隆銀行"],"tags":{"amenity":"bank","brand:wikidata":"Q8025114"},"addTags":{"amenity":"bank","brand":"招商永隆銀行 CMB Wing Lung Bank","brand:en":"CMB Wing Lung Bank","brand:wikidata":"Q8025114","brand:zh":"招商永隆銀行","brand:zh-Hans":"招商永隆银行","brand:zh-Hant":"招商永隆銀行","name":"招商永隆銀行 CMB Wing Lung Bank","name:en":"CMB Wing Lung Bank","name:zh":"招商永隆銀行","name:zh-Hans":"招商永隆银行","name:zh-Hant":"招商永隆銀行"}},"amenity/bank/dbs-075cf6":{"name":"星展銀行 DBS","locationSet":{"include":["hk","mo"]},"geometry":["point","area"],"matchScore":2,"terms":["dbs","星展銀行","星展銀行 dbs"],"tags":{"amenity":"bank","brand:wikidata":"Q705417"},"addTags":{"amenity":"bank","brand":"星展銀行 DBS","brand:en":"DBS","brand:wikidata":"Q705417","brand:zh":"星展銀行","brand:zh-Hans":"星展银行","brand:zh-Hant":"星展銀行","name":"星展銀行 DBS","name:en":"DBS","name:zh":"星展銀行","name:zh-Hans":"星展银行","name:zh-Hant":"星展銀行"}},"amenity/bank/bankofeastasia-442838":{"name":"東亞銀行 Bank of East Asia","locationSet":{"include":["hk"]},"geometry":["point","area"],"matchScore":2,"terms":["bank of east asia","bea","東亞","東亞銀行","東亞銀行 bank of east asia"],"tags":{"amenity":"bank","brand:wikidata":"Q806679"},"addTags":{"amenity":"bank","brand":"東亞銀行 Bank of East Asia","brand:en":"Bank of East Asia","brand:wikidata":"Q806679","brand:zh-Hans":"东亚银行","brand:zh-Hant":"東亞銀行","name":"東亞銀行 BEA","name:en":"Bank of East Asia","name:zh":"東亞銀行","name:zh-Hans":"东亚银行","name:zh-Hant":"東亞銀行","short_name":"BEA"}},"amenity/bank/standardchartered-442838":{"name":"渣打銀行 Standard Chartered","locationSet":{"include":["hk"]},"geometry":["point","area"],"matchScore":2,"terms":["sc","standard chartered","渣打","渣打銀行","渣打銀行 standard chartered"],"tags":{"amenity":"bank","brand:wikidata":"Q548278"},"addTags":{"amenity":"bank","brand":"渣打銀行 Standard Chartered","brand:en":"Standard Chartered","brand:wikidata":"Q548278","brand:zh":"渣打銀行","brand:zh-Hans":"渣打银行","brand:zh-Hant":"渣打銀行","name":"渣打銀行 Standard Chartered","name:en":"Standard Chartered","name:zh":"渣打銀行","name:zh-Hans":"渣打银行","name:zh-Hant":"渣打銀行"}},"amenity/bank/bangkokbank-442838":{"name":"盤谷銀行 Bangkok Bank","locationSet":{"include":["hk"]},"geometry":["point","area"],"matchScore":2,"terms":["bangkok bank","盤谷銀行","盤谷銀行 bangkok bank"],"tags":{"amenity":"bank","brand:wikidata":"Q806483"},"addTags":{"amenity":"bank","brand":"盤谷銀行 Bangkok Bank","brand:en":"Bangkok Bank","brand:wikidata":"Q806483","brand:zh":"盤谷銀行","brand:zh-Hans":"盘谷银行","brand:zh-Hant":"盤谷銀行","name":"盤谷銀行 Bangkok Bank","name:en":"Bangkok Bank","name:zh":"盤谷銀行","name:zh-Hans":"盘谷银行","name:zh-Hant":"盤谷銀行"}},"amenity/bank/citibank-442838":{"name":"花旗銀行 Citibank","locationSet":{"include":["hk"]},"geometry":["point","area"],"matchScore":2,"terms":["citi","citibank","花旗","花旗銀行","花旗銀行 citibank"],"tags":{"amenity":"bank","brand:wikidata":"Q857063"},"addTags":{"amenity":"bank","brand":"花旗銀行 Citibank","brand:en":"Citibank","brand:wikidata":"Q857063","brand:zh":"花旗銀行","brand:zh-Hans":"花旗银行","brand:zh-Hant":"花旗銀行","name":"花旗銀行 Citibank","name:en":"Citibank","name:zh":"花旗銀行","name:zh-Hans":"花旗银行","name:zh-Hant":"花旗銀行","short_name":"Citi"}},"amenity/bank/ocbcwinghangbank-442838":{"name":"華僑永亨銀行 OCBC Wing Hang Bank","locationSet":{"include":["hk"]},"geometry":["point","area"],"matchScore":2,"terms":["ocbc","ocbc wing hang bank","wing hang bank","永亨","永亨銀行","華僑","華僑永亨銀行","華僑永亨銀行 ocbc wing hang bank","華僑銀行"],"tags":{"amenity":"bank","brand:wikidata":"Q837147"},"addTags":{"amenity":"bank","brand":"華僑永亨銀行 OCBC Wing Hang Bank","brand:en":"OCBC Wing Hang Bank","brand:wikidata":"Q837147","brand:zh":"華僑永亨銀行","brand:zh-Hans":"华侨永亨银行","brand:zh-Hant":"華僑永亨銀行","name":"華僑永亨銀行 OCBC Wing Hang Bank","name:en":"OCBC Wing Hang Bank","name:zh":"華僑永亨銀行","name:zh-Hans":"华侨永亨银行","name:zh-Hant":"華僑永亨銀行"}},"amenity/bank/chiyubankingcorporation-442838":{"name":"集友銀行 Chiyu Banking Corporation","locationSet":{"include":["hk"]},"geometry":["point","area"],"matchScore":2,"terms":["chiyu banking corporation","集友銀行","集友銀行 chiyu banking corporation"],"tags":{"amenity":"bank","brand:wikidata":"Q877121"},"addTags":{"amenity":"bank","brand":"集友銀行 Chiyu Banking Corporation","brand:en":"Chiyu Banking Corporation","brand:wikidata":"Q877121","brand:zh":"集友銀行","brand:zh-Hans":"集友银行","brand:zh-Hant":"集友銀行","name":"集友銀行 Chiyu Banking Corporation","name:en":"Chiyu Banking Corporation","name:zh":"集友銀行","name:zh-Hans":"集友银行","name:zh-Hant":"集友銀行"}},"amenity/bank/hsbc-075cf6":{"name":"香港上海滙豐銀行 HSBC","locationSet":{"include":["hk","mo"]},"geometry":["point","area"],"matchScore":2,"terms":["hsbc","滙豐","滙豐銀行","香港上海滙豐銀行","香港上海滙豐銀行 hsbc"],"tags":{"amenity":"bank","brand:wikidata":"Q190464"},"addTags":{"amenity":"bank","brand":"香港上海滙豐銀行 HSBC","brand:en":"HSBC","brand:wikidata":"Q190464","brand:zh":"香港上海滙豐銀行","brand:zh-Hans":"香港上海汇丰银行","brand:zh-Hant":"香港上海滙豐銀行","name":"滙豐銀行 HSBC","name:en":"HSBC","name:zh":"滙豐銀行","name:zh-Hans":"汇丰银行","name:zh-Hant":"滙豐銀行"}},"amenity/cafe/bubble_tea/cocofreshteaandjuice-60211c":{"name":"CoCo都可","locationSet":{"include":["cn","hk","tw"]},"geometry":["point","area"],"matchScore":2,"terms":["coco fresh tea & juice","coco奶茶","coco都可","都可茶飲","都可茶饮"],"reference":{"key":"cuisine","value":"bubble_tea"},"tags":{"amenity":"cafe","brand:wikidata":"Q65084369","cuisine":"bubble_tea"},"addTags":{"amenity":"cafe","brand":"CoCo都可","brand:en":"CoCo Fresh Tea & Juice","brand:wikidata":"Q65084369","brand:zh":"CoCo都可","cuisine":"bubble_tea","name":"CoCo都可","name:en":"CoCo Fresh Tea & Juice","name:zh":"CoCo都可","takeaway":"yes"}},"amenity/cafe/coffee_shop/tomntoms-16c022":{"name":"Tom N Toms","locationSet":{"include":["au","ch","hk","kr","mn","mo","my","ph","sg","th","us"]},"geometry":["point","area"],"matchScore":2,"terms":["tom n toms","탐앤탐스"],"reference":{"key":"cuisine","value":"coffee_shop"},"tags":{"amenity":"cafe","brand:wikidata":"Q18142418","cuisine":"coffee_shop;pretzel;smoothie;tea;bread"},"addTags":{"amenity":"cafe","brand":"Tom N Toms","brand:en":"Tom N Toms","brand:ko":"탐앤탐스","brand:wikidata":"Q18142418","cuisine":"coffee_shop;pretzel;smoothie;tea;bread","name":"Tom N Toms","takeaway":"yes"}},"amenity/cafe/bubble_tea/yifangtea-59dcf2":{"name":"一芳水果茶 Yi Fang Tea","locationSet":{"include":["hk"]},"geometry":["point","area"],"matchScore":2,"terms":["yi fang tea","一芳","一芳台灣水果茶","一芳水果茶","一芳水果茶 yi fang tea"],"reference":{"key":"cuisine","value":"bubble_tea"},"tags":{"amenity":"cafe","brand:wikidata":"Q66196395","cuisine":"bubble_tea"},"addTags":{"amenity":"cafe","brand":"一芳水果茶 Yi Fang Tea","brand:en":"Yi Fang Tea","brand:wikidata":"Q66196395","brand:zh":"一芳水果茶","cuisine":"bubble_tea","name":"一芳水果茶 Yi Fang Tea","name:en":"Yi Fang Tea","name:zh":"一芳水果茶","takeaway":"yes"}},"amenity/cafe/bubble_tea/onezotapioca-783c92":{"name":"丸作食茶","locationSet":{"include":["hk","mo","tw"]},"geometry":["point","area"],"matchScore":2,"terms":["onezo","onezo tapioca","onezo tea","丸作","丸作食茶"],"reference":{"key":"cuisine","value":"bubble_tea"},"tags":{"amenity":"cafe","brand:wikidata":"Q111537052","cuisine":"bubble_tea"},"addTags":{"amenity":"cafe","brand":"丸作食茶","brand:en":"OneZo Tapioca","brand:wikidata":"Q111537052","brand:zh":"丸作食茶","cuisine":"bubble_tea","name":"丸作食茶","name:en":"OneZo Tapioca","name:zh":"丸作食茶","takeaway":"yes"}},"amenity/cafe/nuttea-b3d618":{"name":"堅果奶茶 NUTTEA","locationSet":{"include":["hk","mo"]},"geometry":["point","area"],"matchScore":2,"terms":["nuttea","堅果奶茶","堅果奶茶 nuttea"],"tags":{"amenity":"cafe","brand:wikidata":"Q111313216"},"addTags":{"amenity":"cafe","brand":"堅果奶茶 NUTTEA","brand:en":"NUTTEA","brand:wikidata":"Q111313216","brand:zh":"堅果奶茶","brand:zh-Hans":"坚果奶茶","brand:zh-Hant":"堅果奶茶","cuisine":"tea","name":"堅果奶茶 NUTTEA","name:en":"NUTTEA","name:zh":"堅果奶茶","name:zh-Hans":"坚果奶茶","name:zh-Hant":"堅果奶茶","takeaway":"yes"}},"amenity/cafe/bubble_tea/tenrenstea-59dcf2":{"name":"天仁茗茶 TenRen's Tea","locationSet":{"include":["hk"]},"geometry":["point","area"],"matchScore":2,"terms":["tenren's tea","天仁茗茶","天仁茗茶 tenren's tea"],"reference":{"key":"cuisine","value":"bubble_tea"},"tags":{"amenity":"cafe","brand:wikidata":"Q10939065","cuisine":"bubble_tea"},"addTags":{"amenity":"cafe","brand":"天仁茗茶 TenRen's Tea","brand:en":"TenRen's Tea","brand:wikidata":"Q10939065","brand:zh":"天仁茗茶","cuisine":"bubble_tea","name":"天仁茗茶 TenRen's Tea","name:en":"TenRen's Tea","name:zh":"天仁茗茶","takeaway":"yes"}},"amenity/cafe/coffee_shop/pacificcoffee-b3d618":{"name":"太平洋咖啡 Pacific Coffee","locationSet":{"include":["hk","mo"]},"geometry":["point","area"],"matchScore":2,"terms":["pacific coffee","太平洋咖啡","太平洋咖啡 pacific coffee"],"reference":{"key":"cuisine","value":"coffee_shop"},"tags":{"amenity":"cafe","brand:wikidata":"Q7122398","cuisine":"coffee_shop"},"addTags":{"amenity":"cafe","brand":"太平洋咖啡 Pacific Coffee","brand:en":"Pacific Coffee","brand:wikidata":"Q7122398","brand:zh":"太平洋咖啡","cuisine":"coffee_shop","name":"太平洋咖啡 Pacific Coffee","name:en":"Pacific Coffee","name:zh":"太平洋咖啡","takeaway":"yes"}},"amenity/cafe/bubble_tea/xingfutang-59dcf2":{"name":"幸福堂 Xing Fu Tang","locationSet":{"include":["hk"]},"geometry":["point","area"],"matchScore":2,"terms":["xing fu tang","幸福堂","幸福堂 xing fu tang"],"reference":{"key":"cuisine","value":"bubble_tea"},"tags":{"amenity":"cafe","brand:wikidata":"Q95720330","cuisine":"bubble_tea"},"addTags":{"amenity":"cafe","brand":"幸福堂 Xing Fu Tang","brand:en":"Xing Fu Tang","brand:wikidata":"Q95720330","brand:zh":"幸福堂","cuisine":"bubble_tea","int_name":"Xing Fu Tang","name":"幸福堂 Xing Fu Tang","name:en":"Xing Fu Tang","name:zh":"幸福堂","takeaway":"yes"}},"amenity/cafe/coffee_shop/starbucks-b3d618":{"name":"星巴克 Starbucks","locationSet":{"include":["hk","mo"]},"geometry":["point","area"],"matchScore":2,"terms":["starbucks","星巴克","星巴克 starbucks"],"reference":{"key":"cuisine","value":"coffee_shop"},"tags":{"amenity":"cafe","brand:wikidata":"Q37158","cuisine":"coffee_shop"},"addTags":{"amenity":"cafe","brand":"星巴克 Starbucks","brand:en":"Starbucks","brand:wikidata":"Q37158","brand:zh":"星巴克","cuisine":"coffee_shop","name":"星巴克 Starbucks","name:en":"Starbucks","name:zh":"星巴克","takeaway":"yes"}},"amenity/cafe/bubble_tea/truedan-59dcf2":{"name":"珍煮丹 Truedan","locationSet":{"include":["hk"]},"geometry":["point","area"],"matchScore":2,"terms":["truedan","珍煮丹","珍煮丹 truedan"],"reference":{"key":"cuisine","value":"bubble_tea"},"tags":{"amenity":"cafe","brand:wikidata":"Q108168889","cuisine":"bubble_tea"},"addTags":{"amenity":"cafe","brand":"珍煮丹 Truedan","brand:en":"Truedan","brand:ja":"珍煮丹","brand:wikidata":"Q108168889","brand:zh":"珍煮丹","cuisine":"bubble_tea","name":"珍煮丹 Truedan","name:en":"Truedan","name:zh":"珍煮丹","takeaway":"only"}},"amenity/cafe/bubble_tea/tigersugar-59dcf2":{"name":"老虎堂 Tiger Sugar","locationSet":{"include":["hk"]},"geometry":["point","area"],"matchScore":2,"terms":["tiger sugar","老虎堂","老虎堂 tiger sugar"],"reference":{"key":"cuisine","value":"bubble_tea"},"tags":{"amenity":"cafe","brand:wikidata":"Q76099070","cuisine":"bubble_tea"},"addTags":{"amenity":"cafe","brand":"老虎堂 Tiger Sugar","brand:en":"Tiger Sugar","brand:wikidata":"Q76099070","brand:zh":"老虎堂","cuisine":"bubble_tea","name":"老虎堂 Tiger Sugar","name:en":"Tiger Sugar","name:zh":"老虎堂","takeaway":"yes"}},"amenity/cafe/bubble_tea/tptea-59dcf2":{"name":"茶湯會 TP Tea","locationSet":{"include":["hk"]},"geometry":["point","area"],"matchScore":2,"terms":["tp tea","茶湯會","茶湯會 tp tea"],"reference":{"key":"cuisine","value":"bubble_tea"},"tags":{"amenity":"cafe","brand:wikidata":"Q108166023","cuisine":"bubble_tea"},"addTags":{"amenity":"cafe","brand":"茶湯會 TP Tea","brand:en":"TP Tea","brand:wikidata":"Q108166023","brand:zh":"茶湯會","brand:zh-Hans":"茶汤会","brand:zh-Hant":"茶湯會","cuisine":"bubble_tea","name":"茶湯會 TP Tea","name:en":"TP Tea","name:zh":"茶湯會","name:zh-Hans":"茶汤会","name:zh-Hant":"茶湯會","takeaway":"yes"}},"amenity/cafe/bubble_tea/gongcha-b3d618":{"name":"貢茶 Gong Cha","locationSet":{"include":["hk","mo"]},"geometry":["point","area"],"matchScore":2,"terms":["gong cha","貢茶","貢茶 gong cha"],"reference":{"key":"cuisine","value":"bubble_tea"},"tags":{"amenity":"cafe","brand:wikidata":"Q5581670","cuisine":"bubble_tea"},"addTags":{"amenity":"cafe","brand":"貢茶 Gong Cha","brand:en":"Gong Cha","brand:wikidata":"Q5581670","brand:zh":"貢茶","cuisine":"bubble_tea","name":"貢茶 Gong Cha","name:en":"Gong Cha","name:zh":"貢茶","takeaway":"yes"}},"amenity/cinema/amc-71ff56":{"name":"AMC","locationSet":{"include":["hk","us"]},"geometry":["point","area"],"matchScore":2,"terms":["amc","amc cinema","amc cinemas","amc theater","amc theaters","amc theatre","amc theatres"],"fields":["name","brand","{amenity/cinema}"],"tags":{"amenity":"cinema","brand:wikidata":"Q294721"},"addTags":{"amenity":"cinema","brand":"AMC","brand:wikidata":"Q294721","name":"AMC"}},"amenity/cinema/mclcinema-74d7ca":{"name":"洲立影藝 MCL Cinema","locationSet":{"include":["hk"]},"geometry":["point","area"],"matchScore":2,"terms":["mcl cinema","洲立影藝","洲立影藝 mcl cinema"],"fields":["name","brand","{amenity/cinema}"],"tags":{"amenity":"cinema","brand:wikidata":"Q11147489"},"addTags":{"amenity":"cinema","brand":"洲立影藝 MCL Cinema","brand:en":"MCL Cinema","brand:wikidata":"Q11147489","brand:zh":"洲立影藝","name":"洲立影藝 MCL Cinema","name:en":"MCL Cinema","name:zh":"洲立影藝"}},"amenity/cinema/broadwaycircuit-03b75b":{"name":"百老匯戲院 Broadway Circuit","locationSet":{"include":["hk","mo"]},"geometry":["point","area"],"matchScore":2,"terms":["broadway circuit","百老匯戲院","百老匯戲院 broadway circuit","百老匯院線"],"fields":["name","brand","{amenity/cinema}"],"tags":{"amenity":"cinema","brand:wikidata":"Q15909979"},"addTags":{"amenity":"cinema","brand":"百老匯戲院 Broadway Circuit","brand:en":"Broadway Circuit","brand:wikidata":"Q15909979","brand:zh":"百老匯戲院","name":"百老匯戲院 Broadway Circuit","name:en":"Broadway Circuit","name:zh":"百老匯戲院"}},"amenity/cinema/emperorcinemas-03b75b":{"name":"英皇戲院 Emperor Cinemas","locationSet":{"include":["hk","mo"]},"geometry":["point","area"],"matchScore":2,"terms":["emperor cinemas","英皇戲院","英皇戲院 emperor cinemas"],"fields":["name","brand","{amenity/cinema}"],"tags":{"amenity":"cinema","brand:wikidata":"Q67934947"},"addTags":{"amenity":"cinema","brand":"英皇戲院 Emperor Cinemas","brand:en":"Emperor Cinemas","brand:wikidata":"Q67934947","brand:zh":"英皇戲院","name":"英皇戲院 Emperor Cinemas","name:en":"Emperor Cinemas","name:zh":"英皇戲院"}},"amenity/fast_food/burger/fiveguys-ffd618":{"name":"Five Guys","locationSet":{"include":["ae","au","be","ca","de","es","fr","gb","hk","ie","it","kw","lu","nl","qa","sa","sg","us"]},"geometry":["point","area"],"matchScore":2,"terms":["five guys","five guys burgers and fries"],"reference":{"key":"cuisine","value":"burger"},"tags":{"amenity":"fast_food","brand:wikidata":"Q1131810","cuisine":"burger"},"addTags":{"amenity":"fast_food","brand":"Five Guys","brand:wikidata":"Q1131810","cuisine":"burger","name":"Five Guys","official_name":"Five Guys Burgers and Fries","takeaway":"yes"}},"amenity/fast_food/sandwich/pretamanger-4f61b1":{"name":"Pret A Manger","locationSet":{"include":["ae","cn","de","dk","es","fr","gb","hk","ie","in","nl","pt","sg","us"]},"geometry":["point","area"],"matchScore":2,"terms":["pret","pret a manger"],"reference":{"key":"cuisine","value":"sandwich"},"tags":{"amenity":"fast_food","brand:wikidata":"Q2109109","cuisine":"sandwich"},"addTags":{"amenity":"fast_food","brand":"Pret A Manger","brand:wikidata":"Q2109109","cuisine":"sandwich","name":"Pret A Manger","short_name":"Pret","takeaway":"yes"}},"amenity/fast_food/sukiya-9f9722":{"name":"すき家 Sukiya","locationSet":{"include":["hk"]},"geometry":["point","area"],"matchScore":2,"terms":["sukiya","すき家","すき家 sukiya","食其家"],"tags":{"amenity":"fast_food","brand:wikidata":"Q6137375"},"addTags":{"amenity":"fast_food","brand":"すき家 Sukiya","brand:en":"Sukiya","brand:ja":"すき家","brand:wikidata":"Q6137375","brand:zh":"食其家","cuisine":"beef_bowl","name":"すき家 Sukiya","name:en":"Sukiya","name:ja":"すき家","name:zh":"食其家","takeaway":"yes"}},"amenity/fast_food/supersupercongeeandnoodles-9f9722":{"name":"一粥麵 Super Super Congee & Noodles","locationSet":{"include":["hk"]},"geometry":["point","area"],"matchScore":2,"terms":["super super congee & noodles","一粥麵","一粥麵 super super congee & noodles"],"tags":{"amenity":"fast_food","brand:wikidata":"Q20687979"},"addTags":{"amenity":"fast_food","brand":"一粥麵 Super Super Congee & Noodles","brand:en":"Super Super Congee & Noodles","brand:wikidata":"Q20687979","brand:zh":"一粥麵","brand:zh-Hans":"一粥面","brand:zh-Hant":"一粥麵","cuisine":"chinese","name":"一粥麵 Super Super Congee & Noodles","name:en":"Super Super Congee & Noodles","name:zh":"一粥麵","name:zh-Hans":"一粥面","name:zh-Hant":"一粥麵","takeaway":"yes"}},"amenity/fast_food/marugameseimen-f9a382":{"name":"丸亀製麺","locationSet":{"include":["hk","jp","tw"]},"geometry":["point","area"],"matchScore":2,"terms":["marugame seimen","丸亀製麵","丸亀製麺"],"tags":{"amenity":"fast_food","brand:wikidata":"Q10877253"},"addTags":{"amenity":"fast_food","brand":"丸亀製麺","brand:en":"Marugame Seimen","brand:ja":"丸亀製麺","brand:wikidata":"Q10877253","brand:zh":"丸亀製麵","cuisine":"noodle","name":"丸亀製麺","name:en":"Marugame Seimen","name:ja":"丸亀製麺","name:zh":"丸亀製麵","takeaway":"yes"}},"amenity/fast_food/bafangdumpling-9f9722":{"name":"八方雲集 Bafang Dumpling","locationSet":{"include":["hk"]},"geometry":["point","area"],"matchScore":2,"terms":["bafang dumpling","八方雲集","八方雲集 bafang dumpling"],"tags":{"amenity":"fast_food","brand:wikidata":"Q28417381"},"addTags":{"amenity":"fast_food","brand":"八方雲集 Bafang Dumpling","brand:en":"Bafang Dumpling","brand:wikidata":"Q28417381","brand:zh":"八方雲集","brand:zh-Hans":"八方云集","brand:zh-Hant":"八方雲集","cuisine":"dumplings","name":"八方雲集 Bafang Dumpling","name:en":"Bafang Dumpling","name:zh":"八方雲集","name:zh-Hans":"八方云集","name:zh-Hant":"八方雲集","takeaway":"yes"}},"amenity/fast_food/yoshinoya-9f9722":{"name":"吉野家 Yoshinoya","locationSet":{"include":["hk"]},"geometry":["point","area"],"matchScore":2,"terms":["yoshinoya","吉野家","吉野家 yoshinoya"],"tags":{"amenity":"fast_food","brand:wikidata":"Q776272"},"addTags":{"amenity":"fast_food","brand":"吉野家 Yoshinoya","brand:en":"Yoshinoya","brand:ja":"吉野家","brand:wikidata":"Q776272","brand:zh":"吉野家","brand:zh-Hans":"吉野家","brand:zh-Hant":"吉野家","cuisine":"beef_bowl","name":"吉野家 Yoshinoya","name:en":"Yoshinoya","name:ja":"吉野家","name:zh":"吉野家","name:zh-Hans":"吉野家","name:zh-Hant":"吉野家","takeaway":"yes"}},"amenity/fast_food/cafedecoral-9f9722":{"name":"大家樂 Café de Coral","locationSet":{"include":["hk"]},"geometry":["point","area"],"matchScore":2,"terms":["café de coral","大家樂","大家樂 café de coral"],"tags":{"amenity":"fast_food","brand:wikidata":"Q16241484"},"addTags":{"amenity":"fast_food","brand":"大家樂 Café de Coral","brand:en":"Café de Coral","brand:wikidata":"Q16241484","brand:zh":"大家樂","brand:zh-Hans":"大家乐","brand:zh-Hant":"大家樂","cuisine":"cantonese;western","name":"大家樂 Café de Coral","name:en":"Café de Coral","name:zh":"大家樂","name:zh-Hans":"大家乐","name:zh-Hant":"大家樂","takeaway":"yes"}},"amenity/fast_food/fairwood-9f9722":{"name":"大快活 Fairwood","locationSet":{"include":["hk"]},"geometry":["point","area"],"matchScore":2,"terms":["fairwood","大快活","大快活 fairwood"],"tags":{"amenity":"fast_food","brand:wikidata":"Q5430935"},"addTags":{"amenity":"fast_food","brand":"大快活 Fairwood","brand:en":"Fairwood","brand:wikidata":"Q5430935","brand:zh":"大快活","brand:zh-Hans":"大快活","brand:zh-Hant":"大快活","cuisine":"cantonese;western","name":"大快活 Fairwood","name:en":"Fairwood","name:zh":"大快活","name:zh-Hans":"大快活","name:zh-Hant":"大快活","takeaway":"yes"}},"amenity/fast_food/burger/mosburger-17dd9a":{"name":"摩斯漢堡 MOS Burger","locationSet":{"include":["hk","mo"]},"geometry":["point","area"],"matchScore":2,"terms":["mos burger","摩斯漢堡","摩斯漢堡 mos burger"],"reference":{"key":"cuisine","value":"burger"},"tags":{"amenity":"fast_food","brand:wikidata":"Q1204169","cuisine":"burger"},"addTags":{"amenity":"fast_food","brand":"摩斯漢堡 MOS Burger","brand:en":"MOS Burger","brand:wikidata":"Q1204169","brand:zh":"摩斯漢堡","brand:zh-Hans":"摩斯汉堡","brand:zh-Hant":"摩斯漢堡","cuisine":"burger","name":"摩斯漢堡 MOS Burger","name:en":"MOS Burger","name:zh":"摩斯漢堡","name:zh-Hans":"摩斯汉堡","name:zh-Hant":"摩斯漢堡","takeaway":"yes"}},"amenity/fast_food/gindaco-9f9722":{"name":"築地銀だこ Gindaco","locationSet":{"include":["hk"]},"geometry":["point","area"],"matchScore":2,"terms":["gindaco","築地銀だこ"],"tags":{"amenity":"fast_food","brand:wikidata":"Q11603490"},"addTags":{"amenity":"fast_food","brand":"築地銀だこ","brand:en":"Gindaco","brand:ja":"築地銀だこ","brand:wikidata":"Q11603490","cuisine":"takoyaki","name":"築地銀だこ Gindaco","name:en":"Gindaco","name:ja":"築地銀だこ","takeaway":"yes"}},"amenity/fast_food/maximsmx-9f9722":{"name":"美心MX Maxim's MX","locationSet":{"include":["hk"]},"geometry":["point","area"],"matchScore":2,"terms":["maxim","maxim's mx","maxims","美心","美心mx","美心mx maxim's mx"],"tags":{"amenity":"fast_food","brand:wikidata":"Q7213063"},"addTags":{"amenity":"fast_food","brand":"美心MX Maxim's MX","brand:en":"Maxim's MX","brand:wikidata":"Q7213063","brand:zh":"美心MX","cuisine":"cantonese;western","name":"美心MX Maxim's MX","name:en":"Maxim's MX","name:zh":"美心MX","takeaway":"yes"}},"amenity/fast_food/chicken/kfc-17dd9a":{"name":"肯德基 KFC","locationSet":{"include":["hk","mo"]},"geometry":["point","area"],"matchScore":2,"terms":["kfc","肯德基","肯德基 kfc"],"reference":{"key":"cuisine","value":"chicken"},"tags":{"amenity":"fast_food","brand:wikidata":"Q524757","cuisine":"chicken"},"addTags":{"amenity":"fast_food","brand":"肯德基 KFC","brand:en":"KFC","brand:wikidata":"Q524757","brand:zh":"肯德基","brand:zh-Hans":"肯德基","brand:zh-Hant":"肯德基","cuisine":"chicken","name":"肯德基 KFC","name:en":"KFC","name:zh":"肯德基","name:zh-Hans":"肯德基","name:zh-Hant":"肯德基","takeaway":"yes"}},"amenity/fast_food/burger/mcdonalds-17dd9a":{"name":"麥當勞 McDonald's","locationSet":{"include":["hk","mo"]},"geometry":["point","area"],"matchScore":2,"terms":["mcdonald's","m記","麥當勞","麥當勞 mcdonald's","麥記"],"reference":{"key":"cuisine","value":"burger"},"tags":{"amenity":"fast_food","brand:wikidata":"Q38076","cuisine":"burger"},"addTags":{"amenity":"fast_food","brand":"麥當勞 McDonald's","brand:en":"McDonald's","brand:wikidata":"Q38076","brand:zh":"麥當勞","brand:zh-Hans":"麦当劳","brand:zh-Hant":"麥當勞","cuisine":"burger","name":"麥當勞 McDonald's","name:en":"McDonald's","name:zh":"麥當勞","name:zh-Hans":"麦当劳","name:zh-Hant":"麥當勞","takeaway":"yes"}},"amenity/ice_cream/meetfresh-cccbe8":{"name":"鮮芋仙 Meet Fresh","locationSet":{"include":["hk","mo"]},"geometry":["point","area"],"matchScore":2,"terms":["meet fresh","鮮芋仙","鮮芋仙 meet fresh"],"tags":{"amenity":"ice_cream","brand:wikidata":"Q11172707"},"addTags":{"amenity":"ice_cream","brand":"鮮芋仙 Meet Fresh","brand:en":"Meet Fresh","brand:wikidata":"Q11172707","brand:zh":"鮮芋仙","cuisine":"taiwanese","name":"鮮芋仙 Meet Fresh","name:en":"Meet Fresh","name:zh":"鮮芋仙"}},"amenity/kindergarten/kido-0883b2":{"name":"Kïdo","locationSet":{"include":["ae","gb","hk","in","us"]},"geometry":["area","point"],"matchScore":2,"terms":["kido","kïdo","kïdo international preschool"],"fields":["name","brand","{amenity/kindergarten}"],"tags":{"amenity":"kindergarten","brand:wikidata":"Q104849185"},"addTags":{"alt_name":"Kido","amenity":"kindergarten","brand":"Kïdo","brand:wikidata":"Q104849185","fee":"yes","isced:level":"0","name":"Kïdo","nursery":"yes","official_name":"Kïdo International Preschool","preschool":"yes"}},"amenity/language_school/shaneenglishschool-f8b177":{"name":"Shane English School","locationSet":{"include":["dz","gb","hk","id","kr","pl","th","vn"]},"geometry":["point","area"],"matchScore":2,"terms":["shane english school","シェーン英会話"],"fields":["name","brand","{amenity/language_school}"],"tags":{"amenity":"language_school","brand:wikidata":"Q17054332"},"addTags":{"amenity":"language_school","brand":"Shane English School","brand:en":"Shane English School","brand:ja":"シェーン英会話","brand:ja-Latn":"Shēn Eikaiwa","brand:wikidata":"Q17054332","language:en":"main","name":"Shane English School","name:en":"Shane English School","name:ja":"シェーン英会話","name:ja-Latn":"Shēn Eikaiwa"}},"amenity/parcel_locker/ipostalkiosk-a94f22":{"name":"智郵寄 iPostal Kiosk","locationSet":{"include":["hk"]},"geometry":["point","vertex","area"],"matchScore":2,"terms":["hongkong post","ipostal kiosk","智郵寄","香港郵政","香港郵政 hongkong post"],"fields":["name","brand","{amenity/parcel_locker}"],"reference":{"key":"amenity","value":"parcel_locker"},"tags":{"amenity":"parcel_locker","brand:wikidata":"Q196631"},"addTags":{"amenity":"parcel_locker","brand":"香港郵政 Hongkong Post","brand:en":"Hongkong Post","brand:wikidata":"Q196631","brand:zh":"香港郵政","name":"智郵寄 iPostal Kiosk","name:en":"iPostal Kiosk","name:zh":"智郵寄","operator":"香港郵政 Hongkong Post","operator:en":"Hongkong Post","operator:wikidata":"Q196631","operator:zh":"香港郵政","parcel_mail_in":"yes","payment:alipay_HK":"yes","payment:octopus":"yes","payment:payme":"yes","payment:unionpay":"yes","payment:wechat":"yes"}},"amenity/parcel_locker/ipostalstation-a94f22":{"name":"智郵站 iPostal Station","locationSet":{"include":["hk"]},"geometry":["point","vertex","area"],"matchScore":2,"terms":["hongkong post","ipostal station","智郵站","香港郵政","香港郵政 hongkong post"],"fields":["name","brand","{amenity/parcel_locker}"],"reference":{"key":"amenity","value":"parcel_locker"},"tags":{"amenity":"parcel_locker","brand:wikidata":"Q196631"},"addTags":{"amenity":"parcel_locker","brand":"香港郵政 Hongkong Post","brand:en":"Hongkong Post","brand:wikidata":"Q196631","brand:zh":"香港郵政","name":"智郵站 iPostal Station","name:en":"iPostal Station","name:zh":"智郵站","operator":"香港郵政 Hongkong Post","operator:en":"Hongkong Post","operator:wikidata":"Q196631","operator:zh":"香港郵政","parcel_pickup":"yes"}},"amenity/parcel_locker/sflocker-a94f22":{"name":"順便智能櫃 EF Locker","locationSet":{"include":["hk"]},"geometry":["point","vertex","area"],"matchScore":2,"terms":["sf express","sf locker","順便智能櫃","順豐速運","順豐速運 sf express"],"fields":["name","brand","{amenity/parcel_locker}"],"reference":{"key":"amenity","value":"parcel_locker"},"tags":{"amenity":"parcel_locker","brand:wikidata":"Q7390019"},"addTags":{"amenity":"parcel_locker","brand":"順豐速運 SF Express","brand:en":"SF Express","brand:wikidata":"Q7390019","brand:zh":"順豐速運","name":"順便智能櫃 SF Locker","name:en":"SF Locker","name:zh":"順便智能櫃","operator":"順豐速運 SF Express","operator:en":"SF Express","operator:wikidata":"Q7390019","operator:zh":"順豐速運","parcel_mail_in":"yes","parcel_pickup":"yes","payment:alipay_HK":"yes","payment:octopus":"yes","payment:payme":"yes","payment:unionpay":"yes","payment:wechat":"yes"}},"amenity/pharmacy/tintindrugstore-53e0d8":{"name":"丁丁藥局","locationSet":{"include":["cn","hk","tw"]},"geometry":["point","area"],"matchScore":2,"terms":["tin tin drugstore","丁丁藥局"],"reference":{"key":"amenity","value":"pharmacy"},"tags":{"amenity":"pharmacy","brand:wikidata":"Q108166589"},"addTags":{"amenity":"pharmacy","brand":"丁丁藥局","brand:en":"Tin Tin Drugstore","brand:wikidata":"Q108166589","brand:zh":"丁丁藥局","healthcare":"pharmacy","name":"丁丁藥局","name:en":"Tin Tin Drugstore","name:zh":"丁丁藥局","shop":"chemist"}},"amenity/pharmacy/beijingtongrentang-ccc53f":{"name":"北京同仁堂 Beijing Tong Ren Tang","locationSet":{"include":["hk","mo"]},"geometry":["point","area"],"matchScore":2,"terms":["beijing tong ren tang","北京同仁堂","北京同仁堂 beijing tong ren tang"],"reference":{"key":"amenity","value":"pharmacy"},"tags":{"amenity":"pharmacy","brand:wikidata":"Q842099"},"addTags":{"amenity":"pharmacy","brand":"北京同仁堂 Beijing Tong Ren Tang","brand:en":"Beijing Tong Ren Tang","brand:wikidata":"Q842099","brand:zh":"北京同仁堂","brand:zh-Hans":"北京同仁堂","brand:zh-Hant":"北京同仁堂","healthcare":"pharmacy","name":"北京同仁堂 Beijing Tong Ren Tang","name:en":"Beijing Tong Ren Tang","name:zh":"北京同仁堂","name:zh-Hans":"北京同仁堂","name:zh-Hant":"北京同仁堂"}},"amenity/post_office/sfexpress-5291fc":{"name":"順豐速運 SF Express","locationSet":{"include":["hk"]},"geometry":["point","area"],"matchScore":2,"terms":["sf express","順豐快遞","順豐速運","順豐速運 sf express","順豐速遞"],"fields":["name","brand","{amenity/post_office}"],"tags":{"amenity":"post_office","brand:wikidata":"Q7390019"},"addTags":{"amenity":"post_office","brand":"順豐速運 SF Express","brand:en":"SF Express","brand:wikidata":"Q7390019","brand:zh":"順豐速運","brand:zh-Hans":"顺丰速运","brand:zh-Hant":"順豐速運","name":"順豐速運 SF Express","name:en":"SF Express","name:zh":"順豐速運","name:zh-Hans":"顺丰速运","name:zh-Hant":"順豐速運"}},"amenity/recycling/greencommunity-f66c52":{"name":"綠在區區 GREEN@COMMUNITY","locationSet":{"include":["hk"]},"geometry":["point","area"],"matchScore":2,"terms":["green@community","綠在區區","綠在區區 green@community"],"tags":{"amenity":"recycling","brand:wikidata":"Q111079364"},"addTags":{"amenity":"recycling","brand":"綠在區區 GREEN@COMMUNITY","brand:en":"GREEN@COMMUNITY","brand:wikidata":"Q111079364","brand:zh":"綠在區區","brand:zh-Hans":"绿在区区","brand:zh-Hant":"綠在區區","owner":"環境保護署 Environmental Protection Department","owner:en":"Environmental Protection Department","owner:wikidata":"Q841892","owner:zh":"環境保護署","owner:zh-Hans":"环境保护署","owner:zh-Hant":"環境保護署","recycling_type":"centre"}},"amenity/restaurant/afuri-9b358b":{"name":"AFURI","locationSet":{"include":["ca","hk","jp","pt","sg","us"]},"geometry":["point","area"],"matchScore":2,"terms":["afuri"],"fields":["name","brand","{amenity/restaurant}"],"tags":{"amenity":"restaurant","brand:wikidata":"Q109237427"},"addTags":{"amenity":"restaurant","brand":"AFURI","brand:wikidata":"Q109237427","cuisine":"ramen","name":"AFURI"}},"amenity/restaurant/seafood/bubbagumpshrimpcompany-90d54f":{"name":"Bubba Gump Shrimp Company","locationSet":{"include":["ca","co","gb","hk","id","jp","mp","mx","ph","us"]},"geometry":["point","area"],"matchScore":2,"terms":["bubba gump shrimp company"],"reference":{"key":"cuisine","value":"seafood"},"tags":{"amenity":"restaurant","brand:wikidata":"Q50024","cuisine":"seafood"},"addTags":{"amenity":"restaurant","brand":"Bubba Gump Shrimp Company","brand:wikidata":"Q50024","cuisine":"seafood","name":"Bubba Gump Shrimp Company"}},"amenity/restaurant/japanese/cocoichibanya-365649":{"name":"CoCo Ichibanya","locationSet":{"include":["cn","hk","id","in","kr","ph","sg","th","tw","uk","us","vn"]},"geometry":["point","area"],"matchScore":2,"terms":["coco ichibanya","coco壱番屋"],"reference":{"key":"cuisine","value":"japanese"},"tags":{"amenity":"restaurant","brand:wikidata":"Q5986105","cuisine":"japanese"},"addTags":{"amenity":"restaurant","brand":"CoCo Ichibanya","brand:en":"CoCo Ichibanya","brand:ja":"CoCo壱番屋","brand:wikidata":"Q5986105","cuisine":"japanese","name":"CoCo Ichibanya","name:en":"CoCo Ichibanya","name:ja":"CoCo壱番屋","takeaway":"yes"}},"amenity/restaurant/sushi/genkisushi-8b6c9a":{"name":"元氣壽司 Genki Sushi","locationSet":{"include":["hk"]},"geometry":["point","area"],"matchScore":2,"terms":["genki sushi","元気寿司","元氣壽司","元氣壽司 genki sushi"],"reference":{"key":"cuisine","value":"sushi"},"tags":{"amenity":"restaurant","brand:wikidata":"Q5533323","cuisine":"sushi"},"addTags":{"amenity":"restaurant","brand":"元氣壽司 Genki Sushi","brand:en":"Genki Sushi","brand:ja":"元気寿司","brand:wikidata":"Q5533323","brand:zh":"元氣壽司","brand:zh-Hans":"元气寿司","brand:zh-Hant":"元氣壽司","cuisine":"sushi","name":"元気寿司 Genki Sushi","name:en":"Genki Sushi","name:ja":"元気寿司","name:zh":"元氣壽司","name:zh-Hans":"元气寿司","name:zh-Hant":"元氣壽司"}},"amenity/restaurant/ajisenramen-8b6c9a":{"name":"味千拉麵 Ajisen Ramen","locationSet":{"include":["hk"]},"geometry":["point","area"],"matchScore":2,"terms":["ajisen ramen","味千ラーメン","味千拉麵","味千拉麵 ajisen ramen"],"tags":{"amenity":"restaurant","brand:wikidata":"Q4699761"},"addTags":{"amenity":"restaurant","brand":"味千拉麵 Ajisen Ramen","brand:en":"Ajisen Ramen","brand:ja":"味千ラーメン","brand:wikidata":"Q4699761","brand:zh":"味千拉麵","brand:zh-Hans":"味千拉面","brand:zh-Hant":"味千拉麵","cuisine":"ramen","name":"味千拉麵 Ajisen Ramen","name:en":"Ajisen Ramen","name:ja":"味千ラーメン","name:zh":"味千拉麵","name:zh-Hans":"味千拉面","name:zh-Hant":"味千拉麵"}},"amenity/restaurant/sushi/sushiro-8b6c9a":{"name":"壽司郎 Sushiro","locationSet":{"include":["hk"]},"geometry":["point","area"],"matchScore":2,"terms":["sushiro","スシロー","壽司郎","壽司郎 sushiro"],"reference":{"key":"cuisine","value":"sushi"},"tags":{"amenity":"restaurant","brand:wikidata":"Q11257037","cuisine":"sushi"},"addTags":{"amenity":"restaurant","brand":"壽司郎 Sushiro","brand:en":"Sushiro","brand:ja":"スシロー","brand:wikidata":"Q11257037","brand:zh":"壽司郎","brand:zh-Hans":"寿司郎","brand:zh-Hant":"壽司郎","cuisine":"sushi","name":"壽司郎 Sushiro","name:en":"Sushiro","name:ja":"スシロー","name:zh":"壽司郎","name:zh-Hans":"寿司郎","name:zh-Hant":"壽司郎"}},"amenity/restaurant/pizza/pizzahut-edf541":{"name":"必勝客 Pizza Hut","locationSet":{"include":["hk","mo"]},"geometry":["point","area"],"matchScore":2,"terms":["pizza hut","必勝客","必勝客 pizza hut"],"reference":{"key":"cuisine","value":"pizza"},"tags":{"amenity":"restaurant","brand:wikidata":"Q191615","cuisine":"pizza"},"addTags":{"amenity":"restaurant","brand":"必勝客 Pizza Hut","brand:en":"Pizza Hut","brand:wikidata":"Q191615","brand:zh":"必勝客","brand:zh-Hans":"必胜客","brand:zh-Hant":"必勝客","cuisine":"pizza","name":"必勝客 Pizza Hut","name:en":"Pizza Hut","name:zh":"必勝客","name:zh-Hans":"必胜客","name:zh-Hant":"必勝客"}},"amenity/restaurant/chinese/haidilaohotpot-edf541":{"name":"海底撈火鍋 Haidilao Hot Pot","locationSet":{"include":["hk","mo"]},"geometry":["point","area"],"matchScore":2,"terms":["haidilao hot pot","海底撈","海底撈火鍋","海底撈火鍋 haidilao hot pot"],"reference":{"key":"cuisine","value":"chinese"},"tags":{"amenity":"restaurant","brand:wikidata":"Q5638920","cuisine":"chinese;hot_pot"},"addTags":{"amenity":"restaurant","brand":"海底撈火鍋 Haidilao Hot Pot","brand:en":"Haidilao Hot Pot","brand:wikidata":"Q5638920","brand:zh":"海底撈火鍋","brand:zh-Hans":"海底捞火锅","brand:zh-Hant":"海底撈火鍋","cuisine":"chinese;hot_pot","name":"海底撈火鍋 Haidilao Hot Pot","name:en":"Haidilao Hot Pot","name:zh":"海底撈火鍋","name:zh-Hans":"海底捞火锅","name:zh-Hant":"海底撈火鍋"}},"amenity/restaurant/italian/saizeriya-8b6c9a":{"name":"薩莉亞 Saizeriya","locationSet":{"include":["hk"]},"geometry":["point","area"],"matchScore":2,"terms":["saizeriya","サイゼリヤ","薩莉亞","薩莉亞 saizeriya"],"reference":{"key":"cuisine","value":"italian"},"tags":{"amenity":"restaurant","brand:wikidata":"Q886564","cuisine":"italian"},"addTags":{"amenity":"restaurant","brand":"薩莉亞 Saizeriya","brand:en":"Saizeriya","brand:it":"Saizeriya","brand:ja":"サイゼリヤ","brand:wikidata":"Q886564","brand:zh":"薩莉亞","brand:zh-Hans":"萨莉亚","brand:zh-Hant":"薩莉亞","cuisine":"italian","name":"薩莉亞 Saizeriya","name:en":"Saizeriya","name:it":"Saizeriya","name:ja":"サイゼリヤ","name:zh":"薩莉亞","name:zh-Hans":"萨莉亚","name:zh-Hant":"薩莉亞"}},"amenity/restaurant/noodle/tamjaisamgor-8b6c9a":{"name":"譚仔三哥 TamJai SamGor","locationSet":{"include":["hk"]},"geometry":["point","area"],"matchScore":2,"terms":["tamjai samgor","譚仔三哥","譚仔三哥 tamjai samgor"],"reference":{"key":"cuisine","value":"noodle"},"tags":{"amenity":"restaurant","brand:wikidata":"Q113365214","cuisine":"noodle"},"addTags":{"amenity":"restaurant","brand":"譚仔三哥 TamJai SamGor","brand:en":"TamJai SamGor","brand:wikidata":"Q113365214","brand:zh":"譚仔三哥","brand:zh-Hans":"谭仔三哥","brand:zh-Hant":"譚仔三哥","cuisine":"noodle","name":"譚仔三哥 TamJai SamGor","name:en":"譚仔三哥 TamJai SamGor","name:zh":"譚仔三哥","name:zh-Hans":"谭仔三哥","name:zh-Hant":"譚仔三哥"}},"amenity/restaurant/noodle/tamjaiyunnanmixian-8b6c9a":{"name":"譚仔雲南米線 TamJai Yunnan Mixian","locationSet":{"include":["hk"]},"geometry":["point","area"],"matchScore":2,"terms":["tamjai yunnan mixian","譚仔","譚仔雲南米線","譚仔雲南米線 tamjai yunnan mixian"],"reference":{"key":"cuisine","value":"noodle"},"tags":{"amenity":"restaurant","brand:wikidata":"Q113365184","cuisine":"noodle"},"addTags":{"amenity":"restaurant","brand":"譚仔雲南米線 TamJai Yunnan Mixian","brand:wikidata":"Q113365184","brand:zh":"譚仔雲南米線","brand:zh-Hans":"谭仔云南米线","brand:zh-Hant":"譚仔雲南米線","cuisine":"noodle","name":"譚仔雲南米線 TamJai Yunnan Mixian","name:en":"TamJai Yunnan Mixian","name:zh":"譚仔雲南米線","name:zh-Hans":"谭仔云南米线","name:zh-Hant":"譚仔雲南米線"}},"amenity/restaurant/dintaifung-8b6c9a":{"name":"鼎泰豐 Din Tai Fung","locationSet":{"include":["hk"]},"geometry":["point","area"],"matchScore":2,"terms":["din tai fung","鼎泰豐","鼎泰豐 din tai fung"],"tags":{"amenity":"restaurant","brand:wikidata":"Q699142"},"addTags":{"amenity":"restaurant","brand":"鼎泰豐 Din Tai Fung","brand:en":"Din Tai Fung","brand:wikidata":"Q699142","brand:zh":"鼎泰豐","brand:zh-Hans":"鼎泰丰","brand:zh-Hant":"鼎泰豐","cuisine":"taiwanese","name":"鼎泰豐 Din Tai Fung","name:en":"Din Tai Fung","name:zh":"鼎泰豐","name:zh-Hans":"鼎泰丰","name:zh-Hant":"鼎泰豐"}},"amenity/school/maplebear-101006":{"name":"Maple Bear","locationSet":{"include":["ae","al","ar","au","bd","bg","br","ca","gt","hk","hr","in","ke","kr","lk","ma","mx","my","np","om","pe","ph","py","ro","rs","sg","th","tk","ua","us","vn"]},"geometry":["area","point"],"matchScore":2,"terms":["maple bear"],"fields":["name","brand","{amenity/school}"],"tags":{"amenity":"school","brand:wikidata":"Q10324823"},"addTags":{"amenity":"school","brand":"Maple Bear","brand:wikidata":"Q10324823","name":"Maple Bear","operator:type":"private"}},"club/hongkonggirlguidesassociation-d7bac8":{"name":"香港女童軍總會 Hong Kong Girl Guides Association","locationSet":{"include":["hk"]},"geometry":["point","area"],"matchScore":2,"terms":["hong kong girl guides association","女童軍","香港女童軍總會"],"fields":["name","brand","{club}"],"tags":{"brand:wikidata":"Q5894627","club":"scout"},"addTags":{"brand":"香港女童軍總會","brand:en":"Hong Kong Girl Guides Association","brand:wikidata":"Q5894627","brand:zh":"香港女童軍總會","brand:zh-Hans":"香港女童军总会","brand:zh-Hant":"香港女童軍總會","club":"scout"}},"club/scoutassociationofhongkong-d7bac8":{"name":"香港童軍總會 Scout Association of Hong Kong","locationSet":{"include":["hk"]},"geometry":["point","area"],"matchScore":2,"terms":["scout association of hong kong","scouts","童軍","香港童軍總會","香港童軍總會 scout association of hong kong"],"fields":["name","brand","{club}"],"tags":{"brand:wikidata":"Q1883585","club":"scout"},"addTags":{"brand":"香港童軍總會 Scout Association of Hong Kong","brand:en":"Scout Association of Hong Kong","brand:wikidata":"Q1883585","brand:zh":"香港童軍總會","brand:zh-Hans":"香港童军总会","brand:zh-Hant":"香港童軍總會","club":"scout"}},"healthcare/blood_donation/hongkongredcross-d0af39":{"name":"香港紅十字會 Hong Kong Red Cross","locationSet":{"include":["hk"]},"geometry":["point","area"],"matchScore":2,"terms":["hong kong red cross","紅十字","紅十字會","香港紅十字會","香港紅十字會 hong kong red cross"],"tags":{"brand:wikidata":"Q840469","healthcare":"blood_donation"},"addTags":{"brand":"香港紅十字會 Hong Kong Red Cross","brand:en":"Hong Kong Red Cross","brand:wikidata":"Q840469","brand:zh":"香港紅十字會","brand:zh-Hans":"香港红十字会","brand:zh-Hant":"香港紅十字會","healthcare":"blood_donation"}},"leisure/fitness_centre/247fitness-68bf34":{"name":"24/7 Fitness","locationSet":{"include":["hk"]},"geometry":["point","area"],"matchScore":2,"terms":["24/7 fitness"],"tags":{"brand:wikidata":"Q112671987","leisure":"fitness_centre"},"addTags":{"brand":"24/7 Fitness","brand:en":"24/7 Fitness","brand:wikidata":"Q112671987","leisure":"fitness_centre","name":"24/7 Fitness","name:en":"24/7 Fitness"}},"leisure/fitness_centre/snapfitness-551086":{"name":"Snap Fitness","locationSet":{"include":["ae","au","be","ca","es","gb","hk","id","ie","jp","mx","nl","nz","ph","tr","tw","us"]},"geometry":["point","area"],"matchScore":2,"terms":["snap fitness"],"tags":{"brand:wikidata":"Q7547254","leisure":"fitness_centre"},"addTags":{"brand":"Snap Fitness","brand:wikidata":"Q7547254","leisure":"fitness_centre","name":"Snap Fitness"}},"leisure/fitness_centre/physicalfitnessandbeauty-68bf34":{"name":"舒適堡 Physical Fitness & Beauty","locationSet":{"include":["hk"]},"geometry":["point","area"],"matchScore":2,"terms":["physical fitness & beauty","舒適堡","舒適堡 physical fitness & beauty"],"tags":{"brand:wikidata":"Q15897842","leisure":"fitness_centre"},"addTags":{"brand":"舒適堡 Physical Fitness & Beauty","brand:en":"Physical Fitness & Beauty","brand:wikidata":"Q15897842","brand:zh":"舒適堡","brand:zh-Hans":"舒适堡","brand:zh-Hant":"舒適堡","leisure":"fitness_centre","name":"舒適堡 Physical Fitness & Beauty","name:en":"Physical Fitness & Beauty","name:zh":"舒適堡","name:zh-Hans":"舒适堡","name:zh-Hant":"舒適堡"}},"office/coworking/ucommune-a8f329":{"name":"Ucommune (Hong Kong)","locationSet":{"include":["hk"]},"geometry":["point","area"],"matchScore":2,"terms":["ucommune","優客工場","優客工場 ucommune"],"tags":{"brand:wikidata":"Q60785187","office":"coworking"},"addTags":{"brand":"優客工場 Ucommune","brand:en":"Ucommune","brand:wikidata":"Q60785187","brand:zh":"優客工場","brand:zh-Hans":"优客工场","brand:zh-Hant":"優客工場","fee":"yes","name":"優客工場 Ucommune","name:en":"Ucommune","name:zh":"優客工場","name:zh-Hans":"优客工场","name:zh-Hant":"優客工場","office":"coworking"}},"office/estate_agent/century21-d2db80":{"name":"世紀21 Century 21","locationSet":{"include":["hk"]},"geometry":["point","area"],"matchScore":2,"terms":["century 21","世紀21","世紀21 century 21"],"tags":{"brand:wikidata":"Q1054480","office":"estate_agent"},"addTags":{"brand":"世紀21 Century 21","brand:en":"Century 21","brand:wikidata":"Q1054480","brand:zh":"世紀21","name":"世紀21 Century 21","name:en":"Century 21","name:zh":"世紀21","office":"estate_agent"}},"office/estate_agent/centalineproperty-d2db80":{"name":"中原地產 Centaline Property","locationSet":{"include":["hk"]},"geometry":["point","area"],"matchScore":2,"terms":["centaline property","中原地產","中原地產 centaline property"],"tags":{"brand:wikidata":"Q5058993","office":"estate_agent"},"addTags":{"brand":"中原地產 Centaline Property","brand:en":"Centaline Property","brand:wikidata":"Q5058993","brand:zh":"中原地產","name":"中原地產 Centaline Property","name:en":"Centaline Property","name:zh":"中原地產","office":"estate_agent"}},"office/estate_agent/ricacorpproperties-d2db80":{"name":"利嘉閣 Ricacorp Properties","locationSet":{"include":["hk"]},"geometry":["point","area"],"matchScore":2,"terms":["ricacorp properties","利嘉閣","利嘉閣 ricacorp properties"],"tags":{"brand:wikidata":"Q7322502","office":"estate_agent"},"addTags":{"brand":"利嘉閣 Ricacorp Properties","brand:en":"Ricacorp Properties","brand:wikidata":"Q7322502","brand:zh":"利嘉閣","name":"利嘉閣 Ricacorp Properties","name:en":"Ricacorp Properties","name:zh":"利嘉閣","office":"estate_agent"}},"office/estate_agent/midlandrealty-d2db80":{"name":"美聯物業 Midland Realty","locationSet":{"include":["hk"]},"geometry":["point","area"],"matchScore":2,"terms":["midland realty","美聯物業","美聯物業 midland realty"],"tags":{"brand:wikidata":"Q6842356","office":"estate_agent"},"addTags":{"brand":"美聯物業 Midland Realty","brand:en":"Midland Realty","brand:wikidata":"Q6842356","brand:zh":"美聯物業","name":"美聯物業 Midland Realty","name:en":"Midland Realty","name:zh":"美聯物業","office":"estate_agent"}},"office/estate_agent/hongkongproperty-d2db80":{"name":"香港置業 Hong Kong Property","locationSet":{"include":["hk"]},"geometry":["point","area"],"matchScore":2,"terms":["hong kong property","香港置業","香港置業 hong kong property"],"tags":{"brand:wikidata":"Q5894954","office":"estate_agent"},"addTags":{"brand":"香港置業 Hong Kong Property","brand:en":"Hong Kong Property","brand:wikidata":"Q5894954","brand:zh":"香港置業","name":"香港置業 Hong Kong Property","name:en":"Hong Kong Property","name:zh":"香港置業","office":"estate_agent"}},"office/insurance/allianz-332499":{"name":"Allianz","locationSet":{"include":["ae","ar","at","au","be","bg","bh","bm","bn","br","ca","cg","ch","ci","cm","cn","co","cy","cz","de","dk","ee","eg","es","fi","fr","gb","gf","gg","gh","gp","gr","hk","hr","hu","id","ie","in","is","it","ja","ke","kr","kw","la","li","lk","lt","lu","lv","ma","mg","mx","my","ng","nl","no","nz","om","ph","pk","pl","pt","qa","ro","ru","sa","se","sg","si","sk","sn","th","tr","tw","ua","us","za"]},"geometry":["point","area"],"matchScore":2,"terms":["allianz"],"fields":["name","brand","{office/insurance}"],"tags":{"brand:wikidata":"Q487292","office":"insurance"},"addTags":{"brand":"Allianz","brand:wikidata":"Q487292","name":"Allianz","office":"insurance"}},"office/insurance/axa-2e7672":{"name":"AXA","locationSet":{"include":["ae","ar","au","be","bh","bm","br","ca","ch","ci","cl","cm","cn","co","cz","de","dk","dz","eg","es","fi","fr","ga","gb","gr","hk","id","ie","in","it","jp","kr","lb","lu","ma","mu","mx","my","ng","nl","no","om","pa","pe","ph","pl","pt","qa","sa","se","sg","sk","sn","th","tr","tw","us"]},"geometry":["point","area"],"matchScore":2,"terms":["axa"],"fields":["name","brand","{office/insurance}"],"tags":{"brand:wikidata":"Q160054","office":"insurance"},"addTags":{"brand":"AXA","brand:wikidata":"Q160054","name":"AXA","office":"insurance"}},"office/insurance/zurich-2d6c95":{"name":"Zurich","locationSet":{"include":["ae","at","au","be","bh","br","ca","ch","cl","cn","co","de","ec","es","fi","fr","gb","hk","id","ie","it","ja","kw","lb","li","lu","mx","my","nl","no","nz","om","pt","qa","se","sg","sk","tr","us"]},"geometry":["point","area"],"matchScore":2,"terms":["zurich"],"fields":["name","brand","{office/insurance}"],"tags":{"brand:wikidata":"Q230426","office":"insurance"},"addTags":{"brand":"Zurich","brand:wikidata":"Q230426","name":"Zurich","office":"insurance"}},"office/telecommunication/three-ad533f":{"name":"3","locationSet":{"include":["hk","mo"]},"geometry":["point","area"],"matchScore":2,"terms":["3","three."],"tags":{"brand:wikidata":"Q407009","office":"telecommunication"},"addTags":{"brand":"3","brand:en":"3","brand:wikidata":"Q407009","name":"Three.","name:en":"Three.","office":"telecommunication"}},"office/telecommunication/chinamobile-d8d44b":{"name":"中國移動 China Mobile","locationSet":{"include":["hk"]},"geometry":["point","area"],"matchScore":2,"terms":["china mobile","cmhk","中國移動","中國移動 china mobile","中移動","萬眾"],"tags":{"brand:wikidata":"Q741618","office":"telecommunication"},"addTags":{"brand":"中國移動 China Mobile","brand:en":"China Mobile","brand:wikidata":"Q741618","brand:zh":"中國移動","brand:zh-Hans":"中国移动","brand:zh-Hant":"中國移動","name":"中國移動 China Mobile","name:en":"China Mobile","name:zh":"中國移動","name:zh-Hans":"中国移动","name:zh-Hant":"中國移動","office":"telecommunication"}},"office/telecommunication/chinaunicom-d8d44b":{"name":"中國聯通 China Unicom","locationSet":{"include":["hk"]},"geometry":["point","area"],"matchScore":2,"terms":["china unicom","中國聯通","中國聯通 china unicom"],"tags":{"brand:wikidata":"Q1068485","office":"telecommunication"},"addTags":{"brand":"中國聯通 China Unicom","brand:en":"China Unicom","brand:wikidata":"Q1068485","brand:zh":"中國聯通","brand:zh-Hans":"中国联通","brand:zh-Hant":"中國聯通","name":"中國聯通 China Unicom","name:en":"China Unicom","name:zh":"中國聯通","name:zh-Hans":"中国联通","name:zh-Hant":"中國聯通","office":"telecommunication"}},"office/telecommunication/smartone-ad533f":{"name":"數碼通 SmarTone","locationSet":{"include":["hk","mo"]},"geometry":["point","area"],"matchScore":2,"terms":["smartone","數碼通","數碼通 smartone"],"tags":{"brand:wikidata":"Q11079498","office":"telecommunication"},"addTags":{"brand":"數碼通 SmarTone","brand:en":"SmarTone","brand:wikidata":"Q11079498","brand:zh":"數碼通","brand:zh-Hans":"数码通","brand:zh-Hant":"數碼通","name":"數碼通 SmarTone","name:en":"SmarTone","name:zh":"數碼通","name:zh-Hans":"数码通","name:zh-Hant":"數碼通","office":"telecommunication"}},"office/telecommunication/sunmobile-d8d44b":{"name":"新移動通訊 SUN Mobile","locationSet":{"include":["hk"]},"geometry":["point","area"],"matchScore":2,"terms":["sun mobile","新移動通訊","新移動通訊 sun mobile"],"tags":{"brand:wikidata":"Q11080923","office":"telecommunication"},"addTags":{"brand":"新移動通訊 SUN Mobile","brand:en":"SUN Mobile","brand:wikidata":"Q11080923","brand:zh":"新移動通訊","brand:zh-Hans":"新移动通讯","brand:zh-Hant":"新移動通訊","name":"新移動通訊 SUN Mobile","name:en":"SUN Mobile","name:zh":"新移動通訊","name:zh-Hans":"新移动通讯","name:zh-Hant":"新移動通訊","office":"telecommunication"}},"shop/bakery/milliescookies-376142":{"name":"Millie's Cookies","locationSet":{"include":["de","eg","fr","gb","hk","in","mt"]},"geometry":["point","area"],"matchScore":2,"terms":["millie's cookies"],"tags":{"brand:wikidata":"Q1935533","shop":"bakery"},"addTags":{"brand":"Millie's Cookies","brand:wikidata":"Q1935533","name":"Millie's Cookies","shop":"bakery"}},"shop/bakery/taipanbreadandcakes-ebd86c":{"name":"大班麵包西餅 Taipan Bread & Cakes","locationSet":{"include":["hk"]},"geometry":["point","area"],"matchScore":2,"terms":["taipan bread & cakes","大班麵包西餅","大班麵包西餅 taipan bread & cakes"],"tags":{"brand:wikidata":"Q10936779","shop":"bakery"},"addTags":{"brand":"大班麵包西餅 Taipan Bread & Cakes","brand:en":"Taipan Bread & Cakes","brand:wikidata":"Q10936779","brand:zh":"大班麵包西餅","name":"大班麵包西餅 Taipan Bread & Cakes","name:en":"Taipan Bread & Cakes","name:zh":"大班麵包西餅","shop":"bakery"}},"shop/bakery/keewahbakery-ebd86c":{"name":"奇華餅家 Kee Wah Bakery","locationSet":{"include":["hk"]},"geometry":["point","area"],"matchScore":2,"terms":["kee wah bakery","奇華餅家","奇華餅家 kee wah bakery"],"tags":{"brand:wikidata":"Q6382658","shop":"bakery"},"addTags":{"brand":"奇華餅家 Kee Wah Bakery","brand:en":"Kee Wah Bakery","brand:wikidata":"Q6382658","brand:zh":"奇華餅家","brand:zh-Hans":"奇华饼家","brand:zh-Hant":"奇華餅家","name":"奇華餅家 Kee Wah Bakery","name:en":"Kee Wah Bakery","name:zh":"奇華餅家","name:zh-Hans":"奇华饼家","name:zh-Hant":"奇華餅家","shop":"bakery"}},"shop/bakery/yamazakibaking-ebd86c":{"name":"山崎麵包 Yamazaki Bakery","locationSet":{"include":["hk"]},"geometry":["point","area"],"matchScore":2,"terms":["yamazaki bakery","yamazaki baking","山崎製パン","山崎麵包","山崎麵包 yamazaki bakery"],"tags":{"brand:wikidata":"Q3138937","shop":"bakery"},"addTags":{"brand":"山崎麵包 Yamazaki Bakery","brand:en":"Yamazaki Bakery","brand:ja":"山崎製パン","brand:wikidata":"Q3138937","brand:zh":"山崎麵包","brand:zh-Hans":"山崎面包","brand:zh-Hant":"山崎麵包","name":"山崎麵包 Yamazaki Bakery","name:en":"Yamazaki Baking","name:ja":"山崎製パン","name:zh":"山崎麵包","name:zh-Hans":"山崎面包","name:zh-Hant":"山崎麵包","shop":"bakery"}},"shop/bakery/aromebakery-ebd86c":{"name":"東海堂 Arome Bakery","locationSet":{"include":["hk"]},"geometry":["point","area"],"matchScore":2,"terms":["arome bakery","東海堂","東海堂 arome bakery"],"tags":{"brand:wikidata":"Q1305627","shop":"bakery"},"addTags":{"brand":"東海堂 Arome Bakery","brand:en":"Arome Bakery","brand:wikidata":"Q1305627","brand:zh":"東海堂","name":"東海堂 Arome Bakery","name:en":"Arome Bakery","name:zh":"東海堂","shop":"bakery"}},"shop/bakery/maximscakes-ebd86c":{"name":"美心西餅 Maxim's Cakes","locationSet":{"include":["hk"]},"geometry":["point","area"],"matchScore":2,"terms":["maxim's cakes","美心西餅","美心西餅 maxim's cakes"],"tags":{"brand:wikidata":"Q15924792","shop":"bakery"},"addTags":{"brand":"美心西餅 Maxim's Cakes","brand:en":"Maxim's Cakes","brand:wikidata":"Q15924792","brand:zh":"美心西餅","name":"美心西餅 Maxim's Cakes","name:en":"Maxim's Cakes","name:zh":"美心西餅","shop":"bakery"}},"shop/bakery/sainthonorecakeshop-ebd86c":{"name":"聖安娜餅屋 Saint Honore Cake Shop","locationSet":{"include":["hk"]},"geometry":["point","area"],"matchScore":2,"terms":["saint honore cake shop","聖安娜餅屋","聖安娜餅屋 saint honore cake shop"],"tags":{"brand:wikidata":"Q7401373","shop":"bakery"},"addTags":{"brand":"聖安娜餅屋 Saint Honore Cake Shop","brand:en":"Saint Honore Cake Shop","brand:wikidata":"Q7401373","brand:zh":"聖安娜餅屋","name":"聖安娜餅屋 Saint Honore Cake Shop","name:en":"Saint Honore Cake Shop","name:zh":"聖安娜餅屋","shop":"bakery"}},"shop/beauty/skinlaundry-85c569":{"name":"Skin Laundry","locationSet":{"include":["ae","gb","hk","kw","us"]},"geometry":["point","area"],"matchScore":2,"terms":["skin laundry"],"tags":{"brand:wikidata":"Q113513202","shop":"beauty"},"addTags":{"beauty":"skin_care","brand":"Skin Laundry","brand:wikidata":"Q113513202","name":"Skin Laundry","shop":"beauty"}},"shop/beauty/yvesrocher-9f1489":{"name":"葉露芝","locationSet":{"include":["hk","tw"]},"geometry":["point","area"],"matchScore":2,"terms":["yves rocher","葉露芝"],"tags":{"brand:wikidata":"Q28496595","shop":"beauty"},"addTags":{"beauty":"cosmetics","brand":"葉露芝","brand:en":"Yves Rocher","brand:wikidata":"Q28496595","brand:zh":"葉露芝","name":"葉露芝","name:en":"Yves Rocher","name:zh":"葉露芝","shop":"beauty"}},"shop/books/popular-0df755":{"name":"Popular","locationSet":{"include":["hk","my","sg"]},"geometry":["point","area"],"matchScore":2,"terms":["popular","大众书局"],"tags":{"brand:wikidata":"Q4167785","shop":"books"},"addTags":{"brand":"Popular","brand:wikidata":"Q4167785","brand:zh":"大众书局","name":"Popular","name:zh":"大众书局","shop":"books"}},"shop/books/jointpublishing-199399":{"name":"三聯書店 Joint Publishing","locationSet":{"include":["hk"]},"geometry":["point","area"],"matchScore":2,"terms":["joint publishing","三聯書店","三聯書店 joint publishing"],"tags":{"brand:wikidata":"Q17012917","shop":"books"},"addTags":{"brand":"三聯書店 Joint Publishing","brand:en":"Joint Publishing","brand:wikidata":"Q17012917","brand:zh":"三聯書店","brand:zh-Hans":"三联书店","brand:zh-Hant":"三聯書店","name":"三聯書店 Joint Publishing","name:en":"Joint Publishing","name:zh":"三聯書店","name:zh-Hans":"三联书店","name:zh-Hant":"三聯書店","owner":"聯合出版（集團）有限公司 Sino United Publishing (Holdings) Limited","owner:en":"Sino United Publishing (Holdings) Limited","owner:wikidata":"Q15912494","owner:zh":"聯合出版（集團）有限公司","owner:zh-Hans":"联合出版（集团）有限公司","owner:zh-Hant":"聯合出版（集團）有限公司","shop":"books"}},"shop/books/chunghwabookcompany-199399":{"name":"中華書局 Chung Hwa Book Company","locationSet":{"include":["hk"]},"geometry":["point","area"],"matchScore":2,"terms":["chung hwa book company","中華書局","中華書局 chung hwa book company"],"tags":{"brand:wikidata":"Q10876287","shop":"books"},"addTags":{"brand":"中華書局 Chung Hwa Book Company","brand:en":"Chung Hwa Book Company","brand:wikidata":"Q10876287","brand:zh":"中華書局","brand:zh-Hans":"中华书局","brand:zh-Hant":"中華書局","name":"中華書局 Chung Hwa Book Company","name:en":"Chung Hwa Book Company","name:zh":"中華書局","name:zh-Hans":"中华书局","name:zh-Hant":"中華書局","owner":"聯合出版（集團）有限公司 Sino United Publishing (Holdings) Limited","owner:en":"Sino United Publishing (Holdings) Limited","owner:wikidata":"Q15912494","owner:zh":"聯合出版（集團）有限公司","owner:zh-Hans":"联合出版（集团）有限公司","owner:zh-Hant":"聯合出版（集團）有限公司","shop":"books"}},"shop/books/thecommercialpress-199399":{"name":"商務印書館 The Commercial Press","locationSet":{"include":["hk"]},"geometry":["point","area"],"matchScore":2,"terms":["the commercial press","商務印書館","商務印書館 the commercial press"],"tags":{"brand:wikidata":"Q10923130","shop":"books"},"addTags":{"brand":"商務印書館 The Commercial Press","brand:en":"The Commercial Press","brand:wikidata":"Q10923130","brand:zh":"商務印書館","brand:zh-Hans":"商务印书馆","brand:zh-Hant":"商務印書館","name":"商務印書館 The Commercial Press","name:en":"The Commercial Press","name:zh":"商務印書館","name:zh-Hans":"商务印书馆","name:zh-Hant":"商務印書館","owner":"聯合出版（集團）有限公司 Sino United Publishing (Holdings) Limited","owner:en":"Sino United Publishing (Holdings) Limited","owner:wikidata":"Q15912494","owner:zh":"聯合出版（集團）有限公司","owner:zh-Hans":"联合出版（集团）有限公司","owner:zh-Hant":"聯合出版（集團）有限公司","shop":"books"}},"shop/books/eslitebookstore-e5bda4":{"name":"誠品書店 Eslite Bookstore","locationSet":{"include":["hk","mo"]},"geometry":["point","area"],"matchScore":2,"terms":["eslite bookstore","誠品書店","誠品書店 eslite bookstore"],"tags":{"brand:wikidata":"Q391988","shop":"books"},"addTags":{"brand":"誠品書店 Eslite Bookstore","brand:en":"Eslite Bookstore","brand:wikidata":"Q391988","brand:zh":"誠品書店","brand:zh-Hans":"诚品书店","brand:zh-Hant":"誠品書店","name":"誠品書店 Eslite Bookstore","name:en":"Eslite Bookstore","name:zh":"誠品書店","name:zh-Hans":"诚品书店","name:zh-Hant":"誠品書店","shop":"books"}},"shop/chemist/watsons-d89f96":{"name":"屈臣氏 Watsons","locationSet":{"include":["hk","mo"]},"geometry":["point","area"],"matchScore":2,"terms":["watsons","屈臣氏","屈臣氏 watsons"],"tags":{"brand:wikidata":"Q7974785","shop":"chemist"},"addTags":{"brand":"屈臣氏 Watsons","brand:en":"Watsons","brand:wikidata":"Q7974785","brand:zh":"屈臣氏","brand:zh-Hans":"屈臣氏","brand:zh-Hant":"屈臣氏","name":"屈臣氏 Watsons","name:en":"Watsons","name:zh":"屈臣氏","name:zh-Hans":"屈臣氏","name:zh-Hant":"屈臣氏","shop":"chemist"}},"shop/chemist/mannings-d89f96":{"name":"萬寧 Mannings","locationSet":{"include":["hk","mo"]},"geometry":["point","area"],"matchScore":2,"terms":["mannings","萬寧","萬寧 mannings"],"tags":{"brand:wikidata":"Q13646560","shop":"chemist"},"addTags":{"amenity":"pharmacy","brand":"萬寧 Mannings","brand:en":"Mannings","brand:wikidata":"Q13646560","brand:zh":"萬寧","brand:zh-Hans":"万宁","brand:zh-Hant":"萬寧","healthcare":"pharmacy","name":"萬寧 Mannings","name:en":"Mannings","name:zh":"萬寧","name:zh-Hans":"万宁","name:zh-Hant":"萬寧","shop":"chemist"}},"shop/clothes/abercrombieandfitch-c69677":{"name":"Abercrombie & Fitch","locationSet":{"include":["ae","be","ca","cn","de","es","fr","gb","hk","ie","it","jp","kw","mx","nl","qa","sa","sg","us"]},"geometry":["point","area"],"matchScore":2,"terms":["abercrombie & fitch"],"tags":{"brand:wikidata":"Q319344","shop":"clothes"},"addTags":{"brand":"Abercrombie & Fitch","brand:wikidata":"Q319344","clothes":"men;women","name":"Abercrombie & Fitch","shop":"clothes"}},"shop/clothes/g2000-12a111":{"name":"G2000","locationSet":{"include":["hk"]},"geometry":["point","area"],"matchScore":2,"terms":["g2000"],"tags":{"brand:wikidata":"Q5512676","shop":"clothes"},"addTags":{"brand":"G2000","brand:en":"G2000","brand:wikidata":"Q5512676","name":"G2000","name:en":"G2000","shop":"clothes"}},"shop/clothes/jackwills-75e7ba":{"name":"Jack Wills","locationSet":{"include":["ae","gb","hk","ie","kw","lb","mo","sg","us"]},"geometry":["point","area"],"matchScore":2,"terms":["jack wills"],"tags":{"brand:wikidata":"Q6115814","shop":"clothes"},"addTags":{"brand":"Jack Wills","brand:wikidata":"Q6115814","name":"Jack Wills","shop":"clothes"}},"shop/clothes/maje-99ba8f":{"name":"Maje","locationSet":{"include":["by","bg","cz","hu","pl","md","ro","ru","sk","ua","ax","gg","je","cq","dk","ee","fo","fi","is","ie","im","lv","lt","no","sj","se","gb","al","ad","ba","hr","gi","gr","va","it","mt","me","mk","pt","sm","rs","si","es","xk","at","be","fr","de","li","lu","mc","nl","ch","cn","hk","sg","tw","uk","us"]},"geometry":["point","area"],"matchScore":2,"terms":["maje"],"tags":{"brand:wikidata":"Q3280458","shop":"clothes"},"addTags":{"brand":"Maje","brand:wikidata":"Q3280458","clothes":"women","name":"Maje","shop":"clothes"}},"shop/clothes/patagonia-7718c5":{"name":"Patagonia","locationSet":{"include":["ar","at","au","ca","cl","cn","cz","de","fx","gb","hk","ie","it","jp","kr","pe","tw","us"]},"geometry":["point","area"],"matchScore":2,"terms":["patagonia"],"tags":{"brand:wikidata":"Q1660552","shop":"clothes"},"addTags":{"brand":"Patagonia","brand:wikidata":"Q1660552","clothes":"outdoor","name":"Patagonia","shop":"clothes"}},"shop/clothes/sweatybetty-81ce8b":{"name":"Sweaty Betty","locationSet":{"include":["ca","de","gb","hk","ie","sg","us"]},"geometry":["point","area"],"matchScore":2,"terms":["sweaty betty"],"tags":{"brand:wikidata":"Q7654224","shop":"clothes"},"addTags":{"brand":"Sweaty Betty","brand:wikidata":"Q7654224","clothes":"women;sports","name":"Sweaty Betty","shop":"clothes"}},"shop/clothes/giordano-33ce1a":{"name":"佐丹奴 Giordano","locationSet":{"include":["hk","mo"]},"geometry":["point","area"],"matchScore":2,"terms":["giordano","佐丹奴","佐丹奴 giordano"],"tags":{"brand:wikidata":"Q4115012","shop":"clothes"},"addTags":{"brand":"佐丹奴 Giordano","brand:en":"Giordano","brand:wikidata":"Q4115012","brand:zh":"佐丹奴","name":"佐丹奴 Giordano","name:en":"Giordano","name:zh":"佐丹奴","shop":"clothes"}},"shop/clothes/baleno-12a111":{"name":"班尼路 Baleno","locationSet":{"include":["hk"]},"geometry":["point","area"],"matchScore":2,"terms":["baleno","班尼路","班尼路 baleno"],"tags":{"brand:wikidata":"Q4850707","shop":"clothes"},"addTags":{"brand":"班尼路 Baleno","brand:en":"Baleno","brand:wikidata":"Q4850707","brand:zh":"班尼路","name":"班尼路 Baleno","name:en":"Baleno","name:zh":"班尼路","shop":"clothes"}},"shop/computer/wellent-e0237d":{"name":"偉倫電腦 Wellent","locationSet":{"include":["hk"]},"geometry":["point","area"],"matchScore":2,"terms":["wellent","偉倫","偉倫電腦","偉倫電腦 wellent"],"tags":{"brand:wikidata":"Q111103504","shop":"computer"},"addTags":{"brand":"偉倫電腦 Wellent","brand:en":"Wellent","brand:wikidata":"Q111103504","brand:zh":"偉倫電腦","brand:zh-Hans":"伟伦电脑","brand:zh-Hant":"偉倫電腦","name":"偉倫電腦 Wellent","name:en":"Wellent","name:zh":"偉倫電腦","name:zh-Hans":"伟伦电脑","name:zh-Hant":"偉倫電腦","shop":"computer"}},"shop/confectionery/bearsandfriends-e5aed3":{"name":"Bears & Friends","locationSet":{"include":["at","cz","de","hk","hr","hu"]},"geometry":["point","area"],"matchScore":2,"terms":["bears & friends"],"tags":{"brand:wikidata":"Q99510345","shop":"confectionery"},"addTags":{"brand":"Bears & Friends","brand:wikidata":"Q99510345","name":"Bears & Friends","shop":"confectionery"}},"shop/convenience/759store-298a73":{"name":"759阿信屋 759 Store","locationSet":{"include":["hk"]},"geometry":["point","area"],"matchScore":2,"terms":["759 store","759阿信屋","759阿信屋 759 store"],"tags":{"brand:wikidata":"Q10846179","shop":"convenience"},"addTags":{"brand":"759阿信屋 759 Store","brand:wikidata":"Q10846179","brand:zh":"759阿信屋","brand:zh-Hans":"759阿信屋","brand:zh-Hant":"759阿信屋","name":"759阿信屋 759 Store","name:en":"759 Store","name:zh":"759阿信屋","name:zh-Hans":"759阿信屋","name:zh-Hant":"759阿信屋","shop":"convenience"}},"shop/convenience/circlek-132595":{"name":"OK便利店 Circle K","locationSet":{"include":["hk","mo"]},"geometry":["point","area"],"matchScore":2,"terms":["circle k","ok便利商店","ok便利店","ok便利店 circle k"],"tags":{"brand:wikidata":"Q3268010","shop":"convenience"},"addTags":{"brand":"OK便利店 Circle K","brand:en":"Circle K","brand:wikidata":"Q3268010","brand:zh":"OK便利店","brand:zh-Hans":"OK便利店","brand:zh-Hant":"OK便利店","name":"OK便利店 Circle K","name:en":"Circle K","name:zh":"OK便利店","name:zh-Hans":"OK便利店","name:zh-Hant":"OK便利店","shop":"convenience"}},"shop/convenience/vango-298a73":{"name":"VanGO","locationSet":{"include":["hk"]},"geometry":["point","area"],"matchScore":2,"terms":["vango"],"tags":{"brand:wikidata":"Q10853203","shop":"convenience"},"addTags":{"brand":"VanGO","brand:en":"VanGO","brand:wikidata":"Q10853203","name":"VanGO","name:en":"VanGO","shop":"convenience"}},"shop/convenience/bestmart360-298a73":{"name":"優品360 Best Mart 360","locationSet":{"include":["hk"]},"geometry":["point","area"],"matchScore":2,"terms":["best mart 360","優品360","優品360 best mart 360"],"tags":{"brand:wikidata":"Q65117567","shop":"convenience"},"addTags":{"brand":"優品360 Best Mart 360","brand:en":"Best Mart 360","brand:wikidata":"Q65117567","brand:zh":"優品360","name":"優品360 Best Mart 360","name:en":"Best Mart 360","name:zh":"優品360","shop":"convenience"}},"shop/cosmetics/merlenorman-f96c07":{"name":"Merle Norman Cosmetics","locationSet":{"include":["ae","bh","ca","gt","hk","tw","us"]},"geometry":["point","area"],"matchScore":2,"terms":["merle norman cosmetic studio","merle norman cosmetics"],"tags":{"brand:wikidata":"Q104844059","shop":"cosmetics"},"addTags":{"brand":"Merle Norman Cosmetics","brand:wikidata":"Q104844059","full_name":"Merle Norman Cosmetic Studio","name":"Merle Norman","shop":"cosmetics"}},"shop/cosmetics/bonjour-03ac43":{"name":"卓悅 Bonjour","locationSet":{"include":["hk","mo"]},"geometry":["point","area"],"matchScore":2,"terms":["bonjour","卓悅","卓悅 bonjour"],"tags":{"brand:wikidata":"Q10906081","shop":"cosmetics"},"addTags":{"brand":"卓悅 Bonjour","brand:en":"Bonjour","brand:wikidata":"Q10906081","brand:zh":"卓悅","name":"卓悅 Bonjour","name:en":"Bonjour","name:zh":"卓悅","shop":"cosmetics"}},"shop/cosmetics/colourmix-03ac43":{"name":"卡萊美 Colourmix","locationSet":{"include":["hk","mo"]},"geometry":["point","area"],"matchScore":2,"terms":["colourmix","卡萊美","卡萊美 colourmix"],"tags":{"brand:wikidata":"Q111494580","shop":"cosmetics"},"addTags":{"brand":"卡萊美 Colourmix","brand:en":"Colourmix","brand:wikidata":"Q111494580","brand:zh":"卡萊美","name":"卡萊美 Colourmix","name:en":"Colourmix","name:zh":"卡萊美","shop":"cosmetics"}},"shop/cosmetics/sasa-03ac43":{"name":"莎莎 Sasa","locationSet":{"include":["hk","mo"]},"geometry":["point","area"],"matchScore":2,"terms":["sasa","莎莎","莎莎 sasa"],"tags":{"brand:wikidata":"Q15910675","shop":"cosmetics"},"addTags":{"brand":"莎莎 Sasa","brand:en":"Sasa","brand:wikidata":"Q15910675","brand:zh":"莎莎","name":"莎莎 Sasa","name:en":"Sasa","name:zh":"莎莎","shop":"cosmetics"}},"shop/deli/vomfass-a3c745":{"name":"vomFASS","locationSet":{"include":["at","be","br","ca","ch","cz","de","dk","es","fr","gb","hk","hr","hu","il","it","jp","lv","mx","my","ph","sg","th","us"]},"geometry":["point","area"],"matchScore":2,"terms":["vomfass"],"tags":{"brand:wikidata":"Q2533008","shop":"deli"},"addTags":{"brand":"vomFASS","brand:wikidata":"Q2533008","name":"vomFASS","shop":"deli"}},"shop/department_store/miniso-d07f6f":{"name":"名創優品 MINISO","locationSet":{"include":["hk","mo"]},"geometry":["point","area"],"matchScore":2,"terms":["miniso","名創優品","名創優品 miniso"],"tags":{"brand:wikidata":"Q20732498","shop":"department_store"},"addTags":{"brand":"名創優品 MINISO","brand:en":"MINISO","brand:wikidata":"Q20732498","brand:zh":"名創優品","name":"名創優品 MINISO","name:en":"MINISO","name:zh":"名創優品","shop":"department_store"}},"shop/department_store/muji-ab10dd":{"name":"無印良品 Muji","locationSet":{"include":["hk"]},"geometry":["point","area"],"matchScore":2,"terms":["muji","無印良品","無印良品 muji","良品計画"],"tags":{"brand:wikidata":"Q708789","shop":"department_store"},"addTags":{"brand":"無印良品 Muji","brand:en":"Muji","brand:ja":"無印良品","brand:wikidata":"Q708789","name":"無印良品 Muji","name:en":"Muji","name:ja":"無印良品","shop":"department_store"}},"shop/electronics/chungyuenelectrical-d4a36a":{"name":"中原電器 Chung Yuen Electrical","locationSet":{"include":["hk"]},"geometry":["point","area"],"matchScore":2,"terms":["chung yuen electrical","中原電器","中原電器 chung yuen electrical"],"tags":{"brand:wikidata":"Q10872623","shop":"electronics"},"addTags":{"brand":"中原電器 Chung Yuen Electrical","brand:en":"Chung Yuen Electrical","brand:wikidata":"Q10872623","brand:zh":"中原電器","name":"中原電器 Chung Yuen Electrical","name:en":"Chung Yuen Electrical","name:zh":"中原電器","shop":"electronics"}},"shop/electronics/broadway-d4a36a":{"name":"百老滙 Broadway","locationSet":{"include":["hk"]},"geometry":["point","area"],"matchScore":2,"terms":["broadway","百老滙","百老滙 broadway"],"tags":{"brand:wikidata":"Q15899930","shop":"electronics"},"addTags":{"brand":"百老滙 Broadway","brand:en":"Broadway","brand:wikidata":"Q15899930","brand:zh":"百老滙","name":"百老滙 Broadway","name:en":"Broadway","name:zh":"百老滙","shop":"electronics"}},"shop/electronics/fortress-d4a36a":{"name":"豐澤 Fortress","locationSet":{"include":["hk"]},"geometry":["point","area"],"matchScore":2,"terms":["fortress","豐澤","豐澤 fortress"],"tags":{"brand:wikidata":"Q15904138","shop":"electronics"},"addTags":{"brand":"豐澤 Fortress","brand:en":"Fortress","brand:wikidata":"Q15904138","brand:zh":"豐澤","name":"豐澤 Fortress","name:en":"Fortress","name:zh":"豐澤","shop":"electronics"}},"shop/furniture/chateaudax-c96b56":{"name":"Chateau d'Ax","locationSet":{"include":["ao","be","ca","ch","cn","de","es","fx","gp","hk","hr","it","ma","mq","mt","mu","mz","pt","re","sg","si","tn","tw","us","vn"]},"geometry":["point","area"],"matchScore":2,"terms":["chateau d'ax"],"tags":{"brand:wikidata":"Q100249791","shop":"furniture"},"addTags":{"brand":"Chateau d'Ax","brand:wikidata":"Q100249791","name":"Chateau d'Ax","shop":"furniture"}},"shop/furniture/ikea-2365c1":{"name":"宜家家居 IKEA","locationSet":{"include":["hk","mo"]},"geometry":["point","area"],"matchScore":2,"terms":["ikea","宜家","宜家傢俬","宜家家居","宜家家居 ikea"],"tags":{"brand:wikidata":"Q54078","shop":"furniture"},"addTags":{"brand":"宜家家居 IKEA","brand:en":"IKEA","brand:wikidata":"Q54078","brand:zh":"宜家家居","name":"宜家家居 IKEA","name:en":"IKEA","name:zh":"宜家家居","shop":"furniture"}},"shop/herbalist/euyansang-ed4bac":{"name":"余仁生 Eu Yan Sang","locationSet":{"include":["hk","mo"]},"geometry":["point","area"],"matchScore":2,"terms":["eu yan sang","余仁生","余仁生 eu yan sang"],"tags":{"brand:wikidata":"Q4207246","shop":"herbalist"},"addTags":{"brand":"余仁生 Eu Yan Sang","brand:en":"Eu Yan Sang","brand:wikidata":"Q4207246","brand:zh":"余仁生","name":"余仁生 Eu Yan Sang","name:en":"Eu Yan Sang","name:zh":"余仁生","shop":"herbalist"}},"shop/houseware/jhc-9791f5":{"name":"日本城 JHC","locationSet":{"include":["hk"]},"geometry":["point","area"],"matchScore":2,"terms":["jhc","日本城","日本城 jhc"],"tags":{"brand:wikidata":"Q11507765","shop":"houseware"},"addTags":{"brand":"日本城 JHC","brand:en":"JHC","brand:wikidata":"Q11507765","brand:zh":"日本城","brand:zh-Hans":"日本城","brand:zh-Hant":"日本城","name":"日本城 JHC","name:en":"JHC","name:zh":"日本城","name:zh-Hans":"日本城","name:zh-Hant":"日本城","shop":"houseware"}},"shop/jewelry/lukfookjewellery-2f2ea0":{"name":"六福珠寶 LukFook Jewellery","locationSet":{"include":["hk","mo"]},"geometry":["point","area"],"matchScore":2,"terms":["lukfook jewellery","六福","六福珠寶","六福珠寶 lukfook jewellery"],"tags":{"brand:wikidata":"Q10893397","shop":"jewelry"},"addTags":{"brand":"六福珠寶 LukFook Jewellery","brand:en":"LukFook Jewellery","brand:wikidata":"Q10893397","brand:zh":"六福珠寶","brand:zh-Hans":"六福珠宝","brand:zh-Hant":"六福珠寶","name":"六福珠寶 LukFook Jewellery","name:en":"LukFook Jewellery","name:zh":"六福珠寶","name:zh-Hans":"六福珠宝","name:zh-Hant":"六福珠寶","shop":"jewelry"}},"shop/jewelry/chowtaifook-2f2ea0":{"name":"周大福 Chow Tai Fook","locationSet":{"include":["hk","mo"]},"geometry":["point","area"],"matchScore":2,"terms":["chow tai fook","周大福","周大福 chow tai fook"],"tags":{"brand:wikidata":"Q48880993","shop":"jewelry"},"addTags":{"brand":"周大福 Chow Tai Fook","brand:en":"Chow Tai Fook","brand:wikidata":"Q48880993","brand:zh":"周大福","brand:zh-Hans":"周大福","brand:zh-Hant":"周大福","name":"周大福 Chow Tai Fook","name:en":"Chow Tai Fook","name:zh":"周大福","name:zh-Hans":"周大福","name:zh-Hant":"周大福","shop":"jewelry"}},"shop/jewelry/chowsangsang-2f2ea0":{"name":"周生生 Chow Sang Sang","locationSet":{"include":["hk","mo"]},"geometry":["point","area"],"matchScore":2,"terms":["chow sang sang","周生生","周生生 chow sang sang"],"tags":{"brand:wikidata":"Q10920877","shop":"jewelry"},"addTags":{"brand":"周生生 Chow Sang Sang","brand:en":"Chow Sang Sang","brand:wikidata":"Q10920877","brand:zh":"周生生","brand:zh-Hans":"周生生","brand:zh-Hant":"周生生","name":"周生生 Chow Sang Sang","name:en":"Chow Sang Sang","name:zh":"周生生","name:zh-Hans":"周生生","name:zh-Hant":"周生生","shop":"jewelry"}},"shop/jewelry/laofengxiang-2f2ea0":{"name":"老鳳祥銀樓 Lao Feng Xiang Jewellery","locationSet":{"include":["hk","mo"]},"geometry":["point","area"],"matchScore":2,"terms":["lao feng xiang","lao feng xiang jewellery","老鳳祥","老鳳祥銀樓","老鳳祥銀樓 lao feng xiang jewellery"],"tags":{"brand:wikidata":"Q15910313","shop":"jewelry"},"addTags":{"brand":"老鳳祥銀樓 Lao Feng Xiang Jewellery","brand:en":"Lao Feng Xiang Jewellery","brand:wikidata":"Q15910313","brand:zh":"老鳳祥銀樓","brand:zh-Hans":"老凤祥银楼","brand:zh-Hant":"老鳳祥銀樓","name":"老鳳祥銀樓 Lao Feng Xiang Jewellery","name:en":"Lao Feng Xiang","name:zh":"老鳳祥銀樓","name:zh-Hans":"老凤祥银楼","name:zh-Hant":"老鳳祥銀樓","shop":"jewelry"}},"shop/jewelry/tsl-2f2ea0":{"name":"謝瑞麟珠寶 TSL Jewellery","locationSet":{"include":["hk","mo"]},"geometry":["point","area"],"matchScore":2,"terms":["tsl","謝瑞麟","謝瑞麟珠寶","謝瑞麟珠寶 tsl jewellery"],"tags":{"brand:wikidata":"Q13164530","shop":"jewelry"},"addTags":{"brand":"謝瑞麟珠寶 TSL Jewellery","brand:en":"TSL","brand:wikidata":"Q13164530","brand:zh":"謝瑞麟珠寶","brand:zh-Hans":"谢瑞麟珠宝","brand:zh-Hant":"謝瑞麟珠寶","name":"謝瑞麟 TSL","name:en":"TSL","name:zh-Hans":"谢瑞麟","name:zh-Hant":"謝瑞麟","shop":"jewelry"}},"shop/jewelry/3dgjewellery-f29a00":{"name":"金至尊珠寶 3DG Jewellery","locationSet":{"include":["hk"]},"geometry":["point","area"],"matchScore":2,"terms":["3dg jewellery","金至尊","金至尊珠寶","金至尊珠寶 3dg jewellery"],"tags":{"brand:wikidata":"Q15921454","shop":"jewelry"},"addTags":{"brand":"金至尊珠寶 3DG Jewellery","brand:en":"3DG Jewellery","brand:wikidata":"Q15921454","brand:zh":"金至尊珠寶","brand:zh-Hans":"金至尊珠宝","brand:zh-Hant":"金至尊珠寶","name":"金至尊珠寶 3DG Jewellery","name:en":"3DG Jewellery","name:zh":"金至尊珠寶","name:zh-Hans":"金至尊珠宝","name:zh-Hant":"金至尊珠寶","shop":"jewelry"}},"shop/mobile_phone/mi-5c8743":{"name":"小米 Xiaomi","locationSet":{"include":["hk","mo"]},"geometry":["point","area"],"matchScore":2,"terms":["mi","xiaomi","小米","小米 xiaomi","小米之家"],"tags":{"brand:wikidata":"Q1636958","shop":"mobile_phone"},"addTags":{"brand":"小米 Xiaomi","brand:en":"Xiaomi","brand:wikidata":"Q1636958","brand:zh":"小米","name":"小米之家 Mi","name:en":"Mi","name:zh":"小米之家","shop":"mobile_phone"}},"shop/mobile_phone/wilson-55ee4b":{"name":"衛訊 Wilson","locationSet":{"include":["hk"]},"geometry":["point","area"],"matchScore":2,"terms":["wilson","wilson communications","衛訊","衛訊 wilson","衛訊電訊","衛訊電訊 wilson communications"],"tags":{"brand:wikidata":"Q15904465","shop":"mobile_phone"},"addTags":{"brand":"衛訊 Wilson","brand:en":"Wilson","brand:wikidata":"Q15904465","brand:zh":"衛訊","brand:zh-Hans":"卫讯","brand:zh-Hant":"衛訊","name":"衛訊 Wilson","name:en":"Wilson","name:zh":"衛訊","name:zh-Hans":"卫讯","name:zh-Hant":"衛訊","official_name":"衛訊電訊 Wilson Communications","official_name:en":"Wilson Communications","official_name:zh":"衛訊電訊","official_name:zh-Hans":"卫讯电讯","official_name:zh-Hant":"衛訊電訊","shop":"mobile_phone"}},"shop/mobile_phone/citylink-55ee4b":{"name":"領域 CityLink","locationSet":{"include":["hk"]},"geometry":["point","area"],"matchScore":2,"terms":["citylink","citylink electronics","領域","領域 citylink","領域電訊","領域電訊 citylink electronics"],"tags":{"brand:wikidata":"Q17030593","shop":"mobile_phone"},"addTags":{"brand":"領域 CityLink","brand:en":"CityLink","brand:wikidata":"Q17030593","brand:zh":"領域","brand:zh-Hans":"领域","brand:zh-Hant":"領域","name":"領域 CityLink","name:en":"CityLink","name:zh":"領域","name:zh-Hans":"领域","name:zh-Hant":"領域","official_name":"領域電訊 CityLink Electronics","official_name:en":"CityLink Electronics","official_name:zh":"領域電訊","official_name:zh-Hans":"领域电讯","official_name:zh-Hant":"領域電訊","shop":"mobile_phone"}},"shop/musical_instrument/tomlee-77cd7c":{"name":"通利琴行 Tom Lee Music","locationSet":{"include":["hk"]},"geometry":["point","area"],"matchScore":2,"terms":["tom lee","tom lee music","通利","通利琴行","通利琴行 tom lee music"],"tags":{"brand:wikidata":"Q43487","shop":"musical_instrument"},"addTags":{"brand":"通利琴行 Tom Lee Music","brand:en":"Tom Lee Music","brand:wikidata":"Q43487","brand:zh":"通利琴行","brand:zh-Hans":"通利琴行","brand:zh-Hant":"通利琴行","name":"通利琴行 Tom Lee","name:en":"Tom Lee","name:zh":"通利琴行","name:zh-Hans":"通利琴行","name:zh-Hant":"通利琴行","shop":"musical_instrument"}},"shop/optician/lenscrafters-a3f0f9":{"name":"亮視點 LensCrafters","locationSet":{"include":["hk"]},"geometry":["point","area"],"matchScore":2,"terms":["lenscrafters","亮視點","亮視點 lenscrafters"],"fields":["name","brand","{shop/optician}"],"tags":{"brand:wikidata":"Q6523209","shop":"optician"},"addTags":{"brand":"亮視點 LensCrafters","brand:en":"LensCrafters","brand:wikidata":"Q6523209","brand:zh":"亮視點","brand:zh-Hans":"亮视点","brand:zh-Hant":"亮視點","name":"亮視點 LensCrafters","name:en":"LensCrafters","name:zh":"亮視點","name:zh-Hans":"亮视点","name:zh-Hant":"亮視點","shop":"optician"}},"shop/optician/optical88-a3f0f9":{"name":"眼鏡88 Optical 88","locationSet":{"include":["hk"]},"geometry":["point","area"],"matchScore":2,"terms":["optical 88","眼鏡88","眼鏡88 optical 88"],"fields":["name","brand","{shop/optician}"],"tags":{"brand:wikidata":"Q7098807","shop":"optician"},"addTags":{"brand":"眼鏡88 Optical 88","brand:en":"Optical 88","brand:wikidata":"Q7098807","brand:zh":"眼鏡88","brand:zh-Hans":"眼镜88","brand:zh-Hant":"眼鏡88","name":"眼鏡88 Optical 88","name:en":"Optical 88","name:zh":"眼鏡88","name:zh-Hans":"眼鏡88","name:zh-Hant":"眼鏡88","shop":"optician"}},"shop/sports/gigasports-968672":{"name":"GigaSports","locationSet":{"include":["hk"]},"geometry":["point","area"],"matchScore":2,"terms":["gigasports"],"tags":{"brand:wikidata":"Q111077434","shop":"sports"},"addTags":{"brand":"GigaSports","brand:en":"GigaSports","brand:wikidata":"Q111077434","name":"GigaSports","name:en":"GigaSports","shop":"sports"}},"shop/sports/marathonsports-968672":{"name":"Marathon Sports (Hong Kong)","locationSet":{"include":["hk"]},"geometry":["point","area"],"matchScore":2,"terms":["marathon sports","馬拉松"],"tags":{"brand:wikidata":"Q106798056","shop":"sports"},"addTags":{"brand":"Marathon Sports","brand:en":"Marathon Sports","brand:wikidata":"Q106798056","brand:zh":"馬拉松","brand:zh-Hans":"马拉松","brand:zh-Hant":"馬拉松","name":"馬拉松 Marathon Sports","name:en":"Marathon Sports","name:zh":"馬拉松","name:zh-Hans":"马拉松","name:zh-Hant":"馬拉松","shop":"sports"}},"shop/sports/rapha-e13309":{"name":"Rapha","locationSet":{"include":["au","de","dk","es","gb","hk","jp","kr","nl","tw","us"]},"geometry":["point","area"],"matchScore":2,"terms":["rapha","ラファ"],"tags":{"brand:wikidata":"Q7293931","shop":"sports"},"addTags":{"brand":"Rapha","brand:en":"Rapha","brand:ja":"ラファ","brand:wikidata":"Q7293931","name":"Rapha","name:en":"Rapha","name:ja":"ラファ","shop":"sports","sport":"cycling"}},"shop/sports/decathlon-968672":{"name":"迪卡儂 Decathlon","locationSet":{"include":["hk"]},"geometry":["point","area"],"matchScore":2,"terms":["decathlon","迪卡儂"],"tags":{"brand:wikidata":"Q509349","shop":"sports"},"addTags":{"brand":"Decathlon","brand:en":"Decathlon","brand:wikidata":"Q509349","brand:zh":"迪卡儂","name":"Decathlon","name:en":"Decathlon","name:zh":"迪卡儂","shop":"sports"}},"shop/stationery/smiggle-d7e848":{"name":"Smiggle","locationSet":{"include":["at","gb","hk","ie","my","nz","sg"]},"geometry":["point","area"],"matchScore":2,"terms":["smiggle"],"tags":{"brand:wikidata":"Q7544536","shop":"stationery"},"addTags":{"brand":"Smiggle","brand:wikidata":"Q7544536","name":"Smiggle","shop":"stationery"}},"shop/supermarket/3hreesixty-745f9c":{"name":"3hreeSixty","locationSet":{"include":["hk"]},"geometry":["point","area"],"matchScore":2,"terms":["3hreesixty","threesixty"],"tags":{"brand:wikidata":"Q7797310","shop":"supermarket"},"addTags":{"brand":"3hreeSixty","brand:en":"3hreeSixty","brand:wikidata":"Q7797310","name":"3hreeSixty","name:en":"3hreeSixty","shop":"supermarket"}},"shop/supermarket/marketplace-745f9c":{"name":"Market Place","locationSet":{"include":["hk"]},"geometry":["point","area"],"matchScore":2,"terms":["market place"],"tags":{"brand:wikidata":"Q10851178","shop":"supermarket"},"addTags":{"brand":"Market Place","brand:en":"Market Place","brand:wikidata":"Q10851178","name":"Market Place","name:en":"Market Place","shop":"supermarket"}},"shop/supermarket/marketplacebyjasons-745f9c":{"name":"Market Place by Jasons","locationSet":{"include":["hk"]},"geometry":["point","area"],"matchScore":2,"terms":["market place by jasons"],"tags":{"brand:wikidata":"Q6770713","shop":"supermarket"},"addTags":{"brand":"Market Place by Jasons","brand:en":"Market Place by Jasons","brand:wikidata":"Q6770713","name":"Market Place by Jasons","name:en":"Market Place by Jasons","shop":"supermarket"}},"shop/supermarket/taste-745f9c":{"name":"Taste","locationSet":{"include":["hk"]},"geometry":["point","area"],"matchScore":2,"terms":["taste"],"tags":{"brand:wikidata":"Q7687667","shop":"supermarket"},"addTags":{"brand":"Taste","brand:en":"Taste","brand:wikidata":"Q7687667","name":"Taste","name:en":"Taste","shop":"supermarket"}},"shop/supermarket/uselect-745f9c":{"name":"U購Select U Select","locationSet":{"include":["hk"]},"geometry":["point","area"],"matchScore":2,"terms":["u select","u購select","u購select u select"],"tags":{"brand:wikidata":"Q22098822","shop":"supermarket"},"addTags":{"brand":"U購Select U Select","brand:en":"U Select","brand:wikidata":"Q22098822","brand:zh":"U購Select","brand:zh-Hans":"U购Select","brand:zh-Hant":"U購Select","name":"U購Select U Select","name:en":"U Select","name:zh":"U購Select","name:zh-Hans":"U购Select","name:zh-Hant":"U購Select","shop":"supermarket"}},"shop/supermarket/wellcome-745f9c":{"name":"惠康 Wellcome","locationSet":{"include":["hk"]},"geometry":["point","area"],"matchScore":2,"terms":["wellcome","惠康","惠康 wellcome"],"tags":{"brand:wikidata":"Q706247","shop":"supermarket"},"addTags":{"brand":"惠康 Wellcome","brand:en":"Wellcome","brand:wikidata":"Q706247","brand:zh":"惠康","brand:zh-Hans":"惠康","brand:zh-Hant":"惠康","name":"惠康 Wellcome","name:en":"Wellcome","name:zh":"惠康","name:zh-Hans":"惠康","name:zh-Hant":"惠康","shop":"supermarket"}},"shop/supermarket/aeon-745f9c":{"name":"永旺 AEON","locationSet":{"include":["hk"]},"geometry":["point","area"],"matchScore":2,"terms":["aeon","吉之島","永旺"],"tags":{"brand:wikidata":"Q271413","shop":"supermarket"},"addTags":{"brand":"AEON","brand:en":"AEON","brand:wikidata":"Q271413","brand:zh":"永旺","name":"AEON","name:en":"AEON","name:zh":"永旺","shop":"supermarket"}},"shop/supermarket/parknshop-3601ab":{"name":"百佳超級市場 PARKnSHOP","locationSet":{"include":["hk","mo"]},"geometry":["point","area"],"matchScore":2,"terms":["parknshop","百佳","百佳超級市場","百佳超級市場 parknshop"],"tags":{"brand:wikidata":"Q7138619","shop":"supermarket"},"addTags":{"brand":"百佳超級市場 PARKnSHOP","brand:en":"PARKnSHOP","brand:wikidata":"Q7138619","brand:zh":"百佳超級市場","brand:zh-Hans":"百佳超級市場","brand:zh-Hant":"百佳超级市场","name":"百佳 PARKnSHOP","name:en":"PARKnSHOP","name:zh":"百佳","name:zh-Hans":"百佳","name:zh-Hant":"百佳","shop":"supermarket"}},"shop/variety_store/dondondonki-717fd7":{"name":"Don Don Donki","locationSet":{"include":["hk","my","sg","th","tw","us-hi"]},"geometry":["point","area"],"matchScore":2,"terms":["don don donki"],"tags":{"brand:wikidata":"Q1185381","shop":"variety_store"},"addTags":{"brand":"Don Don Donki","brand:wikidata":"Q1185381","name":"Don Don Donki","shop":"variety_store"}},"shop/variety_store/miniso-264ade":{"name":"名創優品 Miniso","locationSet":{"include":["hk","mo"]},"geometry":["point","area"],"matchScore":2,"terms":["miniso","名創優品","名創優品 miniso"],"tags":{"brand:wikidata":"Q20732498","shop":"variety_store"},"addTags":{"brand":"名創優品 Miniso","brand:en":"Miniso","brand:wikidata":"Q20732498","brand:zh":"名創優品","brand:zh-Hans":"名创优品","brand:zh-Hant":"名創優品","name":"名創優品 Miniso","name:en":"Miniso","name:zh":"名創優品","name:zh-Hans":"名创优品","name:zh-Hant":"名創優品","shop":"variety_store"}},"shop/watches/citychain-301c40":{"name":"時間廊 City Chain","locationSet":{"include":["hk"]},"geometry":["point","area"],"matchScore":2,"terms":["city chain","時間廊","時間廊 city chain"],"tags":{"brand:wikidata":"Q11089260","shop":"watches"},"addTags":{"brand":"時間廊 City Chain","brand:en":"City Chain","brand:wikidata":"Q11089260","brand:zh":"時間廊","name":"時間廊 City Chain","name:en":"City Chain","name:zh":"時間廊","shop":"watches"}},"tourism/hotel/travelodge-2e0dc6":{"name":"Travelodge (Asia/Oceania)","locationSet":{"include":["au","hk","id","kr","my","nz","sg","th"]},"geometry":["point","area"],"matchScore":2,"terms":["travelodge"],"fields":["name","brand","{tourism/hotel}"],"tags":{"brand:wikidata":"Q24997583","tourism":"hotel"},"addTags":{"brand":"Travelodge","brand:wikidata":"Q24997583","name":"Travelodge","tourism":"hotel"}},"tourism/hotel/mandarinorientalhotel-6fa074":{"name":"文華東方酒店集團 Mandarin Oriental Hotel","locationSet":{"include":["hk","mo"]},"geometry":["point","area"],"matchScore":2,"terms":["mandarin oriental hotel","文華東方酒店集團","文華東方酒店集團 mandarin oriental hotel"],"fields":["name","brand","{tourism/hotel}"],"tags":{"brand:wikidata":"Q1236521","tourism":"hotel"},"addTags":{"brand":"文華東方酒店集團 Mandarin Oriental Hotel","brand:en":"Mandarin Oriental Hotel","brand:wikidata":"Q1236521","brand:zh":"文華東方酒店集團","tourism":"hotel"}},"amenity/fire_station/hongkongfireservicesdepartment-ac17f0":{"name":"香港消防處 Hong Kong Fire Services Department","locationSet":{"include":["hk"]},"geometry":["point","area"],"matchScore":2,"terms":["hkfsd","hong kong fire services department","香港消防處","香港消防處 hong kong fire services department"],"tags":{"amenity":"fire_station","operator:wikidata":"Q1595073"},"addTags":{"amenity":"fire_station","operator":"香港消防處 Hong Kong Fire Services Department","operator:en":"Hong Kong Fire Services Department","operator:short":"HKFSD","operator:wikidata":"Q1595073","operator:zh":"香港消防處","operator:zh-Hans":"香港消防处","operator:zh-Hant":"香港消防處"}},"amenity/hospital/hospitalauthority-fafb13":{"name":"醫院管理局 Hospital Authority","locationSet":{"include":["hk"]},"geometry":["area","point"],"matchScore":2,"terms":["ha","hospital authority","醫院管理局","醫院管理局 hospital authority"],"fields":["name","operator","{amenity/hospital}"],"reference":{"key":"amenity","value":"hospital"},"tags":{"amenity":"hospital","operator:wikidata":"Q5908350"},"addTags":{"amenity":"hospital","healthcare":"hospital","operator":"醫院管理局 Hospital Authority","operator:en":"Hospital Authority","operator:short":"HA","operator:wikidata":"Q5908350","operator:zh":"醫院管理局","operator:zh-Hans":"医院管理局","operator:zh-Hant":"醫院管理局"}},"amenity/library/hongkongpubliclibraries-5d847a":{"name":"香港公共圖書館 Hong Kong Public Libraries","locationSet":{"include":["hk"]},"geometry":["point","area"],"matchScore":2,"terms":["hkpl","hong kong public libraries","香港公共圖書館","香港公共圖書館 hong kong public libraries"],"tags":{"amenity":"library","operator:wikidata":"Q838662"},"addTags":{"amenity":"library","operator":"香港公共圖書館 Hong Kong Public Libraries","operator:en":"Hong Kong Public Libraries","operator:short":"HKPL","operator:type":"government","operator:wikidata":"Q838662","operator:zh":"香港公共圖書館","operator:zh-Hans":"香港公共图书馆","operator:zh-Hant":"香港公共圖書館"}},"amenity/parking/wilsonparking-1f7225":{"name":"威信停車場","locationSet":{"include":["hk"]},"geometry":["area","point","vertex"],"matchScore":2,"terms":["wilson parking","威信","威信停車場"],"fields":["name","operator","{amenity/parking}"],"tags":{"amenity":"parking","operator:wikidata":"Q28448427"},"addTags":{"amenity":"parking","brand":"威信停車場","brand:en":"Wilson Parking","brand:wikidata":"Q28448427","brand:zh":"威信停車場","fee":"yes","name":"威信停車場 Wilson Parking","operator":"威信停車場","operator:en":"Wilson Parking","operator:wikidata":"Q28448427","operator:zh":"威信停車場"}},"amenity/police/hongkongpoliceforce-4394e5":{"name":"香港警務處 Hong Kong Police Force","locationSet":{"include":["hk"]},"geometry":["point","area"],"matchScore":2,"terms":["hkp","hkpf","hong kong police force","香港警務處","香港警務處 hong kong police force","香港警察"],"tags":{"amenity":"police","operator:wikidata":"Q25859"},"addTags":{"amenity":"police","operator":"香港警務處 Hong Kong Police Force","operator:en":"Hong Kong Police Force","operator:short":"HKPF","operator:wikidata":"Q25859","operator:zh":"香港警務處","operator:zh-Hans":"香港警务处","operator:zh-Hant":"香港警務處"}},"amenity/post_box/sfexpress-8ff70a":{"name":"順豐速運 SF Express","locationSet":{"include":["hk"]},"geometry":["point","vertex"],"matchScore":2,"terms":["sf express","順豐快遞","順豐速運","順豐速運 sf express","順豐速遞"],"tags":{"amenity":"post_box","operator:wikidata":"Q7390019"},"addTags":{"amenity":"post_box","brand":"順豐速運 SF Express","brand:en":"SF Express","brand:wikidata":"Q7390019","brand:zh":"順豐速運","brand:zh-Hans":"顺丰速运","brand:zh-Hant":"順豐速運","name:en":"SF Express","name:zh":"順豐速運","name:zh-Hans":"顺丰速运","name:zh-Hant":"順豐速運","operator":"順豐速運 SF Express","operator:wikidata":"Q7390019"}},"amenity/post_box/hongkongpost-8ff70a":{"name":"香港郵政 Hongkong Post","locationSet":{"include":["hk"]},"geometry":["point","vertex"],"matchScore":2,"terms":["hongkong post","香港郵政","香港郵政 hongkong post"],"tags":{"amenity":"post_box","operator:wikidata":"Q196631"},"addTags":{"amenity":"post_box","operator":"香港郵政 Hongkong Post","operator:en":"Hongkong Post","operator:wikidata":"Q196631","operator:zh":"香港郵政"}},"amenity/post_office/hongkongpost-c4c3b4":{"name":"香港郵政 Hongkong Post","locationSet":{"include":["hk"]},"geometry":["point","area"],"matchScore":2,"terms":["hongkong post","香港郵政","香港郵政 hongkong post"],"fields":["name","operator","{amenity/post_office}"],"tags":{"amenity":"post_office","operator:wikidata":"Q196631"},"addTags":{"amenity":"post_office","operator":"香港郵政 Hongkong Post","operator:en":"Hongkong Post","operator:wikidata":"Q196631","operator:zh":"香港郵政"}},"amenity/toilets/foodandenvironmentalhygienedepartment-70c95d":{"name":"食物環境衞生署 Food and Environmental Hygiene Department","locationSet":{"include":["hk"]},"geometry":["point","vertex","area"],"matchScore":2,"terms":["fehd","food and environmental hygiene department","食物環境衞生署","食物環境衞生署 food and environmental hygiene department"],"tags":{"amenity":"toilets","operator:wikidata":"Q2355063"},"addTags":{"amenity":"toilets","operator":"食物環境衞生署 Food and Environmental Hygiene Department","operator:en":"Food and Environmental Hygiene Department","operator:short":"FEHD","operator:wikidata":"Q2355063","operator:zh":"食物環境衞生署","operator:zh-Hans":"食物环境卫生署","operator:zh-Hant":"食物環境衞生署"}},"boundary/agriculturefisheriesandconservationdepartment-52b423":{"name":"漁農自然護理署 Agriculture, Fisheries and Conservation Department","locationSet":{"include":["hk"]},"geometry":["line"],"matchScore":2,"terms":["agriculture, fisheries and conservation department","漁農署 afcd","漁農自然護理署","漁農自然護理署 agriculture, fisheries and conservation department"],"tags":{"boundary":"national_park","operator:wikidata":"Q841909"},"addTags":{"boundary":"national_park","operator":"漁農自然護理署 Agriculture, Fisheries and Conservation Department","operator:en":"Agriculture, Fisheries and Conservation Department","operator:short":"漁農署 AFCD","operator:short:en":"AFCD","operator:short:zh":"漁農署","operator:wikidata":"Q841909","operator:zh":"漁農自然護理署","operator:zh-Hans":"渔农自然护理署","operator:zh-Hant":"漁農自然護理署","owner":"郊野公園及海岸公園管理局 Country and Marine Parks Authority","owner:en":"Country and Marine Parks Authority","owner:zh":"郊野公園及海岸公園管理局","owner:zh-Hans":"郊野公园及海岸公园管理局","owner:zh-Hant":"郊野公園及海岸公園管理局"}},"emergency/ambulance_station/hongkongfireservicesdepartment-921c7f":{"name":"香港消防處 Hong Kong Fire Services Department","locationSet":{"include":["hk"]},"geometry":["point","area"],"matchScore":2,"terms":["hkfsd","hong kong fire services department","香港消防處","香港消防處 hong kong fire services department"],"tags":{"emergency":"ambulance_station","operator:wikidata":"Q1595073"},"addTags":{"emergency":"ambulance_station","operator":"香港消防處 Hong Kong Fire Services Department","operator:en":"Hong Kong Fire Services Department","operator:short":"HKFSD","operator:wikidata":"Q1595073","operator:zh":"香港消防處","operator:zh-Hans":"香港消防处","operator:zh-Hant":"香港消防處"}},"leisure/nature_reserve/leisureandculturalservicesdepartment-3ea41a":{"name":"康樂及文化事務署 Leisure and Cultural Services Department","locationSet":{"include":["hk"]},"geometry":["area","point"],"matchScore":2,"terms":["leisure and cultural services department","康文署","康文署 lcsd","康樂及文化事務署","康樂及文化事務署 leisure and cultural services department"],"tags":{"leisure":"nature_reserve","operator:wikidata":"Q2353346"},"addTags":{"leisure":"nature_reserve","operator":"康樂及文化事務署 Leisure and Cultural Services Department","operator:en":"Leisure and Cultural Services Department","operator:short":"康文署 LCSD","operator:short:en":"LCSD","operator:short:zh":"康文署","operator:wikidata":"Q2353346","operator:zh":"康樂及文化事務署","operator:zh-Hans":"康乐及文化事务署","operator:zh-Hant":"康樂及文化事務署"}},"leisure/park/leisureandculturalservicesdepartment-30eaed":{"name":"康樂及文化事務署 Leisure and Cultural Services Department","locationSet":{"include":["hk"]},"geometry":["area","point"],"matchScore":2,"terms":["leisure and cultural services department","康文署","康文署 lcsd","康樂及文化事務署","康樂及文化事務署 leisure and cultural services department"],"tags":{"leisure":"park","operator:wikidata":"Q2353346"},"addTags":{"leisure":"park","operator":"康樂及文化事務署 Leisure and Cultural Services Department","operator:en":"Leisure and Cultural Services Department","operator:short":"康文署 LCSD","operator:short:en":"LCSD","operator:short:zh":"康文署","operator:wikidata":"Q2353346","operator:zh":"康樂及文化事務署","operator:zh-Hans":"康乐及文化事务署","operator:zh-Hant":"康樂及文化事務署"}},"power/generator/chinaresourcespower-413242":{"name":"华润电力控股","locationSet":{"include":["cn","hk"]},"geometry":["point","vertex","area"],"matchScore":2,"terms":["china resources power","华润","华润电力","华润电力控股","华润电力控股集团","润电"],"tags":{"operator:wikidata":"Q748693","power":"generator"},"addTags":{"operator":"华润电力控股","operator:en":"China Resources Power","operator:wikidata":"Q748693","operator:zh":"华润电力控股","power":"generator"}},"power/substation/clp-5df361":{"name":"中華電力 CLP","locationSet":{"include":["hk"]},"geometry":["area","point"],"matchScore":2,"terms":["clp","中華電力","中華電力 clp"],"tags":{"operator:wikidata":"Q977959","power":"substation"},"addTags":{"operator":"中華電力 CLP","operator:en":"CLP","operator:wikidata":"Q977959","operator:zh":"中華電力","operator:zh-Hans":"中华电力","operator:zh-Hant":"中華電力","power":"substation"}},"power/substation/thehongkongelectriccompanylimited-5df361":{"name":"港燈 HK Electric","locationSet":{"include":["hk"]},"geometry":["area","point"],"matchScore":2,"terms":["the hongkong electric company, limited","港燈 hk electric","香港電燈有限公司","香港電燈有限公司 the hongkong electric company, limited"],"tags":{"operator:wikidata":"Q709104","power":"substation"},"addTags":{"operator":"香港電燈有限公司 The Hongkong Electric Company, Limited","operator:en":"The Hongkong Electric Company, Limited","operator:short":"港燈 HK Electric","operator:short:en":"HK Electric","operator:short:zh":"港燈","operator:short:zh-Hans":"港灯","operator:short:zh-Hant":"港燈","operator:wikidata":"Q709104","operator:zh":"香港電燈有限公司","operator:zh-Hans":"香港电灯有限公司","operator:zh-Hant":"香港電燈有限公司","power":"substation"}},"power/transformer/clp-25f50a":{"name":"中華電力 CLP","locationSet":{"include":["hk"]},"geometry":["point","vertex"],"matchScore":2,"terms":["clp","中華電力","中華電力 clp"],"tags":{"operator:wikidata":"Q977959","power":"transformer"},"addTags":{"operator":"中華電力 CLP","operator:en":"CLP","operator:wikidata":"Q977959","operator:zh":"中華電力","operator:zh-Hans":"中华电力","operator:zh-Hant":"中華電力","power":"transformer"}},"power/transformer/thehongkongelectriccompanylimited-25f50a":{"name":"港燈 HK Electric","locationSet":{"include":["hk"]},"geometry":["point","vertex"],"matchScore":2,"terms":["the hongkong electric company, limited","港燈 hk electric","香港電燈有限公司","香港電燈有限公司 the hongkong electric company, limited"],"tags":{"operator:wikidata":"Q709104","power":"transformer"},"addTags":{"operator":"香港電燈有限公司 The Hongkong Electric Company, Limited","operator:en":"The Hongkong Electric Company, Limited","operator:short":"港燈 HK Electric","operator:short:en":"HK Electric","operator:short:zh":"港燈","operator:short:zh-Hans":"港灯","operator:short:zh-Hant":"港燈","operator:wikidata":"Q709104","operator:zh":"香港電燈有限公司","operator:zh-Hans":"香港电灯有限公司","operator:zh-Hant":"香港電燈有限公司","power":"transformer"}},"shop/bookmaker/thehongkongjockeyclub-24af24":{"name":"香港賽馬會 The Hong Kong Jockey Club","locationSet":{"include":["hk"]},"geometry":["point","area"],"matchScore":2,"terms":["hkjc","the hong kong jockey club","香港賽馬會","香港賽馬會 the hong kong jockey club"],"tags":{"operator:wikidata":"Q1262858","shop":"bookmaker"},"addTags":{"name":"香港賽馬會 The Hong Kong Jockey Club","name:en":"The Hong Kong Jockey Club","name:zh":"香港賽馬會","operator":"香港賽馬會 The Hong Kong Jockey Club","operator:en":"The Hong Kong Jockey Club","operator:short":"HKJC","operator:wikidata":"Q1262858","operator:zh":"香港賽馬會","shop":"bookmaker"}},"public_transport/platform/bus_point/kmb-98750e":{"name":"KMB","locationSet":{"include":["hk"]},"geometry":["point","vertex"],"matchScore":2,"terms":["kmb"],"reference":{"key":"public_transport","value":"platform"},"tags":{"bus":"yes","network:wikidata":"Q312243","public_transport":"platform"},"addTags":{"bus":"yes","highway":"bus_stop","network":"KMB","network:wikidata":"Q312243","public_transport":"platform"}},"public_transport/platform/bus_point/longwinbus-98750e":{"name":"龍運機場巴士 Long Win Bus","locationSet":{"include":["hk"]},"geometry":["point","vertex"],"matchScore":2,"terms":["lbw","long win bus","龍運機場巴士 long win airport bus","龍運機場巴士 long win bus"],"reference":{"key":"public_transport","value":"platform"},"tags":{"bus":"yes","network:wikidata":"Q6673423","public_transport":"platform"},"addTags":{"bus":"yes","highway":"bus_stop","network":"龍運機場巴士 Long Win Bus","network:en":"Long Win Bus","network:short":"LBW","network:wikidata":"Q6673423","network:zh-yue":"龍運機場巴士","public_transport":"platform"}},"type/route/bus/kmb-5398e8":{"name":"KMB","locationSet":{"include":["hk"]},"geometry":["relation"],"matchScore":2,"terms":["kmb"],"reference":{"key":"route","value":"bus"},"tags":{"network:wikidata":"Q312243","route":"bus","type":"route"},"addTags":{"network":"KMB","network:wikidata":"Q312243","route":"bus","type":"route"}},"type/route/bus/longwinbus-5398e8":{"name":"龍運機場巴士 Long Win Bus","locationSet":{"include":["hk"]},"geometry":["relation"],"matchScore":2,"terms":["lbw","long win bus","龍運機場巴士 long win airport bus","龍運機場巴士 long win bus"],"reference":{"key":"route","value":"bus"},"tags":{"network:wikidata":"Q6673423","route":"bus","type":"route"},"addTags":{"network":"龍運機場巴士 Long Win Bus","network:en":"Long Win Bus","network:short":"LBW","network:wikidata":"Q6673423","network:zh-yue":"龍運機場巴士","route":"bus","type":"route"}},"type/route/light_rail/lightrail-2cb03a":{"name":"輕鐵 Light Rail","locationSet":{"include":["hk"]},"geometry":["relation"],"matchScore":2,"terms":["light rail","mtr corporation limited","輕鐵","輕鐵 light rail","香港鐵路有限公司","香港鐵路有限公司 mtr corporation limited"],"reference":{"key":"route","value":"light_rail"},"tags":{"network:wikidata":"Q3083033","route":"light_rail","type":"route"},"addTags":{"brand":"輕鐵 Light Rail","brand:en":"Light Rail","brand:wikidata":"Q3083033","brand:zh":"輕鐵","network":"輕鐵 Light Rail","network:en":"Light Rail","network:wikidata":"Q3083033","network:zh":"輕鐵","operator":"香港鐵路有限公司 MTR Corporation Limited","operator:en":"MTR Corporation Limited","operator:wikidata":"Q1479375","operator:zh":"香港鐵路有限公司","public_transport:network":"港鐵 MTR","public_transport:network:en":"MTR","public_transport:network:wikidata":"Q14751","public_transport:network:zh":"港鐵","railway:network":"輕鐵 Light Rail","railway:network:en":"Light Rail","railway:network:wikidata":"Q3083033","railway:network:zh":"輕鐵","route":"light_rail","type":"route"}},"type/route/subway/mtr-02373c":{"name":"港鐵 MTR","locationSet":{"include":["hk"]},"geometry":["relation"],"matchScore":2,"terms":["mtr","mtr corporation","港鐵","港鐵 mtr","香港鐵路有限公司","香港鐵路有限公司 mtr corporation"],"reference":{"key":"route","value":"subway"},"tags":{"network:wikidata":"Q14751","route":"subway","type":"route"},"addTags":{"network":"港鐵 MTR","network:en":"MTR","network:wikidata":"Q14751","network:zh":"港鐵","network:zh-Hans":"港铁","network:zh-Hant":"港鐵","operator":"香港鐵路有限公司 MTR Corporation","operator:en":"MTR Corporation","operator:wikidata":"Q1479375","operator:zh":"香港鐵路有限公司","operator:zh-Hans":"香港铁路有限公司","operator:zh-Hant":"香港鐵路有限公司","route":"subway","type":"route"}},"type/route/tram/hongkongtramways-7d5011":{"name":"香港電車 Hong Kong Tramways","locationSet":{"include":["hk"]},"geometry":["relation"],"matchScore":2,"terms":["hong kong tramways","ratp dev transdev asia","香港電車","香港電車 hong kong tramways"],"reference":{"key":"route","value":"tram"},"tags":{"network:wikidata":"Q385245","route":"tram","type":"route"},"addTags":{"network":"香港電車 Hong Kong Tramways","network:en":"Hong Kong Tramways","network:wikidata":"Q385245","network:zh":"香港電車","network:zh-Hans":"香港电车","network:zh-Hant":"香港電車","operator":"RATP Dev Transdev Asia","operator:wikidata":"Q30642347","route":"tram","type":"route"}}}