{"advertising/totem/global-2f5b89":{"name":"Global","locationSet":{"include":["us-ct","us-ma","us-me","us-nh","us-nj","us-ny","us-pa","us-ri","us-vt"]},"geometry":["point","line"],"matchScore":2,"terms":["global"],"tags":{"advertising":"totem","brand:wikidata":"Q121160135"},"addTags":{"advertising":"totem","brand":"Global","brand:wikidata":"Q121160135"}},"advertising/totem/nouria-355b7e":{"name":"Nouria","locationSet":{"include":["us-ct","us-ma","us-me","us-nh","us-ri"]},"geometry":["point","line"],"matchScore":2,"terms":["nouria"],"tags":{"advertising":"totem","brand:wikidata":"Q120637476"},"addTags":{"advertising":"totem","brand":"Nouria","brand:wikidata":"Q120637476"}},"advertising/totem/xtrafuels-2f5b89":{"name":"Xtra Fuels","locationSet":{"include":["us-ct","us-ma","us-me","us-nh","us-nj","us-ny","us-pa","us-ri","us-vt"]},"geometry":["point","line"],"matchScore":2,"terms":["xtra fuels","xtramart"],"tags":{"advertising":"totem","brand:wikidata":"Q121160101"},"addTags":{"advertising":"totem","brand":"Xtra Fuels","brand:wikidata":"Q121160101"}},"amenity/atm/bangorsavingsbank-9ae6ff":{"name":"Bangor Savings Bank","locationSet":{"include":["us-ma","us-me","us-nh"]},"geometry":["point","vertex"],"matchScore":2,"terms":["bangor savings bank"],"fields":["name","brand","{amenity/atm}"],"tags":{"amenity":"atm","brand:wikidata":"Q24060927"},"addTags":{"amenity":"atm","brand":"Bangor Savings Bank","brand:wikidata":"Q24060927","operator":"Bangor Savings Bank","operator:wikidata":"Q24060927"}},"amenity/atm/camdennationalbank-9ae6ff":{"name":"Camden National Bank","locationSet":{"include":["us-ma","us-me","us-nh"]},"geometry":["point","vertex"],"matchScore":2,"terms":["camden national bank"],"fields":["name","brand","{amenity/atm}"],"tags":{"amenity":"atm","brand:wikidata":"Q27963479"},"addTags":{"amenity":"atm","brand":"Camden National Bank","brand:wikidata":"Q27963479","operator":"Camden National Bank","operator:wikidata":"Q27963479"}},"amenity/atm/citizensbank-0bad27":{"name":"Citizens Bank (Eastern USA)","locationSet":{"include":["us-ct","us-de","us-ma","us-mi","us-nh","us-nj","us-ny","us-oh","us-pa","us-ri","us-va","us-vt"]},"geometry":["point","vertex"],"matchScore":2,"terms":["citizens","citizens bank"],"fields":["name","brand","{amenity/atm}"],"tags":{"amenity":"atm","brand:wikidata":"Q5122694"},"addTags":{"amenity":"atm","brand":"Citizens Bank","brand:wikidata":"Q5122694","operator":"Citizens Bank","operator:wikidata":"Q5122694","short_name":"Citizens"}},"amenity/atm/citynationalbank-97e06e":{"name":"City National Bank (California)","locationSet":{"include":["us-ca","us-dc","us-de","us-fl","us-ga","us-ma","us-mn","us-nv","us-ny","us-tn","us-va"]},"geometry":["point","vertex"],"matchScore":2,"terms":["city national bank"],"fields":["name","brand","{amenity/atm}"],"tags":{"amenity":"atm","brand:wikidata":"Q5123314"},"addTags":{"amenity":"atm","brand":"City National Bank","brand:wikidata":"Q5123314","operator":"City National Bank","operator:wikidata":"Q5123314"}},"amenity/bank/bangorsavingsbank-af5f1b":{"name":"Bangor Savings Bank","locationSet":{"include":["us-ma","us-me","us-nh"]},"geometry":["point","area"],"matchScore":2,"terms":["bangor savings bank"],"tags":{"amenity":"bank","brand:wikidata":"Q24060927"},"addTags":{"amenity":"bank","brand":"Bangor Savings Bank","brand:wikidata":"Q24060927","name":"Bangor Savings Bank"}},"amenity/bank/camdennationalbank-af5f1b":{"name":"Camden National Bank","locationSet":{"include":["us-ma","us-me","us-nh"]},"geometry":["point","area"],"matchScore":2,"terms":["camden national bank"],"tags":{"amenity":"bank","brand:wikidata":"Q27963479"},"addTags":{"amenity":"bank","brand":"Camden National Bank","brand:wikidata":"Q27963479","name":"Camden National Bank"}},"amenity/bank/citizensbank-8621dd":{"name":"Citizens Bank (Eastern USA)","locationSet":{"include":["us-ct","us-de","us-ma","us-mi","us-nh","us-nj","us-ny","us-oh","us-pa","us-ri","us-va","us-vt"]},"geometry":["point","area"],"matchScore":2,"terms":["citizens","citizens bank"],"tags":{"amenity":"bank","brand:wikidata":"Q5122694"},"addTags":{"amenity":"bank","brand":"Citizens Bank","brand:wikidata":"Q5122694","name":"Citizens Bank","short_name":"Citizens"}},"amenity/bank/citynationalbank-0b143b":{"name":"City National Bank (California)","locationSet":{"include":["us-ca","us-dc","us-de","us-fl","us-ga","us-ma","us-mn","us-nv","us-ny","us-tn","us-va"]},"geometry":["point","area"],"matchScore":2,"terms":["city national bank"],"tags":{"amenity":"bank","brand:wikidata":"Q5123314"},"addTags":{"amenity":"bank","brand":"City National Bank","brand:wikidata":"Q5123314","name":"City National Bank"}},"amenity/bicycle_rental/bluebikes-b3cb11":{"name":"Bluebikes","locationSet":{"include":["us-ma"]},"geometry":["point","vertex","area"],"matchScore":2,"terms":["blue cross blue shield of massachusetts (bcbsma)","bluebikes","lyft","metro boston"],"fields":["name","brand","{amenity/bicycle_rental}"],"tags":{"amenity":"bicycle_rental","brand:wikidata":"Q3142157"},"addTags":{"amenity":"bicycle_rental","brand":"Bluebikes","brand:wikidata":"Q3142157","name":"Bluebikes","network":"Bluebikes","network:wikidata":"Q3142157","operator":"Lyft","operator:wikidata":"Q17077936"}},"amenity/car_wash/alltown-cac12f":{"name":"Alltown","locationSet":{"include":["us-ct","us-ma","us-me","us-nh","us-ri"]},"geometry":["point","area"],"matchScore":2,"terms":["alltown"],"tags":{"amenity":"car_wash","brand:wikidata":"Q119586667"},"addTags":{"amenity":"car_wash","brand":"Alltown","brand:wikidata":"Q119586667","name":"Alltown"}},"amenity/car_wash/goldennozzlecarwash-cac12f":{"name":"Golden Nozzle Car Wash","locationSet":{"include":["us-ct","us-ma","us-me","us-nh","us-ri"]},"geometry":["point","area"],"matchScore":2,"terms":["golden nozzle","golden nozzle car wash"],"tags":{"amenity":"car_wash","brand:wikidata":"Q121160374"},"addTags":{"amenity":"car_wash","brand":"Golden Nozzle Car Wash","brand:wikidata":"Q121160374","name":"Golden Nozzle Car Wash"}},"amenity/fast_food/sandwich/amatos-862b87":{"name":"Amato's","locationSet":{"include":["us-ma","us-me","us-nh","us-vt"]},"geometry":["point","area"],"matchScore":2,"terms":["amato's"],"reference":{"key":"cuisine","value":"sandwich"},"tags":{"amenity":"fast_food","brand:wikidata":"Q4740614","cuisine":"sandwich;italian"},"addTags":{"amenity":"fast_food","brand":"Amato's","brand:wikidata":"Q4740614","cuisine":"sandwich;italian","name":"Amato's","takeaway":"yes"}},"amenity/fast_food/sandwich/dangelogrilledsandwiches-ea8dd1":{"name":"D'Angelo Grilled Sandwiches","locationSet":{"include":["us-ct","us-ma","us-me","us-nh","us-ri"]},"geometry":["point","area"],"matchScore":2,"terms":["d'angelo","d'angelo grilled sandwiches","d'angelos"],"reference":{"key":"cuisine","value":"sandwich"},"tags":{"amenity":"fast_food","brand:wikidata":"Q5203069","cuisine":"sandwich"},"addTags":{"amenity":"fast_food","brand":"D'Angelo Grilled Sandwiches","brand:wikidata":"Q5203069","cuisine":"sandwich","name":"D'Angelo Grilled Sandwiches","takeaway":"yes"}},"amenity/fast_food/sandwich/moesitaliansandwiches-3bfec2":{"name":"Moe's Italian Sandwiches","locationSet":{"include":["us-ma","us-me","us-nh"]},"geometry":["point","area"],"matchScore":2,"terms":["moe's italian sandwiches"],"reference":{"key":"cuisine","value":"sandwich"},"tags":{"amenity":"fast_food","brand:wikidata":"Q6889933","cuisine":"sandwich"},"addTags":{"amenity":"fast_food","brand":"Moe's Italian Sandwiches","brand:wikidata":"Q6889933","cuisine":"sandwich","name":"Moe's Italian Sandwiches","takeaway":"yes"}},"amenity/fuel/global-c2b77c":{"name":"Global","locationSet":{"include":["us-ct","us-ma","us-me","us-nh","us-nj","us-ny","us-pa","us-ri","us-vt"]},"geometry":["point","area"],"matchScore":2,"terms":["global"],"fields":["name","brand","{amenity/fuel}"],"tags":{"amenity":"fuel","brand:wikidata":"Q121160135"},"addTags":{"amenity":"fuel","brand":"Global","brand:wikidata":"Q121160135","name":"Global"}},"amenity/fuel/nouria-b09892":{"name":"Nouria","locationSet":{"include":["us-ct","us-ma","us-me","us-nh","us-ri"]},"geometry":["point","area"],"matchScore":2,"terms":["nouria"],"fields":["name","brand","{amenity/fuel}"],"tags":{"amenity":"fuel","brand:wikidata":"Q120637476"},"addTags":{"amenity":"fuel","brand":"Nouria","brand:wikidata":"Q120637476","name":"Nouria"}},"amenity/fuel/xtrafuels-c2b77c":{"name":"Xtra Fuels","locationSet":{"include":["us-ct","us-ma","us-me","us-nh","us-nj","us-ny","us-pa","us-ri","us-vt"]},"geometry":["point","area"],"matchScore":2,"terms":["xtra fuels","xtramart"],"fields":["name","brand","{amenity/fuel}"],"tags":{"amenity":"fuel","brand:wikidata":"Q121160101"},"addTags":{"amenity":"fuel","brand":"Xtra Fuels","brand:wikidata":"Q121160101","name":"Xtra Fuels"}},"amenity/restaurant/italian/maggianoslittleitaly-acf8ec":{"name":"Maggiano's Little Italy","locationSet":{"include":["us-az","us-ca","us-co","us-dc","us-fl","us-ga","us-il","us-in","us-ks","us-ma","us-md","us-mi","us-mo","us-nc","us-nj","us-nv","us-ny","us-oh","us-pa","us-tn","us-tx","us-va","us-wa","us-wi"]},"geometry":["point","area"],"matchScore":2,"terms":["maggiano's little italy"],"reference":{"key":"cuisine","value":"italian"},"tags":{"amenity":"restaurant","brand:wikidata":"Q6730149","cuisine":"italian"},"addTags":{"amenity":"restaurant","brand":"Maggiano's Little Italy","brand:wikidata":"Q6730149","cuisine":"italian","name":"Maggiano's Little Italy"}},"amenity/restaurant/mexican/margaritas-46ca2f":{"name":"Margaritas","locationSet":{"include":["us-ct","us-ma","us-me","us-nh","us-nj","us-pa"]},"geometry":["point","area"],"matchScore":2,"terms":["margaritas","margaritas mexican restaurant"],"reference":{"key":"cuisine","value":"mexican"},"tags":{"amenity":"restaurant","brand:wikidata":"Q6760185","cuisine":"mexican"},"addTags":{"amenity":"restaurant","brand":"Margaritas","brand:wikidata":"Q6760185","cuisine":"mexican","name":"Margaritas","official_name":"Margaritas Mexican Restaurant"}},"amenity/restaurant/moxies-12e5ab":{"name":"Moxie's","locationSet":{"include":["ca","us-az","us-fl","us-ma","us-tx"]},"geometry":["point","area"],"matchScore":2,"terms":["moxie's","moxie's grill & bar"],"tags":{"amenity":"restaurant","brand:wikidata":"Q6927497"},"addTags":{"amenity":"restaurant","brand":"Moxie's","brand:wikidata":"Q6927497","cuisine":"bar&grill","name":"Moxie's"}},"leisure/sports_centre/xgolf-8a88af":{"name":"X Golf","locationSet":{"include":["us-al","us-co","us-ga","us-il","us-in","us-ks","us-ma","us-me","us-mi","us-mn","us-mo","us-nd","us-ne","us-ny","us-oh","us-or","us-pa","us-ri","us-sc","us-sd","us-ut","us-va","us-wa","us-wi"]},"geometry":["point","area"],"matchScore":2,"terms":["x golf"],"fields":["name","brand","{leisure/sports_centre}"],"tags":{"brand:wikidata":"Q111585369","leisure":"sports_centre"},"addTags":{"brand":"X Golf","brand:wikidata":"Q111585369","indoor":"yes","leisure":"sports_centre","name":"X Golf","sport":"golf"}},"shop/cannabis/beyondhello-f81ec6":{"name":"Beyond Hello","locationSet":{"include":["us-ca","us-il","us-ma","us-nv","us-oh","us-pa","us-va"]},"geometry":["point","area"],"matchScore":2,"terms":["beyond hello"],"tags":{"brand:wikidata":"Q116734157","shop":"cannabis"},"addTags":{"brand":"Beyond Hello","brand:wikidata":"Q116734157","name":"Beyond Hello","shop":"cannabis"}},"shop/cannabis/cannabist-c9b3a7":{"name":"Cannabist","locationSet":{"include":["us-az","us-ca","us-fl","us-il","us-ma","us-mo","us-nj","us-ny","us-ut","us-va","us-wv"]},"geometry":["point","area"],"matchScore":2,"terms":["cannabist"],"tags":{"brand:wikidata":"Q114896590","shop":"cannabis"},"addTags":{"brand":"Cannabist","brand:wikidata":"Q114896590","name":"Cannabist","shop":"cannabis"}},"shop/cannabis/curaleaf-4b9e8a":{"name":"Curaleaf","locationSet":{"include":["us-az","us-ct","us-fl","us-il","us-ma","us-md","us-me","us-mi","us-nd","us-nj","us-nv","us-ny","us-oh","us-or","us-pa","us-ut","us-vt"]},"geometry":["point","area"],"matchScore":2,"terms":["curaleaf"],"tags":{"brand:wikidata":"Q85754829","shop":"cannabis"},"addTags":{"brand":"Curaleaf","brand:wikidata":"Q85754829","name":"Curaleaf","shop":"cannabis"}},"shop/cannabis/rise-ce371d":{"name":"RISE","locationSet":{"include":["us-fl","us-il","us-ma","us-md","us-nj","us-nv","us-oh","us-pa","us-va"]},"geometry":["point","area"],"matchScore":2,"terms":["rise"],"tags":{"brand:wikidata":"Q108911841","shop":"cannabis"},"addTags":{"brand":"RISE","brand:wikidata":"Q108911841","name":"RISE","shop":"cannabis"}},"shop/cannabis/sunnyside-d4e7e6":{"name":"Sunnyside","locationSet":{"include":["us-az","us-fl","us-il","us-ma","us-ny","us-oh","us-pa"]},"geometry":["point","area"],"matchScore":2,"terms":["sunnyside"],"tags":{"brand:wikidata":"Q114880592","shop":"cannabis"},"addTags":{"brand":"Sunnyside","brand:wikidata":"Q114880592","name":"Sunnyside","shop":"cannabis"}},"shop/cannabis/zenleaf-65d11e":{"name":"Zen Leaf","locationSet":{"include":["us-ar","us-az","us-il","us-ma","us-md","us-mi","us-nj","us-nv","us-oh","us-pa"]},"geometry":["point","area"],"matchScore":2,"terms":["zen leaf"],"tags":{"brand:wikidata":"Q108911834","shop":"cannabis"},"addTags":{"brand":"Zen Leaf","brand:wikidata":"Q108911834","name":"Zen Leaf","shop":"cannabis"}},"shop/car_parts/sanelnapa-a1190a":{"name":"Sanel NAPA","locationSet":{"include":["us-ma","us-me","us-nh","us-vt"]},"geometry":["point","area"],"matchScore":2,"terms":["sanel auto parts","sanel napa"],"tags":{"brand:wikidata":"Q122564780","shop":"car_parts"},"addTags":{"brand":"Sanel NAPA","brand:wikidata":"Q122564780","name":"Sanel NAPA","shop":"car_parts"}},"shop/car_repair/sullivantire-bb46ab":{"name":"Sullivan Tire","locationSet":{"include":["us-ma","us-me","us-nh","us-ri"]},"geometry":["point","area"],"matchScore":2,"terms":["sullivan tire","sullivan tire and auto service"],"fields":["name","brand","{shop/car_repair}"],"tags":{"brand:wikidata":"Q121422824","shop":"car_repair"},"addTags":{"brand":"Sullivan Tire","brand:wikidata":"Q121422824","name":"Sullivan Tire","official_name":"Sullivan Tire and Auto Service","service":"repair;tyres","shop":"car_repair"}},"shop/car_repair/viptiresandservice-451c51":{"name":"VIP Tires and Service","locationSet":{"include":["us-ma","us-me","us-nh","us-vt"]},"geometry":["point","area"],"matchScore":2,"terms":["vip tires","vip tires and service"],"fields":["name","brand","{shop/car_repair}"],"tags":{"brand:wikidata":"Q7907052","shop":"car_repair"},"addTags":{"brand":"VIP Tires and Service","brand:wikidata":"Q7907052","name":"VIP Tires and Service","service":"repair;tyres","shop":"car_repair"}},"shop/convenience/alltown-ae58e4":{"name":"Alltown","locationSet":{"include":["us-ct","us-ma","us-me","us-nh","us-ri"]},"geometry":["point","area"],"matchScore":2,"terms":["alltown"],"tags":{"brand:wikidata":"Q119586667","shop":"convenience"},"addTags":{"brand":"Alltown","brand:wikidata":"Q119586667","name":"Alltown","shop":"convenience"}},"shop/convenience/alltownfresh-790588":{"name":"Alltown Fresh","locationSet":{"include":["us-ct","us-ma","us-nh","us-ny"]},"geometry":["point","area"],"matchScore":2,"terms":["alltown fresh"],"tags":{"brand:wikidata":"Q119591365","shop":"convenience"},"addTags":{"brand":"Alltown Fresh","brand:wikidata":"Q119591365","name":"Alltown Fresh","shop":"convenience"}},"shop/convenience/nouria-ae58e4":{"name":"Nouria","locationSet":{"include":["us-ct","us-ma","us-me","us-nh","us-ri"]},"geometry":["point","area"],"matchScore":2,"terms":["nouria"],"tags":{"brand:wikidata":"Q120637476","shop":"convenience"},"addTags":{"brand":"Nouria","brand:wikidata":"Q120637476","name":"Nouria","shop":"convenience"}},"shop/convenience/xtramart-ff595a":{"name":"XtraMart","locationSet":{"include":["us-ct","us-ma","us-me","us-nh","us-ny","us-ri"]},"geometry":["point","area"],"matchScore":2,"terms":["xtramart"],"tags":{"brand:wikidata":"Q119586946","shop":"convenience"},"addTags":{"brand":"XtraMart","brand:wikidata":"Q119586946","name":"XtraMart","shop":"convenience"}},"shop/gift/thepaperstore-0b1107":{"name":"The Paper Store","locationSet":{"include":["us-ct","us-fl","us-ma","us-me","us-nh","us-nj","us-ny","us-ri"]},"geometry":["point","area"],"matchScore":2,"terms":["the paper store"],"tags":{"brand:wikidata":"Q65068381","shop":"gift"},"addTags":{"brand":"The Paper Store","brand:wikidata":"Q65068381","name":"The Paper Store","shop":"gift"}},"shop/outdoor/easternmountainsports-d32658":{"name":"Eastern Mountain Sports","locationSet":{"include":["us-ct","us-ma","us-me","us-nh","us-nj","us-ny","us-pa","us-vt"]},"geometry":["point","area"],"matchScore":2,"terms":["eastern mountain sports","ems"],"tags":{"brand:wikidata":"Q5330322","shop":"outdoor"},"addTags":{"brand":"Eastern Mountain Sports","brand:wikidata":"Q5330322","name":"Eastern Mountain Sports","shop":"outdoor","short_name":"EMS"}},"shop/pastry/mrsfields-e944b6":{"name":"Mrs. Fields","locationSet":{"include":["au","ph","us-ak","us-al","us-az","us-ca","us-co","us-de","us-fl","us-ga","us-hi","us-id","us-il","us-in","us-ks","us-la","us-ma","us-md","us-me","us-mi","us-mo","us-ms","us-nc","us-nj","us-nv","us-ny","us-oh","us-ok","us-pa","us-tx","us-ut","us-wi"]},"geometry":["point","area"],"matchScore":2,"terms":["mrs. fields"],"tags":{"brand:wikidata":"Q3866841","shop":"pastry"},"addTags":{"brand":"Mrs. Fields","brand:wikidata":"Q3866841","name":"Mrs. Fields","shop":"pastry"}},"shop/storage_rental/thelockup-b15f96":{"name":"The Lock Up","locationSet":{"include":["us-ct","us-fl","us-hi","us-il","us-ma","us-mn","us-nj","us-ny"]},"geometry":["point","area"],"matchScore":2,"terms":["the lock up"],"tags":{"brand:wikidata":"Q17089825","shop":"storage_rental"},"addTags":{"brand":"The Lock Up","brand:wikidata":"Q17089825","name":"The Lock Up","shop":"storage_rental"}},"shop/supermarket/bigy-14be05":{"name":"Big Y","locationSet":{"include":["us-ct","us-ma"]},"geometry":["point","area"],"matchScore":2,"terms":["big y"],"tags":{"brand:wikidata":"Q4906701","shop":"supermarket"},"addTags":{"brand":"Big Y","brand:wikidata":"Q4906701","name":"Big Y","shop":"supermarket"}},"shop/supermarket/pricechopper-7d1b36":{"name":"Price Chopper (New England)","locationSet":{"include":["us-ct","us-ma","us-nh","us-ny","us-pa","us-vt"]},"geometry":["point","area"],"matchScore":2,"terms":["price chopper"],"tags":{"brand:wikidata":"Q7242574","shop":"supermarket"},"addTags":{"brand":"Price Chopper","brand:wikidata":"Q7242574","name":"Price Chopper","shop":"supermarket"}},"shop/tyres/tirewarehouse-26b73d":{"name":"Tire Warehouse","locationSet":{"include":["us-ma","us-me","us-nh","us-ri","us-vt"]},"geometry":["point","area"],"matchScore":2,"terms":["tire warehouse"],"tags":{"brand:wikidata":"Q123618491","shop":"tyres"},"addTags":{"brand":"Tire Warehouse","brand:wikidata":"Q123618491","name":"Tire Warehouse","shop":"tyres"}},"shop/tyres/townfairtire-f05d93":{"name":"Town Fair Tire","locationSet":{"include":["us-ct","us-ma","us-me","us-nh","us-ny","us-ri","us-vt"]},"geometry":["point","area"],"matchScore":2,"terms":["town fair tire"],"tags":{"brand:wikidata":"Q121300374","shop":"tyres"},"addTags":{"brand":"Town Fair Tire","brand:wikidata":"Q121300374","name":"Town Fair Tire","shop":"tyres"}},"shop/window_blind/blindstogo-d1c49c":{"name":"Blinds to Go","locationSet":{"include":["ca-on","us-ct","us-de","us-ma","us-md","us-nj","us-ny","us-pa","us-va"]},"geometry":["point","area"],"matchScore":2,"terms":["blinds to go"],"tags":{"brand:wikidata":"Q123409913","shop":"window_blind"},"addTags":{"brand":"Blinds to Go","brand:wikidata":"Q123409913","name":"Blinds to Go","shop":"window_blind"}},"tourism/hotel/yotel-ebcca5":{"name":"YOTEL","locationSet":{"include":["ae","ch","fx","gb","nl","pt","sg","tr","us-ca","us-dc","us-fl","us-ma","us-ny"]},"geometry":["point","area"],"matchScore":2,"terms":["yotel"],"fields":["name","brand","{tourism/hotel}"],"tags":{"brand:wikidata":"Q8046002","tourism":"hotel"},"addTags":{"brand":"YOTEL","brand:wikidata":"Q8046002","name":"YOTEL","tourism":"hotel"}},"amenity/fire_station/springfieldfiredepartment-905134":{"name":"Springfield Fire Department (Massachusetts)","locationSet":{"include":["us-ma"]},"geometry":["point","area"],"matchScore":2,"terms":["springfield fire department"],"tags":{"amenity":"fire_station","operator:wikidata":"Q20050605"},"addTags":{"amenity":"fire_station","operator":"Springfield Fire Department","operator:wikidata":"Q20050605"}},"amenity/hospital/bethisraellaheyhealth-73dad1":{"name":"Beth Israel Lahey Health","locationSet":{"include":["us-ma","us-nh"]},"geometry":["area","point"],"matchScore":2,"terms":["beth israel deaconess hospital","beth israel deaconess medical center","beth israel lahey health","lahey health"],"fields":["name","operator","{amenity/hospital}"],"reference":{"key":"amenity","value":"hospital"},"tags":{"amenity":"hospital","operator:wikidata":"Q123694421"},"addTags":{"amenity":"hospital","healthcare":"hospital","operator":"Beth Israel Lahey Health","operator:wikidata":"Q123694421"}},"amenity/hospital/massgeneralbrigham-73dad1":{"name":"Mass General Brigham","locationSet":{"include":["us-ma","us-nh"]},"geometry":["area","point"],"matchScore":2,"terms":["brigham and women's hospital","mass general brigham","partners healthcare"],"fields":["name","operator","{amenity/hospital}"],"reference":{"key":"amenity","value":"hospital"},"tags":{"amenity":"hospital","operator:wikidata":"Q7140719"},"addTags":{"amenity":"hospital","healthcare":"hospital","operator":"Mass General Brigham","operator:wikidata":"Q7140719"}},"amenity/police/massachusettsstatepolice-63829a":{"name":"Massachusetts State Police","locationSet":{"include":["us-ma"]},"geometry":["point","area"],"matchScore":2,"terms":["massachusetts state police","msp"],"tags":{"amenity":"police","operator:wikidata":"Q2075576"},"addTags":{"amenity":"police","operator":"Massachusetts State Police","operator:short":"MSP","operator:wikidata":"Q2075576"}},"amenity/school/bostonpublicschools-be2584":{"name":"Boston Public Schools","locationSet":{"include":["us-ma"]},"geometry":["area","point"],"matchScore":2,"terms":["boston public schools","bps"],"tags":{"amenity":"school","operator:wikidata":"Q2215021"},"addTags":{"amenity":"school","operator":"Boston Public Schools","operator:short":"BPS","operator:type":"public","operator:wikidata":"Q2215021"}},"amenity/school/everettpublicschools-be2584":{"name":"Everett Public Schools (Massachusetts)","locationSet":{"include":["us-ma"]},"geometry":["area","point"],"matchScore":2,"terms":["everett public schools"],"tags":{"amenity":"school","operator:wikidata":"Q60763810"},"addTags":{"amenity":"school","operator":"Everett Public Schools","operator:type":"public","operator:wikidata":"Q60763810"}},"amenity/school/lawrencepublicschools-be2584":{"name":"Lawrence Public Schools (Massachusetts)","locationSet":{"include":["us-ma"]},"geometry":["area","point"],"matchScore":2,"terms":["lawrence public schools"],"tags":{"amenity":"school","operator:wikidata":"Q112227720"},"addTags":{"amenity":"school","operator":"Lawrence Public Schools","operator:type":"public","operator:wikidata":"Q112227720"}},"boundary/sudburyvalleytrustees-dd28c3":{"name":"Sudbury Valley Trustees","locationSet":{"include":["us-ma"]},"geometry":["line"],"matchScore":2,"terms":["sudbury valley trustees","svt"],"tags":{"boundary":"protected_area","operator:wikidata":"Q7633539"},"addTags":{"boundary":"protected_area","operator":"Sudbury Valley Trustees","operator:short":"SVT","operator:wikidata":"Q7633539"}},"emergency/siren/seabrookstation-2a6dd7":{"name":"Seabrook Station","locationSet":{"include":["us-ma","us-nh"]},"geometry":["point","vertex"],"matchScore":2,"terms":["seabrook station","seabrook station nuclear power plant"],"tags":{"emergency":"siren","operator:wikidata":"Q475652"},"addTags":{"emergency":"siren","operator":"Seabrook Station","operator:wikidata":"Q475652","siren:purpose":"nuclear;civil_defense","siren:type":"electronic"}},"leisure/nature_reserve/townofamherst-defa05":{"name":"Town of Amherst (Massachusetts)","locationSet":{"include":["us-ma"]},"geometry":["area","point"],"matchScore":2,"terms":["town of amherst"],"tags":{"leisure":"nature_reserve","operator:wikidata":"Q49164"},"addTags":{"leisure":"nature_reserve","operator":"Town of Amherst","operator:type":"public","operator:wikidata":"Q49164"}},"leisure/nature_reserve/unionpoint-defa05":{"name":"Union Point","locationSet":{"include":["us-ma"]},"geometry":["area","point"],"matchScore":2,"terms":["union point"],"tags":{"leisure":"nature_reserve","operator:wikidata":"Q116943558"},"addTags":{"leisure":"nature_reserve","operator":"Union Point","operator:wikidata":"Q116943558"}},"leisure/park/townofamherst-58b3db":{"name":"Town of Amherst (Massachusetts)","locationSet":{"include":["us-ma"]},"geometry":["area","point"],"matchScore":2,"terms":["town of amherst"],"tags":{"leisure":"park","operator:wikidata":"Q49164"},"addTags":{"leisure":"park","operator":"Town of Amherst","operator:type":"public","operator:wikidata":"Q49164"}},"leisure/park/unionpoint-58b3db":{"name":"Union Point","locationSet":{"include":["us-ma"]},"geometry":["area","point"],"matchScore":2,"terms":["union point"],"tags":{"leisure":"park","operator:wikidata":"Q116943558"},"addTags":{"leisure":"park","operator":"Union Point","operator:wikidata":"Q116943558"}},"man_made/pipeline/unitil-dda696":{"name":"Unitil","locationSet":{"include":["us-ma","us-me","us-nh"]},"geometry":["line"],"matchScore":2,"terms":["fitchburg gas and electric light company","granite state gas transmission","northern utilities","portland gas light company","unitil"],"tags":{"man_made":"pipeline","operator:wikidata":"Q17144598"},"addTags":{"man_made":"pipeline","operator":"Unitil","operator:wikidata":"Q17144598"}},"pipeline/substation/unitil-cdce47":{"name":"Unitil","locationSet":{"include":["us-ma","us-me","us-nh"]},"geometry":["area","point"],"matchScore":2,"terms":["fitchburg gas and electric light company","granite state gas transmission","northern utilities","portland gas light company","unitil"],"tags":{"operator:wikidata":"Q17144598","pipeline":"substation"},"addTags":{"operator":"Unitil","operator:wikidata":"Q17144598","pipeline":"substation"}},"power/line/eversource-b15319":{"name":"Eversource","locationSet":{"include":["us-ct","us-ma","us-nh"]},"geometry":["line"],"matchScore":2,"terms":["cl&p","eversource","eversource energy","nstar electric company","western massachusetts electric company"],"tags":{"operator:wikidata":"Q3344199","power":"line"},"addTags":{"operator":"Eversource","operator:wikidata":"Q3344199","power":"line"}},"power/line/unitil-6459f7":{"name":"Unitil","locationSet":{"include":["us-ma","us-me","us-nh"]},"geometry":["line"],"matchScore":2,"terms":["concord electric company","exeter and hampton electric company","fitchburg gas and electric light company","unitil"],"tags":{"operator:wikidata":"Q17144598","power":"line"},"addTags":{"operator":"Unitil","operator:wikidata":"Q17144598","power":"line"}},"power/minor_line/eversource-fa80fd":{"name":"Eversource","locationSet":{"include":["us-ct","us-ma","us-nh"]},"geometry":["line"],"matchScore":2,"terms":["cl&p","eversource","eversource energy","nstar electric company","western massachusetts electric company"],"tags":{"operator:wikidata":"Q3344199","power":"minor_line"},"addTags":{"operator":"Eversource","operator:wikidata":"Q3344199","power":"minor_line"}},"power/minor_line/unitil-175481":{"name":"Unitil","locationSet":{"include":["us-ma","us-me","us-nh"]},"geometry":["line"],"matchScore":2,"terms":["concord electric company","exeter and hampton electric company","fitchburg gas and electric light company","unitil"],"tags":{"operator:wikidata":"Q17144598","power":"minor_line"},"addTags":{"operator":"Unitil","operator:wikidata":"Q17144598","power":"minor_line"}},"power/pole/eversource-d83c76":{"name":"Eversource","locationSet":{"include":["us-ct","us-ma","us-nh"]},"geometry":["point","vertex"],"matchScore":2,"terms":["cl&p","eversource","eversource energy","nstar electric company","western massachusetts electric company"],"tags":{"operator:wikidata":"Q3344199","power":"pole"},"addTags":{"operator":"Eversource","operator:wikidata":"Q3344199","power":"pole"}},"power/pole/unitil-8cab10":{"name":"Unitil","locationSet":{"include":["us-ma","us-me","us-nh"]},"geometry":["point","vertex"],"matchScore":2,"terms":["concord electric company","exeter and hampton electric company","fitchburg gas and electric light company","unitil"],"tags":{"operator:wikidata":"Q17144598","power":"pole"},"addTags":{"operator":"Unitil","operator:wikidata":"Q17144598","power":"pole"}},"power/substation/eversource-374743":{"name":"Eversource","locationSet":{"include":["us-ct","us-ma","us-nh"]},"geometry":["area","point"],"matchScore":2,"terms":["cl&p","eversource","eversource energy","nstar electric company","western massachusetts electric company"],"tags":{"operator:wikidata":"Q3344199","power":"substation"},"addTags":{"operator":"Eversource","operator:wikidata":"Q3344199","power":"substation"}},"power/substation/unitil-869ced":{"name":"Unitil","locationSet":{"include":["us-ma","us-me","us-nh"]},"geometry":["area","point"],"matchScore":2,"terms":["concord electric company","exeter and hampton electric company","fitchburg gas and electric light company","unitil"],"tags":{"operator:wikidata":"Q17144598","power":"substation"},"addTags":{"operator":"Unitil","operator:wikidata":"Q17144598","power":"substation"}},"power/tower/eversource-3b99a1":{"name":"Eversource","locationSet":{"include":["us-ct","us-ma","us-nh"]},"geometry":["point","vertex"],"matchScore":2,"terms":["cl&p","eversource","eversource energy","nstar electric company","western massachusetts electric company"],"tags":{"operator:wikidata":"Q3344199","power":"tower"},"addTags":{"operator":"Eversource","operator:wikidata":"Q3344199","power":"tower"}},"power/tower/unitil-4ad8ba":{"name":"Unitil","locationSet":{"include":["us-ma","us-me","us-nh"]},"geometry":["point","vertex"],"matchScore":2,"terms":["concord electric company","exeter and hampton electric company","fitchburg gas and electric light company","unitil"],"tags":{"operator:wikidata":"Q17144598","power":"tower"},"addTags":{"operator":"Unitil","operator:wikidata":"Q17144598","power":"tower"}},"power/transformer/eversource-d51e21":{"name":"Eversource","locationSet":{"include":["us-ct","us-ma","us-nh"]},"geometry":["point","vertex"],"matchScore":2,"terms":["cl&p","eversource","eversource energy","nstar electric company","western massachusetts electric company"],"tags":{"operator:wikidata":"Q3344199","power":"transformer"},"addTags":{"operator":"Eversource","operator:wikidata":"Q3344199","power":"transformer"}},"power/transformer/unitil-a10417":{"name":"Unitil","locationSet":{"include":["us-ma","us-me","us-nh"]},"geometry":["point","vertex"],"matchScore":2,"terms":["concord electric company","exeter and hampton electric company","fitchburg gas and electric light company","unitil"],"tags":{"operator:wikidata":"Q17144598","power":"transformer"},"addTags":{"operator":"Unitil","operator:wikidata":"Q17144598","power":"transformer"}},"shop/charity/morganmemorialgoodwillindustries-798f3b":{"name":"Morgan Memorial Goodwill Industries","locationSet":{"include":["us-ma"]},"geometry":["point","area"],"matchScore":2,"terms":["goodwill","morgan memorial goodwill industries"],"tags":{"operator:wikidata":"Q54556334","shop":"charity"},"addTags":{"brand":"Goodwill","brand:wikidata":"Q5583655","name":"Goodwill","operator":"Morgan Memorial Goodwill Industries","operator:wikidata":"Q54556334","shop":"charity"}},"public_transport/platform/bus_point/brta-9889df":{"name":"BRTA","locationSet":{"include":["us-ma"]},"geometry":["point","vertex"],"matchScore":2,"terms":["brta"],"reference":{"key":"public_transport","value":"platform"},"tags":{"bus":"yes","network:wikidata":"Q20708878","public_transport":"platform"},"addTags":{"bus":"yes","highway":"bus_stop","network":"BRTA","network:wikidata":"Q20708878","public_transport":"platform"}},"public_transport/platform/bus_point/cata-9889df":{"name":"CATA (Massachusetts)","locationSet":{"include":["us-ma"]},"geometry":["point","vertex"],"matchScore":2,"terms":["cape ann transportation authority","cata"],"reference":{"key":"public_transport","value":"platform"},"tags":{"bus":"yes","network:wikidata":"Q5034570","public_transport":"platform"},"addTags":{"bus":"yes","highway":"bus_stop","network":"CATA","network:wikidata":"Q5034570","operator":"Cape Ann Transportation Authority","public_transport":"platform"}},"public_transport/platform/bus_point/gatra-9889df":{"name":"GATRA","locationSet":{"include":["us-ma"]},"geometry":["point","vertex"],"matchScore":2,"terms":["gatra"],"reference":{"key":"public_transport","value":"platform"},"tags":{"bus":"yes","network:wikidata":"Q5600434","public_transport":"platform"},"addTags":{"bus":"yes","highway":"bus_stop","network":"GATRA","network:wikidata":"Q5600434","public_transport":"platform"}},"public_transport/platform/bus_point/lrta-9889df":{"name":"LRTA","locationSet":{"include":["us-ma"]},"geometry":["point","vertex"],"matchScore":2,"terms":["lrta"],"reference":{"key":"public_transport","value":"platform"},"tags":{"bus":"yes","network:wikidata":"Q2078562","public_transport":"platform"},"addTags":{"bus":"yes","highway":"bus_stop","network":"LRTA","network:wikidata":"Q2078562","public_transport":"platform"}},"public_transport/platform/bus_point/mart-9889df":{"name":"MART","locationSet":{"include":["us-ma"]},"geometry":["point","vertex"],"matchScore":2,"terms":["mart"],"reference":{"key":"public_transport","value":"platform"},"tags":{"bus":"yes","network:wikidata":"Q6903133","public_transport":"platform"},"addTags":{"bus":"yes","highway":"bus_stop","network":"MART","network:wikidata":"Q6903133","public_transport":"platform"}},"public_transport/platform/bus_point/srta-9889df":{"name":"SRTA","locationSet":{"include":["us-ma"]},"geometry":["point","vertex"],"matchScore":2,"terms":["srta"],"reference":{"key":"public_transport","value":"platform"},"tags":{"bus":"yes","network:wikidata":"Q7569500","public_transport":"platform"},"addTags":{"bus":"yes","highway":"bus_stop","network":"SRTA","network:wikidata":"Q7569500","public_transport":"platform"}},"public_transport/platform/bus_point/wrta-9889df":{"name":"WRTA (Worchester)","locationSet":{"include":["us-ma"]},"geometry":["point","vertex"],"matchScore":2,"terms":["worcester regional transit authority","wrta"],"reference":{"key":"public_transport","value":"platform"},"tags":{"bus":"yes","network:wikidata":"Q8034217","public_transport":"platform"},"addTags":{"bus":"yes","highway":"bus_stop","network":"WRTA","network:wikidata":"Q8034217","operator":"Worcester Regional Transit Authority","public_transport":"platform"}},"type/route/bus/brta-6c1ef2":{"name":"BRTA","locationSet":{"include":["us-ma"]},"geometry":["relation"],"matchScore":2,"terms":["brta"],"reference":{"key":"route","value":"bus"},"tags":{"network:wikidata":"Q20708878","route":"bus","type":"route"},"addTags":{"network":"BRTA","network:wikidata":"Q20708878","route":"bus","type":"route"}},"type/route/bus/cata-6c1ef2":{"name":"CATA (Massachusetts)","locationSet":{"include":["us-ma"]},"geometry":["relation"],"matchScore":2,"terms":["cape ann transportation authority","cata"],"reference":{"key":"route","value":"bus"},"tags":{"network:wikidata":"Q5034570","route":"bus","type":"route"},"addTags":{"network":"CATA","network:wikidata":"Q5034570","operator":"Cape Ann Transportation Authority","route":"bus","type":"route"}},"type/route/bus/gatra-6c1ef2":{"name":"GATRA","locationSet":{"include":["us-ma"]},"geometry":["relation"],"matchScore":2,"terms":["gatra"],"reference":{"key":"route","value":"bus"},"tags":{"network:wikidata":"Q5600434","route":"bus","type":"route"},"addTags":{"network":"GATRA","network:wikidata":"Q5600434","route":"bus","type":"route"}},"type/route/bus/lrta-6c1ef2":{"name":"LRTA","locationSet":{"include":["us-ma"]},"geometry":["relation"],"matchScore":2,"terms":["lrta"],"reference":{"key":"route","value":"bus"},"tags":{"network:wikidata":"Q2078562","route":"bus","type":"route"},"addTags":{"network":"LRTA","network:wikidata":"Q2078562","route":"bus","type":"route"}},"type/route/bus/mart-6c1ef2":{"name":"MART","locationSet":{"include":["us-ma"]},"geometry":["relation"],"matchScore":2,"terms":["mart"],"reference":{"key":"route","value":"bus"},"tags":{"network:wikidata":"Q6903133","route":"bus","type":"route"},"addTags":{"network":"MART","network:wikidata":"Q6903133","route":"bus","type":"route"}},"type/route/bus/srta-6c1ef2":{"name":"SRTA","locationSet":{"include":["us-ma"]},"geometry":["relation"],"matchScore":2,"terms":["srta"],"reference":{"key":"route","value":"bus"},"tags":{"network:wikidata":"Q7569500","route":"bus","type":"route"},"addTags":{"network":"SRTA","network:wikidata":"Q7569500","route":"bus","type":"route"}},"type/route/bus/wrta-6c1ef2":{"name":"WRTA (Worchester)","locationSet":{"include":["us-ma"]},"geometry":["relation"],"matchScore":2,"terms":["worcester regional transit authority","wrta"],"reference":{"key":"route","value":"bus"},"tags":{"network:wikidata":"Q8034217","route":"bus","type":"route"},"addTags":{"network":"WRTA","network:wikidata":"Q8034217","operator":"Worcester Regional Transit Authority","route":"bus","type":"route"}}}