{"advertising/totem/caltex-0f1005":{"name":"Caltex","locationSet":{"include":["ae","au","eg","hk","id","kh","kr","lk","my","nz","ph","pk","sa","sg","th","vn","za"]},"geometry":["point","line"],"matchScore":2,"terms":["caltex"],"tags":{"advertising":"totem","brand:wikidata":"Q277470"},"addTags":{"advertising":"totem","brand":"Caltex","brand:wikidata":"Q277470"}},"advertising/totem/pertamina-37a57e":{"name":"Pertamina","locationSet":{"include":["id"]},"geometry":["point","line"],"matchScore":2,"terms":["pertamina"],"tags":{"advertising":"totem","brand:wikidata":"Q1641044"},"addTags":{"advertising":"totem","brand":"Pertamina","brand:wikidata":"Q1641044"}},"amenity/atm/bankbukopin-16476e":{"name":"Bank Bukopin","locationSet":{"include":["id"]},"geometry":["point","vertex"],"matchScore":2,"terms":["bank bukopin"],"fields":["name","brand","{amenity/atm}"],"tags":{"amenity":"atm","brand:wikidata":"Q806620"},"addTags":{"amenity":"atm","brand":"Bank Bukopin","brand:wikidata":"Q806620","operator":"Bank Bukopin","operator:wikidata":"Q806620"}},"amenity/atm/bankcentralasia-16476e":{"name":"Bank Central Asia","locationSet":{"include":["id"]},"geometry":["point","vertex"],"matchScore":2,"terms":["bank central asia"],"fields":["name","brand","{amenity/atm}"],"tags":{"amenity":"atm","brand:wikidata":"Q806626"},"addTags":{"amenity":"atm","brand":"Bank Central Asia","brand:wikidata":"Q806626","operator":"Bank Central Asia","operator:wikidata":"Q806626"}},"amenity/atm/bankdanamon-16476e":{"name":"Bank Danamon","locationSet":{"include":["id"]},"geometry":["point","vertex"],"matchScore":2,"terms":["bank danamon"],"fields":["name","brand","{amenity/atm}"],"tags":{"amenity":"atm","brand:wikidata":"Q4855913"},"addTags":{"amenity":"atm","brand":"Bank Danamon","brand:wikidata":"Q4855913","operator":"Bank Danamon","operator:wikidata":"Q4855913"}},"amenity/atm/bankjago-16476e":{"name":"Bank Jago","locationSet":{"include":["id"]},"geometry":["point","vertex"],"matchScore":2,"terms":["bank artos indonesia","bank jago"],"fields":["name","brand","{amenity/atm}"],"tags":{"amenity":"atm","brand:wikidata":"Q12474471"},"addTags":{"amenity":"atm","brand":"Bank Jago","brand:wikidata":"Q12474471","operator":"Bank Jago","operator:wikidata":"Q12474471"}},"amenity/atm/bankmandiri-16476e":{"name":"Bank Mandiri","locationSet":{"include":["id"]},"geometry":["point","vertex"],"matchScore":2,"terms":["bank mandiri","mandiri"],"fields":["name","brand","{amenity/atm}"],"tags":{"amenity":"atm","brand:wikidata":"Q806639"},"addTags":{"amenity":"atm","brand":"Bank Mandiri","brand:wikidata":"Q806639","operator":"Bank Mandiri","operator:wikidata":"Q806639"}},"amenity/atm/bankmega-16476e":{"name":"Bank Mega","locationSet":{"include":["id"]},"geometry":["point","vertex"],"matchScore":2,"terms":["bank mega"],"fields":["name","brand","{amenity/atm}"],"tags":{"amenity":"atm","brand:wikidata":"Q12474504"},"addTags":{"amenity":"atm","brand":"Bank Mega","brand:wikidata":"Q12474504","operator":"Bank Mega","operator:wikidata":"Q12474504"}},"amenity/atm/bankmuamalat-465f88":{"name":"Bank Muamalat","locationSet":{"include":["id","my"]},"geometry":["point","vertex"],"matchScore":2,"terms":["bank muamalat"],"fields":["name","brand","{amenity/atm}"],"tags":{"amenity":"atm","brand:wikidata":"Q4855949"},"addTags":{"amenity":"atm","brand":"Bank Muamalat","brand:wikidata":"Q4855949","operator":"Bank Muamalat","operator:wikidata":"Q4855949"}},"amenity/atm/bankpermata-16476e":{"name":"Bank Permata","locationSet":{"include":["id"]},"geometry":["point","vertex"],"matchScore":2,"terms":["bank permata"],"fields":["name","brand","{amenity/atm}"],"tags":{"amenity":"atm","brand:wikidata":"Q4855963"},"addTags":{"amenity":"atm","brand":"Bank Permata","brand:wikidata":"Q4855963","operator":"Bank Permata","operator:wikidata":"Q4855963"}},"amenity/atm/banksyariahindonesia-16476e":{"name":"Bank Syariah Indonesia","locationSet":{"include":["id"]},"geometry":["point","vertex"],"matchScore":2,"terms":["bank mandiri syariah","bank syariah indonesia","bank syariah mandiri","bni syariah","bri syariah","bsi"],"fields":["name","brand","{amenity/atm}"],"tags":{"amenity":"atm","brand:wikidata":"Q105574200"},"addTags":{"amenity":"atm","brand":"Bank Syariah Indonesia","brand:wikidata":"Q105574200","operator":"Bank Syariah Indonesia","operator:wikidata":"Q105574200","short_name":"BSI"}},"amenity/atm/bca-16476e":{"name":"BCA","locationSet":{"include":["id"]},"geometry":["point","vertex"],"matchScore":2,"terms":["bank bca","bank central asia","bca"],"fields":["name","brand","{amenity/atm}"],"tags":{"amenity":"atm","brand:wikidata":"Q806626"},"addTags":{"amenity":"atm","brand":"BCA","brand:wikidata":"Q806626","official_name":"Bank Central Asia","operator":"BCA","operator:wikidata":"Q806626"}},"amenity/atm/bni-d4d2b6":{"name":"BNI","locationSet":{"include":["au","ca","gb","hk","id","jp","kr","mm","sg","us"]},"geometry":["point","vertex"],"matchScore":2,"terms":["bank bni","bank negara indonesia","bni"],"fields":["name","brand","{amenity/atm}"],"tags":{"amenity":"atm","brand:wikidata":"Q2882611"},"addTags":{"amenity":"atm","brand":"BNI","brand:wikidata":"Q2882611","official_name":"Bank Negara Indonesia","operator":"BNI","operator:wikidata":"Q2882611"}},"amenity/atm/bri-16476e":{"name":"BRI","locationSet":{"include":["id"]},"geometry":["point","vertex"],"matchScore":2,"terms":["bank bri","bank rakyat indonesia","bri"],"fields":["name","brand","{amenity/atm}"],"tags":{"amenity":"atm","brand:wikidata":"Q623042"},"addTags":{"amenity":"atm","brand":"BRI","brand:wikidata":"Q623042","official_name":"Bank Rakyat Indonesia","operator":"BRI","operator:wikidata":"Q623042"}},"amenity/atm/btn-16476e":{"name":"BTN","locationSet":{"include":["id"]},"geometry":["point","vertex"],"matchScore":2,"terms":["bank tabungan negara","btn"],"fields":["name","brand","{amenity/atm}"],"tags":{"amenity":"atm","brand:wikidata":"Q12474534"},"addTags":{"amenity":"atm","brand":"BTN","brand:en":"BTN","brand:id":"BTN","brand:wikidata":"Q12474534","official_name":"Bank Tabungan Negara","operator":"BTN","operator:wikidata":"Q12474534"}},"amenity/atm/cimbniaga-16476e":{"name":"CIMB Niaga","locationSet":{"include":["id"]},"geometry":["point","vertex"],"matchScore":2,"terms":["cimb niaga"],"fields":["name","brand","{amenity/atm}"],"tags":{"amenity":"atm","brand:wikidata":"Q5011747"},"addTags":{"amenity":"atm","brand":"CIMB Niaga","brand:wikidata":"Q5011747","operator":"CIMB Niaga","operator:wikidata":"Q5011747"}},"amenity/atm/paninbank-16476e":{"name":"Panin Bank","locationSet":{"include":["id"]},"geometry":["point","vertex"],"matchScore":2,"terms":["panin bank"],"fields":["name","brand","{amenity/atm}"],"tags":{"amenity":"atm","brand:wikidata":"Q12502751"},"addTags":{"amenity":"atm","brand":"Panin Bank","brand:wikidata":"Q12502751","operator":"Panin Bank","operator:wikidata":"Q12502751"}},"amenity/atm/rabobank-f970f3":{"name":"Rabobank","locationSet":{"include":["au","id","nl","nz","us"]},"geometry":["point","vertex"],"matchScore":2,"terms":["rabobank"],"fields":["name","brand","{amenity/atm}"],"tags":{"amenity":"atm","brand:wikidata":"Q252004"},"addTags":{"amenity":"atm","brand":"Rabobank","brand:wikidata":"Q252004","operator":"Rabobank","operator:wikidata":"Q252004"}},"amenity/atm/uob-441a96":{"name":"UOB","locationSet":{"include":["au","bn","ca","cn","gb","hk","id","in","jp","kr","mm","my","ph","sg","th","us","vn"]},"geometry":["point","vertex"],"matchScore":2,"terms":["united overseas bank","uob","大华银行"],"fields":["name","brand","{amenity/atm}"],"tags":{"amenity":"atm","brand:wikidata":"Q2064074"},"addTags":{"amenity":"atm","brand":"UOB","brand:wikidata":"Q2064074","brand:zh":"大华银行","name:zh":"大华银行","operator":"UOB","operator:wikidata":"Q2064074"}},"amenity/bank/bankbukopin-aa7852":{"name":"Bank Bukopin","locationSet":{"include":["id"]},"geometry":["point","area"],"matchScore":2,"terms":["bank bukopin"],"tags":{"amenity":"bank","brand:wikidata":"Q806620"},"addTags":{"amenity":"bank","brand":"Bank Bukopin","brand:wikidata":"Q806620","name":"Bank Bukopin"}},"amenity/bank/bankcentralasia-aa7852":{"name":"Bank Central Asia","locationSet":{"include":["id"]},"geometry":["point","area"],"matchScore":2,"terms":["bank central asia"],"tags":{"amenity":"bank","brand:wikidata":"Q806626"},"addTags":{"amenity":"bank","brand":"Bank Central Asia","brand:wikidata":"Q806626","name":"Bank Central Asia"}},"amenity/bank/bankdanamon-aa7852":{"name":"Bank Danamon","locationSet":{"include":["id"]},"geometry":["point","area"],"matchScore":2,"terms":["bank danamon"],"tags":{"amenity":"bank","brand:wikidata":"Q4855913"},"addTags":{"amenity":"bank","brand":"Bank Danamon","brand:wikidata":"Q4855913","name":"Bank Danamon"}},"amenity/bank/bankjago-aa7852":{"name":"Bank Jago","locationSet":{"include":["id"]},"geometry":["point","area"],"matchScore":2,"terms":["bank artos indonesia","bank jago"],"tags":{"amenity":"bank","brand:wikidata":"Q12474471"},"addTags":{"amenity":"bank","brand":"Bank Jago","brand:wikidata":"Q12474471","name":"Bank Jago"}},"amenity/bank/bankmandiri-aa7852":{"name":"Bank Mandiri","locationSet":{"include":["id"]},"geometry":["point","area"],"matchScore":2,"terms":["bank mandiri","mandiri"],"tags":{"amenity":"bank","brand:wikidata":"Q806639"},"addTags":{"amenity":"bank","brand":"Bank Mandiri","brand:wikidata":"Q806639","name":"Bank Mandiri"}},"amenity/bank/bankmega-aa7852":{"name":"Bank Mega","locationSet":{"include":["id"]},"geometry":["point","area"],"matchScore":2,"terms":["bank mega"],"tags":{"amenity":"bank","brand:wikidata":"Q12474504"},"addTags":{"amenity":"bank","brand":"Bank Mega","brand:wikidata":"Q12474504","name":"Bank Mega"}},"amenity/bank/bankmuamalat-74c287":{"name":"Bank Muamalat","locationSet":{"include":["id","my"]},"geometry":["point","area"],"matchScore":2,"terms":["bank muamalat"],"tags":{"amenity":"bank","brand:wikidata":"Q4855949"},"addTags":{"amenity":"bank","brand":"Bank Muamalat","brand:wikidata":"Q4855949","name":"Bank Muamalat"}},"amenity/bank/bankpermata-aa7852":{"name":"Bank Permata","locationSet":{"include":["id"]},"geometry":["point","area"],"matchScore":2,"terms":["bank permata"],"tags":{"amenity":"bank","brand:wikidata":"Q4855963"},"addTags":{"amenity":"bank","brand":"Bank Permata","brand:wikidata":"Q4855963","name":"Bank Permata"}},"amenity/bank/banksyariahindonesia-aa7852":{"name":"Bank Syariah Indonesia","locationSet":{"include":["id"]},"geometry":["point","area"],"matchScore":2,"terms":["bank mandiri syariah","bank syariah indonesia","bank syariah mandiri","bni syariah","bri syariah","bsi"],"tags":{"amenity":"bank","brand:wikidata":"Q105574200"},"addTags":{"amenity":"bank","brand":"Bank Syariah Indonesia","brand:wikidata":"Q105574200","name":"Bank Syariah Indonesia","short_name":"BSI"}},"amenity/bank/bca-aa7852":{"name":"BCA","locationSet":{"include":["id"]},"geometry":["point","area"],"matchScore":2,"terms":["bank bca","bank central asia","bca"],"tags":{"amenity":"bank","brand:wikidata":"Q806626"},"addTags":{"amenity":"bank","brand":"BCA","brand:wikidata":"Q806626","name":"BCA","official_name":"Bank Central Asia"}},"amenity/bank/bni-27dfb6":{"name":"BNI","locationSet":{"include":["au","ca","gb","hk","id","jp","kr","mm","sg","us"]},"geometry":["point","area"],"matchScore":2,"terms":["bank bni","bank negara indonesia","bni"],"tags":{"amenity":"bank","brand:wikidata":"Q2882611"},"addTags":{"amenity":"bank","brand":"BNI","brand:wikidata":"Q2882611","name":"BNI","official_name":"Bank Negara Indonesia"}},"amenity/bank/bri-aa7852":{"name":"BRI","locationSet":{"include":["id"]},"geometry":["point","area"],"matchScore":2,"terms":["bank bri","bank rakyat indonesia","bri"],"tags":{"amenity":"bank","brand:wikidata":"Q623042"},"addTags":{"amenity":"bank","brand":"BRI","brand:wikidata":"Q623042","name":"BRI","official_name":"Bank Rakyat Indonesia"}},"amenity/bank/btn-aa7852":{"name":"BTN","locationSet":{"include":["id"]},"geometry":["point","area"],"matchScore":2,"terms":["bank tabungan negara","btn"],"tags":{"amenity":"bank","brand:wikidata":"Q12474534"},"addTags":{"amenity":"bank","brand":"BTN","brand:en":"BTN","brand:id":"BTN","brand:wikidata":"Q12474534","name":"BTN","official_name":"Bank Tabungan Negara"}},"amenity/bank/cimbniaga-aa7852":{"name":"CIMB Niaga","locationSet":{"include":["id"]},"geometry":["point","area"],"matchScore":2,"terms":["cimb niaga"],"tags":{"amenity":"bank","brand:wikidata":"Q5011747"},"addTags":{"amenity":"bank","brand":"CIMB Niaga","brand:wikidata":"Q5011747","name":"CIMB Niaga"}},"amenity/bank/paninbank-aa7852":{"name":"Panin Bank","locationSet":{"include":["id"]},"geometry":["point","area"],"matchScore":2,"terms":["panin bank"],"tags":{"amenity":"bank","brand:wikidata":"Q12502751"},"addTags":{"amenity":"bank","brand":"Panin Bank","brand:wikidata":"Q12502751","name":"Panin Bank"}},"amenity/bank/rabobank-c61987":{"name":"Rabobank","locationSet":{"include":["au","id","nl","nz","us"]},"geometry":["point","area"],"matchScore":2,"terms":["rabobank"],"tags":{"amenity":"bank","brand:wikidata":"Q252004"},"addTags":{"amenity":"bank","brand":"Rabobank","brand:wikidata":"Q252004","name":"Rabobank"}},"amenity/bank/uob-dadccc":{"name":"UOB","locationSet":{"include":["au","bn","ca","cn","gb","hk","id","in","jp","kr","mm","my","ph","sg","th","us","vn"]},"geometry":["point","area"],"matchScore":2,"terms":["united overseas bank","uob","大华银行"],"tags":{"amenity":"bank","brand:wikidata":"Q2064074"},"addTags":{"amenity":"bank","brand":"UOB","brand:wikidata":"Q2064074","brand:zh":"大华银行","name":"UOB","name:zh":"大华银行"}},"amenity/bicycle_rental/boseh-2db6d2":{"name":"Boseh","locationSet":{"include":["id"]},"geometry":["point","vertex","area"],"matchScore":2,"terms":["boseh"],"fields":["name","brand","{amenity/bicycle_rental}"],"tags":{"amenity":"bicycle_rental","brand:wikidata":"Q56392276"},"addTags":{"amenity":"bicycle_rental","brand":"Boseh","brand:wikidata":"Q56392276","name":"Boseh","network":"Boseh","network:wikidata":"Q56392276","operator":"Boseh","operator:wikidata":"Q56392276"}},"amenity/cafe/coffee_shop/flashcoffee-a38c5d":{"name":"Flash Coffee","locationSet":{"include":["hk","id","jp","kr","my","sg","th"]},"geometry":["point","area"],"matchScore":2,"terms":["flash coffee"],"reference":{"key":"cuisine","value":"coffee_shop"},"tags":{"amenity":"cafe","brand:wikidata":"Q118627777","cuisine":"coffee_shop"},"addTags":{"amenity":"cafe","brand":"Flash Coffee","brand:wikidata":"Q118627777","cuisine":"coffee_shop","name":"Flash Coffee","takeaway":"yes"}},"amenity/cafe/bubble_tea/haus-4ccab9":{"name":"Haus!","locationSet":{"include":["id"]},"geometry":["point","area"],"matchScore":2,"terms":["haus!"],"reference":{"key":"cuisine","value":"bubble_tea"},"tags":{"amenity":"cafe","brand:wikidata":"Q114824757","cuisine":"bubble_tea"},"addTags":{"amenity":"cafe","brand":"Haus!","brand:wikidata":"Q114824757","cuisine":"bubble_tea","name":"Haus!","takeaway":"yes"}},"amenity/cafe/coffee_shop/kopikenangan-4ccab9":{"name":"Kopi Kenangan","locationSet":{"include":["id"]},"geometry":["point","area"],"matchScore":2,"terms":["kopi kenangan"],"reference":{"key":"cuisine","value":"coffee_shop"},"tags":{"amenity":"cafe","brand:wikidata":"Q97221992","cuisine":"coffee_shop"},"addTags":{"amenity":"cafe","brand":"Kopi Kenangan","brand:wikidata":"Q97221992","cuisine":"coffee_shop","diet:halal":"only","name":"Kopi Kenangan","takeaway":"yes"}},"amenity/cafe/coffee_shop/michelspatisserie-d7a541":{"name":"Michel's Patisserie","locationSet":{"include":["au","cn","id","nz"]},"geometry":["point","area"],"matchScore":2,"terms":["michel's patisserie"],"reference":{"key":"cuisine","value":"coffee_shop"},"tags":{"amenity":"cafe","brand:wikidata":"Q6836235","cuisine":"coffee_shop"},"addTags":{"amenity":"cafe","brand":"Michel's Patisserie","brand:wikidata":"Q6836235","cuisine":"coffee_shop","name":"Michel's Patisserie","takeaway":"yes"}},"amenity/cafe/bubble_tea/sharetea-a284fa":{"name":"Sharetea","locationSet":{"include":["au","ca","cz","id","my","ph","sg","us"]},"geometry":["point","area"],"matchScore":2,"terms":["sharetea","歇腳亭"],"reference":{"key":"cuisine","value":"bubble_tea"},"tags":{"amenity":"cafe","brand:wikidata":"Q64827032","cuisine":"bubble_tea"},"addTags":{"amenity":"cafe","brand":"Sharetea","brand:wikidata":"Q64827032","cuisine":"bubble_tea","name":"Sharetea","name:en":"Sharetea","name:zh":"歇腳亭","takeaway":"yes"}},"amenity/cafe/coffee_shop/tobysestate-5dc2d4":{"name":"Toby's Estate","locationSet":{"include":["au","id","kw","ph","sg"]},"geometry":["point","area"],"matchScore":2,"terms":["toby's estate"],"reference":{"key":"cuisine","value":"coffee_shop"},"tags":{"amenity":"cafe","brand:wikidata":"Q117006060","cuisine":"coffee_shop"},"addTags":{"amenity":"cafe","brand":"Toby's Estate","brand:wikidata":"Q117006060","cuisine":"coffee_shop","name":"Toby's Estate","takeaway":"yes"}},"amenity/cinema/cinemaxx-ee9238":{"name":"Cinemaxx (Indonesia)","locationSet":{"include":["id"]},"geometry":["point","area"],"matchScore":2,"terms":["cinemaxx"],"fields":["name","brand","{amenity/cinema}"],"tags":{"amenity":"cinema","brand:wikidata":"Q19942740"},"addTags":{"amenity":"cinema","brand":"Cinemaxx","brand:wikidata":"Q19942740","name":"Cinemaxx"}},"amenity/college/saeinstitute-7a11fb":{"name":"SAE Institute","locationSet":{"include":["ae","at","au","be","ca","ch","de","es","fr","gb","gr","id","it","jo","mx","nl","nz","rs","us","za"]},"geometry":["area","point"],"matchScore":2,"terms":["sae institute"],"fields":["name","brand","{amenity/college}"],"tags":{"amenity":"college","brand:wikidata":"Q201438"},"addTags":{"amenity":"college","brand":"SAE Institute","brand:wikidata":"Q201438","name":"SAE Institute"}},"amenity/fast_food/chicken/4fingerscrispychicken-aadea7":{"name":"4Fingers Crispy Chicken","locationSet":{"include":["id","my","sg"]},"geometry":["point","area"],"matchScore":2,"terms":["4fingers crispy chicken"],"reference":{"key":"cuisine","value":"chicken"},"tags":{"amenity":"fast_food","brand:wikidata":"Q23043391","cuisine":"chicken"},"addTags":{"amenity":"fast_food","brand":"4Fingers Crispy Chicken","brand:wikidata":"Q23043391","cuisine":"chicken","name":"4Fingers Crispy Chicken","takeaway":"yes"}},"amenity/fast_food/chicken/chigoxflip-034122":{"name":"Chigo x Flip","locationSet":{"include":["id"]},"geometry":["point","area"],"matchScore":2,"terms":["chigo x flip"],"reference":{"key":"cuisine","value":"chicken"},"tags":{"amenity":"fast_food","brand:wikidata":"Q118515768","cuisine":"chicken"},"addTags":{"amenity":"fast_food","brand":"Chigo x Flip","brand:wikidata":"Q118515768","cuisine":"chicken","diet:halal":"only","name":"Chigo x Flip","takeaway":"yes"}},"amenity/fast_food/hokben-034122":{"name":"HokBen","locationSet":{"include":["id"]},"geometry":["point","area"],"matchScore":2,"terms":["hoka hoka bento","hokben"],"tags":{"amenity":"fast_food","brand:wikidata":"Q5877948"},"addTags":{"alt_name":"Hoka Hoka Bento","amenity":"fast_food","brand":"HokBen","brand:wikidata":"Q5877948","cuisine":"japanese","name":"HokBen","takeaway":"yes"}},"amenity/fast_food/marugameudon-a3c3a3":{"name":"Marugame Udon","locationSet":{"include":["gb","id","kh","ph","ru","us","vn"]},"geometry":["point","area"],"matchScore":2,"terms":["marugame seimen"],"tags":{"amenity":"fast_food","brand:wikidata":"Q10877253"},"addTags":{"alt_name":"Marugame Seimen","amenity":"fast_food","brand":"Marugame Seimen","brand:wikidata":"Q10877253","cuisine":"noodle","name":"Marugame Udon","takeaway":"yes"}},"amenity/fast_food/secretrecipe-541408":{"name":"Secret Recipe","locationSet":{"include":["bd","bn","cn","id","kh","mm","mv","my","sg","th"]},"geometry":["point","area"],"matchScore":2,"terms":["secret recipe"],"tags":{"amenity":"fast_food","brand:wikidata":"Q7444079"},"addTags":{"amenity":"fast_food","brand":"Secret Recipe","brand:wikidata":"Q7444079","cuisine":"cake;malaysian","name":"Secret Recipe","takeaway":"yes"}},"amenity/fast_food/wings/wingstop-72c67c":{"name":"Wingstop","locationSet":{"include":["ae","ca","es","fx","gb","id","mx","sg","us"]},"geometry":["point","area"],"matchScore":2,"terms":["wingstop"],"reference":{"key":"cuisine","value":"wings"},"tags":{"amenity":"fast_food","brand:wikidata":"Q8025339","cuisine":"wings"},"addTags":{"amenity":"fast_food","brand":"Wingstop","brand:wikidata":"Q8025339","cuisine":"wings","name":"Wingstop","takeaway":"yes"}},"amenity/fast_food/yoshinoya-ffe475":{"name":"Yoshinoya","locationSet":{"include":["id","my","ph","sg","us"]},"geometry":["point","area"],"matchScore":2,"terms":["yoshinoya","吉野家"],"tags":{"amenity":"fast_food","brand:wikidata":"Q776272"},"addTags":{"amenity":"fast_food","brand":"Yoshinoya","brand:en":"Yoshinoya","brand:wikidata":"Q776272","cuisine":"beef_bowl","name":"Yoshinoya","name:en":"Yoshinoya","name:ja":"吉野家","takeaway":"yes"}},"amenity/fast_food/sakaesushi-1ef1da":{"name":"栄寿司","locationSet":{"include":["cn","id","my","pi","sg","th"]},"geometry":["point","area"],"matchScore":2,"terms":["sakae sushi","栄寿司"],"tags":{"amenity":"fast_food","brand:wikidata":"Q14955169"},"addTags":{"amenity":"fast_food","brand":"栄寿司","brand:en":"Sakae Sushi","brand:ja":"栄寿司","brand:wikidata":"Q14955169","cuisine":"japanese","name":"栄寿司","name:en":"Sakae Sushi","name:ja":"栄寿司","takeaway":"yes"}},"amenity/fuel/caltex-a02c05":{"name":"Caltex","locationSet":{"include":["ae","au","eg","hk","id","kh","kr","lk","my","nz","ph","pk","sa","sg","th","vn","za"]},"geometry":["point","area"],"matchScore":2,"terms":["caltex"],"fields":["name","brand","{amenity/fuel}"],"tags":{"amenity":"fuel","brand:wikidata":"Q277470"},"addTags":{"amenity":"fuel","brand":"Caltex","brand:wikidata":"Q277470","name":"Caltex"}},"amenity/fuel/pertamina-d2ad30":{"name":"Pertamina","locationSet":{"include":["id"]},"geometry":["point","area"],"matchScore":2,"terms":["pertamina"],"fields":["name","brand","{amenity/fuel}"],"tags":{"amenity":"fuel","brand:wikidata":"Q1641044"},"addTags":{"amenity":"fuel","brand":"Pertamina","brand:wikidata":"Q1641044","name":"Pertamina"}},"amenity/ice_cream/grom-48073a":{"name":"Grom","locationSet":{"include":["cn","cz","fr","gb","id","it","pt"]},"geometry":["point","area"],"matchScore":2,"terms":["grom","grom gelaterie artigianali","grom gelato"],"tags":{"amenity":"ice_cream","brand:wikidata":"Q3776892"},"addTags":{"amenity":"ice_cream","brand":"Grom","brand:wikidata":"Q3776892","cuisine":"ice_cream","name":"Grom","takeaway":"yes"}},"amenity/ice_cream/frozen_yogurt/llaollao-dd9462":{"name":"Llaollao","locationSet":{"include":["au","ch","cl","co","ec","es","fr","gt","hr","id","iq","kw","ma","my","ph","pt","sa","sg","si","sv","us","vn"]},"geometry":["point","area"],"matchScore":2,"terms":["llaollao"],"reference":{"key":"cuisine","value":"frozen_yogurt"},"tags":{"amenity":"ice_cream","brand:wikidata":"Q12163048","cuisine":"frozen_yogurt"},"addTags":{"amenity":"ice_cream","brand":"Llaollao","brand:wikidata":"Q12163048","cuisine":"frozen_yogurt","name":"Llaollao"}},"amenity/language_school/shaneenglishschool-f8b177":{"name":"Shane English School","locationSet":{"include":["dz","gb","hk","id","kr","pl","th","vn"]},"geometry":["point","area"],"matchScore":2,"terms":["shane english school","シェーン英会話"],"fields":["name","brand","{amenity/language_school}"],"tags":{"amenity":"language_school","brand:wikidata":"Q17054332"},"addTags":{"amenity":"language_school","brand":"Shane English School","brand:en":"Shane English School","brand:ja":"シェーン英会話","brand:ja-Latn":"Shēn Eikaiwa","brand:wikidata":"Q17054332","language:en":"main","name":"Shane English School","name:en":"Shane English School","name:ja":"シェーン英会話","name:ja-Latn":"Shēn Eikaiwa"}},"amenity/pharmacy/guardian-c3738d":{"name":"Guardian (Asia)","locationSet":{"include":["bn","id","kh","my","sg","vn"]},"geometry":["point","area"],"matchScore":2,"terms":["guardian"],"reference":{"key":"amenity","value":"pharmacy"},"tags":{"amenity":"pharmacy","brand:wikidata":"Q63371124"},"addTags":{"amenity":"pharmacy","brand":"Guardian","brand:wikidata":"Q63371124","healthcare":"pharmacy","name":"Guardian"}},"amenity/pharmacy/kimiafarma-5c6039":{"name":"Kimia Farma","locationSet":{"include":["id"]},"geometry":["point","area"],"matchScore":2,"terms":["apotek kimia farma","kimia farma"],"reference":{"key":"amenity","value":"pharmacy"},"tags":{"amenity":"pharmacy","brand:wikidata":"Q11264892"},"addTags":{"amenity":"pharmacy","brand":"Kimia Farma","brand:wikidata":"Q11264892","healthcare":"pharmacy","name":"Kimia Farma"}},"amenity/restaurant/japanese/benihana-934c20":{"name":"Benihana","locationSet":{"include":["aw","br","ca","eg","gb","id","kw","lb","mx","pa","qa","ro","sa","sv","us"]},"geometry":["point","area"],"matchScore":2,"terms":["benihana","benihana of tokyo"],"reference":{"key":"cuisine","value":"japanese"},"tags":{"amenity":"restaurant","brand:wikidata":"Q4887996","cuisine":"japanese;teppanyaki;steak"},"addTags":{"amenity":"restaurant","brand":"Benihana","brand:wikidata":"Q4887996","cuisine":"japanese;teppanyaki;steak","name":"Benihana"}},"amenity/restaurant/seafood/bubbagumpshrimpcompany-90d54f":{"name":"Bubba Gump Shrimp Company","locationSet":{"include":["ca","co","gb","hk","id","jp","mp","mx","ph","us"]},"geometry":["point","area"],"matchScore":2,"terms":["bubba gump shrimp company"],"reference":{"key":"cuisine","value":"seafood"},"tags":{"amenity":"restaurant","brand:wikidata":"Q50024","cuisine":"seafood"},"addTags":{"amenity":"restaurant","brand":"Bubba Gump Shrimp Company","brand:wikidata":"Q50024","cuisine":"seafood","name":"Bubba Gump Shrimp Company"}},"amenity/restaurant/cfc-25c4a5":{"name":"California Fried Chicken","locationSet":{"include":["id"]},"geometry":["point","area"],"matchScore":2,"terms":["california fried chicken"],"tags":{"amenity":"restaurant","brand:wikidata":"Q5020502"},"addTags":{"amenity":"restaurant","brand":"California Fried Chicken","brand:wikidata":"Q5020502","cuisine":"chicken","name":"CFC"}},"amenity/restaurant/japanese/cocoichibanya-365649":{"name":"CoCo Ichibanya","locationSet":{"include":["cn","gb","hk","id","in","kr","ph","sg","th","tw","us","vn"]},"geometry":["point","area"],"matchScore":2,"terms":["coco ichibanya","coco壱番屋"],"reference":{"key":"cuisine","value":"japanese"},"tags":{"amenity":"restaurant","brand:wikidata":"Q5986105","cuisine":"japanese"},"addTags":{"amenity":"restaurant","brand":"CoCo Ichibanya","brand:en":"CoCo Ichibanya","brand:ja":"CoCo壱番屋","brand:wikidata":"Q5986105","cuisine":"japanese","name":"CoCo Ichibanya","name:en":"CoCo Ichibanya","name:ja":"CoCo壱番屋","takeaway":"yes"}},"amenity/restaurant/dintaifung-4a64f1":{"name":"Din Tai Fung","locationSet":{"include":["ae","au","gb","id","jp","kr","mo","my","ph","sg","th","us"]},"geometry":["point","area"],"matchScore":2,"terms":["din tai fung","鼎泰豐"],"tags":{"amenity":"restaurant","brand:wikidata":"Q699142"},"addTags":{"amenity":"restaurant","brand":"Din Tai Fung","brand:en":"Din Tai Fung","brand:wikidata":"Q699142","brand:zh":"鼎泰豐","cuisine":"taiwanese","name":"Din Tai Fung","name:en":"Din Tai Fung","name:zh":"鼎泰豐"}},"amenity/restaurant/ramen/ippudo-b715b9":{"name":"Ippudo","locationSet":{"include":["au","fx","gb","id","mm","my","nz","ph","sg","us","vn"]},"geometry":["point","area"],"matchScore":2,"terms":["ippudo","一風堂"],"reference":{"key":"cuisine","value":"ramen"},"tags":{"amenity":"restaurant","brand:wikidata":"Q6065417","cuisine":"ramen"},"addTags":{"amenity":"restaurant","brand":"Ippudo","brand:en":"Ippudo","brand:ja":"一風堂","brand:wikidata":"Q6065417","cuisine":"ramen","name":"Ippudo","name:en":"Ippudo","name:ja":"一風堂"}},"amenity/restaurant/vietnamese/phohoa-13c988":{"name":"Phở Hòa","locationSet":{"include":["ca","id","kr","ms","ph","us"]},"geometry":["point","area"],"matchScore":2,"terms":["pho hoa","phở hoà","phở hòa"],"reference":{"key":"cuisine","value":"vietnamese"},"tags":{"amenity":"restaurant","brand:wikidata":"Q55629932","cuisine":"vietnamese;noodle"},"addTags":{"alt_name":"Phở Hoà","alt_name:en":"Pho Hoa","alt_name:vi":"Phở Hoà","amenity":"restaurant","brand":"Phở Hòa","brand:wikidata":"Q55629932","cuisine":"vietnamese;noodle","name":"Phở Hòa","name:vi":"Phở Hòa"}},"amenity/restaurant/pizza/pizzaexpress-ebbd3d":{"name":"PizzaExpress","locationSet":{"include":["ae","cy","es","gb","hk","id","ie","in","kw","mo","ph","sg"]},"geometry":["point","area"],"matchScore":2,"terms":["pizzaexpress"],"reference":{"key":"cuisine","value":"pizza"},"tags":{"amenity":"restaurant","brand:wikidata":"Q662845","cuisine":"pizza"},"addTags":{"amenity":"restaurant","brand":"PizzaExpress","brand:wikidata":"Q662845","cuisine":"pizza","name":"PizzaExpress"}},"leisure/amusement_arcade/timezone-bbc11e":{"name":"Timezone","locationSet":{"include":["au","id","in","nz","ph","sg","vn"]},"geometry":["point","area"],"matchScore":2,"terms":["timezone"],"tags":{"brand:wikidata":"Q12521502","leisure":"amusement_arcade"},"addTags":{"brand":"Timezone","brand:wikidata":"Q12521502","leisure":"amusement_arcade","name":"Timezone"}},"leisure/fitness_centre/celebrityfitness-412a8d":{"name":"Celebrity Fitness","locationSet":{"include":["id","my","ph","sg","th"]},"geometry":["point","area"],"matchScore":2,"terms":["celebrity fitness"],"tags":{"brand:wikidata":"Q5057734","leisure":"fitness_centre"},"addTags":{"brand":"Celebrity Fitness","brand:wikidata":"Q5057734","leisure":"fitness_centre","name":"Celebrity Fitness"}},"leisure/fitness_centre/snapfitness-551086":{"name":"Snap Fitness","locationSet":{"include":["ae","au","be","ca","es","gb","hk","id","ie","jp","mx","nl","nz","ph","tr","tw","us"]},"geometry":["point","area"],"matchScore":2,"terms":["snap fitness"],"tags":{"brand:wikidata":"Q7547254","leisure":"fitness_centre"},"addTags":{"brand":"Snap Fitness","brand:wikidata":"Q7547254","leisure":"fitness_centre","name":"Snap Fitness"}},"leisure/playground/lollipopsplayland-a3623b":{"name":"Lollipops Playland","locationSet":{"include":["au","id","nz"]},"geometry":["area","point"],"matchScore":2,"terms":["lollipops playland"],"tags":{"brand:wikidata":"Q116825053","leisure":"playground"},"addTags":{"access":"customers","brand":"Lollipops Playland","brand:wikidata":"Q116825053","leisure":"playground","name":"Lollipops Playland"}},"office/insurance/allianz-332499":{"name":"Allianz","locationSet":{"include":["ae","ar","at","au","be","bg","bh","bm","bn","br","ca","cg","ch","ci","cm","cn","co","cy","cz","de","dk","ee","eg","es","fi","fr","gb","gf","gg","gh","gp","gr","hk","hr","hu","id","ie","in","is","it","ja","ke","kr","kw","la","li","lk","lt","lu","lv","ma","mg","mx","my","ng","nl","no","nz","om","ph","pk","pl","pt","qa","ro","ru","sa","se","sg","si","sk","sn","th","tr","tw","ua","us","za"]},"geometry":["point","area"],"matchScore":2,"terms":["allianz","allianz versicherung"],"fields":["name","brand","{office/insurance}"],"tags":{"brand:wikidata":"Q487292","office":"insurance"},"addTags":{"brand":"Allianz","brand:wikidata":"Q487292","name":"Allianz","office":"insurance"}},"office/insurance/axa-2e7672":{"name":"AXA","locationSet":{"include":["ae","ar","au","be","bh","bm","br","ca","ch","ci","cl","cm","cn","co","cz","de","dk","dz","eg","es","fi","fr","ga","gb","gr","hk","id","ie","in","it","jp","kr","lb","lu","ma","mu","mx","my","ng","nl","no","om","pa","pe","ph","pl","pt","qa","sa","se","sg","sk","sn","th","tr","tw","us"]},"geometry":["point","area"],"matchScore":2,"terms":["axa"],"fields":["name","brand","{office/insurance}"],"tags":{"brand:wikidata":"Q160054","office":"insurance"},"addTags":{"brand":"AXA","brand:wikidata":"Q160054","name":"AXA","office":"insurance"}},"office/insurance/generali-cb13d1":{"name":"Generali","locationSet":{"include":["ar","at","bg","br","ch","cl","cn","cz","de","es","fr","gr","hr","hu","id","in","it","me","my","ph","pl","pt","ro","rs","si","sk","tr","vn"]},"geometry":["point","area"],"matchScore":2,"terms":["generali","generali españa"],"fields":["name","brand","{office/insurance}"],"tags":{"brand:wikidata":"Q670482","office":"insurance"},"addTags":{"brand":"Generali","brand:wikidata":"Q670482","name":"Generali","office":"insurance"}},"office/insurance/zurich-2d6c95":{"name":"Zurich","locationSet":{"include":["ae","at","au","be","bh","br","ca","ch","cl","cn","co","de","ec","es","fi","fr","gb","hk","id","ie","it","ja","kw","lb","li","lu","mx","my","nl","no","nz","om","pt","qa","se","sg","sk","tr","us"]},"geometry":["point","area"],"matchScore":2,"terms":["zurich"],"fields":["name","brand","{office/insurance}"],"tags":{"brand:wikidata":"Q230426","office":"insurance"},"addTags":{"brand":"Zurich","brand:wikidata":"Q230426","name":"Zurich","office":"insurance"}},"office/telecommunication/indosatooredoo-89d943":{"name":"Indosat Ooredoo","locationSet":{"include":["id"]},"geometry":["point","area"],"matchScore":2,"terms":["indosat","indosat ooredoo"],"tags":{"brand:wikidata":"Q2393592","office":"telecommunication"},"addTags":{"alt_name":"Indosat","brand":"Indosat Ooredoo","brand:wikidata":"Q2393592","name":"Indosat Ooredoo","office":"telecommunication"}},"office/telecommunication/telkomsel-89d943":{"name":"Telkomsel","locationSet":{"include":["id"]},"geometry":["point","area"],"matchScore":2,"terms":["telkomsel"],"tags":{"brand:wikidata":"Q1786124","office":"telecommunication"},"addTags":{"brand":"Telkomsel","brand:wikidata":"Q1786124","name":"Telkomsel","office":"telecommunication"}},"office/telecommunication/xlaxiata-89d943":{"name":"XL Axiata","locationSet":{"include":["id"]},"geometry":["point","area"],"matchScore":2,"terms":["xl","xl axiata"],"tags":{"brand:wikidata":"Q3482752","office":"telecommunication"},"addTags":{"alt_name":"XL","brand":"XL Axiata","brand:wikidata":"Q3482752","name":"XL Axiata","office":"telecommunication"}},"shop/bakery/paul-652955":{"name":"Paul","locationSet":{"include":["ae","az","be","bh","by","ci","cy","cz","eg","es","fr","ga","gb","ge","gr","id","in","jo","jp","kw","kz","lb","lu","ma","mu","my","om","pa","ph","pl","pt","qa","ro","ru","sa","sg","th","tn","tw","ua","us","uz","vn","za"]},"geometry":["point","area"],"matchScore":2,"terms":["paul"],"tags":{"brand:wikidata":"Q3370417","shop":"bakery"},"addTags":{"brand":"Paul","brand:wikidata":"Q3370417","name":"Paul","shop":"bakery"}},"shop/bakery/rotio-a78b8f":{"name":"Roti'O","locationSet":{"include":["id"]},"geometry":["point","area"],"matchScore":2,"terms":["roti'o"],"tags":{"brand:wikidata":"Q124354233","shop":"bakery"},"addTags":{"brand":"Roti'O","brand:wikidata":"Q124354233","name":"Roti'O","shop":"bakery"}},"shop/bakery/touslesjours-e39ddb":{"name":"Tous les Jours","locationSet":{"include":["id","kh","my","ph","us","vn"]},"geometry":["point","area"],"matchScore":2,"terms":["tous les jours"],"tags":{"brand:wikidata":"Q3535609","shop":"bakery"},"addTags":{"brand":"Tous les Jours","brand:wikidata":"Q3535609","name":"Tous les Jours","shop":"bakery"}},"shop/books/gramedia-828c8f":{"name":"Gramedia","locationSet":{"include":["id"]},"geometry":["point","area"],"matchScore":2,"terms":["gramedia"],"tags":{"brand:wikidata":"Q19646130","shop":"books"},"addTags":{"brand":"Gramedia","brand:wikidata":"Q19646130","name":"Gramedia","shop":"books"}},"shop/car/proton-576082":{"name":"Proton","locationSet":{"include":["cl","eg","id","my","sg","th"]},"geometry":["point","area"],"matchScore":2,"terms":["proton"],"fields":["name","brand","{shop/car}"],"tags":{"brand:wikidata":"Q827306","shop":"car"},"addTags":{"brand":"Proton","brand:wikidata":"Q827306","name":"Proton","shop":"car"}},"shop/convenience/alfaexpress-bb8a09":{"name":"Alfa Express","locationSet":{"include":["id"]},"geometry":["point","area"],"matchScore":2,"terms":["alfa express"],"tags":{"brand:wikidata":"Q12471463","shop":"convenience"},"addTags":{"brand":"Alfa Express","brand:wikidata":"Q12471463","name":"Alfa Express","shop":"convenience"}},"shop/convenience/alfamart-28d321":{"name":"Alfamart","locationSet":{"include":["id","ph"]},"geometry":["point","area"],"matchScore":2,"terms":["alfamart"],"tags":{"brand:wikidata":"Q23745600","shop":"convenience"},"addTags":{"brand":"Alfamart","brand:wikidata":"Q23745600","name":"Alfamart","shop":"convenience"}},"shop/convenience/alfamidi-bb8a09":{"name":"Alfamidi","locationSet":{"include":["id"]},"geometry":["point","area"],"matchScore":2,"terms":["alfamidi"],"tags":{"brand:wikidata":"Q12471462","shop":"convenience"},"addTags":{"brand":"Alfamidi","brand:wikidata":"Q12471462","name":"Alfamidi","shop":"convenience"}},"shop/convenience/familymart-095323":{"name":"FamilyMart","locationSet":{"include":["id","my","ph","th","vn"]},"geometry":["point","area"],"matchScore":2,"terms":["familymart"],"tags":{"brand:wikidata":"Q1191685","shop":"convenience"},"addTags":{"brand":"FamilyMart","brand:wikidata":"Q1191685","name":"FamilyMart","shop":"convenience"}},"shop/convenience/indomaret-bb8a09":{"name":"Indomaret","locationSet":{"include":["id"]},"geometry":["point","area"],"matchScore":2,"terms":["indomaret","indomart"],"tags":{"brand:wikidata":"Q4262825","shop":"convenience"},"addTags":{"brand":"Indomaret","brand:wikidata":"Q4262825","name":"Indomaret","shop":"convenience"}},"shop/department_store/centraldepartmentstore-10be9f":{"name":"Central Department Store","locationSet":{"include":["id","th"]},"geometry":["point","area"],"matchScore":2,"terms":["central department store","สรรพสินค้าเซ็นทรัล","尚泰"],"tags":{"brand:wikidata":"Q5060703","shop":"department_store"},"addTags":{"brand":"Central Department Store","brand:en":"Central Department Store","brand:th":"สรรพสินค้าเซ็นทรัล","brand:wikidata":"Q5060703","brand:zh":"尚泰","shop":"department_store"}},"shop/department_store/galerieslafayette-b7f45a":{"name":"Galeries Lafayette","locationSet":{"include":["ae","cn","de","fr","id","lu","qa","tr"]},"geometry":["point","area"],"matchScore":2,"terms":["galeries lafayette"],"tags":{"brand:wikidata":"Q3094686","shop":"department_store"},"addTags":{"brand":"Galeries Lafayette","brand:wikidata":"Q3094686","name":"Galeries Lafayette","shop":"department_store"}},"shop/department_store/lottedepartmentstore-256de8":{"name":"Lotte Department Store","locationSet":{"include":["cn","id","kr","ru","vn"]},"geometry":["point","area"],"matchScore":2,"terms":["lotte","lotte department store"],"tags":{"brand:wikidata":"Q489905","shop":"department_store"},"addTags":{"brand":"Lotte Department Store","brand:wikidata":"Q489905","name":"Lotte Department Store","shop":"department_store"}},"shop/department_store/parkson-6dcedc":{"name":"Parkson","locationSet":{"include":["id","la","mm","my","vn"]},"geometry":["point","area"],"matchScore":2,"terms":["parkson","百盛"],"tags":{"brand:wikidata":"Q835145","shop":"department_store"},"addTags":{"brand":"Parkson","brand:en":"Parkson","brand:wikidata":"Q835145","brand:zh":"百盛","name":"Parkson","name:en":"Parkson","name:zh":"百盛","shop":"department_store"}},"shop/doityourself/mrdiy-85e32f":{"name":"MR.DIY","locationSet":{"include":["bn","id","in","kn","my","ph","sg","th"]},"geometry":["point","area"],"matchScore":2,"terms":["mr.diy"],"tags":{"brand:wikidata":"Q105044323","shop":"doityourself"},"addTags":{"brand":"MR.DIY","brand:wikidata":"Q105044323","name":"MR.DIY","shop":"doityourself"}},"shop/outdoor/eiger-19c913":{"name":"Eiger","locationSet":{"include":["id"]},"geometry":["point","area"],"matchScore":2,"terms":["eiger"],"tags":{"brand:wikidata":"Q25471361","shop":"outdoor"},"addTags":{"brand":"Eiger","brand:wikidata":"Q25471361","name":"Eiger","shop":"outdoor"}},"shop/outdoor/rei-72e82e":{"name":"REI","locationSet":{"include":["id","us"]},"geometry":["point","area"],"matchScore":2,"terms":["recreational equipment, inc.","rei"],"tags":{"brand:wikidata":"Q3414933","shop":"outdoor"},"addTags":{"brand":"REI","brand:wikidata":"Q3414933","name":"REI","official_name":"Recreational Equipment, Inc.","shop":"outdoor"}},"shop/pawnbroker/pegadaian-cd799d":{"name":"Pegadaian","locationSet":{"include":["id"]},"geometry":["point","area"],"matchScore":2,"terms":["pegadaian"],"tags":{"brand:wikidata":"Q7160531","shop":"pawnbroker"},"addTags":{"brand":"Pegadaian","brand:wikidata":"Q7160531","name":"Pegadaian","shop":"pawnbroker"}},"shop/shoes/drkong-2bd793":{"name":"Dr. Kong","locationSet":{"include":["az","bn","bu","cn","es","id","mn","my","ph","sg","th","uz"]},"geometry":["point","area"],"matchScore":2,"terms":["dr. kong","江博士"],"tags":{"brand:wikidata":"Q116547631","shop":"shoes"},"addTags":{"brand":"Dr. Kong","brand:wikidata":"Q116547631","name":"Dr. Kong","name:en":"Dr. Kong","shop":"shoes"}},"shop/shoes/stuartweitzman-54b0d5":{"name":"Stuart Weitzman","locationSet":{"include":["ca","ch","de","fr","gb","id","nl","us"]},"geometry":["point","area"],"matchScore":2,"terms":["stuart weitzman"],"tags":{"brand:wikidata":"Q75244763","shop":"shoes"},"addTags":{"brand":"Stuart Weitzman","brand:wikidata":"Q75244763","name":"Stuart Weitzman","shop":"shoes"}},"shop/sports/areioutdoorgear-f9c896":{"name":"Arei Outdoor Gear","locationSet":{"include":["id"]},"geometry":["point","area"],"matchScore":2,"terms":["arei outdoor gear"],"tags":{"brand:wikidata":"Q114343299","shop":"sports"},"addTags":{"brand":"Arei Outdoor Gear","brand:wikidata":"Q114343299","name":"Arei Outdoor Gear","shop":"sports"}},"shop/supermarket/gianthypermarket-e1160b":{"name":"Giant Hypermarket","locationSet":{"include":["id","my","sg","vn"]},"geometry":["point","area"],"matchScore":2,"terms":["giant hypermarket"],"tags":{"brand:wikidata":"Q4217013","shop":"supermarket"},"addTags":{"brand":"Giant Hypermarket","brand:wikidata":"Q4217013","name":"Giant Hypermarket","shop":"supermarket"}},"shop/supermarket/herosupermarket-9b33de":{"name":"Hero Supermarket","locationSet":{"include":["id"]},"geometry":["point","area"],"matchScore":2,"terms":["hero supermarket"],"tags":{"brand:wikidata":"Q12485604","shop":"supermarket"},"addTags":{"brand":"Hero Supermarket","brand:wikidata":"Q12485604","name":"Hero Supermarket","shop":"supermarket"}},"shop/supermarket/lottemart-1fa952":{"name":"Lotte Mart","locationSet":{"include":["id","kr"]},"geometry":["point","area"],"matchScore":2,"terms":["lotte mart"],"tags":{"brand:wikidata":"Q326715","shop":"supermarket"},"addTags":{"brand":"Lotte Mart","brand:wikidata":"Q326715","name":"Lotte Mart","shop":"supermarket"}},"shop/supermarket/luluhypermarket-7e55ed":{"name":"Lulu Hypermarket","locationSet":{"include":["ae","bh","eg","id","in","kw","my","om","qa"]},"geometry":["point","area"],"matchScore":2,"terms":["lulu hypermarket"],"tags":{"brand:wikidata":"Q6702930","shop":"supermarket"},"addTags":{"brand":"Lulu Hypermarket","brand:wikidata":"Q6702930","name":"Lulu Hypermarket","shop":"supermarket"}},"shop/supermarket/superindo-9b33de":{"name":"Super Indo","locationSet":{"include":["id"]},"geometry":["point","area"],"matchScore":2,"terms":["super indo"],"tags":{"brand:wikidata":"Q12518060","shop":"supermarket"},"addTags":{"brand":"Super Indo","brand:wikidata":"Q12518060","name":"Super Indo","shop":"supermarket"}},"shop/telecommunication/galeriindosat-ba2701":{"name":"Galeri Indosat","locationSet":{"include":["id"]},"geometry":["point","area"],"matchScore":2,"terms":["indosat","indosat ooredoo"],"tags":{"brand:wikidata":"Q2393592","shop":"telecommunication"},"addTags":{"brand":"Indosat","brand:wikidata":"Q2393592","name":"Galeri Indosat","shop":"telecommunication"}},"shop/telecommunication/galerismartfren-ba2701":{"name":"Galeri Smartfren","locationSet":{"include":["id"]},"geometry":["point","area"],"matchScore":2,"terms":["fren","smartfren"],"tags":{"brand:wikidata":"Q3476312","shop":"telecommunication"},"addTags":{"brand":"Smartfren","brand:wikidata":"Q3476312","name":"Galeri Smartfren","shop":"telecommunication"}},"shop/telecommunication/graparitelkomsel-ba2701":{"name":"GraPARI Telkomsel","locationSet":{"include":["id"]},"geometry":["point","area"],"matchScore":2,"terms":["grapari","telkomsel"],"tags":{"brand:wikidata":"Q1786124","shop":"telecommunication"},"addTags":{"brand":"Telkomsel","brand:wikidata":"Q1786124","name":"GraPARI Telkomsel","shop":"telecommunication"}},"shop/telecommunication/xlcenter-ba2701":{"name":"XL Center","locationSet":{"include":["id"]},"geometry":["point","area"],"matchScore":2,"terms":["xl axiata"],"tags":{"brand:wikidata":"Q3482752","shop":"telecommunication"},"addTags":{"brand":"XL Axiata","brand:wikidata":"Q3482752","name":"XL Center","shop":"telecommunication"}},"shop/tyres/tyreplus-99cc81":{"name":"Tyreplus","locationSet":{"include":["ae","au","bh","cn","id","kh","kw","my","om","ph","qa","ru","sa","sg","th","tw"]},"geometry":["point","area"],"matchScore":2,"terms":["tyreplus"],"tags":{"brand:wikidata":"Q110959120","shop":"tyres"},"addTags":{"brand":"Tyreplus","brand:wikidata":"Q110959120","name":"Tyreplus","shop":"tyres"}},"tourism/hotel/anantara-e8534c":{"name":"Anantara","locationSet":{"include":["ae","br","cn","es","fr","hu","id","ie","it","kh","mu","mv","my","mz","nl","om","pt","qa","sc","th","tn","vn","zm"]},"geometry":["point","area"],"matchScore":2,"terms":["anantara"],"fields":["name","brand","{tourism/hotel}"],"tags":{"brand:wikidata":"Q112671781","tourism":"hotel"},"addTags":{"brand":"Anantara","brand:wikidata":"Q112671781","name":"Anantara","tourism":"hotel"}},"tourism/hotel/avanihotelsandresorts-e9c192":{"name":"AVANI","locationSet":{"include":["ae","au","bw","id","kh","kr","la","lk","ls","my","mz","na","nz","om","pt","sc","th","vn","zm"]},"geometry":["point","area"],"matchScore":2,"terms":["avani hotels & resorts"],"fields":["name","brand","{tourism/hotel}"],"tags":{"brand:wikidata":"Q48989823","tourism":"hotel"},"addTags":{"brand":"Avani Hotels & Resorts","brand:wikidata":"Q48989823","name":"Avani Hotels & Resorts","tourism":"hotel"}},"tourism/hotel/bulgari-a1f85a":{"name":"Bulgari","locationSet":{"include":["ae","cn","fx","gb","id","it","jp","ru","us"]},"geometry":["point","area"],"matchScore":2,"terms":["bulgari"],"fields":["name","brand","{tourism/hotel}"],"tags":{"brand:wikidata":"Q752515","tourism":"hotel"},"addTags":{"brand":"Bulgari","brand:wikidata":"Q752515","name":"Bulgari","tourism":"hotel"}},"tourism/hotel/conrad-ee1a43":{"name":"Conrad Hotels & Resorts","locationSet":{"include":["ae","ca","cn","eg","gb","id","ie","in","jp","kr","mv","pf","ph","pt","sa","sg","th","tr","us"]},"geometry":["point","area"],"matchScore":2,"terms":["conrad"],"fields":["name","brand","{tourism/hotel}"],"tags":{"brand:wikidata":"Q855525","tourism":"hotel"},"addTags":{"brand":"Conrad","brand:wikidata":"Q855525","name":"Conrad","tourism":"hotel"}},"tourism/hotel/daysinn-a89235":{"name":"Days Inn","locationSet":{"include":["ca","ch","gb","id","in","kr","mx","my","ph","sg","sn","th","us"]},"geometry":["point","area"],"matchScore":2,"terms":["days inn","days inn by wyndham"],"fields":["name","brand","{tourism/hotel}"],"tags":{"brand:wikidata":"Q1047239","tourism":"hotel"},"addTags":{"brand":"Days Inn","brand:wikidata":"Q1047239","name":"Days Inn","tourism":"hotel"}},"tourism/hotel/element-6dd642":{"name":"Element by Westin","locationSet":{"include":["ae","au","ca","cn","id","my","nl","tz","us"]},"geometry":["point","area"],"matchScore":2,"terms":["element"],"fields":["name","brand","{tourism/hotel}"],"tags":{"brand:wikidata":"Q91948072","tourism":"hotel"},"addTags":{"brand":"Element","brand:wikidata":"Q91948072","name":"Element","tourism":"hotel"}},"tourism/hotel/fairfieldinn-b80dae":{"name":"Fairfield Inn","locationSet":{"include":["ca","cn","id","in","jp","kr","mx","my","sv","us"]},"geometry":["point","area"],"matchScore":2,"terms":["fairfield by marriott","fairfield inn"],"fields":["name","brand","{tourism/hotel}"],"tags":{"brand:wikidata":"Q5430314","tourism":"hotel"},"addTags":{"brand":"Fairfield Inn","brand:wikidata":"Q5430314","name":"Fairfield Inn","official_name":"Fairfield by Marriott","tourism":"hotel"}},"tourism/hotel/kyriad-e6de24":{"name":"Kyriad","locationSet":{"include":["at","cn","es","fr","id","ma","pl","qa"]},"geometry":["point","area"],"matchScore":2,"terms":["kyriad"],"fields":["name","brand","{tourism/hotel}"],"tags":{"brand:wikidata":"Q11751808","tourism":"hotel"},"addTags":{"brand":"Kyriad","brand:wikidata":"Q11751808","name":"Kyriad","tourism":"hotel"}},"tourism/hotel/marriottexecutiveapartments-b2f419":{"name":"Marriott Executive Apartments","locationSet":{"include":["ae","be","bh","br","cn","et","gb","hu","id","in","kr","kz","pa","sa","th","za"]},"geometry":["point","area"],"matchScore":2,"terms":["marriott executive apartments"],"fields":["name","brand","{tourism/hotel}"],"tags":{"brand:wikidata":"Q72636824","tourism":"hotel"},"addTags":{"brand":"Marriott Executive Apartments","brand:wikidata":"Q72636824","name":"Marriott Executive Apartments","tourism":"hotel"}},"tourism/hotel/raffles-771760":{"name":"Raffles","locationSet":{"include":["ae","bh","cn","fr","gb","id","in","kh","mv","ph","pl","qa","ru","sa","sc","sg","us"]},"geometry":["point","area"],"matchScore":2,"terms":["raffles"],"fields":["name","brand","{tourism/hotel}"],"tags":{"brand:wikidata":"Q4306661","tourism":"hotel"},"addTags":{"brand":"Raffles","brand:wikidata":"Q4306661","name":"Raffles","tourism":"hotel"}},"tourism/hotel/reddoorz-25d260":{"name":"RedDoorz","locationSet":{"include":["id","ph","sg","vn"]},"geometry":["point","area"],"matchScore":2,"terms":["reddoorz"],"fields":["name","brand","{tourism/hotel}"],"tags":{"brand:wikidata":"Q78186049","tourism":"hotel"},"addTags":{"brand":"RedDoorz","brand:wikidata":"Q78186049","name":"RedDoorz","tourism":"hotel"}},"tourism/hotel/royalhideaway-1a48d0":{"name":"Royal Hideaway","locationSet":{"include":["ae","do","es","id","mx"]},"geometry":["point","area"],"matchScore":2,"terms":["royal hideaway"],"fields":["name","brand","{tourism/hotel}"],"tags":{"brand:wikidata":"Q15148996","tourism":"hotel"},"addTags":{"brand":"Royal Hideaway","brand:wikidata":"Q15148996","name":"Royal Hideaway","tourism":"hotel"}},"tourism/hotel/santikaindonesiahotelsandresorts-31e59e":{"name":"Santika Indonesia Hotels & Resorts","locationSet":{"include":["id"]},"geometry":["point","area"],"matchScore":2,"terms":["hotel santika","santika indonesia hotels & resorts"],"fields":["name","brand","{tourism/hotel}"],"tags":{"brand:wikidata":"Q7420423","tourism":"hotel"},"addTags":{"brand":"Santika Indonesia Hotels & Resorts","brand:id":"Hotel Santika","brand:wikidata":"Q7420423","name":"Santika Indonesia Hotels & Resorts","tourism":"hotel"}},"tourism/hotel/travelodge-2e0dc6":{"name":"Travelodge (Asia/Oceania)","locationSet":{"include":["au","hk","id","kr","my","nz","sg","th"]},"geometry":["point","area"],"matchScore":2,"terms":["travelodge"],"fields":["name","brand","{tourism/hotel}"],"tags":{"brand:wikidata":"Q24997583","tourism":"hotel"},"addTags":{"brand":"Travelodge","brand:wikidata":"Q24997583","name":"Travelodge","tourism":"hotel"}},"amenity/clinic/ministryofhealth-1dcb84":{"name":"Ministry of Health (Indonesia)","locationSet":{"include":["id"]},"geometry":["point","area"],"matchScore":2,"terms":["kementerian kesehatan","ministry of health","pusat kesehatan masyarakat","puskesmas","puskesmas pembantu","pustu"],"fields":["name","operator","{amenity/clinic}"],"reference":{"key":"amenity","value":"clinic"},"tags":{"amenity":"clinic","operator:wikidata":"Q12490745"},"addTags":{"amenity":"clinic","healthcare":"clinic","operator":"Ministry of Health","operator:en":"Ministry of Health","operator:id":"Kementerian Kesehatan","operator:wikidata":"Q12490745"}},"amenity/clinic/posyandu-1dcb84":{"name":"Posyandu","locationSet":{"include":["id"]},"geometry":["point","area"],"matchScore":2,"terms":["posyandu"],"fields":["name","operator","{amenity/clinic}"],"reference":{"key":"amenity","value":"clinic"},"tags":{"amenity":"clinic","operator:wikidata":"Q12506263"},"addTags":{"amenity":"clinic","healthcare":"clinic","name":"Posyandu","operator":"Posyandu","operator:wikidata":"Q12506263"}},"amenity/hospital/columbiaasia-fcf381":{"name":"Columbia Asia Hospital","locationSet":{"include":["id","my","vn"]},"geometry":["area","point"],"matchScore":2,"terms":["columbia asia"],"fields":["name","operator","{amenity/hospital}"],"reference":{"key":"amenity","value":"hospital"},"tags":{"amenity":"hospital","operator:wikidata":"Q5149612"},"addTags":{"amenity":"hospital","healthcare":"hospital","name":"Columbia Asia Hospital","operator":"Columbia Asia","operator:wikidata":"Q5149612"}},"amenity/police/kepolisiannegararepublikindonesia-d8ba39":{"name":"Kepolisian Negara Republik Indonesia","locationSet":{"include":["id"]},"geometry":["point","area"],"matchScore":2,"terms":["indonesian national police","kepolisian negara republik indonesia","polri"],"tags":{"amenity":"police","operator:wikidata":"Q3103954"},"addTags":{"amenity":"police","operator":"Kepolisian Negara Republik Indonesia","operator:en":"Indonesian National Police","operator:short":"POLRI","operator:wikidata":"Q3103954"}},"amenity/post_box/jandtexpress-21508a":{"name":"J&T Express","locationSet":{"include":["id","my","ph"]},"geometry":["point","vertex"],"matchScore":2,"terms":["j&t express"],"tags":{"amenity":"post_box","operator:wikidata":"Q95690344"},"addTags":{"amenity":"post_box","operator":"J&T Express","operator:wikidata":"Q95690344"}},"amenity/post_box/posindonesia-fdefd5":{"name":"Pos Indonesia","locationSet":{"include":["id"]},"geometry":["point","vertex"],"matchScore":2,"terms":["kantor pos","pos indonesia","pt pos indonesia"],"tags":{"amenity":"post_box","operator:wikidata":"Q4273095"},"addTags":{"alt_name":"Kantor Pos","amenity":"post_box","operator":"Pos Indonesia","operator:wikidata":"Q4273095"}},"amenity/post_office/jandtexpress-b78fda":{"name":"J&T Express","locationSet":{"include":["id","my","ph"]},"geometry":["point","area"],"matchScore":2,"terms":["j&t express"],"fields":["name","operator","{amenity/post_office}"],"tags":{"amenity":"post_office","operator:wikidata":"Q95690344"},"addTags":{"amenity":"post_office","operator":"J&T Express","operator:wikidata":"Q95690344"}},"amenity/post_office/posindonesia-ab1265":{"name":"Pos Indonesia","locationSet":{"include":["id"]},"geometry":["point","area"],"matchScore":2,"terms":["kantor pos","pos indonesia","pt pos indonesia"],"fields":["name","operator","{amenity/post_office}"],"tags":{"amenity":"post_office","operator:wikidata":"Q4273095"},"addTags":{"alt_name":"Kantor Pos","amenity":"post_office","operator":"Pos Indonesia","operator:wikidata":"Q4273095"}},"amenity/social_facility/palangmerahindonesia-90bc4f":{"name":"Palang Merah Indonesia","locationSet":{"include":["id"]},"geometry":["point","area"],"matchScore":2,"terms":["palang merah indonesia","pmi"],"tags":{"amenity":"social_facility","operator:wikidata":"Q3003251"},"addTags":{"amenity":"social_facility","operator":"Palang Merah Indonesia","operator:short":"PMI","operator:wikidata":"Q3003251"}},"leisure/nature_reserve/dinaskotasurabaya-4e42ef":{"name":"Dinas Kota Surabaya","locationSet":{"include":["id"]},"geometry":["area","point"],"matchScore":2,"terms":["dinas kota surabaya"],"tags":{"leisure":"nature_reserve","operator:wikidata":"Q11462"},"addTags":{"leisure":"nature_reserve","operator":"Dinas Kota Surabaya","operator:type":"government","operator:wikidata":"Q11462"}},"leisure/park/dinaskotasurabaya-eab1bf":{"name":"Dinas Kota Surabaya","locationSet":{"include":["id"]},"geometry":["area","point"],"matchScore":2,"terms":["dinas kota surabaya"],"tags":{"leisure":"park","operator:wikidata":"Q11462"},"addTags":{"leisure":"park","operator":"Dinas Kota Surabaya","operator:type":"government","operator:wikidata":"Q11462"}},"power/generator/indonesiapower-e605d3":{"name":"Indonesia Power","locationSet":{"include":["id"]},"geometry":["point","vertex","area"],"matchScore":2,"terms":["indonesia power"],"tags":{"operator:wikidata":"Q12486500","power":"generator"},"addTags":{"operator":"Indonesia Power","operator:wikidata":"Q12486500","power":"generator"}},"power/generator/pln-e605d3":{"name":"PLN","locationSet":{"include":["id"]},"geometry":["point","vertex","area"],"matchScore":2,"terms":["pln"],"tags":{"operator:wikidata":"Q4201636","power":"generator"},"addTags":{"operator":"PLN","operator:wikidata":"Q4201636","power":"generator"}},"power/line/perusahaanlistriknegara-f1e749":{"name":"Perusahaan Listrik Negara","locationSet":{"include":["id"]},"geometry":["line"],"matchScore":2,"terms":["perusahaan listrik negara","pln","pt perusahaan listrik negara","pt pln (persero)"],"tags":{"operator:wikidata":"Q4201636","power":"line"},"addTags":{"operator":"Perusahaan Listrik Negara","operator:short":"PLN","operator:wikidata":"Q4201636","power":"line"}},"power/minor_line/perusahaanlistriknegara-756643":{"name":"Perusahaan Listrik Negara","locationSet":{"include":["id"]},"geometry":["line"],"matchScore":2,"terms":["perusahaan listrik negara","pln","pt perusahaan listrik negara","pt pln (persero)"],"tags":{"operator:wikidata":"Q4201636","power":"minor_line"},"addTags":{"operator":"Perusahaan Listrik Negara","operator:short":"PLN","operator:wikidata":"Q4201636","power":"minor_line"}},"power/plant/indonesiapower-db9f5e":{"name":"Indonesia Power","locationSet":{"include":["id"]},"geometry":["area"],"matchScore":2,"terms":["indonesia power"],"tags":{"operator:wikidata":"Q12486500","power":"plant"},"addTags":{"operator":"Indonesia Power","operator:wikidata":"Q12486500","power":"plant"}},"power/plant/pln-db9f5e":{"name":"PLN","locationSet":{"include":["id"]},"geometry":["area"],"matchScore":2,"terms":["pln"],"tags":{"operator:wikidata":"Q4201636","power":"plant"},"addTags":{"operator":"PLN","operator:wikidata":"Q4201636","power":"plant"}},"power/plant/ptpembangkitanjawabali-db9f5e":{"name":"PT Pembangkitan Jawa Bali","locationSet":{"include":["id"]},"geometry":["area"],"matchScore":2,"terms":["pembangkitan jawa bali","pjb","pt pembangkitan jawa bali","pt pjb"],"tags":{"operator:wikidata":"Q12504353","power":"plant"},"addTags":{"operator":"PT Pembangkitan Jawa Bali","operator:short":"PJB","operator:wikidata":"Q12504353","power":"plant"}},"power/pole/perusahaanlistriknegara-605f64":{"name":"Perusahaan Listrik Negara","locationSet":{"include":["id"]},"geometry":["point","vertex"],"matchScore":2,"terms":["perusahaan listrik negara","pln","pt perusahaan listrik negara","pt pln (persero)"],"tags":{"operator:wikidata":"Q4201636","power":"pole"},"addTags":{"operator":"Perusahaan Listrik Negara","operator:short":"PLN","operator:wikidata":"Q4201636","power":"pole"}},"power/substation/perusahaanlistriknegara-7eaee2":{"name":"Perusahaan Listrik Negara","locationSet":{"include":["id"]},"geometry":["area","point"],"matchScore":2,"terms":["perusahaan listrik negara","pln","pt perusahaan listrik negara","pt pln (persero)"],"tags":{"operator:wikidata":"Q4201636","power":"substation"},"addTags":{"operator":"Perusahaan Listrik Negara","operator:short":"PLN","operator:wikidata":"Q4201636","power":"substation"}},"power/tower/perusahaanlistriknegara-1697d1":{"name":"Perusahaan Listrik Negara","locationSet":{"include":["id"]},"geometry":["point","vertex"],"matchScore":2,"terms":["perusahaan listrik negara","pln","pt perusahaan listrik negara","pt pln (persero)"],"tags":{"operator:wikidata":"Q4201636","power":"tower"},"addTags":{"operator":"Perusahaan Listrik Negara","operator:short":"PLN","operator:wikidata":"Q4201636","power":"tower"}},"power/transformer/perusahaanlistriknegara-798eb2":{"name":"Perusahaan Listrik Negara","locationSet":{"include":["id"]},"geometry":["point","vertex"],"matchScore":2,"terms":["perusahaan listrik negara","pln","pt perusahaan listrik negara","pt pln (persero)"],"tags":{"operator:wikidata":"Q4201636","power":"transformer"},"addTags":{"operator":"Perusahaan Listrik Negara","operator:short":"PLN","operator:wikidata":"Q4201636","power":"transformer"}},"public_transport/platform/bus_point/transjakarta-55e6b2":{"name":"Transjakarta","locationSet":{"include":["id"]},"geometry":["point","vertex"],"matchScore":2,"terms":["tj","transjakarta"],"reference":{"key":"public_transport","value":"platform"},"tags":{"bus":"yes","network:wikidata":"Q1671143","public_transport":"platform"},"addTags":{"bus":"yes","highway":"bus_stop","network":"Transjakarta","network:wikidata":"Q1671143","public_transport":"platform"}},"railway/station/kai-dda97f":{"name":"KAI","locationSet":{"include":["id"]},"geometry":["point","vertex","area"],"matchScore":2,"terms":["kai"],"tags":{"network:wikidata":"Q2745027","railway":"station"},"addTags":{"network":"KAI","network:wikidata":"Q2745027","public_transport":"station","railway":"station","train":"yes"}},"railway/station/kaibandara-dda97f":{"name":"KAI Bandara","locationSet":{"include":["id"]},"geometry":["point","vertex","area"],"matchScore":2,"terms":["kai bandara"],"tags":{"network:wikidata":"Q19752643","railway":"station"},"addTags":{"network":"KAI Bandara","network:wikidata":"Q19752643","public_transport":"station","railway":"station","train":"yes"}},"railway/station/kaicommuter-dda97f":{"name":"KAI Commuter","locationSet":{"include":["id"]},"geometry":["point","vertex","area"],"matchScore":2,"terms":["kai commuter"],"tags":{"network:wikidata":"Q12501611","railway":"station"},"addTags":{"network":"KAI Commuter","network:wikidata":"Q12501611","public_transport":"station","railway":"station","train":"yes"}},"type/route/bus/transjakarta-87ebe4":{"name":"Transjakarta","locationSet":{"include":["id"]},"geometry":["relation"],"matchScore":2,"terms":["tj","transjakarta"],"reference":{"key":"route","value":"bus"},"tags":{"network:wikidata":"Q1671143","route":"bus","type":"route"},"addTags":{"network":"Transjakarta","network:wikidata":"Q1671143","route":"bus","type":"route"}},"type/route/subway/mrtjakarta-d8c929":{"name":"MRT Jakarta","locationSet":{"include":["id"]},"geometry":["relation"],"matchScore":2,"terms":["mrt jakarta","mrtj"],"reference":{"key":"route","value":"subway"},"tags":{"network:wikidata":"Q3333785","route":"subway","type":"route"},"addTags":{"network":"MRT Jakarta","network:short":"MRTJ","network:wikidata":"Q3333785","operator":"MRT Jakarta","operator:wikidata":"Q3333785","route":"subway","type":"route"}},"type/route/train/kai-305460":{"name":"KAI","locationSet":{"include":["id"]},"geometry":["relation"],"matchScore":2,"terms":["kai"],"reference":{"key":"route","value":"train"},"tags":{"network:wikidata":"Q2745027","route":"train","type":"route"},"addTags":{"network":"KAI","network:wikidata":"Q2745027","route":"train","type":"route"}},"type/route/train/kaibandara-305460":{"name":"KAI Bandara","locationSet":{"include":["id"]},"geometry":["relation"],"matchScore":2,"terms":["kai bandara"],"reference":{"key":"route","value":"train"},"tags":{"network:wikidata":"Q19752643","route":"train","type":"route"},"addTags":{"network":"KAI Bandara","network:wikidata":"Q19752643","route":"train","type":"route"}},"type/route/train/kaicommuter-305460":{"name":"KAI Commuter","locationSet":{"include":["id"]},"geometry":["relation"],"matchScore":2,"terms":["kai commuter"],"reference":{"key":"route","value":"train"},"tags":{"network:wikidata":"Q12501611","route":"train","type":"route"},"addTags":{"network":"KAI Commuter","network:wikidata":"Q12501611","route":"train","type":"route"}}}