{"amenity/atm/citizensbank-0bad27":{"name":"Citizens Bank (Eastern USA)","locationSet":{"include":["us-ct","us-de","us-ma","us-mi","us-nh","us-nj","us-ny","us-oh","us-pa","us-ri","us-va","us-vt"]},"geometry":["point","vertex"],"matchScore":2,"terms":["citizens","citizens bank"],"tags":{"amenity":"atm","brand:wikidata":"Q5122694"},"addTags":{"amenity":"atm","brand":"Citizens Bank","brand:wikidata":"Q5122694","name":"Citizens Bank","operator":"Citizens Bank","operator:wikidata":"Q5122694","short_name":"Citizens"}},"amenity/atm/citynationalbank-97e06e":{"name":"City National Bank (California)","locationSet":{"include":["us-ca","us-dc","us-de","us-fl","us-ga","us-ma","us-mn","us-nv","us-ny","us-tn","us-va"]},"geometry":["point","vertex"],"matchScore":2,"terms":["city national bank"],"tags":{"amenity":"atm","brand:wikidata":"Q5123314"},"addTags":{"amenity":"atm","brand":"City National Bank","brand:wikidata":"Q5123314","name":"City National Bank","operator":"City National Bank","operator:wikidata":"Q5123314"}},"amenity/atm/wsfsbank-21e4b8":{"name":"WSFS Bank","locationSet":{"include":["us-de","us-nj","us-nv","us-pa","us-va"]},"geometry":["point","vertex"],"matchScore":2,"terms":["wsfs bank"],"tags":{"amenity":"atm","brand:wikidata":"Q7955609"},"addTags":{"amenity":"atm","brand":"WSFS Bank","brand:wikidata":"Q7955609","name":"WSFS Bank","operator":"WSFS Bank","operator:wikidata":"Q7955609"}},"amenity/bank/citizensbank-8621dd":{"name":"Citizens Bank (Eastern USA)","locationSet":{"include":["us-ct","us-de","us-ma","us-mi","us-nh","us-nj","us-ny","us-oh","us-pa","us-ri","us-va","us-vt"]},"geometry":["point","area"],"matchScore":2,"terms":["citizens","citizens bank"],"tags":{"amenity":"bank","brand:wikidata":"Q5122694"},"addTags":{"amenity":"bank","brand":"Citizens Bank","brand:wikidata":"Q5122694","name":"Citizens Bank","short_name":"Citizens"}},"amenity/bank/citynationalbank-0b143b":{"name":"City National Bank (California)","locationSet":{"include":["us-ca","us-dc","us-de","us-fl","us-ga","us-ma","us-mn","us-nv","us-ny","us-tn","us-va"]},"geometry":["point","area"],"matchScore":2,"terms":["city national bank"],"tags":{"amenity":"bank","brand:wikidata":"Q5123314"},"addTags":{"amenity":"bank","brand":"City National Bank","brand:wikidata":"Q5123314","name":"City National Bank"}},"amenity/bank/wsfsbank-ecc1eb":{"name":"WSFS Bank","locationSet":{"include":["us-de","us-nj","us-nv","us-pa","us-va"]},"geometry":["point","area"],"matchScore":2,"terms":["wsfs bank"],"tags":{"amenity":"bank","brand:wikidata":"Q7955609"},"addTags":{"amenity":"bank","brand":"WSFS Bank","brand:wikidata":"Q7955609","name":"WSFS Bank"}},"amenity/clinic/gohealthurgentcare-d7b871":{"name":"ChristianaCare-GoHealth Urgent Care","locationSet":{"include":["us-de","us-md","us-nj","us-pa"]},"geometry":["point","area"],"matchScore":2,"terms":["christianacare","gohealth urgent care"],"reference":{"key":"amenity","value":"clinic"},"tags":{"amenity":"clinic","brand:wikidata":"Q110282081"},"addTags":{"amenity":"clinic","brand":"GoHealth Urgent Care","brand:wikidata":"Q110282081","healthcare":"clinic","operator":"ChristianaCare","operator:wikidata":"Q16987253"}},"amenity/fast_food/pokebros-eebea8":{"name":"Poke Bros.","locationSet":{"include":["us-de","us-fl","us-il","us-in","us-ky","us-nc","us-nj","us-ny","us-oh","us-pa","us-ri","us-sc","us-tn"]},"geometry":["point","area"],"matchScore":2,"terms":["poke bros."],"tags":{"amenity":"fast_food","brand:wikidata":"Q113640421"},"addTags":{"amenity":"fast_food","brand":"Poke Bros.","brand:wikidata":"Q113640421","cuisine":"poke","name":"Poke Bros.","takeaway":"yes"}},"amenity/fuel/wawa-f5bad4":{"name":"Wawa","locationSet":{"include":["us-dc","us-de","us-fl","us-md","us-nj","us-pa","us-va"]},"geometry":["point","area"],"matchScore":2,"terms":["wawa"],"fields":["name","brand","{amenity/fuel}"],"tags":{"amenity":"fuel","brand:wikidata":"Q5936320"},"addTags":{"amenity":"fuel","brand":"Wawa","brand:wikidata":"Q5936320","name":"Wawa"}},"leisure/fitness_centre/theedgefitnessclub-773501":{"name":"The Edge Fitness Club","locationSet":{"include":["us-ct","us-de","us-il","us-mi","us-mo","us-nj","us-pa","us-ri"]},"geometry":["point","area"],"matchScore":2,"terms":["the edge fitness club"],"tags":{"brand:wikidata":"Q109339519","leisure":"fitness_centre"},"addTags":{"brand":"The Edge Fitness Club","brand:wikidata":"Q109339519","leisure":"fitness_centre","name":"The Edge Fitness Club"}},"shop/convenience/wawa-dad45f":{"name":"Wawa","locationSet":{"include":["us-dc","us-de","us-fl","us-md","us-nj","us-pa","us-va"]},"geometry":["point","area"],"matchScore":2,"terms":["wawa"],"tags":{"brand:wikidata":"Q5936320","shop":"convenience"},"addTags":{"brand":"Wawa","brand:wikidata":"Q5936320","name":"Wawa","shop":"convenience"}},"shop/supermarket/giant-fc203b":{"name":"Giant (Landover)","locationSet":{"include":["us-dc","us-de","us-md","us-va"]},"geometry":["point","area"],"matchScore":2,"terms":["giant","giant food"],"tags":{"brand:wikidata":"Q5558336","shop":"supermarket"},"addTags":{"brand":"Giant","brand:wikidata":"Q5558336","name":"Giant","official_name":"Giant Food","shop":"supermarket"}},"amenity/police/delawarestatepolice-255ad0":{"name":"Delaware State Police","locationSet":{"include":["us-de"]},"geometry":["point","area"],"matchScore":2,"terms":["delaware state police","dsp"],"tags":{"amenity":"police","operator:wikidata":"Q5253366"},"addTags":{"amenity":"police","operator":"Delaware State Police","operator:short":"DSP","operator:wikidata":"Q5253366"}},"leisure/nature_reserve/cityofdover-7b86a2":{"name":"City of Dover (Deleware)","locationSet":{"include":["us-de"]},"geometry":["area","point"],"matchScore":2,"terms":["city of dover"],"tags":{"leisure":"nature_reserve","operator:wikidata":"Q33518"},"addTags":{"leisure":"nature_reserve","operator":"City of Dover","operator:type":"public","operator:wikidata":"Q33518"}},"leisure/nature_reserve/cityofwilmington-7b86a2":{"name":"City of Wilmington (Deleware)","locationSet":{"include":["us-de"]},"geometry":["area","point"],"matchScore":2,"terms":["city of wilmington"],"tags":{"leisure":"nature_reserve","operator:wikidata":"Q174224"},"addTags":{"leisure":"nature_reserve","operator":"City of Wilmington","operator:type":"public","operator:wikidata":"Q174224"}},"leisure/park/cityofdover-bce3f1":{"name":"City of Dover (Deleware)","locationSet":{"include":["us-de"]},"geometry":["area","point"],"matchScore":2,"terms":["city of dover"],"tags":{"leisure":"park","operator:wikidata":"Q33518"},"addTags":{"leisure":"park","operator":"City of Dover","operator:type":"public","operator:wikidata":"Q33518"}},"leisure/park/cityofwilmington-bce3f1":{"name":"City of Wilmington (Deleware)","locationSet":{"include":["us-de"]},"geometry":["area","point"],"matchScore":2,"terms":["city of wilmington"],"tags":{"leisure":"park","operator:wikidata":"Q174224"},"addTags":{"leisure":"park","operator":"City of Wilmington","operator:type":"public","operator:wikidata":"Q174224"}},"public_transport/platform/bus_point/dart-d5696f":{"name":"DART First State","locationSet":{"include":["us-de"]},"geometry":["point","vertex"],"matchScore":2,"terms":["dart","delaware transit corporation"],"reference":{"key":"public_transport","value":"platform"},"tags":{"bus":"yes","network:wikidata":"Q5204301","public_transport":"platform"},"addTags":{"bus":"yes","highway":"bus_stop","network":"DART","network:wikidata":"Q5204301","operator":"Delaware Transit Corporation","public_transport":"platform"}},"type/route/bus/dart-6c0ccf":{"name":"DART First State","locationSet":{"include":["us-de"]},"geometry":["relation"],"matchScore":2,"terms":["dart","delaware transit corporation"],"reference":{"key":"route","value":"bus"},"tags":{"network:wikidata":"Q5204301","route":"bus","type":"route"},"addTags":{"network":"DART","network:wikidata":"Q5204301","operator":"Delaware Transit Corporation","route":"bus","type":"route"}}}