{"amenity/atm/accessbank-3f49d1":{"name":"Access Bank","locationSet":{"include":["cd","gb","gh","gm","mz","rw","sl","zm"]},"geometry":["point","vertex"],"matchScore":2,"terms":["access bank","diamond bank"],"tags":{"amenity":"atm","brand:wikidata":"Q4672418"},"addTags":{"amenity":"atm","brand":"Access Bank","brand:wikidata":"Q4672418","name":"Access Bank","operator":"Access Bank","operator:wikidata":"Q4672418"}},"amenity/atm/gtbank-55d972":{"name":"GT Bank","locationSet":{"include":["ci","gb","gh","gm","ke","lr","ng","rw","tz","ug"]},"geometry":["point","vertex"],"matchScore":2,"terms":["gt bank","guaranty trust bank"],"tags":{"amenity":"atm","brand:wikidata":"Q579747"},"addTags":{"amenity":"atm","brand":"GT Bank","brand:wikidata":"Q579747","name":"GT Bank","official_name":"Guaranty Trust Bank","operator":"GT Bank","operator:wikidata":"Q579747"}},"amenity/atm/zenithbank-a665db":{"name":"Zenith Bank","locationSet":{"include":["gb","gh","gm","ng","sl","za"]},"geometry":["point","vertex"],"matchScore":2,"terms":["zenith bank"],"tags":{"amenity":"atm","brand:wikidata":"Q5978240"},"addTags":{"amenity":"atm","brand":"Zenith Bank","brand:wikidata":"Q5978240","name":"Zenith Bank","operator":"Zenith Bank","operator:wikidata":"Q5978240"}},"amenity/bank/accessbank-175004":{"name":"Access Bank","locationSet":{"include":["cd","gb","gh","gm","mz","rw","sl","zm"]},"geometry":["point","area"],"matchScore":2,"terms":["access bank","diamond bank"],"tags":{"amenity":"bank","brand:wikidata":"Q4672418"},"addTags":{"amenity":"bank","brand":"Access Bank","brand:wikidata":"Q4672418","name":"Access Bank"}},"amenity/bank/gtbank-b3c39a":{"name":"GT Bank","locationSet":{"include":["ci","gb","gh","gm","ke","lr","ng","rw","tz","ug"]},"geometry":["point","area"],"matchScore":2,"terms":["gt bank","guaranty trust bank"],"tags":{"amenity":"bank","brand:wikidata":"Q579747"},"addTags":{"amenity":"bank","brand":"GT Bank","brand:wikidata":"Q579747","name":"GT Bank","official_name":"Guaranty Trust Bank"}},"amenity/bank/zenithbank-603eac":{"name":"Zenith Bank","locationSet":{"include":["gb","gh","gm","ng","sl","za"]},"geometry":["point","area"],"matchScore":2,"terms":["zenith bank"],"tags":{"amenity":"bank","brand:wikidata":"Q5978240"},"addTags":{"amenity":"bank","brand":"Zenith Bank","brand:wikidata":"Q5978240","name":"Zenith Bank"}}}