{"advertising/totem/cefco-d016fa":{"name":"CEFCO","locationSet":{"include":["us-al","us-fl","us-la","us-ms","us-tx"]},"geometry":["point","line"],"matchScore":2,"terms":["cefco"],"tags":{"advertising":"totem","brand:wikidata":"Q110209230"},"addTags":{"advertising":"totem","brand":"CEFCO","brand:wikidata":"Q110209230"}},"advertising/totem/tomthumb-4189c0":{"name":"Tom Thumb","locationSet":{"include":["us-tx"]},"geometry":["point","line"],"matchScore":2,"terms":["tom thumb"],"tags":{"advertising":"totem","brand:wikidata":"Q7817826"},"addTags":{"advertising":"totem","brand":"Tom Thumb","brand:wikidata":"Q7817826"}},"amenity/atm/cadencebank-4b4e36":{"name":"Cadence Bank","locationSet":{"include":["us-al","us-ar","us-fl","us-ga","us-il","us-la","us-ms","us-tn","us-tx"]},"geometry":["point","vertex"],"matchScore":2,"terms":["bankcorpsouth","bankcorpsouth bank","cadence bank"],"fields":["name","brand","{amenity/atm}"],"tags":{"amenity":"atm","brand:wikidata":"Q4854138"},"addTags":{"amenity":"atm","brand":"Cadence Bank","brand:wikidata":"Q4854138","operator":"Cadence Bank","operator:wikidata":"Q4854138"}},"amenity/atm/firstconveniencebank-18eb57":{"name":"First Convenience Bank","locationSet":{"include":["us-tx"]},"geometry":["point","vertex"],"matchScore":2,"terms":["first convenience bank"],"fields":["name","brand","{amenity/atm}"],"tags":{"amenity":"atm","brand:wikidata":"Q110622177"},"addTags":{"amenity":"atm","brand":"First Convenience Bank","brand:wikidata":"Q110622177","operator":"First Convenience Bank","operator:wikidata":"Q110622177"}},"amenity/atm/firstnationalbanktexas-18eb57":{"name":"First National Bank Texas","locationSet":{"include":["us-tx"]},"geometry":["point","vertex"],"matchScore":2,"terms":["1stnb","first national bank texas"],"fields":["name","brand","{amenity/atm}"],"tags":{"amenity":"atm","brand:wikidata":"Q110622177"},"addTags":{"amenity":"atm","brand":"First National Bank Texas","brand:wikidata":"Q110622177","operator":"First National Bank Texas","operator:wikidata":"Q110622177"}},"amenity/atm/hancockwhitney-cfedfe":{"name":"Hancock Whitney","locationSet":{"include":["us-al","us-la","us-ms","us-tx"]},"geometry":["point","vertex"],"matchScore":2,"terms":["hancock whitney"],"fields":["name","brand","{amenity/atm}"],"tags":{"amenity":"atm","brand:wikidata":"Q5647025"},"addTags":{"amenity":"atm","brand":"Hancock Whitney","brand:wikidata":"Q5647025","operator":"Hancock Whitney","operator:wikidata":"Q5647025"}},"amenity/bank/cadencebank-e05e09":{"name":"Cadence Bank","locationSet":{"include":["us-al","us-ar","us-fl","us-ga","us-il","us-la","us-ms","us-tn","us-tx"]},"geometry":["point","area"],"matchScore":2,"terms":["bankcorpsouth","bankcorpsouth bank","cadence bank"],"tags":{"amenity":"bank","brand:wikidata":"Q4854138"},"addTags":{"amenity":"bank","brand":"Cadence Bank","brand:wikidata":"Q4854138","name":"Cadence Bank"}},"amenity/bank/firstconveniencebank-718014":{"name":"First Convenience Bank","locationSet":{"include":["us-tx"]},"geometry":["point","area"],"matchScore":2,"terms":["first convenience bank"],"tags":{"amenity":"bank","brand:wikidata":"Q110622177"},"addTags":{"amenity":"bank","brand":"First Convenience Bank","brand:wikidata":"Q110622177","name":"First Convenience Bank"}},"amenity/bank/firstnationalbanktexas-718014":{"name":"First National Bank Texas","locationSet":{"include":["us-tx"]},"geometry":["point","area"],"matchScore":2,"terms":["1stnb","first national bank texas"],"tags":{"amenity":"bank","brand:wikidata":"Q110622177"},"addTags":{"amenity":"bank","brand":"First National Bank Texas","brand:wikidata":"Q110622177","name":"First National Bank Texas"}},"amenity/bank/hancockwhitney-78aa9a":{"name":"Hancock Whitney","locationSet":{"include":["us-al","us-la","us-ms","us-tx"]},"geometry":["point","area"],"matchScore":2,"terms":["hancock whitney"],"tags":{"amenity":"bank","brand:wikidata":"Q5647025"},"addTags":{"amenity":"bank","brand":"Hancock Whitney","brand:wikidata":"Q5647025","name":"Hancock Whitney"}},"amenity/cafe/coffee_shop/7leavescafe-32992d":{"name":"7 Leaves Cafe","locationSet":{"include":["us-ca","us-ga","us-nv","us-tx"]},"geometry":["point","area"],"matchScore":2,"terms":["7 leaves cafe"],"reference":{"key":"cuisine","value":"coffee_shop"},"tags":{"amenity":"cafe","brand:wikidata":"Q118480682","cuisine":"coffee_shop;vietnamese"},"addTags":{"amenity":"cafe","brand":"7 Leaves Cafe","brand:wikidata":"Q118480682","cuisine":"coffee_shop;vietnamese","name":"7 Leaves Cafe","takeaway":"yes"}},"amenity/clinic/veinclinicsofamerica-12a747":{"name":"Vein Clinics of America","locationSet":{"include":["us-ct","us-ga","us-il","us-in","us-ks","us-md","us-mn","us-mo","us-nc","us-oh","us-tn","us-tx","us-va","us-wi"]},"geometry":["point","area"],"matchScore":2,"terms":["vein clinics of america"],"reference":{"key":"amenity","value":"clinic"},"tags":{"amenity":"clinic","brand:wikidata":"Q113712355"},"addTags":{"amenity":"clinic","brand":"Vein Clinics of America","brand:wikidata":"Q113712355","healthcare":"clinic"}},"amenity/dentist/dentalworks-f3d61f":{"name":"DentalWorks","locationSet":{"include":["us-az","us-co","us-il","us-in","us-ky","us-mi","us-nc","us-oh","us-pa","us-sc","us-tn","us-tx","us-wi"]},"geometry":["point","area"],"matchScore":2,"terms":["dentalworks"],"reference":{"key":"amenity","value":"dentist"},"tags":{"amenity":"dentist","brand:wikidata":"Q113712187"},"addTags":{"amenity":"dentist","brand":"DentalWorks","brand:wikidata":"Q113712187","healthcare":"dentist","name":"DentalWorks"}},"amenity/fast_food/alohapokeco-6b3f2b":{"name":"Aloha Pokē Co","locationSet":{"include":["us-dc","us-fl","us-ga","us-il","us-mn","us-tx","us-wi"]},"geometry":["point","area"],"matchScore":2,"terms":["aloha pokē co"],"tags":{"amenity":"fast_food","brand:wikidata":"Q111231031"},"addTags":{"amenity":"fast_food","brand":"Aloha Pokē Co","brand:wikidata":"Q111231031","cuisine":"poke","name":"Aloha Pokē Co","takeaway":"yes"}},"amenity/fast_food/chicken/chickenexpress-aef212":{"name":"Chicken Express","locationSet":{"include":["us-ar","us-la","us-ok","us-tx"]},"geometry":["point","area"],"matchScore":2,"terms":["chicken express"],"reference":{"key":"cuisine","value":"chicken"},"tags":{"amenity":"fast_food","brand:wikidata":"Q5096235","cuisine":"chicken"},"addTags":{"amenity":"fast_food","brand":"Chicken Express","brand:wikidata":"Q5096235","cuisine":"chicken","name":"Chicken Express","takeaway":"yes"}},"amenity/fast_food/donut/duckdonuts-6333a9":{"name":"Duck Donuts","locationSet":{"include":["ca-on","eg","sa","us-ar","us-az","us-ca","us-co","us-fl","us-ga","us-id","us-il","us-ks","us-ky","us-md","us-mi","us-mn","us-mo","us-nc","us-nj","us-ny","us-oh","us-pa","us-sc","us-tn","us-tx","us-ut","us-va"]},"geometry":["point","area"],"matchScore":2,"terms":["duck donuts","duck doughnuts"],"reference":{"key":"cuisine","value":"donut"},"tags":{"amenity":"fast_food","brand:wikidata":"Q54958282","cuisine":"donut"},"addTags":{"amenity":"fast_food","brand":"Duck Donuts","brand:wikidata":"Q54958282","cuisine":"donut","name":"Duck Donuts","takeaway":"yes"}},"amenity/fast_food/lemonsharkpoke-44dd3c":{"name":"LemonShark Poké","locationSet":{"include":["us-az","us-ca","us-fl","us-il","us-la","us-nc","us-oh","us-tx"]},"geometry":["point","area"],"matchScore":2,"terms":["lemonshark poké"],"tags":{"amenity":"fast_food","brand:wikidata":"Q115411660"},"addTags":{"amenity":"fast_food","brand":"LemonShark Poké","brand:wikidata":"Q115411660","cuisine":"poke","name":"LemonShark Poké.","takeaway":"yes"}},"amenity/fast_food/sandwich/mendocinofarms-c19f86":{"name":"Mendocino Farms","locationSet":{"include":["us-ca","us-ga","us-tx"]},"geometry":["point","area"],"matchScore":2,"terms":["mendocino farms"],"reference":{"key":"cuisine","value":"sandwich"},"tags":{"amenity":"fast_food","brand:wikidata":"Q110671982","cuisine":"sandwich"},"addTags":{"amenity":"fast_food","brand":"Mendocino Farms","brand:wikidata":"Q110671982","cuisine":"sandwich","name":"Mendocino Farms","takeaway":"yes"}},"amenity/fast_food/pizza/pepperonis-1e257d":{"name":"Pepperoni's","locationSet":{"include":["us-tx"]},"geometry":["point","area"],"matchScore":2,"terms":["pepperoni's"],"reference":{"key":"cuisine","value":"pizza"},"tags":{"amenity":"fast_food","brand:wikidata":"Q117229592","cuisine":"pizza"},"addTags":{"amenity":"fast_food","brand":"Pepperoni's","brand:wikidata":"Q117229592","cuisine":"pizza","name":"Pepperoni's","takeaway":"yes"}},"amenity/fast_food/tacocasa-1ab7d8":{"name":"Taco Casa","locationSet":{"include":["us-ok","us-tx"]},"geometry":["point","area"],"matchScore":2,"terms":["taco casa"],"tags":{"amenity":"fast_food","brand:wikidata":"Q123307075"},"addTags":{"amenity":"fast_food","brand":"Taco Casa","brand:wikidata":"Q123307075","cuisine":"tacos;tex-mex","name":"Taco Casa","takeaway":"yes"}},"amenity/fuel/cefco-7de6f8":{"name":"CEFCO","locationSet":{"include":["us-al","us-fl","us-la","us-ms","us-tx"]},"geometry":["point","area"],"matchScore":2,"terms":["cefco"],"fields":["name","brand","{amenity/fuel}"],"tags":{"amenity":"fuel","brand:wikidata":"Q110209230"},"addTags":{"amenity":"fuel","brand":"CEFCO","brand:wikidata":"Q110209230","name":"CEFCO"}},"amenity/fuel/tomthumb-bc7b86":{"name":"Tom Thumb","locationSet":{"include":["us-tx"]},"geometry":["point","area"],"matchScore":2,"terms":["tom thumb"],"fields":["name","brand","{amenity/fuel}"],"tags":{"amenity":"fuel","brand:wikidata":"Q7817826"},"addTags":{"amenity":"fuel","brand":"Tom Thumb","brand:wikidata":"Q7817826","name":"Tom Thumb"}},"amenity/ice_cream/jenissplendidicecreams-53b2e0":{"name":"Jeni's Splendid Ice Cream","locationSet":{"include":["us-al","us-ca","us-dc","us-fl","us-ga","us-il","us-mo","us-nc","us-oh","us-pa","us-sc","us-tn","us-tx"]},"geometry":["point","area"],"matchScore":2,"terms":["jeni's","jeni's splendid ice creams"],"tags":{"amenity":"ice_cream","brand:wikidata":"Q16851196"},"addTags":{"amenity":"ice_cream","brand":"Jeni's Splendid Ice Creams","brand:wikidata":"Q16851196","name":"Jeni's Splendid Ice Creams","short_name":"Jeni's"}},"amenity/ice_cream/frozen_yogurt/yumilicious-0da7a6":{"name":"Yumilicious","locationSet":{"include":["us-tx"]},"geometry":["point","area"],"matchScore":2,"terms":["yumilicious"],"reference":{"key":"cuisine","value":"frozen_yogurt"},"tags":{"amenity":"ice_cream","brand:wikidata":"Q8061133","cuisine":"frozen_yogurt"},"addTags":{"amenity":"ice_cream","brand":"Yumilicious","brand:wikidata":"Q8061133","cuisine":"frozen_yogurt","name":"Yumilicious","takeaway":"yes"}},"amenity/restaurant/mexican/gringosmexicankitchen-5297f1":{"name":"Gringo's Mexican Kitchen","locationSet":{"include":["us-tx"]},"geometry":["point","area"],"matchScore":2,"terms":["gringo's mexican kitchen","gringo's tex-mex"],"reference":{"key":"cuisine","value":"mexican"},"tags":{"amenity":"restaurant","brand:wikidata":"Q116952793","cuisine":"tex-mex;mexican"},"addTags":{"amenity":"restaurant","brand":"Gringo's Mexican Kitchen","brand:wikidata":"Q116952793","cuisine":"tex-mex;mexican","name":"Gringo's Mexican Kitchen"}},"amenity/restaurant/seafood/joescrabshack-c6bbaa":{"name":"Joe's Crab Shack","locationSet":{"include":["us-az","us-ca","us-co","us-fl","us-ga","us-ky","us-la","us-mo","us-nc","us-nj","us-pa","us-sc","us-tn","us-tx","us-ut","us-va"]},"geometry":["point","area"],"matchScore":2,"terms":["joe's crab shack"],"reference":{"key":"cuisine","value":"seafood"},"tags":{"amenity":"restaurant","brand:wikidata":"Q6208210","cuisine":"seafood"},"addTags":{"amenity":"restaurant","brand":"Joe's Crab Shack","brand:wikidata":"Q6208210","cuisine":"seafood","name":"Joe's Crab Shack"}},"amenity/restaurant/american/lazydog-f4f1ab":{"name":"Lazy Dog","locationSet":{"include":["us-ca","us-co","us-fl","us-ga","us-il","us-nv","us-tx","us-va"]},"geometry":["point","area"],"matchScore":2,"terms":["lazy dog"],"reference":{"key":"cuisine","value":"american"},"tags":{"amenity":"restaurant","brand:wikidata":"Q111304278","cuisine":"american"},"addTags":{"amenity":"restaurant","brand":"Lazy Dog","brand:wikidata":"Q111304278","cuisine":"american","name":"Lazy Dog"}},"amenity/restaurant/italian/maggianoslittleitaly-acf8ec":{"name":"Maggiano's Little Italy","locationSet":{"include":["us-az","us-ca","us-co","us-dc","us-fl","us-ga","us-il","us-in","us-ks","us-ma","us-md","us-mi","us-mo","us-nc","us-nj","us-nv","us-ny","us-oh","us-pa","us-tn","us-tx","us-va","us-wa","us-wi"]},"geometry":["point","area"],"matchScore":2,"terms":["maggiano's little italy"],"reference":{"key":"cuisine","value":"italian"},"tags":{"amenity":"restaurant","brand:wikidata":"Q6730149","cuisine":"italian"},"addTags":{"amenity":"restaurant","brand":"Maggiano's Little Italy","brand:wikidata":"Q6730149","cuisine":"italian","name":"Maggiano's Little Italy"}},"amenity/restaurant/maplestreetbiscuitcompany-d344e2":{"name":"Maple Street Biscuit Company","locationSet":{"include":["us-al","us-fl","us-ga","us-ky","us-nc","us-sc","us-tn","us-tx","us-va"]},"geometry":["point","area"],"matchScore":2,"terms":["maple street biscuit company"],"tags":{"amenity":"restaurant","brand:wikidata":"Q97104481"},"addTags":{"amenity":"restaurant","brand":"Maple Street Biscuit Company","brand:wikidata":"Q97104481","cuisine":"breakfast","name":"Maple Street Biscuit Company"}},"amenity/restaurant/moxies-12e5ab":{"name":"Moxie's","locationSet":{"include":["ca","us-az","us-fl","us-ma","us-tx"]},"geometry":["point","area"],"matchScore":2,"terms":["moxie's","moxie's grill & bar"],"tags":{"amenity":"restaurant","brand:wikidata":"Q6927497"},"addTags":{"amenity":"restaurant","brand":"Moxie's","brand:wikidata":"Q6927497","cuisine":"bar&grill","name":"Moxie's"}},"amenity/restaurant/nafnafgrill-8ff1c6":{"name":"Naf Naf Grill","locationSet":{"include":["us-fl","us-ga","us-il","us-in","us-mn","us-nj","us-oh","us-pa","us-sc","us-tn","us-tx","us-wi"]},"geometry":["point","area"],"matchScore":2,"terms":["naf naf grill"],"tags":{"amenity":"restaurant","brand:wikidata":"Q111901442"},"addTags":{"amenity":"restaurant","brand":"Naf Naf Grill","brand:wikidata":"Q111901442","cuisine":"middle_eastern","name":"Naf Naf Grill"}},"amenity/restaurant/pizza/nativegrillandwings-b39dfd":{"name":"Native Grill & Wings","locationSet":{"include":["us-az","us-il","us-tx"]},"geometry":["point","area"],"matchScore":2,"terms":["native grill","native grill & wings"],"reference":{"key":"cuisine","value":"pizza"},"tags":{"amenity":"restaurant","brand:wikidata":"Q69599983","cuisine":"wings;pizza;burger"},"addTags":{"amenity":"restaurant","brand":"Native Grill & Wings","brand:wikidata":"Q69599983","cuisine":"wings;pizza;burger","name":"Native Grill & Wings"}},"amenity/restaurant/pizza/roundtablepizza-6267fd":{"name":"Round Table Pizza","locationSet":{"include":["us-az","us-ca","us-nv","us-or","us-tx","us-wa"]},"geometry":["point","area"],"matchScore":2,"terms":["round table","round table pizza"],"reference":{"key":"cuisine","value":"pizza"},"tags":{"amenity":"restaurant","brand:wikidata":"Q7371139","cuisine":"pizza"},"addTags":{"amenity":"restaurant","brand":"Round Table Pizza","brand:wikidata":"Q7371139","cuisine":"pizza","name":"Round Table Pizza"}},"amenity/restaurant/snooze-62450c":{"name":"Snooze","locationSet":{"include":["us-az","us-ca","us-co","us-ga","us-ks","us-mo","us-nc","us-tn","us-tx"]},"geometry":["point","area"],"matchScore":2,"terms":["snooze","snooze, an a.m. eatery"],"tags":{"amenity":"restaurant","brand:wikidata":"Q111304345"},"addTags":{"amenity":"restaurant","brand":"Snooze","brand:wikidata":"Q111304345","cuisine":"breakfast","name":"Snooze","official_name":"Snooze, an A.M. Eatery"}},"office/insurance/insurancenavybrokers-082118":{"name":"Insurance Navy Brokers","locationSet":{"include":["us-ca","us-il","us-tx"]},"geometry":["point","area"],"matchScore":2,"terms":["insurance navy brokers"],"fields":["name","brand","{office/insurance}"],"tags":{"brand:wikidata":"Q106564453","office":"insurance"},"addTags":{"brand":"Insurance Navy Brokers","brand:wikidata":"Q106564453","name":"Insurance Navy Brokers","office":"insurance"}},"office/insurance/texasfarmbureauinsurance-92243f":{"name":"Texas Farm Bureau Insurance","locationSet":{"include":["us-tx"]},"geometry":["point","area"],"matchScore":2,"terms":["texas farm bureau insurance","texas farm bureau insurance company"],"fields":["name","brand","{office/insurance}"],"tags":{"brand:wikidata":"Q112965654","office":"insurance"},"addTags":{"brand":"Texas Farm Bureau Insurance","brand:wikidata":"Q112965654","name":"Texas Farm Bureau Insurance","office":"insurance"}},"shop/alcohol/specs-a9ed82":{"name":"Spec's","locationSet":{"include":["us-tx"]},"geometry":["point","area"],"matchScore":2,"terms":["spec's"],"tags":{"brand:wikidata":"Q7574415","shop":"alcohol"},"addTags":{"brand":"Spec's","brand:wikidata":"Q7574415","name":"Spec's","shop":"alcohol"}},"shop/convenience/cefco-abc9e1":{"name":"CEFCO","locationSet":{"include":["us-al","us-fl","us-la","us-ms","us-tx"]},"geometry":["point","area"],"matchScore":2,"terms":["cefco"],"tags":{"brand:wikidata":"Q110209230","shop":"convenience"},"addTags":{"amenity":"fuel","brand":"CEFCO","brand:wikidata":"Q110209230","name":"CEFCO","shop":"convenience"}},"shop/convenience/kentkwik-c3f9f6":{"name":"Kent Kwik","locationSet":{"include":["us-nm","us-ok","us-tx"]},"geometry":["point","area"],"matchScore":2,"terms":["kent kwik"],"tags":{"brand:wikidata":"Q110622262","shop":"convenience"},"addTags":{"brand":"Kent Kwik","brand:wikidata":"Q110622262","name":"Kent Kwik","shop":"convenience"}},"shop/doityourself/mccoys-27ed78":{"name":"McCoy's Building Supply","locationSet":{"include":["us-nm","us-ok","us-tx"]},"geometry":["point","area"],"matchScore":2,"terms":["mccoy's"],"tags":{"brand:wikidata":"Q27877295","shop":"doityourself"},"addTags":{"brand":"McCoy's","brand:wikidata":"Q27877295","name":"McCoy's","shop":"doityourself"}},"shop/gift/atticsalt-ae6503":{"name":"Attic Salt","locationSet":{"include":["us-az","us-ca","us-co","us-id","us-il","us-in","us-ks","us-la","us-mo","us-ne","us-nv","us-ok","us-or","us-tx","us-ut","us-wa"]},"geometry":["point","area"],"matchScore":2,"terms":["attic salt"],"tags":{"brand:wikidata":"Q108409773","shop":"gift"},"addTags":{"brand":"Attic Salt","brand:wikidata":"Q108409773","name":"Attic Salt","shop":"gift"}},"shop/hairdresser/imagestudios-0d42d5":{"name":"Image Studios","locationSet":{"include":["us-ca","us-co","us-fl","us-ga","us-ky","us-mo","us-nc","us-nj","us-nv","us-ny","us-oh","us-or","us-sc","us-tn","us-tx","us-ut"]},"geometry":["point","area"],"matchScore":2,"terms":["image studios"],"tags":{"brand:wikidata":"Q110998819","shop":"hairdresser"},"addTags":{"brand":"Image Studios","brand:wikidata":"Q110998819","name":"Image Studios","shop":"hairdresser"}},"shop/paint/kellymoorepaints-c9fb37":{"name":"Kelly-Moore Paints","locationSet":{"include":["us-ca","us-nv","us-ok","us-tx"]},"geometry":["point","area"],"matchScore":2,"terms":["kelly moore","kelly moore homeowner shop","kelly moore paint company","kelly-moore paints"],"tags":{"brand:wikidata":"Q6385913","shop":"paint"},"addTags":{"brand":"Kelly-Moore Paints","brand:wikidata":"Q6385913","name":"Kelly-Moore Paints","shop":"paint"}},"shop/pastry/mrsfields-e944b6":{"name":"Mrs. Fields","locationSet":{"include":["au","ph","us-ak","us-al","us-az","us-ca","us-co","us-de","us-fl","us-ga","us-hi","us-id","us-il","us-in","us-ks","us-la","us-ma","us-md","us-me","us-mi","us-mo","us-ms","us-nc","us-nj","us-nv","us-ny","us-oh","us-ok","us-pa","us-tx","us-ut","us-wi"]},"geometry":["point","area"],"matchScore":2,"terms":["mrs. fields"],"tags":{"brand:wikidata":"Q3866841","shop":"pastry"},"addTags":{"brand":"Mrs. Fields","brand:wikidata":"Q3866841","name":"Mrs. Fields","shop":"pastry"}},"shop/storage_rental/metroselfstorage-5b962b":{"name":"Metro Self Storage","locationSet":{"include":["us-al","us-ct","us-fl","us-ga","us-il","us-mn","us-nj","us-ny","us-pa","us-tn","us-tx","us-wi"]},"geometry":["point","area"],"matchScore":2,"terms":["metro self storage"],"tags":{"brand:wikidata":"Q114515454","shop":"storage_rental"},"addTags":{"brand":"Metro Self Storage","brand:wikidata":"Q114515454","name":"Metro Self Storage","shop":"storage_rental"}},"shop/supermarket/amigos-a6c312":{"name":"Amigos","locationSet":{"include":["us-tx"]},"geometry":["point","area"],"matchScore":2,"terms":["amigos","amigos united"],"tags":{"brand:wikidata":"Q115350331","shop":"supermarket"},"addTags":{"brand":"Amigos","brand:wikidata":"Q115350331","name":"Amigos","shop":"supermarket"}},"shop/supermarket/marketstreet-fa4d34":{"name":"Market Street","locationSet":{"include":["us-nm","us-tx"]},"geometry":["point","area"],"matchScore":2,"terms":["market street"],"tags":{"brand:wikidata":"Q119405196","shop":"supermarket"},"addTags":{"brand":"Market Street","brand:wikidata":"Q119405196","name":"Market Street","shop":"supermarket"}},"shop/supermarket/sfsupermarket-7c1bf0":{"name":"SF Supermarket","locationSet":{"include":["us-ca","us-nv","us-or","us-tx"]},"geometry":["point","area"],"matchScore":2,"terms":["sf supermarket","shun fat supermarket"],"tags":{"brand:wikidata":"Q7505012","shop":"supermarket"},"addTags":{"brand":"SF Supermarket","brand:wikidata":"Q7505012","cuisine":"asian","name":"SF Supermarket","name:en":"SF Supermarket","name:zh-Hans":"顺发超级市场","name:zh-Hant":"順發超級市場","shop":"supermarket"}},"shop/supermarket/tomthumb-a6c312":{"name":"Tom Thumb","locationSet":{"include":["us-tx"]},"geometry":["point","area"],"matchScore":2,"terms":["tom thumb"],"tags":{"brand:wikidata":"Q7817826","shop":"supermarket"},"addTags":{"brand":"Tom Thumb","brand:wikidata":"Q7817826","name":"Tom Thumb","shop":"supermarket"}},"shop/supermarket/unitedsupermarkets-a6c312":{"name":"United Supermarkets","locationSet":{"include":["us-tx"]},"geometry":["point","area"],"matchScore":2,"terms":["united supermarkets"],"tags":{"brand:wikidata":"Q17108901","shop":"supermarket"},"addTags":{"brand":"United Supermarkets","brand:wikidata":"Q17108901","name":"United Supermarkets","shop":"supermarket"}},"shop/trade/holtcat-f0929a":{"name":"Holt CAT","locationSet":{"include":["us-tx"]},"geometry":["point","area"],"matchScore":2,"terms":["holt cat"],"tags":{"brand:wikidata":"Q109615985","shop":"trade"},"addTags":{"brand":"Holt CAT","brand:wikidata":"Q109615985","name":"Holt CAT","shop":"trade","trade":"construction_equipment"}},"shop/trade/mustangcat-f0929a":{"name":"Mustang CAT","locationSet":{"include":["us-tx"]},"geometry":["point","area"],"matchScore":2,"terms":["mustang cat"],"tags":{"brand:wikidata":"Q109619495","shop":"trade"},"addTags":{"brand":"Mustang CAT","brand:wikidata":"Q109619495","name":"Mustang CAT","shop":"trade","trade":"construction_equipment"}},"shop/trade/warrencat-fc264f":{"name":"Warren CAT","locationSet":{"include":["us-ok","us-tx"]},"geometry":["point","area"],"matchScore":2,"terms":["warren cat"],"tags":{"brand:wikidata":"Q109615947","shop":"trade"},"addTags":{"brand":"Warren CAT","brand:wikidata":"Q109615947","name":"Warren CAT","shop":"trade","trade":"construction_equipment"}},"amenity/drinking_water/cityofaustin-6aaee1":{"name":"City of Austin(Texas)","locationSet":{"include":["us-tx"]},"geometry":["point","vertex"],"matchScore":2,"terms":["city of austin"],"tags":{"amenity":"drinking_water","operator:wikidata":"Q16559"},"addTags":{"amenity":"drinking_water","operator":"City of Austin","operator:type":"government","operator:wikidata":"Q16559"}},"amenity/drinking_water/cityofdenton-6aaee1":{"name":"City of Denton","locationSet":{"include":["us-tx"]},"geometry":["point","vertex"],"matchScore":2,"terms":["city of denton"],"tags":{"amenity":"drinking_water","operator:wikidata":"Q128306"},"addTags":{"amenity":"drinking_water","operator":"City of Denton","operator:type":"government","operator:wikidata":"Q128306"}},"amenity/fire_station/sanantoniofiredepartment-3bf6a6":{"name":"San Antonio Fire Department","locationSet":{"include":["us-tx"]},"geometry":["point","area"],"matchScore":2,"terms":["city of san antonio","safd","san antonio fire department"],"tags":{"amenity":"fire_station","operator:wikidata":"Q7413325"},"addTags":{"amenity":"fire_station","operator":"San Antonio Fire Department","operator:wikidata":"Q7413325"}},"amenity/hospital/covenanthealth-94a05e":{"name":"Covenant Health (Texas)","locationSet":{"include":["us-nm","us-tx"]},"geometry":["area","point"],"matchScore":2,"terms":["covenant health"],"fields":["name","operator","{amenity/hospital}"],"reference":{"key":"amenity","value":"hospital"},"tags":{"amenity":"hospital","operator:wikidata":"Q5178997"},"addTags":{"amenity":"hospital","healthcare":"hospital","operator":"Covenant Health","operator:wikidata":"Q5178997"}},"amenity/library/austinpubliclibrary-24a277":{"name":"Austin Public Library","locationSet":{"include":["us-tx"]},"geometry":["point","area"],"matchScore":2,"terms":["austin public library"],"tags":{"amenity":"library","operator:wikidata":"Q69491633"},"addTags":{"amenity":"library","operator":"Austin Public Library","operator:type":"government","operator:wikidata":"Q69491633"}},"amenity/library/cityofsanantonio-24a277":{"name":"City of San Antonio","locationSet":{"include":["us-tx"]},"geometry":["point","area"],"matchScore":2,"terms":["city of san antonio"],"tags":{"amenity":"library","operator:wikidata":"Q975"},"addTags":{"amenity":"library","operator":"City of San Antonio","operator:type":"public","operator:wikidata":"Q975"}},"amenity/library/houstonpubliclibrary-24a277":{"name":"Houston Public Library","locationSet":{"include":["us-tx"]},"geometry":["point","area"],"matchScore":2,"terms":["houston public library","hpl"],"tags":{"amenity":"library","operator:wikidata":"Q69491594"},"addTags":{"amenity":"library","operator":"Houston Public Library","operator:short":"HPL","operator:type":"public","operator:wikidata":"Q69491594"}},"amenity/police/texashighwaypatrol-d15be5":{"name":"Texas Highway Patrol","locationSet":{"include":["us-tx"]},"geometry":["point","area"],"matchScore":2,"terms":["texas highway patrol","thp"],"searchable":false,"tags":{"amenity":"police","operator:wikidata":"Q3788793"},"addTags":{"amenity":"police","operator":"Texas Highway Patrol","operator:short":"THP","operator:wikidata":"Q3788793"}},"amenity/police/texasrangerdivision-d15be5":{"name":"Texas Rangers","locationSet":{"include":["us-tx"]},"geometry":["point","area"],"matchScore":2,"terms":["texas ranger division","texas rangers"],"tags":{"amenity":"police","operator:wikidata":"Q510865"},"addTags":{"amenity":"police","operator":"Texas Ranger Division","operator:short":"Texas Rangers","operator:wikidata":"Q510865"}},"amenity/prison/texasdepartmentofcriminaljustice-024da5":{"name":"Texas Department of Criminal Justice","locationSet":{"include":["us-tx"]},"geometry":["area","point"],"matchScore":2,"terms":["tdcj","texas department of criminal justice"],"fields":["name","operator","{amenity/prison}"],"tags":{"amenity":"prison","operator:wikidata":"Q3819598"},"addTags":{"amenity":"prison","operator":"Texas Department of Criminal Justice","operator:wikidata":"Q3819598"}},"amenity/school/aldineindependentschooldistrict-d19570":{"name":"Aldine Independent School District","locationSet":{"include":["us-tx"]},"geometry":["area","point"],"matchScore":2,"terms":["aisd","aldine independent school district"],"tags":{"amenity":"school","operator:wikidata":"Q4713820"},"addTags":{"amenity":"school","operator":"Aldine Independent School District","operator:short":"AISD","operator:type":"public","operator:wikidata":"Q4713820"}},"amenity/school/aliceindependentschooldistrict-d19570":{"name":"Alice Independent School District","locationSet":{"include":["us-tx"]},"geometry":["area","point"],"matchScore":2,"terms":["aisd","alice independent school district"],"tags":{"amenity":"school","operator:wikidata":"Q4725927"},"addTags":{"amenity":"school","operator":"Alice Independent School District","operator:short":"AISD","operator:type":"public","operator:wikidata":"Q4725927"}},"amenity/school/aliefindependentschooldistrict-d19570":{"name":"Alief Independent School District","locationSet":{"include":["us-tx"]},"geometry":["area","point"],"matchScore":2,"terms":["aisd","alief independent school district"],"tags":{"amenity":"school","operator:wikidata":"Q4726388"},"addTags":{"amenity":"school","operator":"Alief Independent School District","operator:short":"AISD","operator:type":"public","operator:wikidata":"Q4726388"}},"amenity/school/amarilloindependentschooldistrict-d19570":{"name":"Amarillo ISD","locationSet":{"include":["us-tx"]},"geometry":["area","point"],"matchScore":2,"terms":["amarillo independent school district","amarillo isd"],"tags":{"amenity":"school","operator:wikidata":"Q4740272"},"addTags":{"amenity":"school","operator":"Amarillo Independent School District","operator:short":"Amarillo ISD","operator:type":"public","operator:wikidata":"Q4740272"}},"amenity/school/arlingtonindependentschooldistrict-d19570":{"name":"Arlington Independent School District","locationSet":{"include":["us-tx"]},"geometry":["area","point"],"matchScore":2,"terms":["aisd","arlington independent school district"],"tags":{"amenity":"school","operator:wikidata":"Q4792360"},"addTags":{"amenity":"school","operator":"Arlington Independent School District","operator:short":"AISD","operator:type":"public","operator:wikidata":"Q4792360"}},"amenity/school/austinindependentschooldistrict-d19570":{"name":"Austin Independent School District","locationSet":{"include":["us-tx"]},"geometry":["area","point"],"matchScore":2,"terms":["aisd","austin independent school district"],"tags":{"amenity":"school","operator:wikidata":"Q4823141"},"addTags":{"amenity":"school","operator":"Austin Independent School District","operator:short":"AISD","operator:type":"public","operator:wikidata":"Q4823141"}},"amenity/school/birdvilleindependentschooldistrict-d19570":{"name":"Birdville Independent School District","locationSet":{"include":["us-tx"]},"geometry":["area","point"],"matchScore":2,"terms":["birdville independent school district","bisd"],"tags":{"amenity":"school","operator:wikidata":"Q4916161"},"addTags":{"amenity":"school","operator":"Birdville Independent School District","operator:short":"BISD","operator:type":"public","operator:wikidata":"Q4916161"}},"amenity/school/brownsvilleindependentschooldistrict-d19570":{"name":"Brownsville Independent School District","locationSet":{"include":["us-tx"]},"geometry":["area","point"],"matchScore":2,"terms":["bisd","brownsville independent school district"],"tags":{"amenity":"school","operator:wikidata":"Q4976789"},"addTags":{"amenity":"school","operator":"Brownsville Independent School District","operator:short":"BISD","operator:type":"public","operator:wikidata":"Q4976789"}},"amenity/school/bryanindependentschooldistrict-d19570":{"name":"Bryan Independent School District","locationSet":{"include":["us-tx"]},"geometry":["area","point"],"matchScore":2,"terms":["bryan independent school district","bryan isd"],"tags":{"amenity":"school","operator:wikidata":"Q4980176"},"addTags":{"amenity":"school","operator":"Bryan Independent School District","operator:short":"Bryan ISD","operator:type":"public","operator:wikidata":"Q4980176"}},"amenity/school/carrolltonfarmersbranchindependentschooldistrict-d19570":{"name":"Carrollton-Farmers Branch Independent School District","locationSet":{"include":["us-tx"]},"geometry":["area","point"],"matchScore":2,"terms":["carrollton-farmers branch independent school district","cfbisd"],"tags":{"amenity":"school","operator:wikidata":"Q5046653"},"addTags":{"amenity":"school","operator":"Carrollton-Farmers Branch Independent School District","operator:short":"CFBISD","operator:type":"public","operator:wikidata":"Q5046653"}},"amenity/school/cedarhillindependentschooldistrict-d19570":{"name":"Cedar Hill Independent School District","locationSet":{"include":["us-tx"]},"geometry":["area","point"],"matchScore":2,"terms":["cedar hill independent school district","chisd"],"tags":{"amenity":"school","operator:wikidata":"Q16956228"},"addTags":{"amenity":"school","operator":"Cedar Hill Independent School District","operator:short":"CHISD","operator:type":"public","operator:wikidata":"Q16956228"}},"amenity/school/comalindependentschooldistrict-d19570":{"name":"Comal Independent School District","locationSet":{"include":["us-tx"]},"geometry":["area","point"],"matchScore":2,"terms":["cisd","comal independent school district"],"tags":{"amenity":"school","operator:wikidata":"Q5150491"},"addTags":{"amenity":"school","operator":"Comal Independent School District","operator:short":"CISD","operator:type":"public","operator:wikidata":"Q5150491"}},"amenity/school/coppellindependentschooldistrict-d19570":{"name":"Coppell Independent School District","locationSet":{"include":["us-tx"]},"geometry":["area","point"],"matchScore":2,"terms":["cisd","coppell independent school district"],"tags":{"amenity":"school","operator:wikidata":"Q5168672"},"addTags":{"amenity":"school","operator":"Coppell Independent School District","operator:short":"CISD","operator:type":"public","operator:wikidata":"Q5168672"}},"amenity/school/crowleyindependentschooldistrict-d19570":{"name":"Crowley Independent School District","locationSet":{"include":["us-tx"]},"geometry":["area","point"],"matchScore":2,"terms":["cisd","crowley independent school district"],"tags":{"amenity":"school","operator:wikidata":"Q5189272"},"addTags":{"amenity":"school","operator":"Crowley Independent School District","operator:short":"CISD","operator:type":"public","operator:wikidata":"Q5189272"}},"amenity/school/cypressfairbanksindependentschooldistrict-d19570":{"name":"Cypress-Fairbanks Independent School District","locationSet":{"include":["us-tx"]},"geometry":["area","point"],"matchScore":2,"terms":["cfisd","cypress-fairbanks independent school district"],"tags":{"amenity":"school","operator:wikidata":"Q5200304"},"addTags":{"amenity":"school","operator":"Cypress-Fairbanks Independent School District","operator:short":"CFISD","operator:type":"public","operator:wikidata":"Q5200304"}},"amenity/school/dallasindependentschooldistrict-d19570":{"name":"Dallas ISD","locationSet":{"include":["us-tx"]},"geometry":["area","point"],"matchScore":2,"terms":["dallas independent school district","dallas isd"],"tags":{"amenity":"school","operator:wikidata":"Q5211353"},"addTags":{"amenity":"school","operator":"Dallas Independent School District","operator:short":"Dallas ISD","operator:type":"public","operator:wikidata":"Q5211353"}},"amenity/school/dentonindependentschooldistrict-d19570":{"name":"Denton Independent School District","locationSet":{"include":["us-tx"]},"geometry":["area","point"],"matchScore":2,"terms":["denton independent school district","denton isd"],"tags":{"amenity":"school","operator:wikidata":"Q5259616"},"addTags":{"amenity":"school","operator":"Denton Independent School District","operator:short":"Denton ISD","operator:type":"public","operator:wikidata":"Q5259616"}},"amenity/school/donnaindependentschooldistrict-d19570":{"name":"Donna Independent School District","locationSet":{"include":["us-tx"]},"geometry":["area","point"],"matchScore":2,"terms":["disd","donna independent school district"],"tags":{"amenity":"school","operator:wikidata":"Q5296372"},"addTags":{"amenity":"school","operator":"Donna Independent School District","operator:short":"DISD","operator:type":"public","operator:wikidata":"Q5296372"}},"amenity/school/duncanvilleindependentschooldistrict-d19570":{"name":"Duncanville Independent School District","locationSet":{"include":["us-tx"]},"geometry":["area","point"],"matchScore":2,"terms":["disd","duncanville independent school district"],"tags":{"amenity":"school","operator:wikidata":"Q5314689"},"addTags":{"amenity":"school","operator":"Duncanville Independent School District","operator:short":"DISD","operator:type":"public","operator:wikidata":"Q5314689"}},"amenity/school/eaglemountainsaginawindependentschooldistrict-d19570":{"name":"Eagle Mountain-Saginaw Independent School District","locationSet":{"include":["us-tx"]},"geometry":["area","point"],"matchScore":2,"terms":["eagle mountain-saginaw independent school district","emsisd"],"tags":{"amenity":"school","operator:wikidata":"Q5325166"},"addTags":{"amenity":"school","operator":"Eagle Mountain-Saginaw Independent School District","operator:short":"EMSISD","operator:type":"public","operator:wikidata":"Q5325166"}},"amenity/school/forneyindependentschooldistrict-d19570":{"name":"Forney ISD","locationSet":{"include":["us-tx"]},"geometry":["area","point"],"matchScore":2,"terms":["forney independent school district","forney isd"],"tags":{"amenity":"school","operator:wikidata":"Q5470375"},"addTags":{"amenity":"school","operator":"Forney Independent School District","operator:short":"Forney ISD","operator:type":"public","operator:wikidata":"Q5470375"}},"amenity/school/fortbendindependentschooldistrict-d19570":{"name":"Fort Bend Independent School District","locationSet":{"include":["us-tx"]},"geometry":["area","point"],"matchScore":2,"terms":["fbisd","fort bend independent school district"],"tags":{"amenity":"school","operator:wikidata":"Q5470808"},"addTags":{"amenity":"school","operator":"Fort Bend Independent School District","operator:short":"FBISD","operator:type":"public","operator:wikidata":"Q5470808"}},"amenity/school/fortworthindependentschooldistrict-d19570":{"name":"Fort Worth Independent School District","locationSet":{"include":["us-tx"]},"geometry":["area","point"],"matchScore":2,"terms":["fort worth independent school district","fwisd"],"tags":{"amenity":"school","operator:wikidata":"Q5472395"},"addTags":{"amenity":"school","operator":"Fort Worth Independent School District","operator:short":"FWISD","operator:type":"public","operator:wikidata":"Q5472395"}},"amenity/school/frenshipindependentschooldistrict-d19570":{"name":"Frenship Independent School District","locationSet":{"include":["us-tx"]},"geometry":["area","point"],"matchScore":2,"terms":["frenship independent school district","frenship isd"],"tags":{"amenity":"school","operator:wikidata":"Q5502794"},"addTags":{"amenity":"school","operator":"Frenship Independent School District","operator:short":"Frenship ISD","operator:type":"public","operator:wikidata":"Q5502794"}},"amenity/school/grandprairieindependentschooldistrict-d19570":{"name":"Grand Prairie Independent School District","locationSet":{"include":["us-tx"]},"geometry":["area","point"],"matchScore":2,"terms":["gpisd","grand prairie independent school district"],"tags":{"amenity":"school","operator:wikidata":"Q8560651"},"addTags":{"amenity":"school","operator":"Grand Prairie Independent School District","operator:short":"GPISD","operator:type":"public","operator:wikidata":"Q8560651"}},"amenity/school/grapevinecolleyvilleindependentschooldistrict-d19570":{"name":"Grapevine-Colleyville Independent School District","locationSet":{"include":["us-tx"]},"geometry":["area","point"],"matchScore":2,"terms":["gcisd","grapevine-colleyville independent school district"],"tags":{"amenity":"school","operator:wikidata":"Q5597029"},"addTags":{"amenity":"school","operator":"Grapevine-Colleyville Independent School District","operator:short":"GCISD","operator:type":"public","operator:wikidata":"Q5597029"}},"amenity/school/harlandaleindependentschooldistrict-d19570":{"name":"Harlandale Independent School District","locationSet":{"include":["us-tx"]},"geometry":["area","point"],"matchScore":2,"terms":["harlandale independent school district","hisd"],"tags":{"amenity":"school","operator:wikidata":"Q5658439"},"addTags":{"amenity":"school","operator":"Harlandale Independent School District","operator:short":"HISD","operator:type":"public","operator:wikidata":"Q5658439"}},"amenity/school/harlingenconsolidatedindependentschooldistrict-d19570":{"name":"Harlingen Consolidated Independent School District","locationSet":{"include":["us-tx"]},"geometry":["area","point"],"matchScore":2,"terms":["harlingen consolidated independent school district","hcisd"],"tags":{"amenity":"school","operator:wikidata":"Q578891"},"addTags":{"amenity":"school","operator":"Harlingen Consolidated Independent School District","operator:short":"HCISD","operator:type":"public","operator:wikidata":"Q578891"}},"amenity/school/houstonindependentschooldistrict-d19570":{"name":"Houston Independent School District","locationSet":{"include":["us-tx"]},"geometry":["area","point"],"matchScore":2,"terms":["hisd","houston independent school district"],"tags":{"amenity":"school","operator:wikidata":"Q1029560"},"addTags":{"amenity":"school","operator":"Houston Independent School District","operator:short":"HISD","operator:type":"public","operator:wikidata":"Q1029560"}},"amenity/school/humbleindependentschooldistrict-d19570":{"name":"Humble Independent School District","locationSet":{"include":["us-tx"]},"geometry":["area","point"],"matchScore":2,"terms":["hisd","humble independent school district"],"tags":{"amenity":"school","operator:wikidata":"Q385491"},"addTags":{"amenity":"school","operator":"Humble Independent School District","operator:short":"HISD","operator:type":"public","operator:wikidata":"Q385491"}},"amenity/school/hursteulessbedfordindependentschooldistrict-d19570":{"name":"Hurst-Euless-Bedford Independent School District","locationSet":{"include":["us-tx"]},"geometry":["area","point"],"matchScore":2,"terms":["hebisd","hurst-euless-bedford independent school district"],"tags":{"amenity":"school","operator:wikidata":"Q5948556"},"addTags":{"amenity":"school","operator":"Hurst-Euless-Bedford Independent School District","operator:short":"HEBISD","operator:type":"public","operator:wikidata":"Q5948556"}},"amenity/school/ideapublicschools-d19570":{"name":"IDEA Public Schools","locationSet":{"include":["us-tx"]},"geometry":["area","point"],"matchScore":2,"terms":["idea","idea public schools"],"tags":{"amenity":"school","operator:wikidata":"Q5969981"},"addTags":{"amenity":"school","operator":"IDEA Public Schools","operator:short":"IDEA","operator:type":"ngo","operator:wikidata":"Q5969981"}},"amenity/school/irvingindependentschooldistrict-d19570":{"name":"Irving Independent School District","locationSet":{"include":["us-tx"]},"geometry":["area","point"],"matchScore":2,"terms":["iisd","irving independent school district"],"tags":{"amenity":"school","operator:wikidata":"Q2841538"},"addTags":{"amenity":"school","operator":"Irving Independent School District","operator:short":"IISD","operator:type":"public","operator:wikidata":"Q2841538"}},"amenity/school/judsonindependentschooldistrict-d19570":{"name":"Judson Independent School District","locationSet":{"include":["us-tx"]},"geometry":["area","point"],"matchScore":2,"terms":["jisd","judson independent school district"],"tags":{"amenity":"school","operator:wikidata":"Q6304246"},"addTags":{"amenity":"school","operator":"Judson Independent School District","operator:short":"JISD","operator:type":"public","operator:wikidata":"Q6304246"}},"amenity/school/katyindependentschooldistrict-d19570":{"name":"Katy Independent School District","locationSet":{"include":["us-tx"]},"geometry":["area","point"],"matchScore":2,"terms":["katy independent school district","kisd"],"tags":{"amenity":"school","operator:wikidata":"Q6378510"},"addTags":{"amenity":"school","operator":"Katy Independent School District","operator:short":"KISD","operator:type":"public","operator:wikidata":"Q6378510"}},"amenity/school/kellerindependentschooldistrict-d19570":{"name":"Keller Independent School District","locationSet":{"include":["us-tx"]},"geometry":["area","point"],"matchScore":2,"terms":["keller independent school district","kisd"],"tags":{"amenity":"school","operator:wikidata":"Q6385682"},"addTags":{"amenity":"school","operator":"Keller Independent School District","operator:short":"KISD","operator:type":"public","operator:wikidata":"Q6385682"}},"amenity/school/killeenindependentschooldistrict-d19570":{"name":"Killeen ISD","locationSet":{"include":["us-tx"]},"geometry":["area","point"],"matchScore":2,"terms":["killeen independent school district","killeen isd"],"tags":{"amenity":"school","operator:wikidata":"Q6407407"},"addTags":{"amenity":"school","operator":"Killeen Independent School District","operator:short":"Killeen ISD","operator:type":"public","operator:wikidata":"Q6407407"}},"amenity/school/kleinindependentschooldistrict-d19570":{"name":"Klein Independent School District","locationSet":{"include":["us-tx"]},"geometry":["area","point"],"matchScore":2,"terms":["kisd","klein independent school district"],"tags":{"amenity":"school","operator:wikidata":"Q6420157"},"addTags":{"amenity":"school","operator":"Klein Independent School District","operator:short":"KISD","operator:type":"public","operator:wikidata":"Q6420157"}},"amenity/school/lajoyaindependentschooldistrict-d19570":{"name":"La Joya Independent School District","locationSet":{"include":["us-tx"]},"geometry":["area","point"],"matchScore":2,"terms":["la joya independent school district","ljisd"],"tags":{"amenity":"school","operator:wikidata":"Q6463270"},"addTags":{"amenity":"school","operator":"La Joya Independent School District","operator:short":"LJISD","operator:type":"public","operator:wikidata":"Q6463270"}},"amenity/school/lancasterindependentschooldistrict-d19570":{"name":"Lancaster Independent School District","locationSet":{"include":["us-tx"]},"geometry":["area","point"],"matchScore":2,"terms":["lancaster independent school district","lisd"],"tags":{"amenity":"school","operator:wikidata":"Q6483205"},"addTags":{"amenity":"school","operator":"Lancaster Independent School District","operator:short":"LISD","operator:type":"public","operator:wikidata":"Q6483205"}},"amenity/school/leanderindependentschooldistrict-d19570":{"name":"Leander Independent School District","locationSet":{"include":["us-tx"]},"geometry":["area","point"],"matchScore":2,"terms":["leander independent school district"],"tags":{"amenity":"school","operator:wikidata":"Q6509528"},"addTags":{"amenity":"school","operator":"Leander Independent School District","operator:type":"public","operator:wikidata":"Q6509528"}},"amenity/school/lewisvilleindependentschooldistrict-d19570":{"name":"Lewisville Independent School District","locationSet":{"include":["us-tx"]},"geometry":["area","point"],"matchScore":2,"terms":["lewisville independent school district","lisd"],"tags":{"amenity":"school","operator:wikidata":"Q6537450"},"addTags":{"amenity":"school","operator":"Lewisville Independent School District","operator:short":"LISD","operator:type":"public","operator:wikidata":"Q6537450"}},"amenity/school/lubbockindependentschooldistrict-d19570":{"name":"Lubbock ISD","locationSet":{"include":["us-tx"]},"geometry":["area","point"],"matchScore":2,"terms":["lubbock independent school district","lubbock isd"],"tags":{"amenity":"school","operator:wikidata":"Q6695124"},"addTags":{"amenity":"school","operator":"Lubbock Independent School District","operator:short":"Lubbock ISD","operator:type":"public","operator:wikidata":"Q6695124"}},"amenity/school/mansfieldindependentschooldistrict-d19570":{"name":"Mansfield Independent School District","locationSet":{"include":["us-tx"]},"geometry":["area","point"],"matchScore":2,"terms":["mansfield independent school district","misd"],"tags":{"amenity":"school","operator:wikidata":"Q6751656"},"addTags":{"amenity":"school","operator":"Mansfield Independent School District","operator:short":"MISD","operator:type":"public","operator:wikidata":"Q6751656"}},"amenity/school/mcallenindependentschooldistrict-d19570":{"name":"McAllen Independent School District","locationSet":{"include":["us-tx"]},"geometry":["area","point"],"matchScore":2,"terms":["mcallen independent school district","misd"],"tags":{"amenity":"school","operator:wikidata":"Q6799909"},"addTags":{"amenity":"school","operator":"McAllen Independent School District","operator:short":"MISD","operator:type":"public","operator:wikidata":"Q6799909"}},"amenity/school/mesquiteindependentschooldistrict-d19570":{"name":"Mesquite ISD","locationSet":{"include":["us-tx"]},"geometry":["area","point"],"matchScore":2,"terms":["mesquite independent school district","mesquite isd"],"tags":{"amenity":"school","operator:wikidata":"Q6821688"},"addTags":{"amenity":"school","operator":"Mesquite Independent School District","operator:short":"Mesquite ISD","operator:type":"public","operator:wikidata":"Q6821688"}},"amenity/school/missionconsolidatedindependentschooldistrict-d19570":{"name":"Mission Consolidated Independent School District","locationSet":{"include":["us-tx"]},"geometry":["area","point"],"matchScore":2,"terms":["mcisd","mission consolidated independent school district"],"tags":{"amenity":"school","operator:wikidata":"Q6878570"},"addTags":{"amenity":"school","operator":"Mission Consolidated Independent School District","operator:short":"MCISD","operator:type":"public","operator:wikidata":"Q6878570"}},"amenity/school/northeastindependentschooldistrict-d19570":{"name":"North East Independent School District","locationSet":{"include":["us-tx"]},"geometry":["area","point"],"matchScore":2,"terms":["neisd","north east independent school district"],"tags":{"amenity":"school","operator:wikidata":"Q6135283"},"addTags":{"amenity":"school","operator":"North East Independent School District","operator:short":"NEISD","operator:type":"public","operator:wikidata":"Q6135283"}},"amenity/school/pflugervilleindependentschooldistrict-d19570":{"name":"Pflugerville ISD","locationSet":{"include":["us-tx"]},"geometry":["area","point"],"matchScore":2,"terms":["pflugerville independent school district","pflugerville isd"],"tags":{"amenity":"school","operator:wikidata":"Q5494632"},"addTags":{"amenity":"school","operator":"Pflugerville Independent School District","operator:short":"Pflugerville ISD","operator:type":"public","operator:wikidata":"Q5494632"}},"amenity/school/pharrsanjuanalamoindependentschooldistrict-d19570":{"name":"Pharr-San Juan-Alamo Independent School District","locationSet":{"include":["us-tx"]},"geometry":["area","point"],"matchScore":2,"terms":["pharr-san juan-alamo independent school district","psjaisd"],"tags":{"amenity":"school","operator:wikidata":"Q7180857"},"addTags":{"amenity":"school","operator":"Pharr-San Juan-Alamo Independent School District","operator:short":"PSJAISD","operator:type":"public","operator:wikidata":"Q7180857"}},"amenity/school/roundrockindependentschooldistrict-d19570":{"name":"Round Rock Independent School District","locationSet":{"include":["us-tx"]},"geometry":["area","point"],"matchScore":2,"terms":["round rock independent school district","rrisd"],"tags":{"amenity":"school","operator:wikidata":"Q7371124"},"addTags":{"amenity":"school","operator":"Round Rock Independent School District","operator:short":"RRISD","operator:type":"public","operator:wikidata":"Q7371124"}},"amenity/school/sanantonioindependentschooldistrict-d19570":{"name":"San Antonio Independent School District","locationSet":{"include":["us-tx"]},"geometry":["area","point"],"matchScore":2,"terms":["saisd","san antonio independent school district"],"tags":{"amenity":"school","operator:wikidata":"Q7413335"},"addTags":{"amenity":"school","operator":"San Antonio Independent School District","operator:short":"SAISD","operator:type":"public","operator:wikidata":"Q7413335"}},"amenity/school/sanbenitoconsolidatedindependentschooldistrict-d19570":{"name":"San Benito Consolidated Independent School District","locationSet":{"include":["us-tx"]},"geometry":["area","point"],"matchScore":2,"terms":["san benito consolidated independent school district","sbcisd"],"tags":{"amenity":"school","operator:wikidata":"Q7413406"},"addTags":{"amenity":"school","operator":"San Benito Consolidated Independent School District","operator:short":"SBCISD","operator:type":"public","operator:wikidata":"Q7413406"}},"amenity/school/sanfelipedelrioconsolidatedindependentschooldistrict-d19570":{"name":"San Felipe Del Rio Consolidated Independent School District","locationSet":{"include":["us-tx"]},"geometry":["area","point"],"matchScore":2,"terms":["san felipe del rio consolidated independent school district","sfdr"],"tags":{"amenity":"school","operator:wikidata":"Q7413834"},"addTags":{"amenity":"school","operator":"San Felipe Del Rio Consolidated Independent School District","operator:short":"SFDR","operator:type":"public","operator:wikidata":"Q7413834"}},"amenity/school/schertzcibolouniversalcityindependentschooldistrict-d19570":{"name":"Schertz-Cibolo-Universal City Independent School District","locationSet":{"include":["us-tx"]},"geometry":["area","point"],"matchScore":2,"terms":["schertz-cibolo-universal city independent school district","scuc"],"tags":{"amenity":"school","operator:wikidata":"Q7431207"},"addTags":{"amenity":"school","operator":"Schertz-Cibolo-Universal City Independent School District","operator:short":"SCUC","operator:type":"public","operator:wikidata":"Q7431207"}},"amenity/school/sharylandindependentschooldistrict-d19570":{"name":"Sharyland Independent School District","locationSet":{"include":["us-tx"]},"geometry":["area","point"],"matchScore":2,"terms":["sharyland independent school district","sisd"],"tags":{"amenity":"school","operator:wikidata":"Q7490512"},"addTags":{"amenity":"school","operator":"Sharyland Independent School District","operator:short":"SISD","operator:type":"public","operator:wikidata":"Q7490512"}},"amenity/school/springbranchindependentschooldistrict-d19570":{"name":"Spring Branch Independent School District","locationSet":{"include":["us-tx"]},"geometry":["area","point"],"matchScore":2,"terms":["sbisd","spring branch independent school district"],"tags":{"amenity":"school","operator:wikidata":"Q597778"},"addTags":{"amenity":"school","operator":"Spring Branch Independent School District","operator:short":"SBISD","operator:type":"public","operator:wikidata":"Q597778"}},"amenity/school/springindependentschooldistrict-d19570":{"name":"Spring Independent School District","locationSet":{"include":["us-tx"]},"geometry":["area","point"],"matchScore":2,"terms":["sisd","spring independent school district"],"tags":{"amenity":"school","operator:wikidata":"Q7580605"},"addTags":{"amenity":"school","operator":"Spring Independent School District","operator:short":"SISD","operator:type":"public","operator:wikidata":"Q7580605"}},"amenity/school/weslacoindependentschooldistrict-d19570":{"name":"Weslaco Independent School District","locationSet":{"include":["us-tx"]},"geometry":["area","point"],"matchScore":2,"terms":["weslaco independent school district","wisd"],"tags":{"amenity":"school","operator:wikidata":"Q7983822"},"addTags":{"amenity":"school","operator":"Weslaco Independent School District","operator:short":"WISD","operator:type":"public","operator:wikidata":"Q7983822"}},"amenity/school/wichitafallsindependentschooldistrict-d19570":{"name":"Wichita Falls ISD","locationSet":{"include":["us-tx"]},"geometry":["area","point"],"matchScore":2,"terms":["wichita falls independent school district","wichita falls isd"],"tags":{"amenity":"school","operator:wikidata":"Q7998125"},"addTags":{"amenity":"school","operator":"Wichita Falls Independent School District","operator:short":"Wichita Falls ISD","operator:type":"public","operator:wikidata":"Q7998125"}},"highway/toll_gantry/centraltexasregionalmobilityauthority-2ee94d":{"name":"Central Texas Regional Mobility Authority","locationSet":{"include":["us-tx"]},"geometry":["vertex"],"matchScore":2,"terms":["central texas regional mobility authority","ctrma","mobility authority"],"fields":["name","operator","{highway/toll_gantry}"],"tags":{"highway":"toll_gantry","operator:wikidata":"Q2504323"},"addTags":{"highway":"toll_gantry","operator":"Central Texas Regional Mobility Authority","operator:short":"CTRMA","operator:wikidata":"Q2504323","payment:license_plate":"yes","payment:txtag":"yes"}},"highway/toll_gantry/fortbendcountytollroadauthority-2ee94d":{"name":"Fort Bend County Toll Road Authority","locationSet":{"include":["us-tx"]},"geometry":["vertex"],"matchScore":2,"terms":["fbctra","fort bend county toll road authority"],"fields":["name","operator","{highway/toll_gantry}"],"tags":{"highway":"toll_gantry","operator:wikidata":"Q5470803"},"addTags":{"highway":"toll_gantry","operator":"Fort Bend County Toll Road Authority","operator:short":"FBCTRA","operator:wikidata":"Q5470803","payment:ez_tag":"yes","payment:license_plate":"no"}},"highway/toll_gantry/harriscountytollroadauthority-2ee94d":{"name":"Harris County Toll Road Authority","locationSet":{"include":["us-tx"]},"geometry":["vertex"],"matchScore":2,"terms":["harris county toll road authority","hctra"],"fields":["name","operator","{highway/toll_gantry}"],"tags":{"highway":"toll_gantry","operator:wikidata":"Q5664855"},"addTags":{"highway":"toll_gantry","operator":"Harris County Toll Road Authority","operator:short":"HCTRA","operator:wikidata":"Q5664855","payment:ez_tag":"yes"}},"highway/toll_gantry/montgomerycountytollroadauthority-2ee94d":{"name":"Montgomery County Toll Road Authority","locationSet":{"include":["us-tx"]},"geometry":["vertex"],"matchScore":2,"terms":["mctra","montgomery county toll road authority"],"fields":["name","operator","{highway/toll_gantry}"],"tags":{"highway":"toll_gantry","operator:wikidata":"Q19877037"},"addTags":{"highway":"toll_gantry","operator":"Montgomery County Toll Road Authority","operator:short":"MCTRA","operator:wikidata":"Q19877037","payment:ez_tag":"yes","payment:license_plate":"no"}},"highway/toll_gantry/northeasttexasregionalmobilityauthority-2ee94d":{"name":"North East Texas Regional Mobility Authority","locationSet":{"include":["us-tx"]},"geometry":["vertex"],"matchScore":2,"terms":["net rma","north east texas regional mobility authority"],"fields":["name","operator","{highway/toll_gantry}"],"tags":{"highway":"toll_gantry","operator:wikidata":"Q2504347"},"addTags":{"highway":"toll_gantry","operator":"North East Texas Regional Mobility Authority","operator:short":"NET RMA","operator:wikidata":"Q2504347","payment:license_plate":"yes","payment:txtag":"yes"}},"highway/toll_gantry/northtexastollwayauthority-2ee94d":{"name":"North Texas Tollway Authority","locationSet":{"include":["us-tx"]},"geometry":["vertex"],"matchScore":2,"terms":["north texas tollway authority","ntta","tolltag"],"fields":["name","operator","{highway/toll_gantry}"],"tags":{"highway":"toll_gantry","operator:wikidata":"Q13416600"},"addTags":{"highway":"toll_gantry","operator":"North Texas Tollway Authority","operator:short":"NTTA","operator:wikidata":"Q13416600","payment:license_plate":"yes","payment:tolltag":"yes","payment:txtag":"yes"}},"highway/toll_gantry/sh130concessioncompany-2ee94d":{"name":"SH 130 Concession Company","locationSet":{"include":["us-tx"]},"geometry":["vertex"],"matchScore":2,"terms":["sh 130 concession company"],"fields":["name","operator","{highway/toll_gantry}"],"tags":{"highway":"toll_gantry","operator:wikidata":"Q112700341"},"addTags":{"highway":"toll_gantry","operator":"SH 130 Concession Company","operator:wikidata":"Q112700341","payment:license_plate":"yes","payment:txtag":"yes"}},"highway/toll_gantry/tolloperationsdivisionofthetexasdepartmentoftransportation-2ee94d":{"name":"Toll Operations Division of the Texas Department of Transportation","locationSet":{"include":["us-tx"]},"geometry":["vertex"],"matchScore":2,"terms":["toll operations division of the texas department of transportation","txdot tod","txdot toll operations division"],"fields":["name","operator","{highway/toll_gantry}"],"tags":{"highway":"toll_gantry","operator:wikidata":"Q112700221"},"addTags":{"highway":"toll_gantry","operator":"Toll Operations Division of the Texas Department of Transportation","operator:short":"TxDOT TOD","operator:wikidata":"Q112700221","payment:license_plate":"yes","payment:txtag":"yes"}},"leisure/nature_reserve/austinparksandrecreationdepartment-a3b6e6":{"name":"Austin Parks and Recreation Department","locationSet":{"include":["us-tx"]},"geometry":["area","point"],"matchScore":2,"terms":["austin parks and recreation department","city of austin","city of austin parks and recreation"],"tags":{"leisure":"nature_reserve","operator:wikidata":"Q115220147"},"addTags":{"leisure":"nature_reserve","operator":"Austin Parks and Recreation Department","operator:type":"public","operator:wikidata":"Q115220147"}},"leisure/nature_reserve/cityofcorinth-a3b6e6":{"name":"City of Corinth","locationSet":{"include":["us-tx"]},"geometry":["area","point"],"matchScore":2,"terms":["city of corinth"],"tags":{"leisure":"nature_reserve","operator:wikidata":"Q974334"},"addTags":{"leisure":"nature_reserve","operator":"City of Corinth","operator:type":"public","operator:wikidata":"Q974334"}},"leisure/nature_reserve/cityofdenton-a3b6e6":{"name":"City of Denton","locationSet":{"include":["us-tx"]},"geometry":["area","point"],"matchScore":2,"terms":["city of denton"],"tags":{"leisure":"nature_reserve","operator:wikidata":"Q128306"},"addTags":{"leisure":"nature_reserve","operator":"City of Denton","operator:type":"public","operator:wikidata":"Q128306"}},"leisure/nature_reserve/cityofhighlandvillage-a3b6e6":{"name":"City of Highland Village","locationSet":{"include":["us-tx"]},"geometry":["area","point"],"matchScore":2,"terms":["city of highland village"],"tags":{"leisure":"nature_reserve","operator:wikidata":"Q250908"},"addTags":{"leisure":"nature_reserve","operator":"City of Highland Village","operator:type":"public","operator:wikidata":"Q250908"}},"leisure/nature_reserve/houstonparksandrecreationdepartment-a3b6e6":{"name":"City of Houston","locationSet":{"include":["us-tx"]},"geometry":["area","point"],"matchScore":2,"terms":["houston parks and recreation department","hpard"],"tags":{"leisure":"nature_reserve","operator:wikidata":"Q115018877"},"addTags":{"addr:state":"TX","leisure":"nature_reserve","operator":"Houston Parks and Recreation Department","operator:short":"HPARD","operator:type":"government","operator:wikidata":"Q115018877","owner":"City of Houston","owner:wikidata":"Q16555"}},"leisure/nature_reserve/cityofsanantonio-a3b6e6":{"name":"City of San Antonio","locationSet":{"include":["us-tx"]},"geometry":["area","point"],"matchScore":2,"terms":["city of san antonio"],"tags":{"leisure":"nature_reserve","operator:wikidata":"Q975"},"addTags":{"leisure":"nature_reserve","operator":"City of San Antonio","operator:type":"public","operator:wikidata":"Q975"}},"leisure/nature_reserve/cityofschertz-a3b6e6":{"name":"City of Schertz","locationSet":{"include":["us-tx"]},"geometry":["area","point"],"matchScore":2,"terms":["city of schertz"],"tags":{"leisure":"nature_reserve","operator:wikidata":"Q974055"},"addTags":{"leisure":"nature_reserve","operator":"City of Schertz","operator:type":"public","operator:wikidata":"Q974055"}},"leisure/nature_reserve/harriscountyprecinct3-a3b6e6":{"name":"Harris County Precinct 3","locationSet":{"include":["us-tx"]},"geometry":["area","point"],"matchScore":2,"terms":["harris county precinct 3"],"tags":{"leisure":"nature_reserve","operator:wikidata":"Q110064255"},"addTags":{"leisure":"nature_reserve","operator":"Harris County Precinct 3","operator:type":"public","operator:wikidata":"Q110064255"}},"leisure/nature_reserve/texashistoricalcommission-a3b6e6":{"name":"Texas Historical Commission","locationSet":{"include":["us-tx"]},"geometry":["area","point"],"matchScore":2,"terms":["texas historical commission"],"tags":{"leisure":"nature_reserve","operator:wikidata":"Q2397965"},"addTags":{"leisure":"nature_reserve","operator":"Texas Historical Commission","operator:type":"public","operator:wikidata":"Q2397965"}},"leisure/nature_reserve/texasparksandwildlifedepartment-a3b6e6":{"name":"Texas Parks & Wildlife","locationSet":{"include":["us-tx"]},"geometry":["area","point"],"matchScore":2,"terms":["texas parks and wildlife department","texas state parks","tpwd"],"tags":{"leisure":"nature_reserve","operator:wikidata":"Q7707904"},"addTags":{"leisure":"nature_reserve","operator":"Texas Parks and Wildlife Department","operator:short":"TPWD","operator:type":"public","operator:wikidata":"Q7707904"}},"leisure/park/austinparksandrecreationdepartment-8bfd34":{"name":"Austin Parks and Recreation Department","locationSet":{"include":["us-tx"]},"geometry":["area","point"],"matchScore":2,"terms":["austin parks and recreation department","city of austin","city of austin parks and recreation"],"tags":{"leisure":"park","operator:wikidata":"Q115220147"},"addTags":{"leisure":"park","operator":"Austin Parks and Recreation Department","operator:type":"public","operator:wikidata":"Q115220147"}},"leisure/park/cityofcorinth-8bfd34":{"name":"City of Corinth","locationSet":{"include":["us-tx"]},"geometry":["area","point"],"matchScore":2,"terms":["city of corinth"],"tags":{"leisure":"park","operator:wikidata":"Q974334"},"addTags":{"leisure":"park","operator":"City of Corinth","operator:type":"public","operator:wikidata":"Q974334"}},"leisure/park/cityofdenton-8bfd34":{"name":"City of Denton","locationSet":{"include":["us-tx"]},"geometry":["area","point"],"matchScore":2,"terms":["city of denton"],"tags":{"leisure":"park","operator:wikidata":"Q128306"},"addTags":{"leisure":"park","operator":"City of Denton","operator:type":"public","operator:wikidata":"Q128306"}},"leisure/park/cityofhighlandvillage-8bfd34":{"name":"City of Highland Village","locationSet":{"include":["us-tx"]},"geometry":["area","point"],"matchScore":2,"terms":["city of highland village"],"tags":{"leisure":"park","operator:wikidata":"Q250908"},"addTags":{"leisure":"park","operator":"City of Highland Village","operator:type":"public","operator:wikidata":"Q250908"}},"leisure/park/houstonparksandrecreationdepartment-8bfd34":{"name":"City of Houston","locationSet":{"include":["us-tx"]},"geometry":["area","point"],"matchScore":2,"terms":["houston parks and recreation department","hpard"],"tags":{"leisure":"park","operator:wikidata":"Q115018877"},"addTags":{"addr:state":"TX","leisure":"park","operator":"Houston Parks and Recreation Department","operator:short":"HPARD","operator:type":"government","operator:wikidata":"Q115018877","owner":"City of Houston","owner:wikidata":"Q16555"}},"leisure/park/cityofsanantonio-8bfd34":{"name":"City of San Antonio","locationSet":{"include":["us-tx"]},"geometry":["area","point"],"matchScore":2,"terms":["city of san antonio"],"tags":{"leisure":"park","operator:wikidata":"Q975"},"addTags":{"leisure":"park","operator":"City of San Antonio","operator:type":"public","operator:wikidata":"Q975"}},"leisure/park/cityofschertz-8bfd34":{"name":"City of Schertz","locationSet":{"include":["us-tx"]},"geometry":["area","point"],"matchScore":2,"terms":["city of schertz"],"tags":{"leisure":"park","operator:wikidata":"Q974055"},"addTags":{"leisure":"park","operator":"City of Schertz","operator:type":"public","operator:wikidata":"Q974055"}},"leisure/park/harriscountyprecinct3-8bfd34":{"name":"Harris County Precinct 3","locationSet":{"include":["us-tx"]},"geometry":["area","point"],"matchScore":2,"terms":["harris county precinct 3"],"tags":{"leisure":"park","operator:wikidata":"Q110064255"},"addTags":{"leisure":"park","operator":"Harris County Precinct 3","operator:type":"public","operator:wikidata":"Q110064255"}},"leisure/park/texashistoricalcommission-8bfd34":{"name":"Texas Historical Commission","locationSet":{"include":["us-tx"]},"geometry":["area","point"],"matchScore":2,"terms":["texas historical commission"],"tags":{"leisure":"park","operator:wikidata":"Q2397965"},"addTags":{"leisure":"park","operator":"Texas Historical Commission","operator:type":"public","operator:wikidata":"Q2397965"}},"leisure/park/texasparksandwildlifedepartment-8bfd34":{"name":"Texas Parks & Wildlife","locationSet":{"include":["us-tx"]},"geometry":["area","point"],"matchScore":2,"terms":["texas parks and wildlife department","texas state parks","tpwd"],"tags":{"leisure":"park","operator:wikidata":"Q7707904"},"addTags":{"leisure":"park","operator":"Texas Parks and Wildlife Department","operator:short":"TPWD","operator:type":"public","operator:wikidata":"Q7707904"}},"office/government/texasdepartmentofmotorvehicles-c28928":{"name":"Texas DMV","locationSet":{"include":["us-tx"]},"geometry":["point","area"],"matchScore":2,"terms":["dmv","texas department of motor vehicles","texas dmv"],"fields":["name","operator","{office/government}"],"tags":{"office":"government","operator:wikidata":"Q4170975"},"addTags":{"government":"transportation","office":"government","operator":"Texas Department of Motor Vehicles","operator:short":"Texas DMV","operator:wikidata":"Q4170975"}},"power/generator/lowercoloradoriverauthority-546c7b":{"name":"Lower Colorado River Authority","locationSet":{"include":["us-tx"]},"geometry":["point","vertex","area"],"matchScore":2,"terms":["lcra","lower colorado river authority"],"tags":{"operator:wikidata":"Q16155608","power":"generator"},"addTags":{"operator":"Lower Colorado River Authority","operator:short":"LCRA","operator:wikidata":"Q16155608","power":"generator"}},"power/line/aeptexas-2d9f43":{"name":"AEP Texas","locationSet":{"include":["us-tx"]},"geometry":["line"],"matchScore":2,"terms":["aep texas"],"tags":{"operator:wikidata":"Q109015560","power":"line"},"addTags":{"operator":"AEP Texas","operator:wikidata":"Q109015560","power":"line"}},"power/line/epcor-ec456d":{"name":"EPCOR","locationSet":{"include":["ca-ab","ca-bc","ca-on","us-az","us-nm","us-tx"]},"geometry":["line"],"matchScore":2,"terms":["aqualta","eltec","epcor"],"tags":{"operator:wikidata":"Q5323849","power":"line"},"addTags":{"operator":"EPCOR","operator:wikidata":"Q5323849","power":"line"}},"power/line/lowercoloradoriverauthority-2d9f43":{"name":"Lower Colorado River Authority","locationSet":{"include":["us-tx"]},"geometry":["line"],"matchScore":2,"terms":["lcra","lower colorado river authority"],"tags":{"operator:wikidata":"Q16155608","power":"line"},"addTags":{"operator":"Lower Colorado River Authority","operator:short":"LCRA","operator:wikidata":"Q16155608","power":"line"}},"power/line/southwesternelectricpowercompany-43998f":{"name":"SWEPCO","locationSet":{"include":["us-ar","us-la","us-tx"]},"geometry":["line"],"matchScore":2,"terms":["southwestern electric power company","swepco"],"tags":{"operator:wikidata":"Q109016018","power":"line"},"addTags":{"operator":"Southwestern Electric Power Company","operator:short":"SWEPCO","operator:wikidata":"Q109016018","power":"line"}},"power/line/texasnewmexicopower-2d9f43":{"name":"Texas-New Mexico Power","locationSet":{"include":["us-tx"]},"geometry":["line"],"matchScore":2,"terms":["texas-new mexico power","tnmp"],"tags":{"operator:wikidata":"Q112271571","power":"line"},"addTags":{"operator":"Texas-New Mexico Power","operator:short":"TNMP","operator:wikidata":"Q112271571","power":"line"}},"power/minor_line/aeptexas-1f3576":{"name":"AEP Texas","locationSet":{"include":["us-tx"]},"geometry":["line"],"matchScore":2,"terms":["aep texas"],"tags":{"operator:wikidata":"Q109015560","power":"minor_line"},"addTags":{"operator":"AEP Texas","operator:wikidata":"Q109015560","power":"minor_line"}},"power/minor_line/epcor-dda2f7":{"name":"EPCOR","locationSet":{"include":["ca-ab","ca-bc","ca-on","us-az","us-nm","us-tx"]},"geometry":["line"],"matchScore":2,"terms":["aqualta","eltec","epcor"],"tags":{"operator:wikidata":"Q5323849","power":"minor_line"},"addTags":{"operator":"EPCOR","operator:wikidata":"Q5323849","power":"minor_line"}},"power/minor_line/lowercoloradoriverauthority-1f3576":{"name":"Lower Colorado River Authority","locationSet":{"include":["us-tx"]},"geometry":["line"],"matchScore":2,"terms":["lcra","lower colorado river authority"],"tags":{"operator:wikidata":"Q16155608","power":"minor_line"},"addTags":{"operator":"Lower Colorado River Authority","operator:short":"LCRA","operator:wikidata":"Q16155608","power":"minor_line"}},"power/minor_line/southwesternelectricpowercompany-4550ee":{"name":"SWEPCO","locationSet":{"include":["us-ar","us-la","us-tx"]},"geometry":["line"],"matchScore":2,"terms":["southwestern electric power company","swepco"],"tags":{"operator:wikidata":"Q109016018","power":"minor_line"},"addTags":{"operator":"Southwestern Electric Power Company","operator:short":"SWEPCO","operator:wikidata":"Q109016018","power":"minor_line"}},"power/minor_line/texasnewmexicopower-1f3576":{"name":"Texas-New Mexico Power","locationSet":{"include":["us-tx"]},"geometry":["line"],"matchScore":2,"terms":["texas-new mexico power","tnmp"],"tags":{"operator:wikidata":"Q112271571","power":"minor_line"},"addTags":{"operator":"Texas-New Mexico Power","operator:short":"TNMP","operator:wikidata":"Q112271571","power":"minor_line"}},"power/plant/lowercoloradoriverauthority-e34e34":{"name":"Lower Colorado River Authority","locationSet":{"include":["us-tx"]},"geometry":["area"],"matchScore":2,"terms":["lcra","lower colorado river authority"],"tags":{"operator:wikidata":"Q16155608","power":"plant"},"addTags":{"operator":"Lower Colorado River Authority","operator:short":"LCRA","operator:wikidata":"Q16155608","power":"plant"}},"power/pole/aeptexas-b4c145":{"name":"AEP Texas","locationSet":{"include":["us-tx"]},"geometry":["point","vertex"],"matchScore":2,"terms":["aep texas"],"tags":{"operator:wikidata":"Q109015560","power":"pole"},"addTags":{"operator":"AEP Texas","operator:wikidata":"Q109015560","power":"pole"}},"power/pole/epcor-e09e4b":{"name":"EPCOR","locationSet":{"include":["ca-ab","ca-bc","ca-on","us-az","us-nm","us-tx"]},"geometry":["point","vertex"],"matchScore":2,"terms":["aqualta","eltec","epcor"],"tags":{"operator:wikidata":"Q5323849","power":"pole"},"addTags":{"operator":"EPCOR","operator:wikidata":"Q5323849","power":"pole"}},"power/pole/lowercoloradoriverauthority-b4c145":{"name":"Lower Colorado River Authority","locationSet":{"include":["us-tx"]},"geometry":["point","vertex"],"matchScore":2,"terms":["lcra","lower colorado river authority"],"tags":{"operator:wikidata":"Q16155608","power":"pole"},"addTags":{"operator":"Lower Colorado River Authority","operator:short":"LCRA","operator:wikidata":"Q16155608","power":"pole"}},"power/pole/southwesternelectricpowercompany-79abae":{"name":"SWEPCO","locationSet":{"include":["us-ar","us-la","us-tx"]},"geometry":["point","vertex"],"matchScore":2,"terms":["southwestern electric power company","swepco"],"tags":{"operator:wikidata":"Q109016018","power":"pole"},"addTags":{"operator":"Southwestern Electric Power Company","operator:short":"SWEPCO","operator:wikidata":"Q109016018","power":"pole"}},"power/pole/texasnewmexicopower-b4c145":{"name":"Texas-New Mexico Power","locationSet":{"include":["us-tx"]},"geometry":["point","vertex"],"matchScore":2,"terms":["texas-new mexico power","tnmp"],"tags":{"operator:wikidata":"Q112271571","power":"pole"},"addTags":{"operator":"Texas-New Mexico Power","operator:short":"TNMP","operator:wikidata":"Q112271571","power":"pole"}},"power/substation/aeptexas-9e5147":{"name":"AEP Texas","locationSet":{"include":["us-tx"]},"geometry":["area","point"],"matchScore":2,"terms":["aep texas"],"tags":{"operator:wikidata":"Q109015560","power":"substation"},"addTags":{"operator":"AEP Texas","operator:wikidata":"Q109015560","power":"substation"}},"power/substation/epcor-b7915e":{"name":"EPCOR","locationSet":{"include":["ca-ab","ca-bc","ca-on","us-az","us-nm","us-tx"]},"geometry":["area","point"],"matchScore":2,"terms":["aqualta","eltec","epcor"],"tags":{"operator:wikidata":"Q5323849","power":"substation"},"addTags":{"operator":"EPCOR","operator:wikidata":"Q5323849","power":"substation"}},"power/substation/lowercoloradoriverauthority-9e5147":{"name":"Lower Colorado River Authority","locationSet":{"include":["us-tx"]},"geometry":["area","point"],"matchScore":2,"terms":["lcra","lower colorado river authority"],"tags":{"operator:wikidata":"Q16155608","power":"substation"},"addTags":{"operator":"Lower Colorado River Authority","operator:short":"LCRA","operator:wikidata":"Q16155608","power":"substation"}},"power/substation/southwesternelectricpowercompany-815b02":{"name":"SWEPCO","locationSet":{"include":["us-ar","us-la","us-tx"]},"geometry":["area","point"],"matchScore":2,"terms":["southwestern electric power company","swepco"],"tags":{"operator:wikidata":"Q109016018","power":"substation"},"addTags":{"operator":"Southwestern Electric Power Company","operator:short":"SWEPCO","operator:wikidata":"Q109016018","power":"substation"}},"power/substation/texasnewmexicopower-9e5147":{"name":"Texas-New Mexico Power","locationSet":{"include":["us-tx"]},"geometry":["area","point"],"matchScore":2,"terms":["texas-new mexico power","tnmp"],"tags":{"operator:wikidata":"Q112271571","power":"substation"},"addTags":{"operator":"Texas-New Mexico Power","operator:short":"TNMP","operator:wikidata":"Q112271571","power":"substation"}},"power/tower/aeptexas-a67ac1":{"name":"AEP Texas","locationSet":{"include":["us-tx"]},"geometry":["point","vertex"],"matchScore":2,"terms":["aep texas"],"tags":{"operator:wikidata":"Q109015560","power":"tower"},"addTags":{"operator":"AEP Texas","operator:wikidata":"Q109015560","power":"tower"}},"power/tower/epcor-f12bdc":{"name":"EPCOR","locationSet":{"include":["ca-ab","ca-bc","ca-on","us-az","us-nm","us-tx"]},"geometry":["point","vertex"],"matchScore":2,"terms":["aqualta","eltec","epcor"],"tags":{"operator:wikidata":"Q5323849","power":"tower"},"addTags":{"operator":"EPCOR","operator:wikidata":"Q5323849","power":"tower"}},"power/tower/lowercoloradoriverauthority-a67ac1":{"name":"Lower Colorado River Authority","locationSet":{"include":["us-tx"]},"geometry":["point","vertex"],"matchScore":2,"terms":["lcra","lower colorado river authority"],"tags":{"operator:wikidata":"Q16155608","power":"tower"},"addTags":{"operator":"Lower Colorado River Authority","operator:short":"LCRA","operator:wikidata":"Q16155608","power":"tower"}},"power/tower/southwesternelectricpowercompany-0d5051":{"name":"SWEPCO","locationSet":{"include":["us-ar","us-la","us-tx"]},"geometry":["point","vertex"],"matchScore":2,"terms":["southwestern electric power company","swepco"],"tags":{"operator:wikidata":"Q109016018","power":"tower"},"addTags":{"operator":"Southwestern Electric Power Company","operator:short":"SWEPCO","operator:wikidata":"Q109016018","power":"tower"}},"power/tower/texasnewmexicopower-a67ac1":{"name":"Texas-New Mexico Power","locationSet":{"include":["us-tx"]},"geometry":["point","vertex"],"matchScore":2,"terms":["texas-new mexico power","tnmp"],"tags":{"operator:wikidata":"Q112271571","power":"tower"},"addTags":{"operator":"Texas-New Mexico Power","operator:short":"TNMP","operator:wikidata":"Q112271571","power":"tower"}},"power/transformer/aeptexas-70fbe7":{"name":"AEP Texas","locationSet":{"include":["us-tx"]},"geometry":["point","vertex"],"matchScore":2,"terms":["aep texas"],"tags":{"operator:wikidata":"Q109015560","power":"transformer"},"addTags":{"operator":"AEP Texas","operator:wikidata":"Q109015560","power":"transformer"}},"power/transformer/epcor-f6996f":{"name":"EPCOR","locationSet":{"include":["ca-ab","ca-bc","ca-on","us-az","us-nm","us-tx"]},"geometry":["point","vertex"],"matchScore":2,"terms":["aqualta","eltec","epcor"],"tags":{"operator:wikidata":"Q5323849","power":"transformer"},"addTags":{"operator":"EPCOR","operator:wikidata":"Q5323849","power":"transformer"}},"power/transformer/lowercoloradoriverauthority-70fbe7":{"name":"Lower Colorado River Authority","locationSet":{"include":["us-tx"]},"geometry":["point","vertex"],"matchScore":2,"terms":["lcra","lower colorado river authority"],"tags":{"operator:wikidata":"Q16155608","power":"transformer"},"addTags":{"operator":"Lower Colorado River Authority","operator:short":"LCRA","operator:wikidata":"Q16155608","power":"transformer"}},"power/transformer/southwesternelectricpowercompany-24511b":{"name":"SWEPCO","locationSet":{"include":["us-ar","us-la","us-tx"]},"geometry":["point","vertex"],"matchScore":2,"terms":["southwestern electric power company","swepco"],"tags":{"operator:wikidata":"Q109016018","power":"transformer"},"addTags":{"operator":"Southwestern Electric Power Company","operator:short":"SWEPCO","operator:wikidata":"Q109016018","power":"transformer"}},"power/transformer/texasnewmexicopower-70fbe7":{"name":"Texas-New Mexico Power","locationSet":{"include":["us-tx"]},"geometry":["point","vertex"],"matchScore":2,"terms":["texas-new mexico power","tnmp"],"tags":{"operator:wikidata":"Q112271571","power":"transformer"},"addTags":{"operator":"Texas-New Mexico Power","operator:short":"TNMP","operator:wikidata":"Q112271571","power":"transformer"}},"type/route/power/lowercoloradoriverauthority-2db3e2":{"name":"Lower Colorado River Authority","locationSet":{"include":["us-tx"]},"geometry":["relation"],"matchScore":2,"terms":["lcra","lower colorado river authority"],"reference":{"key":"route","value":"power"},"tags":{"operator:wikidata":"Q16155608","route":"power","type":"route"},"addTags":{"operator":"Lower Colorado River Authority","operator:short":"LCRA","operator:wikidata":"Q16155608","route":"power","type":"route"}},"public_transport/platform/bus_point/dart-85ae9e":{"name":"DART (Dallas Area Rapid Transit)","locationSet":{"include":["us-tx"]},"geometry":["point","vertex"],"matchScore":2,"terms":["dallas area rapid transit","dart"],"reference":{"key":"public_transport","value":"platform"},"tags":{"bus":"yes","network:wikidata":"Q380660","public_transport":"platform"},"addTags":{"bus":"yes","highway":"bus_stop","network":"DART","network:wikidata":"Q380660","operator":"Dallas Area Rapid Transit","public_transport":"platform"}},"public_transport/platform/bus_point/metrobus-85ae9e":{"name":"MetroBus","locationSet":{"include":["us-tx"]},"geometry":["point","vertex"],"matchScore":2,"terms":["capital metro","capital metropolitan transportation authority","capmetro","metrobus"],"reference":{"key":"public_transport","value":"platform"},"tags":{"bus":"yes","network:wikidata":"Q108455549","public_transport":"platform"},"addTags":{"bus":"yes","highway":"bus_stop","network":"MetroBus","network:wikidata":"Q108455549","operator":"Capital Metropolitan Transportation Authority","operator:short":"CapMetro","operator:wikidata":"Q587830","public_transport":"platform"}},"public_transport/platform/bus_point/metroexpress-85ae9e":{"name":"MetroExpress","locationSet":{"include":["us-tx"]},"geometry":["point","vertex"],"matchScore":2,"terms":["capital metro","capital metropolitan transportation authority","capmetro","metroexpress"],"reference":{"key":"public_transport","value":"platform"},"tags":{"bus":"yes","network:wikidata":"Q108455549","public_transport":"platform"},"addTags":{"bus":"yes","highway":"bus_stop","network":"MetroExpress","network:wikidata":"Q108455549","operator":"Capital Metropolitan Transportation Authority","operator:short":"CapMetro","operator:wikidata":"Q587830","public_transport":"platform"}},"public_transport/platform/bus_point/metrorapid-85ae9e":{"name":"MetroRapid","locationSet":{"include":["us-tx"]},"geometry":["point","vertex"],"matchScore":2,"terms":["capital metro","capital metropolitan transportation authority","capmetro","metrorapid"],"reference":{"key":"public_transport","value":"platform"},"tags":{"bus":"yes","network:wikidata":"Q16851843","public_transport":"platform"},"addTags":{"bus":"yes","highway":"bus_stop","network":"MetroRapid","network:wikidata":"Q16851843","operator":"Capital Metropolitan Transportation Authority","operator:short":"CapMetro","operator:wikidata":"Q587830","public_transport":"platform"}},"public_transport/platform/bus_point/sunmetro-85ae9e":{"name":"Sun Metro","locationSet":{"include":["us-tx"]},"geometry":["point","vertex"],"matchScore":2,"terms":["sun metro"],"reference":{"key":"public_transport","value":"platform"},"tags":{"bus":"yes","network:wikidata":"Q7638408","public_transport":"platform"},"addTags":{"bus":"yes","highway":"bus_stop","network":"Sun Metro","network:wikidata":"Q7638408","public_transport":"platform"}},"public_transport/platform/bus_point/trinitymetro-85ae9e":{"name":"Trinity Metro","locationSet":{"include":["us-tx"]},"geometry":["point","vertex"],"matchScore":2,"terms":["trinity metro"],"reference":{"key":"public_transport","value":"platform"},"tags":{"bus":"yes","network:wikidata":"Q5472408","public_transport":"platform"},"addTags":{"bus":"yes","highway":"bus_stop","network":"Trinity Metro","network:wikidata":"Q5472408","public_transport":"platform"}},"public_transport/platform/bus_point/utshuttle-85ae9e":{"name":"UT Shuttle","locationSet":{"include":["us-tx"]},"geometry":["point","vertex"],"matchScore":2,"terms":["capital metro","capital metropolitan transportation authority","capmetro","ut shuttle"],"reference":{"key":"public_transport","value":"platform"},"tags":{"bus":"yes","network:wikidata":"Q108455549","public_transport":"platform"},"addTags":{"bus":"yes","highway":"bus_stop","network":"UT Shuttle","network:wikidata":"Q108455549","operator":"Capital Metropolitan Transportation Authority","operator:short":"CapMetro","operator:wikidata":"Q587830","public_transport":"platform"}},"public_transport/platform/bus_point/via-85ae9e":{"name":"VIA","locationSet":{"include":["us-tx"]},"geometry":["point","vertex"],"matchScore":2,"terms":["via"],"reference":{"key":"public_transport","value":"platform"},"tags":{"bus":"yes","network:wikidata":"Q7906973","public_transport":"platform"},"addTags":{"bus":"yes","highway":"bus_stop","network":"VIA","network:wikidata":"Q7906973","public_transport":"platform"}},"railway/station/metrorail-6ffb70":{"name":"MetroRail","locationSet":{"include":["us-tx"]},"geometry":["point","vertex","area"],"matchScore":2,"terms":["capital metro","capital metropolitan transportation authority","capmetro","metrorail"],"tags":{"network:wikidata":"Q4338668","railway":"station"},"addTags":{"network":"MetroRail","network:wikidata":"Q4338668","operator":"Capital Metropolitan Transportation Authority","operator:short":"CapMetro","operator:wikidata":"Q587830","public_transport":"station","railway":"station","train":"yes"}},"type/route/bus/dart-071d6c":{"name":"DART (Dallas Area Rapid Transit)","locationSet":{"include":["us-tx"]},"geometry":["relation"],"matchScore":2,"terms":["dallas area rapid transit","dart"],"reference":{"key":"route","value":"bus"},"tags":{"network:wikidata":"Q380660","route":"bus","type":"route"},"addTags":{"network":"DART","network:wikidata":"Q380660","operator":"Dallas Area Rapid Transit","route":"bus","type":"route"}},"type/route/bus/metrobus-071d6c":{"name":"MetroBus","locationSet":{"include":["us-tx"]},"geometry":["relation"],"matchScore":2,"terms":["capital metro","capital metropolitan transportation authority","capmetro","metrobus"],"reference":{"key":"route","value":"bus"},"tags":{"network:wikidata":"Q108455549","route":"bus","type":"route"},"addTags":{"network":"MetroBus","network:wikidata":"Q108455549","operator":"Capital Metropolitan Transportation Authority","operator:short":"CapMetro","operator:wikidata":"Q587830","route":"bus","type":"route"}},"type/route/bus/metroexpress-071d6c":{"name":"MetroExpress","locationSet":{"include":["us-tx"]},"geometry":["relation"],"matchScore":2,"terms":["capital metro","capital metropolitan transportation authority","capmetro","metroexpress"],"reference":{"key":"route","value":"bus"},"tags":{"network:wikidata":"Q108455549","route":"bus","type":"route"},"addTags":{"network":"MetroExpress","network:wikidata":"Q108455549","operator":"Capital Metropolitan Transportation Authority","operator:short":"CapMetro","operator:wikidata":"Q587830","route":"bus","type":"route"}},"type/route/bus/metrorapid-071d6c":{"name":"MetroRapid","locationSet":{"include":["us-tx"]},"geometry":["relation"],"matchScore":2,"terms":["capital metro","capital metropolitan transportation authority","capmetro","metrorapid"],"reference":{"key":"route","value":"bus"},"tags":{"network:wikidata":"Q16851843","route":"bus","type":"route"},"addTags":{"network":"MetroRapid","network:wikidata":"Q16851843","operator":"Capital Metropolitan Transportation Authority","operator:short":"CapMetro","operator:wikidata":"Q587830","route":"bus","type":"route"}},"type/route/bus/sunmetro-071d6c":{"name":"Sun Metro","locationSet":{"include":["us-tx"]},"geometry":["relation"],"matchScore":2,"terms":["sun metro"],"reference":{"key":"route","value":"bus"},"tags":{"network:wikidata":"Q7638408","route":"bus","type":"route"},"addTags":{"network":"Sun Metro","network:wikidata":"Q7638408","route":"bus","type":"route"}},"type/route/bus/trinitymetro-071d6c":{"name":"Trinity Metro","locationSet":{"include":["us-tx"]},"geometry":["relation"],"matchScore":2,"terms":["trinity metro"],"reference":{"key":"route","value":"bus"},"tags":{"network:wikidata":"Q5472408","route":"bus","type":"route"},"addTags":{"network":"Trinity Metro","network:wikidata":"Q5472408","route":"bus","type":"route"}},"type/route/bus/utshuttle-071d6c":{"name":"UT Shuttle","locationSet":{"include":["us-tx"]},"geometry":["relation"],"matchScore":2,"terms":["capital metro","capital metropolitan transportation authority","capmetro","ut shuttle"],"reference":{"key":"route","value":"bus"},"tags":{"network:wikidata":"Q108455549","route":"bus","type":"route"},"addTags":{"network":"UT Shuttle","network:wikidata":"Q108455549","operator":"Capital Metropolitan Transportation Authority","operator:short":"CapMetro","operator:wikidata":"Q587830","route":"bus","type":"route"}},"type/route/bus/via-071d6c":{"name":"VIA","locationSet":{"include":["us-tx"]},"geometry":["relation"],"matchScore":2,"terms":["via"],"reference":{"key":"route","value":"bus"},"tags":{"network:wikidata":"Q7906973","route":"bus","type":"route"},"addTags":{"network":"VIA","network:wikidata":"Q7906973","route":"bus","type":"route"}},"type/route/light_rail/dart-f91feb":{"name":"DART","locationSet":{"include":["us-tx"]},"geometry":["relation"],"matchScore":2,"terms":["dart"],"reference":{"key":"route","value":"light_rail"},"tags":{"network:wikidata":"Q380660","route":"light_rail","type":"route"},"addTags":{"network":"DART","network:wikidata":"Q380660","route":"light_rail","type":"route"}},"type/route/train/metrorail-a298f8":{"name":"MetroRail","locationSet":{"include":["us-tx"]},"geometry":["relation"],"matchScore":2,"terms":["capital metro","capital metropolitan transportation authority","capmetro","metrorail"],"reference":{"key":"route","value":"train"},"tags":{"network:wikidata":"Q4338668","route":"train","type":"route"},"addTags":{"network":"MetroRail","network:wikidata":"Q4338668","operator":"Capital Metropolitan Transportation Authority","operator:short":"CapMetro","operator:wikidata":"Q587830","route":"train","type":"route"}}}