{"amenity/atm/alphabank-a8606e":{"name":"Alpha Bank","locationSet":{"include":["gb","gr","lu","ro"]},"geometry":["point","vertex"],"matchScore":2,"terms":["alpha bank"],"fields":["name","brand","{amenity/atm}"],"tags":{"amenity":"atm","brand:wikidata":"Q747394"},"addTags":{"amenity":"atm","brand":"Alpha Bank","brand:wikidata":"Q747394","operator":"Alpha Bank","operator:wikidata":"Q747394"}},"amenity/atm/argenta-854f43":{"name":"Argenta","locationSet":{"include":["be","lu","nl"]},"geometry":["point","vertex"],"matchScore":2,"terms":["argenta"],"fields":["name","brand","{amenity/atm}"],"tags":{"amenity":"atm","brand:wikidata":"Q932856"},"addTags":{"amenity":"atm","brand":"Argenta","brand:wikidata":"Q932856","operator":"Argenta","operator:wikidata":"Q932856"}},"amenity/atm/bcee-8c9eca":{"name":"BCEE","locationSet":{"include":["lu"]},"geometry":["point","vertex"],"matchScore":2,"terms":["banque et caisse d'épargne de l'état","bcee","s-bank","spuerkeess"],"fields":["name","brand","{amenity/atm}"],"tags":{"amenity":"atm","brand:wikidata":"Q668996"},"addTags":{"alt_name":"S-Bank","alt_name:lb":"Spuerkeess","amenity":"atm","brand":"BCEE","brand:wikidata":"Q668996","official_name":"Banque et Caisse d'Épargne de l'État","operator":"BCEE","operator:wikidata":"Q668996"}},"amenity/atm/bcp-8c9eca":{"name":"BCP (Luxembourg)","locationSet":{"include":["lu"]},"geometry":["point","vertex"],"matchScore":2,"terms":["banque bcp","bcp"],"fields":["name","brand","{amenity/atm}"],"tags":{"amenity":"atm","brand:wikidata":"Q118581"},"addTags":{"amenity":"atm","brand":"BCP","brand:wikidata":"Q118581","operator":"BCP","operator:wikidata":"Q118581"}},"amenity/atm/bglbnpparibas-8c9eca":{"name":"BGL BNP Paribas","locationSet":{"include":["lu"]},"geometry":["point","vertex"],"matchScore":2,"terms":["bgl bnp paribas"],"fields":["name","brand","{amenity/atm}"],"tags":{"amenity":"atm","brand:wikidata":"Q795898"},"addTags":{"amenity":"atm","brand":"BGL BNP Paribas","brand:wikidata":"Q795898","operator":"BGL BNP Paribas","operator:wikidata":"Q795898"}},"amenity/atm/bil-8c9eca":{"name":"BIL","locationSet":{"include":["lu"]},"geometry":["point","vertex"],"matchScore":2,"terms":["banque internationale à luxembourg","bil"],"fields":["name","brand","{amenity/atm}"],"tags":{"amenity":"atm","brand:wikidata":"Q2883404"},"addTags":{"amenity":"atm","brand":"BIL","brand:wikidata":"Q2883404","official_name":"Banque Internationale à Luxembourg","operator":"BIL","operator:wikidata":"Q2883404"}},"amenity/atm/bnpparibas-6b438a":{"name":"BNP Paribas","locationSet":{"include":["ae","af","ar","at","bf","bg","bh","br","ca","ch","ci","cl","co","cz","de","dk","dz","es","fi","fr","gb","gf","gp","hu","ie","il","it","kw","lu","ma","ml","mq","mx","nl","no","pe","pt","qa","re","ro","ru","sa","se","sk","sn","tn","tr","us"]},"geometry":["point","vertex"],"matchScore":2,"terms":["bnp paribas"],"fields":["name","brand","{amenity/atm}"],"tags":{"amenity":"atm","brand:wikidata":"Q499707"},"addTags":{"amenity":"atm","brand":"BNP Paribas","brand:wikidata":"Q499707","operator":"BNP Paribas","operator:wikidata":"Q499707"}},"amenity/atm/eurobank-f234fb":{"name":"Eurobank Ergasias","locationSet":{"include":["cy","gb","gr","lu"]},"geometry":["point","vertex"],"matchScore":2,"terms":["eurobank","eurobank ergasias"],"fields":["name","brand","{amenity/atm}"],"tags":{"amenity":"atm","brand:wikidata":"Q951850"},"addTags":{"amenity":"atm","brand":"Eurobank","brand:wikidata":"Q951850","operator":"Eurobank","operator:wikidata":"Q951850"}},"amenity/atm/raiffeisen-8c9eca":{"name":"Raiffeisen (Luxembourg)","locationSet":{"include":["lu"]},"geometry":["point","vertex"],"matchScore":2,"terms":["raiffeisen"],"fields":["name","brand","{amenity/atm}"],"tags":{"amenity":"atm","brand:wikidata":"Q11220162"},"addTags":{"amenity":"atm","brand":"Raiffeisen","brand:wikidata":"Q11220162","operator":"Raiffeisen","operator:wikidata":"Q11220162"}},"amenity/bank/alphabank-220d87":{"name":"Alpha Bank","locationSet":{"include":["gb","gr","lu","ro"]},"geometry":["point","area"],"matchScore":2,"terms":["alpha bank"],"tags":{"amenity":"bank","brand:wikidata":"Q747394"},"addTags":{"amenity":"bank","brand":"Alpha Bank","brand:wikidata":"Q747394","name":"Alpha Bank"}},"amenity/bank/argenta-c47d60":{"name":"Argenta","locationSet":{"include":["be","lu","nl"]},"geometry":["point","area"],"matchScore":2,"terms":["argenta"],"tags":{"amenity":"bank","brand:wikidata":"Q932856"},"addTags":{"amenity":"bank","brand":"Argenta","brand:wikidata":"Q932856","name":"Argenta"}},"amenity/bank/bcee-d335b6":{"name":"BCEE","locationSet":{"include":["lu"]},"geometry":["point","area"],"matchScore":2,"terms":["banque et caisse d'épargne de l'état","bcee","s-bank","spuerkeess"],"tags":{"amenity":"bank","brand:wikidata":"Q668996"},"addTags":{"alt_name":"S-Bank","alt_name:lb":"Spuerkeess","amenity":"bank","brand":"BCEE","brand:wikidata":"Q668996","name":"BCEE","official_name":"Banque et Caisse d'Épargne de l'État"}},"amenity/bank/bcp-d335b6":{"name":"BCP (Luxembourg)","locationSet":{"include":["lu"]},"geometry":["point","area"],"matchScore":2,"terms":["banque bcp","bcp"],"tags":{"amenity":"bank","brand:wikidata":"Q118581"},"addTags":{"amenity":"bank","brand":"BCP","brand:wikidata":"Q118581","name":"BCP"}},"amenity/bank/bglbnpparibas-d335b6":{"name":"BGL BNP Paribas","locationSet":{"include":["lu"]},"geometry":["point","area"],"matchScore":2,"terms":["bgl bnp paribas"],"tags":{"amenity":"bank","brand:wikidata":"Q795898"},"addTags":{"amenity":"bank","brand":"BGL BNP Paribas","brand:wikidata":"Q795898","name":"BGL BNP Paribas"}},"amenity/bank/bil-d335b6":{"name":"BIL","locationSet":{"include":["lu"]},"geometry":["point","area"],"matchScore":2,"terms":["banque internationale à luxembourg","bil"],"tags":{"amenity":"bank","brand:wikidata":"Q2883404"},"addTags":{"amenity":"bank","brand":"BIL","brand:wikidata":"Q2883404","name":"BIL","official_name":"Banque Internationale à Luxembourg"}},"amenity/bank/bnpparibas-42efac":{"name":"BNP Paribas","locationSet":{"include":["ae","af","ar","at","bf","bg","bh","br","ca","ch","ci","cl","co","cz","de","dk","dz","es","fi","fr","gb","gf","gp","hu","ie","il","it","kw","lu","ma","ml","mq","mx","nl","no","pe","pt","qa","re","ro","ru","sa","se","sk","sn","tn","tr","us"]},"geometry":["point","area"],"matchScore":2,"terms":["bnp paribas"],"tags":{"amenity":"bank","brand:wikidata":"Q499707"},"addTags":{"amenity":"bank","brand":"BNP Paribas","brand:wikidata":"Q499707","name":"BNP Paribas"}},"amenity/bank/eurobank-158d7a":{"name":"Eurobank Ergasias","locationSet":{"include":["cy","gb","gr","lu"]},"geometry":["point","area"],"matchScore":2,"terms":["eurobank","eurobank ergasias"],"tags":{"amenity":"bank","brand:wikidata":"Q951850"},"addTags":{"amenity":"bank","brand":"Eurobank","brand:wikidata":"Q951850","name":"Eurobank"}},"amenity/bank/raiffeisen-d335b6":{"name":"Raiffeisen (Luxembourg)","locationSet":{"include":["lu"]},"geometry":["point","area"],"matchScore":2,"terms":["raiffeisen"],"tags":{"amenity":"bank","brand:wikidata":"Q11220162"},"addTags":{"amenity":"bank","brand":"Raiffeisen","brand:wikidata":"Q11220162","name":"Raiffeisen"}},"amenity/bicycle_rental/donkeyrepublic-c32b83":{"name":"Donkey Republic","locationSet":{"include":["by","bg","cz","hu","pl","md","ro","ru","sk","ua","ax","gg","je","cq","dk","ee","fo","fi","is","ie","im","lv","lt","no","sj","se","gb","al","ad","ba","hr","gi","gr","va","it","mt","me","mk","pt","sm","rs","si","es","xk","at","be","fr","de","li","lu","mc","nl","ch"]},"geometry":["point","vertex","area"],"matchScore":2,"terms":["donkey republic"],"fields":["name","brand","{amenity/bicycle_rental}"],"tags":{"amenity":"bicycle_rental","brand:wikidata":"Q63753939"},"addTags":{"amenity":"bicycle_rental","brand":"Donkey Republic","brand:wikidata":"Q63753939","name":"Donkey Republic","operator":"Donkey Republic"}},"amenity/bicycle_rental/veloh-5de2c3":{"name":"Vel'oh!","locationSet":{"include":["lu"]},"geometry":["point","vertex","area"],"matchScore":2,"terms":["jcdecaux","vel'oh!"],"fields":["name","brand","{amenity/bicycle_rental}"],"tags":{"amenity":"bicycle_rental","brand:wikidata":"Q16764959"},"addTags":{"amenity":"bicycle_rental","brand":"Vel'oh!","brand:wikidata":"Q16764959","network":"Vel'oh!","network:wikidata":"Q16764959","operator":"JCDecaux","operator:wikidata":"Q74877"}},"amenity/cafe/coffee_shop/caffespettacolo-54dc58":{"name":"Caffè Spettacolo","locationSet":{"include":["ch","lu"]},"geometry":["point","area"],"matchScore":2,"terms":["caffè spettacolo","spettacolo"],"reference":{"key":"cuisine","value":"coffee_shop"},"tags":{"amenity":"cafe","brand:wikidata":"Q111728781","cuisine":"coffee_shop"},"addTags":{"amenity":"cafe","brand":"Caffè Spettacolo","brand:wikidata":"Q111728781","cuisine":"coffee_shop","name":"Caffè Spettacolo","takeaway":"yes"}},"amenity/cafe/coffee_shop/coffeefellows-6873ad":{"name":"Coffee Fellows","locationSet":{"include":["de","lu","nl"]},"geometry":["point","area"],"matchScore":2,"terms":["coffee fellows"],"reference":{"key":"cuisine","value":"coffee_shop"},"tags":{"amenity":"cafe","brand:wikidata":"Q23461429","cuisine":"coffee_shop"},"addTags":{"amenity":"cafe","brand":"Coffee Fellows","brand:wikidata":"Q23461429","cuisine":"coffee_shop","name":"Coffee Fellows","takeaway":"yes"}},"amenity/car_wash/aral-78fe7d":{"name":"Aral","locationSet":{"include":["de","lu"]},"geometry":["point","area"],"matchScore":2,"terms":["aral"],"tags":{"amenity":"car_wash","brand:wikidata":"Q565734"},"addTags":{"amenity":"car_wash","brand":"Aral","brand:wikidata":"Q565734","name":"Aral"}},"amenity/charging_station/chargy-e87a7c":{"name":"Chargy","locationSet":{"include":["lu"]},"geometry":["point","vertex","area"],"matchScore":2,"terms":["chargy"],"fields":["name","brand","{amenity/charging_station}"],"tags":{"amenity":"charging_station","brand:wikidata":"Q62702950"},"addTags":{"amenity":"charging_station","brand":"Chargy","brand:wikidata":"Q62702950","name":"Chargy","operator":"Chargy","operator:wikidata":"Q62702950"}},"amenity/charging_station/ionity-b625d6":{"name":"Ionity","locationSet":{"include":["by","bg","cz","hu","pl","md","ro","ru","sk","ua","ax","gg","je","cq","dk","ee","fo","fi","is","ie","im","lv","lt","no","sj","se","gb","al","ad","ba","hr","gi","gr","va","it","mt","me","mk","pt","sm","rs","si","es","xk","at","be","fr","de","li","lu","mc","nl","ch"]},"geometry":["point","vertex","area"],"matchScore":2,"terms":["ionity","ionity gmbh"],"fields":["name","brand","{amenity/charging_station}"],"tags":{"amenity":"charging_station","brand:wikidata":"Q42717773"},"addTags":{"amenity":"charging_station","brand":"Ionity","brand:wikidata":"Q42717773"}},"amenity/cinema/kinepolis-bc363a":{"name":"Kinepolis","locationSet":{"include":["be","ch","es","fr","lu","nl"]},"geometry":["point","area"],"matchScore":2,"terms":["kinepolis"],"fields":["name","brand","{amenity/cinema}"],"tags":{"amenity":"cinema","brand:wikidata":"Q1741993"},"addTags":{"amenity":"cinema","brand":"Kinepolis","brand:wikidata":"Q1741993","name":"Kinepolis"}},"amenity/fast_food/burger/bigfernand-8ddd61":{"name":"Big Fernand","locationSet":{"include":["ae","fr","lu"]},"geometry":["point","area"],"matchScore":2,"terms":["big fernand"],"reference":{"key":"cuisine","value":"burger"},"tags":{"amenity":"fast_food","brand:wikidata":"Q19521346","cuisine":"burger"},"addTags":{"amenity":"fast_food","brand":"Big Fernand","brand:wikidata":"Q19521346","cuisine":"burger","name":"Big Fernand","takeaway":"yes"}},"amenity/fast_food/sandwich/classcroute-77e135":{"name":"Class'croute","locationSet":{"include":["fx","lu"]},"geometry":["point","area"],"matchScore":2,"terms":["class'croute"],"reference":{"key":"cuisine","value":"sandwich"},"tags":{"amenity":"fast_food","brand:wikidata":"Q2975695","cuisine":"sandwich;salad"},"addTags":{"amenity":"fast_food","brand":"Class'croute","brand:wikidata":"Q2975695","cuisine":"sandwich;salad","name":"Class'croute","takeaway":"yes"}},"amenity/fast_food/sandwich/deananddavid-f9c825":{"name":"dean&david","locationSet":{"include":["at","ch","de","lu","qa"]},"geometry":["point","area"],"matchScore":2,"terms":["dean&david"],"reference":{"key":"cuisine","value":"sandwich"},"tags":{"amenity":"fast_food","brand:wikidata":"Q66132404","cuisine":"salad;sandwich"},"addTags":{"amenity":"fast_food","brand":"dean&david","brand:wikidata":"Q66132404","cuisine":"salad;sandwich","name":"dean&david","takeaway":"yes"}},"amenity/fast_food/sandwich/exki-a3472e":{"name":"Exki","locationSet":{"include":["be","es","fr","it","lu","nl"]},"geometry":["point","area"],"matchScore":2,"terms":["exki"],"reference":{"key":"cuisine","value":"sandwich"},"tags":{"amenity":"fast_food","brand:wikidata":"Q251760","cuisine":"healthy;sandwich;salad;pie"},"addTags":{"amenity":"fast_food","brand":"Exki","brand:wikidata":"Q251760","cuisine":"healthy;sandwich;salad;pie","diet:vegetarian":"yes","name":"Exki","takeaway":"yes"}},"amenity/fast_food/burger/fiveguys-ffd618":{"name":"Five Guys","locationSet":{"include":["ae","au","be","ca","de","es","fr","gb","hk","ie","it","kw","lu","nl","qa","sa","sg","us"]},"geometry":["point","area"],"matchScore":2,"terms":["five guys","five guys burgers and fries"],"reference":{"key":"cuisine","value":"burger"},"tags":{"amenity":"fast_food","brand:wikidata":"Q1131810","cuisine":"burger"},"addTags":{"amenity":"fast_food","brand":"Five Guys","brand:wikidata":"Q1131810","cuisine":"burger","name":"Five Guys","official_name":"Five Guys Burgers and Fries","takeaway":"yes"}},"amenity/fast_food/burger/quick-9fdafe":{"name":"Quick","locationSet":{"include":["be","fr","lu"]},"geometry":["point","area"],"matchScore":2,"terms":["quick"],"reference":{"key":"cuisine","value":"burger"},"tags":{"amenity":"fast_food","brand:wikidata":"Q286494","cuisine":"burger"},"addTags":{"amenity":"fast_food","brand":"Quick","brand:wikidata":"Q286494","cuisine":"burger","name":"Quick","takeaway":"yes"}},"amenity/fast_food/sushishop-ac545e":{"name":"Sushi Shop (Europe)","locationSet":{"include":["ae","be","ch","de","es","fr","gb","it","lu","pt","sa"]},"geometry":["point","area"],"matchScore":2,"terms":["sushi shop"],"tags":{"amenity":"fast_food","brand:wikidata":"Q3505657"},"addTags":{"amenity":"fast_food","brand":"Sushi Shop","brand:wikidata":"Q3505657","cuisine":"sushi","name":"Sushi Shop","takeaway":"yes"}},"amenity/fuel/aral-f69389":{"name":"Aral","locationSet":{"include":["de","lu"]},"geometry":["point","area"],"matchScore":2,"terms":["aral","aral tankstelle"],"fields":["name","brand","{amenity/fuel}"],"tags":{"amenity":"fuel","brand:wikidata":"Q565734"},"addTags":{"amenity":"fuel","brand":"Aral","brand:wikidata":"Q565734","name":"Aral"}},"amenity/fuel/as24-3463db":{"name":"AS 24","locationSet":{"include":["at","be","bg","cz","de","dk","es","fr","gb","ge","gr","hr","hu","ie","it","lt","lu","mk","nl","pl","pt","ro","rs","se","si","sk","ua"]},"geometry":["point","area"],"matchScore":2,"terms":["as 24"],"fields":["name","brand","{amenity/fuel}"],"tags":{"amenity":"fuel","brand:wikidata":"Q2819394"},"addTags":{"amenity":"fuel","brand":"AS 24","brand:wikidata":"Q2819394","hgv":"only","name":"AS 24"}},"amenity/fuel/auchan-fcb99f":{"name":"Auchan","locationSet":{"include":["al","ad","ba","hr","gi","gr","va","it","mt","me","mk","pt","sm","rs","si","es","xk","by","bg","cz","hu","pl","md","ro","ru","sk","ua","at","be","fr","de","li","lu","mc","nl","ch"]},"geometry":["point","area"],"matchScore":2,"terms":["auchan"],"fields":["name","brand","{amenity/fuel}"],"tags":{"amenity":"fuel","brand:wikidata":"Q758603"},"addTags":{"amenity":"fuel","brand":"Auchan","brand:wikidata":"Q758603","name":"Auchan"}},"amenity/fuel/q8-7bb553":{"name":"Q8","locationSet":{"include":["be","dk","es","it","lu","nl","pt"]},"geometry":["point","area"],"matchScore":2,"terms":["q8"],"fields":["name","brand","{amenity/fuel}"],"tags":{"amenity":"fuel","brand:wikidata":"Q1634762"},"addTags":{"amenity":"fuel","brand":"Q8","brand:wikidata":"Q1634762","name":"Q8"}},"amenity/ice_cream/amorino-6cf168":{"name":"Amorino","locationSet":{"include":["ae","ch","cz","de","es","fr","gb","gr","ie","it","lu","ma","mt","mx","nc","pt","qa","re","us"]},"geometry":["point","area"],"matchScore":2,"terms":["amorino"],"tags":{"amenity":"ice_cream","brand:wikidata":"Q2843884"},"addTags":{"amenity":"ice_cream","brand":"Amorino","brand:wikidata":"Q2843884","name":"Amorino"}},"amenity/ice_cream/frozen_yogurt/yogurtfactory-321c46":{"name":"Yogurt Factory","locationSet":{"include":["be","fr","lu"]},"geometry":["point","area"],"matchScore":2,"terms":["yogurt factory"],"reference":{"key":"cuisine","value":"frozen_yogurt"},"tags":{"amenity":"ice_cream","brand:wikidata":"Q104600544","cuisine":"frozen_yogurt"},"addTags":{"amenity":"ice_cream","brand":"Yogurt Factory","brand:wikidata":"Q104600544","cuisine":"frozen_yogurt","name":"Yogurt Factory","takeaway":"yes"}},"amenity/parcel_locker/inpost-6b37ec":{"name":"InPost","locationSet":{"include":["be","es","fr","gb","it","lu","nl","pt"]},"geometry":["point","vertex","area"],"matchScore":2,"terms":["inpost"],"fields":["name","brand","{amenity/parcel_locker}"],"reference":{"key":"amenity","value":"parcel_locker"},"tags":{"amenity":"parcel_locker","brand:wikidata":"Q3182097"},"addTags":{"amenity":"parcel_locker","brand":"InPost","brand:wikidata":"Q3182097","parcel_mail_in":"yes","parcel_pickup":"yes"}},"amenity/parcel_locker/zbox-5a86e9":{"name":"Packeta","locationSet":{"include":["by","bg","cz","hu","pl","md","ro","ru","sk","ua","ax","gg","je","cq","dk","ee","fo","fi","is","ie","im","lv","lt","no","sj","se","gb","al","ad","ba","hr","gi","gr","va","it","mt","me","mk","pt","sm","rs","si","es","xk","at","be","fr","de","li","lu","mc","nl","ch"]},"geometry":["point","vertex","area"],"matchScore":2,"terms":["packeta"],"fields":["name","brand","{amenity/parcel_locker}"],"reference":{"key":"amenity","value":"parcel_locker"},"tags":{"amenity":"parcel_locker","brand:wikidata":"Q67809905"},"addTags":{"amenity":"parcel_locker","brand":"Packeta","brand:wikidata":"Q67809905","name":"Z-Box"}},"amenity/parcel_locker/packup-f54db3":{"name":"POST PackUp","locationSet":{"include":["lu"]},"geometry":["point","vertex","area"],"matchScore":2,"terms":["post luxembourg"],"fields":["name","brand","{amenity/parcel_locker}"],"reference":{"key":"amenity","value":"parcel_locker"},"tags":{"amenity":"parcel_locker","brand:wikidata":"Q1570910"},"addTags":{"amenity":"parcel_locker","brand":"POST Luxembourg","brand:wikidata":"Q1570910","name":"PackUp","operator":"POST Luxembourg","parcel_mail_in":"yes"}},"amenity/prep_school/studienkreis-fce332":{"name":"Studienkreis","locationSet":{"include":["at","ch","de","lu"]},"geometry":["point","area"],"matchScore":2,"terms":["studienkreis"],"fields":["name","brand","{amenity/prep_school}"],"tags":{"amenity":"prep_school","brand:wikidata":"Q2358555"},"addTags":{"amenity":"prep_school","brand":"Studienkreis","brand:wikidata":"Q2358555","name":"Studienkreis"}},"amenity/social_centre/ahepahall-30ca27":{"name":"AHEPA Hall","locationSet":{"include":["by","bg","cz","hu","pl","md","ro","ru","sk","ua","ax","gg","je","cq","dk","ee","fo","fi","is","ie","im","lv","lt","no","sj","se","gb","al","ad","ba","hr","gi","gr","va","it","mt","me","mk","pt","sm","rs","si","es","xk","at","be","fr","de","li","lu","mc","nl","ch","au","ca","cy","us"],"exclude":["ru"]},"geometry":["point","area"],"matchScore":2,"terms":["ahepa","american hellenic educational progressive association","the order of ahepa"],"fields":["name","brand","{amenity/social_centre}"],"tags":{"amenity":"social_centre","brand:wikidata":"Q4743973"},"addTags":{"amenity":"social_centre","brand":"AHEPA","brand:wikidata":"Q4743973","name":"AHEPA Hall"}},"amenity/social_facility/croixrougeluxembourgeoise-090a38":{"name":"Croix-Rouge luxembourgeoise","locationSet":{"include":["lu"]},"geometry":["point","area"],"matchScore":2,"terms":["croix rouge","croix-rouge luxembourgeoise","lëtzebuergesche roude kräiz","luxemburgisches rotes kreuz","rotes kreuz"],"tags":{"amenity":"social_facility","brand:wikidata":"Q13102234"},"addTags":{"amenity":"social_facility","brand":"Croix-Rouge luxembourgeoise","brand:de":"Luxemburgisches Rotes Kreuz","brand:fr":"Croix-Rouge luxembourgeoise","brand:lb":"Lëtzebuergesche Roude Kräiz","brand:wikidata":"Q13102234","operator":"Croix-Rouge luxembourgeoise","operator:de":"Luxemburgisches Rotes Kreuz","operator:fr":"Croix-Rouge luxembourgeoise","operator:lb":"Lëtzebuergesche Roude Kräiz","operator:wikidata":"Q13102234"}},"amenity/vending_machine/bicycle_tube/continental-123edb":{"name":"Continental","locationSet":{"include":["by","bg","cz","hu","pl","md","ro","ru","sk","ua","ax","gg","je","cq","dk","ee","fo","fi","is","ie","im","lv","lt","no","sj","se","gb","al","ad","ba","hr","gi","gr","va","it","mt","me","mk","pt","sm","rs","si","es","xk","at","be","fr","de","li","lu","mc","nl","ch"]},"geometry":["point","vertex"],"matchScore":2,"terms":["continental"],"reference":{"key":"vending","value":"bicycle_tube"},"tags":{"amenity":"vending_machine","brand:wikidata":"Q64739247","vending":"bicycle_tube"},"addTags":{"amenity":"vending_machine","brand":"Continental","brand:wikidata":"Q64739247","vending":"bicycle_tube"}},"amenity/vending_machine/bicycle_tube/schwalbe-123edb":{"name":"Schwalbe","locationSet":{"include":["by","bg","cz","hu","pl","md","ro","ru","sk","ua","ax","gg","je","cq","dk","ee","fo","fi","is","ie","im","lv","lt","no","sj","se","gb","al","ad","ba","hr","gi","gr","va","it","mt","me","mk","pt","sm","rs","si","es","xk","at","be","fr","de","li","lu","mc","nl","ch"]},"geometry":["point","vertex"],"matchScore":2,"terms":["schwalbe"],"reference":{"key":"vending","value":"bicycle_tube"},"tags":{"amenity":"vending_machine","brand:wikidata":"Q1312213","vending":"bicycle_tube"},"addTags":{"amenity":"vending_machine","brand":"Schwalbe","brand:wikidata":"Q1312213","vending":"bicycle_tube"}},"amenity/vending_machine/selecta-ed4d31":{"name":"Selecta","locationSet":{"include":["at","be","ch","de","dk","es","fi","fr","gb","ie","it","li","lu","nl","no","se"]},"geometry":["point","vertex"],"matchScore":2,"terms":["selecta"],"tags":{"amenity":"vending_machine","brand:wikidata":"Q472153"},"addTags":{"amenity":"vending_machine","brand":"Selecta","brand:wikidata":"Q472153"}},"craft/cleaning/onet-ecf61b":{"name":"Onet","locationSet":{"include":["br","es","fr","jp","lu","us"]},"geometry":["point","area"],"matchScore":2,"terms":["groupe onet","onet"],"tags":{"brand:wikidata":"Q3352707","craft":"cleaning"},"addTags":{"brand":"Onet","brand:wikidata":"Q3352707","craft":"cleaning","name":"Onet"}},"healthcare/laboratory/bionext-067987":{"name":"BioneXt","locationSet":{"include":["lu"]},"geometry":["point","area"],"matchScore":2,"terms":["bionext"],"tags":{"brand:wikidata":"Q99765528","healthcare":"laboratory"},"addTags":{"brand":"BioneXt","brand:wikidata":"Q99765528","healthcare":"laboratory","name":"BioneXt"}},"healthcare/laboratory/ketterthill-067987":{"name":"Ketterthill","locationSet":{"include":["lu"]},"geometry":["point","area"],"matchScore":2,"terms":["ketterthill"],"tags":{"brand:wikidata":"Q99765551","healthcare":"laboratory"},"addTags":{"brand":"Ketterthill","brand:wikidata":"Q99765551","healthcare":"laboratory","name":"Ketterthill"}},"healthcare/laboratory/laboratoiresreunis-067987":{"name":"Laboratoires Réunis","locationSet":{"include":["lu"]},"geometry":["point","area"],"matchScore":2,"terms":["laboratoires réunis"],"tags":{"brand:wikidata":"Q99765607","healthcare":"laboratory"},"addTags":{"brand":"Laboratoires Réunis","brand:wikidata":"Q99765607","healthcare":"laboratory","name":"Laboratoires Réunis"}},"healthcare/laboratory/pickendoheem-067987":{"name":"Picken Doheem","locationSet":{"include":["lu"]},"geometry":["point","area"],"matchScore":2,"terms":["picken doheem"],"tags":{"brand:wikidata":"Q99765634","healthcare":"laboratory"},"addTags":{"brand":"Picken Doheem","brand:wikidata":"Q99765634","healthcare":"laboratory","name":"Picken Doheem"}},"leisure/fitness_centre/basicfit-4741dc":{"name":"Basic-Fit","locationSet":{"include":["be","es","fr","lu","nl"]},"geometry":["point","area"],"matchScore":2,"terms":["basic-fit"],"tags":{"brand:wikidata":"Q40165577","leisure":"fitness_centre"},"addTags":{"brand":"Basic-Fit","brand:wikidata":"Q40165577","leisure":"fitness_centre","name":"Basic-Fit"}},"leisure/fitness_centre/fitinn-48d938":{"name":"FITINN","locationSet":{"include":["by","bg","cz","hu","pl","md","ro","ru","sk","ua","ax","gg","je","cq","dk","ee","fo","fi","is","ie","im","lv","lt","no","sj","se","gb","al","ad","ba","hr","gi","gr","va","it","mt","me","mk","pt","sm","rs","si","es","xk","at","be","fr","de","li","lu","mc","nl","ch"]},"geometry":["point","area"],"matchScore":2,"terms":["fitinn"],"tags":{"brand:wikidata":"Q1245564","leisure":"fitness_centre"},"addTags":{"brand":"FITINN","brand:wikidata":"Q1245564","leisure":"fitness_centre","name":"FITINN"}},"leisure/fitness_centre/holmesplace-901199":{"name":"Holmes Place","locationSet":{"include":["by","bg","cz","hu","pl","md","ro","ru","sk","ua","ax","gg","je","cq","dk","ee","fo","fi","is","ie","im","lv","lt","no","sj","se","gb","al","ad","ba","hr","gi","gr","va","it","mt","me","mk","pt","sm","rs","si","es","xk","at","be","fr","de","li","lu","mc","nl","ch","il"]},"geometry":["point","area"],"matchScore":2,"terms":["holmes place"],"tags":{"brand:wikidata":"Q15815819","leisure":"fitness_centre"},"addTags":{"brand":"Holmes Place","brand:wikidata":"Q15815819","leisure":"fitness_centre","name":"Holmes Place"}},"leisure/fitness_centre/keepcool-a3e665":{"name":"KeepCool","locationSet":{"include":["be","fr","lu"]},"geometry":["point","area"],"matchScore":2,"terms":["keepcool"],"tags":{"brand:wikidata":"Q100146251","leisure":"fitness_centre"},"addTags":{"brand":"KeepCool","brand:wikidata":"Q100146251","leisure":"fitness_centre","name":"KeepCool"}},"leisure/fitness_centre/kiesertraining-a70e35":{"name":"Kieser Training","locationSet":{"include":["at","au","ch","de","lu"]},"geometry":["point","area"],"matchScore":2,"terms":["kieser training"],"tags":{"brand:wikidata":"Q1112367","leisure":"fitness_centre"},"addTags":{"brand":"Kieser Training","brand:wikidata":"Q1112367","leisure":"fitness_centre","name":"Kieser Training"}},"man_made/chargy-a187c9":{"name":"Chargy","locationSet":{"include":["lu"]},"geometry":["point","vertex","line","area"],"matchScore":2,"terms":["chargy"],"fields":["name","brand","{man_made}"],"tags":{"brand:wikidata":"Q62702950","man_made":"charge_point"},"addTags":{"brand":"Chargy","brand:wikidata":"Q62702950","man_made":"charge_point","operator":"Chargy","operator:wikidata":"Q62702950"}},"man_made/ionity-97d83d":{"name":"Ionity","locationSet":{"include":["by","bg","cz","hu","pl","md","ro","ru","sk","ua","ax","gg","je","cq","dk","ee","fo","fi","is","ie","im","lv","lt","no","sj","se","gb","al","ad","ba","hr","gi","gr","va","it","mt","me","mk","pt","sm","rs","si","es","xk","at","be","fr","de","li","lu","mc","nl","ch"]},"geometry":["point","vertex","line","area"],"matchScore":2,"terms":["ionity","ionity gmbh"],"fields":["name","brand","{man_made}"],"tags":{"brand:wikidata":"Q42717773","man_made":"charge_point"},"addTags":{"brand":"Ionity","brand:wikidata":"Q42717773","man_made":"charge_point"}},"office/estate_agent/vonpollrealestate-c99072":{"name":"von Poll Real Estate","locationSet":{"include":["by","bg","cz","hu","pl","md","ro","ru","sk","ua","ax","gg","je","cq","dk","ee","fo","fi","is","ie","im","lv","lt","no","sj","se","gb","al","ad","ba","hr","gi","gr","va","it","mt","me","mk","pt","sm","rs","si","es","xk","at","be","fr","de","li","lu","mc","nl","ch"],"exclude":["at","de"]},"geometry":["point","area"],"matchScore":2,"terms":["von poll immobilien","von poll real estate","vonpoll","vonpoll commercial"],"tags":{"brand:wikidata":"Q96026696","office":"estate_agent"},"addTags":{"brand":"von Poll Real Estate","brand:wikidata":"Q96026696","name":"von Poll Real Estate","office":"estate_agent"}},"office/insurance/allianz-332499":{"name":"Allianz","locationSet":{"include":["ae","ar","at","au","be","bg","bh","bm","bn","br","ca","cg","ch","ci","cm","cn","co","cy","cz","de","dk","ee","eg","es","fi","fr","gb","gf","gg","gh","gp","gr","hk","hr","hu","id","ie","in","is","it","ja","ke","kr","kw","la","li","lk","lt","lu","lv","ma","mg","mx","my","ng","nl","no","nz","om","ph","pk","pl","pt","qa","ro","ru","sa","se","sg","si","sk","sn","th","tr","tw","ua","us","za"]},"geometry":["point","area"],"matchScore":2,"terms":["allianz","allianz versicherung"],"fields":["name","brand","{office/insurance}"],"tags":{"brand:wikidata":"Q487292","office":"insurance"},"addTags":{"brand":"Allianz","brand:wikidata":"Q487292","name":"Allianz","office":"insurance"}},"office/insurance/axa-2e7672":{"name":"AXA","locationSet":{"include":["ae","ar","au","be","bh","bm","br","ca","ch","ci","cl","cm","cn","co","cz","de","dk","dz","eg","es","fi","fr","ga","gb","gr","hk","id","ie","in","it","jp","kr","lb","lu","ma","mu","mx","my","ng","nl","no","om","pa","pe","ph","pl","pt","qa","sa","se","sg","sk","sn","th","tr","tw","us"]},"geometry":["point","area"],"matchScore":2,"terms":["axa"],"fields":["name","brand","{office/insurance}"],"tags":{"brand:wikidata":"Q160054","office":"insurance"},"addTags":{"brand":"AXA","brand:wikidata":"Q160054","name":"AXA","office":"insurance"}},"office/insurance/baloise-d9a3dd":{"name":"Bâloise","locationSet":{"include":["be","ch","de","li","lu"]},"geometry":["point","area"],"matchScore":2,"terms":["bâloise"],"fields":["name","brand","{office/insurance}"],"tags":{"brand:wikidata":"Q457912","office":"insurance"},"addTags":{"brand":"Bâloise","brand:wikidata":"Q457912","name":"Bâloise","office":"insurance"}},"office/insurance/ergo-38191f":{"name":"Ergo","locationSet":{"include":["at","be","ch","cn","cz","de","dk","ee","es","fr","gb","gr","hu","in","it","kr","lt","lu","lv","nl","pl","se","sg","th"]},"geometry":["point","area"],"matchScore":2,"terms":["ergo","ergo direkt","ergo direktversicherung","ergo versicherung"],"fields":["name","brand","{office/insurance}"],"tags":{"brand:wikidata":"Q541909","office":"insurance"},"addTags":{"brand":"Ergo","brand:wikidata":"Q541909","name":"Ergo","office":"insurance"}},"office/insurance/foyer-734c77":{"name":"Foyer","locationSet":{"include":["lu"]},"geometry":["point","area"],"matchScore":2,"terms":["foyer"],"fields":["name","brand","{office/insurance}"],"tags":{"brand:wikidata":"Q1344573","office":"insurance"},"addTags":{"brand":"Foyer","brand:wikidata":"Q1344573","name":"Foyer","office":"insurance"}},"office/insurance/lalux-734c77":{"name":"LaLux","locationSet":{"include":["lu"]},"geometry":["point","area"],"matchScore":2,"terms":["la luxembourgeoise","lalux"],"fields":["name","brand","{office/insurance}"],"tags":{"brand:wikidata":"Q13103680","office":"insurance"},"addTags":{"brand":"LaLux","brand:wikidata":"Q13103680","name":"LaLux","office":"insurance"}},"office/insurance/nn-336e34":{"name":"NN","locationSet":{"include":["by","bg","cz","hu","pl","md","ro","ru","sk","ua","ax","gg","je","cq","dk","ee","fo","fi","is","ie","im","lv","lt","no","sj","se","gb","al","ad","ba","hr","gi","gr","va","it","mt","me","mk","pt","sm","rs","si","es","xk","at","be","fr","de","li","lu","mc","nl","ch"]},"geometry":["point","area"],"matchScore":2,"terms":["nationale-nederlanden","nn"],"fields":["name","brand","{office/insurance}"],"tags":{"brand:wikidata":"Q1834291","office":"insurance"},"addTags":{"brand":"NN","brand:wikidata":"Q1834291","name":"NN","office":"insurance","official_name":"Nationale-Nederlanden"}},"office/insurance/zurich-2d6c95":{"name":"Zurich","locationSet":{"include":["ae","at","au","be","bh","br","ca","ch","cl","cn","co","de","ec","es","fi","fr","gb","hk","id","ie","it","ja","kw","lb","li","lu","mx","my","nl","no","nz","om","pt","qa","se","sg","sk","tr","us"]},"geometry":["point","area"],"matchScore":2,"terms":["zurich"],"fields":["name","brand","{office/insurance}"],"tags":{"brand:wikidata":"Q230426","office":"insurance"},"addTags":{"brand":"Zurich","brand:wikidata":"Q230426","name":"Zurich","office":"insurance"}},"shop/bakery/paul-652955":{"name":"Paul","locationSet":{"include":["ae","az","be","bh","by","ci","cy","cz","eg","es","fr","ga","gb","ge","gr","id","in","jo","jp","kw","kz","lb","lu","ma","mu","my","om","pa","ph","pl","pt","qa","ro","ru","sa","sg","th","tn","tw","ua","us","uz","vn","za"]},"geometry":["point","area"],"matchScore":2,"terms":["paul"],"tags":{"brand:wikidata":"Q3370417","shop":"bakery"},"addTags":{"brand":"Paul","brand:wikidata":"Q3370417","name":"Paul","shop":"bakery"}},"shop/books/pressandbooks-76a200":{"name":"Press & Books","locationSet":{"include":["at","ch","de","lu"]},"geometry":["point","area"],"matchScore":2,"terms":["p&k","press & books"],"tags":{"brand:wikidata":"Q100407277","shop":"books"},"addTags":{"brand":"Press & Books","brand:wikidata":"Q100407277","name":"Press & Books","shop":"books"}},"shop/car/smart-b77732":{"name":"Smart","locationSet":{"include":["by","bg","cz","hu","pl","md","ro","ru","sk","ua","ax","gg","je","cq","dk","ee","fo","fi","is","ie","im","lv","lt","no","sj","se","gb","al","ad","ba","hr","gi","gr","va","it","mt","me","mk","pt","sm","rs","si","es","xk","at","be","fr","de","li","lu","mc","nl","ch","cn"]},"geometry":["point","area"],"matchScore":2,"terms":["smart"],"fields":["name","brand","{shop/car}"],"tags":{"brand:wikidata":"Q156490","shop":"car"},"addTags":{"brand":"Smart","brand:wikidata":"Q156490","name":"Smart","shop":"car"}},"shop/chocolate/jeffdebruges-d57ca4":{"name":"Jeff de Bruges","locationSet":{"include":["at","bg","ca","cz","de","ee","es","fr","gb","it","jo","lu","ma","om","pf","sa","sk","sn","tn"]},"geometry":["point","area"],"matchScore":2,"terms":["jeff de bruges"],"tags":{"brand:wikidata":"Q3176626","shop":"chocolate"},"addTags":{"brand":"Jeff de Bruges","brand:wikidata":"Q3176626","name":"Jeff de Bruges","shop":"chocolate"}},"shop/clothes/adler-108da6":{"name":"Adler","locationSet":{"include":["at","de","lu"]},"geometry":["point","area"],"matchScore":2,"terms":["adler"],"tags":{"brand:wikidata":"Q358196","shop":"clothes"},"addTags":{"brand":"Adler","brand:wikidata":"Q358196","name":"Adler","shop":"clothes"}},"shop/clothes/cachecache-ecfb3e":{"name":"Cache Cache","locationSet":{"include":["fr","it","lu"]},"geometry":["point","area"],"matchScore":2,"terms":["cache cache"],"tags":{"brand:wikidata":"Q63064086","shop":"clothes"},"addTags":{"brand":"Cache Cache","brand:wikidata":"Q63064086","name":"Cache Cache","shop":"clothes"}},"shop/clothes/calida-8b5460":{"name":"CALIDA","locationSet":{"include":["at","ch","de","fr","lu","nl","us"]},"geometry":["point","area"],"matchScore":2,"terms":["calida"],"tags":{"brand:wikidata":"Q693344","shop":"clothes"},"addTags":{"brand":"CALIDA","brand:wikidata":"Q693344","name":"CALIDA","shop":"clothes"}},"shop/clothes/damart-5260ba":{"name":"Damart","locationSet":{"include":["be","fr","lu"]},"geometry":["point","area"],"matchScore":2,"terms":["damart"],"tags":{"brand:wikidata":"Q3012602","shop":"clothes"},"addTags":{"brand":"Damart","brand:wikidata":"Q3012602","name":"Damart","shop":"clothes"}},"shop/clothes/defursac-86ac62":{"name":"De Fursac","locationSet":{"include":["be","ch","fr","gb","lu"]},"geometry":["point","area"],"matchScore":2,"terms":["de fursac"],"tags":{"brand:wikidata":"Q22248311","shop":"clothes"},"addTags":{"brand":"De Fursac","brand:wikidata":"Q22248311","clothes":"men","name":"De Fursac","shop":"clothes"}},"shop/clothes/devernois-5260ba":{"name":"Devernois","locationSet":{"include":["be","fr","lu"]},"geometry":["point","area"],"matchScore":2,"terms":["devernois"],"tags":{"brand:wikidata":"Q98778444","shop":"clothes"},"addTags":{"brand":"Devernois","brand:wikidata":"Q98778444","name":"Devernois","shop":"clothes"}},"shop/clothes/ericbompard-745fe9":{"name":"Éric Bompard","locationSet":{"include":["at","be","de","fr","lu"]},"geometry":["point","area"],"matchScore":2,"terms":["éric bompard"],"tags":{"brand:wikidata":"Q3590998","shop":"clothes"},"addTags":{"brand":"Éric Bompard","brand:wikidata":"Q3590998","name":"Éric Bompard","shop":"clothes"}},"shop/clothes/figaret-5260ba":{"name":"Figaret","locationSet":{"include":["be","fr","lu"]},"geometry":["point","area"],"matchScore":2,"terms":["figaret"],"tags":{"brand:wikidata":"Q4705652","shop":"clothes"},"addTags":{"brand":"Figaret","brand:wikidata":"Q4705652","clothes":"men;women","name":"Figaret","shop":"clothes"}},"shop/clothes/hallhuber-20ae39":{"name":"Hallhuber","locationSet":{"include":["at","ch","de","lu","nl"]},"geometry":["point","area"],"matchScore":2,"terms":["hallhuber"],"tags":{"brand:wikidata":"Q1571714","shop":"clothes"},"addTags":{"brand":"Hallhuber","brand:wikidata":"Q1571714","name":"Hallhuber","shop":"clothes"}},"shop/clothes/underwear/hunkemoller-4950a4":{"name":"Hunkemöller","locationSet":{"include":["at","be","de","dk","es","lu","nl"]},"geometry":["point","area"],"matchScore":2,"terms":["hunkemöller"],"reference":{"key":"clothes","value":"underwear"},"tags":{"brand:wikidata":"Q2604175","clothes":"underwear","shop":"clothes"},"addTags":{"brand":"Hunkemöller","brand:wikidata":"Q2604175","clothes":"underwear","name":"Hunkemöller","shop":"clothes"}},"shop/clothes/ikks-859ec0":{"name":"Ikks","locationSet":{"include":["be","es","fr","lu","nl"]},"geometry":["point","area"],"matchScore":2,"terms":["ikks"],"tags":{"brand:wikidata":"Q3146711","shop":"clothes"},"addTags":{"brand":"Ikks","brand:wikidata":"Q3146711","name":"Ikks","shop":"clothes"}},"shop/clothes/jbc-4b0b1d":{"name":"JBC","locationSet":{"include":["be","lu"]},"geometry":["point","area"],"matchScore":2,"terms":["jbc"],"tags":{"brand:wikidata":"Q2671470","shop":"clothes"},"addTags":{"brand":"JBC","brand:wikidata":"Q2671470","name":"JBC","shop":"clothes"}},"shop/clothes/jennyfer-ecfb3e":{"name":"Jennyfer","locationSet":{"include":["fr","it","lu"]},"geometry":["point","area"],"matchScore":2,"terms":["jennyfer"],"tags":{"brand:wikidata":"Q3177174","shop":"clothes"},"addTags":{"brand":"Jennyfer","brand:wikidata":"Q3177174","name":"Jennyfer","shop":"clothes"}},"shop/clothes/lacompagniedespetits-658d81":{"name":"La Compagnie des Petits","locationSet":{"include":["be","es","fr","lu"]},"geometry":["point","area"],"matchScore":2,"terms":["la compagnie des petits"],"tags":{"brand:wikidata":"Q104195282","shop":"clothes"},"addTags":{"brand":"La Compagnie des Petits","brand:wikidata":"Q104195282","clothes":"children","name":"La Compagnie des Petits","shop":"clothes"}},"shop/clothes/underwear/leslipfrancais-71af1b":{"name":"Le Slip Français","locationSet":{"include":["ch","de","fr","lu"]},"geometry":["point","area"],"matchScore":2,"terms":["le slip français"],"reference":{"key":"clothes","value":"underwear"},"tags":{"brand:wikidata":"Q14594793","clothes":"underwear","shop":"clothes"},"addTags":{"brand":"Le Slip Français","brand:wikidata":"Q14594793","clothes":"underwear","name":"Le Slip Français","shop":"clothes"}},"shop/clothes/letempsdescerises-137ac2":{"name":"Le Temps des Cerises","locationSet":{"include":["be","ch","cz","es","fr","lu","mg"]},"geometry":["point","area"],"matchScore":2,"terms":["le temps des cerises"],"tags":{"brand:wikidata":"Q3228558","shop":"clothes"},"addTags":{"brand":"Le Temps des Cerises","brand:wikidata":"Q3228558","name":"Le Temps des Cerises","shop":"clothes"}},"shop/clothes/maje-99ba8f":{"name":"Maje","locationSet":{"include":["by","bg","cz","hu","pl","md","ro","ru","sk","ua","ax","gg","je","cq","dk","ee","fo","fi","is","ie","im","lv","lt","no","sj","se","gb","al","ad","ba","hr","gi","gr","va","it","mt","me","mk","pt","sm","rs","si","es","xk","at","be","fr","de","li","lu","mc","nl","ch","cn","hk","sg","tw","us"]},"geometry":["point","area"],"matchScore":2,"terms":["maje"],"tags":{"brand:wikidata":"Q3280458","shop":"clothes"},"addTags":{"brand":"Maje","brand:wikidata":"Q3280458","clothes":"women","name":"Maje","shop":"clothes"}},"shop/clothes/msmode-4c46c3":{"name":"MS Mode","locationSet":{"include":["be","de","fr","lu","nl"]},"geometry":["point","area"],"matchScore":2,"terms":["ms mode"],"tags":{"brand:wikidata":"Q6718117","shop":"clothes"},"addTags":{"brand":"MS Mode","brand:wikidata":"Q6718117","clothes":"women","name":"MS Mode","shop":"clothes"}},"shop/clothes/pablo-5260ba":{"name":"Pablo","locationSet":{"include":["be","fr","lu"]},"geometry":["point","area"],"matchScore":2,"terms":["pablo"],"tags":{"brand:wikidata":"Q104718978","shop":"clothes"},"addTags":{"brand":"Pablo","brand:wikidata":"Q104718978","clothes":"women","name":"Pablo","shop":"clothes"}},"shop/clothes/paprika-906b75":{"name":"Paprika","locationSet":{"include":["be","de","fx","lu","nl"]},"geometry":["point","area"],"matchScore":2,"terms":["paprika"],"tags":{"brand:wikidata":"Q117351748","shop":"clothes"},"addTags":{"brand":"Paprika","brand:wikidata":"Q117351748","clothes":"women","name":"Paprika","shop":"clothes"}},"shop/clothes/petitbateau-ef24e9":{"name":"Petit Bateau","locationSet":{"include":["be","de","fr","gb","it","lu"]},"geometry":["point","area"],"matchScore":2,"terms":["petit bateau"],"tags":{"brand:wikidata":"Q3377090","shop":"clothes"},"addTags":{"brand":"Petit Bateau","brand:wikidata":"Q3377090","name":"Petit Bateau","shop":"clothes"}},"shop/clothes/soliver-fb408e":{"name":"s.Oliver","locationSet":{"include":["by","bg","cz","hu","pl","md","ro","ru","sk","ua","ax","gg","je","cq","dk","ee","fo","fi","is","ie","im","lv","lt","no","sj","se","gb","al","ad","ba","hr","gi","gr","va","it","mt","me","mk","pt","sm","rs","si","es","xk","at","be","fr","de","li","lu","mc","nl","ch","cn","in"]},"geometry":["point","area"],"matchScore":2,"terms":["s.oliver"],"tags":{"brand:wikidata":"Q265056","shop":"clothes"},"addTags":{"brand":"s.Oliver","brand:wikidata":"Q265056","name":"s.Oliver","shop":"clothes"}},"shop/clothes/samsoesamsoe-5e0a04":{"name":"Samsøe Samsøe","locationSet":{"include":["be","de","dk","lu","nl","no","se"]},"geometry":["point","area"],"matchScore":2,"terms":["samsøe samsøe","samsoe&samsoe"],"tags":{"brand:wikidata":"Q12334460","shop":"clothes"},"addTags":{"brand":"Samsøe Samsøe","brand:wikidata":"Q12334460","name":"Samsøe Samsøe","shop":"clothes"}},"shop/clothes/seidensticker-a4dacd":{"name":"Seidensticker","locationSet":{"include":["at","be","ch","cz","de","fr","it","lu","nl","pl"]},"geometry":["point","area"],"matchScore":2,"terms":["seidensticker"],"tags":{"brand:wikidata":"Q1797834","shop":"clothes"},"addTags":{"brand":"Seidensticker","brand:wikidata":"Q1797834","name":"Seidensticker","shop":"clothes"}},"shop/clothes/veritas-4b0b1d":{"name":"Veritas","locationSet":{"include":["be","lu"]},"geometry":["point","area"],"matchScore":2,"terms":["veritas"],"tags":{"brand:wikidata":"Q56239194","shop":"clothes"},"addTags":{"brand":"Veritas","brand:wikidata":"Q56239194","shop":"clothes"}},"shop/clothes/weekday-b5590c":{"name":"Weekday","locationSet":{"include":["by","bg","cz","hu","pl","md","ro","ru","sk","ua","ax","gg","je","cq","dk","ee","fo","fi","is","ie","im","lv","lt","no","sj","se","gb","al","ad","ba","hr","gi","gr","va","it","mt","me","mk","pt","sm","rs","si","es","xk","at","be","fr","de","li","lu","mc","nl","ch"]},"geometry":["point","area"],"matchScore":2,"terms":["weekday"],"tags":{"brand:wikidata":"Q10719514","shop":"clothes"},"addTags":{"brand":"Weekday","brand:wikidata":"Q10719514","name":"Weekday","shop":"clothes"}},"shop/clothes/zeeman-4c46c3":{"name":"Zeeman","locationSet":{"include":["be","de","fr","lu","nl"]},"geometry":["point","area"],"matchScore":2,"terms":["zeeman"],"tags":{"brand:wikidata":"Q184399","shop":"clothes"},"addTags":{"brand":"Zeeman","brand:wikidata":"Q184399","name":"Zeeman","shop":"clothes"}},"shop/confectionery/barenland-f63894":{"name":"Bärenland","locationSet":{"include":["at","de","lu"]},"geometry":["point","area"],"matchScore":2,"terms":["bärenland"],"tags":{"brand:wikidata":"Q99510395","shop":"confectionery"},"addTags":{"brand":"Bärenland","brand:wikidata":"Q99510395","name":"Bärenland","shop":"confectionery"}},"shop/convenience/aral-1fe310":{"name":"Aral","locationSet":{"include":["de","lu"]},"geometry":["point","area"],"matchScore":2,"terms":["aral","aral tankstelle"],"tags":{"brand:wikidata":"Q565734","shop":"convenience"},"addTags":{"brand":"Aral","brand:wikidata":"Q565734","name":"Aral","shop":"convenience"}},"shop/convenience/viva-856fe1":{"name":"Viva","locationSet":{"include":["by","bg","cz","hu","pl","md","ro","ru","sk","ua","ax","gg","je","cq","dk","ee","fo","fi","is","ie","im","lv","lt","no","sj","se","gb","al","ad","ba","hr","gi","gr","va","it","mt","me","mk","pt","sm","rs","si","es","xk","at","be","fr","de","li","lu","mc","nl","ch"]},"geometry":["point","area"],"matchScore":2,"terms":["viva"],"tags":{"brand:wikidata":"Q168238","shop":"convenience"},"addTags":{"brand":"Viva","brand:wikidata":"Q168238","name":"Viva","shop":"convenience"}},"shop/cosmetics/avril-a71d22":{"name":"Avril","locationSet":{"include":["fr","lu"]},"geometry":["point","area"],"matchScore":2,"terms":["avril"],"tags":{"brand:wikidata":"Q104744254","shop":"cosmetics"},"addTags":{"brand":"Avril","brand:wikidata":"Q104744254","name":"Avril","shop":"cosmetics"}},"shop/curtain/heytens-ceb642":{"name":"Heytens","locationSet":{"include":["be","ch","fr","lu"]},"geometry":["point","area"],"matchScore":2,"terms":["heytens"],"tags":{"brand:wikidata":"Q90565231","shop":"curtain"},"addTags":{"brand":"Heytens","brand:wikidata":"Q90565231","name":"Heytens","shop":"curtain"}},"shop/department_store/galerieslafayette-b7f45a":{"name":"Galeries Lafayette","locationSet":{"include":["ae","cn","de","fr","id","lu","qa","tr"]},"geometry":["point","area"],"matchScore":2,"terms":["galeries lafayette"],"tags":{"brand:wikidata":"Q3094686","shop":"department_store"},"addTags":{"brand":"Galeries Lafayette","brand:wikidata":"Q3094686","name":"Galeries Lafayette","shop":"department_store"}},"shop/department_store/hema-e99f95":{"name":"HEMA","locationSet":{"include":["ae","at","be","de","es","fr","gb","lu","nl","qa"]},"geometry":["point","area"],"matchScore":2,"terms":["hema"],"tags":{"brand:wikidata":"Q903805","shop":"department_store"},"addTags":{"brand":"HEMA","brand:wikidata":"Q903805","name":"HEMA","shop":"department_store"}},"shop/doityourself/bauhaus-6847b5":{"name":"Bauhaus","locationSet":{"include":["at","bg","ch","cz","de","dk","ee","es","fi","hr","hu","is","lu","nl","no","se","si","sk","tr"]},"geometry":["point","area"],"matchScore":2,"terms":["bauhaus"],"tags":{"brand:wikidata":"Q672043","shop":"doityourself"},"addTags":{"brand":"Bauhaus","brand:wikidata":"Q672043","name":"Bauhaus","shop":"doityourself"}},"shop/doityourself/globusbaumarkt-6f5ad3":{"name":"Globus Baumarkt","locationSet":{"include":["de","lu"]},"geometry":["point","area"],"matchScore":2,"terms":["globus baumarkt"],"tags":{"brand:wikidata":"Q457503","shop":"doityourself"},"addTags":{"brand":"Globus Baumarkt","brand:wikidata":"Q457503","name":"Globus Baumarkt","shop":"doityourself"}},"shop/doityourself/hagebaumarkt-f009fa":{"name":"Hagebaumarkt","locationSet":{"include":["at","be","ch","de","es","fr","lu","nl"]},"geometry":["point","area"],"matchScore":2,"terms":["hagebau","hagebaumarkt"],"tags":{"brand:wikidata":"Q1568279","shop":"doityourself"},"addTags":{"brand":"Hagebaumarkt","brand:wikidata":"Q1568279","name":"Hagebaumarkt","shop":"doityourself"}},"shop/doityourself/hornbach-92b1c1":{"name":"HORNBACH","locationSet":{"include":["at","ch","cz","de","lu","nl","ro","se","sk"]},"geometry":["point","area"],"matchScore":2,"terms":["hornbach"],"tags":{"brand:wikidata":"Q685926","shop":"doityourself"},"addTags":{"brand":"HORNBACH","brand:wikidata":"Q685926","name":"HORNBACH","shop":"doityourself"}},"shop/electrical/rexel-091354":{"name":"Rexel","locationSet":{"include":["at","au","be","ca","ch","cn","de","es","fi","fr","gb","ie","in","it","lu","me","nl","no","nz","pt","se","si","us"]},"geometry":["point","area"],"matchScore":2,"terms":["rexel"],"tags":{"brand:wikidata":"Q962489","shop":"electrical"},"addTags":{"brand":"Rexel","brand:wikidata":"Q962489","name":"Rexel","shop":"electrical"}},"shop/electronics/saturn-cc2119":{"name":"Saturn","locationSet":{"include":["at","de","lu","pl"]},"geometry":["point","area"],"matchScore":2,"terms":["saturn"],"tags":{"brand:wikidata":"Q2543504","shop":"electronics"},"addTags":{"brand":"Saturn","brand:wikidata":"Q2543504","name":"Saturn","shop":"electronics"}},"shop/frozen_food/picard-fd35ee":{"name":"Picard","locationSet":{"include":["be","fr","lu"]},"geometry":["point","area"],"matchScore":2,"terms":["picard"],"tags":{"brand:wikidata":"Q3382454","shop":"frozen_food"},"addTags":{"brand":"Picard","brand:wikidata":"Q3382454","name":"Picard","shop":"frozen_food"}},"shop/furniture/bolia-a18722":{"name":"Bolia","locationSet":{"include":["by","bg","cz","hu","pl","md","ro","ru","sk","ua","ax","gg","je","cq","dk","ee","fo","fi","is","ie","im","lv","lt","no","sj","se","gb","al","ad","ba","hr","gi","gr","va","it","mt","me","mk","pt","sm","rs","si","es","xk","at","be","fr","de","li","lu","mc","nl","ch"]},"geometry":["point","area"],"matchScore":2,"terms":["bolia"],"tags":{"brand:wikidata":"Q11961809","shop":"furniture"},"addTags":{"brand":"Bolia","brand:wikidata":"Q11961809","name":"Bolia","shop":"furniture"}},"shop/furniture/conforama-6fff46":{"name":"Conforama","locationSet":{"include":["ch","es","fr","it","lu","pt"]},"geometry":["point","area"],"matchScore":2,"terms":["conforama"],"tags":{"brand:wikidata":"Q541134","shop":"furniture"},"addTags":{"brand":"Conforama","brand:wikidata":"Q541134","name":"Conforama","shop":"furniture"}},"shop/furniture/habitat-4d9d78":{"name":"Habitat (non-UK)","locationSet":{"include":["be","de","es","gr","is","lu","no","pt","tr"]},"geometry":["point","area"],"matchScore":2,"terms":["habitat"],"tags":{"brand:wikidata":"Q689059","shop":"furniture"},"addTags":{"brand":"Habitat","brand:wikidata":"Q689059","name":"Habitat","shop":"furniture"}},"shop/furniture/maisonsdumonde-41c8c3":{"name":"Maisons du Monde","locationSet":{"include":["be","ch","de","es","fr","gb","it","lu","pt"]},"geometry":["point","area"],"matchScore":2,"terms":["maisons du monde"],"tags":{"brand:wikidata":"Q3280364","shop":"furniture"},"addTags":{"brand":"Maisons du Monde","brand:wikidata":"Q3280364","name":"Maisons du Monde","shop":"furniture"}},"shop/furniture/momax-a18722":{"name":"Mömax","locationSet":{"include":["by","bg","cz","hu","pl","md","ro","ru","sk","ua","ax","gg","je","cq","dk","ee","fo","fi","is","ie","im","lv","lt","no","sj","se","gb","al","ad","ba","hr","gi","gr","va","it","mt","me","mk","pt","sm","rs","si","es","xk","at","be","fr","de","li","lu","mc","nl","ch"]},"geometry":["point","area"],"matchScore":2,"terms":["mömax"],"tags":{"brand:wikidata":"Q56388481","shop":"furniture"},"addTags":{"brand":"Mömax","brand:wikidata":"Q56388481","name":"Mömax","shop":"furniture"}},"shop/furniture/rolfbenz-375bca":{"name":"Rolf Benz","locationSet":{"include":["de","lu"]},"geometry":["point","area"],"matchScore":2,"terms":["rolf benz"],"tags":{"brand:wikidata":"Q2163232","shop":"furniture"},"addTags":{"brand":"Rolf Benz","brand:wikidata":"Q2163232","name":"Rolf Benz","shop":"furniture"}},"shop/furniture/roller-375bca":{"name":"Roller","locationSet":{"include":["de","lu"]},"geometry":["point","area"],"matchScore":2,"terms":["roller"],"tags":{"brand:wikidata":"Q1621286","shop":"furniture"},"addTags":{"brand":"Roller","brand:wikidata":"Q1621286","name":"Roller","shop":"furniture"}},"shop/furniture/xxxlutz-5acc6e":{"name":"XXXLutz","locationSet":{"include":["by","bg","cz","hu","pl","md","ro","ru","sk","ua","ax","gg","je","cq","dk","ee","fo","fi","is","ie","im","lv","lt","no","sj","se","gb","al","ad","ba","hr","gi","gr","va","it","mt","me","mk","pt","sm","rs","si","es","xk","at","be","fr","de","li","lu","mc","nl","ch"],"exclude":["bg"]},"geometry":["point","area"],"matchScore":2,"terms":["xxxlutz"],"tags":{"brand:wikidata":"Q70339467","shop":"furniture"},"addTags":{"brand":"XXXLutz","brand:wikidata":"Q70339467","name":"XXXLutz","shop":"furniture"}},"shop/hairdresser/ferber-6ad147":{"name":"Ferber","locationSet":{"include":["lu"]},"geometry":["point","area"],"matchScore":2,"terms":["ferber"],"tags":{"brand:wikidata":"Q88180887","shop":"hairdresser"},"addTags":{"brand":"Ferber","brand:wikidata":"Q88180887","name":"Ferber","shop":"hairdresser"}},"shop/hairdresser/franckprovost-343148":{"name":"Franck Provost","locationSet":{"include":["be","fr","lu","pl"]},"geometry":["point","area"],"matchScore":2,"terms":["franck provost"],"tags":{"brand:wikidata":"Q62805922","shop":"hairdresser"},"addTags":{"brand":"Franck Provost","brand:wikidata":"Q62805922","name":"Franck Provost","shop":"hairdresser"}},"shop/hairdresser/hairkiller-173527":{"name":"Hairkiller","locationSet":{"include":["at","de","lu"]},"geometry":["point","area"],"matchScore":2,"terms":["hairkiller"],"tags":{"brand:wikidata":"Q58305998","shop":"hairdresser"},"addTags":{"brand":"Hairkiller","brand:wikidata":"Q58305998","name":"Hairkiller","shop":"hairdresser"}},"shop/hairdresser/igorance-6ad147":{"name":"Igorance","locationSet":{"include":["lu"]},"geometry":["point","area"],"matchScore":2,"terms":["igorance"],"tags":{"brand:wikidata":"Q88181481","shop":"hairdresser"},"addTags":{"brand":"Igorance","brand:wikidata":"Q88181481","name":"Igorance","shop":"hairdresser"}},"shop/hairdresser/ryanhair-6ad147":{"name":"Ryanhair","locationSet":{"include":["lu"]},"geometry":["point","area"],"matchScore":2,"terms":["ryanhair"],"tags":{"brand:wikidata":"Q88180487","shop":"hairdresser"},"addTags":{"brand":"Ryanhair","brand:wikidata":"Q88180487","name":"Ryanhair","shop":"hairdresser"}},"shop/hairdresser_supply/laboutiqueducoiffeur-0b3748":{"name":"La Boutique du Coiffeur","locationSet":{"include":["fr","lu"]},"geometry":["point","area"],"matchScore":2,"terms":["la boutique du coiffeur"],"tags":{"brand:wikidata":"Q104600156","shop":"hairdresser_supply"},"addTags":{"brand":"La Boutique du Coiffeur","brand:wikidata":"Q104600156","name":"La Boutique du Coiffeur","shop":"hairdresser_supply"}},"shop/household_linen/descamps-4a0261":{"name":"Descamps","locationSet":{"include":["fr","lu"]},"geometry":["point","area"],"matchScore":2,"terms":["descamps"],"tags":{"brand:wikidata":"Q91002058","shop":"household_linen"},"addTags":{"brand":"Descamps","brand:wikidata":"Q91002058","name":"Descamps","shop":"household_linen"}},"shop/household_linen/yvesdelorme-cbcdfa":{"name":"Yves Delorme","locationSet":{"include":["be","de","es","fr","gb","lu"]},"geometry":["point","area"],"matchScore":2,"terms":["yves delorme"],"tags":{"brand:wikidata":"Q3573601","shop":"household_linen"},"addTags":{"brand":"Yves Delorme","brand:wikidata":"Q3573601","name":"Yves Delorme","shop":"household_linen"}},"shop/interior_decoration/butlers-85b078":{"name":"Butlers","locationSet":{"include":["at","ch","de","es","gb","hu","lu","mt","ua"]},"geometry":["point","area"],"matchScore":2,"terms":["butlers"],"tags":{"brand:wikidata":"Q1017972","shop":"interior_decoration"},"addTags":{"brand":"Butlers","brand:wikidata":"Q1017972","name":"Butlers","shop":"interior_decoration"}},"shop/interior_decoration/casa-ecb23b":{"name":"CASA","locationSet":{"include":["be","ch","es","fr","it","lu","pt"]},"geometry":["point","area"],"matchScore":2,"terms":["casa"],"tags":{"brand:wikidata":"Q1991755","shop":"interior_decoration"},"addTags":{"brand":"CASA","brand:wikidata":"Q1991755","name":"CASA","shop":"interior_decoration"}},"shop/interior_decoration/madura-b1f9e3":{"name":"Madura","locationSet":{"include":["be","fr","lu","tn"]},"geometry":["point","area"],"matchScore":2,"terms":["madura"],"tags":{"brand:wikidata":"Q3276259","shop":"interior_decoration"},"addTags":{"brand":"Madura","brand:wikidata":"Q3276259","name":"Madura","shop":"interior_decoration"}},"shop/jewelry/mauboussin-88b797":{"name":"Mauboussin","locationSet":{"include":["fr","lu"]},"geometry":["point","area"],"matchScore":2,"terms":["mauboussin"],"tags":{"brand:wikidata":"Q3300085","shop":"jewelry"},"addTags":{"brand":"Mauboussin","brand:wikidata":"Q3300085","name":"Mauboussin","shop":"jewelry"}},"shop/kitchen/ixina-d089d8":{"name":"Ixina","locationSet":{"include":["ae","au","be","bf","bh","bj","ca","ci","cm","cn","cz","dz","ee","eg","fr","gh","hr","ke","kw","lu","ly","ma","mu","nl","pl","qa","ro","ru","sa","se","sn","tg","th","tn","vn"]},"geometry":["point","area"],"matchScore":2,"terms":["ixina"],"tags":{"brand:wikidata":"Q3156424","shop":"kitchen"},"addTags":{"brand":"Ixina","brand:wikidata":"Q3156424","name":"Ixina","shop":"kitchen"}},"shop/mobile_phone/sfr-ba7290":{"name":"SFR","locationSet":{"include":["fr","lu"]},"geometry":["point","area"],"matchScore":2,"terms":["espace sfr","sfr"],"tags":{"brand:wikidata":"Q218765","shop":"mobile_phone"},"addTags":{"brand":"SFR","brand:wikidata":"Q218765","name":"SFR","shop":"mobile_phone"}},"shop/newsagent/kkiosk-3673ad":{"name":"k kiosk","locationSet":{"include":["ch","de","li","lu"]},"geometry":["point","area"],"matchScore":2,"terms":["k kiosk"],"tags":{"brand:wikidata":"Q60381703","shop":"newsagent"},"addTags":{"brand":"k kiosk","brand:wikidata":"Q60381703","name":"k kiosk","shop":"newsagent"}},"shop/newsagent/pressandbooks-b35c93":{"name":"Press & Books","locationSet":{"include":["at","ch","de","lu"]},"geometry":["point","area"],"matchScore":2,"terms":["p&k","press & books"],"tags":{"brand:wikidata":"Q100407277","shop":"newsagent"},"addTags":{"brand":"Press & Books","brand:wikidata":"Q100407277","name":"Press & Books","shop":"newsagent"}},"shop/optician/fielmann-f003f4":{"name":"fielmann","locationSet":{"include":["at","by","ch","de","it","lt","lu","lv","nl","pl","ru","ua"]},"geometry":["point","area"],"matchScore":2,"terms":["fielmann"],"fields":["name","brand","{shop/optician}"],"tags":{"brand:wikidata":"Q457822","shop":"optician"},"addTags":{"brand":"Fielmann","brand:wikidata":"Q457822","name":"Fielmann","shop":"optician"}},"shop/optician/opticalcenter-02cbb2":{"name":"Optical Center","locationSet":{"include":["be","ca","es","fr","gp","il","lu","mq","re"]},"geometry":["point","area"],"matchScore":2,"terms":["optical center"],"fields":["name","brand","{shop/optician}"],"tags":{"brand:wikidata":"Q3354448","shop":"optician"},"addTags":{"brand":"Optical Center","brand:wikidata":"Q3354448","name":"Optical Center","shop":"optician"}},"shop/outdoor/asadventure-718831":{"name":"A.S.Adventure","locationSet":{"include":["be","fx","lu","nl"]},"geometry":["point","area"],"matchScore":2,"terms":["a.s.adventure"],"tags":{"brand:wikidata":"Q1815008","shop":"outdoor"},"addTags":{"brand":"A.S.Adventure","brand:wikidata":"Q1815008","name":"A.S.Adventure","shop":"outdoor"}},"shop/outdoor/natureanddecouvertes-fb7405":{"name":"Nature & Découvertes","locationSet":{"include":["be","ch","fr","lu","pt"]},"geometry":["point","area"],"matchScore":2,"terms":["nature & découvertes"],"tags":{"brand:wikidata":"Q3337111","shop":"outdoor"},"addTags":{"brand":"Nature & Découvertes","brand:wikidata":"Q3337111","name":"Nature & Découvertes","shop":"outdoor"}},"shop/pastry/hoffmann-8e72cc":{"name":"Hoffmann","locationSet":{"include":["lu"]},"geometry":["point","area"],"matchScore":2,"terms":["hoffmann","pâtisserie hoffmann"],"tags":{"brand:wikidata":"Q98770209","shop":"pastry"},"addTags":{"brand":"Hoffmann","brand:wikidata":"Q98770209","name":"Hoffmann","shop":"pastry"}},"shop/pastry/namur-8e72cc":{"name":"Namur","locationSet":{"include":["lu"]},"geometry":["point","area"],"matchScore":2,"terms":["namur"],"tags":{"brand:wikidata":"Q98815398","shop":"pastry"},"addTags":{"brand":"Namur","brand:wikidata":"Q98815398","name":"Namur","shop":"pastry"}},"shop/pastry/oberweis-8e72cc":{"name":"Oberweis","locationSet":{"include":["lu"]},"geometry":["point","area"],"matchScore":2,"terms":["oberweis"],"tags":{"brand:wikidata":"Q98815408","shop":"pastry"},"addTags":{"brand":"Oberweis","brand:wikidata":"Q98815408","name":"Oberweis","shop":"pastry"}},"shop/pawnbroker/cashconverters-1c62e9":{"name":"Cash Converters","locationSet":{"include":["ae","au","be","ch","es","fr","gb","lu","my","na","nz","pt","sg","za"]},"geometry":["point","area"],"matchScore":2,"terms":["cash converters"],"tags":{"brand:wikidata":"Q5048645","shop":"pawnbroker"},"addTags":{"brand":"Cash Converters","brand:wikidata":"Q5048645","name":"Cash Converters","shop":"pawnbroker"}},"shop/perfumery/adopt-6637a2":{"name":"Adopt'","locationSet":{"include":["be","fr","lu"]},"geometry":["point","area"],"matchScore":2,"terms":["adopt'"],"tags":{"brand:wikidata":"Q104649177","shop":"perfumery"},"addTags":{"brand":"Adopt'","brand:wikidata":"Q104649177","name":"Adopt'","shop":"perfumery"}},"shop/perfumery/iciparisxl-07c28e":{"name":"ICI PARIS XL","locationSet":{"include":["be","lu","nl"]},"geometry":["point","area"],"matchScore":2,"terms":["ici paris xl"],"tags":{"brand:wikidata":"Q769749","shop":"perfumery"},"addTags":{"brand":"ICI PARIS XL","brand:wikidata":"Q769749","name":"ICI PARIS XL","shop":"perfumery"}},"shop/pet/fressnapf-d58bba":{"name":"Fressnapf","locationSet":{"include":["at","ch","de","hu","lu"]},"geometry":["point","area"],"matchScore":2,"terms":["fressnapf"],"tags":{"brand:wikidata":"Q875796","shop":"pet"},"addTags":{"brand":"Fressnapf","brand:wikidata":"Q875796","name":"Fressnapf","shop":"pet"}},"shop/pet/tomandco-cad8a4":{"name":"Tom & Co","locationSet":{"include":["be","fr","lu"]},"geometry":["point","area"],"matchScore":2,"terms":["tom & co"],"tags":{"brand:wikidata":"Q98380763","shop":"pet"},"addTags":{"brand":"Tom & Co","brand:wikidata":"Q98380763","name":"Tom & Co","shop":"pet"}},"shop/shoes/brantano-12213a":{"name":"Brantano","locationSet":{"include":["be","gb","lu"]},"geometry":["point","area"],"matchScore":2,"terms":["brantano"],"tags":{"brand:wikidata":"Q4957616","shop":"shoes"},"addTags":{"brand":"Brantano","brand:wikidata":"Q4957616","name":"Brantano","shop":"shoes"}},"shop/shoes/chaussea-d3b405":{"name":"Chaussea","locationSet":{"include":["be","es","fr","lu"]},"geometry":["point","area"],"matchScore":2,"terms":["chaussea"],"tags":{"brand:wikidata":"Q62082044","shop":"shoes"},"addTags":{"brand":"Chaussea","brand:wikidata":"Q62082044","name":"Chaussea","shop":"shoes"}},"shop/shoes/sacha-854638":{"name":"Sacha","locationSet":{"include":["be","lu","nl"]},"geometry":["point","area"],"matchScore":2,"terms":["sacha"],"tags":{"brand:wikidata":"Q116414246","shop":"shoes"},"addTags":{"brand":"Sacha","brand:wikidata":"Q116414246","name":"Sacha","shop":"shoes"}},"shop/storage_rental/storebox-3e45ed":{"name":"Storebox","locationSet":{"include":["at","be","ch","de","lu","nl"]},"geometry":["point","area"],"matchScore":2,"terms":["storebox"],"tags":{"brand:wikidata":"Q117430004","shop":"storage_rental"},"addTags":{"brand":"Storebox","brand:wikidata":"Q117430004","name":"Storebox","shop":"storage_rental"}},"shop/supermarket/addelhaize-f276cb":{"name":"AD Delhaize","locationSet":{"include":["be","lu"]},"geometry":["point","area"],"matchScore":2,"terms":["ad delhaize"],"tags":{"brand:wikidata":"Q1184173","shop":"supermarket"},"addTags":{"brand":"AD Delhaize","brand:wikidata":"Q1184173","name":"AD Delhaize","shop":"supermarket"}},"shop/supermarket/aldi-b5be76":{"name":"ALDI (ALDI Nord group)","locationSet":{"include":["be","dk","es","fr","lu","nl","pl","pt"],"exclude":["de"]},"geometry":["point","area"],"matchScore":2,"terms":["aldi"],"tags":{"brand:wikidata":"Q41171373","shop":"supermarket"},"addTags":{"brand":"ALDI","brand:wikidata":"Q41171373","name":"ALDI","shop":"supermarket"}},"shop/supermarket/alvo-f276cb":{"name":"Alvo","locationSet":{"include":["be","lu"]},"geometry":["point","area"],"matchScore":2,"terms":["alvo"],"tags":{"brand:wikidata":"Q16068936","shop":"supermarket"},"addTags":{"brand":"Alvo","brand:wikidata":"Q16068936","name":"Alvo","shop":"supermarket"}},"shop/supermarket/auchan-925d9b":{"name":"Auchan","locationSet":{"include":["al","ad","ba","hr","gi","gr","va","it","mt","me","mk","pt","sm","rs","si","es","xk","by","bg","cz","hu","pl","md","ro","ru","sk","ua","at","be","fr","de","li","lu","mc","nl","ch","cn"],"exclude":["ru"]},"geometry":["point","area"],"matchScore":2,"terms":["auchan"],"tags":{"brand:wikidata":"Q758603","shop":"supermarket"},"addTags":{"brand":"Auchan","brand:wikidata":"Q758603","name":"Auchan","shop":"supermarket"}},"shop/supermarket/auchandrive-715442":{"name":"Auchan Drive","locationSet":{"include":["fr","lu"]},"geometry":["point","area"],"matchScore":2,"terms":["auchan drive"],"tags":{"brand:wikidata":"Q2870659","shop":"supermarket"},"addTags":{"brand":"Auchan Drive","brand:wikidata":"Q2870659","drive_through":"only","name":"Auchan Drive","shop":"supermarket"}},"shop/supermarket/cactus-a0478c":{"name":"Cactus","locationSet":{"include":["lu"]},"geometry":["point","area"],"matchScore":2,"terms":["cactus"],"tags":{"brand:wikidata":"Q466918","shop":"supermarket"},"addTags":{"brand":"Cactus","brand:wikidata":"Q466918","name":"Cactus","shop":"supermarket"}},"shop/supermarket/colruyt-27c1df":{"name":"Colruyt","locationSet":{"include":["be","fr","lu"]},"geometry":["point","area"],"matchScore":2,"terms":["colruyt"],"tags":{"brand:wikidata":"Q2363991","shop":"supermarket"},"addTags":{"brand":"Colruyt","brand:wikidata":"Q2363991","name":"Colruyt","shop":"supermarket"}},"shop/supermarket/cora-ea1ce5":{"name":"Cora","locationSet":{"include":["be","fr","lu","ro"]},"geometry":["point","area"],"matchScore":2,"terms":["cora"],"tags":{"brand:wikidata":"Q686643","shop":"supermarket"},"addTags":{"brand":"Cora","brand:wikidata":"Q686643","name":"Cora","shop":"supermarket"}},"shop/supermarket/delhaize-f276cb":{"name":"Delhaize","locationSet":{"include":["be","lu"]},"geometry":["point","area"],"matchScore":2,"terms":["delhaize"],"tags":{"brand:wikidata":"Q1184173","shop":"supermarket"},"addTags":{"brand":"Delhaize","brand:wikidata":"Q1184173","name":"Delhaize","shop":"supermarket"}},"shop/supermarket/eurospar-4b5e11":{"name":"Eurospar","locationSet":{"include":["by","bg","cz","hu","pl","md","ro","ru","sk","ua","ax","gg","je","cq","dk","ee","fo","fi","is","ie","im","lv","lt","no","sj","se","gb","al","ad","ba","hr","gi","gr","va","it","mt","me","mk","pt","sm","rs","si","es","xk","at","be","fr","de","li","lu","mc","nl","ch"]},"geometry":["point","area"],"matchScore":2,"terms":["eurospar"],"tags":{"brand:wikidata":"Q12309283","shop":"supermarket"},"addTags":{"brand":"Eurospar","brand:wikidata":"Q12309283","name":"Eurospar","shop":"supermarket"}},"shop/supermarket/match-ae86a1":{"name":"Match","locationSet":{"include":["be","fr","hu","lu"]},"geometry":["point","area"],"matchScore":2,"terms":["match"],"tags":{"brand:wikidata":"Q513977","shop":"supermarket"},"addTags":{"brand":"Match","brand:wikidata":"Q513977","name":"Match","shop":"supermarket"}},"shop/supermarket/proxydelhaize-f276cb":{"name":"Proxy Delhaize","locationSet":{"include":["be","lu"]},"geometry":["point","area"],"matchScore":2,"terms":["proxy delhaize"],"searchable":false,"tags":{"brand:wikidata":"Q14903417","shop":"supermarket"},"addTags":{"brand":"Proxy Delhaize","brand:wikidata":"Q14903417","name":"Proxy Delhaize","shop":"supermarket"}},"shop/supermarket/smatch-f276cb":{"name":"Smatch","locationSet":{"include":["be","lu"]},"geometry":["point","area"],"matchScore":2,"terms":["smatch"],"tags":{"brand:wikidata":"Q5185959","shop":"supermarket"},"addTags":{"brand":"Smatch","brand:wikidata":"Q5185959","name":"Smatch","shop":"supermarket"}},"shop/tattoo/veantattoo-eea007":{"name":"VeAn Tattoo","locationSet":{"include":["by","bg","cz","hu","pl","md","ro","ru","sk","ua","ax","gg","je","cq","dk","ee","fo","fi","is","ie","im","lv","lt","no","sj","se","gb","al","ad","ba","hr","gi","gr","va","it","mt","me","mk","pt","sm","rs","si","es","xk","at","be","fr","de","li","lu","mc","nl","ch"]},"geometry":["point","area"],"matchScore":2,"terms":["vean tattoo"],"tags":{"brand:wikidata":"Q116871240","shop":"tattoo"},"addTags":{"brand":"VeAn Tattoo","brand:wikidata":"Q116871240","name":"VeAn Tattoo","shop":"tattoo"}},"shop/tea/dammannfreres-14c0a7":{"name":"Dammann Frères","locationSet":{"include":["fr","it","ja","kr","lu"]},"geometry":["point","area"],"matchScore":2,"terms":["dammann frères"],"tags":{"brand:wikidata":"Q3012927","shop":"tea"},"addTags":{"brand":"Dammann Frères","brand:wikidata":"Q3012927","name":"Dammann Frères","shop":"tea"}},"shop/tea/palaisdesthes-9d2342":{"name":"Palais des Thés","locationSet":{"include":["be","fr","ge","il","lu","no","ru"]},"geometry":["point","area"],"matchScore":2,"terms":["palais des thés"],"tags":{"brand:wikidata":"Q3225161","shop":"tea"},"addTags":{"brand":"Palais des Thés","brand:wikidata":"Q3225161","name":"Palais des Thés","shop":"tea"}},"shop/tool_hire/boels-d0c09f":{"name":"Boels","locationSet":{"include":["at","be","ch","cz","de","gb","it","lu","nl","pl","sk"]},"geometry":["point","area"],"matchScore":2,"terms":["boels","boels rental"],"tags":{"brand:wikidata":"Q19901961","shop":"tool_hire"},"addTags":{"brand":"Boels","brand:wikidata":"Q19901961","name":"Boels","shop":"tool_hire"}},"shop/tool_hire/loxam-33fef8":{"name":"Loxam","locationSet":{"include":["ae","be","bh","br","ch","co","cz","de","dk","ee","es","fi","fr","gb","ie","it","kw","lt","lu","lv","ma","nl","no","om","pl","pt","qa","sa","se","sk"]},"geometry":["point","area"],"matchScore":2,"terms":["loxam"],"tags":{"brand:wikidata":"Q3264407","shop":"tool_hire"},"addTags":{"brand":"Loxam","brand:wikidata":"Q3264407","name":"Loxam","shop":"tool_hire"}},"shop/variety_store/action-8dd2e2":{"name":"Action","locationSet":{"include":["at","be","cz","de","es","fr","it","lu","nl","pl","sk"]},"geometry":["point","area"],"matchScore":2,"terms":["action"],"tags":{"brand:wikidata":"Q2634111","shop":"variety_store"},"addTags":{"brand":"Action","brand:wikidata":"Q2634111","name":"Action","shop":"variety_store"}},"shop/variety_store/lafoirfouille-af2034":{"name":"La Foir'Fouille","locationSet":{"include":["be","fr","lu","mu","nc"]},"geometry":["point","area"],"matchScore":2,"terms":["la foir'fouille"],"tags":{"brand:wikidata":"Q3209040","shop":"variety_store"},"addTags":{"brand":"La Foir'Fouille","brand:wikidata":"Q3209040","name":"La Foir'Fouille","shop":"variety_store"}},"tourism/hotel/appartcity-9faf0b":{"name":"Appart'City","locationSet":{"include":["be","ch","fr","lu"]},"geometry":["point","area"],"matchScore":2,"terms":["appart'city"],"fields":["name","brand","{tourism/hotel}"],"tags":{"brand:wikidata":"Q101850226","tourism":"hotel"},"addTags":{"brand":"Appart'City","brand:wikidata":"Q101850226","name":"Appart'City","tourism":"hotel"}},"tourism/hotel/bandbhotel-fc8c2c":{"name":"B&B Hotel","locationSet":{"include":["by","bg","cz","hu","pl","md","ro","ru","sk","ua","ax","gg","je","cq","dk","ee","fo","fi","is","ie","im","lv","lt","no","sj","se","gb","al","ad","ba","hr","gi","gr","va","it","mt","me","mk","pt","sm","rs","si","es","xk","at","be","fr","de","li","lu","mc","nl","ch","br"]},"geometry":["point","area"],"matchScore":2,"terms":["b&b hotels"],"fields":["name","brand","{tourism/hotel}"],"tags":{"brand:wikidata":"Q794939","tourism":"hotel"},"addTags":{"brand":"B&B Hotels","brand:wikidata":"Q794939","name":"B&B Hotel","tourism":"hotel"}},"tourism/hotel/greet-046fe6":{"name":"greet","locationSet":{"include":["by","bg","cz","hu","pl","md","ro","ru","sk","ua","ax","gg","je","cq","dk","ee","fo","fi","is","ie","im","lv","lt","no","sj","se","gb","al","ad","ba","hr","gi","gr","va","it","mt","me","mk","pt","sm","rs","si","es","xk","at","be","fr","de","li","lu","mc","nl","ch"]},"geometry":["point","area"],"matchScore":2,"terms":["greet"],"fields":["name","brand","{tourism/hotel}"],"tags":{"brand:wikidata":"Q115489066","tourism":"hotel"},"addTags":{"brand":"greet","brand:wikidata":"Q115489066","name":"Greet","tourism":"hotel"}},"tourism/hotel/motelone-1fc1b4":{"name":"Motel One","locationSet":{"include":["by","bg","cz","hu","pl","md","ro","ru","sk","ua","ax","gg","je","cq","dk","ee","fo","fi","is","ie","im","lv","lt","no","sj","se","gb","al","ad","ba","hr","gi","gr","va","it","mt","me","mk","pt","sm","rs","si","es","xk","at","be","fr","de","li","lu","mc","nl","ch","us-ny"]},"geometry":["point","area"],"matchScore":2,"terms":["motel one"],"fields":["name","brand","{tourism/hotel}"],"tags":{"brand:wikidata":"Q391080","tourism":"hotel"},"addTags":{"brand":"Motel One","brand:wikidata":"Q391080","name":"Motel One","tourism":"hotel"}},"tourism/hotel/nhhotel-e9b4fb":{"name":"NH Hotels","locationSet":{"include":["ad","ar","at","be","br","ch","cl","co","cu","cz","de","es","fr","hu","it","lu","mx","nl","pl","pt"]},"geometry":["point","area"],"matchScore":2,"terms":["nh hotels"],"fields":["name","brand","{tourism/hotel}"],"tags":{"brand:wikidata":"Q1604631","tourism":"hotel"},"addTags":{"brand":"NH Hotels","brand:wikidata":"Q1604631","name":"NH Hotel","tourism":"hotel"}},"amenity/charging_station/aral-2d0940":{"name":"Aral pulse","locationSet":{"include":["de","lu"]},"geometry":["point","vertex","area"],"matchScore":2,"terms":["aral","aral pulse"],"fields":["name","operator","{amenity/charging_station}"],"tags":{"amenity":"charging_station","operator:wikidata":"Q565734"},"addTags":{"amenity":"charging_station","brand":"Aral pulse","operator":"Aral","operator:wikidata":"Q565734"}},"amenity/charging_station/bikeenergy-9f519a":{"name":"bike-energy","locationSet":{"include":["at","ch","de","fr","it","lu"]},"geometry":["point","vertex","area"],"matchScore":2,"terms":["bike-energy","bike-energy ladestation"],"fields":["name","operator","{amenity/charging_station}"],"tags":{"amenity":"charging_station","operator:wikidata":"Q67770877"},"addTags":{"amenity":"charging_station","brand":"bike-energy","brand:wikidata":"Q67770877","name":"bike-energy","operator":"bike-energy","operator:wikidata":"Q67770877"}},"amenity/charging_station/eon-7f623e":{"name":"E.ON","locationSet":{"include":["by","bg","cz","hu","pl","md","ro","ru","sk","ua","ax","gg","je","cq","dk","ee","fo","fi","is","ie","im","lv","lt","no","sj","se","gb","al","ad","ba","hr","gi","gr","va","it","mt","me","mk","pt","sm","rs","si","es","xk","at","be","fr","de","li","lu","mc","nl","ch"]},"geometry":["point","vertex","area"],"matchScore":2,"terms":["e-on drive","e.on"],"fields":["name","operator","{amenity/charging_station}"],"tags":{"amenity":"charging_station","operator:wikidata":"Q270223"},"addTags":{"amenity":"charging_station","operator":"E.ON","operator:wikidata":"Q270223"}},"amenity/charging_station/evbox-7f623e":{"name":"EVBox","locationSet":{"include":["by","bg","cz","hu","pl","md","ro","ru","sk","ua","ax","gg","je","cq","dk","ee","fo","fi","is","ie","im","lv","lt","no","sj","se","gb","al","ad","ba","hr","gi","gr","va","it","mt","me","mk","pt","sm","rs","si","es","xk","at","be","fr","de","li","lu","mc","nl","ch"]},"geometry":["point","vertex","area"],"matchScore":2,"terms":["evbox"],"fields":["name","operator","{amenity/charging_station}"],"tags":{"amenity":"charging_station","operator:wikidata":"Q28406392"},"addTags":{"amenity":"charging_station","operator":"EVBox","operator:wikidata":"Q28406392"}},"amenity/charging_station/qpark-7f623e":{"name":"Q-Park","locationSet":{"include":["by","bg","cz","hu","pl","md","ro","ru","sk","ua","ax","gg","je","cq","dk","ee","fo","fi","is","ie","im","lv","lt","no","sj","se","gb","al","ad","ba","hr","gi","gr","va","it","mt","me","mk","pt","sm","rs","si","es","xk","at","be","fr","de","li","lu","mc","nl","ch"]},"geometry":["point","vertex","area"],"matchScore":2,"terms":["q-park"],"fields":["name","operator","{amenity/charging_station}"],"tags":{"amenity":"charging_station","operator:wikidata":"Q1127798"},"addTags":{"amenity":"charging_station","operator":"Q-Park","operator:wikidata":"Q1127798"}},"amenity/fire_station/cgdis-113857":{"name":"CGDIS","locationSet":{"include":["lu"]},"geometry":["point","area"],"matchScore":2,"terms":["cgdis","corps grand-ducal d'incendie et de secours"],"tags":{"amenity":"fire_station","operator:wikidata":"Q55334052"},"addTags":{"amenity":"fire_station","operator":"CGDIS","operator:wikidata":"Q55334052"}},"amenity/post_box/pandt-378ac5":{"name":"P&T","locationSet":{"include":["lu"]},"geometry":["point","vertex"],"matchScore":2,"terms":["p&t"],"tags":{"amenity":"post_box","operator:wikidata":"Q1570910"},"addTags":{"amenity":"post_box","operator":"P&T","operator:wikidata":"Q1570910"}},"amenity/post_office/pandt-be325d":{"name":"P&T","locationSet":{"include":["lu"]},"geometry":["point","area"],"matchScore":2,"terms":["p&t"],"fields":["name","operator","{amenity/post_office}"],"tags":{"amenity":"post_office","operator:wikidata":"Q1570910"},"addTags":{"amenity":"post_office","operator":"P&T","operator:wikidata":"Q1570910"}},"amenity/recycling/remondis-222d99":{"name":"REMONDIS","locationSet":{"include":["by","bg","cz","hu","pl","md","ro","ru","sk","ua","ax","gg","je","cq","dk","ee","fo","fi","is","ie","im","lv","lt","no","sj","se","gb","al","ad","ba","hr","gi","gr","va","it","mt","me","mk","pt","sm","rs","si","es","xk","at","be","fr","de","li","lu","mc","nl","ch"]},"geometry":["point","area"],"matchScore":2,"terms":["remondis"],"tags":{"amenity":"recycling","operator:wikidata":"Q884975"},"addTags":{"amenity":"recycling","operator":"REMONDIS","operator:wikidata":"Q884975"}},"amenity/telephone/postluxembourg-0ddef4":{"name":"POST Luxembourg","locationSet":{"include":["lu"]},"geometry":["point","vertex"],"matchScore":2,"terms":["p&t","post luxembourg"],"fields":["name","operator","{amenity/telephone}"],"tags":{"amenity":"telephone","operator:wikidata":"Q1570910"},"addTags":{"amenity":"telephone","operator":"POST Luxembourg","operator:wikidata":"Q1570910"}},"man_made/aral-026fb8":{"name":"Aral pulse","locationSet":{"include":["de","lu"]},"geometry":["point","vertex","line","area"],"matchScore":2,"terms":["aral","aral pulse"],"fields":["name","operator","{man_made}"],"tags":{"man_made":"charge_point","operator:wikidata":"Q565734"},"addTags":{"brand":"Aral pulse","man_made":"charge_point","operator":"Aral","operator:wikidata":"Q565734"}},"man_made/bikeenergy-a705a2":{"name":"bike-energy","locationSet":{"include":["at","ch","de","fr","it","lu"]},"geometry":["point","vertex","line","area"],"matchScore":2,"terms":["bike-energy","bike-energy ladestation"],"fields":["name","operator","{man_made}"],"tags":{"man_made":"charge_point","operator:wikidata":"Q67770877"},"addTags":{"brand":"bike-energy","brand:wikidata":"Q67770877","man_made":"charge_point","operator":"bike-energy","operator:wikidata":"Q67770877"}},"man_made/eon-22bfb3":{"name":"E.ON","locationSet":{"include":["by","bg","cz","hu","pl","md","ro","ru","sk","ua","ax","gg","je","cq","dk","ee","fo","fi","is","ie","im","lv","lt","no","sj","se","gb","al","ad","ba","hr","gi","gr","va","it","mt","me","mk","pt","sm","rs","si","es","xk","at","be","fr","de","li","lu","mc","nl","ch"]},"geometry":["point","vertex","line","area"],"matchScore":2,"terms":["e-on drive","e.on"],"fields":["name","operator","{man_made}"],"tags":{"man_made":"charge_point","operator:wikidata":"Q270223"},"addTags":{"man_made":"charge_point","operator":"E.ON","operator:wikidata":"Q270223"}},"man_made/evbox-22bfb3":{"name":"EVBox","locationSet":{"include":["by","bg","cz","hu","pl","md","ro","ru","sk","ua","ax","gg","je","cq","dk","ee","fo","fi","is","ie","im","lv","lt","no","sj","se","gb","al","ad","ba","hr","gi","gr","va","it","mt","me","mk","pt","sm","rs","si","es","xk","at","be","fr","de","li","lu","mc","nl","ch"]},"geometry":["point","vertex","line","area"],"matchScore":2,"terms":["evbox"],"fields":["name","operator","{man_made}"],"tags":{"man_made":"charge_point","operator:wikidata":"Q28406392"},"addTags":{"man_made":"charge_point","operator":"EVBox","operator:wikidata":"Q28406392"}},"man_made/qpark-22bfb3":{"name":"Q-Park","locationSet":{"include":["by","bg","cz","hu","pl","md","ro","ru","sk","ua","ax","gg","je","cq","dk","ee","fo","fi","is","ie","im","lv","lt","no","sj","se","gb","al","ad","ba","hr","gi","gr","va","it","mt","me","mk","pt","sm","rs","si","es","xk","at","be","fr","de","li","lu","mc","nl","ch"]},"geometry":["point","vertex","line","area"],"matchScore":2,"terms":["q-park"],"fields":["name","operator","{man_made}"],"tags":{"man_made":"charge_point","operator:wikidata":"Q1127798"},"addTags":{"man_made":"charge_point","operator":"Q-Park","operator:wikidata":"Q1127798"}},"office/energy_supplier/naturgy-e15d8a":{"name":"Naturgy","locationSet":{"include":["ar","au","be","br","cl","cn","cr","de","do","dz","eg","es","fr","gb","ie","in","jm","jo","jp","lu","ma","mx","nl","om","pa","pe","pk","pr","pt","sg"]},"geometry":["point","area"],"matchScore":2,"terms":["naturgy"],"tags":{"office":"energy_supplier","operator:wikidata":"Q474690"},"addTags":{"name":"Naturgy","office":"energy_supplier","operator":"Naturgy","operator:wikidata":"Q474690"}},"power/generator/enovos-779fe4":{"name":"Enovos (Luxembourg)","locationSet":{"include":["lu"]},"geometry":["point","vertex","area"],"matchScore":2,"terms":["enovos"],"tags":{"operator:wikidata":"Q16763485","power":"generator"},"addTags":{"operator":"Enovos","operator:wikidata":"Q16763485","power":"generator"}},"power/generator/innogy-16c9d0":{"name":"Innogy","locationSet":{"include":["by","bg","cz","hu","pl","md","ro","ru","sk","ua","ax","gg","je","cq","dk","ee","fo","fi","is","ie","im","lv","lt","no","sj","se","gb","al","ad","ba","hr","gi","gr","va","it","mt","me","mk","pt","sm","rs","si","es","xk","at","be","fr","de","li","lu","mc","nl","ch"]},"geometry":["point","vertex","area"],"matchScore":2,"terms":["innogy"],"tags":{"operator:wikidata":"Q2124721","power":"generator"},"addTags":{"operator":"Innogy","operator:wikidata":"Q2124721","power":"generator"}},"power/generator/rwe-16c9d0":{"name":"RWE","locationSet":{"include":["by","bg","cz","hu","pl","md","ro","ru","sk","ua","ax","gg","je","cq","dk","ee","fo","fi","is","ie","im","lv","lt","no","sj","se","gb","al","ad","ba","hr","gi","gr","va","it","mt","me","mk","pt","sm","rs","si","es","xk","at","be","fr","de","li","lu","mc","nl","ch"]},"geometry":["point","vertex","area"],"matchScore":2,"terms":["rwe"],"tags":{"operator:wikidata":"Q138133","power":"generator"},"addTags":{"operator":"RWE","operator:wikidata":"Q138133","power":"generator"}},"power/generator/statkraft-16c9d0":{"name":"Statkraft","locationSet":{"include":["by","bg","cz","hu","pl","md","ro","ru","sk","ua","ax","gg","je","cq","dk","ee","fo","fi","is","ie","im","lv","lt","no","sj","se","gb","al","ad","ba","hr","gi","gr","va","it","mt","me","mk","pt","sm","rs","si","es","xk","at","be","fr","de","li","lu","mc","nl","ch"]},"geometry":["point","vertex","area"],"matchScore":2,"terms":["statkraft"],"tags":{"operator:wikidata":"Q1681145","power":"generator"},"addTags":{"operator":"Statkraft","operator:wikidata":"Q1681145","power":"generator"}},"power/generator/uniper-16c9d0":{"name":"Uniper","locationSet":{"include":["by","bg","cz","hu","pl","md","ro","ru","sk","ua","ax","gg","je","cq","dk","ee","fo","fi","is","ie","im","lv","lt","no","sj","se","gb","al","ad","ba","hr","gi","gr","va","it","mt","me","mk","pt","sm","rs","si","es","xk","at","be","fr","de","li","lu","mc","nl","ch"]},"geometry":["point","vertex","area"],"matchScore":2,"terms":["uniper"],"tags":{"operator:wikidata":"Q19839259","power":"generator"},"addTags":{"operator":"Uniper","operator:wikidata":"Q19839259","power":"generator"}},"power/generator/wpo-16c9d0":{"name":"WPO","locationSet":{"include":["by","bg","cz","hu","pl","md","ro","ru","sk","ua","ax","gg","je","cq","dk","ee","fo","fi","is","ie","im","lv","lt","no","sj","se","gb","al","ad","ba","hr","gi","gr","va","it","mt","me","mk","pt","sm","rs","si","es","xk","at","be","fr","de","li","lu","mc","nl","ch"]},"geometry":["point","vertex","area"],"matchScore":2,"terms":["wpo"],"tags":{"operator:wikidata":"Q64755627","power":"generator"},"addTags":{"operator":"WPO","operator:wikidata":"Q64755627","power":"generator"}},"power/substation/creos-6d4ec8":{"name":"Creos","locationSet":{"include":["lu"]},"geometry":["area","point"],"matchScore":2,"terms":["creos"],"tags":{"operator:wikidata":"Q21036415","power":"substation"},"addTags":{"operator":"Creos","operator:wikidata":"Q21036415","power":"substation"}},"power/transformer/creos-d85a73":{"name":"Creos","locationSet":{"include":["lu"]},"geometry":["point","vertex"],"matchScore":2,"terms":["creos"],"tags":{"operator:wikidata":"Q21036415","power":"transformer"},"addTags":{"operator":"Creos","operator:wikidata":"Q21036415","power":"transformer"}},"telecom/exchange/interoute-58ec5d":{"name":"Interoute","locationSet":{"include":["by","bg","cz","hu","pl","md","ro","ru","sk","ua","ax","gg","je","cq","dk","ee","fo","fi","is","ie","im","lv","lt","no","sj","se","gb","al","ad","ba","hr","gi","gr","va","it","mt","me","mk","pt","sm","rs","si","es","xk","at","be","fr","de","li","lu","mc","nl","ch"]},"geometry":["point","area"],"matchScore":2,"terms":["interoute"],"fields":["name","operator","{telecom/exchange}"],"tags":{"operator:wikidata":"Q1668090","telecom":"exchange"},"addTags":{"operator":"Interoute","operator:wikidata":"Q1668090","telecom":"exchange"}},"public_transport/platform/bus_point/avl-4d2281":{"name":"AVL","locationSet":{"include":["lu"]},"geometry":["point","vertex"],"matchScore":2,"terms":["avl"],"reference":{"key":"public_transport","value":"platform"},"tags":{"bus":"yes","network:wikidata":"Q2872530","public_transport":"platform"},"addTags":{"bus":"yes","highway":"bus_stop","network":"AVL","network:wikidata":"Q2872530","public_transport":"platform"}},"public_transport/platform/bus_point/flixbus-f5b4b3":{"name":"Flixbus","locationSet":{"include":["by","bg","cz","hu","pl","md","ro","ru","sk","ua","ax","gg","je","cq","dk","ee","fo","fi","is","ie","im","lv","lt","no","sj","se","gb","al","ad","ba","hr","gi","gr","va","it","mt","me","mk","pt","sm","rs","si","es","xk","at","be","fr","de","li","lu","mc","nl","ch","br","ca","us"]},"geometry":["point","vertex"],"matchScore":2,"terms":["flixbus"],"reference":{"key":"public_transport","value":"platform"},"tags":{"bus":"yes","network:wikidata":"Q15712258","public_transport":"platform"},"addTags":{"bus":"yes","highway":"bus_stop","network":"Flixbus","network:wikidata":"Q15712258","public_transport":"platform"}},"public_transport/platform/bus_point/nightbus-4d2281":{"name":"Nightbus (Luxembourg)","locationSet":{"include":["lu"]},"geometry":["point","vertex"],"matchScore":2,"terms":["nightbus"],"reference":{"key":"public_transport","value":"platform"},"tags":{"bus":"yes","network:wikidata":"Q56306518","public_transport":"platform"},"addTags":{"bus":"yes","highway":"bus_stop","network":"Nightbus","network:wikidata":"Q56306518","public_transport":"platform"}},"public_transport/platform/bus_point/rgtr-9b12dc":{"name":"RGTR","locationSet":{"include":["be","de","fx","lu"]},"geometry":["point","vertex"],"matchScore":2,"terms":["rgtr"],"reference":{"key":"public_transport","value":"platform"},"tags":{"bus":"yes","network:wikidata":"Q3274984","public_transport":"platform"},"addTags":{"bus":"yes","highway":"bus_stop","network":"RGTR","network:wikidata":"Q3274984","public_transport":"platform"}},"public_transport/platform/bus_point/tecl-9b12dc":{"name":"TECL (Liège-Verviers)","locationSet":{"include":["be","de","fx","lu"]},"geometry":["point","vertex"],"matchScore":2,"terms":["tec","tecl"],"reference":{"key":"public_transport","value":"platform"},"tags":{"bus":"yes","network:wikidata":"Q3512078","public_transport":"platform"},"addTags":{"bus":"yes","highway":"bus_stop","network":"TECL","network:wikidata":"Q3512078","operator":"TEC","operator:wikidata":"Q366922","public_transport":"platform"}},"public_transport/platform/bus_point/tergrandest-24e65e":{"name":"TER Grand Est","locationSet":{"include":["fx","lu"]},"geometry":["point","vertex"],"matchScore":2,"terms":["ter grand est","ter lorraine"],"reference":{"key":"public_transport","value":"platform"},"tags":{"bus":"yes","network:wikidata":"Q37800073","public_transport":"platform"},"addTags":{"bus":"yes","highway":"bus_stop","network":"TER Grand Est","network:wikidata":"Q37800073","public_transport":"platform"}},"public_transport/platform/bus_point/vrt-9b1b41":{"name":"VRT (Verkehrsverbund Region Trier)","locationSet":{"include":["de","lu"]},"geometry":["point","vertex"],"matchScore":2,"terms":["vrt"],"reference":{"key":"public_transport","value":"platform"},"tags":{"bus":"yes","network:wikidata":"Q2516480","public_transport":"platform"},"addTags":{"bus":"yes","highway":"bus_stop","network":"VRT","network:wikidata":"Q2516480","public_transport":"platform"}},"railway/station/eurocity-170b77":{"name":"EuroCity","locationSet":{"include":["by","bg","cz","hu","pl","md","ro","ru","sk","ua","ax","gg","je","cq","dk","ee","fo","fi","is","ie","im","lv","lt","no","sj","se","gb","al","ad","ba","hr","gi","gr","va","it","mt","me","mk","pt","sm","rs","si","es","xk","at","be","fr","de","li","lu","mc","nl","ch"]},"geometry":["point","vertex","area"],"matchScore":2,"terms":["eurocity"],"tags":{"network:wikidata":"Q753050","railway":"station"},"addTags":{"network":"EuroCity","network:wikidata":"Q753050","public_transport":"station","railway":"station","train":"yes"}},"railway/station/euronight-170b77":{"name":"EuroNight","locationSet":{"include":["by","bg","cz","hu","pl","md","ro","ru","sk","ua","ax","gg","je","cq","dk","ee","fo","fi","is","ie","im","lv","lt","no","sj","se","gb","al","ad","ba","hr","gi","gr","va","it","mt","me","mk","pt","sm","rs","si","es","xk","at","be","fr","de","li","lu","mc","nl","ch"]},"geometry":["point","vertex","area"],"matchScore":2,"terms":["euronight"],"tags":{"network:wikidata":"Q257307","railway":"station"},"addTags":{"network":"EuroNight","network:wikidata":"Q257307","public_transport":"station","railway":"station","train":"yes"}},"railway/station/ic-6dd311":{"name":"IC","locationSet":{"include":["be","fx","lu"]},"geometry":["point","vertex","area"],"matchScore":2,"terms":["ic"],"tags":{"network:wikidata":"Q1665939","railway":"station"},"addTags":{"network":"IC","network:wikidata":"Q1665939","public_transport":"station","railway":"station","train":"yes"}},"railway/station/societenationaledescheminsdeferluxembourgeois-35355e":{"name":"Société Nationale des Chemins de Fer Luxembourgeois","locationSet":{"include":["be","de","fx","lu"]},"geometry":["point","vertex","area"],"matchScore":2,"terms":["cfl","chemins de fer luxembourgeois","luxemburgische eisenbahnen","nationale gesellschaft der luxemburgischen eisenbahnen","société nationale des chemins de fer luxembourgeois"],"tags":{"network:wikidata":"Q525359","railway":"station"},"addTags":{"network":"Société Nationale des Chemins de fer Luxembourgeois","network:short":"CFL","network:wikidata":"Q525359","public_transport":"station","railway":"station","train":"yes"}},"railway/station/tgv-842da4":{"name":"TGV","locationSet":{"include":["be","ch","de","es","fx","it","lu","nl"]},"geometry":["point","vertex","area"],"matchScore":2,"terms":["sncf","tgv"],"tags":{"network:wikidata":"Q129337","railway":"station"},"addTags":{"network":"TGV","network:wikidata":"Q129337","operator":"SNCF","operator:wikidata":"Q13646","public_transport":"station","railway":"station","train":"yes"}},"type/route/bus/avl-8ff6e7":{"name":"AVL","locationSet":{"include":["lu"]},"geometry":["relation"],"matchScore":2,"terms":["avl"],"reference":{"key":"route","value":"bus"},"tags":{"network:wikidata":"Q2872530","route":"bus","type":"route"},"addTags":{"network":"AVL","network:wikidata":"Q2872530","route":"bus","type":"route"}},"type/route/bus/flixbus-8cc9ca":{"name":"Flixbus","locationSet":{"include":["by","bg","cz","hu","pl","md","ro","ru","sk","ua","ax","gg","je","cq","dk","ee","fo","fi","is","ie","im","lv","lt","no","sj","se","gb","al","ad","ba","hr","gi","gr","va","it","mt","me","mk","pt","sm","rs","si","es","xk","at","be","fr","de","li","lu","mc","nl","ch","br","ca","us"]},"geometry":["relation"],"matchScore":2,"terms":["flixbus"],"reference":{"key":"route","value":"bus"},"tags":{"network:wikidata":"Q15712258","route":"bus","type":"route"},"addTags":{"network":"Flixbus","network:wikidata":"Q15712258","route":"bus","type":"route"}},"type/route/bus/nightbus-8ff6e7":{"name":"Nightbus (Luxembourg)","locationSet":{"include":["lu"]},"geometry":["relation"],"matchScore":2,"terms":["nightbus"],"reference":{"key":"route","value":"bus"},"tags":{"network:wikidata":"Q56306518","route":"bus","type":"route"},"addTags":{"network":"Nightbus","network:wikidata":"Q56306518","route":"bus","type":"route"}},"type/route/bus/rgtr-b6c2d4":{"name":"RGTR","locationSet":{"include":["be","de","fx","lu"]},"geometry":["relation"],"matchScore":2,"terms":["rgtr"],"reference":{"key":"route","value":"bus"},"tags":{"network:wikidata":"Q3274984","route":"bus","type":"route"},"addTags":{"network":"RGTR","network:wikidata":"Q3274984","route":"bus","type":"route"}},"type/route/bus/tecl-b6c2d4":{"name":"TECL (Liège-Verviers)","locationSet":{"include":["be","de","fx","lu"]},"geometry":["relation"],"matchScore":2,"terms":["tec","tecl"],"reference":{"key":"route","value":"bus"},"tags":{"network:wikidata":"Q3512078","route":"bus","type":"route"},"addTags":{"network":"TECL","network:wikidata":"Q3512078","operator":"TEC","operator:wikidata":"Q366922","route":"bus","type":"route"}},"type/route/bus/tergrandest-acc6fc":{"name":"TER Grand Est","locationSet":{"include":["fx","lu"]},"geometry":["relation"],"matchScore":2,"terms":["ter grand est","ter lorraine"],"reference":{"key":"route","value":"bus"},"tags":{"network:wikidata":"Q37800073","route":"bus","type":"route"},"addTags":{"network":"TER Grand Est","network:wikidata":"Q37800073","route":"bus","type":"route"}},"type/route/bus/vrt-5559db":{"name":"VRT (Verkehrsverbund Region Trier)","locationSet":{"include":["de","lu"]},"geometry":["relation"],"matchScore":2,"terms":["vrt"],"reference":{"key":"route","value":"bus"},"tags":{"network:wikidata":"Q2516480","route":"bus","type":"route"},"addTags":{"network":"VRT","network:wikidata":"Q2516480","route":"bus","type":"route"}},"type/route/train/eurocity-6b9d23":{"name":"EuroCity","locationSet":{"include":["by","bg","cz","hu","pl","md","ro","ru","sk","ua","ax","gg","je","cq","dk","ee","fo","fi","is","ie","im","lv","lt","no","sj","se","gb","al","ad","ba","hr","gi","gr","va","it","mt","me","mk","pt","sm","rs","si","es","xk","at","be","fr","de","li","lu","mc","nl","ch"]},"geometry":["relation"],"matchScore":2,"terms":["eurocity"],"reference":{"key":"route","value":"train"},"tags":{"network:wikidata":"Q753050","route":"train","type":"route"},"addTags":{"network":"EuroCity","network:wikidata":"Q753050","route":"train","type":"route"}},"type/route/train/euronight-6b9d23":{"name":"EuroNight","locationSet":{"include":["by","bg","cz","hu","pl","md","ro","ru","sk","ua","ax","gg","je","cq","dk","ee","fo","fi","is","ie","im","lv","lt","no","sj","se","gb","al","ad","ba","hr","gi","gr","va","it","mt","me","mk","pt","sm","rs","si","es","xk","at","be","fr","de","li","lu","mc","nl","ch"]},"geometry":["relation"],"matchScore":2,"terms":["euronight"],"reference":{"key":"route","value":"train"},"tags":{"network:wikidata":"Q257307","route":"train","type":"route"},"addTags":{"network":"EuroNight","network:wikidata":"Q257307","route":"train","type":"route"}},"type/route/train/ic-3b9490":{"name":"IC","locationSet":{"include":["be","fx","lu"]},"geometry":["relation"],"matchScore":2,"terms":["ic"],"reference":{"key":"route","value":"train"},"tags":{"network:wikidata":"Q1665939","route":"train","type":"route"},"addTags":{"network":"IC","network:wikidata":"Q1665939","route":"train","type":"route"}},"type/route/train/societenationaledescheminsdeferluxembourgeois-ee1779":{"name":"Société Nationale des Chemins de Fer Luxembourgeois","locationSet":{"include":["be","de","fx","lu"]},"geometry":["relation"],"matchScore":2,"terms":["cfl","chemins de fer luxembourgeois","luxemburgische eisenbahnen","nationale gesellschaft der luxemburgischen eisenbahnen","société nationale des chemins de fer luxembourgeois"],"reference":{"key":"route","value":"train"},"tags":{"network:wikidata":"Q525359","route":"train","type":"route"},"addTags":{"network":"Société Nationale des Chemins de fer Luxembourgeois","network:short":"CFL","network:wikidata":"Q525359","route":"train","type":"route"}},"type/route/train/tgv-7d2d57":{"name":"TGV","locationSet":{"include":["be","ch","de","es","fx","it","lu","nl"]},"geometry":["relation"],"matchScore":2,"terms":["sncf","tgv"],"reference":{"key":"route","value":"train"},"tags":{"network:wikidata":"Q129337","route":"train","type":"route"},"addTags":{"network":"TGV","network:wikidata":"Q129337","operator":"SNCF","operator:wikidata":"Q13646","route":"train","type":"route"}}}