{"advertising/totem/alvesbandeira-a8414b":{"name":"Alves Bandeira","locationSet":{"include":["pt"]},"geometry":["point","line"],"matchScore":2,"terms":["alves bandeira"],"tags":{"advertising":"totem","brand:wikidata":"Q109012157"},"addTags":{"advertising":"totem","brand":"Alves Bandeira","brand:wikidata":"Q109012157"}},"advertising/totem/as24-e95b1e":{"name":"AS 24","locationSet":{"include":["at","be","bg","cz","de","dk","es","fr","gb","ge","gr","hr","hu","ie","it","lt","lu","mk","nl","pl","pt","ro","rs","se","si","sk","ua"]},"geometry":["point","line"],"matchScore":2,"terms":["as 24"],"tags":{"advertising":"totem","brand:wikidata":"Q2819394"},"addTags":{"advertising":"totem","brand":"AS 24","brand:wikidata":"Q2819394","hgv":"only"}},"advertising/totem/auchan-9efa8b":{"name":"Auchan","locationSet":{"include":["al","ad","ba","hr","gi","gr","va","it","mt","me","mk","pt","sm","rs","si","es","xk","by","bg","cz","hu","pl","md","ro","ru","sk","ua","at","be","fr","de","li","lu","mc","nl","ch"]},"geometry":["point","line"],"matchScore":2,"terms":["auchan"],"tags":{"advertising":"totem","brand:wikidata":"Q758603"},"addTags":{"advertising":"totem","brand":"Auchan","brand:wikidata":"Q758603"}},"advertising/totem/avia-189542":{"name":"Avia","locationSet":{"include":["at","be","bg","ch","cz","de","es","fr","hu","it","nl","pl","pt","rs","ua"]},"geometry":["point","line"],"matchScore":2,"terms":["avia","station avia"],"tags":{"advertising":"totem","brand:wikidata":"Q300147"},"addTags":{"advertising":"totem","brand":"Avia","brand:wikidata":"Q300147"}},"advertising/totem/cepsa-9b7c40":{"name":"Cepsa","locationSet":{"include":["es","pt"]},"geometry":["point","line"],"matchScore":2,"terms":["cepsa","compañía española de petróleos, s.a.u."],"tags":{"advertising":"totem","brand:wikidata":"Q608819"},"addTags":{"advertising":"totem","brand":"Cepsa","brand:wikidata":"Q608819","official_name":"Compañía Española de Petróleos, S.A.U."}},"advertising/totem/galp-9b7c40":{"name":"Galp","locationSet":{"include":["es","pt"]},"geometry":["point","line"],"matchScore":2,"terms":["galp"],"tags":{"advertising":"totem","brand:wikidata":"Q1492739"},"addTags":{"advertising":"totem","brand":"Galp","brand:wikidata":"Q1492739"}},"advertising/totem/prio-a8414b":{"name":"Prio","locationSet":{"include":["pt"]},"geometry":["point","line"],"matchScore":2,"terms":["prio"],"tags":{"advertising":"totem","brand:wikidata":"Q62530421"},"addTags":{"advertising":"totem","brand":"Prio","brand:wikidata":"Q62530421"}},"advertising/totem/q8-aa562b":{"name":"Q8","locationSet":{"include":["be","dk","es","it","lu","nl","pt"]},"geometry":["point","line"],"matchScore":2,"terms":["q8","q8italia"],"tags":{"advertising":"totem","brand:wikidata":"Q1634762"},"addTags":{"advertising":"totem","brand":"Q8","brand:wikidata":"Q1634762"}},"amenity/atm/abanca-3f27ef":{"name":"Abanca","locationSet":{"include":["es","pt"]},"geometry":["point","vertex"],"matchScore":2,"terms":["abanca","abanca corporación bancaria"],"fields":["name","brand","{amenity/atm}"],"tags":{"amenity":"atm","brand:wikidata":"Q9598744"},"addTags":{"amenity":"atm","brand":"Abanca","brand:wikidata":"Q9598744","official_name":"ABANCA Corporación Bancaria","operator":"Abanca","operator:wikidata":"Q9598744"}},"amenity/atm/activobank-9411e1":{"name":"ActivoBank","locationSet":{"include":["pt"]},"geometry":["point","vertex"],"matchScore":2,"terms":["activobank"],"fields":["name","brand","{amenity/atm}"],"tags":{"amenity":"atm","brand:wikidata":"Q9581725"},"addTags":{"amenity":"atm","brand":"ActivoBank","brand:wikidata":"Q9581725","operator":"ActivoBank","operator:wikidata":"Q9581725"}},"amenity/atm/bancobpi-9411e1":{"name":"Banco BPI (Portugal)","locationSet":{"include":["pt"]},"geometry":["point","vertex"],"matchScore":2,"terms":["banco bpi","banco português de investimento","bpi"],"fields":["name","brand","{amenity/atm}"],"tags":{"amenity":"atm","brand:wikidata":"Q537886"},"addTags":{"amenity":"atm","brand":"Banco BPI","brand:wikidata":"Q537886","official_name":"Banco Português de Investimento","operator":"Banco BPI","operator:wikidata":"Q537886","short_name":"BPI"}},"amenity/atm/bancoctt-9411e1":{"name":"Banco CTT","locationSet":{"include":["pt"]},"geometry":["point","vertex"],"matchScore":2,"terms":["banco ctt"],"fields":["name","brand","{amenity/atm}"],"tags":{"amenity":"atm","brand:wikidata":"Q65161642"},"addTags":{"amenity":"atm","brand":"Banco CTT","brand:wikidata":"Q65161642","operator":"Banco CTT","operator:wikidata":"Q65161642"}},"amenity/atm/bankinter-3f27ef":{"name":"Bankinter","locationSet":{"include":["es","pt"]},"geometry":["point","vertex"],"matchScore":2,"terms":["bankinter"],"fields":["name","brand","{amenity/atm}"],"tags":{"amenity":"atm","brand:wikidata":"Q806808"},"addTags":{"amenity":"atm","brand":"Bankinter","brand:wikidata":"Q806808","operator":"Bankinter","operator:wikidata":"Q806808"}},"amenity/atm/bnpparibas-4ed91f":{"name":"BNP Paribas","locationSet":{"include":["ae","af","ar","at","bf","bg","bh","br","ca","ch","ci","cl","co","cz","de","dk","dz","es","fi","fr","gb","gf","gp","hu","ie","il","it","kw","ma","ml","mq","mx","nl","no","pe","pt","qa","re","ro","ru","sa","se","sk","sn","tn","tr","us"]},"geometry":["point","vertex"],"matchScore":2,"terms":["bnp paribas"],"fields":["name","brand","{amenity/atm}"],"tags":{"amenity":"atm","brand:wikidata":"Q499707"},"addTags":{"amenity":"atm","brand":"BNP Paribas","brand:wikidata":"Q499707","operator":"BNP Paribas","operator:wikidata":"Q499707"}},"amenity/atm/caixageraldedepositos-49554e":{"name":"Caixa Geral de Depósitos","locationSet":{"include":["es","fr","pt"]},"geometry":["point","vertex"],"matchScore":2,"terms":["caixa geral de depósitos","cgd"],"fields":["name","brand","{amenity/atm}"],"tags":{"amenity":"atm","brand:wikidata":"Q1026044"},"addTags":{"amenity":"atm","brand":"Caixa Geral de Depósitos","brand:wikidata":"Q1026044","operator":"Caixa Geral de Depósitos","operator:wikidata":"Q1026044","short_name":"CGD"}},"amenity/atm/creditoagricola-9411e1":{"name":"Crédito Agrícola","locationSet":{"include":["pt"]},"geometry":["point","vertex"],"matchScore":2,"terms":["crédito agrícola"],"fields":["name","brand","{amenity/atm}"],"tags":{"amenity":"atm","brand:wikidata":"Q10262017"},"addTags":{"amenity":"atm","brand":"Crédito Agrícola","brand:wikidata":"Q10262017","operator":"Crédito Agrícola","operator:wikidata":"Q10262017"}},"amenity/atm/eurobic-9411e1":{"name":"EuroBic","locationSet":{"include":["pt"]},"geometry":["point","vertex"],"matchScore":2,"terms":["banco bic","banco bic português","eurobic"],"fields":["name","brand","{amenity/atm}"],"tags":{"amenity":"atm","brand:wikidata":"Q806175"},"addTags":{"amenity":"atm","brand":"EuroBic","brand:wikidata":"Q806175","official_name":"Banco BIC Português","operator":"EuroBic","operator:wikidata":"Q806175"}},"amenity/atm/millenniumbcp-9411e1":{"name":"Millennium bcp","locationSet":{"include":["pt"]},"geometry":["point","vertex"],"matchScore":2,"terms":["banco comercial português","millennium bcp"],"fields":["name","brand","{amenity/atm}"],"tags":{"amenity":"atm","brand:wikidata":"Q118581"},"addTags":{"amenity":"atm","brand":"Millennium bcp","brand:wikidata":"Q118581","official_name":"Banco Comercial Português","operator":"Millennium bcp","operator:wikidata":"Q118581"}},"amenity/atm/montepio-9411e1":{"name":"Montepio","locationSet":{"include":["pt"]},"geometry":["point","vertex"],"matchScore":2,"terms":["montepio"],"fields":["name","brand","{amenity/atm}"],"tags":{"amenity":"atm","brand:wikidata":"Q1946091"},"addTags":{"amenity":"atm","brand":"Montepio","brand:wikidata":"Q1946091","operator":"Montepio","operator:wikidata":"Q1946091"}},"amenity/atm/novobanco-3f27ef":{"name":"Novo Banco","locationSet":{"include":["es","pt"]},"geometry":["point","vertex"],"matchScore":2,"terms":["novo banco"],"fields":["name","brand","{amenity/atm}"],"tags":{"amenity":"atm","brand:wikidata":"Q17488861"},"addTags":{"amenity":"atm","brand":"Novo Banco","brand:wikidata":"Q17488861","operator":"Novo Banco","operator:wikidata":"Q17488861"}},"amenity/atm/santandertotta-9411e1":{"name":"Santander Totta","locationSet":{"include":["pt"]},"geometry":["point","vertex"],"matchScore":2,"terms":["santander totta"],"fields":["name","brand","{amenity/atm}"],"tags":{"amenity":"atm","brand:wikidata":"Q4854116"},"addTags":{"amenity":"atm","brand":"Santander Totta","brand:wikidata":"Q4854116","operator":"Santander Totta","operator:wikidata":"Q4854116"}},"amenity/bank/abanca-151324":{"name":"Abanca","locationSet":{"include":["es","pt"]},"geometry":["point","area"],"matchScore":2,"terms":["abanca","abanca corporación bancaria"],"tags":{"amenity":"bank","brand:wikidata":"Q9598744"},"addTags":{"amenity":"bank","brand":"Abanca","brand:wikidata":"Q9598744","name":"Abanca","official_name":"ABANCA Corporación Bancaria"}},"amenity/bank/activobank-4028ed":{"name":"ActivoBank","locationSet":{"include":["pt"]},"geometry":["point","area"],"matchScore":2,"terms":["activobank"],"tags":{"amenity":"bank","brand:wikidata":"Q9581725"},"addTags":{"amenity":"bank","brand":"ActivoBank","brand:wikidata":"Q9581725","name":"ActivoBank"}},"amenity/bank/bancobpi-4028ed":{"name":"Banco BPI (Portugal)","locationSet":{"include":["pt"]},"geometry":["point","area"],"matchScore":2,"terms":["banco bpi","banco português de investimento","bpi"],"tags":{"amenity":"bank","brand:wikidata":"Q537886"},"addTags":{"amenity":"bank","brand":"Banco BPI","brand:wikidata":"Q537886","name":"Banco BPI","official_name":"Banco Português de Investimento","short_name":"BPI"}},"amenity/bank/bancoctt-4028ed":{"name":"Banco CTT","locationSet":{"include":["pt"]},"geometry":["point","area"],"matchScore":2,"terms":["banco ctt"],"tags":{"amenity":"bank","brand:wikidata":"Q65161642"},"addTags":{"amenity":"bank","brand":"Banco CTT","brand:wikidata":"Q65161642","name":"Banco CTT"}},"amenity/bank/bankinter-151324":{"name":"Bankinter","locationSet":{"include":["es","pt"]},"geometry":["point","area"],"matchScore":2,"terms":["bankinter"],"tags":{"amenity":"bank","brand:wikidata":"Q806808"},"addTags":{"amenity":"bank","brand":"Bankinter","brand:wikidata":"Q806808","name":"Bankinter"}},"amenity/bank/bnpparibas-f7d855":{"name":"BNP Paribas","locationSet":{"include":["ae","af","ar","at","bf","bg","bh","br","ca","ch","ci","cl","co","cz","de","dk","dz","es","fi","fr","gb","gf","gp","hu","ie","il","it","kw","ma","ml","mq","mx","nl","no","pe","pt","qa","re","ro","ru","sa","se","sk","sn","tn","tr","us"]},"geometry":["point","area"],"matchScore":2,"terms":["bnp paribas"],"tags":{"amenity":"bank","brand:wikidata":"Q499707"},"addTags":{"amenity":"bank","brand":"BNP Paribas","brand:wikidata":"Q499707","name":"BNP Paribas"}},"amenity/bank/caixageraldedepositos-74f292":{"name":"Caixa Geral de Depósitos","locationSet":{"include":["es","fr","pt"]},"geometry":["point","area"],"matchScore":2,"terms":["caixa geral de depósitos","cgd"],"tags":{"amenity":"bank","brand:wikidata":"Q1026044"},"addTags":{"amenity":"bank","brand":"Caixa Geral de Depósitos","brand:wikidata":"Q1026044","name":"Caixa Geral de Depósitos","short_name":"CGD"}},"amenity/bank/creditoagricola-4028ed":{"name":"Crédito Agrícola","locationSet":{"include":["pt"]},"geometry":["point","area"],"matchScore":2,"terms":["crédito agrícola"],"tags":{"amenity":"bank","brand:wikidata":"Q10262017"},"addTags":{"amenity":"bank","brand":"Crédito Agrícola","brand:wikidata":"Q10262017","name":"Crédito Agrícola"}},"amenity/bank/eurobic-4028ed":{"name":"EuroBic","locationSet":{"include":["pt"]},"geometry":["point","area"],"matchScore":2,"terms":["banco bic","banco bic português","eurobic"],"tags":{"amenity":"bank","brand:wikidata":"Q806175"},"addTags":{"amenity":"bank","brand":"EuroBic","brand:wikidata":"Q806175","name":"EuroBic","official_name":"Banco BIC Português"}},"amenity/bank/millenniumbcp-4028ed":{"name":"Millennium bcp","locationSet":{"include":["pt"]},"geometry":["point","area"],"matchScore":2,"terms":["banco comercial português","millennium bcp"],"tags":{"amenity":"bank","brand:wikidata":"Q118581"},"addTags":{"amenity":"bank","brand":"Millennium bcp","brand:wikidata":"Q118581","name":"Millennium bcp","official_name":"Banco Comercial Português"}},"amenity/bank/montepio-4028ed":{"name":"Montepio","locationSet":{"include":["pt"]},"geometry":["point","area"],"matchScore":2,"terms":["montepio"],"tags":{"amenity":"bank","brand:wikidata":"Q1946091"},"addTags":{"amenity":"bank","brand":"Montepio","brand:wikidata":"Q1946091","name":"Montepio"}},"amenity/bank/novobanco-151324":{"name":"Novo Banco","locationSet":{"include":["es","pt"]},"geometry":["point","area"],"matchScore":2,"terms":["novo banco"],"tags":{"amenity":"bank","brand:wikidata":"Q17488861"},"addTags":{"amenity":"bank","brand":"Novo Banco","brand:wikidata":"Q17488861","name":"Novo Banco"}},"amenity/bank/santandertotta-4028ed":{"name":"Santander Totta","locationSet":{"include":["pt"]},"geometry":["point","area"],"matchScore":2,"terms":["santander totta"],"tags":{"amenity":"bank","brand:wikidata":"Q4854116"},"addTags":{"amenity":"bank","brand":"Santander Totta","brand:wikidata":"Q4854116","name":"Santander Totta"}},"amenity/bicycle_rental/donkeyrepublic-c32b83":{"name":"Donkey Republic","locationSet":{"include":["by","bg","cz","hu","pl","md","ro","ru","sk","ua","ax","gg","je","cq","dk","ee","fo","fi","is","ie","im","lv","lt","no","sj","se","gb","al","ad","ba","hr","gi","gr","va","it","mt","me","mk","pt","sm","rs","si","es","xk","at","be","fr","de","li","lu","mc","nl","ch"]},"geometry":["point","vertex","area"],"matchScore":2,"terms":["donkey republic"],"fields":["name","brand","{amenity/bicycle_rental}"],"tags":{"amenity":"bicycle_rental","brand:wikidata":"Q63753939"},"addTags":{"amenity":"bicycle_rental","brand":"Donkey Republic","brand:wikidata":"Q63753939","name":"Donkey Republic","operator":"Donkey Republic"}},"amenity/bicycle_rental/gira-b62040":{"name":"Gira","locationSet":{"include":["pt"]},"geometry":["point","vertex","area"],"matchScore":2,"terms":["emel","gira"],"fields":["name","brand","{amenity/bicycle_rental}"],"tags":{"amenity":"bicycle_rental","brand:wikidata":"Q65049332"},"addTags":{"amenity":"bicycle_rental","brand":"Gira","brand:wikidata":"Q65049332","operator":"EMEL"}},"amenity/cafe/coffee_shop/thecoffee-f04833":{"name":"The Coffee","locationSet":{"include":["br","co","es","fr","pe","pt"]},"geometry":["point","area"],"matchScore":2,"terms":["the coffee"],"reference":{"key":"cuisine","value":"coffee_shop"},"tags":{"amenity":"cafe","brand:wikidata":"Q112042753","cuisine":"coffee_shop"},"addTags":{"amenity":"cafe","brand":"The Coffee","brand:wikidata":"Q112042753","cuisine":"coffee_shop","name":"The Coffee","takeaway":"yes"}},"amenity/car_wash/elefanteazul-99bbad":{"name":"Elefante Azul","locationSet":{"include":["es","pt"]},"geometry":["point","area"],"matchScore":2,"terms":["elefante azul"],"tags":{"amenity":"car_wash","brand:wikidata":"Q114185701"},"addTags":{"amenity":"car_wash","brand":"Elefante Azul","brand:wikidata":"Q114185701","name":"Elefante Azul"}},"amenity/charging_station/ionity-b625d6":{"name":"Ionity","locationSet":{"include":["by","bg","cz","hu","pl","md","ro","ru","sk","ua","ax","gg","je","cq","dk","ee","fo","fi","is","ie","im","lv","lt","no","sj","se","gb","al","ad","ba","hr","gi","gr","va","it","mt","me","mk","pt","sm","rs","si","es","xk","at","be","fr","de","li","lu","mc","nl","ch"]},"geometry":["point","vertex","area"],"matchScore":2,"terms":["ionity","ionity gmbh"],"fields":["name","brand","{amenity/charging_station}"],"tags":{"amenity":"charging_station","brand:wikidata":"Q42717773"},"addTags":{"amenity":"charging_station","brand":"Ionity","brand:wikidata":"Q42717773"}},"amenity/cinema/cinemanos-97a9e2":{"name":"Cinema NOS","locationSet":{"include":["pt"]},"geometry":["point","area"],"matchScore":2,"terms":["cinemas nos"],"fields":["name","brand","{amenity/cinema}"],"tags":{"amenity":"cinema","brand:wikidata":"Q8063259"},"addTags":{"amenity":"cinema","brand":"Cinemas NOS","brand:wikidata":"Q8063259","name":"Cinema NOS"}},"amenity/cinema/uci-9c82de":{"name":"UCI","locationSet":{"include":["br","it","pt"]},"geometry":["point","area"],"matchScore":2,"terms":["uci"],"fields":["name","brand","{amenity/cinema}"],"tags":{"amenity":"cinema","brand:wikidata":"Q521922"},"addTags":{"amenity":"cinema","brand":"UCI","brand:wikidata":"Q521922","name":"UCI"}},"amenity/fast_food/acaiconcept-989340":{"name":"Açaí Concept","locationSet":{"include":["ar","br","ca","ch","cl","ec","fr","pt","us"]},"geometry":["point","area"],"matchScore":2,"terms":["açaí concept"],"tags":{"amenity":"fast_food","brand:wikidata":"Q110138105"},"addTags":{"amenity":"fast_food","brand":"Açaí Concept","brand:wikidata":"Q110138105","cuisine":"açaí","name":"Açaí Concept","takeaway":"yes"}},"amenity/fast_food/burger/bobs-02d9fb":{"name":"Bob's","locationSet":{"include":["ao","br","cl","pt"]},"geometry":["point","area"],"matchScore":2,"terms":["bob's","bob's brasil"],"reference":{"key":"cuisine","value":"burger"},"tags":{"amenity":"fast_food","brand:wikidata":"Q1392113","cuisine":"burger"},"addTags":{"amenity":"fast_food","brand":"Bob's","brand:wikidata":"Q1392113","cuisine":"burger","name":"Bob's","takeaway":"yes"}},"amenity/fast_food/pizza/lekiosqueapizzas-1781f3":{"name":"Le Kiosque à Pizzas","locationSet":{"include":["es","fr","pt"]},"geometry":["point","area"],"matchScore":2,"terms":["le kiosque à pizzas"],"reference":{"key":"cuisine","value":"pizza"},"tags":{"amenity":"fast_food","brand:wikidata":"Q3223839","cuisine":"pizza"},"addTags":{"amenity":"fast_food","brand":"Le Kiosque à Pizzas","brand:wikidata":"Q3223839","cuisine":"pizza","name":"Le Kiosque à Pizzas","takeaway":"yes"}},"amenity/fast_food/malvon-d3d66f":{"name":"Malvón","locationSet":{"include":["es","fr","it","pt"]},"geometry":["point","area"],"matchScore":2,"terms":["empanadas argentinas malvón","malvón"],"tags":{"amenity":"fast_food","brand:wikidata":"Q109877196"},"addTags":{"alt_name":"Empanadas Argentinas Malvón","amenity":"fast_food","brand":"Malvón","brand:wikidata":"Q109877196","cuisine":"empanada","name":"Malvón","takeaway":"yes"}},"amenity/fast_food/oakberryacaibowls-df46eb":{"name":"Oakberry Açaí bowls","locationSet":{"include":["ae","au","bh","br","ch","cl","co","de","es","gr","hr","il","mt","mx","pe","pt","py","sa","th","us"]},"geometry":["point","area"],"matchScore":2,"terms":["oakberry açaí bowls"],"tags":{"amenity":"fast_food","brand:wikidata":"Q104870840"},"addTags":{"amenity":"fast_food","brand":"Oakberry Açaí bowls","brand:wikidata":"Q104870840","cuisine":"açaí","name":"Oakberry Açaí bowls","takeaway":"yes"}},"amenity/fast_food/sandwich/pansandcompany-b2cd69":{"name":"Pans & Company","locationSet":{"include":["es","it","pt"]},"geometry":["point","area"],"matchScore":2,"terms":["pans & company"],"reference":{"key":"cuisine","value":"sandwich"},"tags":{"amenity":"fast_food","brand:wikidata":"Q11697586","cuisine":"sandwich"},"addTags":{"amenity":"fast_food","brand":"Pans & Company","brand:wikidata":"Q11697586","cuisine":"sandwich","name":"Pans & Company","takeaway":"yes"}},"amenity/fast_food/sandwich/pretamanger-4f61b1":{"name":"Pret A Manger","locationSet":{"include":["ae","cn","de","dk","es","fr","gb","hk","ie","in","nl","pt","sg","us"]},"geometry":["point","area"],"matchScore":2,"terms":["pret","pret a manger"],"reference":{"key":"cuisine","value":"sandwich"},"tags":{"amenity":"fast_food","brand:wikidata":"Q2109109","cuisine":"sandwich"},"addTags":{"amenity":"fast_food","brand":"Pret A Manger","brand:wikidata":"Q2109109","cuisine":"sandwich","name":"Pret A Manger","short_name":"Pret","takeaway":"yes"}},"amenity/fast_food/sushishop-ac545e":{"name":"Sushi Shop (Europe)","locationSet":{"include":["ae","be","ch","de","es","fr","gb","it","lu","pt","sa"]},"geometry":["point","area"],"matchScore":2,"terms":["sushi shop"],"tags":{"amenity":"fast_food","brand:wikidata":"Q3505657"},"addTags":{"amenity":"fast_food","brand":"Sushi Shop","brand:wikidata":"Q3505657","cuisine":"sushi","name":"Sushi Shop","takeaway":"yes"}},"amenity/fast_food/woktowalk-f5ada9":{"name":"Wok to Walk","locationSet":{"include":["ae","bg","co","cy","ec","ee","es","fx","gb","il","in","it","lt","lv","ma","mt","mx","nl","om","pa","pt","qa","sa","us"]},"geometry":["point","area"],"matchScore":2,"terms":["wok to walk"],"tags":{"amenity":"fast_food","brand:wikidata":"Q4020634"},"addTags":{"amenity":"fast_food","brand":"Wok to Walk","brand:wikidata":"Q4020634","cuisine":"asian","name":"Wok to Walk","takeaway":"yes"}},"amenity/fuel/alvesbandeira-bb4e16":{"name":"Alves Bandeira","locationSet":{"include":["pt"]},"geometry":["point","area"],"matchScore":2,"terms":["alves bandeira"],"fields":["name","brand","{amenity/fuel}"],"tags":{"amenity":"fuel","brand:wikidata":"Q109012157"},"addTags":{"amenity":"fuel","brand":"Alves Bandeira","brand:wikidata":"Q109012157","name":"Alves Bandeira"}},"amenity/fuel/as24-3463db":{"name":"AS 24","locationSet":{"include":["at","be","bg","cz","de","dk","es","fr","gb","ge","gr","hr","hu","ie","it","lt","lu","mk","nl","pl","pt","ro","rs","se","si","sk","ua"]},"geometry":["point","area"],"matchScore":2,"terms":["as 24"],"fields":["name","brand","{amenity/fuel}"],"tags":{"amenity":"fuel","brand:wikidata":"Q2819394"},"addTags":{"amenity":"fuel","brand":"AS 24","brand:wikidata":"Q2819394","hgv":"only","name":"AS 24"}},"amenity/fuel/auchan-fcb99f":{"name":"Auchan","locationSet":{"include":["al","ad","ba","hr","gi","gr","va","it","mt","me","mk","pt","sm","rs","si","es","xk","by","bg","cz","hu","pl","md","ro","ru","sk","ua","at","be","fr","de","li","lu","mc","nl","ch"]},"geometry":["point","area"],"matchScore":2,"terms":["auchan"],"fields":["name","brand","{amenity/fuel}"],"tags":{"amenity":"fuel","brand:wikidata":"Q758603"},"addTags":{"amenity":"fuel","brand":"Auchan","brand:wikidata":"Q758603","name":"Auchan"}},"amenity/fuel/avia-e0aaf8":{"name":"Avia","locationSet":{"include":["at","be","bg","ch","cz","de","es","fr","hu","it","nl","pl","pt","rs","ua"]},"geometry":["point","area"],"matchScore":2,"terms":["avia","station avia"],"fields":["name","brand","{amenity/fuel}"],"tags":{"amenity":"fuel","brand:wikidata":"Q300147"},"addTags":{"amenity":"fuel","brand":"Avia","brand:wikidata":"Q300147","name":"Avia"}},"amenity/fuel/cepsa-57abaf":{"name":"Cepsa","locationSet":{"include":["es","pt"]},"geometry":["point","area"],"matchScore":2,"terms":["cepsa","compañía española de petróleos, s.a.u."],"fields":["name","brand","{amenity/fuel}"],"tags":{"amenity":"fuel","brand:wikidata":"Q608819"},"addTags":{"amenity":"fuel","brand":"Cepsa","brand:wikidata":"Q608819","name":"Cepsa","official_name":"Compañía Española de Petróleos, S.A.U."}},"amenity/fuel/galp-57abaf":{"name":"Galp","locationSet":{"include":["es","pt"]},"geometry":["point","area"],"matchScore":2,"terms":["galp"],"fields":["name","brand","{amenity/fuel}"],"tags":{"amenity":"fuel","brand:wikidata":"Q1492739"},"addTags":{"amenity":"fuel","brand":"Galp","brand:wikidata":"Q1492739"}},"amenity/fuel/prio-bb4e16":{"name":"Prio","locationSet":{"include":["pt"]},"geometry":["point","area"],"matchScore":2,"terms":["prio"],"fields":["name","brand","{amenity/fuel}"],"tags":{"amenity":"fuel","brand:wikidata":"Q62530421"},"addTags":{"amenity":"fuel","brand":"Prio","brand:wikidata":"Q62530421","name":"Prio"}},"amenity/fuel/q8-7bb553":{"name":"Q8","locationSet":{"include":["be","dk","es","it","lu","nl","pt"]},"geometry":["point","area"],"matchScore":2,"terms":["q8","q8italia"],"fields":["name","brand","{amenity/fuel}"],"tags":{"amenity":"fuel","brand:wikidata":"Q1634762"},"addTags":{"amenity":"fuel","brand":"Q8","brand:wikidata":"Q1634762","name":"Q8"}},"amenity/ice_cream/amorino-6cf168":{"name":"Amorino","locationSet":{"include":["ae","ch","cz","de","es","fr","gb","gr","ie","it","lu","ma","mt","mx","nc","pt","qa","re","us"]},"geometry":["point","area"],"matchScore":2,"terms":["amorino"],"tags":{"amenity":"ice_cream","brand:wikidata":"Q2843884"},"addTags":{"amenity":"ice_cream","brand":"Amorino","brand:wikidata":"Q2843884","name":"Amorino"}},"amenity/ice_cream/grom-48073a":{"name":"Grom","locationSet":{"include":["cn","cz","fr","gb","id","it","pt"]},"geometry":["point","area"],"matchScore":2,"terms":["grom","grom gelaterie artigianali","grom gelato"],"tags":{"amenity":"ice_cream","brand:wikidata":"Q3776892"},"addTags":{"amenity":"ice_cream","brand":"Grom","brand:wikidata":"Q3776892","cuisine":"ice_cream","name":"Grom","takeaway":"yes"}},"amenity/ice_cream/frozen_yogurt/llaollao-dd9462":{"name":"Llaollao","locationSet":{"include":["au","ch","cl","co","ec","es","fr","gt","hr","id","iq","kw","ma","my","ph","pt","sa","sg","si","sv","us","vn"]},"geometry":["point","area"],"matchScore":2,"terms":["llaollao"],"reference":{"key":"cuisine","value":"frozen_yogurt"},"tags":{"amenity":"ice_cream","brand:wikidata":"Q12163048","cuisine":"frozen_yogurt"},"addTags":{"amenity":"ice_cream","brand":"Llaollao","brand:wikidata":"Q12163048","cuisine":"frozen_yogurt","name":"Llaollao"}},"amenity/ice_cream/smooy-bac155":{"name":"smöoy","locationSet":{"include":["ao","ci","cn","dz","ec","es","fr","gb","gn","it","ma","pa","pe","pt","re","sa"]},"geometry":["point","area"],"matchScore":2,"terms":["smöoy","softy cream"],"tags":{"amenity":"ice_cream","brand:wikidata":"Q21573945"},"addTags":{"amenity":"ice_cream","brand":"smöoy","brand:wikidata":"Q21573945","name":"smöoy","official_name":"Softy Cream"}},"amenity/parcel_locker/inpost-6b37ec":{"name":"InPost","locationSet":{"include":["be","es","fr","gb","it","lu","nl","pt"]},"geometry":["point","vertex","area"],"matchScore":2,"terms":["inpost"],"fields":["name","brand","{amenity/parcel_locker}"],"reference":{"key":"amenity","value":"parcel_locker"},"tags":{"amenity":"parcel_locker","brand:wikidata":"Q3182097"},"addTags":{"amenity":"parcel_locker","brand":"InPost","brand:wikidata":"Q3182097","parcel_mail_in":"yes","parcel_pickup":"yes"}},"amenity/parcel_locker/zbox-5a86e9":{"name":"Packeta","locationSet":{"include":["by","bg","cz","hu","pl","md","ro","ru","sk","ua","ax","gg","je","cq","dk","ee","fo","fi","is","ie","im","lv","lt","no","sj","se","gb","al","ad","ba","hr","gi","gr","va","it","mt","me","mk","pt","sm","rs","si","es","xk","at","be","fr","de","li","lu","mc","nl","ch"]},"geometry":["point","vertex","area"],"matchScore":2,"terms":["packeta"],"fields":["name","brand","{amenity/parcel_locker}"],"reference":{"key":"amenity","value":"parcel_locker"},"tags":{"amenity":"parcel_locker","brand:wikidata":"Q67809905"},"addTags":{"amenity":"parcel_locker","brand":"Packeta","brand:wikidata":"Q67809905","name":"Z-Box"}},"amenity/restaurant/100montaditos-f7c5fe":{"name":"100 Montaditos","locationSet":{"include":["es","it","pt","us"]},"geometry":["point","area"],"matchScore":2,"terms":["100 montaditos"],"tags":{"amenity":"restaurant","brand:wikidata":"Q8355805"},"addTags":{"amenity":"restaurant","brand":"100 Montaditos","brand:wikidata":"Q8355805","cuisine":"sandwich","name":"100 Montaditos"}},"amenity/restaurant/ramen/afuri-9b358b":{"name":"AFURI","locationSet":{"include":["ca","hk","jp","pt","sg","us"]},"geometry":["point","area"],"matchScore":2,"terms":["afuri"],"fields":["name","brand","{amenity/restaurant/ramen}"],"reference":{"key":"cuisine","value":"ramen"},"tags":{"amenity":"restaurant","brand:wikidata":"Q109237427","cuisine":"ramen"},"addTags":{"amenity":"restaurant","brand":"AFURI","brand:wikidata":"Q109237427","cuisine":"ramen","name":"AFURI"}},"amenity/restaurant/steakhouse/blockhouse-12455c":{"name":"BLOCK HOUSE","locationSet":{"include":["at","de","es","pt"]},"geometry":["point","area"],"matchScore":2,"terms":["block house"],"reference":{"key":"cuisine","value":"steak_house"},"tags":{"amenity":"restaurant","brand:wikidata":"Q320430","cuisine":"steak_house"},"addTags":{"amenity":"restaurant","brand":"BLOCK HOUSE","brand:wikidata":"Q320430","cuisine":"steak_house","name":"BLOCK HOUSE"}},"amenity/restaurant/honestgreens-1d6b00":{"name":"Honest Greens","locationSet":{"include":["es","pt"]},"geometry":["point","area"],"matchScore":2,"terms":["honest greens"],"tags":{"amenity":"restaurant","brand:wikidata":"Q116859710"},"addTags":{"amenity":"restaurant","brand":"Honest Greens","brand:wikidata":"Q116859710","name":"Honest Greens"}},"amenity/restaurant/italian/latagliatella-1d6b00":{"name":"La Tagliatella","locationSet":{"include":["es","pt"]},"geometry":["point","area"],"matchScore":2,"terms":["la tagliatella"],"reference":{"key":"cuisine","value":"italian"},"tags":{"amenity":"restaurant","brand:wikidata":"Q113426257","cuisine":"italian"},"addTags":{"amenity":"restaurant","brand":"La Tagliatella","brand:wikidata":"Q113426257","cuisine":"italian","name":"La Tagliatella"}},"amenity/restaurant/pokawa-cd2a5c":{"name":"Pokawa","locationSet":{"include":["be","ch","es","fr","lu","pt"]},"geometry":["point","area"],"matchScore":2,"terms":["pokawa"],"tags":{"amenity":"restaurant","brand:wikidata":"Q123018553"},"addTags":{"amenity":"restaurant","brand":"Pokawa","brand:wikidata":"Q123018553","cuisine":"poke","name":"Pokawa"}},"amenity/social_centre/ahepahall-30ca27":{"name":"AHEPA Hall","locationSet":{"include":["by","bg","cz","hu","pl","md","ro","ru","sk","ua","ax","gg","je","cq","dk","ee","fo","fi","is","ie","im","lv","lt","no","sj","se","gb","al","ad","ba","hr","gi","gr","va","it","mt","me","mk","pt","sm","rs","si","es","xk","at","be","fr","de","li","lu","mc","nl","ch","au","ca","cy","us"],"exclude":["ru"]},"geometry":["point","area"],"matchScore":2,"terms":["ahepa","american hellenic educational progressive association","the order of ahepa"],"fields":["name","brand","{amenity/social_centre}"],"tags":{"amenity":"social_centre","brand:wikidata":"Q4743973"},"addTags":{"amenity":"social_centre","brand":"AHEPA","brand:wikidata":"Q4743973","name":"AHEPA Hall"}},"amenity/vending_machine/bicycle_tube/continental-123edb":{"name":"Continental","locationSet":{"include":["by","bg","cz","hu","pl","md","ro","ru","sk","ua","ax","gg","je","cq","dk","ee","fo","fi","is","ie","im","lv","lt","no","sj","se","gb","al","ad","ba","hr","gi","gr","va","it","mt","me","mk","pt","sm","rs","si","es","xk","at","be","fr","de","li","lu","mc","nl","ch"]},"geometry":["point","vertex"],"matchScore":2,"terms":["continental"],"reference":{"key":"vending","value":"bicycle_tube"},"tags":{"amenity":"vending_machine","brand:wikidata":"Q64739247","vending":"bicycle_tube"},"addTags":{"amenity":"vending_machine","brand":"Continental","brand:wikidata":"Q64739247","vending":"bicycle_tube"}},"amenity/vending_machine/bicycle_tube/schwalbe-123edb":{"name":"Schwalbe","locationSet":{"include":["by","bg","cz","hu","pl","md","ro","ru","sk","ua","ax","gg","je","cq","dk","ee","fo","fi","is","ie","im","lv","lt","no","sj","se","gb","al","ad","ba","hr","gi","gr","va","it","mt","me","mk","pt","sm","rs","si","es","xk","at","be","fr","de","li","lu","mc","nl","ch"]},"geometry":["point","vertex"],"matchScore":2,"terms":["schwalbe"],"reference":{"key":"vending","value":"bicycle_tube"},"tags":{"amenity":"vending_machine","brand:wikidata":"Q1312213","vending":"bicycle_tube"},"addTags":{"amenity":"vending_machine","brand":"Schwalbe","brand:wikidata":"Q1312213","vending":"bicycle_tube"}},"craft/cleaning/mollymaid-90fa14":{"name":"Molly Maid","locationSet":{"include":["ca","gb","jp","pt","us"]},"geometry":["point","area"],"matchScore":2,"terms":["molly maid"],"tags":{"brand:wikidata":"Q6896624","craft":"cleaning"},"addTags":{"brand":"Molly Maid","brand:wikidata":"Q6896624","craft":"cleaning","name":"Molly Maid"}},"leisure/fitness_centre/fitinn-48d938":{"name":"FITINN","locationSet":{"include":["by","bg","cz","hu","pl","md","ro","ru","sk","ua","ax","gg","je","cq","dk","ee","fo","fi","is","ie","im","lv","lt","no","sj","se","gb","al","ad","ba","hr","gi","gr","va","it","mt","me","mk","pt","sm","rs","si","es","xk","at","be","fr","de","li","lu","mc","nl","ch"]},"geometry":["point","area"],"matchScore":2,"terms":["fitinn"],"tags":{"brand:wikidata":"Q1245564","leisure":"fitness_centre"},"addTags":{"brand":"FITINN","brand:wikidata":"Q1245564","leisure":"fitness_centre","name":"FITINN"}},"leisure/fitness_centre/holmesplace-901199":{"name":"Holmes Place","locationSet":{"include":["by","bg","cz","hu","pl","md","ro","ru","sk","ua","ax","gg","je","cq","dk","ee","fo","fi","is","ie","im","lv","lt","no","sj","se","gb","al","ad","ba","hr","gi","gr","va","it","mt","me","mk","pt","sm","rs","si","es","xk","at","be","fr","de","li","lu","mc","nl","ch","il"]},"geometry":["point","area"],"matchScore":2,"terms":["holmes place"],"tags":{"brand:wikidata":"Q15815819","leisure":"fitness_centre"},"addTags":{"brand":"Holmes Place","brand:wikidata":"Q15815819","leisure":"fitness_centre","name":"Holmes Place"}},"man_made/charge_point/ionity-97d83d":{"name":"Ionity","locationSet":{"include":["by","bg","cz","hu","pl","md","ro","ru","sk","ua","ax","gg","je","cq","dk","ee","fo","fi","is","ie","im","lv","lt","no","sj","se","gb","al","ad","ba","hr","gi","gr","va","it","mt","me","mk","pt","sm","rs","si","es","xk","at","be","fr","de","li","lu","mc","nl","ch"]},"geometry":["point"],"matchScore":2,"terms":["ionity","ionity gmbh"],"fields":["name","brand","{man_made/charge_point}"],"tags":{"brand:wikidata":"Q42717773","man_made":"charge_point"},"addTags":{"brand":"Ionity","brand:wikidata":"Q42717773","man_made":"charge_point"}},"office/consulting/ecovis-10b2fd":{"name":"Ecovis International","locationSet":{"include":["by","bg","cz","hu","pl","md","ro","ru","sk","ua","ax","gg","je","cq","dk","ee","fo","fi","is","ie","im","lv","lt","no","sj","se","gb","al","ad","ba","hr","gi","gr","va","it","mt","me","mk","pt","sm","rs","si","es","xk","at","be","fr","de","li","lu","mc","nl","ch","tr"]},"geometry":["point","area"],"matchScore":2,"terms":["ecovis international"],"tags":{"brand:wikidata":"Q65509562","office":"consulting"},"addTags":{"brand":"Ecovis International","brand:wikidata":"Q65509562","name":"Ecovis","office":"consulting"}},"office/coworking/secondhome-b3460a":{"name":"Second Home","locationSet":{"include":["gb","pt","us-ca"]},"geometry":["point","area"],"matchScore":2,"terms":["second home"],"tags":{"brand:wikidata":"Q111387268","office":"coworking"},"addTags":{"brand":"Second Home","brand:wikidata":"Q111387268","fee":"yes","name":"Second Home","office":"coworking"}},"office/employment_agency/randstad-f7dc26":{"name":"Randstad","locationSet":{"include":["ad","at","au","be","ca","ch","cn","cz","de","dk","es","fr","gb","gr","hk","hu","ie","in","it","jp","lu","mc","mx","my","nl","no","nz","pl","pt","ro","se","sg","sy","tk","us"]},"geometry":["point","area"],"matchScore":2,"terms":["randstad"],"tags":{"brand:wikidata":"Q267840","office":"employment_agency"},"addTags":{"brand":"Randstad","brand:wikidata":"Q267840","name":"Randstad","office":"employment_agency"}},"office/estate_agent/vonpollrealestate-c99072":{"name":"von Poll Real Estate","locationSet":{"include":["by","bg","cz","hu","pl","md","ro","ru","sk","ua","ax","gg","je","cq","dk","ee","fo","fi","is","ie","im","lv","lt","no","sj","se","gb","al","ad","ba","hr","gi","gr","va","it","mt","me","mk","pt","sm","rs","si","es","xk","at","be","fr","de","li","lu","mc","nl","ch"],"exclude":["at","de"]},"geometry":["point","area"],"matchScore":2,"terms":["von poll immobilien","von poll real estate","vonpoll","vonpoll commercial"],"tags":{"brand:wikidata":"Q96026696","office":"estate_agent"},"addTags":{"brand":"von Poll Real Estate","brand:wikidata":"Q96026696","name":"von Poll Real Estate","office":"estate_agent"}},"office/insurance/allianz-332499":{"name":"Allianz","locationSet":{"include":["ae","ar","at","au","be","bg","bh","bm","bn","br","ca","cg","ch","ci","cm","cn","co","cy","cz","de","dk","ee","eg","es","fi","fr","gb","gf","gg","gh","gp","gr","hk","hr","hu","id","ie","in","is","it","ja","ke","kr","kw","la","li","lk","lt","lu","lv","ma","mg","mx","my","ng","nl","no","nz","om","ph","pk","pl","pt","qa","ro","ru","sa","se","sg","si","sk","sn","th","tr","tw","ua","us","za"]},"geometry":["point","area"],"matchScore":2,"terms":["allianz","allianz versicherung"],"fields":["name","brand","{office/insurance}"],"tags":{"brand:wikidata":"Q487292","office":"insurance"},"addTags":{"brand":"Allianz","brand:wikidata":"Q487292","name":"Allianz","office":"insurance"}},"office/insurance/axa-2e7672":{"name":"AXA","locationSet":{"include":["ae","ar","au","be","bh","bm","br","ca","ch","ci","cl","cm","cn","co","cz","de","dk","dz","eg","es","fi","fr","ga","gb","gr","hk","id","ie","in","it","jp","kr","lb","lu","ma","mu","mx","my","ng","nl","no","om","pa","pe","ph","pl","pt","qa","sa","se","sg","sk","sn","th","tr","tw","us"]},"geometry":["point","area"],"matchScore":2,"terms":["axa"],"fields":["name","brand","{office/insurance}"],"tags":{"brand:wikidata":"Q160054","office":"insurance"},"addTags":{"brand":"AXA","brand:wikidata":"Q160054","name":"AXA","office":"insurance"}},"office/insurance/fidelidade-629ea0":{"name":"Fidelidade","locationSet":{"include":["pt"]},"geometry":["point","area"],"matchScore":2,"terms":["fidelidade"],"fields":["name","brand","{office/insurance}"],"tags":{"brand:wikidata":"Q108195506","office":"insurance"},"addTags":{"brand":"Fidelidade","brand:wikidata":"Q108195506","name":"Fidelidade","office":"insurance"}},"office/insurance/generali-cb13d1":{"name":"Generali","locationSet":{"include":["ar","at","bg","br","ch","cl","cn","cz","de","es","fr","gr","hr","hu","id","in","it","me","my","ph","pl","pt","ro","rs","si","sk","tr","vn"]},"geometry":["point","area"],"matchScore":2,"terms":["generali","generali españa"],"fields":["name","brand","{office/insurance}"],"tags":{"brand:wikidata":"Q670482","office":"insurance"},"addTags":{"brand":"Generali","brand:wikidata":"Q670482","name":"Generali","office":"insurance"}},"office/insurance/nn-336e34":{"name":"NN","locationSet":{"include":["by","bg","cz","hu","pl","md","ro","ru","sk","ua","ax","gg","je","cq","dk","ee","fo","fi","is","ie","im","lv","lt","no","sj","se","gb","al","ad","ba","hr","gi","gr","va","it","mt","me","mk","pt","sm","rs","si","es","xk","at","be","fr","de","li","lu","mc","nl","ch"]},"geometry":["point","area"],"matchScore":2,"terms":["nationale-nederlanden","nn"],"fields":["name","brand","{office/insurance}"],"tags":{"brand:wikidata":"Q1834291","office":"insurance"},"addTags":{"brand":"NN","brand:wikidata":"Q1834291","name":"NN","office":"insurance","official_name":"Nationale-Nederlanden"}},"office/insurance/tranquilidade-629ea0":{"name":"Tranquilidade","locationSet":{"include":["pt"]},"geometry":["point","area"],"matchScore":2,"terms":["tranquilidade seguros"],"fields":["name","brand","{office/insurance}"],"tags":{"brand:wikidata":"Q7833457","office":"insurance"},"addTags":{"brand":"Tranquilidade Seguros","brand:wikidata":"Q7833457","name":"Tranquilidade","office":"insurance"}},"office/insurance/zurich-2d6c95":{"name":"Zurich","locationSet":{"include":["ae","at","au","be","bh","br","ca","ch","cl","cn","co","de","ec","es","fi","fr","gb","hk","id","ie","it","ja","kw","lb","li","lu","mx","my","nl","no","nz","om","pt","qa","se","sg","sk","tr","us"]},"geometry":["point","area"],"matchScore":2,"terms":["zurich"],"fields":["name","brand","{office/insurance}"],"tags":{"brand:wikidata":"Q230426","office":"insurance"},"addTags":{"brand":"Zurich","brand:wikidata":"Q230426","name":"Zurich","office":"insurance"}},"shop/baby_goods/prenatal-5eb52b":{"name":"Prénatal","locationSet":{"include":["es","fr","gr","it","nl","pt"]},"geometry":["point","area"],"matchScore":2,"terms":["prénatal"],"tags":{"brand:wikidata":"Q105961413","shop":"baby_goods"},"addTags":{"brand":"Prénatal","brand:wikidata":"Q105961413","name":"Prénatal","shop":"baby_goods"}},"shop/baby_goods/zippy-e93d5f":{"name":"Zippy","locationSet":{"include":["es","pt"]},"geometry":["point","area"],"matchScore":2,"terms":["zippy"],"tags":{"brand:wikidata":"Q10395161","shop":"baby_goods"},"addTags":{"brand":"Zippy","brand:wikidata":"Q10395161","name":"Zippy","shop":"baby_goods"}},"shop/bakery/apadariaportuguesa-6fa785":{"name":"A Padaria Portuguesa","locationSet":{"include":["pt"]},"geometry":["point","area"],"matchScore":2,"terms":["a padaria portuguesa"],"tags":{"brand:wikidata":"Q113951278","shop":"bakery"},"addTags":{"brand":"A Padaria Portuguesa","brand:wikidata":"Q113951278","name":"A Padaria Portuguesa","shop":"bakery"}},"shop/bakery/paul-652955":{"name":"Paul","locationSet":{"include":["ae","az","be","bh","by","ci","cy","cz","eg","es","fr","ga","gb","ge","gr","id","in","jo","jp","kw","kz","lb","lu","ma","mu","my","om","pa","ph","pl","pt","qa","ro","ru","sa","sg","th","tn","tw","ua","us","uz","vn","za"]},"geometry":["point","area"],"matchScore":2,"terms":["paul"],"tags":{"brand:wikidata":"Q3370417","shop":"bakery"},"addTags":{"brand":"Paul","brand:wikidata":"Q3370417","name":"Paul","shop":"bakery"}},"shop/books/bertrand-817210":{"name":"Bertrand","locationSet":{"include":["pt"]},"geometry":["point","area"],"matchScore":2,"terms":["bertrand"],"tags":{"brand:wikidata":"Q1866547","shop":"books"},"addTags":{"brand":"Bertrand","brand:wikidata":"Q1866547","name":"Bertrand","shop":"books"}},"shop/car/second_hand/lagenceautomobiliere-60f922":{"name":"L\u2019Agence Automobilière","locationSet":{"include":["be","ch","es","fr","gp","it","mq","nl","pt"]},"geometry":["point","area"],"matchScore":2,"terms":["l\u2019agence automobilière"],"fields":["name","brand","{shop/car/second_hand}"],"tags":{"brand:wikidata":"Q120734335","second_hand":"only","shop":"car"},"addTags":{"brand":"L\u2019Agence Automobilière","brand:wikidata":"Q120734335","name":"L\u2019Agence Automobilière","second_hand":"only","shop":"car"}},"shop/car/smart-b77732":{"name":"Smart","locationSet":{"include":["by","bg","cz","hu","pl","md","ro","ru","sk","ua","ax","gg","je","cq","dk","ee","fo","fi","is","ie","im","lv","lt","no","sj","se","gb","al","ad","ba","hr","gi","gr","va","it","mt","me","mk","pt","sm","rs","si","es","xk","at","be","fr","de","li","lu","mc","nl","ch","cn"]},"geometry":["point","area"],"matchScore":2,"terms":["smart"],"fields":["name","brand","{shop/car}"],"tags":{"brand:wikidata":"Q156490","shop":"car"},"addTags":{"brand":"Smart","brand:wikidata":"Q156490","name":"Smart","shop":"car"}},"shop/car_repair/euromaster-db76b7":{"name":"Euromaster","locationSet":{"include":["ch","de","es","fi","fr","nl","pt"]},"geometry":["point","area"],"matchScore":2,"terms":["euromaster"],"fields":["name","brand","{shop/car_repair}"],"tags":{"brand:wikidata":"Q3060668","shop":"car_repair"},"addTags":{"brand":"Euromaster","brand:wikidata":"Q3060668","name":"Euromaster","shop":"car_repair"}},"shop/car_repair/feuvert-89b710":{"name":"Feu Vert","locationSet":{"include":["fr","pt"]},"geometry":["point","area"],"matchScore":2,"terms":["feu vert"],"fields":["name","brand","{shop/car_repair}"],"tags":{"brand:wikidata":"Q3070922","shop":"car_repair"},"addTags":{"brand":"Feu Vert","brand:wikidata":"Q3070922","name":"Feu Vert","shop":"car_repair"}},"shop/car_repair/norauto-388a61":{"name":"Norauto","locationSet":{"include":["ar","es","fr","hu","it","pl","pt","ro"]},"geometry":["point","area"],"matchScore":2,"terms":["norauto"],"fields":["name","brand","{shop/car_repair}"],"tags":{"brand:wikidata":"Q3317698","shop":"car_repair"},"addTags":{"brand":"Norauto","brand:wikidata":"Q3317698","name":"Norauto","shop":"car_repair"}},"shop/chemist/normal-57f5e2":{"name":"Normal","locationSet":{"include":["dk","es","fi","fx","nl","no","pt","se"]},"geometry":["point","area"],"matchScore":2,"terms":["normal"],"tags":{"brand:wikidata":"Q19562429","shop":"chemist"},"addTags":{"brand":"Normal","brand:wikidata":"Q19562429","name":"Normal","shop":"chemist"}},"shop/chemist/wells-20e6e7":{"name":"Wells","locationSet":{"include":["pt"]},"geometry":["point","area"],"matchScore":2,"terms":["wells"],"tags":{"brand:wikidata":"Q115388598","shop":"chemist"},"addTags":{"brand":"Wells","brand:wikidata":"Q115388598","name":"Wells","shop":"chemist"}},"shop/clothes/caroll-16517e":{"name":"Caroll","locationSet":{"include":["ch","fr","pt"]},"geometry":["point","area"],"matchScore":2,"terms":["caroll"],"tags":{"brand:wikidata":"Q63063871","shop":"clothes"},"addTags":{"brand":"Caroll","brand:wikidata":"Q63063871","name":"Caroll","shop":"clothes"}},"shop/clothes/cortefiel-b8ad70":{"name":"Cortefiel","locationSet":{"include":["es","pt"]},"geometry":["point","area"],"matchScore":2,"terms":["cortefiel"],"tags":{"brand:wikidata":"Q117351825","shop":"clothes"},"addTags":{"brand":"Cortefiel","brand:wikidata":"Q117351825","name":"Cortefiel","shop":"clothes"}},"shop/clothes/decimas-b22a5a":{"name":"Decimas","locationSet":{"include":["es","fr","pt"]},"geometry":["point","area"],"matchScore":2,"terms":["decimas"],"tags":{"brand:wikidata":"Q107262020","shop":"clothes"},"addTags":{"brand":"Decimas","brand:wikidata":"Q107262020","clothes":"sports","name":"Decimas","shop":"clothes"}},"shop/clothes/elganso-bf6c2f":{"name":"El Ganso","locationSet":{"include":["cl","es","fr","kw","mx","pt"]},"geometry":["point","area"],"matchScore":2,"terms":["el ganso"],"tags":{"brand:wikidata":"Q51955203","shop":"clothes"},"addTags":{"brand":"El Ganso","brand:wikidata":"Q51955203","name":"El Ganso","shop":"clothes"}},"shop/clothes/kik-323dff":{"name":"KiK","locationSet":{"include":["at","bg","cz","de","es","hr","hu","it","nl","pl","pt","ro","si","sk"]},"geometry":["point","area"],"matchScore":2,"terms":["kik"],"tags":{"brand:wikidata":"Q883965","shop":"clothes"},"addTags":{"brand":"KiK","brand:wikidata":"Q883965","name":"KiK","shop":"clothes"}},"shop/clothes/lefties-4f47d2":{"name":"Lefties","locationSet":{"include":["es","ic","mx","pt"]},"geometry":["point","area"],"matchScore":2,"terms":["lefties"],"tags":{"brand:wikidata":"Q12391713","shop":"clothes"},"addTags":{"brand":"Lefties","brand:wikidata":"Q12391713","name":"Lefties","shop":"clothes"}},"shop/clothes/maje-ab7b56":{"name":"Maje","locationSet":{"include":["by","bg","cz","hu","pl","md","ro","ru","sk","ua","ax","gg","je","cq","dk","ee","fo","fi","is","ie","im","lv","lt","no","sj","se","gb","al","ad","ba","hr","gi","gr","va","it","mt","me","mk","pt","sm","rs","si","es","xk","at","be","fr","de","li","lu","mc","nl","ch","cn","sg","tw","us"]},"geometry":["point","area"],"matchScore":2,"terms":["maje"],"tags":{"brand:wikidata":"Q3280458","shop":"clothes"},"addTags":{"brand":"Maje","brand:wikidata":"Q3280458","clothes":"women","name":"Maje","shop":"clothes"}},"shop/clothes/mo-3ddf3b":{"name":"MO","locationSet":{"include":["pt"]},"geometry":["point","area"],"matchScore":2,"terms":["mo"],"tags":{"brand:wikidata":"Q51882883","shop":"clothes"},"addTags":{"brand":"MO","brand:wikidata":"Q51882883","name":"MO","shop":"clothes"}},"shop/clothes/pepco-9b55e7":{"name":"Pepco","locationSet":{"include":["at","bg","cz","de","ee","el","es","hr","hu","it","lt","lv","pl","pt","ro","rs","si","sk"]},"geometry":["point","area"],"matchScore":2,"terms":["pepco"],"tags":{"brand:wikidata":"Q11815580","shop":"clothes"},"addTags":{"brand":"Pepco","brand:wikidata":"Q11815580","name":"Pepco","shop":"clothes"}},"shop/clothes/soliver-fb408e":{"name":"s.Oliver","locationSet":{"include":["by","bg","cz","hu","pl","md","ro","ru","sk","ua","ax","gg","je","cq","dk","ee","fo","fi","is","ie","im","lv","lt","no","sj","se","gb","al","ad","ba","hr","gi","gr","va","it","mt","me","mk","pt","sm","rs","si","es","xk","at","be","fr","de","li","lu","mc","nl","ch","cn","in"]},"geometry":["point","area"],"matchScore":2,"terms":["s.oliver"],"tags":{"brand:wikidata":"Q265056","shop":"clothes"},"addTags":{"brand":"s.Oliver","brand:wikidata":"Q265056","name":"s.Oliver","shop":"clothes"}},"shop/clothes/weekday-b5590c":{"name":"Weekday","locationSet":{"include":["by","bg","cz","hu","pl","md","ro","ru","sk","ua","ax","gg","je","cq","dk","ee","fo","fi","is","ie","im","lv","lt","no","sj","se","gb","al","ad","ba","hr","gi","gr","va","it","mt","me","mk","pt","sm","rs","si","es","xk","at","be","fr","de","li","lu","mc","nl","ch"]},"geometry":["point","area"],"matchScore":2,"terms":["weekday"],"tags":{"brand:wikidata":"Q10719514","shop":"clothes"},"addTags":{"brand":"Weekday","brand:wikidata":"Q10719514","name":"Weekday","shop":"clothes"}},"shop/confectionery/hussel-c45342":{"name":"Hussel","locationSet":{"include":["at","de","pt"]},"geometry":["point","area"],"matchScore":2,"terms":["hussel"],"tags":{"brand:wikidata":"Q17123688","shop":"confectionery"},"addTags":{"brand":"Hussel","brand:wikidata":"Q17123688","name":"Hussel","shop":"confectionery"}},"shop/convenience/avia-3fdfc9":{"name":"Avia","locationSet":{"include":["at","be","bg","ch","cz","de","es","fr","hu","it","nl","pl","pt","rs","ua"]},"geometry":["point","area"],"matchScore":2,"terms":["avia"],"tags":{"brand:wikidata":"Q300147","shop":"convenience"},"addTags":{"brand":"Avia","brand:wikidata":"Q300147","name":"Avia","shop":"convenience"}},"shop/convenience/minimix-57794c":{"name":"Mini Mix","locationSet":{"include":["at","be","cy","cz","de","es","fr","gb","gr","it","me","nl","pt"]},"geometry":["point","area"],"matchScore":2,"terms":["mini mix","mini mix markt"],"tags":{"brand:wikidata":"Q327854","shop":"convenience"},"addTags":{"brand":"Mini Mix","brand:wikidata":"Q327854","name":"Mini Mix","shop":"convenience"}},"shop/convenience/viva-856fe1":{"name":"Viva","locationSet":{"include":["by","bg","cz","hu","pl","md","ro","ru","sk","ua","ax","gg","je","cq","dk","ee","fo","fi","is","ie","im","lv","lt","no","sj","se","gb","al","ad","ba","hr","gi","gr","va","it","mt","me","mk","pt","sm","rs","si","es","xk","at","be","fr","de","li","lu","mc","nl","ch"]},"geometry":["point","area"],"matchScore":2,"terms":["viva"],"tags":{"brand:wikidata":"Q168238","shop":"convenience"},"addTags":{"brand":"Viva","brand:wikidata":"Q168238","name":"Viva","shop":"convenience"}},"shop/cosmetics/primor-16394a":{"name":"Primor","locationSet":{"include":["ad","es","pt"]},"geometry":["point","area"],"matchScore":2,"terms":["primor"],"tags":{"brand:wikidata":"Q101113141","shop":"cosmetics"},"addTags":{"brand":"Primor","brand:wikidata":"Q101113141","name":"Primor","shop":"cosmetics"}},"shop/department_store/elcorteingles-5888bf":{"name":"El Corte Inglés","locationSet":{"include":["es","pt"]},"geometry":["point","area"],"matchScore":2,"terms":["corte ingles","el corte inglés"],"tags":{"brand:wikidata":"Q623133","shop":"department_store"},"addTags":{"brand":"El Corte Inglés","brand:wikidata":"Q623133","name":"El Corte Inglés","shop":"department_store"}},"shop/department_store/muji-b9b204":{"name":"Muji","locationSet":{"include":["au","ca","ch","de","es","fi","fr","gb","ie","it","pl","pt","se","tr"]},"geometry":["point","area"],"matchScore":2,"terms":["muji","無印良品"],"tags":{"brand:wikidata":"Q708789","shop":"department_store"},"addTags":{"brand":"Muji","brand:en":"Muji","brand:ja":"無印良品","brand:wikidata":"Q708789","name":"Muji","name:en":"Muji","name:ja":"無印良品","shop":"department_store"}},"shop/doityourself/bricodepot-46eef0":{"name":"Brico Dépôt","locationSet":{"include":["es","fr","pt","ro"]},"geometry":["point","area"],"matchScore":2,"terms":["brico dépôt"],"tags":{"brand:wikidata":"Q2889702","shop":"doityourself"},"addTags":{"brand":"Brico Dépôt","brand:wikidata":"Q2889702","name":"Brico Dépôt","shop":"doityourself"}},"shop/doityourself/bricomarche-cfc45c":{"name":"Bricomarché","locationSet":{"include":["fr","pl","pt"]},"geometry":["point","area"],"matchScore":2,"terms":["bricomarché"],"tags":{"brand:wikidata":"Q2925147","shop":"doityourself"},"addTags":{"brand":"Bricomarché","brand:wikidata":"Q2925147","name":"Bricomarché","shop":"doityourself"}},"shop/electrical/rexel-091354":{"name":"Rexel","locationSet":{"include":["at","au","be","ca","ch","cn","de","es","fi","fr","gb","ie","in","it","lu","me","nl","no","nz","pt","se","si","us"]},"geometry":["point","area"],"matchScore":2,"terms":["rexel"],"tags":{"brand:wikidata":"Q962489","shop":"electrical"},"addTags":{"brand":"Rexel","brand:wikidata":"Q962489","name":"Rexel","shop":"electrical"}},"shop/electronics/cex-75e32e":{"name":"CeX","locationSet":{"include":["au","es","gb","ie","in","it","mx","nl","pl","pt"]},"geometry":["point","area"],"matchScore":2,"terms":["cex"],"tags":{"brand:wikidata":"Q5055676","shop":"electronics"},"addTags":{"brand":"CeX","brand:wikidata":"Q5055676","name":"CeX","shop":"electronics"}},"shop/electronics/fnac-8dde8e":{"name":"Fnac","locationSet":{"include":["ad","be","ch","es","fr","mc","pt"]},"geometry":["point","area"],"matchScore":2,"terms":["fnac"],"tags":{"brand:wikidata":"Q676585","shop":"electronics"},"addTags":{"brand":"Fnac","brand:wikidata":"Q676585","name":"Fnac","shop":"electronics"}},"shop/electronics/worten-f7e8ae":{"name":"Worten","locationSet":{"include":["ao","es","pt"]},"geometry":["point","area"],"matchScore":2,"terms":["worten"],"tags":{"brand:wikidata":"Q10394039","shop":"electronics"},"addTags":{"brand":"Worten","brand:wikidata":"Q10394039","name":"Worten","shop":"electronics"}},"shop/fashion_accessories/chillibeans-a3a9e0":{"name":"Chilli Beans","locationSet":{"include":["br","co","kw","pe","pt","us"]},"geometry":["point","area"],"matchScore":2,"terms":["chilli beans"],"tags":{"brand:wikidata":"Q18463851","shop":"fashion_accessories"},"addTags":{"brand":"Chilli Beans","brand:wikidata":"Q18463851","name":"Chilli Beans","shop":"fashion_accessories"}},"shop/furniture/bolia-a18722":{"name":"Bolia","locationSet":{"include":["by","bg","cz","hu","pl","md","ro","ru","sk","ua","ax","gg","je","cq","dk","ee","fo","fi","is","ie","im","lv","lt","no","sj","se","gb","al","ad","ba","hr","gi","gr","va","it","mt","me","mk","pt","sm","rs","si","es","xk","at","be","fr","de","li","lu","mc","nl","ch"]},"geometry":["point","area"],"matchScore":2,"terms":["bolia"],"tags":{"brand:wikidata":"Q11961809","shop":"furniture"},"addTags":{"brand":"Bolia","brand:wikidata":"Q11961809","name":"Bolia","shop":"furniture"}},"shop/furniture/chateaudax-c96b56":{"name":"Chateau d'Ax","locationSet":{"include":["ao","be","ca","ch","cn","de","es","fx","gp","hk","hr","it","ma","mq","mt","mu","mz","pt","re","sg","si","tn","tw","us","vn"]},"geometry":["point","area"],"matchScore":2,"terms":["chateau d'ax"],"tags":{"brand:wikidata":"Q100249791","shop":"furniture"},"addTags":{"brand":"Chateau d'Ax","brand:wikidata":"Q100249791","name":"Chateau d'Ax","shop":"furniture"}},"shop/furniture/conforama-6fff46":{"name":"Conforama","locationSet":{"include":["ch","es","fr","it","lu","pt"]},"geometry":["point","area"],"matchScore":2,"terms":["conforama"],"tags":{"brand:wikidata":"Q541134","shop":"furniture"},"addTags":{"brand":"Conforama","brand:wikidata":"Q541134","name":"Conforama","shop":"furniture"}},"shop/furniture/habitat-4d9d78":{"name":"Habitat (non-UK)","locationSet":{"include":["be","de","es","gr","is","lu","no","pt","tr"]},"geometry":["point","area"],"matchScore":2,"terms":["habitat"],"tags":{"brand:wikidata":"Q689059","shop":"furniture"},"addTags":{"brand":"Habitat","brand:wikidata":"Q689059","name":"Habitat","shop":"furniture"}},"shop/furniture/maisonsdumonde-41c8c3":{"name":"Maisons du Monde","locationSet":{"include":["be","ch","de","es","fr","gb","it","lu","pt"]},"geometry":["point","area"],"matchScore":2,"terms":["maisons du monde"],"tags":{"brand:wikidata":"Q3280364","shop":"furniture"},"addTags":{"brand":"Maisons du Monde","brand:wikidata":"Q3280364","name":"Maisons du Monde","shop":"furniture"}},"shop/furniture/momax-a18722":{"name":"Mömax","locationSet":{"include":["by","bg","cz","hu","pl","md","ro","ru","sk","ua","ax","gg","je","cq","dk","ee","fo","fi","is","ie","im","lv","lt","no","sj","se","gb","al","ad","ba","hr","gi","gr","va","it","mt","me","mk","pt","sm","rs","si","es","xk","at","be","fr","de","li","lu","mc","nl","ch"]},"geometry":["point","area"],"matchScore":2,"terms":["mömax"],"tags":{"brand:wikidata":"Q56388481","shop":"furniture"},"addTags":{"brand":"Mömax","brand:wikidata":"Q56388481","name":"Mömax","shop":"furniture"}},"shop/furniture/xxxlutz-5acc6e":{"name":"XXXLutz","locationSet":{"include":["by","bg","cz","hu","pl","md","ro","ru","sk","ua","ax","gg","je","cq","dk","ee","fo","fi","is","ie","im","lv","lt","no","sj","se","gb","al","ad","ba","hr","gi","gr","va","it","mt","me","mk","pt","sm","rs","si","es","xk","at","be","fr","de","li","lu","mc","nl","ch"],"exclude":["bg"]},"geometry":["point","area"],"matchScore":2,"terms":["xxxlutz"],"tags":{"brand:wikidata":"Q70339467","shop":"furniture"},"addTags":{"brand":"XXXLutz","brand:wikidata":"Q70339467","name":"XXXLutz","shop":"furniture"}},"shop/gift/alehop-be38fa":{"name":"ALE-HOP","locationSet":{"include":["es","hr","mx","pt"]},"geometry":["point","area"],"matchScore":2,"terms":["ale-hop"],"tags":{"brand:wikidata":"Q98456840","shop":"gift"},"addTags":{"brand":"ALE-HOP","brand:wikidata":"Q98456840","name":"ALE-HOP","shop":"gift"}},"shop/gift/natura-8abdd6":{"name":"Natura","locationSet":{"include":["ad","es","it","pt"]},"geometry":["point","area"],"matchScore":2,"terms":["natura"],"tags":{"brand:wikidata":"Q123564924","shop":"gift"},"addTags":{"brand":"Natura","brand:wikidata":"Q123564924","name":"Natura","shop":"gift"}},"shop/hairdresser/jeanlouisdavid-b4b07d":{"name":"Jean Louis David","locationSet":{"include":["es","fr","it","pl","pt"]},"geometry":["point","area"],"matchScore":2,"terms":["jean louis david"],"tags":{"brand:wikidata":"Q64445174","shop":"hairdresser"},"addTags":{"brand":"Jean Louis David","brand:wikidata":"Q64445174","name":"Jean Louis David","shop":"hairdresser"}},"shop/hearing_aids/acusticamedica-f022a3":{"name":"Acústica Médica","locationSet":{"include":["pt"]},"geometry":["point","area"],"matchScore":2,"terms":["acústica médica"],"tags":{"brand:wikidata":"Q120764152","shop":"hearing_aids"},"addTags":{"brand":"Acústica Médica","brand:wikidata":"Q120764152","name":"Acústica Médica","shop":"hearing_aids"}},"shop/interior_decoration/casa-ecb23b":{"name":"CASA","locationSet":{"include":["be","ch","es","fr","it","lu","pt"]},"geometry":["point","area"],"matchScore":2,"terms":["casa"],"tags":{"brand:wikidata":"Q1991755","shop":"interior_decoration"},"addTags":{"brand":"CASA","brand:wikidata":"Q1991755","name":"CASA","shop":"interior_decoration"}},"shop/mobile_phone/meo-fcef49":{"name":"MEO","locationSet":{"include":["pt"]},"geometry":["point","area"],"matchScore":2,"terms":["loja meo","meo"],"tags":{"brand:wikidata":"Q3306167","shop":"mobile_phone"},"addTags":{"brand":"MEO","brand:wikidata":"Q3306167","name":"MEO","shop":"mobile_phone"}},"shop/mobile_phone/nos-fcef49":{"name":"NOS","locationSet":{"include":["pt"]},"geometry":["point","area"],"matchScore":2,"terms":["nos"],"tags":{"brand:wikidata":"Q136331","shop":"mobile_phone"},"addTags":{"brand":"NOS","brand:wikidata":"Q136331","name":"NOS","shop":"mobile_phone"}},"shop/mobile_phone/phonehouse-3d17eb":{"name":"Phone House","locationSet":{"include":["de","es","fr","nl","pt"]},"geometry":["point","area"],"matchScore":2,"terms":["phone house","the phone house"],"searchable":false,"tags":{"brand:wikidata":"Q325113","shop":"mobile_phone"},"addTags":{"brand":"Phone House","brand:wikidata":"Q325113","name":"Phone House","shop":"mobile_phone"}},"shop/optician/alainafflelou-b3bc92":{"name":"Alain Afflelou","locationSet":{"include":["be","ch","es","fr","pt"]},"geometry":["point","area"],"matchScore":2,"terms":["alain afflelou"],"fields":["name","brand","{shop/optician}"],"tags":{"brand:wikidata":"Q2829511","shop":"optician"},"addTags":{"brand":"Alain Afflelou","brand:wikidata":"Q2829511","name":"Alain Afflelou","shop":"optician"}},"shop/optician/grandoptical-e85d12":{"name":"GrandOptical","locationSet":{"include":["be","fr","pt","sk"]},"geometry":["point","area"],"matchScore":2,"terms":["grandoptical"],"fields":["name","brand","{shop/optician}"],"tags":{"brand:wikidata":"Q3113677","shop":"optician"},"addTags":{"brand":"GrandOptical","brand:wikidata":"Q3113677","name":"GrandOptical","shop":"optician"}},"shop/optician/multiopticas-1afd50":{"name":"Multiópticas (Portugal)","locationSet":{"include":["pt"]},"geometry":["point","area"],"matchScore":2,"terms":["multiópticas"],"fields":["name","brand","{shop/optician}"],"tags":{"brand:wikidata":"Q62391722","shop":"optician"},"addTags":{"brand":"Multiópticas","brand:wikidata":"Q62391722","name":"Multiópticas","shop":"optician"}},"shop/optician/solaris-fb98e0":{"name":"Solaris","locationSet":{"include":["fr","pt"]},"geometry":["point","area"],"matchScore":2,"terms":["solaris"],"fields":["name","brand","{shop/optician}"],"tags":{"brand:wikidata":"Q3489229","shop":"optician"},"addTags":{"brand":"Solaris","brand:wikidata":"Q3489229","name":"Solaris","shop":"optician"}},"shop/outdoor/natureanddecouvertes-fb7405":{"name":"Nature & Découvertes","locationSet":{"include":["be","ch","fr","lu","pt"]},"geometry":["point","area"],"matchScore":2,"terms":["nature & découvertes"],"tags":{"brand:wikidata":"Q3337111","shop":"outdoor"},"addTags":{"brand":"Nature & Découvertes","brand:wikidata":"Q3337111","name":"Nature & Découvertes","shop":"outdoor"}},"shop/pawnbroker/cashconverters-1c62e9":{"name":"Cash Converters","locationSet":{"include":["ae","au","be","ch","es","fr","gb","lu","my","na","nz","pt","sg","za"]},"geometry":["point","area"],"matchScore":2,"terms":["cash converters"],"tags":{"brand:wikidata":"Q5048645","shop":"pawnbroker"},"addTags":{"brand":"Cash Converters","brand:wikidata":"Q5048645","name":"Cash Converters","shop":"pawnbroker"}},"shop/perfumery/douglas-4ed3c9":{"name":"Douglas","locationSet":{"include":["ad","at","be","bg","ch","cz","de","ee","es","hr","hu","it","lt","lv","nl","pl","pt","ro","si","sk"]},"geometry":["point","area"],"matchScore":2,"terms":["douglas"],"tags":{"brand:wikidata":"Q2052213","shop":"perfumery"},"addTags":{"brand":"Douglas","brand:wikidata":"Q2052213","name":"Douglas","shop":"perfumery"}},"shop/perfumery/equivalenza-59ad61":{"name":"Equivalenza","locationSet":{"include":["ad","ao","at","be","ca","cv","de","do","es","fr","gb","gr","gt","ie","it","mx","mz","nl","pe","pt","ro","tn"]},"geometry":["point","area"],"matchScore":2,"terms":["equivalenza"],"tags":{"brand:wikidata":"Q104649798","shop":"perfumery"},"addTags":{"brand":"Equivalenza","brand:wikidata":"Q104649798","name":"Equivalenza","shop":"perfumery"}},"shop/perfumery/oboticario-40d28a":{"name":"O Boticário","locationSet":{"include":["ao","br","co","jp","mz","pt","py","sa","us","ve"]},"geometry":["point","area"],"matchScore":2,"terms":["o boticário"],"tags":{"brand:wikidata":"Q7073219","shop":"perfumery"},"addTags":{"brand":"O Boticário","brand:wikidata":"Q7073219","name":"O Boticário","shop":"perfumery"}},"shop/pet/kiwoko-02c541":{"name":"Kiwoko","locationSet":{"include":["es","pt"]},"geometry":["point","area"],"matchScore":2,"terms":["kiwoko"],"tags":{"brand:wikidata":"Q121435937","shop":"pet"},"addTags":{"brand":"Kiwoko","brand:wikidata":"Q121435937","name":"Kiwoko","shop":"pet"}},"shop/shoes/marypaz-587284":{"name":"Marypaz","locationSet":{"include":["es","pt"]},"geometry":["point","area"],"matchScore":2,"terms":["marypaz"],"tags":{"brand:wikidata":"Q98497264","shop":"shoes"},"addTags":{"brand":"Marypaz","brand:wikidata":"Q98497264","name":"Marypaz","shop":"shoes"}},"shop/sports/jdsports-a6e00e":{"name":"JD Sports","locationSet":{"include":["au","be","de","es","fr","gb","ie","nl","pt","sk"]},"geometry":["point","area"],"matchScore":2,"terms":["jd","jd sports"],"tags":{"brand:wikidata":"Q6108019","shop":"sports"},"addTags":{"brand":"JD Sports","brand:wikidata":"Q6108019","name":"JD Sports","shop":"sports"}},"shop/sports/sportzone-62e24b":{"name":"Sport Zone","locationSet":{"include":["pt"]},"geometry":["point","area"],"matchScore":2,"terms":["sport zone"],"tags":{"brand:wikidata":"Q18485899","shop":"sports"},"addTags":{"brand":"Sport Zone","brand:wikidata":"Q18485899","name":"Sport Zone","shop":"sports"}},"shop/stationery/carlin-fac120":{"name":"Carlin","locationSet":{"include":["ad","es","fr","gq","mx","pt"]},"geometry":["point","area"],"matchScore":2,"terms":["carlin"],"tags":{"brand:wikidata":"Q99762985","shop":"stationery"},"addTags":{"brand":"Carlin","brand:wikidata":"Q99762985","name":"Carlin","shop":"stationery"}},"shop/supermarket/aldi-be20c9":{"name":"ALDI (ALDI Nord group)","locationSet":{"include":["be","dk","es","fr","lu","nl","pl","pt"]},"geometry":["point","area"],"matchScore":2,"terms":["aldi","aldi france"],"tags":{"brand:wikidata":"Q41171373","shop":"supermarket"},"addTags":{"brand":"ALDI","brand:wikidata":"Q41171373","name":"ALDI","shop":"supermarket"}},"shop/supermarket/auchan-05ddc8":{"name":"Auchan","locationSet":{"include":["ci","cn","fr","hu","lu","mr","pl","pt","ro","sn"]},"geometry":["point","area"],"matchScore":2,"terms":["auchan"],"tags":{"brand:wikidata":"Q758603","shop":"supermarket"},"addTags":{"brand":"Auchan","brand:wikidata":"Q758603","name":"Auchan","shop":"supermarket"}},"shop/supermarket/organic/celeiro-a14fce":{"name":"Celeiro","locationSet":{"include":["pt"]},"geometry":["point","area"],"matchScore":2,"terms":["celeiro"],"reference":{"key":"organic"},"tags":{"brand:wikidata":"Q114102189","organic":"only","shop":"supermarket"},"addTags":{"brand":"Celeiro","brand:wikidata":"Q114102189","name":"Celeiro","organic":"only","shop":"supermarket"}},"shop/supermarket/continente-a14fce":{"name":"Continente","locationSet":{"include":["pt"]},"geometry":["point","area"],"matchScore":2,"terms":["continente"],"tags":{"brand:wikidata":"Q2995683","shop":"supermarket"},"addTags":{"brand":"Continente","brand:wikidata":"Q2995683","name":"Continente","shop":"supermarket"}},"shop/supermarket/continentemodelo-a14fce":{"name":"Continente Modelo","locationSet":{"include":["pt"]},"geometry":["point","area"],"matchScore":2,"terms":["continente modelo"],"tags":{"brand:wikidata":"Q1892188","shop":"supermarket"},"addTags":{"brand":"Continente Modelo","brand:wikidata":"Q1892188","name":"Continente Modelo","shop":"supermarket"}},"shop/supermarket/coviran-d9bffc":{"name":"Covirán","locationSet":{"include":["es","pt"]},"geometry":["point","area"],"matchScore":2,"terms":["coviran","covirán"],"tags":{"brand:wikidata":"Q61070539","shop":"supermarket"},"addTags":{"brand":"Covirán","brand:wikidata":"Q61070539","name":"Covirán","name:pt":"Coviran","shop":"supermarket"}},"shop/supermarket/eleclerc-111b05":{"name":"E.Leclerc","locationSet":{"include":["es","fr","pl","pt"]},"geometry":["point","area"],"matchScore":2,"terms":["e.leclerc"],"tags":{"brand:wikidata":"Q1273376","shop":"supermarket"},"addTags":{"brand":"E.Leclerc","brand:wikidata":"Q1273376","name":"E.Leclerc","shop":"supermarket"}},"shop/supermarket/eurospar-4b5e11":{"name":"Eurospar","locationSet":{"include":["by","bg","cz","hu","pl","md","ro","ru","sk","ua","ax","gg","je","cq","dk","ee","fo","fi","is","ie","im","lv","lt","no","sj","se","gb","al","ad","ba","hr","gi","gr","va","it","mt","me","mk","pt","sm","rs","si","es","xk","at","be","fr","de","li","lu","mc","nl","ch"]},"geometry":["point","area"],"matchScore":2,"terms":["eurospar"],"tags":{"brand:wikidata":"Q12309283","shop":"supermarket"},"addTags":{"brand":"Eurospar","brand:wikidata":"Q12309283","name":"Eurospar","shop":"supermarket"}},"shop/supermarket/froiz-d9bffc":{"name":"Froiz","locationSet":{"include":["es","pt"]},"geometry":["point","area"],"matchScore":2,"terms":["froiz"],"tags":{"brand:wikidata":"Q17070775","shop":"supermarket"},"addTags":{"brand":"Froiz","brand:wikidata":"Q17070775","name":"Froiz","shop":"supermarket"}},"shop/supermarket/intermarcheexpress-5dc877":{"name":"Intermarché Express","locationSet":{"include":["fr","pt"]},"geometry":["point","area"],"matchScore":2,"terms":["intermarché express"],"tags":{"brand:wikidata":"Q98278043","shop":"supermarket"},"addTags":{"brand":"Intermarché Express","brand:wikidata":"Q98278043","name":"Intermarché Express","shop":"supermarket"}},"shop/supermarket/intermarchesuper-86bfe8":{"name":"Intermarché Super","locationSet":{"include":["be","fr","pl","pt"]},"geometry":["point","area"],"matchScore":2,"terms":["intermarché super"],"tags":{"brand:wikidata":"Q98278038","shop":"supermarket"},"addTags":{"brand":"Intermarché Super","brand:wikidata":"Q98278038","name":"Intermarché Super","shop":"supermarket"}},"shop/supermarket/mercadona-d9bffc":{"name":"Mercadona","locationSet":{"include":["es","pt"]},"geometry":["point","area"],"matchScore":2,"terms":["mercadona"],"tags":{"brand:wikidata":"Q377705","shop":"supermarket"},"addTags":{"brand":"Mercadona","brand:wikidata":"Q377705","name":"Mercadona","shop":"supermarket"}},"shop/supermarket/meusuper-a14fce":{"name":"Meu Super","locationSet":{"include":["pt"]},"geometry":["point","area"],"matchScore":2,"terms":["meu super"],"tags":{"brand:wikidata":"Q119948154","shop":"supermarket"},"addTags":{"brand":"Meu Super","brand:wikidata":"Q119948154","name":"Meu Super","shop":"supermarket"}},"shop/supermarket/minipreco-a14fce":{"name":"Minipreço","locationSet":{"include":["pt"]},"geometry":["point","area"],"matchScore":2,"terms":["minipreço"],"tags":{"brand:wikidata":"Q3042224","shop":"supermarket"},"addTags":{"brand":"Minipreço","brand:wikidata":"Q3042224","name":"Minipreço","shop":"supermarket"}},"shop/supermarket/mixmarkt-3f43e2":{"name":"Mix Markt","locationSet":{"include":["at","be","cy","cz","de","es","fr","gb","gr","it","me","nl","pt"]},"geometry":["point","area"],"matchScore":2,"terms":["mix markt"],"tags":{"brand:wikidata":"Q327854","shop":"supermarket"},"addTags":{"brand":"Mix Markt","brand:wikidata":"Q327854","name":"Mix Markt","shop":"supermarket"}},"shop/supermarket/netto-5dc877":{"name":"Netto (Les Mousquetaires)","locationSet":{"include":["fr","pt"]},"geometry":["point","area"],"matchScore":2,"terms":["netto"],"tags":{"brand:wikidata":"Q2720988","shop":"supermarket"},"addTags":{"brand":"Netto","brand:wikidata":"Q2720988","name":"Netto","shop":"supermarket"}},"shop/supermarket/paodeacucar-14dbfa":{"name":"Pão de Açúcar","locationSet":{"include":["br","pt"]},"geometry":["point","area"],"matchScore":2,"terms":["pão de açúcar"],"tags":{"brand:wikidata":"Q3411543","shop":"supermarket"},"addTags":{"brand":"Pão de Açúcar","brand:wikidata":"Q3411543","name":"Pão de Açúcar","shop":"supermarket"}},"shop/supermarket/pingodoce-a14fce":{"name":"Pingo Doce","locationSet":{"include":["pt"]},"geometry":["point","area"],"matchScore":2,"terms":["pingo doce"],"tags":{"brand:wikidata":"Q1575057","shop":"supermarket"},"addTags":{"brand":"Pingo Doce","brand:wikidata":"Q1575057","name":"Pingo Doce","shop":"supermarket"}},"shop/supermarket/supercor-d9bffc":{"name":"Supercor","locationSet":{"include":["es","pt"]},"geometry":["point","area"],"matchScore":2,"terms":["supercor"],"tags":{"brand:wikidata":"Q6135841","shop":"supermarket"},"addTags":{"brand":"Supercor","brand:wikidata":"Q6135841","name":"Supercor","shop":"supermarket"}},"shop/tattoo/veantattoo-eea007":{"name":"VeAn Tattoo","locationSet":{"include":["by","bg","cz","hu","pl","md","ro","ru","sk","ua","ax","gg","je","cq","dk","ee","fo","fi","is","ie","im","lv","lt","no","sj","se","gb","al","ad","ba","hr","gi","gr","va","it","mt","me","mk","pt","sm","rs","si","es","xk","at","be","fr","de","li","lu","mc","nl","ch"]},"geometry":["point","area"],"matchScore":2,"terms":["vean tattoo"],"tags":{"brand:wikidata":"Q116871240","shop":"tattoo"},"addTags":{"brand":"VeAn Tattoo","brand:wikidata":"Q116871240","name":"VeAn Tattoo","shop":"tattoo"}},"shop/tea/teashop-d87694":{"name":"Tea Shop","locationSet":{"include":["ar","br","es","it","pt","uy"]},"geometry":["point","area"],"matchScore":2,"terms":["tea shop"],"tags":{"brand:wikidata":"Q111730818","shop":"tea"},"addTags":{"brand":"Tea Shop","brand:wikidata":"Q111730818","name":"Tea Shop","shop":"tea"}},"shop/tool_hire/loxam-33fef8":{"name":"Loxam","locationSet":{"include":["ae","be","bh","br","ch","co","cz","de","dk","ee","es","fi","fr","gb","ie","it","kw","lt","lu","lv","ma","nl","no","om","pl","pt","qa","sa","se","sk"]},"geometry":["point","area"],"matchScore":2,"terms":["loxam"],"tags":{"brand:wikidata":"Q3264407","shop":"tool_hire"},"addTags":{"brand":"Loxam","brand:wikidata":"Q3264407","name":"Loxam","shop":"tool_hire"}},"shop/travel_agency/viajeselcorteingles-d900b5":{"name":"Viajes El Corte Inglés","locationSet":{"include":["ar","cl","co","do","ec","es","fr","it","mx","pa","pe","pt","uy"]},"geometry":["point","area"],"matchScore":2,"terms":["viajes el corte inglés"],"tags":{"brand:wikidata":"Q115268048","shop":"travel_agency"},"addTags":{"brand":"Viajes El Corte Inglés","brand:wikidata":"Q115268048","name":"Viajes El Corte Inglés","shop":"travel_agency"}},"shop/variety_store/flyingtigercopenhagen-55ef00":{"name":"Flying Tiger Copenhagen","locationSet":{"include":["at","be","ch","cy","cz","de","dk","ee","es","fi","fr","gb","gr","hu","ie","il","is","it","jp","kr","lt","lv","mt","nl","no","pl","pt","se","sk"]},"geometry":["point","area"],"matchScore":2,"terms":["flying tiger","flying tiger copenhagen","tgr","tiger"],"tags":{"brand:wikidata":"Q2786319","shop":"variety_store"},"addTags":{"brand":"Flying Tiger Copenhagen","brand:wikidata":"Q2786319","name":"Flying Tiger Copenhagen","shop":"variety_store","short_name":"Flying Tiger"}},"shop/variety_store/tedi-8a061e":{"name":"TEDi","locationSet":{"include":["at","bg","cz","de","es","gb","hr","hu","it","pl","pt","ro","si","sk"]},"geometry":["point","area"],"matchScore":2,"terms":["t\u20acdi","tedi"],"tags":{"brand:wikidata":"Q1364603","shop":"variety_store"},"addTags":{"brand":"TEDi","brand:wikidata":"Q1364603","name":"TEDi","shop":"variety_store"}},"shop/watches/longines-691196":{"name":"Longines","locationSet":{"include":["ar","au","be","ca","ch","cl","cn","de","dk","es","fi","fr","gb","gr","in","it","jp","kr","mx","my","nl","no","pt","se","sg","th","tr","tw","us","za"]},"geometry":["point","area"],"matchScore":2,"terms":["longines"],"tags":{"brand:wikidata":"Q603698","shop":"watches"},"addTags":{"brand":"Longines","brand:wikidata":"Q603698","name":"Longines","shop":"watches"}},"tourism/hotel/allegrohotels-ba2369":{"name":"Allegro Hotels","locationSet":{"include":["cu","es","ma","mx","pt"]},"geometry":["point","area"],"matchScore":2,"terms":["allegro hotels"],"fields":["name","brand","{tourism/hotel}"],"tags":{"brand:wikidata":"Q15148996","tourism":"hotel"},"addTags":{"brand":"Allegro Hotels","brand:wikidata":"Q15148996","name":"Allegro Hotels","tourism":"hotel"}},"tourism/hotel/anantara-e8534c":{"name":"Anantara","locationSet":{"include":["ae","br","cn","es","fr","hu","id","ie","it","kh","mu","mv","my","mz","nl","om","pt","qa","sc","th","tn","vn","zm"]},"geometry":["point","area"],"matchScore":2,"terms":["anantara"],"fields":["name","brand","{tourism/hotel}"],"tags":{"brand:wikidata":"Q112671781","tourism":"hotel"},"addTags":{"brand":"Anantara","brand:wikidata":"Q112671781","name":"Anantara","tourism":"hotel"}},"tourism/hotel/avanihotelsandresorts-e9c192":{"name":"AVANI","locationSet":{"include":["ae","au","bw","id","kh","kr","la","lk","ls","my","mz","na","nz","om","pt","sc","th","vn","zm"]},"geometry":["point","area"],"matchScore":2,"terms":["avani hotels & resorts"],"fields":["name","brand","{tourism/hotel}"],"tags":{"brand:wikidata":"Q48989823","tourism":"hotel"},"addTags":{"brand":"Avani Hotels & Resorts","brand:wikidata":"Q48989823","name":"Avani Hotels & Resorts","tourism":"hotel"}},"tourism/hotel/bandbhotel-fc8c2c":{"name":"B&B Hotel","locationSet":{"include":["by","bg","cz","hu","pl","md","ro","ru","sk","ua","ax","gg","je","cq","dk","ee","fo","fi","is","ie","im","lv","lt","no","sj","se","gb","al","ad","ba","hr","gi","gr","va","it","mt","me","mk","pt","sm","rs","si","es","xk","at","be","fr","de","li","lu","mc","nl","ch","br"]},"geometry":["point","area"],"matchScore":2,"terms":["b&b hotels"],"fields":["name","brand","{tourism/hotel}"],"tags":{"brand:wikidata":"Q794939","tourism":"hotel"},"addTags":{"brand":"B&B Hotels","brand:wikidata":"Q794939","name":"B&B Hotel","tourism":"hotel"}},"tourism/hotel/barcelohotelsandresorts-302c40":{"name":"Barceló","locationSet":{"include":["ae","aw","bg","cr","cu","cz","de","do","eg","es","gr","gt","hu","it","ma","mv","mx","ni","om","pt","sv","tn","tr","us"]},"geometry":["point","area"],"matchScore":2,"terms":["barceló hotels & resorts"],"fields":["name","brand","{tourism/hotel}"],"tags":{"brand:wikidata":"Q15148996","tourism":"hotel"},"addTags":{"brand":"Barceló Hotels & Resorts","brand:wikidata":"Q15148996","name":"Barceló Hotels & Resorts","tourism":"hotel"}},"tourism/hotel/conrad-ee1a43":{"name":"Conrad Hotels & Resorts","locationSet":{"include":["ae","ca","cn","eg","gb","id","ie","in","jp","kr","mv","pf","ph","pt","sa","sg","th","tr","us"]},"geometry":["point","area"],"matchScore":2,"terms":["conrad"],"fields":["name","brand","{tourism/hotel}"],"tags":{"brand:wikidata":"Q855525","tourism":"hotel"},"addTags":{"brand":"Conrad","brand:wikidata":"Q855525","name":"Conrad","tourism":"hotel"}},"tourism/hotel/greet-046fe6":{"name":"greet","locationSet":{"include":["by","bg","cz","hu","pl","md","ro","ru","sk","ua","ax","gg","je","cq","dk","ee","fo","fi","is","ie","im","lv","lt","no","sj","se","gb","al","ad","ba","hr","gi","gr","va","it","mt","me","mk","pt","sm","rs","si","es","xk","at","be","fr","de","li","lu","mc","nl","ch"]},"geometry":["point","area"],"matchScore":2,"terms":["greet"],"fields":["name","brand","{tourism/hotel}"],"tags":{"brand:wikidata":"Q115489066","tourism":"hotel"},"addTags":{"brand":"greet","brand:wikidata":"Q115489066","name":"Greet","tourism":"hotel"}},"tourism/hotel/hf-599262":{"name":"HF Hotels","locationSet":{"include":["pt"]},"geometry":["point","area"],"matchScore":2,"terms":["hf hotels"],"fields":["name","brand","{tourism/hotel}"],"tags":{"brand:wikidata":"Q112650431","tourism":"hotel"},"addTags":{"brand":"HF Hotels","brand:wikidata":"Q112650431","name":"HF","tourism":"hotel"}},"tourism/hotel/iberostarhotelsandresorts-e0d9de":{"name":"Iberostar Hotels & Resorts","locationSet":{"include":["br","cv","do","es","gr","jm","ma","me","mx","pe","pt","tn","us"]},"geometry":["point","area"],"matchScore":2,"terms":["iberostar","iberostar hotels & resorts"],"fields":["name","brand","{tourism/hotel}"],"tags":{"brand:wikidata":"Q2035939","tourism":"hotel"},"addTags":{"brand":"Iberostar Hotels & Resorts","brand:wikidata":"Q2035939","tourism":"hotel"}},"tourism/hotel/mamashelter-0d5f7f":{"name":"Mama Shelter","locationSet":{"include":["ae","cz","fx","gb","it","lu","pt","rs","us-ca"]},"geometry":["point","area"],"matchScore":2,"terms":["mama shelter"],"fields":["name","brand","{tourism/hotel}"],"tags":{"brand:wikidata":"Q12716714","tourism":"hotel"},"addTags":{"brand":"Mama Shelter","brand:wikidata":"Q12716714","name":"Mama Shelter","tourism":"hotel"}},"tourism/hotel/motelone-1fc1b4":{"name":"Motel One","locationSet":{"include":["by","bg","cz","hu","pl","md","ro","ru","sk","ua","ax","gg","je","cq","dk","ee","fo","fi","is","ie","im","lv","lt","no","sj","se","gb","al","ad","ba","hr","gi","gr","va","it","mt","me","mk","pt","sm","rs","si","es","xk","at","be","fr","de","li","lu","mc","nl","ch","us-ny"]},"geometry":["point","area"],"matchScore":2,"terms":["motel one"],"fields":["name","brand","{tourism/hotel}"],"tags":{"brand:wikidata":"Q391080","tourism":"hotel"},"addTags":{"brand":"Motel One","brand:wikidata":"Q391080","name":"Motel One","tourism":"hotel"}},"tourism/hotel/nhcollectionhotels-f05c75":{"name":"NH Collection Hotels","locationSet":{"include":["ad","ar","at","be","cl","co","cu","cz","de","dk","ec","es","fr","hu","it","mx","nl","pt","qa","us-ny"]},"geometry":["point","area"],"matchScore":2,"terms":["nh collection hotels"],"fields":["name","brand","{tourism/hotel}"],"tags":{"brand:wikidata":"Q1604631","tourism":"hotel"},"addTags":{"brand":"NH Collection Hotels","brand:wikidata":"Q1604631","name":"NH Collection Hotels","tourism":"hotel"}},"tourism/hotel/nhhotel-e9b4fb":{"name":"NH Hotels","locationSet":{"include":["ad","ar","at","be","br","ch","cl","co","cu","cz","de","es","fr","hu","it","lu","mx","nl","pl","pt"]},"geometry":["point","area"],"matchScore":2,"terms":["nh hotels"],"fields":["name","brand","{tourism/hotel}"],"tags":{"brand:wikidata":"Q1604631","tourism":"hotel"},"addTags":{"brand":"NH Hotels","brand:wikidata":"Q1604631","name":"NH Hotel","tourism":"hotel"}},"tourism/hotel/paradores-2bddc3":{"name":"Paradores","locationSet":{"include":["es","pt"]},"geometry":["point","area"],"matchScore":2,"terms":["paradores","paradores de turismo de españa","paradores de turismo de tspaña","paradores nacionales"],"fields":["name","brand","{tourism/hotel}"],"tags":{"brand:wikidata":"Q1476845","tourism":"hotel"},"addTags":{"brand":"Paradores","brand:wikidata":"Q1476845","official_name":"Paradores de Turismo de España","tourism":"hotel"}},"tourism/hotel/pousadasdeportugal-599262":{"name":"Pousadas de Portugal","locationSet":{"include":["pt"]},"geometry":["point","area"],"matchScore":2,"terms":["pousadas de portugal"],"fields":["name","brand","{tourism/hotel}"],"tags":{"brand:wikidata":"Q2186274","tourism":"hotel"},"addTags":{"brand":"Pousadas de Portugal","brand:wikidata":"Q2186274","tourism":"hotel"}},"tourism/hotel/tapestrycollection-1c7927":{"name":"Tapestry Collection by Hilton","locationSet":{"include":["ae","br","ca","cn","es","fx","gb","mx","pt","tw","us"]},"geometry":["point","area"],"matchScore":2,"terms":["tapestry collection","tapestry collection by hilton"],"fields":["name","brand","{tourism/hotel}"],"tags":{"brand:wikidata":"Q109275422","tourism":"hotel"},"addTags":{"brand":"Tapestry Collection","brand:wikidata":"Q109275422","tourism":"hotel"}},"tourism/hotel/tivolihotelsandresorts-0f28e2":{"name":"Tivoli","locationSet":{"include":["br","cn","pt","qa"]},"geometry":["point","area"],"matchScore":2,"terms":["tivoli hotels & resorts"],"fields":["name","brand","{tourism/hotel}"],"tags":{"brand:wikidata":"Q10382766","tourism":"hotel"},"addTags":{"brand":"Tivoli Hotels & Resorts","brand:wikidata":"Q10382766","name":"Tivoli Hotels & Resorts","tourism":"hotel"}},"tourism/hotel/yotel-ebcca5":{"name":"YOTEL","locationSet":{"include":["ae","ch","fx","gb","nl","pt","sg","tr","us-ca","us-dc","us-fl","us-ma","us-ny"]},"geometry":["point","area"],"matchScore":2,"terms":["yotel"],"fields":["name","brand","{tourism/hotel}"],"tags":{"brand:wikidata":"Q8046002","tourism":"hotel"},"addTags":{"brand":"YOTEL","brand:wikidata":"Q8046002","name":"YOTEL","tourism":"hotel"}},"amenity/charging_station/bluecharge-a1285d":{"name":"Bluecharge","locationSet":{"include":["pt"]},"geometry":["point","vertex","area"],"matchScore":2,"terms":["bluecharge"],"fields":["name","operator","{amenity/charging_station}"],"tags":{"amenity":"charging_station","operator:wikidata":"Q113289672"},"addTags":{"amenity":"charging_station","operator":"Bluecharge","operator:wikidata":"Q113289672"}},"amenity/charging_station/eon-7f623e":{"name":"E.ON","locationSet":{"include":["by","bg","cz","hu","pl","md","ro","ru","sk","ua","ax","gg","je","cq","dk","ee","fo","fi","is","ie","im","lv","lt","no","sj","se","gb","al","ad","ba","hr","gi","gr","va","it","mt","me","mk","pt","sm","rs","si","es","xk","at","be","fr","de","li","lu","mc","nl","ch"]},"geometry":["point","vertex","area"],"matchScore":2,"terms":["e-on drive","e.on"],"fields":["name","operator","{amenity/charging_station}"],"tags":{"amenity":"charging_station","operator:wikidata":"Q270223"},"addTags":{"amenity":"charging_station","operator":"E.ON","operator:wikidata":"Q270223"}},"amenity/charging_station/edp-387085":{"name":"EDP","locationSet":{"include":["br","es","pt"]},"geometry":["point","vertex","area"],"matchScore":2,"terms":["edp","edp comercial"],"fields":["name","operator","{amenity/charging_station}"],"tags":{"amenity":"charging_station","operator:wikidata":"Q1341222"},"addTags":{"amenity":"charging_station","operator":"EDP","operator:wikidata":"Q1341222"}},"amenity/charging_station/evbox-7f623e":{"name":"EVBox","locationSet":{"include":["by","bg","cz","hu","pl","md","ro","ru","sk","ua","ax","gg","je","cq","dk","ee","fo","fi","is","ie","im","lv","lt","no","sj","se","gb","al","ad","ba","hr","gi","gr","va","it","mt","me","mk","pt","sm","rs","si","es","xk","at","be","fr","de","li","lu","mc","nl","ch"]},"geometry":["point","vertex","area"],"matchScore":2,"terms":["evbox"],"fields":["name","operator","{amenity/charging_station}"],"tags":{"amenity":"charging_station","operator:wikidata":"Q28406392"},"addTags":{"amenity":"charging_station","operator":"EVBox","operator:wikidata":"Q28406392"}},"amenity/charging_station/mercadona-3948da":{"name":"Mercadona","locationSet":{"include":["es","pt"]},"geometry":["point","vertex","area"],"matchScore":2,"terms":["mercadona"],"fields":["name","operator","{amenity/charging_station}"],"tags":{"amenity":"charging_station","operator:wikidata":"Q377705"},"addTags":{"amenity":"charging_station","operator":"Mercadona","operator:wikidata":"Q377705"}},"amenity/charging_station/qpark-7f623e":{"name":"Q-Park","locationSet":{"include":["by","bg","cz","hu","pl","md","ro","ru","sk","ua","ax","gg","je","cq","dk","ee","fo","fi","is","ie","im","lv","lt","no","sj","se","gb","al","ad","ba","hr","gi","gr","va","it","mt","me","mk","pt","sm","rs","si","es","xk","at","be","fr","de","li","lu","mc","nl","ch"]},"geometry":["point","vertex","area"],"matchScore":2,"terms":["q-park"],"fields":["name","operator","{amenity/charging_station}"],"tags":{"amenity":"charging_station","operator:wikidata":"Q1127798"},"addTags":{"amenity":"charging_station","operator":"Q-Park","operator:wikidata":"Q1127798"}},"amenity/charging_station/repsol-3948da":{"name":"Repsol","locationSet":{"include":["es","pt"]},"geometry":["point","vertex","area"],"matchScore":2,"terms":["repsol"],"fields":["name","operator","{amenity/charging_station}"],"tags":{"amenity":"charging_station","operator:wikidata":"Q174747"},"addTags":{"amenity":"charging_station","operator":"Repsol","operator:wikidata":"Q174747"}},"amenity/clinic/ministeriodasaude-3f54c3":{"name":"Ministério da Saúde (Portugal)","locationSet":{"include":["pt"]},"geometry":["point","area"],"matchScore":2,"terms":["ministério da saúde"],"fields":["name","operator","{amenity/clinic}"],"reference":{"key":"amenity","value":"clinic"},"tags":{"amenity":"clinic","operator:wikidata":"Q4294357"},"addTags":{"amenity":"clinic","healthcare":"clinic","operator":"Ministério da Saúde","operator:wikidata":"Q4294357"}},"amenity/clinic/serviconacionaldesaude-3f54c3":{"name":"Serviço Nacional de Saúde (Portugal)","locationSet":{"include":["pt"]},"geometry":["point","area"],"matchScore":2,"terms":["serviço nacional de saúde","sns"],"fields":["name","operator","{amenity/clinic}"],"reference":{"key":"amenity","value":"clinic"},"tags":{"amenity":"clinic","operator:wikidata":"Q1299901"},"addTags":{"amenity":"clinic","healthcare":"clinic","operator":"Serviço Nacional de Saúde","operator:short":"SNS","operator:wikidata":"Q1299901"}},"amenity/hospital/ministeriodasaude-c20875":{"name":"Ministério da Saúde (Portugal)","locationSet":{"include":["pt"]},"geometry":["area","point"],"matchScore":2,"terms":["ministério da saúde"],"fields":["name","operator","{amenity/hospital}"],"reference":{"key":"amenity","value":"hospital"},"tags":{"amenity":"hospital","operator:wikidata":"Q4294357"},"addTags":{"amenity":"hospital","healthcare":"hospital","operator":"Ministério da Saúde","operator:wikidata":"Q4294357"}},"amenity/police/guardanacionalrepublicana-269632":{"name":"Guarda Nacional Republicana","locationSet":{"include":["pt"]},"geometry":["point","area"],"matchScore":2,"terms":["guarda nacional republicana"],"tags":{"amenity":"police","operator:wikidata":"Q1280906"},"addTags":{"amenity":"police","operator":"Guarda Nacional Republicana","operator:wikidata":"Q1280906"}},"amenity/police/policiadesegurancapublica-269632":{"name":"Polícia de Segurança Pública (Portugal)","locationSet":{"include":["pt"]},"geometry":["point","area"],"matchScore":2,"terms":["polícia de segurança pública","psp"],"tags":{"amenity":"police","operator:wikidata":"Q3460075"},"addTags":{"amenity":"police","operator":"Polícia de Segurança Pública","operator:short":"PSP","operator:wikidata":"Q3460075"}},"amenity/police/policiadoexercito-269632":{"name":"Polícia do Exército (Portugal)","locationSet":{"include":["pt"]},"geometry":["point","area"],"matchScore":2,"terms":["army police","lanceiro","lanceiros","pe","polícia do exército","polícia militar"],"tags":{"amenity":"police","operator:wikidata":"Q4794219"},"addTags":{"amenity":"police","operator":"Polícia do Exército","operator:en":"Army Police","operator:short":"PE","operator:wikidata":"Q4794219"}},"amenity/post_box/ctt-b2383c":{"name":"CTT (Portugal)","locationSet":{"include":["pt"]},"geometry":["point","vertex"],"matchScore":2,"terms":["ctt"],"tags":{"amenity":"post_box","operator:wikidata":"Q1024518"},"addTags":{"amenity":"post_box","operator":"CTT","operator:wikidata":"Q1024518"}},"amenity/post_box/mrw-f1512b":{"name":"MRW","locationSet":{"include":["ad","es","gi","pt","ve"]},"geometry":["point","vertex"],"matchScore":2,"terms":["mrw"],"tags":{"amenity":"post_box","operator:wikidata":"Q23767821"},"addTags":{"amenity":"post_box","operator":"MRW","operator:wikidata":"Q23767821"}},"amenity/post_depot/mrw-71d94f":{"name":"MRW","locationSet":{"include":["ad","es","gi","pt","ve"]},"geometry":["point","area"],"matchScore":2,"terms":["mrw"],"fields":["name","operator","{amenity/post_depot}"],"tags":{"amenity":"post_depot","operator:wikidata":"Q23767821"},"addTags":{"amenity":"post_depot","operator":"MRW","operator:wikidata":"Q23767821"}},"amenity/post_depot/seur-449920":{"name":"SEUR","locationSet":{"include":["es","pt"]},"geometry":["point","area"],"matchScore":2,"terms":["seur"],"fields":["name","operator","{amenity/post_depot}"],"tags":{"amenity":"post_depot","operator:wikidata":"Q9076554"},"addTags":{"amenity":"post_depot","operator":"SEUR","operator:wikidata":"Q9076554"}},"amenity/post_office/ctt-5666eb":{"name":"CTT (Portugal)","locationSet":{"include":["pt"]},"geometry":["point","area"],"matchScore":2,"terms":["ctt"],"fields":["name","operator","{amenity/post_office}"],"tags":{"amenity":"post_office","operator:wikidata":"Q1024518"},"addTags":{"amenity":"post_office","operator":"CTT","operator:wikidata":"Q1024518"}},"amenity/post_office/mrw-0a445b":{"name":"MRW","locationSet":{"include":["ad","es","gi","pt","ve"]},"geometry":["point","area"],"matchScore":2,"terms":["mrw"],"fields":["name","operator","{amenity/post_office}"],"tags":{"amenity":"post_office","operator:wikidata":"Q23767821"},"addTags":{"amenity":"post_office","operator":"MRW","operator:wikidata":"Q23767821"}},"amenity/recycling/remondis-222d99":{"name":"REMONDIS","locationSet":{"include":["by","bg","cz","hu","pl","md","ro","ru","sk","ua","ax","gg","je","cq","dk","ee","fo","fi","is","ie","im","lv","lt","no","sj","se","gb","al","ad","ba","hr","gi","gr","va","it","mt","me","mk","pt","sm","rs","si","es","xk","at","be","fr","de","li","lu","mc","nl","ch"]},"geometry":["point","area"],"matchScore":2,"terms":["remondis"],"tags":{"amenity":"recycling","operator:wikidata":"Q884975"},"addTags":{"amenity":"recycling","operator":"REMONDIS","operator:wikidata":"Q884975"}},"amenity/social_facility/domusvi-b1535f":{"name":"DomusVi","locationSet":{"include":["es","fx","pt"]},"geometry":["point","area"],"matchScore":2,"terms":["domusvi"],"tags":{"amenity":"social_facility","operator:wikidata":"Q111208441"},"addTags":{"amenity":"social_facility","operator":"DomusVi","operator:wikidata":"Q111208441"}},"amenity/telephone/alticeportugal-b47ccc":{"name":"Altice Portugal","locationSet":{"include":["pt"]},"geometry":["point","vertex"],"matchScore":2,"terms":["altice","altice portugal","portugal telecom","pt"],"fields":["name","operator","{amenity/telephone}"],"tags":{"amenity":"telephone","operator:wikidata":"Q2105426"},"addTags":{"amenity":"telephone","operator":"Altice Portugal","operator:wikidata":"Q2105426"}},"boundary/institutodaconservacaodanaturezaedasflorestas-745874":{"name":"Instituto da Conservação da Natureza e das Florestas","locationSet":{"include":["pt"]},"geometry":["line"],"matchScore":2,"terms":["icnf","instituto da conservação da natureza e das florestas"],"tags":{"boundary":"protected_area","operator:wikidata":"Q6039514"},"addTags":{"boundary":"protected_area","operator":"Instituto da Conservação da Natureza e das Florestas","operator:short":"ICNF","operator:wikidata":"Q6039514"}},"leisure/nature_reserve/camaramunicipaldelisboa-724f7c":{"name":"Câmara Municipal de Lisboa","locationSet":{"include":["pt"]},"geometry":["area","point"],"matchScore":2,"terms":["câmara municipal de lisboa"],"tags":{"leisure":"nature_reserve","operator:wikidata":"Q30255955"},"addTags":{"leisure":"nature_reserve","operator":"Câmara Municipal de Lisboa","operator:type":"government","operator:wikidata":"Q30255955"}},"leisure/park/camaramunicipaldelisboa-1913f6":{"name":"Câmara Municipal de Lisboa","locationSet":{"include":["pt"]},"geometry":["area","point"],"matchScore":2,"terms":["câmara municipal de lisboa"],"tags":{"leisure":"park","operator:wikidata":"Q30255955"},"addTags":{"leisure":"park","operator":"Câmara Municipal de Lisboa","operator:type":"government","operator:wikidata":"Q30255955"}},"man_made/charge_point/bluecharge-009624":{"name":"Bluecharge","locationSet":{"include":["pt"]},"geometry":["point"],"matchScore":2,"terms":["bluecharge"],"fields":["name","operator","{man_made/charge_point}"],"tags":{"man_made":"charge_point","operator:wikidata":"Q113289672"},"addTags":{"man_made":"charge_point","operator":"Bluecharge","operator:wikidata":"Q113289672"}},"man_made/charge_point/eon-22bfb3":{"name":"E.ON","locationSet":{"include":["by","bg","cz","hu","pl","md","ro","ru","sk","ua","ax","gg","je","cq","dk","ee","fo","fi","is","ie","im","lv","lt","no","sj","se","gb","al","ad","ba","hr","gi","gr","va","it","mt","me","mk","pt","sm","rs","si","es","xk","at","be","fr","de","li","lu","mc","nl","ch"]},"geometry":["point"],"matchScore":2,"terms":["e-on drive","e.on"],"fields":["name","operator","{man_made/charge_point}"],"tags":{"man_made":"charge_point","operator:wikidata":"Q270223"},"addTags":{"man_made":"charge_point","operator":"E.ON","operator:wikidata":"Q270223"}},"man_made/charge_point/edp-367d30":{"name":"EDP","locationSet":{"include":["br","es","pt"]},"geometry":["point"],"matchScore":2,"terms":["edp","edp comercial"],"fields":["name","operator","{man_made/charge_point}"],"tags":{"man_made":"charge_point","operator:wikidata":"Q1341222"},"addTags":{"man_made":"charge_point","operator":"EDP","operator:wikidata":"Q1341222"}},"man_made/charge_point/evbox-22bfb3":{"name":"EVBox","locationSet":{"include":["by","bg","cz","hu","pl","md","ro","ru","sk","ua","ax","gg","je","cq","dk","ee","fo","fi","is","ie","im","lv","lt","no","sj","se","gb","al","ad","ba","hr","gi","gr","va","it","mt","me","mk","pt","sm","rs","si","es","xk","at","be","fr","de","li","lu","mc","nl","ch"]},"geometry":["point"],"matchScore":2,"terms":["evbox"],"fields":["name","operator","{man_made/charge_point}"],"tags":{"man_made":"charge_point","operator:wikidata":"Q28406392"},"addTags":{"man_made":"charge_point","operator":"EVBox","operator:wikidata":"Q28406392"}},"man_made/charge_point/mercadona-b3093e":{"name":"Mercadona","locationSet":{"include":["es","pt"]},"geometry":["point"],"matchScore":2,"terms":["mercadona"],"fields":["name","operator","{man_made/charge_point}"],"tags":{"man_made":"charge_point","operator:wikidata":"Q377705"},"addTags":{"man_made":"charge_point","operator":"Mercadona","operator:wikidata":"Q377705"}},"man_made/charge_point/qpark-22bfb3":{"name":"Q-Park","locationSet":{"include":["by","bg","cz","hu","pl","md","ro","ru","sk","ua","ax","gg","je","cq","dk","ee","fo","fi","is","ie","im","lv","lt","no","sj","se","gb","al","ad","ba","hr","gi","gr","va","it","mt","me","mk","pt","sm","rs","si","es","xk","at","be","fr","de","li","lu","mc","nl","ch"]},"geometry":["point"],"matchScore":2,"terms":["q-park"],"fields":["name","operator","{man_made/charge_point}"],"tags":{"man_made":"charge_point","operator:wikidata":"Q1127798"},"addTags":{"man_made":"charge_point","operator":"Q-Park","operator:wikidata":"Q1127798"}},"man_made/charge_point/repsol-b3093e":{"name":"Repsol","locationSet":{"include":["es","pt"]},"geometry":["point"],"matchScore":2,"terms":["repsol"],"fields":["name","operator","{man_made/charge_point}"],"tags":{"man_made":"charge_point","operator:wikidata":"Q174747"},"addTags":{"man_made":"charge_point","operator":"Repsol","operator:wikidata":"Q174747"}},"office/energy_supplier/eredes-3edaec":{"name":"E-REDES","locationSet":{"include":["pt"]},"geometry":["point","area"],"matchScore":2,"terms":["e-redes"],"tags":{"office":"energy_supplier","operator:wikidata":"Q111843687"},"addTags":{"name":"E-REDES","office":"energy_supplier","operator":"E-REDES","operator:wikidata":"Q111843687"}},"office/energy_supplier/naturgy-e15d8a":{"name":"Naturgy","locationSet":{"include":["ar","au","be","br","cl","cn","cr","de","do","dz","eg","es","fr","gb","ie","in","jm","jo","jp","lu","ma","mx","nl","om","pa","pe","pk","pr","pt","sg"]},"geometry":["point","area"],"matchScore":2,"terms":["naturgy"],"tags":{"office":"energy_supplier","operator:wikidata":"Q474690"},"addTags":{"name":"Naturgy","office":"energy_supplier","operator":"Naturgy","operator:wikidata":"Q474690"}},"power/catenary_mast/comboiosdeportugal-58c517":{"name":"Comboios de Portugal","locationSet":{"include":["pt"]},"geometry":["point","vertex"],"matchScore":2,"terms":["comboios de portugal","companhia dos caminhos de ferro portugueses","cp","cp comboios de portugal"],"tags":{"operator:wikidata":"Q81123","power":"catenary_mast"},"addTags":{"operator":"Comboios de Portugal","operator:wikidata":"Q81123","power":"catenary_mast"}},"power/catenary_mast/infraestruturasdeportugal-58c517":{"name":"Infraestruturas de Portugal","locationSet":{"include":["pt"]},"geometry":["point","vertex"],"matchScore":2,"terms":["infraestruturas de portugal"],"tags":{"operator:wikidata":"Q20730106","power":"catenary_mast"},"addTags":{"operator":"Infraestruturas de Portugal","operator:wikidata":"Q20730106","power":"catenary_mast"}},"power/generator/energiekontor-b85a3e":{"name":"Energiekontor","locationSet":{"include":["de","gb","nl","pt"]},"geometry":["point","vertex","area"],"matchScore":2,"terms":["energiekontor","energiekontor windkraft gmbh & co wp nl kg"],"tags":{"operator:wikidata":"Q1341306","power":"generator"},"addTags":{"operator":"Energiekontor","operator:wikidata":"Q1341306","power":"generator"}},"power/generator/innogy-16c9d0":{"name":"Innogy","locationSet":{"include":["by","bg","cz","hu","pl","md","ro","ru","sk","ua","ax","gg","je","cq","dk","ee","fo","fi","is","ie","im","lv","lt","no","sj","se","gb","al","ad","ba","hr","gi","gr","va","it","mt","me","mk","pt","sm","rs","si","es","xk","at","be","fr","de","li","lu","mc","nl","ch"]},"geometry":["point","vertex","area"],"matchScore":2,"terms":["innogy"],"tags":{"operator:wikidata":"Q2124721","power":"generator"},"addTags":{"operator":"Innogy","operator:wikidata":"Q2124721","power":"generator"}},"power/generator/rwe-16c9d0":{"name":"RWE","locationSet":{"include":["by","bg","cz","hu","pl","md","ro","ru","sk","ua","ax","gg","je","cq","dk","ee","fo","fi","is","ie","im","lv","lt","no","sj","se","gb","al","ad","ba","hr","gi","gr","va","it","mt","me","mk","pt","sm","rs","si","es","xk","at","be","fr","de","li","lu","mc","nl","ch"]},"geometry":["point","vertex","area"],"matchScore":2,"terms":["rwe"],"tags":{"operator:wikidata":"Q138133","power":"generator"},"addTags":{"operator":"RWE","operator:wikidata":"Q138133","power":"generator"}},"power/generator/statkraft-16c9d0":{"name":"Statkraft","locationSet":{"include":["by","bg","cz","hu","pl","md","ro","ru","sk","ua","ax","gg","je","cq","dk","ee","fo","fi","is","ie","im","lv","lt","no","sj","se","gb","al","ad","ba","hr","gi","gr","va","it","mt","me","mk","pt","sm","rs","si","es","xk","at","be","fr","de","li","lu","mc","nl","ch"]},"geometry":["point","vertex","area"],"matchScore":2,"terms":["statkraft"],"tags":{"operator:wikidata":"Q1681145","power":"generator"},"addTags":{"operator":"Statkraft","operator:wikidata":"Q1681145","power":"generator"}},"power/generator/uniper-16c9d0":{"name":"Uniper","locationSet":{"include":["by","bg","cz","hu","pl","md","ro","ru","sk","ua","ax","gg","je","cq","dk","ee","fo","fi","is","ie","im","lv","lt","no","sj","se","gb","al","ad","ba","hr","gi","gr","va","it","mt","me","mk","pt","sm","rs","si","es","xk","at","be","fr","de","li","lu","mc","nl","ch"]},"geometry":["point","vertex","area"],"matchScore":2,"terms":["uniper"],"tags":{"operator:wikidata":"Q19839259","power":"generator"},"addTags":{"operator":"Uniper","operator:wikidata":"Q19839259","power":"generator"}},"power/generator/wpo-16c9d0":{"name":"WPO","locationSet":{"include":["by","bg","cz","hu","pl","md","ro","ru","sk","ua","ax","gg","je","cq","dk","ee","fo","fi","is","ie","im","lv","lt","no","sj","se","gb","al","ad","ba","hr","gi","gr","va","it","mt","me","mk","pt","sm","rs","si","es","xk","at","be","fr","de","li","lu","mc","nl","ch"]},"geometry":["point","vertex","area"],"matchScore":2,"terms":["wpo"],"tags":{"operator:wikidata":"Q64755627","power":"generator"},"addTags":{"operator":"WPO","operator:wikidata":"Q64755627","power":"generator"}},"power/line/eredes-4d28c7":{"name":"E-REDES","locationSet":{"include":["pt"]},"geometry":["line"],"matchScore":2,"terms":["e-redes","edp","edp distribuição"],"tags":{"operator:wikidata":"Q111843687","power":"line"},"addTags":{"operator":"E-REDES","operator:wikidata":"Q111843687","power":"line"}},"power/line/ren-4d28c7":{"name":"REN","locationSet":{"include":["pt"]},"geometry":["line"],"matchScore":2,"terms":["redes energéticas nacionais","ren"],"tags":{"operator:wikidata":"Q1862842","power":"line"},"addTags":{"operator":"REN","operator:wikidata":"Q1862842","power":"line"}},"power/minor_line/eredes-a8586b":{"name":"E-REDES","locationSet":{"include":["pt"]},"geometry":["line"],"matchScore":2,"terms":["e-redes","edp","edp distribuição"],"tags":{"operator:wikidata":"Q111843687","power":"minor_line"},"addTags":{"operator":"E-REDES","operator:wikidata":"Q111843687","power":"minor_line"}},"power/minor_line/ren-a8586b":{"name":"REN","locationSet":{"include":["pt"]},"geometry":["line"],"matchScore":2,"terms":["redes energéticas nacionais","ren"],"tags":{"operator:wikidata":"Q1862842","power":"minor_line"},"addTags":{"operator":"REN","operator:wikidata":"Q1862842","power":"minor_line"}},"power/plant/energiasdeportugal-6bc5f8":{"name":"Energias de Portugal","locationSet":{"include":["pt"]},"geometry":["area"],"matchScore":2,"terms":["edp","energias de portugal"],"tags":{"operator:wikidata":"Q1341222","power":"plant"},"addTags":{"operator":"Energias de Portugal","operator:short":"EDP","operator:wikidata":"Q1341222","power":"plant"}},"power/pole/eredes-0223fd":{"name":"E-REDES","locationSet":{"include":["pt"]},"geometry":["point","vertex"],"matchScore":2,"terms":["e-redes","edp","edp distribuição"],"tags":{"operator:wikidata":"Q111843687","power":"pole"},"addTags":{"operator":"E-REDES","operator:wikidata":"Q111843687","power":"pole"}},"power/pole/ren-0223fd":{"name":"REN","locationSet":{"include":["pt"]},"geometry":["point","vertex"],"matchScore":2,"terms":["redes energéticas nacionais","ren"],"tags":{"operator:wikidata":"Q1862842","power":"pole"},"addTags":{"operator":"REN","operator:wikidata":"Q1862842","power":"pole"}},"power/substation/eredes-108ef7":{"name":"E-REDES","locationSet":{"include":["pt"]},"geometry":["area","point"],"matchScore":2,"terms":["e-redes","edp","edp distribuição"],"tags":{"operator:wikidata":"Q111843687","power":"substation"},"addTags":{"operator":"E-REDES","operator:wikidata":"Q111843687","power":"substation"}},"power/substation/infraestruturasdeportugal-108ef7":{"name":"Infraestruturas de Portugal","locationSet":{"include":["pt"]},"geometry":["area","point"],"matchScore":2,"terms":["infraestruturas de portugal"],"tags":{"operator:wikidata":"Q20730106","power":"substation"},"addTags":{"operator":"Infraestruturas de Portugal","operator:wikidata":"Q20730106","power":"substation"}},"power/substation/ren-108ef7":{"name":"REN","locationSet":{"include":["pt"]},"geometry":["area","point"],"matchScore":2,"terms":["redes energéticas nacionais","ren"],"tags":{"operator:wikidata":"Q1862842","power":"substation"},"addTags":{"operator":"REN","operator:wikidata":"Q1862842","power":"substation"}},"power/tower/eredes-331927":{"name":"E-REDES","locationSet":{"include":["pt"]},"geometry":["point","vertex"],"matchScore":2,"terms":["e-redes","edp","edp distribuição"],"tags":{"operator:wikidata":"Q111843687","power":"tower"},"addTags":{"operator":"E-REDES","operator:wikidata":"Q111843687","power":"tower"}},"power/tower/ren-331927":{"name":"REN","locationSet":{"include":["pt"]},"geometry":["point","vertex"],"matchScore":2,"terms":["redes energéticas nacionais","ren"],"tags":{"operator:wikidata":"Q1862842","power":"tower"},"addTags":{"operator":"REN","operator:wikidata":"Q1862842","power":"tower"}},"power/transformer/eredes-e26b9a":{"name":"E-REDES","locationSet":{"include":["pt"]},"geometry":["point","vertex"],"matchScore":2,"terms":["e-redes","edp","edp distribuição"],"tags":{"operator:wikidata":"Q111843687","power":"transformer"},"addTags":{"operator":"E-REDES","operator:wikidata":"Q111843687","power":"transformer"}},"power/transformer/infraestruturasdeportugal-e26b9a":{"name":"Infraestruturas de Portugal","locationSet":{"include":["pt"]},"geometry":["point","vertex"],"matchScore":2,"terms":["infraestruturas de portugal"],"tags":{"operator:wikidata":"Q20730106","power":"transformer"},"addTags":{"operator":"Infraestruturas de Portugal","operator:wikidata":"Q20730106","power":"transformer"}},"power/transformer/ren-e26b9a":{"name":"REN","locationSet":{"include":["pt"]},"geometry":["point","vertex"],"matchScore":2,"terms":["redes energéticas nacionais","ren"],"tags":{"operator:wikidata":"Q1862842","power":"transformer"},"addTags":{"operator":"REN","operator:wikidata":"Q1862842","power":"transformer"}},"type/route/railway/comboiosdeportugal-6391e0":{"name":"Comboios de Portugal","locationSet":{"include":["pt"]},"geometry":["relation"],"matchScore":2,"terms":["comboios de portugal","companhia dos caminhos de ferro portugueses","cp","cp comboios de portugal"],"reference":{"key":"route","value":"railway"},"tags":{"operator:wikidata":"Q81123","route":"railway","type":"route"},"addTags":{"operator":"Comboios de Portugal","operator:wikidata":"Q81123","route":"railway","type":"route"}},"type/route/railway/infraestruturasdeportugal-6391e0":{"name":"Infraestruturas de Portugal","locationSet":{"include":["pt"]},"geometry":["relation"],"matchScore":2,"terms":["infraestruturas de portugal"],"reference":{"key":"route","value":"railway"},"tags":{"operator:wikidata":"Q20730106","route":"railway","type":"route"},"addTags":{"operator":"Infraestruturas de Portugal","operator:wikidata":"Q20730106","route":"railway","type":"route"}},"telecom/exchange/interoute-58ec5d":{"name":"Interoute","locationSet":{"include":["by","bg","cz","hu","pl","md","ro","ru","sk","ua","ax","gg","je","cq","dk","ee","fo","fi","is","ie","im","lv","lt","no","sj","se","gb","al","ad","ba","hr","gi","gr","va","it","mt","me","mk","pt","sm","rs","si","es","xk","at","be","fr","de","li","lu","mc","nl","ch"]},"geometry":["point","area"],"matchScore":2,"terms":["interoute"],"fields":["name","operator","{telecom/exchange}"],"tags":{"operator:wikidata":"Q1668090","telecom":"exchange"},"addTags":{"operator":"Interoute","operator:wikidata":"Q1668090","telecom":"exchange"}},"public_transport/platform/bus_point/carris-d62b2b":{"name":"Carris","locationSet":{"include":["pt"]},"geometry":["point","vertex"],"matchScore":2,"terms":["carris"],"reference":{"key":"public_transport","value":"platform"},"tags":{"bus":"yes","network:wikidata":"Q1045108","public_transport":"platform"},"addTags":{"bus":"yes","highway":"bus_stop","network":"Carris","network:wikidata":"Q1045108","operator":"Carris","operator:wikidata":"Q1045108","public_transport":"platform"}},"public_transport/platform/bus_point/flixbus-f5b4b3":{"name":"Flixbus","locationSet":{"include":["by","bg","cz","hu","pl","md","ro","ru","sk","ua","ax","gg","je","cq","dk","ee","fo","fi","is","ie","im","lv","lt","no","sj","se","gb","al","ad","ba","hr","gi","gr","va","it","mt","me","mk","pt","sm","rs","si","es","xk","at","be","fr","de","li","lu","mc","nl","ch","br","ca","us"]},"geometry":["point","vertex"],"matchScore":2,"terms":["flixbus"],"reference":{"key":"public_transport","value":"platform"},"tags":{"bus":"yes","network:wikidata":"Q15712258","public_transport":"platform"},"addTags":{"bus":"yes","highway":"bus_stop","network":"Flixbus","network:wikidata":"Q15712258","public_transport":"platform"}},"public_transport/platform/bus_point/mobicascais-d62b2b":{"name":"MobiCascais","locationSet":{"include":["pt"]},"geometry":["point","vertex"],"matchScore":2,"terms":["mobicascais"],"reference":{"key":"public_transport","value":"platform"},"tags":{"bus":"yes","network:wikidata":"Q85875734","public_transport":"platform"},"addTags":{"bus":"yes","highway":"bus_stop","network":"MobiCascais","network:wikidata":"Q85875734","public_transport":"platform"}},"public_transport/platform/bus_point/muv-d62b2b":{"name":"MUV","locationSet":{"include":["pt"]},"geometry":["point","vertex"],"matchScore":2,"terms":["muv"],"reference":{"key":"public_transport","value":"platform"},"tags":{"bus":"yes","network:wikidata":"Q63247817","public_transport":"platform"},"addTags":{"bus":"yes","highway":"bus_stop","network":"MUV","network:wikidata":"Q63247817","public_transport":"platform"}},"public_transport/platform/bus_point/rodoviariadelisboa-d62b2b":{"name":"Rodoviária de Lisboa","locationSet":{"include":["pt"]},"geometry":["point","vertex"],"matchScore":2,"terms":["rodoviária de lisboa"],"reference":{"key":"public_transport","value":"platform"},"tags":{"bus":"yes","network:wikidata":"Q1396193","public_transport":"platform"},"addTags":{"bus":"yes","highway":"bus_stop","network":"Rodoviária de Lisboa","network:wikidata":"Q1396193","public_transport":"platform"}},"public_transport/platform/bus_point/smtuc-d62b2b":{"name":"SMTUC","locationSet":{"include":["pt"]},"geometry":["point","vertex"],"matchScore":2,"terms":["smtuc"],"reference":{"key":"public_transport","value":"platform"},"tags":{"bus":"yes","network:wikidata":"Q3958126","public_transport":"platform"},"addTags":{"bus":"yes","highway":"bus_stop","network":"SMTUC","network:wikidata":"Q3958126","public_transport":"platform"}},"public_transport/platform/bus_point/transportessuldotejo-d62b2b":{"name":"Transportes Sul do Tejo","locationSet":{"include":["pt"]},"geometry":["point","vertex"],"matchScore":2,"terms":["transportes sul do tejo"],"reference":{"key":"public_transport","value":"platform"},"tags":{"bus":"yes","network:wikidata":"Q2449659","public_transport":"platform"},"addTags":{"bus":"yes","highway":"bus_stop","network":"Transportes Sul do Tejo","network:wikidata":"Q2449659","public_transport":"platform"}},"public_transport/platform/bus_point/tuvrurbanos-d62b2b":{"name":"TUVR: Urbanos","locationSet":{"include":["pt"]},"geometry":["point","vertex"],"matchScore":2,"terms":["tuvr: urbanos"],"reference":{"key":"public_transport","value":"platform"},"tags":{"bus":"yes","network:wikidata":"Q113381100","public_transport":"platform"},"addTags":{"bus":"yes","highway":"bus_stop","network":"TUVR: Urbanos","network:wikidata":"Q113381100","public_transport":"platform"}},"public_transport/platform/bus_point/vimeca-d62b2b":{"name":"Vimeca","locationSet":{"include":["pt"]},"geometry":["point","vertex"],"matchScore":2,"terms":["vimeca"],"reference":{"key":"public_transport","value":"platform"},"tags":{"bus":"yes","network:wikidata":"Q1603316","public_transport":"platform"},"addTags":{"bus":"yes","highway":"bus_stop","network":"Vimeca","network:wikidata":"Q1603316","public_transport":"platform"}},"railway/station/cplisboa-7e7b38":{"name":"CP Lisboa","locationSet":{"include":["pt"]},"geometry":["point","vertex","area"],"matchScore":2,"terms":["cp lisboa","cp urbanos de lisboa"],"tags":{"network:wikidata":"Q847651","railway":"station"},"addTags":{"network":"CP Lisboa","network:wikidata":"Q847651","public_transport":"station","railway":"station","train":"yes"}},"railway/station/cplongocurso-7e7b38":{"name":"CP Longo Curso","locationSet":{"include":["pt"]},"geometry":["point","vertex","area"],"matchScore":2,"terms":["cp longo curso"],"tags":{"network:wikidata":"Q1024241","railway":"station"},"addTags":{"network":"CP Longo Curso","network:wikidata":"Q1024241","public_transport":"station","railway":"station","train":"yes"}},"railway/station/cpporto-7e7b38":{"name":"CP Porto","locationSet":{"include":["pt"]},"geometry":["point","vertex","area"],"matchScore":2,"terms":["cp porto","cp urbanos do porto"],"tags":{"network:wikidata":"Q2624115","railway":"station"},"addTags":{"network":"CP Porto","network:wikidata":"Q2624115","public_transport":"station","railway":"station","train":"yes"}},"railway/station/cpregional-7e7b38":{"name":"CP Regional","locationSet":{"include":["pt"]},"geometry":["point","vertex","area"],"matchScore":2,"terms":["cp regional"],"tags":{"network:wikidata":"Q1024244","railway":"station"},"addTags":{"network":"CP Regional","network:wikidata":"Q1024244","public_transport":"station","railway":"station","train":"yes"}},"railway/station/eurocity-170b77":{"name":"EuroCity","locationSet":{"include":["by","bg","cz","hu","pl","md","ro","ru","sk","ua","ax","gg","je","cq","dk","ee","fo","fi","is","ie","im","lv","lt","no","sj","se","gb","al","ad","ba","hr","gi","gr","va","it","mt","me","mk","pt","sm","rs","si","es","xk","at","be","fr","de","li","lu","mc","nl","ch"]},"geometry":["point","vertex","area"],"matchScore":2,"terms":["eurocity"],"tags":{"network:wikidata":"Q753050","railway":"station"},"addTags":{"network":"EuroCity","network:wikidata":"Q753050","public_transport":"station","railway":"station","train":"yes"}},"railway/station/euronight-170b77":{"name":"EuroNight","locationSet":{"include":["by","bg","cz","hu","pl","md","ro","ru","sk","ua","ax","gg","je","cq","dk","ee","fo","fi","is","ie","im","lv","lt","no","sj","se","gb","al","ad","ba","hr","gi","gr","va","it","mt","me","mk","pt","sm","rs","si","es","xk","at","be","fr","de","li","lu","mc","nl","ch"]},"geometry":["point","vertex","area"],"matchScore":2,"terms":["euronight"],"tags":{"network:wikidata":"Q257307","railway":"station"},"addTags":{"network":"EuroNight","network:wikidata":"Q257307","public_transport":"station","railway":"station","train":"yes"}},"railway/tram_stop/carris-5b2c50":{"name":"Carris","locationSet":{"include":["pt"]},"geometry":["vertex"],"matchScore":2,"terms":["carris"],"tags":{"network:wikidata":"Q1045108","railway":"tram_stop"},"addTags":{"network":"Carris","network:wikidata":"Q1045108","operator":"Carris","operator:wikidata":"Q1045108","railway":"tram_stop"}},"type/route/bus/carris-d8d67b":{"name":"Carris","locationSet":{"include":["pt"]},"geometry":["relation"],"matchScore":2,"terms":["carris"],"reference":{"key":"route","value":"bus"},"tags":{"network:wikidata":"Q1045108","route":"bus","type":"route"},"addTags":{"network":"Carris","network:wikidata":"Q1045108","operator":"Carris","operator:wikidata":"Q1045108","route":"bus","type":"route"}},"type/route/bus/flixbus-8cc9ca":{"name":"Flixbus","locationSet":{"include":["by","bg","cz","hu","pl","md","ro","ru","sk","ua","ax","gg","je","cq","dk","ee","fo","fi","is","ie","im","lv","lt","no","sj","se","gb","al","ad","ba","hr","gi","gr","va","it","mt","me","mk","pt","sm","rs","si","es","xk","at","be","fr","de","li","lu","mc","nl","ch","br","ca","us"]},"geometry":["relation"],"matchScore":2,"terms":["flixbus"],"reference":{"key":"route","value":"bus"},"tags":{"network:wikidata":"Q15712258","route":"bus","type":"route"},"addTags":{"network":"Flixbus","network:wikidata":"Q15712258","route":"bus","type":"route"}},"type/route/bus/mobicascais-d8d67b":{"name":"MobiCascais","locationSet":{"include":["pt"]},"geometry":["relation"],"matchScore":2,"terms":["mobicascais"],"reference":{"key":"route","value":"bus"},"tags":{"network:wikidata":"Q85875734","route":"bus","type":"route"},"addTags":{"network":"MobiCascais","network:wikidata":"Q85875734","route":"bus","type":"route"}},"type/route/bus/muv-d8d67b":{"name":"MUV","locationSet":{"include":["pt"]},"geometry":["relation"],"matchScore":2,"terms":["muv"],"reference":{"key":"route","value":"bus"},"tags":{"network:wikidata":"Q63247817","route":"bus","type":"route"},"addTags":{"network":"MUV","network:wikidata":"Q63247817","route":"bus","type":"route"}},"type/route/bus/rodoviariadelisboa-d8d67b":{"name":"Rodoviária de Lisboa","locationSet":{"include":["pt"]},"geometry":["relation"],"matchScore":2,"terms":["rodoviária de lisboa"],"reference":{"key":"route","value":"bus"},"tags":{"network:wikidata":"Q1396193","route":"bus","type":"route"},"addTags":{"network":"Rodoviária de Lisboa","network:wikidata":"Q1396193","route":"bus","type":"route"}},"type/route/bus/smtuc-d8d67b":{"name":"SMTUC","locationSet":{"include":["pt"]},"geometry":["relation"],"matchScore":2,"terms":["smtuc"],"reference":{"key":"route","value":"bus"},"tags":{"network:wikidata":"Q3958126","route":"bus","type":"route"},"addTags":{"network":"SMTUC","network:wikidata":"Q3958126","route":"bus","type":"route"}},"type/route/bus/transportessuldotejo-d8d67b":{"name":"Transportes Sul do Tejo","locationSet":{"include":["pt"]},"geometry":["relation"],"matchScore":2,"terms":["transportes sul do tejo"],"reference":{"key":"route","value":"bus"},"tags":{"network:wikidata":"Q2449659","route":"bus","type":"route"},"addTags":{"network":"Transportes Sul do Tejo","network:wikidata":"Q2449659","route":"bus","type":"route"}},"type/route/bus/tuvrurbanos-d8d67b":{"name":"TUVR: Urbanos","locationSet":{"include":["pt"]},"geometry":["relation"],"matchScore":2,"terms":["tuvr: urbanos"],"reference":{"key":"route","value":"bus"},"tags":{"network:wikidata":"Q113381100","route":"bus","type":"route"},"addTags":{"network":"TUVR: Urbanos","network:wikidata":"Q113381100","route":"bus","type":"route"}},"type/route/bus/vimeca-d8d67b":{"name":"Vimeca","locationSet":{"include":["pt"]},"geometry":["relation"],"matchScore":2,"terms":["vimeca"],"reference":{"key":"route","value":"bus"},"tags":{"network:wikidata":"Q1603316","route":"bus","type":"route"},"addTags":{"network":"Vimeca","network:wikidata":"Q1603316","route":"bus","type":"route"}},"type/route/light_rail/metrodoporto-16a21f":{"name":"Metro do Porto","locationSet":{"include":["pt"]},"geometry":["relation"],"matchScore":2,"terms":["andante","metro do porto","viaporto"],"reference":{"key":"route","value":"light_rail"},"tags":{"network:wikidata":"Q29757","route":"light_rail","type":"route"},"addTags":{"network":"Metro do Porto","network:wikidata":"Q29757","operator":"ViaPorto","route":"light_rail","type":"route"}},"type/route/subway/metropolitanodelisboa-01cd2d":{"name":"Metropolitano de Lisboa","locationSet":{"include":["pt"]},"geometry":["relation"],"matchScore":2,"terms":["metropolitano de lisboa"],"reference":{"key":"route","value":"subway"},"tags":{"network:wikidata":"Q746032","route":"subway","type":"route"},"addTags":{"network":"Metropolitano de Lisboa","network:wikidata":"Q746032","operator":"Metropolitano de Lisboa","operator:wikidata":"Q746032","route":"subway","type":"route"}},"type/route/train/cplisboa-3ee463":{"name":"CP Lisboa","locationSet":{"include":["pt"]},"geometry":["relation"],"matchScore":2,"terms":["cp lisboa","cp urbanos de lisboa"],"reference":{"key":"route","value":"train"},"tags":{"network:wikidata":"Q847651","route":"train","type":"route"},"addTags":{"network":"CP Lisboa","network:wikidata":"Q847651","route":"train","type":"route"}},"type/route/train/cplongocurso-3ee463":{"name":"CP Longo Curso","locationSet":{"include":["pt"]},"geometry":["relation"],"matchScore":2,"terms":["cp longo curso"],"reference":{"key":"route","value":"train"},"tags":{"network:wikidata":"Q1024241","route":"train","type":"route"},"addTags":{"network":"CP Longo Curso","network:wikidata":"Q1024241","route":"train","type":"route"}},"type/route/train/cpporto-3ee463":{"name":"CP Porto","locationSet":{"include":["pt"]},"geometry":["relation"],"matchScore":2,"terms":["cp porto","cp urbanos do porto"],"reference":{"key":"route","value":"train"},"tags":{"network:wikidata":"Q2624115","route":"train","type":"route"},"addTags":{"network":"CP Porto","network:wikidata":"Q2624115","route":"train","type":"route"}},"type/route/train/cpregional-3ee463":{"name":"CP Regional","locationSet":{"include":["pt"]},"geometry":["relation"],"matchScore":2,"terms":["cp regional"],"reference":{"key":"route","value":"train"},"tags":{"network:wikidata":"Q1024244","route":"train","type":"route"},"addTags":{"network":"CP Regional","network:wikidata":"Q1024244","route":"train","type":"route"}},"type/route/train/eurocity-6b9d23":{"name":"EuroCity","locationSet":{"include":["by","bg","cz","hu","pl","md","ro","ru","sk","ua","ax","gg","je","cq","dk","ee","fo","fi","is","ie","im","lv","lt","no","sj","se","gb","al","ad","ba","hr","gi","gr","va","it","mt","me","mk","pt","sm","rs","si","es","xk","at","be","fr","de","li","lu","mc","nl","ch"]},"geometry":["relation"],"matchScore":2,"terms":["eurocity"],"reference":{"key":"route","value":"train"},"tags":{"network:wikidata":"Q753050","route":"train","type":"route"},"addTags":{"network":"EuroCity","network:wikidata":"Q753050","route":"train","type":"route"}},"type/route/train/euronight-6b9d23":{"name":"EuroNight","locationSet":{"include":["by","bg","cz","hu","pl","md","ro","ru","sk","ua","ax","gg","je","cq","dk","ee","fo","fi","is","ie","im","lv","lt","no","sj","se","gb","al","ad","ba","hr","gi","gr","va","it","mt","me","mk","pt","sm","rs","si","es","xk","at","be","fr","de","li","lu","mc","nl","ch"]},"geometry":["relation"],"matchScore":2,"terms":["euronight"],"reference":{"key":"route","value":"train"},"tags":{"network:wikidata":"Q257307","route":"train","type":"route"},"addTags":{"network":"EuroNight","network:wikidata":"Q257307","route":"train","type":"route"}},"type/route/tram/carris-d4b068":{"name":"Carris","locationSet":{"include":["pt"]},"geometry":["relation"],"matchScore":2,"terms":["carris"],"reference":{"key":"route","value":"tram"},"tags":{"network:wikidata":"Q1045108","route":"tram","type":"route"},"addTags":{"network":"Carris","network:wikidata":"Q1045108","operator":"Carris","operator:wikidata":"Q1045108","route":"tram","type":"route"}}}