{"amenity/atm/akbank-6f1d1d":{"name":"Akbank","locationSet":{"include":["tr"]},"geometry":["point","vertex"],"matchScore":2,"terms":["akbank"],"fields":["name","brand","{amenity/atm}"],"tags":{"amenity":"atm","brand:wikidata":"Q416624"},"addTags":{"amenity":"atm","brand":"Akbank","brand:wikidata":"Q416624","operator":"Akbank","operator:wikidata":"Q416624"}},"amenity/atm/alternatifbank-6f1d1d":{"name":"Alternatif Bank","locationSet":{"include":["tr"]},"geometry":["point","vertex"],"matchScore":2,"terms":["alternatif bank"],"fields":["name","brand","{amenity/atm}"],"tags":{"amenity":"atm","brand:wikidata":"Q4736403"},"addTags":{"amenity":"atm","brand":"Alternatif Bank","brand:wikidata":"Q4736403","operator":"Alternatif Bank","operator:wikidata":"Q4736403"}},"amenity/atm/anadolubank-6f1d1d":{"name":"Anadolubank","locationSet":{"include":["tr"]},"geometry":["point","vertex"],"matchScore":2,"terms":["anadolubank"],"fields":["name","brand","{amenity/atm}"],"tags":{"amenity":"atm","brand:wikidata":"Q4750773"},"addTags":{"amenity":"atm","brand":"Anadolubank","brand:wikidata":"Q4750773","operator":"Anadolubank","operator:wikidata":"Q4750773"}},"amenity/atm/bnpparibas-6b438a":{"name":"BNP Paribas","locationSet":{"include":["ae","af","ar","at","bf","bg","bh","br","ca","ch","ci","cl","co","cz","de","dk","dz","es","fi","fr","gb","gf","gp","hu","ie","il","it","kw","lu","ma","ml","mq","mx","nl","no","pe","pt","qa","re","ro","ru","sa","se","sk","sn","tn","tr","us"]},"geometry":["point","vertex"],"matchScore":2,"terms":["bnp paribas"],"fields":["name","brand","{amenity/atm}"],"tags":{"amenity":"atm","brand:wikidata":"Q499707"},"addTags":{"amenity":"atm","brand":"BNP Paribas","brand:wikidata":"Q499707","operator":"BNP Paribas","operator:wikidata":"Q499707"}},"amenity/atm/fibabanka-6f1d1d":{"name":"Fibabanka","locationSet":{"include":["tr"]},"geometry":["point","vertex"],"matchScore":2,"terms":["fibabanka"],"fields":["name","brand","{amenity/atm}"],"tags":{"amenity":"atm","brand:wikidata":"Q5446343"},"addTags":{"amenity":"atm","brand":"Fibabanka","brand:wikidata":"Q5446343","operator":"Fibabanka","operator:wikidata":"Q5446343"}},"amenity/atm/halkbank-6f1d1d":{"name":"Halkbank","locationSet":{"include":["tr"]},"geometry":["point","vertex"],"matchScore":2,"terms":["halkbank"],"fields":["name","brand","{amenity/atm}"],"tags":{"amenity":"atm","brand:wikidata":"Q3593818"},"addTags":{"amenity":"atm","brand":"Halkbank","brand:wikidata":"Q3593818","operator":"Halkbank","operator:wikidata":"Q3593818"}},"amenity/atm/kuveytturk-6f1d1d":{"name":"Kuveyt Türk","locationSet":{"include":["tr"]},"geometry":["point","vertex"],"matchScore":2,"terms":["kuveyt türk"],"fields":["name","brand","{amenity/atm}"],"tags":{"amenity":"atm","brand:wikidata":"Q6036058"},"addTags":{"amenity":"atm","brand":"Kuveyt Türk","brand:wikidata":"Q6036058","operator":"Kuveyt Türk","operator:wikidata":"Q6036058"}},"amenity/atm/odeabank-6f1d1d":{"name":"Odeabank","locationSet":{"include":["tr"]},"geometry":["point","vertex"],"matchScore":2,"terms":["odeabank"],"fields":["name","brand","{amenity/atm}"],"tags":{"amenity":"atm","brand:wikidata":"Q6036742"},"addTags":{"amenity":"atm","brand":"Odeabank","brand:wikidata":"Q6036742","operator":"Odeabank","operator:wikidata":"Q6036742"}},"amenity/atm/qnbfinansbank-6f1d1d":{"name":"QNB Finansbank","locationSet":{"include":["tr"]},"geometry":["point","vertex"],"matchScore":2,"terms":["finansbank","qnb","qnb finansbank"],"fields":["name","brand","{amenity/atm}"],"tags":{"amenity":"atm","brand:wikidata":"Q1416237"},"addTags":{"amenity":"atm","brand":"QNB Finansbank","brand:wikidata":"Q1416237","operator":"QNB Finansbank","operator:wikidata":"Q1416237"}},"amenity/atm/sekerbank-6f1d1d":{"name":"Şekerbank","locationSet":{"include":["tr"]},"geometry":["point","vertex"],"matchScore":2,"terms":["şekerbank"],"fields":["name","brand","{amenity/atm}"],"tags":{"amenity":"atm","brand:wikidata":"Q6088369"},"addTags":{"amenity":"atm","brand":"Şekerbank","brand:wikidata":"Q6088369","operator":"Şekerbank","operator:wikidata":"Q6088369"}},"amenity/atm/teb-6f1d1d":{"name":"TEB","locationSet":{"include":["tr"]},"geometry":["point","vertex"],"matchScore":2,"terms":["teb","türk ekonomi bankası"],"fields":["name","brand","{amenity/atm}"],"tags":{"amenity":"atm","brand:wikidata":"Q7862447"},"addTags":{"amenity":"atm","brand":"TEB","brand:wikidata":"Q7862447","operator":"TEB","operator:wikidata":"Q7862447"}},"amenity/atm/turkiyeisbankasi-6f1d1d":{"name":"Türkiye İş Bankası","locationSet":{"include":["tr"]},"geometry":["point","vertex"],"matchScore":2,"terms":["isbank","isbankasi","isbankasiatm","türkiye i̇ş bankası"],"fields":["name","brand","{amenity/atm}"],"tags":{"amenity":"atm","brand:wikidata":"Q909613"},"addTags":{"amenity":"atm","brand":"Türkiye İş Bankası","brand:wikidata":"Q909613","operator":"Türkiye İş Bankası","operator:wikidata":"Q909613"}},"amenity/atm/vakifkatilim-6f1d1d":{"name":"Vakıf Katılım","locationSet":{"include":["tr"]},"geometry":["point","vertex"],"matchScore":2,"terms":["vakıf katılım"],"fields":["name","brand","{amenity/atm}"],"tags":{"amenity":"atm","brand:wikidata":"Q31188912"},"addTags":{"amenity":"atm","brand":"Vakıf Katılım","brand:wikidata":"Q31188912","operator":"Vakıf Katılım","operator:wikidata":"Q31188912"}},"amenity/atm/vakifbank-6f1d1d":{"name":"Vakıfbank","locationSet":{"include":["tr"]},"geometry":["point","vertex"],"matchScore":2,"terms":["vakıfbank"],"fields":["name","brand","{amenity/atm}"],"tags":{"amenity":"atm","brand:wikidata":"Q1148521"},"addTags":{"amenity":"atm","brand":"Vakıfbank","brand:wikidata":"Q1148521","operator":"Vakıfbank","operator:wikidata":"Q1148521"}},"amenity/atm/yapikredi-6f1d1d":{"name":"Yapı Kredi","locationSet":{"include":["tr"]},"geometry":["point","vertex"],"matchScore":2,"terms":["yapı kredi"],"fields":["name","brand","{amenity/atm}"],"tags":{"amenity":"atm","brand:wikidata":"Q8049138"},"addTags":{"amenity":"atm","brand":"Yapı Kredi","brand:wikidata":"Q8049138","operator":"Yapı Kredi","operator:wikidata":"Q8049138"}},"amenity/atm/ziraatbankasi-6f1d1d":{"name":"Ziraat Bankası","locationSet":{"include":["tr"]},"geometry":["point","vertex"],"matchScore":2,"terms":["t.c. ziraat bankası","ziraat bankası"],"fields":["name","brand","{amenity/atm}"],"tags":{"amenity":"atm","brand:wikidata":"Q696003"},"addTags":{"amenity":"atm","brand":"Ziraat Bankası","brand:wikidata":"Q696003","operator":"Ziraat Bankası","operator:wikidata":"Q696003"}},"amenity/atm/ziraatkatilim-6f1d1d":{"name":"Ziraat Katılım","locationSet":{"include":["tr"]},"geometry":["point","vertex"],"matchScore":2,"terms":["ziraat katılım"],"fields":["name","brand","{amenity/atm}"],"tags":{"amenity":"atm","brand:wikidata":"Q20476458"},"addTags":{"amenity":"atm","brand":"Ziraat Katılım","brand:wikidata":"Q20476458","operator":"Ziraat Katılım","operator:wikidata":"Q20476458"}},"amenity/bank/akbank-a30806":{"name":"Akbank","locationSet":{"include":["tr"]},"geometry":["point","area"],"matchScore":2,"terms":["akbank"],"tags":{"amenity":"bank","brand:wikidata":"Q416624"},"addTags":{"amenity":"bank","brand":"Akbank","brand:wikidata":"Q416624","name":"Akbank"}},"amenity/bank/alternatifbank-a30806":{"name":"Alternatif Bank","locationSet":{"include":["tr"]},"geometry":["point","area"],"matchScore":2,"terms":["alternatif bank"],"tags":{"amenity":"bank","brand:wikidata":"Q4736403"},"addTags":{"amenity":"bank","brand":"Alternatif Bank","brand:wikidata":"Q4736403","name":"Alternatif Bank"}},"amenity/bank/anadolubank-a30806":{"name":"Anadolubank","locationSet":{"include":["tr"]},"geometry":["point","area"],"matchScore":2,"terms":["anadolubank"],"tags":{"amenity":"bank","brand:wikidata":"Q4750773"},"addTags":{"amenity":"bank","brand":"Anadolubank","brand:wikidata":"Q4750773","name":"Anadolubank"}},"amenity/bank/bnpparibas-42efac":{"name":"BNP Paribas","locationSet":{"include":["ae","af","ar","at","bf","bg","bh","br","ca","ch","ci","cl","co","cz","de","dk","dz","es","fi","fr","gb","gf","gp","hu","ie","il","it","kw","lu","ma","ml","mq","mx","nl","no","pe","pt","qa","re","ro","ru","sa","se","sk","sn","tn","tr","us"]},"geometry":["point","area"],"matchScore":2,"terms":["bnp paribas"],"tags":{"amenity":"bank","brand:wikidata":"Q499707"},"addTags":{"amenity":"bank","brand":"BNP Paribas","brand:wikidata":"Q499707","name":"BNP Paribas"}},"amenity/bank/fibabanka-a30806":{"name":"Fibabanka","locationSet":{"include":["tr"]},"geometry":["point","area"],"matchScore":2,"terms":["fibabanka"],"tags":{"amenity":"bank","brand:wikidata":"Q5446343"},"addTags":{"amenity":"bank","brand":"Fibabanka","brand:wikidata":"Q5446343","name":"Fibabanka"}},"amenity/bank/halkbank-a30806":{"name":"Halkbank","locationSet":{"include":["tr"]},"geometry":["point","area"],"matchScore":2,"terms":["halkbank"],"tags":{"amenity":"bank","brand:wikidata":"Q3593818"},"addTags":{"amenity":"bank","brand":"Halkbank","brand:wikidata":"Q3593818","name":"Halkbank"}},"amenity/bank/kuveytturk-a30806":{"name":"Kuveyt Türk","locationSet":{"include":["tr"]},"geometry":["point","area"],"matchScore":2,"terms":["kuveyt türk"],"tags":{"amenity":"bank","brand:wikidata":"Q6036058"},"addTags":{"amenity":"bank","brand":"Kuveyt Türk","brand:wikidata":"Q6036058","name":"Kuveyt Türk"}},"amenity/bank/odeabank-a30806":{"name":"Odeabank","locationSet":{"include":["tr"]},"geometry":["point","area"],"matchScore":2,"terms":["odeabank"],"tags":{"amenity":"bank","brand:wikidata":"Q6036742"},"addTags":{"amenity":"bank","brand":"Odeabank","brand:wikidata":"Q6036742","name":"Odeabank"}},"amenity/bank/qnbfinansbank-a30806":{"name":"QNB Finansbank","locationSet":{"include":["tr"]},"geometry":["point","area"],"matchScore":2,"terms":["finansbank","qnb","qnb finansbank"],"tags":{"amenity":"bank","brand:wikidata":"Q1416237"},"addTags":{"amenity":"bank","brand":"QNB Finansbank","brand:wikidata":"Q1416237","name":"QNB Finansbank"}},"amenity/bank/sekerbank-a30806":{"name":"Şekerbank","locationSet":{"include":["tr"]},"geometry":["point","area"],"matchScore":2,"terms":["şekerbank"],"tags":{"amenity":"bank","brand:wikidata":"Q6088369"},"addTags":{"amenity":"bank","brand":"Şekerbank","brand:wikidata":"Q6088369","name":"Şekerbank"}},"amenity/bank/teb-a30806":{"name":"TEB","locationSet":{"include":["tr"]},"geometry":["point","area"],"matchScore":2,"terms":["teb","türk ekonomi bankası"],"tags":{"amenity":"bank","brand:wikidata":"Q7862447"},"addTags":{"amenity":"bank","brand":"TEB","brand:wikidata":"Q7862447","name":"TEB"}},"amenity/bank/turkiyeisbankasi-a30806":{"name":"Türkiye İş Bankası","locationSet":{"include":["tr"]},"geometry":["point","area"],"matchScore":2,"terms":["isbank","isbankasi","isbankasiatm","türkiye i̇ş bankası"],"tags":{"amenity":"bank","brand:wikidata":"Q909613"},"addTags":{"amenity":"bank","brand":"Türkiye İş Bankası","brand:wikidata":"Q909613","name":"Türkiye İş Bankası"}},"amenity/bank/vakifkatilim-a30806":{"name":"Vakıf Katılım","locationSet":{"include":["tr"]},"geometry":["point","area"],"matchScore":2,"terms":["vakıf katılım"],"tags":{"amenity":"bank","brand:wikidata":"Q31188912"},"addTags":{"amenity":"bank","brand":"Vakıf Katılım","brand:wikidata":"Q31188912","name":"Vakıf Katılım"}},"amenity/bank/vakifbank-a30806":{"name":"Vakıfbank","locationSet":{"include":["tr"]},"geometry":["point","area"],"matchScore":2,"terms":["vakıfbank"],"tags":{"amenity":"bank","brand:wikidata":"Q1148521"},"addTags":{"amenity":"bank","brand":"Vakıfbank","brand:wikidata":"Q1148521","name":"Vakıfbank"}},"amenity/bank/yapikredi-a30806":{"name":"Yapı Kredi","locationSet":{"include":["tr"]},"geometry":["point","area"],"matchScore":2,"terms":["yapı kredi"],"tags":{"amenity":"bank","brand:wikidata":"Q8049138"},"addTags":{"amenity":"bank","brand":"Yapı Kredi","brand:wikidata":"Q8049138","name":"Yapı Kredi"}},"amenity/bank/ziraatbankasi-a30806":{"name":"Ziraat Bankası","locationSet":{"include":["tr"]},"geometry":["point","area"],"matchScore":2,"terms":["t.c. ziraat bankası","ziraat bankası"],"tags":{"amenity":"bank","brand:wikidata":"Q696003"},"addTags":{"amenity":"bank","brand":"Ziraat Bankası","brand:wikidata":"Q696003","name":"Ziraat Bankası"}},"amenity/bank/ziraatkatilim-a30806":{"name":"Ziraat Katılım","locationSet":{"include":["tr"]},"geometry":["point","area"],"matchScore":2,"terms":["ziraat katılım"],"tags":{"amenity":"bank","brand:wikidata":"Q20476458"},"addTags":{"amenity":"bank","brand":"Ziraat Katılım","brand:wikidata":"Q20476458","name":"Ziraat Katılım"}},"amenity/bicycle_rental/isbike-1ed935":{"name":"İSBİKE","locationSet":{"include":["tr"]},"geometry":["point","vertex","area"],"matchScore":2,"terms":["i̇sbi̇ke"],"fields":["name","brand","{amenity/bicycle_rental}"],"tags":{"amenity":"bicycle_rental","brand:wikidata":"Q18391227"},"addTags":{"amenity":"bicycle_rental","brand":"İSBİKE","brand:wikidata":"Q18391227","network":"İSBİKE","operator":"İSBİKE","operator:wikidata":"Q18391227"}},"amenity/cafe/coffee_shop/caffenero-0d98f2":{"name":"Caffè Nero","locationSet":{"include":["ae","cy","gb","hr","ie","om","pl","se","tr","us"]},"geometry":["point","area"],"matchScore":2,"terms":["cafe nero","caffè nero"],"reference":{"key":"cuisine","value":"coffee_shop"},"tags":{"amenity":"cafe","brand:wikidata":"Q675808","cuisine":"coffee_shop"},"addTags":{"amenity":"cafe","brand":"Caffè Nero","brand:wikidata":"Q675808","cuisine":"coffee_shop","name":"Caffè Nero","takeaway":"yes"}},"amenity/cafe/coffee_shop/cariboucoffee-d279cd":{"name":"Caribou Coffee","locationSet":{"include":["ba","tr","us"],"exclude":["cn"]},"geometry":["point","area"],"matchScore":2,"terms":["caribou coffee"],"reference":{"key":"cuisine","value":"coffee_shop"},"tags":{"amenity":"cafe","brand:wikidata":"Q5039494","cuisine":"coffee_shop"},"addTags":{"amenity":"cafe","brand":"Caribou Coffee","brand:wikidata":"Q5039494","cuisine":"coffee_shop","name":"Caribou Coffee","takeaway":"yes"}},"amenity/cafe/coffee_shop/juliusmeinl-d9fed5":{"name":"Julius Meinl","locationSet":{"include":["ae","at","ba","bg","cz","de","fx","hr","hu","it","md","pl","ro","rs","si","sk","tr","us"]},"geometry":["point","area"],"matchScore":2,"terms":["julius meinl"],"reference":{"key":"cuisine","value":"coffee_shop"},"tags":{"amenity":"cafe","brand:wikidata":"Q670154","cuisine":"coffee_shop"},"addTags":{"amenity":"cafe","brand":"Julius Meinl","brand:wikidata":"Q670154","cuisine":"coffee_shop","name":"Julius Meinl","takeaway":"yes"}},"amenity/cafe/coffee_shop/kahvedunyasi-9278bc":{"name":"Kahve Dünyası","locationSet":{"include":["ae","kw","ro","sa","tr","uk"]},"geometry":["point","area"],"matchScore":2,"terms":["kahve dünyası"],"reference":{"key":"cuisine","value":"coffee_shop"},"tags":{"amenity":"cafe","brand:wikidata":"Q28008050","cuisine":"coffee_shop"},"addTags":{"amenity":"cafe","brand":"Kahve Dünyası","brand:wikidata":"Q28008050","cuisine":"coffee_shop","name":"Kahve Dünyası","takeaway":"yes"}},"amenity/cafe/coffee_shop/mado-e2a804":{"name":"Mado","locationSet":{"include":["tr"]},"geometry":["point","area"],"matchScore":2,"terms":["mado"],"reference":{"key":"cuisine","value":"coffee_shop"},"tags":{"amenity":"cafe","brand:wikidata":"Q17116336","cuisine":"coffee_shop"},"addTags":{"amenity":"cafe","brand":"Mado","brand:wikidata":"Q17116336","cuisine":"coffee_shop","name":"Mado","takeaway":"yes"}},"amenity/cafe/coffee_shop/neroexpress-4a2ca5":{"name":"Nero Express (Caffè Nero)","locationSet":{"include":["gb","ie","tr","us"]},"geometry":["point","area"],"matchScore":2,"terms":["caffè nero"],"reference":{"key":"cuisine","value":"coffee_shop"},"tags":{"amenity":"cafe","brand:wikidata":"Q675808","cuisine":"coffee_shop"},"addTags":{"amenity":"cafe","brand":"Caffè Nero","brand:wikidata":"Q675808","cuisine":"coffee_shop","name":"Nero Express","takeaway":"yes"}},"amenity/car_rental/garentaday-48a8d7":{"name":"GarentaDAY","locationSet":{"include":["tr"]},"geometry":["point","area"],"matchScore":2,"terms":["garenta","garentaday"],"tags":{"amenity":"car_rental","brand:wikidata":"Q106801676"},"addTags":{"amenity":"car_rental","brand":"GarentaDAY","brand:wikidata":"Q106801676","name":"GarentaDAY"}},"amenity/cinema/cinemaximum-690e75":{"name":"Cinemaximum","locationSet":{"include":["tr"]},"geometry":["point","area"],"matchScore":2,"terms":["cinemaximum","mars entertainment group"],"fields":["name","brand","{amenity/cinema}"],"tags":{"amenity":"cinema","brand:wikidata":"Q24914175"},"addTags":{"amenity":"cinema","brand":"Cinemaximum","brand:wikidata":"Q24914175","name":"Cinemaximum"}},"amenity/fast_food/sandwich/arbys-3c08fb":{"name":"Arby's","locationSet":{"include":["ca","tr","us"]},"geometry":["point","area"],"matchScore":2,"terms":["arby's"],"reference":{"key":"cuisine","value":"sandwich"},"tags":{"amenity":"fast_food","brand:wikidata":"Q630866","cuisine":"sandwich"},"addTags":{"amenity":"fast_food","brand":"Arby's","brand:wikidata":"Q630866","cuisine":"sandwich","name":"Arby's","takeaway":"yes"}},"amenity/fast_food/burger/kochloffel-af032a":{"name":"Kochlöffel","locationSet":{"include":["de","tr"]},"geometry":["point","area"],"matchScore":2,"terms":["kochlöffel"],"reference":{"key":"cuisine","value":"burger"},"tags":{"amenity":"fast_food","brand:wikidata":"Q315539","cuisine":"burger"},"addTags":{"amenity":"fast_food","brand":"Kochlöffel","brand:wikidata":"Q315539","cuisine":"burger","name":"Kochlöffel","takeaway":"yes"}},"amenity/fuel/alpet-97866d":{"name":"Alpet","locationSet":{"include":["al","tr"]},"geometry":["point","area"],"matchScore":2,"terms":["alpet"],"fields":["name","brand","{amenity/fuel}"],"tags":{"amenity":"fuel","brand:wikidata":"Q62131561"},"addTags":{"amenity":"fuel","brand":"Alpet","brand:wikidata":"Q62131561","name":"Alpet"}},"amenity/fuel/aytemiz-ec7588":{"name":"Aytemiz","locationSet":{"include":["tr"]},"geometry":["point","area"],"matchScore":2,"terms":["aytemiz"],"fields":["name","brand","{amenity/fuel}"],"tags":{"amenity":"fuel","brand:wikidata":"Q62274352"},"addTags":{"amenity":"fuel","brand":"Aytemiz","brand:wikidata":"Q62274352","name":"Aytemiz"}},"amenity/fuel/moil-ec7588":{"name":"Moil","locationSet":{"include":["tr"]},"geometry":["point","area"],"matchScore":2,"terms":["moil"],"fields":["name","brand","{amenity/fuel}"],"tags":{"amenity":"fuel","brand:wikidata":"Q62296914"},"addTags":{"amenity":"fuel","brand":"Moil","brand:wikidata":"Q62296914","name":"Moil"}},"amenity/fuel/opet-ec7588":{"name":"Opet","locationSet":{"include":["tr"]},"geometry":["point","area"],"matchScore":2,"terms":["opet"],"fields":["name","brand","{amenity/fuel}"],"tags":{"amenity":"fuel","brand:wikidata":"Q7072824"},"addTags":{"amenity":"fuel","brand":"Opet","brand:wikidata":"Q7072824","name":"Opet"}},"amenity/fuel/sunpet-ec7588":{"name":"Sunpet","locationSet":{"include":["tr"]},"geometry":["point","area"],"matchScore":2,"terms":["sunpet"],"fields":["name","brand","{amenity/fuel}"],"tags":{"amenity":"fuel","brand:wikidata":"Q113579553"},"addTags":{"amenity":"fuel","brand":"Sunpet","brand:wikidata":"Q113579553","name":"Sunpet"}},"amenity/fuel/termo-ec7588":{"name":"termo","locationSet":{"include":["tr"]},"geometry":["point","area"],"matchScore":2,"terms":["termo"],"fields":["name","brand","{amenity/fuel}"],"tags":{"amenity":"fuel","brand:wikidata":"Q113565581"},"addTags":{"amenity":"fuel","brand":"termo","brand:wikidata":"Q113565581","name":"termo"}},"amenity/fuel/turkiyepetrolleri-ec7588":{"name":"Türkiye Petrolleri","locationSet":{"include":["tr"]},"geometry":["point","area"],"matchScore":2,"terms":["tp","tppd","türkiye petrolleri"],"fields":["name","brand","{amenity/fuel}"],"tags":{"amenity":"fuel","brand:wikidata":"Q15946806"},"addTags":{"amenity":"fuel","brand":"Türkiye Petrolleri","brand:wikidata":"Q15946806","name":"Türkiye Petrolleri"}},"amenity/language_school/els-89568f":{"name":"ELS","locationSet":{"include":["ca","in","my","pa","sa","tr","us","vn"]},"geometry":["point","area"],"matchScore":2,"terms":["els","els language centers"],"fields":["name","brand","{amenity/language_school}"],"tags":{"amenity":"language_school","brand:wikidata":"Q5323325"},"addTags":{"amenity":"language_school","brand":"ELS","brand:en":"ELS","brand:wikidata":"Q5323325","language:en":"main","name":"ELS","name:en":"ELS","official_name":"ELS Language Centers","official_name:en":"ELS Language Centers"}},"amenity/payment_centre/nkolay-18647a":{"name":"N Kolay","locationSet":{"include":["tr"]},"geometry":["point","area"],"matchScore":2,"terms":["n kolay"],"tags":{"amenity":"payment_centre","brand:wikidata":"Q106802151"},"addTags":{"amenity":"payment_centre","brand":"N Kolay","brand:wikidata":"Q106802151","name":"N Kolay"}},"amenity/school/bahcesehirkoleji-8696da":{"name":"Bahçeşehir Koleji","locationSet":{"include":["tr"]},"geometry":["area","point"],"matchScore":2,"terms":["bahçeşehir koleji","bahçeşehir okulları"],"fields":["name","brand","{amenity/school}"],"tags":{"amenity":"school","brand:wikidata":"Q4843100"},"addTags":{"amenity":"school","brand":"Bahçeşehir Koleji","brand:wikidata":"Q4843100"}},"amenity/school/bilfenokullari-8696da":{"name":"Bilfen Okulları","locationSet":{"include":["tr"]},"geometry":["area","point"],"matchScore":2,"terms":["bilfen koleji","bilfen okulları"],"fields":["name","brand","{amenity/school}"],"tags":{"amenity":"school","brand:wikidata":"Q28940776"},"addTags":{"amenity":"school","brand":"Bilfen Okulları","brand:wikidata":"Q28940776"}},"amenity/school/dogakoleji-8696da":{"name":"Doğa Koleji","locationSet":{"include":["tr"]},"geometry":["area","point"],"matchScore":2,"terms":["doğa koleji","doğa okulları","i̇tü eta vakfı doğa koleji"],"fields":["name","brand","{amenity/school}"],"tags":{"amenity":"school","brand:wikidata":"Q106802282"},"addTags":{"amenity":"school","brand":"Doğa Koleji","brand:wikidata":"Q106802282","official_name":"İTÜ ETA Vakfı Doğa Koleji"}},"amenity/school/okyanuskoleji-8696da":{"name":"Okyanus Koleji","locationSet":{"include":["tr"]},"geometry":["area","point"],"matchScore":2,"terms":["okyanus koleji"],"fields":["name","brand","{amenity/school}"],"tags":{"amenity":"school","brand:wikidata":"Q106802301"},"addTags":{"amenity":"school","brand":"Okyanus Koleji","brand:wikidata":"Q106802301"}},"amenity/madscience-0435a3":{"name":"Mad Science","locationSet":{"include":["bh","br","ca","cn","es","gb","kw","ma","nl","om","pe","sa","sg","th","tr","tt","us"]},"geometry":["point","vertex","line","area"],"matchScore":2,"terms":["mad science"],"fields":["name","brand","{amenity}"],"tags":{"amenity":"training","brand:wikidata":"Q17009137"},"addTags":{"amenity":"training","brand":"Mad Science","brand:wikidata":"Q17009137","name":"Mad Science","training":"science"}},"amenity/vehicle_inspection/tuvturk-9c5bc9":{"name":"TÜVTÜRK","locationSet":{"include":["tr"]},"geometry":["point","area"],"matchScore":2,"terms":["tüvtürk"],"tags":{"amenity":"vehicle_inspection","brand:wikidata":"Q2463555"},"addTags":{"amenity":"vehicle_inspection","brand":"TÜVTÜRK","brand:wikidata":"Q2463555","name":"TÜVTÜRK"}},"healthcare/blood_donation/turkkizilayi-52e991":{"name":"Türk Kızılayı","locationSet":{"include":["tr"]},"geometry":["point","area"],"matchScore":2,"terms":["kızılay","türk kızılayı","türkiye kızılay derneği"],"tags":{"brand:wikidata":"Q1059602","healthcare":"blood_donation"},"addTags":{"brand":"Türk Kızılayı","brand:wikidata":"Q1059602","healthcare":"blood_donation","name":"Türk Kızılayı","official_name":"Türkiye Kızılay Derneği","short_name":"Kızılay"}},"healthcare/laboratory/synevo-c2c658":{"name":"Synevo (Turkey)","locationSet":{"include":["tr"]},"geometry":["point","area"],"matchScore":2,"terms":["synevo"],"tags":{"brand:wikidata":"Q117890974","healthcare":"laboratory"},"addTags":{"brand":"Synevo","brand:wikidata":"Q117890974","healthcare":"laboratory","name":"Synevo"}},"leisure/fitness_centre/macfit-a2f75d":{"name":"MACFit","locationSet":{"include":["tr"]},"geometry":["point","area"],"matchScore":2,"terms":["macfit"],"tags":{"brand:wikidata":"Q106801022","leisure":"fitness_centre"},"addTags":{"brand":"MACFit","brand:wikidata":"Q106801022","leisure":"fitness_centre","name":"MACFit"}},"leisure/fitness_centre/snapfitness-551086":{"name":"Snap Fitness","locationSet":{"include":["ae","au","be","ca","es","gb","hk","id","ie","jp","mx","nl","nz","ph","tr","tw","us"]},"geometry":["point","area"],"matchScore":2,"terms":["snap fitness"],"tags":{"brand:wikidata":"Q7547254","leisure":"fitness_centre"},"addTags":{"brand":"Snap Fitness","brand:wikidata":"Q7547254","leisure":"fitness_centre","name":"Snap Fitness"}},"leisure/sports_centre/sporistanbul-62337f":{"name":"Spor İstanbul","locationSet":{"include":["tr"]},"geometry":["point","area"],"matchScore":2,"terms":["spor i̇stanbul"],"fields":["name","brand","{leisure/sports_centre}"],"tags":{"brand:wikidata":"Q106802907","leisure":"sports_centre"},"addTags":{"brand":"Spor İstanbul","brand:wikidata":"Q106802907","leisure":"sports_centre"}},"office/employment_agency/iskur-591089":{"name":"İŞKUR","locationSet":{"include":["tr"]},"geometry":["point","area"],"matchScore":2,"terms":["i̇şkur","türkiye i̇ş kurumu"],"tags":{"brand:wikidata":"Q6001879","office":"employment_agency"},"addTags":{"brand":"İŞKUR","brand:wikidata":"Q6001879","name":"İŞKUR","office":"employment_agency","official_name":"Türkiye İş Kurumu"}},"office/insurance/allianz-332499":{"name":"Allianz","locationSet":{"include":["ae","ar","at","au","be","bg","bh","bm","bn","br","ca","cg","ch","ci","cm","cn","co","cy","cz","de","dk","ee","eg","es","fi","fr","gb","gf","gg","gh","gp","gr","hk","hr","hu","id","ie","in","is","it","ja","ke","kr","kw","la","li","lk","lt","lu","lv","ma","mg","mx","my","ng","nl","no","nz","om","ph","pk","pl","pt","qa","ro","ru","sa","se","sg","si","sk","sn","th","tr","tw","ua","us","za"]},"geometry":["point","area"],"matchScore":2,"terms":["allianz","allianz versicherung"],"fields":["name","brand","{office/insurance}"],"tags":{"brand:wikidata":"Q487292","office":"insurance"},"addTags":{"brand":"Allianz","brand:wikidata":"Q487292","name":"Allianz","office":"insurance"}},"office/insurance/axa-2e7672":{"name":"AXA","locationSet":{"include":["ae","ar","au","be","bh","bm","br","ca","ch","ci","cl","cm","cn","co","cz","de","dk","dz","eg","es","fi","fr","ga","gb","gr","hk","id","ie","in","it","jp","kr","lb","lu","ma","mu","mx","my","ng","nl","no","om","pa","pe","ph","pl","pt","qa","sa","se","sg","sk","sn","th","tr","tw","us"]},"geometry":["point","area"],"matchScore":2,"terms":["axa"],"fields":["name","brand","{office/insurance}"],"tags":{"brand:wikidata":"Q160054","office":"insurance"},"addTags":{"brand":"AXA","brand:wikidata":"Q160054","name":"AXA","office":"insurance"}},"office/insurance/generali-cb13d1":{"name":"Generali","locationSet":{"include":["ar","at","bg","br","ch","cl","cn","cz","de","es","fr","gr","hr","hu","id","in","it","me","my","ph","pl","pt","ro","rs","si","sk","tr","vn"]},"geometry":["point","area"],"matchScore":2,"terms":["generali"],"fields":["name","brand","{office/insurance}"],"tags":{"brand:wikidata":"Q670482","office":"insurance"},"addTags":{"brand":"Generali","brand:wikidata":"Q670482","name":"Generali","office":"insurance"}},"office/insurance/groupama-924bc9":{"name":"Groupama","locationSet":{"include":["bg","cn","gr","hu","it","ro","sk","tr"]},"geometry":["point","area"],"matchScore":2,"terms":["groupama","groupe des assurances mutuelles agricoles"],"fields":["name","brand","{office/insurance}"],"tags":{"brand:wikidata":"Q3083531","office":"insurance"},"addTags":{"brand":"Groupama","brand:wikidata":"Q3083531","name":"Groupama","office":"insurance","official_name":"Groupe des Assurances Mutuelles Agricoles"}},"office/insurance/zurich-2d6c95":{"name":"Zurich","locationSet":{"include":["ae","at","au","be","bh","br","ca","ch","cl","cn","co","de","ec","es","fi","fr","gb","hk","id","ie","it","ja","kw","lb","li","lu","mx","my","nl","no","nz","om","pt","qa","se","sg","sk","tr","us"]},"geometry":["point","area"],"matchScore":2,"terms":["zurich"],"fields":["name","brand","{office/insurance}"],"tags":{"brand:wikidata":"Q230426","office":"insurance"},"addTags":{"brand":"Zurich","brand:wikidata":"Q230426","name":"Zurich","office":"insurance"}},"shop/baby_goods/ebebek-ec78ad":{"name":"ebebek","locationSet":{"include":["tr"]},"geometry":["point","area"],"matchScore":2,"terms":["ebebek"],"tags":{"brand:wikidata":"Q106803057","shop":"baby_goods"},"addTags":{"brand":"ebebek","brand:wikidata":"Q106803057","name":"ebebek","shop":"baby_goods"}},"shop/bakery/istanbulhalkekmek-a32269":{"name":"İstanbul Halk Ekmek","locationSet":{"include":["tr"]},"geometry":["point","area"],"matchScore":2,"terms":["i̇he","i̇stanbul halk ekmek"],"tags":{"brand:wikidata":"Q6073041","shop":"bakery"},"addTags":{"brand":"İstanbul Halk Ekmek","brand:wikidata":"Q6073041","name":"İstanbul Halk Ekmek","shop":"bakery"}},"shop/bed/bambiyatak-a08a8e":{"name":"Bambi Yatak","locationSet":{"include":["tr"]},"geometry":["point","area"],"matchScore":2,"terms":["bambi yatak"],"tags":{"brand:wikidata":"Q106803706","shop":"bed"},"addTags":{"brand":"Bambi Yatak","brand:wikidata":"Q106803706","name":"Bambi Yatak","shop":"bed"}},"shop/bed/idas-a08a8e":{"name":"İDAŞ","locationSet":{"include":["tr"]},"geometry":["point","area"],"matchScore":2,"terms":["i̇daş"],"tags":{"brand:wikidata":"Q106803871","shop":"bed"},"addTags":{"brand":"İDAŞ","brand:wikidata":"Q106803871","name":"İDAŞ","shop":"bed"}},"shop/bed/yatsan-a08a8e":{"name":"Yatsan","locationSet":{"include":["tr"]},"geometry":["point","area"],"matchScore":2,"terms":["yatsan"],"tags":{"brand:wikidata":"Q106803959","shop":"bed"},"addTags":{"brand":"Yatsan","brand:wikidata":"Q106803959","name":"Yatsan","shop":"bed"}},"shop/books/dandr-c24b88":{"name":"D&R","locationSet":{"include":["tr"]},"geometry":["point","area"],"matchScore":2,"terms":["d&r"],"tags":{"brand:wikidata":"Q27431235","shop":"books"},"addTags":{"brand":"D&R","brand:wikidata":"Q27431235","name":"D&R","shop":"books"}},"shop/books/remzikitabevi-c24b88":{"name":"Remzi Kitabevi","locationSet":{"include":["tr"]},"geometry":["point","area"],"matchScore":2,"terms":["remzi kitabevi"],"tags":{"brand:wikidata":"Q2143214","shop":"books"},"addTags":{"brand":"Remzi Kitabevi","brand:wikidata":"Q2143214","name":"Remzi Kitabevi","shop":"books"}},"shop/chemist/rossmann-f4ddf3":{"name":"Rossmann","locationSet":{"include":["cz","de","hu","pl","tr"]},"geometry":["point","area"],"matchScore":2,"terms":["rossmann"],"tags":{"brand:wikidata":"Q316004","shop":"chemist"},"addTags":{"brand":"Rossmann","brand:wikidata":"Q316004","name":"Rossmann","shop":"chemist"}},"shop/clothes/boyner-86c702":{"name":"Boyner","locationSet":{"include":["tr"]},"geometry":["point","area"],"matchScore":2,"terms":["boyner"],"tags":{"brand:wikidata":"Q4952569","shop":"clothes"},"addTags":{"brand":"Boyner","brand:wikidata":"Q4952569","name":"Boyner","shop":"clothes"}},"shop/clothes/derimod-25fd8f":{"name":"Derimod","locationSet":{"include":["tr","us"]},"geometry":["point","area"],"matchScore":2,"terms":["derimod"],"tags":{"brand:wikidata":"Q17373410","shop":"clothes"},"addTags":{"brand":"Derimod","brand:wikidata":"Q17373410","name":"Derimod","shop":"clothes"}},"shop/clothes/desa-529415":{"name":"Desa","locationSet":{"include":["tr","uk"]},"geometry":["point","area"],"matchScore":2,"terms":["desa"],"tags":{"brand:wikidata":"Q17513880","shop":"clothes"},"addTags":{"brand":"Desa","brand:wikidata":"Q17513880","name":"Desa","shop":"clothes"}},"shop/clothes/sarar-86c702":{"name":"Sarar","locationSet":{"include":["tr"]},"geometry":["point","area"],"matchScore":2,"terms":["sarar"],"tags":{"brand:wikidata":"Q143174","shop":"clothes"},"addTags":{"brand":"Sarar","brand:wikidata":"Q143174","name":"Sarar","shop":"clothes"}},"shop/convenience/ekomini-62eaab":{"name":"Ekomini","locationSet":{"include":["tr"]},"geometry":["point","area"],"matchScore":2,"terms":["ekomini"],"tags":{"brand:wikidata":"Q115534014","shop":"convenience"},"addTags":{"brand":"Ekomini","brand:wikidata":"Q115534014","name":"Ekomini","shop":"convenience"}},"shop/cosmetics/gratis-15d6a4":{"name":"Gratis","locationSet":{"include":["tr"]},"geometry":["point","area"],"matchScore":2,"terms":["gratis"],"tags":{"brand:wikidata":"Q28605813","shop":"cosmetics"},"addTags":{"brand":"Gratis","brand:wikidata":"Q28605813","name":"Gratis","shop":"cosmetics"}},"shop/department_store/galerieslafayette-b7f45a":{"name":"Galeries Lafayette","locationSet":{"include":["ae","cn","de","fr","id","lu","qa","tr"]},"geometry":["point","area"],"matchScore":2,"terms":["galeries lafayette"],"tags":{"brand:wikidata":"Q3094686","shop":"department_store"},"addTags":{"brand":"Galeries Lafayette","brand:wikidata":"Q3094686","name":"Galeries Lafayette","shop":"department_store"}},"shop/department_store/muji-b9b204":{"name":"Muji","locationSet":{"include":["au","ca","ch","de","es","fi","fr","gb","ie","it","pl","pt","se","tr"]},"geometry":["point","area"],"matchScore":2,"terms":["muji","無印良品"],"tags":{"brand:wikidata":"Q708789","shop":"department_store"},"addTags":{"brand":"Muji","brand:en":"Muji","brand:ja":"無印良品","brand:wikidata":"Q708789","name":"Muji","name:en":"Muji","name:ja":"無印良品","shop":"department_store"}},"shop/doityourself/bauhaus-6847b5":{"name":"Bauhaus","locationSet":{"include":["at","bg","ch","cz","de","dk","ee","es","fi","hr","hu","is","lu","nl","no","se","si","sk","tr"]},"geometry":["point","area"],"matchScore":2,"terms":["bauhaus"],"tags":{"brand:wikidata":"Q672043","shop":"doityourself"},"addTags":{"brand":"Bauhaus","brand:wikidata":"Q672043","name":"Bauhaus","shop":"doityourself"}},"shop/doityourself/koctas-9ebfe5":{"name":"Koçtaş","locationSet":{"include":["tr"]},"geometry":["point","area"],"matchScore":2,"terms":["koçtaş"],"tags":{"brand:wikidata":"Q6057541","shop":"doityourself"},"addTags":{"brand":"Koçtaş","brand:wikidata":"Q6057541","name":"Koçtaş","shop":"doityourself"}},"shop/doityourself/praktiker-eb3505":{"name":"Praktiker","locationSet":{"include":["gr","hu","ro","tr"]},"geometry":["point","area"],"matchScore":2,"terms":["praktiker"],"searchable":false,"tags":{"brand:wikidata":"Q680214","shop":"doityourself"},"addTags":{"brand":"Praktiker","brand:wikidata":"Q680214","name":"Praktiker","shop":"doityourself"}},"shop/doityourself/tekzen-9ebfe5":{"name":"Tekzen","locationSet":{"include":["tr"]},"geometry":["point","area"],"matchScore":2,"terms":["tekzen"],"tags":{"brand:wikidata":"Q25475379","shop":"doityourself"},"addTags":{"brand":"Tekzen","brand:wikidata":"Q25475379","name":"Tekzen","shop":"doityourself"}},"shop/electronics/mediamarkt-a3dfab":{"name":"MediaMarkt","locationSet":{"include":["at","be","ch","de","es","gr","hu","nl","pl","pt","se","tr"]},"geometry":["point","area"],"matchScore":2,"terms":["mediamarkt"],"tags":{"brand:wikidata":"Q2381223","shop":"electronics"},"addTags":{"brand":"MediaMarkt","brand:wikidata":"Q2381223","name":"MediaMarkt","shop":"electronics"}},"shop/electronics/teknosa-194b37":{"name":"Teknosa","locationSet":{"include":["tr"]},"geometry":["point","area"],"matchScore":2,"terms":["teknosa"],"tags":{"brand:wikidata":"Q6559269","shop":"electronics"},"addTags":{"brand":"Teknosa","brand:wikidata":"Q6559269","name":"Teknosa","shop":"electronics"}},"shop/electronics/vatanbilgisayar-194b37":{"name":"Vatan Bilgisayar","locationSet":{"include":["tr"]},"geometry":["point","area"],"matchScore":2,"terms":["vatan bilgisayar"],"tags":{"brand:wikidata":"Q6048050","shop":"electronics"},"addTags":{"brand":"Vatan Bilgisayar","brand:wikidata":"Q6048050","name":"Vatan Bilgisayar","shop":"electronics"}},"shop/electronics/vestel-194b37":{"name":"Vestel","locationSet":{"include":["tr"]},"geometry":["point","area"],"matchScore":2,"terms":["vestel"],"tags":{"brand:wikidata":"Q2191408","shop":"electronics"},"addTags":{"brand":"Vestel","brand:wikidata":"Q2191408","name":"Vestel","shop":"electronics"}},"shop/furniture/bellona-a88d0c":{"name":"Bellona","locationSet":{"include":["tr"]},"geometry":["point","area"],"matchScore":2,"terms":["bellona"],"tags":{"brand:wikidata":"Q6042498","shop":"furniture"},"addTags":{"brand":"Bellona","brand:wikidata":"Q6042498","name":"Bellona","shop":"furniture"}},"shop/furniture/habitat-4d9d78":{"name":"Habitat (non-UK)","locationSet":{"include":["be","de","es","gr","is","lu","no","pt","tr"]},"geometry":["point","area"],"matchScore":2,"terms":["habitat"],"tags":{"brand:wikidata":"Q689059","shop":"furniture"},"addTags":{"brand":"Habitat","brand:wikidata":"Q689059","name":"Habitat","shop":"furniture"}},"shop/furniture/istikbal-a88d0c":{"name":"İstikbal","locationSet":{"include":["tr"]},"geometry":["point","area"],"matchScore":2,"terms":["i̇stikbal"],"tags":{"brand:wikidata":"Q6031999","shop":"furniture"},"addTags":{"brand":"İstikbal","brand:wikidata":"Q6031999","name":"İstikbal","shop":"furniture"}},"shop/furniture/kelebek-a88d0c":{"name":"Kelebek","locationSet":{"include":["tr"]},"geometry":["point","area"],"matchScore":2,"terms":["kelebek"],"tags":{"brand:wikidata":"Q28729960","shop":"furniture"},"addTags":{"brand":"Kelebek","brand:wikidata":"Q28729960","name":"Kelebek","shop":"furniture"}},"shop/furniture/mondi-a88d0c":{"name":"Mondi","locationSet":{"include":["tr"]},"geometry":["point","area"],"matchScore":2,"terms":["mondi"],"tags":{"brand:wikidata":"Q106803578","shop":"furniture"},"addTags":{"brand":"Mondi","brand:wikidata":"Q106803578","name":"Mondi","shop":"furniture"}},"shop/houseware/englishhome-d9337a":{"name":"English Home","locationSet":{"include":["bg","ro","tr"]},"geometry":["point","area"],"matchScore":2,"terms":["english home"],"tags":{"brand:wikidata":"Q106803513","shop":"houseware"},"addTags":{"brand":"English Home","brand:wikidata":"Q106803513","name":"English Home","shop":"houseware"}},"shop/jewelry/atasay-3dd149":{"name":"Atasay","locationSet":{"include":["tr"]},"geometry":["point","area"],"matchScore":2,"terms":["atasay"],"tags":{"brand:wikidata":"Q28940710","shop":"jewelry"},"addTags":{"brand":"Atasay","brand:wikidata":"Q28940710","name":"Atasay","shop":"jewelry"}},"shop/mobile_phone/turktelekom-0b23a0":{"name":"Türk Telekom","locationSet":{"include":["tr"]},"geometry":["point","area"],"matchScore":2,"terms":["türk telekom"],"tags":{"brand:wikidata":"Q263700","shop":"mobile_phone"},"addTags":{"brand":"Türk Telekom","brand:wikidata":"Q263700","name":"Türk Telekom","shop":"mobile_phone"}},"shop/mobile_phone/turkcell-0bab4d":{"name":"Turkcell","locationSet":{"include":["cy","tr"]},"geometry":["point","area"],"matchScore":2,"terms":["turkcell"],"tags":{"brand:wikidata":"Q283852","shop":"mobile_phone"},"addTags":{"brand":"Turkcell","brand:wikidata":"Q283852","name":"Turkcell","shop":"mobile_phone"}},"shop/optician/atasunoptik-74219e":{"name":"Atasun Optik","locationSet":{"include":["tr"]},"geometry":["point","area"],"matchScore":2,"terms":["atasun optik"],"fields":["name","brand","{shop/optician}"],"tags":{"brand:wikidata":"Q106803132","shop":"optician"},"addTags":{"brand":"Atasun Optik","brand:wikidata":"Q106803132","name":"Atasun Optik","shop":"optician"}},"shop/optician/opmar-74219e":{"name":"Opmar","locationSet":{"include":["tr"]},"geometry":["point","area"],"matchScore":2,"terms":["opmar"],"fields":["name","brand","{shop/optician}"],"tags":{"brand:wikidata":"Q106803137","shop":"optician"},"addTags":{"brand":"Opmar","brand:wikidata":"Q106803137","name":"Opmar","shop":"optician"}},"shop/optician/rayban-ace229":{"name":"Ray-Ban","locationSet":{"include":["ae","at","au","br","ca","de","es","fr","ie","it","jp","my","ne","tr","uk","us"]},"geometry":["point","area"],"matchScore":2,"terms":["ray-ban"],"fields":["name","brand","{shop/optician}"],"tags":{"brand:wikidata":"Q653941","shop":"optician"},"addTags":{"brand":"Ray-Ban","brand:wikidata":"Q653941","name":"Ray-Ban","shop":"optician"}},"shop/shoes/flo-ad2d82":{"name":"FLO","locationSet":{"include":["al","tr"]},"geometry":["point","area"],"matchScore":2,"terms":["flo"],"tags":{"brand:wikidata":"Q61994802","shop":"shoes"},"addTags":{"brand":"FLO","brand:wikidata":"Q61994802","name":"FLO","shop":"shoes"}},"shop/supermarket/a101-5b5772":{"name":"A101","locationSet":{"include":["tr"]},"geometry":["point","area"],"matchScore":2,"terms":["a101"],"tags":{"brand:wikidata":"Q6034496","shop":"supermarket"},"addTags":{"brand":"A101","brand:wikidata":"Q6034496","name":"A101","shop":"supermarket"}},"shop/supermarket/bim-8af1d3":{"name":"BİM","locationSet":{"include":["ma","tr"]},"geometry":["point","area"],"matchScore":2,"terms":["bi̇m"],"tags":{"brand:wikidata":"Q1022075","shop":"supermarket"},"addTags":{"brand":"BİM","brand:wikidata":"Q1022075","name":"BİM","shop":"supermarket"}},"shop/supermarket/hakmar-5b5772":{"name":"Hakmar","locationSet":{"include":["tr"]},"geometry":["point","area"],"matchScore":2,"terms":["hakmar"],"tags":{"brand:wikidata":"Q110454434","shop":"supermarket"},"addTags":{"brand":"Hakmar","brand:wikidata":"Q110454434","name":"Hakmar","shop":"supermarket"}},"shop/supermarket/hakmarexpress-5b5772":{"name":"Hakmar Express","locationSet":{"include":["tr"]},"geometry":["point","area"],"matchScore":2,"terms":["hakmar express"],"tags":{"brand:wikidata":"Q110454466","shop":"supermarket"},"addTags":{"brand":"Hakmar Express","brand:wikidata":"Q110454466","name":"Hakmar Express","shop":"supermarket"}},"shop/supermarket/kipa-5b5772":{"name":"Kipa","locationSet":{"include":["tr"]},"geometry":["point","area"],"matchScore":2,"terms":["kipa"],"tags":{"brand:wikidata":"Q218006","shop":"supermarket"},"addTags":{"brand":"Kipa","brand:wikidata":"Q218006","name":"Kipa","shop":"supermarket"}},"shop/supermarket/migrosjet-5b5772":{"name":"Migros Jet","locationSet":{"include":["tr"]},"geometry":["point","area"],"matchScore":2,"terms":["migros jet"],"tags":{"brand:wikidata":"Q1754510","shop":"supermarket"},"addTags":{"brand":"Migros Jet","brand:wikidata":"Q1754510","name":"Migros Jet","shop":"supermarket"}},"shop/supermarket/sok-5b5772":{"name":"Şok","locationSet":{"include":["tr"]},"geometry":["point","area"],"matchScore":2,"terms":["şok"],"tags":{"brand:wikidata":"Q19613992","shop":"supermarket"},"addTags":{"brand":"Şok","brand:wikidata":"Q19613992","name":"Şok","shop":"supermarket"}},"shop/ticket/ticketmaster-9f0b74":{"name":"Ticketmaster","locationSet":{"include":["ae","at","au","be","ca","ch","cy","cz","de","dk","es","fi","fr","gr","ie","it","mx","nl","no","nz","pl","se","sg","tr","tw","uk","za"]},"geometry":["point","area"],"matchScore":2,"terms":["live nation","ticketmaster"],"fields":["name","brand","{shop/ticket}"],"tags":{"brand:wikidata":"Q2609162","shop":"ticket"},"addTags":{"brand":"Ticketmaster","brand:wikidata":"Q2609162","name":"Ticketmaster","shop":"ticket"}},"shop/toys/toyzzshop-a17e1f":{"name":"Toyzz Shop","locationSet":{"include":["tr"]},"geometry":["point","area"],"matchScore":2,"terms":["toyzz shop"],"tags":{"brand:wikidata":"Q28606323","shop":"toys"},"addTags":{"brand":"Toyzz Shop","brand:wikidata":"Q28606323","name":"Toyzz Shop","shop":"toys"}},"shop/watches/longines-691196":{"name":"Longines","locationSet":{"include":["ar","au","be","ca","ch","cl","cn","de","dk","es","fi","fr","gr","in","it","jp","kr","mx","my","nl","no","pt","se","sg","th","tr","tw","uk","us","za"]},"geometry":["point","area"],"matchScore":2,"terms":["longines"],"tags":{"brand:wikidata":"Q603698","shop":"watches"},"addTags":{"brand":"Longines","brand:wikidata":"Q603698","name":"Longines","shop":"watches"}},"tourism/hotel/barcelohotelsandresorts-302c40":{"name":"Barceló","locationSet":{"include":["ae","aw","bg","cr","cu","cz","de","do","eg","es","gr","gt","hu","it","ma","mv","mx","ni","om","pt","sv","tn","tr","us"]},"geometry":["point","area"],"matchScore":2,"terms":["barceló hotels & resorts"],"fields":["name","brand","{tourism/hotel}"],"tags":{"brand:wikidata":"Q15148996","tourism":"hotel"},"addTags":{"brand":"Barceló Hotels & Resorts","brand:wikidata":"Q15148996","name":"Barceló Hotels & Resorts","tourism":"hotel"}},"tourism/hotel/conrad-ee1a43":{"name":"Conrad Hotels & Resorts","locationSet":{"include":["ae","ca","cn","eg","gb","id","ie","in","jp","kr","mv","pf","ph","pt","sa","sg","th","tr","us"]},"geometry":["point","area"],"matchScore":2,"terms":["conrad"],"fields":["name","brand","{tourism/hotel}"],"tags":{"brand:wikidata":"Q855525","tourism":"hotel"},"addTags":{"brand":"Conrad","brand:wikidata":"Q855525","name":"Conrad","tourism":"hotel"}},"tourism/hotel/deltahotels-c8d055":{"name":"Delta Hotels","locationSet":{"include":["ae","ca","cn","de","gb","tr","us"]},"geometry":["point","area"],"matchScore":2,"terms":["delta","delta hotels"],"fields":["name","brand","{tourism/hotel}"],"tags":{"brand:wikidata":"Q5254663","tourism":"hotel"},"addTags":{"brand":"Delta Hotels","brand:wikidata":"Q5254663","name":"Delta Hotels","tourism":"hotel"}},"tourism/hotel/edition-24940c":{"name":"Edition","locationSet":{"include":["ae","cn","es","gb","is","it","jp","mx","my","qa","sg","tr","us"]},"geometry":["point","area"],"matchScore":2,"terms":["edition"],"fields":["name","brand","{tourism/hotel}"],"tags":{"brand:wikidata":"Q91218404","tourism":"hotel"},"addTags":{"brand":"Edition","brand:wikidata":"Q91218404","name":"Edition","tourism":"hotel"}},"tourism/hotel/lxr-c9a464":{"name":"LXR Hotels & Resorts","locationSet":{"include":["ae","ai","gb","jp","sc","tr","us"]},"geometry":["point","area"],"matchScore":2,"terms":["lxr"],"fields":["name","brand","{tourism/hotel}"],"tags":{"brand:wikidata":"Q64605184","tourism":"hotel"},"addTags":{"brand":"LXR","brand:wikidata":"Q64605184","name":"LXR","tourism":"hotel"}},"tourism/hotel/occidental-e4b4d8":{"name":"Occidental","locationSet":{"include":["ae","cr","cu","cz","do","es","it","mx","tn","tr"]},"geometry":["point","area"],"matchScore":2,"terms":["occidental"],"fields":["name","brand","{tourism/hotel}"],"tags":{"brand:wikidata":"Q15148996","tourism":"hotel"},"addTags":{"brand":"Occidental","brand:wikidata":"Q15148996","name":"Occidental","tourism":"hotel"}},"tourism/hotel/roommate-a3fb22":{"name":"Room Mate","locationSet":{"include":["es","fr","it","mx","nl","tr","us"]},"geometry":["point","area"],"matchScore":2,"terms":["room mate"],"fields":["name","brand","{tourism/hotel}"],"tags":{"brand:wikidata":"Q26260849","tourism":"hotel"},"addTags":{"brand":"Room Mate","brand:wikidata":"Q26260849","name":"Room Mate","tourism":"hotel"}},"tourism/hotel/yotel-ebcca5":{"name":"YOTEL","locationSet":{"include":["ae","ch","fx","gb","nl","pt","sg","tr","us-ca","us-dc","us-fl","us-ma","us-ny"]},"geometry":["point","area"],"matchScore":2,"terms":["yotel"],"fields":["name","brand","{tourism/hotel}"],"tags":{"brand:wikidata":"Q8046002","tourism":"hotel"},"addTags":{"brand":"YOTEL","brand:wikidata":"Q8046002","name":"YOTEL","tourism":"hotel"}},"amenity/car_sharing/zipcar-aa2ec2":{"name":"Zipcar","locationSet":{"include":["ca","cr","gb","is","tr","tw","us"]},"geometry":["point","area"],"matchScore":2,"terms":["streetcar","zipcar"],"tags":{"amenity":"car_sharing","operator:wikidata":"Q1069924"},"addTags":{"amenity":"car_sharing","operator":"Zipcar","operator:wikidata":"Q1069924"}},"amenity/clinic/tcsaglikbakanligi-712bef":{"name":"T.C. Sağlık Bakanlığı","locationSet":{"include":["tr"]},"geometry":["point","area"],"matchScore":2,"terms":["t.c. sağlık bakanlığı"],"fields":["name","operator","{amenity/clinic}"],"reference":{"key":"amenity","value":"clinic"},"tags":{"amenity":"clinic","operator:wikidata":"Q4294365"},"addTags":{"amenity":"clinic","healthcare":"clinic","operator":"T.C. Sağlık Bakanlığı","operator:wikidata":"Q4294365"}},"amenity/hospital/acibadem-007b1e":{"name":"Acıbadem","locationSet":{"include":["bg","de","mk","nl","tr"]},"geometry":["area","point"],"matchScore":2,"terms":["acıbadem"],"fields":["name","operator","{amenity/hospital}"],"reference":{"key":"amenity","value":"hospital"},"tags":{"amenity":"hospital","operator:wikidata":"Q19610384"},"addTags":{"amenity":"hospital","healthcare":"hospital","operator":"Acıbadem","operator:wikidata":"Q19610384"}},"amenity/hospital/medicalpark-4e781b":{"name":"Medical Park (Türkiye)","locationSet":{"include":["tr"]},"geometry":["area","point"],"matchScore":2,"terms":["medical park"],"fields":["name","operator","{amenity/hospital}"],"reference":{"key":"amenity","value":"hospital"},"tags":{"amenity":"hospital","operator:wikidata":"Q6073312"},"addTags":{"amenity":"hospital","healthcare":"hospital","operator":"Medical Park","operator:wikidata":"Q6073312"}},"amenity/hospital/saglikbakanligi-4e781b":{"name":"Sağlık Bakanlığı","locationSet":{"include":["tr"]},"geometry":["area","point"],"matchScore":2,"terms":["sağlık bakanlığı","t.c. sağlık bakanlığı"],"fields":["name","operator","{amenity/hospital}"],"reference":{"key":"amenity","value":"hospital"},"tags":{"amenity":"hospital","operator:wikidata":"Q4294365"},"addTags":{"amenity":"hospital","healthcare":"hospital","operator":"Sağlık Bakanlığı","operator:wikidata":"Q4294365"}},"amenity/library/istanbulbuyuksehirbelediyesi-80cd01":{"name":"İstanbul Büyükşehir Belediyesi","locationSet":{"include":["tr"]},"geometry":["point","area"],"matchScore":2,"terms":["i̇stanbul büyükşehir belediyesi"],"tags":{"amenity":"library","operator:wikidata":"Q6085390"},"addTags":{"amenity":"library","operator":"İstanbul Büyükşehir Belediyesi","operator:wikidata":"Q6085390"}},"amenity/parking/ispark-2ec6a1":{"name":"İSPARK","locationSet":{"include":["tr"]},"geometry":["area","point","vertex"],"matchScore":2,"terms":["i̇spark"],"fields":["name","operator","{amenity/parking}"],"tags":{"amenity":"parking","operator:wikidata":"Q97215078"},"addTags":{"amenity":"parking","brand":"İSPARK","brand:wikidata":"Q97215078","fee":"yes","name":"İSPARK","operator":"İSPARK","operator:wikidata":"Q97215078"}},"amenity/police/emniyetgenelmudurlugu-8fcafc":{"name":"Emniyet Genel Müdürlüğü","locationSet":{"include":["tr"]},"geometry":["point","area"],"matchScore":2,"terms":["egm","emniyet genel müdürlüğü"],"tags":{"amenity":"police","operator:wikidata":"Q943607"},"addTags":{"amenity":"police","operator":"Emniyet Genel Müdürlüğü","operator:short":"EGM","operator:wikidata":"Q943607"}},"amenity/post_box/araskargo-74be01":{"name":"Aras Kargo","locationSet":{"include":["tr"]},"geometry":["point","vertex"],"matchScore":2,"terms":["aras kargo"],"tags":{"amenity":"post_box","operator:wikidata":"Q6094691"},"addTags":{"amenity":"post_box","operator":"Aras Kargo","operator:wikidata":"Q6094691"}},"amenity/post_box/mngkargo-74be01":{"name":"MNG Kargo","locationSet":{"include":["tr"]},"geometry":["point","vertex"],"matchScore":2,"terms":["mng kargo"],"tags":{"amenity":"post_box","operator:wikidata":"Q20472590"},"addTags":{"amenity":"post_box","operator":"MNG Kargo","operator:wikidata":"Q20472590"}},"amenity/post_box/ptt-74be01":{"name":"PTT","locationSet":{"include":["tr"]},"geometry":["point","vertex"],"matchScore":2,"terms":["ptt"],"tags":{"amenity":"post_box","operator:wikidata":"Q3079259"},"addTags":{"amenity":"post_box","operator":"PTT","operator:wikidata":"Q3079259"}},"amenity/post_box/suratkargo-74be01":{"name":"Sürat Kargo","locationSet":{"include":["tr"]},"geometry":["point","vertex"],"matchScore":2,"terms":["sürat kargo"],"tags":{"amenity":"post_box","operator:wikidata":"Q6051265"},"addTags":{"amenity":"post_box","operator":"Sürat Kargo","operator:wikidata":"Q6051265"}},"amenity/post_box/yurticikargo-74be01":{"name":"Yurtiçi Kargo","locationSet":{"include":["tr"]},"geometry":["point","vertex"],"matchScore":2,"terms":["yurtiçi kargo"],"tags":{"amenity":"post_box","operator:wikidata":"Q6505802"},"addTags":{"amenity":"post_box","operator":"Yurtiçi Kargo","operator:wikidata":"Q6505802"}},"amenity/post_office/araskargo-56f07f":{"name":"Aras Kargo","locationSet":{"include":["tr"]},"geometry":["point","area"],"matchScore":2,"terms":["aras kargo"],"fields":["name","operator","{amenity/post_office}"],"tags":{"amenity":"post_office","operator:wikidata":"Q6094691"},"addTags":{"amenity":"post_office","operator":"Aras Kargo","operator:wikidata":"Q6094691"}},"amenity/post_office/mngkargo-56f07f":{"name":"MNG Kargo","locationSet":{"include":["tr"]},"geometry":["point","area"],"matchScore":2,"terms":["mng kargo"],"fields":["name","operator","{amenity/post_office}"],"tags":{"amenity":"post_office","operator:wikidata":"Q20472590"},"addTags":{"amenity":"post_office","operator":"MNG Kargo","operator:wikidata":"Q20472590"}},"amenity/post_office/ptt-56f07f":{"name":"PTT","locationSet":{"include":["tr"]},"geometry":["point","area"],"matchScore":2,"terms":["ptt"],"fields":["name","operator","{amenity/post_office}"],"tags":{"amenity":"post_office","operator:wikidata":"Q3079259"},"addTags":{"amenity":"post_office","operator":"PTT","operator:wikidata":"Q3079259"}},"amenity/post_office/suratkargo-56f07f":{"name":"Sürat Kargo","locationSet":{"include":["tr"]},"geometry":["point","area"],"matchScore":2,"terms":["sürat kargo"],"fields":["name","operator","{amenity/post_office}"],"tags":{"amenity":"post_office","operator:wikidata":"Q6051265"},"addTags":{"amenity":"post_office","operator":"Sürat Kargo","operator:wikidata":"Q6051265"}},"amenity/post_office/yurticikargo-56f07f":{"name":"Yurtiçi Kargo","locationSet":{"include":["tr"]},"geometry":["point","area"],"matchScore":2,"terms":["yurtiçi kargo"],"fields":["name","operator","{amenity/post_office}"],"tags":{"amenity":"post_office","operator:wikidata":"Q6505802"},"addTags":{"amenity":"post_office","operator":"Yurtiçi Kargo","operator:wikidata":"Q6505802"}},"amenity/telephone/turktelekom-665e92":{"name":"Türk Telekom","locationSet":{"include":["tr"]},"geometry":["point","vertex"],"matchScore":2,"terms":["türk telekom"],"fields":["name","operator","{amenity/telephone}"],"tags":{"amenity":"telephone","operator:wikidata":"Q263700"},"addTags":{"amenity":"telephone","operator":"Türk Telekom","operator:wikidata":"Q263700"}},"internet_access/wlan/ibbwifi-60e48e":{"name":"ibbWiFi","locationSet":{"include":["tr"]},"geometry":["point","area"],"matchScore":2,"terms":["ibbwifi","immwifi"],"tags":{"internet_access":"wlan","operator:wikidata":"Q113512188"},"addTags":{"internet_access":"wlan","internet_access:fee":"no","internet_access:operator":"ibbWiFi","internet_access:ssid":"ibbWiFi","operator":"ibbWiFi","operator:wikidata":"Q113512188"}},"leisure/nature_reserve/pendikbelediyesi-f5e45e":{"name":"Pendik Belediyesi","locationSet":{"include":["tr"]},"geometry":["area","point"],"matchScore":2,"terms":["pendik belediyesi"],"tags":{"leisure":"nature_reserve","operator:wikidata":"Q857056"},"addTags":{"leisure":"nature_reserve","operator":"Pendik Belediyesi","operator:type":"government","operator:wikidata":"Q857056"}},"leisure/park/pendikbelediyesi-2ed982":{"name":"Pendik Belediyesi","locationSet":{"include":["tr"]},"geometry":["area","point"],"matchScore":2,"terms":["pendik belediyesi"],"tags":{"leisure":"park","operator:wikidata":"Q857056"},"addTags":{"leisure":"park","operator":"Pendik Belediyesi","operator:type":"government","operator:wikidata":"Q857056"}},"power/line/teias-54dc4b":{"name":"TEİAŞ","locationSet":{"include":["tr"]},"geometry":["line"],"matchScore":2,"terms":["tei̇aş"],"tags":{"operator:wikidata":"Q6093056","power":"line"},"addTags":{"operator":"TEİAŞ","operator:wikidata":"Q6093056","power":"line"}},"power/minor_line/teias-34b30e":{"name":"TEİAŞ","locationSet":{"include":["tr"]},"geometry":["line"],"matchScore":2,"terms":["tei̇aş"],"tags":{"operator:wikidata":"Q6093056","power":"minor_line"},"addTags":{"operator":"TEİAŞ","operator:wikidata":"Q6093056","power":"minor_line"}},"power/plant/energopro-8a4876":{"name":"Energo-Pro","locationSet":{"include":["bg","cz","ge","si","tr"]},"geometry":["area"],"matchScore":2,"terms":["energo-pro"],"tags":{"operator:wikidata":"Q11878927","power":"plant"},"addTags":{"operator":"Energo-Pro","operator:wikidata":"Q11878927","power":"plant"}},"power/plant/euas-bd89f3":{"name":"EÜAŞ","locationSet":{"include":["tr"]},"geometry":["area"],"matchScore":2,"terms":["eüaş"],"tags":{"operator:wikidata":"Q5358766","power":"plant"},"addTags":{"operator":"EÜAŞ","operator:wikidata":"Q5358766","power":"plant"}},"power/pole/teias-822e3b":{"name":"TEİAŞ","locationSet":{"include":["tr"]},"geometry":["point","vertex"],"matchScore":2,"terms":["tei̇aş"],"tags":{"operator:wikidata":"Q6093056","power":"pole"},"addTags":{"operator":"TEİAŞ","operator:wikidata":"Q6093056","power":"pole"}},"power/substation/tcdd-13aefb":{"name":"TCDD","locationSet":{"include":["tr"]},"geometry":["area","point"],"matchScore":2,"terms":["tcdd"],"tags":{"operator:wikidata":"Q499967","power":"substation"},"addTags":{"operator":"TCDD","operator:wikidata":"Q499967","power":"substation"}},"power/substation/tedas-13aefb":{"name":"TEDAŞ","locationSet":{"include":["tr"]},"geometry":["area","point"],"matchScore":2,"terms":["tedaş"],"tags":{"operator:wikidata":"Q6097181","power":"substation"},"addTags":{"operator":"TEDAŞ","operator:wikidata":"Q6097181","power":"substation"}},"power/substation/teias-13aefb":{"name":"TEİAŞ","locationSet":{"include":["tr"]},"geometry":["area","point"],"matchScore":2,"terms":["teai̇ş","tei̇aş"],"tags":{"operator:wikidata":"Q6093056","power":"substation"},"addTags":{"operator":"TEİAŞ","operator:wikidata":"Q6093056","power":"substation"}},"power/tower/teias-9b1ae4":{"name":"TEİAŞ","locationSet":{"include":["tr"]},"geometry":["point","vertex"],"matchScore":2,"terms":["tei̇aş"],"tags":{"operator:wikidata":"Q6093056","power":"tower"},"addTags":{"operator":"TEİAŞ","operator:wikidata":"Q6093056","power":"tower"}},"power/transformer/tcdd-31b591":{"name":"TCDD","locationSet":{"include":["tr"]},"geometry":["point","vertex"],"matchScore":2,"terms":["tcdd"],"tags":{"operator:wikidata":"Q499967","power":"transformer"},"addTags":{"operator":"TCDD","operator:wikidata":"Q499967","power":"transformer"}},"power/transformer/tedas-31b591":{"name":"TEDAŞ","locationSet":{"include":["tr"]},"geometry":["point","vertex"],"matchScore":2,"terms":["tedaş"],"tags":{"operator:wikidata":"Q6097181","power":"transformer"},"addTags":{"operator":"TEDAŞ","operator:wikidata":"Q6097181","power":"transformer"}},"power/transformer/teias-31b591":{"name":"TEİAŞ","locationSet":{"include":["tr"]},"geometry":["point","vertex"],"matchScore":2,"terms":["teai̇ş","tei̇aş"],"tags":{"operator:wikidata":"Q6093056","power":"transformer"},"addTags":{"operator":"TEİAŞ","operator:wikidata":"Q6093056","power":"transformer"}},"type/route/railway/tcdd-e43c16":{"name":"TCDD","locationSet":{"include":["tr"]},"geometry":["relation"],"matchScore":2,"terms":["tcdd","tcdd taşımacılık","tcddt"],"reference":{"key":"route","value":"railway"},"tags":{"operator:wikidata":"Q28220824","route":"railway","type":"route"},"addTags":{"operator":"TCDD","operator:wikidata":"Q28220824","route":"railway","type":"route"}},"public_transport/platform/bus_point/ego-9b428f":{"name":"EGO","locationSet":{"include":["tr"]},"geometry":["point","vertex"],"matchScore":2,"terms":["ego"],"reference":{"key":"public_transport","value":"platform"},"tags":{"bus":"yes","network:wikidata":"Q6070301","public_transport":"platform"},"addTags":{"bus":"yes","highway":"bus_stop","network":"EGO","network:wikidata":"Q6070301","public_transport":"platform"}},"public_transport/platform/bus_point/iett-9b428f":{"name":"İETT","locationSet":{"include":["tr"]},"geometry":["point","vertex"],"matchScore":2,"terms":["i̇ett"],"reference":{"key":"public_transport","value":"platform"},"tags":{"bus":"yes","network:wikidata":"Q343136","public_transport":"platform"},"addTags":{"bus":"yes","highway":"bus_stop","network":"İETT","network:wikidata":"Q343136","public_transport":"platform"}},"type/route/bus/ego-8150d4":{"name":"EGO","locationSet":{"include":["tr"]},"geometry":["relation"],"matchScore":2,"terms":["ego"],"reference":{"key":"route","value":"bus"},"tags":{"network:wikidata":"Q6070301","route":"bus","type":"route"},"addTags":{"network":"EGO","network:wikidata":"Q6070301","route":"bus","type":"route"}},"type/route/bus/iett-8150d4":{"name":"İETT","locationSet":{"include":["tr"]},"geometry":["relation"],"matchScore":2,"terms":["i̇ett"],"reference":{"key":"route","value":"bus"},"tags":{"network:wikidata":"Q343136","route":"bus","type":"route"},"addTags":{"network":"İETT","network:wikidata":"Q343136","route":"bus","type":"route"}},"type/route/subway/istanbulmetrosu-fcc2a0":{"name":"İstanbul Metrosu","locationSet":{"include":["tr"]},"geometry":["relation"],"matchScore":2,"terms":["i̇stanbul metrosu","metro i̇stanbul"],"reference":{"key":"route","value":"subway"},"tags":{"network:wikidata":"Q498172","route":"subway","type":"route"},"addTags":{"network":"İstanbul Metrosu","network:wikidata":"Q498172","operator":"Metro İstanbul","operator:wikidata":"Q344299","route":"subway","type":"route"}},"type/route/train/marmaray-764b53":{"name":"Marmaray","locationSet":{"include":["tr"]},"geometry":["relation"],"matchScore":2,"terms":["marmaray","tcdd taşımacılık"],"reference":{"key":"route","value":"train"},"tags":{"network:wikidata":"Q497844","route":"train","type":"route"},"addTags":{"network":"Marmaray","network:wikidata":"Q497844","operator":"TCDD Taşımacılık","operator:wikidata":"Q28220824","route":"train","type":"route"}},"type/route/train/turkiyecumhuriyetidevletdemiryollari-764b53":{"name":"Türkiye Cumhuriyeti Devlet Demiryolları","locationSet":{"include":["tr"]},"geometry":["relation"],"matchScore":2,"terms":["tcdd","tcdd taşımacılık","tr-railway","türkiye cumhuriyeti devlet demiryolları"],"reference":{"key":"route","value":"train"},"tags":{"network:wikidata":"Q499967","route":"train","type":"route"},"addTags":{"network":"Türkiye Cumhuriyeti Devlet Demiryolları","network:short":"TCDD","network:wikidata":"Q499967","operator":"TCDD Taşımacılık","operator:wikidata":"Q28220824","route":"train","type":"route"}}}