{"shop/alcohol/bcliquorstore-0c8640":{"name":"BC Liquor Store","locationSet":{"include":["ca-bc"]},"geometry":["point","area"],"matchScore":2,"terms":["bc liquor store"],"tags":{"brand:wikidata":"Q43079557","shop":"alcohol"},"addTags":{"brand":"BC Liquor Store","brand:wikidata":"Q43079557","name":"BC Liquor Store","shop":"alcohol"}},"shop/cannabis/bccannabisstore-8d0d2a":{"name":"BC Cannabis Store","locationSet":{"include":["ca-bc"]},"geometry":["point","area"],"matchScore":2,"terms":["bc cannabis store"],"tags":{"brand:wikidata":"Q57598825","shop":"cannabis"},"addTags":{"brand":"BC Cannabis Store","brand:wikidata":"Q57598825","name":"BC Cannabis Store","shop":"cannabis"}},"shop/trade/finningcat-4e6583":{"name":"Finning CAT","locationSet":{"include":["ca-ab","ca-bc","ca-nt","ca-sk","ca-yt"]},"geometry":["point","area"],"matchScore":2,"terms":["finning cat"],"tags":{"brand:wikidata":"Q109619686","shop":"trade"},"addTags":{"brand":"Finning CAT","brand:wikidata":"Q109619686","name":"Finning CAT","shop":"trade","trade":"construction_equipment"}},"amenity/fire_station/vancouverfireandrescueservices-46a900":{"name":"Vancouver Fire and Rescue Services","locationSet":{"include":["ca-bc"]},"geometry":["point","area"],"matchScore":2,"terms":["vancouver fire and rescue services"],"tags":{"amenity":"fire_station","operator:wikidata":"Q7914180"},"addTags":{"amenity":"fire_station","operator":"Vancouver Fire and Rescue Services","operator:wikidata":"Q7914180"}},"amenity/hospital/fraserhealthauthority-bebe85":{"name":"Fraser Health Authority","locationSet":{"include":["ca-bc"]},"geometry":["area","point"],"matchScore":2,"terms":["fraser health authority"],"fields":["name","operator","{amenity/hospital}"],"reference":{"key":"amenity","value":"hospital"},"tags":{"amenity":"hospital","operator:wikidata":"Q5493608"},"addTags":{"amenity":"hospital","healthcare":"hospital","operator":"Fraser Health Authority","operator:wikidata":"Q5493608"}},"amenity/library/fraservalleyregionallibrary-b48f8b":{"name":"Fraser Valley Regional Library","locationSet":{"include":["ca-bc"]},"geometry":["point","area"],"matchScore":2,"terms":["fraser valley regional library","fvrl"],"tags":{"amenity":"library","operator:wikidata":"Q5493694"},"addTags":{"amenity":"library","operator":"Fraser Valley Regional Library","operator:short":"FVRL","operator:type":"public","operator:wikidata":"Q5493694"}},"amenity/library/vancouverpubliclibrary-b48f8b":{"name":"Vancouver Public Library","locationSet":{"include":["ca-bc"]},"geometry":["point","area"],"matchScore":2,"terms":["vancouver public library","vpl"],"tags":{"amenity":"library","operator:wikidata":"Q1376408"},"addTags":{"amenity":"library","operator":"Vancouver Public Library","operator:short":"VPL","operator:type":"public","operator:wikidata":"Q1376408"}},"amenity/school/burnabyschools-e17d3c":{"name":"Burnaby Schools","locationSet":{"include":["ca-bc"]},"geometry":["area","point"],"matchScore":2,"terms":["burnaby school district","burnaby schools"],"tags":{"amenity":"school","operator:wikidata":"Q7432190"},"addTags":{"amenity":"school","operator":"Burnaby Schools","operator:type":"public","operator:wikidata":"Q7432190"}},"amenity/school/schooldistrict67okanaganskaha-e17d3c":{"name":"School District 67 Okanagan Skaha","locationSet":{"include":["ca-bc"]},"geometry":["area","point"],"matchScore":2,"terms":["school district 67","school district 67 okanagan skaha"],"tags":{"amenity":"school","operator:wikidata":"Q7432212"},"addTags":{"amenity":"school","operator":"School District 67 Okanagan Skaha","operator:wikidata":"Q7432212"}},"emergency/ambulance_station/bcambulanceservice-ffbb04":{"name":"BC Ambulance Service","locationSet":{"include":["ca-bc"]},"geometry":["point","area"],"matchScore":2,"terms":["bc ambulance service","british columbia ambulance service"],"tags":{"emergency":"ambulance_station","operator:wikidata":"Q4969671"},"addTags":{"emergency":"ambulance_station","operator":"BC Ambulance Service","operator:wikidata":"Q4969671"}},"leisure/nature_reserve/abbotsfordparksrecreationandculture-56b35c":{"name":"Abbotsford Parks, Recreation & Culture","locationSet":{"include":["ca-bc"]},"geometry":["area","point"],"matchScore":2,"terms":["abbotsford parks, recreation & culture","city of abbotsford, department of parks, recreation & culture"],"tags":{"leisure":"nature_reserve","operator:wikidata":"Q110063681"},"addTags":{"leisure":"nature_reserve","operator":"Abbotsford Parks, Recreation & Culture","operator:type":"public","operator:wikidata":"Q110063681"}},"leisure/nature_reserve/centralregionaldistrict-56b35c":{"name":"Central Regional District","locationSet":{"include":["ca-bc"]},"geometry":["area","point"],"matchScore":2,"terms":["central regional district","crd","crd parks"],"tags":{"leisure":"nature_reserve","operator:wikidata":"Q550219"},"addTags":{"leisure":"nature_reserve","operator":"Central Regional District","operator:short":"CRD","operator:type":"public","operator:wikidata":"Q550219"}},"leisure/nature_reserve/cityofdelta-56b35c":{"name":"City of Delta","locationSet":{"include":["ca-bc"]},"geometry":["area","point"],"matchScore":2,"terms":["city of delta"],"tags":{"leisure":"nature_reserve","operator:wikidata":"Q851838"},"addTags":{"leisure":"nature_reserve","operator":"City of Delta","operator:type":"public","operator:wikidata":"Q851838"}},"leisure/nature_reserve/cityofkamloops-56b35c":{"name":"City of Kamloops","locationSet":{"include":["ca-bc"]},"geometry":["area","point"],"matchScore":2,"terms":["city of kamloops"],"tags":{"leisure":"nature_reserve","operator:wikidata":"Q473209"},"addTags":{"leisure":"nature_reserve","operator":"City of Kamloops","operator:type":"public","operator:wikidata":"Q473209"}},"leisure/nature_reserve/cityofrichmond-56b35c":{"name":"City of Richmond (Canada)","locationSet":{"include":["ca-bc"]},"geometry":["area","point"],"matchScore":2,"terms":["city of richmond"],"tags":{"leisure":"nature_reserve","operator:wikidata":"Q236837"},"addTags":{"leisure":"nature_reserve","operator":"City of Richmond","operator:type":"public","operator:wikidata":"Q236837"}},"leisure/nature_reserve/cityofsurrey-56b35c":{"name":"City of Surrey","locationSet":{"include":["ca-bc"]},"geometry":["area","point"],"matchScore":2,"terms":["city of surrey"],"tags":{"leisure":"nature_reserve","operator:wikidata":"Q390583"},"addTags":{"leisure":"nature_reserve","operator":"City of Surrey","operator:type":"public","operator:wikidata":"Q390583"}},"leisure/nature_reserve/cowichanvalleyregionaldistrict-56b35c":{"name":"Cowichan Valley Regional District","locationSet":{"include":["ca-bc"]},"geometry":["area","point"],"matchScore":2,"terms":["cowichan valley regional district","cvrd"],"tags":{"leisure":"nature_reserve","operator:wikidata":"Q1138212"},"addTags":{"leisure":"nature_reserve","operator":"Cowichan Valley Regional District","operator:short":"CVRD","operator:type":"public","operator:wikidata":"Q1138212"}},"leisure/nature_reserve/metrovancouverregionalparks-56b35c":{"name":"Metro Vancouver Regional Parks","locationSet":{"include":["ca-bc"]},"geometry":["area","point"],"matchScore":2,"terms":["metro vancouver parks","metro vancouver regional parks"],"tags":{"leisure":"nature_reserve","operator:wikidata":"Q110072524"},"addTags":{"leisure":"nature_reserve","operator":"Metro Vancouver Regional Parks","operator:type":"public","operator:wikidata":"Q110072524"}},"leisure/park/abbotsfordparksrecreationandculture-b3cf59":{"name":"Abbotsford Parks, Recreation & Culture","locationSet":{"include":["ca-bc"]},"geometry":["area","point"],"matchScore":2,"terms":["abbotsford parks, recreation & culture","city of abbotsford, department of parks, recreation & culture"],"tags":{"leisure":"park","operator:wikidata":"Q110063681"},"addTags":{"leisure":"park","operator":"Abbotsford Parks, Recreation & Culture","operator:type":"public","operator:wikidata":"Q110063681"}},"leisure/park/centralregionaldistrict-b3cf59":{"name":"Central Regional District","locationSet":{"include":["ca-bc"]},"geometry":["area","point"],"matchScore":2,"terms":["central regional district","crd","crd parks"],"tags":{"leisure":"park","operator:wikidata":"Q550219"},"addTags":{"leisure":"park","operator":"Central Regional District","operator:short":"CRD","operator:type":"public","operator:wikidata":"Q550219"}},"leisure/park/cityofdelta-b3cf59":{"name":"City of Delta","locationSet":{"include":["ca-bc"]},"geometry":["area","point"],"matchScore":2,"terms":["city of delta"],"tags":{"leisure":"park","operator:wikidata":"Q851838"},"addTags":{"leisure":"park","operator":"City of Delta","operator:type":"public","operator:wikidata":"Q851838"}},"leisure/park/cityofkamloops-b3cf59":{"name":"City of Kamloops","locationSet":{"include":["ca-bc"]},"geometry":["area","point"],"matchScore":2,"terms":["city of kamloops"],"tags":{"leisure":"park","operator:wikidata":"Q473209"},"addTags":{"leisure":"park","operator":"City of Kamloops","operator:type":"public","operator:wikidata":"Q473209"}},"leisure/park/cityofrichmond-b3cf59":{"name":"City of Richmond (Canada)","locationSet":{"include":["ca-bc"]},"geometry":["area","point"],"matchScore":2,"terms":["city of richmond"],"tags":{"leisure":"park","operator:wikidata":"Q236837"},"addTags":{"leisure":"park","operator":"City of Richmond","operator:type":"public","operator:wikidata":"Q236837"}},"leisure/park/cityofsurrey-b3cf59":{"name":"City of Surrey","locationSet":{"include":["ca-bc"]},"geometry":["area","point"],"matchScore":2,"terms":["city of surrey"],"tags":{"leisure":"park","operator:wikidata":"Q390583"},"addTags":{"leisure":"park","operator":"City of Surrey","operator:type":"public","operator:wikidata":"Q390583"}},"leisure/park/cowichanvalleyregionaldistrict-b3cf59":{"name":"Cowichan Valley Regional District","locationSet":{"include":["ca-bc"]},"geometry":["area","point"],"matchScore":2,"terms":["cowichan valley regional district","cvrd"],"tags":{"leisure":"park","operator:wikidata":"Q1138212"},"addTags":{"leisure":"park","operator":"Cowichan Valley Regional District","operator:short":"CVRD","operator:type":"public","operator:wikidata":"Q1138212"}},"leisure/park/metrovancouverregionalparks-b3cf59":{"name":"Metro Vancouver Regional Parks","locationSet":{"include":["ca-bc"]},"geometry":["area","point"],"matchScore":2,"terms":["metro vancouver parks","metro vancouver regional parks"],"tags":{"leisure":"park","operator:wikidata":"Q110072524"},"addTags":{"leisure":"park","operator":"Metro Vancouver Regional Parks","operator:type":"public","operator:wikidata":"Q110072524"}},"man_made/pipeline/bchydro-f62730":{"name":"BC Hydro","locationSet":{"include":["ca-bc"]},"geometry":["line"],"matchScore":2,"terms":["bc hydro"],"tags":{"man_made":"pipeline","operator:wikidata":"Q795720"},"addTags":{"man_made":"pipeline","operator":"BC Hydro","operator:type":"government","operator:wikidata":"Q795720"}},"power/line/bchydro-5611ce":{"name":"BC Hydro","locationSet":{"include":["ca-bc"]},"geometry":["line"],"matchScore":2,"terms":["bc hydro"],"tags":{"operator:wikidata":"Q795720","power":"line"},"addTags":{"operator":"BC Hydro","operator:wikidata":"Q795720","power":"line"}},"power/line/epcor-ec456d":{"name":"EPCOR","locationSet":{"include":["ca-ab","ca-bc","ca-on","us-az","us-nm","us-tx"]},"geometry":["line"],"matchScore":2,"terms":["aqualta","eltec","epcor"],"tags":{"operator:wikidata":"Q5323849","power":"line"},"addTags":{"operator":"EPCOR","operator:wikidata":"Q5323849","power":"line"}},"power/minor_line/bchydro-b42389":{"name":"BC Hydro","locationSet":{"include":["ca-bc"]},"geometry":["line"],"matchScore":2,"terms":["bc hydro"],"tags":{"operator:wikidata":"Q795720","power":"minor_line"},"addTags":{"operator":"BC Hydro","operator:wikidata":"Q795720","power":"minor_line"}},"power/minor_line/epcor-dda2f7":{"name":"EPCOR","locationSet":{"include":["ca-ab","ca-bc","ca-on","us-az","us-nm","us-tx"]},"geometry":["line"],"matchScore":2,"terms":["aqualta","eltec","epcor"],"tags":{"operator:wikidata":"Q5323849","power":"minor_line"},"addTags":{"operator":"EPCOR","operator:wikidata":"Q5323849","power":"minor_line"}},"power/plant/bchydro-4dbdc9":{"name":"BC Hydro","locationSet":{"include":["ca-bc"]},"geometry":["area"],"matchScore":2,"terms":["bc hydro"],"tags":{"operator:wikidata":"Q795720","power":"plant"},"addTags":{"operator":"BC Hydro","operator:wikidata":"Q795720","power":"plant"}},"power/pole/bchydro-f4e8ab":{"name":"BC Hydro","locationSet":{"include":["ca-bc"]},"geometry":["point","vertex"],"matchScore":2,"terms":["bc hydro"],"tags":{"operator:wikidata":"Q795720","power":"pole"},"addTags":{"operator":"BC Hydro","operator:wikidata":"Q795720","power":"pole"}},"power/pole/epcor-e09e4b":{"name":"EPCOR","locationSet":{"include":["ca-ab","ca-bc","ca-on","us-az","us-nm","us-tx"]},"geometry":["point","vertex"],"matchScore":2,"terms":["aqualta","eltec","epcor"],"tags":{"operator:wikidata":"Q5323849","power":"pole"},"addTags":{"operator":"EPCOR","operator:wikidata":"Q5323849","power":"pole"}},"power/substation/bchydro-9c288b":{"name":"BC Hydro","locationSet":{"include":["ca-bc"]},"geometry":["area","point"],"matchScore":2,"terms":["bc hydro"],"tags":{"operator:wikidata":"Q795720","power":"substation"},"addTags":{"operator":"BC Hydro","operator:wikidata":"Q795720","power":"substation"}},"power/substation/epcor-b7915e":{"name":"EPCOR","locationSet":{"include":["ca-ab","ca-bc","ca-on","us-az","us-nm","us-tx"]},"geometry":["area","point"],"matchScore":2,"terms":["aqualta","eltec","epcor"],"tags":{"operator:wikidata":"Q5323849","power":"substation"},"addTags":{"operator":"EPCOR","operator:wikidata":"Q5323849","power":"substation"}},"power/tower/bchydro-20cbd8":{"name":"BC Hydro","locationSet":{"include":["ca-bc"]},"geometry":["point","vertex"],"matchScore":2,"terms":["bc hydro"],"tags":{"operator:wikidata":"Q795720","power":"tower"},"addTags":{"operator":"BC Hydro","operator:wikidata":"Q795720","power":"tower"}},"power/tower/epcor-f12bdc":{"name":"EPCOR","locationSet":{"include":["ca-ab","ca-bc","ca-on","us-az","us-nm","us-tx"]},"geometry":["point","vertex"],"matchScore":2,"terms":["aqualta","eltec","epcor"],"tags":{"operator:wikidata":"Q5323849","power":"tower"},"addTags":{"operator":"EPCOR","operator:wikidata":"Q5323849","power":"tower"}},"power/transformer/bchydro-401b6b":{"name":"BC Hydro","locationSet":{"include":["ca-bc"]},"geometry":["point","vertex"],"matchScore":2,"terms":["bc hydro"],"tags":{"operator:wikidata":"Q795720","power":"transformer"},"addTags":{"operator":"BC Hydro","operator:wikidata":"Q795720","power":"transformer"}},"power/transformer/epcor-f6996f":{"name":"EPCOR","locationSet":{"include":["ca-ab","ca-bc","ca-on","us-az","us-nm","us-tx"]},"geometry":["point","vertex"],"matchScore":2,"terms":["aqualta","eltec","epcor"],"tags":{"operator:wikidata":"Q5323849","power":"transformer"},"addTags":{"operator":"EPCOR","operator:wikidata":"Q5323849","power":"transformer"}},"public_transport/station_ferry/alaskamarinehighway-bac559":{"name":"Alaska Marine Highway","locationSet":{"include":["ca-bc","us-ak","us-wa"]},"geometry":["vertex","point","area"],"matchScore":2,"terms":["alask marine highway","alaska marine highway"],"reference":{"key":"amenity","value":"ferry_terminal"},"tags":{"ferry":"yes","network:wikidata":"Q801878","public_transport":"station"},"addTags":{"amenity":"ferry_terminal","ferry":"yes","network":"Alaska Marine Highway","network:wikidata":"Q801878","public_transport":"station"}},"public_transport/station_ferry/bcferries-cd7fc0":{"name":"BC Ferries","locationSet":{"include":["ca-bc"]},"geometry":["vertex","point","area"],"matchScore":2,"terms":["bc ferries"],"reference":{"key":"amenity","value":"ferry_terminal"},"tags":{"ferry":"yes","network:wikidata":"Q795723","public_transport":"station"},"addTags":{"amenity":"ferry_terminal","ferry":"yes","network":"BC Ferries","network:wikidata":"Q795723","public_transport":"station"}},"public_transport/station_ferry/britishcolumbiaministryoftransportation-cd7fc0":{"name":"British Columbia Ministry of Transportation","locationSet":{"include":["ca-bc"]},"geometry":["vertex","point","area"],"matchScore":2,"terms":["british columbia ministry of transportation"],"reference":{"key":"amenity","value":"ferry_terminal"},"tags":{"ferry":"yes","network:wikidata":"Q4969732","public_transport":"station"},"addTags":{"amenity":"ferry_terminal","ferry":"yes","network":"British Columbia Ministry of Transportation","network:wikidata":"Q4969732","public_transport":"station"}},"public_transport/station_ferry/falsecreekferries-cd7fc0":{"name":"False Creek Ferries","locationSet":{"include":["ca-bc"]},"geometry":["vertex","point","area"],"matchScore":2,"terms":["false creek ferries"],"reference":{"key":"amenity","value":"ferry_terminal"},"tags":{"ferry":"yes","network:wikidata":"Q5432638","public_transport":"station"},"addTags":{"amenity":"ferry_terminal","ferry":"yes","network":"False Creek Ferries","network:wikidata":"Q5432638","public_transport":"station"}},"public_transport/station_ferry/washingtonstateferries-3caaf7":{"name":"Washington State Ferries","locationSet":{"include":["ca-bc","us-wa"]},"geometry":["vertex","point","area"],"matchScore":2,"terms":["washington state ferries"],"reference":{"key":"amenity","value":"ferry_terminal"},"tags":{"ferry":"yes","network:wikidata":"Q3500373","public_transport":"station"},"addTags":{"amenity":"ferry_terminal","ferry":"yes","network":"Washington State Ferries","network:wikidata":"Q3500373","public_transport":"station"}},"public_transport/platform/bus_point/bctransit-3dfc28":{"name":"BC Transit","locationSet":{"include":["ca-bc"]},"geometry":["point","vertex"],"matchScore":2,"terms":["bc transit"],"reference":{"key":"public_transport","value":"platform"},"tags":{"bus":"yes","network:wikidata":"Q4179186","public_transport":"platform"},"addTags":{"bus":"yes","highway":"bus_stop","network":"BC Transit","network:wikidata":"Q4179186","public_transport":"platform"}},"public_transport/platform/bus_point/campbellrivertransitsystem-3dfc28":{"name":"Campbell River Transit System","locationSet":{"include":["ca-bc"]},"geometry":["point","vertex"],"matchScore":2,"terms":["campbell river transit system"],"reference":{"key":"public_transport","value":"platform"},"tags":{"bus":"yes","network:wikidata":"Q5028136","public_transport":"platform"},"addTags":{"bus":"yes","highway":"bus_stop","network":"Campbell River Transit System","network:wikidata":"Q5028136","public_transport":"platform"}},"public_transport/platform/bus_point/centralfraservalleytransitsystem-3dfc28":{"name":"Central Fraser Valley Transit System","locationSet":{"include":["ca-bc"]},"geometry":["point","vertex"],"matchScore":2,"terms":["central fraser valley transit system"],"reference":{"key":"public_transport","value":"platform"},"tags":{"bus":"yes","network:wikidata":"Q5061112","public_transport":"platform"},"addTags":{"bus":"yes","highway":"bus_stop","network":"Central Fraser Valley Transit System","network:wikidata":"Q5061112","public_transport":"platform"}},"public_transport/platform/bus_point/cowichanvalleyregionaltransitsystem-3dfc28":{"name":"Cowichan Valley Regional Transit System","locationSet":{"include":["ca-bc"]},"geometry":["point","vertex"],"matchScore":2,"terms":["cowichan valley regional transit system"],"reference":{"key":"public_transport","value":"platform"},"tags":{"bus":"yes","network:wikidata":"Q5179715","public_transport":"platform"},"addTags":{"bus":"yes","highway":"bus_stop","network":"Cowichan Valley Regional Transit System","network:wikidata":"Q5179715","public_transport":"platform"}},"public_transport/platform/bus_point/kamloopstransitsystem-3dfc28":{"name":"Kamloops Transit System","locationSet":{"include":["ca-bc"]},"geometry":["point","vertex"],"matchScore":2,"terms":["kamloops transit system"],"reference":{"key":"public_transport","value":"platform"},"tags":{"bus":"yes","network:wikidata":"Q6358786","public_transport":"platform"},"addTags":{"bus":"yes","highway":"bus_stop","network":"Kamloops Transit System","network:wikidata":"Q6358786","public_transport":"platform"}},"public_transport/platform/bus_point/kelownaregionaltransitsystem-3dfc28":{"name":"Kelowna Regional Transit System","locationSet":{"include":["ca-bc"]},"geometry":["point","vertex"],"matchScore":2,"terms":["kelowna regional transit system"],"reference":{"key":"public_transport","value":"platform"},"tags":{"bus":"yes","network:wikidata":"Q6386439","public_transport":"platform"},"addTags":{"bus":"yes","highway":"bus_stop","network":"Kelowna Regional Transit System","network:wikidata":"Q6386439","public_transport":"platform"}},"public_transport/platform/bus_point/princegeorgetransitsystem-3dfc28":{"name":"Prince George Transit System","locationSet":{"include":["ca-bc"]},"geometry":["point","vertex"],"matchScore":2,"terms":["prince george transit system"],"reference":{"key":"public_transport","value":"platform"},"tags":{"bus":"yes","network:wikidata":"Q7244030","public_transport":"platform"},"addTags":{"bus":"yes","highway":"bus_stop","network":"Prince George Transit System","network:wikidata":"Q7244030","public_transport":"platform"}},"public_transport/platform/bus_point/regionaldistrictofnanaimotransitsystem-3dfc28":{"name":"Regional District of Nanaimo Transit System","locationSet":{"include":["ca-bc"]},"geometry":["point","vertex"],"matchScore":2,"terms":["regional district of nanaimo transit system"],"reference":{"key":"public_transport","value":"platform"},"tags":{"bus":"yes","network:wikidata":"Q6962375","public_transport":"platform"},"addTags":{"bus":"yes","highway":"bus_stop","network":"Regional District of Nanaimo Transit System","network:wikidata":"Q6962375","public_transport":"platform"}},"public_transport/platform/bus_point/southokanagansimilkameentransitsystem-3dfc28":{"name":"South Okanagan-Similkameen Transit System","locationSet":{"include":["ca-bc"]},"geometry":["point","vertex"],"matchScore":2,"terms":["south okanagan-similkameen transit system"],"reference":{"key":"public_transport","value":"platform"},"tags":{"bus":"yes","network:wikidata":"Q17111919","public_transport":"platform"},"addTags":{"bus":"yes","highway":"bus_stop","network":"South Okanagan-Similkameen Transit System","network:wikidata":"Q17111919","public_transport":"platform"}},"public_transport/platform/bus_point/translink-3dfc28":{"name":"TransLink (British Columbia)","locationSet":{"include":["ca-bc"]},"geometry":["point","vertex"],"matchScore":2,"terms":["translink"],"reference":{"key":"public_transport","value":"platform"},"tags":{"bus":"yes","network:wikidata":"Q1142140","public_transport":"platform"},"addTags":{"bus":"yes","highway":"bus_stop","network":"Translink","network:wikidata":"Q1142140","public_transport":"platform"}},"public_transport/platform/bus_point/vernonregionaltransitsystem-3dfc28":{"name":"Vernon Regional Transit System","locationSet":{"include":["ca-bc"]},"geometry":["point","vertex"],"matchScore":2,"terms":["vernon regional transit system"],"reference":{"key":"public_transport","value":"platform"},"tags":{"bus":"yes","network:wikidata":"Q7922216","public_transport":"platform"},"addTags":{"bus":"yes","highway":"bus_stop","network":"Vernon Regional Transit System","network:wikidata":"Q7922216","public_transport":"platform"}},"public_transport/platform/bus_point/victoriaregionaltransitsystem-3dfc28":{"name":"Victoria Regional Transit System","locationSet":{"include":["ca-bc"]},"geometry":["point","vertex"],"matchScore":2,"terms":["bc transit","victoria regional transit system"],"reference":{"key":"public_transport","value":"platform"},"tags":{"bus":"yes","network:wikidata":"Q7926999","public_transport":"platform"},"addTags":{"bus":"yes","highway":"bus_stop","network":"Victoria Regional Transit System","network:wikidata":"Q7926999","operator":"BC Transit","operator:wikidata":"Q4179186","public_transport":"platform"}},"type/route/bus/bctransit-f00db8":{"name":"BC Transit","locationSet":{"include":["ca-bc"]},"geometry":["relation"],"matchScore":2,"terms":["bc transit"],"reference":{"key":"route","value":"bus"},"tags":{"network:wikidata":"Q4179186","route":"bus","type":"route"},"addTags":{"network":"BC Transit","network:wikidata":"Q4179186","route":"bus","type":"route"}},"type/route/bus/campbellrivertransitsystem-f00db8":{"name":"Campbell River Transit System","locationSet":{"include":["ca-bc"]},"geometry":["relation"],"matchScore":2,"terms":["campbell river transit system"],"reference":{"key":"route","value":"bus"},"tags":{"network:wikidata":"Q5028136","route":"bus","type":"route"},"addTags":{"network":"Campbell River Transit System","network:wikidata":"Q5028136","route":"bus","type":"route"}},"type/route/bus/centralfraservalleytransitsystem-f00db8":{"name":"Central Fraser Valley Transit System","locationSet":{"include":["ca-bc"]},"geometry":["relation"],"matchScore":2,"terms":["central fraser valley transit system"],"reference":{"key":"route","value":"bus"},"tags":{"network:wikidata":"Q5061112","route":"bus","type":"route"},"addTags":{"network":"Central Fraser Valley Transit System","network:wikidata":"Q5061112","route":"bus","type":"route"}},"type/route/bus/cowichanvalleyregionaltransitsystem-f00db8":{"name":"Cowichan Valley Regional Transit System","locationSet":{"include":["ca-bc"]},"geometry":["relation"],"matchScore":2,"terms":["cowichan valley regional transit system"],"reference":{"key":"route","value":"bus"},"tags":{"network:wikidata":"Q5179715","route":"bus","type":"route"},"addTags":{"network":"Cowichan Valley Regional Transit System","network:wikidata":"Q5179715","route":"bus","type":"route"}},"type/route/bus/kamloopstransitsystem-f00db8":{"name":"Kamloops Transit System","locationSet":{"include":["ca-bc"]},"geometry":["relation"],"matchScore":2,"terms":["kamloops transit system"],"reference":{"key":"route","value":"bus"},"tags":{"network:wikidata":"Q6358786","route":"bus","type":"route"},"addTags":{"network":"Kamloops Transit System","network:wikidata":"Q6358786","route":"bus","type":"route"}},"type/route/bus/kelownaregionaltransitsystem-f00db8":{"name":"Kelowna Regional Transit System","locationSet":{"include":["ca-bc"]},"geometry":["relation"],"matchScore":2,"terms":["kelowna regional transit system"],"reference":{"key":"route","value":"bus"},"tags":{"network:wikidata":"Q6386439","route":"bus","type":"route"},"addTags":{"network":"Kelowna Regional Transit System","network:wikidata":"Q6386439","route":"bus","type":"route"}},"type/route/bus/princegeorgetransitsystem-f00db8":{"name":"Prince George Transit System","locationSet":{"include":["ca-bc"]},"geometry":["relation"],"matchScore":2,"terms":["prince george transit system"],"reference":{"key":"route","value":"bus"},"tags":{"network:wikidata":"Q7244030","route":"bus","type":"route"},"addTags":{"network":"Prince George Transit System","network:wikidata":"Q7244030","route":"bus","type":"route"}},"type/route/bus/regionaldistrictofnanaimotransitsystem-f00db8":{"name":"Regional District of Nanaimo Transit System","locationSet":{"include":["ca-bc"]},"geometry":["relation"],"matchScore":2,"terms":["regional district of nanaimo transit system"],"reference":{"key":"route","value":"bus"},"tags":{"network:wikidata":"Q6962375","route":"bus","type":"route"},"addTags":{"network":"Regional District of Nanaimo Transit System","network:wikidata":"Q6962375","route":"bus","type":"route"}},"type/route/bus/southokanagansimilkameentransitsystem-f00db8":{"name":"South Okanagan-Similkameen Transit System","locationSet":{"include":["ca-bc"]},"geometry":["relation"],"matchScore":2,"terms":["south okanagan-similkameen transit system"],"reference":{"key":"route","value":"bus"},"tags":{"network:wikidata":"Q17111919","route":"bus","type":"route"},"addTags":{"network":"South Okanagan-Similkameen Transit System","network:wikidata":"Q17111919","route":"bus","type":"route"}},"type/route/bus/translink-f00db8":{"name":"TransLink (British Columbia)","locationSet":{"include":["ca-bc"]},"geometry":["relation"],"matchScore":2,"terms":["translink"],"reference":{"key":"route","value":"bus"},"tags":{"network:wikidata":"Q1142140","route":"bus","type":"route"},"addTags":{"network":"Translink","network:wikidata":"Q1142140","route":"bus","type":"route"}},"type/route/bus/vernonregionaltransitsystem-f00db8":{"name":"Vernon Regional Transit System","locationSet":{"include":["ca-bc"]},"geometry":["relation"],"matchScore":2,"terms":["vernon regional transit system"],"reference":{"key":"route","value":"bus"},"tags":{"network:wikidata":"Q7922216","route":"bus","type":"route"},"addTags":{"network":"Vernon Regional Transit System","network:wikidata":"Q7922216","route":"bus","type":"route"}},"type/route/bus/victoriaregionaltransitsystem-f00db8":{"name":"Victoria Regional Transit System","locationSet":{"include":["ca-bc"]},"geometry":["relation"],"matchScore":2,"terms":["bc transit","victoria regional transit system"],"reference":{"key":"route","value":"bus"},"tags":{"network:wikidata":"Q7926999","route":"bus","type":"route"},"addTags":{"network":"Victoria Regional Transit System","network:wikidata":"Q7926999","operator":"BC Transit","operator:wikidata":"Q4179186","route":"bus","type":"route"}},"type/route/ferry/alaskamarinehighway-682b91":{"name":"Alaska Marine Highway","locationSet":{"include":["ca-bc","us-ak","us-wa"]},"geometry":["relation"],"matchScore":2,"terms":["alask marine highway","alaska marine highway"],"reference":{"key":"route","value":"ferry"},"tags":{"network:wikidata":"Q801878","route":"ferry","type":"route"},"addTags":{"network":"Alaska Marine Highway","network:wikidata":"Q801878","route":"ferry","type":"route"}},"type/route/ferry/bcferries-3e2bcc":{"name":"BC Ferries","locationSet":{"include":["ca-bc"]},"geometry":["relation"],"matchScore":2,"terms":["bc ferries"],"reference":{"key":"route","value":"ferry"},"tags":{"network:wikidata":"Q795723","route":"ferry","type":"route"},"addTags":{"network":"BC Ferries","network:wikidata":"Q795723","route":"ferry","type":"route"}},"type/route/ferry/britishcolumbiaministryoftransportation-3e2bcc":{"name":"British Columbia Ministry of Transportation","locationSet":{"include":["ca-bc"]},"geometry":["relation"],"matchScore":2,"terms":["british columbia ministry of transportation"],"reference":{"key":"route","value":"ferry"},"tags":{"network:wikidata":"Q4969732","route":"ferry","type":"route"},"addTags":{"network":"British Columbia Ministry of Transportation","network:wikidata":"Q4969732","route":"ferry","type":"route"}},"type/route/ferry/falsecreekferries-3e2bcc":{"name":"False Creek Ferries","locationSet":{"include":["ca-bc"]},"geometry":["relation"],"matchScore":2,"terms":["false creek ferries"],"reference":{"key":"route","value":"ferry"},"tags":{"network:wikidata":"Q5432638","route":"ferry","type":"route"},"addTags":{"network":"False Creek Ferries","network:wikidata":"Q5432638","route":"ferry","type":"route"}},"type/route/ferry/washingtonstateferries-9a3a44":{"name":"Washington State Ferries","locationSet":{"include":["ca-bc","us-wa"]},"geometry":["relation"],"matchScore":2,"terms":["washington state ferries"],"reference":{"key":"route","value":"ferry"},"tags":{"network:wikidata":"Q3500373","route":"ferry","type":"route"},"addTags":{"network":"Washington State Ferries","network:wikidata":"Q3500373","route":"ferry","type":"route"}},"route/ferry/alaskamarinehighway-682b91":{"name":"Alaska Marine Highway","locationSet":{"include":["ca-bc","us-ak","us-wa"]},"geometry":["line"],"matchScore":2,"terms":["alask marine highway","alaska marine highway"],"tags":{"network:wikidata":"Q801878","route":"ferry"},"addTags":{"network":"Alaska Marine Highway","network:wikidata":"Q801878","route":"ferry"}},"route/ferry/bcferries-3e2bcc":{"name":"BC Ferries","locationSet":{"include":["ca-bc"]},"geometry":["line"],"matchScore":2,"terms":["bc ferries"],"tags":{"network:wikidata":"Q795723","route":"ferry"},"addTags":{"network":"BC Ferries","network:wikidata":"Q795723","route":"ferry"}},"route/ferry/britishcolumbiaministryoftransportation-3e2bcc":{"name":"British Columbia Ministry of Transportation","locationSet":{"include":["ca-bc"]},"geometry":["line"],"matchScore":2,"terms":["british columbia ministry of transportation"],"tags":{"network:wikidata":"Q4969732","route":"ferry"},"addTags":{"network":"British Columbia Ministry of Transportation","network:wikidata":"Q4969732","route":"ferry"}},"route/ferry/falsecreekferries-3e2bcc":{"name":"False Creek Ferries","locationSet":{"include":["ca-bc"]},"geometry":["line"],"matchScore":2,"terms":["false creek ferries"],"tags":{"network:wikidata":"Q5432638","route":"ferry"},"addTags":{"network":"False Creek Ferries","network:wikidata":"Q5432638","route":"ferry"}},"route/ferry/washingtonstateferries-9a3a44":{"name":"Washington State Ferries","locationSet":{"include":["ca-bc","us-wa"]},"geometry":["line"],"matchScore":2,"terms":["washington state ferries"],"tags":{"network:wikidata":"Q3500373","route":"ferry"},"addTags":{"network":"Washington State Ferries","network:wikidata":"Q3500373","route":"ferry"}},"type/route/trolleybus/translink-c54f8a":{"name":"TransLink (British Columbia)","locationSet":{"include":["ca-bc"]},"geometry":["relation"],"matchScore":2,"terms":["coast mountain bus company","translink"],"reference":{"key":"route","value":"trolleybus"},"tags":{"network:wikidata":"Q1142140","route":"trolleybus","type":"route"},"addTags":{"network":"Translink","network:wikidata":"Q1142140","operator":"Coast Mountain Bus Company","operator:wikidata":"Q1104377","route":"trolleybus","type":"route"}}}