{"advertising/totem/global-2f5b89":{"name":"Global","locationSet":{"include":["us-ct","us-ma","us-me","us-nh","us-nj","us-ny","us-pa","us-ri","us-vt"]},"geometry":["point","line"],"matchScore":2,"terms":["global"],"tags":{"advertising":"totem","brand:wikidata":"Q121160135"},"addTags":{"advertising":"totem","brand":"Global","brand:wikidata":"Q121160135"}},"advertising/totem/nouria-355b7e":{"name":"Nouria","locationSet":{"include":["us-ct","us-ma","us-me","us-nh","us-ri"]},"geometry":["point","line"],"matchScore":2,"terms":["nouria"],"tags":{"advertising":"totem","brand:wikidata":"Q120637476"},"addTags":{"advertising":"totem","brand":"Nouria","brand:wikidata":"Q120637476"}},"advertising/totem/xtrafuels-2f5b89":{"name":"Xtra Fuels","locationSet":{"include":["us-ct","us-ma","us-me","us-nh","us-nj","us-ny","us-pa","us-ri","us-vt"]},"geometry":["point","line"],"matchScore":2,"terms":["xtra fuels","xtramart"],"tags":{"advertising":"totem","brand:wikidata":"Q121160101"},"addTags":{"advertising":"totem","brand":"Xtra Fuels","brand:wikidata":"Q121160101"}},"amenity/atm/bankofnewhampshire-e19454":{"name":"Bank of New Hampshire","locationSet":{"include":["us-me","us-nh"]},"geometry":["point","vertex"],"matchScore":2,"terms":["bank of new hampshire"],"fields":["name","brand","{amenity/atm}"],"tags":{"amenity":"atm","brand:wikidata":"Q106499982"},"addTags":{"amenity":"atm","brand":"Bank of New Hampshire","brand:wikidata":"Q106499982","operator":"Bank of New Hampshire","operator:wikidata":"Q106499982"}},"amenity/atm/citizensbank-0bad27":{"name":"Citizens Bank (Eastern USA)","locationSet":{"include":["us-ct","us-de","us-ma","us-mi","us-nh","us-nj","us-ny","us-oh","us-pa","us-ri","us-va","us-vt"]},"geometry":["point","vertex"],"matchScore":2,"terms":["citizens","citizens bank"],"fields":["name","brand","{amenity/atm}"],"tags":{"amenity":"atm","brand:wikidata":"Q5122694"},"addTags":{"amenity":"atm","brand":"Citizens Bank","brand:wikidata":"Q5122694","operator":"Citizens Bank","operator:wikidata":"Q5122694","short_name":"Citizens"}},"amenity/atm/northeastcreditunion-e19454":{"name":"Northeast Credit Union","locationSet":{"include":["us-me","us-nh"]},"geometry":["point","vertex"],"matchScore":2,"terms":["northeast credit union"],"fields":["name","brand","{amenity/atm}"],"tags":{"amenity":"atm","brand:wikidata":"Q123397041"},"addTags":{"amenity":"atm","brand":"Northeast Credit Union","brand:wikidata":"Q123397041","operator":"Northeast Credit Union","operator:wikidata":"Q123397041"}},"amenity/bank/bankofnewhampshire-02b74e":{"name":"Bank of New Hampshire","locationSet":{"include":["us-me","us-nh"]},"geometry":["point","area"],"matchScore":2,"terms":["bank of new hampshire"],"tags":{"amenity":"bank","brand:wikidata":"Q106499982"},"addTags":{"amenity":"bank","brand":"Bank of New Hampshire","brand:wikidata":"Q106499982","name":"Bank of New Hampshire"}},"amenity/bank/citizensbank-8621dd":{"name":"Citizens Bank (Eastern USA)","locationSet":{"include":["us-ct","us-de","us-ma","us-mi","us-nh","us-nj","us-ny","us-oh","us-pa","us-ri","us-va","us-vt"]},"geometry":["point","area"],"matchScore":2,"terms":["citizens","citizens bank"],"tags":{"amenity":"bank","brand:wikidata":"Q5122694"},"addTags":{"amenity":"bank","brand":"Citizens Bank","brand:wikidata":"Q5122694","name":"Citizens Bank","short_name":"Citizens"}},"amenity/bank/northeastcreditunion-02b74e":{"name":"Northeast Credit Union","locationSet":{"include":["us-me","us-nh"]},"geometry":["point","area"],"matchScore":2,"terms":["northeast credit union"],"tags":{"amenity":"bank","brand:wikidata":"Q123397041"},"addTags":{"amenity":"bank","brand":"Northeast Credit Union","brand:wikidata":"Q123397041","name":"Northeast Credit Union"}},"amenity/car_wash/alltown-cac12f":{"name":"Alltown","locationSet":{"include":["us-ct","us-ma","us-me","us-nh","us-ri"]},"geometry":["point","area"],"matchScore":2,"terms":["alltown"],"tags":{"amenity":"car_wash","brand:wikidata":"Q119586667"},"addTags":{"amenity":"car_wash","brand":"Alltown","brand:wikidata":"Q119586667","name":"Alltown"}},"amenity/car_wash/goldennozzlecarwash-cac12f":{"name":"Golden Nozzle Car Wash","locationSet":{"include":["us-ct","us-ma","us-me","us-nh","us-ri"]},"geometry":["point","area"],"matchScore":2,"terms":["golden nozzle","golden nozzle car wash"],"tags":{"amenity":"car_wash","brand:wikidata":"Q121160374"},"addTags":{"amenity":"car_wash","brand":"Golden Nozzle Car Wash","brand:wikidata":"Q121160374","name":"Golden Nozzle Car Wash"}},"amenity/fast_food/sandwich/dangelogrilledsandwiches-ea8dd1":{"name":"D'Angelo Grilled Sandwiches","locationSet":{"include":["us-ct","us-ma","us-me","us-nh","us-ri"]},"geometry":["point","area"],"matchScore":2,"terms":["d'angelo","d'angelo grilled sandwiches","d'angelos"],"reference":{"key":"cuisine","value":"sandwich"},"tags":{"amenity":"fast_food","brand:wikidata":"Q5203069","cuisine":"sandwich"},"addTags":{"amenity":"fast_food","brand":"D'Angelo Grilled Sandwiches","brand:wikidata":"Q5203069","cuisine":"sandwich","name":"D'Angelo Grilled Sandwiches","takeaway":"yes"}},"amenity/fast_food/sandwich/moesitaliansandwiches-3bfec2":{"name":"Moe's Italian Sandwiches","locationSet":{"include":["us-ma","us-me","us-nh"]},"geometry":["point","area"],"matchScore":2,"terms":["moe's italian sandwiches"],"reference":{"key":"cuisine","value":"sandwich"},"tags":{"amenity":"fast_food","brand:wikidata":"Q6889933","cuisine":"sandwich"},"addTags":{"amenity":"fast_food","brand":"Moe's Italian Sandwiches","brand:wikidata":"Q6889933","cuisine":"sandwich","name":"Moe's Italian Sandwiches","takeaway":"yes"}},"amenity/fuel/global-c2b77c":{"name":"Global","locationSet":{"include":["us-ct","us-ma","us-me","us-nh","us-nj","us-ny","us-pa","us-ri","us-vt"]},"geometry":["point","area"],"matchScore":2,"terms":["global"],"fields":["name","brand","{amenity/fuel}"],"tags":{"amenity":"fuel","brand:wikidata":"Q121160135"},"addTags":{"amenity":"fuel","brand":"Global","brand:wikidata":"Q121160135","name":"Global"}},"amenity/fuel/nouria-b09892":{"name":"Nouria","locationSet":{"include":["us-ct","us-ma","us-me","us-nh","us-ri"]},"geometry":["point","area"],"matchScore":2,"terms":["nouria"],"fields":["name","brand","{amenity/fuel}"],"tags":{"amenity":"fuel","brand:wikidata":"Q120637476"},"addTags":{"amenity":"fuel","brand":"Nouria","brand:wikidata":"Q120637476","name":"Nouria"}},"amenity/fuel/xtrafuels-c2b77c":{"name":"Xtra Fuels","locationSet":{"include":["us-ct","us-ma","us-me","us-nh","us-nj","us-ny","us-pa","us-ri","us-vt"]},"geometry":["point","area"],"matchScore":2,"terms":["xtra fuels","xtramart"],"fields":["name","brand","{amenity/fuel}"],"tags":{"amenity":"fuel","brand:wikidata":"Q121160101"},"addTags":{"amenity":"fuel","brand":"Xtra Fuels","brand:wikidata":"Q121160101","name":"Xtra Fuels"}},"amenity/restaurant/mexican/margaritas-46ca2f":{"name":"Margaritas","locationSet":{"include":["us-ct","us-ma","us-me","us-nh","us-nj","us-pa"]},"geometry":["point","area"],"matchScore":2,"terms":["margaritas","margaritas mexican restaurant"],"reference":{"key":"cuisine","value":"mexican"},"tags":{"amenity":"restaurant","brand:wikidata":"Q6760185","cuisine":"mexican"},"addTags":{"amenity":"restaurant","brand":"Margaritas","brand:wikidata":"Q6760185","cuisine":"mexican","name":"Margaritas","official_name":"Margaritas Mexican Restaurant"}},"shop/alcohol/newhampshireliquorandwineoutlet-05db77":{"name":"New Hampshire Liquor & Wine Outlet","locationSet":{"include":["us-nh"]},"geometry":["point","area"],"matchScore":2,"terms":["new hampshire liquor & wine outlets","new hampshire liquor commission","nh liquor & wine outlet"],"tags":{"brand:wikidata":"Q98400557","shop":"alcohol"},"addTags":{"brand":"New Hampshire Liquor & Wine Outlets","brand:wikidata":"Q98400557","name":"New Hampshire Liquor & Wine Outlet","operator":"New Hampshire Liquor Commission","shop":"alcohol"}},"shop/car_parts/sanelnapa-a1190a":{"name":"Sanel NAPA","locationSet":{"include":["us-ma","us-me","us-nh","us-vt"]},"geometry":["point","area"],"matchScore":2,"terms":["sanel auto parts","sanel napa"],"tags":{"brand:wikidata":"Q122564780","shop":"car_parts"},"addTags":{"brand":"Sanel NAPA","brand:wikidata":"Q122564780","name":"Sanel NAPA","shop":"car_parts"}},"shop/car_repair/sullivantire-bb46ab":{"name":"Sullivan Tire","locationSet":{"include":["us-ma","us-me","us-nh","us-ri"]},"geometry":["point","area"],"matchScore":2,"terms":["sullivan tire","sullivan tire and auto service"],"fields":["name","brand","{shop/car_repair}"],"tags":{"brand:wikidata":"Q121422824","shop":"car_repair"},"addTags":{"brand":"Sullivan Tire","brand:wikidata":"Q121422824","name":"Sullivan Tire","official_name":"Sullivan Tire and Auto Service","service":"repair;tyres","shop":"car_repair"}},"shop/car_repair/viptiresandservice-451c51":{"name":"VIP Tires and Service","locationSet":{"include":["us-ma","us-me","us-nh","us-vt"]},"geometry":["point","area"],"matchScore":2,"terms":["vip tires","vip tires and service"],"fields":["name","brand","{shop/car_repair}"],"tags":{"brand:wikidata":"Q7907052","shop":"car_repair"},"addTags":{"brand":"VIP Tires and Service","brand:wikidata":"Q7907052","name":"VIP Tires and Service","service":"repair;tyres","shop":"car_repair"}},"shop/convenience/alltown-ae58e4":{"name":"Alltown","locationSet":{"include":["us-ct","us-ma","us-me","us-nh","us-ri"]},"geometry":["point","area"],"matchScore":2,"terms":["alltown"],"tags":{"brand:wikidata":"Q119586667","shop":"convenience"},"addTags":{"brand":"Alltown","brand:wikidata":"Q119586667","name":"Alltown","shop":"convenience"}},"shop/convenience/alltownfresh-790588":{"name":"Alltown Fresh","locationSet":{"include":["us-ct","us-ma","us-nh","us-ny"]},"geometry":["point","area"],"matchScore":2,"terms":["alltown fresh"],"tags":{"brand:wikidata":"Q119591365","shop":"convenience"},"addTags":{"brand":"Alltown Fresh","brand:wikidata":"Q119591365","name":"Alltown Fresh","shop":"convenience"}},"shop/convenience/jiffymart-fe2c5d":{"name":"Jiffy Mart","locationSet":{"include":["us-nh","us-vt"]},"geometry":["point","area"],"matchScore":2,"terms":["jiffy mart"],"tags":{"brand:wikidata":"Q119592174","shop":"convenience"},"addTags":{"brand":"Jiffy Mart","brand:wikidata":"Q119592174","name":"Jiffy Mart","shop":"convenience"}},"shop/convenience/nouria-ae58e4":{"name":"Nouria","locationSet":{"include":["us-ct","us-ma","us-me","us-nh","us-ri"]},"geometry":["point","area"],"matchScore":2,"terms":["nouria"],"tags":{"brand:wikidata":"Q120637476","shop":"convenience"},"addTags":{"brand":"Nouria","brand:wikidata":"Q120637476","name":"Nouria","shop":"convenience"}},"shop/convenience/xtramart-ff595a":{"name":"XtraMart","locationSet":{"include":["us-ct","us-ma","us-me","us-nh","us-ny","us-ri"]},"geometry":["point","area"],"matchScore":2,"terms":["xtramart"],"tags":{"brand:wikidata":"Q119586946","shop":"convenience"},"addTags":{"brand":"XtraMart","brand:wikidata":"Q119586946","name":"XtraMart","shop":"convenience"}},"shop/gift/thepaperstore-0b1107":{"name":"The Paper Store","locationSet":{"include":["us-ct","us-fl","us-ma","us-me","us-nh","us-nj","us-ny","us-ri"]},"geometry":["point","area"],"matchScore":2,"terms":["the paper store"],"tags":{"brand:wikidata":"Q65068381","shop":"gift"},"addTags":{"brand":"The Paper Store","brand:wikidata":"Q65068381","name":"The Paper Store","shop":"gift"}},"shop/outdoor/easternmountainsports-d32658":{"name":"Eastern Mountain Sports","locationSet":{"include":["us-ct","us-ma","us-me","us-nh","us-nj","us-ny","us-pa","us-vt"]},"geometry":["point","area"],"matchScore":2,"terms":["eastern mountain sports","ems"],"tags":{"brand:wikidata":"Q5330322","shop":"outdoor"},"addTags":{"brand":"Eastern Mountain Sports","brand:wikidata":"Q5330322","name":"Eastern Mountain Sports","shop":"outdoor","short_name":"EMS"}},"shop/supermarket/pricechopper-7d1b36":{"name":"Price Chopper (New England)","locationSet":{"include":["us-ct","us-ma","us-nh","us-ny","us-pa","us-vt"]},"geometry":["point","area"],"matchScore":2,"terms":["price chopper"],"tags":{"brand:wikidata":"Q7242574","shop":"supermarket"},"addTags":{"brand":"Price Chopper","brand:wikidata":"Q7242574","name":"Price Chopper","shop":"supermarket"}},"shop/tyres/townfairtire-f05d93":{"name":"Town Fair Tire","locationSet":{"include":["us-ct","us-ma","us-me","us-nh","us-ny","us-ri","us-vt"]},"geometry":["point","area"],"matchScore":2,"terms":["town fair tire"],"tags":{"brand:wikidata":"Q121300374","shop":"tyres"},"addTags":{"brand":"Town Fair Tire","brand:wikidata":"Q121300374","name":"Town Fair Tire","shop":"tyres"}},"leisure/nature_reserve/cityofrochester-fcd3ad":{"name":"City of Rochester (New Hampshire)","locationSet":{"include":["us-nh"]},"geometry":["area","point"],"matchScore":2,"terms":["city of rochester"],"tags":{"leisure":"nature_reserve","operator:wikidata":"Q985354"},"addTags":{"leisure":"nature_reserve","operator":"City of Rochester","operator:type":"public","operator:wikidata":"Q985354"}},"leisure/nature_reserve/townofamherst-fcd3ad":{"name":"Town of Amherst (New Hampshire)","locationSet":{"include":["us-nh"]},"geometry":["area","point"],"matchScore":2,"terms":["town of amherst"],"tags":{"leisure":"nature_reserve","operator:wikidata":"Q2323115"},"addTags":{"leisure":"nature_reserve","operator":"Town of Amherst","operator:type":"public","operator:wikidata":"Q2323115"}},"leisure/park/cityofrochester-97a560":{"name":"City of Rochester (New Hampshire)","locationSet":{"include":["us-nh"]},"geometry":["area","point"],"matchScore":2,"terms":["city of rochester"],"tags":{"leisure":"park","operator:wikidata":"Q985354"},"addTags":{"leisure":"park","operator":"City of Rochester","operator:type":"public","operator:wikidata":"Q985354"}},"leisure/park/townofamherst-97a560":{"name":"Town of Amherst (New Hampshire)","locationSet":{"include":["us-nh"]},"geometry":["area","point"],"matchScore":2,"terms":["town of amherst"],"tags":{"leisure":"park","operator:wikidata":"Q2323115"},"addTags":{"leisure":"park","operator":"Town of Amherst","operator:type":"public","operator:wikidata":"Q2323115"}},"man_made/pipeline/unitil-dda696":{"name":"Unitil","locationSet":{"include":["us-ma","us-me","us-nh"]},"geometry":["line"],"matchScore":2,"terms":["fitchburg gas and electric light company","granite state gas transmission","northern utilities","portland gas light company","unitil"],"tags":{"man_made":"pipeline","operator:wikidata":"Q17144598"},"addTags":{"man_made":"pipeline","operator":"Unitil","operator:wikidata":"Q17144598"}},"pipeline/substation/unitil-cdce47":{"name":"Unitil","locationSet":{"include":["us-ma","us-me","us-nh"]},"geometry":["area","point"],"matchScore":2,"terms":["fitchburg gas and electric light company","granite state gas transmission","northern utilities","portland gas light company","unitil"],"tags":{"operator:wikidata":"Q17144598","pipeline":"substation"},"addTags":{"operator":"Unitil","operator:wikidata":"Q17144598","pipeline":"substation"}},"power/line/eversource-b15319":{"name":"Eversource","locationSet":{"include":["us-ct","us-ma","us-nh"]},"geometry":["line"],"matchScore":2,"terms":["cl&p","eversource","eversource energy","nstar electric company","western massachusetts electric company"],"tags":{"operator:wikidata":"Q3344199","power":"line"},"addTags":{"operator":"Eversource","operator:wikidata":"Q3344199","power":"line"}},"power/line/unitil-6459f7":{"name":"Unitil","locationSet":{"include":["us-ma","us-me","us-nh"]},"geometry":["line"],"matchScore":2,"terms":["concord electric company","exeter and hampton electric company","fitchburg gas and electric light company","unitil"],"tags":{"operator:wikidata":"Q17144598","power":"line"},"addTags":{"operator":"Unitil","operator:wikidata":"Q17144598","power":"line"}},"power/minor_line/eversource-fa80fd":{"name":"Eversource","locationSet":{"include":["us-ct","us-ma","us-nh"]},"geometry":["line"],"matchScore":2,"terms":["cl&p","eversource","eversource energy","nstar electric company","western massachusetts electric company"],"tags":{"operator:wikidata":"Q3344199","power":"minor_line"},"addTags":{"operator":"Eversource","operator:wikidata":"Q3344199","power":"minor_line"}},"power/minor_line/unitil-175481":{"name":"Unitil","locationSet":{"include":["us-ma","us-me","us-nh"]},"geometry":["line"],"matchScore":2,"terms":["concord electric company","exeter and hampton electric company","fitchburg gas and electric light company","unitil"],"tags":{"operator:wikidata":"Q17144598","power":"minor_line"},"addTags":{"operator":"Unitil","operator:wikidata":"Q17144598","power":"minor_line"}},"power/pole/eversource-d83c76":{"name":"Eversource","locationSet":{"include":["us-ct","us-ma","us-nh"]},"geometry":["point","vertex"],"matchScore":2,"terms":["cl&p","eversource","eversource energy","nstar electric company","western massachusetts electric company"],"tags":{"operator:wikidata":"Q3344199","power":"pole"},"addTags":{"operator":"Eversource","operator:wikidata":"Q3344199","power":"pole"}},"power/pole/unitil-8cab10":{"name":"Unitil","locationSet":{"include":["us-ma","us-me","us-nh"]},"geometry":["point","vertex"],"matchScore":2,"terms":["concord electric company","exeter and hampton electric company","fitchburg gas and electric light company","unitil"],"tags":{"operator:wikidata":"Q17144598","power":"pole"},"addTags":{"operator":"Unitil","operator:wikidata":"Q17144598","power":"pole"}},"power/substation/eversource-374743":{"name":"Eversource","locationSet":{"include":["us-ct","us-ma","us-nh"]},"geometry":["area","point"],"matchScore":2,"terms":["cl&p","eversource","eversource energy","nstar electric company","western massachusetts electric company"],"tags":{"operator:wikidata":"Q3344199","power":"substation"},"addTags":{"operator":"Eversource","operator:wikidata":"Q3344199","power":"substation"}},"power/substation/unitil-869ced":{"name":"Unitil","locationSet":{"include":["us-ma","us-me","us-nh"]},"geometry":["area","point"],"matchScore":2,"terms":["concord electric company","exeter and hampton electric company","fitchburg gas and electric light company","unitil"],"tags":{"operator:wikidata":"Q17144598","power":"substation"},"addTags":{"operator":"Unitil","operator:wikidata":"Q17144598","power":"substation"}},"power/tower/eversource-3b99a1":{"name":"Eversource","locationSet":{"include":["us-ct","us-ma","us-nh"]},"geometry":["point","vertex"],"matchScore":2,"terms":["cl&p","eversource","eversource energy","nstar electric company","western massachusetts electric company"],"tags":{"operator:wikidata":"Q3344199","power":"tower"},"addTags":{"operator":"Eversource","operator:wikidata":"Q3344199","power":"tower"}},"power/tower/unitil-4ad8ba":{"name":"Unitil","locationSet":{"include":["us-ma","us-me","us-nh"]},"geometry":["point","vertex"],"matchScore":2,"terms":["concord electric company","exeter and hampton electric company","fitchburg gas and electric light company","unitil"],"tags":{"operator:wikidata":"Q17144598","power":"tower"},"addTags":{"operator":"Unitil","operator:wikidata":"Q17144598","power":"tower"}},"power/transformer/eversource-d51e21":{"name":"Eversource","locationSet":{"include":["us-ct","us-ma","us-nh"]},"geometry":["point","vertex"],"matchScore":2,"terms":["cl&p","eversource","eversource energy","nstar electric company","western massachusetts electric company"],"tags":{"operator:wikidata":"Q3344199","power":"transformer"},"addTags":{"operator":"Eversource","operator:wikidata":"Q3344199","power":"transformer"}},"power/transformer/unitil-a10417":{"name":"Unitil","locationSet":{"include":["us-ma","us-me","us-nh"]},"geometry":["point","vertex"],"matchScore":2,"terms":["concord electric company","exeter and hampton electric company","fitchburg gas and electric light company","unitil"],"tags":{"operator:wikidata":"Q17144598","power":"transformer"},"addTags":{"operator":"Unitil","operator:wikidata":"Q17144598","power":"transformer"}},"public_transport/platform/bus_point/at-8a81ee":{"name":"AT (Advance Transit)","locationSet":{"include":["us-nh","us-vt"]},"geometry":["point","vertex"],"matchScore":2,"terms":["advance transit","at"],"reference":{"key":"public_transport","value":"platform"},"tags":{"bus":"yes","network:wikidata":"Q17084449","public_transport":"platform"},"addTags":{"bus":"yes","highway":"bus_stop","network":"AT","network:wikidata":"Q17084449","operator":"Advance Transit","public_transport":"platform"}},"public_transport/platform/bus_point/cooperativeallianceforseacoasttransportation-3352a5":{"name":"Cooperative Alliance for Seacoast Transportation","locationSet":{"include":["us-me","us-nh"]},"geometry":["point","vertex"],"matchScore":2,"terms":["coast","coastbus","cooperative alliance for seacoast transportation"],"reference":{"key":"public_transport","value":"platform"},"tags":{"bus":"yes","network:wikidata":"Q5167873","public_transport":"platform"},"addTags":{"bus":"yes","highway":"bus_stop","network":"Cooperative Alliance for Seacoast Transportation","network:short":"COAST","network:wikidata":"Q5167873","public_transport":"platform"}},"type/route/bus/at-f86d2b":{"name":"AT (Advance Transit)","locationSet":{"include":["us-nh","us-vt"]},"geometry":["relation"],"matchScore":2,"terms":["advance transit","at"],"reference":{"key":"route","value":"bus"},"tags":{"network:wikidata":"Q17084449","route":"bus","type":"route"},"addTags":{"network":"AT","network:wikidata":"Q17084449","operator":"Advance Transit","route":"bus","type":"route"}},"type/route/bus/cooperativeallianceforseacoasttransportation-69a150":{"name":"Cooperative Alliance for Seacoast Transportation","locationSet":{"include":["us-me","us-nh"]},"geometry":["relation"],"matchScore":2,"terms":["coast","coastbus","cooperative alliance for seacoast transportation"],"reference":{"key":"route","value":"bus"},"tags":{"network:wikidata":"Q5167873","route":"bus","type":"route"},"addTags":{"network":"Cooperative Alliance for Seacoast Transportation","network:short":"COAST","network:wikidata":"Q5167873","route":"bus","type":"route"}}}