{"amenity/atm/365bank-6843ee":{"name":"365.bank","locationSet":{"include":["sk"]},"geometry":["point","vertex"],"matchScore":2,"terms":["365 banka","365.bank","365.bank, a.s."],"fields":["name","brand","{amenity/atm}"],"tags":{"amenity":"atm","brand:wikidata":"Q7237158"},"addTags":{"amenity":"atm","brand":"365.bank","brand:wikidata":"Q7237158","official_name":"365.bank, a.s.","operator":"365.bank","operator:wikidata":"Q7237158"}},"amenity/atm/bnpparibas-6b438a":{"name":"BNP Paribas","locationSet":{"include":["ae","af","ar","at","bf","bg","bh","br","ca","ch","ci","cl","co","cz","de","dk","dz","es","fi","fr","gb","gf","gp","hu","ie","il","it","kw","lu","ma","ml","mq","mx","nl","no","pe","pt","qa","re","ro","ru","sa","se","sk","sn","tn","tr","us"]},"geometry":["point","vertex"],"matchScore":2,"terms":["bnp paribas"],"fields":["name","brand","{amenity/atm}"],"tags":{"amenity":"atm","brand:wikidata":"Q499707"},"addTags":{"amenity":"atm","brand":"BNP Paribas","brand:wikidata":"Q499707","operator":"BNP Paribas","operator:wikidata":"Q499707"}},"amenity/atm/csob-58e2e6":{"name":"ČSOB","locationSet":{"include":["cz","sk"]},"geometry":["point","vertex"],"matchScore":2,"terms":["čsob"],"fields":["name","brand","{amenity/atm}"],"tags":{"amenity":"atm","brand:wikidata":"Q340135"},"addTags":{"amenity":"atm","brand":"ČSOB","brand:wikidata":"Q340135","operator":"ČSOB","operator:wikidata":"Q340135"}},"amenity/atm/fiobanka-58e2e6":{"name":"Fio banka","locationSet":{"include":["cz","sk"]},"geometry":["point","vertex"],"matchScore":2,"terms":["fio banka"],"fields":["name","brand","{amenity/atm}"],"tags":{"amenity":"atm","brand:wikidata":"Q12016657"},"addTags":{"amenity":"atm","brand":"Fio banka","brand:wikidata":"Q12016657","operator":"Fio banka","operator:wikidata":"Q12016657"}},"amenity/atm/jandtbanka-58e2e6":{"name":"J&T Banka","locationSet":{"include":["cz","sk"]},"geometry":["point","vertex"],"matchScore":2,"terms":["j&t banka"],"fields":["name","brand","{amenity/atm}"],"tags":{"amenity":"atm","brand:wikidata":"Q12022160"},"addTags":{"amenity":"atm","brand":"J&T Banka","brand:wikidata":"Q12022160","operator":"J&T Banka","operator:wikidata":"Q12022160"}},"amenity/atm/mbank-ede12f":{"name":"mBank (Europe)","locationSet":{"include":["cz","pl","sk"]},"geometry":["point","vertex"],"matchScore":2,"terms":["mbank"],"fields":["name","brand","{amenity/atm}"],"tags":{"amenity":"atm","brand:wikidata":"Q1160928"},"addTags":{"amenity":"atm","brand":"mBank","brand:wikidata":"Q1160928","operator":"mBank","operator:wikidata":"Q1160928"}},"amenity/atm/oberbank-54e4c0":{"name":"Oberbank","locationSet":{"include":["at","cz","de","hu","sk"]},"geometry":["point","vertex"],"matchScore":2,"terms":["oberbank"],"fields":["name","brand","{amenity/atm}"],"tags":{"amenity":"atm","brand:wikidata":"Q2009139"},"addTags":{"amenity":"atm","brand":"Oberbank","brand:wikidata":"Q2009139","operator":"Oberbank","operator:wikidata":"Q2009139"}},"amenity/atm/postovabanka-6843ee":{"name":"Poštová banka","locationSet":{"include":["sk"]},"geometry":["point","vertex"],"matchScore":2,"terms":["poštová banka"],"fields":["name","brand","{amenity/atm}"],"tags":{"amenity":"atm","brand:wikidata":"Q7237158"},"addTags":{"amenity":"atm","brand":"Poštová banka","brand:wikidata":"Q7237158","operator":"Poštová banka","operator:wikidata":"Q7237158"}},"amenity/atm/primabanka-6843ee":{"name":"Prima banka","locationSet":{"include":["sk"]},"geometry":["point","vertex"],"matchScore":2,"terms":["prima banka"],"fields":["name","brand","{amenity/atm}"],"tags":{"amenity":"atm","brand:wikidata":"Q13538661"},"addTags":{"amenity":"atm","brand":"Prima banka","brand:wikidata":"Q13538661","operator":"Prima banka","operator:wikidata":"Q13538661"}},"amenity/atm/privatbanka-6843ee":{"name":"Privatbanka","locationSet":{"include":["sk"]},"geometry":["point","vertex"],"matchScore":2,"terms":["privatbanka"],"fields":["name","brand","{amenity/atm}"],"tags":{"amenity":"atm","brand:wikidata":"Q12774628"},"addTags":{"amenity":"atm","brand":"Privatbanka","brand:wikidata":"Q12774628","operator":"Privatbanka","operator:wikidata":"Q12774628"}},"amenity/atm/prvastavebnasporitelna-6843ee":{"name":"Prvá stavebná sporiteľňa","locationSet":{"include":["sk"]},"geometry":["point","vertex"],"matchScore":2,"terms":["prvá stavebná sporiteľňa"],"fields":["name","brand","{amenity/atm}"],"tags":{"amenity":"atm","brand:wikidata":"Q29054618"},"addTags":{"amenity":"atm","brand":"Prvá stavebná sporiteľňa","brand:wikidata":"Q29054618","operator":"Prvá stavebná sporiteľňa","operator:wikidata":"Q29054618"}},"amenity/atm/raiffeisenbanka-6843ee":{"name":"Raiffeisen banka Slovensko","locationSet":{"include":["sk"]},"geometry":["point","vertex"],"matchScore":2,"terms":["raiffeisen","raiffeisen banka","raiffeisenbank"],"fields":["name","brand","{amenity/atm}"],"tags":{"amenity":"atm","brand:wikidata":"Q107986402"},"addTags":{"amenity":"atm","brand":"Raiffeisen banka","brand:wikidata":"Q107986402","operator":"Raiffeisen banka","operator:wikidata":"Q107986402"}},"amenity/atm/slovenskasporitelna-6843ee":{"name":"Slovenská sporiteľňa","locationSet":{"include":["sk"]},"geometry":["point","vertex"],"matchScore":2,"terms":["slovenská sporiteľňa"],"fields":["name","brand","{amenity/atm}"],"tags":{"amenity":"atm","brand:wikidata":"Q7541907"},"addTags":{"amenity":"atm","brand":"Slovenská sporiteľňa","brand:wikidata":"Q7541907","operator":"Slovenská sporiteľňa","operator:wikidata":"Q7541907"}},"amenity/atm/tatrabanka-6843ee":{"name":"Tatra banka","locationSet":{"include":["sk"]},"geometry":["point","vertex"],"matchScore":2,"terms":["tatra banka"],"fields":["name","brand","{amenity/atm}"],"tags":{"amenity":"atm","brand:wikidata":"Q1718069"},"addTags":{"amenity":"atm","brand":"Tatra banka","brand:wikidata":"Q1718069","operator":"Tatra banka","operator:wikidata":"Q1718069"}},"amenity/atm/unicreditbank-3ecec5":{"name":"UniCredit Bank","locationSet":{"include":["ba","cz","hu","it","ro","rs","ru","si","sk"]},"geometry":["point","vertex"],"matchScore":2,"terms":["unicredit","unicredit banca","unicredit bank","unicredit s.p.a."],"fields":["name","brand","{amenity/atm}"],"tags":{"amenity":"atm","brand:wikidata":"Q45568"},"addTags":{"amenity":"atm","brand":"UniCredit Bank","brand:wikidata":"Q45568","operator":"UniCredit Bank","operator:wikidata":"Q45568"}},"amenity/atm/vseobecnauverovabanka-6843ee":{"name":"Všeobecná úverová banka","locationSet":{"include":["sk"]},"geometry":["point","vertex"],"matchScore":2,"terms":["všeobecná úverová banka","vub","vub bank","vub banka"],"fields":["name","brand","{amenity/atm}"],"tags":{"amenity":"atm","brand:wikidata":"Q12778981"},"addTags":{"amenity":"atm","brand":"Všeobecná úverová banka","brand:wikidata":"Q12778981","operator":"Všeobecná úverová banka","operator:wikidata":"Q12778981","short_name":"VUB"}},"amenity/bank/365bank-6a1dfb":{"name":"365.bank","locationSet":{"include":["sk"]},"geometry":["point","area"],"matchScore":2,"terms":["365 banka","365.bank","365.bank, a.s."],"tags":{"amenity":"bank","brand:wikidata":"Q7237158"},"addTags":{"amenity":"bank","brand":"365.bank","brand:wikidata":"Q7237158","name":"365.bank","official_name":"365.bank, a.s."}},"amenity/bank/bnpparibas-42efac":{"name":"BNP Paribas","locationSet":{"include":["ae","af","ar","at","bf","bg","bh","br","ca","ch","ci","cl","co","cz","de","dk","dz","es","fi","fr","gb","gf","gp","hu","ie","il","it","kw","lu","ma","ml","mq","mx","nl","no","pe","pt","qa","re","ro","ru","sa","se","sk","sn","tn","tr","us"]},"geometry":["point","area"],"matchScore":2,"terms":["bnp paribas"],"tags":{"amenity":"bank","brand:wikidata":"Q499707"},"addTags":{"amenity":"bank","brand":"BNP Paribas","brand:wikidata":"Q499707","name":"BNP Paribas"}},"amenity/bank/csob-dde967":{"name":"ČSOB","locationSet":{"include":["cz","sk"]},"geometry":["point","area"],"matchScore":2,"terms":["čsob"],"tags":{"amenity":"bank","brand:wikidata":"Q340135"},"addTags":{"amenity":"bank","brand":"ČSOB","brand:wikidata":"Q340135","name":"ČSOB"}},"amenity/bank/fiobanka-dde967":{"name":"Fio banka","locationSet":{"include":["cz","sk"]},"geometry":["point","area"],"matchScore":2,"terms":["fio banka"],"tags":{"amenity":"bank","brand:wikidata":"Q12016657"},"addTags":{"amenity":"bank","brand":"Fio banka","brand:wikidata":"Q12016657","name":"Fio banka"}},"amenity/bank/jandtbanka-dde967":{"name":"J&T Banka","locationSet":{"include":["cz","sk"]},"geometry":["point","area"],"matchScore":2,"terms":["j&t banka"],"tags":{"amenity":"bank","brand:wikidata":"Q12022160"},"addTags":{"amenity":"bank","brand":"J&T Banka","brand:wikidata":"Q12022160","name":"J&T Banka"}},"amenity/bank/mbank-b95c32":{"name":"mBank (Europe)","locationSet":{"include":["cz","pl","sk"]},"geometry":["point","area"],"matchScore":2,"terms":["mbank"],"tags":{"amenity":"bank","brand:wikidata":"Q1160928"},"addTags":{"amenity":"bank","brand":"mBank","brand:wikidata":"Q1160928","name":"mBank"}},"amenity/bank/oberbank-f71288":{"name":"Oberbank","locationSet":{"include":["at","cz","de","hu","sk"]},"geometry":["point","area"],"matchScore":2,"terms":["oberbank"],"tags":{"amenity":"bank","brand:wikidata":"Q2009139"},"addTags":{"amenity":"bank","brand":"Oberbank","brand:wikidata":"Q2009139","name":"Oberbank"}},"amenity/bank/postovabanka-6a1dfb":{"name":"Poštová banka","locationSet":{"include":["sk"]},"geometry":["point","area"],"matchScore":2,"terms":["poštová banka"],"tags":{"amenity":"bank","brand:wikidata":"Q7237158"},"addTags":{"amenity":"bank","brand":"Poštová banka","brand:wikidata":"Q7237158","name":"Poštová banka"}},"amenity/bank/primabanka-6a1dfb":{"name":"Prima banka","locationSet":{"include":["sk"]},"geometry":["point","area"],"matchScore":2,"terms":["prima banka"],"tags":{"amenity":"bank","brand:wikidata":"Q13538661"},"addTags":{"amenity":"bank","brand":"Prima banka","brand:wikidata":"Q13538661","name":"Prima banka"}},"amenity/bank/privatbanka-6a1dfb":{"name":"Privatbanka","locationSet":{"include":["sk"]},"geometry":["point","area"],"matchScore":2,"terms":["privatbanka"],"tags":{"amenity":"bank","brand:wikidata":"Q12774628"},"addTags":{"amenity":"bank","brand":"Privatbanka","brand:wikidata":"Q12774628","name":"Privatbanka"}},"amenity/bank/prvastavebnasporitelna-6a1dfb":{"name":"Prvá stavebná sporiteľňa","locationSet":{"include":["sk"]},"geometry":["point","area"],"matchScore":2,"terms":["prvá stavebná sporiteľňa"],"tags":{"amenity":"bank","brand:wikidata":"Q29054618"},"addTags":{"amenity":"bank","brand":"Prvá stavebná sporiteľňa","brand:wikidata":"Q29054618","name":"Prvá stavebná sporiteľňa"}},"amenity/bank/raiffeisenbanka-6a1dfb":{"name":"Raiffeisen banka Slovensko","locationSet":{"include":["sk"]},"geometry":["point","area"],"matchScore":2,"terms":["raiffeisen","raiffeisen banka","raiffeisenbank"],"tags":{"amenity":"bank","brand:wikidata":"Q107986402"},"addTags":{"amenity":"bank","brand":"Raiffeisen banka","brand:wikidata":"Q107986402","name":"Raiffeisen banka"}},"amenity/bank/slovenskasporitelna-6a1dfb":{"name":"Slovenská sporiteľňa","locationSet":{"include":["sk"]},"geometry":["point","area"],"matchScore":2,"terms":["slovenská sporiteľňa"],"tags":{"amenity":"bank","brand:wikidata":"Q7541907"},"addTags":{"amenity":"bank","brand":"Slovenská sporiteľňa","brand:wikidata":"Q7541907","name":"Slovenská sporiteľňa"}},"amenity/bank/tatrabanka-6a1dfb":{"name":"Tatra banka","locationSet":{"include":["sk"]},"geometry":["point","area"],"matchScore":2,"terms":["tatra banka"],"tags":{"amenity":"bank","brand:wikidata":"Q1718069"},"addTags":{"amenity":"bank","brand":"Tatra banka","brand:wikidata":"Q1718069","name":"Tatra banka"}},"amenity/bank/unicreditbank-ff6e1c":{"name":"UniCredit Bank","locationSet":{"include":["ba","cz","hu","it","ro","rs","ru","si","sk"]},"geometry":["point","area"],"matchScore":2,"terms":["unicredit","unicredit banca","unicredit bank","unicredit s.p.a."],"tags":{"amenity":"bank","brand:wikidata":"Q45568"},"addTags":{"amenity":"bank","brand":"UniCredit Bank","brand:wikidata":"Q45568","name":"UniCredit Bank"}},"amenity/bank/vseobecnauverovabanka-6a1dfb":{"name":"Všeobecná úverová banka","locationSet":{"include":["sk"]},"geometry":["point","area"],"matchScore":2,"terms":["všeobecná úverová banka","vub","vub bank","vub banka"],"tags":{"amenity":"bank","brand:wikidata":"Q12778981"},"addTags":{"amenity":"bank","brand":"Všeobecná úverová banka","brand:wikidata":"Q12778981","name":"Všeobecná úverová banka","short_name":"VUB"}},"amenity/bicycle_rental/antiksmartway-3e2129":{"name":"ANTIK SmartWay","locationSet":{"include":["sk"]},"geometry":["point","vertex","area"],"matchScore":2,"terms":["antik smartway","antik telecom"],"fields":["name","brand","{amenity/bicycle_rental}"],"tags":{"amenity":"bicycle_rental","brand:wikidata":"Q108106650"},"addTags":{"amenity":"bicycle_rental","brand":"ANTIK SmartWay","brand:wikidata":"Q108106650","network":"ANTIK SmartWay","network:wikidata":"Q108106650","operator":"Antik Telecom","operator:wikidata":"Q30297477"}},"amenity/bicycle_rental/slovnaftbajk-3e2129":{"name":"Slovnaft Bajk","locationSet":{"include":["sk"]},"geometry":["point","vertex","area"],"matchScore":2,"terms":["slovnaft bajk","slovnaft mobility services, s.r.o."],"fields":["name","brand","{amenity/bicycle_rental}"],"tags":{"amenity":"bicycle_rental","brand:wikidata":"Q56823119"},"addTags":{"amenity":"bicycle_rental","brand":"Slovnaft Bajk","brand:wikidata":"Q56823119","network":"Slovnaft Bajk","network:wikidata":"Q56823119","operator":"Slovnaft Mobility Services, s.r.o."}},"amenity/bicycle_rental/whitebikes-3e2129":{"name":"WhiteBikes","locationSet":{"include":["sk"]},"geometry":["point","vertex","area"],"matchScore":2,"terms":["whitebikes"],"fields":["name","brand","{amenity/bicycle_rental}"],"tags":{"amenity":"bicycle_rental","brand:wikidata":"Q26868450"},"addTags":{"amenity":"bicycle_rental","brand":"WhiteBikes","brand:wikidata":"Q26868450","network":"WhiteBikes Bratislava","network:wikidata":"Q26868450","operator":"WhiteBikes"}},"amenity/cafe/coffee_shop/cafefrei-b37b54":{"name":"Cafe Frei","locationSet":{"include":["ae","ch","fr","hr","hu","ro","sa","sk"]},"geometry":["point","area"],"matchScore":2,"terms":["cafe frei"],"reference":{"key":"cuisine","value":"coffee_shop"},"tags":{"amenity":"cafe","brand:wikidata":"Q105210995","cuisine":"coffee_shop"},"addTags":{"amenity":"cafe","brand":"Cafe Frei","brand:wikidata":"Q105210995","cuisine":"coffee_shop","name":"Cafe Frei","takeaway":"yes"}},"amenity/cafe/coffee_shop/juliusmeinl-d9fed5":{"name":"Julius Meinl","locationSet":{"include":["ae","at","ba","bg","cz","de","fx","hr","hu","it","md","pl","ro","rs","si","sk","tr","us"]},"geometry":["point","area"],"matchScore":2,"terms":["julius meinl"],"reference":{"key":"cuisine","value":"coffee_shop"},"tags":{"amenity":"cafe","brand:wikidata":"Q670154","cuisine":"coffee_shop"},"addTags":{"amenity":"cafe","brand":"Julius Meinl","brand:wikidata":"Q670154","cuisine":"coffee_shop","name":"Julius Meinl","takeaway":"yes"}},"amenity/car_wash/slovnaft-9d2a81":{"name":"Slovnaft","locationSet":{"include":["cz","pl","sk"]},"geometry":["point","area"],"matchScore":2,"terms":["slovnaft"],"tags":{"amenity":"car_wash","brand:wikidata":"Q1587563"},"addTags":{"amenity":"car_wash","brand":"Slovnaft","brand:wikidata":"Q1587563","name":"Slovnaft"}},"amenity/casino/bancocasino-efca36":{"name":"BANCO CASINO","locationSet":{"include":["cz","sk"]},"geometry":["point","area"],"matchScore":2,"terms":["banco casino"],"tags":{"amenity":"casino","brand:wikidata":"Q58555038"},"addTags":{"amenity":"casino","brand":"BANCO CASINO","brand:wikidata":"Q58555038","name":"BANCO CASINO"}},"amenity/casino/olympiccasino-7eadd8":{"name":"Olympic Casino","locationSet":{"include":["ee","it","lt","lv","mt","sk"]},"geometry":["point","area"],"matchScore":2,"terms":["olympic casino"],"tags":{"amenity":"casino","brand:wikidata":"Q11150186"},"addTags":{"amenity":"casino","brand":"Olympic Casino","brand:wikidata":"Q11150186","name":"Olympic Casino"}},"amenity/charging_station/ionity-b625d6":{"name":"Ionity","locationSet":{"include":["by","bg","cz","hu","pl","md","ro","ru","sk","ua","ax","gg","je","cq","dk","ee","fo","fi","is","ie","im","lv","lt","no","sj","se","gb","al","ad","ba","hr","gi","gr","va","it","mt","me","mk","pt","sm","rs","si","es","xk","at","be","fr","de","li","lu","mc","nl","ch"]},"geometry":["point","vertex","area"],"matchScore":2,"terms":["ionity","ionity gmbh"],"fields":["name","brand","{amenity/charging_station}"],"tags":{"amenity":"charging_station","brand:wikidata":"Q42717773"},"addTags":{"amenity":"charging_station","brand":"Ionity","brand:wikidata":"Q42717773"}},"amenity/charging_station/zsedrive-8610f2":{"name":"ZSE Drive","locationSet":{"include":["sk"]},"geometry":["point","vertex","area"],"matchScore":2,"terms":["západoslovenská energetika","zse","zse drive"],"fields":["name","brand","{amenity/charging_station}"],"tags":{"amenity":"charging_station","brand:wikidata":"Q116450454"},"addTags":{"amenity":"charging_station","brand":"ZSE Drive","brand:wikidata":"Q116450454","operator":"Západoslovenská energetika","operator:wikidata":"Q246921"}},"amenity/cinema/cinemacity-2b5fb2":{"name":"Cinema City","locationSet":{"include":["bg","cz","hu","pl","ro","sk"]},"geometry":["point","area"],"matchScore":2,"terms":["cinema city"],"fields":["name","brand","{amenity/cinema}"],"tags":{"amenity":"cinema","brand:wikidata":"Q543651"},"addTags":{"amenity":"cinema","brand":"Cinema City","brand:wikidata":"Q543651","name":"Cinema City"}},"amenity/cinema/cinemax-396cc7":{"name":"Cinemax","locationSet":{"include":["ro","sk"]},"geometry":["point","area"],"matchScore":2,"terms":["cinemax"],"fields":["name","brand","{amenity/cinema}"],"tags":{"amenity":"cinema","brand:wikidata":"Q93129643"},"addTags":{"amenity":"cinema","brand":"Cinemax","brand:wikidata":"Q93129643","name":"Cinemax"}},"amenity/fast_food/sandwich/bageterieboulevard-57c7d8":{"name":"Bageterie Boulevard","locationSet":{"include":["ae","cz","de","sk"]},"geometry":["point","area"],"matchScore":2,"terms":["bageterie boulevard"],"reference":{"key":"cuisine","value":"sandwich"},"tags":{"amenity":"fast_food","brand:wikidata":"Q10859823","cuisine":"sandwich"},"addTags":{"amenity":"fast_food","brand":"Bageterie Boulevard","brand:wikidata":"Q10859823","cuisine":"sandwich","name":"Bageterie Boulevard","takeaway":"yes"}},"amenity/fast_food/nordsee-db642f":{"name":"Nordsee","locationSet":{"include":["at","ch","cz","de","sk"]},"geometry":["point","area"],"matchScore":2,"terms":["nordsee"],"tags":{"amenity":"fast_food","brand:wikidata":"Q74866"},"addTags":{"amenity":"fast_food","brand":"Nordsee","brand:wikidata":"Q74866","cuisine":"seafood","name":"Nordsee","takeaway":"yes"}},"amenity/fast_food/sandwich/panos-f9b8a7":{"name":"Panos","locationSet":{"include":["ae","be","cz","nl","sk","tw"]},"geometry":["point","area"],"matchScore":2,"terms":["panos"],"reference":{"key":"cuisine","value":"sandwich"},"tags":{"amenity":"fast_food","brand:wikidata":"Q3384496","cuisine":"sandwich"},"addTags":{"amenity":"fast_food","brand":"Panos","brand:wikidata":"Q3384496","cuisine":"sandwich","name":"Panos","takeaway":"yes"}},"amenity/fast_food/juice/ugo-9b6fa9":{"name":"UGO","locationSet":{"include":["cz","sk"]},"geometry":["point","area"],"matchScore":2,"terms":["ugo"],"reference":{"key":"cuisine","value":"juice"},"tags":{"amenity":"fast_food","brand:wikidata":"Q108126892","cuisine":"juice"},"addTags":{"amenity":"fast_food","brand":"UGO","brand:wikidata":"Q108126892","cuisine":"juice","name":"UGO","takeaway":"yes"}},"amenity/fuel/as24-3463db":{"name":"AS 24","locationSet":{"include":["at","be","bg","cz","de","dk","es","fr","gb","ge","gr","hr","hu","ie","it","lt","lu","mk","nl","pl","pt","ro","rs","se","si","sk","ua"]},"geometry":["point","area"],"matchScore":2,"terms":["as 24"],"fields":["name","brand","{amenity/fuel}"],"tags":{"amenity":"fuel","brand:wikidata":"Q2819394"},"addTags":{"amenity":"fuel","brand":"AS 24","brand:wikidata":"Q2819394","hgv":"only","name":"AS 24"}},"amenity/fuel/auchan-fcb99f":{"name":"Auchan","locationSet":{"include":["al","ad","ba","hr","gi","gr","va","it","mt","me","mk","pt","sm","rs","si","es","xk","by","bg","cz","hu","pl","md","ro","ru","sk","ua","at","be","fr","de","li","lu","mc","nl","ch"]},"geometry":["point","area"],"matchScore":2,"terms":["auchan"],"fields":["name","brand","{amenity/fuel}"],"tags":{"amenity":"fuel","brand:wikidata":"Q758603"},"addTags":{"amenity":"fuel","brand":"Auchan","brand:wikidata":"Q758603","name":"Auchan"}},"amenity/fuel/benzina-5f489f":{"name":"Benzina","locationSet":{"include":["cz","sk"]},"geometry":["point","area"],"matchScore":2,"terms":["benzina"],"fields":["name","brand","{amenity/fuel}"],"tags":{"amenity":"fuel","brand:wikidata":"Q11130894"},"addTags":{"amenity":"fuel","brand":"Benzina","brand:wikidata":"Q11130894","name":"Benzina"}},"amenity/fuel/dalioil-11d3b6":{"name":"DALIOIL","locationSet":{"include":["sk"]},"geometry":["point","area"],"matchScore":2,"terms":["dalioil"],"fields":["name","brand","{amenity/fuel}"],"tags":{"amenity":"fuel","brand:wikidata":"Q116942506"},"addTags":{"amenity":"fuel","brand":"DALIOIL","brand:wikidata":"Q116942506","name":"DALIOIL"}},"amenity/fuel/jurki-11d3b6":{"name":"Jurki","locationSet":{"include":["sk"]},"geometry":["point","area"],"matchScore":2,"terms":["jurki"],"fields":["name","brand","{amenity/fuel}"],"tags":{"amenity":"fuel","brand:wikidata":"Q107775944"},"addTags":{"amenity":"fuel","brand":"Jurki","brand:wikidata":"Q107775944","name":"Jurki"}},"amenity/fuel/slovnaft-d7c78f":{"name":"Slovnaft","locationSet":{"include":["cz","pl","sk"]},"geometry":["point","area"],"matchScore":2,"terms":["slovnaft"],"fields":["name","brand","{amenity/fuel}"],"tags":{"amenity":"fuel","brand:wikidata":"Q1587563"},"addTags":{"amenity":"fuel","brand":"Slovnaft","brand:wikidata":"Q1587563","name":"Slovnaft"}},"amenity/fuel/tamautohof-5f489f":{"name":"TAM Autohof","locationSet":{"include":["cz","sk"]},"geometry":["point","area"],"matchScore":2,"terms":["tam autohof"],"fields":["name","brand","{amenity/fuel}"],"tags":{"amenity":"fuel","brand:wikidata":"Q96138528"},"addTags":{"amenity":"fuel","brand":"TAM Autohof","brand:wikidata":"Q96138528","name":"TAM Autohof"}},"amenity/parcel_locker/alzabox-bee63b":{"name":"AlzaBox","locationSet":{"include":["at","cz","hu","sk"]},"geometry":["point","vertex","area"],"matchScore":2,"terms":["alzabox"],"fields":["name","brand","{amenity/parcel_locker}"],"reference":{"key":"amenity","value":"parcel_locker"},"tags":{"amenity":"parcel_locker","brand:wikidata":"Q10786832"},"addTags":{"amenity":"parcel_locker","brand":"AlzaBox","brand:wikidata":"Q10786832","name":"AlzaBox"}},"amenity/parcel_locker/balikobox-cda9c4":{"name":"BalíkoBOX","locationSet":{"include":["sk"]},"geometry":["point","vertex","area"],"matchScore":2,"terms":["balíkobox"],"fields":["name","brand","{amenity/parcel_locker}"],"reference":{"key":"amenity","value":"parcel_locker"},"tags":{"amenity":"parcel_locker","brand:wikidata":"Q1191849"},"addTags":{"amenity":"parcel_locker","brand":"BalíkoBOX","brand:wikidata":"Q1191849","name":"BalíkoBOX","parcel_mail_in":"yes"}},"amenity/parcel_locker/zbox-5a86e9":{"name":"Packeta","locationSet":{"include":["by","bg","cz","hu","pl","md","ro","ru","sk","ua","ax","gg","je","cq","dk","ee","fo","fi","is","ie","im","lv","lt","no","sj","se","gb","al","ad","ba","hr","gi","gr","va","it","mt","me","mk","pt","sm","rs","si","es","xk","at","be","fr","de","li","lu","mc","nl","ch"]},"geometry":["point","vertex","area"],"matchScore":2,"terms":["packeta"],"fields":["name","brand","{amenity/parcel_locker}"],"reference":{"key":"amenity","value":"parcel_locker"},"tags":{"amenity":"parcel_locker","brand:wikidata":"Q67809905"},"addTags":{"amenity":"parcel_locker","brand":"Packeta","brand:wikidata":"Q67809905","name":"Z-Box"}},"amenity/pharmacy/benu-1cd44c":{"name":"Benu","locationSet":{"include":["ch","cz","ee","hu","lt","lv","me","nl","rs","sk"]},"geometry":["point","area"],"matchScore":2,"terms":["benu","benu apotheek","benu aptieka","benu vaistinė"],"reference":{"key":"amenity","value":"pharmacy"},"tags":{"amenity":"pharmacy","brand:wikidata":"Q62562792"},"addTags":{"amenity":"pharmacy","brand":"Benu","brand:wikidata":"Q62562792","healthcare":"pharmacy","name":"Benu"}},"amenity/pharmacy/drmax-d40f7b":{"name":"Dr. Max","locationSet":{"include":["cz","it","pl","ro","rs","sk"]},"geometry":["point","area"],"matchScore":2,"terms":["dr. max"],"reference":{"key":"amenity","value":"pharmacy"},"tags":{"amenity":"pharmacy","brand:wikidata":"Q56317371"},"addTags":{"amenity":"pharmacy","brand":"Dr. Max","brand:wikidata":"Q56317371","healthcare":"pharmacy","name":"Dr. Max"}},"amenity/pharmacy/pluslekaren-f39a0c":{"name":"PLUS LEKÁREŇ","locationSet":{"include":["sk"]},"geometry":["point","area"],"matchScore":2,"terms":["plus lekáreň"],"reference":{"key":"amenity","value":"pharmacy"},"tags":{"amenity":"pharmacy","brand:wikidata":"Q108369059"},"addTags":{"amenity":"pharmacy","brand":"PLUS LEKÁREŇ","brand:wikidata":"Q108369059","healthcare":"pharmacy","name":"PLUS LEKÁREŇ"}},"amenity/pharmacy/schneider-f39a0c":{"name":"Schneider","locationSet":{"include":["sk"]},"geometry":["point","area"],"matchScore":2,"terms":["schneider"],"reference":{"key":"amenity","value":"pharmacy"},"tags":{"amenity":"pharmacy","brand:wikidata":"Q93514377"},"addTags":{"amenity":"pharmacy","brand":"Schneider","brand:wikidata":"Q93514377","healthcare":"pharmacy","name":"Schneider"}},"amenity/pharmacy/vasalekaren-f39a0c":{"name":"Vaša Lekáreň","locationSet":{"include":["sk"]},"geometry":["point","area"],"matchScore":2,"terms":["vaša","vaša lekáreň"],"reference":{"key":"amenity","value":"pharmacy"},"tags":{"amenity":"pharmacy","brand:wikidata":"Q108368884"},"addTags":{"amenity":"pharmacy","brand":"Vaša Lekáreň","brand:wikidata":"Q108368884","healthcare":"pharmacy","name":"Vaša Lekáreň"}},"amenity/post_office/expressone-b4dbc8":{"name":"Express One (Slovakia)","locationSet":{"include":["sk"]},"geometry":["point","area"],"matchScore":2,"terms":["express one"],"fields":["name","brand","{amenity/post_office}"],"tags":{"amenity":"post_office","brand:wikidata":"Q115972822"},"addTags":{"amenity":"post_office","brand":"Express One","brand:wikidata":"Q115972822"}},"amenity/social_centre/ahepahall-30ca27":{"name":"AHEPA Hall","locationSet":{"include":["by","bg","cz","hu","pl","md","ro","ru","sk","ua","ax","gg","je","cq","dk","ee","fo","fi","is","ie","im","lv","lt","no","sj","se","gb","al","ad","ba","hr","gi","gr","va","it","mt","me","mk","pt","sm","rs","si","es","xk","at","be","fr","de","li","lu","mc","nl","ch","au","ca","cy","us"],"exclude":["ru"]},"geometry":["point","area"],"matchScore":2,"terms":["ahepa","american hellenic educational progressive association","the order of ahepa"],"fields":["name","brand","{amenity/social_centre}"],"tags":{"amenity":"social_centre","brand:wikidata":"Q4743973"},"addTags":{"amenity":"social_centre","brand":"AHEPA","brand:wikidata":"Q4743973","name":"AHEPA Hall"}},"amenity/social_facility/caritas-07e566":{"name":"Caritas (Slovensko)","locationSet":{"include":["sk"]},"geometry":["point","area"],"matchScore":2,"terms":["caritas"],"tags":{"amenity":"social_facility","brand:wikidata":"Q1036340"},"addTags":{"amenity":"social_facility","brand":"Caritas","brand:wikidata":"Q1036340"}},"amenity/vending_machine/bicycle_tube/continental-123edb":{"name":"Continental","locationSet":{"include":["by","bg","cz","hu","pl","md","ro","ru","sk","ua","ax","gg","je","cq","dk","ee","fo","fi","is","ie","im","lv","lt","no","sj","se","gb","al","ad","ba","hr","gi","gr","va","it","mt","me","mk","pt","sm","rs","si","es","xk","at","be","fr","de","li","lu","mc","nl","ch"]},"geometry":["point","vertex"],"matchScore":2,"terms":["continental"],"reference":{"key":"vending","value":"bicycle_tube"},"tags":{"amenity":"vending_machine","brand:wikidata":"Q64739247","vending":"bicycle_tube"},"addTags":{"amenity":"vending_machine","brand":"Continental","brand:wikidata":"Q64739247","name":"Continental","vending":"bicycle_tube"}},"amenity/vending_machine/bicycle_tube/schwalbe-123edb":{"name":"Schwalbe","locationSet":{"include":["by","bg","cz","hu","pl","md","ro","ru","sk","ua","ax","gg","je","cq","dk","ee","fo","fi","is","ie","im","lv","lt","no","sj","se","gb","al","ad","ba","hr","gi","gr","va","it","mt","me","mk","pt","sm","rs","si","es","xk","at","be","fr","de","li","lu","mc","nl","ch"]},"geometry":["point","vertex"],"matchScore":2,"terms":["schwalbe"],"reference":{"key":"vending","value":"bicycle_tube"},"tags":{"amenity":"vending_machine","brand:wikidata":"Q1312213","vending":"bicycle_tube"},"addTags":{"amenity":"vending_machine","brand":"Schwalbe","brand:wikidata":"Q1312213","name":"Schwalbe","vending":"bicycle_tube"}},"craft/electronics_repair/pcexpres-96c0e5":{"name":"PCexpres","locationSet":{"include":["cz","sk"]},"geometry":["point","area"],"matchScore":2,"terms":["expres opravy","pc express","pcexpres"],"tags":{"brand:wikidata":"Q116867808","craft":"electronics_repair"},"addTags":{"brand":"PCexpres","brand:wikidata":"Q116867808","craft":"electronics_repair","electronics_repair":"computer;appliance;phone","name":"PCexpres","name:cs":"expres opravy","name:sk":"PCexpres"}},"leisure/fitness_centre/fitinn-48d938":{"name":"FITINN","locationSet":{"include":["by","bg","cz","hu","pl","md","ro","ru","sk","ua","ax","gg","je","cq","dk","ee","fo","fi","is","ie","im","lv","lt","no","sj","se","gb","al","ad","ba","hr","gi","gr","va","it","mt","me","mk","pt","sm","rs","si","es","xk","at","be","fr","de","li","lu","mc","nl","ch"]},"geometry":["point","area"],"matchScore":2,"terms":["fitinn"],"tags":{"brand:wikidata":"Q1245564","leisure":"fitness_centre"},"addTags":{"brand":"FITINN","brand:wikidata":"Q1245564","leisure":"fitness_centre","name":"FITINN"}},"leisure/fitness_centre/holmesplace-901199":{"name":"Holmes Place","locationSet":{"include":["by","bg","cz","hu","pl","md","ro","ru","sk","ua","ax","gg","je","cq","dk","ee","fo","fi","is","ie","im","lv","lt","no","sj","se","gb","al","ad","ba","hr","gi","gr","va","it","mt","me","mk","pt","sm","rs","si","es","xk","at","be","fr","de","li","lu","mc","nl","ch","il"]},"geometry":["point","area"],"matchScore":2,"terms":["holmes place"],"tags":{"brand:wikidata":"Q15815819","leisure":"fitness_centre"},"addTags":{"brand":"Holmes Place","brand:wikidata":"Q15815819","leisure":"fitness_centre","name":"Holmes Place"}},"leisure/fitness_centre/mrssporty-658820":{"name":"Mrs. Sporty","locationSet":{"include":["at","ch","de","es","it","pl","sk"]},"geometry":["point","area"],"matchScore":2,"terms":["mrs. sporty"],"tags":{"brand:wikidata":"Q100718953","leisure":"fitness_centre"},"addTags":{"brand":"Mrs. Sporty","brand:wikidata":"Q100718953","leisure":"fitness_centre","name":"Mrs. Sporty"}},"leisure/playground/zihadielko-aee7ff":{"name":"Žihadielko","locationSet":{"include":["sk"]},"geometry":["area","point"],"matchScore":2,"terms":["žihadielko"],"tags":{"brand:wikidata":"Q116898441","leisure":"playground"},"addTags":{"access":"yes","brand":"Žihadielko","brand:wikidata":"Q116898441","leisure":"playground","name":"Žihadielko"}},"man_made/ionity-97d83d":{"name":"Ionity","locationSet":{"include":["by","bg","cz","hu","pl","md","ro","ru","sk","ua","ax","gg","je","cq","dk","ee","fo","fi","is","ie","im","lv","lt","no","sj","se","gb","al","ad","ba","hr","gi","gr","va","it","mt","me","mk","pt","sm","rs","si","es","xk","at","be","fr","de","li","lu","mc","nl","ch"]},"geometry":["point","vertex","line","area"],"matchScore":2,"terms":["ionity","ionity gmbh"],"fields":["name","brand","{man_made}"],"tags":{"brand:wikidata":"Q42717773","man_made":"charge_point"},"addTags":{"brand":"Ionity","brand:wikidata":"Q42717773","man_made":"charge_point"}},"man_made/zsedrive-fed676":{"name":"ZSE Drive","locationSet":{"include":["sk"]},"geometry":["point","vertex","line","area"],"matchScore":2,"terms":["západoslovenská energetika","zse","zse drive"],"fields":["name","brand","{man_made}"],"tags":{"brand:wikidata":"Q116450454","man_made":"charge_point"},"addTags":{"brand":"ZSE Drive","brand:wikidata":"Q116450454","man_made":"charge_point","operator":"Západoslovenská energetika","operator:wikidata":"Q246921"}},"office/estate_agent/vonpollrealestate-c99072":{"name":"von Poll Real Estate","locationSet":{"include":["by","bg","cz","hu","pl","md","ro","ru","sk","ua","ax","gg","je","cq","dk","ee","fo","fi","is","ie","im","lv","lt","no","sj","se","gb","al","ad","ba","hr","gi","gr","va","it","mt","me","mk","pt","sm","rs","si","es","xk","at","be","fr","de","li","lu","mc","nl","ch"],"exclude":["at","de"]},"geometry":["point","area"],"matchScore":2,"terms":["von poll immobilien","von poll real estate","vonpoll","vonpoll commercial"],"tags":{"brand:wikidata":"Q96026696","office":"estate_agent"},"addTags":{"brand":"von Poll Real Estate","brand:wikidata":"Q96026696","name":"von Poll Real Estate","office":"estate_agent"}},"office/insurance/allianz-332499":{"name":"Allianz","locationSet":{"include":["ae","ar","at","au","be","bg","bh","bm","bn","br","ca","cg","ch","ci","cm","cn","co","cy","cz","de","dk","ee","eg","es","fi","fr","gb","gf","gg","gh","gp","gr","hk","hr","hu","id","ie","in","is","it","ja","ke","kr","kw","la","li","lk","lt","lu","lv","ma","mg","mx","my","ng","nl","no","nz","om","ph","pk","pl","pt","qa","ro","ru","sa","se","sg","si","sk","sn","th","tr","tw","ua","us","za"]},"geometry":["point","area"],"matchScore":2,"terms":["allianz","allianz versicherung"],"fields":["name","brand","{office/insurance}"],"tags":{"brand:wikidata":"Q487292","office":"insurance"},"addTags":{"brand":"Allianz","brand:wikidata":"Q487292","name":"Allianz","office":"insurance"}},"office/insurance/axa-2e7672":{"name":"AXA","locationSet":{"include":["ae","ar","au","be","bh","bm","br","ca","ch","ci","cl","cm","cn","co","cz","de","dk","dz","eg","es","fi","fr","ga","gb","gr","hk","id","ie","in","it","jp","kr","lb","lu","ma","mu","mx","my","ng","nl","no","om","pa","pe","ph","pl","pt","qa","sa","se","sg","sk","sn","th","tr","tw","us"]},"geometry":["point","area"],"matchScore":2,"terms":["axa"],"fields":["name","brand","{office/insurance}"],"tags":{"brand:wikidata":"Q160054","office":"insurance"},"addTags":{"brand":"AXA","brand:wikidata":"Q160054","name":"AXA","office":"insurance"}},"office/insurance/dovera-780b74":{"name":"Dôvera","locationSet":{"include":["sk"]},"geometry":["point","area"],"matchScore":2,"terms":["dôvera","dôvera zdravotná poisťovňa"],"fields":["name","brand","{office/insurance}"],"tags":{"brand:wikidata":"Q77877753","office":"insurance"},"addTags":{"brand":"Dôvera","brand:wikidata":"Q77877753","insurance":"health","name":"Dôvera","office":"insurance"}},"office/insurance/generali-cb13d1":{"name":"Generali","locationSet":{"include":["ar","at","bg","br","ch","cl","cn","cz","de","es","fr","gr","hr","hu","id","in","it","me","my","ph","pl","pt","ro","rs","si","sk","tr","vn"]},"geometry":["point","area"],"matchScore":2,"terms":["generali"],"fields":["name","brand","{office/insurance}"],"tags":{"brand:wikidata":"Q670482","office":"insurance"},"addTags":{"brand":"Generali","brand:wikidata":"Q670482","name":"Generali","office":"insurance"}},"office/insurance/groupama-924bc9":{"name":"Groupama","locationSet":{"include":["bg","cn","gr","hu","it","ro","sk","tr"]},"geometry":["point","area"],"matchScore":2,"terms":["groupama","groupe des assurances mutuelles agricoles"],"fields":["name","brand","{office/insurance}"],"tags":{"brand:wikidata":"Q3083531","office":"insurance"},"addTags":{"brand":"Groupama","brand:wikidata":"Q3083531","name":"Groupama","office":"insurance","official_name":"Groupe des Assurances Mutuelles Agricoles"}},"office/insurance/komunalnapoistovna-780b74":{"name":"KOMUNÁLNA poisťovňa","locationSet":{"include":["sk"]},"geometry":["point","area"],"matchScore":2,"terms":["komunálna poisťovňa"],"fields":["name","brand","{office/insurance}"],"tags":{"brand:wikidata":"Q96129040","office":"insurance"},"addTags":{"brand":"KOMUNÁLNA poisťovňa","brand:wikidata":"Q96129040","name":"KOMUNÁLNA poisťovňa","office":"insurance"}},"office/insurance/kooperativa-98fcf6":{"name":"Kooperativa","locationSet":{"include":["cz","sk"]},"geometry":["point","area"],"matchScore":2,"terms":["kooperativa"],"fields":["name","brand","{office/insurance}"],"tags":{"brand:wikidata":"Q16742113","office":"insurance"},"addTags":{"brand":"Kooperativa","brand:wikidata":"Q16742113","name":"Kooperativa","office":"insurance"}},"office/insurance/nn-336e34":{"name":"NN","locationSet":{"include":["by","bg","cz","hu","pl","md","ro","ru","sk","ua","ax","gg","je","cq","dk","ee","fo","fi","is","ie","im","lv","lt","no","sj","se","gb","al","ad","ba","hr","gi","gr","va","it","mt","me","mk","pt","sm","rs","si","es","xk","at","be","fr","de","li","lu","mc","nl","ch"]},"geometry":["point","area"],"matchScore":2,"terms":["nationale-nederlanden","nn"],"fields":["name","brand","{office/insurance}"],"tags":{"brand:wikidata":"Q1834291","office":"insurance"},"addTags":{"brand":"NN","brand:wikidata":"Q1834291","name":"NN","office":"insurance","official_name":"Nationale-Nederlanden"}},"office/insurance/socialnapoistovna-780b74":{"name":"Sociálna poisťovňa","locationSet":{"include":["sk"]},"geometry":["point","area"],"matchScore":2,"terms":["sociálna poisťovňa","sp"],"fields":["name","brand","{office/insurance}"],"tags":{"brand:wikidata":"Q99976267","office":"insurance"},"addTags":{"brand":"Sociálna poisťovňa","brand:wikidata":"Q99976267","name":"Sociálna poisťovňa","office":"insurance","short_name":"SP"}},"office/insurance/stabilita-780b74":{"name":"STABILITA","locationSet":{"include":["sk"]},"geometry":["point","area"],"matchScore":2,"terms":["stabilita"],"fields":["name","brand","{office/insurance}"],"tags":{"brand:wikidata":"Q77877587","office":"insurance"},"addTags":{"brand":"STABILITA","brand:wikidata":"Q77877587","name":"STABILITA","office":"insurance"}},"office/insurance/swisslife-aab9d2":{"name":"Swiss Life","locationSet":{"include":["at","ch","cz","de","fr","gb","sk"]},"geometry":["point","area"],"matchScore":2,"terms":["swiss life"],"fields":["name","brand","{office/insurance}"],"tags":{"brand:wikidata":"Q667350","office":"insurance"},"addTags":{"brand":"Swiss Life","brand:wikidata":"Q667350","name":"Swiss Life","office":"insurance"}},"office/insurance/union-780b74":{"name":"Union","locationSet":{"include":["sk"]},"geometry":["point","area"],"matchScore":2,"terms":["union","union poisťovňa","union zdravotná poisťovňa"],"fields":["name","brand","{office/insurance}"],"tags":{"brand:wikidata":"Q42712112","office":"insurance"},"addTags":{"brand":"Union","brand:wikidata":"Q42712112","name":"Union","office":"insurance"}},"office/insurance/uniqa-dc7360":{"name":"Uniqa","locationSet":{"include":["al","at","ba","bg","ch","cz","hr","hu","li","me","mk","pl","ro","rs","ru","sk","ua","xk"]},"geometry":["point","area"],"matchScore":2,"terms":["uniqa"],"fields":["name","brand","{office/insurance}"],"tags":{"brand:wikidata":"Q1022419","office":"insurance"},"addTags":{"brand":"Uniqa","brand:wikidata":"Q1022419","name":"Uniqa","office":"insurance"}},"office/insurance/vseobecnazdravotnapoistovna-780b74":{"name":"Všeobecná zdravotná poisťovňa","locationSet":{"include":["sk"]},"geometry":["point","area"],"matchScore":2,"terms":["všeobecná zdravotná poisťovňa","všzp"],"fields":["name","brand","{office/insurance}"],"tags":{"brand:wikidata":"Q12779145","office":"insurance"},"addTags":{"brand":"Všeobecná zdravotná poisťovňa","brand:wikidata":"Q12779145","insurance":"health","name":"Všeobecná zdravotná poisťovňa","office":"insurance","short_name":"VšZP"}},"office/insurance/wustenrot-6f527a":{"name":"Wüstenrot","locationSet":{"include":["at","cz","de","sk"]},"geometry":["point","area"],"matchScore":2,"terms":["wüstenrot"],"fields":["name","brand","{office/insurance}"],"tags":{"brand:wikidata":"Q2597123","office":"insurance"},"addTags":{"brand":"Wüstenrot","brand:wikidata":"Q2597123","name":"Wüstenrot","office":"insurance"}},"office/insurance/zurich-2d6c95":{"name":"Zurich","locationSet":{"include":["ae","at","au","be","bh","br","ca","ch","cl","cn","co","de","ec","es","fi","fr","gb","hk","id","ie","it","ja","kw","lb","li","lu","mx","my","nl","no","nz","om","pt","qa","se","sg","sk","tr","us"]},"geometry":["point","area"],"matchScore":2,"terms":["zurich"],"fields":["name","brand","{office/insurance}"],"tags":{"brand:wikidata":"Q230426","office":"insurance"},"addTags":{"brand":"Zurich","brand:wikidata":"Q230426","name":"Zurich","office":"insurance"}},"office/telecommunication/antiktelecom-dd32b3":{"name":"Antik Telecom","locationSet":{"include":["sk"]},"geometry":["point","area"],"matchScore":2,"terms":["antik telecom"],"tags":{"brand:wikidata":"Q30297477","office":"telecommunication"},"addTags":{"brand":"Antik Telecom","brand:wikidata":"Q30297477","name":"Antik Telecom","office":"telecommunication"}},"shop/alcohol/1day-41aec7":{"name":"1. day","locationSet":{"include":["sk"]},"geometry":["point","area"],"matchScore":2,"terms":["1. day","first day"],"tags":{"brand:wikidata":"Q108149927","shop":"alcohol"},"addTags":{"brand":"1. day","brand:wikidata":"Q108149927","name":"1. day","shop":"alcohol"}},"shop/bag/larabags-f2ddb9":{"name":"LARA BAGS","locationSet":{"include":["cz","sk"]},"geometry":["point","area"],"matchScore":2,"terms":["lara bags"],"tags":{"brand:wikidata":"Q116737805","shop":"bag"},"addTags":{"brand":"LARA BAGS","brand:wikidata":"Q116737805","name":"LARA BAGS","shop":"bag"}},"shop/bakery/anker-4c6659":{"name":"Anker","locationSet":{"include":["at","sk"]},"geometry":["point","area"],"matchScore":2,"terms":["anker"],"tags":{"brand:wikidata":"Q557116","shop":"bakery"},"addTags":{"brand":"Anker","brand:wikidata":"Q557116","name":"Anker","shop":"bakery"}},"shop/bakery/fornetti-0c6f37":{"name":"Fornetti","locationSet":{"include":["bg","cz","hr","hu","md","pl","ro","sk","ua"]},"geometry":["point","area"],"matchScore":2,"terms":["fornetti"],"tags":{"brand:wikidata":"Q1003020","shop":"bakery"},"addTags":{"brand":"Fornetti","brand:wikidata":"Q1003020","name":"Fornetti","shop":"bakery"}},"shop/bakery/minit-3ca1fa":{"name":"Minit","locationSet":{"include":["sk"]},"geometry":["point","area"],"matchScore":2,"terms":["minit"],"tags":{"brand:wikidata":"Q116681166","shop":"bakery"},"addTags":{"brand":"Minit","brand:wikidata":"Q116681166","name":"Minit","shop":"bakery"}},"shop/bookmaker/fortuna-70887d":{"name":"Fortuna","locationSet":{"include":["cz","hr","pl","ro","sk"]},"geometry":["point","area"],"matchScore":2,"terms":["fortuna"],"tags":{"brand:wikidata":"Q25857973","shop":"bookmaker"},"addTags":{"brand":"Fortuna","brand:wikidata":"Q25857973","name":"Fortuna","shop":"bookmaker"}},"shop/bookmaker/nike-faffc2":{"name":"Niké","locationSet":{"include":["sk"]},"geometry":["point","area"],"matchScore":2,"terms":["niké"],"tags":{"brand:wikidata":"Q12772537","shop":"bookmaker"},"addTags":{"brand":"Niké","brand:wikidata":"Q12772537","name":"Niké","shop":"bookmaker"}},"shop/bookmaker/tipsport-d9567a":{"name":"Tipsport","locationSet":{"include":["cz","sk"]},"geometry":["point","area"],"matchScore":2,"terms":["tipsport"],"tags":{"brand:wikidata":"Q7808973","shop":"bookmaker"},"addTags":{"brand":"Tipsport","brand:wikidata":"Q7808973","name":"Tipsport","shop":"bookmaker"}},"shop/books/martinus-de15da":{"name":"Martinus","locationSet":{"include":["sk"]},"geometry":["point","area"],"matchScore":2,"terms":["martinus"],"tags":{"brand:wikidata":"Q15089074","shop":"books"},"addTags":{"brand":"Martinus","brand:wikidata":"Q15089074","name":"Martinus","shop":"books"}},"shop/books/pantarhei-de15da":{"name":"Panta Rhei","locationSet":{"include":["sk"]},"geometry":["point","area"],"matchScore":2,"terms":["panta rhei"],"tags":{"brand:wikidata":"Q93431299","shop":"books"},"addTags":{"brand":"Panta Rhei","brand:wikidata":"Q93431299","name":"Panta Rhei","shop":"books"}},"shop/car/smart-b77732":{"name":"Smart","locationSet":{"include":["by","bg","cz","hu","pl","md","ro","ru","sk","ua","ax","gg","je","cq","dk","ee","fo","fi","is","ie","im","lv","lt","no","sj","se","gb","al","ad","ba","hr","gi","gr","va","it","mt","me","mk","pt","sm","rs","si","es","xk","at","be","fr","de","li","lu","mc","nl","ch","cn"]},"geometry":["point","area"],"matchScore":2,"terms":["smart"],"fields":["name","brand","{shop/car}"],"tags":{"brand:wikidata":"Q156490","shop":"car"},"addTags":{"brand":"Smart","brand:wikidata":"Q156490","name":"Smart","shop":"car"}},"shop/car_parts/intercars-a4b6c1":{"name":"Inter Cars","locationSet":{"include":["ba","bg","cz","ee","gr","hr","hu","it","la","lv","md","pl","ro","rs","si","sk","ua"]},"geometry":["point","area"],"matchScore":2,"terms":["inter cars"],"tags":{"brand:wikidata":"Q115922509","shop":"car_parts"},"addTags":{"brand":"Inter Cars","brand:wikidata":"Q115922509","name":"Inter Cars","shop":"car_parts"}},"shop/car_repair/bestdrive-9f6e1a":{"name":"BestDrive","locationSet":{"include":["cz","fr","sk"]},"geometry":["point","area"],"matchScore":2,"terms":["bestdrive"],"fields":["name","brand","{shop/car_repair}"],"tags":{"brand:wikidata":"Q63057183","shop":"car_repair"},"addTags":{"brand":"BestDrive","brand:wikidata":"Q63057183","name":"BestDrive","shop":"car_repair"}},"shop/car_repair/premio-354273":{"name":"Premio","locationSet":{"include":["be","bg","ch","cz","de","hu","nl","pl","ro","ru","sk"]},"geometry":["point","area"],"matchScore":2,"terms":["premio"],"fields":["name","brand","{shop/car_repair}"],"tags":{"brand:wikidata":"Q100895958","shop":"car_repair"},"addTags":{"brand":"Premio","brand:wikidata":"Q100895958","name":"Premio","shop":"car_repair"}},"shop/chemist/101drogerie-a99570":{"name":"101 Drogerie","locationSet":{"include":["sk"]},"geometry":["point","area"],"matchScore":2,"terms":["101 drogerie"],"tags":{"brand:wikidata":"Q67197464","shop":"chemist"},"addTags":{"brand":"101 Drogerie","brand:wikidata":"Q67197464","name":"101 Drogerie","shop":"chemist"}},"shop/chemist/curaproxsmileshop-419e7d":{"name":"Curaprox Smile Shop","locationSet":{"include":["cz","sk"]},"geometry":["point","area"],"matchScore":2,"terms":["curaprox","curaprox smile shop"],"tags":{"brand:wikidata":"Q116868432","shop":"chemist"},"addTags":{"brand":"Curaprox Smile Shop","brand:wikidata":"Q116868432","name":"Curaprox Smile Shop","shop":"chemist","short_name":"Curaprox"}},"shop/chemist/dm-64e7ae":{"name":"dm","locationSet":{"include":["at","ba","bg","cz","de","hr","hu","it","mk","ro","rs","si","sk"]},"geometry":["point","area"],"matchScore":2,"terms":["dm","dm drogerie markt"],"tags":{"brand:wikidata":"Q266572","shop":"chemist"},"addTags":{"brand":"dm","brand:wikidata":"Q266572","name":"dm","shop":"chemist"}},"shop/chemist/teta-419e7d":{"name":"Teta","locationSet":{"include":["cz","sk"]},"geometry":["point","area"],"matchScore":2,"terms":["teta"],"tags":{"brand:wikidata":"Q20860823","shop":"chemist"},"addTags":{"brand":"Teta","brand:wikidata":"Q20860823","name":"Teta","shop":"chemist"}},"shop/chemist/topdrogerie-419e7d":{"name":"TOP Drogerie","locationSet":{"include":["cz","sk"]},"geometry":["point","area"],"matchScore":2,"terms":["top drogéria","top drogerie"],"tags":{"brand:wikidata":"Q93429821","shop":"chemist"},"addTags":{"brand":"TOP Drogerie","brand:wikidata":"Q93429821","name":"TOP Drogerie","name:sk":"TOP Drogéria","shop":"chemist"}},"shop/chocolate/jeffdebruges-d57ca4":{"name":"Jeff de Bruges","locationSet":{"include":["at","bg","ca","cz","de","ee","es","fr","gb","it","jo","lu","ma","om","pf","sa","sk","sn","tn"]},"geometry":["point","area"],"matchScore":2,"terms":["jeff de bruges"],"tags":{"brand:wikidata":"Q3176626","shop":"chocolate"},"addTags":{"brand":"Jeff de Bruges","brand:wikidata":"Q3176626","name":"Jeff de Bruges","shop":"chocolate"}},"shop/clothes/underwear/bepon-111ecf":{"name":"Bepon","locationSet":{"include":["cz","sk"]},"geometry":["point","area"],"matchScore":2,"terms":["bepon"],"reference":{"key":"clothes","value":"underwear"},"tags":{"brand:wikidata":"Q23766409","clothes":"underwear","shop":"clothes"},"addTags":{"brand":"Bepon","brand:wikidata":"Q23766409","clothes":"underwear","name":"Bepon","shop":"clothes"}},"shop/clothes/suits/blazek-111ecf":{"name":"Blažek","locationSet":{"include":["cz","sk"]},"geometry":["point","area"],"matchScore":2,"terms":["blažek"],"tags":{"brand:wikidata":"Q108064966","clothes":"suits","shop":"clothes"},"addTags":{"brand":"Blažek","brand:wikidata":"Q108064966","clothes":"suits","name":"Blažek","shop":"clothes"}},"shop/clothes/campdavid-0a34da":{"name":"Camp David","locationSet":{"include":["at","de","ee","sk"]},"geometry":["point","area"],"matchScore":2,"terms":["camp david"],"tags":{"brand:wikidata":"Q50540636","shop":"clothes"},"addTags":{"brand":"Camp David","brand:wikidata":"Q50540636","name":"Camp David","shop":"clothes"}},"shop/clothes/coccodrillo-571709":{"name":"Coccodrillo","locationSet":{"include":["at","bg","by","cz","de","ee","fi","hu","lt","lv","me","pl","ro","rs","ru","sk","ua"]},"geometry":["point","area"],"matchScore":2,"terms":["coccodrillo"],"tags":{"brand:wikidata":"Q9195224","shop":"clothes"},"addTags":{"brand":"Coccodrillo","brand:wikidata":"Q9195224","clothes":"children","name":"Coccodrillo","shop":"clothes"}},"shop/clothes/colloseum-3648e4":{"name":"Colloseum","locationSet":{"include":["at","cz","de","gr","lv","pl","ru","sk"]},"geometry":["point","area"],"matchScore":2,"terms":["colloseum"],"tags":{"brand:wikidata":"Q15794685","shop":"clothes"},"addTags":{"brand":"Colloseum","brand:wikidata":"Q15794685","name":"Colloseum","shop":"clothes"}},"shop/clothes/cropp-f09482":{"name":"Cropp","locationSet":{"include":["ba","bg","cz","ee","fi","hr","hu","kz","lt","lv","pl","ro","rs","ru","si","sk","ua"]},"geometry":["point","area"],"matchScore":2,"terms":["cropp"],"tags":{"brand:wikidata":"Q9196793","shop":"clothes"},"addTags":{"brand":"Cropp","brand:wikidata":"Q9196793","name":"Cropp","shop":"clothes"}},"shop/clothes/fusakle-111ecf":{"name":"Fusakle","locationSet":{"include":["cz","sk"]},"geometry":["point","area"],"matchScore":2,"terms":["fusakle"],"tags":{"brand:wikidata":"Q116729957","shop":"clothes"},"addTags":{"brand":"Fusakle","brand:wikidata":"Q116729957","clothes":"socks","name":"Fusakle","shop":"clothes"}},"shop/clothes/gate-d52ff8":{"name":"Gate","locationSet":{"include":["cz","hu","pl","ro","sk"]},"geometry":["point","area"],"matchScore":2,"terms":["gate"],"tags":{"brand:wikidata":"Q93517084","shop":"clothes"},"addTags":{"brand":"Gate","brand:wikidata":"Q93517084","name":"Gate","shop":"clothes"}},"shop/clothes/house-f09482":{"name":"House","locationSet":{"include":["ba","bg","cz","ee","fi","hr","hu","kz","lt","lv","pl","ro","rs","ru","si","sk","ua"]},"geometry":["point","area"],"matchScore":2,"terms":["house"],"tags":{"brand:wikidata":"Q9294202","shop":"clothes"},"addTags":{"brand":"House","brand:wikidata":"Q9294202","name":"House","shop":"clothes"}},"shop/clothes/kik-323dff":{"name":"KiK","locationSet":{"include":["at","bg","cz","de","es","hr","hu","it","nl","pl","pt","ro","si","sk"]},"geometry":["point","area"],"matchScore":2,"terms":["kik"],"tags":{"brand:wikidata":"Q883965","shop":"clothes"},"addTags":{"brand":"KiK","brand:wikidata":"Q883965","name":"KiK","shop":"clothes"}},"shop/clothes/lindex-d7f5c5":{"name":"Lindex","locationSet":{"include":["cz","ee","fi","no","se","sk"]},"geometry":["point","area"],"matchScore":2,"terms":["lindex"],"fields":["name","brand","{shop/clothes}"],"tags":{"brand:wikidata":"Q1786717","shop":"clothes"},"addTags":{"brand":"Lindex","brand:wikidata":"Q1786717","name":"Lindex","shop":"clothes"}},"shop/clothes/maje-99ba8f":{"name":"Maje","locationSet":{"include":["by","bg","cz","hu","pl","md","ro","ru","sk","ua","ax","gg","je","cq","dk","ee","fo","fi","is","ie","im","lv","lt","no","sj","se","gb","al","ad","ba","hr","gi","gr","va","it","mt","me","mk","pt","sm","rs","si","es","xk","at","be","fr","de","li","lu","mc","nl","ch","cn","hk","sg","tw","us"]},"geometry":["point","area"],"matchScore":2,"terms":["maje"],"tags":{"brand:wikidata":"Q3280458","shop":"clothes"},"addTags":{"brand":"Maje","brand:wikidata":"Q3280458","clothes":"women","name":"Maje","shop":"clothes"}},"shop/clothes/medicine-a7eccb":{"name":"Medicine","locationSet":{"include":["pl","sk","ua"]},"geometry":["point","area"],"matchScore":2,"terms":["medicine"],"tags":{"brand:wikidata":"Q113505176","shop":"clothes"},"addTags":{"brand":"Medicine","brand:wikidata":"Q113505176","name":"Medicine","shop":"clothes"}},"shop/clothes/mohito-710e25":{"name":"Mohito","locationSet":{"include":["ba","bg","cz","ee","fi","hu","kz","lt","lv","pl","ro","rs","ru","si","sk","ua"]},"geometry":["point","area"],"matchScore":2,"terms":["mohito"],"tags":{"brand:wikidata":"Q107410616","shop":"clothes"},"addTags":{"brand":"Mohito","brand:wikidata":"Q107410616","clothes":"women","name":"Mohito","shop":"clothes"}},"shop/clothes/napapijri-8d1144":{"name":"Napapijri","locationSet":{"include":["at","de","fr","it","sk"]},"geometry":["point","area"],"matchScore":2,"terms":["napapijri"],"tags":{"brand:wikidata":"Q2782017","shop":"clothes"},"addTags":{"brand":"Napapijri","brand:wikidata":"Q2782017","name":"Napapijri","shop":"clothes"}},"shop/clothes/suits/ozeta-691270":{"name":"OZETA","locationSet":{"include":["sk"]},"geometry":["point","area"],"matchScore":2,"terms":["ozeta"],"tags":{"brand:wikidata":"Q116867769","clothes":"suits","shop":"clothes"},"addTags":{"brand":"OZETA","brand:wikidata":"Q116867769","clothes":"suits","name":"OZETA","shop":"clothes"}},"shop/clothes/peekandcloppenburg-65e711":{"name":"Peek & Cloppenburg","locationSet":{"include":["at","be","de","nl","pl","sk"]},"geometry":["point","area"],"matchScore":2,"terms":["peek & cloppenburg"],"tags":{"brand:wikidata":"Q2066959","shop":"clothes"},"addTags":{"brand":"Peek & Cloppenburg","brand:wikidata":"Q2066959","name":"Peek & Cloppenburg","shop":"clothes"}},"shop/clothes/pepco-8ddd9a":{"name":"Pepco","locationSet":{"include":["at","bg","cz","de","ee","el","es","hr","hu","it","lt","lv","pl","ro","rs","si","sk"]},"geometry":["point","area"],"matchScore":2,"terms":["pepco"],"tags":{"brand:wikidata":"Q11815580","shop":"clothes"},"addTags":{"brand":"Pepco","brand:wikidata":"Q11815580","name":"Pepco","shop":"clothes"}},"shop/clothes/soliver-fb408e":{"name":"s.Oliver","locationSet":{"include":["by","bg","cz","hu","pl","md","ro","ru","sk","ua","ax","gg","je","cq","dk","ee","fo","fi","is","ie","im","lv","lt","no","sj","se","gb","al","ad","ba","hr","gi","gr","va","it","mt","me","mk","pt","sm","rs","si","es","xk","at","be","fr","de","li","lu","mc","nl","ch","cn","in"]},"geometry":["point","area"],"matchScore":2,"terms":["s.oliver"],"tags":{"brand:wikidata":"Q265056","shop":"clothes"},"addTags":{"brand":"s.Oliver","brand:wikidata":"Q265056","name":"s.Oliver","shop":"clothes"}},"shop/clothes/takkofashion-972a80":{"name":"Takko Fashion","locationSet":{"include":["at","be","ch","cz","de","ee","fr","hr","hu","it","lt","nl","pl","ro","rs","si","sk"]},"geometry":["point","area"],"matchScore":2,"terms":["takko","takko fashion"],"tags":{"brand:wikidata":"Q1371302","shop":"clothes"},"addTags":{"brand":"Takko Fashion","brand:wikidata":"Q1371302","name":"Takko Fashion","shop":"clothes","short_name":"Takko"}},"shop/clothes/textilehouse-86acc9":{"name":"TEXTILE house","locationSet":{"include":["at","ba","cz","hr","mk","pl","ro","rs","si","sk"]},"geometry":["point","area"],"matchScore":2,"terms":["textile house"],"tags":{"brand:wikidata":"Q77878002","shop":"clothes"},"addTags":{"brand":"TEXTILE house","brand:wikidata":"Q77878002","name":"TEXTILE house","second_hand":"only","shop":"clothes"}},"shop/clothes/weekday-b5590c":{"name":"Weekday","locationSet":{"include":["by","bg","cz","hu","pl","md","ro","ru","sk","ua","ax","gg","je","cq","dk","ee","fo","fi","is","ie","im","lv","lt","no","sj","se","gb","al","ad","ba","hr","gi","gr","va","it","mt","me","mk","pt","sm","rs","si","es","xk","at","be","fr","de","li","lu","mc","nl","ch"]},"geometry":["point","area"],"matchScore":2,"terms":["weekday"],"tags":{"brand:wikidata":"Q10719514","shop":"clothes"},"addTags":{"brand":"Weekday","brand:wikidata":"Q10719514","name":"Weekday","shop":"clothes"}},"shop/coffee/tchibo-8e6167":{"name":"Tchibo","locationSet":{"include":["at","ch","cz","de","pl","sk"]},"geometry":["point","area"],"matchScore":2,"terms":["tchibo"],"tags":{"brand:wikidata":"Q564213","shop":"coffee"},"addTags":{"brand":"Tchibo","brand:wikidata":"Q564213","name":"Tchibo","shop":"coffee"}},"shop/convenience/cba-a1e3fb":{"name":"CBA","locationSet":{"include":["bg","hu","ro","sk"]},"geometry":["point","area"],"matchScore":2,"terms":["cba"],"tags":{"brand:wikidata":"Q779845","shop":"convenience"},"addTags":{"brand":"CBA","brand:wikidata":"Q779845","name":"CBA","shop":"convenience"}},"shop/convenience/coopjednota-65ae8a":{"name":"COOP Jednota","locationSet":{"include":["cz","sk"]},"geometry":["point","area"],"matchScore":2,"terms":["coop jednota","jednota"],"tags":{"brand:wikidata":"Q41629254","shop":"convenience"},"addTags":{"brand":"COOP Jednota","brand:wikidata":"Q41629254","name":"COOP Jednota","shop":"convenience"}},"shop/convenience/farmfoods-2496a5":{"name":"FARMFOODS","locationSet":{"include":["sk"]},"geometry":["point","area"],"matchScore":2,"terms":["farmfoods"],"tags":{"brand:wikidata":"Q116867227","shop":"convenience"},"addTags":{"brand":"FARMFOODS","brand:wikidata":"Q116867227","name":"FARMFOODS","organic":"only","shop":"convenience"}},"shop/convenience/fresh-2496a5":{"name":"Fresh","locationSet":{"include":["sk"]},"geometry":["point","area"],"matchScore":2,"terms":["fresh"],"tags":{"brand:wikidata":"Q50737403","shop":"convenience"},"addTags":{"brand":"Fresh","brand:wikidata":"Q50737403","name":"Fresh","shop":"convenience"}},"shop/convenience/freshcorner-2496a5":{"name":"Fresh Corner","locationSet":{"include":["sk"]},"geometry":["point","area"],"matchScore":2,"terms":["fresh corner"],"tags":{"brand:wikidata":"Q1587563","shop":"convenience"},"addTags":{"brand":"Fresh Corner","brand:wikidata":"Q1587563","name":"Fresh Corner","shop":"convenience"}},"shop/convenience/milkagro-2496a5":{"name":"Milk-Agro","locationSet":{"include":["sk"]},"geometry":["point","area"],"matchScore":2,"terms":["milk-agro"],"tags":{"brand:wikidata":"Q64173785","shop":"convenience"},"addTags":{"brand":"Milk-Agro","brand:wikidata":"Q64173785","name":"Milk-Agro","shop":"convenience"}},"shop/convenience/viva-856fe1":{"name":"Viva","locationSet":{"include":["by","bg","cz","hu","pl","md","ro","ru","sk","ua","ax","gg","je","cq","dk","ee","fo","fi","is","ie","im","lv","lt","no","sj","se","gb","al","ad","ba","hr","gi","gr","va","it","mt","me","mk","pt","sm","rs","si","es","xk","at","be","fr","de","li","lu","mc","nl","ch"]},"geometry":["point","area"],"matchScore":2,"terms":["viva"],"tags":{"brand:wikidata":"Q168238","shop":"convenience"},"addTags":{"brand":"Viva","brand:wikidata":"Q168238","name":"Viva","shop":"convenience"}},"shop/copyshop/faxcopy-8c1a3b":{"name":"FaxCopy","locationSet":{"include":["sk"]},"geometry":["point","area"],"matchScore":2,"terms":["faxcopy"],"tags":{"brand:wikidata":"Q90990574","shop":"copyshop"},"addTags":{"brand":"FaxCopy","brand:wikidata":"Q90990574","name":"FaxCopy","shop":"copyshop"}},"shop/cosmetics/dermacol-85d8c2":{"name":"Dermacol","locationSet":{"include":["cz","sk"]},"geometry":["point","area"],"matchScore":2,"terms":["dermacol"],"tags":{"brand:wikidata":"Q67810810","shop":"cosmetics"},"addTags":{"brand":"Dermacol","brand:wikidata":"Q67810810","name":"Dermacol","shop":"cosmetics"}},"shop/cosmetics/havlikovaapoteka-85d8c2":{"name":"Havlíkova apotéka","locationSet":{"include":["cz","sk"]},"geometry":["point","area"],"matchScore":2,"terms":["havlíkova apotéka"],"tags":{"brand:wikidata":"Q67814393","shop":"cosmetics"},"addTags":{"brand":"Havlíkova apotéka","brand:wikidata":"Q67814393","name":"Havlíkova apotéka","shop":"cosmetics"}},"shop/cosmetics/manufaktura-85d8c2":{"name":"Manufaktura","locationSet":{"include":["cz","sk"]},"geometry":["point","area"],"matchScore":2,"terms":["manufaktura"],"tags":{"brand:wikidata":"Q107740958","shop":"cosmetics"},"addTags":{"brand":"Manufaktura","brand:wikidata":"Q107740958","name":"Manufaktura","shop":"cosmetics"}},"shop/cosmetics/ziaja-a2d805":{"name":"Ziaja","locationSet":{"include":["at","cz","de","es","hu","ie","pl","sk"]},"geometry":["point","area"],"matchScore":2,"terms":["ziaja"],"tags":{"brand:wikidata":"Q9390905","shop":"cosmetics"},"addTags":{"brand":"Ziaja","brand:wikidata":"Q9390905","name":"Ziaja","shop":"cosmetics"}},"shop/doityourself/bauhaus-6847b5":{"name":"Bauhaus","locationSet":{"include":["at","bg","ch","cz","de","dk","ee","es","fi","hr","hu","is","lu","nl","no","se","si","sk","tr"]},"geometry":["point","area"],"matchScore":2,"terms":["bauhaus"],"tags":{"brand:wikidata":"Q672043","shop":"doityourself"},"addTags":{"brand":"Bauhaus","brand:wikidata":"Q672043","name":"Bauhaus","shop":"doityourself"}},"shop/doityourself/baumax-bc270a":{"name":"Baumax","locationSet":{"include":["at","cz","si","sk"]},"geometry":["point","area"],"matchScore":2,"terms":["baumax"],"tags":{"brand:wikidata":"Q310499","shop":"doityourself"},"addTags":{"brand":"Baumax","brand:wikidata":"Q310499","name":"Baumax","shop":"doityourself"}},"shop/doityourself/bigmat-488295":{"name":"BigMat","locationSet":{"include":["be","cz","es","fr","gb","it","sk"]},"geometry":["point","area"],"matchScore":2,"terms":["bigmat"],"tags":{"brand:wikidata":"Q101851862","shop":"doityourself"},"addTags":{"brand":"BigMat","brand:wikidata":"Q101851862","name":"BigMat","shop":"doityourself"}},"shop/doityourself/hornbach-92b1c1":{"name":"HORNBACH","locationSet":{"include":["at","ch","cz","de","lu","nl","ro","se","sk"]},"geometry":["point","area"],"matchScore":2,"terms":["hornbach"],"tags":{"brand:wikidata":"Q685926","shop":"doityourself"},"addTags":{"brand":"HORNBACH","brand:wikidata":"Q685926","name":"HORNBACH","shop":"doityourself"}},"shop/doityourself/merkurymarket-5a474c":{"name":"Merkury Market","locationSet":{"include":["pl","sk"]},"geometry":["point","area"],"matchScore":2,"terms":["merkury market"],"tags":{"brand:wikidata":"Q93070134","shop":"doityourself"},"addTags":{"brand":"Merkury Market","brand:wikidata":"Q93070134","name":"Merkury Market","shop":"doityourself"}},"shop/doityourself/obi-d5381e":{"name":"OBI","locationSet":{"include":["at","ba","ch","cz","de","hu","it","pl","ru","si","sk"]},"geometry":["point","area"],"matchScore":2,"terms":["obi"],"tags":{"brand:wikidata":"Q300518","shop":"doityourself"},"addTags":{"brand":"OBI","brand:wikidata":"Q300518","name":"OBI","shop":"doityourself"}},"shop/doors/adlo-46a8ae":{"name":"ADLO","locationSet":{"include":["at","ch","cz","de","dk","sk"]},"geometry":["point","area"],"matchScore":2,"terms":["adlo"],"tags":{"brand:wikidata":"Q116862985","shop":"doors"},"addTags":{"brand":"ADLO","brand:wikidata":"Q116862985","name":"ADLO","shop":"doors"}},"shop/electronics/alza-5fa1c3":{"name":"Alza","locationSet":{"include":["cz","hu","sk"]},"geometry":["point","area"],"matchScore":2,"terms":["alza","alza.cz","alza.hu","alza.sk"],"tags":{"brand:wikidata":"Q10786832","shop":"electronics"},"addTags":{"brand":"Alza","brand:wikidata":"Q10786832","name":"Alza","name:cs":"Alza.cz","name:hu":"Alza.hu","name:sk":"Alza.sk","shop":"electronics"}},"shop/electronics/datacomp-bbcba3":{"name":"Datacomp","locationSet":{"include":["sk"]},"geometry":["point","area"],"matchScore":2,"terms":["datacomp"],"tags":{"brand:wikidata":"Q116800856","shop":"electronics"},"addTags":{"brand":"Datacomp","brand:wikidata":"Q116800856","name":"Datacomp","shop":"electronics"}},"shop/electronics/datart-8bbdd1":{"name":"Datart","locationSet":{"include":["cz","sk"]},"geometry":["point","area"],"matchScore":2,"terms":["datart"],"tags":{"brand:wikidata":"Q11774311","shop":"electronics"},"addTags":{"brand":"Datart","brand:wikidata":"Q11774311","name":"Datart","shop":"electronics"}},"shop/electronics/eta-8bbdd1":{"name":"ETA","locationSet":{"include":["cz","sk"]},"geometry":["point","area"],"matchScore":2,"terms":["eta"],"tags":{"brand:wikidata":"Q11866675","shop":"electronics"},"addTags":{"brand":"ETA","brand:wikidata":"Q11866675","name":"ETA","shop":"electronics"}},"shop/electronics/istores-8bbdd1":{"name":"iStores","locationSet":{"include":["cz","sk"]},"geometry":["point","area"],"matchScore":2,"terms":["istores"],"tags":{"brand:wikidata":"Q77877062","shop":"electronics"},"addTags":{"brand":"iStores","brand:wikidata":"Q77877062","name":"iStores","shop":"electronics"}},"shop/electronics/istyle-e9662e":{"name":"iStyle","locationSet":{"include":["bg","cz","hr","hu","mk","ro","rs","si","sk"]},"geometry":["point","area"],"matchScore":2,"terms":["istyle"],"tags":{"brand:wikidata":"Q58196745","shop":"electronics"},"addTags":{"brand":"iStyle","brand:wikidata":"Q58196745","name":"iStyle","shop":"electronics"}},"shop/electronics/nay-bbcba3":{"name":"Nay","locationSet":{"include":["sk"]},"geometry":["point","area"],"matchScore":2,"terms":["nay"],"tags":{"brand:wikidata":"Q13537421","shop":"electronics"},"addTags":{"brand":"Nay","brand:wikidata":"Q13537421","name":"Nay","shop":"electronics"}},"shop/electronics/okay-8bbdd1":{"name":"Okay","locationSet":{"include":["cz","sk"]},"geometry":["point","area"],"matchScore":2,"terms":["okay"],"tags":{"brand:wikidata":"Q17583128","shop":"electronics"},"addTags":{"brand":"Okay","brand:wikidata":"Q17583128","name":"Okay","shop":"electronics"}},"shop/electronics/planeoelektro-8bbdd1":{"name":"PLANEO Elektro","locationSet":{"include":["cz","sk"]},"geometry":["point","area"],"matchScore":2,"terms":["planeo elektro"],"tags":{"brand:wikidata":"Q107723323","shop":"electronics"},"addTags":{"brand":"PLANEO Elektro","brand:wikidata":"Q107723323","name":"PLANEO Elektro","shop":"electronics"}},"shop/florist/kvetyvictor-36bd0b":{"name":"Kvety Victor","locationSet":{"include":["sk"]},"geometry":["point","area"],"matchScore":2,"terms":["kvety victor","victor kvety"],"tags":{"brand:wikidata":"Q107986280","shop":"florist"},"addTags":{"brand":"Kvety Victor","brand:wikidata":"Q107986280","name":"Kvety Victor","shop":"florist"}},"shop/furniture/askonabytek-2a1637":{"name":"ASKO Nábytek","locationSet":{"include":["cz","sk"]},"geometry":["point","area"],"matchScore":2,"terms":["asko nábytek","asko nábytok"],"tags":{"brand:wikidata":"Q58197384","shop":"furniture"},"addTags":{"brand":"ASKO Nábytek","brand:wikidata":"Q58197384","name":"ASKO Nábytek","name:sk":"ASKO Nábytok","shop":"furniture"}},"shop/furniture/bolia-a18722":{"name":"Bolia","locationSet":{"include":["by","bg","cz","hu","pl","md","ro","ru","sk","ua","ax","gg","je","cq","dk","ee","fo","fi","is","ie","im","lv","lt","no","sj","se","gb","al","ad","ba","hr","gi","gr","va","it","mt","me","mk","pt","sm","rs","si","es","xk","at","be","fr","de","li","lu","mc","nl","ch"]},"geometry":["point","area"],"matchScore":2,"terms":["bolia"],"tags":{"brand:wikidata":"Q11961809","shop":"furniture"},"addTags":{"brand":"Bolia","brand:wikidata":"Q11961809","name":"Bolia","shop":"furniture"}},"shop/furniture/decodom-d1803c":{"name":"Decodom","locationSet":{"include":["sk"]},"geometry":["point","area"],"matchScore":2,"terms":["decodom"],"tags":{"brand:wikidata":"Q93267098","shop":"furniture"},"addTags":{"brand":"Decodom","brand:wikidata":"Q93267098","name":"Decodom","shop":"furniture"}},"shop/furniture/mobelix-0d6d80":{"name":"Möbelix","locationSet":{"include":["at","cz","hu","sk"]},"geometry":["point","area"],"matchScore":2,"terms":["möbelix"],"tags":{"brand:wikidata":"Q877547","shop":"furniture"},"addTags":{"brand":"Möbelix","brand:wikidata":"Q877547","name":"Möbelix","shop":"furniture"}},"shop/furniture/momax-a18722":{"name":"Mömax","locationSet":{"include":["by","bg","cz","hu","pl","md","ro","ru","sk","ua","ax","gg","je","cq","dk","ee","fo","fi","is","ie","im","lv","lt","no","sj","se","gb","al","ad","ba","hr","gi","gr","va","it","mt","me","mk","pt","sm","rs","si","es","xk","at","be","fr","de","li","lu","mc","nl","ch"]},"geometry":["point","area"],"matchScore":2,"terms":["mömax"],"tags":{"brand:wikidata":"Q56388481","shop":"furniture"},"addTags":{"brand":"Mömax","brand:wikidata":"Q56388481","name":"Mömax","shop":"furniture"}},"shop/furniture/scontomobelsofort-7ce246":{"name":"Sconto Möbel Sofort","locationSet":{"include":["cz","de","sk"]},"geometry":["point","area"],"matchScore":2,"terms":["sconto","sconto möbel sofort","sconto nábytek","sconto nábytok","sconto sb"],"tags":{"brand:wikidata":"Q2260475","shop":"furniture"},"addTags":{"brand":"Sconto Möbel Sofort","brand:wikidata":"Q2260475","name":"Sconto Möbel Sofort","name:cs":"Sconto Nábytek","name:sk":"Sconto Nábytok","shop":"furniture","short_name":"Sconto"}},"shop/furniture/siko-2a1637":{"name":"Siko","locationSet":{"include":["cz","sk"]},"geometry":["point","area"],"matchScore":2,"terms":["siko"],"tags":{"brand:wikidata":"Q58218696","shop":"furniture"},"addTags":{"brand":"Siko","brand:wikidata":"Q58218696","name":"Siko","shop":"furniture"}},"shop/furniture/xxxlutz-5acc6e":{"name":"XXXLutz","locationSet":{"include":["by","bg","cz","hu","pl","md","ro","ru","sk","ua","ax","gg","je","cq","dk","ee","fo","fi","is","ie","im","lv","lt","no","sj","se","gb","al","ad","ba","hr","gi","gr","va","it","mt","me","mk","pt","sm","rs","si","es","xk","at","be","fr","de","li","lu","mc","nl","ch"],"exclude":["bg"]},"geometry":["point","area"],"matchScore":2,"terms":["xxxlutz"],"tags":{"brand:wikidata":"Q70339467","shop":"furniture"},"addTags":{"brand":"XXXLutz","brand:wikidata":"Q70339467","name":"XXXLutz","shop":"furniture"}},"shop/garden_centre/mountfield-570714":{"name":"Mountfield","locationSet":{"include":["cz","sk"]},"geometry":["point","area"],"matchScore":2,"terms":["mountfield"],"tags":{"brand:wikidata":"Q21180783","shop":"garden_centre"},"addTags":{"brand":"Mountfield","brand:wikidata":"Q21180783","name":"Mountfield","shop":"garden_centre"}},"shop/gift/albi-100c1c":{"name":"Albi","locationSet":{"include":["cz","sk"]},"geometry":["point","area"],"matchScore":2,"terms":["albi"],"tags":{"brand:wikidata":"Q67804907","shop":"gift"},"addTags":{"brand":"Albi","brand:wikidata":"Q67804907","name":"Albi","shop":"gift"}},"shop/hairdresser/klier-03dd74":{"name":"Klier","locationSet":{"include":["at","cz","de","sk"]},"geometry":["point","area"],"matchScore":2,"terms":["klier"],"tags":{"brand:wikidata":"Q1465159","shop":"hairdresser"},"addTags":{"brand":"Klier","brand:wikidata":"Q1465159","name":"Klier","shop":"hairdresser"}},"shop/hardware/wurth-d9914d":{"name":"Würth","locationSet":{"include":["be","cz","de","fi","fr","it","no","sk"]},"geometry":["point","area"],"matchScore":2,"terms":["würth"],"fields":["name","brand","{shop/hardware}"],"tags":{"brand:wikidata":"Q679750","shop":"hardware"},"addTags":{"brand":"Würth","brand:wikidata":"Q679750","name":"Würth","shop":"hardware"}},"shop/household_linen/scanquilt-fc4fc3":{"name":"SCANquilt","locationSet":{"include":["cz","sk"]},"geometry":["point","area"],"matchScore":2,"terms":["scanquilt"],"tags":{"brand:wikidata":"Q116729931","shop":"household_linen"},"addTags":{"brand":"SCANquilt","brand:wikidata":"Q116729931","name":"SCANquilt","shop":"household_linen"}},"shop/houseware/orion-4991ba":{"name":"ORION","locationSet":{"include":["cz","sk"]},"geometry":["point","area"],"matchScore":2,"terms":["orion"],"tags":{"brand:wikidata":"Q67806141","shop":"houseware"},"addTags":{"brand":"ORION","brand:wikidata":"Q67806141","name":"ORION","shop":"houseware"}},"shop/interior_decoration/homeandyou-e9ee18":{"name":"home&you","locationSet":{"include":["cz","pl","sk"]},"geometry":["point","area"],"matchScore":2,"terms":["home&you"],"tags":{"brand:wikidata":"Q116884264","shop":"interior_decoration"},"addTags":{"brand":"home&you","brand:wikidata":"Q116884264","name":"home&you","shop":"interior_decoration"}},"shop/jewelry/sofia-584c2c":{"name":"SOFIA","locationSet":{"include":["sk"]},"geometry":["point","area"],"matchScore":2,"terms":["sofia"],"tags":{"brand:wikidata":"Q116885611","shop":"jewelry"},"addTags":{"brand":"SOFIA","brand:wikidata":"Q116885611","name":"SOFIA","shop":"jewelry"}},"shop/kitchen/oresi-10bb52":{"name":"Oresi","locationSet":{"include":["cz","sk"]},"geometry":["point","area"],"matchScore":2,"terms":["oresi"],"tags":{"brand:wikidata":"Q53409609","shop":"kitchen"},"addTags":{"brand":"Oresi","brand:wikidata":"Q53409609","name":"Oresi","shop":"kitchen"}},"shop/mobile_phone/datesmobile-0fdd33":{"name":"DATES MOBILE","locationSet":{"include":["sk"]},"geometry":["point","area"],"matchScore":2,"terms":["dates mobile"],"tags":{"brand:wikidata":"Q116738009","shop":"mobile_phone"},"addTags":{"brand":"DATES MOBILE","brand:wikidata":"Q116738009","name":"DATES MOBILE","shop":"mobile_phone"}},"shop/mobile_phone/mobilonline-0fdd33":{"name":"Mobilonline","locationSet":{"include":["sk"]},"geometry":["point","area"],"matchScore":2,"terms":["mobilonline"],"tags":{"brand:wikidata":"Q116737890","shop":"mobile_phone"},"addTags":{"brand":"Mobilonline","brand:wikidata":"Q116737890","name":"Mobilonline","shop":"mobile_phone"}},"shop/mobile_phone/o2-8befd0":{"name":"O2","locationSet":{"include":["cz","de","gb","ie","sk"]},"geometry":["point","area"],"matchScore":2,"terms":["o2"],"tags":{"brand:wikidata":"Q1759255","shop":"mobile_phone"},"addTags":{"brand":"O2","brand:wikidata":"Q1759255","name":"O2","shop":"mobile_phone"}},"shop/mobile_phone/telekom-22825c":{"name":"Telekom","locationSet":{"include":["hu","ro","si","sk"]},"geometry":["point","area"],"matchScore":2,"terms":["telekom","telekom shop"],"tags":{"brand:wikidata":"Q9396","shop":"mobile_phone"},"addTags":{"brand":"Telekom","brand:wikidata":"Q9396","name":"Telekom","shop":"mobile_phone"}},"shop/musical_instrument/muziker-ae1cfe":{"name":"Muziker","locationSet":{"include":["cz","sk"]},"geometry":["point","area"],"matchScore":2,"terms":["muziker"],"tags":{"brand:wikidata":"Q114425580","shop":"musical_instrument"},"addTags":{"brand":"Muziker","brand:wikidata":"Q114425580","name":"Muziker","shop":"musical_instrument"}},"shop/newsagent/geco-5d4c3a":{"name":"GECO","locationSet":{"include":["cz","sk"]},"geometry":["point","area"],"matchScore":2,"terms":["geco","geco tabak"],"searchable":false,"tags":{"brand:wikidata":"Q12017963","shop":"newsagent"},"addTags":{"brand":"GECO","brand:wikidata":"Q12017963","name":"GECO","shop":"newsagent"}},"shop/newsagent/tabakpress-5d4c3a":{"name":"Tabak Press","locationSet":{"include":["cz","sk"]},"geometry":["point","area"],"matchScore":2,"terms":["gg tabak","tabak press"],"tags":{"brand:wikidata":"Q110264693","shop":"newsagent"},"addTags":{"brand":"Tabak Press","brand:wikidata":"Q110264693","name":"Tabak Press","shop":"newsagent"}},"shop/nutrition_supplements/biotechusa-8d859c":{"name":"BioTechUSA","locationSet":{"include":["hu","sk"]},"geometry":["point","area"],"matchScore":2,"terms":["biotechusa"],"tags":{"brand:wikidata":"Q116861247","shop":"nutrition_supplements"},"addTags":{"brand":"BioTechUSA","brand:wikidata":"Q116861247","name":"BioTechUSA","shop":"nutrition_supplements"}},"shop/optician/fokus-892407":{"name":"FOKUS","locationSet":{"include":["cz","sk"]},"geometry":["point","area"],"matchScore":2,"terms":["fokus","fokus optik"],"fields":["name","brand","{shop/optician}"],"tags":{"brand:wikidata":"Q58557324","shop":"optician"},"addTags":{"brand":"FOKUS","brand:wikidata":"Q58557324","name":"FOKUS","shop":"optician"}},"shop/optician/grandoptical-484a73":{"name":"GrandOptical","locationSet":{"include":["fr","pt","sk"]},"geometry":["point","area"],"matchScore":2,"terms":["grandoptical"],"fields":["name","brand","{shop/optician}"],"tags":{"brand:wikidata":"Q3113677","shop":"optician"},"addTags":{"brand":"GrandOptical","brand:wikidata":"Q3113677","name":"GrandOptical","shop":"optician"}},"shop/optician/mania-32f57e":{"name":"MANIA","locationSet":{"include":["sk"]},"geometry":["point","area"],"matchScore":2,"terms":["mania","optika mania"],"fields":["name","brand","{shop/optician}"],"tags":{"brand:wikidata":"Q116884324","shop":"optician"},"addTags":{"brand":"MANIA","brand:wikidata":"Q116884324","name":"MANIA","shop":"optician"}},"shop/pawnbroker/zaloznabreva-504b45":{"name":"Záložňa Breva","locationSet":{"include":["cz","sk"]},"geometry":["point","area"],"matchScore":2,"terms":["breva","záložňa breva","zastavárna index"],"tags":{"brand:wikidata":"Q108371754","shop":"pawnbroker"},"addTags":{"brand":"Záložňa Breva","brand:wikidata":"Q108371754","name":"Záložňa Breva","name:cs":"Zastavárna Index","shop":"pawnbroker"}},"shop/perfumery/douglas-f751d3":{"name":"Douglas","locationSet":{"include":["at","ch","cz","de","es","it","nl","pl","pt","sk"]},"geometry":["point","area"],"matchScore":2,"terms":["douglas"],"tags":{"brand:wikidata":"Q2052213","shop":"perfumery"},"addTags":{"brand":"Douglas","brand:wikidata":"Q2052213","name":"Douglas","shop":"perfumery"}},"shop/perfumery/fann-21bb40":{"name":"FAnn","locationSet":{"include":["cz","sk"]},"geometry":["point","area"],"matchScore":2,"terms":["fann"],"tags":{"brand:wikidata":"Q62391353","shop":"perfumery"},"addTags":{"brand":"FAnn","brand:wikidata":"Q62391353","name":"FAnn","shop":"perfumery"}},"shop/perfumery/marionnaud-d22512":{"name":"Marionnaud","locationSet":{"include":["at","ch","es","fr","it","sk"]},"geometry":["point","area"],"matchScore":2,"terms":["marionnaud"],"tags":{"brand:wikidata":"Q1129073","shop":"perfumery"},"addTags":{"brand":"Marionnaud","brand:wikidata":"Q1129073","name":"Marionnaud","shop":"perfumery"}},"shop/pet/petcenter-09e3e7":{"name":"Pet Center","locationSet":{"include":["cz","sk"]},"geometry":["point","area"],"matchScore":2,"terms":["pet center"],"tags":{"brand:wikidata":"Q58607477","shop":"pet"},"addTags":{"brand":"Pet Center","brand:wikidata":"Q58607477","name":"Pet Center","shop":"pet"}},"shop/pet/superzoo-09e3e7":{"name":"SUPER ZOO","locationSet":{"include":["cz","sk"]},"geometry":["point","area"],"matchScore":2,"terms":["super zoo"],"tags":{"brand:wikidata":"Q93998805","shop":"pet"},"addTags":{"brand":"SUPER ZOO","brand:wikidata":"Q93998805","name":"SUPER ZOO","shop":"pet"}},"shop/shoes/bata-76c27d":{"name":"Baťa","locationSet":{"include":["cz","sk"]},"geometry":["point","area"],"matchScore":2,"terms":["baťa"],"tags":{"brand:wikidata":"Q688082","shop":"shoes"},"addTags":{"brand":"Baťa","brand:wikidata":"Q688082","name":"Baťa","shop":"shoes"}},"shop/shoes/humanic-07d535":{"name":"Humanic","locationSet":{"include":["at","cz","de","hu","ro","sk"]},"geometry":["point","area"],"matchScore":2,"terms":["humanic"],"tags":{"brand:wikidata":"Q1636668","shop":"shoes"},"addTags":{"brand":"Humanic","brand:wikidata":"Q1636668","name":"Humanic","shop":"shoes"}},"shop/shoes/officeshoes-30afef":{"name":"Office Shoes","locationSet":{"include":["al","ba","cz","hr","hu","me","pl","ro","rs","si","sk"]},"geometry":["point","area"],"matchScore":2,"terms":["office shoes"],"tags":{"brand:wikidata":"Q93946123","shop":"shoes"},"addTags":{"brand":"Office Shoes","brand:wikidata":"Q93946123","name":"Office Shoes","shop":"shoes"}},"shop/shoes/reno-647f57":{"name":"Reno","locationSet":{"include":["at","ch","de","hu","sk"]},"geometry":["point","area"],"matchScore":2,"terms":["reno"],"tags":{"brand:wikidata":"Q2144204","shop":"shoes"},"addTags":{"brand":"Reno","brand:wikidata":"Q2144204","name":"Reno","shop":"shoes"}},"shop/shoes/robel-26b6c7":{"name":"Robel","locationSet":{"include":["sk"]},"geometry":["point","area"],"matchScore":2,"terms":["robel"],"tags":{"brand:wikidata":"Q116869813","shop":"shoes"},"addTags":{"brand":"Robel","brand:wikidata":"Q116869813","name":"Robel","shop":"shoes"}},"shop/shoes/sizeer-a67893":{"name":"Sizeer","locationSet":{"include":["at","cz","de","hu","lt","pl","ro","sk"]},"geometry":["point","area"],"matchScore":2,"terms":["sizeer"],"tags":{"brand:wikidata":"Q93982889","shop":"shoes"},"addTags":{"brand":"Sizeer","brand:wikidata":"Q93982889","name":"Sizeer","shop":"shoes"}},"shop/shoes/wojas-db04aa":{"name":"Wojas","locationSet":{"include":["by","cz","pl","sk"]},"geometry":["point","area"],"matchScore":2,"terms":["wojas"],"tags":{"brand:wikidata":"Q9376325","shop":"shoes"},"addTags":{"brand":"Wojas","brand:wikidata":"Q9376325","name":"Wojas","shop":"shoes"}},"shop/sports/4f-5624eb":{"name":"4F","locationSet":{"include":["cz","de","lt","lv","ro","ru","sk"]},"geometry":["point","area"],"matchScore":2,"terms":["4f"],"tags":{"brand:wikidata":"Q16525801","shop":"sports"},"addTags":{"brand":"4F","brand:wikidata":"Q16525801","name":"4F","shop":"sports"}},"shop/sports/a3sport-9dd59e":{"name":"A3 SPORT","locationSet":{"include":["cz","de","sk"]},"geometry":["point","area"],"matchScore":2,"terms":["a3 sport"],"tags":{"brand:wikidata":"Q58170961","shop":"sports"},"addTags":{"brand":"A3 SPORT","brand:wikidata":"Q58170961","name":"A3 SPORT","shop":"sports"}},"shop/sports/exisport-aa748e":{"name":"EXIsport","locationSet":{"include":["cz","sk"]},"geometry":["point","area"],"matchScore":2,"terms":["exisport"],"tags":{"brand:wikidata":"Q107736469","shop":"sports"},"addTags":{"brand":"EXIsport","brand:wikidata":"Q107736469","name":"EXIsport","shop":"sports"}},"shop/sports/jdsports-a6e00e":{"name":"JD Sports","locationSet":{"include":["au","be","de","es","fr","gb","ie","nl","pt","sk"]},"geometry":["point","area"],"matchScore":2,"terms":["jd","jd sports"],"tags":{"brand:wikidata":"Q6108019","shop":"sports"},"addTags":{"brand":"JD Sports","brand:wikidata":"Q6108019","name":"JD Sports","shop":"sports"}},"shop/sports/sportvision-daf837":{"name":"Sport Vision","locationSet":{"include":["al","ba","bg","cz","gr","hr","hu","me","mk","ro","rs","si","sk"]},"geometry":["point","area"],"matchScore":2,"terms":["sport vision"],"tags":{"brand:wikidata":"Q116729857","shop":"sports"},"addTags":{"brand":"Sport Vision","brand:wikidata":"Q116729857","name":"Sport Vision","shop":"sports"}},"shop/sports/sportisimo-8183b2":{"name":"Sportisimo","locationSet":{"include":["bg","cz","hr","hu","ro","sk"]},"geometry":["point","area"],"matchScore":2,"terms":["sportisimo"],"tags":{"brand:wikidata":"Q54974273","shop":"sports"},"addTags":{"brand":"Sportisimo","brand:wikidata":"Q54974273","name":"Sportisimo","shop":"sports"}},"shop/stationery/kohinoor-ecb638":{"name":"Koh-i-Noor","locationSet":{"include":["cz","sk"]},"geometry":["point","area"],"matchScore":2,"terms":["koh-i-noor","koh-i-noor hardtmuth"],"tags":{"brand:wikidata":"Q698032","shop":"stationery"},"addTags":{"brand":"Koh-i-Noor","brand:wikidata":"Q698032","name":"Koh-i-Noor","official_name":"Koh-i-Noor Hardtmuth","shop":"stationery"}},"shop/stationery/sevt-0be41a":{"name":"Ševt","locationSet":{"include":["sk"]},"geometry":["point","area"],"matchScore":2,"terms":["ševt"],"tags":{"brand:wikidata":"Q15980348","shop":"stationery"},"addTags":{"brand":"Ševt","brand:wikidata":"Q15980348","name":"Ševt","shop":"stationery"}},"shop/supermarket/auchan-925d9b":{"name":"Auchan","locationSet":{"include":["al","ad","ba","hr","gi","gr","va","it","mt","me","mk","pt","sm","rs","si","es","xk","by","bg","cz","hu","pl","md","ro","ru","sk","ua","at","be","fr","de","li","lu","mc","nl","ch","cn"],"exclude":["ru"]},"geometry":["point","area"],"matchScore":2,"terms":["auchan"],"tags":{"brand:wikidata":"Q758603","shop":"supermarket"},"addTags":{"brand":"Auchan","brand:wikidata":"Q758603","name":"Auchan","shop":"supermarket"}},"shop/supermarket/billa-3380c4":{"name":"Billa","locationSet":{"include":["at","bg","sk"]},"geometry":["point","area"],"matchScore":2,"terms":["billa"],"tags":{"brand:wikidata":"Q537781","shop":"supermarket"},"addTags":{"brand":"Billa","brand:wikidata":"Q537781","name":"Billa","shop":"supermarket"}},"shop/supermarket/cba-6e9bfc":{"name":"CBA","locationSet":{"include":["hu","ro","sk"]},"geometry":["point","area"],"matchScore":2,"terms":["cba"],"tags":{"brand:wikidata":"Q779845","shop":"supermarket"},"addTags":{"brand":"CBA","brand:wikidata":"Q779845","name":"CBA","shop":"supermarket"}},"shop/supermarket/coopjednota-261d20":{"name":"COOP Jednota","locationSet":{"include":["cz","sk"]},"geometry":["point","area"],"matchScore":2,"terms":["coop jednota","jednota"],"tags":{"brand:wikidata":"Q41629254","shop":"supermarket"},"addTags":{"brand":"COOP Jednota","brand:wikidata":"Q41629254","name":"COOP Jednota","shop":"supermarket"}},"shop/supermarket/eurospar-4b5e11":{"name":"Eurospar","locationSet":{"include":["by","bg","cz","hu","pl","md","ro","ru","sk","ua","ax","gg","je","cq","dk","ee","fo","fi","is","ie","im","lv","lt","no","sj","se","gb","al","ad","ba","hr","gi","gr","va","it","mt","me","mk","pt","sm","rs","si","es","xk","at","be","fr","de","li","lu","mc","nl","ch"]},"geometry":["point","area"],"matchScore":2,"terms":["eurospar"],"tags":{"brand:wikidata":"Q12309283","shop":"supermarket"},"addTags":{"brand":"Eurospar","brand:wikidata":"Q12309283","name":"Eurospar","shop":"supermarket"}},"shop/supermarket/freshplus-4ccde8":{"name":"Fresh Plus","locationSet":{"include":["sk"]},"geometry":["point","area"],"matchScore":2,"terms":["fresh","fresh plus"],"tags":{"brand:wikidata":"Q50737403","shop":"supermarket"},"addTags":{"brand":"Fresh Plus","brand:wikidata":"Q50737403","name":"Fresh Plus","shop":"supermarket"}},"shop/supermarket/kaufland-464a37":{"name":"Kaufland","locationSet":{"include":["cz","de","hr","md","pl","ro","sk"]},"geometry":["point","area"],"matchScore":2,"terms":["kaufland"],"tags":{"brand:wikidata":"Q685967","shop":"supermarket"},"addTags":{"brand":"Kaufland","brand:wikidata":"Q685967","name":"Kaufland","shop":"supermarket"}},"shop/supermarket/klas-4ccde8":{"name":"Klas","locationSet":{"include":["sk"]},"geometry":["point","area"],"matchScore":2,"terms":["klas","klas potraviny"],"tags":{"brand:wikidata":"Q116718756","shop":"supermarket"},"addTags":{"brand":"Klas","brand:wikidata":"Q116718756","name":"Klas","shop":"supermarket"}},"shop/supermarket/milkagro-4ccde8":{"name":"Milk-Agro","locationSet":{"include":["sk"]},"geometry":["point","area"],"matchScore":2,"terms":["milk-agro"],"tags":{"brand:wikidata":"Q64173785","shop":"supermarket"},"addTags":{"brand":"Milk-Agro","brand:wikidata":"Q64173785","name":"Milk-Agro","shop":"supermarket"}},"shop/supermarket/yeme-4ccde8":{"name":"Yeme","locationSet":{"include":["sk"]},"geometry":["point","area"],"matchScore":2,"terms":["yeme"],"tags":{"brand:wikidata":"Q108757006","shop":"supermarket"},"addTags":{"brand":"Yeme","brand:wikidata":"Q108757006","name":"yeme","shop":"supermarket"}},"shop/tattoo/veantattoo-eea007":{"name":"VeAn Tattoo","locationSet":{"include":["by","bg","cz","hu","pl","md","ro","ru","sk","ua","ax","gg","je","cq","dk","ee","fo","fi","is","ie","im","lv","lt","no","sj","se","gb","al","ad","ba","hr","gi","gr","va","it","mt","me","mk","pt","sm","rs","si","es","xk","at","be","fr","de","li","lu","mc","nl","ch"]},"geometry":["point","area"],"matchScore":2,"terms":["vean tattoo"],"tags":{"brand:wikidata":"Q116871240","shop":"tattoo"},"addTags":{"brand":"VeAn Tattoo","brand:wikidata":"Q116871240","name":"VeAn Tattoo","shop":"tattoo"}},"shop/tea/oxalis-cec35b":{"name":"Oxalis","locationSet":{"include":["cz","sk"]},"geometry":["point","area"],"matchScore":2,"terms":["oxalis"],"tags":{"brand:wikidata":"Q54948754","shop":"tea"},"addTags":{"brand":"Oxalis","brand:wikidata":"Q54948754","name":"Oxalis","shop":"tea"}},"shop/tool_hire/boels-d0c09f":{"name":"Boels","locationSet":{"include":["at","be","ch","cz","de","gb","it","lu","nl","pl","sk"]},"geometry":["point","area"],"matchScore":2,"terms":["boels","boels rental"],"tags":{"brand:wikidata":"Q19901961","shop":"tool_hire"},"addTags":{"brand":"Boels","brand:wikidata":"Q19901961","name":"Boels","shop":"tool_hire"}},"shop/tool_hire/loxam-33fef8":{"name":"Loxam","locationSet":{"include":["ae","be","bh","br","ch","co","cz","de","dk","ee","es","fi","fr","gb","ie","it","kw","lt","lu","lv","ma","nl","no","om","pl","pt","qa","sa","se","sk"]},"geometry":["point","area"],"matchScore":2,"terms":["loxam"],"tags":{"brand:wikidata":"Q3264407","shop":"tool_hire"},"addTags":{"brand":"Loxam","brand:wikidata":"Q3264407","name":"Loxam","shop":"tool_hire"}},"shop/toys/alltoys-72911e":{"name":"Alltoys","locationSet":{"include":["cz","sk"]},"geometry":["point","area"],"matchScore":2,"terms":["alltoys"],"tags":{"brand:wikidata":"Q52857895","shop":"toys"},"addTags":{"brand":"Alltoys","brand:wikidata":"Q52857895","name":"Alltoys","shop":"toys"}},"shop/toys/dracik-72911e":{"name":"Dráčik","locationSet":{"include":["cz","sk"]},"geometry":["point","area"],"matchScore":2,"terms":["dráčik"],"tags":{"brand:wikidata":"Q57653669","shop":"toys"},"addTags":{"brand":"Dráčik","brand:wikidata":"Q57653669","name":"Dráčik","shop":"toys"}},"shop/trade/dek-8ec304":{"name":"DEK","locationSet":{"include":["cz","sk"]},"geometry":["point","area"],"matchScore":2,"terms":["dek","dek stavebniny"],"tags":{"brand:wikidata":"Q58205825","shop":"trade"},"addTags":{"brand":"DEK","brand:wikidata":"Q58205825","name":"DEK","shop":"trade","trade":"building_supplies"}},"shop/trade/felbermayr-26d55f":{"name":"Felbermayr","locationSet":{"include":["at","ba","bg","cz","de","hr","hu","it","pl","ro","rs","sk"]},"geometry":["point","area"],"matchScore":2,"terms":["felbermayr"],"tags":{"brand:wikidata":"Q19687619","shop":"trade"},"addTags":{"brand":"Felbermayr","brand:wikidata":"Q19687619","name":"Felbermayr","shop":"trade","trade":"construction_equipment"}},"shop/trade/zeppelincat-a5bd5b":{"name":"Zeppelin CAT","locationSet":{"include":["sk"]},"geometry":["point","area"],"matchScore":2,"terms":["zeppelin cat"],"tags":{"brand:wikidata":"Q77876778","shop":"trade"},"addTags":{"brand":"Zeppelin CAT","brand:wikidata":"Q77876778","name":"Zeppelin CAT","shop":"trade","trade":"construction_equipment"}},"shop/travel_agency/hydrotour-1d4025":{"name":"HYDROTOUR","locationSet":{"include":["sk"]},"geometry":["point","area"],"matchScore":2,"terms":["ck hydrotour","hydrotour"],"tags":{"brand:wikidata":"Q116854712","shop":"travel_agency"},"addTags":{"brand":"HYDROTOUR","brand:wikidata":"Q116854712","name":"HYDROTOUR","shop":"travel_agency"}},"shop/travel_agency/invia-bc5dc6":{"name":"Invia","locationSet":{"include":["cz","hu","pl","sk"]},"geometry":["point","area"],"matchScore":2,"terms":["invia"],"tags":{"brand:wikidata":"Q20057477","shop":"travel_agency"},"addTags":{"brand":"Invia","brand:wikidata":"Q20057477","name":"Invia","shop":"travel_agency"}},"shop/travel_agency/koalatours-1d4025":{"name":"Koala Tours","locationSet":{"include":["sk"]},"geometry":["point","area"],"matchScore":2,"terms":["koala tours"],"tags":{"brand:wikidata":"Q116910323","shop":"travel_agency"},"addTags":{"brand":"Koala Tours","brand:wikidata":"Q116910323","name":"Koala Tours","shop":"travel_agency"}},"shop/travel_agency/satur-1d4025":{"name":"SATUR","locationSet":{"include":["sk"]},"geometry":["point","area"],"matchScore":2,"terms":["ck satur","satur"],"tags":{"brand:wikidata":"Q69999346","shop":"travel_agency"},"addTags":{"brand":"SATUR","brand:wikidata":"Q69999346","name":"SATUR","shop":"travel_agency"}},"shop/travel_agency/senecatours-1d4025":{"name":"SENECA Tours","locationSet":{"include":["sk"]},"geometry":["point","area"],"matchScore":2,"terms":["seneca tours"],"tags":{"brand:wikidata":"Q116944532","shop":"travel_agency"},"addTags":{"brand":"SENECA Tours","brand:wikidata":"Q116944532","name":"SENECA Tours","shop":"travel_agency"}},"shop/travel_agency/tiptravel-1d4025":{"name":"TIP travel","locationSet":{"include":["sk"]},"geometry":["point","area"],"matchScore":2,"terms":["tip travel"],"tags":{"brand:wikidata":"Q116914645","shop":"travel_agency"},"addTags":{"brand":"TIP travel","brand:wikidata":"Q116914645","name":"TIP travel","shop":"travel_agency"}},"shop/travel_agency/turancar-1d4025":{"name":"Turancar","locationSet":{"include":["sk"]},"geometry":["point","area"],"matchScore":2,"terms":["ck turancar","turancar"],"tags":{"brand:wikidata":"Q63139142","shop":"travel_agency"},"addTags":{"brand":"Turancar","brand:wikidata":"Q63139142","name":"Turancar","shop":"travel_agency"}},"shop/variety_store/action-8dd2e2":{"name":"Action","locationSet":{"include":["at","be","cz","de","es","fr","it","lu","nl","pl","sk"]},"geometry":["point","area"],"matchScore":2,"terms":["action"],"tags":{"brand:wikidata":"Q2634111","shop":"variety_store"},"addTags":{"brand":"Action","brand:wikidata":"Q2634111","name":"Action","shop":"variety_store"}},"shop/variety_store/flyingtigercopenhagen-37d726":{"name":"Flying Tiger Copenhagen","locationSet":{"include":["at","be","ch","cy","cz","de","dk","ee","es","fi","fr","gb","gr","hu","ie","is","it","jp","kr","lt","lv","mt","nl","no","pl","pt","se","sk"]},"geometry":["point","area"],"matchScore":2,"terms":["flying tiger","flying tiger copenhagen","tgr","tiger"],"tags":{"brand:wikidata":"Q2786319","shop":"variety_store"},"addTags":{"brand":"Flying Tiger Copenhagen","brand:wikidata":"Q2786319","name":"Flying Tiger Copenhagen","shop":"variety_store","short_name":"Flying Tiger"}},"shop/variety_store/kinekus-c029a3":{"name":"KINEKUS","locationSet":{"include":["cz","sk"]},"geometry":["point","area"],"matchScore":2,"terms":["kinekus"],"tags":{"brand:wikidata":"Q96132061","shop":"variety_store"},"addTags":{"brand":"KINEKUS","brand:wikidata":"Q96132061","name":"KINEKUS","shop":"variety_store"}},"shop/variety_store/tedi-8a061e":{"name":"TEDi","locationSet":{"include":["at","bg","cz","de","es","gb","hr","hu","it","pl","pt","ro","si","sk"]},"geometry":["point","area"],"matchScore":2,"terms":["t\u20acdi","tedi"],"tags":{"brand:wikidata":"Q1364603","shop":"variety_store"},"addTags":{"brand":"TEDi","brand:wikidata":"Q1364603","name":"TEDi","shop":"variety_store"}},"shop/variety_store/topshop-f153f8":{"name":"Top Shop","locationSet":{"include":["al","ba","bg","cz","ee","hr","hu","lt","lv","md","me","mk","pl","ro","rs","si","sk","ua","xk"]},"geometry":["point","area"],"matchScore":2,"terms":["top shop"],"tags":{"brand:wikidata":"Q116919675","shop":"variety_store"},"addTags":{"brand":"Top Shop","brand:wikidata":"Q116919675","name":"Top Shop","shop":"variety_store"}},"shop/video_games/brloh-e468df":{"name":"Brloh","locationSet":{"include":["sk"]},"geometry":["point","area"],"matchScore":2,"terms":["brloh"],"tags":{"brand:wikidata":"Q12763551","shop":"video_games"},"addTags":{"brand":"Brloh","brand:wikidata":"Q12763551","name":"Brloh","shop":"video_games"}},"shop/video_games/playgosmart-e468df":{"name":"PlayGoSmart","locationSet":{"include":["sk"]},"geometry":["point","area"],"matchScore":2,"terms":["playgosmart"],"tags":{"brand:wikidata":"Q116852356","shop":"video_games"},"addTags":{"brand":"PlayGoSmart","brand:wikidata":"Q116852356","name":"PlayGoSmart","shop":"video_games"}},"shop/wholesale/metro-101fbc":{"name":"METRO","locationSet":{"include":["at","bg","de","fr","hr","hu","in","it","kz","md","pk","ro","rs","ru","sk","tr","ua"]},"geometry":["point","area"],"matchScore":2,"terms":["metro","metro cash & carry"],"tags":{"brand:wikidata":"Q13610282","shop":"wholesale"},"addTags":{"brand":"METRO","brand:wikidata":"Q13610282","name":"METRO","shop":"wholesale"}},"tourism/hotel/bandbhotel-fc8c2c":{"name":"B&B Hotel","locationSet":{"include":["by","bg","cz","hu","pl","md","ro","ru","sk","ua","ax","gg","je","cq","dk","ee","fo","fi","is","ie","im","lv","lt","no","sj","se","gb","al","ad","ba","hr","gi","gr","va","it","mt","me","mk","pt","sm","rs","si","es","xk","at","be","fr","de","li","lu","mc","nl","ch","br"]},"geometry":["point","area"],"matchScore":2,"terms":["b&b hotels"],"fields":["name","brand","{tourism/hotel}"],"tags":{"brand:wikidata":"Q794939","tourism":"hotel"},"addTags":{"brand":"B&B Hotels","brand:wikidata":"Q794939","name":"B&B Hotel","tourism":"hotel"}},"tourism/hotel/greet-046fe6":{"name":"greet","locationSet":{"include":["by","bg","cz","hu","pl","md","ro","ru","sk","ua","ax","gg","je","cq","dk","ee","fo","fi","is","ie","im","lv","lt","no","sj","se","gb","al","ad","ba","hr","gi","gr","va","it","mt","me","mk","pt","sm","rs","si","es","xk","at","be","fr","de","li","lu","mc","nl","ch"]},"geometry":["point","area"],"matchScore":2,"terms":["greet"],"fields":["name","brand","{tourism/hotel}"],"tags":{"brand:wikidata":"Q115489066","tourism":"hotel"},"addTags":{"brand":"greet","brand:wikidata":"Q115489066","name":"Greet","tourism":"hotel"}},"tourism/hotel/motelone-046fe6":{"name":"Motel One","locationSet":{"include":["by","bg","cz","hu","pl","md","ro","ru","sk","ua","ax","gg","je","cq","dk","ee","fo","fi","is","ie","im","lv","lt","no","sj","se","gb","al","ad","ba","hr","gi","gr","va","it","mt","me","mk","pt","sm","rs","si","es","xk","at","be","fr","de","li","lu","mc","nl","ch"]},"geometry":["point","area"],"matchScore":2,"terms":["motel one"],"fields":["name","brand","{tourism/hotel}"],"tags":{"brand:wikidata":"Q391080","tourism":"hotel"},"addTags":{"brand":"Motel One","brand:wikidata":"Q391080","name":"Motel One","tourism":"hotel"}},"amenity/charging_station/eon-7f623e":{"name":"E.ON","locationSet":{"include":["by","bg","cz","hu","pl","md","ro","ru","sk","ua","ax","gg","je","cq","dk","ee","fo","fi","is","ie","im","lv","lt","no","sj","se","gb","al","ad","ba","hr","gi","gr","va","it","mt","me","mk","pt","sm","rs","si","es","xk","at","be","fr","de","li","lu","mc","nl","ch"]},"geometry":["point","vertex","area"],"matchScore":2,"terms":["e-on drive","e.on"],"fields":["name","operator","{amenity/charging_station}"],"tags":{"amenity":"charging_station","operator:wikidata":"Q270223"},"addTags":{"amenity":"charging_station","operator":"E.ON","operator:wikidata":"Q270223"}},"amenity/charging_station/ejoin-b23832":{"name":"ejoin","locationSet":{"include":["sk"]},"geometry":["point","vertex","area"],"matchScore":2,"terms":["ejoin"],"fields":["name","operator","{amenity/charging_station}"],"tags":{"amenity":"charging_station","operator:wikidata":"Q116737637"},"addTags":{"amenity":"charging_station","operator":"ejoin","operator:wikidata":"Q116737637"}},"amenity/charging_station/evbox-7f623e":{"name":"EVBox","locationSet":{"include":["by","bg","cz","hu","pl","md","ro","ru","sk","ua","ax","gg","je","cq","dk","ee","fo","fi","is","ie","im","lv","lt","no","sj","se","gb","al","ad","ba","hr","gi","gr","va","it","mt","me","mk","pt","sm","rs","si","es","xk","at","be","fr","de","li","lu","mc","nl","ch"]},"geometry":["point","vertex","area"],"matchScore":2,"terms":["evbox"],"fields":["name","operator","{amenity/charging_station}"],"tags":{"amenity":"charging_station","operator:wikidata":"Q28406392"},"addTags":{"amenity":"charging_station","operator":"EVBox","operator:wikidata":"Q28406392"}},"amenity/charging_station/greenway-db76f0":{"name":"GreenWay","locationSet":{"include":["pl","sk"]},"geometry":["point","vertex","area"],"matchScore":2,"terms":["greenway"],"fields":["name","operator","{amenity/charging_station}"],"tags":{"amenity":"charging_station","operator:wikidata":"Q116450281"},"addTags":{"amenity":"charging_station","operator":"GreenWay","operator:wikidata":"Q116450281"}},"amenity/charging_station/qpark-7f623e":{"name":"Q-Park","locationSet":{"include":["by","bg","cz","hu","pl","md","ro","ru","sk","ua","ax","gg","je","cq","dk","ee","fo","fi","is","ie","im","lv","lt","no","sj","se","gb","al","ad","ba","hr","gi","gr","va","it","mt","me","mk","pt","sm","rs","si","es","xk","at","be","fr","de","li","lu","mc","nl","ch"]},"geometry":["point","vertex","area"],"matchScore":2,"terms":["q-park"],"fields":["name","operator","{amenity/charging_station}"],"tags":{"amenity":"charging_station","operator:wikidata":"Q1127798"},"addTags":{"amenity":"charging_station","operator":"Q-Park","operator:wikidata":"Q1127798"}},"amenity/clinic/procare-ada481":{"name":"ProCare","locationSet":{"include":["sk"]},"geometry":["point","area"],"matchScore":2,"terms":["procare"],"fields":["name","operator","{amenity/clinic}"],"reference":{"key":"amenity","value":"clinic"},"tags":{"amenity":"clinic","operator:wikidata":"Q96132634"},"addTags":{"amenity":"clinic","healthcare":"clinic","operator":"ProCare","operator:type":"private","operator:wikidata":"Q96132634"}},"amenity/drinking_water/vychodoslovenskavodarenskaspolocnost-82b290":{"name":"Východoslovenská vodárenská spoločnosť","locationSet":{"include":["sk"]},"geometry":["point"],"matchScore":2,"terms":["vvs","východoslovenská vodárenská spoločnosť"],"tags":{"amenity":"drinking_water","operator:wikidata":"Q16520438"},"addTags":{"amenity":"drinking_water","operator":"Východoslovenská vodárenská spoločnosť","operator:short":"VVS","operator:wikidata":"Q16520438"}},"amenity/fire_station/dobrovolnapoziarnaochranaslovenskejrepubliky-e10424":{"name":"Dobrovoľná požiarna ochrana Slovenskej republiky","locationSet":{"include":["sk"]},"geometry":["point","area"],"matchScore":2,"terms":["dobrovoľná požiarna ochrana slovenskej republiky","dpo sr"],"tags":{"amenity":"fire_station","operator:wikidata":"Q116951678"},"addTags":{"amenity":"fire_station","operator":"Dobrovoľná požiarna ochrana Slovenskej republiky","operator:short":"DPO SR","operator:wikidata":"Q116951678"}},"amenity/fire_station/hasicskyazachrannyzbor-e10424":{"name":"Hasičský a záchranný zbor","locationSet":{"include":["sk"]},"geometry":["point","area"],"matchScore":2,"terms":["hasičský a záchranný zbor","hazz"],"tags":{"amenity":"fire_station","operator:wikidata":"Q13417976"},"addTags":{"amenity":"fire_station","operator":"Hasičský a záchranný zbor","operator:short":"HaZZ","operator:wikidata":"Q13417976"}},"amenity/hospital/ministerstvozdravotnictvaslovenskejrepubliky-ecf182":{"name":"Ministerstvo zdravotníctva Slovenskej republiky","locationSet":{"include":["sk"]},"geometry":["area","point"],"matchScore":2,"terms":["ministerstvo zdravotníctva slovenskej republiky","mz sr"],"fields":["name","operator","{amenity/hospital}"],"reference":{"key":"amenity","value":"hospital"},"tags":{"amenity":"hospital","operator:wikidata":"Q12771754"},"addTags":{"amenity":"hospital","healthcare":"hospital","operator":"Ministerstvo zdravotníctva Slovenskej republiky","operator:short":"MZ SR","operator:type":"public","operator:wikidata":"Q12771754"}},"amenity/hospital/svetzdravia-ecf182":{"name":"Svet zdravia","locationSet":{"include":["sk"]},"geometry":["area","point"],"matchScore":2,"terms":["svet zdravia"],"fields":["name","operator","{amenity/hospital}"],"reference":{"key":"amenity","value":"hospital"},"tags":{"amenity":"hospital","operator:wikidata":"Q96137636"},"addTags":{"amenity":"hospital","healthcare":"hospital","operator":"Svet zdravia","operator:type":"private","operator:wikidata":"Q96137636"}},"amenity/library/kniznicapremladezmestakosice-36c657":{"name":"Knižnica pre mládež mesta Košice","locationSet":{"include":["sk"]},"geometry":["point","area"],"matchScore":2,"terms":["kmk","knižnica pre mládež mesta košice"],"tags":{"amenity":"library","operator:wikidata":"Q50737432"},"addTags":{"amenity":"library","operator":"Knižnica pre mládež mesta Košice","operator:short":"KMK","operator:type":"public","operator:wikidata":"Q50737432"}},"amenity/parking/bestinparking-c10a77":{"name":"Best in Parking","locationSet":{"include":["at","ch","hr","it","si","sk"]},"geometry":["area","point","vertex"],"matchScore":2,"terms":["best in parking","bip"],"fields":["name","operator","{amenity/parking}"],"tags":{"amenity":"parking","operator:wikidata":"Q112118218"},"addTags":{"amenity":"parking","operator":"Best in Parking","operator:wikidata":"Q112118218"}},"amenity/parking/mestokosice-61f593":{"name":"Mesto Košice","locationSet":{"include":["sk"]},"geometry":["area","point","vertex"],"matchScore":2,"terms":["mesto košice"],"fields":["name","operator","{amenity/parking}"],"tags":{"amenity":"parking","operator:wikidata":"Q25409"},"addTags":{"amenity":"parking","operator":"Mesto Košice","operator:type":"public","operator:wikidata":"Q25409"}},"amenity/police/policajnyzbor-546d53":{"name":"Policajný zbor","locationSet":{"include":["sk"]},"geometry":["point","area"],"matchScore":2,"terms":["policajný zbor","policajný zbor slovenskej republiky","pz"],"tags":{"amenity":"police","operator:wikidata":"Q55633341"},"addTags":{"amenity":"police","operator":"Policajný zbor","operator:short":"PZ","operator:wikidata":"Q55633341"}},"amenity/post_box/expressone-d9cb9e":{"name":"Express One (Slovakia)","locationSet":{"include":["sk"]},"geometry":["point","vertex"],"matchScore":2,"terms":["express one"],"tags":{"amenity":"post_box","operator:wikidata":"Q115972822"},"addTags":{"amenity":"post_box","brand":"Express One","brand:wikidata":"Q115972822","operator":"Express One","operator:wikidata":"Q115972822"}},"amenity/post_box/slovenskaposta-d9cb9e":{"name":"Slovenská pošta","locationSet":{"include":["sk"]},"geometry":["point","vertex"],"matchScore":2,"terms":["slovenská pošta","slovenska pošta as"],"tags":{"amenity":"post_box","operator:wikidata":"Q1191849"},"addTags":{"amenity":"post_box","operator":"Slovenská pošta","operator:wikidata":"Q1191849"}},"amenity/post_office/slovenskaposta-e92a45":{"name":"Slovenská pošta","locationSet":{"include":["sk"]},"geometry":["point","area"],"matchScore":2,"terms":["slovenská pošta","slovenska pošta as"],"fields":["name","operator","{amenity/post_office}"],"tags":{"amenity":"post_office","operator:wikidata":"Q1191849"},"addTags":{"amenity":"post_office","operator":"Slovenská pošta","operator:wikidata":"Q1191849"}},"amenity/prison/zborvazenskejajusticnejstraze-c449b6":{"name":"Zbor väzenskej a justičnej stráže","locationSet":{"include":["sk"]},"geometry":["area","point"],"matchScore":2,"terms":["zbor väzenskej a justičnej stráže"],"fields":["name","operator","{amenity/prison}"],"tags":{"amenity":"prison","operator:wikidata":"Q12779324"},"addTags":{"amenity":"prison","operator":"Zbor väzenskej a justičnej stráže","operator:wikidata":"Q12779324"}},"amenity/recycling/ekocharita-d6ea52":{"name":"Ekocharita","locationSet":{"include":["sk"]},"geometry":["point","area"],"matchScore":2,"terms":["ekocharita"],"tags":{"amenity":"recycling","operator:wikidata":"Q116681206"},"addTags":{"amenity":"recycling","operator":"Ekocharita","operator:wikidata":"Q116681206","recycling_type":"container","recycling:clothes":"yes","recycling:shoes":"yes"}},"amenity/recycling/kositas-d6ea52":{"name":"KOSIT, a.s.","locationSet":{"include":["sk"]},"geometry":["point","area"],"matchScore":2,"terms":["kosit, a.s."],"tags":{"amenity":"recycling","operator:wikidata":"Q96129857"},"addTags":{"amenity":"recycling","operator":"KOSIT, a.s.","operator:wikidata":"Q96129857"}},"amenity/school/kosickysamospravnykraj-08fea1":{"name":"Košický samosprávny kraj","locationSet":{"include":["sk"]},"geometry":["area","point"],"matchScore":2,"terms":["košický samosprávny kraj","ksk"],"tags":{"amenity":"school","operator:wikidata":"Q4181793"},"addTags":{"amenity":"school","operator":"Košický samosprávny kraj","operator:short":"KSK","operator:type":"public","operator:wikidata":"Q4181793"}},"amenity/school/mestokosice-08fea1":{"name":"Mesto Košice","locationSet":{"include":["sk"]},"geometry":["area","point"],"matchScore":2,"terms":["mesto košice"],"tags":{"amenity":"school","operator:wikidata":"Q25409"},"addTags":{"amenity":"school","operator":"Mesto Košice","operator:type":"public","operator:wikidata":"Q25409"}},"landuse/industrial/dopravnypodnikmestakosice-538cb3":{"name":"Dopravný podnik mesta Košice","locationSet":{"include":["sk"]},"geometry":["area"],"matchScore":2,"terms":["dopravný podnik mesta košice","dpmk"],"tags":{"landuse":"industrial","operator:wikidata":"Q2265496"},"addTags":{"industrial":"depot","landuse":"industrial","operator":"Dopravný podnik mesta Košice","operator:short":"DPMK","operator:wikidata":"Q2265496"}},"landuse/quarry/euroviask-7ab4fb":{"name":"Eurovia SK","locationSet":{"include":["sk"]},"geometry":["area","point"],"matchScore":2,"terms":["eurovia sk"],"tags":{"landuse":"quarry","operator:wikidata":"Q30297476"},"addTags":{"landuse":"quarry","operator":"Eurovia SK","operator:wikidata":"Q30297476"}},"leisure/nature_reserve/spravamestskejzelenevkosiciach-e7985b":{"name":"Správa mestskej zelene v Košiciach","locationSet":{"include":["sk"]},"geometry":["area","point"],"matchScore":2,"terms":["smsz","správa mestskej zelene v košiciach"],"tags":{"leisure":"nature_reserve","operator:wikidata":"Q116688679"},"addTags":{"leisure":"nature_reserve","operator":"Správa mestskej zelene v Košiciach","operator:short":"SMsZ","operator:type":"public","operator:wikidata":"Q116688679"}},"leisure/park/spravamestskejzelenevkosiciach-f67935":{"name":"Správa mestskej zelene v Košiciach","locationSet":{"include":["sk"]},"geometry":["area","point"],"matchScore":2,"terms":["smsz","správa mestskej zelene v košiciach"],"tags":{"leisure":"park","operator:wikidata":"Q116688679"},"addTags":{"leisure":"park","operator":"Správa mestskej zelene v Košiciach","operator:short":"SMsZ","operator:type":"public","operator:wikidata":"Q116688679"}},"man_made/eon-22bfb3":{"name":"E.ON","locationSet":{"include":["by","bg","cz","hu","pl","md","ro","ru","sk","ua","ax","gg","je","cq","dk","ee","fo","fi","is","ie","im","lv","lt","no","sj","se","gb","al","ad","ba","hr","gi","gr","va","it","mt","me","mk","pt","sm","rs","si","es","xk","at","be","fr","de","li","lu","mc","nl","ch"]},"geometry":["point","vertex","line","area"],"matchScore":2,"terms":["e-on drive","e.on"],"fields":["name","operator","{man_made}"],"tags":{"man_made":"charge_point","operator:wikidata":"Q270223"},"addTags":{"man_made":"charge_point","operator":"E.ON","operator:wikidata":"Q270223"}},"man_made/ejoin-d74d01":{"name":"ejoin","locationSet":{"include":["sk"]},"geometry":["point","vertex","line","area"],"matchScore":2,"terms":["ejoin"],"fields":["name","operator","{man_made}"],"tags":{"man_made":"charge_point","operator:wikidata":"Q116737637"},"addTags":{"man_made":"charge_point","operator":"ejoin","operator:wikidata":"Q116737637"}},"man_made/evbox-22bfb3":{"name":"EVBox","locationSet":{"include":["by","bg","cz","hu","pl","md","ro","ru","sk","ua","ax","gg","je","cq","dk","ee","fo","fi","is","ie","im","lv","lt","no","sj","se","gb","al","ad","ba","hr","gi","gr","va","it","mt","me","mk","pt","sm","rs","si","es","xk","at","be","fr","de","li","lu","mc","nl","ch"]},"geometry":["point","vertex","line","area"],"matchScore":2,"terms":["evbox"],"fields":["name","operator","{man_made}"],"tags":{"man_made":"charge_point","operator:wikidata":"Q28406392"},"addTags":{"man_made":"charge_point","operator":"EVBox","operator:wikidata":"Q28406392"}},"man_made/greenway-8a34cb":{"name":"GreenWay","locationSet":{"include":["pl","sk"]},"geometry":["point","vertex","line","area"],"matchScore":2,"terms":["greenway"],"fields":["name","operator","{man_made}"],"tags":{"man_made":"charge_point","operator:wikidata":"Q116450281"},"addTags":{"man_made":"charge_point","operator":"GreenWay","operator:wikidata":"Q116450281"}},"man_made/qpark-22bfb3":{"name":"Q-Park","locationSet":{"include":["by","bg","cz","hu","pl","md","ro","ru","sk","ua","ax","gg","je","cq","dk","ee","fo","fi","is","ie","im","lv","lt","no","sj","se","gb","al","ad","ba","hr","gi","gr","va","it","mt","me","mk","pt","sm","rs","si","es","xk","at","be","fr","de","li","lu","mc","nl","ch"]},"geometry":["point","vertex","line","area"],"matchScore":2,"terms":["q-park"],"fields":["name","operator","{man_made}"],"tags":{"man_made":"charge_point","operator:wikidata":"Q1127798"},"addTags":{"man_made":"charge_point","operator":"Q-Park","operator:wikidata":"Q1127798"}},"man_made/mast/communication/telekom-488966":{"name":"Telekom","locationSet":{"include":["de","hu","ro","si","sk"]},"geometry":["point","vertex"],"matchScore":2,"terms":["telekom"],"reference":{"key":"tower:type","value":"communication"},"tags":{"man_made":"mast","operator:wikidata":"Q9396","tower:type":"communication"},"addTags":{"communication:mobile_phone":"yes","man_made":"mast","operator":"Telekom","operator:wikidata":"Q9396","tower:type":"communication"}},"man_made/tower/communication/telekom-a8749b":{"name":"Telekom","locationSet":{"include":["de","hu","ro","si","sk"]},"geometry":["point","vertex","area"],"matchScore":2,"terms":["telekom"],"reference":{"key":"tower:type","value":"communication"},"tags":{"man_made":"tower","operator:wikidata":"Q9396","tower:type":"communication"},"addTags":{"communication:mobile_phone":"yes","man_made":"tower","operator":"Telekom","operator:wikidata":"Q9396","tower:type":"communication"}},"man_made/wastewater_plant/kositas-6f062f":{"name":"KOSIT, a.s.","locationSet":{"include":["sk"]},"geometry":["point","area"],"matchScore":2,"terms":["kosit, a.s."],"tags":{"man_made":"wastewater_plant","operator:wikidata":"Q96129857"},"addTags":{"man_made":"wastewater_plant","operator":"KOSIT, a.s.","operator:wikidata":"Q96129857"}},"man_made/water_works/vychodoslovenskavodarenskaspolocnost-8c4b19":{"name":"Východoslovenská vodárenská spoločnosť","locationSet":{"include":["sk"]},"geometry":["point","area"],"matchScore":2,"terms":["vvs","východoslovenská vodárenská spoločnosť"],"tags":{"man_made":"water_works","operator:wikidata":"Q16520438"},"addTags":{"man_made":"water_works","operator":"Východoslovenská vodárenská spoločnosť","operator:short":"VVS","operator:wikidata":"Q16520438"}},"office/government/financnaspravaslovenskejrepubliky-18bdcf":{"name":"Finančná správa Slovenskej republiky","locationSet":{"include":["sk"]},"geometry":["point","area"],"matchScore":2,"terms":["finančná správa slovenskej republiky"],"fields":["name","operator","{office/government}"],"tags":{"office":"government","operator:wikidata":"Q15111229"},"addTags":{"office":"government","operator":"Finančná správa Slovenskej republiky","operator:wikidata":"Q15111229"}},"office/government/ministerstvoinvesticiiregionalnehorozvojaainformatizacieslovenskejrepubliky-18bdcf":{"name":"Ministerstvo investícií, regionálneho rozvoja a informatizácie Slovenskej republiky","locationSet":{"include":["sk"]},"geometry":["point","area"],"matchScore":2,"terms":["ministerstvo investícií, regionálneho rozvoja a informatizácie slovenskej republiky","mirri sr"],"fields":["name","operator","{office/government}"],"tags":{"office":"government","operator:wikidata":"Q97014712"},"addTags":{"government":"public_works","office":"government","operator":"Ministerstvo investícií, regionálneho rozvoja a informatizácie Slovenskej republiky","operator:short":"MIRRI SR","operator:wikidata":"Q97014712"}},"office/government/ministerstvopracesocialnychveciarodinyslovenskejrepubliky-18bdcf":{"name":"Ministerstvo práce, sociálnych vecí a rodiny Slovenskej republiky","locationSet":{"include":["sk"]},"geometry":["point","area"],"matchScore":2,"terms":["ministerstvo práce, sociálnych vecí a rodiny slovenskej republiky","mpsvr sr"],"fields":["name","operator","{office/government}"],"tags":{"office":"government","operator:wikidata":"Q12771751"},"addTags":{"government":"social_services","office":"government","operator":"Ministerstvo práce, sociálnych vecí a rodiny Slovenskej republiky","operator:short":"MPSVR SR","operator:wikidata":"Q12771751"}},"office/government/ministerstvovnutraslovenskejrepubliky-18bdcf":{"name":"Ministerstvo vnútra Slovenskej republiky","locationSet":{"include":["sk"]},"geometry":["point","area"],"matchScore":2,"terms":["ministerstvo vnútra slovenskej republiky","mv sr"],"fields":["name","operator","{office/government}"],"tags":{"office":"government","operator:wikidata":"Q13450147"},"addTags":{"office":"government","operator":"Ministerstvo vnútra Slovenskej republiky","operator:short":"MV SR","operator:wikidata":"Q13450147"}},"office/government/ministerstvozivotnehoprostrediaslovenskejrepubliky-18bdcf":{"name":"Ministerstvo životného prostredia Slovenskej republiky","locationSet":{"include":["sk"]},"geometry":["point","area"],"matchScore":2,"terms":["ministerstvo životného prostredia slovenskej republiky","mžp sr"],"fields":["name","operator","{office/government}"],"tags":{"office":"government","operator:wikidata":"Q12771757"},"addTags":{"government":"environment","office":"government","operator":"Ministerstvo životného prostredia Slovenskej republiky","operator:short":"MŽP SR","operator:wikidata":"Q12771757"}},"office/government/najvyssikontrolnyuradslovenskejrepubliky-18bdcf":{"name":"Najvyšší kontrolný úrad Slovenskej republiky","locationSet":{"include":["sk"]},"geometry":["point","area"],"matchScore":2,"terms":["najvyšší kontrolný úrad slovenskej republiky","nkú sr"],"fields":["name","operator","{office/government}"],"tags":{"office":"government","operator:wikidata":"Q12772297"},"addTags":{"government":"audit","office":"government","operator":"Najvyšší kontrolný úrad Slovenskej republiky","operator:short":"NKÚ SR","operator:wikidata":"Q12772297"}},"office/government/narodnyinspektoratprace-18bdcf":{"name":"Národný inšpektorát práce","locationSet":{"include":["sk"]},"geometry":["point","area"],"matchScore":2,"terms":["národný inšpektorát práce","nip"],"fields":["name","operator","{office/government}"],"tags":{"office":"government","operator:wikidata":"Q105160131"},"addTags":{"government":"administrative","office":"government","operator":"Národný inšpektorát práce","operator:short":"NIP","operator:wikidata":"Q105160131"}},"power/catenary_mast/zsr-5fda63":{"name":"ŽSR","locationSet":{"include":["sk"]},"geometry":["point","vertex"],"matchScore":2,"terms":["žsr"],"tags":{"operator:wikidata":"Q393524","power":"catenary_mast"},"addTags":{"operator":"ŽSR","operator:wikidata":"Q393524","power":"catenary_mast"}},"power/catenary_mast/zssk-5fda63":{"name":"ZSSK","locationSet":{"include":["sk"]},"geometry":["point","vertex"],"matchScore":2,"terms":["zssk"],"tags":{"operator:wikidata":"Q393557","power":"catenary_mast"},"addTags":{"operator":"ZSSK","operator:wikidata":"Q393557","power":"catenary_mast"}},"power/generator/innogy-16c9d0":{"name":"Innogy","locationSet":{"include":["by","bg","cz","hu","pl","md","ro","ru","sk","ua","ax","gg","je","cq","dk","ee","fo","fi","is","ie","im","lv","lt","no","sj","se","gb","al","ad","ba","hr","gi","gr","va","it","mt","me","mk","pt","sm","rs","si","es","xk","at","be","fr","de","li","lu","mc","nl","ch"]},"geometry":["point","vertex","area"],"matchScore":2,"terms":["innogy"],"tags":{"operator:wikidata":"Q2124721","power":"generator"},"addTags":{"operator":"Innogy","operator:wikidata":"Q2124721","power":"generator"}},"power/generator/rwe-16c9d0":{"name":"RWE","locationSet":{"include":["by","bg","cz","hu","pl","md","ro","ru","sk","ua","ax","gg","je","cq","dk","ee","fo","fi","is","ie","im","lv","lt","no","sj","se","gb","al","ad","ba","hr","gi","gr","va","it","mt","me","mk","pt","sm","rs","si","es","xk","at","be","fr","de","li","lu","mc","nl","ch"]},"geometry":["point","vertex","area"],"matchScore":2,"terms":["rwe"],"tags":{"operator:wikidata":"Q138133","power":"generator"},"addTags":{"operator":"RWE","operator:wikidata":"Q138133","power":"generator"}},"power/generator/sse-300ba3":{"name":"SSE (Slovakia)","locationSet":{"include":["sk"]},"geometry":["point","vertex","area"],"matchScore":2,"terms":["sse"],"tags":{"operator:wikidata":"Q16517554","power":"generator"},"addTags":{"operator":"SSE","operator:wikidata":"Q16517554","power":"generator"}},"power/generator/statkraft-16c9d0":{"name":"Statkraft","locationSet":{"include":["by","bg","cz","hu","pl","md","ro","ru","sk","ua","ax","gg","je","cq","dk","ee","fo","fi","is","ie","im","lv","lt","no","sj","se","gb","al","ad","ba","hr","gi","gr","va","it","mt","me","mk","pt","sm","rs","si","es","xk","at","be","fr","de","li","lu","mc","nl","ch"]},"geometry":["point","vertex","area"],"matchScore":2,"terms":["statkraft"],"tags":{"operator:wikidata":"Q1681145","power":"generator"},"addTags":{"operator":"Statkraft","operator:wikidata":"Q1681145","power":"generator"}},"power/generator/uniper-16c9d0":{"name":"Uniper","locationSet":{"include":["by","bg","cz","hu","pl","md","ro","ru","sk","ua","ax","gg","je","cq","dk","ee","fo","fi","is","ie","im","lv","lt","no","sj","se","gb","al","ad","ba","hr","gi","gr","va","it","mt","me","mk","pt","sm","rs","si","es","xk","at","be","fr","de","li","lu","mc","nl","ch"]},"geometry":["point","vertex","area"],"matchScore":2,"terms":["uniper"],"tags":{"operator:wikidata":"Q19839259","power":"generator"},"addTags":{"operator":"Uniper","operator:wikidata":"Q19839259","power":"generator"}},"power/generator/windkraftsimonsfeld-aab0d8":{"name":"Windkraft Simonsfeld","locationSet":{"include":["at","bg","sk"]},"geometry":["point","vertex","area"],"matchScore":2,"terms":["windkraft simonsfeld"],"tags":{"operator:wikidata":"Q1423736","power":"generator"},"addTags":{"operator":"Windkraft Simonsfeld","operator:wikidata":"Q1423736","power":"generator"}},"power/generator/wpo-16c9d0":{"name":"WPO","locationSet":{"include":["by","bg","cz","hu","pl","md","ro","ru","sk","ua","ax","gg","je","cq","dk","ee","fo","fi","is","ie","im","lv","lt","no","sj","se","gb","al","ad","ba","hr","gi","gr","va","it","mt","me","mk","pt","sm","rs","si","es","xk","at","be","fr","de","li","lu","mc","nl","ch"]},"geometry":["point","vertex","area"],"matchScore":2,"terms":["wpo"],"tags":{"operator:wikidata":"Q64755627","power":"generator"},"addTags":{"operator":"WPO","operator:wikidata":"Q64755627","power":"generator"}},"power/line/ceps-f6b6f1":{"name":"ČEPS","locationSet":{"include":["cz","de","pl","sk"]},"geometry":["line"],"matchScore":2,"terms":["čeps"],"tags":{"operator:wikidata":"Q11089927","power":"line"},"addTags":{"operator":"ČEPS","operator:wikidata":"Q11089927","power":"line"}},"power/line/cez-452a56":{"name":"ČEZ","locationSet":{"include":["cz","de","sk"]},"geometry":["line"],"matchScore":2,"terms":["čez","čez distribuce","čez distribuce, as"],"tags":{"operator:wikidata":"Q336735","power":"line"},"addTags":{"operator":"ČEZ","operator:wikidata":"Q336735","power":"line"}},"power/line/seps-1baa28":{"name":"SEPS","locationSet":{"include":["sk"]},"geometry":["line"],"matchScore":2,"terms":["seps"],"tags":{"operator:wikidata":"Q12776245","power":"line"},"addTags":{"operator":"SEPS","operator:wikidata":"Q12776245","power":"line"}},"power/line/stredoslovenskadistribucna-1baa28":{"name":"Stredoslovenská distribučná","locationSet":{"include":["sk"]},"geometry":["line"],"matchScore":2,"terms":["stredoslovenská distribučná","stredoslovenská distribučná, as"],"tags":{"operator:wikidata":"Q16517554","power":"line"},"addTags":{"operator":"Stredoslovenská distribučná","operator:wikidata":"Q16517554","power":"line"}},"power/minor_line/ceps-43d40b":{"name":"ČEPS","locationSet":{"include":["cz","de","pl","sk"]},"geometry":["line"],"matchScore":2,"terms":["čeps"],"tags":{"operator:wikidata":"Q11089927","power":"minor_line"},"addTags":{"operator":"ČEPS","operator:wikidata":"Q11089927","power":"minor_line"}},"power/minor_line/cez-0c37bb":{"name":"ČEZ","locationSet":{"include":["cz","de","sk"]},"geometry":["line"],"matchScore":2,"terms":["čez","čez distribuce","čez distribuce, as"],"tags":{"operator:wikidata":"Q336735","power":"minor_line"},"addTags":{"operator":"ČEZ","operator:wikidata":"Q336735","power":"minor_line"}},"power/minor_line/seps-475230":{"name":"SEPS","locationSet":{"include":["sk"]},"geometry":["line"],"matchScore":2,"terms":["seps"],"tags":{"operator:wikidata":"Q12776245","power":"minor_line"},"addTags":{"operator":"SEPS","operator:wikidata":"Q12776245","power":"minor_line"}},"power/minor_line/stredoslovenskadistribucna-475230":{"name":"Stredoslovenská distribučná","locationSet":{"include":["sk"]},"geometry":["line"],"matchScore":2,"terms":["stredoslovenská distribučná","stredoslovenská distribučná, as"],"tags":{"operator:wikidata":"Q16517554","power":"minor_line"},"addTags":{"operator":"Stredoslovenská distribučná","operator:wikidata":"Q16517554","power":"minor_line"}},"power/plant/slovenskeelektrarne-074aec":{"name":"Slovenské elektrárne","locationSet":{"include":["sk"]},"geometry":["area"],"matchScore":2,"terms":["se","slovenské elektrárne"],"tags":{"operator:wikidata":"Q3559219","power":"plant"},"addTags":{"operator":"Slovenské elektrárne","operator:short":"SE","operator:wikidata":"Q3559219","power":"plant"}},"power/plant/sse-074aec":{"name":"SSE (Slovakia)","locationSet":{"include":["sk"]},"geometry":["area"],"matchScore":2,"terms":["sse"],"tags":{"operator:wikidata":"Q16517554","power":"plant"},"addTags":{"operator":"SSE","operator:wikidata":"Q16517554","power":"plant"}},"power/pole/ceps-cbe952":{"name":"ČEPS","locationSet":{"include":["cz","de","pl","sk"]},"geometry":["point","vertex"],"matchScore":2,"terms":["čeps"],"tags":{"operator:wikidata":"Q11089927","power":"pole"},"addTags":{"operator":"ČEPS","operator:wikidata":"Q11089927","power":"pole"}},"power/pole/cez-e795a2":{"name":"ČEZ","locationSet":{"include":["cz","de","sk"]},"geometry":["point","vertex"],"matchScore":2,"terms":["čez","čez distribuce","čez distribuce, as"],"tags":{"operator:wikidata":"Q336735","power":"pole"},"addTags":{"operator":"ČEZ","operator:wikidata":"Q336735","power":"pole"}},"power/pole/seps-4eb8d2":{"name":"SEPS","locationSet":{"include":["sk"]},"geometry":["point","vertex"],"matchScore":2,"terms":["seps"],"tags":{"operator:wikidata":"Q12776245","power":"pole"},"addTags":{"operator":"SEPS","operator:wikidata":"Q12776245","power":"pole"}},"power/pole/stredoslovenskadistribucna-4eb8d2":{"name":"Stredoslovenská distribučná","locationSet":{"include":["sk"]},"geometry":["point","vertex"],"matchScore":2,"terms":["stredoslovenská distribučná","stredoslovenská distribučná, as"],"tags":{"operator:wikidata":"Q16517554","power":"pole"},"addTags":{"operator":"Stredoslovenská distribučná","operator:wikidata":"Q16517554","power":"pole"}},"power/substation/ceps-fdda90":{"name":"ČEPS","locationSet":{"include":["cz","de","pl","sk"]},"geometry":["area","point"],"matchScore":2,"terms":["čeps"],"tags":{"operator:wikidata":"Q11089927","power":"substation"},"addTags":{"operator":"ČEPS","operator:wikidata":"Q11089927","power":"substation"}},"power/substation/cez-845558":{"name":"ČEZ","locationSet":{"include":["cz","de","sk"]},"geometry":["area","point"],"matchScore":2,"terms":["čez","čez distribuce","čez distribuce, as"],"tags":{"operator:wikidata":"Q336735","power":"substation"},"addTags":{"operator":"ČEZ","operator:wikidata":"Q336735","power":"substation"}},"power/substation/slovenskaelektrizacnaprenosovasustava-052fd4":{"name":"Slovenská elektrizačná prenosová sústava","locationSet":{"include":["sk"]},"geometry":["area","point"],"matchScore":2,"terms":["seps","slovenská elektrizačná prenosová sústava"],"tags":{"operator:wikidata":"Q12776245","power":"substation"},"addTags":{"operator":"Slovenská elektrizačná prenosová sústava","operator:short":"SEPS","operator:wikidata":"Q12776245","power":"substation"}},"power/substation/stredoslovenskadistribucna-052fd4":{"name":"Stredoslovenská distribučná","locationSet":{"include":["sk"]},"geometry":["area","point"],"matchScore":2,"terms":["stredoslovenská distribučná","stredoslovenská distribučná, as"],"tags":{"operator:wikidata":"Q16517554","power":"substation"},"addTags":{"operator":"Stredoslovenská distribučná","operator:wikidata":"Q16517554","power":"substation"}},"power/substation/vychodoslovenskaenergetika-052fd4":{"name":"Východoslovenská energetika","locationSet":{"include":["sk"]},"geometry":["area","point"],"matchScore":2,"terms":["vse","východoslovenská energetika"],"tags":{"operator:wikidata":"Q1368761","power":"substation"},"addTags":{"operator":"Východoslovenská energetika","operator:short":"VSE","operator:wikidata":"Q1368761","power":"substation"}},"power/substation/zapadoslovenskadistribucna-052fd4":{"name":"Západoslovenská distribučná","locationSet":{"include":["sk"]},"geometry":["area","point"],"matchScore":2,"terms":["západoslovenská distribučná"],"tags":{"operator:wikidata":"Q108169353","power":"substation"},"addTags":{"operator":"Západoslovenská distribučná","operator:wikidata":"Q108169353","power":"substation"}},"power/tower/ceps-2998d9":{"name":"ČEPS","locationSet":{"include":["cz","de","pl","sk"]},"geometry":["point","vertex"],"matchScore":2,"terms":["čeps"],"tags":{"operator:wikidata":"Q11089927","power":"tower"},"addTags":{"operator":"ČEPS","operator:wikidata":"Q11089927","power":"tower"}},"power/tower/cez-1cf775":{"name":"ČEZ","locationSet":{"include":["cz","de","sk"]},"geometry":["point","vertex"],"matchScore":2,"terms":["čez","čez distribuce","čez distribuce, as"],"tags":{"operator:wikidata":"Q336735","power":"tower"},"addTags":{"operator":"ČEZ","operator:wikidata":"Q336735","power":"tower"}},"power/tower/seps-9271f5":{"name":"SEPS","locationSet":{"include":["sk"]},"geometry":["point","vertex"],"matchScore":2,"terms":["seps"],"tags":{"operator:wikidata":"Q12776245","power":"tower"},"addTags":{"operator":"SEPS","operator:wikidata":"Q12776245","power":"tower"}},"power/tower/stredoslovenskadistribucna-9271f5":{"name":"Stredoslovenská distribučná","locationSet":{"include":["sk"]},"geometry":["point","vertex"],"matchScore":2,"terms":["stredoslovenská distribučná","stredoslovenská distribučná, as"],"tags":{"operator:wikidata":"Q16517554","power":"tower"},"addTags":{"operator":"Stredoslovenská distribučná","operator:wikidata":"Q16517554","power":"tower"}},"power/transformer/ceps-ecf5fe":{"name":"ČEPS","locationSet":{"include":["cz","de","pl","sk"]},"geometry":["point","vertex"],"matchScore":2,"terms":["čeps"],"tags":{"operator:wikidata":"Q11089927","power":"transformer"},"addTags":{"operator":"ČEPS","operator:wikidata":"Q11089927","power":"transformer"}},"power/transformer/cez-a48566":{"name":"ČEZ","locationSet":{"include":["cz","de","sk"]},"geometry":["point","vertex"],"matchScore":2,"terms":["čez","čez distribuce","čez distribuce, as"],"tags":{"operator:wikidata":"Q336735","power":"transformer"},"addTags":{"operator":"ČEZ","operator:wikidata":"Q336735","power":"transformer"}},"power/transformer/slovenskaelektrizacnaprenosovasustava-1cd5bf":{"name":"Slovenská elektrizačná prenosová sústava","locationSet":{"include":["sk"]},"geometry":["point","vertex"],"matchScore":2,"terms":["seps","slovenská elektrizačná prenosová sústava"],"tags":{"operator:wikidata":"Q12776245","power":"transformer"},"addTags":{"operator":"Slovenská elektrizačná prenosová sústava","operator:short":"SEPS","operator:wikidata":"Q12776245","power":"transformer"}},"power/transformer/stredoslovenskadistribucna-1cd5bf":{"name":"Stredoslovenská distribučná","locationSet":{"include":["sk"]},"geometry":["point","vertex"],"matchScore":2,"terms":["stredoslovenská distribučná","stredoslovenská distribučná, as"],"tags":{"operator:wikidata":"Q16517554","power":"transformer"},"addTags":{"operator":"Stredoslovenská distribučná","operator:wikidata":"Q16517554","power":"transformer"}},"power/transformer/vychodoslovenskaenergetika-1cd5bf":{"name":"Východoslovenská energetika","locationSet":{"include":["sk"]},"geometry":["point","vertex"],"matchScore":2,"terms":["vse","východoslovenská energetika"],"tags":{"operator:wikidata":"Q1368761","power":"transformer"},"addTags":{"operator":"Východoslovenská energetika","operator:short":"VSE","operator:wikidata":"Q1368761","power":"transformer"}},"power/transformer/zapadoslovenskadistribucna-1cd5bf":{"name":"Západoslovenská distribučná","locationSet":{"include":["sk"]},"geometry":["point","vertex"],"matchScore":2,"terms":["západoslovenská distribučná"],"tags":{"operator:wikidata":"Q108169353","power":"transformer"},"addTags":{"operator":"Západoslovenská distribučná","operator:wikidata":"Q108169353","power":"transformer"}},"type/route/power/ceps-3c5842":{"name":"ČEPS","locationSet":{"include":["cz","de","pl","sk"]},"geometry":["relation"],"matchScore":2,"terms":["čeps"],"reference":{"key":"route","value":"power"},"tags":{"operator:wikidata":"Q11089927","route":"power","type":"route"},"addTags":{"operator":"ČEPS","operator:wikidata":"Q11089927","route":"power","type":"route"}},"type/route/power/cez-e79b22":{"name":"ČEZ","locationSet":{"include":["cz","de","sk"]},"geometry":["relation"],"matchScore":2,"terms":["čez","čez distribuce","čez distribuce, as"],"reference":{"key":"route","value":"power"},"tags":{"operator:wikidata":"Q336735","route":"power","type":"route"},"addTags":{"operator":"ČEZ","operator:wikidata":"Q336735","route":"power","type":"route"}},"type/route/railway/zsr-ae10a0":{"name":"ŽSR","locationSet":{"include":["sk"]},"geometry":["relation"],"matchScore":2,"terms":["žsr"],"reference":{"key":"route","value":"railway"},"tags":{"operator:wikidata":"Q393524","route":"railway","type":"route"},"addTags":{"operator":"ŽSR","operator:wikidata":"Q393524","route":"railway","type":"route"}},"type/route/railway/zssk-ae10a0":{"name":"ZSSK","locationSet":{"include":["sk"]},"geometry":["relation"],"matchScore":2,"terms":["zssk"],"reference":{"key":"route","value":"railway"},"tags":{"operator:wikidata":"Q393557","route":"railway","type":"route"},"addTags":{"operator":"ZSSK","operator:wikidata":"Q393557","route":"railway","type":"route"}},"shop/mall/unibailrodamcowestfield-1448a2":{"name":"Unibail-Rodamco-Westfield","locationSet":{"include":["at","be","cz","de","dk","es","fr","gb","it","nl","pl","se","sk","us"]},"geometry":["point","area"],"matchScore":2,"terms":["unibail-rodamco-westfield"],"tags":{"operator:wikidata":"Q608518","shop":"mall"},"addTags":{"operator":"Unibail-Rodamco-Westfield","operator:wikidata":"Q608518","shop":"mall"}},"telecom/exchange/interoute-58ec5d":{"name":"Interoute","locationSet":{"include":["by","bg","cz","hu","pl","md","ro","ru","sk","ua","ax","gg","je","cq","dk","ee","fo","fi","is","ie","im","lv","lt","no","sj","se","gb","al","ad","ba","hr","gi","gr","va","it","mt","me","mk","pt","sm","rs","si","es","xk","at","be","fr","de","li","lu","mc","nl","ch"]},"geometry":["point","area"],"matchScore":2,"terms":["interoute"],"fields":["name","operator","{telecom/exchange}"],"tags":{"operator:wikidata":"Q1668090","telecom":"exchange"},"addTags":{"operator":"Interoute","operator:wikidata":"Q1668090","telecom":"exchange"}},"public_transport/platform/bus_point/flixbus-f5b4b3":{"name":"Flixbus","locationSet":{"include":["by","bg","cz","hu","pl","md","ro","ru","sk","ua","ax","gg","je","cq","dk","ee","fo","fi","is","ie","im","lv","lt","no","sj","se","gb","al","ad","ba","hr","gi","gr","va","it","mt","me","mk","pt","sm","rs","si","es","xk","at","be","fr","de","li","lu","mc","nl","ch","br","ca","us"]},"geometry":["point","vertex"],"matchScore":2,"terms":["flixbus"],"reference":{"key":"public_transport","value":"platform"},"tags":{"bus":"yes","network:wikidata":"Q15712258","public_transport":"platform"},"addTags":{"bus":"yes","highway":"bus_stop","network":"Flixbus","network:wikidata":"Q15712258","public_transport":"platform"}},"public_transport/platform/bus_point/idsbk-5f8357":{"name":"IDS BK","locationSet":{"include":["at","cz","sk"]},"geometry":["point","vertex"],"matchScore":2,"terms":["ids bk"],"reference":{"key":"public_transport","value":"platform"},"tags":{"bus":"yes","network:wikidata":"Q4241634","public_transport":"platform"},"addTags":{"bus":"yes","highway":"bus_stop","network":"IDS BK","network:wikidata":"Q4241634","public_transport":"platform"}},"public_transport/platform/bus_point/idsjmk-5f8357":{"name":"IDS JMK","locationSet":{"include":["at","cz","sk"]},"geometry":["point","vertex"],"matchScore":2,"terms":["ids jmk"],"reference":{"key":"public_transport","value":"platform"},"tags":{"bus":"yes","network:wikidata":"Q12020731","public_transport":"platform"},"addTags":{"bus":"yes","highway":"bus_stop","network":"IDS JMK","network:wikidata":"Q12020731","public_transport":"platform"}},"public_transport/platform/bus_point/mhdbratislava-78b59b":{"name":"MHD Bratislava","locationSet":{"include":["at","hu","sk"]},"geometry":["point","vertex"],"matchScore":2,"terms":["mhd bratislava"],"reference":{"key":"public_transport","value":"platform"},"tags":{"bus":"yes","network:wikidata":"Q7258005","public_transport":"platform"},"addTags":{"bus":"yes","highway":"bus_stop","network":"MHD Bratislava","network:wikidata":"Q7258005","public_transport":"platform"}},"public_transport/platform/bus_point/mhdkosice-de2bb4":{"name":"MHD Košice","locationSet":{"include":["sk"]},"geometry":["point","vertex"],"matchScore":2,"terms":["dpmk","mhd košice"],"reference":{"key":"public_transport","value":"platform"},"tags":{"bus":"yes","network:wikidata":"Q104904552","public_transport":"platform"},"addTags":{"bus":"yes","highway":"bus_stop","network":"MHD Košice","network:wikidata":"Q104904552","operator":"DPMK","operator:wikidata":"Q2265496","public_transport":"platform"}},"public_transport/platform/bus_point/vor-f355a5":{"name":"VOR","locationSet":{"include":["at","cz","hu","sk"]},"geometry":["point","vertex"],"matchScore":2,"terms":["vor"],"reference":{"key":"public_transport","value":"platform"},"tags":{"bus":"yes","network:wikidata":"Q2516485","public_transport":"platform"},"addTags":{"bus":"yes","highway":"bus_stop","network":"VOR","network:wikidata":"Q2516485","public_transport":"platform"}},"railway/station/eurocity-170b77":{"name":"EuroCity","locationSet":{"include":["by","bg","cz","hu","pl","md","ro","ru","sk","ua","ax","gg","je","cq","dk","ee","fo","fi","is","ie","im","lv","lt","no","sj","se","gb","al","ad","ba","hr","gi","gr","va","it","mt","me","mk","pt","sm","rs","si","es","xk","at","be","fr","de","li","lu","mc","nl","ch"]},"geometry":["point","vertex","area"],"matchScore":2,"terms":["eurocity"],"tags":{"network:wikidata":"Q753050","railway":"station"},"addTags":{"network":"EuroCity","network:wikidata":"Q753050","public_transport":"station","railway":"station","train":"yes"}},"railway/station/euronight-170b77":{"name":"EuroNight","locationSet":{"include":["by","bg","cz","hu","pl","md","ro","ru","sk","ua","ax","gg","je","cq","dk","ee","fo","fi","is","ie","im","lv","lt","no","sj","se","gb","al","ad","ba","hr","gi","gr","va","it","mt","me","mk","pt","sm","rs","si","es","xk","at","be","fr","de","li","lu","mc","nl","ch"]},"geometry":["point","vertex","area"],"matchScore":2,"terms":["euronight"],"tags":{"network:wikidata":"Q257307","railway":"station"},"addTags":{"network":"EuroNight","network:wikidata":"Q257307","public_transport":"station","railway":"station","train":"yes"}},"railway/station/idsbk-c762c7":{"name":"IDS BK","locationSet":{"include":["sk"]},"geometry":["point","vertex","area"],"matchScore":2,"terms":["ids bk"],"tags":{"network:wikidata":"Q4241634","railway":"station"},"addTags":{"network":"IDS BK","network:wikidata":"Q4241634","public_transport":"station","railway":"station","train":"yes"}},"railway/station/vor-24bd93":{"name":"VOR","locationSet":{"include":["at","cz","hu","sk"]},"geometry":["point","vertex","area"],"matchScore":2,"terms":["vor"],"tags":{"network:wikidata":"Q2516485","railway":"station"},"addTags":{"network":"VOR","network:wikidata":"Q2516485","public_transport":"station","railway":"station","train":"yes"}},"railway/station/zssk-c762c7":{"name":"ZSSK","locationSet":{"include":["sk"]},"geometry":["point","vertex","area"],"matchScore":2,"terms":["zssk"],"tags":{"network:wikidata":"Q837019","railway":"station"},"addTags":{"network":"ZSSK","network:wikidata":"Q837019","operator":"ZSSK","operator:wikidata":"Q393557","public_transport":"station","railway":"station","train":"yes"}},"railway/tram_stop/mhdbratislava-8efa2f":{"name":"MHD Bratislava","locationSet":{"include":["sk"]},"geometry":["vertex"],"matchScore":2,"terms":["dpb","mhd bratislava"],"tags":{"network:wikidata":"Q7258005","railway":"tram_stop"},"addTags":{"network":"MHD Bratislava","network:wikidata":"Q7258005","operator":"DPB","operator:wikidata":"Q685601","railway":"tram_stop"}},"railway/tram_stop/mhdkosice-8efa2f":{"name":"MHD Košice","locationSet":{"include":["sk"]},"geometry":["vertex"],"matchScore":2,"terms":["dpmk","mhd košice"],"tags":{"network:wikidata":"Q104904552","railway":"tram_stop"},"addTags":{"network":"MHD Košice","network:wikidata":"Q104904552","operator":"DPMK","operator:wikidata":"Q2265496","railway":"tram_stop"}},"type/route/bus/flixbus-8cc9ca":{"name":"Flixbus","locationSet":{"include":["by","bg","cz","hu","pl","md","ro","ru","sk","ua","ax","gg","je","cq","dk","ee","fo","fi","is","ie","im","lv","lt","no","sj","se","gb","al","ad","ba","hr","gi","gr","va","it","mt","me","mk","pt","sm","rs","si","es","xk","at","be","fr","de","li","lu","mc","nl","ch","br","ca","us"]},"geometry":["relation"],"matchScore":2,"terms":["flixbus"],"reference":{"key":"route","value":"bus"},"tags":{"network:wikidata":"Q15712258","route":"bus","type":"route"},"addTags":{"network":"Flixbus","network:wikidata":"Q15712258","route":"bus","type":"route"}},"type/route/bus/idsbk-151bbe":{"name":"IDS BK","locationSet":{"include":["at","cz","sk"]},"geometry":["relation"],"matchScore":2,"terms":["ids bk"],"reference":{"key":"route","value":"bus"},"tags":{"network:wikidata":"Q4241634","route":"bus","type":"route"},"addTags":{"network":"IDS BK","network:wikidata":"Q4241634","route":"bus","type":"route"}},"type/route/bus/idsjmk-151bbe":{"name":"IDS JMK","locationSet":{"include":["at","cz","sk"]},"geometry":["relation"],"matchScore":2,"terms":["ids jmk"],"reference":{"key":"route","value":"bus"},"tags":{"network:wikidata":"Q12020731","route":"bus","type":"route"},"addTags":{"network":"IDS JMK","network:wikidata":"Q12020731","route":"bus","type":"route"}},"type/route/bus/mhdbratislava-5363ca":{"name":"MHD Bratislava","locationSet":{"include":["at","hu","sk"]},"geometry":["relation"],"matchScore":2,"terms":["mhd bratislava"],"reference":{"key":"route","value":"bus"},"tags":{"network:wikidata":"Q7258005","route":"bus","type":"route"},"addTags":{"network":"MHD Bratislava","network:wikidata":"Q7258005","route":"bus","type":"route"}},"type/route/bus/mhdkosice-51c51c":{"name":"MHD Košice","locationSet":{"include":["sk"]},"geometry":["relation"],"matchScore":2,"terms":["dpmk","mhd košice"],"reference":{"key":"route","value":"bus"},"tags":{"network:wikidata":"Q104904552","route":"bus","type":"route"},"addTags":{"network":"MHD Košice","network:wikidata":"Q104904552","operator":"DPMK","operator:wikidata":"Q2265496","route":"bus","type":"route"}},"type/route/bus/vor-df49c7":{"name":"VOR","locationSet":{"include":["at","cz","hu","sk"]},"geometry":["relation"],"matchScore":2,"terms":["vor"],"reference":{"key":"route","value":"bus"},"tags":{"network:wikidata":"Q2516485","route":"bus","type":"route"},"addTags":{"network":"VOR","network:wikidata":"Q2516485","route":"bus","type":"route"}},"type/route/train/eurocity-6b9d23":{"name":"EuroCity","locationSet":{"include":["by","bg","cz","hu","pl","md","ro","ru","sk","ua","ax","gg","je","cq","dk","ee","fo","fi","is","ie","im","lv","lt","no","sj","se","gb","al","ad","ba","hr","gi","gr","va","it","mt","me","mk","pt","sm","rs","si","es","xk","at","be","fr","de","li","lu","mc","nl","ch"]},"geometry":["relation"],"matchScore":2,"terms":["eurocity"],"reference":{"key":"route","value":"train"},"tags":{"network:wikidata":"Q753050","route":"train","type":"route"},"addTags":{"network":"EuroCity","network:wikidata":"Q753050","route":"train","type":"route"}},"type/route/train/euronight-6b9d23":{"name":"EuroNight","locationSet":{"include":["by","bg","cz","hu","pl","md","ro","ru","sk","ua","ax","gg","je","cq","dk","ee","fo","fi","is","ie","im","lv","lt","no","sj","se","gb","al","ad","ba","hr","gi","gr","va","it","mt","me","mk","pt","sm","rs","si","es","xk","at","be","fr","de","li","lu","mc","nl","ch"]},"geometry":["relation"],"matchScore":2,"terms":["euronight"],"reference":{"key":"route","value":"train"},"tags":{"network:wikidata":"Q257307","route":"train","type":"route"},"addTags":{"network":"EuroNight","network:wikidata":"Q257307","route":"train","type":"route"}},"type/route/train/idsbk-b6707b":{"name":"IDS BK","locationSet":{"include":["sk"]},"geometry":["relation"],"matchScore":2,"terms":["ids bk"],"reference":{"key":"route","value":"train"},"tags":{"network:wikidata":"Q4241634","route":"train","type":"route"},"addTags":{"network":"IDS BK","network:wikidata":"Q4241634","route":"train","type":"route"}},"type/route/train/vor-5316b2":{"name":"VOR","locationSet":{"include":["at","cz","hu","sk"]},"geometry":["relation"],"matchScore":2,"terms":["vor"],"reference":{"key":"route","value":"train"},"tags":{"network:wikidata":"Q2516485","route":"train","type":"route"},"addTags":{"network":"VOR","network:wikidata":"Q2516485","route":"train","type":"route"}},"type/route/train/zssk-b6707b":{"name":"ZSSK","locationSet":{"include":["sk"]},"geometry":["relation"],"matchScore":2,"terms":["zssk"],"reference":{"key":"route","value":"train"},"tags":{"network:wikidata":"Q837019","route":"train","type":"route"},"addTags":{"network":"ZSSK","network:wikidata":"Q837019","operator":"ZSSK","operator:wikidata":"Q393557","route":"train","type":"route"}},"type/route/tram/mhdbratislava-d52db4":{"name":"MHD Bratislava","locationSet":{"include":["sk"]},"geometry":["relation"],"matchScore":2,"terms":["dpb","mhd bratislava"],"reference":{"key":"route","value":"tram"},"tags":{"network:wikidata":"Q7258005","route":"tram","type":"route"},"addTags":{"network":"MHD Bratislava","network:wikidata":"Q7258005","operator":"DPB","operator:wikidata":"Q685601","route":"tram","type":"route"}},"type/route/tram/mhdkosice-d52db4":{"name":"MHD Košice","locationSet":{"include":["sk"]},"geometry":["relation"],"matchScore":2,"terms":["dpmk","mhd košice"],"reference":{"key":"route","value":"tram"},"tags":{"network:wikidata":"Q104904552","route":"tram","type":"route"},"addTags":{"network":"MHD Košice","network:wikidata":"Q104904552","operator":"DPMK","operator:wikidata":"Q2265496","route":"tram","type":"route"}},"type/route/trolleybus/mhdbratislava-acc88b":{"name":"MHD Bratislava","locationSet":{"include":["sk"]},"geometry":["relation"],"matchScore":2,"terms":["dpb","mhd bratislava"],"reference":{"key":"route","value":"trolleybus"},"tags":{"network:wikidata":"Q7258005","route":"trolleybus","type":"route"},"addTags":{"network":"MHD Bratislava","network:wikidata":"Q7258005","operator":"DPB","operator:wikidata":"Q685601","route":"trolleybus","type":"route"}}}