{"amenity/atm/acba-056506":{"name":"ACBA","locationSet":{"include":["am"]},"geometry":["point","vertex"],"matchScore":2,"terms":["acba","акба","ակբա"],"fields":["name","brand","{amenity/atm}"],"tags":{"amenity":"atm","brand:wikidata":"Q55602923"},"addTags":{"amenity":"atm","brand":"ԱԿԲԱ","brand:en":"ACBA","brand:hy":"ԱԿԲԱ","brand:ru":"АКБА","brand:wikidata":"Q55602923","name:en":"ACBA","name:hy":"ԱԿԲԱ","name:ru":"АКБА","operator":"ԱԿԲԱ","operator:wikidata":"Q55602923"}},"amenity/atm/ameriabank-056506":{"name":"Ameriabank","locationSet":{"include":["am"]},"geometry":["point","vertex"],"matchScore":2,"terms":["ameriabank","америабанк","ամերիաբանկ"],"fields":["name","brand","{amenity/atm}"],"tags":{"amenity":"atm","brand:wikidata":"Q4742492"},"addTags":{"amenity":"atm","brand":"Ամերիաբանկ","brand:en":"Ameriabank","brand:hy":"Ամերիաբանկ","brand:ru":"Америабанк","brand:wikidata":"Q4742492","name:en":"Ameriabank","name:hy":"Ամերիաբանկ","name:ru":"Америабанк","operator":"Ամերիաբանկ","operator:wikidata":"Q4742492"}},"amenity/atm/araratbank-056506":{"name":"Araratbank","locationSet":{"include":["am"]},"geometry":["point","vertex"],"matchScore":2,"terms":["araratbank","араратбанк","արարատբանկ"],"fields":["name","brand","{amenity/atm}"],"tags":{"amenity":"atm","brand:wikidata":"Q56000968"},"addTags":{"amenity":"atm","brand":"Արարատբանկ","brand:en":"Araratbank","brand:hy":"Արարատբանկ","brand:ru":"Араратбанк","brand:wikidata":"Q56000968","name:en":"Araratbank","name:hy":"Արարատբանկ","name:ru":"Араратбанк","operator":"Արարատբանկ","operator:wikidata":"Q56000968"}},"amenity/atm/ardshinbank-056506":{"name":"Ardshinbank","locationSet":{"include":["am"]},"geometry":["point","vertex"],"matchScore":2,"terms":["ardshinbank","ардшинбанк","արդշինբանկ"],"fields":["name","brand","{amenity/atm}"],"tags":{"amenity":"atm","brand:wikidata":"Q4787755"},"addTags":{"amenity":"atm","brand":"Արդշինբանկ","brand:en":"Ardshinbank","brand:hy":"Արդշինբանկ","brand:ru":"Ардшинбанк","brand:wikidata":"Q4787755","name:en":"Ardshinbank","name:hy":"Արդշինբանկ","name:ru":"Ардшинбанк","operator":"Արդշինբանկ","operator:wikidata":"Q4787755"}},"amenity/atm/armbusinessbank-056506":{"name":"Armbusinessbank","locationSet":{"include":["am"]},"geometry":["point","vertex"],"matchScore":2,"terms":["abb","armbusinessbank","абб","армбизнесбанк","հայբիզնեսբանկ","հբբ"],"fields":["name","brand","{amenity/atm}"],"tags":{"amenity":"atm","brand:wikidata":"Q111109064"},"addTags":{"amenity":"atm","brand":"Հայբիզնեսբանկ","brand:en":"Armbusinessbank","brand:hy":"Հայբիզնեսբանկ","brand:ru":"Армбизнесбанк","brand:wikidata":"Q111109064","name:en":"Armbusinessbank","name:hy":"Հայբիզնեսբանկ","name:ru":"Армбизнесбанк","operator":"Հայբիզնեսբանկ","operator:wikidata":"Q111109064","short_name":"ՀԲԲ","short_name:en":"ABB","short_name:hy":"ՀԲԲ","short_name:ru":"АББ"}},"amenity/atm/armeconombank-056506":{"name":"Armeconombank","locationSet":{"include":["am"]},"geometry":["point","vertex"],"matchScore":2,"terms":["aeb","armeconombank","армэкономбанк","аэб","հայէկոնոմբանկ","հէբ"],"fields":["name","brand","{amenity/atm}"],"tags":{"amenity":"atm","brand:wikidata":"Q60609529"},"addTags":{"amenity":"atm","brand":"Հայէկոնոմբանկ","brand:en":"Armeconombank","brand:hy":"Հայէկոնոմբանկ","brand:ru":"Армэкономбанк","brand:wikidata":"Q60609529","name:en":"Armeconombank","name:hy":"Հայէկոնոմբանկ","name:ru":"Армэкономбанк","operator":"Հայէկոնոմբանկ","operator:wikidata":"Q60609529","short_name":"ՀԷԲ","short_name:en":"AEB","short_name:hy":"ՀԷԲ","short_name:ru":"АЭБ"}},"amenity/atm/armswissbank-056506":{"name":"ArmSwissBank","locationSet":{"include":["am"]},"geometry":["point","vertex"],"matchScore":2,"terms":["armswissbank","армсвисбанк","արմսվիսբանկ"],"fields":["name","brand","{amenity/atm}"],"tags":{"amenity":"atm","brand:wikidata":"Q4792453"},"addTags":{"amenity":"atm","brand":"Արմսվիսբանկ","brand:en":"ArmSwissBank","brand:hy":"Արմսվիսբանկ","brand:ru":"Армсвисбанк","brand:wikidata":"Q4792453","name:en":"ArmSwissBank","name:hy":"Արմսվիսբանկ","name:ru":"Армсвисбанк","operator":"Արմսվիսբանկ","operator:wikidata":"Q4792453"}},"amenity/atm/artsakhbank-056506":{"name":"Artsakhbank","locationSet":{"include":["am"]},"geometry":["point","vertex"],"matchScore":2,"terms":["artsakhbank","арцахбанк","արցախբանկ"],"fields":["name","brand","{amenity/atm}"],"tags":{"amenity":"atm","brand:wikidata":"Q4070920"},"addTags":{"amenity":"atm","brand":"Արցախբանկ","brand:en":"Artsakhbank","brand:hy":"Արցախբանկ","brand:ru":"Арцахбанк","brand:wikidata":"Q4070920","name:en":"Artsakhbank","name:hy":"Արցախբանկ","name:ru":"Арцахбанк","operator":"Արցախբանկ","operator:wikidata":"Q4070920"}},"amenity/atm/byblosbankarmenia-056506":{"name":"Byblos Bank Armenia","locationSet":{"include":["am"]},"geometry":["point","vertex"],"matchScore":2,"terms":["byblos bank armenia","библос банк армения","բիբլոս բանկ արմենիա"],"fields":["name","brand","{amenity/atm}"],"tags":{"amenity":"atm","brand:wikidata":"Q117622807"},"addTags":{"amenity":"atm","brand":"Բիբլոս Բանկ Արմենիա","brand:en":"Byblos Bank Armenia","brand:hy":"Բիբլոս Բանկ Արմենիա","brand:ru":"Библос Банк Армения","brand:wikidata":"Q117622807","name:en":"Byblos Bank Armenia","name:hy":"Բիբլոս Բանկ Արմենիա","name:ru":"Библос Банк Армения","operator":"Բիբլոս Բանկ Արմենիա","operator:wikidata":"Q117622807"}},"amenity/atm/conversebank-056506":{"name":"Converse Bank","locationSet":{"include":["am"]},"geometry":["point","vertex"],"matchScore":2,"terms":["converse bank","конверс банк","կոնվերս բանկ"],"fields":["name","brand","{amenity/atm}"],"tags":{"amenity":"atm","brand:wikidata":"Q116032580"},"addTags":{"amenity":"atm","brand":"Կոնվերս Բանկ","brand:en":"Converse Bank","brand:hy":"Կոնվերս Բանկ","brand:ru":"Конверс Банк","brand:wikidata":"Q116032580","name:en":"Converse Bank","name:hy":"Կոնվերս Բանկ","name:ru":"Конверс Банк","operator":"Կոնվերս Բանկ","operator:wikidata":"Q116032580"}},"amenity/atm/evocabank-056506":{"name":"Evocabank","locationSet":{"include":["am"]},"geometry":["point","vertex"],"matchScore":2,"terms":["evocabank","эвокабанк","էվոկաբանկ"],"fields":["name","brand","{amenity/atm}"],"tags":{"amenity":"atm","brand:wikidata":"Q17765349"},"addTags":{"amenity":"atm","brand":"Էվոկաբանկ","brand:en":"Evocabank","brand:hy":"Էվոկաբանկ","brand:ru":"Эвокабанк","brand:wikidata":"Q17765349","name:en":"Evocabank","name:hy":"Էվոկաբանկ","name:ru":"Эвокабанк","operator":"Էվոկաբանկ","operator:wikidata":"Q17765349"}},"amenity/atm/fastbank-056506":{"name":"Fast Bank","locationSet":{"include":["am"]},"geometry":["point","vertex"],"matchScore":2,"terms":["fast bank","фаст банк","ֆասթ բանկ"],"fields":["name","brand","{amenity/atm}"],"tags":{"amenity":"atm","brand:wikidata":"Q117804528"},"addTags":{"amenity":"atm","brand":"Ֆասթ Բանկ","brand:en":"Fast Bank","brand:hy":"Ֆասթ Բանկ","brand:ru":"Фаст Банк","brand:wikidata":"Q117804528","name:en":"Fast Bank","name:hy":"Ֆասթ Բանկ","name:ru":"Фаст Банк","operator":"Ֆասթ Բանկ","operator:wikidata":"Q117804528"}},"amenity/atm/hsbc-056506":{"name":"HSBC Armenia","locationSet":{"include":["am"]},"geometry":["point","vertex"],"matchScore":2,"terms":["hsbc","эйдж-эс-би-си","էյչ-էս-բի-սի"],"fields":["name","brand","{amenity/atm}"],"tags":{"amenity":"atm","brand:wikidata":"Q190464"},"addTags":{"amenity":"atm","brand":"Էյչ-Էս-Բի-Սի","brand:en":"HSBC","brand:hy":"Էյչ-Էս-Բի-Սի","brand:ru":"Эйдж-Эс-Би-Си","brand:wikidata":"Q190464","name:en":"HSBC","name:hy":"Էյչ-Էս-Բի-Սի","name:ru":"Эйдж-Эс-Би-Си","operator":"Էյչ-Էս-Բի-Սի","operator:wikidata":"Q190464"}},"amenity/atm/idbank-056506":{"name":"ID Bank","locationSet":{"include":["am"]},"geometry":["point","vertex"],"matchScore":2,"terms":["id bank","айди банк","այդի բանկ"],"fields":["name","brand","{amenity/atm}"],"tags":{"amenity":"atm","brand:wikidata":"Q19604320"},"addTags":{"amenity":"atm","brand":"ԱյԴի Բանկ","brand:wikidata":"Q19604320","name:en":"ID Bank","name:hy":"ԱյԴի Բանկ","name:ru":"АйДи Банк","operator":"ԱյԴի Բանկ","operator:wikidata":"Q19604320"}},"amenity/atm/inecobank-056506":{"name":"Inecobank","locationSet":{"include":["am"]},"geometry":["point","vertex"],"matchScore":2,"terms":["inecobank","инекобанк","ինեկոբանկ"],"fields":["name","brand","{amenity/atm}"],"tags":{"amenity":"atm","brand:wikidata":"Q55614443"},"addTags":{"amenity":"atm","brand":"Ինեկոբանկ","brand:en":"Inecobank","brand:hy":"Ինեկոբանկ","brand:ru":"Инекобанк","brand:wikidata":"Q55614443","name:en":"Inecobank","name:hy":"Ինեկոբանկ","name:ru":"Инекобанк","operator":"Ինեկոբանկ","operator:wikidata":"Q55614443"}},"amenity/atm/mellatbank-056506":{"name":"Mellat Bank","locationSet":{"include":["am"]},"geometry":["point","vertex"],"matchScore":2,"terms":["mellat bank","меллат банк","մելլաթ բանկ"],"fields":["name","brand","{amenity/atm}"],"tags":{"amenity":"atm","brand:wikidata":"Q116224526"},"addTags":{"amenity":"atm","brand":"Մելլաթ Բանկ","brand:en":"Mellat Bank","brand:hy":"Մելլաթ Բանկ","brand:ru":"Меллат Банк","brand:wikidata":"Q116224526","name:en":"Mellat Bank","name:hy":"Մելլաթ Բանկ","name:ru":"Меллат Банк","operator":"Մելլաթ Բանկ","operator:wikidata":"Q116224526"}},"amenity/atm/unibank-056506":{"name":"Unibank","locationSet":{"include":["am"]},"geometry":["point","vertex"],"matchScore":2,"terms":["unibank","юнибанк","յունիբանկ"],"fields":["name","brand","{amenity/atm}"],"tags":{"amenity":"atm","brand:wikidata":"Q116033349"},"addTags":{"amenity":"atm","brand":"Յունիբանկ","brand:en":"Unibank","brand:hy":"Յունիբանկ","brand:ru":"Юнибанк","brand:wikidata":"Q116033349","name:en":"Unibank","name:hy":"Յունիբանկ","name:ru":"Юнибанк","operator":"Յունիբանկ","operator:wikidata":"Q116033349"}},"amenity/atm/vtb-056506":{"name":"VTB Armenia","locationSet":{"include":["am"]},"geometry":["point","vertex"],"matchScore":2,"terms":["vtb","втб","վտբ"],"fields":["name","brand","{amenity/atm}"],"tags":{"amenity":"atm","brand:wikidata":"Q85983660"},"addTags":{"amenity":"atm","brand":"ՎՏԲ","brand:en":"VTB","brand:hy":"ՎՏԲ","brand:ru":"ВТБ","brand:wikidata":"Q85983660","name:en":"VTB","name:hy":"ՎՏԲ","name:ru":"ВТБ","operator":"ՎՏԲ","operator:wikidata":"Q85983660"}},"amenity/bank/acba-9c44ae":{"name":"ACBA","locationSet":{"include":["am"]},"geometry":["point","area"],"matchScore":2,"terms":["acba","акба","ակբա"],"tags":{"amenity":"bank","brand:wikidata":"Q55602923"},"addTags":{"amenity":"bank","brand":"ԱԿԲԱ","brand:en":"ACBA","brand:hy":"ԱԿԲԱ","brand:ru":"АКБА","brand:wikidata":"Q55602923","name":"ԱԿԲԱ","name:en":"ACBA","name:hy":"ԱԿԲԱ","name:ru":"АКБА"}},"amenity/bank/ameriabank-9c44ae":{"name":"Ameriabank","locationSet":{"include":["am"]},"geometry":["point","area"],"matchScore":2,"terms":["ameriabank","америабанк","ամերիաբանկ"],"tags":{"amenity":"bank","brand:wikidata":"Q4742492"},"addTags":{"amenity":"bank","brand":"Ամերիաբանկ","brand:en":"Ameriabank","brand:hy":"Ամերիաբանկ","brand:ru":"Америабанк","brand:wikidata":"Q4742492","name":"Ամերիաբանկ","name:en":"Ameriabank","name:hy":"Ամերիաբանկ","name:ru":"Америабанк"}},"amenity/bank/araratbank-9c44ae":{"name":"Araratbank","locationSet":{"include":["am"]},"geometry":["point","area"],"matchScore":2,"terms":["araratbank","араратбанк","արարատբանկ"],"tags":{"amenity":"bank","brand:wikidata":"Q56000968"},"addTags":{"amenity":"bank","brand":"Արարատբանկ","brand:en":"Araratbank","brand:hy":"Արարատբանկ","brand:ru":"Араратбанк","brand:wikidata":"Q56000968","name":"Արարատբանկ","name:en":"Araratbank","name:hy":"Արարատբանկ","name:ru":"Араратбанк"}},"amenity/bank/ardshinbank-9c44ae":{"name":"Ardshinbank","locationSet":{"include":["am"]},"geometry":["point","area"],"matchScore":2,"terms":["ardshinbank","ардшинбанк","արդշինբանկ"],"tags":{"amenity":"bank","brand:wikidata":"Q4787755"},"addTags":{"amenity":"bank","brand":"Արդշինբանկ","brand:en":"Ardshinbank","brand:hy":"Արդշինբանկ","brand:ru":"Ардшинбанк","brand:wikidata":"Q4787755","name":"Արդշինբանկ","name:en":"Ardshinbank","name:hy":"Արդշինբանկ","name:ru":"Ардшинбанк"}},"amenity/bank/armbusinessbank-9c44ae":{"name":"Armbusinessbank","locationSet":{"include":["am"]},"geometry":["point","area"],"matchScore":2,"terms":["abb","armbusinessbank","абб","армбизнесбанк","հայբիզնեսբանկ","հբբ"],"tags":{"amenity":"bank","brand:wikidata":"Q111109064"},"addTags":{"amenity":"bank","brand":"Հայբիզնեսբանկ","brand:en":"Armbusinessbank","brand:hy":"Հայբիզնեսբանկ","brand:ru":"Армбизнесбанк","brand:wikidata":"Q111109064","name":"Հայբիզնեսբանկ","name:en":"Armbusinessbank","name:hy":"Հայբիզնեսբանկ","name:ru":"Армбизнесбанк","short_name":"ՀԲԲ","short_name:en":"ABB","short_name:hy":"ՀԲԲ","short_name:ru":"АББ"}},"amenity/bank/armeconombank-9c44ae":{"name":"Armeconombank","locationSet":{"include":["am"]},"geometry":["point","area"],"matchScore":2,"terms":["aeb","armeconombank","армэкономбанк","аэб","հայէկոնոմբանկ","հէբ"],"tags":{"amenity":"bank","brand:wikidata":"Q60609529"},"addTags":{"amenity":"bank","brand":"Հայէկոնոմբանկ","brand:en":"Armeconombank","brand:hy":"Հայէկոնոմբանկ","brand:ru":"Армэкономбанк","brand:wikidata":"Q60609529","name":"Հայէկոնոմբանկ","name:en":"Armeconombank","name:hy":"Հայէկոնոմբանկ","name:ru":"Армэкономбанк","short_name":"ՀԷԲ","short_name:en":"AEB","short_name:hy":"ՀԷԲ","short_name:ru":"АЭБ"}},"amenity/bank/armswissbank-9c44ae":{"name":"ArmSwissBank","locationSet":{"include":["am"]},"geometry":["point","area"],"matchScore":2,"terms":["armswissbank","армсвисбанк","արմսվիսբանկ"],"tags":{"amenity":"bank","brand:wikidata":"Q4792453"},"addTags":{"amenity":"bank","brand":"Արմսվիսբանկ","brand:en":"ArmSwissBank","brand:hy":"Արմսվիսբանկ","brand:ru":"Армсвисбанк","brand:wikidata":"Q4792453","name":"Արմսվիսբանկ","name:en":"ArmSwissBank","name:hy":"Արմսվիսբանկ","name:ru":"Армсвисбанк"}},"amenity/bank/artsakhbank-9c44ae":{"name":"Artsakhbank","locationSet":{"include":["am"]},"geometry":["point","area"],"matchScore":2,"terms":["artsakhbank","арцахбанк","արցախբանկ"],"tags":{"amenity":"bank","brand:wikidata":"Q4070920"},"addTags":{"amenity":"bank","brand":"Արցախբանկ","brand:en":"Artsakhbank","brand:hy":"Արցախբանկ","brand:ru":"Арцахбанк","brand:wikidata":"Q4070920","name":"Արցախբանկ","name:en":"Artsakhbank","name:hy":"Արցախբանկ","name:ru":"Арцахбанк"}},"amenity/bank/byblosbankarmenia-9c44ae":{"name":"Byblos Bank Armenia","locationSet":{"include":["am"]},"geometry":["point","area"],"matchScore":2,"terms":["byblos bank armenia","библос банк армения","բիբլոս բանկ արմենիա"],"tags":{"amenity":"bank","brand:wikidata":"Q117622807"},"addTags":{"amenity":"bank","brand":"Բիբլոս Բանկ Արմենիա","brand:en":"Byblos Bank Armenia","brand:hy":"Բիբլոս Բանկ Արմենիա","brand:ru":"Библос Банк Армения","brand:wikidata":"Q117622807","name":"Բիբլոս Բանկ Արմենիա","name:en":"Byblos Bank Armenia","name:hy":"Բիբլոս Բանկ Արմենիա","name:ru":"Библос Банк Армения"}},"amenity/bank/conversebank-9c44ae":{"name":"Converse Bank","locationSet":{"include":["am"]},"geometry":["point","area"],"matchScore":2,"terms":["converse bank","конверс банк","կոնվերս բանկ"],"tags":{"amenity":"bank","brand:wikidata":"Q116032580"},"addTags":{"amenity":"bank","brand":"Կոնվերս Բանկ","brand:en":"Converse Bank","brand:hy":"Կոնվերս Բանկ","brand:ru":"Конверс Банк","brand:wikidata":"Q116032580","name":"Կոնվերս Բանկ","name:en":"Converse Bank","name:hy":"Կոնվերս Բանկ","name:ru":"Конверс Банк"}},"amenity/bank/evocabank-9c44ae":{"name":"Evocabank","locationSet":{"include":["am"]},"geometry":["point","area"],"matchScore":2,"terms":["evocabank","эвокабанк","էվոկաբանկ"],"tags":{"amenity":"bank","brand:wikidata":"Q17765349"},"addTags":{"amenity":"bank","brand":"Էվոկաբանկ","brand:en":"Evocabank","brand:hy":"Էվոկաբանկ","brand:ru":"Эвокабанк","brand:wikidata":"Q17765349","name":"Էվոկաբանկ","name:en":"Evocabank","name:hy":"Էվոկաբանկ","name:ru":"Эвокабанк"}},"amenity/bank/fastbank-9c44ae":{"name":"Fast Bank","locationSet":{"include":["am"]},"geometry":["point","area"],"matchScore":2,"terms":["fast bank","фаст банк","ֆասթ բանկ"],"tags":{"amenity":"bank","brand:wikidata":"Q117804528"},"addTags":{"amenity":"bank","brand":"Ֆասթ Բանկ","brand:en":"Fast Bank","brand:hy":"Ֆասթ Բանկ","brand:ru":"Фаст Банк","brand:wikidata":"Q117804528","name":"Ֆասթ Բանկ","name:en":"Fast Bank","name:hy":"Ֆասթ Բանկ","name:ru":"Фаст Банк"}},"amenity/bank/hsbc-9c44ae":{"name":"HSBC Armenia","locationSet":{"include":["am"]},"geometry":["point","area"],"matchScore":2,"terms":["hsbc","эйдж-эс-би-си","էյչ-էս-բի-սի"],"tags":{"amenity":"bank","brand:wikidata":"Q190464"},"addTags":{"amenity":"bank","brand":"Էյչ-Էս-Բի-Սի","brand:en":"HSBC","brand:hy":"Էյչ-Էս-Բի-Սի","brand:ru":"Эйдж-Эс-Би-Си","brand:wikidata":"Q190464","name":"Էյչ-Էս-Բի-Սի","name:en":"HSBC","name:hy":"Էյչ-Էս-Բի-Սի","name:ru":"Эйдж-Эс-Би-Си"}},"amenity/bank/idbank-9c44ae":{"name":"ID Bank","locationSet":{"include":["am"]},"geometry":["point","area"],"matchScore":2,"terms":["id bank","айди банк","այդի բանկ"],"tags":{"amenity":"bank","brand:wikidata":"Q19604320"},"addTags":{"amenity":"bank","brand":"ԱյԴի Բանկ","brand:wikidata":"Q19604320","name":"ԱյԴի Բանկ","name:en":"ID Bank","name:hy":"ԱյԴի Բանկ","name:ru":"АйДи Банк"}},"amenity/bank/inecobank-9c44ae":{"name":"Inecobank","locationSet":{"include":["am"]},"geometry":["point","area"],"matchScore":2,"terms":["inecobank","инекобанк","ինեկոբանկ"],"tags":{"amenity":"bank","brand:wikidata":"Q55614443"},"addTags":{"amenity":"bank","brand":"Ինեկոբանկ","brand:en":"Inecobank","brand:hy":"Ինեկոբանկ","brand:ru":"Инекобанк","brand:wikidata":"Q55614443","name":"Ինեկոբանկ","name:en":"Inecobank","name:hy":"Ինեկոբանկ","name:ru":"Инекобанк"}},"amenity/bank/mellatbank-9c44ae":{"name":"Mellat Bank","locationSet":{"include":["am"]},"geometry":["point","area"],"matchScore":2,"terms":["mellat bank","меллат банк","մելլաթ բանկ"],"tags":{"amenity":"bank","brand:wikidata":"Q116224526"},"addTags":{"amenity":"bank","brand":"Մելլաթ Բանկ","brand:en":"Mellat Bank","brand:hy":"Մելլաթ Բանկ","brand:ru":"Меллат Банк","brand:wikidata":"Q116224526","name":"Մելլաթ Բանկ","name:en":"Mellat Bank","name:hy":"Մելլաթ Բանկ","name:ru":"Меллат Банк"}},"amenity/bank/unibank-9c44ae":{"name":"Unibank","locationSet":{"include":["am"]},"geometry":["point","area"],"matchScore":2,"terms":["unibank","юнибанк","յունիբանկ"],"tags":{"amenity":"bank","brand:wikidata":"Q116033349"},"addTags":{"amenity":"bank","brand":"Յունիբանկ","brand:en":"Unibank","brand:hy":"Յունիբանկ","brand:ru":"Юнибанк","brand:wikidata":"Q116033349","name":"Յունիբանկ","name:en":"Unibank","name:hy":"Յունիբանկ","name:ru":"Юнибанк"}},"amenity/bank/vtb-9c44ae":{"name":"VTB Armenia","locationSet":{"include":["am"]},"geometry":["point","area"],"matchScore":2,"terms":["vtb","втб","վտբ"],"tags":{"amenity":"bank","brand:wikidata":"Q85983660"},"addTags":{"amenity":"bank","brand":"ՎՏԲ","brand:en":"VTB","brand:hy":"ՎՏԲ","brand:ru":"ВТБ","brand:wikidata":"Q85983660","name":"ՎՏԲ","name:en":"VTB","name:hy":"ՎՏԲ","name:ru":"ВТБ"}},"amenity/payment_terminal/easypay-15d44b":{"name":"Easy Pay Armenia","locationSet":{"include":["am"]},"geometry":["point"],"matchScore":2,"terms":["easy pay","изи пей","իզի փեյ"],"tags":{"amenity":"payment_terminal","brand:wikidata":"Q117840019"},"addTags":{"amenity":"payment_terminal","brand":"Իզի Փեյ","brand:en":"Easy Pay","brand:hy":"Իզի Փեյ","brand:ru":"Изи Пей","brand:wikidata":"Q117840019","name":"Իզի Փեյ","name:en":"Easy Pay","name:hy":"Իզի Փեյ","name:ru":"Изи Пей"}},"amenity/payment_terminal/fastshift-15d44b":{"name":"Fast Shift","locationSet":{"include":["am"]},"geometry":["point"],"matchScore":2,"terms":["fast shift","фаст шифт","ֆասթ շիֆթ"],"tags":{"amenity":"payment_terminal","brand:wikidata":"Q118289125"},"addTags":{"amenity":"payment_terminal","brand":"Ֆասթ Շիֆթ","brand:en":"Fast Shift","brand:hy":"Ֆասթ Շիֆթ","brand:ru":"Фаст Шифт","brand:wikidata":"Q118289125","name":"Ֆասթ Շիֆթ","name:en":"Fast Shift","name:hy":"Ֆասթ Շիֆթ","name:ru":"Фаст Шифт"}},"amenity/payment_terminal/idram-15d44b":{"name":"Idram","locationSet":{"include":["am"]},"geometry":["point"],"matchScore":2,"terms":["idram","идрам","իդրամ"],"tags":{"amenity":"payment_terminal","brand:wikidata":"Q13052991"},"addTags":{"amenity":"payment_terminal","brand":"Իդրամ","brand:en":"Idram","brand:hy":"Իդրամ","brand:ru":"Идрам","brand:wikidata":"Q13052991","name":"Իդրամ","name:en":"Idram","name:hy":"Իդրամ","name:ru":"Идрам"}},"amenity/payment_terminal/telcell-15d44b":{"name":"Telcell Armenia","locationSet":{"include":["am"]},"geometry":["point"],"matchScore":2,"terms":["telcell","телселл","թելսել"],"tags":{"amenity":"payment_terminal","brand:wikidata":"Q117840236"},"addTags":{"amenity":"payment_terminal","brand":"ԹելՍել","brand:en":"Telcell","brand:hy":"ԹելՍել","brand:ru":"Телселл","brand:wikidata":"Q117840236","name":"ԹելՍել","name:en":"Telcell","name:hy":"ԹելՍել","name:ru":"Телселл"}},"amenity/pharmacy/alfapharm-447e41":{"name":"Alfa Pharm Armenia","locationSet":{"include":["am"]},"geometry":["point","area"],"matchScore":2,"terms":["alfa pharm","альфа фарм","ալֆա ֆարմ"],"reference":{"key":"amenity","value":"pharmacy"},"tags":{"amenity":"pharmacy","brand:wikidata":"Q118323909"},"addTags":{"amenity":"pharmacy","brand":"Ալֆա Ֆարմ","brand:en":"Alfa Pharm","brand:hy":"Ալֆա Ֆարմ","brand:ru":"Альфа Фарм","brand:wikidata":"Q118323909","healthcare":"pharmacy","name":"Ալֆա Ֆարմ","name:en":"Alfa Pharm","name:hy":"Ալֆա Ֆարմ","name:ru":"Альфа Фарм"}},"amenity/pharmacy/gedeonrichter-447e41":{"name":"Gedeon Richter Armenia","locationSet":{"include":["am"]},"geometry":["point","area"],"matchScore":2,"terms":["gedeon richter","гедеон рихтер","գեդեոն ռիխտեր"],"reference":{"key":"amenity","value":"pharmacy"},"tags":{"amenity":"pharmacy","brand:wikidata":"Q630125"},"addTags":{"amenity":"pharmacy","brand":"Գեդեոն Ռիխտեր","brand:en":"Gedeon Richter","brand:hy":"Գեդեոն Ռիխտեր","brand:ru":"Гедеон Рихтер","brand:wikidata":"Q630125","healthcare":"pharmacy","name":"Գեդեոն Ռիխտեր","name:en":"Gedeon Richter","name:hy":"Գեդեոն Ռիխտեր","name:ru":"Гедеон Рихтер"}},"amenity/pharmacy/natalipharm-447e41":{"name":"Natali Pharm","locationSet":{"include":["am"]},"geometry":["point","area"],"matchScore":2,"terms":["natali pharm","натали фарм","նատալի ֆարմ"],"reference":{"key":"amenity","value":"pharmacy"},"tags":{"amenity":"pharmacy","brand:wikidata":"Q118323556"},"addTags":{"amenity":"pharmacy","brand":"Նատալի ֆարմ","brand:en":"Natali Pharm","brand:hy":"Նատալի ֆարմ","brand:ru":"Натали фарм","brand:wikidata":"Q118323556","healthcare":"pharmacy","name":"Նատալի ֆարմ","name:en":"Natali Pharm","name:hy":"Նատալի ֆարմ","name:ru":"Натали фарм"}},"amenity/pharmacy/tonusles-447e41":{"name":"Tonus-Les","locationSet":{"include":["am"]},"geometry":["point","area"],"matchScore":2,"terms":["tonus-les","тонус-лес","տոնուս-լես"],"reference":{"key":"amenity","value":"pharmacy"},"tags":{"amenity":"pharmacy","brand:wikidata":"Q118727363"},"addTags":{"amenity":"pharmacy","brand":"Տոնուս-Լես","brand:en":"Tonus-Les","brand:hy":"Տոնուս-Լես","brand:ru":"Тонус-Лес","brand:wikidata":"Q118727363","healthcare":"pharmacy","name":"Տոնուս-Լես","name:en":"Tonus-Les","name:hy":"Տոնուս-Լես","name:ru":"Тонус-Лес"}},"amenity/pharmacy/vagapharm-447e41":{"name":"Vaga Pharm","locationSet":{"include":["am"]},"geometry":["point","area"],"matchScore":2,"terms":["vaga pharm","վագա ֆարմ"],"reference":{"key":"amenity","value":"pharmacy"},"tags":{"amenity":"pharmacy","brand:wikidata":"Q123378075"},"addTags":{"amenity":"pharmacy","brand":"ՎԱԳԱ ՖԱՐՄ","brand:en":"Vaga Pharm","brand:wikidata":"Q123378075","healthcare":"pharmacy","name":"ՎԱԳԱ ՖԱՐՄ","name:en":"Vaga Pharm"}},"amenity/restaurant/karas-86098b":{"name":"Karas","locationSet":{"include":["am"]},"geometry":["point","area"],"matchScore":2,"terms":["karas","карас","կարաս"],"tags":{"amenity":"restaurant","brand:wikidata":"Q118347445"},"addTags":{"amenity":"restaurant","brand":"Կարաս","brand:en":"Karas","brand:hy":"Կարաս","brand:ru":"Карас","brand:wikidata":"Q118347445","cuisine":"regional","name":"Կարաս","name:en":"Karas","name:hy":"Կարաս","name:ru":"Карас"}},"amenity/restaurant/taquierialoscomales-86098b":{"name":"Taquieria Los Comales","locationSet":{"include":["am"]},"geometry":["point","area"],"matchScore":2,"terms":["taquieria los comales"],"tags":{"amenity":"restaurant","brand:wikidata":"Q120985955"},"addTags":{"amenity":"restaurant","brand":"Taquieria Los Comales","brand:wikidata":"Q120985955","cuisine":"tacos","name":"Taquieria Los Comales"}},"amenity/restaurant/pizza/tashirpizza-86098b":{"name":"Tashir Pizza","locationSet":{"include":["am"]},"geometry":["point","area"],"matchScore":2,"terms":["tashir pizza","ташир пицца","տաշիր պիցցա"],"reference":{"key":"cuisine","value":"pizza"},"tags":{"amenity":"restaurant","brand:wikidata":"Q118347431","cuisine":"pizza"},"addTags":{"amenity":"restaurant","brand":"Տաշիր պիցցա","brand:en":"Tashir Pizza","brand:hy":"Տաշիր պիցցա","brand:ru":"Ташир Пицца","brand:wikidata":"Q118347431","cuisine":"pizza","name":"Տաշիր պիցցա","name:en":"Tashir Pizza","name:hy":"Տաշիր պիցցա","name:ru":"Ташир Пицца"}},"office/telecommunication/rostelecom-2921eb":{"name":"Rostelecom","locationSet":{"include":["am"]},"geometry":["point","area"],"matchScore":2,"terms":["rostelecom","ростелеком","ռոստելեկոմ"],"tags":{"brand:wikidata":"Q1477012","office":"telecommunication"},"addTags":{"brand":"Ռոստելեկոմ","brand:en":"Rostelecom","brand:hy":"Ռոստելեկոմ","brand:ru":"Ростелеком","brand:wikidata":"Q1477012","name":"Ռոստելեկոմ","name:en":"Rostelecom","name:hy":"Ռոստելեկոմ","name:ru":"Ростелеком","office":"telecommunication"}},"office/telecommunication/teamtelecomarmenia-2921eb":{"name":"Team Telecom Armenia","locationSet":{"include":["am"]},"geometry":["point","area"],"matchScore":2,"terms":["team telecom","team telecom armenia","тим телеком армения","թիմ տելեկոմ արմենիա"],"tags":{"brand:wikidata":"Q97125249","office":"telecommunication"},"addTags":{"brand":"Թիմ Տելեկոմ Արմենիա","brand:en":"Team Telecom Armenia","brand:hy":"Թիմ Տելեկոմ Արմենիա","brand:ru":"Тим Телеком Армения","brand:wikidata":"Q97125249","name":"Թիմ Տելեկոմ Արմենիա","name:en":"Team Telecom Armenia","name:hy":"Թիմ Տելեկոմ Արմենիա","name:ru":"Тим Телеком Армения","office":"telecommunication"}},"office/telecommunication/ucom-2921eb":{"name":"Ucom","locationSet":{"include":["am"]},"geometry":["point","area"],"matchScore":2,"terms":["ucom","юком","յուքոմ"],"tags":{"brand:wikidata":"Q13054189","office":"telecommunication"},"addTags":{"brand":"Յուքոմ","brand:en":"Ucom","brand:hy":"Յուքոմ","brand:ru":"Юком","brand:wikidata":"Q13054189","name":"Յուքոմ","name:en":"Ucom","name:hy":"Յուքոմ","name:ru":"Юком","office":"telecommunication"}},"office/telecommunication/vivamts-2921eb":{"name":"Viva MTS","locationSet":{"include":["am"]},"geometry":["point","area"],"matchScore":2,"terms":["viva mts","вива мтс","վիվա մտս"],"tags":{"brand:wikidata":"Q16486896","office":"telecommunication"},"addTags":{"brand":"Վիվա ՄՏՍ","brand:en":"Viva MTS","brand:hy":"Վիվա ՄՏՍ","brand:ru":"Вива МТС","brand:wikidata":"Q16486896","name":"Վիվա ՄՏՍ","name:en":"Viva MTS","name:hy":"Վիվա ՄՏՍ","name:ru":"Вива МТС","office":"telecommunication"}},"shop/clothes/bsbfashion-3443a7":{"name":"BSB Fashion","locationSet":{"include":["al","am","bg","cy","eg","gr","ro","xk"]},"geometry":["point","area"],"matchScore":2,"terms":["bsb","bsb fashion"],"tags":{"brand:wikidata":"Q12721399","shop":"clothes"},"addTags":{"brand":"BSB Fashion","brand:wikidata":"Q12721399","clothes":"women","name":"BSB Fashion","shop":"clothes"}},"shop/clothes/garage-072c62":{"name":"Garage","locationSet":{"include":["am","ca","jo","om","qa","sa","us"]},"geometry":["point","area"],"matchScore":2,"terms":["garage"],"tags":{"brand:wikidata":"Q5521860","shop":"clothes"},"addTags":{"brand":"Garage","brand:wikidata":"Q5521860","clothes":"women","name":"Garage","shop":"clothes"}},"shop/clothes/loverepublic-54fe8d":{"name":"LOVE REPUBLIC","locationSet":{"include":["am","by","kz","ru"]},"geometry":["point","area"],"matchScore":2,"terms":["love republic"],"tags":{"brand:wikidata":"Q103848331","shop":"clothes"},"addTags":{"brand":"LOVE REPUBLIC","brand:wikidata":"Q103848331","clothes":"women","name":"LOVE REPUBLIC","shop":"clothes"}},"shop/clothes/zarina-54fe8d":{"name":"Zarina","locationSet":{"include":["am","by","kz","ru"]},"geometry":["point","area"],"matchScore":2,"terms":["zarina"],"tags":{"brand:wikidata":"Q103847517","shop":"clothes"},"addTags":{"brand":"Zarina","brand:wikidata":"Q103847517","clothes":"women","name":"Zarina","shop":"clothes"}},"shop/electronics/bork-138e7e":{"name":"Bork","locationSet":{"include":["am","by","kz","ru"]},"geometry":["point","area"],"matchScore":2,"terms":["bork"],"tags":{"brand:wikidata":"Q4035327","shop":"electronics"},"addTags":{"brand":"Bork","brand:wikidata":"Q4035327","name":"Bork","shop":"electronics"}},"shop/outpost/wildberries-f8825b":{"name":"Wildberries","locationSet":{"include":["am","by","kg","kz","ru","uz"]},"geometry":["point","area"],"matchScore":2,"terms":["wildberries"],"tags":{"brand:wikidata":"Q24933714","shop":"outpost"},"addTags":{"brand":"Wildberries","brand:wikidata":"Q24933714","name":"Wildberries","shop":"outpost"}},"shop/supermarket/sas-da616d":{"name":"SAS","locationSet":{"include":["am"]},"geometry":["point","area"],"matchScore":2,"terms":["sas","сас","սաս"],"tags":{"brand:wikidata":"Q118347380","shop":"supermarket"},"addTags":{"brand":"ՍԱՍ","brand:en":"SAS","brand:hy":"ՍԱՍ","brand:ru":"САС","brand:wikidata":"Q118347380","name":"ՍԱՍ","name:en":"SAS","name:hy":"ՍԱՍ","name:ru":"САС","shop":"supermarket"}},"shop/supermarket/tsiran-da616d":{"name":"Tsiran","locationSet":{"include":["am"]},"geometry":["point","area"],"matchScore":2,"terms":["tsiran","циран","ծիրան"],"tags":{"brand:wikidata":"Q118733566","shop":"supermarket"},"addTags":{"brand":"Ծիրան","brand:en":"Tsiran","brand:hy":"Ծիրան","brand:ru":"Циран","brand:wikidata":"Q118733566","name":"Ծիրան","name:en":"Tsiran","name:hy":"Ծիրան","name:ru":"Циран","shop":"supermarket"}},"shop/supermarket/yerevancity-da616d":{"name":"Yerevan City","locationSet":{"include":["am"]},"geometry":["point","area"],"matchScore":2,"terms":["yerevan city","ереван сити","երևան սիթի"],"tags":{"brand:wikidata":"Q55663505","shop":"supermarket"},"addTags":{"brand":"Երևան Սիթի","brand:en":"Yerevan City","brand:hy":"Երևան Սիթի","brand:ru":"Ереван Сити","brand:wikidata":"Q55663505","name":"Երևան Սիթի","name:en":"Yerevan City","name:hy":"Երևան Սիթի","name:ru":"Ереван Сити","shop":"supermarket"}},"shop/supermarket/zovq-da616d":{"name":"Zovq","locationSet":{"include":["am"]},"geometry":["point","area"],"matchScore":2,"terms":["zovq","зовк","զովք"],"tags":{"brand:wikidata":"Q118727379","shop":"supermarket"},"addTags":{"brand":"Զովք","brand:en":"Zovq","brand:hy":"Զովք","brand:ru":"Зовк","brand:wikidata":"Q118727379","name":"Զովք","name:en":"Zovq","name:hy":"Զովք","name:ru":"Зовк","shop":"supermarket"}},"amenity/post_box/haypost-67ecec":{"name":"HayPost","locationSet":{"include":["am"]},"geometry":["point","vertex"],"matchScore":2,"terms":["haypost","հայփոստ"],"tags":{"amenity":"post_box","operator:wikidata":"Q3128876"},"addTags":{"amenity":"post_box","operator":"HayPost","operator:en":"HayPost","operator:hy":"Հայփոստ","operator:wikidata":"Q3128876"}},"amenity/post_office/haypost-1aee57":{"name":"HayPost","locationSet":{"include":["am"]},"geometry":["point","area"],"matchScore":2,"terms":["haypost","հայփոստ"],"fields":["name","operator","{amenity/post_office}"],"tags":{"amenity":"post_office","operator:wikidata":"Q3128876"},"addTags":{"amenity":"post_office","operator":"HayPost","operator:en":"HayPost","operator:hy":"Հայփոստ","operator:wikidata":"Q3128876"}}}