{"amenity/atm/bankofnewhampshire-e19454":{"name":"Bank of New Hampshire","locationSet":{"include":["us-me","us-nh"]},"geometry":["point","vertex"],"matchScore":2,"terms":["bank of new hampshire"],"tags":{"amenity":"atm","brand:wikidata":"Q106499982"},"addTags":{"amenity":"atm","brand":"Bank of New Hampshire","brand:wikidata":"Q106499982","name":"Bank of New Hampshire","operator":"Bank of New Hampshire","operator:wikidata":"Q106499982"}},"amenity/bank/bankofnewhampshire-02b74e":{"name":"Bank of New Hampshire","locationSet":{"include":["us-me","us-nh"]},"geometry":["point","area"],"matchScore":2,"terms":["bank of new hampshire"],"tags":{"amenity":"bank","brand:wikidata":"Q106499982"},"addTags":{"amenity":"bank","brand":"Bank of New Hampshire","brand:wikidata":"Q106499982","name":"Bank of New Hampshire"}},"leisure/sports_centre/xgolf-8a88af":{"name":"X Golf","locationSet":{"include":["us-al","us-co","us-ga","us-il","us-in","us-ks","us-ma","us-me","us-mi","us-mn","us-mo","us-nd","us-ne","us-ny","us-oh","us-or","us-pa","us-ri","us-sc","us-sd","us-ut","us-va","us-wa","us-wi"]},"geometry":["point","area"],"matchScore":2,"terms":["x golf"],"fields":["name","brand","{leisure/sports_centre}"],"tags":{"brand:wikidata":"Q111585369","leisure":"sports_centre"},"addTags":{"brand":"X Golf","brand:wikidata":"Q111585369","indoor":"yes","leisure":"sports_centre","name":"X Golf","sport":"golf"}},"amenity/school/portlandpublicschools-c6f386":{"name":"Portland Public Schools (Maine)","locationSet":{"include":["us-me"]},"geometry":["area","point"],"matchScore":2,"terms":["portland public schools","pps"],"tags":{"amenity":"school","operator:wikidata":"Q7232016"},"addTags":{"amenity":"school","operator":"Portland Public Schools","operator:short":"PPS","operator:type":"public","operator:wikidata":"Q7232016"}},"leisure/nature_reserve/cityofportland-46e924":{"name":"City of Portland (Maine)","locationSet":{"include":["us-me"]},"geometry":["area","point"],"matchScore":2,"terms":["city of portland","portland parks & recreation"],"tags":{"leisure":"nature_reserve","operator:wikidata":"Q49201"},"addTags":{"leisure":"nature_reserve","operator":"City of Portland","operator:type":"public","operator:wikidata":"Q49201"}},"leisure/nature_reserve/mainebureauofparksandlands-46e924":{"name":"Maine Bureau of Parks and Lands","locationSet":{"include":["us-me"]},"geometry":["area","point"],"matchScore":2,"terms":["maine bureau of parks and lands"],"tags":{"leisure":"nature_reserve","operator:wikidata":"Q110072411"},"addTags":{"leisure":"nature_reserve","operator":"Maine Bureau of Parks and Lands","operator:type":"public","operator:wikidata":"Q110072411"}},"leisure/park/cityofportland-82e140":{"name":"City of Portland (Maine)","locationSet":{"include":["us-me"]},"geometry":["area","point"],"matchScore":2,"terms":["city of portland","portland parks & recreation"],"tags":{"leisure":"park","operator:wikidata":"Q49201"},"addTags":{"leisure":"park","operator":"City of Portland","operator:type":"public","operator:wikidata":"Q49201"}},"leisure/park/mainebureauofparksandlands-82e140":{"name":"Maine Bureau of Parks and Lands","locationSet":{"include":["us-me"]},"geometry":["area","point"],"matchScore":2,"terms":["maine bureau of parks and lands"],"tags":{"leisure":"park","operator:wikidata":"Q110072411"},"addTags":{"leisure":"park","operator":"Maine Bureau of Parks and Lands","operator:type":"public","operator:wikidata":"Q110072411"}},"office/government/mainebureauofmotorvehicles-6dbe4c":{"name":"Maine BMV","locationSet":{"include":["us-me"]},"geometry":["point","area"],"matchScore":2,"terms":["bmv","maine bmv","maine bureau of motor vehicles"],"fields":["name","operator","{office/government}"],"tags":{"office":"government","operator:wikidata":"Q6736325"},"addTags":{"government":"transportation","office":"government","operator":"Maine Bureau of Motor Vehicles","operator:short":"Maine BMV","operator:wikidata":"Q6736325"}}}