{"advertising/totem/copec-65694b":{"name":"Copec","locationSet":{"include":["cl"]},"geometry":["point","line"],"matchScore":2,"terms":["copec"],"tags":{"advertising":"totem","brand:wikidata":"Q1130956"},"addTags":{"advertising":"totem","brand":"Copec","brand:wikidata":"Q1130956"}},"advertising/totem/terpel-6bcba4":{"name":"Terpel","locationSet":{"include":["cl","co","do","ec","mx","pa"]},"geometry":["point","line"],"matchScore":2,"terms":["terpel"],"tags":{"advertising":"totem","brand:wikidata":"Q7703003"},"addTags":{"advertising":"totem","brand":"Terpel","brand:wikidata":"Q7703003"}},"amenity/atm/bancodechile-914056":{"name":"Banco de Chile","locationSet":{"include":["cl"]},"geometry":["point","vertex"],"matchScore":2,"terms":["banco de chile"],"fields":["name","brand","{amenity/atm}"],"tags":{"amenity":"atm","brand:wikidata":"Q2882085"},"addTags":{"amenity":"atm","brand":"Banco de Chile","brand:wikidata":"Q2882085","operator":"Banco de Chile","operator:wikidata":"Q2882085"}},"amenity/atm/bancoestado-914056":{"name":"Banco Estado","locationSet":{"include":["cl"]},"geometry":["point","vertex"],"matchScore":2,"terms":["banco del estado de chile","banco estado"],"fields":["name","brand","{amenity/atm}"],"tags":{"amenity":"atm","brand:wikidata":"Q5718188"},"addTags":{"amenity":"atm","brand":"Banco Estado","brand:wikidata":"Q5718188","official_name":"Banco del Estado de Chile","operator":"Banco Estado","operator:wikidata":"Q5718188"}},"amenity/atm/bancofalabella-b9bb6a":{"name":"Banco Falabella","locationSet":{"include":["cl","co","pe"]},"geometry":["point","vertex"],"matchScore":2,"terms":["banco falabella"],"fields":["name","brand","{amenity/atm}"],"tags":{"amenity":"atm","brand:wikidata":"Q4854088"},"addTags":{"amenity":"atm","brand":"Banco Falabella","brand:wikidata":"Q4854088","operator":"Banco Falabella","operator:wikidata":"Q4854088"}},"amenity/atm/bancointernacional-914056":{"name":"Banco Internacional (Chile)","locationSet":{"include":["cl"]},"geometry":["point","vertex"],"matchScore":2,"terms":["banco internacional"],"fields":["name","brand","{amenity/atm}"],"tags":{"amenity":"atm","brand:wikidata":"Q56605586"},"addTags":{"amenity":"atm","brand":"Banco Internacional","brand:wikidata":"Q56605586","operator":"Banco Internacional","operator:wikidata":"Q56605586"}},"amenity/atm/bci-914056":{"name":"BCI (Chile)","locationSet":{"include":["cl"]},"geometry":["point","vertex"],"matchScore":2,"terms":["banco bci","banco de crédito e inversiones","bci"],"fields":["name","brand","{amenity/atm}"],"tags":{"amenity":"atm","brand:wikidata":"Q2882083"},"addTags":{"amenity":"atm","brand":"BCI","brand:wikidata":"Q2882083","official_name":"Banco de Crédito e Inversiones","operator":"BCI","operator:wikidata":"Q2882083"}},"amenity/atm/bnpparibas-c2c2cf":{"name":"BNP Paribas","locationSet":{"include":["ae","af","ar","at","bf","bh","br","ca","ch","ci","cl","co","cz","de","dk","dz","es","fi","fr","gb","gf","gp","hu","ie","il","it","kw","ma","ml","mq","mx","nl","no","pe","pt","qa","re","ro","ru","sa","se","sk","sn","tn","tr","tw","us"]},"geometry":["point","vertex"],"matchScore":2,"terms":["bnp paribas"],"fields":["name","brand","{amenity/atm}"],"tags":{"amenity":"atm","brand:wikidata":"Q499707"},"addTags":{"amenity":"atm","brand":"BNP Paribas","brand:wikidata":"Q499707","operator":"BNP Paribas","operator:wikidata":"Q499707"}},"amenity/atm/itaucorpbanca-2999f5":{"name":"Itaú Corpbanca","locationSet":{"include":["cl","co"]},"geometry":["point","vertex"],"matchScore":2,"terms":["banco itau","itaú corpbanca"],"fields":["name","brand","{amenity/atm}"],"tags":{"amenity":"atm","brand:wikidata":"Q2423252"},"addTags":{"amenity":"atm","brand":"Itaú Corpbanca","brand:wikidata":"Q2423252","operator":"Itaú Corpbanca","operator:wikidata":"Q2423252"}},"amenity/bank/bancodechile-dbf1ad":{"name":"Banco de Chile","locationSet":{"include":["cl"]},"geometry":["point","area"],"matchScore":2,"terms":["banco de chile"],"tags":{"amenity":"bank","brand:wikidata":"Q2882085"},"addTags":{"amenity":"bank","brand":"Banco de Chile","brand:wikidata":"Q2882085","name":"Banco de Chile"}},"amenity/bank/bancoestado-dbf1ad":{"name":"Banco Estado","locationSet":{"include":["cl"]},"geometry":["point","area"],"matchScore":2,"terms":["banco del estado de chile","banco estado"],"tags":{"amenity":"bank","brand:wikidata":"Q5718188"},"addTags":{"amenity":"bank","brand":"Banco Estado","brand:wikidata":"Q5718188","name":"Banco Estado","official_name":"Banco del Estado de Chile"}},"amenity/bank/bancofalabella-7e72a9":{"name":"Banco Falabella","locationSet":{"include":["cl","co","pe"]},"geometry":["point","area"],"matchScore":2,"terms":["banco falabella"],"tags":{"amenity":"bank","brand:wikidata":"Q4854088"},"addTags":{"amenity":"bank","brand":"Banco Falabella","brand:wikidata":"Q4854088","name":"Banco Falabella"}},"amenity/bank/bancointernacional-dbf1ad":{"name":"Banco Internacional (Chile)","locationSet":{"include":["cl"]},"geometry":["point","area"],"matchScore":2,"terms":["banco internacional"],"tags":{"amenity":"bank","brand:wikidata":"Q56605586"},"addTags":{"amenity":"bank","brand":"Banco Internacional","brand:wikidata":"Q56605586","name":"Banco Internacional"}},"amenity/bank/bci-dbf1ad":{"name":"BCI (Chile)","locationSet":{"include":["cl"]},"geometry":["point","area"],"matchScore":2,"terms":["banco bci","banco de crédito e inversiones","bci"],"tags":{"amenity":"bank","brand:wikidata":"Q2882083"},"addTags":{"amenity":"bank","brand":"BCI","brand:wikidata":"Q2882083","name":"BCI","official_name":"Banco de Crédito e Inversiones"}},"amenity/bank/bnpparibas-e8666a":{"name":"BNP Paribas","locationSet":{"include":["ae","af","ar","at","bf","bh","br","ca","ch","ci","cl","co","cz","de","dk","dz","es","fi","fr","gb","gf","gp","hu","ie","il","it","kw","ma","ml","mq","mx","nl","no","pe","pt","qa","re","ro","ru","sa","se","sk","sn","tn","tr","tw","us"]},"geometry":["point","area"],"matchScore":2,"terms":["bnp paribas"],"tags":{"amenity":"bank","brand:wikidata":"Q499707"},"addTags":{"amenity":"bank","brand":"BNP Paribas","brand:wikidata":"Q499707","name":"BNP Paribas"}},"amenity/bank/itau-891146":{"name":"Itaú Corpbanca","locationSet":{"include":["cl","co"]},"geometry":["point","area"],"matchScore":2,"terms":["banco itau","itaú corpbanca"],"tags":{"amenity":"bank","brand:wikidata":"Q2423252"},"addTags":{"amenity":"bank","brand":"Itaú Corpbanca","brand:wikidata":"Q2423252","name":"Itaú"}},"amenity/bicycle_rental/bikesantiago-70bf31":{"name":"Bikesantiago","locationSet":{"include":["cl"]},"geometry":["point","vertex","area"],"matchScore":2,"terms":["bikesantiago"],"fields":["name","brand","{amenity/bicycle_rental}"],"tags":{"amenity":"bicycle_rental","brand:wikidata":"Q18170816"},"addTags":{"amenity":"bicycle_rental","brand":"Bikesantiago","brand:wikidata":"Q18170816","name":"Bikesantiago","operator":"Bikesantiago","operator:wikidata":"Q18170816"}},"amenity/cafe/coffee_shop/bonafide-ba14cf":{"name":"Bonafide","locationSet":{"include":["ar","cl"]},"geometry":["point","area"],"matchScore":2,"terms":["bonafide"],"reference":{"key":"cuisine","value":"coffee_shop"},"tags":{"amenity":"cafe","brand:wikidata":"Q62122746","cuisine":"coffee_shop"},"addTags":{"amenity":"cafe","brand":"Bonafide","brand:wikidata":"Q62122746","cuisine":"coffee_shop","name":"Bonafide","takeaway":"yes"}},"amenity/cafe/coffee_shop/havanna-ffe1b3":{"name":"Havanna","locationSet":{"include":["ar","br","cl","pe"]},"geometry":["point","area"],"matchScore":2,"terms":["havanna"],"reference":{"key":"cuisine","value":"coffee_shop"},"tags":{"amenity":"cafe","brand:wikidata":"Q2900869","cuisine":"coffee_shop"},"addTags":{"amenity":"cafe","brand":"Havanna","brand:wikidata":"Q2900869","cuisine":"coffee_shop","name":"Havanna","takeaway":"yes"}},"amenity/cinema/cineplanet-7fe2a4":{"name":"Cineplanet","locationSet":{"include":["cl","pe"]},"geometry":["point","area"],"matchScore":2,"terms":["cineplanet"],"fields":["name","brand","{amenity/cinema}"],"tags":{"amenity":"cinema","brand:wikidata":"Q5769680"},"addTags":{"amenity":"cinema","brand":"Cineplanet","brand:wikidata":"Q5769680","name":"Cineplanet"}},"amenity/fast_food/acaiconcept-989340":{"name":"Açaí Concept","locationSet":{"include":["ar","br","ca","ch","cl","ec","fr","pt","us"]},"geometry":["point","area"],"matchScore":2,"terms":["açaí concept"],"tags":{"amenity":"fast_food","brand:wikidata":"Q110138105"},"addTags":{"amenity":"fast_food","brand":"Açaí Concept","brand:wikidata":"Q110138105","cuisine":"açaí","name":"Açaí Concept","takeaway":"yes"}},"amenity/fast_food/burger/bobs-02d9fb":{"name":"Bob's","locationSet":{"include":["ao","br","cl","pt"]},"geometry":["point","area"],"matchScore":2,"terms":["bob's","bob's brasil"],"reference":{"key":"cuisine","value":"burger"},"tags":{"amenity":"fast_food","brand:wikidata":"Q1392113","cuisine":"burger"},"addTags":{"amenity":"fast_food","brand":"Bob's","brand:wikidata":"Q1392113","cuisine":"burger","name":"Bob's","takeaway":"yes"}},"amenity/fast_food/laluchasangucheriacriolla-1a06c0":{"name":"La Lucha Sangucheria Criolla","locationSet":{"include":["cl","co","pe"]},"geometry":["point","area"],"matchScore":2,"terms":["la lucha","la lucha sangucheria criolla"],"tags":{"amenity":"fast_food","brand:wikidata":"Q111903592"},"addTags":{"alt_name":"La Lucha","amenity":"fast_food","brand":"La Lucha Sangucheria Criolla","brand:wikidata":"Q111903592","cuisine":"peruvian","name":"La Lucha Sangucheria Criolla","takeaway":"yes"}},"amenity/fast_food/mrpretzels-c5a4fb":{"name":"Mr. Pretzels","locationSet":{"include":["br","ca","cl","eg","fr","gb","il","kw","pr","us","ve"]},"geometry":["point","area"],"matchScore":2,"terms":["mr. pretzels"],"tags":{"amenity":"fast_food","brand:wikidata":"Q115728208"},"addTags":{"amenity":"fast_food","brand":"Mr. Pretzels","brand:wikidata":"Q115728208","cuisine":"pretzel","name":"Mr. Pretzels","takeaway":"yes"}},"amenity/fast_food/oakberryacaibowls-5bb50d":{"name":"Oakberry Açaí bowls","locationSet":{"include":["ae","at","au","be","bh","br","ca","ch","cl","co","cy","de","dk","ec","ee","es","fr","gb","gr","hr","ie","il","it","mt","mx","nl","pe","pl","pt","py","qa","ro","sa","si","th","us"]},"geometry":["point","area"],"matchScore":2,"terms":["oakberry açaí bowls"],"tags":{"amenity":"fast_food","brand:wikidata":"Q104870840"},"addTags":{"amenity":"fast_food","brand":"Oakberry Açaí bowls","brand:wikidata":"Q104870840","cuisine":"açaí","name":"Oakberry Açaí bowls","takeaway":"yes"}},"amenity/fuel/copec-16fba4":{"name":"Copec","locationSet":{"include":["cl"]},"geometry":["point","area"],"matchScore":2,"terms":["copec"],"fields":["name","brand","{amenity/fuel}"],"tags":{"amenity":"fuel","brand:wikidata":"Q1130956"},"addTags":{"amenity":"fuel","brand":"Copec","brand:wikidata":"Q1130956","name":"Copec"}},"amenity/fuel/terpel-23f925":{"name":"Terpel","locationSet":{"include":["cl","co","do","ec","mx","pa"]},"geometry":["point","area"],"matchScore":2,"terms":["terpel"],"fields":["name","brand","{amenity/fuel}"],"tags":{"amenity":"fuel","brand:wikidata":"Q7703003"},"addTags":{"amenity":"fuel","brand":"Terpel","brand:wikidata":"Q7703003","name":"Terpel"}},"amenity/ice_cream/freddo-3a94a6":{"name":"Freddo","locationSet":{"include":["ar","bo","br","cl","gb","it","us","uy"]},"geometry":["point","area"],"matchScore":2,"terms":["freddo"],"tags":{"amenity":"ice_cream","brand:wikidata":"Q28823999"},"addTags":{"amenity":"ice_cream","brand":"Freddo","brand:wikidata":"Q28823999","cuisine":"ice_cream","name":"Freddo"}},"amenity/ice_cream/frozen_yogurt/llaollao-dd9462":{"name":"Llaollao","locationSet":{"include":["au","ch","cl","co","ec","es","fr","gt","hr","id","iq","kw","ma","my","ph","pt","sa","sg","si","sv","us","vn"]},"geometry":["point","area"],"matchScore":2,"terms":["llaollao"],"reference":{"key":"cuisine","value":"frozen_yogurt"},"tags":{"amenity":"ice_cream","brand:wikidata":"Q12163048","cuisine":"frozen_yogurt"},"addTags":{"amenity":"ice_cream","brand":"Llaollao","brand:wikidata":"Q12163048","cuisine":"frozen_yogurt","name":"Llaollao"}},"amenity/music_school/schoolofrock-aecfc9":{"name":"School of Rock","locationSet":{"include":["au","br","ca","cl","co","es","mx","pe","ph","py","us","za"]},"geometry":["point","area"],"matchScore":2,"terms":["school of rock"],"fields":["name","brand","{amenity/music_school}"],"tags":{"amenity":"music_school","brand:wikidata":"Q7756376"},"addTags":{"amenity":"music_school","brand":"School of Rock","brand:wikidata":"Q7756376","name":"School of Rock"}},"amenity/pharmacy/cruzverde-e06365":{"name":"Cruz Verde","locationSet":{"include":["cl","co"]},"geometry":["point","area"],"matchScore":2,"terms":["cruz verde","farmacias cruz verde"],"reference":{"key":"amenity","value":"pharmacy"},"tags":{"amenity":"pharmacy","brand:wikidata":"Q5856071"},"addTags":{"amenity":"pharmacy","brand":"Cruz Verde","brand:wikidata":"Q5856071","healthcare":"pharmacy","name":"Cruz Verde"}},"amenity/pharmacy/farmaciasahumada-af67e0":{"name":"Farmacias Ahumada","locationSet":{"include":["cl"]},"geometry":["point","area"],"matchScore":2,"terms":["farmacias ahumada"],"reference":{"key":"amenity","value":"pharmacy"},"tags":{"amenity":"pharmacy","brand:wikidata":"Q5856069"},"addTags":{"amenity":"pharmacy","brand":"Farmacias Ahumada","brand:wikidata":"Q5856069","healthcare":"pharmacy","name":"Farmacias Ahumada"}},"amenity/pharmacy/farmaciasdeldrsimi-369474":{"name":"Farmacias del Dr. Simi","locationSet":{"include":["cl","gt"]},"geometry":["point","area"],"matchScore":2,"terms":["farmacias del dr. simi"],"reference":{"key":"amenity","value":"pharmacy"},"tags":{"amenity":"pharmacy","brand:wikidata":"Q62564610"},"addTags":{"amenity":"pharmacy","brand":"Farmacias del Dr. Simi","brand:wikidata":"Q62564610","healthcare":"pharmacy","name":"Farmacias del Dr. Simi"}},"amenity/pharmacy/salcobrand-af67e0":{"name":"SalcoBrand","locationSet":{"include":["cl"]},"geometry":["point","area"],"matchScore":2,"terms":["farmacias salcobrand","salcobrand"],"reference":{"key":"amenity","value":"pharmacy"},"tags":{"amenity":"pharmacy","brand:wikidata":"Q2877054"},"addTags":{"amenity":"pharmacy","brand":"SalcoBrand","brand:wikidata":"Q2877054","healthcare":"pharmacy","name":"SalcoBrand"}},"amenity/restaurant/crepesandwaffles-7b5290":{"name":"Crepes & Waffles","locationSet":{"include":["br","cl","co","ec","es","mx","pa","pe","ve"]},"geometry":["point","area"],"matchScore":2,"terms":["crepes & waffles"],"tags":{"amenity":"restaurant","brand:wikidata":"Q5184238"},"addTags":{"alt_name":"Crepes & Waffles","amenity":"restaurant","brand":"Crepes & Waffles","brand:wikidata":"Q5184238","cuisine":"crepe;ice_cream","name":"Crepes & Waffles"}},"craft/signmaker/fastsigns-4c87b7":{"name":"Fastsigns","locationSet":{"include":["ae","ca","cl","gb","ky","mx","sa","us"]},"geometry":["point","area"],"matchScore":2,"terms":["fastsigns"],"tags":{"brand:wikidata":"Q5437127","craft":"signmaker"},"addTags":{"brand":"Fastsigns","brand:wikidata":"Q5437127","craft":"signmaker","name":"Fastsigns"}},"emergency/ambulance_station/cruzrojachilena-3bf263":{"name":"Cruz Roja Chilena","locationSet":{"include":["cl"]},"geometry":["point","area"],"matchScore":2,"terms":["crc","cruz roja","cruz roja chilena"],"fields":["name","brand","{emergency/ambulance_station}"],"tags":{"brand:wikidata":"Q3698007","emergency":"ambulance_station"},"addTags":{"brand":"Cruz Roja Chilena","brand:wikidata":"Q3698007","emergency":"ambulance_station","name":"Cruz Roja Chilena"}},"leisure/fitness_centre/bodytech-526e49":{"name":"Bodytech","locationSet":{"include":["cl","co","pe"]},"geometry":["point","area"],"matchScore":2,"terms":["boditech","bodytech","bodytek"],"tags":{"brand:wikidata":"Q16538274","leisure":"fitness_centre"},"addTags":{"brand":"Bodytech","brand:wikidata":"Q16538274","leisure":"fitness_centre","name":"Bodytech"}},"leisure/fitness_centre/smartfit-cd44e6":{"name":"Smart Fit","locationSet":{"include":["br","cl","co","do","mx","pe"]},"geometry":["point","area"],"matchScore":2,"terms":["smart fit"],"tags":{"brand:wikidata":"Q30930959","leisure":"fitness_centre"},"addTags":{"brand":"Smart Fit","brand:wikidata":"Q30930959","leisure":"fitness_centre","name":"Smart Fit"}},"office/insurance/axa-2e7672":{"name":"AXA","locationSet":{"include":["ae","ar","au","be","bh","bm","br","ca","ch","ci","cl","cm","cn","co","cz","de","dk","dz","eg","es","fi","fr","ga","gb","gr","hk","id","ie","in","it","jp","kr","lb","lu","ma","mu","mx","my","ng","nl","no","om","pa","pe","ph","pl","pt","qa","sa","se","sg","sk","sn","th","tr","tw","us"]},"geometry":["point","area"],"matchScore":2,"terms":["axa"],"fields":["name","brand","{office/insurance}"],"tags":{"brand:wikidata":"Q160054","office":"insurance"},"addTags":{"brand":"AXA","brand:wikidata":"Q160054","name":"AXA","office":"insurance"}},"office/insurance/generali-cb13d1":{"name":"Generali","locationSet":{"include":["ar","at","bg","br","ch","cl","cn","cz","de","es","fr","gr","hr","hu","id","in","it","me","my","ph","pl","pt","ro","rs","si","sk","tr","vn"]},"geometry":["point","area"],"matchScore":2,"terms":["generali","generali españa"],"fields":["name","brand","{office/insurance}"],"tags":{"brand:wikidata":"Q670482","office":"insurance"},"addTags":{"brand":"Generali","brand:wikidata":"Q670482","name":"Generali","office":"insurance"}},"office/insurance/reale-fe9c1d":{"name":"Reale","locationSet":{"include":["cl","es","it"]},"geometry":["point","area"],"matchScore":2,"terms":["reale","reale chile","reale immobili","reale mutua assicurazioni","reale seguros","seguros reale"],"fields":["name","brand","{office/insurance}"],"tags":{"brand:wikidata":"Q3931092","office":"insurance"},"addTags":{"brand":"Reale","brand:wikidata":"Q3931092","name":"Reale","office":"insurance"}},"office/insurance/zurich-2d6c95":{"name":"Zurich","locationSet":{"include":["ae","at","au","be","bh","br","ca","ch","cl","cn","co","de","ec","es","fi","fr","gb","hk","id","ie","it","ja","kw","lb","li","lu","mx","my","nl","no","nz","om","pt","qa","se","sg","sk","tr","us"]},"geometry":["point","area"],"matchScore":2,"terms":["zurich"],"fields":["name","brand","{office/insurance}"],"tags":{"brand:wikidata":"Q230426","office":"insurance"},"addTags":{"brand":"Zurich","brand:wikidata":"Q230426","name":"Zurich","office":"insurance"}},"shop/baby_goods/suavinex-f3fd61":{"name":"Suavinex","locationSet":{"include":["ae","al","ao","au","be","ch","cl","cn","co","cr","cy","cz","do","dz","ec","es","fr","ge","gq","gr","hk","il","iq","ir","it","kr","lb","lu","me","mt","mx","my","nl","no","pa","pl","pt","ro","rs","ru","sa","sg","sk","tr","uy","vn"]},"geometry":["point","area"],"matchScore":2,"terms":["suavinex"],"tags":{"brand:wikidata":"Q122258837","shop":"baby_goods"},"addTags":{"brand":"Suavinex","brand:wikidata":"Q122258837","name":"Suavinex","shop":"baby_goods"}},"shop/bakery/castano-d517a1":{"name":"Castaño","locationSet":{"include":["cl"]},"geometry":["point","area"],"matchScore":2,"terms":["castaño"],"tags":{"brand:wikidata":"Q5049629","shop":"bakery"},"addTags":{"brand":"Castaño","brand:wikidata":"Q5049629","name":"Castaño","shop":"bakery"}},"shop/car/proton-576082":{"name":"Proton","locationSet":{"include":["cl","eg","id","my","sg","th"]},"geometry":["point","area"],"matchScore":2,"terms":["proton"],"fields":["name","brand","{shop/car}"],"tags":{"brand:wikidata":"Q827306","shop":"car"},"addTags":{"brand":"Proton","brand:wikidata":"Q827306","name":"Proton","shop":"car"}},"shop/car_repair/firestone-a35932":{"name":"Firestone","locationSet":{"include":["ca","cl","us"]},"geometry":["point","area"],"matchScore":2,"terms":["firestone","firestone complete auto care"],"fields":["name","brand","{shop/car_repair}"],"tags":{"brand:wikidata":"Q420837","shop":"car_repair"},"addTags":{"brand":"Firestone","brand:wikidata":"Q420837","name":"Firestone","official_name":"Firestone Complete Auto Care","shop":"car_repair"}},"shop/car_repair/goodyear-d2aca7":{"name":"Goodyear","locationSet":{"include":["au","ca","cl","pe","us"]},"geometry":["point","area"],"matchScore":2,"terms":["goodyear","goodyear auto service center","goodyear commercial tire & service centers"],"fields":["name","brand","{shop/car_repair}"],"tags":{"brand:wikidata":"Q620875","shop":"car_repair"},"addTags":{"brand":"Goodyear","brand:wikidata":"Q620875","name":"Goodyear","shop":"car_repair"}},"shop/car_repair/proton-38d190":{"name":"Proton","locationSet":{"include":["cl","eg","id","my","sg","th"]},"geometry":["point","area"],"matchScore":2,"terms":["proton"],"fields":["name","brand","{shop/car_repair}"],"tags":{"brand:wikidata":"Q827306","shop":"car_repair"},"addTags":{"brand":"Proton","brand:wikidata":"Q827306","name":"Proton","shop":"car_repair"}},"shop/clothes/elganso-bf6c2f":{"name":"El Ganso","locationSet":{"include":["cl","es","fr","kw","mx","pt"]},"geometry":["point","area"],"matchScore":2,"terms":["el ganso"],"tags":{"brand:wikidata":"Q51955203","shop":"clothes"},"addTags":{"brand":"El Ganso","brand:wikidata":"Q51955203","name":"El Ganso","shop":"clothes"}},"shop/clothes/gu-ff89be":{"name":"GU","locationSet":{"include":["cl","cn","kr","tw","us"]},"geometry":["point","area"],"matchScore":2,"terms":["gu"],"tags":{"brand:wikidata":"Q5512642","shop":"clothes"},"addTags":{"brand":"GU","brand:wikidata":"Q5512642","name":"GU","shop":"clothes"}},"shop/clothes/patagonia-5dc190":{"name":"Patagonia","locationSet":{"include":["ar","at","au","ca","cl","cn","cz","de","fx","gb","ie","it","jp","kr","pe","tw","us"]},"geometry":["point","area"],"matchScore":2,"terms":["patagonia"],"tags":{"brand:wikidata":"Q1660552","shop":"clothes"},"addTags":{"brand":"Patagonia","brand:wikidata":"Q1660552","clothes":"outdoor","name":"Patagonia","shop":"clothes"}},"shop/clothes/todomoda-69b017":{"name":"Todomoda","locationSet":{"include":["ar","br","cl","mx","pe"]},"geometry":["point","area"],"matchScore":2,"terms":["todomoda"],"tags":{"brand:wikidata":"Q115898759","shop":"clothes"},"addTags":{"brand":"Todomoda","brand:wikidata":"Q115898759","name":"Todomoda","shop":"clothes"}},"shop/convenience/okmarket-e95ed6":{"name":"OK Market","locationSet":{"include":["cl"]},"geometry":["point","area"],"matchScore":2,"terms":["ok market"],"tags":{"brand:wikidata":"Q6047736","shop":"convenience"},"addTags":{"brand":"OK Market","brand:wikidata":"Q6047736","name":"OK Market","shop":"convenience"}},"shop/convenience/oxxo-8364f9":{"name":"Oxxo","locationSet":{"include":["br","cl","co","cr","mx","pe","us"]},"geometry":["point","area"],"matchScore":2,"terms":["oxxo"],"tags":{"brand:wikidata":"Q1342538","shop":"convenience"},"addTags":{"brand":"Oxxo","brand:wikidata":"Q1342538","name":"Oxxo","shop":"convenience"}},"shop/convenience/stripes-cc811e":{"name":"Stripes","locationSet":{"include":["cl","us"]},"geometry":["point","area"],"matchScore":2,"terms":["stripes"],"tags":{"brand:wikidata":"Q7624135","shop":"convenience"},"addTags":{"brand":"Stripes","brand:wikidata":"Q7624135","name":"Stripes","shop":"convenience"}},"shop/department_store/falabella-f2bfac":{"name":"Falabella","locationSet":{"include":["ar","cl","co","pe"]},"geometry":["point","area"],"matchScore":2,"terms":["falabella","saga falabella"],"tags":{"brand:wikidata":"Q5135229","shop":"department_store"},"addTags":{"brand":"Falabella","brand:wikidata":"Q5135229","name":"Falabella","shop":"department_store"}},"shop/department_store/paris-f81fcb":{"name":"París","locationSet":{"include":["cl","pe"]},"geometry":["point","area"],"matchScore":2,"terms":["parís"],"tags":{"brand:wikidata":"Q20812805","shop":"department_store"},"addTags":{"brand":"París","brand:wikidata":"Q20812805","name":"París","shop":"department_store"}},"shop/department_store/ripley-f81fcb":{"name":"Ripley","locationSet":{"include":["cl","pe"]},"geometry":["point","area"],"matchScore":2,"terms":["ripley"],"tags":{"brand:wikidata":"Q3433040","shop":"department_store"},"addTags":{"brand":"Ripley","brand:wikidata":"Q3433040","name":"Ripley","shop":"department_store"}},"shop/doityourself/easy-063ae0":{"name":"Easy","locationSet":{"include":["ar","cl","co"]},"geometry":["point","area"],"matchScore":2,"terms":["easy"],"tags":{"brand:wikidata":"Q5331091","shop":"doityourself"},"addTags":{"brand":"Easy","brand:wikidata":"Q5331091","name":"Easy","shop":"doityourself"}},"shop/doityourself/sodimac-0b4811":{"name":"Sodimac","locationSet":{"include":["ar","br","cl","co","mx","pe","uy"]},"geometry":["point","area"],"matchScore":2,"terms":["sodimac","sodimac constructor"],"tags":{"brand:wikidata":"Q7553274","shop":"doityourself"},"addTags":{"brand":"Sodimac","brand:wikidata":"Q7553274","name":"Sodimac","shop":"doityourself"}},"shop/hairdresser_supply/sallybeauty-0c832a":{"name":"Sally Beauty","locationSet":{"include":["be","ca","cl","de","es","fr","gb","ie","mx","nl","pe","pr","us"]},"geometry":["point","area"],"matchScore":2,"terms":["sally beauty","sally beauty supply"],"tags":{"brand:wikidata":"Q7405065","shop":"hairdresser_supply"},"addTags":{"alt_name":"Sally Beauty Supply","brand":"Sally Beauty","brand:wikidata":"Q7405065","name":"Sally Beauty","shop":"hairdresser_supply"}},"shop/hearing_aids/gaes-681898":{"name":"GAES","locationSet":{"include":["ar","cl","co","ec","es","mx","pa"]},"geometry":["point","area"],"matchScore":2,"terms":["gaes"],"tags":{"brand:wikidata":"Q98492565","shop":"hearing_aids"},"addTags":{"brand":"GAES","brand:wikidata":"Q98492565","name":"GAES","shop":"hearing_aids"}},"shop/mobile_phone/claro-1c9651":{"name":"Claro","locationSet":{"include":["ar","br","cl","co","cr","do","ec","gt","hn","ni","pa","pe","pr","py","sv","uy"]},"geometry":["point","area"],"matchScore":2,"terms":["claro","claro brasil"],"tags":{"brand:wikidata":"Q1770208","shop":"mobile_phone"},"addTags":{"brand":"Claro","brand:wikidata":"Q1770208","name":"Claro","shop":"mobile_phone"}},"shop/mobile_phone/entel-5960ea":{"name":"Entel","locationSet":{"include":["cl","pe"]},"geometry":["point","area"],"matchScore":2,"terms":["entel"],"tags":{"brand:wikidata":"Q450420","shop":"mobile_phone"},"addTags":{"brand":"Entel","brand:wikidata":"Q450420","name":"Entel","shop":"mobile_phone"}},"shop/mobile_phone/movistar-de0f48":{"name":"Movistar","locationSet":{"include":["ar","cl","co","cr","ec","es","gt","mx","ni","pa","pe","sv","uy","ve"]},"geometry":["point","area"],"matchScore":2,"terms":["movistar","movistar españa"],"tags":{"brand:wikidata":"Q967735","shop":"mobile_phone"},"addTags":{"brand":"Movistar","brand:wikidata":"Q967735","name":"Movistar","shop":"mobile_phone"}},"shop/supermarket/ekono-d25066":{"name":"Ekono","locationSet":{"include":["cl"]},"geometry":["point","area"],"matchScore":2,"terms":["ekono"],"tags":{"brand:wikidata":"Q2842729","shop":"supermarket"},"addTags":{"brand":"Ekono","brand:wikidata":"Q2842729","name":"Ekono","shop":"supermarket"}},"shop/supermarket/jumbo-99a0d7":{"name":"Jumbo (Cencosud)","locationSet":{"include":["ar","cl","co"]},"geometry":["point","area"],"matchScore":2,"terms":["jumbo"],"tags":{"brand:wikidata":"Q6310864","shop":"supermarket"},"addTags":{"brand":"Jumbo","brand:wikidata":"Q6310864","name":"Jumbo","shop":"supermarket"}},"shop/supermarket/lider-d25066":{"name":"Lider","locationSet":{"include":["cl"]},"geometry":["point","area"],"matchScore":2,"terms":["lider"],"tags":{"brand:wikidata":"Q6711261","shop":"supermarket"},"addTags":{"brand":"Lider","brand:wikidata":"Q6711261","name":"Lider","shop":"supermarket"}},"shop/supermarket/liderexpress-d25066":{"name":"Lider Express","locationSet":{"include":["cl"]},"geometry":["point","area"],"matchScore":2,"terms":["lider"],"tags":{"brand:wikidata":"Q6711261","shop":"supermarket"},"addTags":{"brand":"Lider","brand:wikidata":"Q6711261","name":"Lider Express","shop":"supermarket"}},"shop/supermarket/santaisabel-d25066":{"name":"Santa Isabel","locationSet":{"include":["cl"]},"geometry":["point","area"],"matchScore":2,"terms":["santa isabel"],"tags":{"brand:wikidata":"Q7419620","shop":"supermarket"},"addTags":{"brand":"Santa Isabel","brand:wikidata":"Q7419620","name":"Santa Isabel","shop":"supermarket"}},"shop/supermarket/tottus-b9e971":{"name":"Tottus","locationSet":{"include":["cl","pe"]},"geometry":["point","area"],"matchScore":2,"terms":["tottus"],"tags":{"brand:wikidata":"Q7828510","shop":"supermarket"},"addTags":{"brand":"Tottus","brand:wikidata":"Q7828510","name":"Tottus","shop":"supermarket"}},"shop/supermarket/unimarc-d25066":{"name":"Unimarc","locationSet":{"include":["cl"]},"geometry":["point","area"],"matchScore":2,"terms":["unimarc"],"tags":{"brand:wikidata":"Q6156244","shop":"supermarket"},"addTags":{"brand":"Unimarc","brand:wikidata":"Q6156244","name":"Unimarc","shop":"supermarket"}},"shop/travel_agency/viajeselcorteingles-d900b5":{"name":"Viajes El Corte Inglés","locationSet":{"include":["ar","cl","co","do","ec","es","fr","it","mx","pa","pe","pt","uy"]},"geometry":["point","area"],"matchScore":2,"terms":["viajes el corte inglés"],"tags":{"brand:wikidata":"Q115268048","shop":"travel_agency"},"addTags":{"brand":"Viajes El Corte Inglés","brand:wikidata":"Q115268048","name":"Viajes El Corte Inglés","shop":"travel_agency"}},"tourism/hotel/cityexpress-c4ac5a":{"name":"City Express","locationSet":{"include":["cl","co","cr","mx"]},"geometry":["point","area"],"matchScore":2,"terms":["city express"],"fields":["name","brand","{tourism/hotel}"],"tags":{"brand:wikidata":"Q109329542","tourism":"hotel"},"addTags":{"brand":"City Express","brand:wikidata":"Q109329542","name":"City Express","tourism":"hotel"}},"tourism/hotel/laquintainn-a0e6b5":{"name":"La Quinta Inn","locationSet":{"include":["ca","cl","co","hn","mx","us"]},"geometry":["point","area"],"matchScore":2,"terms":["la quinta","la quinta by wyndham","la quinta inn","la quinta inn by wyndham"],"fields":["name","brand","{tourism/hotel}"],"tags":{"brand:wikidata":"Q6464734","tourism":"hotel"},"addTags":{"brand":"La Quinta Inn","brand:wikidata":"Q6464734","name":"La Quinta Inn","official_name":"La Quinta Inn by Wyndham","tourism":"hotel"}},"tourism/hotel/nhcollectionhotels-f05c75":{"name":"NH Collection Hotels","locationSet":{"include":["ad","ar","at","be","cl","co","cu","cz","de","dk","ec","es","fr","hu","it","mx","nl","pt","qa","us-ny"]},"geometry":["point","area"],"matchScore":2,"terms":["nh collection hotels"],"fields":["name","brand","{tourism/hotel}"],"tags":{"brand:wikidata":"Q1604631","tourism":"hotel"},"addTags":{"brand":"NH Collection Hotels","brand:wikidata":"Q1604631","name":"NH Collection Hotels","tourism":"hotel"}},"tourism/hotel/nhhotel-e9b4fb":{"name":"NH Hotels","locationSet":{"include":["ad","ar","at","be","br","ch","cl","co","cu","cz","de","es","fr","hu","it","lu","mx","nl","pl","pt"]},"geometry":["point","area"],"matchScore":2,"terms":["nh hotels"],"fields":["name","brand","{tourism/hotel}"],"tags":{"brand:wikidata":"Q1604631","tourism":"hotel"},"addTags":{"brand":"NH Hotels","brand:wikidata":"Q1604631","name":"NH Hotel","tourism":"hotel"}},"tourism/hotel/sonesta-690134":{"name":"Sonesta","locationSet":{"include":["ca","cl","co","ec","eg","pe","sx","us"]},"geometry":["point","area"],"matchScore":2,"terms":["sonesta","sonesta hotel"],"fields":["name","brand","{tourism/hotel}"],"tags":{"brand:wikidata":"Q81003878","tourism":"hotel"},"addTags":{"alt_name":"Sonesta Hotel","brand":"Sonesta","brand:wikidata":"Q81003878","name":"Sonesta","tourism":"hotel"}},"amenity/charging_station/copec-df2b32":{"name":"Copec","locationSet":{"include":["cl"]},"geometry":["point","vertex","area"],"matchScore":2,"terms":["copec"],"fields":["name","operator","{amenity/charging_station}"],"tags":{"amenity":"charging_station","operator:wikidata":"Q1130956"},"addTags":{"amenity":"charging_station","operator":"Copec","operator:wikidata":"Q1130956"}},"amenity/charging_station/enelx-bdf07e":{"name":"Enel X","locationSet":{"include":["cl","it","ro"]},"geometry":["point","vertex","area"],"matchScore":2,"terms":["enel x","enel x metbus"],"fields":["name","operator","{amenity/charging_station}"],"tags":{"amenity":"charging_station","operator:wikidata":"Q5376815"},"addTags":{"amenity":"charging_station","brand":"Enel X","brand:wikidata":"Q5376815","name":"Enel X","operator":"Enel X","operator:wikidata":"Q5376815"}},"amenity/courthouse/poderjudicial-64080d":{"name":"Poder Judicial (Chile)","locationSet":{"include":["cl"]},"geometry":["point","area"],"matchScore":2,"terms":["poder judicial"],"tags":{"amenity":"courthouse","operator:wikidata":"Q6303091"},"addTags":{"amenity":"courthouse","operator":"Poder Judicial","operator:wikidata":"Q6303091"}},"amenity/fire_station/cuerpodebomberosdevinadelmar-dc8827":{"name":"Cuerpo de Bomberos de Viña del Mar","locationSet":{"include":["cl"]},"geometry":["point","area"],"matchScore":2,"terms":["cuerpo de bomberos de viña del mar"],"tags":{"amenity":"fire_station","operator:wikidata":"Q25405758"},"addTags":{"amenity":"fire_station","operator":"Cuerpo de Bomberos de Viña del Mar","operator:wikidata":"Q25405758"}},"amenity/hospital/cruzroja-16e9ec":{"name":"Cruz Roja","locationSet":{"include":["ar","cl","co","es","mx"]},"geometry":["area","point"],"matchScore":2,"terms":["cruz roja"],"fields":["name","operator","{amenity/hospital}"],"reference":{"key":"amenity","value":"hospital"},"tags":{"amenity":"hospital","operator:wikidata":"Q7178"},"addTags":{"amenity":"hospital","healthcare":"hospital","name":"Cruz Roja","operator":"Cruz Roja","operator:wikidata":"Q7178"}},"amenity/police/carabinerosdechile-2e4672":{"name":"Carabineros de Chile","locationSet":{"include":["cl"]},"geometry":["point","area"],"matchScore":2,"terms":["carabineros de chile"],"tags":{"amenity":"police","operator:wikidata":"Q2317752"},"addTags":{"amenity":"police","operator":"Carabineros de Chile","operator:wikidata":"Q2317752"}},"amenity/post_box/chilexpress-5e8ca4":{"name":"Chilexpress","locationSet":{"include":["cl"]},"geometry":["point","vertex"],"matchScore":2,"terms":["chilexpress"],"tags":{"amenity":"post_box","operator:wikidata":"Q120969879"},"addTags":{"amenity":"post_box","operator":"Chilexpress","operator:wikidata":"Q120969879"}},"amenity/post_box/correosdechile-5e8ca4":{"name":"Correos de Chile","locationSet":{"include":["cl"]},"geometry":["point","vertex"],"matchScore":2,"terms":["correos de chile"],"tags":{"amenity":"post_box","operator:wikidata":"Q5172893"},"addTags":{"amenity":"post_box","operator":"Correos de Chile","operator:wikidata":"Q5172893"}},"amenity/post_office/chilexpress-3d11d9":{"name":"Chilexpress","locationSet":{"include":["cl"]},"geometry":["point","area"],"matchScore":2,"terms":["chilexpress"],"fields":["name","operator","{amenity/post_office}"],"tags":{"amenity":"post_office","operator:wikidata":"Q120969879"},"addTags":{"amenity":"post_office","operator":"Chilexpress","operator:wikidata":"Q120969879"}},"amenity/post_office/correosdechile-3d11d9":{"name":"Correos de Chile","locationSet":{"include":["cl"]},"geometry":["point","area"],"matchScore":2,"terms":["correos de chile"],"fields":["name","operator","{amenity/post_office}"],"tags":{"amenity":"post_office","operator:wikidata":"Q5172893"},"addTags":{"amenity":"post_office","operator":"Correos de Chile","operator:wikidata":"Q5172893"}},"amenity/school/ministeriodeeducacion-5e33f0":{"name":"Ministerio de Educación (Chile)","locationSet":{"include":["cl"]},"geometry":["area","point"],"matchScore":2,"terms":["mineduc","ministerio de educación"],"tags":{"amenity":"school","operator:wikidata":"Q3079732"},"addTags":{"amenity":"school","operator":"Ministerio de Educación","operator:short":"MINEDUC","operator:type":"public","operator:wikidata":"Q3079732"}},"amenity/telephone/claro-6490cd":{"name":"Claro","locationSet":{"include":["ai","ag","aw","bs","bb","bq","vg","ky","cu","cw","dm","do","gd","gp","ht","jm","mq","ms","pr","bl","kn","lc","mf","vc","sx","tt","tc","vi","bz","cr","sv","gt","hn","mx","ni","pa","ar","bo","bv","br","cl","co","ec","fk","gf","gy","py","pe","gs","sr","uy","ve"]},"geometry":["point","vertex"],"matchScore":2,"terms":["claro"],"fields":["name","operator","{amenity/telephone}"],"tags":{"amenity":"telephone","operator:wikidata":"Q1770208"},"addTags":{"amenity":"telephone","operator":"Claro","operator:wikidata":"Q1770208"}},"man_made/charge_point/copec-579fc5":{"name":"Copec","locationSet":{"include":["cl"]},"geometry":["point"],"matchScore":2,"terms":["copec"],"fields":["name","operator","{man_made/charge_point}"],"tags":{"man_made":"charge_point","operator:wikidata":"Q1130956"},"addTags":{"man_made":"charge_point","operator":"Copec","operator:wikidata":"Q1130956"}},"man_made/charge_point/enelx-f8853a":{"name":"Enel X","locationSet":{"include":["cl","it","ro"]},"geometry":["point"],"matchScore":2,"terms":["enel x","enel x metbus"],"fields":["name","operator","{man_made/charge_point}"],"tags":{"man_made":"charge_point","operator:wikidata":"Q5376815"},"addTags":{"brand":"Enel X","brand:wikidata":"Q5376815","man_made":"charge_point","operator":"Enel X","operator:wikidata":"Q5376815"}},"office/energy_supplier/naturgy-e15d8a":{"name":"Naturgy","locationSet":{"include":["ar","au","be","br","cl","cn","cr","de","do","dz","eg","es","fr","gb","ie","in","jm","jo","jp","lu","ma","mx","nl","om","pa","pe","pk","pr","pt","sg"]},"geometry":["point","area"],"matchScore":2,"terms":["naturgy"],"tags":{"office":"energy_supplier","operator:wikidata":"Q474690"},"addTags":{"name":"Naturgy","office":"energy_supplier","operator":"Naturgy","operator:wikidata":"Q474690"}},"office/government/gendarmeria-974d55":{"name":"Gendarmería","locationSet":{"include":["cl"]},"geometry":["point","area"],"matchScore":2,"terms":["gendarmería"],"fields":["name","operator","{office/government}"],"tags":{"office":"government","operator:wikidata":"Q3100431"},"addTags":{"office":"government","operator":"Gendarmería","operator:wikidata":"Q3100431"}},"power/generator/aesandes-0e0bfd":{"name":"Aes Andes","locationSet":{"include":["ar","cl"]},"geometry":["point","vertex","area"],"matchScore":2,"terms":["aes andes","aes gener"],"tags":{"operator:wikidata":"Q4651363","power":"generator"},"addTags":{"operator":"Aes Andes","operator:wikidata":"Q4651363","power":"generator"}},"power/generator/colbunsa-daaa5a":{"name":"Colbún S.A.","locationSet":{"include":["cl"]},"geometry":["point","vertex","area"],"matchScore":2,"terms":["colbún s.a."],"tags":{"operator:wikidata":"Q2982375","power":"generator"},"addTags":{"operator":"Colbún S.A.","operator:wikidata":"Q2982375","power":"generator"}},"power/line/aesandes-551283":{"name":"AES Andes","locationSet":{"include":["ar","cl"]},"geometry":["line"],"matchScore":2,"terms":["aes andes","aes gener"],"tags":{"operator:wikidata":"Q4651363","power":"line"},"addTags":{"operator":"AES Andes","operator:wikidata":"Q4651363","power":"line"}},"power/line/cge-ea1a07":{"name":"CGE","locationSet":{"include":["cl"]},"geometry":["line"],"matchScore":2,"terms":["cge"],"tags":{"operator:wikidata":"Q2990390","power":"line"},"addTags":{"operator":"CGE","operator:wikidata":"Q2990390","power":"line"}},"power/line/codelcochile-ea1a07":{"name":"Codelco Chile","locationSet":{"include":["cl"]},"geometry":["line"],"matchScore":2,"terms":["codelco chile"],"tags":{"operator:wikidata":"Q1105695","power":"line"},"addTags":{"operator":"Codelco Chile","operator:wikidata":"Q1105695","power":"line"}},"power/line/colbun-ea1a07":{"name":"Colbún","locationSet":{"include":["cl"]},"geometry":["line"],"matchScore":2,"terms":["colbún"],"tags":{"operator:wikidata":"Q2982375","power":"line"},"addTags":{"operator":"Colbún","operator:wikidata":"Q2982375","power":"line"}},"power/line/mineraescondida-ea1a07":{"name":"Minera Escondida","locationSet":{"include":["cl"]},"geometry":["line"],"matchScore":2,"terms":["minera escondida"],"tags":{"operator:wikidata":"Q588433","power":"line"},"addTags":{"operator":"Minera Escondida","operator:wikidata":"Q588433","power":"line"}},"power/line/sqm-ea1a07":{"name":"SQM","locationSet":{"include":["cl"]},"geometry":["line"],"matchScore":2,"terms":["sqm"],"tags":{"operator:wikidata":"Q3067064","power":"line"},"addTags":{"operator":"SQM","operator:wikidata":"Q3067064","power":"line"}},"power/line/transelec-ea1a07":{"name":"Transelec","locationSet":{"include":["cl"]},"geometry":["line"],"matchScore":2,"terms":["transelec"],"tags":{"operator:wikidata":"Q5572779","power":"line"},"addTags":{"operator":"Transelec","operator:wikidata":"Q5572779","power":"line"}},"power/minor_line/aesandes-b598fb":{"name":"AES Andes","locationSet":{"include":["ar","cl"]},"geometry":["line"],"matchScore":2,"terms":["aes andes","aes gener"],"tags":{"operator:wikidata":"Q4651363","power":"minor_line"},"addTags":{"operator":"AES Andes","operator:wikidata":"Q4651363","power":"minor_line"}},"power/minor_line/cge-68c0ce":{"name":"CGE","locationSet":{"include":["cl"]},"geometry":["line"],"matchScore":2,"terms":["cge"],"tags":{"operator:wikidata":"Q2990390","power":"minor_line"},"addTags":{"operator":"CGE","operator:wikidata":"Q2990390","power":"minor_line"}},"power/minor_line/codelcochile-68c0ce":{"name":"Codelco Chile","locationSet":{"include":["cl"]},"geometry":["line"],"matchScore":2,"terms":["codelco chile"],"tags":{"operator:wikidata":"Q1105695","power":"minor_line"},"addTags":{"operator":"Codelco Chile","operator:wikidata":"Q1105695","power":"minor_line"}},"power/minor_line/colbun-68c0ce":{"name":"Colbún","locationSet":{"include":["cl"]},"geometry":["line"],"matchScore":2,"terms":["colbún"],"tags":{"operator:wikidata":"Q2982375","power":"minor_line"},"addTags":{"operator":"Colbún","operator:wikidata":"Q2982375","power":"minor_line"}},"power/minor_line/mineraescondida-68c0ce":{"name":"Minera Escondida","locationSet":{"include":["cl"]},"geometry":["line"],"matchScore":2,"terms":["minera escondida"],"tags":{"operator:wikidata":"Q588433","power":"minor_line"},"addTags":{"operator":"Minera Escondida","operator:wikidata":"Q588433","power":"minor_line"}},"power/minor_line/sqm-68c0ce":{"name":"SQM","locationSet":{"include":["cl"]},"geometry":["line"],"matchScore":2,"terms":["sqm"],"tags":{"operator:wikidata":"Q3067064","power":"minor_line"},"addTags":{"operator":"SQM","operator:wikidata":"Q3067064","power":"minor_line"}},"power/minor_line/transelec-68c0ce":{"name":"Transelec","locationSet":{"include":["cl"]},"geometry":["line"],"matchScore":2,"terms":["transelec"],"tags":{"operator:wikidata":"Q5572779","power":"minor_line"},"addTags":{"operator":"Transelec","operator:wikidata":"Q5572779","power":"minor_line"}},"power/plant/aesandes-da5611":{"name":"AES Andes","locationSet":{"include":["cl"]},"geometry":["area"],"matchScore":2,"terms":["aes","aes andes","aes gener"],"tags":{"operator:wikidata":"Q4651363","power":"plant"},"addTags":{"operator":"AES Andes","operator:wikidata":"Q4651363","power":"plant"}},"power/plant/colbun-da5611":{"name":"Colbún","locationSet":{"include":["cl"]},"geometry":["area"],"matchScore":2,"terms":["colbún"],"tags":{"operator:wikidata":"Q2982375","power":"plant"},"addTags":{"operator":"Colbún","operator:wikidata":"Q2982375","power":"plant"}},"power/plant/innergex-8a7037":{"name":"Innergex","locationSet":{"include":["ca","cl","fr","us"]},"geometry":["area"],"matchScore":2,"terms":["innergex"],"tags":{"operator:wikidata":"Q3151374","power":"plant"},"addTags":{"operator":"Innergex","operator:wikidata":"Q3151374","power":"plant"}},"power/pole/aesandes-d84880":{"name":"AES Andes","locationSet":{"include":["ar","cl"]},"geometry":["point","vertex"],"matchScore":2,"terms":["aes andes","aes gener"],"tags":{"operator:wikidata":"Q4651363","power":"pole"},"addTags":{"operator":"AES Andes","operator:wikidata":"Q4651363","power":"pole"}},"power/pole/cge-565432":{"name":"CGE","locationSet":{"include":["cl"]},"geometry":["point","vertex"],"matchScore":2,"terms":["cge"],"tags":{"operator:wikidata":"Q2990390","power":"pole"},"addTags":{"operator":"CGE","operator:wikidata":"Q2990390","power":"pole"}},"power/pole/codelcochile-565432":{"name":"Codelco Chile","locationSet":{"include":["cl"]},"geometry":["point","vertex"],"matchScore":2,"terms":["codelco chile"],"tags":{"operator:wikidata":"Q1105695","power":"pole"},"addTags":{"operator":"Codelco Chile","operator:wikidata":"Q1105695","power":"pole"}},"power/pole/colbun-565432":{"name":"Colbún","locationSet":{"include":["cl"]},"geometry":["point","vertex"],"matchScore":2,"terms":["colbún"],"tags":{"operator:wikidata":"Q2982375","power":"pole"},"addTags":{"operator":"Colbún","operator:wikidata":"Q2982375","power":"pole"}},"power/pole/mineraescondida-565432":{"name":"Minera Escondida","locationSet":{"include":["cl"]},"geometry":["point","vertex"],"matchScore":2,"terms":["minera escondida"],"tags":{"operator:wikidata":"Q588433","power":"pole"},"addTags":{"operator":"Minera Escondida","operator:wikidata":"Q588433","power":"pole"}},"power/pole/sqm-565432":{"name":"SQM","locationSet":{"include":["cl"]},"geometry":["point","vertex"],"matchScore":2,"terms":["sqm"],"tags":{"operator:wikidata":"Q3067064","power":"pole"},"addTags":{"operator":"SQM","operator:wikidata":"Q3067064","power":"pole"}},"power/pole/transelec-565432":{"name":"Transelec","locationSet":{"include":["cl"]},"geometry":["point","vertex"],"matchScore":2,"terms":["transelec"],"tags":{"operator:wikidata":"Q5572779","power":"pole"},"addTags":{"operator":"Transelec","operator:wikidata":"Q5572779","power":"pole"}},"power/substation/aesandes-1d9244":{"name":"AES Andes","locationSet":{"include":["ar","cl"]},"geometry":["area","point"],"matchScore":2,"terms":["aes andes","aes gener"],"tags":{"operator:wikidata":"Q4651363","power":"substation"},"addTags":{"operator":"AES Andes","operator:wikidata":"Q4651363","power":"substation"}},"power/substation/cge-6cc51c":{"name":"CGE","locationSet":{"include":["cl"]},"geometry":["area","point"],"matchScore":2,"terms":["cge","cge transmisión"],"tags":{"operator:wikidata":"Q2990390","power":"substation"},"addTags":{"operator":"CGE","operator:wikidata":"Q2990390","power":"substation"}},"power/substation/codelcochile-6cc51c":{"name":"Codelco Chile","locationSet":{"include":["cl"]},"geometry":["area","point"],"matchScore":2,"terms":["codelco chile"],"tags":{"operator:wikidata":"Q1105695","power":"substation"},"addTags":{"operator":"Codelco Chile","operator:wikidata":"Q1105695","power":"substation"}},"power/substation/colbun-6cc51c":{"name":"Colbún","locationSet":{"include":["cl"]},"geometry":["area","point"],"matchScore":2,"terms":["colbún"],"tags":{"operator:wikidata":"Q2982375","power":"substation"},"addTags":{"operator":"Colbún","operator:wikidata":"Q2982375","power":"substation"}},"power/substation/efe-6cc51c":{"name":"EFE","locationSet":{"include":["cl"]},"geometry":["area","point"],"matchScore":2,"terms":["efe"],"tags":{"operator:wikidata":"Q679910","power":"substation"},"addTags":{"operator":"EFE","operator:wikidata":"Q679910","power":"substation"}},"power/substation/eneldistribucionchile-6cc51c":{"name":"Enel Distribución Chile","locationSet":{"include":["cl"]},"geometry":["area","point"],"matchScore":2,"terms":["enel distribución chile"],"tags":{"operator:wikidata":"Q5779688","power":"substation"},"addTags":{"operator":"Enel Distribución Chile","operator:wikidata":"Q5779688","power":"substation"}},"power/substation/mineraescondida-6cc51c":{"name":"Minera Escondida","locationSet":{"include":["cl"]},"geometry":["area","point"],"matchScore":2,"terms":["minera escondida"],"tags":{"operator:wikidata":"Q588433","power":"substation"},"addTags":{"operator":"Minera Escondida","operator:wikidata":"Q588433","power":"substation"}},"power/substation/transelec-6cc51c":{"name":"Transelec","locationSet":{"include":["cl"]},"geometry":["area","point"],"matchScore":2,"terms":["transelec"],"tags":{"operator:wikidata":"Q5572779","power":"substation"},"addTags":{"operator":"Transelec","operator:wikidata":"Q5572779","power":"substation"}},"power/tower/aesandes-df3eaa":{"name":"AES Andes","locationSet":{"include":["ar","cl"]},"geometry":["point","vertex"],"matchScore":2,"terms":["aes andes","aes gener"],"tags":{"operator:wikidata":"Q4651363","power":"tower"},"addTags":{"operator":"AES Andes","operator:wikidata":"Q4651363","power":"tower"}},"power/tower/cge-539b17":{"name":"CGE","locationSet":{"include":["cl"]},"geometry":["point","vertex"],"matchScore":2,"terms":["cge"],"tags":{"operator:wikidata":"Q2990390","power":"tower"},"addTags":{"operator":"CGE","operator:wikidata":"Q2990390","power":"tower"}},"power/tower/codelcochile-539b17":{"name":"Codelco Chile","locationSet":{"include":["cl"]},"geometry":["point","vertex"],"matchScore":2,"terms":["codelco chile"],"tags":{"operator:wikidata":"Q1105695","power":"tower"},"addTags":{"operator":"Codelco Chile","operator:wikidata":"Q1105695","power":"tower"}},"power/tower/colbun-539b17":{"name":"Colbún","locationSet":{"include":["cl"]},"geometry":["point","vertex"],"matchScore":2,"terms":["colbún"],"tags":{"operator:wikidata":"Q2982375","power":"tower"},"addTags":{"operator":"Colbún","operator:wikidata":"Q2982375","power":"tower"}},"power/tower/mineraescondida-539b17":{"name":"Minera Escondida","locationSet":{"include":["cl"]},"geometry":["point","vertex"],"matchScore":2,"terms":["minera escondida"],"tags":{"operator:wikidata":"Q588433","power":"tower"},"addTags":{"operator":"Minera Escondida","operator:wikidata":"Q588433","power":"tower"}},"power/tower/sqm-539b17":{"name":"SQM","locationSet":{"include":["cl"]},"geometry":["point","vertex"],"matchScore":2,"terms":["sqm"],"tags":{"operator:wikidata":"Q3067064","power":"tower"},"addTags":{"operator":"SQM","operator:wikidata":"Q3067064","power":"tower"}},"power/tower/transelec-539b17":{"name":"Transelec","locationSet":{"include":["cl"]},"geometry":["point","vertex"],"matchScore":2,"terms":["transelec"],"tags":{"operator:wikidata":"Q5572779","power":"tower"},"addTags":{"operator":"Transelec","operator:wikidata":"Q5572779","power":"tower"}},"power/transformer/aesandes-43b659":{"name":"AES Andes","locationSet":{"include":["ar","cl"]},"geometry":["point","vertex"],"matchScore":2,"terms":["aes andes","aes gener"],"tags":{"operator:wikidata":"Q4651363","power":"transformer"},"addTags":{"operator":"AES Andes","operator:wikidata":"Q4651363","power":"transformer"}},"power/transformer/cge-1cd455":{"name":"CGE","locationSet":{"include":["cl"]},"geometry":["point","vertex"],"matchScore":2,"terms":["cge","cge transmisión"],"tags":{"operator:wikidata":"Q2990390","power":"transformer"},"addTags":{"operator":"CGE","operator:wikidata":"Q2990390","power":"transformer"}},"power/transformer/codelcochile-1cd455":{"name":"Codelco Chile","locationSet":{"include":["cl"]},"geometry":["point","vertex"],"matchScore":2,"terms":["codelco chile"],"tags":{"operator:wikidata":"Q1105695","power":"transformer"},"addTags":{"operator":"Codelco Chile","operator:wikidata":"Q1105695","power":"transformer"}},"power/transformer/colbun-1cd455":{"name":"Colbún","locationSet":{"include":["cl"]},"geometry":["point","vertex"],"matchScore":2,"terms":["colbún"],"tags":{"operator:wikidata":"Q2982375","power":"transformer"},"addTags":{"operator":"Colbún","operator:wikidata":"Q2982375","power":"transformer"}},"power/transformer/efe-1cd455":{"name":"EFE","locationSet":{"include":["cl"]},"geometry":["point","vertex"],"matchScore":2,"terms":["efe"],"tags":{"operator:wikidata":"Q679910","power":"transformer"},"addTags":{"operator":"EFE","operator:wikidata":"Q679910","power":"transformer"}},"power/transformer/eneldistribucionchile-1cd455":{"name":"Enel Distribución Chile","locationSet":{"include":["cl"]},"geometry":["point","vertex"],"matchScore":2,"terms":["enel distribución chile"],"tags":{"operator:wikidata":"Q5779688","power":"transformer"},"addTags":{"operator":"Enel Distribución Chile","operator:wikidata":"Q5779688","power":"transformer"}},"power/transformer/mineraescondida-1cd455":{"name":"Minera Escondida","locationSet":{"include":["cl"]},"geometry":["point","vertex"],"matchScore":2,"terms":["minera escondida"],"tags":{"operator:wikidata":"Q588433","power":"transformer"},"addTags":{"operator":"Minera Escondida","operator:wikidata":"Q588433","power":"transformer"}},"power/transformer/transelec-1cd455":{"name":"Transelec","locationSet":{"include":["cl"]},"geometry":["point","vertex"],"matchScore":2,"terms":["transelec"],"tags":{"operator:wikidata":"Q5572779","power":"transformer"},"addTags":{"operator":"Transelec","operator:wikidata":"Q5572779","power":"transformer"}},"type/route/power/aesandes-0cf561":{"name":"AES Andes","locationSet":{"include":["ar","cl"]},"geometry":["relation"],"matchScore":2,"terms":["aes","aes andes","aes gener"],"reference":{"key":"route","value":"power"},"tags":{"operator:wikidata":"Q4651363","route":"power","type":"route"},"addTags":{"operator":"AES Andes","operator:wikidata":"Q4651363","route":"power","type":"route"}},"type/route/power/codelcochile-8df055":{"name":"Codelco Chile","locationSet":{"include":["cl"]},"geometry":["relation"],"matchScore":2,"terms":["codelco chile"],"reference":{"key":"route","value":"power"},"tags":{"operator:wikidata":"Q1105695","route":"power","type":"route"},"addTags":{"operator":"Codelco Chile","operator:wikidata":"Q1105695","route":"power","type":"route"}},"type/route/power/mineraescondida-8df055":{"name":"Minera Escondida","locationSet":{"include":["cl"]},"geometry":["relation"],"matchScore":2,"terms":["minera escondida"],"reference":{"key":"route","value":"power"},"tags":{"operator:wikidata":"Q588433","route":"power","type":"route"},"addTags":{"operator":"Minera Escondida","operator:wikidata":"Q588433","route":"power","type":"route"}},"type/route/power/transelec-8df055":{"name":"Transelec","locationSet":{"include":["cl"]},"geometry":["relation"],"matchScore":2,"terms":["transelec"],"reference":{"key":"route","value":"power"},"tags":{"operator:wikidata":"Q5572779","route":"power","type":"route"},"addTags":{"operator":"Transelec","operator:wikidata":"Q5572779","route":"power","type":"route"}},"public_transport/platform/bus_point/metropolitano-4570fd":{"name":"Metropolitano","locationSet":{"include":["cl"]},"geometry":["point","vertex"],"matchScore":2,"terms":["metropolitano"],"reference":{"key":"public_transport","value":"platform"},"tags":{"bus":"yes","network:wikidata":"Q5351589","public_transport":"platform"},"addTags":{"bus":"yes","highway":"bus_stop","network":"Metropolitano","network:wikidata":"Q5351589","public_transport":"platform"}},"public_transport/platform/bus_point/redmetropolitanademovilidad-4570fd":{"name":"Red Metropolitana de Movilidad","locationSet":{"include":["cl"]},"geometry":["point","vertex"],"matchScore":2,"terms":["red","red (santiago)","red metropolitana de movilidad","transantiago"],"reference":{"key":"public_transport","value":"platform"},"tags":{"bus":"yes","network:wikidata":"Q954223","public_transport":"platform"},"addTags":{"bus":"yes","highway":"bus_stop","network":"Red Metropolitana de Movilidad","network:wikidata":"Q954223","public_transport":"platform"}},"public_transport/platform/bus_point/transportemetropolitanovalparaiso-4570fd":{"name":"Transporte Metropolitano Valparaíso","locationSet":{"include":["cl"]},"geometry":["point","vertex"],"matchScore":2,"terms":["transporte metropolitano valparaíso"],"reference":{"key":"public_transport","value":"platform"},"tags":{"bus":"yes","network:wikidata":"Q6151726","public_transport":"platform"},"addTags":{"bus":"yes","highway":"bus_stop","network":"Transporte Metropolitano Valparaíso","network:wikidata":"Q6151726","public_transport":"platform"}},"public_transport/station_subway/metrodesantiago-3185ea":{"name":"Metro de Santiago","locationSet":{"include":["cl"]},"geometry":["point","area"],"matchScore":2,"terms":["metro de santiago","metro s.a."],"reference":{"key":"station","value":"subway"},"tags":{"network:wikidata":"Q913314","public_transport":"station","subway":"yes"},"addTags":{"network":"Metro de Santiago","network:wikidata":"Q913314","operator":"Metro S.A.","operator:wikidata":"Q6011991","public_transport":"station","railway":"station","station":"subway","subway":"yes"}},"type/route/bus/metropolitano-4d54da":{"name":"Metropolitano","locationSet":{"include":["cl"]},"geometry":["relation"],"matchScore":2,"terms":["metropolitano"],"reference":{"key":"route","value":"bus"},"tags":{"network:wikidata":"Q5351589","route":"bus","type":"route"},"addTags":{"network":"Metropolitano","network:wikidata":"Q5351589","route":"bus","type":"route"}},"type/route/bus/redmetropolitanademovilidad-4d54da":{"name":"Red Metropolitana de Movilidad","locationSet":{"include":["cl"]},"geometry":["relation"],"matchScore":2,"terms":["red","red (santiago)","red metropolitana de movilidad","transantiago"],"reference":{"key":"route","value":"bus"},"tags":{"network:wikidata":"Q954223","route":"bus","type":"route"},"addTags":{"network":"Red Metropolitana de Movilidad","network:wikidata":"Q954223","route":"bus","type":"route"}},"type/route/bus/transportemetropolitanovalparaiso-4d54da":{"name":"Transporte Metropolitano Valparaíso","locationSet":{"include":["cl"]},"geometry":["relation"],"matchScore":2,"terms":["transporte metropolitano valparaíso"],"reference":{"key":"route","value":"bus"},"tags":{"network:wikidata":"Q6151726","route":"bus","type":"route"},"addTags":{"network":"Transporte Metropolitano Valparaíso","network:wikidata":"Q6151726","route":"bus","type":"route"}},"type/route/subway/metrodesantiago-c16a05":{"name":"Metro de Santiago","locationSet":{"include":["cl"]},"geometry":["relation"],"matchScore":2,"terms":["metro de santiago","metro s.a."],"reference":{"key":"route","value":"subway"},"tags":{"network:wikidata":"Q913314","route":"subway","type":"route"},"addTags":{"network":"Metro de Santiago","network:wikidata":"Q913314","operator":"Metro S.A.","operator:wikidata":"Q6011991","route":"subway","type":"route"}}}