{"amenity/fast_food/pizza/debonairspizza-10dad6":{"name":"Debonairs Pizza","locationSet":{"include":["ae","bw","ke","ls","mu","mw","mz","na","ng","sd","ss","sz","za","zm"]},"geometry":["point","area"],"matchScore":2,"terms":["debonairs","debonairs pizza"],"reference":{"key":"cuisine","value":"pizza"},"tags":{"amenity":"fast_food","brand:wikidata":"Q65079407","cuisine":"pizza"},"addTags":{"amenity":"fast_food","brand":"Debonairs Pizza","brand:wikidata":"Q65079407","cuisine":"pizza","name":"Debonairs Pizza","takeaway":"yes"}},"amenity/fast_food/chicken/galitos-00ffa4":{"name":"Galito's","locationSet":{"include":["ae","ca","cd","gh","in","ke","ls","mu","mw","pk","rs","sz","us","za","zm"]},"geometry":["point","area"],"matchScore":2,"terms":["galito's"],"reference":{"key":"cuisine","value":"chicken"},"tags":{"amenity":"fast_food","brand:wikidata":"Q116619555","cuisine":"chicken"},"addTags":{"amenity":"fast_food","brand":"Galito's","brand:wikidata":"Q116619555","cuisine":"chicken","name":"Galito's","takeaway":"yes"}},"amenity/fast_food/chicken/hungrylion-f0dc80":{"name":"Hungry Lion","locationSet":{"include":["ao","bw","ls","na","sz","za","zm"]},"geometry":["point","area"],"matchScore":2,"terms":["hungry lion"],"reference":{"key":"cuisine","value":"chicken"},"tags":{"amenity":"fast_food","brand:wikidata":"Q115636930","cuisine":"chicken"},"addTags":{"amenity":"fast_food","brand":"Hungry Lion","brand:wikidata":"Q115636930","cuisine":"chicken","name":"Hungry Lion","takeaway":"yes"}},"amenity/fast_food/hot_dog/sausagesaloon-080667":{"name":"Sausage Saloon","locationSet":{"include":["na","sz","za"]},"geometry":["point","area"],"matchScore":2,"terms":["sausage saloon"],"reference":{"key":"cuisine","value":"hot_dog"},"tags":{"amenity":"fast_food","brand:wikidata":"Q116619342","cuisine":"hot_dog"},"addTags":{"amenity":"fast_food","brand":"Sausage Saloon","brand:wikidata":"Q116619342","cuisine":"hot_dog","name":"Sausage Saloon","takeaway":"yes"}},"amenity/fuel/engen-b7f522":{"name":"Engen","locationSet":{"include":["dz","eg","ly","ma","sd","tn","eh","io","bi","km","dj","er","et","tf","ke","mg","mw","mu","yt","mz","re","rw","sc","so","ss","ug","tz","zm","zw","ao","cm","cf","td","cg","cd","gq","ga","st","bw","sz","ls","na","za","bj","bf","cv","ci","gm","gh","gn","gw","lr","ml","mr","ne","ng","sn","sl","tg","sh"]},"geometry":["point","area"],"matchScore":2,"terms":["engen","engen petroleum"],"fields":["name","brand","{amenity/fuel}"],"tags":{"amenity":"fuel","brand:wikidata":"Q3054251"},"addTags":{"amenity":"fuel","brand":"Engen","brand:wikidata":"Q3054251","name":"Engen"}},"amenity/restaurant/maxis-2bd789":{"name":"Maxi's","locationSet":{"include":["mz","sz","za"]},"geometry":["point","area"],"matchScore":2,"terms":["maxi's"],"tags":{"amenity":"restaurant","brand:wikidata":"Q116619188"},"addTags":{"amenity":"restaurant","brand":"Maxi's","brand:wikidata":"Q116619188","name":"Maxi's"}},"amenity/restaurant/nandos-32ebee":{"name":"Nando's","locationSet":{"include":["ae","au","bd","bh","bw","ca","fj","gb","ie","in","mu","my","nz","om","pk","qa","sa","sg","sz","us","za","zm","zw"]},"geometry":["point","area"],"matchScore":2,"terms":["nando's"],"tags":{"amenity":"restaurant","brand:wikidata":"Q3472954"},"addTags":{"amenity":"restaurant","brand":"Nando's","brand:wikidata":"Q3472954","cuisine":"chicken;portuguese","name":"Nando's"}},"amenity/restaurant/seafood/oceanbasket-5d9698":{"name":"Ocean Basket","locationSet":{"include":["ae","bw","cy","gb","ke","kw","kz","mt","mu","na","ng","qa","ru","sa","sz","za","zw"]},"geometry":["point","area"],"matchScore":2,"terms":["ocean basket"],"reference":{"key":"cuisine","value":"seafood"},"tags":{"amenity":"restaurant","brand:wikidata":"Q62075311","cuisine":"seafood"},"addTags":{"amenity":"restaurant","brand":"Ocean Basket","brand:wikidata":"Q62075311","cuisine":"seafood","name":"Ocean Basket"}},"office/estate_agent/pamgoldingproperties-80530e":{"name":"Pam Golding Properties","locationSet":{"include":["bw","ke","mz","na","sz","za","zm","zw"]},"geometry":["point","area"],"matchScore":2,"terms":["pam golding properties"],"tags":{"brand:wikidata":"Q65051429","office":"estate_agent"},"addTags":{"brand":"Pam Golding Properties","brand:wikidata":"Q65051429","name":"Pam Golding Properties","office":"estate_agent"}},"shop/alcohol/okliquor-fbe625":{"name":"OK Liquor","locationSet":{"include":["na","sz","za"]},"geometry":["point","area"],"matchScore":2,"terms":["ok liquor"],"tags":{"brand:wikidata":"Q116520424","shop":"alcohol"},"addTags":{"brand":"OK Liquor","brand:wikidata":"Q116520424","name":"OK Liquor","shop":"alcohol"}},"shop/clothes/ackermans-c712e2":{"name":"Ackermans","locationSet":{"include":["bw","ls","na","sz","za"]},"geometry":["point","area"],"matchScore":2,"terms":["ackermans"],"tags":{"brand:wikidata":"Q4674255","shop":"clothes"},"addTags":{"brand":"Ackermans","brand:wikidata":"Q4674255","name":"Ackermans","shop":"clothes"}},"shop/clothes/dunns-c712e2":{"name":"Dunns","locationSet":{"include":["bw","ls","na","sz","za"]},"geometry":["point","area"],"matchScore":2,"terms":["dunns"],"tags":{"brand:wikidata":"Q116619823","shop":"clothes"},"addTags":{"brand":"Dunns","brand:wikidata":"Q116619823","name":"Dunns","shop":"clothes"}},"shop/clothes/foschini-560ac2":{"name":"Foschini","locationSet":{"include":["bw","ke","ls","na","sz","za","zm"]},"geometry":["point","area"],"matchScore":2,"terms":["foschini"],"tags":{"brand:wikidata":"Q116391780","shop":"clothes"},"addTags":{"brand":"Foschini","brand:wikidata":"Q116391780","clothes":"women","name":"Foschini","shop":"clothes"}},"shop/clothes/markham-b23c0b":{"name":"Markham","locationSet":{"include":["bw","gh","ls","na","sz","za","zm"]},"geometry":["point","area"],"matchScore":2,"terms":["markham"],"tags":{"brand:wikidata":"Q116378583","shop":"clothes"},"addTags":{"brand":"Markham","brand:wikidata":"Q116378583","name":"Markham","shop":"clothes"}},"shop/clothes/pep-c712e2":{"name":"Pep","locationSet":{"include":["bw","ls","na","sz","za"]},"geometry":["point","area"],"matchScore":2,"terms":["pep"],"tags":{"brand:wikidata":"Q7166182","shop":"clothes"},"addTags":{"brand":"Pep","brand:wikidata":"Q7166182","name":"Pep","shop":"clothes"}},"shop/clothes/studio88-40af4d":{"name":"Studio 88","locationSet":{"include":["bw","ls","mz","na","sz","za","zm"]},"geometry":["point","area"],"matchScore":2,"terms":["studio 88"],"tags":{"brand:wikidata":"Q116498145","shop":"clothes"},"addTags":{"brand":"Studio 88","brand:wikidata":"Q116498145","name":"Studio 88","shop":"clothes"}},"shop/convenience/okexpress-22d46f":{"name":"OK Express","locationSet":{"include":["na","sz","za"]},"geometry":["point","area"],"matchScore":2,"terms":["ok express"],"tags":{"brand:wikidata":"Q116520407","shop":"convenience"},"addTags":{"brand":"OK Express","brand:wikidata":"Q116520407","name":"OK Express","shop":"convenience"}},"shop/department_store/edgars-34fd38":{"name":"Edgars","locationSet":{"include":["bw","gh","ls","na","sz","za","zm"]},"geometry":["point","area"],"matchScore":2,"terms":["edgars"],"tags":{"brand:wikidata":"Q97276073","shop":"department_store"},"addTags":{"brand":"Edgars","brand:wikidata":"Q97276073","name":"Edgars","shop":"department_store"}},"shop/doityourself/cashbuild-c5a717":{"name":"Cashbuild","locationSet":{"include":["bw","ls","mw","na","sz","za"]},"geometry":["point","area"],"matchScore":2,"terms":["cashbuild"],"tags":{"brand:wikidata":"Q116474606","shop":"doityourself"},"addTags":{"brand":"Cashbuild","brand:wikidata":"Q116474606","name":"Cashbuild","shop":"doityourself"}},"shop/furniture/beares-084a8f":{"name":"Beares","locationSet":{"include":["bw","ls","na","sz","za"]},"geometry":["point","area"],"matchScore":2,"terms":["beares"],"tags":{"brand:wikidata":"Q116474908","shop":"furniture"},"addTags":{"brand":"Beares","brand:wikidata":"Q116474908","name":"Beares","shop":"furniture"}},"shop/furniture/lewis-084a8f":{"name":"Lewis","locationSet":{"include":["bw","ls","na","sz","za"]},"geometry":["point","area"],"matchScore":2,"terms":["lewis stores"],"tags":{"brand:wikidata":"Q116474928","shop":"furniture"},"addTags":{"brand":"Lewis Stores","brand:wikidata":"Q116474928","name":"Lewis","shop":"furniture"}},"shop/furniture/okfurniture-e98456":{"name":"OK Furniture","locationSet":{"include":["ao","bw","ls","mz","na","sz","za","zm"]},"geometry":["point","area"],"matchScore":2,"terms":["ok furniture"],"tags":{"brand:wikidata":"Q116474866","shop":"furniture"},"addTags":{"brand":"OK Furniture","brand:wikidata":"Q116474866","name":"OK Furniture","shop":"furniture"}},"shop/supermarket/boxer-a11024":{"name":"Boxer","locationSet":{"include":["sz","za"]},"geometry":["point","area"],"matchScore":2,"terms":["boxer"],"tags":{"brand:wikidata":"Q116586275","shop":"supermarket"},"addTags":{"brand":"Boxer","brand:wikidata":"Q116586275","name":"Boxer","shop":"supermarket"}},"shop/supermarket/megasave-6d06e8":{"name":"Megasave","locationSet":{"include":["na","sz","za"]},"geometry":["point","area"],"matchScore":2,"terms":["megasave"],"tags":{"brand:wikidata":"Q116520541","shop":"supermarket"},"addTags":{"brand":"Megasave","brand:wikidata":"Q116520541","name":"Megasave","shop":"supermarket"}},"shop/supermarket/okfoods-6d06e8":{"name":"OK Foods","locationSet":{"include":["na","sz","za"]},"geometry":["point","area"],"matchScore":2,"terms":["ok food","ok foods"],"tags":{"brand:wikidata":"Q116520377","shop":"supermarket"},"addTags":{"brand":"OK Foods","brand:wikidata":"Q116520377","name":"OK Foods","shop":"supermarket"}},"shop/supermarket/okminimark-6d06e8":{"name":"OK Minimark","locationSet":{"include":["na","sz","za"]},"geometry":["point","area"],"matchScore":2,"terms":["ok minimark"],"tags":{"brand:wikidata":"Q116520457","shop":"supermarket"},"addTags":{"brand":"OK Minimark","brand:wikidata":"Q116520457","name":"OK Minimark","shop":"supermarket"}},"shop/supermarket/shoprite-56f959":{"name":"Shoprite (Africa)","locationSet":{"include":["ao","bw","cd","gh","ls","mg","mu","mw","mz","na","ng","sz","ug","za","zm"]},"geometry":["point","area"],"matchScore":2,"terms":["shoprite"],"tags":{"brand:wikidata":"Q1857639","shop":"supermarket"},"addTags":{"brand":"Shoprite","brand:wikidata":"Q1857639","name":"Shoprite","shop":"supermarket"}},"shop/supermarket/usave-1d4ed7":{"name":"Usave","locationSet":{"include":["ao","bw","ls","mw","mz","na","sz","za"]},"geometry":["point","area"],"matchScore":2,"terms":["usave"],"tags":{"brand:wikidata":"Q115696368","shop":"supermarket"},"addTags":{"brand":"Usave","brand:wikidata":"Q115696368","name":"Usave","shop":"supermarket"}},"power/line/eswatinielectricitycompany-60a7a1":{"name":"Eswatini Electricity Company","locationSet":{"include":["sz"]},"geometry":["line"],"matchScore":2,"terms":["eec","eswatini electricity company","sec","swaziland electricity board","swaziland electricity company"],"tags":{"operator:wikidata":"Q56294552","power":"line"},"addTags":{"operator":"Eswatini Electricity Company","operator:short":"EEC","operator:wikidata":"Q56294552","power":"line"}},"power/minor_line/eswatinielectricitycompany-45a461":{"name":"Eswatini Electricity Company","locationSet":{"include":["sz"]},"geometry":["line"],"matchScore":2,"terms":["eec","eswatini electricity company","sec","swaziland electricity board","swaziland electricity company"],"tags":{"operator:wikidata":"Q56294552","power":"minor_line"},"addTags":{"operator":"Eswatini Electricity Company","operator:short":"EEC","operator:wikidata":"Q56294552","power":"minor_line"}},"power/pole/eswatinielectricitycompany-6e9fe5":{"name":"Eswatini Electricity Company","locationSet":{"include":["sz"]},"geometry":["point","vertex"],"matchScore":2,"terms":["eec","eswatini electricity company","sec","swaziland electricity board","swaziland electricity company"],"tags":{"operator:wikidata":"Q56294552","power":"pole"},"addTags":{"operator":"Eswatini Electricity Company","operator:short":"EEC","operator:wikidata":"Q56294552","power":"pole"}},"power/tower/eswatinielectricitycompany-cab1ca":{"name":"Eswatini Electricity Company","locationSet":{"include":["sz"]},"geometry":["point","vertex"],"matchScore":2,"terms":["eec","eswatini electricity company","sec","swaziland electricity board","swaziland electricity company"],"tags":{"operator:wikidata":"Q56294552","power":"tower"},"addTags":{"operator":"Eswatini Electricity Company","operator:short":"EEC","operator:wikidata":"Q56294552","power":"tower"}}}