{"advertising/totem/oilibya-11febf":{"name":"Oilibya","locationSet":{"include":["dz","eg","ly","ma","sd","tn","eh","io","bi","km","dj","er","et","tf","ke","mg","mw","mu","yt","mz","re","rw","sc","so","ss","ug","tz","zm","zw","ao","cm","cf","td","cg","cd","gq","ga","st","bw","sz","ls","na","za","bj","bf","cv","ci","gm","gh","gn","gw","lr","ml","mr","ne","ng","sn","sl","tg","sh","bd"]},"geometry":["point","line"],"matchScore":2,"terms":["oilibia","oilibiya","oilibya","oillibia","oilliby","oillibya","oillybia","oilybia","olibya","olybia","أويليبيا"],"tags":{"advertising":"totem","brand:wikidata":"Q7081491"},"addTags":{"advertising":"totem","brand":"Oilibya","brand:wikidata":"Q7081491","name:ar":"أويليبيا","name:en":"Oilibya"}},"amenity/atm/bankofafrica-daf274":{"name":"Bank of Africa","locationSet":{"include":["bf","bi","bj","cd","ci","dj","et","fr","ke","mg","ml","ne","rw","sn","tg","tz","ug"]},"geometry":["point","vertex"],"matchScore":2,"terms":["bank of africa","boa"],"fields":["name","brand","{amenity/atm}"],"tags":{"amenity":"atm","brand:wikidata":"Q2882627"},"addTags":{"amenity":"atm","brand":"Bank of Africa","brand:wikidata":"Q2882627","operator":"Bank of Africa","operator:wikidata":"Q2882627","short_name":"BOA"}},"amenity/atm/stanbicbank-71787f":{"name":"Stanbic Bank","locationSet":{"include":["dz","eg","ly","ma","sd","tn","eh","io","bi","km","dj","er","et","tf","ke","mg","mw","mu","yt","mz","re","rw","sc","so","ss","ug","tz","zm","zw","ao","cm","cf","td","cg","cd","gq","ga","st","bw","sz","ls","na","za","bj","bf","cv","ci","gm","gh","gn","gw","lr","ml","mr","ne","ng","sn","sl","tg","sh"],"exclude":["gh"]},"geometry":["point","vertex"],"matchScore":2,"terms":["stanbic bank"],"fields":["name","brand","{amenity/atm}"],"tags":{"amenity":"atm","brand:wikidata":"Q7597999"},"addTags":{"amenity":"atm","brand":"Stanbic Bank","brand:wikidata":"Q7597999","operator":"Stanbic Bank","operator:wikidata":"Q7597999"}},"amenity/bank/bankofafrica-dae5c5":{"name":"Bank of Africa","locationSet":{"include":["bf","bi","bj","cd","ci","dj","et","fr","ke","mg","ml","ne","rw","sn","tg","tz","ug"]},"geometry":["point","area"],"matchScore":2,"terms":["bank of africa","boa"],"tags":{"amenity":"bank","brand:wikidata":"Q2882627"},"addTags":{"amenity":"bank","brand":"Bank of Africa","brand:wikidata":"Q2882627","name":"Bank of Africa","short_name":"BOA"}},"amenity/bank/stanbicbank-b79c2d":{"name":"Stanbic Bank","locationSet":{"include":["dz","eg","ly","ma","sd","tn","eh","io","bi","km","dj","er","et","tf","ke","mg","mw","mu","yt","mz","re","rw","sc","so","ss","ug","tz","zm","zw","ao","cm","cf","td","cg","cd","gq","ga","st","bw","sz","ls","na","za","bj","bf","cv","ci","gm","gh","gn","gw","lr","ml","mr","ne","ng","sn","sl","tg","sh"],"exclude":["gh"]},"geometry":["point","area"],"matchScore":2,"terms":["stanbic bank"],"tags":{"amenity":"bank","brand:wikidata":"Q7597999"},"addTags":{"amenity":"bank","brand":"Stanbic Bank","brand:wikidata":"Q7597999","name":"Stanbic Bank"}},"amenity/fuel/oilibya-5288c9":{"name":"Oilibya","locationSet":{"include":["dz","eg","ly","ma","sd","tn","eh","io","bi","km","dj","er","et","tf","ke","mg","mw","mu","yt","mz","re","rw","sc","so","ss","ug","tz","zm","zw","ao","cm","cf","td","cg","cd","gq","ga","st","bw","sz","ls","na","za","bj","bf","cv","ci","gm","gh","gn","gw","lr","ml","mr","ne","ng","sn","sl","tg","sh","bd"]},"geometry":["point","area"],"matchScore":2,"terms":["oilibia","oilibiya","oilibya","oillibia","oilliby","oillibya","oillybia","oilybia","olibya","olybia","أويليبيا"],"fields":["name","brand","{amenity/fuel}"],"tags":{"amenity":"fuel","brand:wikidata":"Q7081491"},"addTags":{"amenity":"fuel","brand":"Oilibya","brand:wikidata":"Q7081491","name":"Oilibya","name:ar":"أويليبيا","name:en":"Oilibya"}},"office/insurance/allianz-c74935":{"name":"Allianz","locationSet":{"include":["ae","ar","at","au","be","bh","bm","bn","br","ca","cg","ch","ci","cm","cn","co","cy","cz","de","dk","ee","eg","es","fi","fr","gb","gg","gh","gr","hk","hr","hu","id","ie","in","is","it","ja","ke","kr","kw","la","li","lk","lt","lu","lv","ma","mg","mx","my","ng","nl","no","nz","om","ph","pk","pl","pt","qa","ro","ru","sa","se","sg","si","sk","sn","th","tr","tw","ua","us","za"]},"geometry":["point","area"],"matchScore":2,"terms":["allianz","allianz versicherung"],"fields":["name","brand","{office/insurance}"],"tags":{"brand:wikidata":"Q487292","office":"insurance"},"addTags":{"brand":"Allianz","brand:wikidata":"Q487292","name":"Allianz","office":"insurance"}},"shop/clothes/letempsdescerises-9cdbc1":{"name":"Le Temps des Cerises","locationSet":{"include":["be","ch","cz","es","fx","lu","mg"]},"geometry":["point","area"],"matchScore":2,"terms":["le temps des cerises"],"tags":{"brand:wikidata":"Q3228558","shop":"clothes"},"addTags":{"brand":"Le Temps des Cerises","brand:wikidata":"Q3228558","name":"Le Temps des Cerises","shop":"clothes"}},"shop/mobile_phone/airtel-62d34e":{"name":"Airtel","locationSet":{"include":["io","bi","km","dj","er","et","tf","ke","mg","mw","mu","yt","mz","re","rw","sc","so","ss","ug","tz","zm","zw","ao","cm","cf","td","cg","cd","gq","ga","st","bw","sz","ls","na","za","bj","bf","cv","ci","gm","gh","gn","gw","lr","ml","mr","ne","ng","sn","sl","tg","sh","in"]},"geometry":["point","area"],"matchScore":2,"terms":["airtel"],"tags":{"brand:wikidata":"Q854867","shop":"mobile_phone"},"addTags":{"brand":"Airtel","brand:wikidata":"Q854867","name":"Airtel","shop":"mobile_phone"}},"shop/supermarket/game-910aca":{"name":"Game","locationSet":{"include":["io","bi","km","dj","er","et","tf","ke","mg","mw","mu","yt","mz","re","rw","sc","so","ss","ug","tz","zm","zw","ao","cm","cf","td","cg","cd","gq","ga","st","bw","sz","ls","na","za","bj","bf","cv","ci","gm","gh","gn","gw","lr","ml","mr","ne","ng","sn","sl","tg","sh"]},"geometry":["point","area"],"matchScore":2,"terms":["game"],"tags":{"brand:wikidata":"Q126811048","shop":"supermarket"},"addTags":{"brand":"Game","brand:wikidata":"Q126811048","name":"Game","shop":"supermarket"}},"shop/supermarket/leaderprice-8d94f8":{"name":"Leader Price","locationSet":{"include":["fr","mg"]},"geometry":["point","area"],"matchScore":2,"terms":["leader price"],"tags":{"brand:wikidata":"Q2181426","shop":"supermarket"},"addTags":{"brand":"Leader Price","brand:wikidata":"Q2181426","name":"Leader Price","shop":"supermarket"}},"shop/supermarket/shoprite-502f12":{"name":"Shoprite (Africa)","locationSet":{"include":["ao","bw","cd","gh","ls","mg","mu","mw","mz","na","sz","ug","za","zm"]},"geometry":["point","area"],"matchScore":2,"terms":["shoprite"],"tags":{"brand:wikidata":"Q1857639","shop":"supermarket"},"addTags":{"brand":"Shoprite","brand:wikidata":"Q1857639","name":"Shoprite","shop":"supermarket"}}}