{"amenity/atm/citizensbank-0bad27":{"name":"Citizens Bank (Eastern USA)","locationSet":{"include":["us-ct","us-de","us-ma","us-mi","us-nh","us-nj","us-ny","us-oh","us-pa","us-ri","us-va","us-vt"]},"geometry":["point","vertex"],"matchScore":2,"terms":["citizens","citizens bank"],"fields":["name","brand","{amenity/atm}"],"tags":{"amenity":"atm","brand:wikidata":"Q5122694"},"addTags":{"amenity":"atm","brand":"Citizens Bank","brand:wikidata":"Q5122694","operator":"Citizens Bank","operator:wikidata":"Q5122694","short_name":"Citizens"}},"amenity/atm/columbiabank-f73770":{"name":"Columbia Bank (New Jersey)","locationSet":{"include":["us-nj"]},"geometry":["point","vertex"],"matchScore":2,"terms":["columbia bank"],"fields":["name","brand","{amenity/atm}"],"tags":{"amenity":"atm","brand:wikidata":"Q62084096"},"addTags":{"amenity":"atm","brand":"Columbia Bank","brand:wikidata":"Q62084096","operator":"Columbia Bank","operator:wikidata":"Q62084096"}},"amenity/atm/republicbank-9bba96":{"name":"Republic Bank (Philadelphia)","locationSet":{"include":["us-nj","us-ny","us-pa"]},"geometry":["point","vertex"],"matchScore":2,"terms":["republic bank"],"fields":["name","brand","{amenity/atm}"],"tags":{"amenity":"atm","brand:wikidata":"Q55316482"},"addTags":{"amenity":"atm","brand":"Republic Bank","brand:wikidata":"Q55316482","operator":"Republic Bank","operator:wikidata":"Q55316482"}},"amenity/atm/wsfsbank-21e4b8":{"name":"WSFS Bank","locationSet":{"include":["us-de","us-nj","us-nv","us-pa","us-va"]},"geometry":["point","vertex"],"matchScore":2,"terms":["wsfs bank"],"fields":["name","brand","{amenity/atm}"],"tags":{"amenity":"atm","brand:wikidata":"Q7955609"},"addTags":{"amenity":"atm","brand":"WSFS Bank","brand:wikidata":"Q7955609","operator":"WSFS Bank","operator:wikidata":"Q7955609"}},"amenity/bank/citizensbank-8621dd":{"name":"Citizens Bank (Eastern USA)","locationSet":{"include":["us-ct","us-de","us-ma","us-mi","us-nh","us-nj","us-ny","us-oh","us-pa","us-ri","us-va","us-vt"]},"geometry":["point","area"],"matchScore":2,"terms":["citizens","citizens bank"],"tags":{"amenity":"bank","brand:wikidata":"Q5122694"},"addTags":{"amenity":"bank","brand":"Citizens Bank","brand:wikidata":"Q5122694","name":"Citizens Bank","short_name":"Citizens"}},"amenity/bank/columbiabank-fb7447":{"name":"Columbia Bank (New Jersey)","locationSet":{"include":["us-nj"]},"geometry":["point","area"],"matchScore":2,"terms":["columbia bank"],"tags":{"amenity":"bank","brand:wikidata":"Q62084096"},"addTags":{"amenity":"bank","brand":"Columbia Bank","brand:wikidata":"Q62084096","name":"Columbia Bank"}},"amenity/bank/republicbank-9c6083":{"name":"Republic Bank (Philadelphia)","locationSet":{"include":["us-nj","us-ny","us-pa"]},"geometry":["point","area"],"matchScore":2,"terms":["republic bank"],"tags":{"amenity":"bank","brand:wikidata":"Q55316482"},"addTags":{"amenity":"bank","brand":"Republic Bank","brand:wikidata":"Q55316482","name":"Republic Bank"}},"amenity/bank/wsfsbank-ecc1eb":{"name":"WSFS Bank","locationSet":{"include":["us-de","us-nj","us-nv","us-pa","us-va"]},"geometry":["point","area"],"matchScore":2,"terms":["wsfs bank"],"tags":{"amenity":"bank","brand:wikidata":"Q7955609"},"addTags":{"amenity":"bank","brand":"WSFS Bank","brand:wikidata":"Q7955609","name":"WSFS Bank"}},"amenity/fast_food/chicken/pdq-f02697":{"name":"PDQ","locationSet":{"include":["us-fl","us-nc","us-nj","us-ny","us-sc"]},"geometry":["point","area"],"matchScore":2,"terms":["pdq"],"reference":{"key":"cuisine","value":"chicken"},"tags":{"amenity":"fast_food","brand:wikidata":"Q87675367","cuisine":"chicken"},"addTags":{"amenity":"fast_food","brand":"PDQ","brand:wikidata":"Q87675367","cuisine":"chicken","name":"PDQ","takeaway":"yes"}},"amenity/fast_food/pokebros-eebea8":{"name":"Poke Bros.","locationSet":{"include":["us-de","us-fl","us-il","us-in","us-ky","us-nc","us-nj","us-ny","us-oh","us-pa","us-ri","us-sc","us-tn"]},"geometry":["point","area"],"matchScore":2,"terms":["poke bros."],"tags":{"amenity":"fast_food","brand:wikidata":"Q113640421"},"addTags":{"amenity":"fast_food","brand":"Poke Bros.","brand:wikidata":"Q113640421","cuisine":"poke","name":"Poke Bros.","takeaway":"yes"}},"amenity/fuel/wawa-f5bad4":{"name":"Wawa","locationSet":{"include":["us-dc","us-de","us-fl","us-md","us-nj","us-pa","us-va"]},"geometry":["point","area"],"matchScore":2,"terms":["wawa"],"fields":["name","brand","{amenity/fuel}"],"tags":{"amenity":"fuel","brand:wikidata":"Q5936320"},"addTags":{"amenity":"fuel","brand":"Wawa","brand:wikidata":"Q5936320","name":"Wawa"}},"amenity/restaurant/seafood/joescrabshack-c6bbaa":{"name":"Joe's Crab Shack","locationSet":{"include":["us-az","us-ca","us-co","us-fl","us-ga","us-ky","us-la","us-mo","us-nc","us-nj","us-pa","us-sc","us-tn","us-tx","us-ut","us-va"]},"geometry":["point","area"],"matchScore":2,"terms":["joe's crab shack"],"reference":{"key":"cuisine","value":"seafood"},"tags":{"amenity":"restaurant","brand:wikidata":"Q6208210","cuisine":"seafood"},"addTags":{"amenity":"restaurant","brand":"Joe's Crab Shack","brand:wikidata":"Q6208210","cuisine":"seafood","name":"Joe's Crab Shack"}},"amenity/restaurant/italian/maggianoslittleitaly-acf8ec":{"name":"Maggiano's Little Italy","locationSet":{"include":["us-az","us-ca","us-co","us-dc","us-fl","us-ga","us-il","us-in","us-ks","us-ma","us-md","us-mi","us-mo","us-nc","us-nj","us-nv","us-ny","us-oh","us-pa","us-tn","us-tx","us-va","us-wa","us-wi"]},"geometry":["point","area"],"matchScore":2,"terms":["maggiano's little italy"],"reference":{"key":"cuisine","value":"italian"},"tags":{"amenity":"restaurant","brand:wikidata":"Q6730149","cuisine":"italian"},"addTags":{"amenity":"restaurant","brand":"Maggiano's Little Italy","brand:wikidata":"Q6730149","cuisine":"italian","name":"Maggiano's Little Italy"}},"leisure/fitness_centre/theedgefitnessclub-773501":{"name":"The Edge Fitness Club","locationSet":{"include":["us-ct","us-de","us-il","us-mi","us-mo","us-nj","us-pa","us-ri"]},"geometry":["point","area"],"matchScore":2,"terms":["the edge fitness club"],"tags":{"brand:wikidata":"Q109339519","leisure":"fitness_centre"},"addTags":{"brand":"The Edge Fitness Club","brand:wikidata":"Q109339519","leisure":"fitness_centre","name":"The Edge Fitness Club"}},"shop/cannabis/cannabist-c9b3a7":{"name":"Cannabist","locationSet":{"include":["us-az","us-ca","us-fl","us-il","us-ma","us-mo","us-nj","us-ny","us-ut","us-va","us-wv"]},"geometry":["point","area"],"matchScore":2,"terms":["cannabist"],"tags":{"brand:wikidata":"Q114896590","shop":"cannabis"},"addTags":{"brand":"Cannabist","brand:wikidata":"Q114896590","name":"Cannabist","shop":"cannabis"}},"shop/cannabis/curaleaf-4b9e8a":{"name":"Curaleaf","locationSet":{"include":["us-az","us-ct","us-fl","us-il","us-ma","us-md","us-me","us-mi","us-nd","us-nj","us-nv","us-ny","us-oh","us-or","us-pa","us-ut","us-vt"]},"geometry":["point","area"],"matchScore":2,"terms":["curaleaf"],"tags":{"brand:wikidata":"Q85754829","shop":"cannabis"},"addTags":{"brand":"Curaleaf","brand:wikidata":"Q85754829","name":"Curaleaf","shop":"cannabis"}},"shop/cannabis/rise-ce371d":{"name":"RISE","locationSet":{"include":["us-fl","us-il","us-ma","us-md","us-nj","us-nv","us-oh","us-pa","us-va"]},"geometry":["point","area"],"matchScore":2,"terms":["rise"],"tags":{"brand:wikidata":"Q108911841","shop":"cannabis"},"addTags":{"brand":"RISE","brand:wikidata":"Q108911841","name":"RISE","shop":"cannabis"}},"shop/cannabis/zenleaf-65d11e":{"name":"Zen Leaf","locationSet":{"include":["us-ar","us-az","us-il","us-ma","us-md","us-mi","us-nj","us-nv","us-oh","us-pa"]},"geometry":["point","area"],"matchScore":2,"terms":["zen leaf"],"tags":{"brand:wikidata":"Q108911834","shop":"cannabis"},"addTags":{"brand":"Zen Leaf","brand:wikidata":"Q108911834","name":"Zen Leaf","shop":"cannabis"}},"shop/convenience/wawa-dad45f":{"name":"Wawa","locationSet":{"include":["us-dc","us-de","us-fl","us-md","us-nj","us-pa","us-va"]},"geometry":["point","area"],"matchScore":2,"terms":["wawa"],"tags":{"brand:wikidata":"Q5936320","shop":"convenience"},"addTags":{"brand":"Wawa","brand:wikidata":"Q5936320","name":"Wawa","shop":"convenience"}},"shop/hairdresser/imagestudios-0d42d5":{"name":"Image Studios","locationSet":{"include":["us-ca","us-co","us-fl","us-ga","us-ky","us-mo","us-nc","us-nj","us-nv","us-ny","us-oh","us-or","us-sc","us-tn","us-tx","us-ut"]},"geometry":["point","area"],"matchScore":2,"terms":["image studios"],"tags":{"brand:wikidata":"Q110998819","shop":"hairdresser"},"addTags":{"brand":"Image Studios","brand:wikidata":"Q110998819","name":"Image Studios","shop":"hairdresser"}},"shop/pastry/mrsfields-e944b6":{"name":"Mrs. Fields","locationSet":{"include":["au","ph","us-ak","us-al","us-az","us-ca","us-co","us-de","us-fl","us-ga","us-hi","us-id","us-il","us-in","us-ks","us-la","us-ma","us-md","us-me","us-mi","us-mo","us-ms","us-nc","us-nj","us-nv","us-ny","us-oh","us-ok","us-pa","us-tx","us-ut","us-wi"]},"geometry":["point","area"],"matchScore":2,"terms":["mrs. fields"],"tags":{"brand:wikidata":"Q3866841","shop":"pastry"},"addTags":{"brand":"Mrs. Fields","brand:wikidata":"Q3866841","name":"Mrs. Fields","shop":"pastry"}},"shop/storage_rental/metroselfstorage-5b962b":{"name":"Metro Self Storage","locationSet":{"include":["us-al","us-ct","us-fl","us-ga","us-il","us-mn","us-nj","us-ny","us-pa","us-tn","us-tx","us-wi"]},"geometry":["point","area"],"matchScore":2,"terms":["metro self storage"],"tags":{"brand:wikidata":"Q114515454","shop":"storage_rental"},"addTags":{"brand":"Metro Self Storage","brand:wikidata":"Q114515454","name":"Metro Self Storage","shop":"storage_rental"}},"shop/storage_rental/thelockup-b15f96":{"name":"The Lock Up","locationSet":{"include":["us-ct","us-fl","us-hi","us-il","us-ma","us-mn","us-nj","us-ny"]},"geometry":["point","area"],"matchScore":2,"terms":["the lock up"],"tags":{"brand:wikidata":"Q17089825","shop":"storage_rental"},"addTags":{"brand":"The Lock Up","brand:wikidata":"Q17089825","name":"The Lock Up","shop":"storage_rental"}},"amenity/clinic/christianacare-751657":{"name":"ChristianaCare","locationSet":{"include":["us-de","us-md","us-nj","us-pa"]},"geometry":["point","area"],"matchScore":2,"terms":["christianacare"],"fields":["name","operator","{amenity/clinic}"],"reference":{"key":"amenity","value":"clinic"},"tags":{"amenity":"clinic","operator:wikidata":"Q16987253"},"addTags":{"amenity":"clinic","healthcare":"clinic","operator":"ChristianaCare","operator:wikidata":"Q16987253"}},"amenity/clinic/citymd-1972a2":{"name":"CityMD","locationSet":{"include":["us-nj","us-ny"]},"geometry":["point","area"],"matchScore":2,"terms":["citymd"],"fields":["name","operator","{amenity/clinic}"],"reference":{"key":"amenity","value":"clinic"},"tags":{"amenity":"clinic","operator:wikidata":"Q22295471"},"addTags":{"amenity":"clinic","healthcare":"clinic","name":"CityMD","operator":"CityMD","operator:wikidata":"Q22295471"}},"amenity/clinic/nyulangonehealth-1972a2":{"name":"NYU Langone Health","locationSet":{"include":["us-nj","us-ny"]},"geometry":["point","area"],"matchScore":2,"terms":["nyu langone health"],"fields":["name","operator","{amenity/clinic}"],"reference":{"key":"amenity","value":"clinic"},"tags":{"amenity":"clinic","operator:wikidata":"Q6956114"},"addTags":{"amenity":"clinic","healthcare":"clinic","operator":"NYU Langone Health","operator:wikidata":"Q6956114"}},"amenity/police/newjerseystatepolice-0f60fd":{"name":"New Jersey State Police","locationSet":{"include":["us-nj"]},"geometry":["point","area"],"matchScore":2,"terms":["new jersey state police","njsp"],"tags":{"amenity":"police","operator:wikidata":"Q15679789"},"addTags":{"amenity":"police","operator":"New Jersey State Police","operator:short":"NJSP","operator:wikidata":"Q15679789"}},"amenity/school/springfieldpublicschools-181f3b":{"name":"Springfield Public Schools (New Jersey)","locationSet":{"include":["us-nj"]},"geometry":["area","point"],"matchScore":2,"terms":["springfield public schools","sps"],"tags":{"amenity":"school","operator:wikidata":"Q7581032"},"addTags":{"amenity":"school","operator":"Springfield Public Schools","operator:short":"SPS","operator:type":"public","operator:wikidata":"Q7581032"}},"office/government/newjerseymotorvehiclecommission-7de197":{"name":"NJMVC","locationSet":{"include":["us-nj"]},"geometry":["point","area"],"matchScore":2,"terms":["motor vehicle services","mvc","new jersey motor vehicle commission","njmvc"],"fields":["name","operator","{office/government}"],"tags":{"office":"government","operator:wikidata":"Q16956151"},"addTags":{"government":"transportation","office":"government","operator":"New Jersey Motor Vehicle Commission","operator:short":"NJMVC","operator:wikidata":"Q16956151"}},"shop/charity/goodwillindustriesofsouthernnewjerseyandphiladelphia-9a105e":{"name":"Goodwill Industries of Southern New Jersey & Philadelphia","locationSet":{"include":["us-nj","us-pa"]},"geometry":["point","area"],"matchScore":2,"terms":["goodwill","goodwill industries of new jersey and philadelphia","goodwill industries of southern new jersey & philadelphia"],"tags":{"operator:wikidata":"Q54624021","shop":"charity"},"addTags":{"brand":"Goodwill","brand:wikidata":"Q5583655","name":"Goodwill","operator":"Goodwill Industries of Southern New Jersey & Philadelphia","operator:wikidata":"Q54624021","shop":"charity"}},"shop/charity/goodwillnynj-af8277":{"name":"Goodwill NYNJ","locationSet":{"include":["us-nj","us-ny"]},"geometry":["point","area"],"matchScore":2,"terms":["goodwill","goodwill industries of greater new york & northern new jersey","goodwill nynj"],"tags":{"operator:wikidata":"Q54557261","shop":"charity"},"addTags":{"brand":"Goodwill","brand:wikidata":"Q5583655","name":"Goodwill","operator":"Goodwill NYNJ","operator:wikidata":"Q54557261","shop":"charity"}},"public_transport/station_ferry/libertylandingferry-b4755d":{"name":"Liberty Landing Ferry","locationSet":{"include":["us-nj","us-ny"]},"geometry":["vertex","point","area"],"matchScore":2,"terms":["liberty landing ferry"],"reference":{"key":"amenity","value":"ferry_terminal"},"tags":{"ferry":"yes","network:wikidata":"Q6542171","public_transport":"station"},"addTags":{"amenity":"ferry_terminal","ferry":"yes","network":"Liberty Landing Ferry","network:wikidata":"Q6542171","public_transport":"station"}},"public_transport/station_ferry/nywaterway-b4755d":{"name":"NY Waterway","locationSet":{"include":["us-nj","us-ny"]},"geometry":["vertex","point","area"],"matchScore":2,"terms":["ny waterway"],"reference":{"key":"amenity","value":"ferry_terminal"},"tags":{"ferry":"yes","network:wikidata":"Q6956135","public_transport":"station"},"addTags":{"amenity":"ferry_terminal","ferry":"yes","network":"NY Waterway","network:wikidata":"Q6956135","public_transport":"station"}},"public_transport/platform/bus_point/njtransit-aa25f3":{"name":"NJ Transit","locationSet":{"include":["us-nj","us-ny","us-pa"]},"geometry":["point","vertex"],"matchScore":2,"terms":["new jersey transit","nj transit","njt"],"reference":{"key":"public_transport","value":"platform"},"tags":{"bus":"yes","network:wikidata":"Q498553","public_transport":"platform"},"addTags":{"bus":"yes","highway":"bus_stop","network":"NJ Transit","network:short":"NJT","network:wikidata":"Q498553","public_transport":"platform"}},"type/route/bus/njtransit-18372d":{"name":"NJ Transit","locationSet":{"include":["us-nj","us-ny","us-pa"]},"geometry":["relation"],"matchScore":2,"terms":["new jersey transit","nj transit","njt"],"reference":{"key":"route","value":"bus"},"tags":{"network:wikidata":"Q498553","route":"bus","type":"route"},"addTags":{"network":"NJ Transit","network:short":"NJT","network:wikidata":"Q498553","route":"bus","type":"route"}},"type/route/ferry/libertylandingferry-8befc2":{"name":"Liberty Landing Ferry","locationSet":{"include":["us-nj","us-ny"]},"geometry":["relation"],"matchScore":2,"terms":["liberty landing ferry"],"reference":{"key":"route","value":"ferry"},"tags":{"network:wikidata":"Q6542171","route":"ferry","type":"route"},"addTags":{"network":"Liberty Landing Ferry","network:wikidata":"Q6542171","route":"ferry","type":"route"}},"type/route/ferry/nywaterway-8befc2":{"name":"NY Waterway","locationSet":{"include":["us-nj","us-ny"]},"geometry":["relation"],"matchScore":2,"terms":["ny waterway"],"reference":{"key":"route","value":"ferry"},"tags":{"network:wikidata":"Q6956135","route":"ferry","type":"route"},"addTags":{"network":"NY Waterway","network:wikidata":"Q6956135","route":"ferry","type":"route"}},"route/ferry/libertylandingferry-8befc2":{"name":"Liberty Landing Ferry","locationSet":{"include":["us-nj","us-ny"]},"geometry":["line"],"matchScore":2,"terms":["liberty landing ferry"],"tags":{"network:wikidata":"Q6542171","route":"ferry"},"addTags":{"network":"Liberty Landing Ferry","network:wikidata":"Q6542171","route":"ferry"}},"route/ferry/nywaterway-8befc2":{"name":"NY Waterway","locationSet":{"include":["us-nj","us-ny"]},"geometry":["line"],"matchScore":2,"terms":["ny waterway"],"tags":{"network:wikidata":"Q6956135","route":"ferry"},"addTags":{"network":"NY Waterway","network:wikidata":"Q6956135","route":"ferry"}},"type/route/light_rail/hudsonbergenlightrail-78370e":{"name":"HBLR","locationSet":{"include":["us-nj"]},"geometry":["relation"],"matchScore":2,"terms":["hblr","hudson\u2013bergen light rail","nj transit"],"reference":{"key":"route","value":"light_rail"},"tags":{"network:wikidata":"Q1357874","route":"light_rail","type":"route"},"addTags":{"network":"Hudson\u2013Bergen Light Rail","network:short":"HBLR","network:wikidata":"Q1357874","operator":"NJ Transit","operator:wikidata":"Q498553","route":"light_rail","type":"route"}},"type/route/light_rail/newarklightrail-78370e":{"name":"NLR","locationSet":{"include":["us-nj"]},"geometry":["relation"],"matchScore":2,"terms":["newark light rail","nj transit","nlr"],"reference":{"key":"route","value":"light_rail"},"tags":{"network:wikidata":"Q3078283","route":"light_rail","type":"route"},"addTags":{"network":"Newark Light Rail","network:short":"NLR","network:wikidata":"Q3078283","operator":"NJ Transit","operator:wikidata":"Q498553","route":"light_rail","type":"route"}},"type/route/light_rail/riverline-78370e":{"name":"River LINE","locationSet":{"include":["us-nj"]},"geometry":["relation"],"matchScore":2,"terms":["nj transit","river line"],"reference":{"key":"route","value":"light_rail"},"tags":{"network:wikidata":"Q2155505","route":"light_rail","type":"route"},"addTags":{"network":"River LINE","network:wikidata":"Q2155505","operator":"NJ Transit","operator:wikidata":"Q498553","route":"light_rail","type":"route"}},"type/route/train/njtransit-2ecabe":{"name":"NJ Transit","locationSet":{"include":["us-nj","us-ny","us-pa"]},"geometry":["relation"],"matchScore":2,"terms":["new jersey transit","nj transit"],"reference":{"key":"route","value":"train"},"tags":{"network:wikidata":"Q498553","route":"train","type":"route"},"addTags":{"network":"NJ Transit","network:wikidata":"Q498553","route":"train","type":"route"}}}