{"amenity/atm/attijariwafabank-e568eb":{"name":"Attijariwafa Bank (التجاري وفا بنك)","locationSet":{"include":["ae","be","bf","bj","ca","cd","cg","ch","ci","cm","eg","es","fr","ga","gb","it","ma","mr","nl","sa","sn","tg","tn"]},"geometry":["point","vertex"],"matchScore":2,"terms":["attijariwafa bank","attijariwafa bank التجاري وفا بنك","التجاري وفا بنك"],"tags":{"amenity":"atm","brand:wikidata":"Q758052"},"addTags":{"amenity":"atm","brand":"Attijariwafa Bank","brand:ar":"التجاري وفا بنك","brand:en":"Attijariwafa Bank","brand:wikidata":"Q758052","name:ar":"التجاري وفا بنك","name:en":"Attijariwafa Bank","operator":"Attijariwafa Bank","operator:wikidata":"Q758052"}},"amenity/bank/attijariwafabank-c1cae6":{"name":"Attijariwafa Bank (التجاري وفا بنك)","locationSet":{"include":["ae","be","bf","bj","ca","cd","cg","ch","ci","cm","eg","es","fr","ga","gb","it","ma","mr","nl","sa","sn","tg","tn"]},"geometry":["point","area"],"matchScore":2,"terms":["attijariwafa bank","attijariwafa bank التجاري وفا بنك","التجاري وفا بنك"],"tags":{"amenity":"bank","brand:wikidata":"Q758052"},"addTags":{"amenity":"bank","brand":"Attijariwafa Bank","brand:ar":"التجاري وفا بنك","brand:en":"Attijariwafa Bank","brand:wikidata":"Q758052","name:ar":"التجاري وفا بنك","name:en":"Attijariwafa Bank"}}}