{"amenity/atm/alliedbank-c8ef8c":{"name":"Allied Bank (Pakistan)","locationSet":{"include":["bh","pk"]},"geometry":["point","vertex"],"matchScore":2,"terms":["allied bank","allied bank limited","الائیڈ بینک","الائیڈ بینک لمیٹڈ"],"fields":["name","brand","{amenity/atm}"],"tags":{"amenity":"atm","brand:wikidata":"Q4732553"},"addTags":{"amenity":"atm","brand":"Allied Bank Limited","brand:en":"Allied Bank Limited","brand:ur":"الائیڈ بینک لمیٹڈ","brand:wikidata":"Q4732553","name:en":"Allied Bank","name:ur":"الائیڈ بینک","operator":"Allied Bank Limited","operator:wikidata":"Q4732553"}},"amenity/atm/bankalfalah-d0578d":{"name":"Bank Alfalah (بینک الفلاح)","locationSet":{"include":["ae","af","bd","bh","pk"]},"geometry":["point","vertex"],"matchScore":2,"terms":["bank alfalah","bank alfalah limited","habib credit and exchange bank","بینک الفلاح","بینک الفلاح لمیٹڈ"],"fields":["name","brand","{amenity/atm}"],"tags":{"amenity":"atm","brand:wikidata":"Q4855895"},"addTags":{"amenity":"atm","brand":"Bank Alfalah","brand:en":"Bank Alfalah","brand:ur":"بینک الفلاح","brand:wikidata":"Q4855895","name:en":"Bank Alfalah","name:ur":"بینک الفلاح","operator":"Bank Alfalah","operator:wikidata":"Q4855895"}},"amenity/atm/bnpparibas-6b438a":{"name":"BNP Paribas","locationSet":{"include":["ae","af","ar","at","bf","bg","bh","br","ca","ch","ci","cl","co","cz","de","dk","dz","es","fi","fr","gb","gf","gp","hu","ie","il","it","kw","lu","ma","ml","mq","mx","nl","no","pe","pt","qa","re","ro","ru","sa","se","sk","sn","tn","tr","us"]},"geometry":["point","vertex"],"matchScore":2,"terms":["bnp paribas"],"fields":["name","brand","{amenity/atm}"],"tags":{"amenity":"atm","brand:wikidata":"Q499707"},"addTags":{"amenity":"atm","brand":"BNP Paribas","brand:wikidata":"Q499707","operator":"BNP Paribas","operator:wikidata":"Q499707"}},"amenity/atm/mcb-a8db09":{"name":"MCB (Pakistan)","locationSet":{"include":["ae","bh","lk","pk"]},"geometry":["point","vertex"],"matchScore":2,"terms":["mcb","mcb bank","ایم سی بی بینک"],"fields":["name","brand","{amenity/atm}"],"tags":{"amenity":"atm","brand:wikidata":"Q15982510"},"addTags":{"amenity":"atm","brand":"MCB","brand:en":"MCB","brand:ur":"ایم سی بی بینک","brand:wikidata":"Q15982510","name:en":"MCB","name:ur":"ایم سی بی بینک","operator":"MCB","operator:wikidata":"Q15982510"}},"amenity/bank/alliedbank-4c5401":{"name":"Allied Bank (Pakistan)","locationSet":{"include":["bh","pk"]},"geometry":["point","area"],"matchScore":2,"terms":["allied bank","allied bank limited","الائیڈ بینک","الائیڈ بینک لمیٹڈ"],"tags":{"amenity":"bank","brand:wikidata":"Q4732553"},"addTags":{"amenity":"bank","brand":"Allied Bank Limited","brand:en":"Allied Bank Limited","brand:ur":"الائیڈ بینک لمیٹڈ","brand:wikidata":"Q4732553","name":"Allied Bank","name:en":"Allied Bank","name:ur":"الائیڈ بینک"}},"amenity/bank/bankalfalah-a78d37":{"name":"Bank Alfalah (بینک الفلاح)","locationSet":{"include":["ae","af","bd","bh","pk"]},"geometry":["point","area"],"matchScore":2,"terms":["bank alfalah","bank alfalah limited","habib credit and exchange bank","بینک الفلاح","بینک الفلاح لمیٹڈ"],"tags":{"amenity":"bank","brand:wikidata":"Q4855895"},"addTags":{"amenity":"bank","brand":"Bank Alfalah","brand:en":"Bank Alfalah","brand:ur":"بینک الفلاح","brand:wikidata":"Q4855895","name:en":"Bank Alfalah","name:ur":"بینک الفلاح"}},"amenity/bank/bnpparibas-42efac":{"name":"BNP Paribas","locationSet":{"include":["ae","af","ar","at","bf","bg","bh","br","ca","ch","ci","cl","co","cz","de","dk","dz","es","fi","fr","gb","gf","gp","hu","ie","il","it","kw","lu","ma","ml","mq","mx","nl","no","pe","pt","qa","re","ro","ru","sa","se","sk","sn","tn","tr","us"]},"geometry":["point","area"],"matchScore":2,"terms":["bnp paribas"],"tags":{"amenity":"bank","brand:wikidata":"Q499707"},"addTags":{"amenity":"bank","brand":"BNP Paribas","brand:wikidata":"Q499707","name":"BNP Paribas"}},"amenity/bank/mcb-57526d":{"name":"MCB (Pakistan)","locationSet":{"include":["ae","bh","lk","pk"]},"geometry":["point","area"],"matchScore":2,"terms":["mcb","mcb bank","ایم سی بی بینک"],"tags":{"amenity":"bank","brand:wikidata":"Q15982510"},"addTags":{"amenity":"bank","brand":"MCB","brand:en":"MCB","brand:ur":"ایم سی بی بینک","brand:wikidata":"Q15982510","name":"MCB","name:en":"MCB","name:ur":"ایم سی بی بینک"}},"amenity/cafe/coffee_shop/columbuscafeandco-d3efe9":{"name":"Columbus Café & Co","locationSet":{"include":["be","bh","fr","ma","qa","us"]},"geometry":["point","area"],"matchScore":2,"terms":["colombus","colombus café","colombus café & co","columbus","columbus café","columbus café & co"],"reference":{"key":"cuisine","value":"coffee_shop"},"tags":{"amenity":"cafe","brand:wikidata":"Q2984582","cuisine":"coffee_shop"},"addTags":{"amenity":"cafe","brand":"Columbus Café & Co","brand:wikidata":"Q2984582","cuisine":"coffee_shop","name":"Columbus Café & Co","takeaway":"yes"}},"amenity/cafe/coffee_shop/timhortons-2ad4e1":{"name":"تيم هورتونز","locationSet":{"include":["ae","bh","jo","kw","om","qa","sa"]},"geometry":["point","area"],"matchScore":2,"terms":["tim hortons","تيم هورتونز"],"reference":{"key":"cuisine","value":"coffee_shop"},"tags":{"amenity":"cafe","brand:wikidata":"Q175106","cuisine":"coffee_shop"},"addTags":{"amenity":"cafe","brand":"تيم هورتونز","brand:ar":"تيم هورتونز","brand:en":"Tim Hortons","brand:wikidata":"Q175106","cuisine":"coffee_shop","name":"تيم هورتونز","name:ar":"تيم هورتونز","name:en":"Tim Hortons","takeaway":"yes"}},"amenity/cafe/coffee_shop/starbucks-0dcee5":{"name":"ستاربكس","locationSet":{"include":["ae","bh","dz","eg","iq","jo","kw","lb","ly","ma","om","qa","sa","tn"]},"geometry":["point","area"],"matchScore":2,"terms":["starbucks","starbucks coffee","ستاربكس","ستاربكس كافية"],"reference":{"key":"cuisine","value":"coffee_shop"},"tags":{"amenity":"cafe","brand:wikidata":"Q37158","cuisine":"coffee_shop"},"addTags":{"amenity":"cafe","brand":"ستاربكس","brand:ar":"ستاربكس","brand:en":"Starbucks","brand:wikidata":"Q37158","cuisine":"coffee_shop","name":"ستاربكس","name:ar":"ستاربكس","name:en":"Starbucks","official_name":"ستاربكس كافية","official_name:ar":"ستاربكس كافية","official_name:en":"Starbucks Coffee","takeaway":"yes"}},"amenity/cafe/coffee_shop/cariboucoffee-9bd633":{"name":"كاريبو كوفي","locationSet":{"include":["ae","bh","eg","kw","om","qa","sa"]},"geometry":["point","area"],"matchScore":2,"terms":["caribou coffee","كاريبو كوفي"],"reference":{"key":"cuisine","value":"coffee_shop"},"tags":{"amenity":"cafe","brand:wikidata":"Q5039494","cuisine":"coffee_shop"},"addTags":{"amenity":"cafe","brand":"كاريبو كوفي","brand:ar":"كاريبو كوفي","brand:en":"Caribou Coffee","brand:wikidata":"Q5039494","cuisine":"coffee_shop","name":"كاريبو كوفي","name:ar":"كاريبو كوفي","name:en":"Caribou Coffee","takeaway":"yes"}},"amenity/fast_food/burger/elevationburger-203491":{"name":"Elevation Burger","locationSet":{"include":["bh","kw","qa","us"]},"geometry":["point","area"],"matchScore":2,"terms":["elevation burger"],"reference":{"key":"cuisine","value":"burger"},"tags":{"amenity":"fast_food","brand:wikidata":"Q15291092","cuisine":"burger"},"addTags":{"amenity":"fast_food","brand":"Elevation Burger","brand:wikidata":"Q15291092","cuisine":"burger","name":"Elevation Burger","takeaway":"yes"}},"amenity/fast_food/sandwich/momen-f39225":{"name":"Mo'men","locationSet":{"include":["bh","eg","kw","ly","my","sa","sd"]},"geometry":["point","area"],"matchScore":2,"terms":["mo'men"],"reference":{"key":"cuisine","value":"sandwich"},"tags":{"amenity":"fast_food","brand:wikidata":"Q3317535","cuisine":"sandwich"},"addTags":{"amenity":"fast_food","brand":"Mo'men","brand:wikidata":"Q3317535","cuisine":"sandwich","name":"Mo'men","takeaway":"yes"}},"amenity/fast_food/oakberryacaibowls-df46eb":{"name":"Oakberry Açaí bowls","locationSet":{"include":["ae","au","bh","br","ch","cl","co","de","es","gr","hr","il","mt","mx","pe","pt","py","sa","th","us"]},"geometry":["point","area"],"matchScore":2,"terms":["oakberry açaí bowls"],"tags":{"amenity":"fast_food","brand:wikidata":"Q104870840"},"addTags":{"amenity":"fast_food","brand":"Oakberry Açaí bowls","brand:wikidata":"Q104870840","cuisine":"açaí","name":"Oakberry Açaí bowls","takeaway":"yes"}},"amenity/fast_food/pizza/thepizzacompany-abbb1f":{"name":"The Pizza Company","locationSet":{"include":["ae","bh","cn","jo","kh","la","mm","my","sa","th","vn"]},"geometry":["point","area"],"matchScore":2,"terms":["pizza company","the pizza company"],"reference":{"key":"cuisine","value":"pizza"},"tags":{"amenity":"fast_food","brand:wikidata":"Q2413520","cuisine":"pizza"},"addTags":{"alt_name":"Pizza Company","amenity":"fast_food","brand":"The Pizza Company","brand:wikidata":"Q2413520","cuisine":"pizza","name":"The Pizza Company","takeaway":"yes"}},"amenity/fast_food/chicken/albaik-060f89":{"name":"البيك","locationSet":{"include":["bh","sa"]},"geometry":["point","area"],"matchScore":2,"terms":["albaik","البيك"],"reference":{"key":"cuisine","value":"chicken"},"tags":{"amenity":"fast_food","brand:wikidata":"Q4703536","cuisine":"chicken"},"addTags":{"amenity":"fast_food","brand":"البيك","brand:ar":"البيك","brand:en":"Albaik","brand:wikidata":"Q4703536","cuisine":"chicken","name":"البيك","name:ar":"البيك","name:en":"Albaik","takeaway":"yes"}},"amenity/fast_food/chicken/altazaj-7c76bb":{"name":"الطازج","locationSet":{"include":["ae","bh","eg","jo","kw","lb","my","om","qa","sa","td","ye"]},"geometry":["point","area"],"matchScore":2,"terms":["al tazaj","الطازج"],"reference":{"key":"cuisine","value":"chicken"},"tags":{"amenity":"fast_food","brand:wikidata":"Q4704878","cuisine":"chicken"},"addTags":{"amenity":"fast_food","brand":"الطازج","brand:ar":"الطازج","brand:en":"Al Tazaj","brand:wikidata":"Q4704878","cuisine":"chicken","name":"الطازج","name:ar":"الطازج","name:en":"Al Tazaj","takeaway":"yes"}},"amenity/fast_food/donut/dunkindonuts-07d3e5":{"name":"دانكن دونتس'","locationSet":{"include":["ae","bh","eg","kw","lb","om","qa","sa"]},"geometry":["point","area"],"matchScore":2,"terms":["dunkin'","dunkin' donuts","dunkin's","دانكن","دانكن دونتس"],"reference":{"key":"cuisine","value":"donut"},"tags":{"amenity":"fast_food","brand:wikidata":"Q847743","cuisine":"donut;coffee_shop"},"addTags":{"amenity":"fast_food","brand":"دانكن","brand:ar":"دانكن","brand:en":"Dunkin'","brand:wikidata":"Q847743","cuisine":"donut;coffee_shop","name":"دانكن دونتس","name:ar":"دانكن دونتس","name:en":"Dunkin' Donuts","takeaway":"yes"}},"amenity/fast_food/chicken/kfc-15a250":{"name":"دجاج كنتاكي","locationSet":{"include":["ae","bh","eg","iq","jo","kw","lb","ly","ma","om","qa","sa","sd","sy","tn","ye"]},"geometry":["point","area"],"matchScore":2,"terms":["kfc","دجاج كنتاكي"],"reference":{"key":"cuisine","value":"chicken"},"tags":{"amenity":"fast_food","brand:wikidata":"Q524757","cuisine":"chicken"},"addTags":{"amenity":"fast_food","brand":"دجاج كنتاكي","brand:ar":"دجاج كنتاكي","brand:en":"KFC","brand:wikidata":"Q524757","cuisine":"chicken","name":"دجاج كنتاكي","name:ar":"دجاج كنتاكي","name:en":"KFC","takeaway":"yes"}},"amenity/fast_food/donut/krispykrem-e5f89b":{"name":"كرسبي كريم","locationSet":{"include":["ae","bh","eg","kw","lb","qa","sa"]},"geometry":["point","area"],"matchScore":2,"terms":["krispy krem","كرسبي كريم"],"reference":{"key":"cuisine","value":"donut"},"tags":{"amenity":"fast_food","brand:wikidata":"Q1192805","cuisine":"donut"},"addTags":{"amenity":"fast_food","brand":"كرسبي كريم","brand:ar":"كرسبي كريم","brand:en":"Krispy Krem","brand:wikidata":"Q1192805","cuisine":"donut","name":"كرسبي كريم","name:ar":"كرسبي كريم","name:en":"Krispy Krem","takeaway":"yes"}},"amenity/fast_food/sandwich/kudu-1b3be3":{"name":"كودو","locationSet":{"include":["ae","bh","jo","sa","sd"]},"geometry":["point","area"],"matchScore":2,"terms":["kudu","كودو"],"reference":{"key":"cuisine","value":"sandwich"},"tags":{"amenity":"fast_food","brand:wikidata":"Q6441777","cuisine":"sandwich"},"addTags":{"amenity":"fast_food","brand":"كودو","brand:ar":"كودو","brand:en":"Kudu","brand:wikidata":"Q6441777","cuisine":"sandwich","name":"كودو","name:ar":"كودو","name:en":"Kudu","takeaway":"yes"}},"amenity/fast_food/burger/mcdonalds-19c993":{"name":"ماكدونالدز","locationSet":{"include":["ae","bh","eg","iq","jo","kw","lb","ma","om","qa","sa","sy","tn"]},"geometry":["point","area"],"matchScore":2,"terms":["mcdonald's","ماكدونالدز"],"reference":{"key":"cuisine","value":"burger"},"tags":{"amenity":"fast_food","brand:wikidata":"Q38076","cuisine":"burger"},"addTags":{"amenity":"fast_food","brand":"ماكدونالدز","brand:ar":"ماكدونالدز","brand:en":"McDonald's","brand:wikidata":"Q38076","cuisine":"burger","name":"ماكدونالدز","name:ar":"ماكدونالدز","name:en":"McDonald's","takeaway":"yes"}},"amenity/fast_food/burger/herfy-5a6b9f":{"name":"هرفي","locationSet":{"include":["ae","bd","bh","eg","kw","sa"]},"geometry":["point","area"],"matchScore":2,"terms":["herfy","هرفي"],"reference":{"key":"cuisine","value":"burger"},"tags":{"amenity":"fast_food","brand:wikidata":"Q5738371","cuisine":"burger"},"addTags":{"amenity":"fast_food","brand":"هرفي","brand:ar":"هرفي","brand:en":"Herfy","brand:wikidata":"Q5738371","cuisine":"burger","name":"هرفي","name:ar":"هرفي","name:en":"Herfy","takeaway":"yes"}},"amenity/fuel/bapco-f97176":{"name":"Bapco","locationSet":{"include":["bh"]},"geometry":["point","area"],"matchScore":2,"terms":["bahrain petroleum","bahrain petroleum company","bapco"],"fields":["name","brand","{amenity/fuel}"],"tags":{"amenity":"fuel","brand:wikidata":"Q803640"},"addTags":{"amenity":"fuel","brand":"Bapco","brand:wikidata":"Q803640","name":"Bapco","official_name":"Bahrain Petroleum Company"}},"amenity/fuel/enoc-7d34dd":{"name":"اينوك","locationSet":{"include":["ae","bh","kw","om","qa","sa","ye"]},"geometry":["point","area"],"matchScore":2,"terms":["enoc","اينوك"],"fields":["name","brand","{amenity/fuel}"],"tags":{"amenity":"fuel","brand:wikidata":"Q3045998"},"addTags":{"amenity":"fuel","brand":"اينوك","brand:ar":"اينوك","brand:en":"ENOC","brand:wikidata":"Q3045998","name":"اينوك","name:ar":"اينوك","name:en":"ENOC"}},"amenity/fuel/total-7d34dd":{"name":"توتال","locationSet":{"include":["ae","bh","kw","om","qa","sa","ye"]},"geometry":["point","area"],"matchScore":2,"terms":["total","توتال"],"fields":["name","brand","{amenity/fuel}"],"tags":{"amenity":"fuel","brand:wikidata":"Q154037"},"addTags":{"amenity":"fuel","brand":"توتال","brand:ar":"توتال","brand:en":"Total","brand:wikidata":"Q154037","name":"توتال","name:ar":"توتال","name:en":"Total"}},"amenity/ice_cream/menchies-411174":{"name":"Menchie's","locationSet":{"include":["ae","bh","bs","ca","cn","gb","in","jp","kw","qa","sa","us"]},"geometry":["point","area"],"matchScore":2,"terms":["menchie's","menchie's frozen yoghurt","menchie's frozen yogurt"],"tags":{"amenity":"ice_cream","brand:wikidata":"Q6816528"},"addTags":{"amenity":"ice_cream","brand":"Menchie's","brand:wikidata":"Q6816528","cuisine":"frozen_yogurt","name":"Menchie's"}},"amenity/ice_cream/redmango-73fcc9":{"name":"Red Mango","locationSet":{"include":["ae","bh","eg","kw","mx","qa","sa","sv","us"]},"geometry":["point","area"],"matchScore":2,"terms":["red mango"],"tags":{"amenity":"ice_cream","brand:wikidata":"Q7304565"},"addTags":{"amenity":"ice_cream","brand":"Red Mango","brand:wikidata":"Q7304565","name":"Red Mango"}},"amenity/ice_cream/yogurtland-4111ef":{"name":"Yogurtland","locationSet":{"include":["ae","au","bh","kw","mm","qa","sa","sg","th","us","ve"]},"geometry":["point","area"],"matchScore":2,"terms":["yogurtland"],"tags":{"amenity":"ice_cream","brand:wikidata":"Q8054428"},"addTags":{"amenity":"ice_cream","brand":"Yogurtland","brand:wikidata":"Q8054428","cuisine":"frozen_yogurt","name":"Yogurtland","takeaway":"yes"}},"amenity/restaurant/pizza/blazepizza-902636":{"name":"Blaze Pizza","locationSet":{"include":["bh","ca","kw","sa","us"]},"geometry":["point","area"],"matchScore":2,"terms":["blaze pizza"],"reference":{"key":"cuisine","value":"pizza"},"tags":{"amenity":"restaurant","brand:wikidata":"Q23016666","cuisine":"pizza"},"addTags":{"amenity":"restaurant","brand":"Blaze Pizza","brand:wikidata":"Q23016666","cuisine":"pizza","name":"Blaze Pizza"}},"amenity/restaurant/sushi/bonchonchicken-b76b63":{"name":"Bonchon Chicken","locationSet":{"include":["bh","kh","kr","kw","my","ph","sg","th","us"]},"geometry":["point","area"],"matchScore":2,"terms":["bonchon","bonchon chicken","bonchon fried chicken"],"reference":{"key":"cuisine","value":"sushi"},"tags":{"amenity":"restaurant","brand:wikidata":"Q4941248","cuisine":"chicken;korean;sushi"},"addTags":{"amenity":"restaurant","brand":"Bonchon Chicken","brand:wikidata":"Q4941248","cuisine":"chicken;korean;sushi","name":"Bonchon Chicken"}},"amenity/restaurant/nandos-32ebee":{"name":"Nando's","locationSet":{"include":["ae","au","bd","bh","bw","ca","fj","gb","ie","in","mu","my","nz","om","pk","qa","sa","sg","sz","us","za","zm","zw"]},"geometry":["point","area"],"matchScore":2,"terms":["nando's"],"tags":{"amenity":"restaurant","brand:wikidata":"Q3472954"},"addTags":{"amenity":"restaurant","brand":"Nando's","brand:wikidata":"Q3472954","cuisine":"chicken;portuguese","name":"Nando's"}},"amenity/madscience-0435a3":{"name":"Mad Science","locationSet":{"include":["bh","br","ca","cn","es","gb","kw","ma","nl","om","pe","sa","sg","th","tr","tt","us"]},"geometry":["point","vertex","line","area"],"matchScore":2,"terms":["mad science"],"fields":["name","brand","{amenity}"],"tags":{"amenity":"training","brand:wikidata":"Q17009137"},"addTags":{"amenity":"training","brand":"Mad Science","brand:wikidata":"Q17009137","name":"Mad Science","training":"science"}},"leisure/fitness_centre/energiefitness-db9195":{"name":"énergie Fitness","locationSet":{"include":["bh","es","gb","ie"]},"geometry":["point","area"],"matchScore":2,"terms":["énergie fitness"],"tags":{"brand:wikidata":"Q109855553","leisure":"fitness_centre"},"addTags":{"brand":"énergie Fitness","brand:wikidata":"Q109855553","leisure":"fitness_centre","name":"énergie Fitness"}},"office/insurance/allianz-332499":{"name":"Allianz","locationSet":{"include":["ae","ar","at","au","be","bg","bh","bm","bn","br","ca","cg","ch","ci","cm","cn","co","cy","cz","de","dk","ee","eg","es","fi","fr","gb","gf","gg","gh","gp","gr","hk","hr","hu","id","ie","in","is","it","ja","ke","kr","kw","la","li","lk","lt","lu","lv","ma","mg","mx","my","ng","nl","no","nz","om","ph","pk","pl","pt","qa","ro","ru","sa","se","sg","si","sk","sn","th","tr","tw","ua","us","za"]},"geometry":["point","area"],"matchScore":2,"terms":["allianz"],"fields":["name","brand","{office/insurance}"],"tags":{"brand:wikidata":"Q487292","office":"insurance"},"addTags":{"brand":"Allianz","brand:wikidata":"Q487292","name":"Allianz","office":"insurance"}},"office/insurance/axa-2e7672":{"name":"AXA","locationSet":{"include":["ae","ar","au","be","bh","bm","br","ca","ch","ci","cl","cm","cn","co","cz","de","dk","dz","eg","es","fi","fr","ga","gb","gr","hk","id","ie","in","it","jp","kr","lb","lu","ma","mu","mx","my","ng","nl","no","om","pa","pe","ph","pl","pt","qa","sa","se","sg","sk","sn","th","tr","tw","us"]},"geometry":["point","area"],"matchScore":2,"terms":["axa"],"fields":["name","brand","{office/insurance}"],"tags":{"brand:wikidata":"Q160054","office":"insurance"},"addTags":{"brand":"AXA","brand:wikidata":"Q160054","name":"AXA","office":"insurance"}},"office/insurance/zurich-2d6c95":{"name":"Zurich","locationSet":{"include":["ae","at","au","be","bh","br","ca","ch","cl","cn","co","de","ec","es","fi","fr","gb","hk","id","ie","it","ja","kw","lb","li","lu","mx","my","nl","no","nz","om","pt","qa","se","sg","sk","tr","us"]},"geometry":["point","area"],"matchScore":2,"terms":["zurich"],"fields":["name","brand","{office/insurance}"],"tags":{"brand:wikidata":"Q230426","office":"insurance"},"addTags":{"brand":"Zurich","brand:wikidata":"Q230426","name":"Zurich","office":"insurance"}},"shop/bakery/paul-652955":{"name":"Paul","locationSet":{"include":["ae","az","be","bh","by","ci","cy","cz","eg","es","fr","ga","gb","ge","gr","id","in","jo","jp","kw","kz","lb","lu","ma","mu","my","om","pa","ph","pl","pt","qa","ro","ru","sa","sg","th","tn","tw","ua","us","uz","vn","za"]},"geometry":["point","area"],"matchScore":2,"terms":["paul"],"tags":{"brand:wikidata":"Q3370417","shop":"bakery"},"addTags":{"brand":"Paul","brand:wikidata":"Q3370417","name":"Paul","shop":"bakery"}},"shop/cosmetics/merlenorman-f96c07":{"name":"Merle Norman Cosmetics","locationSet":{"include":["ae","bh","ca","gt","hk","tw","us"]},"geometry":["point","area"],"matchScore":2,"terms":["merle norman cosmetic studio","merle norman cosmetics"],"tags":{"brand:wikidata":"Q104844059","shop":"cosmetics"},"addTags":{"brand":"Merle Norman Cosmetics","brand:wikidata":"Q104844059","full_name":"Merle Norman Cosmetic Studio","name":"Merle Norman","shop":"cosmetics"}},"shop/jewelry/joyalukkas-534941":{"name":"Joyalukkas","locationSet":{"include":["ae","bh","gb","in","kw","my","om","qa","sa","sg","us"]},"geometry":["point","area"],"matchScore":2,"terms":["joyalukkas"],"tags":{"brand:wikidata":"Q6297357","shop":"jewelry"},"addTags":{"brand":"Joyalukkas","brand:wikidata":"Q6297357","name":"Joyalukkas","shop":"jewelry"}},"shop/jewelry/malabargoldanddiamonds-9fa2ef":{"name":"Malabar Gold and Diamonds","locationSet":{"include":["ae","bh","in","kw","my","om","qa","sa","sg","us"]},"geometry":["point","area"],"matchScore":2,"terms":["malabar gold and diamonds"],"tags":{"brand:wikidata":"Q60748883","shop":"jewelry"},"addTags":{"brand":"Malabar Gold and Diamonds","brand:wikidata":"Q60748883","name":"Malabar Gold and Diamonds","shop":"jewelry"}},"shop/kitchen/ixina-d089d8":{"name":"Ixina","locationSet":{"include":["ae","au","be","bf","bh","bj","ca","ci","cm","cn","cz","dz","ee","eg","fr","gh","hr","ke","kw","lu","ly","ma","mu","nl","pl","qa","ro","ru","sa","se","sn","tg","th","tn","vn"]},"geometry":["point","area"],"matchScore":2,"terms":["ixina"],"tags":{"brand:wikidata":"Q3156424","shop":"kitchen"},"addTags":{"brand":"Ixina","brand:wikidata":"Q3156424","name":"Ixina","shop":"kitchen"}},"shop/supermarket/luluhypermarket-7e55ed":{"name":"Lulu Hypermarket","locationSet":{"include":["ae","bh","eg","id","in","kw","my","om","qa"]},"geometry":["point","area"],"matchScore":2,"terms":["lulu hypermarket"],"tags":{"brand:wikidata":"Q6702930","shop":"supermarket"},"addTags":{"brand":"Lulu Hypermarket","brand:wikidata":"Q6702930","name":"Lulu Hypermarket","shop":"supermarket"}},"shop/supermarket/panda-709c58":{"name":"بنده","locationSet":{"include":["ae","bh","sa"]},"geometry":["point","area"],"matchScore":2,"terms":["hyperpanda","panda","بنده","شركة بنده للتجزئة","هايبربنده"],"tags":{"brand:wikidata":"Q4832749","shop":"supermarket"},"addTags":{"alt_name:ar":"هايبربنده","alt_name:en":"HyperPanda","brand":"بنده","brand:ar":"بنده","brand:en":"Panda","brand:wikidata":"Q4832749","name":"بنده","name:ar":"بنده","name:en":"Panda","official_name":"شركة بنده للتجزئة","shop":"supermarket"}},"shop/tool_hire/loxam-33fef8":{"name":"Loxam","locationSet":{"include":["ae","be","bh","br","ch","co","cz","de","dk","ee","es","fi","fr","gb","ie","it","kw","lt","lu","lv","ma","nl","no","om","pl","pt","qa","sa","se","sk"]},"geometry":["point","area"],"matchScore":2,"terms":["loxam"],"tags":{"brand:wikidata":"Q3264407","shop":"tool_hire"},"addTags":{"brand":"Loxam","brand:wikidata":"Q3264407","name":"Loxam","shop":"tool_hire"}},"shop/tyres/tyreplus-99cc81":{"name":"Tyreplus","locationSet":{"include":["ae","au","bh","cn","id","kh","kw","my","om","ph","qa","ru","sa","sg","th","tw"]},"geometry":["point","area"],"matchScore":2,"terms":["tyreplus"],"tags":{"brand:wikidata":"Q110959120","shop":"tyres"},"addTags":{"brand":"Tyreplus","brand:wikidata":"Q110959120","name":"Tyreplus","shop":"tyres"}},"tourism/hotel/marriottexecutiveapartments-b2f419":{"name":"Marriott Executive Apartments","locationSet":{"include":["ae","be","bh","br","cn","et","gb","hu","id","in","kr","kz","pa","sa","th","za"]},"geometry":["point","area"],"matchScore":2,"terms":["marriott executive apartments"],"fields":["name","brand","{tourism/hotel}"],"tags":{"brand:wikidata":"Q72636824","tourism":"hotel"},"addTags":{"brand":"Marriott Executive Apartments","brand:wikidata":"Q72636824","name":"Marriott Executive Apartments","tourism":"hotel"}},"tourism/hotel/raffles-771760":{"name":"Raffles","locationSet":{"include":["ae","bh","cn","fr","gb","id","in","kh","mv","ph","pl","qa","ru","sa","sc","sg","us"]},"geometry":["point","area"],"matchScore":2,"terms":["raffles"],"fields":["name","brand","{tourism/hotel}"],"tags":{"brand:wikidata":"Q4306661","tourism":"hotel"},"addTags":{"brand":"Raffles","brand:wikidata":"Q4306661","name":"Raffles","tourism":"hotel"}}}