{"amenity/fuel/uno-24faf9":{"name":"Uno","locationSet":{"include":["bz","cr","gt","hn","ni","sv"]},"geometry":["point","area"],"matchScore":2,"terms":["uno"],"fields":["name","brand","{amenity/fuel}"],"tags":{"amenity":"fuel","brand:wikidata":"Q62535574"},"addTags":{"amenity":"fuel","brand":"Uno","brand:wikidata":"Q62535574","name":"Uno"}},"shop/paint/comex-d8e74b":{"name":"Comex","locationSet":{"include":["bz","cr","gt","hn","mx","ni","sv"]},"geometry":["point","area"],"matchScore":2,"terms":["comex"],"tags":{"brand:wikidata":"Q5151654","shop":"paint"},"addTags":{"brand":"Comex","brand:wikidata":"Q5151654","name":"Comex","shop":"paint"}},"amenity/school/governmentofbelizegob-7f482d":{"name":"Government of Belize (GOB)","locationSet":{"include":["bz"]},"geometry":["area","point"],"matchScore":2,"terms":["government of belize (gob)"],"tags":{"amenity":"school","operator:wikidata":"Q21129557"},"addTags":{"amenity":"school","operator":"Government of Belize (GOB)","operator:wikidata":"Q21129557"}},"amenity/telephone/claro-6490cd":{"name":"Claro","locationSet":{"include":["ai","ag","aw","bs","bb","bq","vg","ky","cu","cw","dm","do","gd","gp","ht","jm","mq","ms","pr","bl","kn","lc","mf","vc","sx","tt","tc","vi","bz","cr","sv","gt","hn","mx","ni","pa","ar","bo","bv","br","cl","co","ec","fk","gf","gy","py","pe","gs","sr","uy","ve"]},"geometry":["point","vertex"],"matchScore":2,"terms":["claro"],"fields":["name","operator","{amenity/telephone}"],"tags":{"amenity":"telephone","operator:wikidata":"Q1770208"},"addTags":{"amenity":"telephone","operator":"Claro","operator:wikidata":"Q1770208"}},"power/substation/belizeelectricitylimited-925406":{"name":"Belize Electricity Limited","locationSet":{"include":["bz"]},"geometry":["area","point"],"matchScore":2,"terms":["bel","belize electricity limited","belize electricity limited (bel)"],"tags":{"operator:wikidata":"Q4882970","power":"substation"},"addTags":{"operator":"Belize Electricity Limited","operator:short":"BEL","operator:wikidata":"Q4882970","power":"substation"}},"power/transformer/belizeelectricitylimited-94b790":{"name":"Belize Electricity Limited","locationSet":{"include":["bz"]},"geometry":["point","vertex"],"matchScore":2,"terms":["bel","belize electricity limited","belize electricity limited (bel)"],"tags":{"operator:wikidata":"Q4882970","power":"transformer"},"addTags":{"operator":"Belize Electricity Limited","operator:short":"BEL","operator:wikidata":"Q4882970","power":"transformer"}}}