{"amenity/atm/bankalfalah-d0578d":{"name":"Bank Alfalah (بینک الفلاح)","locationSet":{"include":["ae","af","bd","bh","pk"]},"geometry":["point","vertex"],"matchScore":2,"terms":["bank alfalah","bank alfalah limited","habib credit and exchange bank","بینک الفلاح","بینک الفلاح لمیٹڈ"],"tags":{"amenity":"atm","brand:wikidata":"Q4855895"},"addTags":{"amenity":"atm","brand":"Bank Alfalah","brand:en":"Bank Alfalah","brand:ur":"بینک الفلاح","brand:wikidata":"Q4855895","name:en":"Bank Alfalah","name:ur":"بینک الفلاح","operator":"Bank Alfalah","operator:wikidata":"Q4855895"}},"amenity/atm/agranibank-9cdc0f":{"name":"অগ্রণী ব্যাংক","locationSet":{"include":["bd"]},"geometry":["point","vertex"],"matchScore":2,"terms":["agrani bank","agrani bank limited","agrani bank limited অগ্রণী ব্যাংক লিমিটেড","agrani bank ltd","agrani bank ltd অগ্রণী ব্যাংক লিমিটেড","অগ্রণী ব্যাংক","অগ্রণী ব্যাংক লিমিটেড"],"tags":{"amenity":"atm","brand:wikidata":"Q517050"},"addTags":{"amenity":"atm","brand":"অগ্রণী ব্যাংক","brand:bn":"অগ্রণী ব্যাংক","brand:en":"Agrani Bank","brand:wikidata":"Q517050","name":"অগ্রণী ব্যাংক","name:bn":"অগ্রণী ব্যাংক","name:en":"Agrani Bank","operator":"অগ্রণী ব্যাংক","operator:wikidata":"Q517050"}},"amenity/atm/grameenbank-9cdc0f":{"name":"গ্রামীণ ব্যাংক","locationSet":{"include":["bd"]},"geometry":["point","vertex"],"matchScore":2,"terms":["grameen bank","গ্রামীণ ব্যাংক"],"tags":{"amenity":"atm","brand:wikidata":"Q188567"},"addTags":{"amenity":"atm","brand":"গ্রামীণ ব্যাংক","brand:bn":"গ্রামীণ ব্যাংক","brand:en":"Grameen Bank","brand:wikidata":"Q188567","name":"গ্রামীণ ব্যাংক","name:bn":"গ্রামীণ ব্যাংক","name:en":"Grameen Bank","operator":"গ্রামীণ ব্যাংক","operator:wikidata":"Q188567"}},"amenity/atm/janatabanklimited-9cdc0f":{"name":"জনতা ব্যাংক লিমিটেড","locationSet":{"include":["bd"]},"geometry":["point","vertex"],"matchScore":2,"terms":["janata bank","janata bank limited","janata bank limited জনতা ব্যাংক লিমিটেড","জনতা ব্যাংক লিমিটেড"],"tags":{"amenity":"atm","brand:wikidata":"Q3347028"},"addTags":{"amenity":"atm","brand":"জনতা ব্যাংক লিমিটেড","brand:bn":"জনতা ব্যাংক লিমিটেড","brand:en":"Janata Bank Limited","brand:wikidata":"Q3347028","name":"জনতা ব্যাংক লিমিটেড","name:bn":"জনতা ব্যাংক লিমিটেড","name:en":"Janata Bank Limited","operator":"জনতা ব্যাংক লিমিটেড","operator:wikidata":"Q3347028"}},"amenity/atm/bangladeshkrishibank-9cdc0f":{"name":"বাংলাদেশ কৃষি ব্যাংক","locationSet":{"include":["bd"]},"geometry":["point","vertex"],"matchScore":2,"terms":["bangladesh krishi bank","বাংলাদেশ কৃষি ব্যাংক"],"tags":{"amenity":"atm","brand:wikidata":"Q16345932"},"addTags":{"amenity":"atm","brand":"বাংলাদেশ কৃষি ব্যাংক","brand:bn":"বাংলাদেশ কৃষি ব্যাংক","brand:en":"Bangladesh Krishi Bank","brand:wikidata":"Q16345932","name":"বাংলাদেশ কৃষি ব্যাংক","name:bn":"বাংলাদেশ কৃষি ব্যাংক","name:en":"Bangladesh Krishi Bank","operator":"বাংলাদেশ কৃষি ব্যাংক","operator:wikidata":"Q16345932"}},"amenity/atm/sonalibank-9cdc0f":{"name":"সোনালী ব্যাংক লিমিটেড","locationSet":{"include":["bd"]},"geometry":["point","vertex"],"matchScore":2,"terms":["sonali bank","sonali bank limited","sonali bank limited সোনালী ব্যাংক লিমিটেড","সোনালী ব্যাংক লিমিটেড"],"tags":{"amenity":"atm","brand:wikidata":"Q3350382"},"addTags":{"amenity":"atm","brand":"সোনালী ব্যাংক লিমিটেড","brand:bn":"সোনালী ব্যাংক লিমিটেড","brand:en":"Sonali Bank","brand:wikidata":"Q3350382","name":"সোনালী ব্যাংক লিমিটেড","name:bn":"সোনালী ব্যাংক লিমিটেড","name:en":"Sonali Bank","operator":"সোনালী ব্যাংক লিমিটেড","operator:wikidata":"Q3350382"}},"amenity/bank/bankalfalah-a78d37":{"name":"Bank Alfalah (بینک الفلاح)","locationSet":{"include":["ae","af","bd","bh","pk"]},"geometry":["point","area"],"matchScore":2,"terms":["bank alfalah","bank alfalah limited","habib credit and exchange bank","بینک الفلاح","بینک الفلاح لمیٹڈ"],"tags":{"amenity":"bank","brand:wikidata":"Q4855895"},"addTags":{"amenity":"bank","brand":"Bank Alfalah","brand:en":"Bank Alfalah","brand:ur":"بینک الفلاح","brand:wikidata":"Q4855895","name:en":"Bank Alfalah","name:ur":"بینک الفلاح"}},"amenity/bank/agranibank-240b09":{"name":"অগ্রণী ব্যাংক","locationSet":{"include":["bd"]},"geometry":["point","area"],"matchScore":2,"terms":["agrani bank","agrani bank limited","agrani bank limited অগ্রণী ব্যাংক লিমিটেড","agrani bank ltd","agrani bank ltd অগ্রণী ব্যাংক লিমিটেড","অগ্রণী ব্যাংক","অগ্রণী ব্যাংক লিমিটেড"],"tags":{"amenity":"bank","brand:wikidata":"Q517050"},"addTags":{"amenity":"bank","brand":"অগ্রণী ব্যাংক","brand:bn":"অগ্রণী ব্যাংক","brand:en":"Agrani Bank","brand:wikidata":"Q517050","name":"অগ্রণী ব্যাংক","name:bn":"অগ্রণী ব্যাংক","name:en":"Agrani Bank"}},"amenity/bank/grameenbank-240b09":{"name":"গ্রামীণ ব্যাংক","locationSet":{"include":["bd"]},"geometry":["point","area"],"matchScore":2,"terms":["grameen bank","গ্রামীণ ব্যাংক"],"tags":{"amenity":"bank","brand:wikidata":"Q188567"},"addTags":{"amenity":"bank","brand":"গ্রামীণ ব্যাংক","brand:bn":"গ্রামীণ ব্যাংক","brand:en":"Grameen Bank","brand:wikidata":"Q188567","name":"গ্রামীণ ব্যাংক","name:bn":"গ্রামীণ ব্যাংক","name:en":"Grameen Bank"}},"amenity/bank/janatabanklimited-240b09":{"name":"জনতা ব্যাংক লিমিটেড","locationSet":{"include":["bd"]},"geometry":["point","area"],"matchScore":2,"terms":["janata bank","janata bank limited","janata bank limited জনতা ব্যাংক লিমিটেড","জনতা ব্যাংক লিমিটেড"],"tags":{"amenity":"bank","brand:wikidata":"Q3347028"},"addTags":{"amenity":"bank","brand":"জনতা ব্যাংক লিমিটেড","brand:bn":"জনতা ব্যাংক লিমিটেড","brand:en":"Janata Bank Limited","brand:wikidata":"Q3347028","name":"জনতা ব্যাংক লিমিটেড","name:bn":"জনতা ব্যাংক লিমিটেড","name:en":"Janata Bank Limited"}},"amenity/bank/bangladeshkrishibank-240b09":{"name":"বাংলাদেশ কৃষি ব্যাংক","locationSet":{"include":["bd"]},"geometry":["point","area"],"matchScore":2,"terms":["bangladesh krishi bank","বাংলাদেশ কৃষি ব্যাংক"],"tags":{"amenity":"bank","brand:wikidata":"Q16345932"},"addTags":{"amenity":"bank","brand":"বাংলাদেশ কৃষি ব্যাংক","brand:bn":"বাংলাদেশ কৃষি ব্যাংক","brand:en":"Bangladesh Krishi Bank","brand:wikidata":"Q16345932","name":"বাংলাদেশ কৃষি ব্যাংক","name:bn":"বাংলাদেশ কৃষি ব্যাংক","name:en":"Bangladesh Krishi Bank"}},"amenity/bank/sonalibank-240b09":{"name":"সোনালী ব্যাংক লিমিটেড","locationSet":{"include":["bd"]},"geometry":["point","area"],"matchScore":2,"terms":["sonali bank","sonali bank limited","sonali bank limited সোনালী ব্যাংক লিমিটেড","সোনালী ব্যাংক লিমিটেড"],"tags":{"amenity":"bank","brand:wikidata":"Q3350382"},"addTags":{"amenity":"bank","brand":"সোনালী ব্যাংক লিমিটেড","brand:bn":"সোনালী ব্যাংক লিমিটেড","brand:en":"Sonali Bank","brand:wikidata":"Q3350382","name":"সোনালী ব্যাংক লিমিটেড","name:bn":"সোনালী ব্যাংক লিমিটেড","name:en":"Sonali Bank"}},"amenity/fast_food/secretrecipe-541408":{"name":"Secret Recipe","locationSet":{"include":["bd","bn","cn","id","kh","mm","mv","my","sg","th"]},"geometry":["point","area"],"matchScore":2,"terms":["secret recipe"],"tags":{"amenity":"fast_food","brand:wikidata":"Q7444079"},"addTags":{"amenity":"fast_food","brand":"Secret Recipe","brand:wikidata":"Q7444079","cuisine":"cake;malaysian","name":"Secret Recipe","takeaway":"yes"}},"amenity/fast_food/burger/herfy-5a6b9f":{"name":"هرفي","locationSet":{"include":["ae","bd","bh","eg","kw","sa"]},"geometry":["point","area"],"matchScore":2,"terms":["herfy","هرفي"],"reference":{"key":"cuisine","value":"burger"},"tags":{"amenity":"fast_food","brand:wikidata":"Q5738371","cuisine":"burger"},"addTags":{"amenity":"fast_food","brand":"هرفي","brand:ar":"هرفي","brand:en":"Herfy","brand:wikidata":"Q5738371","cuisine":"burger","name":"هرفي","name:ar":"هرفي","name:en":"Herfy","takeaway":"yes"}},"amenity/ice_cream/gelatissimo-17af97":{"name":"Gelatissimo","locationSet":{"include":["au","bd","cn","in","ph","sa","sg"]},"geometry":["point","area"],"matchScore":2,"terms":["gelatissimo"],"tags":{"amenity":"ice_cream","brand:wikidata":"Q105270111"},"addTags":{"amenity":"ice_cream","brand":"Gelatissimo","brand:wikidata":"Q105270111","cuisine":"ice_cream","name":"Gelatissimo","takeaway":"yes"}},"amenity/restaurant/nandos-32ebee":{"name":"Nando's","locationSet":{"include":["ae","au","bd","bh","bw","ca","fj","gb","ie","in","mu","my","nz","om","pk","qa","sa","sg","sz","us","za","zm","zw"]},"geometry":["point","area"],"matchScore":2,"terms":["nando's"],"tags":{"amenity":"restaurant","brand:wikidata":"Q3472954"},"addTags":{"amenity":"restaurant","brand":"Nando's","brand:wikidata":"Q3472954","cuisine":"chicken;portuguese","name":"Nando's"}},"amenity/school/maplebear-101006":{"name":"Maple Bear","locationSet":{"include":["ae","al","ar","au","bd","bg","br","ca","gt","hk","hr","in","ke","kr","lk","ma","mx","my","np","om","pe","ph","py","ro","rs","sg","th","tk","ua","us","vn"]},"geometry":["area","point"],"matchScore":2,"terms":["maple bear"],"fields":["name","brand","{amenity/school}"],"tags":{"amenity":"school","brand:wikidata":"Q10324823"},"addTags":{"amenity":"school","brand":"Maple Bear","brand:wikidata":"Q10324823","name":"Maple Bear","operator:type":"private"}},"boundary/forestdepartment-4eee62":{"name":"Forest Department (Bangladesh)","locationSet":{"include":["bd"]},"geometry":["line"],"matchScore":2,"terms":["forest department"],"tags":{"boundary":"protected_area","operator:wikidata":"Q30603316"},"addTags":{"boundary":"protected_area","operator":"Forest Department","operator:wikidata":"Q30603316"}},"power/plant/bangladeshpowerdevelopmentboard-495def":{"name":"Bangladesh Power Development Board","locationSet":{"include":["bd"]},"geometry":["area"],"matchScore":2,"terms":["bangladesh power development board","bpdb"],"tags":{"operator:wikidata":"Q4855365","power":"plant"},"addTags":{"operator":"Bangladesh Power Development Board","operator:short":"BPDB","operator:wikidata":"Q4855365","power":"plant"}},"power/substation/pgcb-66abba":{"name":"PGCB","locationSet":{"include":["bd"]},"geometry":["area","point"],"matchScore":2,"terms":["pgcb"],"tags":{"operator:wikidata":"Q16254830","power":"substation"},"addTags":{"operator":"PGCB","operator:wikidata":"Q16254830","power":"substation"}},"power/transformer/pgcb-9d71fb":{"name":"PGCB","locationSet":{"include":["bd"]},"geometry":["point","vertex"],"matchScore":2,"terms":["pgcb"],"tags":{"operator:wikidata":"Q16254830","power":"transformer"},"addTags":{"operator":"PGCB","operator:wikidata":"Q16254830","power":"transformer"}}}