{"amenity/atm/rhbbank-309a65":{"name":"RHB Bank","locationSet":{"include":["bn","my","sg","th","vn"]},"geometry":["point","vertex"],"matchScore":2,"terms":["rhb bank"],"tags":{"amenity":"atm","brand:wikidata":"Q4207443"},"addTags":{"amenity":"atm","brand":"RHB Bank","brand:wikidata":"Q4207443","name":"RHB Bank","operator":"RHB Bank","operator:wikidata":"Q4207443"}},"amenity/atm/uob-441a96":{"name":"UOB","locationSet":{"include":["au","bn","ca","cn","gb","hk","id","in","jp","kr","mm","my","ph","sg","th","us","vn"]},"geometry":["point","vertex"],"matchScore":2,"terms":["united overseas bank","uob","大华银行"],"tags":{"amenity":"atm","brand:wikidata":"Q2064074"},"addTags":{"amenity":"atm","brand":"UOB","brand:wikidata":"Q2064074","brand:zh":"大华银行","name":"UOB","name:zh":"大华银行","operator":"UOB","operator:wikidata":"Q2064074"}},"amenity/atm/bangkokbank-9d348a":{"name":"ธนาคารกรุงเทพ","locationSet":{"include":["th"]},"geometry":["point","vertex"],"matchScore":2,"terms":["bangkok bank","ธนาคารกรุงเทพ"],"tags":{"amenity":"atm","brand:wikidata":"Q806483"},"addTags":{"amenity":"atm","brand":"ธนาคารกรุงเทพ","brand:en":"Bangkok Bank","brand:th":"ธนาคารกรุงเทพ","brand:wikidata":"Q806483","name":"ธนาคารกรุงเทพ","name:en":"Bangkok Bank","name:th":"ธนาคารกรุงเทพ","operator":"ธนาคารกรุงเทพ","operator:wikidata":"Q806483"}},"amenity/atm/krungthaibank-9d348a":{"name":"ธนาคารกรุงไทย","locationSet":{"include":["th"]},"geometry":["point","vertex"],"matchScore":2,"terms":["krung thai bank","ธนาคารกรุงไทย"],"tags":{"amenity":"atm","brand:wikidata":"Q962865"},"addTags":{"amenity":"atm","brand":"ธนาคารกรุงไทย","brand:en":"Krung Thai Bank","brand:th":"ธนาคารกรุงไทย","brand:wikidata":"Q962865","name":"ธนาคารกรุงไทย","name:en":"Krung Thai Bank","name:th":"ธนาคารกรุงไทย","operator":"ธนาคารกรุงไทย","operator:wikidata":"Q962865"}},"amenity/atm/kasikornbank-9d348a":{"name":"ธนาคารกสิกรไทย","locationSet":{"include":["th"]},"geometry":["point","vertex"],"matchScore":2,"terms":["kasikornbank","ธนาคารกสิกรไทย"],"tags":{"amenity":"atm","brand:wikidata":"Q276557"},"addTags":{"amenity":"atm","brand":"ธนาคารกสิกรไทย","brand:en":"Kasikornbank","brand:th":"ธนาคารกสิกรไทย","brand:wikidata":"Q276557","name":"ธนาคารกสิกรไทย","name:en":"Kasikornbank","name:th":"ธนาคารกสิกรไทย","operator":"ธนาคารกสิกรไทย","operator:wikidata":"Q276557"}},"amenity/atm/tmbthanachartbank-9d348a":{"name":"ธนาคารทหารไทย","locationSet":{"include":["th"]},"geometry":["point","vertex"],"matchScore":2,"terms":["tmb","tmb bank","tmbthanachart bank","ttb","ttb bank","ธนาคารทหารไทย"],"tags":{"amenity":"atm","brand:wikidata":"Q1527826"},"addTags":{"amenity":"atm","brand":"ธนาคารทหารไทย","brand:en":"TMBThanachart Bank","brand:th":"ธนาคารทหารไทย","brand:wikidata":"Q1527826","name":"ธนาคารทหารไทย","name:en":"TMBThanachart Bank","name:th":"ธนาคารทหารไทย","operator":"ธนาคารทหารไทย","operator:wikidata":"Q1527826","short_name":"ttb"}},"amenity/atm/siamcommercialbank-9d348a":{"name":"ธนาคารไทยพาณิชย์","locationSet":{"include":["th"]},"geometry":["point","vertex"],"matchScore":2,"terms":["siam commercial bank","ธนาคารไทยพาณิชย์"],"tags":{"amenity":"atm","brand:wikidata":"Q2038986"},"addTags":{"amenity":"atm","brand":"ธนาคารไทยพาณิชย์","brand:en":"Siam Commercial Bank","brand:th":"ธนาคารไทยพาณิชย์","brand:wikidata":"Q2038986","name":"ธนาคารไทยพาณิชย์","name:en":"Siam Commercial Bank","name:th":"ธนาคารไทยพาณิชย์","operator":"ธนาคารไทยพาณิชย์","operator:wikidata":"Q2038986"}},"amenity/atm/governmentsavingsbank-9d348a":{"name":"ธนาคารออมสิน","locationSet":{"include":["th"]},"geometry":["point","vertex"],"matchScore":2,"terms":["government savings bank","ธนาคารออมสิน"],"tags":{"amenity":"atm","brand:wikidata":"Q6579041"},"addTags":{"amenity":"atm","brand":"ธนาคารออมสิน","brand:en":"Government Savings Bank","brand:th":"ธนาคารออมสิน","brand:wikidata":"Q6579041","name":"ธนาคารออมสิน","name:en":"Government Savings Bank","name:th":"ธนาคารออมสิน","operator":"ธนาคารออมสิน","operator:wikidata":"Q6579041"}},"amenity/bank/rhbbank-ea52df":{"name":"RHB Bank","locationSet":{"include":["bn","my","sg","th","vn"]},"geometry":["point","area"],"matchScore":2,"terms":["rhb bank"],"tags":{"amenity":"bank","brand:wikidata":"Q4207443"},"addTags":{"amenity":"bank","brand":"RHB Bank","brand:wikidata":"Q4207443","name":"RHB Bank"}},"amenity/bank/uob-dadccc":{"name":"UOB","locationSet":{"include":["au","bn","ca","cn","gb","hk","id","in","jp","kr","mm","my","ph","sg","th","us","vn"]},"geometry":["point","area"],"matchScore":2,"terms":["united overseas bank","uob","大华银行"],"tags":{"amenity":"bank","brand:wikidata":"Q2064074"},"addTags":{"amenity":"bank","brand":"UOB","brand:wikidata":"Q2064074","brand:zh":"大华银行","name":"UOB","name:zh":"大华银行"}},"amenity/bank/bangkokbank-3229f1":{"name":"ธนาคารกรุงเทพ","locationSet":{"include":["th"]},"geometry":["point","area"],"matchScore":2,"terms":["bangkok bank","ธนาคารกรุงเทพ"],"tags":{"amenity":"bank","brand:wikidata":"Q806483"},"addTags":{"amenity":"bank","brand":"ธนาคารกรุงเทพ","brand:en":"Bangkok Bank","brand:th":"ธนาคารกรุงเทพ","brand:wikidata":"Q806483","name":"ธนาคารกรุงเทพ","name:en":"Bangkok Bank","name:th":"ธนาคารกรุงเทพ"}},"amenity/bank/krungthaibank-3229f1":{"name":"ธนาคารกรุงไทย","locationSet":{"include":["th"]},"geometry":["point","area"],"matchScore":2,"terms":["krung thai bank","ธนาคารกรุงไทย"],"tags":{"amenity":"bank","brand:wikidata":"Q962865"},"addTags":{"amenity":"bank","brand":"ธนาคารกรุงไทย","brand:en":"Krung Thai Bank","brand:th":"ธนาคารกรุงไทย","brand:wikidata":"Q962865","name":"ธนาคารกรุงไทย","name:en":"Krung Thai Bank","name:th":"ธนาคารกรุงไทย"}},"amenity/bank/kasikornbank-3229f1":{"name":"ธนาคารกสิกรไทย","locationSet":{"include":["th"]},"geometry":["point","area"],"matchScore":2,"terms":["kasikornbank","ธนาคารกสิกรไทย"],"tags":{"amenity":"bank","brand:wikidata":"Q276557"},"addTags":{"amenity":"bank","brand":"ธนาคารกสิกรไทย","brand:en":"Kasikornbank","brand:th":"ธนาคารกสิกรไทย","brand:wikidata":"Q276557","name":"ธนาคารกสิกรไทย","name:en":"Kasikornbank","name:th":"ธนาคารกสิกรไทย"}},"amenity/bank/tmbthanachartbank-3229f1":{"name":"ธนาคารทหารไทย","locationSet":{"include":["th"]},"geometry":["point","area"],"matchScore":2,"terms":["tmb","tmb bank","tmbthanachart bank","ttb","ttb bank","ธนาคารทหารไทย"],"tags":{"amenity":"bank","brand:wikidata":"Q1527826"},"addTags":{"amenity":"bank","brand":"ธนาคารทหารไทย","brand:en":"TMBThanachart Bank","brand:th":"ธนาคารทหารไทย","brand:wikidata":"Q1527826","name":"ธนาคารทหารไทย","name:en":"TMBThanachart Bank","name:th":"ธนาคารทหารไทย","short_name":"ttb"}},"amenity/bank/siamcommercialbank-3229f1":{"name":"ธนาคารไทยพาณิชย์","locationSet":{"include":["th"]},"geometry":["point","area"],"matchScore":2,"terms":["siam commercial bank","ธนาคารไทยพาณิชย์"],"tags":{"amenity":"bank","brand:wikidata":"Q2038986"},"addTags":{"amenity":"bank","brand":"ธนาคารไทยพาณิชย์","brand:en":"Siam Commercial Bank","brand:th":"ธนาคารไทยพาณิชย์","brand:wikidata":"Q2038986","name":"ธนาคารไทยพาณิชย์","name:en":"Siam Commercial Bank","name:th":"ธนาคารไทยพาณิชย์"}},"amenity/bank/governmentsavingsbank-3229f1":{"name":"ธนาคารออมสิน","locationSet":{"include":["th"]},"geometry":["point","area"],"matchScore":2,"terms":["government savings bank","ธนาคารออมสิน"],"tags":{"amenity":"bank","brand:wikidata":"Q6579041"},"addTags":{"amenity":"bank","brand":"ธนาคารออมสิน","brand:en":"Government Savings Bank","brand:th":"ธนาคารออมสิน","brand:wikidata":"Q6579041","name":"ธนาคารออมสิน","name:en":"Government Savings Bank","name:th":"ธนาคารออมสิน"}},"amenity/cafe/coffee_shop/thecoffeeclub-19ebdf":{"name":"The Coffee Club","locationSet":{"include":["au","nz","th"]},"geometry":["point","area"],"matchScore":2,"terms":["the coffee club"],"reference":{"key":"cuisine","value":"coffee_shop"},"tags":{"amenity":"cafe","brand:wikidata":"Q7726599","cuisine":"coffee_shop"},"addTags":{"amenity":"cafe","brand":"The Coffee Club","brand:wikidata":"Q7726599","cuisine":"coffee_shop","name":"The Coffee Club","takeaway":"yes"}},"amenity/cafe/coffee_shop/tomntoms-16c022":{"name":"Tom N Toms","locationSet":{"include":["au","ch","hk","kr","mn","mo","my","ph","sg","th","us"]},"geometry":["point","area"],"matchScore":2,"terms":["tom n toms","탐앤탐스"],"reference":{"key":"cuisine","value":"coffee_shop"},"tags":{"amenity":"cafe","brand:wikidata":"Q18142418","cuisine":"coffee_shop;pretzel;smoothie;tea;bread"},"addTags":{"amenity":"cafe","brand":"Tom N Toms","brand:en":"Tom N Toms","brand:ko":"탐앤탐스","brand:wikidata":"Q18142418","cuisine":"coffee_shop;pretzel;smoothie;tea;bread","name":"Tom N Toms","takeaway":"yes"}},"amenity/cafe/coffee_shop/cafeamazon-b6dfae":{"name":"คาเฟ่ อเมซอน","locationSet":{"include":["th"]},"geometry":["point","area"],"matchScore":2,"terms":["café amazon","คาเฟ่ อเมซอน"],"reference":{"key":"cuisine","value":"coffee_shop"},"tags":{"amenity":"cafe","brand:wikidata":"Q43247503","cuisine":"coffee_shop"},"addTags":{"amenity":"cafe","brand":"คาเฟ่ อเมซอน","brand:en":"Café Amazon","brand:th":"คาเฟ่ อเมซอน","brand:wikidata":"Q43247503","cuisine":"coffee_shop","name":"คาเฟ่ อเมซอน","name:en":"Café Amazon","name:th":"คาเฟ่ อเมซอน","takeaway":"yes"}},"amenity/fast_food/sandwich/aubonpain-9652cd":{"name":"Au Bon Pain","locationSet":{"include":["in","th","us"]},"geometry":["point","area"],"matchScore":2,"terms":["au bon pain"],"reference":{"key":"cuisine","value":"sandwich"},"tags":{"amenity":"fast_food","brand:wikidata":"Q4818942","cuisine":"sandwich"},"addTags":{"amenity":"fast_food","brand":"Au Bon Pain","brand:wikidata":"Q4818942","cuisine":"sandwich","name":"Au Bon Pain","takeaway":"yes"}},"amenity/fast_food/auntieannes-e5e868":{"name":"Auntie Anne's","locationSet":{"include":["th","us"]},"geometry":["point","area"],"matchScore":2,"terms":["auntie anne's","auntie annes pretzels"],"tags":{"amenity":"fast_food","brand:wikidata":"Q4822010"},"addTags":{"amenity":"fast_food","brand":"Auntie Anne's","brand:wikidata":"Q4822010","cuisine":"pretzel","name":"Auntie Anne's","takeaway":"yes"}},"amenity/fast_food/chicken/chesters-e5e868":{"name":"Chester's","locationSet":{"include":["th","us"]},"geometry":["point","area"],"matchScore":2,"terms":["chester's","chesters chicken"],"reference":{"key":"cuisine","value":"chicken"},"tags":{"amenity":"fast_food","brand:wikidata":"Q5093401","cuisine":"chicken"},"addTags":{"amenity":"fast_food","brand":"Chester's","brand:wikidata":"Q5093401","cuisine":"chicken","name":"Chester's","takeaway":"yes"}},"amenity/fast_food/oakberryacaibowls-df46eb":{"name":"Oakberry Açaí bowls","locationSet":{"include":["ae","au","bh","br","ch","cl","co","de","es","gr","hr","il","mt","mx","pe","pt","py","sa","th","us"]},"geometry":["point","area"],"matchScore":2,"terms":["oakberry açaí bowls"],"tags":{"amenity":"fast_food","brand:wikidata":"Q104870840"},"addTags":{"amenity":"fast_food","brand":"Oakberry Açaí bowls","brand:wikidata":"Q104870840","cuisine":"açaí","name":"Oakberry Açaí bowls","takeaway":"yes"}},"amenity/fast_food/secretrecipe-541408":{"name":"Secret Recipe","locationSet":{"include":["bd","bn","cn","id","kh","mm","mv","my","sg","th"]},"geometry":["point","area"],"matchScore":2,"terms":["secret recipe"],"tags":{"amenity":"fast_food","brand:wikidata":"Q7444079"},"addTags":{"amenity":"fast_food","brand":"Secret Recipe","brand:wikidata":"Q7444079","cuisine":"cake;malaysian","name":"Secret Recipe","takeaway":"yes"}},"amenity/fast_food/pizza/thepizzacompany-abbb1f":{"name":"The Pizza Company","locationSet":{"include":["ae","bh","cn","jo","kh","la","mm","my","sa","th","vn"]},"geometry":["point","area"],"matchScore":2,"terms":["pizza company","the pizza company"],"reference":{"key":"cuisine","value":"pizza"},"tags":{"amenity":"fast_food","brand:wikidata":"Q2413520","cuisine":"pizza"},"addTags":{"alt_name":"Pizza Company","amenity":"fast_food","brand":"The Pizza Company","brand:wikidata":"Q2413520","cuisine":"pizza","name":"The Pizza Company","takeaway":"yes"}},"amenity/fast_food/sakaesushi-1ef1da":{"name":"栄寿司","locationSet":{"include":["cn","id","my","pi","sg","th"]},"geometry":["point","area"],"matchScore":2,"terms":["sakae sushi","栄寿司"],"tags":{"amenity":"fast_food","brand:wikidata":"Q14955169"},"addTags":{"amenity":"fast_food","brand":"栄寿司","brand:en":"Sakae Sushi","brand:ja":"栄寿司","brand:wikidata":"Q14955169","cuisine":"japanese","name":"栄寿司","name:en":"Sakae Sushi","name:ja":"栄寿司","takeaway":"yes"}},"amenity/fuel/pt-56d9b3":{"name":"PT","locationSet":{"include":["th"]},"geometry":["point","area"],"matchScore":2,"terms":["pt"],"fields":["name","brand","{amenity/fuel}"],"tags":{"amenity":"fuel","brand:wikidata":"Q62298612"},"addTags":{"amenity":"fuel","brand":"PT","brand:wikidata":"Q62298612","name":"PT"}},"amenity/fuel/shell-56d9b3":{"name":"เชลล์","locationSet":{"include":["th"]},"geometry":["point","area"],"matchScore":2,"terms":["shell","เชลล์"],"fields":["name","brand","{amenity/fuel}"],"tags":{"amenity":"fuel","brand:wikidata":"Q110716465"},"addTags":{"amenity":"fuel","brand":"เชลล์","brand:en":"Shell","brand:th":"เชลล์","brand:wikidata":"Q110716465","name":"เชลล์","name:en":"Shell","name:th":"เชลล์"}},"amenity/fuel/bangchak-56d9b3":{"name":"บางจาก","locationSet":{"include":["th"]},"geometry":["point","area"],"matchScore":2,"terms":["bangchak","บางจาก"],"fields":["name","brand","{amenity/fuel}"],"tags":{"amenity":"fuel","brand:wikidata":"Q6579719"},"addTags":{"amenity":"fuel","brand":"บางจาก","brand:en":"Bangchak","brand:th":"บางจาก","brand:wikidata":"Q6579719","name":"บางจาก","name:en":"Bangchak","name:th":"บางจาก"}},"amenity/fuel/ptt-56d9b3":{"name":"ป.ต.ท.","locationSet":{"include":["th"]},"geometry":["point","area"],"matchScore":2,"terms":["ptt","ป.ต.ท."],"fields":["name","brand","{amenity/fuel}"],"tags":{"amenity":"fuel","brand:wikidata":"Q1810389"},"addTags":{"amenity":"fuel","brand":"ป.ต.ท.","brand:en":"PTT","brand:th":"ป.ต.ท.","brand:wikidata":"Q1810389","name":"ป.ต.ท.","name:en":"PTT","name:th":"ป.ต.ท."}},"amenity/fuel/esso-56d9b3":{"name":"เอสโซ่","locationSet":{"include":["th"]},"geometry":["point","area"],"matchScore":2,"terms":["esso","เอสโซ่"],"fields":["name","brand","{amenity/fuel}"],"tags":{"amenity":"fuel","brand:wikidata":"Q867662"},"addTags":{"amenity":"fuel","brand":"เอสโซ่","brand:en":"Esso","brand:th":"เอสโซ่","brand:wikidata":"Q867662","name":"เอสโซ่","name:en":"Esso","name:th":"เอสโซ่"}},"amenity/ice_cream/yogurtland-4111ef":{"name":"Yogurtland","locationSet":{"include":["ae","au","bh","kw","mm","qa","sa","sg","th","us","ve"]},"geometry":["point","area"],"matchScore":2,"terms":["yogurtland"],"tags":{"amenity":"ice_cream","brand:wikidata":"Q8054428"},"addTags":{"amenity":"ice_cream","brand":"Yogurtland","brand:wikidata":"Q8054428","cuisine":"frozen_yogurt","name":"Yogurtland","takeaway":"yes"}},"amenity/language_school/shaneenglishschool-f8b177":{"name":"Shane English School","locationSet":{"include":["dz","gb","hk","id","kr","pl","th","vn"]},"geometry":["point","area"],"matchScore":2,"terms":["shane english school","シェーン英会話"],"fields":["name","brand","{amenity/language_school}"],"tags":{"amenity":"language_school","brand:wikidata":"Q17054332"},"addTags":{"amenity":"language_school","brand":"Shane English School","brand:en":"Shane English School","brand:ja":"シェーン英会話","brand:ja-Latn":"Shēn Eikaiwa","brand:wikidata":"Q17054332","language:en":"main","name":"Shane English School","name:en":"Shane English School","name:ja":"シェーン英会話","name:ja-Latn":"Shēn Eikaiwa"}},"amenity/pharmacy/boots-4847be":{"name":"Boots","locationSet":{"include":["gb","ie","th"]},"geometry":["point","area"],"matchScore":2,"terms":["boots","boots pharmacy"],"reference":{"key":"amenity","value":"pharmacy"},"tags":{"amenity":"pharmacy","brand:wikidata":"Q6123139"},"addTags":{"amenity":"pharmacy","brand":"Boots","brand:wikidata":"Q6123139","healthcare":"pharmacy","name":"Boots"}},"amenity/restaurant/sushi/bonchonchicken-b76b63":{"name":"Bonchon Chicken","locationSet":{"include":["bh","kh","kr","kw","my","ph","sg","th","us"]},"geometry":["point","area"],"matchScore":2,"terms":["bonchon","bonchon chicken","bonchon fried chicken"],"reference":{"key":"cuisine","value":"sushi"},"tags":{"amenity":"restaurant","brand:wikidata":"Q4941248","cuisine":"chicken;korean;sushi"},"addTags":{"amenity":"restaurant","brand":"Bonchon Chicken","brand:wikidata":"Q4941248","cuisine":"chicken;korean;sushi","name":"Bonchon Chicken"}},"amenity/restaurant/dintaifung-4a64f1":{"name":"Din Tai Fung","locationSet":{"include":["ae","au","gb","id","jp","kr","mo","my","ph","sg","th","us"]},"geometry":["point","area"],"matchScore":2,"terms":["din tai fung","鼎泰豐"],"tags":{"amenity":"restaurant","brand:wikidata":"Q699142"},"addTags":{"amenity":"restaurant","brand":"Din Tai Fung","brand:en":"Din Tai Fung","brand:wikidata":"Q699142","brand:zh":"鼎泰豐","cuisine":"taiwanese","name":"Din Tai Fung","name:en":"Din Tai Fung","name:zh":"鼎泰豐"}},"amenity/restaurant/thai/mkrestaurants-5a3582":{"name":"MK Restaurants","locationSet":{"include":["th"]},"geometry":["point","area"],"matchScore":2,"terms":["mk restaurants"],"reference":{"key":"cuisine","value":"thai"},"tags":{"amenity":"restaurant","brand:wikidata":"Q62075359","cuisine":"thai"},"addTags":{"amenity":"restaurant","brand":"MK Restaurants","brand:wikidata":"Q62075359","cuisine":"thai","name":"MK Restaurants"}},"amenity/school/maplebear-89c128":{"name":"Maple Bear","locationSet":{"include":["ae","al","ar","au","bd","bg","br","ca","cn","gt","hk","hr","in","ke","kr","lk","ma","mx","my","np","om","pe","ph","py","ro","rs","sg","th","tk","ua","us","vn"]},"geometry":["area","point"],"matchScore":2,"terms":["maple bear"],"fields":["name","brand","{amenity/school}"],"tags":{"amenity":"school","brand:wikidata":"Q10324823"},"addTags":{"amenity":"school","brand":"Maple Bear","brand:wikidata":"Q10324823","name":"Maple Bear","operator:type":"private"}},"amenity/social_centre/vfwpost-8be9ec":{"name":"VFW Post","locationSet":{"include":["de","jp","kr","ph","th","us"]},"geometry":["point","area"],"matchScore":2,"terms":["veterans of foreign wars of the united states","vfw","vfw post"],"fields":["name","brand","{amenity/social_centre}"],"tags":{"amenity":"social_centre","brand:wikidata":"Q3556413"},"addTags":{"amenity":"social_centre","brand":"Veterans of Foreign Wars of the United States","brand:wikidata":"Q3556413","name":"VFW Post","name:en":"VFW Post","official_name":"Veterans of Foreign Wars of the United States","short_name":"VFW","social_centre:for":"veterans"}},"amenity/madscience-0435a3":{"name":"Mad Science","locationSet":{"include":["bh","br","ca","cn","es","gb","kw","ma","nl","om","pe","sa","sg","th","tr","tt","us"]},"geometry":["point","vertex","line","area"],"matchScore":2,"terms":["mad science"],"fields":["name","brand","{amenity}"],"tags":{"amenity":"training","brand:wikidata":"Q17009137"},"addTags":{"amenity":"training","brand":"Mad Science","brand:wikidata":"Q17009137","name":"Mad Science","training":"science"}},"healthcare/blood_donation/thairedcrosssociety-1f63d6":{"name":"Thai Red Cross Society","locationSet":{"include":["th"]},"geometry":["point","area"],"matchScore":2,"terms":["thai red cross","thai red cross society"],"tags":{"brand:wikidata":"Q4922087","healthcare":"blood_donation"},"addTags":{"brand":"Thai Red Cross Society","brand:wikidata":"Q4922087","donation:compensation":"no","healthcare":"blood_donation","name":"Thai Red Cross Society","short_name":"Thai Red Cross"}},"leisure/fitness_centre/celebrityfitness-412a8d":{"name":"Celebrity Fitness","locationSet":{"include":["id","my","ph","sg","th"]},"geometry":["point","area"],"matchScore":2,"terms":["celebrity fitness"],"tags":{"brand:wikidata":"Q5057734","leisure":"fitness_centre"},"addTags":{"brand":"Celebrity Fitness","brand:wikidata":"Q5057734","leisure":"fitness_centre","name":"Celebrity Fitness"}},"leisure/fitness_centre/fitnessfirst-6ff977":{"name":"Fitness First","locationSet":{"include":["ae","au","de","gb","ph","th"]},"geometry":["point","area"],"matchScore":2,"terms":["fitness first"],"tags":{"brand:wikidata":"Q127120","leisure":"fitness_centre"},"addTags":{"brand":"Fitness First","brand:wikidata":"Q127120","leisure":"fitness_centre","name":"Fitness First"}},"leisure/fitness_centre/virginactive-4a682e":{"name":"Virgin Active","locationSet":{"include":["au","bw","gb","it","na","sg","th","za"]},"geometry":["point","area"],"matchScore":2,"terms":["virgin active"],"tags":{"brand:wikidata":"Q4013942","leisure":"fitness_centre"},"addTags":{"brand":"Virgin Active","brand:wikidata":"Q4013942","leisure":"fitness_centre","name":"Virgin Active"}},"leisure/sports_centre/topgolf-9025ef":{"name":"Topgolf","locationSet":{"include":["ae","au","cn","de","mx","th","uk","us"]},"geometry":["point","area"],"matchScore":2,"terms":["topgolf"],"fields":["name","brand","{leisure/sports_centre}"],"tags":{"brand:wikidata":"Q7824379","leisure":"sports_centre"},"addTags":{"brand":"Topgolf","brand:wikidata":"Q7824379","leisure":"sports_centre","name":"Topgolf","sport":"golf"}},"shop/bakery/goldilocks-a861d6":{"name":"Goldilocks","locationSet":{"include":["ca","ph","th","us"]},"geometry":["point","area"],"matchScore":2,"terms":["goldilocks"],"tags":{"brand:wikidata":"Q5580198","shop":"bakery"},"addTags":{"brand":"Goldilocks","brand:wikidata":"Q5580198","name":"Goldilocks","shop":"bakery"}},"shop/bakery/paul-652955":{"name":"Paul","locationSet":{"include":["ae","az","be","bh","by","ci","cy","cz","eg","es","fr","ga","gb","ge","gr","id","in","jo","jp","kw","kz","lb","lu","ma","mu","my","om","pa","ph","pl","pt","qa","ro","ru","sa","sg","th","tn","tw","ua","us","uz","vn","za"]},"geometry":["point","area"],"matchScore":2,"terms":["paul"],"tags":{"brand:wikidata":"Q3370417","shop":"bakery"},"addTags":{"brand":"Paul","brand:wikidata":"Q3370417","name":"Paul","shop":"bakery"}},"shop/bicycle/tokyobike-1c47bc":{"name":"tokyobike","locationSet":{"include":["de","gb","jp","mx","th"]},"geometry":["point","area"],"matchScore":2,"terms":["tokyobike"],"tags":{"brand:wikidata":"Q113486193","shop":"bicycle"},"addTags":{"brand":"tokyobike","brand:wikidata":"Q113486193","name":"tokyobike","shop":"bicycle"}},"shop/car/koenigsegg-45c2de":{"name":"Koenigsegg","locationSet":{"include":["ae","au","ca","ch","cn","de","es","gb","jp","kr","lb","mx","my","om","pl","se","sg","th","tw","us","za"]},"geometry":["point","area"],"matchScore":2,"terms":["koenigsegg"],"fields":["name","brand","{shop/car}"],"tags":{"brand:wikidata":"Q35594","shop":"car"},"addTags":{"brand":"Koenigsegg","brand:wikidata":"Q35594","name":"Koenigsegg","shop":"car"}},"shop/car/proton-576082":{"name":"Proton","locationSet":{"include":["cl","eg","id","my","sg","th"]},"geometry":["point","area"],"matchScore":2,"terms":["proton"],"fields":["name","brand","{shop/car}"],"tags":{"brand:wikidata":"Q827306","shop":"car"},"addTags":{"brand":"Proton","brand:wikidata":"Q827306","name":"Proton","shop":"car"}},"shop/convenience/familymart-52fb27":{"name":"FamilyMart","locationSet":{"include":["cn","id","jp","my","ph","th","tw","vn"]},"geometry":["point","area"],"matchScore":2,"terms":["familymart"],"tags":{"brand:wikidata":"Q1191685","shop":"convenience"},"addTags":{"brand":"FamilyMart","brand:wikidata":"Q1191685","name":"FamilyMart","shop":"convenience"}},"shop/convenience/jiffy-f572b3":{"name":"จิฟฟี่","locationSet":{"include":["th"]},"geometry":["point","area"],"matchScore":2,"terms":["jiffy","จิฟฟี่"],"tags":{"brand:wikidata":"Q16770436","shop":"convenience"},"addTags":{"brand":"จิฟฟี่","brand:en":"Jiffy","brand:th":"จิฟฟี่","brand:wikidata":"Q16770436","name":"จิฟฟี่","name:en":"Jiffy","name:th":"จิฟฟี่","shop":"convenience"}},"shop/deli/vomfass-a3c745":{"name":"vomFASS","locationSet":{"include":["at","be","br","ca","ch","cz","de","dk","es","fr","gb","hk","hr","hu","il","it","jp","lv","mx","my","ph","sg","th","us"]},"geometry":["point","area"],"matchScore":2,"terms":["vomfass"],"tags":{"brand:wikidata":"Q2533008","shop":"deli"},"addTags":{"brand":"vomFASS","brand:wikidata":"Q2533008","name":"vomFASS","shop":"deli"}},"shop/department_store/centraldepartmentstore-10be9f":{"name":"Central Department Store","locationSet":{"include":["id","th"]},"geometry":["point","area"],"matchScore":2,"terms":["central department store","สรรพสินค้าเซ็นทรัล","尚泰"],"tags":{"brand:wikidata":"Q5060703","shop":"department_store"},"addTags":{"brand":"Central Department Store","brand:en":"Central Department Store","brand:th":"สรรพสินค้าเซ็นทรัล","brand:wikidata":"Q5060703","brand:zh":"尚泰","shop":"department_store"}},"shop/department_store/lottedutyfree-8352b8":{"name":"Lotte Duty Free","locationSet":{"include":["au","gu","jp","kr","nz","th","vn"]},"geometry":["point","area"],"matchScore":2,"terms":["lotte duty free","롯데면세점","ロッテ免税"],"tags":{"brand:wikidata":"Q12594196","shop":"department_store"},"addTags":{"brand":"Lotte Duty Free","brand:wikidata":"Q12594196","duty_free":"yes","name":"Lotte Duty Free","name:en":"Lotte Duty Free","name:jp":"ロッテ免税","name:ko":"롯데면세점","shop":"department_store"}},"shop/department_store/robinsondepartmentstore-bf6532":{"name":"Robinson (Thailand)","locationSet":{"include":["th"]},"geometry":["point","area"],"matchScore":2,"terms":["central department store","robinson department store","สรรพสินค้าเซ็นทรัล","ห้างสรรพสินค้าโรบินสัน","尚泰"],"tags":{"brand:wikidata":"Q6642534","shop":"department_store"},"addTags":{"brand":"Robinson Department Store","brand:th":"ห้างสรรพสินค้าโรบินสัน","brand:wikidata":"Q6642534","operator":"Central Department Store","operator:cn":"尚泰","operator:en":"Central Department Store","operator:th":"สรรพสินค้าเซ็นทรัล","operator:wikidata":"Q5060703","shop":"department_store"}},"shop/doityourself/mrdiy-85e32f":{"name":"MR.DIY","locationSet":{"include":["bn","id","in","kn","my","ph","sg","th"]},"geometry":["point","area"],"matchScore":2,"terms":["mr.diy"],"tags":{"brand:wikidata":"Q105044323","shop":"doityourself"},"addTags":{"brand":"MR.DIY","brand:wikidata":"Q105044323","name":"MR.DIY","shop":"doityourself"}},"shop/fashion_accessories/mulberry-e1f087":{"name":"Mulberry","locationSet":{"include":["ae","au","ca","ch","cn","de","dk","fi","gb","ie","jp","kr","my","nl","no","se","sg","th","us"]},"geometry":["point","area"],"matchScore":2,"terms":["mulberry"],"tags":{"brand:wikidata":"Q3866987","shop":"fashion_accessories"},"addTags":{"brand":"Mulberry","brand:wikidata":"Q3866987","name":"Mulberry","shop":"fashion_accessories"}},"shop/kitchen/ixina-d089d8":{"name":"Ixina","locationSet":{"include":["ae","au","be","bf","bh","bj","ca","ci","cm","cn","cz","dz","ee","eg","fr","gh","hr","ke","kw","lu","ly","ma","mu","nl","pl","qa","ro","ru","sa","se","sn","tg","th","tn","vn"]},"geometry":["point","area"],"matchScore":2,"terms":["ixina"],"tags":{"brand:wikidata":"Q3156424","shop":"kitchen"},"addTags":{"brand":"Ixina","brand:wikidata":"Q3156424","name":"Ixina","shop":"kitchen"}},"shop/leather/findig-848a64":{"name":"Findig","locationSet":{"include":["th"]},"geometry":["point","area"],"matchScore":2,"terms":["findig","ฟินดิจ"],"tags":{"brand:wikidata":"Q110958398","shop":"leather"},"addTags":{"brand":"Findig","brand:th":"ฟินดิจ","brand:wikidata":"Q110958398","name":"Findig","shop":"leather"}},"shop/mall/themallgroup-13d253":{"name":"The Mall Group","locationSet":{"include":["th"]},"geometry":["point","area"],"matchScore":2,"terms":["the mall group","เดอะมอลล์กรุ๊ป"],"fields":["name","brand","{shop/mall}"],"tags":{"brand:wikidata":"Q4924063","shop":"mall"},"addTags":{"brand":"The Mall Group","brand:en":"The Mall Group","brand:th":"เดอะมอลล์กรุ๊ป","brand:wikidata":"Q4924063","name":"The Mall Group","name:en":"The Mall Group","name:th":"เดอะมอลล์กรุ๊ป","shop":"mall"}},"shop/optician/23e947-30a922":{"name":"แว่นท็อปเจริญ","locationSet":{"include":["th"]},"geometry":["point","area"],"matchScore":2,"terms":["แว่นท็อปเจริญ"],"fields":["name","brand","{shop/optician}"],"tags":{"brand:wikidata":"Q62391732","shop":"optician"},"addTags":{"brand":"แว่นท็อปเจริญ","brand:th":"แว่นท็อปเจริญ","brand:wikidata":"Q62391732","name":"แว่นท็อปเจริญ","name:th":"แว่นท็อปเจริญ","shop":"optician"}},"shop/supermarket/bigc-a1bbd8":{"name":"Big C","locationSet":{"include":["th","vn"]},"geometry":["point","area"],"matchScore":2,"terms":["big c"],"tags":{"brand:wikidata":"Q858665","shop":"supermarket"},"addTags":{"brand":"Big C","brand:wikidata":"Q858665","name":"Big C","shop":"supermarket"}},"shop/supermarket/lotuss-a5f134":{"name":"Lotus's","locationSet":{"include":["my","th"]},"geometry":["point","area"],"matchScore":2,"terms":["lotus's","tesco lotus"],"tags":{"brand:wikidata":"Q2378901","shop":"supermarket"},"addTags":{"alt_name":"Tesco Lotus","brand":"Lotus's","brand:wikidata":"Q2378901","name":"Lotus's","shop":"supermarket"}},"shop/supermarket/maxvalu-fc749a":{"name":"MaxValu","locationSet":{"include":["cn","jp","my","th"]},"geometry":["point","area"],"matchScore":2,"terms":["maxvalu"],"tags":{"brand:wikidata":"Q1960109","shop":"supermarket"},"addTags":{"brand":"MaxValu","brand:wikidata":"Q1960109","name":"MaxValu","shop":"supermarket"}},"shop/supermarket/tops-fd4d8d":{"name":"Tops (Thailand)","locationSet":{"include":["th"]},"geometry":["point","area"],"matchScore":2,"terms":["tops","ท็อปส์"],"tags":{"brand:wikidata":"Q7825140","shop":"supermarket"},"addTags":{"brand":"Tops","brand:th":"ท็อปส์","brand:wikidata":"Q7825140","name":"Tops","shop":"supermarket"}},"shop/tyres/tyreplus-99cc81":{"name":"Tyreplus","locationSet":{"include":["ae","au","bh","cn","id","kh","kw","my","om","ph","qa","ru","sa","sg","th","tw"]},"geometry":["point","area"],"matchScore":2,"terms":["tyreplus"],"tags":{"brand:wikidata":"Q110959120","shop":"tyres"},"addTags":{"brand":"Tyreplus","brand:wikidata":"Q110959120","name":"Tyreplus","shop":"tyres"}},"shop/variety_store/dondondonki-717fd7":{"name":"Don Don Donki","locationSet":{"include":["hk","my","sg","th","tw","us-hi"]},"geometry":["point","area"],"matchScore":2,"terms":["don don donki"],"tags":{"brand:wikidata":"Q1185381","shop":"variety_store"},"addTags":{"brand":"Don Don Donki","brand:wikidata":"Q1185381","name":"Don Don Donki","shop":"variety_store"}},"tourism/hotel/avanihotelsandresorts-e9c192":{"name":"AVANI","locationSet":{"include":["ae","au","bw","id","kh","kr","la","lk","ls","my","mz","na","nz","om","pt","sc","th","vn","zm"]},"geometry":["point","area"],"matchScore":2,"terms":["avani hotels & resorts"],"fields":["name","brand","{tourism/hotel}"],"tags":{"brand:wikidata":"Q48989823","tourism":"hotel"},"addTags":{"brand":"Avani Hotels & Resorts","brand:wikidata":"Q48989823","name":"Avani Hotels & Resorts","tourism":"hotel"}},"tourism/hotel/conrad-ee1a43":{"name":"Conrad Hotels & Resorts","locationSet":{"include":["ae","ca","cn","eg","gb","id","ie","in","jp","kr","mv","pf","ph","pt","sa","sg","th","tr","us"]},"geometry":["point","area"],"matchScore":2,"terms":["conrad"],"fields":["name","brand","{tourism/hotel}"],"tags":{"brand:wikidata":"Q855525","tourism":"hotel"},"addTags":{"brand":"Conrad","brand:wikidata":"Q855525","name":"Conrad","tourism":"hotel"}},"tourism/hotel/daysinn-a89235":{"name":"Days Inn","locationSet":{"include":["ca","ch","gb","id","in","kr","mx","my","ph","sg","sn","th","us"]},"geometry":["point","area"],"matchScore":2,"terms":["days inn"],"fields":["name","brand","{tourism/hotel}"],"tags":{"brand:wikidata":"Q1047239","tourism":"hotel"},"addTags":{"brand":"Days Inn","brand:wikidata":"Q1047239","name":"Days Inn","tourism":"hotel"}},"tourism/hotel/marriottexecutiveapartments-b2f419":{"name":"Marriott Executive Apartments","locationSet":{"include":["ae","be","bh","br","cn","et","gb","hu","id","in","kr","kz","pa","sa","th","za"]},"geometry":["point","area"],"matchScore":2,"terms":["marriott executive apartments"],"fields":["name","brand","{tourism/hotel}"],"tags":{"brand:wikidata":"Q72636824","tourism":"hotel"},"addTags":{"brand":"Marriott Executive Apartments","brand:wikidata":"Q72636824","name":"Marriott Executive Apartments","tourism":"hotel"}},"tourism/hotel/travelodge-2e0dc6":{"name":"Travelodge (Asia/Oceania)","locationSet":{"include":["au","hk","id","kr","my","nz","sg","th"]},"geometry":["point","area"],"matchScore":2,"terms":["travelodge"],"fields":["name","brand","{tourism/hotel}"],"tags":{"brand:wikidata":"Q24997583","tourism":"hotel"},"addTags":{"brand":"Travelodge","brand:wikidata":"Q24997583","name":"Travelodge","tourism":"hotel"}},"tourism/hotel/waldorfastoria-665f74":{"name":"Waldorf Astoria","locationSet":{"include":["ae","au","cn","de","eg","fx","gb","il","it","kw","mv","mx","nl","pa","sa","th","us"]},"geometry":["point","area"],"matchScore":2,"terms":["waldorf astoria"],"fields":["name","brand","{tourism/hotel}"],"tags":{"brand:wikidata":"Q3239392","tourism":"hotel"},"addTags":{"brand":"Waldorf Astoria","brand:wikidata":"Q3239392","name":"Waldorf Astoria","tourism":"hotel"}},"amenity/clinic/ministryofpublichealth-144162":{"name":"Ministry of Public Health (Thailand)","locationSet":{"include":["th"]},"geometry":["point","area"],"matchScore":2,"terms":["ministry of public health"],"fields":["name","operator","{amenity/clinic}"],"reference":{"key":"amenity","value":"clinic"},"tags":{"amenity":"clinic","operator:wikidata":"Q5970641"},"addTags":{"amenity":"clinic","healthcare":"clinic","operator":"Ministry of Public Health","operator:wikidata":"Q5970641"}},"amenity/clinic/2beb32-144162":{"name":"โรงพยาบาลส่งเสริมสุขภาพตำบล","locationSet":{"include":["th"]},"geometry":["point","area"],"matchScore":2,"terms":["โรงพยาบาลส่งเสริมสุขภาพตำบล"],"fields":["name","operator","{amenity/clinic}"],"reference":{"key":"amenity","value":"clinic"},"tags":{"amenity":"clinic","operator:wikidata":"Q16306413"},"addTags":{"amenity":"clinic","healthcare":"clinic","name":"โรงพยาบาลส่งเสริมสุขภาพตำบล","name:th":"โรงพยาบาลส่งเสริมสุขภาพตำบล","operator":"โรงพยาบาลส่งเสริมสุขภาพตำบล","operator:th":"โรงพยาบาลส่งเสริมสุขภาพตำบล","operator:wikidata":"Q16306413"}},"amenity/hospital/ministryofpublichealth-b5eaef":{"name":"Ministry of Public Health (Thailand)","locationSet":{"include":["th"]},"geometry":["area","point"],"matchScore":2,"terms":["ministry of public health","moph"],"fields":["name","operator","{amenity/hospital}"],"reference":{"key":"amenity","value":"hospital"},"tags":{"amenity":"hospital","operator:wikidata":"Q5970641"},"addTags":{"amenity":"hospital","healthcare":"hospital","operator":"Ministry of Public Health","operator:short":"MOPH","operator:wikidata":"Q5970641"}},"amenity/police/royalthaipolice-951c56":{"name":"Royal Thai Police","locationSet":{"include":["th"]},"geometry":["point","area"],"matchScore":2,"terms":["royal thai police","rtp","ตำรวจแห่งชาติ"],"tags":{"amenity":"police","operator:wikidata":"Q1831399"},"addTags":{"amenity":"police","operator":"ตำรวจแห่งชาติ","operator:en":"Royal Thai Police","operator:short":"RTP","operator:th":"ตำรวจแห่งชาติ","operator:wikidata":"Q1831399"}},"amenity/police/touristpolicebureau-951c56":{"name":"Tourist Police (Thailand)","locationSet":{"include":["th"]},"geometry":["point","area"],"matchScore":2,"terms":["tourist police bureau","กองบัญชาการตำรวจท่องเที่ยว"],"tags":{"amenity":"police","operator:wikidata":"Q58366882"},"addTags":{"amenity":"police","operator":"กองบัญชาการตำรวจท่องเที่ยว","operator:en":"Tourist Police Bureau","operator:th":"กองบัญชาการตำรวจท่องเที่ยว","operator:wikidata":"Q58366882"}},"amenity/post_box/thailandpost-15aacf":{"name":"Thailand Post","locationSet":{"include":["th"]},"geometry":["point","vertex"],"matchScore":2,"terms":["thailand post","ไปรษณีย์ไทย"],"tags":{"amenity":"post_box","operator:wikidata":"Q6676271"},"addTags":{"amenity":"post_box","operator":"Thailand Post","operator:en":"Thailand Post","operator:th":"ไปรษณีย์ไทย","operator:wikidata":"Q6676271"}},"amenity/post_office/thailandpost-a61dae":{"name":"Thailand Post","locationSet":{"include":["th"]},"geometry":["point","area"],"matchScore":2,"terms":["thailand post","ไปรษณีย์ไทย"],"fields":["name","operator","{amenity/post_office}"],"tags":{"amenity":"post_office","operator:wikidata":"Q6676271"},"addTags":{"amenity":"post_office","operator":"Thailand Post","operator:en":"Thailand Post","operator:th":"ไปรษณีย์ไทย","operator:wikidata":"Q6676271"}},"amenity/telephone/tot-c8699e":{"name":"TOT","locationSet":{"include":["th"]},"geometry":["point","vertex"],"matchScore":2,"terms":["tot"],"fields":["name","operator","{amenity/telephone}"],"tags":{"amenity":"telephone","operator:wikidata":"Q1590599"},"addTags":{"amenity":"telephone","operator":"TOT","operator:wikidata":"Q1590599"}},"power/generator/egat-4362ae":{"name":"EGAT","locationSet":{"include":["th"]},"geometry":["point","vertex","area"],"matchScore":2,"terms":["egat"],"tags":{"operator:wikidata":"Q3050569","power":"generator"},"addTags":{"operator":"EGAT","operator:wikidata":"Q3050569","power":"generator"}},"power/line/egat-af4985":{"name":"EGAT","locationSet":{"include":["th"]},"geometry":["line"],"matchScore":2,"terms":["egat"],"tags":{"operator:wikidata":"Q3050569","power":"line"},"addTags":{"operator":"EGAT","operator:wikidata":"Q3050569","power":"line"}},"power/line/pea-af4985":{"name":"PEA","locationSet":{"include":["th"]},"geometry":["line"],"matchScore":2,"terms":["pea"],"tags":{"operator:wikidata":"Q13013017","power":"line"},"addTags":{"operator":"PEA","operator:wikidata":"Q13013017","power":"line"}},"power/minor_line/egat-4edad1":{"name":"EGAT","locationSet":{"include":["th"]},"geometry":["line"],"matchScore":2,"terms":["egat"],"tags":{"operator:wikidata":"Q3050569","power":"minor_line"},"addTags":{"operator":"EGAT","operator:wikidata":"Q3050569","power":"minor_line"}},"power/minor_line/pea-4edad1":{"name":"PEA","locationSet":{"include":["th"]},"geometry":["line"],"matchScore":2,"terms":["pea"],"tags":{"operator:wikidata":"Q13013017","power":"minor_line"},"addTags":{"operator":"PEA","operator:wikidata":"Q13013017","power":"minor_line"}},"power/plant/egat-06427d":{"name":"EGAT","locationSet":{"include":["th"]},"geometry":["area"],"matchScore":2,"terms":["egat"],"tags":{"operator:wikidata":"Q3050569","power":"plant"},"addTags":{"operator":"EGAT","operator:wikidata":"Q3050569","power":"plant"}},"power/pole/egat-c89122":{"name":"EGAT","locationSet":{"include":["th"]},"geometry":["point","vertex"],"matchScore":2,"terms":["egat"],"tags":{"operator:wikidata":"Q3050569","power":"pole"},"addTags":{"operator":"EGAT","operator:wikidata":"Q3050569","power":"pole"}},"power/pole/pea-c89122":{"name":"PEA","locationSet":{"include":["th"]},"geometry":["point","vertex"],"matchScore":2,"terms":["pea"],"tags":{"operator:wikidata":"Q13013017","power":"pole"},"addTags":{"operator":"PEA","operator:wikidata":"Q13013017","power":"pole"}},"power/substation/egat-8cb22b":{"name":"EGAT","locationSet":{"include":["th"]},"geometry":["area","point"],"matchScore":2,"terms":["egat"],"tags":{"operator:wikidata":"Q3050569","power":"substation"},"addTags":{"operator":"EGAT","operator:wikidata":"Q3050569","power":"substation"}},"power/substation/pea-8cb22b":{"name":"PEA","locationSet":{"include":["th"]},"geometry":["area","point"],"matchScore":2,"terms":["pea"],"tags":{"operator:wikidata":"Q13013017","power":"substation"},"addTags":{"operator":"PEA","operator:wikidata":"Q13013017","power":"substation"}},"power/tower/egat-27f90a":{"name":"EGAT","locationSet":{"include":["th"]},"geometry":["point","vertex"],"matchScore":2,"terms":["egat"],"tags":{"operator:wikidata":"Q3050569","power":"tower"},"addTags":{"operator":"EGAT","operator:wikidata":"Q3050569","power":"tower"}},"power/tower/pea-27f90a":{"name":"PEA","locationSet":{"include":["th"]},"geometry":["point","vertex"],"matchScore":2,"terms":["pea"],"tags":{"operator:wikidata":"Q13013017","power":"tower"},"addTags":{"operator":"PEA","operator:wikidata":"Q13013017","power":"tower"}},"power/transformer/egat-e82cec":{"name":"EGAT","locationSet":{"include":["th"]},"geometry":["point","vertex"],"matchScore":2,"terms":["egat"],"tags":{"operator:wikidata":"Q3050569","power":"transformer"},"addTags":{"operator":"EGAT","operator:wikidata":"Q3050569","power":"transformer"}},"power/transformer/pea-e82cec":{"name":"PEA","locationSet":{"include":["th"]},"geometry":["point","vertex"],"matchScore":2,"terms":["pea"],"tags":{"operator:wikidata":"Q13013017","power":"transformer"},"addTags":{"operator":"PEA","operator:wikidata":"Q13013017","power":"transformer"}},"type/route/power/egat-08a278":{"name":"EGAT","locationSet":{"include":["th"]},"geometry":["relation"],"matchScore":2,"terms":["egat"],"reference":{"key":"route","value":"power"},"tags":{"operator:wikidata":"Q3050569","route":"power","type":"route"},"addTags":{"operator":"EGAT","operator:wikidata":"Q3050569","route":"power","type":"route"}},"public_transport/platform/bus_point/bmta-4ff695":{"name":"BMTA","locationSet":{"include":["th"]},"geometry":["point","vertex"],"matchScore":2,"terms":["bmta"],"reference":{"key":"public_transport","value":"platform"},"tags":{"bus":"yes","network:wikidata":"Q4855217","public_transport":"platform"},"addTags":{"bus":"yes","highway":"bus_stop","network":"BMTA","network:wikidata":"Q4855217","public_transport":"platform"}},"public_transport/platform/bus_point/brt-4ff695":{"name":"BRT (Thailand)","locationSet":{"include":["th"]},"geometry":["point","vertex"],"matchScore":2,"terms":["brt","bts group holdings"],"reference":{"key":"public_transport","value":"platform"},"tags":{"bus":"yes","network:wikidata":"Q12053093","public_transport":"platform"},"addTags":{"bus":"yes","highway":"bus_stop","network":"BRT","network:wikidata":"Q12053093","operator":"BTS Group Holdings","operator:wikidata":"Q4836731","public_transport":"platform"}},"type/route/bus/bmta-43cc75":{"name":"BMTA","locationSet":{"include":["th"]},"geometry":["relation"],"matchScore":2,"terms":["bmta"],"reference":{"key":"route","value":"bus"},"tags":{"network:wikidata":"Q4855217","route":"bus","type":"route"},"addTags":{"network":"BMTA","network:wikidata":"Q4855217","route":"bus","type":"route"}},"type/route/bus/brt-43cc75":{"name":"BRT (Thailand)","locationSet":{"include":["th"]},"geometry":["relation"],"matchScore":2,"terms":["brt","bts group holdings"],"reference":{"key":"route","value":"bus"},"tags":{"network:wikidata":"Q12053093","route":"bus","type":"route"},"addTags":{"network":"BRT","network:wikidata":"Q12053093","operator":"BTS Group Holdings","operator:wikidata":"Q4836731","route":"bus","type":"route"}}}