{"amenity/atm/attijariwafabank-e568eb":{"name":"Attijariwafa Bank (التجاري وفا بنك)","locationSet":{"include":["ae","be","bf","bj","ca","cd","cg","ch","ci","cm","eg","es","fr","ga","gb","it","ma","mr","nl","sa","sn","tg","tn"]},"geometry":["point","vertex"],"matchScore":2,"terms":["attijariwafa bank","attijariwafa bank التجاري وفا بنك","التجاري وفا بنك"],"tags":{"amenity":"atm","brand:wikidata":"Q758052"},"addTags":{"amenity":"atm","brand":"Attijariwafa Bank","brand:ar":"التجاري وفا بنك","brand:en":"Attijariwafa Bank","brand:wikidata":"Q758052","name:ar":"التجاري وفا بنك","name:en":"Attijariwafa Bank","operator":"Attijariwafa Bank","operator:wikidata":"Q758052"}},"amenity/atm/banquepopulaire-2e486a":{"name":"Banque Populaire (البنك الشعبي)","locationSet":{"include":["de","es","it","ma","nl"]},"geometry":["point","vertex"],"matchScore":2,"terms":["banque populaire","banque populaire البنك الشعبي","البنك الشعبي"],"tags":{"amenity":"atm","brand:wikidata":"Q2883441"},"addTags":{"amenity":"atm","brand":"Banque Populaire","brand:ar":"البنك الشعبي","brand:en":"Banque Populaire","brand:wikidata":"Q2883441","name:ar":"البنك الشعبي","name:en":"Banque Populaire","operator":"Banque Populaire","operator:wikidata":"Q2883441"}},"amenity/atm/bmcebank-c2e240":{"name":"BMCE Bank (البنك المغربي للتجارة الخارجية)","locationSet":{"include":["ma"]},"geometry":["point","vertex"],"matchScore":2,"terms":["bmce","bmce bank","bmce bank البنك المغربي للتجارة الخارجية","moroccan bank of foreign commerce","البنك المغربي للتجارة الخارجية"],"tags":{"amenity":"atm","brand:wikidata":"Q2300433"},"addTags":{"amenity":"atm","brand":"BMCE Bank","brand:ar":"البنك المغربي للتجارة الخارجية","brand:en":"BMCE Bank","brand:wikidata":"Q2300433","name:ar":"البنك المغربي للتجارة الخارجية","name:en":"BMCE Bank","official_name":"البنك المغربي للتجارة الخارجية","official_name:ar":"البنك المغربي للتجارة الخارجية","official_name:en":"Moroccan Bank of Foreign Commerce","operator":"BMCE Bank","operator:wikidata":"Q2300433"}},"amenity/atm/bmci-c2e240":{"name":"BMCI (البنك المغربي للتجارة والصناعة)","locationSet":{"include":["ma"]},"geometry":["point","vertex"],"matchScore":2,"terms":["bmci","bmci bank","bmci البنك المغربي للتجارة والصناعة","البنك المغربي للتجارة والصناعة"],"tags":{"amenity":"atm","brand:wikidata":"Q2883409"},"addTags":{"amenity":"atm","brand":"BMCI","brand:ar":"البنك المغربي للتجارة والصناعة","brand:en":"BMCI","brand:wikidata":"Q2883409","name:ar":"البنك المغربي للتجارة والصناعة","name:en":"BMCI","operator":"BMCI","operator:wikidata":"Q2883409"}},"amenity/atm/bnpparibas-6b438a":{"name":"BNP Paribas","locationSet":{"include":["ae","af","ar","at","bf","bg","bh","br","ca","ch","ci","cl","co","cz","de","dk","dz","es","fi","fr","gb","gf","gp","hu","ie","il","it","kw","lu","ma","ml","mq","mx","nl","no","pe","pt","qa","re","ro","ru","sa","se","sk","sn","tn","tr","us"]},"geometry":["point","vertex"],"matchScore":2,"terms":["bnp paribas"],"tags":{"amenity":"atm","brand:wikidata":"Q499707"},"addTags":{"amenity":"atm","brand":"BNP Paribas","brand:wikidata":"Q499707","name":"BNP Paribas","operator":"BNP Paribas","operator:wikidata":"Q499707"}},"amenity/atm/cihbank-c2e240":{"name":"CIH Bank (القرض العقاري والسياحي)","locationSet":{"include":["ma"]},"geometry":["point","vertex"],"matchScore":2,"terms":["cih bank","cih bank القرض العقاري والسياحي","crédit immobilier et hôtelier","القرض العقاري والسياحي"],"tags":{"amenity":"atm","brand:wikidata":"Q3006220"},"addTags":{"amenity":"atm","brand":"CIH Bank","brand:ar":"القرض العقاري والسياحي","brand:en":"CIH Bank","brand:wikidata":"Q3006220","name:ar":"القرض العقاري والسياحي","name:en":"CIH Bank","operator":"CIH Bank","operator:wikidata":"Q3006220"}},"amenity/bank/attijariwafabank-c1cae6":{"name":"Attijariwafa Bank (التجاري وفا بنك)","locationSet":{"include":["ae","be","bf","bj","ca","cd","cg","ch","ci","cm","eg","es","fr","ga","gb","it","ma","mr","nl","sa","sn","tg","tn"]},"geometry":["point","area"],"matchScore":2,"terms":["attijariwafa bank","attijariwafa bank التجاري وفا بنك","التجاري وفا بنك"],"tags":{"amenity":"bank","brand:wikidata":"Q758052"},"addTags":{"amenity":"bank","brand":"Attijariwafa Bank","brand:ar":"التجاري وفا بنك","brand:en":"Attijariwafa Bank","brand:wikidata":"Q758052","name:ar":"التجاري وفا بنك","name:en":"Attijariwafa Bank"}},"amenity/bank/banquepopulaire-4fc013":{"name":"Banque Populaire (البنك الشعبي)","locationSet":{"include":["de","es","it","ma","nl"]},"geometry":["point","area"],"matchScore":2,"terms":["banque populaire","banque populaire البنك الشعبي","البنك الشعبي"],"tags":{"amenity":"bank","brand:wikidata":"Q2883441"},"addTags":{"amenity":"bank","brand":"Banque Populaire","brand:ar":"البنك الشعبي","brand:en":"Banque Populaire","brand:wikidata":"Q2883441","name:ar":"البنك الشعبي","name:en":"Banque Populaire"}},"amenity/bank/bmcebank-11534a":{"name":"BMCE Bank (البنك المغربي للتجارة الخارجية)","locationSet":{"include":["ma"]},"geometry":["point","area"],"matchScore":2,"terms":["bmce","bmce bank","bmce bank البنك المغربي للتجارة الخارجية","moroccan bank of foreign commerce","البنك المغربي للتجارة الخارجية"],"tags":{"amenity":"bank","brand:wikidata":"Q2300433"},"addTags":{"amenity":"bank","brand":"BMCE Bank","brand:ar":"البنك المغربي للتجارة الخارجية","brand:en":"BMCE Bank","brand:wikidata":"Q2300433","name:ar":"البنك المغربي للتجارة الخارجية","name:en":"BMCE Bank","official_name":"البنك المغربي للتجارة الخارجية","official_name:ar":"البنك المغربي للتجارة الخارجية","official_name:en":"Moroccan Bank of Foreign Commerce"}},"amenity/bank/bmci-11534a":{"name":"BMCI (البنك المغربي للتجارة والصناعة)","locationSet":{"include":["ma"]},"geometry":["point","area"],"matchScore":2,"terms":["bmci","bmci bank","bmci البنك المغربي للتجارة والصناعة","البنك المغربي للتجارة والصناعة"],"tags":{"amenity":"bank","brand:wikidata":"Q2883409"},"addTags":{"amenity":"bank","brand":"BMCI","brand:ar":"البنك المغربي للتجارة والصناعة","brand:en":"BMCI","brand:wikidata":"Q2883409","name:ar":"البنك المغربي للتجارة والصناعة","name:en":"BMCI"}},"amenity/bank/bnpparibas-42efac":{"name":"BNP Paribas","locationSet":{"include":["ae","af","ar","at","bf","bg","bh","br","ca","ch","ci","cl","co","cz","de","dk","dz","es","fi","fr","gb","gf","gp","hu","ie","il","it","kw","lu","ma","ml","mq","mx","nl","no","pe","pt","qa","re","ro","ru","sa","se","sk","sn","tn","tr","us"]},"geometry":["point","area"],"matchScore":2,"terms":["bnp paribas"],"tags":{"amenity":"bank","brand:wikidata":"Q499707"},"addTags":{"amenity":"bank","brand":"BNP Paribas","brand:wikidata":"Q499707","name":"BNP Paribas"}},"amenity/bank/cihbank-11534a":{"name":"CIH Bank (القرض العقاري والسياحي)","locationSet":{"include":["ma"]},"geometry":["point","area"],"matchScore":2,"terms":["cih bank","cih bank القرض العقاري والسياحي","crédit immobilier et hôtelier","القرض العقاري والسياحي"],"tags":{"amenity":"bank","brand:wikidata":"Q3006220"},"addTags":{"amenity":"bank","brand":"CIH Bank","brand:ar":"القرض العقاري والسياحي","brand:en":"CIH Bank","brand:wikidata":"Q3006220","name:ar":"القرض العقاري والسياحي","name:en":"CIH Bank"}},"amenity/cafe/coffee_shop/columbuscafeandco-d3efe9":{"name":"Columbus Café & Co","locationSet":{"include":["be","bh","fr","ma","qa","us"]},"geometry":["point","area"],"matchScore":2,"terms":["colombus","colombus café","colombus café & co","columbus","columbus café","columbus café & co"],"reference":{"key":"cuisine","value":"coffee_shop"},"tags":{"amenity":"cafe","brand:wikidata":"Q2984582","cuisine":"coffee_shop"},"addTags":{"amenity":"cafe","brand":"Columbus Café & Co","brand:wikidata":"Q2984582","cuisine":"coffee_shop","name":"Columbus Café & Co","takeaway":"yes"}},"amenity/cafe/coffee_shop/figaro-d8802f":{"name":"Figaro","locationSet":{"include":["ma","ph","sa"]},"geometry":["point","area"],"matchScore":2,"terms":["figaro","figaro coffee","figaro coffee company"],"reference":{"key":"cuisine","value":"coffee_shop"},"tags":{"amenity":"cafe","brand:wikidata":"Q17069806","cuisine":"coffee_shop"},"addTags":{"amenity":"cafe","brand":"Figaro","brand:wikidata":"Q17069806","cuisine":"coffee_shop","name":"Figaro","takeaway":"yes"}},"amenity/cafe/coffee_shop/starbucks-0dcee5":{"name":"ستاربكس","locationSet":{"include":["ae","bh","dz","eg","iq","jo","kw","lb","ly","ma","om","qa","sa","tn"]},"geometry":["point","area"],"matchScore":2,"terms":["starbucks","starbucks coffee","ستاربكس","ستاربكس كافية"],"reference":{"key":"cuisine","value":"coffee_shop"},"tags":{"amenity":"cafe","brand:wikidata":"Q37158","cuisine":"coffee_shop"},"addTags":{"amenity":"cafe","brand":"ستاربكس","brand:ar":"ستاربكس","brand:en":"Starbucks","brand:wikidata":"Q37158","cuisine":"coffee_shop","name":"ستاربكس","name:ar":"ستاربكس","name:en":"Starbucks","official_name":"ستاربكس كافية","official_name:ar":"ستاربكس كافية","official_name:en":"Starbucks Coffee","takeaway":"yes"}},"amenity/cinema/megarama-2d2421":{"name":"Megarama","locationSet":{"include":["es","fr","ma"]},"geometry":["point","area"],"matchScore":2,"terms":["megarama"],"fields":["name","brand","{amenity/cinema}"],"tags":{"amenity":"cinema","brand:wikidata":"Q96707027"},"addTags":{"amenity":"cinema","brand":"Megarama","brand:wikidata":"Q96707027","name":"Megarama"}},"amenity/fast_food/chicken/kfc-15a250":{"name":"دجاج كنتاكي","locationSet":{"include":["ae","bh","eg","iq","jo","kw","lb","ly","ma","om","qa","sa","sd","sy","tn","ye"]},"geometry":["point","area"],"matchScore":2,"terms":["kfc","دجاج كنتاكي"],"reference":{"key":"cuisine","value":"chicken"},"tags":{"amenity":"fast_food","brand:wikidata":"Q524757","cuisine":"chicken"},"addTags":{"amenity":"fast_food","brand":"دجاج كنتاكي","brand:ar":"دجاج كنتاكي","brand:en":"KFC","brand:wikidata":"Q524757","cuisine":"chicken","name":"دجاج كنتاكي","name:ar":"دجاج كنتاكي","name:en":"KFC","takeaway":"yes"}},"amenity/fast_food/burger/mcdonalds-19c993":{"name":"ماكدونالدز","locationSet":{"include":["ae","bh","eg","iq","jo","kw","lb","ma","om","qa","sa","sy","tn"]},"geometry":["point","area"],"matchScore":2,"terms":["mcdonald's","ماكدونالدز"],"reference":{"key":"cuisine","value":"burger"},"tags":{"amenity":"fast_food","brand:wikidata":"Q38076","cuisine":"burger"},"addTags":{"amenity":"fast_food","brand":"ماكدونالدز","brand:ar":"ماكدونالدز","brand:en":"McDonald's","brand:wikidata":"Q38076","cuisine":"burger","name":"ماكدونالدز","name:ar":"ماكدونالدز","name:en":"McDonald's","takeaway":"yes"}},"amenity/fuel/3331ce-144a57":{"name":"Afriquia أفريقيا","locationSet":{"include":["ma"]},"geometry":["point","area"],"matchScore":2,"terms":["afriquia أفريقيا","أفريقيا"],"fields":["name","brand","{amenity/fuel}"],"tags":{"amenity":"fuel","brand:wikidata":"Q56300032"},"addTags":{"amenity":"fuel","brand":"Afriquia أفريقيا","brand:wikidata":"Q56300032","name":"Afriquia أفريقيا","name:ar":"أفريقيا"}},"amenity/fuel/engen-b7f522":{"name":"Engen","locationSet":{"include":["dz","eg","ly","ma","sd","tn","eh","io","bi","km","dj","er","et","tf","ke","mg","mw","mu","yt","mz","re","rw","sc","so","ss","ug","tz","zm","zw","ao","cm","cf","td","cg","cd","gq","ga","st","bw","sz","ls","na","za","bj","bf","cv","ci","gm","gh","gn","gw","lr","ml","mr","ne","ng","sn","sl","tg","sh"]},"geometry":["point","area"],"matchScore":2,"terms":["engen","engen petroleum"],"fields":["name","brand","{amenity/fuel}"],"tags":{"amenity":"fuel","brand:wikidata":"Q3054251"},"addTags":{"amenity":"fuel","brand":"Engen","brand:wikidata":"Q3054251","name":"Engen"}},"amenity/fuel/greenoil-144a57":{"name":"Green Oil","locationSet":{"include":["ma"]},"geometry":["point","area"],"matchScore":2,"terms":["green oil"],"fields":["name","brand","{amenity/fuel}"],"tags":{"amenity":"fuel","brand:wikidata":"Q88393926"},"addTags":{"amenity":"fuel","brand":"Green Oil","brand:wikidata":"Q88393926","name":"Green Oil"}},"amenity/fuel/total-389b37":{"name":"Total طوطال","locationSet":{"include":["dj","er","ma"]},"geometry":["point","area"],"matchScore":2,"terms":["total","طوطال"],"fields":["name","brand","{amenity/fuel}"],"tags":{"amenity":"fuel","brand:wikidata":"Q154037"},"addTags":{"amenity":"fuel","brand":"طوطال","brand:ar":"طوطال","brand:en":"Total","brand:wikidata":"Q154037","name":"Total طوطال"}},"amenity/fuel/winxo-144a57":{"name":"Winxo","locationSet":{"include":["ma"]},"geometry":["point","area"],"matchScore":2,"terms":["winxo"],"fields":["name","brand","{amenity/fuel}"],"tags":{"amenity":"fuel","brand:wikidata":"Q88389320"},"addTags":{"amenity":"fuel","brand":"Winxo","brand:wikidata":"Q88389320","name":"Winxo"}},"amenity/fuel/ziz-144a57":{"name":"Ziz","locationSet":{"include":["ma"]},"geometry":["point","area"],"matchScore":2,"terms":["ziz"],"fields":["name","brand","{amenity/fuel}"],"tags":{"amenity":"fuel","brand:wikidata":"Q88393228"},"addTags":{"amenity":"fuel","brand":"Ziz","brand:wikidata":"Q88393228","name":"Ziz"}},"amenity/fuel/shell-7a1cc2":{"name":"شل","locationSet":{"include":["eg","ma","om","tn"]},"geometry":["point","area"],"matchScore":2,"terms":["shell","shell شل","شل"],"fields":["name","brand","{amenity/fuel}"],"tags":{"amenity":"fuel","brand:wikidata":"Q110716465"},"addTags":{"amenity":"fuel","brand":"شل","brand:ar":"شل","brand:en":"Shell","brand:wikidata":"Q110716465","name":"شل","name:ar":"شل","name:en":"Shell"}},"amenity/ice_cream/amorino-6cf168":{"name":"Amorino","locationSet":{"include":["ae","ch","cz","de","es","fr","gb","gr","ie","it","lu","ma","mt","mx","nc","pt","qa","re","us"]},"geometry":["point","area"],"matchScore":2,"terms":["amorino"],"tags":{"amenity":"ice_cream","brand:wikidata":"Q2843884"},"addTags":{"amenity":"ice_cream","brand":"Amorino","brand:wikidata":"Q2843884","name":"Amorino"}},"amenity/ice_cream/llaollao-dd9462":{"name":"Llaollao","locationSet":{"include":["au","ch","cl","co","ec","es","fr","gt","hr","id","iq","kw","ma","my","ph","pt","sa","sg","si","sv","us","vn"]},"geometry":["point","area"],"matchScore":2,"terms":["llaollao"],"tags":{"amenity":"ice_cream","brand:wikidata":"Q12163048"},"addTags":{"amenity":"ice_cream","brand":"Llaollao","brand:wikidata":"Q12163048","cuisine":"frozen_yogurt","name":"Llaollao"}},"amenity/ice_cream/smooy-bac155":{"name":"smöoy","locationSet":{"include":["ao","ci","cn","dz","ec","es","fr","gb","gn","it","ma","pa","pe","pt","re","sa"]},"geometry":["point","area"],"matchScore":2,"terms":["smöoy","softy cream"],"tags":{"amenity":"ice_cream","brand:wikidata":"Q21573945"},"addTags":{"amenity":"ice_cream","brand":"smöoy","brand:wikidata":"Q21573945","name":"smöoy","official_name":"Softy Cream"}},"amenity/school/maplebear-101006":{"name":"Maple Bear","locationSet":{"include":["ae","al","ar","au","bd","bg","br","ca","gt","hk","hr","in","ke","kr","lk","ma","mx","my","np","om","pe","ph","py","ro","rs","sg","th","tk","ua","us","vn"]},"geometry":["area","point"],"matchScore":2,"terms":["maple bear"],"fields":["name","brand","{amenity/school}"],"tags":{"amenity":"school","brand:wikidata":"Q10324823"},"addTags":{"amenity":"school","brand":"Maple Bear","brand:wikidata":"Q10324823","name":"Maple Bear","operator:type":"private"}},"amenity/madscience-0435a3":{"name":"Mad Science","locationSet":{"include":["bh","br","ca","cn","es","gb","kw","ma","nl","om","pe","sa","sg","th","tr","tt","us"]},"geometry":["point","vertex","line","area"],"matchScore":2,"terms":["mad science"],"fields":["name","brand","{amenity}"],"tags":{"amenity":"training","brand:wikidata":"Q17009137"},"addTags":{"amenity":"training","brand":"Mad Science","brand:wikidata":"Q17009137","name":"Mad Science","training":"science"}},"leisure/fitness_centre/lorangebleue-5ce32b":{"name":"L'Orange Bleue","locationSet":{"include":["es","fr","ma"]},"geometry":["point","area"],"matchScore":2,"terms":["l'orange bleue"],"tags":{"brand:wikidata":"Q3204640","leisure":"fitness_centre"},"addTags":{"brand":"L'Orange Bleue","brand:wikidata":"Q3204640","leisure":"fitness_centre","name":"L'Orange Bleue"}},"office/insurance/allianz-332499":{"name":"Allianz","locationSet":{"include":["ae","ar","at","au","be","bg","bh","bm","bn","br","ca","cg","ch","ci","cm","cn","co","cy","cz","de","dk","ee","eg","es","fi","fr","gb","gf","gg","gh","gp","gr","hk","hr","hu","id","ie","in","is","it","ja","ke","kr","kw","la","li","lk","lt","lu","lv","ma","mg","mx","my","ng","nl","no","nz","om","ph","pk","pl","pt","qa","ro","ru","sa","se","sg","si","sk","sn","th","tr","tw","ua","us","za"]},"geometry":["point","area"],"matchScore":2,"terms":["allianz"],"fields":["name","brand","{office/insurance}"],"tags":{"brand:wikidata":"Q487292","office":"insurance"},"addTags":{"brand":"Allianz","brand:wikidata":"Q487292","name":"Allianz","office":"insurance"}},"office/insurance/axa-2e7672":{"name":"AXA","locationSet":{"include":["ae","ar","au","be","bh","bm","br","ca","ch","ci","cl","cm","cn","co","cz","de","dk","dz","eg","es","fi","fr","ga","gb","gr","hk","id","ie","in","it","jp","kr","lb","lu","ma","mu","mx","my","ng","nl","no","om","pa","pe","ph","pl","pt","qa","sa","se","sg","sk","sn","th","tr","tw","us"]},"geometry":["point","area"],"matchScore":2,"terms":["axa"],"fields":["name","brand","{office/insurance}"],"tags":{"brand:wikidata":"Q160054","office":"insurance"},"addTags":{"brand":"AXA","brand:wikidata":"Q160054","name":"AXA","office":"insurance"}},"shop/bakery/paul-652955":{"name":"Paul","locationSet":{"include":["ae","az","be","bh","by","ci","cy","cz","eg","es","fr","ga","gb","ge","gr","id","in","jo","jp","kw","kz","lb","lu","ma","mu","my","om","pa","ph","pl","pt","qa","ro","ru","sa","sg","th","tn","tw","ua","us","uz","vn","za"]},"geometry":["point","area"],"matchScore":2,"terms":["paul"],"tags":{"brand:wikidata":"Q3370417","shop":"bakery"},"addTags":{"brand":"Paul","brand:wikidata":"Q3370417","name":"Paul","shop":"bakery"}},"shop/chocolate/jeffdebruges-d57ca4":{"name":"Jeff de Bruges","locationSet":{"include":["at","bg","ca","cz","de","ee","es","fr","gb","it","jo","lu","ma","om","pf","sa","sk","sn","tn"]},"geometry":["point","area"],"matchScore":2,"terms":["jeff de bruges"],"tags":{"brand:wikidata":"Q3176626","shop":"chocolate"},"addTags":{"brand":"Jeff de Bruges","brand:wikidata":"Q3176626","name":"Jeff de Bruges","shop":"chocolate"}},"shop/clothes/devred-7d7aaa":{"name":"Devred","locationSet":{"include":["be","fr","ma"]},"geometry":["point","area"],"matchScore":2,"terms":["devred"],"tags":{"brand:wikidata":"Q3025542","shop":"clothes"},"addTags":{"brand":"Devred","brand:wikidata":"Q3025542","name":"Devred","shop":"clothes"}},"shop/clothes/underwear/undiz-f30927":{"name":"Undiz","locationSet":{"include":["ae","ch","es","fr","gf","gp","lb","ma","mq","nc","pf","qa","re","sa","za"]},"geometry":["point","area"],"matchScore":2,"terms":["undiz"],"reference":{"key":"clothes","value":"underwear"},"tags":{"brand:wikidata":"Q105306275","clothes":"underwear","shop":"clothes"},"addTags":{"brand":"Undiz","brand:wikidata":"Q105306275","clothes":"underwear","name":"Undiz","shop":"clothes"}},"shop/furniture/chateaudax-c96b56":{"name":"Chateau d'Ax","locationSet":{"include":["ao","be","ca","ch","cn","de","es","fx","gp","hk","hr","it","ma","mq","mt","mu","mz","pt","re","sg","si","tn","tw","us","vn"]},"geometry":["point","area"],"matchScore":2,"terms":["chateau d'ax"],"tags":{"brand:wikidata":"Q100249791","shop":"furniture"},"addTags":{"brand":"Chateau d'Ax","brand:wikidata":"Q100249791","name":"Chateau d'Ax","shop":"furniture"}},"shop/hairdresser/marcoaldany-d15f75":{"name":"Marco Aldany","locationSet":{"include":["es","hn","in","ma","mx","pa","pe","pl"]},"geometry":["point","area"],"matchScore":2,"terms":["marco aldany"],"tags":{"brand:wikidata":"Q112095114","shop":"hairdresser"},"addTags":{"brand":"Marco Aldany","brand:wikidata":"Q112095114","name":"Marco Aldany","shop":"hairdresser"}},"shop/kitchen/ixina-d089d8":{"name":"Ixina","locationSet":{"include":["ae","au","be","bf","bh","bj","ca","ci","cm","cn","cz","dz","ee","eg","fr","gh","hr","ke","kw","lu","ly","ma","mu","nl","pl","qa","ro","ru","sa","se","sn","tg","th","tn","vn"]},"geometry":["point","area"],"matchScore":2,"terms":["ixina"],"tags":{"brand:wikidata":"Q3156424","shop":"kitchen"},"addTags":{"brand":"Ixina","brand:wikidata":"Q3156424","name":"Ixina","shop":"kitchen"}},"shop/supermarket/bim-8af1d3":{"name":"BİM","locationSet":{"include":["ma","tr"]},"geometry":["point","area"],"matchScore":2,"terms":["bi̇m"],"tags":{"brand:wikidata":"Q1022075","shop":"supermarket"},"addTags":{"brand":"BİM","brand:wikidata":"Q1022075","name":"BİM","shop":"supermarket"}},"shop/supermarket/supersol-0a1807":{"name":"Supersol","locationSet":{"include":["ar","es","ma","uy"]},"geometry":["point","area"],"matchScore":2,"terms":["supersol"],"tags":{"brand:wikidata":"Q62073427","shop":"supermarket"},"addTags":{"brand":"Supersol","brand:wikidata":"Q62073427","name":"Supersol","shop":"supermarket"}},"shop/tool_hire/loxam-33fef8":{"name":"Loxam","locationSet":{"include":["ae","be","bh","br","ch","co","cz","de","dk","ee","es","fi","fr","gb","ie","it","kw","lt","lu","lv","ma","nl","no","om","pl","pt","qa","sa","se","sk"]},"geometry":["point","area"],"matchScore":2,"terms":["loxam"],"tags":{"brand:wikidata":"Q3264407","shop":"tool_hire"},"addTags":{"brand":"Loxam","brand:wikidata":"Q3264407","name":"Loxam","shop":"tool_hire"}},"shop/toys/joueclub-913d0c":{"name":"JouéClub","locationSet":{"include":["ad","fr","it","lb","ma","qa"]},"geometry":["point","area"],"matchScore":2,"terms":["jouéclub"],"tags":{"brand:wikidata":"Q3187152","shop":"toys"},"addTags":{"brand":"JouéClub","brand:wikidata":"Q3187152","name":"JouéClub","shop":"toys"}},"shop/toys/lagranderecre-61c030":{"name":"La Grande Récré","locationSet":{"include":["be","ci","es","fr","ma"]},"geometry":["point","area"],"matchScore":2,"terms":["la grande récré"],"tags":{"brand:wikidata":"Q3209556","shop":"toys"},"addTags":{"brand":"La Grande Récré","brand:wikidata":"Q3209556","name":"La Grande Récré","shop":"toys"}},"amenity/post_box/postemaroc-2a0eda":{"name":"Barid Al-Maghrib","locationSet":{"include":["ma"]},"geometry":["point","vertex"],"matchScore":2,"terms":["barid al maghrib بريد المغرب","barid al-maghrib","poste maroc","بريد المغرب"],"tags":{"amenity":"post_box","operator:wikidata":"Q3399778"},"addTags":{"alt_name":"Barid Al-Maghrib","alt_name:ar":"بريد المغرب","alt_name:fr":"Barid Al-Maghrib","amenity":"post_box","operator":"Poste Maroc","operator:wikidata":"Q3399778"}},"amenity/post_office/postemaroc-efee55":{"name":"Barid Al-Maghrib","locationSet":{"include":["ma"]},"geometry":["point","area"],"matchScore":2,"terms":["barid al maghrib بريد المغرب","barid al-maghrib","poste maroc","بريد المغرب"],"fields":["name","operator","{amenity/post_office}"],"tags":{"amenity":"post_office","operator:wikidata":"Q3399778"},"addTags":{"alt_name":"Barid Al-Maghrib","alt_name:ar":"بريد المغرب","alt_name:fr":"Barid Al-Maghrib","amenity":"post_office","operator":"Poste Maroc","operator:wikidata":"Q3399778"}},"office/energy_supplier/naturgy-e15d8a":{"name":"Naturgy","locationSet":{"include":["ar","au","be","br","cl","cn","cr","de","do","dz","eg","es","fr","gb","ie","in","jm","jo","jp","lu","ma","mx","nl","om","pa","pe","pk","pr","pt","sg"]},"geometry":["point","area"],"matchScore":2,"terms":["naturgy"],"tags":{"office":"energy_supplier","operator:wikidata":"Q474690"},"addTags":{"name":"Naturgy","office":"energy_supplier","operator":"Naturgy","operator:wikidata":"Q474690"}},"power/plant/masen-ff30b3":{"name":"Masen","locationSet":{"include":["ma"]},"geometry":["area"],"matchScore":2,"terms":["masen","mazen"],"tags":{"operator:wikidata":"Q18384641","power":"plant"},"addTags":{"operator":"Masen","operator:wikidata":"Q18384641","power":"plant"}}}