{"amenity/atm/bankofthesierra-f9d961":{"name":"Bank of the Sierra","locationSet":{"include":["us-ca"]},"geometry":["point","vertex"],"matchScore":2,"terms":["bank of the sierra"],"fields":["name","brand","{amenity/atm}"],"tags":{"amenity":"atm","brand:wikidata":"Q117187407"},"addTags":{"amenity":"atm","brand":"Bank of the Sierra","brand:wikidata":"Q117187407","operator":"Bank of the Sierra","operator:wikidata":"Q117187407"}},"amenity/atm/californiacoastcreditunion-f9d961":{"name":"California Coast Credit Union","locationSet":{"include":["us-ca"]},"geometry":["point","vertex"],"matchScore":2,"terms":["california coast credit union"],"fields":["name","brand","{amenity/atm}"],"tags":{"amenity":"atm","brand:wikidata":"Q25025281"},"addTags":{"amenity":"atm","brand":"California Coast Credit Union","brand:wikidata":"Q25025281","operator":"California Coast Credit Union","operator:wikidata":"Q25025281"}},"amenity/atm/citynationalbank-97e06e":{"name":"City National Bank (California)","locationSet":{"include":["us-ca","us-dc","us-de","us-fl","us-ga","us-ma","us-mn","us-nv","us-ny","us-tn","us-va"]},"geometry":["point","vertex"],"matchScore":2,"terms":["city national bank"],"fields":["name","brand","{amenity/atm}"],"tags":{"amenity":"atm","brand:wikidata":"Q5123314"},"addTags":{"amenity":"atm","brand":"City National Bank","brand:wikidata":"Q5123314","operator":"City National Bank","operator:wikidata":"Q5123314"}},"amenity/atm/homestreetbank-9527f3":{"name":"HomeStreet Bank","locationSet":{"include":["us-ca","us-hi","us-id","us-or","us-ut","us-wa"]},"geometry":["point","vertex"],"matchScore":2,"terms":["homestreet bank"],"fields":["name","brand","{amenity/atm}"],"tags":{"amenity":"atm","brand:wikidata":"Q60762481"},"addTags":{"amenity":"atm","brand":"HomeStreet Bank","brand:wikidata":"Q60762481","operator":"HomeStreet Bank","operator:wikidata":"Q60762481"}},"amenity/atm/sandiegocountycreditunion-f9d961":{"name":"San Diego County Credit Union","locationSet":{"include":["us-ca"]},"geometry":["point","vertex"],"matchScore":2,"terms":["san diego county credit union","sdccu"],"fields":["name","brand","{amenity/atm}"],"tags":{"amenity":"atm","brand:wikidata":"Q7413628"},"addTags":{"amenity":"atm","brand":"San Diego County Credit Union","brand:wikidata":"Q7413628","operator":"San Diego County Credit Union","operator:wikidata":"Q7413628","short_name":"SDCCU"}},"amenity/atm/selfhelpfederalcreditunion-f52673":{"name":"Self-Help Federal Credit Union","locationSet":{"include":["us-ca","us-il","us-wa","us-wi"]},"geometry":["point","vertex"],"matchScore":2,"terms":["self-help federal credit union"],"fields":["name","brand","{amenity/atm}"],"tags":{"amenity":"atm","brand:wikidata":"Q111381724"},"addTags":{"amenity":"atm","brand":"Self-Help Federal Credit Union","brand:wikidata":"Q111381724","operator":"Self-Help Federal Credit Union","operator:wikidata":"Q111381724"}},"amenity/atm/statebankofindiacalifornia-f9d961":{"name":"State Bank of India (California)","locationSet":{"include":["us-ca"]},"geometry":["point","vertex"],"matchScore":2,"terms":["sbic","state bank of india (california)"],"fields":["name","brand","{amenity/atm}"],"tags":{"amenity":"atm","brand:wikidata":"Q27920062"},"addTags":{"amenity":"atm","brand":"State Bank of India (California)","brand:wikidata":"Q27920062","operator":"State Bank of India (California)","operator:wikidata":"Q27920062","short_name":"SBIC"}},"amenity/bank/bankofthesierra-cf92b8":{"name":"Bank of the Sierra","locationSet":{"include":["us-ca"]},"geometry":["point","area"],"matchScore":2,"terms":["bank of the sierra"],"tags":{"amenity":"bank","brand:wikidata":"Q117187407"},"addTags":{"amenity":"bank","brand":"Bank of the Sierra","brand:wikidata":"Q117187407","name":"Bank of the Sierra"}},"amenity/bank/californiacoastcreditunion-cf92b8":{"name":"California Coast Credit Union","locationSet":{"include":["us-ca"]},"geometry":["point","area"],"matchScore":2,"terms":["california coast credit union"],"tags":{"amenity":"bank","brand:wikidata":"Q25025281"},"addTags":{"amenity":"bank","brand":"California Coast Credit Union","brand:wikidata":"Q25025281","name":"California Coast Credit Union"}},"amenity/bank/citynationalbank-0b143b":{"name":"City National Bank (California)","locationSet":{"include":["us-ca","us-dc","us-de","us-fl","us-ga","us-ma","us-mn","us-nv","us-ny","us-tn","us-va"]},"geometry":["point","area"],"matchScore":2,"terms":["city national bank"],"tags":{"amenity":"bank","brand:wikidata":"Q5123314"},"addTags":{"amenity":"bank","brand":"City National Bank","brand:wikidata":"Q5123314","name":"City National Bank"}},"amenity/bank/homestreetbank-80e3ed":{"name":"HomeStreet Bank","locationSet":{"include":["us-ca","us-hi","us-id","us-or","us-ut","us-wa"]},"geometry":["point","area"],"matchScore":2,"terms":["homestreet bank"],"tags":{"amenity":"bank","brand:wikidata":"Q60762481"},"addTags":{"amenity":"bank","brand":"HomeStreet Bank","brand:wikidata":"Q60762481","name":"HomeStreet Bank"}},"amenity/bank/sandiegocountycreditunion-cf92b8":{"name":"San Diego County Credit Union","locationSet":{"include":["us-ca"]},"geometry":["point","area"],"matchScore":2,"terms":["san diego county credit union","sdccu"],"tags":{"amenity":"bank","brand:wikidata":"Q7413628"},"addTags":{"amenity":"bank","brand":"San Diego County Credit Union","brand:wikidata":"Q7413628","name":"San Diego County Credit Union","short_name":"SDCCU"}},"amenity/bank/selfhelpfederalcreditunion-8dbd99":{"name":"Self-Help Federal Credit Union","locationSet":{"include":["us-ca","us-il","us-wa","us-wi"]},"geometry":["point","area"],"matchScore":2,"terms":["self-help federal credit union"],"tags":{"amenity":"bank","brand:wikidata":"Q111381724"},"addTags":{"amenity":"bank","brand":"Self-Help Federal Credit Union","brand:wikidata":"Q111381724","name":"Self-Help Federal Credit Union"}},"amenity/bank/statebankofindiacalifornia-cf92b8":{"name":"State Bank of India (California)","locationSet":{"include":["us-ca"]},"geometry":["point","area"],"matchScore":2,"terms":["sbic","state bank of india (california)"],"tags":{"amenity":"bank","brand:wikidata":"Q27920062"},"addTags":{"amenity":"bank","brand":"State Bank of India (California)","brand:wikidata":"Q27920062","name":"State Bank of India (California)","short_name":"SBIC"}},"amenity/cafe/coffee_shop/betterbuzzcoffee-19c2e6":{"name":"Better Buzz Coffee","locationSet":{"include":["us-ca"]},"geometry":["point","area"],"matchScore":2,"terms":["better buzz coffee","better buzz coffee roasters"],"reference":{"key":"cuisine","value":"coffee_shop"},"tags":{"amenity":"cafe","brand:wikidata":"Q113138187","cuisine":"coffee_shop"},"addTags":{"alt_name":"Better Buzz Coffee Roasters","amenity":"cafe","brand":"Better Buzz Coffee","brand:wikidata":"Q113138187","cuisine":"coffee_shop","name":"Better Buzz Coffee","takeaway":"yes"}},"amenity/cafe/coffee_shop/grind-5c7288":{"name":"Grind","locationSet":{"include":["gb","us-ca"]},"geometry":["point","area"],"matchScore":2,"terms":["grind"],"reference":{"key":"cuisine","value":"coffee_shop"},"tags":{"amenity":"cafe","brand:wikidata":"Q113687389","cuisine":"coffee_shop"},"addTags":{"amenity":"cafe","brand":"Grind","brand:wikidata":"Q113687389","cuisine":"coffee_shop","name":"Grind","takeaway":"yes"}},"amenity/clinic/suttersurgerycenter-6bb225":{"name":"Sutter Surgery Center","locationSet":{"include":["us-ca"]},"geometry":["point","area"],"matchScore":2,"terms":["sutter health"],"fields":["name","brand","{amenity/clinic}"],"reference":{"key":"amenity","value":"clinic"},"tags":{"amenity":"clinic","brand:wikidata":"Q7650154"},"addTags":{"amenity":"clinic","brand":"Sutter Health","brand:wikidata":"Q7650154","healthcare":"clinic","healthcare:speciality":"surgery","name":"Sutter Surgery Center"}},"amenity/dentist/westerndental-e883ee":{"name":"Western Dental","locationSet":{"include":["us-az","us-ca","us-nv"]},"geometry":["point","area"],"matchScore":2,"terms":["western dental","western dental & orthodontics"],"reference":{"key":"amenity","value":"dentist"},"tags":{"amenity":"dentist","brand:wikidata":"Q64211989"},"addTags":{"alt_name":"Western Dental & Orthodontics","amenity":"dentist","brand":"Western Dental","brand:wikidata":"Q64211989","healthcare":"dentist","name":"Western Dental"}},"amenity/dentist/westerndentalkids-2924e1":{"name":"Western Dental Kids","locationSet":{"include":["us-az","us-ca"]},"geometry":["point","area"],"matchScore":2,"terms":["kids dental kare","western dental","western dental & orthodontics kids"],"reference":{"key":"amenity","value":"dentist"},"tags":{"amenity":"dentist","brand:wikidata":"Q64211989"},"addTags":{"alt_name":"Western Dental & Orthodontics Kids","amenity":"dentist","brand":"Western Dental","brand:wikidata":"Q64211989","healthcare":"dentist","name":"Western Dental Kids"}},"amenity/doctors/sutterwalkincare-b04fc4":{"name":"Sutter Walk-In Care","locationSet":{"include":["us-ca"]},"geometry":["point","area"],"matchScore":2,"terms":["sutter health"],"reference":{"key":"amenity","value":"doctors"},"tags":{"amenity":"doctors","brand:wikidata":"Q7650154"},"addTags":{"amenity":"doctors","brand":"Sutter Health","brand:wikidata":"Q7650154","healthcare":"doctor","healthcare:speciality":"community","name":"Sutter Walk-In Care"}},"amenity/fast_food/donut/bluestardonuts-1e4066":{"name":"Blue Star Donuts","locationSet":{"include":["us-ca","us-or"]},"geometry":["point","area"],"matchScore":2,"terms":["blue star donuts","blue star doughnuts"],"reference":{"key":"cuisine","value":"donut"},"tags":{"amenity":"fast_food","brand:wikidata":"Q96373725","cuisine":"donut"},"addTags":{"amenity":"fast_food","brand":"Blue Star Donuts","brand:wikidata":"Q96373725","cuisine":"donut","name":"Blue Star Donuts","takeaway":"yes"}},"amenity/fast_food/sandwich/boardandbrew-2b51a7":{"name":"Board & Brew","locationSet":{"include":["us-az","us-ca"]},"geometry":["point","area"],"matchScore":2,"terms":["board & brew"],"reference":{"key":"cuisine","value":"sandwich"},"tags":{"amenity":"fast_food","brand:wikidata":"Q110648005","cuisine":"sandwich"},"addTags":{"amenity":"fast_food","brand":"Board & Brew","brand:wikidata":"Q110648005","cuisine":"sandwich","name":"Board & Brew","takeaway":"yes"}},"amenity/fast_food/donut/duckdonuts-6333a9":{"name":"Duck Donuts","locationSet":{"include":["ca-on","eg","sa","us-ar","us-az","us-ca","us-co","us-fl","us-ga","us-id","us-il","us-ks","us-ky","us-md","us-mi","us-mn","us-mo","us-nc","us-nj","us-ny","us-oh","us-pa","us-sc","us-tn","us-tx","us-ut","us-va"]},"geometry":["point","area"],"matchScore":2,"terms":["duck donuts","duck doughnuts"],"reference":{"key":"cuisine","value":"donut"},"tags":{"amenity":"fast_food","brand:wikidata":"Q54958282","cuisine":"donut"},"addTags":{"amenity":"fast_food","brand":"Duck Donuts","brand:wikidata":"Q54958282","cuisine":"donut","name":"Duck Donuts","takeaway":"yes"}},"amenity/fast_food/sandwich/eriksdelicafe-ffd771":{"name":"Erik's DeliCafé","locationSet":{"include":["us-ca"]},"geometry":["point","area"],"matchScore":2,"terms":["erik's delicafé"],"reference":{"key":"cuisine","value":"sandwich"},"tags":{"amenity":"fast_food","brand:wikidata":"Q116922917","cuisine":"sandwich"},"addTags":{"amenity":"fast_food","brand":"Erik's DeliCafé","brand:wikidata":"Q116922917","cuisine":"sandwich","name":"Erik's DeliCafé","takeaway":"yes"}},"amenity/fast_food/burger/fostersfreeze-ffd771":{"name":"Fosters Freeze","locationSet":{"include":["us-ca"]},"geometry":["point","area"],"matchScore":2,"terms":["fosters freeze"],"reference":{"key":"cuisine","value":"burger"},"tags":{"amenity":"fast_food","brand:wikidata":"Q5473851","cuisine":"burger;ice_cream"},"addTags":{"amenity":"fast_food","brand":"Fosters Freeze","brand:wikidata":"Q5473851","cuisine":"burger;ice_cream","name":"Fosters Freeze","takeaway":"yes"}},"amenity/fast_food/chicken/haroldschickenshack-f76ba8":{"name":"Harold's Chicken Shack","locationSet":{"include":["us-az","us-ca","us-ga","us-il","us-in","us-mo","us-nv"]},"geometry":["point","area"],"matchScore":2,"terms":["harold's","harold's chicken","harold's chicken shack","the fried chicken king"],"reference":{"key":"cuisine","value":"chicken"},"tags":{"amenity":"fast_food","brand:wikidata":"Q5659832","cuisine":"chicken"},"addTags":{"amenity":"fast_food","brand":"Harold's Chicken Shack","brand:wikidata":"Q5659832","cuisine":"chicken","name":"Harold's Chicken Shack","takeaway":"yes"}},"amenity/fast_food/mexican/kingtaco-ffd771":{"name":"King Taco","locationSet":{"include":["us-ca"]},"geometry":["point","area"],"matchScore":2,"terms":["king taco"],"reference":{"key":"cuisine","value":"mexican"},"tags":{"amenity":"fast_food","brand:wikidata":"Q6412104","cuisine":"mexican"},"addTags":{"amenity":"fast_food","brand":"King Taco","brand:wikidata":"Q6412104","cuisine":"mexican","name":"King Taco","takeaway":"yes"}},"amenity/fast_food/lemonsharkpoke-44dd3c":{"name":"LemonShark Poké","locationSet":{"include":["us-az","us-ca","us-fl","us-il","us-la","us-nc","us-oh","us-tx"]},"geometry":["point","area"],"matchScore":2,"terms":["lemonshark poké"],"tags":{"amenity":"fast_food","brand:wikidata":"Q115411660"},"addTags":{"amenity":"fast_food","brand":"LemonShark Poké","brand:wikidata":"Q115411660","cuisine":"poke","name":"LemonShark Poké.","takeaway":"yes"}},"amenity/fast_food/sandwich/mendocinofarms-c19f86":{"name":"Mendocino Farms","locationSet":{"include":["us-ca","us-ga","us-tx"]},"geometry":["point","area"],"matchScore":2,"terms":["mendocino farms"],"reference":{"key":"cuisine","value":"sandwich"},"tags":{"amenity":"fast_food","brand:wikidata":"Q110671982","cuisine":"sandwich"},"addTags":{"amenity":"fast_food","brand":"Mendocino Farms","brand:wikidata":"Q110671982","cuisine":"sandwich","name":"Mendocino Farms","takeaway":"yes"}},"amenity/fast_food/tendergreens-ffd771":{"name":"Tender Greens","locationSet":{"include":["us-ca"]},"geometry":["point","area"],"matchScore":2,"terms":["tender greens"],"tags":{"amenity":"fast_food","brand:wikidata":"Q113585516"},"addTags":{"amenity":"fast_food","brand":"Tender Greens","brand:wikidata":"Q113585516","cuisine":"salad","name":"Tender Greens","takeaway":"yes"}},"amenity/fuel/food4less-25dc49":{"name":"Food 4 Less","locationSet":{"include":["us-ca","us-il","us-in"]},"geometry":["point","area"],"matchScore":2,"terms":["food 4 less"],"fields":["name","brand","{amenity/fuel}"],"tags":{"amenity":"fuel","brand:wikidata":"Q5465282"},"addTags":{"amenity":"fuel","brand":"Food 4 Less","brand:wikidata":"Q5465282","name":"Food 4 Less"}},"amenity/fuel/foodsco-b96be0":{"name":"Foods Co","locationSet":{"include":["us-ca"]},"geometry":["point","area"],"matchScore":2,"terms":["foods co"],"fields":["name","brand","{amenity/fuel}"],"tags":{"amenity":"fuel","brand:wikidata":"Q5465282"},"addTags":{"amenity":"fuel","brand":"Foods Co","brand:wikidata":"Q5465282","name":"Foods Co"}},"amenity/ice_cream/jenissplendidicecreams-53b2e0":{"name":"Jeni's Splendid Ice Cream","locationSet":{"include":["us-al","us-ca","us-dc","us-fl","us-ga","us-il","us-mo","us-nc","us-oh","us-pa","us-sc","us-tn","us-tx"]},"geometry":["point","area"],"matchScore":2,"terms":["jeni's","jeni's splendid ice creams"],"tags":{"amenity":"ice_cream","brand:wikidata":"Q16851196"},"addTags":{"amenity":"ice_cream","brand":"Jeni's Splendid Ice Creams","brand:wikidata":"Q16851196","name":"Jeni's Splendid Ice Creams","short_name":"Jeni's"}},"amenity/payment_terminal/dmvnow-c1357b":{"name":"DMV Now","locationSet":{"include":["us-ca"]},"geometry":["point"],"matchScore":2,"terms":["california department of motor vehicles","dmv now"],"tags":{"amenity":"payment_terminal","brand:wikidata":"Q109370939"},"addTags":{"amenity":"payment_terminal","brand":"DMV Now","brand:wikidata":"Q109370939","name":"DMV Now","operator":"California Department of Motor Vehicles","operator:wikidata":"Q5020431"}},"amenity/restaurant/seafood/joescrabshack-c6bbaa":{"name":"Joe's Crab Shack","locationSet":{"include":["us-az","us-ca","us-co","us-fl","us-ga","us-ky","us-la","us-mo","us-nc","us-nj","us-pa","us-sc","us-tn","us-tx","us-ut","us-va"]},"geometry":["point","area"],"matchScore":2,"terms":["joe's crab shack"],"reference":{"key":"cuisine","value":"seafood"},"tags":{"amenity":"restaurant","brand:wikidata":"Q6208210","cuisine":"seafood"},"addTags":{"amenity":"restaurant","brand":"Joe's Crab Shack","brand:wikidata":"Q6208210","cuisine":"seafood","name":"Joe's Crab Shack"}},"amenity/restaurant/american/lazydog-f4f1ab":{"name":"Lazy Dog","locationSet":{"include":["us-ca","us-co","us-fl","us-ga","us-il","us-nv","us-tx","us-va"]},"geometry":["point","area"],"matchScore":2,"terms":["lazy dog"],"reference":{"key":"cuisine","value":"american"},"tags":{"amenity":"restaurant","brand:wikidata":"Q111304278","cuisine":"american"},"addTags":{"amenity":"restaurant","brand":"Lazy Dog","brand:wikidata":"Q111304278","cuisine":"american","name":"Lazy Dog"}},"amenity/restaurant/lucillessmokehousebbq-385edb":{"name":"Lucille's Smokehouse BBQ","locationSet":{"include":["us-az","us-ca","us-nv"]},"geometry":["point","area"],"matchScore":2,"terms":["lucille's smokehouse bar-b-que","lucille's smokehouse bbq","lucilles","lucilles bbq"],"tags":{"amenity":"restaurant","brand:wikidata":"Q17019306"},"addTags":{"amenity":"restaurant","brand":"Lucille's Smokehouse BBQ","brand:wikidata":"Q17019306","cuisine":"barbecue","name":"Lucille's Smokehouse BBQ","official_name":"Lucille's Smokehouse Bar-B-Que"}},"amenity/restaurant/italian/maggianoslittleitaly-acf8ec":{"name":"Maggiano's Little Italy","locationSet":{"include":["us-az","us-ca","us-co","us-dc","us-fl","us-ga","us-il","us-in","us-ks","us-ma","us-md","us-mi","us-mo","us-nc","us-nj","us-nv","us-ny","us-oh","us-pa","us-tn","us-tx","us-va","us-wa","us-wi"]},"geometry":["point","area"],"matchScore":2,"terms":["maggiano's little italy"],"reference":{"key":"cuisine","value":"italian"},"tags":{"amenity":"restaurant","brand:wikidata":"Q6730149","cuisine":"italian"},"addTags":{"amenity":"restaurant","brand":"Maggiano's Little Italy","brand:wikidata":"Q6730149","cuisine":"italian","name":"Maggiano's Little Italy"}},"amenity/restaurant/chinese/meizhoudongpo-697b62":{"name":"Meizhou Dongpo","locationSet":{"include":["us-ca"]},"geometry":["point","area"],"matchScore":2,"terms":["meizhou dongpo","眉州东坡"],"reference":{"key":"cuisine","value":"chinese"},"tags":{"amenity":"restaurant","brand:wikidata":"Q96384368","cuisine":"chinese"},"addTags":{"amenity":"restaurant","brand":"Meizhou Dongpo","brand:en":"Meizhou Dongpo","brand:wikidata":"Q96384368","brand:zh":"眉州东坡","cuisine":"chinese","name":"Meizhou Dongpo","name:en":"Meizhou Dongpo","name:zh":"眉州东坡"}},"amenity/restaurant/originalroadhousegrill-f1be6c":{"name":"Original Roadhouse Grill","locationSet":{"include":["us-ca","us-or"]},"geometry":["point","area"],"matchScore":2,"terms":["original roadhouse grill"],"tags":{"amenity":"restaurant","brand:wikidata":"Q115587987"},"addTags":{"amenity":"restaurant","brand":"Original Roadhouse Grill","brand:wikidata":"Q115587987","cuisine":"steak_house;barbecue","name":"Original Roadhouse Grill"}},"amenity/restaurant/pizza/roundtablepizza-6267fd":{"name":"Round Table Pizza","locationSet":{"include":["us-az","us-ca","us-nv","us-or","us-tx","us-wa"]},"geometry":["point","area"],"matchScore":2,"terms":["round table","round table pizza"],"reference":{"key":"cuisine","value":"pizza"},"tags":{"amenity":"restaurant","brand:wikidata":"Q7371139","cuisine":"pizza"},"addTags":{"amenity":"restaurant","brand":"Round Table Pizza","brand:wikidata":"Q7371139","cuisine":"pizza","name":"Round Table Pizza"}},"amenity/restaurant/snooze-62450c":{"name":"Snooze","locationSet":{"include":["us-az","us-ca","us-co","us-ga","us-ks","us-mo","us-nc","us-tn","us-tx"]},"geometry":["point","area"],"matchScore":2,"terms":["snooze","snooze, an a.m. eatery"],"tags":{"amenity":"restaurant","brand:wikidata":"Q111304345"},"addTags":{"amenity":"restaurant","brand":"Snooze","brand:wikidata":"Q111304345","cuisine":"breakfast","name":"Snooze","official_name":"Snooze, an A.M. Eatery"}},"office/coworking/secondhome-b3460a":{"name":"Second Home","locationSet":{"include":["gb","pt","us-ca"]},"geometry":["point","area"],"matchScore":2,"terms":["second home"],"tags":{"brand:wikidata":"Q111387268","office":"coworking"},"addTags":{"brand":"Second Home","brand:wikidata":"Q111387268","fee":"yes","name":"Second Home","office":"coworking"}},"office/insurance/insurancenavybrokers-082118":{"name":"Insurance Navy Brokers","locationSet":{"include":["us-ca","us-il","us-tx"]},"geometry":["point","area"],"matchScore":2,"terms":["insurance navy brokers"],"fields":["name","brand","{office/insurance}"],"tags":{"brand:wikidata":"Q106564453","office":"insurance"},"addTags":{"brand":"Insurance Navy Brokers","brand:wikidata":"Q106564453","name":"Insurance Navy Brokers","office":"insurance"}},"shop/agrarian/wilco-25b295":{"name":"Wilco","locationSet":{"include":["us-ca","us-or","us-wa"]},"geometry":["point","area"],"matchScore":2,"terms":["wilco","wilco farm stores"],"tags":{"brand:wikidata":"Q8000290","shop":"agrarian"},"addTags":{"alt_name":"Wilco Farm Stores","brand":"Wilco","brand:wikidata":"Q8000290","name":"Wilco","shop":"agrarian"}},"shop/cannabis/beyondhello-f81ec6":{"name":"Beyond Hello","locationSet":{"include":["us-ca","us-il","us-ma","us-nv","us-oh","us-pa","us-va"]},"geometry":["point","area"],"matchScore":2,"terms":["beyond hello"],"tags":{"brand:wikidata":"Q116734157","shop":"cannabis"},"addTags":{"brand":"Beyond Hello","brand:wikidata":"Q116734157","name":"Beyond Hello","shop":"cannabis"}},"shop/cannabis/cannabist-c9b3a7":{"name":"Cannabist","locationSet":{"include":["us-az","us-ca","us-fl","us-il","us-ma","us-mo","us-nj","us-ny","us-ut","us-va","us-wv"]},"geometry":["point","area"],"matchScore":2,"terms":["cannabist"],"tags":{"brand:wikidata":"Q114896590","shop":"cannabis"},"addTags":{"brand":"Cannabist","brand:wikidata":"Q114896590","name":"Cannabist","shop":"cannabis"}},"shop/clothes/workwear/workworld-0f3ba6":{"name":"Work World","locationSet":{"include":["us-ca","us-nv"]},"geometry":["point","area"],"matchScore":2,"terms":["work world"],"tags":{"brand:wikidata":"Q113502525","clothes":"workwear","shop":"clothes"},"addTags":{"brand":"Work World","brand:wikidata":"Q113502525","clothes":"workwear","name":"Work World","shop":"clothes"}},"shop/convenience/fastbreak-fa1eb4":{"name":"Fastbreak","locationSet":{"include":["us-ca","us-or"]},"geometry":["point","area"],"matchScore":2,"terms":["fastbreak"],"tags":{"brand:wikidata":"Q116731804","shop":"convenience"},"addTags":{"brand":"Fastbreak","brand:wikidata":"Q116731804","name":"Fastbreak","shop":"convenience"}},"shop/electronics/videoonly-5e4651":{"name":"Video Only","locationSet":{"include":["us-ca","us-or","us-wa"]},"geometry":["point","area"],"matchScore":2,"terms":["video only"],"tags":{"brand:wikidata":"Q110543258","shop":"electronics"},"addTags":{"brand":"Video Only","brand:wikidata":"Q110543258","name":"Video Only","shop":"electronics"}},"shop/gift/atticsalt-ae6503":{"name":"Attic Salt","locationSet":{"include":["us-az","us-ca","us-co","us-id","us-il","us-in","us-ks","us-la","us-mo","us-ne","us-nv","us-ok","us-or","us-tx","us-ut","us-wa"]},"geometry":["point","area"],"matchScore":2,"terms":["attic salt"],"tags":{"brand:wikidata":"Q108409773","shop":"gift"},"addTags":{"brand":"Attic Salt","brand:wikidata":"Q108409773","name":"Attic Salt","shop":"gift"}},"shop/hairdresser/imagestudios-0d42d5":{"name":"Image Studios","locationSet":{"include":["us-ca","us-co","us-fl","us-ga","us-ky","us-mo","us-nc","us-nj","us-nv","us-ny","us-oh","us-or","us-sc","us-tn","us-tx","us-ut"]},"geometry":["point","area"],"matchScore":2,"terms":["image studios"],"tags":{"brand:wikidata":"Q110998819","shop":"hairdresser"},"addTags":{"brand":"Image Studios","brand:wikidata":"Q110998819","name":"Image Studios","shop":"hairdresser"}},"shop/jewelry/donrobertojewelers-080e86":{"name":"Don Roberto Jewelers","locationSet":{"include":["us-ca"]},"geometry":["point","area"],"matchScore":2,"terms":["don roberto jewelers"],"tags":{"brand:wikidata":"Q109371600","shop":"jewelry"},"addTags":{"brand":"Don Roberto Jewelers","brand:wikidata":"Q109371600","name":"Don Roberto Jewelers","shop":"jewelry"}},"shop/pastry/mrsfields-e944b6":{"name":"Mrs. Fields","locationSet":{"include":["au","ph","us-ak","us-al","us-az","us-ca","us-co","us-de","us-fl","us-ga","us-hi","us-id","us-il","us-in","us-ks","us-la","us-ma","us-md","us-me","us-mi","us-mo","us-ms","us-nc","us-nj","us-nv","us-ny","us-oh","us-ok","us-pa","us-tx","us-ut","us-wi"]},"geometry":["point","area"],"matchScore":2,"terms":["mrs. fields"],"tags":{"brand:wikidata":"Q3866841","shop":"pastry"},"addTags":{"brand":"Mrs. Fields","brand:wikidata":"Q3866841","name":"Mrs. Fields","shop":"pastry"}},"shop/pet/kahoots-ae290d":{"name":"Kahoots","locationSet":{"include":["us-ca"]},"geometry":["point","area"],"matchScore":2,"terms":["kahoots","kahoots feed and pet","kahoots pet store"],"tags":{"brand:wikidata":"Q110028564","shop":"pet"},"addTags":{"brand":"Kahoots","brand:wikidata":"Q110028564","name":"Kahoots","shop":"pet"}},"shop/storage_rental/a1selfstorage-a05958":{"name":"A-1 Self Storage","locationSet":{"include":["us-ca"]},"geometry":["point","area"],"matchScore":2,"terms":["a-1 self storage"],"tags":{"brand:wikidata":"Q105078150","shop":"storage_rental"},"addTags":{"brand":"A-1 Self Storage","brand:wikidata":"Q105078150","name":"A-1 Self Storage","shop":"storage_rental"}},"shop/storage_rental/ustorit-a1f08e":{"name":"U-Stor-It","locationSet":{"include":["us-ca","us-il","us-in"]},"geometry":["point","area"],"matchScore":2,"terms":["u-stor-it"],"tags":{"brand:wikidata":"Q116225856","shop":"storage_rental"},"addTags":{"brand":"U-Stor-It","brand:wikidata":"Q116225856","name":"U-Stor-It","shop":"storage_rental"}},"shop/storage_rental/westcoastselfstorage-8e2904":{"name":"West Coast Self-Storage","locationSet":{"include":["us-ca","us-nv","us-or","us-wa"]},"geometry":["point","area"],"matchScore":2,"terms":["west coast self-storage"],"tags":{"brand:wikidata":"Q110084888","shop":"storage_rental"},"addTags":{"brand":"West Coast Self-Storage","brand:wikidata":"Q110084888","name":"West Coast Self-Storage","shop":"storage_rental"}},"shop/supermarket/belair-097dbf":{"name":"Bel Air","locationSet":{"include":["us-ca"]},"geometry":["point","area"],"matchScore":2,"terms":["bel air"],"tags":{"brand:wikidata":"Q112922067","shop":"supermarket"},"addTags":{"brand":"Bel Air","brand:wikidata":"Q112922067","name":"Bel Air","shop":"supermarket"}},"shop/supermarket/food4less-f69edf":{"name":"Food 4 Less","locationSet":{"include":["us-ca","us-il","us-in"]},"geometry":["point","area"],"matchScore":2,"terms":["food 4 less"],"tags":{"brand:wikidata":"Q5465282","shop":"supermarket"},"addTags":{"brand":"Food 4 Less","brand:wikidata":"Q5465282","name":"Food 4 Less","shop":"supermarket"}},"shop/supermarket/foodsco-097dbf":{"name":"Foods Co","locationSet":{"include":["us-ca"]},"geometry":["point","area"],"matchScore":2,"terms":["foods co"],"tags":{"brand:wikidata":"Q5465282","shop":"supermarket"},"addTags":{"brand":"Foods Co","brand:wikidata":"Q5465282","name":"Foods Co","shop":"supermarket"}},"shop/supermarket/gelsons-097dbf":{"name":"Gelson's","locationSet":{"include":["us-ca"]},"geometry":["point","area"],"matchScore":2,"terms":["gelson's"],"tags":{"brand:wikidata":"Q16993993","shop":"supermarket"},"addTags":{"brand":"Gelson's","brand:wikidata":"Q16993993","name":"Gelson's","shop":"supermarket"}},"shop/supermarket/raleys-097dbf":{"name":"Raley's","locationSet":{"include":["us-ca"]},"geometry":["point","area"],"matchScore":2,"terms":["raley's"],"tags":{"brand:wikidata":"Q7286970","shop":"supermarket"},"addTags":{"brand":"Raley's","brand:wikidata":"Q7286970","name":"Raley's","shop":"supermarket"}},"shop/supermarket/sfsupermarket-7c1bf0":{"name":"SF Supermarket","locationSet":{"include":["us-ca","us-nv","us-or","us-tx"]},"geometry":["point","area"],"matchScore":2,"terms":["sf supermarket","shun fat supermarket"],"tags":{"brand:wikidata":"Q7505012","shop":"supermarket"},"addTags":{"brand":"SF Supermarket","brand:wikidata":"Q7505012","cuisine":"asian","name":"SF Supermarket","name:en":"SF Supermarket","name:zh-Hans":"顺发超级市场","name:zh-Hant":"順發超級市場","shop":"supermarket"}},"shop/supermarket/smartandfinal-3441e2":{"name":"Smart & Final","locationSet":{"include":["mx","us-az","us-ca","us-nv"]},"geometry":["point","area"],"matchScore":2,"terms":["smart & final"],"tags":{"brand:wikidata":"Q7543916","shop":"supermarket"},"addTags":{"brand":"Smart & Final","brand:wikidata":"Q7543916","name":"Smart & Final","shop":"supermarket"}},"shop/supermarket/smartandfinalextra-140857":{"name":"Smart & Final Extra!","locationSet":{"include":["us-az","us-ca","us-nv"]},"geometry":["point","area"],"matchScore":2,"terms":["smart & final"],"tags":{"brand:wikidata":"Q7543916","shop":"supermarket"},"addTags":{"brand":"Smart & Final","brand:wikidata":"Q7543916","name":"Smart & Final Extra!","shop":"supermarket"}},"shop/trade/empirecat-9b5e16":{"name":"Empire CAT","locationSet":{"include":["us-az","us-ca"]},"geometry":["point","area"],"matchScore":2,"terms":["empire cat"],"tags":{"brand:wikidata":"Q109615341","shop":"trade"},"addTags":{"brand":"Empire CAT","brand:wikidata":"Q109615341","name":"Empire CAT","shop":"trade","trade":"construction_equipment"}},"shop/trade/petersoncat-a2ce56":{"name":"Peterson CAT","locationSet":{"include":["us-ca","us-or"]},"geometry":["point","area"],"matchScore":2,"terms":["peterson cat"],"tags":{"brand:wikidata":"Q109615287","shop":"trade"},"addTags":{"brand":"Peterson CAT","brand:wikidata":"Q109615287","name":"Peterson CAT","shop":"trade","trade":"construction_equipment"}},"shop/trade/quinncat-d6cd9f":{"name":"Quinn CAT","locationSet":{"include":["us-ca"]},"geometry":["point","area"],"matchScore":2,"terms":["quinn cat"],"tags":{"brand:wikidata":"Q109615328","shop":"trade"},"addTags":{"brand":"Quinn CAT","brand:wikidata":"Q109615328","name":"Quinn CAT","shop":"trade","trade":"construction_equipment"}},"tourism/hotel/yotel-ebcca5":{"name":"YOTEL","locationSet":{"include":["ae","ch","fx","gb","nl","pt","sg","tr","us-ca","us-dc","us-fl","us-ma","us-ny"]},"geometry":["point","area"],"matchScore":2,"terms":["yotel"],"fields":["name","brand","{tourism/hotel}"],"tags":{"brand:wikidata":"Q8046002","tourism":"hotel"},"addTags":{"brand":"YOTEL","brand:wikidata":"Q8046002","name":"YOTEL","tourism":"hotel"}},"tourism/information/californiawelcomecenter-35ab0a":{"name":"California Welcome Center","locationSet":{"include":["us-ca"]},"geometry":["point","vertex","area"],"matchScore":2,"terms":["california welcome center","cwc"],"fields":["name","brand","{tourism/information}"],"tags":{"brand:wikidata":"Q108415255","tourism":"information"},"addTags":{"brand":"California Welcome Center","brand:wikidata":"Q108415255","information":"office","name":"California Welcome Center","short_name":"CWC","tourism":"information"}},"amenity/clinic/dignityhealth-781184":{"name":"Dignity Health","locationSet":{"include":["us-az","us-ca","us-nv"]},"geometry":["point","area"],"matchScore":2,"terms":["dignity health"],"fields":["name","operator","{amenity/clinic}"],"reference":{"key":"amenity","value":"clinic"},"tags":{"amenity":"clinic","operator:wikidata":"Q5276334"},"addTags":{"amenity":"clinic","healthcare":"clinic","operator":"Dignity Health","operator:wikidata":"Q5276334"}},"amenity/clinic/ucsandiegohealth-40b2ce":{"name":"UC San Diego Health","locationSet":{"include":["us-ca"]},"geometry":["point","area"],"matchScore":2,"terms":["uc san diego health"],"fields":["name","operator","{amenity/clinic}"],"reference":{"key":"amenity","value":"clinic"},"tags":{"amenity":"clinic","operator:wikidata":"Q3547155"},"addTags":{"amenity":"clinic","healthcare":"clinic","operator":"UC San Diego Health","operator:wikidata":"Q3547155"}},"amenity/clinic/uclahealth-40b2ce":{"name":"UCLA Health","locationSet":{"include":["us-ca"]},"geometry":["point","area"],"matchScore":2,"terms":["ucla health"],"fields":["name","operator","{amenity/clinic}"],"reference":{"key":"amenity","value":"clinic"},"tags":{"amenity":"clinic","operator:wikidata":"Q18394900"},"addTags":{"amenity":"clinic","healthcare":"clinic","operator":"UCLA Health","operator:wikidata":"Q18394900"}},"amenity/fire_station/orangecountyfireauthority-8a59ad":{"name":"Orange County Fire Authority","locationSet":{"include":["us-ca"]},"geometry":["point","area"],"matchScore":2,"terms":["ocfa","orange county fire authority"],"tags":{"amenity":"fire_station","operator:wikidata":"Q7099566"},"addTags":{"amenity":"fire_station","operator":"Orange County Fire Authority","operator:wikidata":"Q7099566"}},"amenity/fire_station/sacramentometropolitanfiredistrict-8a59ad":{"name":"Sacramento Metropolitan Fire District","locationSet":{"include":["us-ca"]},"geometry":["point","area"],"matchScore":2,"terms":["sacramento metropolitan fire district"],"tags":{"amenity":"fire_station","operator:wikidata":"Q7396999"},"addTags":{"amenity":"fire_station","operator":"Sacramento Metropolitan Fire District","operator:wikidata":"Q7396999"}},"amenity/fire_station/sanbernardinocountyfireprotectiondistrict-8a59ad":{"name":"San Bernardino County Fire Protection District","locationSet":{"include":["us-ca"]},"geometry":["point","area"],"matchScore":2,"terms":["san bernardino county fire protection district","sbcofd"],"tags":{"amenity":"fire_station","operator:wikidata":"Q55632465"},"addTags":{"amenity":"fire_station","operator":"San Bernardino County Fire Protection District","operator:short":"SBCoFD","operator:wikidata":"Q55632465"}},"amenity/hospital/dignityhealth-a0d953":{"name":"Dignity Health","locationSet":{"include":["us-az","us-ca","us-nv"]},"geometry":["area","point"],"matchScore":2,"terms":["dignity health"],"fields":["name","operator","{amenity/hospital}"],"reference":{"key":"amenity","value":"hospital"},"tags":{"amenity":"hospital","operator:wikidata":"Q5276334"},"addTags":{"amenity":"hospital","healthcare":"hospital","operator":"Dignity Health","operator:wikidata":"Q5276334"}},"amenity/library/cityofsandiego-b5320b":{"name":"City of San Diego","locationSet":{"include":["us-ca"]},"geometry":["point","area"],"matchScore":2,"terms":["city of san diego"],"tags":{"amenity":"library","operator:wikidata":"Q16552"},"addTags":{"amenity":"library","operator":"City of San Diego","operator:type":"public","operator:wikidata":"Q16552"}},"amenity/library/ocpubliclibraries-b5320b":{"name":"OC Public Libraries","locationSet":{"include":["us-ca"]},"geometry":["point","area"],"matchScore":2,"terms":["oc public libraries","ocpl"],"tags":{"amenity":"library","operator:wikidata":"Q66369360"},"addTags":{"amenity":"library","operator":"OC Public Libraries","operator:short":"OCPL","operator:type":"public","operator:wikidata":"Q66369360"}},"amenity/library/sanbernardinocountylibrary-b5320b":{"name":"San Bernardino County Library","locationSet":{"include":["us-ca"]},"geometry":["point","area"],"matchScore":2,"terms":["san bernardino county library"],"tags":{"amenity":"library","operator:wikidata":"Q2901530"},"addTags":{"amenity":"library","operator":"San Bernardino County Library","operator:type":"public","operator:wikidata":"Q2901530"}},"amenity/library/sanfranciscopubliclibrary-b5320b":{"name":"San Francisco Public Library","locationSet":{"include":["us-ca"]},"geometry":["point","area"],"matchScore":2,"terms":["san francisco public library","sfpl"],"tags":{"amenity":"library","operator:wikidata":"Q2901530"},"addTags":{"amenity":"library","operator":"San Francisco Public Library","operator:short":"SFPL","operator:type":"public","operator:wikidata":"Q2901530"}},"amenity/library/sanjosepubliclibrary-b5320b":{"name":"San José Public Library","locationSet":{"include":["us-ca"]},"geometry":["point","area"],"matchScore":2,"terms":["san josé public library","sjpl"],"tags":{"amenity":"library","operator:wikidata":"Q1084981"},"addTags":{"amenity":"library","operator":"San José Public Library","operator:short":"SJPL","operator:type":"public","operator:wikidata":"Q1084981"}},"amenity/police/californiahighwaypatrol-5ab5b5":{"name":"California Highway Patrol","locationSet":{"include":["us-ca"]},"geometry":["point","area"],"matchScore":2,"terms":["california highway patrol","chp"],"tags":{"amenity":"police","operator:wikidata":"Q2249117"},"addTags":{"amenity":"police","operator":"California Highway Patrol","operator:short":"CHP","operator:wikidata":"Q2249117"}},"amenity/police/sanbernardinocountysheriffsdepartment-5ab5b5":{"name":"San Bernardino County Sheriff's Department","locationSet":{"include":["us-ca"]},"geometry":["point","area"],"matchScore":2,"terms":["san bernardino county sheriff's department","sbsd"],"tags":{"amenity":"police","operator:wikidata":"Q7413430"},"addTags":{"amenity":"police","operator":"San Bernardino County Sheriff's Department","operator:short":"SBSD","operator:wikidata":"Q7413430"}},"amenity/prison/californiadepartmentofcorrectionsandrehabilitation-8f7b9e":{"name":"California Department of Corrections and Rehabilitation","locationSet":{"include":["us-ca"]},"geometry":["area","point"],"matchScore":2,"terms":["california department of corrections and rehabilitation","cdcr"],"fields":["name","operator","{amenity/prison}"],"tags":{"amenity":"prison","operator:wikidata":"Q5020415"},"addTags":{"amenity":"prison","operator":"California Department of Corrections and Rehabilitation","operator:wikidata":"Q5020415"}},"amenity/school/alhambraelementaryschooldistrict-ff98ff":{"name":"Alhambra Elementary School District","locationSet":{"include":["us-ca"]},"geometry":["area","point"],"matchScore":2,"terms":["aesd","alhambra elementary school district"],"tags":{"amenity":"school","operator:wikidata":"Q14680260"},"addTags":{"amenity":"school","operator":"Alhambra Elementary School District","operator:short":"AESD","operator:type":"public","operator:wikidata":"Q14680260"}},"amenity/school/atascaderounifiedschooldistrict-ff98ff":{"name":"Atascadero Unified School District","locationSet":{"include":["us-ca"]},"geometry":["area","point"],"matchScore":2,"terms":["atascadero unified school district","ausd"],"tags":{"amenity":"school","operator:wikidata":"Q16834952"},"addTags":{"amenity":"school","operator":"Atascadero Unified School District","operator:short":"AUSD","operator:type":"public","operator:wikidata":"Q16834952"}},"amenity/school/chinovalleyunifiedschooldistrict-ff98ff":{"name":"Chino Valley Unified School District (California)","locationSet":{"include":["us-ca"]},"geometry":["area","point"],"matchScore":2,"terms":["chino valley unified school district","cvusd"],"tags":{"amenity":"school","operator:wikidata":"Q5101225"},"addTags":{"amenity":"school","operator":"Chino Valley Unified School District","operator:short":"CVUSD","operator:type":"public","operator:wikidata":"Q5101225"}},"amenity/school/chulavistaelementaryschooldistrict-ff98ff":{"name":"Chula Vista Elementary School District","locationSet":{"include":["us-ca"]},"geometry":["area","point"],"matchScore":2,"terms":["chula vista elementary school district","cvesd"],"tags":{"amenity":"school","operator:wikidata":"Q5116087"},"addTags":{"amenity":"school","operator":"Chula Vista Elementary School District","operator:short":"CVESD","operator:type":"public","operator:wikidata":"Q5116087"}},"amenity/school/coltonjointunifiedschooldistrict-ff98ff":{"name":"Colton Joint Unified School District","locationSet":{"include":["us-ca"]},"geometry":["area","point"],"matchScore":2,"terms":["colton joint unified school district"],"tags":{"amenity":"school","operator:wikidata":"Q5149475"},"addTags":{"amenity":"school","operator":"Colton Joint Unified School District","operator:type":"public","operator:wikidata":"Q5149475"}},"amenity/school/dioceseofsanjose-ff98ff":{"name":"Diocese of San José","locationSet":{"include":["us-ca"]},"geometry":["area","point"],"matchScore":2,"terms":["diocese of san josé"],"tags":{"amenity":"school","operator:wikidata":"Q875815"},"addTags":{"amenity":"school","operator":"Diocese of San José","operator:type":"religious","operator:wikidata":"Q875815"}},"amenity/school/escondidounionschooldistrict-ff98ff":{"name":"Escondido Union School District","locationSet":{"include":["us-ca"]},"geometry":["area","point"],"matchScore":2,"terms":["escondido union school district","eusd"],"tags":{"amenity":"school","operator:wikidata":"Q5397390"},"addTags":{"amenity":"school","operator":"Escondido Union School District","operator:short":"EUSD","operator:type":"public","operator:wikidata":"Q5397390"}},"amenity/school/fontanaunifiedschooldistrict-ff98ff":{"name":"Fontana Unified School District","locationSet":{"include":["us-ca"]},"geometry":["area","point"],"matchScore":2,"terms":["fontana unified school district","fusd"],"tags":{"amenity":"school","operator:wikidata":"Q16993574"},"addTags":{"amenity":"school","operator":"Fontana Unified School District","operator:short":"FUSD","operator:type":"public","operator:wikidata":"Q16993574"}},"amenity/school/luciamarunifiedschooldistrict-ff98ff":{"name":"Lucia Mar Unified School District","locationSet":{"include":["us-ca"]},"geometry":["area","point"],"matchScore":2,"terms":["lmusd","lucia mar unified school district"],"tags":{"amenity":"school","operator:wikidata":"Q6696653"},"addTags":{"amenity":"school","operator":"Lucia Mar Unified School District","operator:short":"LMUSD","operator:type":"public","operator:wikidata":"Q6696653"}},"amenity/school/mantecaunifiedschooldistrict-ff98ff":{"name":"Manteca Unified School District","locationSet":{"include":["us-ca"]},"geometry":["area","point"],"matchScore":2,"terms":["manteca unified school district","musd"],"tags":{"amenity":"school","operator:wikidata":"Q6752007"},"addTags":{"amenity":"school","operator":"Manteca Unified School District","operator:short":"MUSD","operator:type":"public","operator:wikidata":"Q6752007"}},"amenity/school/milpitasunifiedschooldistrict-ff98ff":{"name":"Milpitas Unified School District","locationSet":{"include":["us-ca"]},"geometry":["area","point"],"matchScore":2,"terms":["milpitas unified school district","musd"],"tags":{"amenity":"school","operator:wikidata":"Q6860712"},"addTags":{"amenity":"school","operator":"Milpitas Unified School District","operator:short":"MUSD","operator:type":"public","operator:wikidata":"Q6860712"}},"amenity/school/morganhillunifiedschooldistrict-ff98ff":{"name":"Morgan Hill Unified School District","locationSet":{"include":["us-ca"]},"geometry":["area","point"],"matchScore":2,"terms":["mhusd","morgan hill unified school district"],"tags":{"amenity":"school","operator:wikidata":"Q6911698"},"addTags":{"amenity":"school","operator":"Morgan Hill Unified School District","operator:short":"MHUSD","operator:type":"public","operator:wikidata":"Q6911698"}},"amenity/school/pasoroblesjointunifiedschooldistrict-ff98ff":{"name":"Paso Robles Joint Unified School District","locationSet":{"include":["us-ca"]},"geometry":["area","point"],"matchScore":2,"terms":["paso robles joint unified school district","prjusd"],"tags":{"amenity":"school","operator:wikidata":"Q7142256"},"addTags":{"amenity":"school","operator":"Paso Robles Joint Unified School District","operator:short":"PRJUSD","operator:type":"public","operator:wikidata":"Q7142256"}},"amenity/school/portervilleunifiedschooldistrict-ff98ff":{"name":"Porterville Unified School District","locationSet":{"include":["us-ca"]},"geometry":["area","point"],"matchScore":2,"terms":["porterville unified school district","pusd"],"tags":{"amenity":"school","operator:wikidata":"Q7231706"},"addTags":{"amenity":"school","operator":"Porterville Unified School District","operator:short":"PUSD","operator:type":"public","operator:wikidata":"Q7231706"}},"amenity/school/rialtounifiedschooldistrict-ff98ff":{"name":"Rialto Unified School District","locationSet":{"include":["us-ca"]},"geometry":["area","point"],"matchScore":2,"terms":["rialto unified school district","rusd"],"tags":{"amenity":"school","operator:wikidata":"Q7322152"},"addTags":{"amenity":"school","operator":"Rialto Unified School District","operator:short":"RUSD","operator:type":"public","operator:wikidata":"Q7322152"}},"amenity/school/sanfranciscounifiedschooldistrict-ff98ff":{"name":"San Francisco Unified School District","locationSet":{"include":["us-ca"]},"geometry":["area","point"],"matchScore":2,"terms":["san francisco unified school district","sfusd"],"tags":{"amenity":"school","operator:wikidata":"Q2215009"},"addTags":{"amenity":"school","operator":"San Francisco Unified School District","operator:short":"SFUSD","operator:type":"public","operator:wikidata":"Q2215009"}},"amenity/school/sanjuanunifiedschooldistrict-ff98ff":{"name":"San Juan Unified School District","locationSet":{"include":["us-ca"]},"geometry":["area","point"],"matchScore":2,"terms":["san juan unified school district","sjusd"],"tags":{"amenity":"school","operator:wikidata":"Q7414623"},"addTags":{"amenity":"school","operator":"San Juan Unified School District","operator:short":"SJUSD","operator:type":"public","operator:wikidata":"Q7414623"}},"amenity/school/sanluiscoastalunifiedschooldistrict-ff98ff":{"name":"San Luis Coastal Unified School District","locationSet":{"include":["us-ca"]},"geometry":["area","point"],"matchScore":2,"terms":["san luis coastal unified school district","slcusd"],"tags":{"amenity":"school","operator:wikidata":"Q28456675"},"addTags":{"amenity":"school","operator":"San Luis Coastal Unified School District","operator:short":"SLCUSD","operator:type":"public","operator:wikidata":"Q28456675"}},"amenity/school/sanramonvalleyunifiedschooldistrict-ff98ff":{"name":"San Ramon Valley Unified School District","locationSet":{"include":["us-ca"]},"geometry":["area","point"],"matchScore":2,"terms":["san ramon valley unified school district","srvusd"],"tags":{"amenity":"school","operator:wikidata":"Q7415231"},"addTags":{"amenity":"school","operator":"San Ramon Valley Unified School District","operator:short":"SRVUSD","operator:type":"public","operator:wikidata":"Q7415231"}},"amenity/school/santaclaraunifiedschooldistrict-ff98ff":{"name":"Santa Clara Unified School District","locationSet":{"include":["us-ca"]},"geometry":["area","point"],"matchScore":2,"terms":["santa clara unified school district","scusd"],"tags":{"amenity":"school","operator:wikidata":"Q7419336"},"addTags":{"amenity":"school","operator":"Santa Clara Unified School District","operator:short":"SCUSD","operator:type":"public","operator:wikidata":"Q7419336"}},"amenity/school/visaliaunifiedschooldistrict-ff98ff":{"name":"Visalia Unified School District","locationSet":{"include":["us-ca"]},"geometry":["area","point"],"matchScore":2,"terms":["visalia unified school district","vusd"],"tags":{"amenity":"school","operator:wikidata":"Q7935603"},"addTags":{"amenity":"school","operator":"Visalia Unified School District","operator:short":"VUSD","operator:type":"public","operator:wikidata":"Q7935603"}},"amenity/school/vistaunifiedschooldistrict-ff98ff":{"name":"Vista Unified School District","locationSet":{"include":["us-ca"]},"geometry":["area","point"],"matchScore":2,"terms":["vista unified school district","vusd"],"tags":{"amenity":"school","operator:wikidata":"Q7936471"},"addTags":{"amenity":"school","operator":"Vista Unified School District","operator:short":"VUSD","operator:type":"public","operator:wikidata":"Q7936471"}},"boundary/sempervirensfund-6f7339":{"name":"Sempervirens Fund","locationSet":{"include":["us-ca"]},"geometry":["line"],"matchScore":2,"terms":["sempervirens fund"],"tags":{"boundary":"protected_area","operator:wikidata":"Q16933960"},"addTags":{"boundary":"protected_area","operator":"Sempervirens Fund","operator:wikidata":"Q16933960"}},"landuse/residential/housingauthorityoftularecounty-01020c":{"name":"Housing Authority of Tulare County","locationSet":{"include":["us-ca"]},"geometry":["area"],"matchScore":2,"terms":["hatc","housing authority of tulare county"],"tags":{"landuse":"residential","operator:wikidata":"Q113507051"},"addTags":{"landuse":"residential","operator":"Housing Authority of Tulare County","operator:short":"HATC","operator:wikidata":"Q113507051","residential":"apartments"}},"leisure/nature_reserve/californiadepartmentofparksandrecreation-46dc27":{"name":"California State Parks","locationSet":{"include":["us-ca"]},"geometry":["area","point"],"matchScore":2,"terms":["california department of parks and recreation","california state parks"],"tags":{"leisure":"nature_reserve","operator:wikidata":"Q2933976"},"addTags":{"leisure":"nature_reserve","operator":"California Department of Parks and Recreation","operator:type":"public","operator:wikidata":"Q2933976"}},"leisure/nature_reserve/canyonlakepropertyownersassociation-46dc27":{"name":"Canyon Lake Property Owners Association","locationSet":{"include":["us-ca"]},"geometry":["area","point"],"matchScore":2,"terms":["canyon lake property owners association"],"tags":{"leisure":"nature_reserve","operator:wikidata":"Q110063605"},"addTags":{"leisure":"nature_reserve","operator":"Canyon Lake Property Owners Association","operator:type":"private","operator:wikidata":"Q110063605"}},"leisure/nature_reserve/cityofbrentwood-46dc27":{"name":"City of Brentwood (California)","locationSet":{"include":["us-ca"]},"geometry":["area","point"],"matchScore":2,"terms":["city of brentwood"],"tags":{"leisure":"nature_reserve","operator:wikidata":"Q846426"},"addTags":{"leisure":"nature_reserve","operator":"City of Brentwood","operator:type":"public","operator:wikidata":"Q846426"}},"leisure/nature_reserve/cityofemeryville-46dc27":{"name":"City of Emeryville","locationSet":{"include":["us-ca"]},"geometry":["area","point"],"matchScore":2,"terms":["city of emeryville"],"tags":{"leisure":"nature_reserve","operator:wikidata":"Q499178"},"addTags":{"leisure":"nature_reserve","operator":"City of Emeryville","operator:type":"public","operator:wikidata":"Q499178"}},"leisure/nature_reserve/cityoflakewood-46dc27":{"name":"City of Lakewood (California)","locationSet":{"include":["us-ca"]},"geometry":["area","point"],"matchScore":2,"terms":["city of lakewood"],"tags":{"leisure":"nature_reserve","operator:wikidata":"Q838757"},"addTags":{"leisure":"nature_reserve","operator":"City of Lakewood","operator:type":"public","operator:wikidata":"Q838757"}},"leisure/nature_reserve/cityoflancaster-46dc27":{"name":"City of Lancaster (California)","locationSet":{"include":["us-ca"]},"geometry":["area","point"],"matchScore":2,"terms":["city of lancaster"],"tags":{"leisure":"nature_reserve","operator:wikidata":"Q494711"},"addTags":{"leisure":"nature_reserve","operator":"City of Lancaster","operator:type":"public","operator:wikidata":"Q494711"}},"leisure/nature_reserve/cityofmartinez-46dc27":{"name":"City of Martinez","locationSet":{"include":["us-ca"]},"geometry":["area","point"],"matchScore":2,"terms":["city of martinez"],"tags":{"leisure":"nature_reserve","operator:wikidata":"Q506439"},"addTags":{"leisure":"nature_reserve","operator":"City of Martinez","operator:type":"public","operator:wikidata":"Q506439"}},"leisure/nature_reserve/cityofnapa-46dc27":{"name":"City of Napa","locationSet":{"include":["us-ca"]},"geometry":["area","point"],"matchScore":2,"terms":["city of napa"],"tags":{"leisure":"nature_reserve","operator:wikidata":"Q60537"},"addTags":{"leisure":"nature_reserve","operator":"City of Napa","operator:type":"public","operator:wikidata":"Q60537"}},"leisure/nature_reserve/cityofredlands-46dc27":{"name":"City of Redlands","locationSet":{"include":["us-ca"]},"geometry":["area","point"],"matchScore":2,"terms":["city of redlands"],"tags":{"leisure":"nature_reserve","operator:wikidata":"Q753830"},"addTags":{"leisure":"nature_reserve","operator":"City of Redlands","operator:type":"public","operator:wikidata":"Q753830"}},"leisure/nature_reserve/cityofrocklin-46dc27":{"name":"City of Rocklin","locationSet":{"include":["us-ca"]},"geometry":["area","point"],"matchScore":2,"terms":["city of rocklin"],"tags":{"leisure":"nature_reserve","operator:wikidata":"Q984599"},"addTags":{"leisure":"nature_reserve","operator":"City of Rocklin","operator:type":"public","operator:wikidata":"Q984599"}},"leisure/nature_reserve/cityofroseville-46dc27":{"name":"City of Roseville (California)","locationSet":{"include":["us-ca"]},"geometry":["area","point"],"matchScore":2,"terms":["city of roseville"],"tags":{"leisure":"nature_reserve","operator:wikidata":"Q491340"},"addTags":{"leisure":"nature_reserve","operator":"City of Roseville","operator:type":"public","operator:wikidata":"Q491340"}},"leisure/nature_reserve/cityoftracy-46dc27":{"name":"City Of Tracy (California)","locationSet":{"include":["us-ca"]},"geometry":["area","point"],"matchScore":2,"terms":["city of tracy"],"tags":{"leisure":"nature_reserve","operator:wikidata":"Q953409"},"addTags":{"leisure":"nature_reserve","operator":"City Of Tracy","operator:type":"public","operator:wikidata":"Q953409"}},"leisure/nature_reserve/cityofwatsonville-46dc27":{"name":"City of Watsonville","locationSet":{"include":["us-ca"]},"geometry":["area","point"],"matchScore":2,"terms":["city of watsonville","watsonville, city of"],"tags":{"leisure":"nature_reserve","operator:wikidata":"Q913543"},"addTags":{"leisure":"nature_reserve","operator":"City of Watsonville","operator:type":"public","operator:wikidata":"Q913543"}},"leisure/nature_reserve/eastbayregionalparkdistrict-46dc27":{"name":"East Bay Regional Park District","locationSet":{"include":["us-ca"]},"geometry":["area","point"],"matchScore":2,"terms":["east bay regional park district"],"tags":{"leisure":"nature_reserve","operator:wikidata":"Q4116375"},"addTags":{"leisure":"nature_reserve","operator":"East Bay Regional Park District","operator:type":"public","operator:wikidata":"Q4116375"}},"leisure/park/californiadepartmentofparksandrecreation-dc1787":{"name":"California State Parks","locationSet":{"include":["us-ca"]},"geometry":["area","point"],"matchScore":2,"terms":["california department of parks and recreation","california state parks"],"tags":{"leisure":"park","operator:wikidata":"Q2933976"},"addTags":{"leisure":"park","operator":"California Department of Parks and Recreation","operator:type":"public","operator:wikidata":"Q2933976"}},"leisure/park/canyonlakepropertyownersassociation-dc1787":{"name":"Canyon Lake Property Owners Association","locationSet":{"include":["us-ca"]},"geometry":["area","point"],"matchScore":2,"terms":["canyon lake property owners association"],"tags":{"leisure":"park","operator:wikidata":"Q110063605"},"addTags":{"leisure":"park","operator":"Canyon Lake Property Owners Association","operator:type":"private","operator:wikidata":"Q110063605"}},"leisure/park/cityofbrentwood-dc1787":{"name":"City of Brentwood (California)","locationSet":{"include":["us-ca"]},"geometry":["area","point"],"matchScore":2,"terms":["city of brentwood"],"tags":{"leisure":"park","operator:wikidata":"Q846426"},"addTags":{"leisure":"park","operator":"City of Brentwood","operator:type":"public","operator:wikidata":"Q846426"}},"leisure/park/cityofemeryville-dc1787":{"name":"City of Emeryville","locationSet":{"include":["us-ca"]},"geometry":["area","point"],"matchScore":2,"terms":["city of emeryville"],"tags":{"leisure":"park","operator:wikidata":"Q499178"},"addTags":{"leisure":"park","operator":"City of Emeryville","operator:type":"public","operator:wikidata":"Q499178"}},"leisure/park/cityoflakewood-dc1787":{"name":"City of Lakewood (California)","locationSet":{"include":["us-ca"]},"geometry":["area","point"],"matchScore":2,"terms":["city of lakewood"],"tags":{"leisure":"park","operator:wikidata":"Q838757"},"addTags":{"leisure":"park","operator":"City of Lakewood","operator:type":"public","operator:wikidata":"Q838757"}},"leisure/park/cityoflancaster-dc1787":{"name":"City of Lancaster (California)","locationSet":{"include":["us-ca"]},"geometry":["area","point"],"matchScore":2,"terms":["city of lancaster"],"tags":{"leisure":"park","operator:wikidata":"Q494711"},"addTags":{"leisure":"park","operator":"City of Lancaster","operator:type":"public","operator:wikidata":"Q494711"}},"leisure/park/cityofmartinez-dc1787":{"name":"City of Martinez","locationSet":{"include":["us-ca"]},"geometry":["area","point"],"matchScore":2,"terms":["city of martinez"],"tags":{"leisure":"park","operator:wikidata":"Q506439"},"addTags":{"leisure":"park","operator":"City of Martinez","operator:type":"public","operator:wikidata":"Q506439"}},"leisure/park/cityofnapa-dc1787":{"name":"City of Napa","locationSet":{"include":["us-ca"]},"geometry":["area","point"],"matchScore":2,"terms":["city of napa"],"tags":{"leisure":"park","operator:wikidata":"Q60537"},"addTags":{"leisure":"park","operator":"City of Napa","operator:type":"public","operator:wikidata":"Q60537"}},"leisure/park/cityofredlands-dc1787":{"name":"City of Redlands","locationSet":{"include":["us-ca"]},"geometry":["area","point"],"matchScore":2,"terms":["city of redlands"],"tags":{"leisure":"park","operator:wikidata":"Q753830"},"addTags":{"leisure":"park","operator":"City of Redlands","operator:type":"public","operator:wikidata":"Q753830"}},"leisure/park/cityofrocklin-dc1787":{"name":"City of Rocklin","locationSet":{"include":["us-ca"]},"geometry":["area","point"],"matchScore":2,"terms":["city of rocklin"],"tags":{"leisure":"park","operator:wikidata":"Q984599"},"addTags":{"leisure":"park","operator":"City of Rocklin","operator:type":"public","operator:wikidata":"Q984599"}},"leisure/park/cityofroseville-dc1787":{"name":"City of Roseville (California)","locationSet":{"include":["us-ca"]},"geometry":["area","point"],"matchScore":2,"terms":["city of roseville"],"tags":{"leisure":"park","operator:wikidata":"Q491340"},"addTags":{"leisure":"park","operator":"City of Roseville","operator:type":"public","operator:wikidata":"Q491340"}},"leisure/park/cityoftracy-dc1787":{"name":"City Of Tracy (California)","locationSet":{"include":["us-ca"]},"geometry":["area","point"],"matchScore":2,"terms":["city of tracy"],"tags":{"leisure":"park","operator:wikidata":"Q953409"},"addTags":{"leisure":"park","operator":"City Of Tracy","operator:type":"public","operator:wikidata":"Q953409"}},"leisure/park/cityofwatsonville-dc1787":{"name":"City of Watsonville","locationSet":{"include":["us-ca"]},"geometry":["area","point"],"matchScore":2,"terms":["city of watsonville","watsonville, city of"],"tags":{"leisure":"park","operator:wikidata":"Q913543"},"addTags":{"leisure":"park","operator":"City of Watsonville","operator:type":"public","operator:wikidata":"Q913543"}},"leisure/park/eastbayregionalparkdistrict-dc1787":{"name":"East Bay Regional Park District","locationSet":{"include":["us-ca"]},"geometry":["area","point"],"matchScore":2,"terms":["east bay regional park district"],"tags":{"leisure":"park","operator:wikidata":"Q4116375"},"addTags":{"leisure":"park","operator":"East Bay Regional Park District","operator:type":"public","operator:wikidata":"Q4116375"}},"man_made/pipeline/metropolitanwaterdistrictofsoutherncalifornia-3e913e":{"name":"Metropolitan Water District of Southern California","locationSet":{"include":["us-ca"]},"geometry":["line"],"matchScore":2,"terms":["metropolitan water district of southern california","mwd"],"tags":{"man_made":"pipeline","operator:wikidata":"Q6825323"},"addTags":{"man_made":"pipeline","operator":"Metropolitan Water District of Southern California","operator:short":"MWD","operator:wikidata":"Q6825323"}},"man_made/pipeline/southwestgas-19dc0e":{"name":"Southwest Gas","locationSet":{"include":["us-az","us-ca","us-nv"]},"geometry":["line"],"matchScore":2,"terms":["southwest gas"],"tags":{"man_made":"pipeline","operator:wikidata":"Q7571280"},"addTags":{"man_made":"pipeline","operator":"Southwest Gas","operator:wikidata":"Q7571280","substance":"gas"}},"man_made/wastewater_plant/losangelesdepartmentofwaterandpower-f08e14":{"name":"LADWP","locationSet":{"include":["us-ca"]},"geometry":["point","area"],"matchScore":2,"terms":["ladwp","los angeles department of water and power"],"tags":{"man_made":"wastewater_plant","operator:wikidata":"Q3259704"},"addTags":{"man_made":"wastewater_plant","operator":"Los Angeles Department of Water and Power","operator:short":"LADWP","operator:wikidata":"Q3259704"}},"man_made/water_works/losangelesdepartmentofwaterandpower-19993d":{"name":"LADWP","locationSet":{"include":["us-ca"]},"geometry":["point","area"],"matchScore":2,"terms":["ladwp","los angeles department of water & power"],"tags":{"man_made":"water_works","operator:wikidata":"Q3259704"},"addTags":{"man_made":"water_works","operator":"Los Angeles Department of Water & Power","operator:short":"LADWP","operator:wikidata":"Q3259704"}},"natural/water/losangelesdepartmentofwaterandpower-7ff67e":{"name":"LADWP","locationSet":{"include":["us-ca"]},"geometry":["area"],"matchScore":2,"terms":["ladwp","los angeles department of water & power"],"tags":{"natural":"water","operator:wikidata":"Q3259704"},"addTags":{"natural":"water","operator":"Los Angeles Department of Water & Power","operator:short":"LADWP","operator:wikidata":"Q3259704","water":"reservoir"}},"office/government/californiadepartmentofforestryandfireprotection-2a14ff":{"name":"Cal Fire","locationSet":{"include":["us-ca"]},"geometry":["point","area"],"matchScore":2,"terms":["cal fire","california department of forestry and fire protection"],"fields":["name","operator","{office/government}"],"tags":{"office":"government","operator:wikidata":"Q5020422"},"addTags":{"office":"government","operator":"California Department of Forestry and Fire Protection","operator:short":"Cal Fire","operator:wikidata":"Q5020422"}},"office/government/californiadepartmentofmotorvehicles-2a14ff":{"name":"California DMV","locationSet":{"include":["us-ca"]},"geometry":["point","area"],"matchScore":2,"terms":["california department of motor vehicles","california dmv","dmv"],"fields":["name","operator","{office/government}"],"tags":{"office":"government","operator:wikidata":"Q5020431"},"addTags":{"government":"transportation","office":"government","operator":"California Department of Motor Vehicles","operator:short":"California DMV","operator:wikidata":"Q5020431"}},"office/government/losangelesdepartmentofwaterandpower-2a14ff":{"name":"LADWP","locationSet":{"include":["us-ca"]},"geometry":["point","area"],"matchScore":2,"terms":["ladwp","los angeles department of water & power"],"fields":["name","operator","{office/government}"],"tags":{"office":"government","operator:wikidata":"Q3259704"},"addTags":{"government":"public_utility","office":"government","operator":"Los Angeles Department of Water & Power","operator:short":"LADWP","operator:wikidata":"Q3259704"}},"pipeline/substation/metropolitanwaterdistrictofsoutherncalifornia-2125b6":{"name":"Metropolitan Water District of Southern California","locationSet":{"include":["us-ca"]},"geometry":["area","point"],"matchScore":2,"terms":["metropolitan water district of southern california","mwd"],"tags":{"operator:wikidata":"Q6825323","pipeline":"substation"},"addTags":{"operator":"Metropolitan Water District of Southern California","operator:short":"MWD","operator:wikidata":"Q6825323","pipeline":"substation"}},"pipeline/substation/southwestgas-5b19b8":{"name":"Southwest Gas","locationSet":{"include":["us-az","us-ca","us-nv"]},"geometry":["area","point"],"matchScore":2,"terms":["southwest gas"],"tags":{"operator:wikidata":"Q7571280","pipeline":"substation"},"addTags":{"operator":"Southwest Gas","operator:wikidata":"Q7571280","pipeline":"substation","substance":"gas"}},"power/catenary_mast/californiahighspeedrailauthority-b614de":{"name":"California High Speed Rail Authority","locationSet":{"include":["us-ca"]},"geometry":["point","vertex"],"matchScore":2,"terms":["california high speed rail authority","chsra"],"tags":{"operator:wikidata":"Q5020545","power":"catenary_mast"},"addTags":{"operator":"California High Speed Rail Authority","operator:short":"CHSRA","operator:wikidata":"Q5020545","power":"catenary_mast"}},"power/catenary_mast/sanjoaquinvalleyrailroad-b614de":{"name":"San Joaquin Valley Railroad","locationSet":{"include":["us-ca"]},"geometry":["point","vertex"],"matchScore":2,"terms":["san joaquin valley railroad","sjvr"],"tags":{"operator:wikidata":"Q7414408","power":"catenary_mast"},"addTags":{"operator":"San Joaquin Valley Railroad","operator:wikidata":"Q7414408","power":"catenary_mast"}},"power/line/imperialirrigationdistrict-eefbc4":{"name":"Imperial Irrigation District","locationSet":{"include":["us-ca"]},"geometry":["line"],"matchScore":2,"terms":["iid","imperial irrigation district"],"tags":{"operator:wikidata":"Q16985775","power":"line"},"addTags":{"operator":"Imperial Irrigation District","operator:short":"IID","operator:wikidata":"Q16985775","power":"line"}},"power/line/losangelesdepartmentofwaterandpower-eefbc4":{"name":"LADWP","locationSet":{"include":["us-ca"]},"geometry":["line"],"matchScore":2,"terms":["ladwp","los angeles department of water and power"],"tags":{"operator:wikidata":"Q3259704","power":"line"},"addTags":{"operator":"Los Angeles Department of Water and Power","operator:short":"LADWP","operator:wikidata":"Q3259704","power":"line"}},"power/line/pacificpower-4146e4":{"name":"Pacific Power","locationSet":{"include":["us-ca","us-or","us-wa"]},"geometry":["line"],"matchScore":2,"terms":["pacific power"],"tags":{"operator:wikidata":"Q2045479","power":"line"},"addTags":{"operator":"Pacific Power","operator:wikidata":"Q2045479","power":"line"}},"power/line/southerncaliforniaedison-eefbc4":{"name":"Southern California Edison","locationSet":{"include":["us-ca"]},"geometry":["line"],"matchScore":2,"terms":["sce","southern california edison","southern california edison company"],"tags":{"operator:wikidata":"Q1706317","power":"line"},"addTags":{"operator":"Southern California Edison","operator:short":"SCE","operator:wikidata":"Q1706317","power":"line"}},"power/minor_line/imperialirrigationdistrict-16d513":{"name":"Imperial Irrigation District","locationSet":{"include":["us-ca"]},"geometry":["line"],"matchScore":2,"terms":["iid","imperial irrigation district"],"tags":{"operator:wikidata":"Q16985775","power":"minor_line"},"addTags":{"operator":"Imperial Irrigation District","operator:short":"IID","operator:wikidata":"Q16985775","power":"minor_line"}},"power/minor_line/losangelesdepartmentofwaterandpower-16d513":{"name":"LADWP","locationSet":{"include":["us-ca"]},"geometry":["line"],"matchScore":2,"terms":["ladwp","los angeles department of water and power"],"tags":{"operator:wikidata":"Q3259704","power":"minor_line"},"addTags":{"operator":"Los Angeles Department of Water and Power","operator:short":"LADWP","operator:wikidata":"Q3259704","power":"minor_line"}},"power/minor_line/pacificpower-151384":{"name":"Pacific Power","locationSet":{"include":["us-ca","us-or","us-wa"]},"geometry":["line"],"matchScore":2,"terms":["pacific power"],"tags":{"operator:wikidata":"Q2045479","power":"minor_line"},"addTags":{"operator":"Pacific Power","operator:wikidata":"Q2045479","power":"minor_line"}},"power/minor_line/southerncaliforniaedison-16d513":{"name":"Southern California Edison","locationSet":{"include":["us-ca"]},"geometry":["line"],"matchScore":2,"terms":["sce","southern california edison","southern california edison company"],"tags":{"operator:wikidata":"Q1706317","power":"minor_line"},"addTags":{"operator":"Southern California Edison","operator:short":"SCE","operator:wikidata":"Q1706317","power":"minor_line"}},"power/plant/imperialirrigationdistrict-190d94":{"name":"Imperial Irrigation District","locationSet":{"include":["us-ca"]},"geometry":["area"],"matchScore":2,"terms":["iid","imperial irrigation district"],"tags":{"operator:wikidata":"Q16985775","power":"plant"},"addTags":{"operator":"Imperial Irrigation District","operator:short":"IID","operator:wikidata":"Q16985775","power":"plant"}},"power/plant/losangelesdepartmentofwaterandpower-190d94":{"name":"LADWP","locationSet":{"include":["us-ca"]},"geometry":["area"],"matchScore":2,"terms":["ladwp","los angeles department of water and power"],"tags":{"operator:wikidata":"Q3259704","power":"plant"},"addTags":{"operator":"Los Angeles Department of Water and Power","operator:short":"LADWP","operator:wikidata":"Q3259704","power":"plant"}},"power/plant/sacramentomunicipalutilitydistrict-190d94":{"name":"Sacramento Municipal Utility District","locationSet":{"include":["us-ca"]},"geometry":["area"],"matchScore":2,"terms":["sacramento municipal util dist","sacramento municipal utility district","smud"],"tags":{"operator:wikidata":"Q7397001","power":"plant"},"addTags":{"operator":"Sacramento Municipal Utility District","operator:short":"SMUD","operator:wikidata":"Q7397001","power":"plant"}},"power/plant/southerncaliforniaedison-190d94":{"name":"Southern California Edison","locationSet":{"include":["us-ca"]},"geometry":["area"],"matchScore":2,"terms":["sce","southern california edison","southern california edison co"],"tags":{"operator:wikidata":"Q1706317","power":"plant"},"addTags":{"operator":"Southern California Edison","operator:short":"SCE","operator:wikidata":"Q1706317","power":"plant"}},"power/pole/imperialirrigationdistrict-4d73bd":{"name":"Imperial Irrigation District","locationSet":{"include":["us-ca"]},"geometry":["point","vertex"],"matchScore":2,"terms":["iid","imperial irrigation district"],"tags":{"operator:wikidata":"Q16985775","power":"pole"},"addTags":{"operator":"Imperial Irrigation District","operator:short":"IID","operator:wikidata":"Q16985775","power":"pole"}},"power/pole/losangelesdepartmentofwaterandpower-4d73bd":{"name":"LADWP","locationSet":{"include":["us-ca"]},"geometry":["point","vertex"],"matchScore":2,"terms":["ladwp","los angeles department of water and power"],"tags":{"operator:wikidata":"Q3259704","power":"pole"},"addTags":{"operator":"Los Angeles Department of Water and Power","operator:short":"LADWP","operator:wikidata":"Q3259704","power":"pole"}},"power/pole/pacificpower-c4cc72":{"name":"Pacific Power","locationSet":{"include":["us-ca","us-or","us-wa"]},"geometry":["point","vertex"],"matchScore":2,"terms":["pacific power"],"tags":{"operator:wikidata":"Q2045479","power":"pole"},"addTags":{"operator":"Pacific Power","operator:wikidata":"Q2045479","power":"pole"}},"power/pole/southerncaliforniaedison-4d73bd":{"name":"Southern California Edison","locationSet":{"include":["us-ca"]},"geometry":["point","vertex"],"matchScore":2,"terms":["sce","southern california edison","southern california edison company"],"tags":{"operator:wikidata":"Q1706317","power":"pole"},"addTags":{"operator":"Southern California Edison","operator:short":"SCE","operator:wikidata":"Q1706317","power":"pole"}},"power/substation/imperialirrigationdistrict-9f24bd":{"name":"Imperial Irrigation District","locationSet":{"include":["us-ca"]},"geometry":["area","point"],"matchScore":2,"terms":["iid","imperial irrigation district"],"tags":{"operator:wikidata":"Q16985775","power":"substation"},"addTags":{"operator":"Imperial Irrigation District","operator:short":"IID","operator:wikidata":"Q16985775","power":"substation"}},"power/substation/losangelesdepartmentofwaterandpower-9f24bd":{"name":"LADWP","locationSet":{"include":["us-ca"]},"geometry":["area","point"],"matchScore":2,"terms":["ladwp","los angeles department of water and power"],"tags":{"operator:wikidata":"Q3259704","power":"substation"},"addTags":{"operator":"Los Angeles Department of Water and Power","operator:short":"LADWP","operator:wikidata":"Q3259704","power":"substation"}},"power/substation/pacificpower-890f83":{"name":"Pacific Power","locationSet":{"include":["us-ca","us-or","us-wa"]},"geometry":["area","point"],"matchScore":2,"terms":["pacific power"],"tags":{"operator:wikidata":"Q2045479","power":"substation"},"addTags":{"operator":"Pacific Power","operator:wikidata":"Q2045479","power":"substation"}},"power/substation/southerncaliforniaedison-9f24bd":{"name":"Southern California Edison","locationSet":{"include":["us-ca"]},"geometry":["area","point"],"matchScore":2,"terms":["sce","southern california edison","southern california edison company"],"tags":{"operator:wikidata":"Q1706317","power":"substation"},"addTags":{"operator":"Southern California Edison","operator:short":"SCE","operator:wikidata":"Q1706317","power":"substation"}},"power/tower/imperialirrigationdistrict-bc3f25":{"name":"Imperial Irrigation District","locationSet":{"include":["us-ca"]},"geometry":["point","vertex"],"matchScore":2,"terms":["iid","imperial irrigation district"],"tags":{"operator:wikidata":"Q16985775","power":"tower"},"addTags":{"operator":"Imperial Irrigation District","operator:short":"IID","operator:wikidata":"Q16985775","power":"tower"}},"power/tower/losangelesdepartmentofwaterandpower-bc3f25":{"name":"LADWP","locationSet":{"include":["us-ca"]},"geometry":["point","vertex"],"matchScore":2,"terms":["ladwp","los angeles department of water and power"],"tags":{"operator:wikidata":"Q3259704","power":"tower"},"addTags":{"operator":"Los Angeles Department of Water and Power","operator:short":"LADWP","operator:wikidata":"Q3259704","power":"tower"}},"power/tower/pacificpower-410860":{"name":"Pacific Power","locationSet":{"include":["us-ca","us-or","us-wa"]},"geometry":["point","vertex"],"matchScore":2,"terms":["pacific power"],"tags":{"operator:wikidata":"Q2045479","power":"tower"},"addTags":{"operator":"Pacific Power","operator:wikidata":"Q2045479","power":"tower"}},"power/tower/southerncaliforniaedison-bc3f25":{"name":"Southern California Edison","locationSet":{"include":["us-ca"]},"geometry":["point","vertex"],"matchScore":2,"terms":["sce","southern california edison","southern california edison company"],"tags":{"operator:wikidata":"Q1706317","power":"tower"},"addTags":{"operator":"Southern California Edison","operator:short":"SCE","operator:wikidata":"Q1706317","power":"tower"}},"power/transformer/imperialirrigationdistrict-a1ef23":{"name":"Imperial Irrigation District","locationSet":{"include":["us-ca"]},"geometry":["point","vertex"],"matchScore":2,"terms":["iid","imperial irrigation district"],"tags":{"operator:wikidata":"Q16985775","power":"transformer"},"addTags":{"operator":"Imperial Irrigation District","operator:short":"IID","operator:wikidata":"Q16985775","power":"transformer"}},"power/transformer/losangelesdepartmentofwaterandpower-a1ef23":{"name":"LADWP","locationSet":{"include":["us-ca"]},"geometry":["point","vertex"],"matchScore":2,"terms":["ladwp","los angeles department of water and power"],"tags":{"operator:wikidata":"Q3259704","power":"transformer"},"addTags":{"operator":"Los Angeles Department of Water and Power","operator:short":"LADWP","operator:wikidata":"Q3259704","power":"transformer"}},"power/transformer/pacificpower-b7667c":{"name":"Pacific Power","locationSet":{"include":["us-ca","us-or","us-wa"]},"geometry":["point","vertex"],"matchScore":2,"terms":["pacific power"],"tags":{"operator:wikidata":"Q2045479","power":"transformer"},"addTags":{"operator":"Pacific Power","operator:wikidata":"Q2045479","power":"transformer"}},"power/transformer/southerncaliforniaedison-a1ef23":{"name":"Southern California Edison","locationSet":{"include":["us-ca"]},"geometry":["point","vertex"],"matchScore":2,"terms":["sce","southern california edison","southern california edison company"],"tags":{"operator:wikidata":"Q1706317","power":"transformer"},"addTags":{"operator":"Southern California Edison","operator:short":"SCE","operator:wikidata":"Q1706317","power":"transformer"}},"type/route/railway/californiahighspeedrailauthority-86f3a2":{"name":"California High Speed Rail Authority","locationSet":{"include":["us-ca"]},"geometry":["relation"],"matchScore":2,"terms":["california high speed rail authority","chsra"],"reference":{"key":"route","value":"railway"},"tags":{"operator:wikidata":"Q5020545","route":"railway","type":"route"},"addTags":{"operator":"California High Speed Rail Authority","operator:short":"CHSRA","operator:wikidata":"Q5020545","route":"railway","type":"route"}},"type/route/railway/sanjoaquinvalleyrailroad-86f3a2":{"name":"San Joaquin Valley Railroad","locationSet":{"include":["us-ca"]},"geometry":["relation"],"matchScore":2,"terms":["san joaquin valley railroad","sjvr"],"reference":{"key":"route","value":"railway"},"tags":{"operator:wikidata":"Q7414408","route":"railway","type":"route"},"addTags":{"operator":"San Joaquin Valley Railroad","operator:wikidata":"Q7414408","route":"railway","type":"route"}},"shop/charity/goodwillindustriesofsandiegocounty-efc9f2":{"name":"Goodwill Industries of San Diego County","locationSet":{"include":["us-ca"]},"geometry":["point","area"],"matchScore":2,"terms":["goodwill","goodwill industries of san diego county"],"tags":{"operator:wikidata":"Q114928055","shop":"charity"},"addTags":{"brand":"Goodwill","brand:wikidata":"Q5583655","name":"Goodwill","operator":"Goodwill Industries of San Diego County","operator:wikidata":"Q114928055","shop":"charity"}},"shop/charity/goodwillindustriesofsanjoaquinvalley-efc9f2":{"name":"Goodwill Industries of San Joaquin Valley","locationSet":{"include":["us-ca"]},"geometry":["point","area"],"matchScore":2,"terms":["goodwill","goodwill industries of san joaquin valley"],"tags":{"operator:wikidata":"Q114928332","shop":"charity"},"addTags":{"brand":"Goodwill","brand:wikidata":"Q5583655","name":"Goodwill","operator":"Goodwill Industries of San Joaquin Valley","operator:wikidata":"Q114928332","shop":"charity"}},"shop/charity/goodwillindustriesofsouthcentralcalifornia-efc9f2":{"name":"Goodwill Industries of South Central California","locationSet":{"include":["us-ca"]},"geometry":["point","area"],"matchScore":2,"terms":["goodwill","goodwill industries of south central california"],"tags":{"operator:wikidata":"Q114928233","shop":"charity"},"addTags":{"brand":"Goodwill","brand:wikidata":"Q5583655","name":"Goodwill","operator":"Goodwill Industries of South Central California","operator:wikidata":"Q114928233","shop":"charity"}},"shop/charity/goodwillindustriesofthegreatereastbay-efc9f2":{"name":"Goodwill Industries of the Greater East Bay","locationSet":{"include":["us-ca"]},"geometry":["point","area"],"matchScore":2,"terms":["goodwill","goodwill industries of the greater east bay"],"tags":{"operator:wikidata":"Q114928949","shop":"charity"},"addTags":{"brand":"Goodwill","brand:wikidata":"Q5583655","name":"Goodwill","operator":"Goodwill Industries of the Greater East Bay","operator:wikidata":"Q114928949","shop":"charity"}},"shop/charity/goodwillofsiliconvalley-efc9f2":{"name":"Goodwill of Silicon Valley","locationSet":{"include":["us-ca"]},"geometry":["point","area"],"matchScore":2,"terms":["goodwill","goodwill of silicon valley"],"tags":{"operator:wikidata":"Q54624081","shop":"charity"},"addTags":{"brand":"Goodwill","brand:wikidata":"Q5583655","name":"Goodwill","operator":"Goodwill of Silicon Valley","operator:wikidata":"Q54624081","shop":"charity"}},"shop/charity/goodwillredwoodempire-efc9f2":{"name":"Goodwill Redwood Empire","locationSet":{"include":["us-ca"]},"geometry":["point","area"],"matchScore":2,"terms":["goodwill","goodwill redwood empire"],"tags":{"operator:wikidata":"Q114929008","shop":"charity"},"addTags":{"brand":"Goodwill","brand:wikidata":"Q5583655","name":"Goodwill","operator":"Goodwill Redwood Empire","operator:wikidata":"Q114929008","shop":"charity"}},"shop/charity/goodwillsacramentovalleyandnorthernnevada-d1b13f":{"name":"Goodwill Sacramento Valley & Northern Nevada","locationSet":{"include":["us-ca","us-nv"]},"geometry":["point","area"],"matchScore":2,"terms":["goodwill","goodwill sacramento valley & northern nevada"],"tags":{"operator:wikidata":"Q114928572","shop":"charity"},"addTags":{"brand":"Goodwill","brand:wikidata":"Q5583655","name":"Goodwill","operator":"Goodwill Sacramento Valley & Northern Nevada","operator:wikidata":"Q114928572","shop":"charity"}},"shop/charity/goodwillofsanfranciscobay-efc9f2":{"name":"Goodwill SF Bay","locationSet":{"include":["us-ca"]},"geometry":["point","area"],"matchScore":2,"terms":["goodwill","goodwill of san francisco bay"],"tags":{"operator:wikidata":"Q114928725","shop":"charity"},"addTags":{"brand":"Goodwill","brand:wikidata":"Q5583655","name":"Goodwill","operator":"Goodwill of San Francisco Bay","operator:wikidata":"Q114928725","shop":"charity"}},"shop/charity/goodwillsoutherncalifornia-efc9f2":{"name":"Goodwill Southern California","locationSet":{"include":["us-ca"]},"geometry":["point","area"],"matchScore":2,"terms":["goodwill","goodwill southern california"],"tags":{"operator:wikidata":"Q54622673","shop":"charity"},"addTags":{"brand":"Goodwill","brand:wikidata":"Q5583655","name":"Goodwill","operator":"Goodwill Southern California","operator:wikidata":"Q54622673","shop":"charity"}},"shop/charity/goodwillindustriesofventuraandsantabarbaracounties-efc9f2":{"name":"Goodwill VSB","locationSet":{"include":["us-ca"]},"geometry":["point","area"],"matchScore":2,"terms":["goodwill","goodwill industries of ventura and santa barbara counties"],"tags":{"operator:wikidata":"Q114923002","shop":"charity"},"addTags":{"brand":"Goodwill","brand:wikidata":"Q5583655","name":"Goodwill","operator":"Goodwill Industries of Ventura and Santa Barbara Counties","operator:wikidata":"Q114923002","shop":"charity"}},"shop/charity/southernoregongoodwillindustries-175839":{"name":"Southern Oregon Goodwill Industries","locationSet":{"include":["us-ca","us-or"]},"geometry":["point","area"],"matchScore":2,"terms":["goodwill","southern oregon goodwill industries"],"tags":{"operator:wikidata":"Q114921417","shop":"charity"},"addTags":{"brand":"Goodwill","brand:wikidata":"Q5583655","name":"Goodwill","operator":"Southern Oregon Goodwill Industries","operator:wikidata":"Q114921417","shop":"charity"}},"public_transport/platform/bus_point/actransit-e0ee7e":{"name":"AC Transit","locationSet":{"include":["us-ca"]},"geometry":["point","vertex"],"matchScore":2,"terms":["ac transit"],"reference":{"key":"public_transport","value":"platform"},"tags":{"bus":"yes","network:wikidata":"Q4353850","public_transport":"platform"},"addTags":{"bus":"yes","highway":"bus_stop","network":"AC Transit","network:wikidata":"Q4353850","public_transport":"platform"}},"public_transport/platform/bus_point/antelopevalleytransitauthority-e0ee7e":{"name":"Antelope Valley Transit Authority","locationSet":{"include":["us-ca"]},"geometry":["point","vertex"],"matchScore":2,"terms":["antelope valley transit authority","avta","transdev"],"reference":{"key":"public_transport","value":"platform"},"tags":{"bus":"yes","network:wikidata":"Q4771209","public_transport":"platform"},"addTags":{"bus":"yes","highway":"bus_stop","network":"Antelope Valley Transit Authority","network:short":"AVTA","network:wikidata":"Q4771209","operator":"Transdev","public_transport":"platform"}},"public_transport/platform/bus_point/anaheimresorttransit-e0ee7e":{"name":"ART","locationSet":{"include":["us-ca"]},"geometry":["point","vertex"],"matchScore":2,"terms":["anaheim resort transit","art","transdev"],"reference":{"key":"public_transport","value":"platform"},"tags":{"bus":"yes","network:wikidata":"Q4750893","public_transport":"platform"},"addTags":{"bus":"yes","highway":"bus_stop","network":"Anaheim Resort Transit","network:short":"ART","network:wikidata":"Q4750893","operator":"Transdev","public_transport":"platform"}},"public_transport/platform/bus_point/bline-e0ee7e":{"name":"B-Line","locationSet":{"include":["us-ca"]},"geometry":["point","vertex"],"matchScore":2,"terms":["b-line","butte regional transit"],"reference":{"key":"public_transport","value":"platform"},"tags":{"bus":"yes","network:wikidata":"Q5002811","public_transport":"platform"},"addTags":{"bus":"yes","highway":"bus_stop","network":"B-Line","network:wikidata":"Q5002811","operator":"Butte Regional Transit","public_transport":"platform"}},"public_transport/platform/bus_point/bigbluebus-e0ee7e":{"name":"Big Blue Bus","locationSet":{"include":["us-ca"]},"geometry":["point","vertex"],"matchScore":2,"terms":["big blue bus","city of santa monica"],"reference":{"key":"public_transport","value":"platform"},"tags":{"bus":"yes","network:wikidata":"Q4905149","public_transport":"platform"},"addTags":{"bus":"yes","highway":"bus_stop","network":"Big Blue Bus","network:wikidata":"Q4905149","operator":"City of Santa Monica","operator:wikidata":"Q47164","public_transport":"platform"}},"public_transport/platform/bus_point/breeze-e0ee7e":{"name":"BREEZE","locationSet":{"include":["us-ca"]},"geometry":["point","vertex"],"matchScore":2,"terms":["breeze","nctd","north county transit district"],"reference":{"key":"public_transport","value":"platform"},"tags":{"bus":"yes","network:wikidata":"Q7054956","public_transport":"platform"},"addTags":{"bus":"yes","highway":"bus_stop","network":"BREEZE","network:wikidata":"Q7054956","operator":"North County Transit District","public_transport":"platform"}},"public_transport/platform/bus_point/commuteorg-e0ee7e":{"name":"Commute.org","locationSet":{"include":["us-ca"]},"geometry":["point","vertex"],"matchScore":2,"terms":["commute.org"],"reference":{"key":"public_transport","value":"platform"},"tags":{"bus":"yes","network:wikidata":"Q7162971","public_transport":"platform"},"addTags":{"bus":"yes","highway":"bus_stop","network":"Commute.org","network:wikidata":"Q7162971","public_transport":"platform"}},"public_transport/platform/bus_point/commuterexpress-e0ee7e":{"name":"Commuter Express","locationSet":{"include":["us-ca"]},"geometry":["point","vertex"],"matchScore":2,"terms":["commuter express","los angeles department of transportation"],"reference":{"key":"public_transport","value":"platform"},"tags":{"bus":"yes","network:wikidata":"Q112028995","public_transport":"platform"},"addTags":{"bus":"yes","highway":"bus_stop","network":"Commuter Express","network:wikidata":"Q112028995","operator":"Los Angeles Department of Transportation","operator:wikidata":"Q3259703","public_transport":"platform"}},"public_transport/platform/bus_point/countyconnection-e0ee7e":{"name":"County Connection","locationSet":{"include":["us-ca"]},"geometry":["point","vertex"],"matchScore":2,"terms":["county connection"],"reference":{"key":"public_transport","value":"platform"},"tags":{"bus":"yes","network:wikidata":"Q5177640","public_transport":"platform"},"addTags":{"bus":"yes","highway":"bus_stop","network":"County Connection","network:wikidata":"Q5177640","public_transport":"platform"}},"public_transport/platform/bus_point/culvercitybus-e0ee7e":{"name":"Culver CityBus","locationSet":{"include":["us-ca"]},"geometry":["point","vertex"],"matchScore":2,"terms":["culver citybus"],"reference":{"key":"public_transport","value":"platform"},"tags":{"bus":"yes","network:wikidata":"Q5193719","public_transport":"platform"},"addTags":{"bus":"yes","highway":"bus_stop","network":"Culver CityBus","network:wikidata":"Q5193719","public_transport":"platform"}},"public_transport/platform/bus_point/easternsierratransit-e0ee7e":{"name":"Eastern Sierra Transit","locationSet":{"include":["us-ca"]},"geometry":["point","vertex"],"matchScore":2,"terms":["eastern sierra transit"],"reference":{"key":"public_transport","value":"platform"},"tags":{"bus":"yes","network:wikidata":"Q5330465","public_transport":"platform"},"addTags":{"bus":"yes","highway":"bus_stop","network":"Eastern Sierra Transit","network:wikidata":"Q5330465","operator":"Eastern Sierra Transit","public_transport":"platform"}},"public_transport/platform/bus_point/eldoradotransit-e0ee7e":{"name":"El Dorado Transit","locationSet":{"include":["us-ca"]},"geometry":["point","vertex"],"matchScore":2,"terms":["el dorado transit"],"reference":{"key":"public_transport","value":"platform"},"tags":{"bus":"yes","network:wikidata":"Q5351201","public_transport":"platform"},"addTags":{"bus":"yes","highway":"bus_stop","network":"El Dorado Transit","network:wikidata":"Q5351201","operator":"El Dorado Transit","public_transport":"platform"}},"public_transport/platform/bus_point/foothilltransit-e0ee7e":{"name":"Foothill Transit","locationSet":{"include":["us-ca"]},"geometry":["point","vertex"],"matchScore":2,"terms":["foothill transit"],"reference":{"key":"public_transport","value":"platform"},"tags":{"bus":"yes","network:wikidata":"Q5466493","public_transport":"platform"},"addTags":{"bus":"yes","highway":"bus_stop","network":"Foothill Transit","network:wikidata":"Q5466493","public_transport":"platform"}},"public_transport/platform/bus_point/get-e0ee7e":{"name":"GET","locationSet":{"include":["us-ca"]},"geometry":["point","vertex"],"matchScore":2,"terms":["get"],"reference":{"key":"public_transport","value":"platform"},"tags":{"bus":"yes","network:wikidata":"Q5579372","public_transport":"platform"},"addTags":{"bus":"yes","highway":"bus_stop","network":"GET","network:wikidata":"Q5579372","public_transport":"platform"}},"public_transport/platform/bus_point/ggt-e0ee7e":{"name":"GGT","locationSet":{"include":["us-ca"]},"geometry":["point","vertex"],"matchScore":2,"terms":["ggt"],"reference":{"key":"public_transport","value":"platform"},"tags":{"bus":"yes","network:wikidata":"Q525895","public_transport":"platform"},"addTags":{"bus":"yes","highway":"bus_stop","network":"GGT","network:wikidata":"Q525895","public_transport":"platform"}},"public_transport/platform/bus_point/goldcoasttransit-e0ee7e":{"name":"Gold Coast Transit","locationSet":{"include":["us-ca"]},"geometry":["point","vertex"],"matchScore":2,"terms":["gold coast transit"],"reference":{"key":"public_transport","value":"platform"},"tags":{"bus":"yes","network:wikidata":"Q5578666","public_transport":"platform"},"addTags":{"bus":"yes","highway":"bus_stop","network":"Gold Coast Transit","network:wikidata":"Q5578666","public_transport":"platform"}},"public_transport/platform/bus_point/imperialvalleytransit-e0ee7e":{"name":"Imperial Valley Transit","locationSet":{"include":["us-ca"]},"geometry":["point","vertex"],"matchScore":2,"terms":["first transit","imperial valley transit"],"reference":{"key":"public_transport","value":"platform"},"tags":{"bus":"yes","network:wikidata":"Q16980549","public_transport":"platform"},"addTags":{"bus":"yes","highway":"bus_stop","network":"Imperial Valley Transit","network:wikidata":"Q16980549","operator":"First Transit","operator:wikidata":"Q5453919","public_transport":"platform"}},"public_transport/platform/bus_point/kerntransit-e0ee7e":{"name":"Kern Transit","locationSet":{"include":["us-ca"]},"geometry":["point","vertex"],"matchScore":2,"terms":["kern transit"],"reference":{"key":"public_transport","value":"platform"},"tags":{"bus":"yes","network:wikidata":"Q6394141","public_transport":"platform"},"addTags":{"bus":"yes","highway":"bus_stop","network":"Kern Transit","network:wikidata":"Q6394141","public_transport":"platform"}},"public_transport/platform/bus_point/kingsarearegionaltransit-e0ee7e":{"name":"Kings Area Regional Transit","locationSet":{"include":["us-ca"]},"geometry":["point","vertex"],"matchScore":2,"terms":["kart","kings area regional transit"],"reference":{"key":"public_transport","value":"platform"},"tags":{"bus":"yes","network:wikidata":"Q111952901","public_transport":"platform"},"addTags":{"bus":"yes","highway":"bus_stop","network":"Kings Area Regional Transit","network:short":"KART","network:wikidata":"Q111952901","public_transport":"platform"}},"public_transport/platform/bus_point/marguerite-e0ee7e":{"name":"Marguerite","locationSet":{"include":["us-ca"]},"geometry":["point","vertex"],"matchScore":2,"terms":["marguerite","stanford transportation"],"reference":{"key":"public_transport","value":"platform"},"tags":{"bus":"yes","network:wikidata":"Q7598772","public_transport":"platform"},"addTags":{"bus":"yes","highway":"bus_stop","network":"Marguerite","network:wikidata":"Q7598772","operator":"Stanford Transportation","operator:wikidata":"Q107966493","public_transport":"platform"}},"public_transport/platform/bus_point/marintransit-e0ee7e":{"name":"Marin Transit","locationSet":{"include":["us-ca"]},"geometry":["point","vertex"],"matchScore":2,"terms":["marin transit"],"reference":{"key":"public_transport","value":"platform"},"tags":{"bus":"yes","network:wikidata":"Q6763758","public_transport":"platform"},"addTags":{"bus":"yes","highway":"bus_stop","network":"Marin Transit","network:wikidata":"Q6763758","public_transport":"platform"}},"public_transport/platform/bus_point/max-e0ee7e":{"name":"MAX (Modesto)","locationSet":{"include":["us-ca"]},"geometry":["point","vertex"],"matchScore":2,"terms":["max","modesto area express"],"reference":{"key":"public_transport","value":"platform"},"tags":{"bus":"yes","network:wikidata":"Q6889205","public_transport":"platform"},"addTags":{"bus":"yes","highway":"bus_stop","network":"MAX","network:wikidata":"Q6889205","operator":"Modesto Area Express","public_transport":"platform"}},"public_transport/platform/bus_point/mst-e0ee7e":{"name":"MST","locationSet":{"include":["us-ca"]},"geometry":["point","vertex"],"matchScore":2,"terms":["monterey salinas transit","mst"],"reference":{"key":"public_transport","value":"platform"},"tags":{"bus":"yes","network:wikidata":"Q16982191","public_transport":"platform"},"addTags":{"bus":"yes","highway":"bus_stop","network":"MST","network:wikidata":"Q16982191","public_transport":"platform"}},"public_transport/platform/bus_point/mts-e0ee7e":{"name":"MTS","locationSet":{"include":["us-ca"]},"geometry":["point","vertex"],"matchScore":2,"terms":["metropolitan transit system","mts","san diego metropolitan transit system"],"reference":{"key":"public_transport","value":"platform"},"tags":{"bus":"yes","network:wikidata":"Q3471406","public_transport":"platform"},"addTags":{"bus":"yes","highway":"bus_stop","network":"MTS","network:wikidata":"Q3471406","public_transport":"platform"}},"public_transport/platform/bus_point/ocbus-e0ee7e":{"name":"OC Bus","locationSet":{"include":["us-ca"]},"geometry":["point","vertex"],"matchScore":2,"terms":["oc bus","octa","orange county transportation authority"],"reference":{"key":"public_transport","value":"platform"},"tags":{"bus":"yes","network:wikidata":"Q6593059","public_transport":"platform"},"addTags":{"bus":"yes","highway":"bus_stop","network":"OC Bus","network:wikidata":"Q6593059","operator":"Orange County Transportation Authority","operator:short":"OCTA","operator:wikidata":"Q7099595","public_transport":"platform"}},"public_transport/platform/bus_point/omnitrans-e0ee7e":{"name":"Omnitrans","locationSet":{"include":["us-ca"]},"geometry":["point","vertex"],"matchScore":2,"terms":["omnitrans"],"reference":{"key":"public_transport","value":"platform"},"tags":{"bus":"yes","network:wikidata":"Q7090404","public_transport":"platform"},"addTags":{"bus":"yes","highway":"bus_stop","network":"Omnitrans","network:wikidata":"Q7090404","public_transport":"platform"}},"public_transport/platform/bus_point/pasadenatransit-e0ee7e":{"name":"Pasadena Transit","locationSet":{"include":["us-ca"]},"geometry":["point","vertex"],"matchScore":2,"terms":["first transit","pasadena transit"],"reference":{"key":"public_transport","value":"platform"},"tags":{"bus":"yes","network:wikidata":"Q7141527","public_transport":"platform"},"addTags":{"bus":"yes","highway":"bus_stop","network":"Pasadena Transit","network:wikidata":"Q7141527","operator":"First Transit","operator:wikidata":"Q5453919","public_transport":"platform"}},"public_transport/platform/bus_point/rta-e0ee7e":{"name":"RTA (Riverside Transit Agency)","locationSet":{"include":["us-ca"]},"geometry":["point","vertex"],"matchScore":2,"terms":["riverside transit agency","rta"],"reference":{"key":"public_transport","value":"platform"},"tags":{"bus":"yes","network:wikidata":"Q7338635","public_transport":"platform"},"addTags":{"bus":"yes","highway":"bus_stop","network":"RTA","network:wikidata":"Q7338635","operator":"Riverside Transit Agency","public_transport":"platform"}},"public_transport/platform/bus_point/sacrt-e0ee7e":{"name":"SacRT","locationSet":{"include":["us-ca"]},"geometry":["point","vertex"],"matchScore":2,"terms":["sacramento regional transit district","sacrt"],"reference":{"key":"public_transport","value":"platform"},"tags":{"bus":"yes","network:wikidata":"Q7397015","public_transport":"platform"},"addTags":{"bus":"yes","highway":"bus_stop","network":"SacRT","network:wikidata":"Q7397015","operator":"Sacramento Regional Transit District","public_transport":"platform"}},"public_transport/platform/bus_point/samtrans-e0ee7e":{"name":"SamTrans","locationSet":{"include":["us-ca"]},"geometry":["point","vertex"],"matchScore":2,"terms":["samtrans","san mateo county transit district"],"reference":{"key":"public_transport","value":"platform"},"tags":{"bus":"yes","network:wikidata":"Q7407040","public_transport":"platform"},"addTags":{"bus":"yes","highway":"bus_stop","network":"SamTrans","network:wikidata":"Q7407040","operator":"San Mateo County Transit District","public_transport":"platform"}},"public_transport/platform/bus_point/santabarbaramtd-e0ee7e":{"name":"Santa Barbara MTD","locationSet":{"include":["us-ca"]},"geometry":["point","vertex"],"matchScore":2,"terms":["santa barbara mtd","sb mtd"],"reference":{"key":"public_transport","value":"platform"},"tags":{"bus":"yes","network:wikidata":"Q7419232","public_transport":"platform"},"addTags":{"bus":"yes","highway":"bus_stop","network":"Santa Barbara MTD","network:wikidata":"Q7419232","public_transport":"platform"}},"public_transport/platform/bus_point/santaclaritatransit-e0ee7e":{"name":"Santa Clarita Transit","locationSet":{"include":["us-ca"]},"geometry":["point","vertex"],"matchScore":2,"terms":["santa clarita transit"],"reference":{"key":"public_transport","value":"platform"},"tags":{"bus":"yes","network:wikidata":"Q5123908","public_transport":"platform"},"addTags":{"bus":"yes","highway":"bus_stop","network":"Santa Clarita Transit","network:wikidata":"Q5123908","public_transport":"platform"}},"public_transport/platform/bus_point/santaynezvalleytransit-e0ee7e":{"name":"Santa Ynez Valley Transit","locationSet":{"include":["us-ca"]},"geometry":["point","vertex"],"matchScore":2,"terms":["santa ynez valley transit"],"reference":{"key":"public_transport","value":"platform"},"tags":{"bus":"yes","network:wikidata":"Q101538719","public_transport":"platform"},"addTags":{"bus":"yes","highway":"bus_stop","network":"Santa Ynez Valley Transit","network:wikidata":"Q101538719","public_transport":"platform"}},"public_transport/platform/bus_point/scmtd-e0ee7e":{"name":"SCMTD","locationSet":{"include":["us-ca"]},"geometry":["point","vertex"],"matchScore":2,"terms":["santa cruz metropolitan transit district","scmtd"],"reference":{"key":"public_transport","value":"platform"},"tags":{"bus":"yes","network:wikidata":"Q7419419","public_transport":"platform"},"addTags":{"bus":"yes","highway":"bus_stop","network":"SCMTD","network:wikidata":"Q7419419","operator":"Santa Cruz Metropolitan Transit District","public_transport":"platform"}},"public_transport/platform/bus_point/soltrans-e0ee7e":{"name":"SolTrans","locationSet":{"include":["us-ca"]},"geometry":["point","vertex"],"matchScore":2,"terms":["soltrans"],"reference":{"key":"public_transport","value":"platform"},"tags":{"bus":"yes","network:wikidata":"Q16984743","public_transport":"platform"},"addTags":{"bus":"yes","highway":"bus_stop","network":"SolTrans","network:wikidata":"Q16984743","public_transport":"platform"}},"public_transport/platform/bus_point/sunlinetransitagency-e0ee7e":{"name":"SunLine Transit Agency","locationSet":{"include":["us-ca"]},"geometry":["point","vertex"],"matchScore":2,"terms":["sunline transit agency"],"reference":{"key":"public_transport","value":"platform"},"tags":{"bus":"yes","network:wikidata":"Q7638150","public_transport":"platform"},"addTags":{"bus":"yes","highway":"bus_stop","network":"SunLine Transit Agency","network:wikidata":"Q7638150","public_transport":"platform"}},"public_transport/platform/bus_point/torrancetransit-e0ee7e":{"name":"Torrance Transit","locationSet":{"include":["us-ca"]},"geometry":["point","vertex"],"matchScore":2,"terms":["torrance transit"],"reference":{"key":"public_transport","value":"platform"},"tags":{"bus":"yes","network:wikidata":"Q7826932","public_transport":"platform"},"addTags":{"bus":"yes","highway":"bus_stop","network":"Torrance Transit","network:wikidata":"Q7826932","public_transport":"platform"}},"public_transport/platform/bus_point/tularecountyregionaltransitagency-e0ee7e":{"name":"Tulare County Regional Transit Agency","locationSet":{"include":["us-ca"]},"geometry":["point","vertex"],"matchScore":2,"terms":["tulare county regional transit agency"],"reference":{"key":"public_transport","value":"platform"},"tags":{"bus":"yes","network:wikidata":"Q110722692","public_transport":"platform"},"addTags":{"bus":"yes","highway":"bus_stop","network":"Tulare County Regional Transit Agency","network:wikidata":"Q110722692","public_transport":"platform"}},"public_transport/platform/bus_point/tuolumnecountytransit-e0ee7e":{"name":"Tuolumne County Transit","locationSet":{"include":["us-ca"]},"geometry":["point","vertex"],"matchScore":2,"terms":["tuolumne county transit"],"reference":{"key":"public_transport","value":"platform"},"tags":{"bus":"yes","network:wikidata":"Q14509110","public_transport":"platform"},"addTags":{"bus":"yes","highway":"bus_stop","network":"Tuolumne County Transit","network:wikidata":"Q14509110","public_transport":"platform"}},"public_transport/platform/bus_point/uct-e0ee7e":{"name":"UCT","locationSet":{"include":["us-ca"]},"geometry":["point","vertex"],"matchScore":2,"terms":["uct","union city transit"],"reference":{"key":"public_transport","value":"platform"},"tags":{"bus":"yes","network:wikidata":"Q7885556","public_transport":"platform"},"addTags":{"bus":"yes","highway":"bus_stop","network":"UCT","network:wikidata":"Q7885556","operator":"Union City Transit","public_transport":"platform"}},"public_transport/platform/bus_point/vctcintercity-e0ee7e":{"name":"VCTC Intercity","locationSet":{"include":["us-ca"]},"geometry":["point","vertex"],"matchScore":2,"terms":["vctc intercity"],"reference":{"key":"public_transport","value":"platform"},"tags":{"bus":"yes","network:wikidata":"Q7920384","public_transport":"platform"},"addTags":{"bus":"yes","highway":"bus_stop","network":"VCTC Intercity","network:wikidata":"Q7920384","public_transport":"platform"}},"public_transport/platform/bus_point/visaliatransit-e0ee7e":{"name":"Visalia Transit","locationSet":{"include":["us-ca"]},"geometry":["point","vertex"],"matchScore":2,"terms":["visalia transit"],"reference":{"key":"public_transport","value":"platform"},"tags":{"bus":"yes","network:wikidata":"Q110722964","public_transport":"platform"},"addTags":{"bus":"yes","highway":"bus_stop","network":"Visalia Transit","network:wikidata":"Q110722964","public_transport":"platform"}},"public_transport/platform/bus_point/vvta-e0ee7e":{"name":"VVTA","locationSet":{"include":["us-ca"]},"geometry":["point","vertex"],"matchScore":2,"terms":["vvta"],"reference":{"key":"public_transport","value":"platform"},"tags":{"bus":"yes","network:wikidata":"Q7926418","public_transport":"platform"},"addTags":{"bus":"yes","highway":"bus_stop","network":"VVTA","network:wikidata":"Q7926418","public_transport":"platform"}},"public_transport/platform/bus_point/westcat-e0ee7e":{"name":"WestCAT","locationSet":{"include":["us-ca"]},"geometry":["point","vertex"],"matchScore":2,"terms":["westcat"],"reference":{"key":"public_transport","value":"platform"},"tags":{"bus":"yes","network:wikidata":"Q7984179","public_transport":"platform"},"addTags":{"bus":"yes","highway":"bus_stop","network":"WestCAT","network:wikidata":"Q7984179","public_transport":"platform"}},"public_transport/platform/bus_point/wheels-e0ee7e":{"name":"Wheels","locationSet":{"include":["us-ca"]},"geometry":["point","vertex"],"matchScore":2,"terms":["wheels"],"reference":{"key":"public_transport","value":"platform"},"tags":{"bus":"yes","network:wikidata":"Q7950139","public_transport":"platform"},"addTags":{"bus":"yes","highway":"bus_stop","network":"Wheels","network:wikidata":"Q7950139","public_transport":"platform"}},"public_transport/platform/bus_point/yarts-e0ee7e":{"name":"YARTS","locationSet":{"include":["us-ca"]},"geometry":["point","vertex"],"matchScore":2,"terms":["yarts","yosemite area regional transportation system"],"reference":{"key":"public_transport","value":"platform"},"tags":{"bus":"yes","network:wikidata":"Q8055918","public_transport":"platform"},"addTags":{"bus":"yes","highway":"bus_stop","network":"YARTS","network:wikidata":"Q8055918","public_transport":"platform"}},"public_transport/platform/bus_point/yolobus-e0ee7e":{"name":"Yolobus","locationSet":{"include":["us-ca"]},"geometry":["point","vertex"],"matchScore":2,"terms":["yolobus"],"reference":{"key":"public_transport","value":"platform"},"tags":{"bus":"yes","network:wikidata":"Q7779123","public_transport":"platform"},"addTags":{"bus":"yes","highway":"bus_stop","network":"Yolobus","network:wikidata":"Q7779123","public_transport":"platform"}},"public_transport/platform/bus_point/yubasuttertransit-e0ee7e":{"name":"Yuba-Sutter Transit","locationSet":{"include":["us-ca"]},"geometry":["point","vertex"],"matchScore":2,"terms":["yuba-sutter transit"],"reference":{"key":"public_transport","value":"platform"},"tags":{"bus":"yes","network:wikidata":"Q8060099","public_transport":"platform"},"addTags":{"bus":"yes","highway":"bus_stop","network":"Yuba-Sutter Transit","network:wikidata":"Q8060099","public_transport":"platform"}},"railway/station/ace-5ae1e0":{"name":"Altamont Corridor Express","locationSet":{"include":["us-ca"]},"geometry":["point","vertex","area"],"matchScore":2,"terms":["ace","san joaquin regional rail commission"],"tags":{"network:wikidata":"Q434302","railway":"station"},"addTags":{"network":"ACE","network:wikidata":"Q434302","operator":"San Joaquin Regional Rail Commission","public_transport":"station","railway":"station","train":"yes"}},"railway/station/metrolink-5ae1e0":{"name":"Metrolink (California)","locationSet":{"include":["us-ca"]},"geometry":["point","vertex","area"],"matchScore":2,"terms":["metrolink","southern california regional rail authority"],"tags":{"network:wikidata":"Q766647","railway":"station"},"addTags":{"network":"Metrolink","network:wikidata":"Q766647","operator":"Southern California Regional Rail Authority","public_transport":"station","railway":"station","train":"yes"}},"railway/station/nctd-5ae1e0":{"name":"NCTD Coaster","locationSet":{"include":["us-ca"]},"geometry":["point","vertex","area"],"matchScore":2,"terms":["nctd"],"tags":{"network:wikidata":"Q5138375","railway":"station"},"addTags":{"network":"NCTD","network:wikidata":"Q5138375","public_transport":"station","railway":"station","train":"yes"}},"type/route/bus/actransit-62dc11":{"name":"AC Transit","locationSet":{"include":["us-ca"]},"geometry":["relation"],"matchScore":2,"terms":["ac transit"],"reference":{"key":"route","value":"bus"},"tags":{"network:wikidata":"Q4353850","route":"bus","type":"route"},"addTags":{"network":"AC Transit","network:wikidata":"Q4353850","route":"bus","type":"route"}},"type/route/bus/antelopevalleytransitauthority-62dc11":{"name":"Antelope Valley Transit Authority","locationSet":{"include":["us-ca"]},"geometry":["relation"],"matchScore":2,"terms":["antelope valley transit authority","avta","transdev"],"reference":{"key":"route","value":"bus"},"tags":{"network:wikidata":"Q4771209","route":"bus","type":"route"},"addTags":{"network":"Antelope Valley Transit Authority","network:short":"AVTA","network:wikidata":"Q4771209","operator":"Transdev","route":"bus","type":"route"}},"type/route/bus/anaheimresorttransit-62dc11":{"name":"ART","locationSet":{"include":["us-ca"]},"geometry":["relation"],"matchScore":2,"terms":["anaheim resort transit","art","transdev"],"reference":{"key":"route","value":"bus"},"tags":{"network:wikidata":"Q4750893","route":"bus","type":"route"},"addTags":{"network":"Anaheim Resort Transit","network:short":"ART","network:wikidata":"Q4750893","operator":"Transdev","route":"bus","type":"route"}},"type/route/bus/bline-62dc11":{"name":"B-Line","locationSet":{"include":["us-ca"]},"geometry":["relation"],"matchScore":2,"terms":["b-line","butte regional transit"],"reference":{"key":"route","value":"bus"},"tags":{"network:wikidata":"Q5002811","route":"bus","type":"route"},"addTags":{"network":"B-Line","network:wikidata":"Q5002811","operator":"Butte Regional Transit","route":"bus","type":"route"}},"type/route/bus/bigbluebus-62dc11":{"name":"Big Blue Bus","locationSet":{"include":["us-ca"]},"geometry":["relation"],"matchScore":2,"terms":["big blue bus","city of santa monica"],"reference":{"key":"route","value":"bus"},"tags":{"network:wikidata":"Q4905149","route":"bus","type":"route"},"addTags":{"network":"Big Blue Bus","network:wikidata":"Q4905149","operator":"City of Santa Monica","operator:wikidata":"Q47164","route":"bus","type":"route"}},"type/route/bus/breeze-62dc11":{"name":"BREEZE","locationSet":{"include":["us-ca"]},"geometry":["relation"],"matchScore":2,"terms":["breeze","nctd","north county transit district"],"reference":{"key":"route","value":"bus"},"tags":{"network:wikidata":"Q7054956","route":"bus","type":"route"},"addTags":{"network":"BREEZE","network:wikidata":"Q7054956","operator":"North County Transit District","route":"bus","type":"route"}},"type/route/bus/commuteorg-62dc11":{"name":"Commute.org","locationSet":{"include":["us-ca"]},"geometry":["relation"],"matchScore":2,"terms":["commute.org"],"reference":{"key":"route","value":"bus"},"tags":{"network:wikidata":"Q7162971","route":"bus","type":"route"},"addTags":{"network":"Commute.org","network:wikidata":"Q7162971","route":"bus","type":"route"}},"type/route/bus/commuterexpress-62dc11":{"name":"Commuter Express","locationSet":{"include":["us-ca"]},"geometry":["relation"],"matchScore":2,"terms":["commuter express","los angeles department of transportation"],"reference":{"key":"route","value":"bus"},"tags":{"network:wikidata":"Q112028995","route":"bus","type":"route"},"addTags":{"network":"Commuter Express","network:wikidata":"Q112028995","operator":"Los Angeles Department of Transportation","operator:wikidata":"Q3259703","route":"bus","type":"route"}},"type/route/bus/countyconnection-62dc11":{"name":"County Connection","locationSet":{"include":["us-ca"]},"geometry":["relation"],"matchScore":2,"terms":["county connection"],"reference":{"key":"route","value":"bus"},"tags":{"network:wikidata":"Q5177640","route":"bus","type":"route"},"addTags":{"network":"County Connection","network:wikidata":"Q5177640","route":"bus","type":"route"}},"type/route/bus/culvercitybus-62dc11":{"name":"Culver CityBus","locationSet":{"include":["us-ca"]},"geometry":["relation"],"matchScore":2,"terms":["culver citybus"],"reference":{"key":"route","value":"bus"},"tags":{"network:wikidata":"Q5193719","route":"bus","type":"route"},"addTags":{"network":"Culver CityBus","network:wikidata":"Q5193719","route":"bus","type":"route"}},"type/route/bus/easternsierratransit-62dc11":{"name":"Eastern Sierra Transit","locationSet":{"include":["us-ca"]},"geometry":["relation"],"matchScore":2,"terms":["eastern sierra transit"],"reference":{"key":"route","value":"bus"},"tags":{"network:wikidata":"Q5330465","route":"bus","type":"route"},"addTags":{"network":"Eastern Sierra Transit","network:wikidata":"Q5330465","operator":"Eastern Sierra Transit","route":"bus","type":"route"}},"type/route/bus/eldoradotransit-62dc11":{"name":"El Dorado Transit","locationSet":{"include":["us-ca"]},"geometry":["relation"],"matchScore":2,"terms":["el dorado transit"],"reference":{"key":"route","value":"bus"},"tags":{"network:wikidata":"Q5351201","route":"bus","type":"route"},"addTags":{"network":"El Dorado Transit","network:wikidata":"Q5351201","operator":"El Dorado Transit","route":"bus","type":"route"}},"type/route/bus/foothilltransit-62dc11":{"name":"Foothill Transit","locationSet":{"include":["us-ca"]},"geometry":["relation"],"matchScore":2,"terms":["foothill transit"],"reference":{"key":"route","value":"bus"},"tags":{"network:wikidata":"Q5466493","route":"bus","type":"route"},"addTags":{"network":"Foothill Transit","network:wikidata":"Q5466493","route":"bus","type":"route"}},"type/route/bus/get-62dc11":{"name":"GET","locationSet":{"include":["us-ca"]},"geometry":["relation"],"matchScore":2,"terms":["get"],"reference":{"key":"route","value":"bus"},"tags":{"network:wikidata":"Q5579372","route":"bus","type":"route"},"addTags":{"network":"GET","network:wikidata":"Q5579372","route":"bus","type":"route"}},"type/route/bus/ggt-62dc11":{"name":"GGT","locationSet":{"include":["us-ca"]},"geometry":["relation"],"matchScore":2,"terms":["ggt"],"reference":{"key":"route","value":"bus"},"tags":{"network:wikidata":"Q525895","route":"bus","type":"route"},"addTags":{"network":"GGT","network:wikidata":"Q525895","route":"bus","type":"route"}},"type/route/bus/goldcoasttransit-62dc11":{"name":"Gold Coast Transit","locationSet":{"include":["us-ca"]},"geometry":["relation"],"matchScore":2,"terms":["gold coast transit"],"reference":{"key":"route","value":"bus"},"tags":{"network:wikidata":"Q5578666","route":"bus","type":"route"},"addTags":{"network":"Gold Coast Transit","network:wikidata":"Q5578666","route":"bus","type":"route"}},"type/route/bus/imperialvalleytransit-62dc11":{"name":"Imperial Valley Transit","locationSet":{"include":["us-ca"]},"geometry":["relation"],"matchScore":2,"terms":["first transit","imperial valley transit"],"reference":{"key":"route","value":"bus"},"tags":{"network:wikidata":"Q16980549","route":"bus","type":"route"},"addTags":{"network":"Imperial Valley Transit","network:wikidata":"Q16980549","operator":"First Transit","operator:wikidata":"Q5453919","route":"bus","type":"route"}},"type/route/bus/kerntransit-62dc11":{"name":"Kern Transit","locationSet":{"include":["us-ca"]},"geometry":["relation"],"matchScore":2,"terms":["kern transit"],"reference":{"key":"route","value":"bus"},"tags":{"network:wikidata":"Q6394141","route":"bus","type":"route"},"addTags":{"network":"Kern Transit","network:wikidata":"Q6394141","route":"bus","type":"route"}},"type/route/bus/kingsarearegionaltransit-62dc11":{"name":"Kings Area Regional Transit","locationSet":{"include":["us-ca"]},"geometry":["relation"],"matchScore":2,"terms":["kart","kings area regional transit"],"reference":{"key":"route","value":"bus"},"tags":{"network:wikidata":"Q111952901","route":"bus","type":"route"},"addTags":{"network":"Kings Area Regional Transit","network:short":"KART","network:wikidata":"Q111952901","route":"bus","type":"route"}},"type/route/bus/marguerite-62dc11":{"name":"Marguerite","locationSet":{"include":["us-ca"]},"geometry":["relation"],"matchScore":2,"terms":["marguerite","stanford transportation"],"reference":{"key":"route","value":"bus"},"tags":{"network:wikidata":"Q7598772","route":"bus","type":"route"},"addTags":{"network":"Marguerite","network:wikidata":"Q7598772","operator":"Stanford Transportation","operator:wikidata":"Q107966493","route":"bus","type":"route"}},"type/route/bus/marintransit-62dc11":{"name":"Marin Transit","locationSet":{"include":["us-ca"]},"geometry":["relation"],"matchScore":2,"terms":["marin transit"],"reference":{"key":"route","value":"bus"},"tags":{"network:wikidata":"Q6763758","route":"bus","type":"route"},"addTags":{"network":"Marin Transit","network:wikidata":"Q6763758","route":"bus","type":"route"}},"type/route/bus/max-62dc11":{"name":"MAX (Modesto)","locationSet":{"include":["us-ca"]},"geometry":["relation"],"matchScore":2,"terms":["max","modesto area express"],"reference":{"key":"route","value":"bus"},"tags":{"network:wikidata":"Q6889205","route":"bus","type":"route"},"addTags":{"network":"MAX","network:wikidata":"Q6889205","operator":"Modesto Area Express","route":"bus","type":"route"}},"type/route/bus/mst-62dc11":{"name":"MST","locationSet":{"include":["us-ca"]},"geometry":["relation"],"matchScore":2,"terms":["monterey salinas transit","mst"],"reference":{"key":"route","value":"bus"},"tags":{"network:wikidata":"Q16982191","route":"bus","type":"route"},"addTags":{"network":"MST","network:wikidata":"Q16982191","route":"bus","type":"route"}},"type/route/bus/mts-62dc11":{"name":"MTS","locationSet":{"include":["us-ca"]},"geometry":["relation"],"matchScore":2,"terms":["metropolitan transit system","mts","san diego metropolitan transit system"],"reference":{"key":"route","value":"bus"},"tags":{"network:wikidata":"Q3471406","route":"bus","type":"route"},"addTags":{"network":"MTS","network:wikidata":"Q3471406","route":"bus","type":"route"}},"type/route/bus/ocbus-62dc11":{"name":"OC Bus","locationSet":{"include":["us-ca"]},"geometry":["relation"],"matchScore":2,"terms":["oc bus","octa","orange county transportation authority"],"reference":{"key":"route","value":"bus"},"tags":{"network:wikidata":"Q6593059","route":"bus","type":"route"},"addTags":{"network":"OC Bus","network:wikidata":"Q6593059","operator":"Orange County Transportation Authority","operator:short":"OCTA","operator:wikidata":"Q7099595","route":"bus","type":"route"}},"type/route/bus/omnitrans-62dc11":{"name":"Omnitrans","locationSet":{"include":["us-ca"]},"geometry":["relation"],"matchScore":2,"terms":["omnitrans"],"reference":{"key":"route","value":"bus"},"tags":{"network:wikidata":"Q7090404","route":"bus","type":"route"},"addTags":{"network":"Omnitrans","network:wikidata":"Q7090404","route":"bus","type":"route"}},"type/route/bus/pasadenatransit-62dc11":{"name":"Pasadena Transit","locationSet":{"include":["us-ca"]},"geometry":["relation"],"matchScore":2,"terms":["first transit","pasadena transit"],"reference":{"key":"route","value":"bus"},"tags":{"network:wikidata":"Q7141527","route":"bus","type":"route"},"addTags":{"network":"Pasadena Transit","network:wikidata":"Q7141527","operator":"First Transit","operator:wikidata":"Q5453919","route":"bus","type":"route"}},"type/route/bus/rta-62dc11":{"name":"RTA (Riverside Transit Agency)","locationSet":{"include":["us-ca"]},"geometry":["relation"],"matchScore":2,"terms":["riverside transit agency","rta"],"reference":{"key":"route","value":"bus"},"tags":{"network:wikidata":"Q7338635","route":"bus","type":"route"},"addTags":{"network":"RTA","network:wikidata":"Q7338635","operator":"Riverside Transit Agency","route":"bus","type":"route"}},"type/route/bus/sacrt-62dc11":{"name":"SacRT","locationSet":{"include":["us-ca"]},"geometry":["relation"],"matchScore":2,"terms":["sacramento regional transit district","sacrt"],"reference":{"key":"route","value":"bus"},"tags":{"network:wikidata":"Q7397015","route":"bus","type":"route"},"addTags":{"network":"SacRT","network:wikidata":"Q7397015","operator":"Sacramento Regional Transit District","route":"bus","type":"route"}},"type/route/bus/samtrans-62dc11":{"name":"SamTrans","locationSet":{"include":["us-ca"]},"geometry":["relation"],"matchScore":2,"terms":["samtrans","san mateo county transit district"],"reference":{"key":"route","value":"bus"},"tags":{"network:wikidata":"Q7407040","route":"bus","type":"route"},"addTags":{"network":"SamTrans","network:wikidata":"Q7407040","operator":"San Mateo County Transit District","route":"bus","type":"route"}},"type/route/bus/santabarbaramtd-62dc11":{"name":"Santa Barbara MTD","locationSet":{"include":["us-ca"]},"geometry":["relation"],"matchScore":2,"terms":["santa barbara mtd","sb mtd"],"reference":{"key":"route","value":"bus"},"tags":{"network:wikidata":"Q7419232","route":"bus","type":"route"},"addTags":{"network":"Santa Barbara MTD","network:wikidata":"Q7419232","route":"bus","type":"route"}},"type/route/bus/santaclaritatransit-62dc11":{"name":"Santa Clarita Transit","locationSet":{"include":["us-ca"]},"geometry":["relation"],"matchScore":2,"terms":["santa clarita transit"],"reference":{"key":"route","value":"bus"},"tags":{"network:wikidata":"Q5123908","route":"bus","type":"route"},"addTags":{"network":"Santa Clarita Transit","network:wikidata":"Q5123908","route":"bus","type":"route"}},"type/route/bus/santaynezvalleytransit-62dc11":{"name":"Santa Ynez Valley Transit","locationSet":{"include":["us-ca"]},"geometry":["relation"],"matchScore":2,"terms":["santa ynez valley transit"],"reference":{"key":"route","value":"bus"},"tags":{"network:wikidata":"Q101538719","route":"bus","type":"route"},"addTags":{"network":"Santa Ynez Valley Transit","network:wikidata":"Q101538719","route":"bus","type":"route"}},"type/route/bus/scmtd-62dc11":{"name":"SCMTD","locationSet":{"include":["us-ca"]},"geometry":["relation"],"matchScore":2,"terms":["santa cruz metropolitan transit district","scmtd"],"reference":{"key":"route","value":"bus"},"tags":{"network:wikidata":"Q7419419","route":"bus","type":"route"},"addTags":{"network":"SCMTD","network:wikidata":"Q7419419","operator":"Santa Cruz Metropolitan Transit District","route":"bus","type":"route"}},"type/route/bus/soltrans-62dc11":{"name":"SolTrans","locationSet":{"include":["us-ca"]},"geometry":["relation"],"matchScore":2,"terms":["soltrans"],"reference":{"key":"route","value":"bus"},"tags":{"network:wikidata":"Q16984743","route":"bus","type":"route"},"addTags":{"network":"SolTrans","network:wikidata":"Q16984743","route":"bus","type":"route"}},"type/route/bus/sunlinetransitagency-62dc11":{"name":"SunLine Transit Agency","locationSet":{"include":["us-ca"]},"geometry":["relation"],"matchScore":2,"terms":["sunline transit agency"],"reference":{"key":"route","value":"bus"},"tags":{"network:wikidata":"Q7638150","route":"bus","type":"route"},"addTags":{"network":"SunLine Transit Agency","network:wikidata":"Q7638150","route":"bus","type":"route"}},"type/route/bus/torrancetransit-62dc11":{"name":"Torrance Transit","locationSet":{"include":["us-ca"]},"geometry":["relation"],"matchScore":2,"terms":["torrance transit"],"reference":{"key":"route","value":"bus"},"tags":{"network:wikidata":"Q7826932","route":"bus","type":"route"},"addTags":{"network":"Torrance Transit","network:wikidata":"Q7826932","route":"bus","type":"route"}},"type/route/bus/tularecountyregionaltransitagency-62dc11":{"name":"Tulare County Regional Transit Agency","locationSet":{"include":["us-ca"]},"geometry":["relation"],"matchScore":2,"terms":["tulare county regional transit agency"],"reference":{"key":"route","value":"bus"},"tags":{"network:wikidata":"Q110722692","route":"bus","type":"route"},"addTags":{"network":"Tulare County Regional Transit Agency","network:wikidata":"Q110722692","route":"bus","type":"route"}},"type/route/bus/tuolumnecountytransit-62dc11":{"name":"Tuolumne County Transit","locationSet":{"include":["us-ca"]},"geometry":["relation"],"matchScore":2,"terms":["tuolumne county transit"],"reference":{"key":"route","value":"bus"},"tags":{"network:wikidata":"Q14509110","route":"bus","type":"route"},"addTags":{"network":"Tuolumne County Transit","network:wikidata":"Q14509110","route":"bus","type":"route"}},"type/route/bus/uct-62dc11":{"name":"UCT","locationSet":{"include":["us-ca"]},"geometry":["relation"],"matchScore":2,"terms":["uct","union city transit"],"reference":{"key":"route","value":"bus"},"tags":{"network:wikidata":"Q7885556","route":"bus","type":"route"},"addTags":{"network":"UCT","network:wikidata":"Q7885556","operator":"Union City Transit","route":"bus","type":"route"}},"type/route/bus/vctcintercity-62dc11":{"name":"VCTC Intercity","locationSet":{"include":["us-ca"]},"geometry":["relation"],"matchScore":2,"terms":["vctc intercity"],"reference":{"key":"route","value":"bus"},"tags":{"network:wikidata":"Q7920384","route":"bus","type":"route"},"addTags":{"network":"VCTC Intercity","network:wikidata":"Q7920384","route":"bus","type":"route"}},"type/route/bus/visaliatransit-62dc11":{"name":"Visalia Transit","locationSet":{"include":["us-ca"]},"geometry":["relation"],"matchScore":2,"terms":["visalia transit"],"reference":{"key":"route","value":"bus"},"tags":{"network:wikidata":"Q110722964","route":"bus","type":"route"},"addTags":{"network":"Visalia Transit","network:wikidata":"Q110722964","route":"bus","type":"route"}},"type/route/bus/vvta-62dc11":{"name":"VVTA","locationSet":{"include":["us-ca"]},"geometry":["relation"],"matchScore":2,"terms":["vvta"],"reference":{"key":"route","value":"bus"},"tags":{"network:wikidata":"Q7926418","route":"bus","type":"route"},"addTags":{"network":"VVTA","network:wikidata":"Q7926418","route":"bus","type":"route"}},"type/route/bus/westcat-62dc11":{"name":"WestCAT","locationSet":{"include":["us-ca"]},"geometry":["relation"],"matchScore":2,"terms":["westcat"],"reference":{"key":"route","value":"bus"},"tags":{"network:wikidata":"Q7984179","route":"bus","type":"route"},"addTags":{"network":"WestCAT","network:wikidata":"Q7984179","route":"bus","type":"route"}},"type/route/bus/wheels-62dc11":{"name":"Wheels","locationSet":{"include":["us-ca"]},"geometry":["relation"],"matchScore":2,"terms":["wheels"],"reference":{"key":"route","value":"bus"},"tags":{"network:wikidata":"Q7950139","route":"bus","type":"route"},"addTags":{"network":"Wheels","network:wikidata":"Q7950139","route":"bus","type":"route"}},"type/route/bus/yarts-62dc11":{"name":"YARTS","locationSet":{"include":["us-ca"]},"geometry":["relation"],"matchScore":2,"terms":["yarts","yosemite area regional transportation system"],"reference":{"key":"route","value":"bus"},"tags":{"network:wikidata":"Q8055918","route":"bus","type":"route"},"addTags":{"network":"YARTS","network:wikidata":"Q8055918","route":"bus","type":"route"}},"type/route/bus/yolobus-62dc11":{"name":"Yolobus","locationSet":{"include":["us-ca"]},"geometry":["relation"],"matchScore":2,"terms":["yolobus"],"reference":{"key":"route","value":"bus"},"tags":{"network:wikidata":"Q7779123","route":"bus","type":"route"},"addTags":{"network":"Yolobus","network:wikidata":"Q7779123","route":"bus","type":"route"}},"type/route/bus/yubasuttertransit-62dc11":{"name":"Yuba-Sutter Transit","locationSet":{"include":["us-ca"]},"geometry":["relation"],"matchScore":2,"terms":["yuba-sutter transit"],"reference":{"key":"route","value":"bus"},"tags":{"network:wikidata":"Q8060099","route":"bus","type":"route"},"addTags":{"network":"Yuba-Sutter Transit","network:wikidata":"Q8060099","route":"bus","type":"route"}},"type/route/train/ace-ac62ea":{"name":"Altamont Corridor Express","locationSet":{"include":["us-ca"]},"geometry":["relation"],"matchScore":2,"terms":["ace","san joaquin regional rail commission"],"reference":{"key":"route","value":"train"},"tags":{"network:wikidata":"Q434302","route":"train","type":"route"},"addTags":{"network":"ACE","network:wikidata":"Q434302","operator":"San Joaquin Regional Rail Commission","route":"train","type":"route"}},"type/route/train/metrolink-ac62ea":{"name":"Metrolink (California)","locationSet":{"include":["us-ca"]},"geometry":["relation"],"matchScore":2,"terms":["metrolink","southern california regional rail authority"],"reference":{"key":"route","value":"train"},"tags":{"network:wikidata":"Q766647","route":"train","type":"route"},"addTags":{"network":"Metrolink","network:wikidata":"Q766647","operator":"Southern California Regional Rail Authority","route":"train","type":"route"}},"type/route/train/nctd-ac62ea":{"name":"NCTD Coaster","locationSet":{"include":["us-ca"]},"geometry":["relation"],"matchScore":2,"terms":["nctd"],"reference":{"key":"route","value":"train"},"tags":{"network:wikidata":"Q5138375","route":"train","type":"route"},"addTags":{"network":"NCTD","network:wikidata":"Q5138375","route":"train","type":"route"}}}