{"amenity/atm/bnpparibas-6b438a":{"name":"BNP Paribas","locationSet":{"include":["ae","af","ar","at","bf","bg","bh","br","ca","ch","ci","cl","co","cz","de","dk","dz","es","fi","fr","gb","gf","gp","hu","ie","il","it","kw","lu","ma","ml","mq","mx","nl","no","pe","pt","qa","re","ro","ru","sa","se","sk","sn","tn","tr","us"]},"geometry":["point","vertex"],"matchScore":2,"terms":["bnp paribas"],"fields":["name","brand","{amenity/atm}"],"tags":{"amenity":"atm","brand:wikidata":"Q499707"},"addTags":{"amenity":"atm","brand":"BNP Paribas","brand:wikidata":"Q499707","operator":"BNP Paribas","operator:wikidata":"Q499707"}},"amenity/atm/unionbankofisrael-f1b480":{"name":"בנק אגוד","locationSet":{"include":["il"]},"geometry":["point","vertex"],"matchScore":2,"terms":["bank igud","union bank of israel","בנק אגוד"],"fields":["name","brand","{amenity/atm}"],"tags":{"amenity":"atm","brand:wikidata":"Q2903265"},"addTags":{"alt_name:en":"Bank Igud","amenity":"atm","brand":"בנק אגוד","brand:en":"Union Bank of Israel","brand:he":"בנק אגוד","brand:wikidata":"Q2903265","name:en":"Union Bank of Israel","name:he":"בנק אגוד","operator":"בנק אגוד","operator:wikidata":"Q2903265"}},"amenity/atm/bankotsarhahayal-f1b480":{"name":"בנק אוצר החייל","locationSet":{"include":["il"]},"geometry":["point","vertex"],"matchScore":2,"terms":["bank otsar ha-hayal","בנק אוצר החייל"],"fields":["name","brand","{amenity/atm}"],"tags":{"amenity":"atm","brand:wikidata":"Q2900674"},"addTags":{"amenity":"atm","brand":"בנק אוצר החייל","brand:en":"Bank Otsar Ha-Hayal","brand:he":"בנק אוצר החייל","brand:wikidata":"Q2900674","name:en":"Bank Otsar Ha-Hayal","name:he":"בנק אוצר החייל","operator":"בנק אוצר החייל","operator:wikidata":"Q2900674"}},"amenity/atm/bankdiscount-f1b480":{"name":"בנק דיסקונט","locationSet":{"include":["il"]},"geometry":["point","vertex"],"matchScore":2,"terms":["bank discount","israel discount bank","בנק דיסקונט","בנק דיסקונט לישראל"],"fields":["name","brand","{amenity/atm}"],"tags":{"amenity":"atm","brand:wikidata":"Q250362"},"addTags":{"amenity":"atm","brand":"בנק דיסקונט לישראל","brand:en":"Israel Discount Bank","brand:he":"בנק דיסקונט לישראל","brand:wikidata":"Q250362","name:en":"Bank Discount","name:he":"בנק דיסקונט","operator":"בנק דיסקונט לישראל","operator:wikidata":"Q250362"}},"amenity/atm/bankhapoalim-f1b480":{"name":"בנק הפועלים","locationSet":{"include":["il"]},"geometry":["point","vertex"],"matchScore":2,"terms":["bank hapoalim","בנק הפועלים"],"fields":["name","brand","{amenity/atm}"],"tags":{"amenity":"atm","brand:wikidata":"Q2666775"},"addTags":{"amenity":"atm","brand":"בנק הפועלים","brand:en":"Bank Hapoalim","brand:he":"בנק הפועלים","brand:wikidata":"Q2666775","name:en":"Bank Hapoalim","name:he":"בנק הפועלים","operator":"בנק הפועלים","operator:wikidata":"Q2666775"}},"amenity/atm/bankyahav-f1b480":{"name":"בנק יהד","locationSet":{"include":["il"]},"geometry":["point","vertex"],"matchScore":2,"terms":["bank yahav","בנק יהד"],"fields":["name","brand","{amenity/atm}"],"tags":{"amenity":"atm","brand:wikidata":"Q7187611"},"addTags":{"amenity":"atm","brand":"בנק יהד","brand:en":"Bank Yahav","brand:he":"בנק יהד","brand:wikidata":"Q7187611","name:en":"Bank Yahav","name:he":"בנק יהד","operator":"בנק יהד","operator:wikidata":"Q7187611"}},"amenity/atm/bankofjerusalem-f1b480":{"name":"בנק ירושלים","locationSet":{"include":["il"]},"geometry":["point","vertex"],"matchScore":2,"terms":["bank of jerusalem","בנק ירושלים"],"fields":["name","brand","{amenity/atm}"],"tags":{"amenity":"atm","brand:wikidata":"Q2900227"},"addTags":{"amenity":"atm","brand":"בנק ירושלים","brand:en":"Bank of Jerusalem","brand:he":"בנק ירושלים","brand:wikidata":"Q2900227","name:en":"Bank of Jerusalem","name:he":"בנק ירושלים","operator":"בנק ירושלים","operator:wikidata":"Q2900227"}},"amenity/atm/bankleumi-f1b480":{"name":"בנק לאומי","locationSet":{"include":["il"]},"geometry":["point","vertex"],"matchScore":2,"terms":["bank leumi","בנק לאומי"],"fields":["name","brand","{amenity/atm}"],"tags":{"amenity":"atm","brand:wikidata":"Q806641"},"addTags":{"amenity":"atm","brand":"בנק לאומי","brand:en":"Bank Leumi","brand:he":"בנק לאומי","brand:wikidata":"Q806641","name:en":"Bank Leumi","name:he":"בנק לאומי","operator":"בנק לאומי","operator:wikidata":"Q806641"}},"amenity/atm/bankmassad-f1b480":{"name":"בנק מסד","locationSet":{"include":["il"]},"geometry":["point","vertex"],"matchScore":2,"terms":["bank massad","בנק מסד"],"fields":["name","brand","{amenity/atm}"],"tags":{"amenity":"atm","brand:wikidata":"Q7187667"},"addTags":{"amenity":"atm","brand":"בנק מסד","brand:en":"Bank Massad","brand:he":"בנק מסד","brand:wikidata":"Q7187667","name:en":"Bank Massad","name:he":"בנק מסד","operator":"בנק מסד","operator:wikidata":"Q7187667"}},"amenity/atm/firstinternationalbankofisrael-f1b480":{"name":"הבנק הבינלאומי","locationSet":{"include":["il"]},"geometry":["point","vertex"],"matchScore":2,"terms":["first international bank of israel","הבנק הבינלאומי"],"fields":["name","brand","{amenity/atm}"],"tags":{"amenity":"atm","brand:wikidata":"Q2777497"},"addTags":{"amenity":"atm","brand":"הבנק הבינלאומי","brand:en":"First International Bank of Israel","brand:he":"הבנק הבינלאומי","brand:wikidata":"Q2777497","name:en":"First International Bank of Israel","name:he":"הבנק הבינלאומי","operator":"הבנק הבינלאומי","operator:wikidata":"Q2777497"}},"amenity/atm/bankmizrahitefahot-f1b480":{"name":"מזרחי טפחות","locationSet":{"include":["il"]},"geometry":["point","vertex"],"matchScore":2,"terms":["bank mizrahi-tefahot","mizrahi-tefahot","בנק מזרחי טפחות","מזרחי טפחות"],"fields":["name","brand","{amenity/atm}"],"tags":{"amenity":"atm","brand:wikidata":"Q2777129"},"addTags":{"amenity":"atm","brand":"מזרחי טפחות","brand:en":"Mizrahi-Tefahot","brand:he":"מזרחי טפחות","brand:wikidata":"Q2777129","name:en":"Bank Mizrahi-Tefahot","name:he":"בנק מזרחי טפחות","operator":"מזרחי טפחות","operator:wikidata":"Q2777129"}},"amenity/bank/bnpparibas-42efac":{"name":"BNP Paribas","locationSet":{"include":["ae","af","ar","at","bf","bg","bh","br","ca","ch","ci","cl","co","cz","de","dk","dz","es","fi","fr","gb","gf","gp","hu","ie","il","it","kw","lu","ma","ml","mq","mx","nl","no","pe","pt","qa","re","ro","ru","sa","se","sk","sn","tn","tr","us"]},"geometry":["point","area"],"matchScore":2,"terms":["bnp paribas"],"tags":{"amenity":"bank","brand:wikidata":"Q499707"},"addTags":{"amenity":"bank","brand":"BNP Paribas","brand:wikidata":"Q499707","name":"BNP Paribas"}},"amenity/bank/unionbankofisrael-563f7f":{"name":"בנק אגוד","locationSet":{"include":["il"]},"geometry":["point","area"],"matchScore":2,"terms":["bank igud","union bank of israel","בנק אגוד"],"tags":{"amenity":"bank","brand:wikidata":"Q2903265"},"addTags":{"alt_name:en":"Bank Igud","amenity":"bank","brand":"בנק אגוד","brand:en":"Union Bank of Israel","brand:he":"בנק אגוד","brand:wikidata":"Q2903265","name":"בנק אגוד","name:en":"Union Bank of Israel","name:he":"בנק אגוד"}},"amenity/bank/bankotsarhahayal-563f7f":{"name":"בנק אוצר החייל","locationSet":{"include":["il"]},"geometry":["point","area"],"matchScore":2,"terms":["bank otsar ha-hayal","בנק אוצר החייל"],"tags":{"amenity":"bank","brand:wikidata":"Q2900674"},"addTags":{"amenity":"bank","brand":"בנק אוצר החייל","brand:en":"Bank Otsar Ha-Hayal","brand:he":"בנק אוצר החייל","brand:wikidata":"Q2900674","name":"בנק אוצר החייל","name:en":"Bank Otsar Ha-Hayal","name:he":"בנק אוצר החייל"}},"amenity/bank/bankdiscount-563f7f":{"name":"בנק דיסקונט","locationSet":{"include":["il"]},"geometry":["point","area"],"matchScore":2,"terms":["bank discount","israel discount bank","בנק דיסקונט","בנק דיסקונט לישראל"],"tags":{"amenity":"bank","brand:wikidata":"Q250362"},"addTags":{"amenity":"bank","brand":"בנק דיסקונט לישראל","brand:en":"Israel Discount Bank","brand:he":"בנק דיסקונט לישראל","brand:wikidata":"Q250362","name":"בנק דיסקונט","name:en":"Bank Discount","name:he":"בנק דיסקונט"}},"amenity/bank/bankhapoalim-563f7f":{"name":"בנק הפועלים","locationSet":{"include":["il"]},"geometry":["point","area"],"matchScore":2,"terms":["bank hapoalim","בנק הפועלים"],"tags":{"amenity":"bank","brand:wikidata":"Q2666775"},"addTags":{"amenity":"bank","brand":"בנק הפועלים","brand:en":"Bank Hapoalim","brand:he":"בנק הפועלים","brand:wikidata":"Q2666775","name":"בנק הפועלים","name:en":"Bank Hapoalim","name:he":"בנק הפועלים"}},"amenity/bank/bankyahav-563f7f":{"name":"בנק יהד","locationSet":{"include":["il"]},"geometry":["point","area"],"matchScore":2,"terms":["bank yahav","בנק יהד"],"tags":{"amenity":"bank","brand:wikidata":"Q7187611"},"addTags":{"amenity":"bank","brand":"בנק יהד","brand:en":"Bank Yahav","brand:he":"בנק יהד","brand:wikidata":"Q7187611","name":"בנק יהד","name:en":"Bank Yahav","name:he":"בנק יהד"}},"amenity/bank/bankofjerusalem-563f7f":{"name":"בנק ירושלים","locationSet":{"include":["il"]},"geometry":["point","area"],"matchScore":2,"terms":["bank of jerusalem","בנק ירושלים"],"tags":{"amenity":"bank","brand:wikidata":"Q2900227"},"addTags":{"amenity":"bank","brand":"בנק ירושלים","brand:en":"Bank of Jerusalem","brand:he":"בנק ירושלים","brand:wikidata":"Q2900227","name":"בנק ירושלים","name:en":"Bank of Jerusalem","name:he":"בנק ירושלים"}},"amenity/bank/bankleumi-563f7f":{"name":"בנק לאומי","locationSet":{"include":["il"]},"geometry":["point","area"],"matchScore":2,"terms":["bank leumi","בנק לאומי"],"tags":{"amenity":"bank","brand:wikidata":"Q806641"},"addTags":{"amenity":"bank","brand":"בנק לאומי","brand:en":"Bank Leumi","brand:he":"בנק לאומי","brand:wikidata":"Q806641","name":"בנק לאומי","name:en":"Bank Leumi","name:he":"בנק לאומי"}},"amenity/bank/bankmassad-563f7f":{"name":"בנק מסד","locationSet":{"include":["il"]},"geometry":["point","area"],"matchScore":2,"terms":["bank massad","בנק מסד"],"tags":{"amenity":"bank","brand:wikidata":"Q7187667"},"addTags":{"amenity":"bank","brand":"בנק מסד","brand:en":"Bank Massad","brand:he":"בנק מסד","brand:wikidata":"Q7187667","name":"בנק מסד","name:en":"Bank Massad","name:he":"בנק מסד"}},"amenity/bank/firstinternationalbankofisrael-563f7f":{"name":"הבנק הבינלאומי","locationSet":{"include":["il"]},"geometry":["point","area"],"matchScore":2,"terms":["first international bank of israel","הבנק הבינלאומי"],"tags":{"amenity":"bank","brand:wikidata":"Q2777497"},"addTags":{"amenity":"bank","brand":"הבנק הבינלאומי","brand:en":"First International Bank of Israel","brand:he":"הבנק הבינלאומי","brand:wikidata":"Q2777497","name":"הבנק הבינלאומי","name:en":"First International Bank of Israel","name:he":"הבנק הבינלאומי"}},"amenity/bank/bankmizrahitefahot-563f7f":{"name":"מזרחי טפחות","locationSet":{"include":["il"]},"geometry":["point","area"],"matchScore":2,"terms":["bank mizrahi-tefahot","mizrahi-tefahot","בנק מזרחי טפחות","מזרחי טפחות"],"tags":{"amenity":"bank","brand:wikidata":"Q2777129"},"addTags":{"amenity":"bank","brand":"מזרחי טפחות","brand:en":"Mizrahi-Tefahot","brand:he":"מזרחי טפחות","brand:wikidata":"Q2777129","name":"בנק מזרחי טפחות","name:en":"Bank Mizrahi-Tefahot","name:he":"בנק מזרחי טפחות"}},"amenity/bicycle_rental/telofun-ea041a":{"name":"Tel-O-Fun","locationSet":{"include":["il"]},"geometry":["point","vertex","area"],"matchScore":2,"terms":["fsm","tel-o-fun"],"fields":["name","brand","{amenity/bicycle_rental}"],"tags":{"amenity":"bicycle_rental","brand:wikidata":"Q2915180"},"addTags":{"amenity":"bicycle_rental","brand":"Tel-O-Fun","brand:wikidata":"Q2915180","network":"Tel-O-Fun","network:wikidata":"Q2915180","operator":"FSM"}},"amenity/cafe/coffee_shop/arcaffe-10eb89":{"name":"Arcaffe","locationSet":{"include":["il"]},"geometry":["point","area"],"matchScore":2,"terms":["arcaffe","ארקפה"],"reference":{"key":"cuisine","value":"coffee_shop"},"tags":{"amenity":"cafe","brand:wikidata":"Q2897147","cuisine":"coffee_shop"},"addTags":{"amenity":"cafe","brand":"Arcaffe","brand:en":"Arcaffe","brand:he":"ארקפה","brand:wikidata":"Q2897147","cuisine":"coffee_shop","name":"Arcaffe","name:en":"Arcaffe","name:he":"ארקפה","takeaway":"yes"}},"amenity/cafe/coffee_shop/cofix-5bbbf0":{"name":"Cofix","locationSet":{"include":["il","ru"]},"geometry":["point","area"],"matchScore":2,"terms":["cofix","קופיקס","קפויקס"],"reference":{"key":"cuisine","value":"coffee_shop"},"tags":{"amenity":"cafe","brand:wikidata":"Q16132717","cuisine":"coffee_shop"},"addTags":{"amenity":"cafe","brand":"Cofix","brand:en":"Cofix","brand:he":"קפויקס","brand:wikidata":"Q16132717","cuisine":"coffee_shop","name":"Cofix","name:en":"Cofix","name:he":"קופיקס","takeaway":"yes"}},"amenity/cafe/coffee_shop/cofizz-10eb89":{"name":"Cofizz","locationSet":{"include":["il"]},"geometry":["point","area"],"matchScore":2,"terms":["cofizz","קופיז"],"reference":{"key":"cuisine","value":"coffee_shop"},"tags":{"amenity":"cafe","brand:wikidata":"Q64606270","cuisine":"coffee_shop"},"addTags":{"amenity":"cafe","brand":"Cofizz","brand:en":"Cofizz","brand:he":"קופיז","brand:wikidata":"Q64606270","cuisine":"coffee_shop","name":"Cofizz","name:en":"Cofizz","name:he":"קופיז","takeaway":"yes"}},"amenity/cafe/maxbrenner-15f3f0":{"name":"Max Brenner","locationSet":{"include":["au","il","ru","sg","us"]},"geometry":["point","area"],"matchScore":2,"terms":["max brenner","מקס ברנר"],"tags":{"amenity":"cafe","brand:wikidata":"Q955687"},"addTags":{"amenity":"cafe","brand":"Max Brenner","brand:wikidata":"Q955687","cuisine":"chocolate","name":"Max Brenner","name:en":"Max Brenner","name:he":"מקס ברנר","takeaway":"yes"}},"amenity/cafe/coffee_shop/aromaespressobar-10eb89":{"name":"ארומה","locationSet":{"include":["il"]},"geometry":["point","area"],"matchScore":2,"terms":["aroma espresso bar","ארומה"],"reference":{"key":"cuisine","value":"coffee_shop"},"tags":{"amenity":"cafe","brand:wikidata":"Q2909872","cuisine":"coffee_shop"},"addTags":{"amenity":"cafe","brand":"ארומה","brand:en":"Aroma Espresso Bar","brand:he":"ארומה","brand:wikidata":"Q2909872","cuisine":"coffee_shop","name":"ארומה","name:en":"Aroma Espresso Bar","name:he":"ארומה","takeaway":"yes"}},"amenity/cafe/coffee_shop/landwer-10eb89":{"name":"לנדוור","locationSet":{"include":["il"]},"geometry":["point","area"],"matchScore":2,"terms":["landwer","landwer coffee","לנדוור","קפה לדנוור","קפה לנדוור"],"reference":{"key":"cuisine","value":"coffee_shop"},"tags":{"amenity":"cafe","brand:wikidata":"Q6485288","cuisine":"coffee_shop"},"addTags":{"amenity":"cafe","brand":"קפה לנדוור","brand:en":"Landwer Coffee","brand:he":"קפה לנדוור","brand:wikidata":"Q6485288","cuisine":"coffee_shop","name":"לנדוור","name:en":"Landwer","name:he":"לנדוור","takeaway":"yes"}},"amenity/cafe/coffee_shop/sicafe-10eb89":{"name":"סי קפה","locationSet":{"include":["il"]},"geometry":["point","area"],"matchScore":2,"terms":["si cafe","si espresso","סי אספרסו","סי קפה"],"reference":{"key":"cuisine","value":"coffee_shop"},"tags":{"amenity":"cafe","brand:wikidata":"Q64606227","cuisine":"coffee_shop"},"addTags":{"alt_name":"סי אספרסו","alt_name:en":"Si Espresso","alt_name:he":"סי אספרסו","amenity":"cafe","brand":"סי קפה","brand:en":"Si Cafe","brand:he":"סי קפה","brand:wikidata":"Q64606227","cuisine":"coffee_shop","name":"סי קפה","name:en":"Si Cafe","name:he":"סי קפה","takeaway":"yes"}},"amenity/cafe/coffee_shop/cafejoe-10eb89":{"name":"קפה ג'ו","locationSet":{"include":["il"]},"geometry":["point","area"],"matchScore":2,"terms":["cafe joe","ג'ו קפה","קפה joe","קפה ג'ו"],"reference":{"key":"cuisine","value":"coffee_shop"},"tags":{"amenity":"cafe","brand:wikidata":"Q6774425","cuisine":"coffee_shop"},"addTags":{"alt_name":"קפה Joe","amenity":"cafe","brand":"קפה ג'ו","brand:en":"Cafe Joe","brand:he":"קפה ג'ו","brand:wikidata":"Q6774425","cuisine":"coffee_shop","name":"קפה ג'ו","name:en":"Cafe Joe","name:he":"קפה ג'ו","takeaway":"yes"}},"amenity/cafe/coffee_shop/gregcafe-10eb89":{"name":"קפה גרג","locationSet":{"include":["il"]},"geometry":["point","area"],"matchScore":2,"terms":["greg cafe","קפה גרג"],"reference":{"key":"cuisine","value":"coffee_shop"},"tags":{"amenity":"cafe","brand:wikidata":"Q43295499","cuisine":"coffee_shop"},"addTags":{"amenity":"cafe","brand":"קפה גרג","brand:en":"Greg Cafe","brand:he":"קפה גרג","brand:wikidata":"Q43295499","cuisine":"coffee_shop","name":"קפה גרג","name:en":"Greg Cafe","name:he":"קפה גרג","takeaway":"yes"}},"amenity/cafe/coffee_shop/cafenimrod-10eb89":{"name":"קפה נמרוד","locationSet":{"include":["il"]},"geometry":["point","area"],"matchScore":2,"terms":["cafe nimrod","קפה נמרוד"],"reference":{"key":"cuisine","value":"coffee_shop"},"tags":{"amenity":"cafe","brand:wikidata":"Q64606192","cuisine":"coffee_shop"},"addTags":{"amenity":"cafe","brand":"קפה נמרוד","brand:en":"Cafe Nimrod","brand:he":"קפה נמרוד","brand:wikidata":"Q64606192","cuisine":"coffee_shop","name":"קפה נמרוד","name:en":"Cafe Nimrod","name:he":"קפה נמרוד","takeaway":"yes"}},"amenity/cafe/coffee_shop/cafecafe-10eb89":{"name":"קפה קפה","locationSet":{"include":["il"]},"geometry":["point","area"],"matchScore":2,"terms":["cafe cafe","קפה קפה"],"reference":{"key":"cuisine","value":"coffee_shop"},"tags":{"amenity":"cafe","brand:wikidata":"Q5017233","cuisine":"coffee_shop"},"addTags":{"amenity":"cafe","brand":"קפה קפה","brand:en":"Cafe Cafe","brand:he":"קפה קפה","brand:wikidata":"Q5017233","cuisine":"coffee_shop","name":"קפה קפה","name:en":"Cafe Cafe","name:he":"קפה קפה","takeaway":"yes"}},"amenity/cafe/coffee_shop/roladin-10eb89":{"name":"רולדין","locationSet":{"include":["il"]},"geometry":["point","area"],"matchScore":2,"terms":["roladin","רולדין"],"reference":{"key":"cuisine","value":"coffee_shop"},"tags":{"amenity":"cafe","brand:wikidata":"Q18390972","cuisine":"coffee_shop"},"addTags":{"amenity":"cafe","brand":"רולדין","brand:en":"Roladin","brand:he":"רולדין","brand:wikidata":"Q18390972","cuisine":"coffee_shop","name":"רולדין","name:en":"Roladin","name:he":"רולדין","takeaway":"yes"}},"amenity/fast_food/chicken/brownschicken-dbdcb8":{"name":"Brown's Chicken","locationSet":{"include":["il"]},"geometry":["point","area"],"matchScore":2,"terms":["brown's chicken"],"reference":{"key":"cuisine","value":"chicken"},"tags":{"amenity":"fast_food","brand:wikidata":"Q4975925","cuisine":"chicken"},"addTags":{"amenity":"fast_food","brand":"Brown's Chicken","brand:wikidata":"Q4975925","cuisine":"chicken","name":"Brown's Chicken","takeaway":"yes"}},"amenity/fast_food/burger/burgerim-dbdcb8":{"name":"Burgerim","locationSet":{"include":["il"]},"geometry":["point","area"],"matchScore":2,"terms":["burgerim","בורגרים"],"reference":{"key":"cuisine","value":"burger"},"tags":{"amenity":"fast_food","brand:wikidata":"Q64760354","cuisine":"burger"},"addTags":{"amenity":"fast_food","brand":"Burgerim","brand:en":"Burgerim","brand:he":"בורגרים","brand:wikidata":"Q64760354","cuisine":"burger","name":"Burgerim","name:en":"Burgerim","name:he":"בורגרים","takeaway":"yes"}},"amenity/fast_food/burger/burgersbar-dbdcb8":{"name":"Burgers Bar","locationSet":{"include":["il"]},"geometry":["point","area"],"matchScore":2,"terms":["burgers bar","בורגרס בר"],"reference":{"key":"cuisine","value":"burger"},"tags":{"amenity":"fast_food","brand:wikidata":"Q64760337","cuisine":"burger"},"addTags":{"amenity":"fast_food","brand":"Burgers Bar","brand:en":"Burgers Bar","brand:he":"בורגרס בר","brand:wikidata":"Q64760337","cuisine":"burger","diet:kosher":"yes","name":"Burgers Bar","name:en":"Burgers Bar","name:he":"בורגרס בר","takeaway":"yes"}},"amenity/fast_food/mrpretzels-c5a4fb":{"name":"Mr. Pretzels","locationSet":{"include":["br","ca","cl","eg","fr","gb","il","kw","pr","us","ve"]},"geometry":["point","area"],"matchScore":2,"terms":["mr. pretzels"],"tags":{"amenity":"fast_food","brand:wikidata":"Q115728208"},"addTags":{"amenity":"fast_food","brand":"Mr. Pretzels","brand:wikidata":"Q115728208","cuisine":"pretzel","name":"Mr. Pretzels","takeaway":"yes"}},"amenity/fast_food/oakberryacaibowls-df46eb":{"name":"Oakberry Açaí bowls","locationSet":{"include":["ae","au","bh","br","ch","cl","co","de","es","gr","hr","il","mt","mx","pe","pt","py","sa","th","us"]},"geometry":["point","area"],"matchScore":2,"terms":["oakberry açaí bowls"],"tags":{"amenity":"fast_food","brand:wikidata":"Q104870840"},"addTags":{"amenity":"fast_food","brand":"Oakberry Açaí bowls","brand:wikidata":"Q104870840","cuisine":"açaí","name":"Oakberry Açaí bowls","takeaway":"yes"}},"amenity/fast_food/burger/susuandsons-dbdcb8":{"name":"SUSU & Sons","locationSet":{"include":["il"]},"geometry":["point","area"],"matchScore":2,"terms":["susu & sons","סוסו אנד סאנס","סוסו ובניו"],"reference":{"key":"cuisine","value":"burger"},"tags":{"amenity":"fast_food","brand:wikidata":"Q64760081","cuisine":"burger"},"addTags":{"amenity":"fast_food","brand":"SUSU & Sons","brand:en":"SUSU & Sons","brand:he":"סוסו אנד סאנס","brand:wikidata":"Q64760081","cuisine":"burger","name":"SUSU & Sons","name:en":"SUSU & Sons","name:he":"סוסו אנד סאנס","takeaway":"yes"}},"amenity/fast_food/woktowalk-f5ada9":{"name":"Wok to Walk","locationSet":{"include":["ae","bg","co","cy","ec","ee","es","fx","gb","il","in","it","lt","lv","ma","mt","mx","nl","om","pa","pt","qa","sa","us"]},"geometry":["point","area"],"matchScore":2,"terms":["wok to walk"],"tags":{"amenity":"fast_food","brand:wikidata":"Q4020634"},"addTags":{"amenity":"fast_food","brand":"Wok to Walk","brand:wikidata":"Q4020634","cuisine":"asian","name":"Wok to Walk","takeaway":"yes"}},"amenity/fast_food/burger/agadir-dbdcb8":{"name":"אגדיר","locationSet":{"include":["il"]},"geometry":["point","area"],"matchScore":2,"terms":["agadir","אגדיר"],"reference":{"key":"cuisine","value":"burger"},"tags":{"amenity":"fast_food","brand:wikidata":"Q64760070","cuisine":"burger"},"addTags":{"amenity":"fast_food","brand":"אגדיר","brand:en":"Agadir","brand:he":"אגדיר","brand:wikidata":"Q64760070","cuisine":"burger","name":"אגדיר","name:en":"Agadir","name:he":"אגדיר","takeaway":"yes"}},"amenity/fast_food/burger/mcdonalds-dbdcb8":{"name":"מקדונלד'ס","locationSet":{"include":["il"]},"geometry":["point","area"],"matchScore":2,"terms":["mcdonald's","מקדונלד'ס"],"reference":{"key":"cuisine","value":"burger"},"tags":{"amenity":"fast_food","brand:wikidata":"Q12061542","cuisine":"burger"},"addTags":{"amenity":"fast_food","brand":"מקדונלד'ס","brand:en":"McDonald's","brand:he":"מקדונלד'ס","brand:wikidata":"Q12061542","cuisine":"burger","name":"מקדונלד'ס","name:en":"McDonald's","name:he":"מקדונלד'ס","takeaway":"yes"}},"amenity/fast_food/burger/adhaetzemexpress-dbdcb8":{"name":"עד העצם אקספרס","locationSet":{"include":["il"]},"geometry":["point","area"],"matchScore":2,"terms":["ad haetzem express","עד העצם אקספרס"],"reference":{"key":"cuisine","value":"burger"},"tags":{"amenity":"fast_food","brand:wikidata":"Q64760165","cuisine":"burger"},"addTags":{"amenity":"fast_food","brand":"עד העצם אקספרס","brand:en":"Ad Haetzem Express","brand:he":"עד העצם אקספרס","brand:wikidata":"Q64760165","cuisine":"burger","name":"עד העצם אקספרס","name:en":"Ad Haetzem Express","name:he":"עד העצם אקספרס","takeaway":"yes"}},"amenity/fast_food/pizza/pizzaprego-dbdcb8":{"name":"פיצה פרגו","locationSet":{"include":["il"]},"geometry":["point","area"],"matchScore":2,"terms":["pizza prego","prego pizza","פיצה פרגו"],"reference":{"key":"cuisine","value":"pizza"},"tags":{"amenity":"fast_food","brand:wikidata":"Q99769214","cuisine":"pizza"},"addTags":{"alt_name:en":"Prego Pizza","amenity":"fast_food","brand":"פיצה פרגו","brand:he":"פיצה פרגו","brand:wikidata":"Q99769214","cuisine":"pizza","delivery":"yes","diet:vegan":"yes","name":"פיצה פרגו","name:en":"Pizza Prego","name:he":"פיצה פרגו","takeaway":"yes"}},"amenity/fast_food/pizza/pizzashemesh-dbdcb8":{"name":"פיצה שמש","locationSet":{"include":["il"]},"geometry":["point","area"],"matchScore":2,"terms":["pizza shemesh","shemesh pizza","פיצה שמש"],"reference":{"key":"cuisine","value":"pizza"},"tags":{"amenity":"fast_food","brand:wikidata":"Q99769124","cuisine":"pizza"},"addTags":{"alt_name:en":"Shemesh Pizza","amenity":"fast_food","brand":"פיצה שמש","brand:he":"פיצה שמש","brand:wikidata":"Q99769124","cuisine":"pizza","delivery":"yes","diet:kosher":"yes","name":"פיצה שמש","name:en":"Pizza Shemesh","name:he":"פיצה שמש","takeaway":"yes"}},"amenity/fuel/delek-bb4acb":{"name":"Delek","locationSet":{"include":["il"]},"geometry":["point","area"],"matchScore":2,"terms":["delek"],"fields":["name","brand","{amenity/fuel}"],"tags":{"amenity":"fuel","brand:wikidata":"Q1184087"},"addTags":{"amenity":"fuel","brand":"Delek","brand:wikidata":"Q1184087","name":"Delek"}},"amenity/fuel/doralon-bb4acb":{"name":"דור אלון","locationSet":{"include":["il"]},"geometry":["point","area"],"matchScore":2,"terms":["dor alon","דור אלון"],"fields":["name","brand","{amenity/fuel}"],"tags":{"amenity":"fuel","brand:wikidata":"Q16130352"},"addTags":{"amenity":"fuel","brand":"דור אלון","brand:en":"Dor Alon","brand:he":"דור אלון","brand:wikidata":"Q16130352","name":"דור אלון","name:en":"Dor Alon","name:he":"דור אלון"}},"amenity/fuel/sonol-bb4acb":{"name":"סונול","locationSet":{"include":["il"]},"geometry":["point","area"],"matchScore":2,"terms":["sonol","סונול"],"fields":["name","brand","{amenity/fuel}"],"tags":{"amenity":"fuel","brand:wikidata":"Q3701622"},"addTags":{"amenity":"fuel","brand":"סונול","brand:en":"Sonol","brand:he":"סונול","brand:wikidata":"Q3701622","name":"סונול","name:en":"Sonol","name:he":"סונול"}},"amenity/fuel/paz-bb4acb":{"name":"פז","locationSet":{"include":["il"]},"geometry":["point","area"],"matchScore":2,"terms":["paz","פז"],"fields":["name","brand","{amenity/fuel}"],"tags":{"amenity":"fuel","brand:wikidata":"Q2211731"},"addTags":{"amenity":"fuel","brand":"פז","brand:en":"Paz","brand:he":"פז","brand:wikidata":"Q2211731","name":"פז","name:en":"Paz","name:he":"פז"}},"amenity/pharmacy/be-b1ecfe":{"name":"Be","locationSet":{"include":["il"]},"geometry":["point","area"],"matchScore":2,"terms":["be"],"reference":{"key":"amenity","value":"pharmacy"},"tags":{"amenity":"pharmacy","brand:wikidata":"Q110739667"},"addTags":{"amenity":"pharmacy","brand":"Be","brand:wikidata":"Q110739667","healthcare":"pharmacy","name":"Be"}},"amenity/pharmacy/goodpharm-b1ecfe":{"name":"GOOD PHARM","locationSet":{"include":["il"]},"geometry":["point","area"],"matchScore":2,"terms":["good pharm","גוד פארם"],"reference":{"key":"amenity","value":"pharmacy"},"tags":{"amenity":"pharmacy","brand:wikidata":"Q110739707"},"addTags":{"amenity":"pharmacy","brand":"GOOD PHARM","brand:wikidata":"Q110739707","healthcare":"pharmacy","name":"GOOD PHARM","name:he":"גוד פארם"}},"amenity/pharmacy/superpharm-8f2066":{"name":"Super-Pharm","locationSet":{"include":["cn","il","pl"]},"geometry":["point","area"],"matchScore":2,"terms":["super-pharm","супер-фарм","סופר-פארם","سوبير فارم"],"reference":{"key":"amenity","value":"pharmacy"},"tags":{"amenity":"pharmacy","brand:wikidata":"Q13220217"},"addTags":{"amenity":"pharmacy","brand":"Super-Pharm","brand:en":"Super-Pharm","brand:he":"סופר-פארם","brand:wikidata":"Q13220217","healthcare":"pharmacy","name":"Super-Pharm","name:ar":"سوبير فارم","name:en":"Super-Pharm","name:he":"סופר-פארם","name:ru":"Супер-Фарм"}},"amenity/pharmacy/clalitpharmacy-b1ecfe":{"name":"בית מרקחת כללית","locationSet":{"include":["il"]},"geometry":["point","area"],"matchScore":2,"terms":["clalit","clalit pharmacy","בית מרקחת כללית","כללית"],"reference":{"key":"amenity","value":"pharmacy"},"tags":{"amenity":"pharmacy","brand:wikidata":"Q2028422"},"addTags":{"amenity":"pharmacy","brand":"כללית","brand:en":"Clalit","brand:he":"כללית","brand:wikidata":"Q2028422","healthcare":"pharmacy","name":"בית מרקחת כללית","name:en":"Clalit Pharmacy","name:he":"בית מרקחת כללית"}},"amenity/pharmacy/meuhedetpharm-b1ecfe":{"name":"מאוחדת פארם","locationSet":{"include":["il"]},"geometry":["point","area"],"matchScore":2,"terms":["meuhedet pharm","מאוחדת פארם"],"reference":{"key":"amenity","value":"pharmacy"},"tags":{"amenity":"pharmacy","brand:wikidata":"Q117470179"},"addTags":{"amenity":"pharmacy","brand":"מאוחדת פארם","brand:en":"Meuhedet Pharm","brand:he":"מאוחדת פארם","brand:wikidata":"Q117470179","healthcare":"pharmacy","name":"מאוחדת פארם","name:en":"Meuhedet Pharm","name:he":"מאוחדת פארם"}},"amenity/pharmacy/macabipharm-b1ecfe":{"name":"מכבי פארם","locationSet":{"include":["il"]},"geometry":["point","area"],"matchScore":2,"terms":["macabi pharm","מכבי פארם"],"reference":{"key":"amenity","value":"pharmacy"},"tags":{"amenity":"pharmacy","brand:wikidata":"Q110739725"},"addTags":{"amenity":"pharmacy","brand":"מכבי פארם","brand:en":"Macabi Pharm","brand:he":"מכבי פארם","brand:wikidata":"Q110739725","healthcare":"pharmacy","name":"מכבי פארם","name:en":"Macabi Pharm","name:he":"מכבי פארם"}},"amenity/restaurant/bbb-b691b2":{"name":"BBB","locationSet":{"include":["il"]},"geometry":["point","area"],"matchScore":2,"terms":["bbb","burgus burger bar"],"tags":{"amenity":"restaurant","brand:wikidata":"Q64760094"},"addTags":{"alt_name":"Burgus Burger Bar","alt_name:en":"Burgus Burger Bar","amenity":"restaurant","brand":"Burgus Burger Bar","brand:en":"Burgus Burger Bar","brand:wikidata":"Q64760094","cuisine":"burger","name":"BBB","name:en":"BBB"}},"amenity/restaurant/black-b691b2":{"name":"Black","locationSet":{"include":["il"]},"geometry":["point","area"],"matchScore":2,"terms":["black","black bar burger","בלאק","בלאק בורגר"],"tags":{"amenity":"restaurant","brand:wikidata":"Q64760158"},"addTags":{"amenity":"restaurant","brand":"Black Bar Burger","brand:en":"Black Bar Burger","brand:he":"בלאק בורגר","brand:wikidata":"Q64760158","cuisine":"burger","name":"Black","name:en":"Black","name:he":"בלאק"}},"amenity/restaurant/moses-b691b2":{"name":"Moses","locationSet":{"include":["il"]},"geometry":["point","area"],"matchScore":2,"terms":["moses","מוזס"],"tags":{"amenity":"restaurant","brand:wikidata":"Q64760150"},"addTags":{"amenity":"restaurant","brand":"Moses","brand:en":"Moses","brand:he":"מוזס","brand:wikidata":"Q64760150","cuisine":"burger","name":"Moses","name:en":"Moses","name:he":"מוזס"}},"amenity/restaurant/burgersaloon-b691b2":{"name":"בורגר סאלון","locationSet":{"include":["il"]},"geometry":["point","area"],"matchScore":2,"terms":["burger saloon","בורגר סאלון"],"tags":{"amenity":"restaurant","brand:wikidata":"Q64760057"},"addTags":{"amenity":"restaurant","brand":"בורגר סאלון","brand:en":"Burger Saloon","brand:he":"בורגר סאלון","brand:wikidata":"Q64760057","cuisine":"burger","name":"בורגר סאלון","name:en":"Burger Saloon","name:he":"בורגר סאלון"}},"leisure/fitness_centre/holmesplace-901199":{"name":"Holmes Place","locationSet":{"include":["by","bg","cz","hu","pl","md","ro","ru","sk","ua","ax","gg","je","cq","dk","ee","fo","fi","is","ie","im","lv","lt","no","sj","se","gb","al","ad","ba","hr","gi","gr","va","it","mt","me","mk","pt","sm","rs","si","es","xk","at","be","fr","de","li","lu","mc","nl","ch","il"]},"geometry":["point","area"],"matchScore":2,"terms":["holmes place"],"tags":{"brand:wikidata":"Q15815819","leisure":"fitness_centre"},"addTags":{"brand":"Holmes Place","brand:wikidata":"Q15815819","leisure":"fitness_centre","name":"Holmes Place"}},"leisure/playground/biba-d25aa3":{"name":"Biba Smart Playground","locationSet":{"include":["au","ca","de","gb","hr","il","mx","nz","sg","us"]},"geometry":["area","point"],"matchScore":2,"terms":["biba"],"tags":{"brand:wikidata":"Q116211938","leisure":"playground"},"addTags":{"brand":"Biba","brand:wikidata":"Q116211938","leisure":"playground"}},"shop/baby_goods/shilav-e06f21":{"name":"Shilav","locationSet":{"include":["il"]},"geometry":["point","area"],"matchScore":2,"terms":["shilav","שילב"],"tags":{"brand:wikidata":"Q7496633","shop":"baby_goods"},"addTags":{"brand":"Shilav","brand:wikidata":"Q7496633","name":"שילב","name:en":"Shilav","name:he":"שילב","shop":"baby_goods"}},"shop/bakery/neemanbakery-2a1629":{"name":"מאפה נאמן","locationSet":{"include":["il"]},"geometry":["point","area"],"matchScore":2,"terms":["neeman bakery","מאפה נאמן"],"tags":{"brand:wikidata":"Q117711642","shop":"bakery"},"addTags":{"brand":"מאפה נאמן","brand:en":"Neeman Bakery","brand:he":"מאפה נאמן","brand:wikidata":"Q117711642","name":"מאפה נאמן","name:en":"Neeman Bakery","name:he":"מאפה נאמן","shop":"bakery"}},"shop/books/steimatzky-428a21":{"name":"סטימצקי","locationSet":{"include":["il"]},"geometry":["point","area"],"matchScore":2,"terms":["steimatzky","סטימצקי"],"tags":{"brand:wikidata":"Q2903995","shop":"books"},"addTags":{"brand":"סטימצקי","brand:en":"Steimatzky","brand:he":"סטימצקי","brand:wikidata":"Q2903995","name":"סטימצקי","name:en":"Steimatzky","name:he":"סטימצקי","shop":"books"}},"shop/books/tzometsfarm-428a21":{"name":"צומת ספרים","locationSet":{"include":["il"]},"geometry":["point","area"],"matchScore":2,"terms":["tzomet sfarim","tzomet sfarm","zomet sfarim","צומת ספרים"],"tags":{"brand:wikidata":"Q6743833","shop":"books"},"addTags":{"brand":"צומת ספרים","brand:en":"Tzomet Sfarim","brand:he":"צומת ספרים","brand:wikidata":"Q6743833","name":"צומת ספרים","name:en":"Tzomet Sfarm","name:he":"צומת ספרים","shop":"books"}},"shop/car/karma-40d0fc":{"name":"Karma","locationSet":{"include":["be","ca","cn","ec","es","fr","il","is","nl","pa","se","us"]},"geometry":["point","area"],"matchScore":2,"terms":["karma automotive"],"fields":["name","brand","{shop/car}"],"tags":{"brand:wikidata":"Q22671741","shop":"car"},"addTags":{"brand":"Karma Automotive","brand:wikidata":"Q22671741","name":"Karma","shop":"car"}},"shop/clothes/underwear/aerie-0e6d3d":{"name":"Aerie","locationSet":{"include":["ca","il","us"]},"geometry":["point","area"],"matchScore":2,"terms":["aerie"],"reference":{"key":"clothes","value":"underwear"},"tags":{"brand:wikidata":"Q25351619","clothes":"underwear","shop":"clothes"},"addTags":{"brand":"Aerie","brand:wikidata":"Q25351619","clothes":"underwear","name":"Aerie","shop":"clothes"}},"shop/clothes/americaneagleoutfitters-0e6d3d":{"name":"American Eagle Outfitters","locationSet":{"include":["ca","il","us"]},"geometry":["point","area"],"matchScore":2,"terms":["american eagle","american eagle outfitters"],"tags":{"brand:wikidata":"Q2842931","shop":"clothes"},"addTags":{"brand":"American Eagle Outfitters","brand:wikidata":"Q2842931","clothes":"men;women","name":"American Eagle Outfitters","shop":"clothes","short_name":"American Eagle"}},"shop/clothes/castro-e991b5":{"name":"Castro","locationSet":{"include":["il"]},"geometry":["point","area"],"matchScore":2,"terms":["castro","קסטרו","كاسترو"],"tags":{"brand:wikidata":"Q1049887","shop":"clothes"},"addTags":{"brand":"Castro","brand:wikidata":"Q1049887","clothes":"women;men;children","name":"Castro","name:ar":"كاسترو","name:en":"Castro","name:he":"קסטרו","shop":"clothes"}},"shop/clothes/fox-e991b5":{"name":"FOX","locationSet":{"include":["il"]},"geometry":["point","area"],"matchScore":2,"terms":["fox","פוקס","فوكس"],"tags":{"brand:wikidata":"Q5476569","shop":"clothes"},"addTags":{"brand":"FOX","brand:wikidata":"Q5476569","clothes":"women;men;children","name":"FOX","name:ar":"فوكس","name:en":"FOX","name:he":"פוקס","shop":"clothes"}},"shop/clothes/renuar-e991b5":{"name":"Renuar","locationSet":{"include":["il"]},"geometry":["point","area"],"matchScore":2,"terms":["renuar","רנואר"],"tags":{"brand:wikidata":"Q96179406","shop":"clothes"},"addTags":{"brand":"Renuar","brand:wikidata":"Q96179406","clothes":"women;men","name":"Renuar","name:en":"Renuar","name:he":"רנואר","shop":"clothes"}},"shop/clothes/thechildrensplace-0e6d3d":{"name":"The Children's Place","locationSet":{"include":["ca","il","us"]},"geometry":["point","area"],"matchScore":2,"terms":["children's place","the children's place"],"tags":{"brand:wikidata":"Q3520257","shop":"clothes"},"addTags":{"alt_name":"Children's Place","brand":"The Children's Place","brand:wikidata":"Q3520257","name":"The Children's Place","shop":"clothes"}},"shop/cosmetics/ilmakiage-e301c4":{"name":"IL Makiage","locationSet":{"include":["il"]},"geometry":["point","area"],"matchScore":2,"terms":["il makiage","איל מקיאג'"],"tags":{"brand:wikidata":"Q76089779","shop":"cosmetics"},"addTags":{"brand":"IL Makiage","brand:wikidata":"Q76089779","name":"IL Makiage","name:en":"IL Makiage","name:he":"איל מקיאג'","shop":"cosmetics"}},"shop/cosmetics/laline-e301c4":{"name":"Lallin","locationSet":{"include":["il"]},"geometry":["point","area"],"matchScore":2,"terms":["laline","ללין"],"tags":{"brand:wikidata":"Q55649188","shop":"cosmetics"},"addTags":{"brand":"Laline","brand:wikidata":"Q55649188","name":"ללין","name:en":"Laline","name:he":"ללין","shop":"cosmetics"}},"shop/deli/vomfass-a3c745":{"name":"vomFASS","locationSet":{"include":["at","be","br","ca","ch","cz","de","dk","es","fr","gb","hk","hr","hu","il","it","jp","lv","mx","my","ph","sg","th","us"]},"geometry":["point","area"],"matchScore":2,"terms":["vomfass"],"tags":{"brand:wikidata":"Q2533008","shop":"deli"},"addTags":{"brand":"vomFASS","brand:wikidata":"Q2533008","name":"vomFASS","shop":"deli"}},"shop/jewelry/hstern-5f2e62":{"name":"H. Stern","locationSet":{"include":["ar","br","fr","gb","il","mx","pe","ru","us"]},"geometry":["point","area"],"matchScore":2,"terms":["h. stern"],"tags":{"brand:wikidata":"Q2660388","shop":"jewelry"},"addTags":{"brand":"H. Stern","brand:wikidata":"Q2660388","name":"H. Stern","shop":"jewelry"}},"shop/optician/opticalcenter-02cbb2":{"name":"Optical Center","locationSet":{"include":["be","ca","es","fr","gp","il","lu","mq","re"]},"geometry":["point","area"],"matchScore":2,"terms":["optical center"],"fields":["name","brand","{shop/optician}"],"tags":{"brand:wikidata":"Q3354448","shop":"optician"},"addTags":{"brand":"Optical Center","brand:wikidata":"Q3354448","name":"Optical Center","shop":"optician"}},"shop/supermarket/ampm-6b65f1":{"name":"AM:PM","locationSet":{"include":["il"]},"geometry":["point","area"],"matchScore":2,"terms":["am:pm","am:pm city market"],"tags":{"brand:wikidata":"Q6891113","shop":"supermarket"},"addTags":{"alt_name":"AM:PM City Market","brand":"AM:PM","brand:wikidata":"Q6891113","name":"AM:PM","shop":"supermarket"}},"shop/supermarket/shufersal-6b65f1":{"name":"Shufersal","locationSet":{"include":["il"]},"geometry":["point","area"],"matchScore":2,"terms":["shufersal","шуферсаль","שופרסל"],"tags":{"brand:wikidata":"Q4523181","shop":"supermarket"},"addTags":{"brand":"Shufersal","brand:wikidata":"Q4523181","name":"שופרסל","name:en":"Shufersal","name:he":"שופרסל","name:ru":"Шуферсаль","shop":"supermarket"}},"shop/supermarket/victory-6b65f1":{"name":"Victory","locationSet":{"include":["il"]},"geometry":["point","area"],"matchScore":2,"terms":["victory","виктори","ויקטורי"],"tags":{"brand:wikidata":"Q6564842","shop":"supermarket"},"addTags":{"brand":"Victory","brand:wikidata":"Q6564842","name":"Victory","name:en":"Victory","name:he":"ויקטורי","name:ru":"Виктори","shop":"supermarket"}},"shop/supermarket/osherad-6b65f1":{"name":"אושר עד","locationSet":{"include":["il"]},"geometry":["point","area"],"matchScore":2,"terms":["osher ad","ошер ад","אושר עד"],"tags":{"brand:wikidata":"Q31198118","shop":"supermarket"},"addTags":{"brand":"Osher Ad","brand:wikidata":"Q31198118","name":"אושר עד","name:en":"Osher Ad","name:he":"אושר עד","name:ru":"Ошер Ад","shop":"supermarket"}},"shop/supermarket/tivtaam-6b65f1":{"name":"טיב טעם","locationSet":{"include":["il"]},"geometry":["point","area"],"matchScore":2,"terms":["tiv ta'am","tiv taam","тив та'ам","טיב טעם"],"tags":{"brand:wikidata":"Q2903718","shop":"supermarket"},"addTags":{"alt_name":"Tiv Ta'am","brand":"Tiv Ta'am","brand:wikidata":"Q2903718","name":"טיב טעם","name:en":"Tiv Taam","name:he":"טיב טעם","name:ru":"Тив Та'ам","shop":"supermarket"}},"shop/supermarket/yeinotbitan-6b65f1":{"name":"יינות ביתן","locationSet":{"include":["il"]},"geometry":["point","area"],"matchScore":2,"terms":["yeinot bitan","yenot bitan; bitan wines","יינות ביתן"],"tags":{"brand:wikidata":"Q6561327","shop":"supermarket"},"addTags":{"alt_name:en":"Yenot Bitan; Bitan Wines","brand":"יינות ביתן","brand:en":"Yeinot Bitan","brand:he":"יינות ביתן","brand:wikidata":"Q6561327","name":"יינות ביתן","name:en":"Yeinot Bitan","name:he":"יינות ביתן","shop":"supermarket"}},"shop/supermarket/mega-6b65f1":{"name":"מגה","locationSet":{"include":["il"]},"geometry":["point","area"],"matchScore":2,"terms":["mega","мега","מגה"],"tags":{"brand:wikidata":"Q12403907","shop":"supermarket"},"addTags":{"brand":"מגה","brand:en":"Mega","brand:he":"מגה","brand:wikidata":"Q12403907","name":"מגה","name:en":"Mega","name:he":"מגה","name:ru":"Мега","shop":"supermarket"}},"shop/supermarket/megabair-6b65f1":{"name":"מגה בעיר","locationSet":{"include":["il"]},"geometry":["point","area"],"matchScore":2,"terms":["mega ba'ir","мега ба'ир","מגה בעיר"],"tags":{"brand:wikidata":"Q12403907","shop":"supermarket"},"addTags":{"brand":"מגה בעיר","brand:en":"Mega Ba'Ir","brand:he":"מגה בעיר","brand:wikidata":"Q12403907","name":"מגה בעיר","name:en":"Mega Ba'Ir","name:he":"מגה בעיר","name:ru":"Мега Ба'Ир","shop":"supermarket"}},"shop/supermarket/coopshop-6b65f1":{"name":"קואופ שופ","locationSet":{"include":["il"]},"geometry":["point","area"],"matchScore":2,"terms":["coop","coop shop","коп шоп","קואופ שופ"],"tags":{"brand:wikidata":"Q16132437","shop":"supermarket"},"addTags":{"brand":"Coop","brand:wikidata":"Q16132437","name":"קואופ שופ","name:en":"Coop Shop","name:he":"קואופ שופ","name:ru":"Коп Шоп","shop":"supermarket"}},"shop/supermarket/ramilevi-6b65f1":{"name":"רמי לוי","locationSet":{"include":["il"]},"geometry":["point","area"],"matchScore":2,"terms":["rami levi","rami levy hashikma marketing","рами леви","רמי לוי","רמי לוי שיווק השקמה"],"tags":{"brand:wikidata":"Q6035779","shop":"supermarket"},"addTags":{"alt_name":"רמי לוי שיווק השקמה","brand":"רמי לוי שיווק השקמה","brand:en":"Rami Levy Hashikma Marketing","brand:he":"רמי לוי שיווק השקמה","brand:wikidata":"Q6035779","name":"רמי לוי","name:en":"Rami Levi","name:he":"רמי לוי","name:ru":"Рами Леви","shop":"supermarket"}},"shop/supermarket/shufersalexpress-6b65f1":{"name":"שופרסל אקספרס","locationSet":{"include":["il"]},"geometry":["point","area"],"matchScore":2,"terms":["shufersal express","шуферсаль экспресс","שופרסל אקספרס"],"tags":{"brand:wikidata":"Q4523181","shop":"supermarket"},"addTags":{"brand":"Shufersal Express","brand:wikidata":"Q4523181","name":"שופרסל אקספרס","name:en":"Shufersal Express","name:he":"שופרסל אקספרס","name:ru":"Шуферсаль Экспресс","shop":"supermarket"}},"shop/supermarket/shufersaldeal-6b65f1":{"name":"שופרסל דיל","locationSet":{"include":["il"]},"geometry":["point","area"],"matchScore":2,"terms":["shufersal deal","шуферсаль диль","שופרסל דיל"],"tags":{"brand:wikidata":"Q4523181","shop":"supermarket"},"addTags":{"brand":"שופרסל דיל","brand:en":"Shufersal Deal","brand:he":"שופרסל דיל","brand:wikidata":"Q4523181","name":"שופרסל דיל","name:en":"Shufersal Deal","name:he":"שופרסל דיל","name:ru":"Шуферсаль Диль","shop":"supermarket"}},"shop/supermarket/shufersalsheli-6b65f1":{"name":"שופרסל שלי","locationSet":{"include":["il"]},"geometry":["point","area"],"matchScore":2,"terms":["shufersal sheli","шуферсаль шели","שופרסל שלי"],"tags":{"brand:wikidata":"Q4523181","shop":"supermarket"},"addTags":{"brand":"Shufersal Sheli","brand:wikidata":"Q4523181","name":"שופרסל שלי","name:en":"Shufersal Sheli","name:he":"שופרסל שלי","name:ru":"Шуферсаль Шели","shop":"supermarket"}},"shop/tea/palaisdesthes-9d2342":{"name":"Palais des Thés","locationSet":{"include":["be","fr","ge","il","lu","no","ru"]},"geometry":["point","area"],"matchScore":2,"terms":["palais des thés"],"tags":{"brand:wikidata":"Q3225161","shop":"tea"},"addTags":{"brand":"Palais des Thés","brand:wikidata":"Q3225161","name":"Palais des Thés","shop":"tea"}},"shop/variety_store/flyingtigercopenhagen-55ef00":{"name":"Flying Tiger Copenhagen","locationSet":{"include":["at","be","ch","cy","cz","de","dk","ee","es","fi","fr","gb","gr","hu","ie","il","is","it","jp","kr","lt","lv","mt","nl","no","pl","pt","se","sk"]},"geometry":["point","area"],"matchScore":2,"terms":["flying tiger","flying tiger copenhagen","tgr","tiger"],"tags":{"brand:wikidata":"Q2786319","shop":"variety_store"},"addTags":{"brand":"Flying Tiger Copenhagen","brand:wikidata":"Q2786319","name":"Flying Tiger Copenhagen","shop":"variety_store","short_name":"Flying Tiger"}},"tourism/hotel/leonardoboutique-97784d":{"name":"Leonardo Boutique","locationSet":{"include":["ch","de","es","hu","il","nl"]},"geometry":["point","area"],"matchScore":2,"terms":["leonardo boutique"],"fields":["name","brand","{tourism/hotel}"],"tags":{"brand:wikidata":"Q1819101","tourism":"hotel"},"addTags":{"brand":"Leonardo Boutique","brand:wikidata":"Q1819101","name":"Leonardo Boutique","tourism":"hotel"}},"tourism/hotel/waldorfastoria-665f74":{"name":"Waldorf Astoria","locationSet":{"include":["ae","au","cn","de","eg","fx","gb","il","it","kw","mv","mx","nl","pa","sa","th","us"]},"geometry":["point","area"],"matchScore":2,"terms":["waldorf astoria"],"fields":["name","brand","{tourism/hotel}"],"tags":{"brand:wikidata":"Q3239392","tourism":"hotel"},"addTags":{"brand":"Waldorf Astoria","brand:wikidata":"Q3239392","name":"Waldorf Astoria","tourism":"hotel"}},"amenity/clinic/clalithealthcareservices-1b314b":{"name":"כללית","locationSet":{"include":["il"]},"geometry":["point","area"],"matchScore":2,"terms":["clalit healthcare services","כללית"],"fields":["name","operator","{amenity/clinic}"],"reference":{"key":"amenity","value":"clinic"},"tags":{"amenity":"clinic","operator:wikidata":"Q2028422"},"addTags":{"amenity":"clinic","healthcare":"clinic","operator":"כללית","operator:en":"Clalit Healthcare Services","operator:he":"כללית","operator:wikidata":"Q2028422"}},"amenity/clinic/maccabihealthcareservices-1b314b":{"name":"מכבי","locationSet":{"include":["il"]},"geometry":["point","area"],"matchScore":2,"terms":["maccabi healthcare services","מכבי"],"fields":["name","operator","{amenity/clinic}"],"reference":{"key":"amenity","value":"clinic"},"tags":{"amenity":"clinic","operator:wikidata":"Q2907040"},"addTags":{"amenity":"clinic","healthcare":"clinic","operator":"מכבי","operator:en":"Maccabi Healthcare Services","operator:he":"מכבי","operator:wikidata":"Q2907040"}},"amenity/post_box/israelpostalcompany-6a5101":{"name":"דואר ישראל","locationSet":{"include":["il"]},"geometry":["point","vertex"],"matchScore":2,"terms":["israel postal company","דואר ישראל"],"tags":{"amenity":"post_box","operator:wikidata":"Q671700"},"addTags":{"amenity":"post_box","operator":"דואר ישראל","operator:en":"Israel Postal Company","operator:he":"דואר ישראל","operator:wikidata":"Q671700"}},"amenity/post_office/israelpostalcompany-74bc74":{"name":"דואר ישראל","locationSet":{"include":["il"]},"geometry":["point","area"],"matchScore":2,"terms":["israel postal company","דואר ישראל"],"fields":["name","operator","{amenity/post_office}"],"tags":{"amenity":"post_office","operator:wikidata":"Q671700"},"addTags":{"amenity":"post_office","operator":"דואר ישראל","operator:en":"Israel Postal Company","operator:he":"דואר ישראל","operator:wikidata":"Q671700"}},"amenity/telephone/bezeq-f642b6":{"name":"בזק","locationSet":{"include":["il"]},"geometry":["point","vertex"],"matchScore":2,"terms":["bezeq","בזק"],"fields":["name","operator","{amenity/telephone}"],"tags":{"amenity":"telephone","operator:wikidata":"Q853619"},"addTags":{"amenity":"telephone","operator":"בזק","operator:en":"Bezeq","operator:he":"בזק","operator:wikidata":"Q853619"}}}