{"amenity/atm/statebank-ebb8d3":{"name":"Төрийн банк","locationSet":{"include":["mn"]},"geometry":["point","vertex"],"matchScore":2,"terms":["state bank","төрийн банк"],"fields":["name","brand","{amenity/atm}"],"tags":{"amenity":"atm","brand:wikidata":"Q7766381"},"addTags":{"amenity":"atm","brand":"Төрийн банк","brand:en":"State Bank","brand:mn":"Төрийн банк","brand:wikidata":"Q7766381","name:en":"State Bank","name:mn":"Төрийн банк","operator":"Төрийн банк","operator:wikidata":"Q7766381"}},"amenity/atm/khanbank-ebb8d3":{"name":"Хаан банк","locationSet":{"include":["mn"]},"geometry":["point","vertex"],"matchScore":2,"terms":["khan bank","хаан банк"],"fields":["name","brand","{amenity/atm}"],"tags":{"amenity":"atm","brand:wikidata":"Q25632240"},"addTags":{"amenity":"atm","brand":"Хаан банк","brand:en":"Khan Bank","brand:mn":"Хаан банк","brand:wikidata":"Q25632240","name:en":"Khan Bank","name:mn":"Хаан банк","operator":"Хаан банк","operator:wikidata":"Q25632240"}},"amenity/bank/statebank-031586":{"name":"Төрийн банк","locationSet":{"include":["mn"]},"geometry":["point","area"],"matchScore":2,"terms":["state bank","төрийн банк"],"tags":{"amenity":"bank","brand:wikidata":"Q7766381"},"addTags":{"amenity":"bank","brand":"Төрийн банк","brand:en":"State Bank","brand:mn":"Төрийн банк","brand:wikidata":"Q7766381","name":"Төрийн банк","name:en":"State Bank","name:mn":"Төрийн банк"}},"amenity/bank/khanbank-031586":{"name":"Хаан банк","locationSet":{"include":["mn"]},"geometry":["point","area"],"matchScore":2,"terms":["khan bank","хаан банк"],"tags":{"amenity":"bank","brand:wikidata":"Q25632240"},"addTags":{"amenity":"bank","brand":"Хаан банк","brand:en":"Khan Bank","brand:mn":"Хаан банк","brand:wikidata":"Q25632240","name":"Хаан банк","name:en":"Khan Bank","name:mn":"Хаан банк"}},"amenity/cafe/coffee_shop/tomntoms-16c022":{"name":"Tom N Toms","locationSet":{"include":["au","ch","hk","kr","mn","mo","my","ph","sg","th","us"]},"geometry":["point","area"],"matchScore":2,"terms":["tom n toms","탐앤탐스"],"reference":{"key":"cuisine","value":"coffee_shop"},"tags":{"amenity":"cafe","brand:wikidata":"Q18142418","cuisine":"coffee_shop;pretzel;smoothie;tea;bread"},"addTags":{"amenity":"cafe","brand":"Tom N Toms","brand:en":"Tom N Toms","brand:ko":"탐앤탐스","brand:wikidata":"Q18142418","cuisine":"coffee_shop;pretzel;smoothie;tea;bread","name":"Tom N Toms","takeaway":"yes"}},"amenity/restaurant/bdsmongoliangrill-bcd08b":{"name":"bd's Mongolian Grill","locationSet":{"include":["mn","us"]},"geometry":["point","area"],"matchScore":2,"terms":["bd mongolian grill","bd's mongolian grill"],"tags":{"amenity":"restaurant","brand:wikidata":"Q69890408"},"addTags":{"amenity":"restaurant","brand":"bd's Mongolian Grill","brand:wikidata":"Q69890408","cuisine":"mongolian_grill","name":"bd's Mongolian Grill"}},"shop/shoes/drkong-2bd793":{"name":"Dr. Kong","locationSet":{"include":["az","bn","bu","cn","es","id","mn","my","ph","sg","th","uz"]},"geometry":["point","area"],"matchScore":2,"terms":["dr. kong","江博士"],"tags":{"brand:wikidata":"Q116547631","shop":"shoes"},"addTags":{"brand":"Dr. Kong","brand:wikidata":"Q116547631","name":"Dr. Kong","name:en":"Dr. Kong","shop":"shoes"}},"tourism/hotel/toyokoinn-6b9be5":{"name":"Toyoko Inn","locationSet":{"include":["de","fr","kr","mn","ph"]},"geometry":["point","area"],"matchScore":2,"terms":["toyoko inn"],"fields":["name","brand","{tourism/hotel}"],"tags":{"brand:wikidata":"Q1320541","tourism":"hotel"},"addTags":{"brand":"Toyoko Inn","brand:wikidata":"Q1320541","name":"Toyoko Inn","tourism":"hotel"}}}