{"amenity/atm/bluefederalcreditunion-7e60b6":{"name":"Blue Federal Credit Union","locationSet":{"include":["us-co","us-wy"]},"geometry":["point","vertex"],"matchScore":2,"terms":["blue federal credit union"],"fields":["name","brand","{amenity/atm}"],"tags":{"amenity":"atm","brand:wikidata":"Q113495617"},"addTags":{"amenity":"atm","brand":"Blue Federal Credit Union","brand:wikidata":"Q113495617","operator":"Blue Federal Credit Union","operator:wikidata":"Q113495617"}},"amenity/bank/bluefederalcreditunion-406be7":{"name":"Blue Federal Credit Union","locationSet":{"include":["us-co","us-wy"]},"geometry":["point","area"],"matchScore":2,"terms":["blue federal credit union"],"tags":{"amenity":"bank","brand:wikidata":"Q113495617"},"addTags":{"amenity":"bank","brand":"Blue Federal Credit Union","brand:wikidata":"Q113495617","name":"Blue Federal Credit Union"}},"amenity/dentist/dentalworks-f3d61f":{"name":"DentalWorks","locationSet":{"include":["us-az","us-co","us-il","us-in","us-ky","us-mi","us-nc","us-oh","us-pa","us-sc","us-tn","us-tx","us-wi"]},"geometry":["point","area"],"matchScore":2,"terms":["dentalworks"],"reference":{"key":"amenity","value":"dentist"},"tags":{"amenity":"dentist","brand:wikidata":"Q113712187"},"addTags":{"amenity":"dentist","brand":"DentalWorks","brand:wikidata":"Q113712187","healthcare":"dentist","name":"DentalWorks"}},"amenity/fast_food/donut/duckdonuts-6333a9":{"name":"Duck Donuts","locationSet":{"include":["ca-on","eg","sa","us-ar","us-az","us-ca","us-co","us-fl","us-ga","us-id","us-il","us-ks","us-ky","us-md","us-mi","us-mn","us-mo","us-nc","us-nj","us-ny","us-oh","us-pa","us-sc","us-tn","us-tx","us-ut","us-va"]},"geometry":["point","area"],"matchScore":2,"terms":["duck donuts","duck doughnuts"],"reference":{"key":"cuisine","value":"donut"},"tags":{"amenity":"fast_food","brand:wikidata":"Q54958282","cuisine":"donut"},"addTags":{"amenity":"fast_food","brand":"Duck Donuts","brand:wikidata":"Q54958282","cuisine":"donut","name":"Duck Donuts","takeaway":"yes"}},"amenity/fast_food/burger/twisters-14d357":{"name":"Twisters","locationSet":{"include":["us-co","us-nm"]},"geometry":["point","area"],"matchScore":2,"terms":["twisters","twisters burgers & burritos"],"reference":{"key":"cuisine","value":"burger"},"tags":{"amenity":"fast_food","brand:wikidata":"Q18062004","cuisine":"burger"},"addTags":{"amenity":"fast_food","brand":"Twisters","brand:wikidata":"Q18062004","cuisine":"burger","name":"Twisters","official_name":"Twisters Burgers & Burritos","takeaway":"yes"}},"amenity/payment_terminal/coloradomvexpress-68f4fc":{"name":"Colorado MV Express","locationSet":{"include":["us-co"]},"geometry":["point"],"matchScore":2,"terms":["colorado division of motor vehicles","colorado mv express"],"tags":{"amenity":"payment_terminal","brand:wikidata":"Q110265726"},"addTags":{"amenity":"payment_terminal","brand":"Colorado MV Express","brand:wikidata":"Q110265726","name":"Colorado MV Express","operator":"Colorado Division of Motor Vehicles","operator:wikidata":"Q115412989"}},"amenity/restaurant/seafood/joescrabshack-c6bbaa":{"name":"Joe's Crab Shack","locationSet":{"include":["us-az","us-ca","us-co","us-fl","us-ga","us-ky","us-la","us-mo","us-nc","us-nj","us-pa","us-sc","us-tn","us-tx","us-ut","us-va"]},"geometry":["point","area"],"matchScore":2,"terms":["joe's crab shack"],"reference":{"key":"cuisine","value":"seafood"},"tags":{"amenity":"restaurant","brand:wikidata":"Q6208210","cuisine":"seafood"},"addTags":{"amenity":"restaurant","brand":"Joe's Crab Shack","brand:wikidata":"Q6208210","cuisine":"seafood","name":"Joe's Crab Shack"}},"amenity/restaurant/american/lazydog-f4f1ab":{"name":"Lazy Dog","locationSet":{"include":["us-ca","us-co","us-fl","us-ga","us-il","us-nv","us-tx","us-va"]},"geometry":["point","area"],"matchScore":2,"terms":["lazy dog"],"reference":{"key":"cuisine","value":"american"},"tags":{"amenity":"restaurant","brand:wikidata":"Q111304278","cuisine":"american"},"addTags":{"amenity":"restaurant","brand":"Lazy Dog","brand:wikidata":"Q111304278","cuisine":"american","name":"Lazy Dog"}},"amenity/restaurant/italian/maggianoslittleitaly-acf8ec":{"name":"Maggiano's Little Italy","locationSet":{"include":["us-az","us-ca","us-co","us-dc","us-fl","us-ga","us-il","us-in","us-ks","us-ma","us-md","us-mi","us-mo","us-nc","us-nj","us-nv","us-ny","us-oh","us-pa","us-tn","us-tx","us-va","us-wa","us-wi"]},"geometry":["point","area"],"matchScore":2,"terms":["maggiano's little italy"],"reference":{"key":"cuisine","value":"italian"},"tags":{"amenity":"restaurant","brand:wikidata":"Q6730149","cuisine":"italian"},"addTags":{"amenity":"restaurant","brand":"Maggiano's Little Italy","brand:wikidata":"Q6730149","cuisine":"italian","name":"Maggiano's Little Italy"}},"amenity/restaurant/snooze-62450c":{"name":"Snooze","locationSet":{"include":["us-az","us-ca","us-co","us-ga","us-ks","us-mo","us-nc","us-tn","us-tx"]},"geometry":["point","area"],"matchScore":2,"terms":["snooze","snooze, an a.m. eatery"],"tags":{"amenity":"restaurant","brand:wikidata":"Q111304345"},"addTags":{"amenity":"restaurant","brand":"Snooze","brand:wikidata":"Q111304345","cuisine":"breakfast","name":"Snooze","official_name":"Snooze, an A.M. Eatery"}},"leisure/sports_centre/xgolf-8a88af":{"name":"X Golf","locationSet":{"include":["us-al","us-co","us-ga","us-il","us-in","us-ks","us-ma","us-me","us-mi","us-mn","us-mo","us-nd","us-ne","us-ny","us-oh","us-or","us-pa","us-ri","us-sc","us-sd","us-ut","us-va","us-wa","us-wi"]},"geometry":["point","area"],"matchScore":2,"terms":["x golf"],"fields":["name","brand","{leisure/sports_centre}"],"tags":{"brand:wikidata":"Q111585369","leisure":"sports_centre"},"addTags":{"brand":"X Golf","brand:wikidata":"Q111585369","indoor":"yes","leisure":"sports_centre","name":"X Golf","sport":"golf"}},"shop/gift/atticsalt-ae6503":{"name":"Attic Salt","locationSet":{"include":["us-az","us-ca","us-co","us-id","us-il","us-in","us-ks","us-la","us-mo","us-ne","us-nv","us-ok","us-or","us-tx","us-ut","us-wa"]},"geometry":["point","area"],"matchScore":2,"terms":["attic salt"],"tags":{"brand:wikidata":"Q108409773","shop":"gift"},"addTags":{"brand":"Attic Salt","brand:wikidata":"Q108409773","name":"Attic Salt","shop":"gift"}},"shop/hairdresser/imagestudios-0d42d5":{"name":"Image Studios","locationSet":{"include":["us-ca","us-co","us-fl","us-ga","us-ky","us-mo","us-nc","us-nj","us-nv","us-ny","us-oh","us-or","us-sc","us-tn","us-tx","us-ut"]},"geometry":["point","area"],"matchScore":2,"terms":["image studios"],"tags":{"brand:wikidata":"Q110998819","shop":"hairdresser"},"addTags":{"brand":"Image Studios","brand:wikidata":"Q110998819","name":"Image Studios","shop":"hairdresser"}},"shop/pastry/mrsfields-e944b6":{"name":"Mrs. Fields","locationSet":{"include":["au","ph","us-ak","us-al","us-az","us-ca","us-co","us-de","us-fl","us-ga","us-hi","us-id","us-il","us-in","us-ks","us-la","us-ma","us-md","us-me","us-mi","us-mo","us-ms","us-nc","us-nj","us-nv","us-ny","us-oh","us-ok","us-pa","us-tx","us-ut","us-wi"]},"geometry":["point","area"],"matchScore":2,"terms":["mrs. fields"],"tags":{"brand:wikidata":"Q3866841","shop":"pastry"},"addTags":{"brand":"Mrs. Fields","brand:wikidata":"Q3866841","name":"Mrs. Fields","shop":"pastry"}},"shop/trade/americanroofingsupply-930674":{"name":"American Roofing Supply","locationSet":{"include":["us-az","us-co","us-id","us-il","us-in","us-mn","us-nd","us-ne","us-sd","us-wi"]},"geometry":["point","area"],"matchScore":2,"terms":["american roofing supply"],"tags":{"brand:wikidata":"Q114515313","shop":"trade"},"addTags":{"brand":"American Roofing Supply","brand:wikidata":"Q114515313","name":"American Roofing Supply","shop":"trade","trade":"roofing"}},"shop/trade/wagnercat-ca7f61":{"name":"Wagner CAT","locationSet":{"include":["us-co","us-nm"]},"geometry":["point","area"],"matchScore":2,"terms":["wagner cat"],"tags":{"brand:wikidata":"Q109615846","shop":"trade"},"addTags":{"brand":"Wagner CAT","brand:wikidata":"Q109615846","name":"Wagner CAT","shop":"trade","trade":"construction_equipment"}},"amenity/bicycle_parking/regionaltransportationdistrict-8adeca":{"name":"RTD Bike-n-Ride","locationSet":{"include":["us-co"]},"geometry":["point","vertex","area"],"matchScore":2,"terms":["regional transportation district","rtd"],"fields":["name","operator","{amenity/bicycle_parking}"],"tags":{"amenity":"bicycle_parking","operator:wikidata":"Q7309183"},"addTags":{"amenity":"bicycle_parking","bike_ride":"yes","name":"RTD Bike-n-Ride","operator":"Regional Transportation District","operator:short":"RTD","operator:wikidata":"Q7309183"}},"amenity/fire_station/southmetrofirerescue-631c9b":{"name":"South Metro Fire Rescue","locationSet":{"include":["us-co"]},"geometry":["point","area"],"matchScore":2,"terms":["smfr","south metro fire rescue"],"tags":{"amenity":"fire_station","operator:wikidata":"Q96406078"},"addTags":{"amenity":"fire_station","operator":"South Metro Fire Rescue","operator:short":"SMFR","operator:wikidata":"Q96406078"}},"amenity/library/pikespeaklibrarydistrict-0087cb":{"name":"Pikes Peak Library District","locationSet":{"include":["us-co"]},"geometry":["point","area"],"matchScore":2,"terms":["pikes peak library district","ppld"],"tags":{"amenity":"library","operator:wikidata":"Q69470355"},"addTags":{"amenity":"library","operator":"Pikes Peak Library District","operator:short":"PPLD","operator:type":"public","operator:wikidata":"Q69470355"}},"amenity/police/coloradostatepatrol-6fe638":{"name":"Colorado State Patrol","locationSet":{"include":["us-co"]},"geometry":["point","area"],"matchScore":2,"terms":["colorado state patrol","csp"],"tags":{"amenity":"police","operator:wikidata":"Q5148950"},"addTags":{"amenity":"police","operator":"Colorado State Patrol","operator:short":"CSP","operator:wikidata":"Q5148950"}},"amenity/school/academydistrict20-64c3e7":{"name":"Academy District 20","locationSet":{"include":["us-co"]},"geometry":["area","point"],"matchScore":2,"terms":["academy district 20","academy school district 20"],"tags":{"amenity":"school","operator:wikidata":"Q4671379"},"addTags":{"amenity":"school","operator":"Academy District 20","operator:type":"public","operator:wikidata":"Q4671379"}},"amenity/school/cherrycreekschooldistrict-64c3e7":{"name":"Cherry Creek School District","locationSet":{"include":["us-co"]},"geometry":["area","point"],"matchScore":2,"terms":["ccsd","cherry creek public schools","cherry creek school district"],"tags":{"amenity":"school","operator:wikidata":"Q5092329"},"addTags":{"amenity":"school","operator":"Cherry Creek School District","operator:short":"CCSD","operator:type":"public","operator:wikidata":"Q5092329"}},"amenity/school/coloradospringsschooldistrict11-64c3e7":{"name":"Colorado Springs School District 11","locationSet":{"include":["us-co"]},"geometry":["area","point"],"matchScore":2,"terms":["colorado springs school district 11","colorado springs schools","d11"],"tags":{"amenity":"school","operator:wikidata":"Q5148934"},"addTags":{"amenity":"school","operator":"Colorado Springs School District 11","operator:short":"D11","operator:type":"public","operator:wikidata":"Q5148934"}},"amenity/school/denverpublicschools-64c3e7":{"name":"Denver Public Schools","locationSet":{"include":["us-co"]},"geometry":["area","point"],"matchScore":2,"terms":["denver public schools","dps"],"tags":{"amenity":"school","operator:wikidata":"Q3023385"},"addTags":{"amenity":"school","operator":"Denver Public Schools","operator:short":"DPS","operator:type":"public","operator:wikidata":"Q3023385"}},"amenity/school/douglascountyschooldistrict-64c3e7":{"name":"Douglas County School District (Colorado)","locationSet":{"include":["us-co"]},"geometry":["area","point"],"matchScore":2,"terms":["dcsd","douglas county school district"],"tags":{"amenity":"school","operator:wikidata":"Q5301378"},"addTags":{"amenity":"school","operator":"Douglas County School District","operator:short":"DCSD","operator:type":"public","operator:wikidata":"Q5301378"}},"amenity/school/falconschooldistrict49-64c3e7":{"name":"Falcon School District 49","locationSet":{"include":["us-co"]},"geometry":["area","point"],"matchScore":2,"terms":["d49","falcon school district 49"],"tags":{"amenity":"school","operator:wikidata":"Q5431765"},"addTags":{"amenity":"school","operator":"Falcon School District 49","operator:short":"D49","operator:type":"public","operator:wikidata":"Q5431765"}},"amenity/school/harrisonschooldistrict2-64c3e7":{"name":"Harrison School District 2","locationSet":{"include":["us-co"]},"geometry":["area","point"],"matchScore":2,"terms":["harrison school district 2","hsd2"],"tags":{"amenity":"school","operator:wikidata":"Q5665847"},"addTags":{"amenity":"school","operator":"Harrison School District 2","operator:short":"HSD2","operator:type":"public","operator:wikidata":"Q5665847"}},"amenity/school/jeffcopublicschools-64c3e7":{"name":"Jeffco Public Schools","locationSet":{"include":["us-co"]},"geometry":["area","point"],"matchScore":2,"terms":["jeffco public schools","jefferson county public schools","jps"],"tags":{"amenity":"school","operator:wikidata":"Q6175439"},"addTags":{"amenity":"school","operator":"Jeffco Public Schools","operator:short":"JPS","operator:type":"public","operator:wikidata":"Q6175439"}},"amenity/school/poudreschooldistrict-64c3e7":{"name":"Poudre School District","locationSet":{"include":["us-co"]},"geometry":["area","point"],"matchScore":2,"terms":["poudre school district"],"tags":{"amenity":"school","operator:wikidata":"Q7235468"},"addTags":{"amenity":"school","operator":"Poudre School District","operator:type":"public","operator:wikidata":"Q7235468"}},"boundary/jeffersoncountyopenspace-13d7c3":{"name":"Jefferson County Open Space","locationSet":{"include":["us-co"]},"geometry":["line"],"matchScore":2,"terms":["jcos","jefferson county","jefferson county open space"],"tags":{"boundary":"protected_area","operator:wikidata":"Q111904267"},"addTags":{"boundary":"protected_area","operator":"Jefferson County Open Space","operator:short":"JCOS","operator:type":"public","operator:wikidata":"Q111904267"}},"emergency/phone/transfort-2829ac":{"name":"Transfort","locationSet":{"include":["us-co"]},"geometry":["point","vertex"],"matchScore":2,"terms":["transfort"],"tags":{"emergency":"phone","operator:wikidata":"Q7834201"},"addTags":{"emergency":"phone","operator":"Transfort","operator:wikidata":"Q7834201"}},"leisure/nature_reserve/cityofboulder-241158":{"name":"City of Boulder","locationSet":{"include":["us-co"]},"geometry":["area","point"],"matchScore":2,"terms":["city of boulder"],"tags":{"leisure":"nature_reserve","operator:wikidata":"Q192517"},"addTags":{"leisure":"nature_reserve","operator":"City of Boulder","operator:type":"public","operator:wikidata":"Q192517"}},"leisure/nature_reserve/cityofgreeley-241158":{"name":"City of Greeley","locationSet":{"include":["us-co"]},"geometry":["area","point"],"matchScore":2,"terms":["city of greeley"],"tags":{"leisure":"nature_reserve","operator:wikidata":"Q94274"},"addTags":{"leisure":"nature_reserve","operator":"City of Greeley","operator:type":"public","operator:wikidata":"Q94274"}},"leisure/nature_reserve/cityoflakewood-241158":{"name":"City of Lakewood (Colorado)","locationSet":{"include":["us-co"]},"geometry":["area","point"],"matchScore":2,"terms":["city of lakewood"],"tags":{"leisure":"nature_reserve","operator:wikidata":"Q462804"},"addTags":{"leisure":"nature_reserve","operator":"City of Lakewood","operator:type":"public","operator:wikidata":"Q462804"}},"leisure/nature_reserve/coloradoparksandwildlife-241158":{"name":"Colorado Parks & Wildlife","locationSet":{"include":["us-co"]},"geometry":["area","point"],"matchScore":2,"terms":["colorado parks & wildlife","colorado state parks","cpw"],"tags":{"leisure":"nature_reserve","operator:wikidata":"Q5148857"},"addTags":{"leisure":"nature_reserve","operator":"Colorado Parks & Wildlife","operator:short":"CPW","operator:type":"public","operator:wikidata":"Q5148857"}},"leisure/park/cityofboulder-0900ba":{"name":"City of Boulder","locationSet":{"include":["us-co"]},"geometry":["area","point"],"matchScore":2,"terms":["city of boulder"],"tags":{"leisure":"park","operator:wikidata":"Q192517"},"addTags":{"leisure":"park","operator":"City of Boulder","operator:type":"public","operator:wikidata":"Q192517"}},"leisure/park/cityofgreeley-0900ba":{"name":"City of Greeley","locationSet":{"include":["us-co"]},"geometry":["area","point"],"matchScore":2,"terms":["city of greeley"],"tags":{"leisure":"park","operator:wikidata":"Q94274"},"addTags":{"leisure":"park","operator":"City of Greeley","operator:type":"public","operator:wikidata":"Q94274"}},"leisure/park/cityoflakewood-0900ba":{"name":"City of Lakewood (Colorado)","locationSet":{"include":["us-co"]},"geometry":["area","point"],"matchScore":2,"terms":["city of lakewood"],"tags":{"leisure":"park","operator:wikidata":"Q462804"},"addTags":{"leisure":"park","operator":"City of Lakewood","operator:type":"public","operator:wikidata":"Q462804"}},"leisure/park/coloradoparksandwildlife-0900ba":{"name":"Colorado Parks & Wildlife","locationSet":{"include":["us-co"]},"geometry":["area","point"],"matchScore":2,"terms":["colorado parks & wildlife","colorado state parks","cpw"],"tags":{"leisure":"park","operator:wikidata":"Q5148857"},"addTags":{"leisure":"park","operator":"Colorado Parks & Wildlife","operator:short":"CPW","operator:type":"public","operator:wikidata":"Q5148857"}},"power/generator/coloradostateuniversity-a34a72":{"name":"Colorado State University","locationSet":{"include":["us-co"]},"geometry":["point","vertex","area"],"matchScore":2,"terms":["colorado state university","csu"],"tags":{"operator:wikidata":"Q1111640","power":"generator"},"addTags":{"operator":"Colorado State University","operator:short":"CSU","operator:wikidata":"Q1111640","power":"generator"}},"shop/charity/goodwillofcolorado-97b90c":{"name":"Goodwill of Colorado","locationSet":{"include":["us-co"]},"geometry":["point","area"],"matchScore":2,"terms":["discover goodwill","discover goodwill of southern & western colorado","goodwill","goodwill industries of denver","goodwill of colorado"],"tags":{"operator:wikidata":"Q109727757","shop":"charity"},"addTags":{"brand":"Goodwill","brand:wikidata":"Q5583655","name":"Goodwill","operator":"Goodwill of Colorado","operator:wikidata":"Q109727757","shop":"charity"}},"public_transport/platform/bus_point/gvt-e3d947":{"name":"GVT","locationSet":{"include":["us-co"]},"geometry":["point","vertex"],"matchScore":2,"terms":["gvt"],"reference":{"key":"public_transport","value":"platform"},"tags":{"bus":"yes","network:wikidata":"Q5595228","public_transport":"platform"},"addTags":{"bus":"yes","highway":"bus_stop","network":"GVT","network:wikidata":"Q5595228","public_transport":"platform"}},"public_transport/platform/bus_point/pueblotransit-e3d947":{"name":"Pueblo Transit","locationSet":{"include":["us-co"]},"geometry":["point","vertex"],"matchScore":2,"terms":["pueblo buses","pueblo transit"],"reference":{"key":"public_transport","value":"platform"},"tags":{"bus":"yes","network:wikidata":"Q7258466","public_transport":"platform"},"addTags":{"bus":"yes","highway":"bus_stop","network":"Pueblo Transit","network:wikidata":"Q7258466","public_transport":"platform"}},"public_transport/platform/bus_point/rtd-e3d947":{"name":"RTD","locationSet":{"include":["us-co"]},"geometry":["point","vertex"],"matchScore":2,"terms":["regional transportation district","rtd"],"reference":{"key":"public_transport","value":"platform"},"tags":{"bus":"yes","network:wikidata":"Q7309183","public_transport":"platform"},"addTags":{"bus":"yes","highway":"bus_stop","network":"RTD","network:wikidata":"Q7309183","operator":"Regional Transportation District","public_transport":"platform"}},"public_transport/platform/bus_point/transfort-e3d947":{"name":"Transfort","locationSet":{"include":["us-co"]},"geometry":["point","vertex"],"matchScore":2,"terms":["transfort"],"reference":{"key":"public_transport","value":"platform"},"tags":{"bus":"yes","network:wikidata":"Q7834201","public_transport":"platform"},"addTags":{"bus":"yes","highway":"bus_stop","network":"Transfort","network:wikidata":"Q7834201","public_transport":"platform"}},"type/route/bus/gvt-b35a5d":{"name":"GVT","locationSet":{"include":["us-co"]},"geometry":["relation"],"matchScore":2,"terms":["gvt"],"reference":{"key":"route","value":"bus"},"tags":{"network:wikidata":"Q5595228","route":"bus","type":"route"},"addTags":{"network":"GVT","network:wikidata":"Q5595228","route":"bus","type":"route"}},"type/route/bus/pueblotransit-b35a5d":{"name":"Pueblo Transit","locationSet":{"include":["us-co"]},"geometry":["relation"],"matchScore":2,"terms":["pueblo buses","pueblo transit"],"reference":{"key":"route","value":"bus"},"tags":{"network:wikidata":"Q7258466","route":"bus","type":"route"},"addTags":{"network":"Pueblo Transit","network:wikidata":"Q7258466","route":"bus","type":"route"}},"type/route/bus/rtd-b35a5d":{"name":"RTD","locationSet":{"include":["us-co"]},"geometry":["relation"],"matchScore":2,"terms":["regional transportation district","rtd"],"reference":{"key":"route","value":"bus"},"tags":{"network:wikidata":"Q7309183","route":"bus","type":"route"},"addTags":{"network":"RTD","network:wikidata":"Q7309183","operator":"Regional Transportation District","route":"bus","type":"route"}},"type/route/bus/transfort-b35a5d":{"name":"Transfort","locationSet":{"include":["us-co"]},"geometry":["relation"],"matchScore":2,"terms":["transfort"],"reference":{"key":"route","value":"bus"},"tags":{"network:wikidata":"Q7834201","route":"bus","type":"route"},"addTags":{"network":"Transfort","network:wikidata":"Q7834201","route":"bus","type":"route"}},"type/route/light_rail/rtd-81bfa8":{"name":"RTD (Denver)","locationSet":{"include":["us-co"]},"geometry":["relation"],"matchScore":2,"terms":["rtd"],"reference":{"key":"route","value":"light_rail"},"tags":{"network:wikidata":"Q7309183","route":"light_rail","type":"route"},"addTags":{"network":"RTD","network:wikidata":"Q7309183","route":"light_rail","type":"route"}}}