{"advertising/totem/sol-688308":{"name":"Sol","locationSet":{"include":["ai","ag","aw","bs","bb","bq","vg","ky","cu","cw","dm","do","gd","gp","ht","jm","mq","ms","pr","bl","kn","lc","mf","vc","sx","tt","tc","vi","gf","gy","sr"]},"geometry":["point","line"],"matchScore":2,"terms":["sol"],"tags":{"advertising":"totem","brand:wikidata":"Q99939344"},"addTags":{"advertising":"totem","brand":"Sol","brand:wikidata":"Q99939344"}},"amenity/fuel/sol-6e9b5c":{"name":"Sol","locationSet":{"include":["ai","ag","aw","bs","bb","bq","vg","ky","cu","cw","dm","do","gd","gp","ht","jm","mq","ms","pr","bl","kn","lc","mf","vc","sx","tt","tc","vi","gf","gy","sr"]},"geometry":["point","area"],"matchScore":2,"terms":["sol"],"fields":["name","brand","{amenity/fuel}"],"tags":{"amenity":"fuel","brand:wikidata":"Q99939344"},"addTags":{"amenity":"fuel","brand":"Sol","brand:wikidata":"Q99939344","name":"Sol"}},"shop/beauty/estheticcenter-bc649c":{"name":"Esthetic Center","locationSet":{"include":["be","ch","fx","gf","gp","re"]},"geometry":["point","area"],"matchScore":2,"terms":["esthetic center"],"tags":{"brand:wikidata":"Q123321775","shop":"beauty"},"addTags":{"beauty":"skin_care;hair_removal","brand":"Esthetic Center","brand:wikidata":"Q123321775","name":"Esthetic Center","shop":"beauty"}},"amenity/clinic/collectiviteterritorialedeguyane-a3d1f7":{"name":"Collectivité Territoriale de Guyane","locationSet":{"include":["gf"]},"geometry":["point","area"],"matchScore":2,"terms":["collectivité territoriale de guyane"],"fields":["name","operator","{amenity/clinic}"],"reference":{"key":"amenity","value":"clinic"},"tags":{"amenity":"clinic","operator:wikidata":"Q124156179"},"addTags":{"amenity":"clinic","healthcare":"clinic","operator":"Collectivité Territoriale de Guyane","operator:type":"government","operator:wikidata":"Q124156179"}},"amenity/fire_station/sdis973-83d53f":{"name":"SDIS 973","locationSet":{"include":["gf"]},"geometry":["point","area"],"matchScore":2,"terms":["sdis 973"],"tags":{"amenity":"fire_station","operator:wikidata":"Q88767503"},"addTags":{"amenity":"fire_station","operator":"SDIS 973","operator:wikidata":"Q88767503"}},"amenity/telephone/claro-6490cd":{"name":"Claro","locationSet":{"include":["ai","ag","aw","bs","bb","bq","vg","ky","cu","cw","dm","do","gd","gp","ht","jm","mq","ms","pr","bl","kn","lc","mf","vc","sx","tt","tc","vi","bz","cr","sv","gt","hn","mx","ni","pa","ar","bo","bv","br","cl","co","ec","fk","gf","gy","py","pe","gs","sr","uy","ve"]},"geometry":["point","vertex"],"matchScore":2,"terms":["claro"],"fields":["name","operator","{amenity/telephone}"],"tags":{"amenity":"telephone","operator:wikidata":"Q1770208"},"addTags":{"amenity":"telephone","operator":"Claro","operator:wikidata":"Q1770208"}}}