{"amenity/atm/aktia-6eeb13":{"name":"Aktia","locationSet":{"include":["fi"]},"geometry":["point","vertex"],"matchScore":2,"terms":["aktia"],"tags":{"amenity":"atm","brand:wikidata":"Q4353753"},"addTags":{"amenity":"atm","brand":"Aktia","brand:wikidata":"Q4353753","brand:wikipedia":"fi:Aktia-pankki","name":"Aktia","operator":"Aktia","operator:wikidata":"Q4353753","operator:wikipedia":"fi:Aktia-pankki"}},"amenity/atm/alandsbanken-6eeb13":{"name":"Ålandsbanken","locationSet":{"include":["fi"]},"geometry":["point","vertex"],"matchScore":2,"terms":["ålandsbanken"],"tags":{"amenity":"atm","brand:wikidata":"Q4349236"},"addTags":{"amenity":"atm","brand":"Ålandsbanken","brand:wikidata":"Q4349236","brand:wikipedia":"sv:Ålandsbanken","name":"Ålandsbanken","operator":"Ålandsbanken","operator:wikidata":"Q4349236","operator:wikipedia":"sv:Ålandsbanken"}},"amenity/atm/danskebank-a2bade":{"name":"Danske Bank","locationSet":{"include":["dk","fi","gb","lt","no","se"]},"geometry":["point","vertex"],"matchScore":2,"terms":["danske bank"],"tags":{"amenity":"atm","brand:wikidata":"Q1636974"},"addTags":{"amenity":"atm","brand":"Danske Bank","brand:wikidata":"Q1636974","brand:wikipedia":"en:Danske Bank","name":"Danske Bank","operator":"Danske Bank","operator:wikidata":"Q1636974","operator:wikipedia":"en:Danske Bank"}},"amenity/atm/handelsbanken-6789c7":{"name":"Handelsbanken","locationSet":{"include":["dk","fi","gb","no","se"]},"geometry":["point","vertex"],"matchScore":2,"terms":["handelsbanken"],"fields":["name","brand","{amenity/atm}"],"tags":{"amenity":"atm","brand:wikidata":"Q1421630"},"addTags":{"amenity":"atm","brand":"Handelsbanken","brand:wikidata":"Q1421630","brand:wikipedia":"en:Handelsbanken","name":"Handelsbanken","operator":"Handelsbanken","operator:wikidata":"Q1421630","operator:wikipedia":"en:Handelsbanken"}},"amenity/atm/osuuspankki-6eeb13":{"name":"Osuuspankki","locationSet":{"include":["fi"]},"geometry":["point","vertex"],"matchScore":2,"terms":["osuuspankki"],"tags":{"amenity":"atm","brand:wikidata":"Q4045597"},"addTags":{"amenity":"atm","brand":"Osuuspankki","brand:wikidata":"Q4045597","brand:wikipedia":"fi:OP (finanssiryhmä)","name":"Osuuspankki","operator":"Osuuspankki","operator:wikidata":"Q4045597","operator:wikipedia":"fi:OP (finanssiryhmä)"}},"amenity/atm/spankki-6eeb13":{"name":"S-Pankki","locationSet":{"include":["fi"]},"geometry":["point","vertex"],"matchScore":2,"terms":["s-pankki"],"tags":{"amenity":"atm","brand:wikidata":"Q7387053"},"addTags":{"amenity":"atm","brand":"S-Pankki","brand:wikidata":"Q7387053","brand:wikipedia":"fi:S-Pankki","name":"S-Pankki","operator":"S-Pankki","operator:wikidata":"Q7387053","operator:wikipedia":"fi:S-Pankki"}},"amenity/bank/aktia-22526e":{"name":"Aktia","locationSet":{"include":["fi"]},"geometry":["point","area"],"matchScore":2,"terms":["aktia"],"tags":{"amenity":"bank","brand:wikidata":"Q4353753"},"addTags":{"amenity":"bank","brand":"Aktia","brand:wikidata":"Q4353753","brand:wikipedia":"fi:Aktia-pankki","name":"Aktia"}},"amenity/bank/alandsbanken-22526e":{"name":"Ålandsbanken","locationSet":{"include":["fi"]},"geometry":["point","area"],"matchScore":2,"terms":["ålandsbanken"],"tags":{"amenity":"bank","brand:wikidata":"Q4349236"},"addTags":{"amenity":"bank","brand":"Ålandsbanken","brand:wikidata":"Q4349236","brand:wikipedia":"sv:Ålandsbanken","name":"Ålandsbanken"}},"amenity/bank/danskebank-c75d31":{"name":"Danske Bank","locationSet":{"include":["dk","fi","gb","lt","no","se"]},"geometry":["point","area"],"matchScore":2,"terms":["danske bank"],"tags":{"amenity":"bank","brand:wikidata":"Q1636974"},"addTags":{"amenity":"bank","brand":"Danske Bank","brand:wikidata":"Q1636974","brand:wikipedia":"en:Danske Bank","name":"Danske Bank"}},"amenity/bank/handelsbanken-1834eb":{"name":"Handelsbanken","locationSet":{"include":["dk","fi","gb","no","se"]},"geometry":["point","area"],"matchScore":2,"terms":["handelsbanken"],"fields":["name","brand","{amenity/bank}"],"tags":{"amenity":"bank","brand:wikidata":"Q1421630"},"addTags":{"amenity":"bank","brand":"Handelsbanken","brand:wikidata":"Q1421630","brand:wikipedia":"en:Handelsbanken","name":"Handelsbanken"}},"amenity/bank/osuuspankki-22526e":{"name":"Osuuspankki","locationSet":{"include":["fi"]},"geometry":["point","area"],"matchScore":2,"terms":["osuuspankki"],"tags":{"amenity":"bank","brand:wikidata":"Q4045597"},"addTags":{"amenity":"bank","brand":"Osuuspankki","brand:wikidata":"Q4045597","brand:wikipedia":"fi:OP (finanssiryhmä)","name":"Osuuspankki"}},"amenity/bank/spankki-22526e":{"name":"S-Pankki","locationSet":{"include":["fi"]},"geometry":["point","area"],"matchScore":2,"terms":["s-pankki"],"tags":{"amenity":"bank","brand:wikidata":"Q7387053"},"addTags":{"amenity":"bank","brand":"S-Pankki","brand:wikidata":"Q7387053","brand:wikipedia":"fi:S-Pankki","name":"S-Pankki"}},"amenity/bicycle_rental/folifillarit-5c40d5":{"name":"Föli-fillarit","locationSet":{"include":["fi"]},"geometry":["point","vertex","area"],"matchScore":2,"terms":["föli-fillarit","nextbike"],"fields":["name","brand","{amenity/bicycle_rental}"],"tags":{"amenity":"bicycle_rental","brand:wikidata":"Q18658772"},"addTags":{"amenity":"bicycle_rental","brand":"Föli-fillarit","brand:wikidata":"Q18658772","brand:wikipedia":"fi:Turun seudun joukkoliikenne","network":"Föli-fillarit","network:wikidata":"Q18658772","network:wikipedia":"fi:Turun seudun joukkoliikenne","operator":"Nextbike","operator:wikidata":"Q2351279","operator:wikipedia":"en:Nextbike"}},"amenity/cafe/coffee_shop/coffeehouse-7a8d18":{"name":"Coffee House (Finland)","locationSet":{"include":["fi"]},"geometry":["point","area"],"matchScore":2,"terms":["coffee house"],"reference":{"key":"cuisine","value":"coffee_shop"},"tags":{"amenity":"cafe","brand:wikidata":"Q11855430","cuisine":"coffee_shop"},"addTags":{"amenity":"cafe","brand":"Coffee House","brand:wikidata":"Q11855430","brand:wikipedia":"fi:Coffee House","cuisine":"coffee_shop","name":"Coffee House","takeaway":"yes"}},"amenity/cafe/coffee_shop/espressohouse-86f303":{"name":"Espresso House","locationSet":{"include":["dk","fi","no","se"]},"geometry":["point","area"],"matchScore":2,"terms":["espresso house"],"fields":["name","brand","{amenity/cafe/coffee_shop}"],"reference":{"key":"cuisine","value":"coffee_shop"},"tags":{"amenity":"cafe","brand:wikidata":"Q10489162","cuisine":"coffee_shop"},"addTags":{"amenity":"cafe","brand":"Espresso House","brand:wikidata":"Q10489162","brand:wikipedia":"en:Espresso House","cuisine":"coffee_shop","name":"Espresso House","takeaway":"yes"}},"amenity/cafe/coffee_shop/waynescoffee-460348":{"name":"Wayne's Coffee","locationSet":{"include":["fi","no","se"]},"geometry":["point","area"],"matchScore":2,"terms":["wayne's coffee"],"fields":["name","brand","{amenity/cafe/coffee_shop}"],"reference":{"key":"cuisine","value":"coffee_shop"},"tags":{"amenity":"cafe","brand:wikidata":"Q2637272","cuisine":"coffee_shop"},"addTags":{"amenity":"cafe","brand":"Wayne's Coffee","brand:wikidata":"Q2637272","brand:wikipedia":"en:Wayne's Coffee","cuisine":"coffee_shop","name":"Wayne's Coffee","takeaway":"yes"}},"amenity/car_rental/europcar-95cde7":{"name":"Europcar (Scandinavia)","locationSet":{"include":["dk","fi","no","se"]},"geometry":["point","area"],"matchScore":2,"terms":["europcar"],"fields":["name","brand","{amenity/car_rental}"],"tags":{"amenity":"car_rental","brand:wikidata":"Q1376256"},"addTags":{"amenity":"car_rental","brand":"Europcar","brand:wikidata":"Q1376256","brand:wikipedia":"en:Europcar","name":"Europcar"}},"amenity/charging_station/ionity-b625d6":{"name":"Ionity","locationSet":{"include":["by","bg","cz","hu","pl","md","ro","ru","sk","ua","ax","gg","je","cq","dk","ee","fo","fi","is","ie","im","lv","lt","no","sj","se","gb","al","ad","ba","hr","gi","gr","va","it","mt","me","mk","pt","sm","rs","si","es","xk","at","be","fr","de","li","lu","mc","nl","ch"]},"geometry":["point","area"],"matchScore":2,"terms":["ionity","ionity gmbh"],"fields":["name","brand","{amenity/charging_station}"],"tags":{"amenity":"charging_station","brand:wikidata":"Q42717773"},"addTags":{"amenity":"charging_station","brand":"Ionity","brand:wikidata":"Q42717773","brand:wikipedia":"en:IONITY"}},"amenity/fast_food/pizza/kotipizza-3dd6de":{"name":"Kotipizza","locationSet":{"include":["fi"]},"geometry":["point","area"],"matchScore":2,"terms":["kotipizza"],"reference":{"key":"cuisine","value":"pizza"},"tags":{"amenity":"fast_food","brand:wikidata":"Q1628625","cuisine":"pizza"},"addTags":{"amenity":"fast_food","brand":"Kotipizza","brand:wikidata":"Q1628625","brand:wikipedia":"en:Kotipizza","cuisine":"pizza","name":"Kotipizza","takeaway":"yes"}},"amenity/fast_food/burger/sibylla-bdca1d":{"name":"Sibylla","locationSet":{"include":["fi","se"]},"geometry":["point","area"],"matchScore":2,"terms":["sibylla"],"reference":{"key":"cuisine","value":"burger"},"tags":{"amenity":"fast_food","brand:wikidata":"Q488643","cuisine":"burger"},"addTags":{"amenity":"fast_food","brand":"Sibylla","brand:wikidata":"Q488643","brand:wikipedia":"en:Sibylla (fast food)","cuisine":"burger","name":"Sibylla","takeaway":"yes"}},"amenity/fast_food/sandwich/uppercrust-167d3f":{"name":"Upper Crust","locationSet":{"include":["de","dk","eg","es","fi","gb","ie","no","se"]},"geometry":["point","area"],"matchScore":2,"terms":["upper crust"],"reference":{"key":"cuisine","value":"sandwich"},"tags":{"amenity":"fast_food","brand:wikidata":"Q7898585","cuisine":"sandwich"},"addTags":{"amenity":"fast_food","brand":"Upper Crust","brand:wikidata":"Q7898585","brand:wikipedia":"en:Upper Crust (restaurant chain)","cuisine":"sandwich","name":"Upper Crust","takeaway":"yes"}},"amenity/fuel/abc-1c8a41":{"name":"ABC","locationSet":{"include":["fi"]},"geometry":["point","area"],"matchScore":2,"terms":["abc"],"fields":["name","brand","{amenity/fuel}"],"tags":{"amenity":"fuel","brand:wikidata":"Q10397504"},"addTags":{"amenity":"fuel","brand":"ABC","brand:wikidata":"Q10397504","brand:wikipedia":"fi:ABC-ketju","name":"ABC"}},"amenity/fuel/st1-cf1d83":{"name":"St1","locationSet":{"include":["fi","se"]},"geometry":["point","area"],"matchScore":2,"terms":["st1"],"fields":["name","brand","{amenity/fuel}"],"tags":{"amenity":"fuel","brand:wikidata":"Q7592214"},"addTags":{"amenity":"fuel","brand":"St1","brand:wikidata":"Q7592214","brand:wikipedia":"en:St1","name":"St1"}},"amenity/fuel/teboil-1c8a41":{"name":"Teboil","locationSet":{"include":["fi"]},"geometry":["point","area"],"matchScore":2,"terms":["teboil"],"fields":["name","brand","{amenity/fuel}"],"tags":{"amenity":"fuel","brand:wikidata":"Q7692079"},"addTags":{"amenity":"fuel","brand":"Teboil","brand:wikidata":"Q7692079","brand:wikipedia":"en:Teboil","name":"Teboil"}},"amenity/parcel_locker/zbox-5a86e9":{"name":"Packeta","locationSet":{"include":["by","bg","cz","hu","pl","md","ro","ru","sk","ua","ax","gg","je","cq","dk","ee","fo","fi","is","ie","im","lv","lt","no","sj","se","gb","al","ad","ba","hr","gi","gr","va","it","mt","me","mk","pt","sm","rs","si","es","xk","at","be","fr","de","li","lu","mc","nl","ch"]},"geometry":["point","vertex"],"matchScore":2,"terms":["packeta"],"fields":["name","brand","{amenity/parcel_locker}"],"reference":{"key":"amenity","value":"parcel_locker"},"tags":{"amenity":"parcel_locker","brand:wikidata":"Q67809905"},"addTags":{"amenity":"parcel_locker","brand":"Packeta","brand:wikidata":"Q67809905","name":"Z-Box"}},"amenity/parcel_locker/smartpost-0b87cc":{"name":"Smartpost","locationSet":{"include":["fi"]},"geometry":["point","vertex"],"matchScore":2,"terms":["smartpost"],"reference":{"key":"amenity","value":"parcel_locker"},"tags":{"amenity":"parcel_locker","brand:wikidata":"Q7543889"},"addTags":{"amenity":"parcel_locker","brand":"Smartpost","brand:wikidata":"Q7543889","brand:wikipedia":"fi:Smartpost","name":"Smartpost","parcel_mail_in":"yes"}},"amenity/restaurant/rolls-fe858e":{"name":"Rolls","locationSet":{"include":["fi"]},"geometry":["point","area"],"matchScore":2,"terms":["rolls"],"tags":{"amenity":"restaurant","brand:wikidata":"Q3195068"},"addTags":{"amenity":"restaurant","brand":"Rolls","brand:wikidata":"Q3195068","brand:wikipedia":"fi:Rolls","cuisine":"burger","name":"Rolls"}},"amenity/vending_machine/continental-123edb":{"name":"Continental","locationSet":{"include":["by","bg","cz","hu","pl","md","ro","ru","sk","ua","ax","gg","je","cq","dk","ee","fo","fi","is","ie","im","lv","lt","no","sj","se","gb","al","ad","ba","hr","gi","gr","va","it","mt","me","mk","pt","sm","rs","si","es","xk","at","be","fr","de","li","lu","mc","nl","ch"]},"geometry":["point","vertex"],"matchScore":2,"terms":["continental"],"tags":{"amenity":"vending_machine","brand:wikidata":"Q64739247"},"addTags":{"amenity":"vending_machine","brand":"Continental","brand:wikidata":"Q64739247","name":"Continental","vending":"bicycle_tube"}},"amenity/vending_machine/schwalbe-123edb":{"name":"Schwalbe","locationSet":{"include":["by","bg","cz","hu","pl","md","ro","ru","sk","ua","ax","gg","je","cq","dk","ee","fo","fi","is","ie","im","lv","lt","no","sj","se","gb","al","ad","ba","hr","gi","gr","va","it","mt","me","mk","pt","sm","rs","si","es","xk","at","be","fr","de","li","lu","mc","nl","ch"]},"geometry":["point","vertex"],"matchScore":2,"terms":["schwalbe"],"tags":{"amenity":"vending_machine","brand:wikidata":"Q1312213"},"addTags":{"amenity":"vending_machine","brand":"Schwalbe","brand:wikidata":"Q1312213","brand:wikipedia":"de:Ralf Bohle GmbH","name":"Schwalbe","vending":"bicycle_tube"}},"amenity/vending_machine/selecta-ed4d31":{"name":"Selecta","locationSet":{"include":["at","be","ch","de","dk","es","fi","fr","ie","it","li","lu","nl","no","se","uk"]},"geometry":["point","vertex"],"matchScore":2,"terms":["selecta"],"tags":{"amenity":"vending_machine","brand:wikidata":"Q472153"},"addTags":{"amenity":"vending_machine","brand":"Selecta","brand:wikidata":"Q472153","brand:wikipedia":"en:Selecta (company)"}},"leisure/fitness_centre/fitness24seven-5fc685":{"name":"Fitness24Seven","locationSet":{"include":["fi","se"]},"geometry":["point","area"],"matchScore":2,"terms":["fitness24seven"],"tags":{"brand:wikidata":"Q61112447","leisure":"fitness_centre"},"addTags":{"brand":"Fitness24Seven","brand:wikidata":"Q61112447","brand:wikipedia":"sv:Fitness24Seven","leisure":"fitness_centre","name":"Fitness24Seven"}},"leisure/fitness_centre/sats-44c5d4":{"name":"Sats","locationSet":{"include":["dk","fi","no","se"]},"geometry":["point","area"],"matchScore":2,"terms":["sats"],"fields":["name","brand","{leisure/fitness_centre}"],"tags":{"brand:wikidata":"Q4411496","leisure":"fitness_centre"},"addTags":{"brand":"Sats","brand:wikidata":"Q4411496","brand:wikipedia":"fi:SATS","leisure":"fitness_centre","name":"Sats"}},"office/coworking/spaces-ffd6f1":{"name":"Spaces (Scandinavia)","locationSet":{"include":["dk","fi","no","se"]},"geometry":["point","area"],"matchScore":2,"terms":["spaces"],"fields":["name","brand","{office/coworking}"],"reference":{"key":"amenity","value":"coworking_space"},"tags":{"brand:wikidata":"Q87629680","office":"coworking"},"addTags":{"brand":"Spaces","brand:wikidata":"Q87629680","name":"Spaces","office":"coworking"}},"office/estate_agent/vonpollrealestate-c99072":{"name":"von Poll Real Estate","locationSet":{"include":["by","bg","cz","hu","pl","md","ro","ru","sk","ua","ax","gg","je","cq","dk","ee","fo","fi","is","ie","im","lv","lt","no","sj","se","gb","al","ad","ba","hr","gi","gr","va","it","mt","me","mk","pt","sm","rs","si","es","xk","at","be","fr","de","li","lu","mc","nl","ch"],"exclude":["at","de"]},"geometry":["point","area"],"matchScore":2,"terms":["von poll immobilien","von poll real estate","vonpoll","vonpoll commercial"],"tags":{"brand:wikidata":"Q96026696","office":"estate_agent"},"addTags":{"brand":"von Poll Real Estate","brand:wikidata":"Q96026696","brand:wikipedia":"de:Von Poll Immobilien","name":"von Poll Real Estate","office":"estate_agent"}},"shop/alcohol/alko-d1a8a4":{"name":"Alko","locationSet":{"include":["fi"]},"geometry":["point","area"],"matchScore":2,"terms":["alko"],"tags":{"brand:wikidata":"Q1849187","shop":"alcohol"},"addTags":{"brand":"Alko","brand:wikidata":"Q1849187","brand:wikipedia":"en:Alko","name":"Alko","shop":"alcohol"}},"shop/books/akateeminenkirjakauppa-0c91f3":{"name":"Akateeminen Kirjakauppa","locationSet":{"include":["fi"]},"geometry":["point","area"],"matchScore":2,"terms":["akateeminen kirjakauppa"],"tags":{"brand:wikidata":"Q10403942","shop":"books"},"addTags":{"brand":"Akateeminen Kirjakauppa","brand:wikidata":"Q10403942","brand:wikipedia":"fi:Akateeminen Kirjakauppa","name":"Akateeminen Kirjakauppa","shop":"books"}},"shop/books/suomalainenkirjakauppa-0c91f3":{"name":"Suomalainen Kirjakauppa","locationSet":{"include":["fi"]},"geometry":["point","area"],"matchScore":2,"terms":["suomalainen kirjakauppa"],"tags":{"brand:wikidata":"Q7641808","shop":"books"},"addTags":{"brand":"Suomalainen Kirjakauppa","brand:wikidata":"Q7641808","brand:wikipedia":"fi:Suomalainen Kirjakauppa","name":"Suomalainen Kirjakauppa","shop":"books"}},"shop/car/smart-f30ed8":{"name":"Smart","locationSet":{"include":["by","bg","cz","hu","pl","md","ro","ru","sk","ua","ax","gg","je","cq","dk","ee","fo","fi","is","ie","im","lv","lt","no","sj","se","gb","al","ad","ba","hr","gi","gr","va","it","mt","me","mk","pt","sm","rs","si","es","xk","at","be","fr","de","li","lu","mc","nl","ch"]},"geometry":["point","area"],"matchScore":2,"terms":["smart"],"fields":["name","brand","{shop/car}"],"tags":{"brand:wikidata":"Q156490","shop":"car"},"addTags":{"brand":"Smart","brand:wikidata":"Q156490","brand:wikipedia":"en:Smart (marque)","name":"Smart","shop":"car"}},"shop/car_repair/euromaster-db76b7":{"name":"Euromaster","locationSet":{"include":["ch","de","es","fi","fr","nl","pt"]},"geometry":["point","area"],"matchScore":2,"terms":["euromaster"],"fields":["name","brand","{shop/car_repair}"],"tags":{"brand:wikidata":"Q3060668","shop":"car_repair"},"addTags":{"brand":"Euromaster","brand:wikidata":"Q3060668","brand:wikipedia":"de:Euromaster","name":"Euromaster","shop":"car_repair"}},"shop/chemist/normal-eafdb5":{"name":"Normal","locationSet":{"include":["dk","fi","no","se"]},"geometry":["point","area"],"matchScore":2,"terms":["normal"],"tags":{"brand:wikidata":"Q19562429","shop":"chemist"},"addTags":{"brand":"Normal","brand:wikidata":"Q19562429","brand:wikipedia":"da:Normal (butikskæde)","name":"Normal","shop":"chemist"}},"shop/clothes/bluetomato-fa8f79":{"name":"Blue Tomato","locationSet":{"include":["at","ch","de","fi","nl"]},"geometry":["point","area"],"matchScore":2,"terms":["blue tomato"],"tags":{"brand:wikidata":"Q107637238","shop":"clothes"},"addTags":{"brand":"Blue Tomato","brand:wikidata":"Q107637238","name":"Blue Tomato","shop":"clothes"}},"shop/clothes/carlings-89d713":{"name":"Carlings","locationSet":{"include":["at","fi","no","se"]},"geometry":["point","area"],"matchScore":2,"terms":["carlings"],"fields":["name","brand","{shop/clothes}"],"tags":{"brand:wikidata":"Q10443115","shop":"clothes"},"addTags":{"brand":"Carlings","brand:wikidata":"Q10443115","brand:wikipedia":"no:Carlings","name":"Carlings","shop":"clothes"}},"shop/clothes/coccodrillo-571709":{"name":"Coccodrillo","locationSet":{"include":["at","bg","by","cz","de","ee","fi","hu","lt","lv","me","pl","ro","rs","ru","sk","ua"]},"geometry":["point","area"],"matchScore":2,"terms":["coccodrillo"],"tags":{"brand:wikidata":"Q9195224","shop":"clothes"},"addTags":{"brand":"Coccodrillo","brand:wikidata":"Q9195224","brand:wikipedia":"pl:Coccodrillo","clothes":"children","name":"Coccodrillo","shop":"clothes"}},"shop/clothes/cropp-613e37":{"name":"Cropp","locationSet":{"include":["ba","bg","cz","ee","fi","hr","hu","kz","lt","lv","ro","rs","ru","si","sk","ua"]},"geometry":["point","area"],"matchScore":2,"terms":["cropp"],"tags":{"brand:wikidata":"Q9196793","shop":"clothes"},"addTags":{"brand":"Cropp","brand:wikidata":"Q9196793","brand:wikipedia":"pl:Cropp","name":"Cropp","shop":"clothes"}},"shop/clothes/cubus-a91a7f":{"name":"Cubus","locationSet":{"include":["fi","no","se"]},"geometry":["point","area"],"matchScore":2,"terms":["cubus"],"fields":["name","brand","{shop/clothes}"],"tags":{"brand:wikidata":"Q3439593","shop":"clothes"},"addTags":{"brand":"Cubus","brand:wikidata":"Q3439593","brand:wikipedia":"no:Cubus","name":"Cubus","shop":"clothes"}},"shop/clothes/dressmann-89d713":{"name":"Dressmann","locationSet":{"include":["at","fi","no","se"]},"geometry":["point","area"],"matchScore":2,"terms":["dressmann"],"fields":["name","brand","{shop/clothes}"],"tags":{"brand:wikidata":"Q3357081","shop":"clothes"},"addTags":{"brand":"Dressmann","brand:wikidata":"Q3357081","brand:wikipedia":"en:Dressmann","clothes":"men","name":"Dressmann","shop":"clothes"}},"shop/clothes/house-f09482":{"name":"House","locationSet":{"include":["ba","bg","cz","ee","fi","hr","hu","kz","lt","lv","pl","ro","rs","ru","si","sk","ua"]},"geometry":["point","area"],"matchScore":2,"terms":["house"],"tags":{"brand:wikidata":"Q9294202","shop":"clothes"},"addTags":{"brand":"House","brand:wikidata":"Q9294202","brand:wikipedia":"pl:House (marka)","name":"House","shop":"clothes"}},"shop/clothes/kappahl-c962e5":{"name":"KappAhl","locationSet":{"include":["fi","no","pl","se"]},"geometry":["point","area"],"matchScore":2,"terms":["kappahl"],"fields":["name","brand","{shop/clothes}"],"tags":{"brand:wikidata":"Q4349016","shop":"clothes"},"addTags":{"brand":"KappAhl","brand:wikidata":"Q4349016","brand:wikipedia":"sv:Kappahl","name":"KappAhl","shop":"clothes"}},"shop/clothes/kekale-a0f446":{"name":"Kekäle","locationSet":{"include":["fi"]},"geometry":["point","area"],"matchScore":2,"terms":["kekäle"],"tags":{"brand:wikidata":"Q55418905","shop":"clothes"},"addTags":{"brand":"Kekäle","brand:wikidata":"Q55418905","brand:wikipedia":"fi:Kekäle (kauppaketju)","name":"Kekäle","shop":"clothes"}},"shop/clothes/lindex-d7f5c5":{"name":"Lindex","locationSet":{"include":["cz","ee","fi","no","se","sk"]},"geometry":["point","area"],"matchScore":2,"terms":["lindex"],"fields":["name","brand","{shop/clothes}"],"tags":{"brand:wikidata":"Q1786717","shop":"clothes"},"addTags":{"brand":"Lindex","brand:wikidata":"Q1786717","brand:wikipedia":"en:Lindex","name":"Lindex","shop":"clothes"}},"shop/clothes/maje-99ba8f":{"name":"Maje","locationSet":{"include":["by","bg","cz","hu","pl","md","ro","ru","sk","ua","ax","gg","je","cq","dk","ee","fo","fi","is","ie","im","lv","lt","no","sj","se","gb","al","ad","ba","hr","gi","gr","va","it","mt","me","mk","pt","sm","rs","si","es","xk","at","be","fr","de","li","lu","mc","nl","ch","cn","hk","sg","tw","uk","us"]},"geometry":["point","area"],"matchScore":2,"terms":["maje"],"tags":{"brand:wikidata":"Q3280458","shop":"clothes"},"addTags":{"brand":"Maje","brand:wikidata":"Q3280458","brand:wikipedia":"fr:Maje","clothes":"women","name":"Maje","shop":"clothes"}},"shop/clothes/marimekko-a0f446":{"name":"Marimekko","locationSet":{"include":["fi"]},"geometry":["point","area"],"matchScore":2,"terms":["marimekko"],"tags":{"brand:wikidata":"Q534903","shop":"clothes"},"addTags":{"brand":"Marimekko","brand:wikidata":"Q534903","brand:wikipedia":"fi:Marimekko","name":"Marimekko","shop":"clothes"}},"shop/convenience/alepa-5dea79":{"name":"Alepa","locationSet":{"include":["fi"]},"geometry":["point","area"],"matchScore":2,"terms":["alepa"],"tags":{"brand:wikidata":"Q4716167","shop":"convenience"},"addTags":{"brand":"Alepa","brand:wikidata":"Q4716167","brand:wikipedia":"fi:Alepa","name":"Alepa","shop":"convenience"}},"shop/convenience/kmarket-5dea79":{"name":"K-Market","locationSet":{"include":["fi"]},"geometry":["point","area"],"matchScore":2,"terms":["k-market"],"tags":{"brand:wikidata":"Q11868562","shop":"convenience"},"addTags":{"brand":"K-Market","brand:wikidata":"Q11868562","brand:wikipedia":"fi:K-Market","name":"K-Market","shop":"convenience"}},"shop/convenience/nestek-5dea79":{"name":"Neste K","locationSet":{"include":["fi"]},"geometry":["point","area"],"matchScore":2,"terms":["neste k"],"tags":{"brand:wikidata":"Q42901270","shop":"convenience"},"addTags":{"brand":"Neste K","brand:wikidata":"Q42901270","brand:wikipedia":"fi:Neste K","name":"Neste K","shop":"convenience"}},"shop/convenience/sale-5dea79":{"name":"Sale","locationSet":{"include":["fi"]},"geometry":["point","area"],"matchScore":2,"terms":["sale"],"tags":{"brand:wikidata":"Q11892046","shop":"convenience"},"addTags":{"brand":"Sale","brand:wikidata":"Q11892046","brand:wikipedia":"fi:Sale","name":"Sale","shop":"convenience"}},"shop/convenience/siwa-5dea79":{"name":"Siwa","locationSet":{"include":["fi"]},"geometry":["point","area"],"matchScore":2,"terms":["siwa"],"searchable":false,"tags":{"brand:wikidata":"Q11893827","shop":"convenience"},"addTags":{"brand":"Siwa","brand:wikidata":"Q11893827","brand:wikipedia":"fi:Siwa","name":"Siwa","shop":"convenience"}},"shop/convenience/viva-856fe1":{"name":"Viva","locationSet":{"include":["by","bg","cz","hu","pl","md","ro","ru","sk","ua","ax","gg","je","cq","dk","ee","fo","fi","is","ie","im","lv","lt","no","sj","se","gb","al","ad","ba","hr","gi","gr","va","it","mt","me","mk","pt","sm","rs","si","es","xk","at","be","fr","de","li","lu","mc","nl","ch"]},"geometry":["point","area"],"matchScore":2,"terms":["viva"],"tags":{"brand:wikidata":"Q168238","shop":"convenience"},"addTags":{"brand":"Viva","brand:wikidata":"Q168238","brand:wikipedia":"en:OMV","name":"Viva","shop":"convenience"}},"shop/department_store/muji-b9b204":{"name":"Muji","locationSet":{"include":["au","ca","ch","de","es","fi","fr","gb","ie","it","pl","pt","se","tr"]},"geometry":["point","area"],"matchScore":2,"terms":["muji","無印良品"],"tags":{"brand:wikidata":"Q708789","shop":"department_store"},"addTags":{"brand":"Muji","brand:en":"Muji","brand:ja":"無印良品","brand:wikidata":"Q708789","brand:wikipedia":"en:Muji","name":"Muji","name:en":"Muji","name:ja":"無印良品","shop":"department_store"}},"shop/department_store/stockmann-da3317":{"name":"Stockmann","locationSet":{"include":["fi"]},"geometry":["point","area"],"matchScore":2,"terms":["stockmann"],"tags":{"brand:wikidata":"Q1543093","shop":"department_store"},"addTags":{"brand":"Stockmann","brand:wikidata":"Q1543093","brand:wikipedia":"fi:Stockmann","name":"Stockmann","shop":"department_store"}},"shop/doityourself/bauhaus-6847b5":{"name":"Bauhaus","locationSet":{"include":["at","bg","ch","cz","de","dk","ee","es","fi","hr","hu","is","lu","nl","no","se","si","sk","tr"]},"geometry":["point","area"],"matchScore":2,"terms":["bauhaus"],"tags":{"brand:wikidata":"Q672043","shop":"doityourself"},"addTags":{"brand":"Bauhaus","brand:wikidata":"Q672043","brand:wikipedia":"en:Bauhaus (company)","name":"Bauhaus","shop":"doityourself"}},"shop/doityourself/biltema-acccd4":{"name":"Biltema","locationSet":{"include":["dk","fi","no","se"]},"geometry":["point","area"],"matchScore":2,"terms":["biltema"],"fields":["name","brand","{shop/doityourself}"],"tags":{"brand:wikidata":"Q3355552","shop":"doityourself"},"addTags":{"brand":"Biltema","brand:wikidata":"Q3355552","brand:wikipedia":"en:Biltema","name":"Biltema","shop":"doityourself"}},"shop/doityourself/clasohlson-baf621":{"name":"Clas Ohlson","locationSet":{"include":["fi","no","se"]},"geometry":["point","area"],"matchScore":2,"terms":["clas ohlson"],"fields":["name","brand","{shop/doityourself}"],"tags":{"brand:wikidata":"Q3356220","shop":"doityourself"},"addTags":{"brand":"Clas Ohlson","brand:wikidata":"Q3356220","brand:wikipedia":"en:Clas Ohlson","name":"Clas Ohlson","shop":"doityourself"}},"shop/electronics/gigantti-741a81":{"name":"Gigantti","locationSet":{"include":["fi"]},"geometry":["point","area"],"matchScore":2,"terms":["gigantti"],"tags":{"brand:wikidata":"Q42512186","shop":"electronics"},"addTags":{"brand":"Gigantti","brand:wikidata":"Q42512186","brand:wikipedia":"fi:Gigantti (tavarataloketju)","name":"Gigantti","shop":"electronics"}},"shop/electronics/power-9765c4":{"name":"Power","locationSet":{"include":["dk","fi","no","se"]},"geometry":["point","area"],"matchScore":2,"terms":["power"],"tags":{"brand:wikidata":"Q20857751","shop":"electronics"},"addTags":{"brand":"Power","brand:wikidata":"Q20857751","brand:wikipedia":"fi:Power","name":"Power","shop":"electronics"}},"shop/electronics/teknikmagasinet-bae196":{"name":"Teknikmagasinet","locationSet":{"include":["fi","no","se"]},"geometry":["point","area"],"matchScore":2,"terms":["teknikmagasinet"],"tags":{"brand:wikidata":"Q3357520","shop":"electronics"},"addTags":{"brand":"Teknikmagasinet","brand:wikidata":"Q3357520","brand:wikipedia":"en:Teknikmagasinet","name":"Teknikmagasinet","shop":"electronics"}},"shop/fashion_accessories/mulberry-e1f087":{"name":"Mulberry","locationSet":{"include":["ae","au","ca","ch","cn","de","dk","fi","gb","ie","jp","kr","my","nl","no","se","sg","th","us"]},"geometry":["point","area"],"matchScore":2,"terms":["mulberry"],"tags":{"brand:wikidata":"Q3866987","shop":"fashion_accessories"},"addTags":{"brand":"Mulberry","brand:wikidata":"Q3866987","brand:wikipedia":"en:Mulberry (company)","name":"Mulberry","shop":"fashion_accessories"}},"shop/furniture/asko-32ceba":{"name":"Asko","locationSet":{"include":["fi"]},"geometry":["point","area"],"matchScore":2,"terms":["asko"],"tags":{"brand:wikidata":"Q11853132","shop":"furniture"},"addTags":{"brand":"Asko","brand:wikidata":"Q11853132","brand:wikipedia":"fi:Asko","name":"Asko","shop":"furniture"}},"shop/furniture/ikea-3c70a1":{"name":"IKEA (Scandinavia)","locationSet":{"include":["dk","fi","no","se"]},"geometry":["point","area"],"matchScore":2,"terms":["ikea"],"fields":["name","brand","{shop/furniture}"],"tags":{"brand:wikidata":"Q54078","shop":"furniture"},"addTags":{"brand":"IKEA","brand:wikidata":"Q54078","brand:wikipedia":"en:IKEA","name":"IKEA","shop":"furniture"}},"shop/furniture/isku-32ceba":{"name":"Isku","locationSet":{"include":["fi"]},"geometry":["point","area"],"matchScore":2,"terms":["isku"],"tags":{"brand:wikidata":"Q11865127","shop":"furniture"},"addTags":{"brand":"Isku","brand:wikidata":"Q11865127","brand:wikipedia":"fi:Isku (yritys)","name":"Isku","shop":"furniture"}},"shop/furniture/momax-a18722":{"name":"Mömax","locationSet":{"include":["by","bg","cz","hu","pl","md","ro","ru","sk","ua","ax","gg","je","cq","dk","ee","fo","fi","is","ie","im","lv","lt","no","sj","se","gb","al","ad","ba","hr","gi","gr","va","it","mt","me","mk","pt","sm","rs","si","es","xk","at","be","fr","de","li","lu","mc","nl","ch"]},"geometry":["point","area"],"matchScore":2,"terms":["mömax"],"tags":{"brand:wikidata":"Q56388481","shop":"furniture"},"addTags":{"brand":"Mömax","brand:wikidata":"Q56388481","brand:wikipedia":"hu:Mömax (nemzetközi cég)","name":"Mömax","shop":"furniture"}},"shop/furniture/sotka-32ceba":{"name":"Sotka","locationSet":{"include":["fi"]},"geometry":["point","area"],"matchScore":2,"terms":["sotka"],"tags":{"brand:wikidata":"Q18689173","shop":"furniture"},"addTags":{"brand":"Sotka","brand:wikidata":"Q18689173","brand:wikipedia":"fi:Sotka (ketju)","name":"Sotka","shop":"furniture"}},"shop/furniture/xxxlutz-5acc6e":{"name":"XXXLutz","locationSet":{"include":["by","bg","cz","hu","pl","md","ro","ru","sk","ua","ax","gg","je","cq","dk","ee","fo","fi","is","ie","im","lv","lt","no","sj","se","gb","al","ad","ba","hr","gi","gr","va","it","mt","me","mk","pt","sm","rs","si","es","xk","at","be","fr","de","li","lu","mc","nl","ch"],"exclude":["bg"]},"geometry":["point","area"],"matchScore":2,"terms":["xxxlutz"],"tags":{"brand:wikidata":"Q70339467","shop":"furniture"},"addTags":{"brand":"XXXLutz","brand:wikidata":"Q70339467","brand:wikipedia":"de:XXXLutz","name":"XXXLutz","shop":"furniture"}},"shop/hairdresser/cutters-5effd8":{"name":"Cutters","locationSet":{"include":["fi","no","se"]},"geometry":["point","area"],"matchScore":2,"terms":["cutters"],"fields":["name","brand","{shop/hairdresser}"],"tags":{"brand:wikidata":"Q106940660","shop":"hairdresser"},"addTags":{"brand":"Cutters","brand:wikidata":"Q106940660","brand:wikipedia":"no:Cutters","name":"Cutters","shop":"hairdresser"}},"shop/hardware/krauta-93dff8":{"name":"K-Rauta","locationSet":{"include":["fi"]},"geometry":["point","area"],"matchScore":2,"terms":["k-rauta"],"tags":{"brand:wikidata":"Q4206187","shop":"hardware"},"addTags":{"brand":"K-Rauta","brand:wikidata":"Q4206187","brand:wikipedia":"fi:K-Rauta","name":"K-Rauta","shop":"hardware"}},"shop/hardware/kodinterra-93dff8":{"name":"Kodin Terra","locationSet":{"include":["fi"]},"geometry":["point","area"],"matchScore":2,"terms":["kodin terra"],"tags":{"brand:wikidata":"Q11872038","shop":"hardware"},"addTags":{"brand":"Kodin Terra","brand:wikidata":"Q11872038","brand:wikipedia":"fi:Kodin Terra","name":"Kodin Terra","shop":"hardware"}},"shop/hardware/wurth-d9914d":{"name":"Würth","locationSet":{"include":["be","cz","de","fi","fr","it","no","sk"]},"geometry":["point","area"],"matchScore":2,"terms":["würth"],"fields":["name","brand","{shop/hardware}"],"tags":{"brand:wikidata":"Q679750","shop":"hardware"},"addTags":{"brand":"Würth","brand:wikidata":"Q679750","brand:wikipedia":"de:Würth-Gruppe","name":"Würth","shop":"hardware"}},"shop/interior_decoration/hemtex-056dae":{"name":"Hemtex","locationSet":{"include":["ee","fi","se"]},"geometry":["point","area"],"matchScore":2,"terms":["hemtex"],"tags":{"brand:wikidata":"Q10521868","shop":"interior_decoration"},"addTags":{"brand":"Hemtex","brand:wikidata":"Q10521868","brand:wikipedia":"sv:Hemtex","name":"Hemtex","shop":"interior_decoration"}},"shop/kiosk/rkioski-e0c7b3":{"name":"R-Kioski","locationSet":{"include":["fi"]},"geometry":["point","area"],"matchScore":2,"terms":["r-kioski"],"tags":{"brand:wikidata":"Q1571400","shop":"kiosk"},"addTags":{"brand":"R-Kioski","brand:wikidata":"Q1571400","brand:wikipedia":"en:R-kioski","name":"R-Kioski","shop":"kiosk"}},"shop/mobile_phone/telia-856553":{"name":"Telia","locationSet":{"include":["dk","fi","lt","no","se"]},"geometry":["point","area"],"matchScore":2,"terms":["telia"],"fields":["name","brand","{shop/mobile_phone}"],"tags":{"brand:wikidata":"Q862303","shop":"mobile_phone"},"addTags":{"brand":"Telia","brand:wikidata":"Q862303","brand:wikipedia":"en:Telia Company","name":"Telia","shop":"mobile_phone"}},"shop/optician/instrumentarium-3a4758":{"name":"Instrumentarium","locationSet":{"include":["fi"]},"geometry":["point","area"],"matchScore":2,"terms":["instrumentarium"],"tags":{"brand:wikidata":"Q11864937","shop":"optician"},"addTags":{"brand":"Instrumentarium","brand:wikidata":"Q11864937","brand:wikipedia":"fi:Instrumentarium","name":"Instrumentarium","shop":"optician"}},"shop/optician/nissen-3a4758":{"name":"Nissen","locationSet":{"include":["fi"]},"geometry":["point","area"],"matchScore":2,"terms":["nissen"],"tags":{"brand:wikidata":"Q104025471","shop":"optician"},"addTags":{"brand":"Nissen","brand:wikidata":"Q104025471","name":"Nissen","shop":"optician"}},"shop/optician/silmaasema-3a4758":{"name":"Silmäasema","locationSet":{"include":["fi"]},"geometry":["point","area"],"matchScore":2,"terms":["silmäasema"],"tags":{"brand:wikidata":"Q15994200","shop":"optician"},"addTags":{"brand":"Silmäasema","brand:wikidata":"Q15994200","brand:wikipedia":"fi:Silmäasema","name":"Silmäasema","shop":"optician"}},"shop/optician/synsam-aec081":{"name":"Synsam","locationSet":{"include":["fi","no","se"]},"geometry":["point","area"],"matchScore":2,"terms":["synsam"],"fields":["name","brand","{shop/optician}"],"tags":{"brand:wikidata":"Q12004589","shop":"optician"},"addTags":{"brand":"Synsam","brand:wikidata":"Q12004589","brand:wikipedia":"sv:Synsam","name":"Synsam","shop":"optician"}},"shop/pet/faunatar-294f56":{"name":"Faunatar","locationSet":{"include":["fi"]},"geometry":["point","area"],"matchScore":2,"terms":["faunatar"],"tags":{"brand:wikidata":"Q11859415","shop":"pet"},"addTags":{"brand":"Faunatar","brand:wikidata":"Q11859415","brand:wikipedia":"fi:Faunatar","name":"Faunatar","shop":"pet"}},"shop/pet/mustijamirri-294f56":{"name":"Musti ja Mirri","locationSet":{"include":["fi"]},"geometry":["point","area"],"matchScore":2,"terms":["musti ja mirri"],"tags":{"brand:wikidata":"Q11883558","shop":"pet"},"addTags":{"brand":"Musti ja Mirri","brand:wikidata":"Q11883558","brand:wikipedia":"fi:Musti Group","name":"Musti ja Mirri","shop":"pet"}},"shop/sports/stadium-32e81d":{"name":"Stadium","locationSet":{"include":["de","dk","fi","se"]},"geometry":["point","area"],"matchScore":2,"terms":["stadium"],"tags":{"brand:wikidata":"Q4993863","shop":"sports"},"addTags":{"brand":"Stadium","brand:wikidata":"Q4993863","brand:wikipedia":"sv:Stadium (detaljhandelskedja)","name":"Stadium","shop":"sports"}},"shop/sports/xxl-ea59d5":{"name":"XXL","locationSet":{"include":["fi","no","se"]},"geometry":["point","area"],"matchScore":2,"terms":["xxl"],"fields":["name","brand","{shop/sports}"],"tags":{"brand:wikidata":"Q12010840","shop":"sports"},"addTags":{"brand":"XXL","brand:wikidata":"Q12010840","brand:wikipedia":"no:XXL","name":"XXL","shop":"sports"}},"shop/supermarket/eurospar-4b5e11":{"name":"Eurospar","locationSet":{"include":["by","bg","cz","hu","pl","md","ro","ru","sk","ua","ax","gg","je","cq","dk","ee","fo","fi","is","ie","im","lv","lt","no","sj","se","gb","al","ad","ba","hr","gi","gr","va","it","mt","me","mk","pt","sm","rs","si","es","xk","at","be","fr","de","li","lu","mc","nl","ch"]},"geometry":["point","area"],"matchScore":2,"terms":["eurospar"],"tags":{"brand:wikidata":"Q12309283","shop":"supermarket"},"addTags":{"brand":"Eurospar","brand:wikidata":"Q12309283","brand:wikipedia":"da:Eurospar","name":"Eurospar","shop":"supermarket"}},"shop/supermarket/halpahalli-c9c76a":{"name":"HalpaHalli","locationSet":{"include":["ee","fi","ru"]},"geometry":["point","area"],"matchScore":2,"terms":["halpahalli"],"tags":{"brand:wikidata":"Q11861256","shop":"supermarket"},"addTags":{"brand":"HalpaHalli","brand:wikidata":"Q11861256","brand:wikipedia":"fi:Halpa-Halli","name":"HalpaHalli","shop":"supermarket"}},"shop/supermarket/kcitymarket-46d3b7":{"name":"K-Citymarket","locationSet":{"include":["fi"]},"geometry":["point","area"],"matchScore":2,"terms":["k-citymarket"],"tags":{"brand:wikidata":"Q11868561","shop":"supermarket"},"addTags":{"brand":"K-Citymarket","brand:wikidata":"Q11868561","brand:wikipedia":"fi:K-Citymarket","name":"K-Citymarket","shop":"supermarket"}},"shop/supermarket/ksupermarket-46d3b7":{"name":"K-Supermarket","locationSet":{"include":["fi"]},"geometry":["point","area"],"matchScore":2,"terms":["k-supermarket"],"tags":{"brand:wikidata":"Q5408668","shop":"supermarket"},"addTags":{"brand":"K-Supermarket","brand:wikidata":"Q5408668","brand:wikipedia":"fi:K-Supermarket","name":"K-Supermarket","shop":"supermarket"}},"shop/supermarket/prisma-c9c76a":{"name":"Prisma","locationSet":{"include":["ee","fi","ru"]},"geometry":["point","area"],"matchScore":2,"terms":["prisma"],"tags":{"brand:wikidata":"Q12047031","shop":"supermarket"},"addTags":{"brand":"Prisma","brand:wikidata":"Q12047031","brand:wikipedia":"fi:Prisma (kauppaketju)","name":"Prisma","shop":"supermarket"}},"shop/supermarket/smarket-46d3b7":{"name":"S-market","locationSet":{"include":["fi"]},"geometry":["point","area"],"matchScore":2,"terms":["s-market"],"tags":{"brand:wikidata":"Q11891613","shop":"supermarket"},"addTags":{"brand":"S-market","brand:wikidata":"Q11891613","brand:wikipedia":"fi:S-market","name":"S-market","shop":"supermarket"}},"shop/tool_hire/loxam-33fef8":{"name":"Loxam","locationSet":{"include":["ae","be","bh","br","ch","co","cz","de","dk","ee","es","fi","fr","gb","ie","it","kw","lt","lu","lv","ma","nl","no","om","pl","pt","qa","sa","se","sk"]},"geometry":["point","area"],"matchScore":2,"terms":["loxam"],"tags":{"brand:wikidata":"Q3264407","shop":"tool_hire"},"addTags":{"brand":"Loxam","brand:wikidata":"Q3264407","brand:wikipedia":"fr:Loxam","name":"Loxam","shop":"tool_hire"}},"shop/variety_store/flyingtigercopenhagen-37d726":{"name":"Flying Tiger Copenhagen","locationSet":{"include":["at","be","ch","cy","cz","de","dk","ee","es","fi","fr","gb","gr","hu","ie","is","it","jp","kr","lt","lv","mt","nl","no","pl","pt","se","sk"]},"geometry":["point","area"],"matchScore":2,"terms":["flying tiger","flying tiger copenhagen","tgr","tiger"],"tags":{"brand:wikidata":"Q2786319","shop":"variety_store"},"addTags":{"brand":"Flying Tiger Copenhagen","brand:wikidata":"Q2786319","brand:wikipedia":"en:Flying Tiger Copenhagen","name":"Flying Tiger Copenhagen","shop":"variety_store","short_name":"Flying Tiger"}},"shop/variety_store/tokmanni-c0b5b4":{"name":"Tokmanni","locationSet":{"include":["fi"]},"geometry":["point","area"],"matchScore":2,"terms":["tokmanni"],"tags":{"brand:wikidata":"Q13423470","shop":"variety_store"},"addTags":{"brand":"Tokmanni","brand:wikidata":"Q13423470","brand:wikipedia":"fi:Tokmanni","name":"Tokmanni","shop":"variety_store"}},"tourism/hotel/bandbhotel-fc8c2c":{"name":"B&B Hotel","locationSet":{"include":["by","bg","cz","hu","pl","md","ro","ru","sk","ua","ax","gg","je","cq","dk","ee","fo","fi","is","ie","im","lv","lt","no","sj","se","gb","al","ad","ba","hr","gi","gr","va","it","mt","me","mk","pt","sm","rs","si","es","xk","at","be","fr","de","li","lu","mc","nl","ch","br"]},"geometry":["point","area"],"matchScore":2,"terms":["b&b hotels"],"fields":["name","brand","{tourism/hotel}"],"tags":{"brand:wikidata":"Q794939","tourism":"hotel"},"addTags":{"brand":"B&B Hotels","brand:wikidata":"Q794939","brand:wikipedia":"en:B&B Hotels","name":"B&B Hotel","tourism":"hotel"}},"tourism/hotel/motelone-046fe6":{"name":"Motel One","locationSet":{"include":["by","bg","cz","hu","pl","md","ro","ru","sk","ua","ax","gg","je","cq","dk","ee","fo","fi","is","ie","im","lv","lt","no","sj","se","gb","al","ad","ba","hr","gi","gr","va","it","mt","me","mk","pt","sm","rs","si","es","xk","at","be","fr","de","li","lu","mc","nl","ch"]},"geometry":["point","area"],"matchScore":2,"terms":["motel one"],"fields":["name","brand","{tourism/hotel}"],"tags":{"brand:wikidata":"Q391080","tourism":"hotel"},"addTags":{"brand":"Motel One","brand:wikidata":"Q391080","brand:wikipedia":"en:Motel One","name":"Motel One","tourism":"hotel"}},"tourism/hotel/scandichotels-f8f452":{"name":"Scandic Hotels","locationSet":{"include":["de","dk","fi","no","pl","se"]},"geometry":["point","area"],"matchScore":2,"terms":["scandic hotels"],"fields":["name","brand","{tourism/hotel}"],"tags":{"brand:wikidata":"Q129391","tourism":"hotel"},"addTags":{"brand":"Scandic Hotels","brand:wikidata":"Q129391","brand:wikipedia":"en:Scandic Hotels","name":"Scandic Hotels","tourism":"hotel"}},"amenity/charging_station/eon-7f623e":{"name":"E.ON","locationSet":{"include":["by","bg","cz","hu","pl","md","ro","ru","sk","ua","ax","gg","je","cq","dk","ee","fo","fi","is","ie","im","lv","lt","no","sj","se","gb","al","ad","ba","hr","gi","gr","va","it","mt","me","mk","pt","sm","rs","si","es","xk","at","be","fr","de","li","lu","mc","nl","ch"]},"geometry":["point","area"],"matchScore":2,"terms":["e-on drive","e.on"],"fields":["name","operator","{amenity/charging_station}"],"tags":{"amenity":"charging_station","operator:wikidata":"Q270223"},"addTags":{"amenity":"charging_station","operator":"E.ON","operator:wikidata":"Q270223","operator:wikipedia":"de:E.ON"}},"amenity/charging_station/evbox-7f623e":{"name":"EVBOX","locationSet":{"include":["by","bg","cz","hu","pl","md","ro","ru","sk","ua","ax","gg","je","cq","dk","ee","fo","fi","is","ie","im","lv","lt","no","sj","se","gb","al","ad","ba","hr","gi","gr","va","it","mt","me","mk","pt","sm","rs","si","es","xk","at","be","fr","de","li","lu","mc","nl","ch"]},"geometry":["point","area"],"matchScore":2,"terms":["evbox"],"fields":["name","operator","{amenity/charging_station}"],"tags":{"amenity":"charging_station","operator:wikidata":"Q28406392"},"addTags":{"amenity":"charging_station","operator":"EVBOX","operator:wikidata":"Q28406392","operator:wikipedia":"en:EVBox"}},"amenity/charging_station/qpark-7f623e":{"name":"Q-Park","locationSet":{"include":["by","bg","cz","hu","pl","md","ro","ru","sk","ua","ax","gg","je","cq","dk","ee","fo","fi","is","ie","im","lv","lt","no","sj","se","gb","al","ad","ba","hr","gi","gr","va","it","mt","me","mk","pt","sm","rs","si","es","xk","at","be","fr","de","li","lu","mc","nl","ch"]},"geometry":["point","area"],"matchScore":2,"terms":["q-park"],"fields":["name","operator","{amenity/charging_station}"],"tags":{"amenity":"charging_station","operator:wikidata":"Q1127798"},"addTags":{"amenity":"charging_station","operator":"Q-Park","operator:wikidata":"Q1127798","operator:wikipedia":"en:Q-Park"}},"amenity/clinic/terveystalo-6db834":{"name":"Terveystalo","locationSet":{"include":["fi"]},"geometry":["point","area"],"matchScore":2,"terms":["terveystalo"],"reference":{"key":"amenity","value":"clinic"},"tags":{"amenity":"clinic","operator:wikidata":"Q11897034"},"addTags":{"amenity":"clinic","healthcare":"clinic","name":"Terveystalo","operator":"Terveystalo","operator:wikidata":"Q11897034","operator:wikipedia":"fi:Terveystalo"}},"amenity/library/helmet-75c643":{"name":"Helmet","locationSet":{"include":["fi"]},"geometry":["point","area"],"matchScore":2,"terms":["helmet"],"tags":{"amenity":"library","operator:wikidata":"Q11861998"},"addTags":{"amenity":"library","operator":"Helmet","operator:type":"public","operator:wikidata":"Q11861998","operator:wikipedia":"fi:Helmet-kirjasto"}},"amenity/library/satakirjastot-75c643":{"name":"Satakirjastot","locationSet":{"include":["fi"]},"geometry":["point","area"],"matchScore":2,"terms":["satakirjastot"],"tags":{"amenity":"library","operator:wikidata":"Q107363408"},"addTags":{"amenity":"library","operator":"Satakirjastot","operator:type":"public","operator:wikidata":"Q107363408","operator:wikipedia":"fi:Satakirjastot"}},"amenity/post_box/posti-b6d4d9":{"name":"Posti","locationSet":{"include":["fi"]},"geometry":["point","vertex"],"matchScore":2,"terms":["posti"],"tags":{"amenity":"post_box","operator:wikidata":"Q843453"},"addTags":{"amenity":"post_box","operator":"Posti","operator:wikidata":"Q843453","operator:wikipedia":"fi:Posti Group"}},"amenity/post_office/posti-7504a1":{"name":"Posti","locationSet":{"include":["fi"]},"geometry":["point","area"],"matchScore":2,"terms":["posti"],"fields":["name","operator","{amenity/post_office}"],"tags":{"amenity":"post_office","operator:wikidata":"Q843453"},"addTags":{"amenity":"post_office","operator":"Posti","operator:wikidata":"Q843453","operator:wikipedia":"fi:Posti Group"}},"leisure/nature_reserve/hameenlinnankaupunki-175718":{"name":"Hämeenlinnan kaupunki","locationSet":{"include":["fi"]},"geometry":["area","point"],"matchScore":2,"terms":["hämeenlinnan kaupunki"],"tags":{"leisure":"nature_reserve","operator:wikidata":"Q202158"},"addTags":{"leisure":"nature_reserve","operator":"Hämeenlinnan kaupunki","operator:type":"public","operator:wikidata":"Q202158","operator:wikipedia":"fi:Hämeenlinna"}},"leisure/park/hameenlinnankaupunki-b3609d":{"name":"Hämeenlinnan kaupunki","locationSet":{"include":["fi"]},"geometry":["area","point"],"matchScore":2,"terms":["hämeenlinnan kaupunki"],"tags":{"leisure":"park","operator:wikidata":"Q202158"},"addTags":{"leisure":"park","operator":"Hämeenlinnan kaupunki","operator:type":"public","operator:wikidata":"Q202158","operator:wikipedia":"fi:Hämeenlinna"}},"power/generator/innogy-16c9d0":{"name":"Innogy","locationSet":{"include":["by","bg","cz","hu","pl","md","ro","ru","sk","ua","ax","gg","je","cq","dk","ee","fo","fi","is","ie","im","lv","lt","no","sj","se","gb","al","ad","ba","hr","gi","gr","va","it","mt","me","mk","pt","sm","rs","si","es","xk","at","be","fr","de","li","lu","mc","nl","ch"]},"geometry":["point","vertex","area"],"matchScore":2,"terms":["innogy"],"tags":{"operator:wikidata":"Q2124721","power":"generator"},"addTags":{"operator":"Innogy","operator:wikidata":"Q2124721","operator:wikipedia":"en:Innogy","power":"generator"}},"power/generator/rwe-16c9d0":{"name":"RWE","locationSet":{"include":["by","bg","cz","hu","pl","md","ro","ru","sk","ua","ax","gg","je","cq","dk","ee","fo","fi","is","ie","im","lv","lt","no","sj","se","gb","al","ad","ba","hr","gi","gr","va","it","mt","me","mk","pt","sm","rs","si","es","xk","at","be","fr","de","li","lu","mc","nl","ch"]},"geometry":["point","vertex","area"],"matchScore":2,"terms":["rwe"],"tags":{"operator:wikidata":"Q138133","power":"generator"},"addTags":{"operator":"RWE","operator:wikidata":"Q138133","operator:wikipedia":"en:RWE","power":"generator"}},"power/generator/statkraft-16c9d0":{"name":"Statkraft","locationSet":{"include":["by","bg","cz","hu","pl","md","ro","ru","sk","ua","ax","gg","je","cq","dk","ee","fo","fi","is","ie","im","lv","lt","no","sj","se","gb","al","ad","ba","hr","gi","gr","va","it","mt","me","mk","pt","sm","rs","si","es","xk","at","be","fr","de","li","lu","mc","nl","ch"]},"geometry":["point","vertex","area"],"matchScore":2,"terms":["statkraft"],"tags":{"operator:wikidata":"Q1681145","power":"generator"},"addTags":{"operator":"Statkraft","operator:wikidata":"Q1681145","operator:wikipedia":"en:Statkraft","power":"generator"}},"power/generator/uniper-16c9d0":{"name":"Uniper","locationSet":{"include":["by","bg","cz","hu","pl","md","ro","ru","sk","ua","ax","gg","je","cq","dk","ee","fo","fi","is","ie","im","lv","lt","no","sj","se","gb","al","ad","ba","hr","gi","gr","va","it","mt","me","mk","pt","sm","rs","si","es","xk","at","be","fr","de","li","lu","mc","nl","ch"]},"geometry":["point","vertex","area"],"matchScore":2,"terms":["uniper"],"tags":{"operator:wikidata":"Q19839259","power":"generator"},"addTags":{"operator":"Uniper","operator:wikidata":"Q19839259","operator:wikipedia":"en:Uniper","power":"generator"}},"power/line/caruna-17e9a7":{"name":"Caruna","locationSet":{"include":["fi"]},"geometry":["line"],"matchScore":2,"terms":["caruna"],"tags":{"operator:wikidata":"Q18688714","power":"line"},"addTags":{"operator":"Caruna","operator:wikidata":"Q18688714","operator:wikipedia":"fi:Caruna","power":"line"}},"power/line/elenia-17e9a7":{"name":"Elenia","locationSet":{"include":["fi"]},"geometry":["line"],"matchScore":2,"terms":["elenia"],"tags":{"operator:wikidata":"Q11857327","power":"line"},"addTags":{"operator":"Elenia","operator:wikidata":"Q11857327","operator:wikipedia":"fi:Elenia","power":"line"}},"power/line/fingrid-17e9a7":{"name":"Fingrid","locationSet":{"include":["fi"]},"geometry":["line"],"matchScore":2,"terms":["fingrid","fingrid oy","fingrid oyj"],"tags":{"operator:wikidata":"Q1417185","power":"line"},"addTags":{"operator":"Fingrid","operator:wikidata":"Q1417185","operator:wikipedia":"fi:Fingrid","power":"line"}},"power/line/fortum-1bed17":{"name":"Fortum","locationSet":{"include":["fi","se"]},"geometry":["line"],"matchScore":2,"terms":["fortum"],"tags":{"operator:wikidata":"Q1439075","power":"line"},"addTags":{"operator":"Fortum","operator:wikidata":"Q1439075","operator:wikipedia":"fi:Fortum","power":"line"}},"power/minor_line/caruna-4923eb":{"name":"Caruna","locationSet":{"include":["fi"]},"geometry":["line"],"matchScore":2,"terms":["caruna"],"tags":{"operator:wikidata":"Q18688714","power":"minor_line"},"addTags":{"operator":"Caruna","operator:wikidata":"Q18688714","operator:wikipedia":"fi:Caruna","power":"minor_line"}},"power/minor_line/elenia-4923eb":{"name":"Elenia","locationSet":{"include":["fi"]},"geometry":["line"],"matchScore":2,"terms":["elenia"],"tags":{"operator:wikidata":"Q11857327","power":"minor_line"},"addTags":{"operator":"Elenia","operator:wikidata":"Q11857327","operator:wikipedia":"fi:Elenia","power":"minor_line"}},"power/minor_line/fingrid-4923eb":{"name":"Fingrid","locationSet":{"include":["fi"]},"geometry":["line"],"matchScore":2,"terms":["fingrid","fingrid oy","fingrid oyj"],"tags":{"operator:wikidata":"Q1417185","power":"minor_line"},"addTags":{"operator":"Fingrid","operator:wikidata":"Q1417185","operator:wikipedia":"fi:Fingrid","power":"minor_line"}},"power/minor_line/fortum-58de68":{"name":"Fortum","locationSet":{"include":["fi","se"]},"geometry":["line"],"matchScore":2,"terms":["fortum"],"tags":{"operator:wikidata":"Q1439075","power":"minor_line"},"addTags":{"operator":"Fortum","operator:wikidata":"Q1439075","operator:wikipedia":"fi:Fortum","power":"minor_line"}},"power/plant/kemijokioy-48beaf":{"name":"Kemijoki Oy","locationSet":{"include":["fi"]},"geometry":["area"],"matchScore":2,"terms":["kemijoki oy"],"tags":{"operator:wikidata":"Q11870854","power":"plant"},"addTags":{"operator":"Kemijoki Oy","operator:wikidata":"Q11870854","operator:wikipedia":"fi:Kemijoki (yritys)","power":"plant"}},"power/plant/vattenfall-482654":{"name":"Vattenfall","locationSet":{"include":["dk","fi","gb","nl","pl","se"]},"geometry":["area"],"matchScore":2,"terms":["vattenfall","vattenfall ab"],"tags":{"operator:wikidata":"Q157675","power":"plant"},"addTags":{"operator":"Vattenfall","operator:wikidata":"Q157675","operator:wikipedia":"da:Vattenfall","power":"plant"}},"power/pole/caruna-48367d":{"name":"Caruna","locationSet":{"include":["fi"]},"geometry":["point","vertex"],"matchScore":2,"terms":["caruna"],"tags":{"operator:wikidata":"Q18688714","power":"pole"},"addTags":{"operator":"Caruna","operator:wikidata":"Q18688714","operator:wikipedia":"fi:Caruna","power":"pole"}},"power/pole/elenia-48367d":{"name":"Elenia","locationSet":{"include":["fi"]},"geometry":["point","vertex"],"matchScore":2,"terms":["elenia"],"tags":{"operator:wikidata":"Q11857327","power":"pole"},"addTags":{"operator":"Elenia","operator:wikidata":"Q11857327","operator:wikipedia":"fi:Elenia","power":"pole"}},"power/pole/fingrid-48367d":{"name":"Fingrid","locationSet":{"include":["fi"]},"geometry":["point","vertex"],"matchScore":2,"terms":["fingrid","fingrid oy","fingrid oyj"],"tags":{"operator:wikidata":"Q1417185","power":"pole"},"addTags":{"operator":"Fingrid","operator:wikidata":"Q1417185","operator:wikipedia":"fi:Fingrid","power":"pole"}},"power/pole/fortum-fe790a":{"name":"Fortum","locationSet":{"include":["fi","se"]},"geometry":["point","vertex"],"matchScore":2,"terms":["fortum"],"tags":{"operator:wikidata":"Q1439075","power":"pole"},"addTags":{"operator":"Fortum","operator:wikidata":"Q1439075","operator:wikipedia":"fi:Fortum","power":"pole"}},"power/substation/caruna-a5d6ed":{"name":"Caruna","locationSet":{"include":["fi"]},"geometry":["area","point"],"matchScore":2,"terms":["caruna"],"tags":{"operator:wikidata":"Q18688714","power":"substation"},"addTags":{"operator":"Caruna","operator:wikidata":"Q18688714","operator:wikipedia":"fi:Caruna","power":"substation"}},"power/substation/elenia-a5d6ed":{"name":"Elenia","locationSet":{"include":["fi"]},"geometry":["area","point"],"matchScore":2,"terms":["elenia"],"tags":{"operator:wikidata":"Q11857327","power":"substation"},"addTags":{"operator":"Elenia","operator:wikidata":"Q11857327","operator:wikipedia":"fi:Elenia","power":"substation"}},"power/substation/fingrid-a5d6ed":{"name":"Fingrid","locationSet":{"include":["fi"]},"geometry":["area","point"],"matchScore":2,"terms":["fingrid","fingrid oy","fingrid oyj"],"tags":{"operator:wikidata":"Q1417185","power":"substation"},"addTags":{"operator":"Fingrid","operator:wikidata":"Q1417185","operator:wikipedia":"fi:Fingrid","power":"substation"}},"power/substation/fortum-08f77c":{"name":"Fortum","locationSet":{"include":["fi","se"]},"geometry":["area","point"],"matchScore":2,"terms":["fortum"],"tags":{"operator:wikidata":"Q1439075","power":"substation"},"addTags":{"operator":"Fortum","operator:wikidata":"Q1439075","operator:wikipedia":"fi:Fortum","power":"substation"}},"power/substation/oulunenergiasiirtojajakelu-a5d6ed":{"name":"Oulun Energia Siirto ja Jakelu","locationSet":{"include":["fi"]},"geometry":["area","point"],"matchScore":2,"terms":["oulun energia siirto ja jakelu"],"tags":{"operator:wikidata":"Q18643976","power":"substation"},"addTags":{"operator":"Oulun Energia Siirto ja Jakelu","operator:wikidata":"Q18643976","operator:wikipedia":"fi:Oulun Energia","power":"substation"}},"power/tower/caruna-010e24":{"name":"Caruna","locationSet":{"include":["fi"]},"geometry":["point","vertex"],"matchScore":2,"terms":["caruna"],"tags":{"operator:wikidata":"Q18688714","power":"tower"},"addTags":{"operator":"Caruna","operator:wikidata":"Q18688714","operator:wikipedia":"fi:Caruna","power":"tower"}},"power/tower/elenia-010e24":{"name":"Elenia","locationSet":{"include":["fi"]},"geometry":["point","vertex"],"matchScore":2,"terms":["elenia"],"tags":{"operator:wikidata":"Q11857327","power":"tower"},"addTags":{"operator":"Elenia","operator:wikidata":"Q11857327","operator:wikipedia":"fi:Elenia","power":"tower"}},"power/tower/fingrid-010e24":{"name":"Fingrid","locationSet":{"include":["fi"]},"geometry":["point","vertex"],"matchScore":2,"terms":["fingrid","fingrid oy","fingrid oyj"],"tags":{"operator:wikidata":"Q1417185","power":"tower"},"addTags":{"operator":"Fingrid","operator:wikidata":"Q1417185","operator:wikipedia":"fi:Fingrid","power":"tower"}},"power/tower/fortum-240ceb":{"name":"Fortum","locationSet":{"include":["fi","se"]},"geometry":["point","vertex"],"matchScore":2,"terms":["fortum"],"tags":{"operator:wikidata":"Q1439075","power":"tower"},"addTags":{"operator":"Fortum","operator:wikidata":"Q1439075","operator:wikipedia":"fi:Fortum","power":"tower"}},"power/transformer/caruna-5ad418":{"name":"Caruna","locationSet":{"include":["fi"]},"geometry":["point","vertex"],"matchScore":2,"terms":["caruna"],"tags":{"operator:wikidata":"Q18688714","power":"transformer"},"addTags":{"operator":"Caruna","operator:wikidata":"Q18688714","operator:wikipedia":"fi:Caruna","power":"transformer"}},"power/transformer/elenia-5ad418":{"name":"Elenia","locationSet":{"include":["fi"]},"geometry":["point","vertex"],"matchScore":2,"terms":["elenia"],"tags":{"operator:wikidata":"Q11857327","power":"transformer"},"addTags":{"operator":"Elenia","operator:wikidata":"Q11857327","operator:wikipedia":"fi:Elenia","power":"transformer"}},"power/transformer/fingrid-5ad418":{"name":"Fingrid","locationSet":{"include":["fi"]},"geometry":["point","vertex"],"matchScore":2,"terms":["fingrid","fingrid oy","fingrid oyj"],"tags":{"operator:wikidata":"Q1417185","power":"transformer"},"addTags":{"operator":"Fingrid","operator:wikidata":"Q1417185","operator:wikipedia":"fi:Fingrid","power":"transformer"}},"power/transformer/fortum-d4ffd9":{"name":"Fortum","locationSet":{"include":["fi","se"]},"geometry":["point","vertex"],"matchScore":2,"terms":["fortum"],"tags":{"operator:wikidata":"Q1439075","power":"transformer"},"addTags":{"operator":"Fortum","operator:wikidata":"Q1439075","operator:wikipedia":"fi:Fortum","power":"transformer"}},"power/transformer/oulunenergiasiirtojajakelu-5ad418":{"name":"Oulun Energia Siirto ja Jakelu","locationSet":{"include":["fi"]},"geometry":["point","vertex"],"matchScore":2,"terms":["oulun energia siirto ja jakelu"],"tags":{"operator:wikidata":"Q18643976","power":"transformer"},"addTags":{"operator":"Oulun Energia Siirto ja Jakelu","operator:wikidata":"Q18643976","operator:wikipedia":"fi:Oulun Energia","power":"transformer"}},"telecom/exchange/interoute-58ec5d":{"name":"Interoute","locationSet":{"include":["by","bg","cz","hu","pl","md","ro","ru","sk","ua","ax","gg","je","cq","dk","ee","fo","fi","is","ie","im","lv","lt","no","sj","se","gb","al","ad","ba","hr","gi","gr","va","it","mt","me","mk","pt","sm","rs","si","es","xk","at","be","fr","de","li","lu","mc","nl","ch"]},"geometry":["point","area"],"matchScore":2,"terms":["interoute"],"fields":["name","operator","{telecom/exchange}"],"tags":{"operator:wikidata":"Q1668090","telecom":"exchange"},"addTags":{"operator":"Interoute","operator:wikidata":"Q1668090","operator:wikipedia":"en:Interoute","telecom":"exchange"}},"public_transport/station_ferry/alandstrafiken-053f9b":{"name":"Ålandstrafiken","locationSet":{"include":["fi"]},"geometry":["vertex","point","area"],"matchScore":2,"terms":["ålandstrafiken"],"reference":{"key":"amenity","value":"ferry_terminal"},"tags":{"ferry":"yes","network:wikidata":"Q270993","public_transport":"station"},"addTags":{"amenity":"ferry_terminal","ferry":"yes","network":"Ålandstrafiken","network:wikidata":"Q270993","network:wikipedia":"en:Ålandstrafiken","public_transport":"station"}},"public_transport/platform/bus_point/alandstrafiken-4c949e":{"name":"Ålandstrafiken","locationSet":{"include":["fi"]},"geometry":["point","vertex"],"matchScore":2,"terms":["ålandstrafiken"],"reference":{"key":"public_transport","value":"platform"},"tags":{"bus":"yes","network:wikidata":"Q270993","public_transport":"platform"},"addTags":{"bus":"yes","highway":"bus_stop","network":"Ålandstrafiken","network:wikidata":"Q270993","network:wikipedia":"en:Ålandstrafiken","public_transport":"platform"}},"public_transport/platform/bus_point/foli-4c949e":{"name":"Föli","locationSet":{"include":["fi"]},"geometry":["point","vertex"],"matchScore":2,"terms":["föli"],"reference":{"key":"public_transport","value":"platform"},"tags":{"bus":"yes","network:wikidata":"Q18658772","public_transport":"platform"},"addTags":{"bus":"yes","highway":"bus_stop","network":"Föli","network:wikidata":"Q18658772","network:wikipedia":"fi:Turun seudun joukkoliikenne","public_transport":"platform"}},"public_transport/platform/bus_point/hsl-4c949e":{"name":"HSL","locationSet":{"include":["fi"]},"geometry":["point","vertex"],"matchScore":2,"terms":["hsl"],"reference":{"key":"public_transport","value":"platform"},"tags":{"bus":"yes","network:wikidata":"Q473211","public_transport":"platform"},"addTags":{"bus":"yes","highway":"bus_stop","network":"HSL","network:wikidata":"Q473211","network:wikipedia":"fi:Helsingin seudun liikenne","public_transport":"platform"}},"public_transport/platform/bus_point/nysse-4c949e":{"name":"Nysse","locationSet":{"include":["fi"]},"geometry":["point","vertex"],"matchScore":2,"terms":["nysse"],"reference":{"key":"public_transport","value":"platform"},"tags":{"bus":"yes","network:wikidata":"Q17474475","public_transport":"platform"},"addTags":{"bus":"yes","highway":"bus_stop","network":"Nysse","network:wikidata":"Q17474475","network:wikipedia":"fi:Tampereen seudun joukkoliikenne","public_transport":"platform"}},"type/route/bus/alandstrafiken-3d6501":{"name":"Ålandstrafiken","locationSet":{"include":["fi"]},"geometry":["relation"],"matchScore":2,"terms":["ålandstrafiken"],"reference":{"key":"route","value":"bus"},"tags":{"network:wikidata":"Q270993","route":"bus","type":"route"},"addTags":{"network":"Ålandstrafiken","network:wikidata":"Q270993","network:wikipedia":"en:Ålandstrafiken","route":"bus","type":"route"}},"type/route/bus/foli-3d6501":{"name":"Föli","locationSet":{"include":["fi"]},"geometry":["relation"],"matchScore":2,"terms":["föli"],"reference":{"key":"route","value":"bus"},"tags":{"network:wikidata":"Q18658772","route":"bus","type":"route"},"addTags":{"network":"Föli","network:wikidata":"Q18658772","network:wikipedia":"fi:Turun seudun joukkoliikenne","route":"bus","type":"route"}},"type/route/bus/hsl-3d6501":{"name":"HSL","locationSet":{"include":["fi"]},"geometry":["relation"],"matchScore":2,"terms":["hsl"],"reference":{"key":"route","value":"bus"},"tags":{"network:wikidata":"Q473211","route":"bus","type":"route"},"addTags":{"network":"HSL","network:wikidata":"Q473211","network:wikipedia":"fi:Helsingin seudun liikenne","route":"bus","type":"route"}},"type/route/bus/nysse-3d6501":{"name":"Nysse","locationSet":{"include":["fi"]},"geometry":["relation"],"matchScore":2,"terms":["nysse"],"reference":{"key":"route","value":"bus"},"tags":{"network:wikidata":"Q17474475","route":"bus","type":"route"},"addTags":{"network":"Nysse","network:wikidata":"Q17474475","network:wikipedia":"fi:Tampereen seudun joukkoliikenne","route":"bus","type":"route"}},"type/route/ferry/alandstrafiken-8482fb":{"name":"Ålandstrafiken","locationSet":{"include":["fi"]},"geometry":["relation"],"matchScore":2,"terms":["ålandstrafiken"],"reference":{"key":"route","value":"ferry"},"tags":{"network:wikidata":"Q270993","route":"ferry","type":"route"},"addTags":{"network":"Ålandstrafiken","network:wikidata":"Q270993","network:wikipedia":"en:Ålandstrafiken","route":"ferry","type":"route"}},"route/ferry/alandstrafiken-8482fb":{"name":"Ålandstrafiken","locationSet":{"include":["fi"]},"geometry":["line"],"matchScore":2,"terms":["ålandstrafiken"],"tags":{"network:wikidata":"Q270993","route":"ferry"},"addTags":{"network":"Ålandstrafiken","network:wikidata":"Q270993","network:wikipedia":"en:Ålandstrafiken","route":"ferry"}},"type/route/train/eurocity-6b9d23":{"name":"EuroCity","locationSet":{"include":["by","bg","cz","hu","pl","md","ro","ru","sk","ua","ax","gg","je","cq","dk","ee","fo","fi","is","ie","im","lv","lt","no","sj","se","gb","al","ad","ba","hr","gi","gr","va","it","mt","me","mk","pt","sm","rs","si","es","xk","at","be","fr","de","li","lu","mc","nl","ch"]},"geometry":["relation"],"matchScore":2,"terms":["eurocity"],"reference":{"key":"route","value":"train"},"tags":{"network:wikidata":"Q753050","route":"train","type":"route"},"addTags":{"network":"EuroCity","network:wikidata":"Q753050","network:wikipedia":"en:EuroCity","route":"train","type":"route"}},"type/route/train/euronight-6b9d23":{"name":"EuroNight","locationSet":{"include":["by","bg","cz","hu","pl","md","ro","ru","sk","ua","ax","gg","je","cq","dk","ee","fo","fi","is","ie","im","lv","lt","no","sj","se","gb","al","ad","ba","hr","gi","gr","va","it","mt","me","mk","pt","sm","rs","si","es","xk","at","be","fr","de","li","lu","mc","nl","ch"]},"geometry":["relation"],"matchScore":2,"terms":["euronight"],"reference":{"key":"route","value":"train"},"tags":{"network:wikidata":"Q257307","route":"train","type":"route"},"addTags":{"network":"EuroNight","network:wikidata":"Q257307","network:wikipedia":"en:EuroNight","route":"train","type":"route"}},"type/route/train/hsl-976e87":{"name":"HSL","locationSet":{"include":["fi"]},"geometry":["relation"],"matchScore":2,"terms":["hsl"],"reference":{"key":"route","value":"train"},"tags":{"network:wikidata":"Q473211","route":"train","type":"route"},"addTags":{"network":"HSL","network:wikidata":"Q473211","network:wikipedia":"fi:Helsingin seudun liikenne","route":"train","type":"route"}},"type/route/train/norrtag-2dcd18":{"name":"Norrtåg","locationSet":{"include":["fi","no","se"]},"geometry":["relation"],"matchScore":2,"terms":["norrtåg","vy tåg"],"reference":{"key":"route","value":"train"},"tags":{"network:wikidata":"Q10602972","route":"train","type":"route"},"addTags":{"network":"Norrtåg","network:wikidata":"Q10602972","network:wikipedia":"en:Norrtåg","operator":"Vy Tåg","operator:wikidata":"Q1503354","operator:wikipedia":"en:Vy Tåg","route":"train","type":"route"}},"type/route/train/vr-976e87":{"name":"VR","locationSet":{"include":["fi"]},"geometry":["relation"],"matchScore":2,"terms":["vr"],"reference":{"key":"route","value":"train"},"tags":{"network:wikidata":"Q913248","route":"train","type":"route"},"addTags":{"network":"VR","network:wikidata":"Q913248","network:wikipedia":"fi:VR-Yhtymä","route":"train","type":"route"}},"type/route/tram/hsl-0d0eb5":{"name":"HSL","locationSet":{"include":["fi"]},"geometry":["relation"],"matchScore":2,"terms":["helsingforsregionens trafik","hrt","hsl"],"reference":{"key":"route","value":"tram"},"tags":{"network:wikidata":"Q473211","route":"tram","type":"route"},"addTags":{"network":"HSL","network:wikidata":"Q473211","network:wikipedia":"fi:Helsingin seudun liikenne","route":"tram","type":"route"}}}