{"advertising/totem/shiptech-960b09":{"name":"Shiptech","locationSet":{"include":["cd","mw","za","zm","zw"]},"geometry":["point","line"],"matchScore":2,"terms":["shiptech"],"tags":{"advertising":"totem","brand:wikidata":"Q116894475"},"addTags":{"advertising":"totem","brand":"Shiptech","brand:wikidata":"Q116894475"}},"amenity/atm/oldmutual-ff45b4":{"name":"Old Mutual","locationSet":{"include":["bw","cn","gh","ke","mw","na","ng","rw","ss","sz","tz","ug","za","zw"]},"geometry":["point","vertex"],"matchScore":2,"terms":["old mutual"],"fields":["name","brand","{amenity/atm}"],"tags":{"amenity":"atm","brand:wikidata":"Q289704"},"addTags":{"amenity":"atm","brand":"Old Mutual","brand:wikidata":"Q289704"}},"amenity/fast_food/pizza/debonairspizza-10dad6":{"name":"Debonairs Pizza","locationSet":{"include":["ae","bw","ke","ls","mu","mw","mz","na","ng","sd","ss","sz","za","zm"]},"geometry":["point","area"],"matchScore":2,"terms":["debonairs","debonairs pizza"],"reference":{"key":"cuisine","value":"pizza"},"tags":{"amenity":"fast_food","brand:wikidata":"Q65079407","cuisine":"pizza"},"addTags":{"amenity":"fast_food","brand":"Debonairs Pizza","brand:wikidata":"Q65079407","cuisine":"pizza","name":"Debonairs Pizza","takeaway":"yes"}},"amenity/fast_food/chicken/galitos-00ffa4":{"name":"Galito's","locationSet":{"include":["ae","ca","cd","gh","in","ke","ls","mu","mw","pk","rs","sz","us","za","zm"]},"geometry":["point","area"],"matchScore":2,"terms":["galito's"],"reference":{"key":"cuisine","value":"chicken"},"tags":{"amenity":"fast_food","brand:wikidata":"Q116619555","cuisine":"chicken"},"addTags":{"amenity":"fast_food","brand":"Galito's","brand:wikidata":"Q116619555","cuisine":"chicken","name":"Galito's","takeaway":"yes"}},"amenity/fuel/shiptech-ddc474":{"name":"Shiptech","locationSet":{"include":["cd","mw","za","zm","zw"]},"geometry":["point","area"],"matchScore":2,"terms":["shiptech"],"fields":["name","brand","{amenity/fuel}"],"tags":{"amenity":"fuel","brand:wikidata":"Q116894475"},"addTags":{"amenity":"fuel","brand":"Shiptech","brand:wikidata":"Q116894475","name":"Shiptech"}},"office/financial/oldmutualfinance-38693f":{"name":"Old Mutual Finance","locationSet":{"include":["bw","cn","gh","ke","mw","na","ng","rw","ss","sz","tz","ug","za","zw"]},"geometry":["point","area"],"matchScore":2,"terms":["old mutual finance"],"tags":{"brand:wikidata":"Q289704","office":"financial"},"addTags":{"brand":"Old Mutual Finance","brand:wikidata":"Q289704","name":"Old Mutual Finance","office":"financial"}},"office/insurance/oldmutualinsure-170662":{"name":"Old Mutual Insure","locationSet":{"include":["bw","cn","gh","ke","mw","na","ng","rw","ss","sz","tz","ug","za","zw"]},"geometry":["point","area"],"matchScore":2,"terms":["old mutual insure"],"fields":["name","brand","{office/insurance}"],"tags":{"brand:wikidata":"Q289704","office":"insurance"},"addTags":{"brand":"Old Mutual Insure","brand:wikidata":"Q289704","name":"Old Mutual Insure","office":"insurance"}},"shop/clothes/pep-f0ab19":{"name":"Pep","locationSet":{"include":["ao","bw","ls","mw","mz","na","sz","za","zm"]},"geometry":["point","area"],"matchScore":2,"terms":["pep"],"tags":{"brand:wikidata":"Q7166182","shop":"clothes"},"addTags":{"brand":"Pep","brand:wikidata":"Q7166182","name":"Pep","shop":"clothes"}},"shop/doityourself/cashbuild-c5a717":{"name":"Cashbuild","locationSet":{"include":["bw","ls","mw","na","sz","za"]},"geometry":["point","area"],"matchScore":2,"terms":["cashbuild"],"tags":{"brand:wikidata":"Q116474606","shop":"doityourself"},"addTags":{"brand":"Cashbuild","brand:wikidata":"Q116474606","name":"Cashbuild","shop":"doityourself"}},"shop/mobile_phone/airtel-62d34e":{"name":"Airtel","locationSet":{"include":["io","bi","km","dj","er","et","tf","ke","mg","mw","mu","yt","mz","re","rw","sc","so","ss","ug","tz","zm","zw","ao","cm","cf","td","cg","cd","gq","ga","st","bw","sz","ls","na","za","bj","bf","cv","ci","gm","gh","gn","gw","lr","ml","mr","ne","ng","sn","sl","tg","sh","in"]},"geometry":["point","area"],"matchScore":2,"terms":["airtel"],"tags":{"brand:wikidata":"Q854867","shop":"mobile_phone"},"addTags":{"brand":"Airtel","brand:wikidata":"Q854867","name":"Airtel","shop":"mobile_phone"}},"shop/supermarket/game-910aca":{"name":"Game","locationSet":{"include":["io","bi","km","dj","er","et","tf","ke","mg","mw","mu","yt","mz","re","rw","sc","so","ss","ug","tz","zm","zw","ao","cm","cf","td","cg","cd","gq","ga","st","bw","sz","ls","na","za","bj","bf","cv","ci","gm","gh","gn","gw","lr","ml","mr","ne","ng","sn","sl","tg","sh"]},"geometry":["point","area"],"matchScore":2,"terms":["game"],"tags":{"brand:wikidata":"Q129263113","shop":"supermarket"},"addTags":{"brand":"Game","brand:wikidata":"Q129263113","name":"Game","shop":"supermarket"}},"shop/supermarket/shoprite-56f959":{"name":"Shoprite (Africa)","locationSet":{"include":["ao","bw","cd","gh","ls","mg","mu","mw","mz","na","ng","sz","ug","za","zm"]},"geometry":["point","area"],"matchScore":2,"terms":["shoprite"],"tags":{"brand:wikidata":"Q1857639","shop":"supermarket"},"addTags":{"brand":"Shoprite","brand:wikidata":"Q1857639","name":"Shoprite","shop":"supermarket"}},"shop/supermarket/usave-1d4ed7":{"name":"Usave","locationSet":{"include":["ao","bw","ls","mw","mz","na","sz","za"]},"geometry":["point","area"],"matchScore":2,"terms":["usave"],"tags":{"brand:wikidata":"Q115696368","shop":"supermarket"},"addTags":{"brand":"Usave","brand:wikidata":"Q115696368","name":"Usave","shop":"supermarket"}},"tourism/hotel/proteahotel-dc927c":{"name":"Protea Hotel","locationSet":{"include":["bw","dz","mw","na","ng","tz","ug","za","zm"]},"geometry":["point","area"],"matchScore":2,"terms":["protea hotel"],"fields":["name","brand","{tourism/hotel}"],"tags":{"brand:wikidata":"Q17092570","tourism":"hotel"},"addTags":{"brand":"Protea Hotel","brand:wikidata":"Q17092570","name":"Protea Hotel","tourism":"hotel"}}}