{"advertising/totem/inglesgasexpress-8d7006":{"name":"Ingles Gas Express","locationSet":{"include":["us-ga","us-nc","us-sc","us-tn"]},"geometry":["point","line"],"matchScore":2,"terms":["ingles gas express"],"tags":{"advertising":"totem","brand:wikidata":"Q6032595"},"addTags":{"advertising":"totem","brand":"Ingles Gas Express","brand:wikidata":"Q6032595"}},"advertising/totem/sheetz-e7b9d2":{"name":"Sheetz","locationSet":{"include":["us-md","us-mi","us-nc","us-oh","us-pa","us-va","us-wv"]},"geometry":["point","line"],"matchScore":2,"terms":["sheetz"],"tags":{"advertising":"totem","brand:wikidata":"Q7492551"},"addTags":{"advertising":"totem","brand":"Sheetz","brand:wikidata":"Q7492551"}},"amenity/atm/amerisbank-42e885":{"name":"Ameris Bank","locationSet":{"include":["us-al","us-fl","us-ga","us-nc","us-sc"]},"geometry":["point","vertex"],"matchScore":2,"terms":["ameris bancorp","ameris bank","fidelity bank"],"fields":["name","brand","{amenity/atm}"],"tags":{"amenity":"atm","brand:wikidata":"Q124102372"},"addTags":{"amenity":"atm","brand":"Ameris Bank","brand:wikidata":"Q124102372","operator":"Ameris Bank","operator:wikidata":"Q124102372"}},"amenity/atm/centralbank-5249e2":{"name":"Central Bank","locationSet":{"include":["us-fl","us-il","us-ks","us-mo","us-nc","us-ok","us-tn"]},"geometry":["point","vertex"],"matchScore":2,"terms":["central bank"],"fields":["name","brand","{amenity/atm}"],"tags":{"amenity":"atm","brand:wikidata":"Q113482320"},"addTags":{"amenity":"atm","brand":"Central Bank","brand:wikidata":"Q113482320","operator":"Central Bank","operator:wikidata":"Q113482320"}},"amenity/atm/fidelitybank-bfc54c":{"name":"Fidelity Bank (NC/SC/VA)","locationSet":{"include":["us-nc","us-sc","us-va"]},"geometry":["point","vertex"],"matchScore":2,"terms":["fidelity bank"],"fields":["name","brand","{amenity/atm}"],"tags":{"amenity":"atm","brand:wikidata":"Q124104925"},"addTags":{"amenity":"atm","brand":"Fidelity Bank","brand:wikidata":"Q124104925","operator":"Fidelity Bank","operator:wikidata":"Q124104925"}},"amenity/atm/firstnationalbank-571c0f":{"name":"First National Bank (US)","locationSet":{"include":["us-dc","us-md","us-nc","us-oh","us-pa","us-sc","us-va","us-wv"]},"geometry":["point","vertex"],"matchScore":2,"terms":["first national bank","fnb"],"fields":["name","brand","{amenity/atm}"],"tags":{"amenity":"atm","brand:wikidata":"Q5426765"},"addTags":{"amenity":"atm","brand":"First National Bank","brand:wikidata":"Q5426765","operator":"First National Bank","operator:wikidata":"Q5426765"}},"amenity/atm/pinnaclebank-849a40":{"name":"Pinnacle Bank (US Southeast)","locationSet":{"include":["us-al","us-ga","us-nc","us-sc","us-tn","us-wv"]},"geometry":["point","vertex"],"matchScore":2,"terms":["pinnacle bank","pinnacle financial partners"],"fields":["name","brand","{amenity/atm}"],"tags":{"amenity":"atm","brand:wikidata":"Q7196294"},"addTags":{"amenity":"atm","brand":"Pinnacle Bank","brand:wikidata":"Q7196294","official_name":"Pinnacle Financial Partners","operator":"Pinnacle Bank","operator:wikidata":"Q7196294"}},"amenity/atm/selfhelpcreditunion-f893c2":{"name":"Self-Help Credit Union","locationSet":{"include":["us-fl","us-nc","us-sc","us-va"]},"geometry":["point","vertex"],"matchScore":2,"terms":["self-help credit union"],"fields":["name","brand","{amenity/atm}"],"tags":{"amenity":"atm","brand:wikidata":"Q111381769"},"addTags":{"amenity":"atm","brand":"Self-Help Credit Union","brand:wikidata":"Q111381769","operator":"Self-Help Credit Union","operator:wikidata":"Q111381769"}},"amenity/atm/unitedbank-b1562d":{"name":"United Bank (West Virginia)","locationSet":{"include":["us-dc","us-md","us-nc","us-pa","us-sc","us-va","us-wv"]},"geometry":["point","vertex"],"matchScore":2,"terms":["united bank"],"fields":["name","brand","{amenity/atm}"],"tags":{"amenity":"atm","brand:wikidata":"Q16920636"},"addTags":{"amenity":"atm","brand":"United Bank","brand:wikidata":"Q16920636","operator":"United Bank","operator:wikidata":"Q16920636"}},"amenity/atm/unitedfederalcreditunion-d941c3":{"name":"United Federal Credit Union","locationSet":{"include":["us-ar","us-in","us-mi","us-nc","us-nv","us-oh"]},"geometry":["point","vertex"],"matchScore":2,"terms":["united federal credit union"],"fields":["name","brand","{amenity/atm}"],"tags":{"amenity":"atm","brand:wikidata":"Q7887758"},"addTags":{"amenity":"atm","brand":"United Federal Credit Union","brand:wikidata":"Q7887758","operator":"United Federal Credit Union","operator:wikidata":"Q7887758"}},"amenity/bank/amerisbank-246182":{"name":"Ameris Bank","locationSet":{"include":["us-al","us-fl","us-ga","us-nc","us-sc"]},"geometry":["point","area"],"matchScore":2,"terms":["ameris bancorp","ameris bank","fidelity bank"],"tags":{"amenity":"bank","brand:wikidata":"Q124102372"},"addTags":{"amenity":"bank","brand":"Ameris Bank","brand:wikidata":"Q124102372","name":"Ameris Bank"}},"amenity/bank/centralbank-43524a":{"name":"Central Bank","locationSet":{"include":["us-fl","us-il","us-ks","us-mo","us-nc","us-ok","us-tn"]},"geometry":["point","area"],"matchScore":2,"terms":["central bank"],"tags":{"amenity":"bank","brand:wikidata":"Q113482320"},"addTags":{"amenity":"bank","brand":"Central Bank","brand:wikidata":"Q113482320","name":"Central Bank"}},"amenity/bank/fidelitybank-5f055b":{"name":"Fidelity Bank (NC/SC/VA)","locationSet":{"include":["us-nc","us-sc","us-va"]},"geometry":["point","area"],"matchScore":2,"terms":["fidelity bank"],"tags":{"amenity":"bank","brand:wikidata":"Q124104925"},"addTags":{"amenity":"bank","brand":"Fidelity Bank","brand:wikidata":"Q124104925","name":"Fidelity Bank"}},"amenity/bank/firstnationalbank-fdc31a":{"name":"First National Bank (US)","locationSet":{"include":["us-dc","us-md","us-nc","us-oh","us-pa","us-sc","us-va","us-wv"]},"geometry":["point","area"],"matchScore":2,"terms":["first national bank","fnb"],"tags":{"amenity":"bank","brand:wikidata":"Q5426765"},"addTags":{"amenity":"bank","brand":"First National Bank","brand:wikidata":"Q5426765","name":"First National Bank"}},"amenity/bank/pinnaclebank-1187bc":{"name":"Pinnacle Bank (US Southeast)","locationSet":{"include":["us-al","us-ga","us-nc","us-sc","us-tn","us-wv"]},"geometry":["point","area"],"matchScore":2,"terms":["pinnacle bank","pinnacle financial partners"],"tags":{"amenity":"bank","brand:wikidata":"Q7196294"},"addTags":{"amenity":"bank","brand":"Pinnacle Bank","brand:wikidata":"Q7196294","name":"Pinnacle Bank","official_name":"Pinnacle Financial Partners"}},"amenity/bank/selfhelpcreditunion-2b62fb":{"name":"Self-Help Credit Union","locationSet":{"include":["us-fl","us-nc","us-sc","us-va"]},"geometry":["point","area"],"matchScore":2,"terms":["self-help credit union"],"tags":{"amenity":"bank","brand:wikidata":"Q111381769"},"addTags":{"amenity":"bank","brand":"Self-Help Credit Union","brand:wikidata":"Q111381769","name":"Self-Help Credit Union"}},"amenity/bank/unitedbank-d6a32a":{"name":"United Bank (West Virginia)","locationSet":{"include":["us-dc","us-md","us-nc","us-pa","us-sc","us-va","us-wv"]},"geometry":["point","area"],"matchScore":2,"terms":["united bank"],"tags":{"amenity":"bank","brand:wikidata":"Q16920636"},"addTags":{"amenity":"bank","brand":"United Bank","brand:wikidata":"Q16920636","name":"United Bank"}},"amenity/bank/unitedfederalcreditunion-2e0d3f":{"name":"United Federal Credit Union","locationSet":{"include":["us-ar","us-in","us-mi","us-nc","us-nv","us-oh"]},"geometry":["point","area"],"matchScore":2,"terms":["united federal credit union"],"tags":{"amenity":"bank","brand:wikidata":"Q7887758"},"addTags":{"amenity":"bank","brand":"United Federal Credit Union","brand:wikidata":"Q7887758","name":"United Federal Credit Union"}},"amenity/clinic/veinclinicsofamerica-12a747":{"name":"Vein Clinics of America","locationSet":{"include":["us-ct","us-ga","us-il","us-in","us-ks","us-md","us-mn","us-mo","us-nc","us-oh","us-tn","us-tx","us-va","us-wi"]},"geometry":["point","area"],"matchScore":2,"terms":["vein clinics of america"],"reference":{"key":"amenity","value":"clinic"},"tags":{"amenity":"clinic","brand:wikidata":"Q113712355"},"addTags":{"amenity":"clinic","brand":"Vein Clinics of America","brand:wikidata":"Q113712355","healthcare":"clinic"}},"amenity/dentist/dentalworks-f3d61f":{"name":"DentalWorks","locationSet":{"include":["us-az","us-co","us-il","us-in","us-ky","us-mi","us-nc","us-oh","us-pa","us-sc","us-tn","us-tx","us-wi"]},"geometry":["point","area"],"matchScore":2,"terms":["dentalworks"],"reference":{"key":"amenity","value":"dentist"},"tags":{"amenity":"dentist","brand:wikidata":"Q113712187"},"addTags":{"amenity":"dentist","brand":"DentalWorks","brand:wikidata":"Q113712187","healthcare":"dentist","name":"DentalWorks"}},"amenity/fast_food/donut/duckdonuts-6333a9":{"name":"Duck Donuts","locationSet":{"include":["ca-on","eg","sa","us-ar","us-az","us-ca","us-co","us-fl","us-ga","us-id","us-il","us-ks","us-ky","us-md","us-mi","us-mn","us-mo","us-nc","us-nj","us-ny","us-oh","us-pa","us-sc","us-tn","us-tx","us-ut","us-va"]},"geometry":["point","area"],"matchScore":2,"terms":["duck donuts","duck doughnuts"],"reference":{"key":"cuisine","value":"donut"},"tags":{"amenity":"fast_food","brand:wikidata":"Q54958282","cuisine":"donut"},"addTags":{"amenity":"fast_food","brand":"Duck Donuts","brand:wikidata":"Q54958282","cuisine":"donut","name":"Duck Donuts","takeaway":"yes"}},"amenity/fast_food/lemonsharkpoke-44dd3c":{"name":"LemonShark Poké","locationSet":{"include":["us-az","us-ca","us-fl","us-il","us-la","us-nc","us-oh","us-tx"]},"geometry":["point","area"],"matchScore":2,"terms":["lemonshark poké"],"tags":{"amenity":"fast_food","brand:wikidata":"Q115411660"},"addTags":{"amenity":"fast_food","brand":"LemonShark Poké","brand:wikidata":"Q115411660","cuisine":"poke","name":"LemonShark Poké.","takeaway":"yes"}},"amenity/fast_food/chicken/pdq-f02697":{"name":"PDQ","locationSet":{"include":["us-fl","us-nc","us-nj","us-ny","us-sc"]},"geometry":["point","area"],"matchScore":2,"terms":["pdq"],"reference":{"key":"cuisine","value":"chicken"},"tags":{"amenity":"fast_food","brand:wikidata":"Q87675367","cuisine":"chicken"},"addTags":{"amenity":"fast_food","brand":"PDQ","brand:wikidata":"Q87675367","cuisine":"chicken","name":"PDQ","takeaway":"yes"}},"amenity/fast_food/pokebros-eebea8":{"name":"Poke Bros.","locationSet":{"include":["us-de","us-fl","us-il","us-in","us-ky","us-nc","us-nj","us-ny","us-oh","us-pa","us-ri","us-sc","us-tn"]},"geometry":["point","area"],"matchScore":2,"terms":["poke bros."],"tags":{"amenity":"fast_food","brand:wikidata":"Q113640421"},"addTags":{"amenity":"fast_food","brand":"Poke Bros.","brand:wikidata":"Q113640421","cuisine":"poke","name":"Poke Bros.","takeaway":"yes"}},"amenity/fuel/inglesgasexpress-b3451c":{"name":"Ingles Gas Express","locationSet":{"include":["us-ga","us-nc","us-sc","us-tn"]},"geometry":["point","area"],"matchScore":2,"terms":["ingles gas express"],"fields":["name","brand","{amenity/fuel}"],"tags":{"amenity":"fuel","brand:wikidata":"Q6032595"},"addTags":{"amenity":"fuel","brand":"Ingles Gas Express","brand:wikidata":"Q6032595","name":"Ingles Gas Express"}},"amenity/fuel/sheetz-8ea4ad":{"name":"Sheetz","locationSet":{"include":["us-md","us-mi","us-nc","us-oh","us-pa","us-va","us-wv"]},"geometry":["point","area"],"matchScore":2,"terms":["sheetz"],"fields":["name","brand","{amenity/fuel}"],"tags":{"amenity":"fuel","brand:wikidata":"Q7492551"},"addTags":{"amenity":"fuel","brand":"Sheetz","brand:wikidata":"Q7492551","name":"Sheetz"}},"amenity/ice_cream/jenissplendidicecreams-53b2e0":{"name":"Jeni's Splendid Ice Cream","locationSet":{"include":["us-al","us-ca","us-dc","us-fl","us-ga","us-il","us-mo","us-nc","us-oh","us-pa","us-sc","us-tn","us-tx"]},"geometry":["point","area"],"matchScore":2,"terms":["jeni's","jeni's splendid ice creams"],"tags":{"amenity":"ice_cream","brand:wikidata":"Q16851196"},"addTags":{"amenity":"ice_cream","brand":"Jeni's Splendid Ice Creams","brand:wikidata":"Q16851196","name":"Jeni's Splendid Ice Creams","short_name":"Jeni's"}},"amenity/restaurant/seafood/joescrabshack-c6bbaa":{"name":"Joe's Crab Shack","locationSet":{"include":["us-az","us-ca","us-co","us-fl","us-ga","us-ky","us-la","us-mo","us-nc","us-nj","us-pa","us-sc","us-tn","us-tx","us-ut","us-va"]},"geometry":["point","area"],"matchScore":2,"terms":["joe's crab shack"],"reference":{"key":"cuisine","value":"seafood"},"tags":{"amenity":"restaurant","brand:wikidata":"Q6208210","cuisine":"seafood"},"addTags":{"amenity":"restaurant","brand":"Joe's Crab Shack","brand:wikidata":"Q6208210","cuisine":"seafood","name":"Joe's Crab Shack"}},"amenity/restaurant/italian/maggianoslittleitaly-acf8ec":{"name":"Maggiano's Little Italy","locationSet":{"include":["us-az","us-ca","us-co","us-dc","us-fl","us-ga","us-il","us-in","us-ks","us-ma","us-md","us-mi","us-mo","us-nc","us-nj","us-nv","us-ny","us-oh","us-pa","us-tn","us-tx","us-va","us-wa","us-wi"]},"geometry":["point","area"],"matchScore":2,"terms":["maggiano's little italy"],"reference":{"key":"cuisine","value":"italian"},"tags":{"amenity":"restaurant","brand:wikidata":"Q6730149","cuisine":"italian"},"addTags":{"amenity":"restaurant","brand":"Maggiano's Little Italy","brand:wikidata":"Q6730149","cuisine":"italian","name":"Maggiano's Little Italy"}},"amenity/restaurant/maplestreetbiscuitcompany-d344e2":{"name":"Maple Street Biscuit Company","locationSet":{"include":["us-al","us-fl","us-ga","us-ky","us-nc","us-sc","us-tn","us-tx","us-va"]},"geometry":["point","area"],"matchScore":2,"terms":["maple street biscuit company"],"tags":{"amenity":"restaurant","brand:wikidata":"Q97104481"},"addTags":{"amenity":"restaurant","brand":"Maple Street Biscuit Company","brand:wikidata":"Q97104481","cuisine":"breakfast","name":"Maple Street Biscuit Company"}},"amenity/restaurant/snooze-62450c":{"name":"Snooze","locationSet":{"include":["us-az","us-ca","us-co","us-ga","us-ks","us-mo","us-nc","us-tn","us-tx"]},"geometry":["point","area"],"matchScore":2,"terms":["snooze","snooze, an a.m. eatery"],"tags":{"amenity":"restaurant","brand:wikidata":"Q111304345"},"addTags":{"amenity":"restaurant","brand":"Snooze","brand:wikidata":"Q111304345","cuisine":"breakfast","name":"Snooze","official_name":"Snooze, an A.M. Eatery"}},"office/amerisbank-477daa":{"name":"Ameris Bank","locationSet":{"include":["us-al","us-fl","us-ga","us-md","us-nc","us-sc","us-tn","us-va"]},"geometry":["point","vertex","area"],"matchScore":2,"terms":["ameris bank"],"tags":{"brand:wikidata":"Q124102372","office":"mortgage"},"addTags":{"brand":"Ameris Bank","brand:wikidata":"Q124102372","name":"Ameris Bank","office":"mortgage"}},"shop/alcohol/abc-bba101":{"name":"ABC (North Carolina)","locationSet":{"include":["us-nc"]},"geometry":["point","area"],"matchScore":2,"terms":["abc","abc store"],"fields":["name","brand","{shop/alcohol}"],"tags":{"brand:wikidata":"Q7054415","shop":"alcohol"},"addTags":{"brand":"ABC","brand:wikidata":"Q7054415","name":"ABC","shop":"alcohol"}},"shop/convenience/sheetz-be9dbe":{"name":"Sheetz","locationSet":{"include":["us-md","us-mi","us-nc","us-oh","us-pa","us-va","us-wv"]},"geometry":["point","area"],"matchScore":2,"terms":["sheetz"],"tags":{"brand:wikidata":"Q7492551","shop":"convenience"},"addTags":{"brand":"Sheetz","brand:wikidata":"Q7492551","name":"Sheetz","shop":"convenience"}},"shop/hairdresser/imagestudios-0d42d5":{"name":"Image Studios","locationSet":{"include":["us-ca","us-co","us-fl","us-ga","us-ky","us-mo","us-nc","us-nj","us-nv","us-ny","us-oh","us-or","us-sc","us-tn","us-tx","us-ut"]},"geometry":["point","area"],"matchScore":2,"terms":["image studios"],"tags":{"brand:wikidata":"Q110998819","shop":"hairdresser"},"addTags":{"brand":"Image Studios","brand:wikidata":"Q110998819","name":"Image Studios","shop":"hairdresser"}},"shop/pastry/mrsfields-839ebf":{"name":"Mrs. Fields","locationSet":{"include":["au","ph","us-ak","us-al","us-az","us-ca","us-co","us-de","us-fl","us-ga","us-hi","us-id","us-il","us-in","us-ks","us-la","us-ma","us-md","us-me","us-mi","us-mo","us-ms","us-nc","us-nj","us-nv","us-ny","us-oh","us-ok","us-pa","us-tx","us-ut","us-wi"]},"geometry":["point","area"],"matchScore":2,"terms":["mrs. fields"],"tags":{"brand:wikidata":"Q3866841","shop":"pastry"},"addTags":{"brand":"Mrs. Fields","brand:wikidata":"Q3866841","name":"Mrs. Fields","shop":"pastry"}},"shop/supermarket/unitedgroceryoutlet-aecdaf":{"name":"United Grocery Outlet","locationSet":{"include":["us-al","us-ga","us-ky","us-nc","us-tn","us-va"]},"geometry":["point","area"],"matchScore":2,"terms":["united grocery outlet"],"tags":{"brand:wikidata":"Q23074318","shop":"supermarket"},"addTags":{"brand":"United Grocery Outlet","brand:wikidata":"Q23074318","name":"United Grocery Outlet","shop":"supermarket"}},"amenity/clinic/novanthealth-524bbb":{"name":"Novant Health","locationSet":{"include":["us-ga","us-nc","us-sc","us-va"]},"geometry":["point","area"],"matchScore":2,"terms":["novant health"],"fields":["name","operator","{amenity/clinic}"],"reference":{"key":"amenity","value":"clinic"},"tags":{"amenity":"clinic","operator:wikidata":"Q14956815"},"addTags":{"amenity":"clinic","healthcare":"clinic","operator":"Novant Health","operator:wikidata":"Q14956815"}},"amenity/fire_station/cityofconcord-79c902":{"name":"City of Concord","locationSet":{"include":["us-nc"]},"geometry":["point","area"],"matchScore":2,"terms":["city of concord"],"tags":{"amenity":"fire_station","operator:wikidata":"Q1030184"},"addTags":{"amenity":"fire_station","operator":"City of Concord","operator:wikidata":"Q1030184"}},"amenity/police/northcarolinastatehighwaypatrol-eadf83":{"name":"North Carolina State Highway Patrol","locationSet":{"include":["us-nc"]},"geometry":["point","area"],"matchScore":2,"terms":["nchp","ncshp","north carolina highway patrol","north carolina state highway patrol"],"tags":{"amenity":"police","operator:wikidata":"Q7054606"},"addTags":{"amenity":"police","operator":"North Carolina State Highway Patrol","operator:short":"NCSHP","operator:wikidata":"Q7054606"}},"amenity/school/cabarruscountyschools-15bd72":{"name":"Cabarrus County Schools","locationSet":{"include":["us-nc"]},"geometry":["area","point"],"matchScore":2,"terms":["cabarrus county schools"],"tags":{"amenity":"school","operator:wikidata":"Q5015260"},"addTags":{"amenity":"school","operator":"Cabarrus County Schools","operator:wikidata":"Q5015260"}},"amenity/school/catawbacountyschools-15bd72":{"name":"Catawba County Schools","locationSet":{"include":["us-nc"]},"geometry":["area","point"],"matchScore":2,"terms":["catawba county schools"],"tags":{"amenity":"school","operator:wikidata":"Q5051594"},"addTags":{"amenity":"school","operator":"Catawba County Schools","operator:type":"public","operator:wikidata":"Q5051594"}},"amenity/school/charlottemecklenburgschools-15bd72":{"name":"Charlotte-Mecklenburg Schools","locationSet":{"include":["us-nc"]},"geometry":["area","point"],"matchScore":2,"terms":["charlotte-mecklenburg schools","cms"],"tags":{"amenity":"school","operator:wikidata":"Q2944229"},"addTags":{"amenity":"school","operator":"Charlotte-Mecklenburg Schools","operator:short":"CMS","operator:type":"public","operator:wikidata":"Q2944229"}},"amenity/school/cherokeecountyschools-15bd72":{"name":"Cherokee County Schools (North Carolina)","locationSet":{"include":["us-nc"]},"geometry":["area","point"],"matchScore":2,"terms":["cherokee county schools"],"tags":{"amenity":"school","operator:wikidata":"Q5092142"},"addTags":{"amenity":"school","operator":"Cherokee County Schools","operator:type":"public","operator:wikidata":"Q5092142"}},"amenity/school/durhampublicschools-15bd72":{"name":"Durham Public Schools","locationSet":{"include":["us-nc"]},"geometry":["area","point"],"matchScore":2,"terms":["dps","durham public schools"],"tags":{"amenity":"school","operator:wikidata":"Q5316544"},"addTags":{"amenity":"school","operator":"Durham Public Schools","operator:short":"DPS","operator:type":"public","operator:wikidata":"Q5316544"}},"amenity/school/guilfordcountyschools-15bd72":{"name":"Guilford County Schools","locationSet":{"include":["us-nc"]},"geometry":["area","point"],"matchScore":2,"terms":["guilford county schools"],"tags":{"amenity":"school","operator:wikidata":"Q5615918"},"addTags":{"amenity":"school","operator":"Guilford County Schools","operator:type":"public","operator:wikidata":"Q5615918"}},"amenity/school/johnstoncountyschools-15bd72":{"name":"Johnston County Schools","locationSet":{"include":["us-nc"]},"geometry":["area","point"],"matchScore":2,"terms":["jcps","johnston county public schools","johnston county school district","johnston county schools"],"tags":{"amenity":"school","operator:wikidata":"Q16997852"},"addTags":{"amenity":"school","operator":"Johnston County Schools","operator:short":"JCPS","operator:type":"public","operator:wikidata":"Q16997852"}},"amenity/school/unioncountypublicschools-15bd72":{"name":"Union County Public Schools (North Carolina)","locationSet":{"include":["us-nc"]},"geometry":["area","point"],"matchScore":2,"terms":["ucps","union county public schools"],"tags":{"amenity":"school","operator:wikidata":"Q111337620"},"addTags":{"amenity":"school","operator":"Union County Public Schools","operator:short":"UCPS","operator:type":"public","operator:wikidata":"Q111337620"}},"amenity/school/wakecountypublicschoolsystem-15bd72":{"name":"Wake County Public School System","locationSet":{"include":["us-nc"]},"geometry":["area","point"],"matchScore":2,"terms":["q7960902","wake county public school system"],"tags":{"amenity":"school","operator:wikidata":"Q7973919"},"addTags":{"amenity":"school","operator":"Wake County Public School System","operator:short":"Q7960902","operator:type":"public","operator:wikidata":"Q7973919"}},"amenity/school/winstonsalemforsythcountyschools-15bd72":{"name":"Winston-Salem/Forsyth County Schools","locationSet":{"include":["us-nc"]},"geometry":["area","point"],"matchScore":2,"terms":["winston-salem/forsyth county schools"],"tags":{"amenity":"school","operator:wikidata":"Q615158"},"addTags":{"amenity":"school","operator":"Winston-Salem/Forsyth County Schools","operator:wikidata":"Q615158"}},"amenity/toilets/durhamtechnicalcommunitycollege-a5c9d1":{"name":"Durham Technical Community College","locationSet":{"include":["us-nc"]},"geometry":["point","vertex","area"],"matchScore":2,"terms":["durham technical community college"],"tags":{"amenity":"toilets","operator:wikidata":"Q5316567"},"addTags":{"amenity":"toilets","operator":"Durham Technical Community College","operator:wikidata":"Q5316567"}},"boundary/northcarolinadivisionofparksandrecreation-6d4e0c":{"name":"North Carolina Division of Parks and Recreation","locationSet":{"include":["us-nc"]},"geometry":["line"],"matchScore":2,"terms":["ncdpr","north carolina division of parks and recreation"],"tags":{"boundary":"protected_area","operator:wikidata":"Q109328529"},"addTags":{"boundary":"protected_area","operator":"North Carolina Division of Parks and Recreation","operator:short":"NCDPR","operator:type":"public","operator:wikidata":"Q109328529"}},"boundary/northcarolinawildliferesourcescommission-6d4e0c":{"name":"North Carolina Wildlife Resources Commission","locationSet":{"include":["us-nc"]},"geometry":["line"],"matchScore":2,"terms":["north carolina wildlife resources commission"],"tags":{"boundary":"protected_area","operator:wikidata":"Q7054646"},"addTags":{"boundary":"protected_area","operator":"North Carolina Wildlife Resources Commission","operator:wikidata":"Q7054646"}},"emergency/phone/northcarolinastateuniversity-ca5227":{"name":"North Carolina State University","locationSet":{"include":["us-nc"]},"geometry":["point","vertex"],"matchScore":2,"terms":["north carolina state university"],"tags":{"emergency":"phone","operator:wikidata":"Q1132346"},"addTags":{"emergency":"phone","operator":"North Carolina State University","operator:wikidata":"Q1132346"}},"leisure/nature_reserve/durhamparksandrecreation-b9a958":{"name":"Durham Parks & Recreation","locationSet":{"include":["us-nc"]},"geometry":["area","point"],"matchScore":2,"terms":["dpr","durham parks & recreation"],"tags":{"leisure":"nature_reserve","operator:wikidata":"Q110064011"},"addTags":{"leisure":"nature_reserve","operator":"Durham Parks & Recreation","operator:short":"DPR","operator:type":"public","operator:wikidata":"Q110064011"}},"leisure/nature_reserve/northcarolinadivisionofparksandrecreation-b9a958":{"name":"North Carolina Division of Parks and Recreation","locationSet":{"include":["us-nc"]},"geometry":["area","point"],"matchScore":2,"terms":["ncdpr","north carolina division of parks and recreation","north carolina state parks"],"tags":{"leisure":"nature_reserve","operator:wikidata":"Q109328529"},"addTags":{"leisure":"nature_reserve","operator":"North Carolina Division of Parks and Recreation","operator:short":"NCDPR","operator:type":"public","operator:wikidata":"Q109328529"}},"leisure/park/durhamparksandrecreation-dc7d2a":{"name":"Durham Parks & Recreation","locationSet":{"include":["us-nc"]},"geometry":["area","point"],"matchScore":2,"terms":["dpr","durham parks & recreation"],"tags":{"leisure":"park","operator:wikidata":"Q110064011"},"addTags":{"leisure":"park","operator":"Durham Parks & Recreation","operator:short":"DPR","operator:type":"public","operator:wikidata":"Q110064011"}},"leisure/park/northcarolinadivisionofparksandrecreation-dc7d2a":{"name":"North Carolina Division of Parks and Recreation","locationSet":{"include":["us-nc"]},"geometry":["area","point"],"matchScore":2,"terms":["ncdpr","north carolina division of parks and recreation","north carolina state parks"],"tags":{"leisure":"park","operator:wikidata":"Q109328529"},"addTags":{"leisure":"park","operator":"North Carolina Division of Parks and Recreation","operator:short":"NCDPR","operator:type":"public","operator:wikidata":"Q109328529"}},"man_made/pipeline/piedmontnaturalgascompany-9444cc":{"name":"Piedmont Natural Gas Company","locationSet":{"include":["us-nc"]},"geometry":["line"],"matchScore":2,"terms":["piedmont natural gas company"],"tags":{"man_made":"pipeline","operator:wikidata":"Q17143933"},"addTags":{"man_made":"pipeline","operator":"Piedmont Natural Gas Company","operator:wikidata":"Q17143933"}},"office/government/northcarolinadivisionofmotorvehicles-d24a87":{"name":"North Carolina DMV","locationSet":{"include":["us-nc"]},"geometry":["point","area"],"matchScore":2,"terms":["dmv","north carolina division of motor vehicles","north carolina dmv"],"fields":["name","operator","{office/government}"],"tags":{"office":"government","operator:wikidata":"Q7054481"},"addTags":{"government":"transportation","office":"government","operator":"North Carolina Division of Motor Vehicles","operator:short":"North Carolina DMV","operator:wikidata":"Q7054481"}},"pipeline/substation/piedmontnaturalgascompany-e18127":{"name":"Piedmont Natural Gas Company","locationSet":{"include":["us-nc"]},"geometry":["area","point"],"matchScore":2,"terms":["piedmont natural gas company"],"tags":{"operator:wikidata":"Q17143933","pipeline":"substation"},"addTags":{"operator":"Piedmont Natural Gas Company","operator:wikidata":"Q17143933","pipeline":"substation"}},"power/generator/virginiaelectricandpowercompany-a84d3b":{"name":"Virginia Electric & Power Company","locationSet":{"include":["us-md","us-nc","us-va","us-wv"]},"geometry":["point","vertex","area"],"matchScore":2,"terms":["virginia electric & power company"],"searchable":false,"tags":{"operator:wikidata":"Q117834539","power":"generator"},"addTags":{"operator":"Virginia Electric & Power Company","operator:wikidata":"Q117834539","power":"generator"}},"power/line/blueridgeenergy-86b821":{"name":"Blue Ridge Energy","locationSet":{"include":["us-nc"]},"geometry":["line"],"matchScore":2,"terms":["blue ridge energy"],"tags":{"operator:wikidata":"Q130224535","power":"line"},"addTags":{"operator":"Blue Ridge Energy","operator:wikidata":"Q130224535","power":"line"}},"power/line/cityofconcord-86b821":{"name":"City of Concord","locationSet":{"include":["us-nc"]},"geometry":["line"],"matchScore":2,"terms":["city of concord"],"tags":{"operator:wikidata":"Q1030184","power":"line"},"addTags":{"operator":"City of Concord","operator:wikidata":"Q1030184","power":"line"}},"power/line/cityofelizabeth-86b821":{"name":"City of Elizabeth","locationSet":{"include":["us-nc"]},"geometry":["line"],"matchScore":2,"terms":["city of elizabeth"],"tags":{"operator:wikidata":"Q1018467","power":"line"},"addTags":{"operator":"City of Elizabeth","operator:wikidata":"Q1018467","power":"line"}},"power/line/cityofhighpoint-86b821":{"name":"City of High Point","locationSet":{"include":["us-nc"]},"geometry":["line"],"matchScore":2,"terms":["city of high point"],"tags":{"operator:wikidata":"Q631194","power":"line"},"addTags":{"operator":"City of High Point","operator:wikidata":"Q631194","power":"line"}},"power/line/cityoflexington-86b821":{"name":"City of Lexington","locationSet":{"include":["us-nc"]},"geometry":["line"],"matchScore":2,"terms":["city of lexington"],"tags":{"operator:wikidata":"Q181370","power":"line"},"addTags":{"operator":"City of Lexington","operator:wikidata":"Q181370","power":"line"}},"power/line/energyunited-86b821":{"name":"EnergyUnited","locationSet":{"include":["us-nc"]},"geometry":["line"],"matchScore":2,"terms":["energyunited"],"tags":{"operator:wikidata":"Q5376886","power":"line"},"addTags":{"operator":"EnergyUnited","operator:wikidata":"Q5376886","power":"line"}},"power/line/fayettevillepublicworkscommission-86b821":{"name":"Fayetteville Public Works Commission","locationSet":{"include":["us-nc"]},"geometry":["line"],"matchScore":2,"terms":["fayetteville public works","fayetteville public works commission","pwc"],"tags":{"operator:wikidata":"Q130226661","power":"line"},"addTags":{"operator":"Fayetteville Public Works Commission","operator:short":"PWC","operator:wikidata":"Q130226661","power":"line"}},"power/line/fourcountyemc-86b821":{"name":"Four County EMC","locationSet":{"include":["us-nc"]},"geometry":["line"],"matchScore":2,"terms":["four county emc"],"tags":{"operator:wikidata":"Q114366906","power":"line"},"addTags":{"operator":"Four County EMC","operator:wikidata":"Q114366906","power":"line"}},"power/line/greenvilleutilitiescommission-86b821":{"name":"Greenville Utilities Commission","locationSet":{"include":["us-nc"]},"geometry":["line"],"matchScore":2,"terms":["greenville utilities commission"],"tags":{"operator:wikidata":"Q115691498","power":"line"},"addTags":{"operator":"Greenville Utilities Commission","operator:wikidata":"Q115691498","power":"line"}},"power/line/jonesonslowemc-86b821":{"name":"Jones-Onslow EMC","locationSet":{"include":["us-nc"]},"geometry":["line"],"matchScore":2,"terms":["jones-onslow emc"],"tags":{"operator:wikidata":"Q130233073","power":"line"},"addTags":{"operator":"Jones-Onslow EMC","operator:wikidata":"Q130233073","power":"line"}},"power/line/virginiaelectricandpowercompany-a36c89":{"name":"Virginia Electric & Power Company","locationSet":{"include":["us-md","us-nc","us-va","us-wv"]},"geometry":["line"],"matchScore":2,"terms":["virginia electric & power company"],"searchable":false,"tags":{"operator:wikidata":"Q117834539","power":"line"},"addTags":{"operator":"Virginia Electric & Power Company","operator:wikidata":"Q117834539","power":"line"}},"power/minor_line/blueridgeenergy-183b18":{"name":"Blue Ridge Energy","locationSet":{"include":["us-nc"]},"geometry":["line"],"matchScore":2,"terms":["blue ridge energy"],"tags":{"operator:wikidata":"Q130224535","power":"minor_line"},"addTags":{"operator":"Blue Ridge Energy","operator:wikidata":"Q130224535","power":"minor_line"}},"power/minor_line/cityofconcord-183b18":{"name":"City of Concord","locationSet":{"include":["us-nc"]},"geometry":["line"],"matchScore":2,"terms":["city of concord"],"tags":{"operator:wikidata":"Q1030184","power":"minor_line"},"addTags":{"operator":"City of Concord","operator:wikidata":"Q1030184","power":"minor_line"}},"power/minor_line/cityofelizabeth-183b18":{"name":"City of Elizabeth","locationSet":{"include":["us-nc"]},"geometry":["line"],"matchScore":2,"terms":["city of elizabeth"],"tags":{"operator:wikidata":"Q1018467","power":"minor_line"},"addTags":{"operator":"City of Elizabeth","operator:wikidata":"Q1018467","power":"minor_line"}},"power/minor_line/cityofhighpoint-183b18":{"name":"City of High Point","locationSet":{"include":["us-nc"]},"geometry":["line"],"matchScore":2,"terms":["city of high point"],"tags":{"operator:wikidata":"Q631194","power":"minor_line"},"addTags":{"operator":"City of High Point","operator:wikidata":"Q631194","power":"minor_line"}},"power/minor_line/cityoflexington-183b18":{"name":"City of Lexington","locationSet":{"include":["us-nc"]},"geometry":["line"],"matchScore":2,"terms":["city of lexington"],"tags":{"operator:wikidata":"Q181370","power":"minor_line"},"addTags":{"operator":"City of Lexington","operator:wikidata":"Q181370","power":"minor_line"}},"power/minor_line/energyunited-183b18":{"name":"EnergyUnited","locationSet":{"include":["us-nc"]},"geometry":["line"],"matchScore":2,"terms":["energyunited"],"tags":{"operator:wikidata":"Q5376886","power":"minor_line"},"addTags":{"operator":"EnergyUnited","operator:wikidata":"Q5376886","power":"minor_line"}},"power/minor_line/fayettevillepublicworkscommission-183b18":{"name":"Fayetteville Public Works Commission","locationSet":{"include":["us-nc"]},"geometry":["line"],"matchScore":2,"terms":["fayetteville public works","fayetteville public works commission","pwc"],"tags":{"operator:wikidata":"Q130226661","power":"minor_line"},"addTags":{"operator":"Fayetteville Public Works Commission","operator:short":"PWC","operator:wikidata":"Q130226661","power":"minor_line"}},"power/minor_line/fourcountyemc-183b18":{"name":"Four County EMC","locationSet":{"include":["us-nc"]},"geometry":["line"],"matchScore":2,"terms":["four county emc"],"tags":{"operator:wikidata":"Q114366906","power":"minor_line"},"addTags":{"operator":"Four County EMC","operator:wikidata":"Q114366906","power":"minor_line"}},"power/minor_line/greenvilleutilitiescommission-183b18":{"name":"Greenville Utilities Commission","locationSet":{"include":["us-nc"]},"geometry":["line"],"matchScore":2,"terms":["greenville utilities commission"],"tags":{"operator:wikidata":"Q115691498","power":"minor_line"},"addTags":{"operator":"Greenville Utilities Commission","operator:wikidata":"Q115691498","power":"minor_line"}},"power/minor_line/jonesonslowemc-183b18":{"name":"Jones-Onslow EMC","locationSet":{"include":["us-nc"]},"geometry":["line"],"matchScore":2,"terms":["jones-onslow emc"],"tags":{"operator:wikidata":"Q130233073","power":"minor_line"},"addTags":{"operator":"Jones-Onslow EMC","operator:wikidata":"Q130233073","power":"minor_line"}},"power/minor_line/virginiaelectricandpowercompany-59e99d":{"name":"Virginia Electric & Power Company","locationSet":{"include":["us-md","us-nc","us-va","us-wv"]},"geometry":["line"],"matchScore":2,"terms":["virginia electric & power company"],"searchable":false,"tags":{"operator:wikidata":"Q117834539","power":"minor_line"},"addTags":{"operator":"Virginia Electric & Power Company","operator:wikidata":"Q117834539","power":"minor_line"}},"power/plant/virginiaelectricandpowercompany-87b9b7":{"name":"Virginia Electric & Power Company","locationSet":{"include":["us-md","us-nc","us-va","us-wv"]},"geometry":["area"],"matchScore":2,"terms":["virginia electric & power co","virginia electric & power company"],"searchable":false,"tags":{"operator:wikidata":"Q117834539","power":"plant"},"addTags":{"operator":"Virginia Electric & Power Company","operator:wikidata":"Q117834539","power":"plant"}},"power/pole/blueridgeenergy-97b3a1":{"name":"Blue Ridge Energy","locationSet":{"include":["us-nc"]},"geometry":["point","vertex"],"matchScore":2,"terms":["blue ridge energy"],"tags":{"operator:wikidata":"Q130224535","power":"pole"},"addTags":{"operator":"Blue Ridge Energy","operator:wikidata":"Q130224535","power":"pole"}},"power/pole/cityofconcord-97b3a1":{"name":"City of Concord","locationSet":{"include":["us-nc"]},"geometry":["point","vertex"],"matchScore":2,"terms":["city of concord"],"tags":{"operator:wikidata":"Q1030184","power":"pole"},"addTags":{"operator":"City of Concord","operator:wikidata":"Q1030184","power":"pole"}},"power/pole/cityofelizabeth-97b3a1":{"name":"City of Elizabeth","locationSet":{"include":["us-nc"]},"geometry":["point","vertex"],"matchScore":2,"terms":["city of elizabeth"],"tags":{"operator:wikidata":"Q1018467","power":"pole"},"addTags":{"operator":"City of Elizabeth","operator:wikidata":"Q1018467","power":"pole"}},"power/pole/cityofhighpoint-97b3a1":{"name":"City of High Point","locationSet":{"include":["us-nc"]},"geometry":["point","vertex"],"matchScore":2,"terms":["city of high point"],"tags":{"operator:wikidata":"Q631194","power":"pole"},"addTags":{"operator":"City of High Point","operator:wikidata":"Q631194","power":"pole"}},"power/pole/cityoflexington-97b3a1":{"name":"City of Lexington","locationSet":{"include":["us-nc"]},"geometry":["point","vertex"],"matchScore":2,"terms":["city of lexington"],"tags":{"operator:wikidata":"Q181370","power":"pole"},"addTags":{"operator":"City of Lexington","operator:wikidata":"Q181370","power":"pole"}},"power/pole/energyunited-97b3a1":{"name":"EnergyUnited","locationSet":{"include":["us-nc"]},"geometry":["point","vertex"],"matchScore":2,"terms":["energyunited"],"tags":{"operator:wikidata":"Q5376886","power":"pole"},"addTags":{"operator":"EnergyUnited","operator:wikidata":"Q5376886","power":"pole"}},"power/pole/fayettevillepublicworkscommission-97b3a1":{"name":"Fayetteville Public Works Commission","locationSet":{"include":["us-nc"]},"geometry":["point","vertex"],"matchScore":2,"terms":["fayetteville public works","fayetteville public works commission","pwc"],"tags":{"operator:wikidata":"Q130226661","power":"pole"},"addTags":{"operator":"Fayetteville Public Works Commission","operator:short":"PWC","operator:wikidata":"Q130226661","power":"pole"}},"power/pole/fourcountyemc-97b3a1":{"name":"Four County EMC","locationSet":{"include":["us-nc"]},"geometry":["point","vertex"],"matchScore":2,"terms":["four county emc"],"tags":{"operator:wikidata":"Q114366906","power":"pole"},"addTags":{"operator":"Four County EMC","operator:wikidata":"Q114366906","power":"pole"}},"power/pole/greenvilleutilitiescommission-97b3a1":{"name":"Greenville Utilities Commission","locationSet":{"include":["us-nc"]},"geometry":["point","vertex"],"matchScore":2,"terms":["greenville utilities commission"],"tags":{"operator:wikidata":"Q115691498","power":"pole"},"addTags":{"operator":"Greenville Utilities Commission","operator:wikidata":"Q115691498","power":"pole"}},"power/pole/jonesonslowemc-97b3a1":{"name":"Jones-Onslow EMC","locationSet":{"include":["us-nc"]},"geometry":["point","vertex"],"matchScore":2,"terms":["jones-onslow emc"],"tags":{"operator:wikidata":"Q130233073","power":"pole"},"addTags":{"operator":"Jones-Onslow EMC","operator:wikidata":"Q130233073","power":"pole"}},"power/pole/virginiaelectricandpowercompany-7ce060":{"name":"Virginia Electric & Power Company","locationSet":{"include":["us-md","us-nc","us-va","us-wv"]},"geometry":["point","vertex"],"matchScore":2,"terms":["virginia electric & power company"],"searchable":false,"tags":{"operator:wikidata":"Q117834539","power":"pole"},"addTags":{"operator":"Virginia Electric & Power Company","operator:wikidata":"Q117834539","power":"pole"}},"power/substation/blueridgeenergy-32600e":{"name":"Blue Ridge Energy","locationSet":{"include":["us-nc"]},"geometry":["area","point"],"matchScore":2,"terms":["blue ridge energy"],"tags":{"operator:wikidata":"Q130224535","power":"substation"},"addTags":{"operator":"Blue Ridge Energy","operator:wikidata":"Q130224535","power":"substation"}},"power/substation/energyunited-32600e":{"name":"EnergyUnited","locationSet":{"include":["us-nc"]},"geometry":["area","point"],"matchScore":2,"terms":["energyunited"],"tags":{"operator:wikidata":"Q5376886","power":"substation"},"addTags":{"operator":"EnergyUnited","operator:wikidata":"Q5376886","power":"substation"}},"power/substation/fayettevillepublicworkscommission-32600e":{"name":"Fayetteville Public Works Commission","locationSet":{"include":["us-nc"]},"geometry":["area","point"],"matchScore":2,"terms":["fayetteville public works","fayetteville public works commission","pwc"],"tags":{"operator:wikidata":"Q130226661","power":"substation"},"addTags":{"operator":"Fayetteville Public Works Commission","operator:short":"PWC","operator:wikidata":"Q130226661","power":"substation"}},"power/substation/fourcountyemc-32600e":{"name":"Four County EMC","locationSet":{"include":["us-nc"]},"geometry":["area","point"],"matchScore":2,"terms":["four county emc"],"tags":{"operator:wikidata":"Q114366906","power":"substation"},"addTags":{"operator":"Four County EMC","operator:wikidata":"Q114366906","power":"substation"}},"power/substation/greenvilleutilitiescommission-32600e":{"name":"Greenville Utilities Commission","locationSet":{"include":["us-nc"]},"geometry":["area","point"],"matchScore":2,"terms":["greenville utilities commission"],"tags":{"operator:wikidata":"Q115691498","power":"substation"},"addTags":{"operator":"Greenville Utilities Commission","operator:wikidata":"Q115691498","power":"substation"}},"power/substation/jonesonslowemc-32600e":{"name":"Jones-Onslow EMC","locationSet":{"include":["us-nc"]},"geometry":["area","point"],"matchScore":2,"terms":["jones-onslow emc"],"tags":{"operator:wikidata":"Q130233073","power":"substation"},"addTags":{"operator":"Jones-Onslow EMC","operator:wikidata":"Q130233073","power":"substation"}},"power/substation/virginiaelectricandpowercompany-73adb4":{"name":"Virginia Electric & Power Company","locationSet":{"include":["us-md","us-nc","us-va","us-wv"]},"geometry":["area","point"],"matchScore":2,"terms":["virginia electric & power company"],"searchable":false,"tags":{"operator:wikidata":"Q117834539","power":"substation"},"addTags":{"operator":"Virginia Electric & Power Company","operator:wikidata":"Q117834539","power":"substation"}},"power/tower/blueridgeenergy-4b3bfa":{"name":"Blue Ridge Energy","locationSet":{"include":["us-nc"]},"geometry":["point","vertex"],"matchScore":2,"terms":["blue ridge energy"],"tags":{"operator:wikidata":"Q130224535","power":"tower"},"addTags":{"operator":"Blue Ridge Energy","operator:wikidata":"Q130224535","power":"tower"}},"power/tower/cityofconcord-4b3bfa":{"name":"City of Concord","locationSet":{"include":["us-nc"]},"geometry":["point","vertex"],"matchScore":2,"terms":["city of concord"],"tags":{"operator:wikidata":"Q1030184","power":"tower"},"addTags":{"operator":"City of Concord","operator:wikidata":"Q1030184","power":"tower"}},"power/tower/cityofelizabeth-4b3bfa":{"name":"City of Elizabeth","locationSet":{"include":["us-nc"]},"geometry":["point","vertex"],"matchScore":2,"terms":["city of elizabeth"],"tags":{"operator:wikidata":"Q1018467","power":"tower"},"addTags":{"operator":"City of Elizabeth","operator:wikidata":"Q1018467","power":"tower"}},"power/tower/cityofhighpoint-4b3bfa":{"name":"City of High Point","locationSet":{"include":["us-nc"]},"geometry":["point","vertex"],"matchScore":2,"terms":["city of high point"],"tags":{"operator:wikidata":"Q631194","power":"tower"},"addTags":{"operator":"City of High Point","operator:wikidata":"Q631194","power":"tower"}},"power/tower/cityoflexington-4b3bfa":{"name":"City of Lexington","locationSet":{"include":["us-nc"]},"geometry":["point","vertex"],"matchScore":2,"terms":["city of lexington"],"tags":{"operator:wikidata":"Q181370","power":"tower"},"addTags":{"operator":"City of Lexington","operator:wikidata":"Q181370","power":"tower"}},"power/tower/energyunited-4b3bfa":{"name":"EnergyUnited","locationSet":{"include":["us-nc"]},"geometry":["point","vertex"],"matchScore":2,"terms":["energyunited"],"tags":{"operator:wikidata":"Q5376886","power":"tower"},"addTags":{"operator":"EnergyUnited","operator:wikidata":"Q5376886","power":"tower"}},"power/tower/fayettevillepublicworkscommission-4b3bfa":{"name":"Fayetteville Public Works Commission","locationSet":{"include":["us-nc"]},"geometry":["point","vertex"],"matchScore":2,"terms":["fayetteville public works","fayetteville public works commission","pwc"],"tags":{"operator:wikidata":"Q130226661","power":"tower"},"addTags":{"operator":"Fayetteville Public Works Commission","operator:short":"PWC","operator:wikidata":"Q130226661","power":"tower"}},"power/tower/fourcountyemc-4b3bfa":{"name":"Four County EMC","locationSet":{"include":["us-nc"]},"geometry":["point","vertex"],"matchScore":2,"terms":["four county emc"],"tags":{"operator:wikidata":"Q114366906","power":"tower"},"addTags":{"operator":"Four County EMC","operator:wikidata":"Q114366906","power":"tower"}},"power/tower/greenvilleutilitiescommission-4b3bfa":{"name":"Greenville Utilities Commission","locationSet":{"include":["us-nc"]},"geometry":["point","vertex"],"matchScore":2,"terms":["greenville utilities commission"],"tags":{"operator:wikidata":"Q115691498","power":"tower"},"addTags":{"operator":"Greenville Utilities Commission","operator:wikidata":"Q115691498","power":"tower"}},"power/tower/jonesonslowemc-4b3bfa":{"name":"Jones-Onslow EMC","locationSet":{"include":["us-nc"]},"geometry":["point","vertex"],"matchScore":2,"terms":["jones-onslow emc"],"tags":{"operator:wikidata":"Q130233073","power":"tower"},"addTags":{"operator":"Jones-Onslow EMC","operator:wikidata":"Q130233073","power":"tower"}},"power/tower/virginiaelectricandpowercompany-037e19":{"name":"Virginia Electric & Power Company","locationSet":{"include":["us-md","us-nc","us-va","us-wv"]},"geometry":["point","vertex"],"matchScore":2,"terms":["virginia electric & power company"],"searchable":false,"tags":{"operator:wikidata":"Q117834539","power":"tower"},"addTags":{"operator":"Virginia Electric & Power Company","operator:wikidata":"Q117834539","power":"tower"}},"power/transformer/blueridgeenergy-458d87":{"name":"Blue Ridge Energy","locationSet":{"include":["us-nc"]},"geometry":["point","vertex"],"matchScore":2,"terms":["blue ridge energy"],"tags":{"operator:wikidata":"Q130224535","power":"transformer"},"addTags":{"operator":"Blue Ridge Energy","operator:wikidata":"Q130224535","power":"transformer"}},"power/transformer/energyunited-458d87":{"name":"EnergyUnited","locationSet":{"include":["us-nc"]},"geometry":["point","vertex"],"matchScore":2,"terms":["energyunited"],"tags":{"operator:wikidata":"Q5376886","power":"transformer"},"addTags":{"operator":"EnergyUnited","operator:wikidata":"Q5376886","power":"transformer"}},"power/transformer/fayettevillepublicworkscommission-458d87":{"name":"Fayetteville Public Works Commission","locationSet":{"include":["us-nc"]},"geometry":["point","vertex"],"matchScore":2,"terms":["fayetteville public works","fayetteville public works commission","pwc"],"tags":{"operator:wikidata":"Q130226661","power":"transformer"},"addTags":{"operator":"Fayetteville Public Works Commission","operator:short":"PWC","operator:wikidata":"Q130226661","power":"transformer"}},"power/transformer/fourcountyemc-458d87":{"name":"Four County EMC","locationSet":{"include":["us-nc"]},"geometry":["point","vertex"],"matchScore":2,"terms":["four county emc"],"tags":{"operator:wikidata":"Q114366906","power":"transformer"},"addTags":{"operator":"Four County EMC","operator:wikidata":"Q114366906","power":"transformer"}},"power/transformer/greenvilleutilitiescommission-458d87":{"name":"Greenville Utilities Commission","locationSet":{"include":["us-nc"]},"geometry":["point","vertex"],"matchScore":2,"terms":["greenville utilities commission"],"tags":{"operator:wikidata":"Q115691498","power":"transformer"},"addTags":{"operator":"Greenville Utilities Commission","operator:wikidata":"Q115691498","power":"transformer"}},"power/transformer/jonesonslowemc-458d87":{"name":"Jones-Onslow EMC","locationSet":{"include":["us-nc"]},"geometry":["point","vertex"],"matchScore":2,"terms":["jones-onslow emc"],"tags":{"operator:wikidata":"Q130233073","power":"transformer"},"addTags":{"operator":"Jones-Onslow EMC","operator:wikidata":"Q130233073","power":"transformer"}},"power/transformer/virginiaelectricandpowercompany-1d1ce8":{"name":"Virginia Electric & Power Company","locationSet":{"include":["us-md","us-nc","us-va","us-wv"]},"geometry":["point","vertex"],"matchScore":2,"terms":["virginia electric & power company"],"searchable":false,"tags":{"operator:wikidata":"Q117834539","power":"transformer"},"addTags":{"operator":"Virginia Electric & Power Company","operator:wikidata":"Q117834539","power":"transformer"}},"shop/charity/goodwillindustriesofcentralnorthcarolina-c4bcca":{"name":"Goodwill Industries of Central North Carolina","locationSet":{"include":["us-nc"]},"geometry":["point","area"],"matchScore":2,"terms":["goodwill","goodwill industries of central north carolina"],"tags":{"operator:wikidata":"Q126846187","shop":"charity"},"addTags":{"brand":"Goodwill","brand:wikidata":"Q5583655","name":"Goodwill","operator":"Goodwill Industries of Central North Carolina","operator:wikidata":"Q126846187","shop":"charity"}},"shop/charity/goodwillindustriesofeasternnorthcarolina-c4bcca":{"name":"Goodwill Industries of Eastern North Carolina","locationSet":{"include":["us-nc"]},"geometry":["point","area"],"matchScore":2,"terms":["goodwill","goodwill industries of eastern north carolina"],"tags":{"operator:wikidata":"Q126846961","shop":"charity"},"addTags":{"brand":"Goodwill","brand:wikidata":"Q5583655","name":"Goodwill","operator":"Goodwill Industries of Eastern North Carolina","operator:wikidata":"Q126846961","shop":"charity"}},"shop/charity/goodwillindustriesofnorthwestnorthcarolina-c4bcca":{"name":"Goodwill Industries of Northwest North Carolina","locationSet":{"include":["us-nc"]},"geometry":["point","area"],"matchScore":2,"terms":["goodwill","goodwill industries of northwest north carolina"],"tags":{"operator:wikidata":"Q126897725","shop":"charity"},"addTags":{"brand":"Goodwill","brand:wikidata":"Q5583655","name":"Goodwill","operator":"Goodwill Industries of Northwest North Carolina","operator:wikidata":"Q126897725","shop":"charity"}},"shop/charity/goodwillindustriesofthesouthernpiedmont-a6f29a":{"name":"Goodwill Industries of the Southern Piedmont","locationSet":{"include":["us-nc","us-sc"]},"geometry":["point","area"],"matchScore":2,"terms":["goodwill","goodwill industries of the southern piedmont"],"tags":{"operator:wikidata":"Q126898051","shop":"charity"},"addTags":{"brand":"Goodwill","brand:wikidata":"Q5583655","name":"Goodwill","operator":"Goodwill Industries of the Southern Piedmont","operator:wikidata":"Q126898051","shop":"charity"}},"public_transport/platform/bus_point/appalcart-ab3025":{"name":"AppalCART","locationSet":{"include":["us-nc"]},"geometry":["point","vertex"],"matchScore":2,"terms":["appalcart"],"reference":{"key":"public_transport","value":"platform"},"tags":{"bus":"yes","network:wikidata":"Q16160659","public_transport":"platform"},"addTags":{"bus":"yes","highway":"bus_stop","network":"AppalCART","network:wikidata":"Q16160659","public_transport":"platform"}},"public_transport/platform/bus_point/cats-ab3025":{"name":"CATS (North Carolina)","locationSet":{"include":["us-nc"]},"geometry":["point","vertex"],"matchScore":2,"terms":["cats","charlotte area transit system"],"reference":{"key":"public_transport","value":"platform"},"tags":{"bus":"yes","network:wikidata":"Q5085831","public_transport":"platform"},"addTags":{"bus":"yes","highway":"bus_stop","network":"CATS","network:wikidata":"Q5085831","operator":"Charlotte Area Transit System","public_transport":"platform"}},"public_transport/platform/bus_point/cht-ab3025":{"name":"CHT","locationSet":{"include":["us-nc"]},"geometry":["point","vertex"],"matchScore":2,"terms":["cht"],"reference":{"key":"public_transport","value":"platform"},"tags":{"bus":"yes","network:wikidata":"Q5073024","public_transport":"platform"},"addTags":{"bus":"yes","highway":"bus_stop","network":"CHT","network:wikidata":"Q5073024","public_transport":"platform"}},"public_transport/platform/bus_point/gocary-ab3025":{"name":"GoCary","locationSet":{"include":["us-nc"]},"geometry":["point","vertex"],"matchScore":2,"terms":["gocary"],"reference":{"key":"public_transport","value":"platform"},"tags":{"bus":"yes","network:wikidata":"Q5005923","public_transport":"platform"},"addTags":{"bus":"yes","highway":"bus_stop","network":"GoCary","network:wikidata":"Q5005923","public_transport":"platform"}},"public_transport/platform/bus_point/godurham-ab3025":{"name":"GoDurham","locationSet":{"include":["us-nc"]},"geometry":["point","vertex"],"matchScore":2,"terms":["godurham"],"reference":{"key":"public_transport","value":"platform"},"tags":{"bus":"yes","network:wikidata":"Q5316462","public_transport":"platform"},"addTags":{"bus":"yes","highway":"bus_stop","network":"GoDurham","network:wikidata":"Q5316462","public_transport":"platform"}},"public_transport/platform/bus_point/goraleigh-ab3025":{"name":"GoRaleigh","locationSet":{"include":["us-nc"]},"geometry":["point","vertex"],"matchScore":2,"terms":["goraleigh"],"reference":{"key":"public_transport","value":"platform"},"tags":{"bus":"yes","network:wikidata":"Q5035469","public_transport":"platform"},"addTags":{"bus":"yes","highway":"bus_stop","network":"GoRaleigh","network:wikidata":"Q5035469","public_transport":"platform"}},"public_transport/platform/bus_point/gotriangle-ab3025":{"name":"GoTriangle","locationSet":{"include":["us-nc"]},"geometry":["point","vertex"],"matchScore":2,"terms":["gotriangle"],"reference":{"key":"public_transport","value":"platform"},"tags":{"bus":"yes","network:wikidata":"Q7840091","public_transport":"platform"},"addTags":{"bus":"yes","highway":"bus_stop","network":"GoTriangle","network:wikidata":"Q7840091","public_transport":"platform"}},"public_transport/platform/bus_point/greensborotransitagency-ab3025":{"name":"Greensboro Transit Agency","locationSet":{"include":["us-nc"]},"geometry":["point","vertex"],"matchScore":2,"terms":["greensboro transit agency","gta"],"reference":{"key":"public_transport","value":"platform"},"tags":{"bus":"yes","network:wikidata":"Q5604466","public_transport":"platform"},"addTags":{"bus":"yes","highway":"bus_stop","network":"Greensboro Transit Agency","network:short":"GTA","network:wikidata":"Q5604466","public_transport":"platform"}},"type/route/bus/appalcart-5fe206":{"name":"AppalCART","locationSet":{"include":["us-nc"]},"geometry":["relation"],"matchScore":2,"terms":["appalcart"],"reference":{"key":"route","value":"bus"},"tags":{"network:wikidata":"Q16160659","route":"bus","type":"route"},"addTags":{"network":"AppalCART","network:wikidata":"Q16160659","route":"bus","type":"route"}},"type/route/bus/cats-5fe206":{"name":"CATS (North Carolina)","locationSet":{"include":["us-nc"]},"geometry":["relation"],"matchScore":2,"terms":["cats","charlotte area transit system"],"reference":{"key":"route","value":"bus"},"tags":{"network:wikidata":"Q5085831","route":"bus","type":"route"},"addTags":{"network":"CATS","network:wikidata":"Q5085831","operator":"Charlotte Area Transit System","route":"bus","type":"route"}},"type/route/bus/cht-5fe206":{"name":"CHT","locationSet":{"include":["us-nc"]},"geometry":["relation"],"matchScore":2,"terms":["cht"],"reference":{"key":"route","value":"bus"},"tags":{"network:wikidata":"Q5073024","route":"bus","type":"route"},"addTags":{"network":"CHT","network:wikidata":"Q5073024","route":"bus","type":"route"}},"type/route/bus/gocary-5fe206":{"name":"GoCary","locationSet":{"include":["us-nc"]},"geometry":["relation"],"matchScore":2,"terms":["gocary"],"reference":{"key":"route","value":"bus"},"tags":{"network:wikidata":"Q5005923","route":"bus","type":"route"},"addTags":{"network":"GoCary","network:wikidata":"Q5005923","route":"bus","type":"route"}},"type/route/bus/godurham-5fe206":{"name":"GoDurham","locationSet":{"include":["us-nc"]},"geometry":["relation"],"matchScore":2,"terms":["godurham"],"reference":{"key":"route","value":"bus"},"tags":{"network:wikidata":"Q5316462","route":"bus","type":"route"},"addTags":{"network":"GoDurham","network:wikidata":"Q5316462","route":"bus","type":"route"}},"type/route/bus/goraleigh-5fe206":{"name":"GoRaleigh","locationSet":{"include":["us-nc"]},"geometry":["relation"],"matchScore":2,"terms":["goraleigh"],"reference":{"key":"route","value":"bus"},"tags":{"network:wikidata":"Q5035469","route":"bus","type":"route"},"addTags":{"network":"GoRaleigh","network:wikidata":"Q5035469","route":"bus","type":"route"}},"type/route/bus/gotriangle-5fe206":{"name":"GoTriangle","locationSet":{"include":["us-nc"]},"geometry":["relation"],"matchScore":2,"terms":["gotriangle"],"reference":{"key":"route","value":"bus"},"tags":{"network:wikidata":"Q7840091","route":"bus","type":"route"},"addTags":{"network":"GoTriangle","network:wikidata":"Q7840091","route":"bus","type":"route"}},"type/route/bus/greensborotransitagency-5fe206":{"name":"Greensboro Transit Agency","locationSet":{"include":["us-nc"]},"geometry":["relation"],"matchScore":2,"terms":["greensboro transit agency","gta"],"reference":{"key":"route","value":"bus"},"tags":{"network:wikidata":"Q5604466","route":"bus","type":"route"},"addTags":{"network":"Greensboro Transit Agency","network:short":"GTA","network:wikidata":"Q5604466","route":"bus","type":"route"}}}