{"amenity/atm/bankofafrica-0517a4":{"name":"Bank of Africa","locationSet":{"include":["bf","bi","bj","cd","ci","dj","et","fr","gh","ke","mg","ml","ne","rw","sn","tg","tz","ug"]},"geometry":["point","vertex"],"matchScore":2,"terms":["bank of africa","boa"],"fields":["name","brand","{amenity/atm}"],"tags":{"amenity":"atm","brand:wikidata":"Q2882627"},"addTags":{"amenity":"atm","brand":"Bank of Africa","brand:wikidata":"Q2882627","operator":"Bank of Africa","operator:wikidata":"Q2882627","short_name":"BOA"}},"amenity/atm/crdbbank-14cdb2":{"name":"CRDB Bank","locationSet":{"include":["tz"]},"geometry":["point","vertex"],"matchScore":2,"terms":["crdb bank"],"fields":["name","brand","{amenity/atm}"],"tags":{"amenity":"atm","brand:wikidata":"Q5013848"},"addTags":{"amenity":"atm","brand":"CRDB Bank","brand:wikidata":"Q5013848","operator":"CRDB Bank","operator:wikidata":"Q5013848"}},"amenity/atm/equitybank-14cdb2":{"name":"Equity Bank (Tanzania)","locationSet":{"include":["tz"]},"geometry":["point","vertex"],"matchScore":2,"terms":["equity bank"],"fields":["name","brand","{amenity/atm}"],"tags":{"amenity":"atm","brand:wikidata":"Q5384667"},"addTags":{"amenity":"atm","brand":"Equity Bank","brand:wikidata":"Q5384667","operator":"Equity Bank","operator:wikidata":"Q5384667"}},"amenity/atm/gtbank-55d972":{"name":"GT Bank","locationSet":{"include":["ci","gb","gh","gm","ke","lr","ng","rw","tz","ug"]},"geometry":["point","vertex"],"matchScore":2,"terms":["gt bank","guaranty trust bank"],"fields":["name","brand","{amenity/atm}"],"tags":{"amenity":"atm","brand:wikidata":"Q579747"},"addTags":{"amenity":"atm","brand":"GT Bank","brand:wikidata":"Q579747","official_name":"Guaranty Trust Bank","operator":"GT Bank","operator:wikidata":"Q579747"}},"amenity/atm/nmbbank-14cdb2":{"name":"NMB Bank (Tanzania)","locationSet":{"include":["tz"]},"geometry":["point","vertex"],"matchScore":2,"terms":["nmb","nmb bank"],"fields":["name","brand","{amenity/atm}"],"tags":{"amenity":"atm","brand:wikidata":"Q6974322"},"addTags":{"amenity":"atm","brand":"NMB Bank","brand:wikidata":"Q6974322","operator":"NMB Bank","operator:wikidata":"Q6974322","short_name":"NMB"}},"amenity/atm/uba-69edd8":{"name":"UBA","locationSet":{"include":["bf","bj","cd","cg","ci","cm","fr","ga","gb","gh","gn","ke","lr","ml","mz","ng","sl","sn","td","tz","ug","us","zm"]},"geometry":["point","vertex"],"matchScore":2,"terms":["uba","united bank for africa"],"fields":["name","brand","{amenity/atm}"],"tags":{"amenity":"atm","brand:wikidata":"Q513457"},"addTags":{"amenity":"atm","brand":"UBA","brand:wikidata":"Q513457","official_name":"United Bank for Africa","operator":"UBA","operator:wikidata":"Q513457"}},"amenity/bank/bankofafrica-0bcfcb":{"name":"Bank of Africa","locationSet":{"include":["bf","bi","bj","cd","ci","dj","et","fr","gh","ke","mg","ml","ne","rw","sn","tg","tz","ug"]},"geometry":["point","area"],"matchScore":2,"terms":["bank of africa","boa"],"tags":{"amenity":"bank","brand:wikidata":"Q2882627"},"addTags":{"amenity":"bank","brand":"Bank of Africa","brand:wikidata":"Q2882627","name":"Bank of Africa","short_name":"BOA"}},"amenity/bank/crdbbank-e14cdd":{"name":"CRDB Bank","locationSet":{"include":["tz"]},"geometry":["point","area"],"matchScore":2,"terms":["crdb bank"],"tags":{"amenity":"bank","brand:wikidata":"Q5013848"},"addTags":{"amenity":"bank","brand":"CRDB Bank","brand:wikidata":"Q5013848","name":"CRDB Bank"}},"amenity/bank/equitybank-e14cdd":{"name":"Equity Bank (Tanzania)","locationSet":{"include":["tz"]},"geometry":["point","area"],"matchScore":2,"terms":["equity bank"],"tags":{"amenity":"bank","brand:wikidata":"Q5384667"},"addTags":{"amenity":"bank","brand":"Equity Bank","brand:wikidata":"Q5384667","name":"Equity Bank"}},"amenity/bank/gtbank-b3c39a":{"name":"GT Bank","locationSet":{"include":["ci","gb","gh","gm","ke","lr","ng","rw","tz","ug"]},"geometry":["point","area"],"matchScore":2,"terms":["gt bank","guaranty trust bank"],"tags":{"amenity":"bank","brand:wikidata":"Q579747"},"addTags":{"amenity":"bank","brand":"GT Bank","brand:wikidata":"Q579747","name":"GT Bank","official_name":"Guaranty Trust Bank"}},"amenity/bank/nmbbank-e14cdd":{"name":"NMB Bank (Tanzania)","locationSet":{"include":["tz"]},"geometry":["point","area"],"matchScore":2,"terms":["nmb","nmb bank"],"tags":{"amenity":"bank","brand:wikidata":"Q6974322"},"addTags":{"amenity":"bank","brand":"NMB Bank","brand:wikidata":"Q6974322","name":"NMB Bank","short_name":"NMB"}},"amenity/bank/uba-95540f":{"name":"UBA","locationSet":{"include":["bf","bj","cd","cg","ci","cm","fr","ga","gb","gh","gn","ke","lr","ml","mz","ng","sl","sn","td","tz","ug","us","zm"]},"geometry":["point","area"],"matchScore":2,"terms":["uba","united bank for africa"],"tags":{"amenity":"bank","brand:wikidata":"Q513457"},"addTags":{"amenity":"bank","brand":"UBA","brand:wikidata":"Q513457","name":"UBA","official_name":"United Bank for Africa"}},"amenity/fuel/engen-b7f522":{"name":"Engen","locationSet":{"include":["dz","eg","ly","ma","sd","tn","eh","io","bi","km","dj","er","et","tf","ke","mg","mw","mu","yt","mz","re","rw","sc","so","ss","ug","tz","zm","zw","ao","cm","cf","td","cg","cd","gq","ga","st","bw","sz","ls","na","za","bj","bf","cv","ci","gm","gh","gn","gw","lr","ml","mr","ne","ng","sn","sl","tg","sh"]},"geometry":["point","area"],"matchScore":2,"terms":["engen","engen petroleum"],"fields":["name","brand","{amenity/fuel}"],"tags":{"amenity":"fuel","brand:wikidata":"Q3054251"},"addTags":{"amenity":"fuel","brand":"Engen","brand:wikidata":"Q3054251","name":"Engen"}},"amenity/fuel/kobil-568233":{"name":"Kobil","locationSet":{"include":["bi","et","ke","rw","tz","ug","zm"]},"geometry":["point","area"],"matchScore":2,"terms":["kobil"],"fields":["name","brand","{amenity/fuel}"],"tags":{"amenity":"fuel","brand:wikidata":"Q22906119"},"addTags":{"amenity":"fuel","brand":"Kobil","brand:wikidata":"Q22906119","name":"Kobil"}},"office/financial/oldmutual-38693f":{"name":"Old Mutual","locationSet":{"include":["bw","cn","gh","ke","mw","na","ng","rw","ss","sz","tz","ug","za","zw"]},"geometry":["point","area"],"matchScore":2,"terms":["old mutual"],"tags":{"brand:wikidata":"Q289704","office":"financial"},"addTags":{"brand":"Old Mutual","brand:wikidata":"Q289704","name":"Old Mutual","office":"financial"}},"shop/mobile_phone/vodacom-12caeb":{"name":"Vodacom","locationSet":{"include":["cd","et","ke","ls","mz","tz","za"]},"geometry":["point","area"],"matchScore":2,"terms":["vodacom"],"tags":{"brand:wikidata":"Q1856518","shop":"mobile_phone"},"addTags":{"brand":"Vodacom","brand:wikidata":"Q1856518","name":"Vodacom","shop":"mobile_phone"}},"tourism/hotel/element-6dd642":{"name":"Element by Westin","locationSet":{"include":["ae","au","ca","cn","id","my","nl","tz","us"]},"geometry":["point","area"],"matchScore":2,"terms":["element"],"fields":["name","brand","{tourism/hotel}"],"tags":{"brand:wikidata":"Q91948072","tourism":"hotel"},"addTags":{"brand":"Element","brand:wikidata":"Q91948072","name":"Element","tourism":"hotel"}},"man_made/mast/communication/vodacom-02eecb":{"name":"Vodacom","locationSet":{"include":["cd","et","ke","ls","mz","tz","za"]},"geometry":["point","vertex"],"matchScore":2,"terms":["vodacom"],"reference":{"key":"tower:type","value":"communication"},"tags":{"man_made":"mast","operator:wikidata":"Q1856518","tower:type":"communication"},"addTags":{"man_made":"mast","operator":"Vodacom","operator:wikidata":"Q1856518","tower:type":"communication"}},"man_made/tower/communication/vodacom-7f20fe":{"name":"Vodacom","locationSet":{"include":["cd","et","ke","ls","mz","tz","za"]},"geometry":["point","vertex","area"],"matchScore":2,"terms":["vodacom"],"reference":{"key":"tower:type","value":"communication"},"tags":{"man_made":"tower","operator:wikidata":"Q1856518","tower:type":"communication"},"addTags":{"man_made":"tower","operator":"Vodacom","operator:wikidata":"Q1856518","tower:type":"communication"}},"power/line/tanesco-62f471":{"name":"Tanesco","locationSet":{"include":["tz"]},"geometry":["line"],"matchScore":2,"terms":["tanesco"],"tags":{"operator:wikidata":"Q4050564","power":"line"},"addTags":{"operator":"Tanesco","operator:wikidata":"Q4050564","power":"line"}},"power/minor_line/tanesco-0a0f64":{"name":"Tanesco","locationSet":{"include":["tz"]},"geometry":["line"],"matchScore":2,"terms":["tanesco"],"tags":{"operator:wikidata":"Q4050564","power":"minor_line"},"addTags":{"operator":"Tanesco","operator:wikidata":"Q4050564","power":"minor_line"}},"power/plant/tanesco-ffca24":{"name":"TANESCO","locationSet":{"include":["tz"]},"geometry":["area"],"matchScore":2,"terms":["tanesco"],"tags":{"operator:wikidata":"Q4050564","power":"plant"},"addTags":{"operator":"TANESCO","operator:wikidata":"Q4050564","power":"plant"}},"power/pole/tanesco-9e4689":{"name":"Tanesco","locationSet":{"include":["tz"]},"geometry":["point","vertex"],"matchScore":2,"terms":["tanesco"],"tags":{"operator:wikidata":"Q4050564","power":"pole"},"addTags":{"operator":"Tanesco","operator:wikidata":"Q4050564","power":"pole"}},"power/substation/tanesco-48f37a":{"name":"TANESCO","locationSet":{"include":["tz"]},"geometry":["area","point"],"matchScore":2,"terms":["tanesco"],"tags":{"operator:wikidata":"Q4050564","power":"substation"},"addTags":{"operator":"TANESCO","operator:wikidata":"Q4050564","power":"substation"}},"power/tower/tanesco-2bd981":{"name":"Tanesco","locationSet":{"include":["tz"]},"geometry":["point","vertex"],"matchScore":2,"terms":["tanesco"],"tags":{"operator:wikidata":"Q4050564","power":"tower"},"addTags":{"operator":"Tanesco","operator:wikidata":"Q4050564","power":"tower"}},"power/transformer/tanesco-deb255":{"name":"TANESCO","locationSet":{"include":["tz"]},"geometry":["point","vertex"],"matchScore":2,"terms":["tanesco"],"tags":{"operator:wikidata":"Q4050564","power":"transformer"},"addTags":{"operator":"TANESCO","operator:wikidata":"Q4050564","power":"transformer"}},"type/route/railway/tanzaniarailwayscorporation-cd2cd6":{"name":"Tanzania Railways Corporation","locationSet":{"include":["tz"]},"geometry":["relation"],"matchScore":2,"terms":["ear","tanzania railways corporation","trc"],"reference":{"key":"route","value":"railway"},"tags":{"operator:wikidata":"Q2393276","route":"railway","type":"route"},"addTags":{"operator":"Tanzania Railways Corporation","operator:short":"TRC","operator:wikidata":"Q2393276","route":"railway","type":"route"}}}