{"amenity/atm/allahabadbank-ad0527":{"name":"Allahabad Bank","locationSet":{"include":["in"]},"geometry":["point","vertex"],"matchScore":2,"terms":["allahabad bank"],"tags":{"amenity":"atm","brand:wikidata":"Q2018840"},"addTags":{"amenity":"atm","brand":"Allahabad Bank","brand:wikidata":"Q2018840","name":"Allahabad Bank","operator":"Allahabad Bank","operator:wikidata":"Q2018840"}},"amenity/atm/almoraurbancooperativebanklimited-ad0527":{"name":"Almora Urban Cooperative Bank Limited","locationSet":{"include":["in"]},"geometry":["point","vertex"],"matchScore":2,"terms":["almora urban bank","almora urban cooperative bank","almora urban cooperative bank limited"],"tags":{"amenity":"atm","brand:wikidata":"Q74121721"},"addTags":{"amenity":"atm","brand":"Almora Urban Cooperative Bank Limited","brand:wikidata":"Q74121721","name":"Almora Urban Cooperative Bank Limited","operator":"Almora Urban Cooperative Bank Limited","operator:wikidata":"Q74121721"}},"amenity/atm/andhrabank-ad0527":{"name":"Andhra Bank","locationSet":{"include":["in"]},"geometry":["point","vertex"],"matchScore":2,"terms":["andhra bank"],"tags":{"amenity":"atm","brand:wikidata":"Q2003476"},"addTags":{"amenity":"atm","brand":"Andhra Bank","brand:wikidata":"Q2003476","name":"Andhra Bank","operator":"Andhra Bank","operator:wikidata":"Q2003476"}},"amenity/atm/assamgraminvikashbank-ad0527":{"name":"Assam Gramin Vikash Bank","locationSet":{"include":["in"]},"geometry":["point","vertex"],"matchScore":2,"terms":["assam gramin vikash bank"],"tags":{"amenity":"atm","brand:wikidata":"Q24041756"},"addTags":{"amenity":"atm","brand":"Assam Gramin Vikash Bank","brand:wikidata":"Q24041756","name":"Assam Gramin Vikash Bank","operator":"Assam Gramin Vikash Bank","operator:wikidata":"Q24041756"}},"amenity/atm/ausmallfinancebank-ad0527":{"name":"AU Small Finance Bank","locationSet":{"include":["in"]},"geometry":["point","vertex"],"matchScore":2,"terms":["au small finance bank"],"tags":{"amenity":"atm","brand:wikidata":"Q48729722"},"addTags":{"amenity":"atm","brand":"AU Small Finance Bank","brand:wikidata":"Q48729722","name":"AU Small Finance Bank","operator":"AU Small Finance Bank","operator:wikidata":"Q48729722"}},"amenity/atm/axisbank-ad0527":{"name":"Axis Bank","locationSet":{"include":["in"]},"geometry":["point","vertex"],"matchScore":2,"terms":["axis bank"],"tags":{"amenity":"atm","brand:wikidata":"Q2003549"},"addTags":{"amenity":"atm","brand":"Axis Bank","brand:wikidata":"Q2003549","name":"Axis Bank","operator":"Axis Bank","operator:wikidata":"Q2003549"}},"amenity/atm/bandhanbank-ad0527":{"name":"Bandhan Bank","locationSet":{"include":["in"]},"geometry":["point","vertex"],"matchScore":2,"terms":["bandhan bank"],"tags":{"amenity":"atm","brand:wikidata":"Q19882235"},"addTags":{"amenity":"atm","brand":"Bandhan Bank","brand:wikidata":"Q19882235","name":"Bandhan Bank","operator":"Bandhan Bank","operator:wikidata":"Q19882235"}},"amenity/atm/bankofmaharashtra-ad0527":{"name":"Bank of Maharashtra","locationSet":{"include":["in"]},"geometry":["point","vertex"],"matchScore":2,"terms":["bank of maharashtra"],"tags":{"amenity":"atm","brand:wikidata":"Q2004304"},"addTags":{"amenity":"atm","brand":"Bank of Maharashtra","brand:wikidata":"Q2004304","name":"Bank of Maharashtra","operator":"Bank of Maharashtra","operator:wikidata":"Q2004304"}},"amenity/atm/canarabank-ad0527":{"name":"Canara Bank","locationSet":{"include":["in"]},"geometry":["point","vertex"],"matchScore":2,"terms":["canara bank","کینرا بینک","केनरा बैंक","ਕੇਨਰਾ ਬੈਂਕ","ಕೆನರಾ ಬ್ಯಾಂಕ್"],"tags":{"amenity":"atm","brand:wikidata":"Q2003777"},"addTags":{"amenity":"atm","brand":"Canara Bank","brand:en":"Canara Bank","brand:hi":"केनरा बैंक","brand:kn":"ಕೆನರಾ ಬ್ಯಾಂಕ್","brand:pa":"ਕੇਨਰਾ ਬੈਂਕ","brand:pnb":"کینرا بینک","brand:ur":"کینرا بینک","brand:wikidata":"Q2003777","name":"Canara Bank","name:en":"Canara Bank","name:hi":"केनरा बैंक","name:kn":"ಕೆನರಾ ಬ್ಯಾಂಕ್","name:pa":"ਕੇਨਰਾ ਬੈਂਕ","name:pnb":"کینرا بینک","name:ur":"کینرا بینک","operator":"Canara Bank","operator:wikidata":"Q2003777"}},"amenity/atm/centralbankofindia-ad0527":{"name":"Central Bank of India","locationSet":{"include":["in"]},"geometry":["point","vertex"],"matchScore":2,"terms":["central bank of india"],"tags":{"amenity":"atm","brand:wikidata":"Q2007090"},"addTags":{"amenity":"atm","brand":"Central Bank of India","brand:wikidata":"Q2007090","name":"Central Bank of India","operator":"Central Bank of India","operator:wikidata":"Q2007090"}},"amenity/atm/cityunionbank-ad0527":{"name":"City Union Bank","locationSet":{"include":["in"]},"geometry":["point","vertex"],"matchScore":2,"terms":["city union bank","cub","सिटी यूनियन बैंक","சிட்டி யூனியன் வங்கி"],"tags":{"amenity":"atm","brand:wikidata":"Q2040264"},"addTags":{"amenity":"atm","brand":"City Union Bank","brand:en":"City Union Bank","brand:hi":"सिटी यूनियन बैंक","brand:ta":"சிட்டி யூனியன் வங்கி","brand:wikidata":"Q2040264","name":"City Union Bank","name:en":"City Union Bank","name:hi":"सिटी यूनियन बैंक","name:ta":"சிட்டி யூனியன் வங்கி","operator":"City Union Bank","operator:wikidata":"Q2040264","short_name":"CUB"}},"amenity/atm/corporationbank-ad0527":{"name":"Corporation Bank","locationSet":{"include":["in"]},"geometry":["point","vertex"],"matchScore":2,"terms":["corporation bank"],"tags":{"amenity":"atm","brand:wikidata":"Q2003387"},"addTags":{"amenity":"atm","brand":"Corporation Bank","brand:wikidata":"Q2003387","name":"Corporation Bank","operator":"Corporation Bank","operator:wikidata":"Q2003387"}},"amenity/atm/csbbank-ad0527":{"name":"CSB Bank","locationSet":{"include":["in"]},"geometry":["point","vertex"],"matchScore":2,"terms":["catholic syrian bank","csb bank"],"tags":{"amenity":"atm","brand:wikidata":"Q5053244"},"addTags":{"amenity":"atm","brand":"CSB Bank","brand:wikidata":"Q5053244","name":"CSB Bank","official_name":"Catholic Syrian Bank","operator":"CSB Bank","operator:wikidata":"Q5053244"}},"amenity/atm/dhanlaxmibank-ad0527":{"name":"Dhanlaxmi Bank","locationSet":{"include":["in"]},"geometry":["point","vertex"],"matchScore":2,"terms":["dhanlaxmi bank"],"tags":{"amenity":"atm","brand:wikidata":"Q2040440"},"addTags":{"amenity":"atm","brand":"Dhanlaxmi Bank","brand:wikidata":"Q2040440","name":"Dhanlaxmi Bank","operator":"Dhanlaxmi Bank","operator:wikidata":"Q2040440"}},"amenity/atm/equitassmallfinancebank-ad0527":{"name":"Equitas Small Finance Bank","locationSet":{"include":["in"]},"geometry":["point","vertex"],"matchScore":2,"terms":["equitas small finance bank"],"tags":{"amenity":"atm","brand:wikidata":"Q29467249"},"addTags":{"amenity":"atm","brand":"Equitas Small Finance Bank","brand:wikidata":"Q29467249","name":"Equitas Small Finance Bank","operator":"Equitas Small Finance Bank","operator:wikidata":"Q29467249"}},"amenity/atm/esafsmallfinancebank-ad0527":{"name":"ESAF Small Finance Bank","locationSet":{"include":["in"]},"geometry":["point","vertex"],"matchScore":2,"terms":["esaf microfinance","esaf small finance bank"],"tags":{"amenity":"atm","brand:wikidata":"Q28173964"},"addTags":{"amenity":"atm","brand":"ESAF Small Finance Bank","brand:wikidata":"Q28173964","name":"ESAF Small Finance Bank","operator":"ESAF Small Finance Bank","operator:wikidata":"Q28173964"}},"amenity/atm/federalbank-ad0527":{"name":"Federal Bank","locationSet":{"include":["in"]},"geometry":["point","vertex"],"matchScore":2,"terms":["federal bank"],"tags":{"amenity":"atm","brand:wikidata":"Q2044983"},"addTags":{"amenity":"atm","brand":"Federal Bank","brand:wikidata":"Q2044983","name":"Federal Bank","operator":"Federal Bank","operator:wikidata":"Q2044983"}},"amenity/atm/hdfcbank-ad0527":{"name":"HDFC Bank","locationSet":{"include":["in"]},"geometry":["point","vertex"],"matchScore":2,"terms":["hdfc","hdfc bank"],"tags":{"amenity":"atm","brand:wikidata":"Q631047"},"addTags":{"amenity":"atm","brand":"HDFC Bank","brand:wikidata":"Q631047","name":"HDFC Bank","operator":"HDFC Bank","operator:wikidata":"Q631047","short_name":"HDFC"}},"amenity/atm/icicibank-4fa341":{"name":"ICICI Bank","locationSet":{"include":["ca","gb","in"]},"geometry":["point","vertex"],"matchScore":2,"terms":["icici","icici bank"],"tags":{"amenity":"atm","brand:wikidata":"Q1653258"},"addTags":{"amenity":"atm","brand":"ICICI Bank","brand:wikidata":"Q1653258","name":"ICICI Bank","operator":"ICICI Bank","operator:wikidata":"Q1653258","short_name":"ICICI"}},"amenity/atm/idbibank-ad0527":{"name":"IDBI Bank","locationSet":{"include":["in"]},"geometry":["point","vertex"],"matchScore":2,"terms":["idbi","idbi bank"],"tags":{"amenity":"atm","brand:wikidata":"Q3633485"},"addTags":{"amenity":"atm","brand":"IDBI Bank","brand:wikidata":"Q3633485","name":"IDBI Bank","operator":"IDBI Bank","operator:wikidata":"Q3633485","short_name":"IDBI"}},"amenity/atm/idfcfirstbank-ad0527":{"name":"IDFC First Bank","locationSet":{"include":["in"]},"geometry":["point","vertex"],"matchScore":2,"terms":["idfc first bank"],"tags":{"amenity":"atm","brand:wikidata":"Q22031467"},"addTags":{"amenity":"atm","brand":"IDFC First Bank","brand:wikidata":"Q22031467","name":"IDFC First Bank","operator":"IDFC First Bank","operator:wikidata":"Q22031467"}},"amenity/atm/indiapostpaymentsbank-ad0527":{"name":"India Post Payments Bank","locationSet":{"include":["in"]},"geometry":["point","vertex"],"matchScore":2,"terms":["india post payments bank","भारतीय डाक भुगतान बैंक"],"tags":{"amenity":"atm","brand:wikidata":"Q2003302"},"addTags":{"amenity":"atm","brand":"India Post Payments Bank","brand:en":"India Post Payments Bank","brand:hi":"भारतीय डाक भुगतान बैंक","brand:wikidata":"Q2003302","name":"India Post Payments Bank","name:en":"India Post Payments Bank","name:hi":"भारतीय डाक भुगतान बैंक","operator":"India Post Payments Bank","operator:wikidata":"Q2003302"}},"amenity/atm/indianbank-ad0527":{"name":"Indian Bank","locationSet":{"include":["in"]},"geometry":["point","vertex"],"matchScore":2,"terms":["indian bank"],"tags":{"amenity":"atm","brand:wikidata":"Q2003789"},"addTags":{"amenity":"atm","brand":"Indian Bank","brand:wikidata":"Q2003789","name":"Indian Bank","operator":"Indian Bank","operator:wikidata":"Q2003789"}},"amenity/atm/indianoverseasbank-ad0527":{"name":"Indian Overseas Bank","locationSet":{"include":["in"]},"geometry":["point","vertex"],"matchScore":2,"terms":["indian overseas bank"],"tags":{"amenity":"atm","brand:wikidata":"Q2003611"},"addTags":{"amenity":"atm","brand":"Indian Overseas Bank","brand:wikidata":"Q2003611","name":"Indian Overseas Bank","operator":"Indian Overseas Bank","operator:wikidata":"Q2003611"}},"amenity/atm/indusindbank-ad0527":{"name":"IndusInd Bank","locationSet":{"include":["in"]},"geometry":["point","vertex"],"matchScore":2,"terms":["indusind bank"],"tags":{"amenity":"atm","brand:wikidata":"Q2040323"},"addTags":{"amenity":"atm","brand":"IndusInd Bank","brand:wikidata":"Q2040323","name":"IndusInd Bank","operator":"IndusInd Bank","operator:wikidata":"Q2040323"}},"amenity/atm/jammuandkashmirbank-ad0527":{"name":"Jammu and Kashmir Bank","locationSet":{"include":["in"]},"geometry":["point","vertex"],"matchScore":2,"terms":["jammu and kashmir bank"],"tags":{"amenity":"atm","brand:wikidata":"Q2040429"},"addTags":{"amenity":"atm","brand":"Jammu and Kashmir Bank","brand:wikidata":"Q2040429","name":"Jammu and Kashmir Bank","operator":"Jammu and Kashmir Bank","operator:wikidata":"Q2040429"}},"amenity/atm/karnatakabank-ad0527":{"name":"Karnataka Bank","locationSet":{"include":["in"]},"geometry":["point","vertex"],"matchScore":2,"terms":["karnataka bank"],"tags":{"amenity":"atm","brand:wikidata":"Q2042632"},"addTags":{"amenity":"atm","brand":"Karnataka Bank","brand:wikidata":"Q2042632","name":"Karnataka Bank","operator":"Karnataka Bank","operator:wikidata":"Q2042632"}},"amenity/atm/karnatakagraminbank-ad0527":{"name":"Karnataka Gramin Bank","locationSet":{"include":["in"]},"geometry":["point","vertex"],"matchScore":2,"terms":["karnataka gramin bank","kaveri grameena bank"],"tags":{"amenity":"atm","brand:wikidata":"Q24936908"},"addTags":{"amenity":"atm","brand":"Karnataka Gramin Bank","brand:wikidata":"Q24936908","name":"Karnataka Gramin Bank","operator":"Karnataka Gramin Bank","operator:wikidata":"Q24936908"}},"amenity/atm/karnatakavikasgrameenabank-ad0527":{"name":"Karnataka Vikas Grameena Bank","locationSet":{"include":["in"]},"geometry":["point","vertex"],"matchScore":2,"terms":["karnatak vikas grameena bank","karnataka vikas grameena bank","kvg bank"],"tags":{"amenity":"atm","brand:wikidata":"Q19892555"},"addTags":{"amenity":"atm","brand":"Karnataka Vikas Grameena Bank","brand:wikidata":"Q19892555","name":"Karnataka Vikas Grameena Bank","operator":"Karnataka Vikas Grameena Bank","operator:wikidata":"Q19892555","short_name":"KVG Bank"}},"amenity/atm/karurvysyabank-ad0527":{"name":"Karur Vysya Bank","locationSet":{"include":["in"]},"geometry":["point","vertex"],"matchScore":2,"terms":["karur vysya bank"],"tags":{"amenity":"atm","brand:wikidata":"Q6373724"},"addTags":{"amenity":"atm","brand":"Karur Vysya Bank","brand:wikidata":"Q6373724","name":"Karur Vysya Bank","operator":"Karur Vysya Bank","operator:wikidata":"Q6373724"}},"amenity/atm/keralagraminbank-ad0527":{"name":"Kerala Gramin Bank","locationSet":{"include":["in"]},"geometry":["point","vertex"],"matchScore":2,"terms":["kerala gramin bank"],"tags":{"amenity":"atm","brand:wikidata":"Q13674094"},"addTags":{"amenity":"atm","brand":"Kerala Gramin Bank","brand:wikidata":"Q13674094","name":"Kerala Gramin Bank","operator":"Kerala Gramin Bank","operator:wikidata":"Q13674094"}},"amenity/atm/kotakmahindrabank-ad0527":{"name":"Kotak Mahindra Bank","locationSet":{"include":["in"]},"geometry":["point","vertex"],"matchScore":2,"terms":["kotak mahindra bank"],"tags":{"amenity":"atm","brand:wikidata":"Q2040404"},"addTags":{"amenity":"atm","brand":"Kotak Mahindra Bank","brand:wikidata":"Q2040404","name":"Kotak Mahindra Bank","operator":"Kotak Mahindra Bank","operator:wikidata":"Q2040404"}},"amenity/atm/orientalbankofcommerce-ad0527":{"name":"Oriental Bank of Commerce","locationSet":{"include":["in"]},"geometry":["point","vertex"],"matchScore":2,"terms":["oriental bank of commerce"],"tags":{"amenity":"atm","brand:wikidata":"Q367008"},"addTags":{"amenity":"atm","brand":"Oriental Bank of Commerce","brand:wikidata":"Q367008","name":"Oriental Bank of Commerce","operator":"Oriental Bank of Commerce","operator:wikidata":"Q367008"}},"amenity/atm/punjabandsindbank-ad0527":{"name":"Punjab & Sind Bank","locationSet":{"include":["in"]},"geometry":["point","vertex"],"matchScore":2,"terms":["punjab & sind bank","पंजाब एण्ड सिंध बैंक"],"tags":{"amenity":"atm","brand:wikidata":"Q2003302"},"addTags":{"amenity":"atm","brand":"Punjab & Sind Bank","brand:en":"Punjab & Sind Bank","brand:hi":"पंजाब एण्ड सिंध बैंक","brand:wikidata":"Q2003302","name":"Punjab & Sind Bank","name:en":"Punjab & Sind Bank","name:hi":"पंजाब एण्ड सिंध बैंक","operator":"Punjab & Sind Bank","operator:wikidata":"Q2003302"}},"amenity/atm/punjabnationalbank-ad0527":{"name":"Punjab National Bank","locationSet":{"include":["in"]},"geometry":["point","vertex"],"matchScore":2,"terms":["punjab national bank"],"tags":{"amenity":"atm","brand:wikidata":"Q2743499"},"addTags":{"amenity":"atm","brand":"Punjab National Bank","brand:wikidata":"Q2743499","name":"Punjab National Bank","operator":"Punjab National Bank","operator:wikidata":"Q2743499"}},"amenity/atm/rblbank-ad0527":{"name":"RBL Bank","locationSet":{"include":["in"]},"geometry":["point","vertex"],"matchScore":2,"terms":["rbl bank"],"tags":{"amenity":"atm","brand:wikidata":"Q13120398"},"addTags":{"amenity":"atm","brand":"RBL Bank","brand:wikidata":"Q13120398","name":"RBL Bank","operator":"RBL Bank","operator:wikidata":"Q13120398"}},"amenity/atm/southindianbank-ad0527":{"name":"South Indian Bank","locationSet":{"include":["in"]},"geometry":["point","vertex"],"matchScore":2,"terms":["south indian bank"],"tags":{"amenity":"atm","brand:wikidata":"Q2044973"},"addTags":{"amenity":"atm","brand":"South Indian Bank","brand:wikidata":"Q2044973","name":"South Indian Bank","operator":"South Indian Bank","operator:wikidata":"Q2044973"}},"amenity/atm/syndicatebank-ad0527":{"name":"Syndicate Bank","locationSet":{"include":["in"]},"geometry":["point","vertex"],"matchScore":2,"terms":["syndicate bank"],"tags":{"amenity":"atm","brand:wikidata":"Q2004088"},"addTags":{"amenity":"atm","brand":"Syndicate Bank","brand:wikidata":"Q2004088","name":"Syndicate Bank","operator":"Syndicate Bank","operator:wikidata":"Q2004088"}},"amenity/atm/tamilnadmercantilebanklimited-ad0527":{"name":"Tamilnad Mercantile Bank Limited","locationSet":{"include":["in"]},"geometry":["point","vertex"],"matchScore":2,"terms":["tamilnad mercantile bank limited"],"tags":{"amenity":"atm","brand:wikidata":"Q2044991"},"addTags":{"amenity":"atm","brand":"Tamilnad Mercantile Bank Limited","brand:wikidata":"Q2044991","name":"Tamilnad Mercantile Bank Limited","operator":"Tamilnad Mercantile Bank Limited","operator:wikidata":"Q2044991"}},"amenity/atm/ucobank-ad0527":{"name":"UCO Bank","locationSet":{"include":["in"]},"geometry":["point","vertex"],"matchScore":2,"terms":["uco bank"],"tags":{"amenity":"atm","brand:wikidata":"Q2005310"},"addTags":{"amenity":"atm","brand":"UCO Bank","brand:wikidata":"Q2005310","name":"UCO Bank","operator":"UCO Bank","operator:wikidata":"Q2005310"}},"amenity/atm/ujjivansmallfinancebank-ad0527":{"name":"Ujjivan Small Finance Bank","locationSet":{"include":["in"]},"geometry":["point","vertex"],"matchScore":2,"terms":["ujjivan small finance bank"],"tags":{"amenity":"atm","brand:wikidata":"Q42529272"},"addTags":{"amenity":"atm","brand":"Ujjivan Small Finance Bank","brand:wikidata":"Q42529272","name":"Ujjivan Small Finance Bank","operator":"Ujjivan Small Finance Bank","operator:wikidata":"Q42529272"}},"amenity/atm/unionbankofindia-ad0527":{"name":"Union Bank of India","locationSet":{"include":["in"]},"geometry":["point","vertex"],"matchScore":2,"terms":["union bank of india"],"tags":{"amenity":"atm","brand:wikidata":"Q2004078"},"addTags":{"amenity":"atm","brand":"Union Bank of India","brand:wikidata":"Q2004078","name":"Union Bank of India","operator":"Union Bank of India","operator:wikidata":"Q2004078"}},"amenity/atm/unitedbankofindia-ad0527":{"name":"United Bank of India","locationSet":{"include":["in"]},"geometry":["point","vertex"],"matchScore":2,"terms":["united bank of india"],"searchable":false,"tags":{"amenity":"atm","brand:wikidata":"Q2003237"},"addTags":{"amenity":"atm","brand":"United Bank of India","brand:wikidata":"Q2003237","name":"United Bank of India","operator":"United Bank of India","operator:wikidata":"Q2003237"}},"amenity/atm/uob-441a96":{"name":"UOB","locationSet":{"include":["au","bn","ca","cn","gb","hk","id","in","jp","kr","mm","my","ph","sg","th","us","vn"]},"geometry":["point","vertex"],"matchScore":2,"terms":["united overseas bank","uob","大华银行"],"tags":{"amenity":"atm","brand:wikidata":"Q2064074"},"addTags":{"amenity":"atm","brand":"UOB","brand:wikidata":"Q2064074","brand:zh":"大华银行","name":"UOB","name:zh":"大华银行","operator":"UOB","operator:wikidata":"Q2064074"}},"amenity/atm/uttarakhandgraminbank-ad0527":{"name":"Uttarakhand Gramin Bank","locationSet":{"include":["in"]},"geometry":["point","vertex"],"matchScore":2,"terms":["gramin bank","uttarakhand gramin bank"],"tags":{"amenity":"atm","brand:wikidata":"Q29467293"},"addTags":{"amenity":"atm","brand":"Uttarakhand Gramin Bank","brand:wikidata":"Q29467293","name":"Uttarakhand Gramin Bank","operator":"Uttarakhand Gramin Bank","operator:wikidata":"Q29467293"}},"amenity/atm/yesbank-ad0527":{"name":"Yes Bank","locationSet":{"include":["in"]},"geometry":["point","vertex"],"matchScore":2,"terms":["yes bank"],"tags":{"amenity":"atm","brand:wikidata":"Q2040394"},"addTags":{"amenity":"atm","brand":"Yes Bank","brand:wikidata":"Q2040394","name":"Yes Bank","operator":"Yes Bank","operator:wikidata":"Q2040394"}},"amenity/bank/allahabadbank-34f411":{"name":"Allahabad Bank","locationSet":{"include":["in"]},"geometry":["point","area"],"matchScore":2,"terms":["allahabad bank"],"tags":{"amenity":"bank","brand:wikidata":"Q2018840"},"addTags":{"amenity":"bank","brand":"Allahabad Bank","brand:wikidata":"Q2018840","name":"Allahabad Bank"}},"amenity/bank/almoraurbancooperativebanklimited-34f411":{"name":"Almora Urban Cooperative Bank Limited","locationSet":{"include":["in"]},"geometry":["point","area"],"matchScore":2,"terms":["almora urban bank","almora urban cooperative bank","almora urban cooperative bank limited"],"tags":{"amenity":"bank","brand:wikidata":"Q74121721"},"addTags":{"amenity":"bank","brand":"Almora Urban Cooperative Bank Limited","brand:wikidata":"Q74121721","name":"Almora Urban Cooperative Bank Limited"}},"amenity/bank/andhrabank-34f411":{"name":"Andhra Bank","locationSet":{"include":["in"]},"geometry":["point","area"],"matchScore":2,"terms":["andhra bank"],"tags":{"amenity":"bank","brand:wikidata":"Q2003476"},"addTags":{"amenity":"bank","brand":"Andhra Bank","brand:wikidata":"Q2003476","name":"Andhra Bank"}},"amenity/bank/assamgraminvikashbank-34f411":{"name":"Assam Gramin Vikash Bank","locationSet":{"include":["in"]},"geometry":["point","area"],"matchScore":2,"terms":["assam gramin vikash bank"],"tags":{"amenity":"bank","brand:wikidata":"Q24041756"},"addTags":{"amenity":"bank","brand":"Assam Gramin Vikash Bank","brand:wikidata":"Q24041756","name":"Assam Gramin Vikash Bank"}},"amenity/bank/ausmallfinancebank-34f411":{"name":"AU Small Finance Bank","locationSet":{"include":["in"]},"geometry":["point","area"],"matchScore":2,"terms":["au small finance bank"],"tags":{"amenity":"bank","brand:wikidata":"Q48729722"},"addTags":{"amenity":"bank","brand":"AU Small Finance Bank","brand:wikidata":"Q48729722","name":"AU Small Finance Bank"}},"amenity/bank/axisbank-34f411":{"name":"Axis Bank","locationSet":{"include":["in"]},"geometry":["point","area"],"matchScore":2,"terms":["axis bank"],"tags":{"amenity":"bank","brand:wikidata":"Q2003549"},"addTags":{"amenity":"bank","brand":"Axis Bank","brand:wikidata":"Q2003549","name":"Axis Bank"}},"amenity/bank/bandhanbank-34f411":{"name":"Bandhan Bank","locationSet":{"include":["in"]},"geometry":["point","area"],"matchScore":2,"terms":["bandhan bank"],"tags":{"amenity":"bank","brand:wikidata":"Q19882235"},"addTags":{"amenity":"bank","brand":"Bandhan Bank","brand:wikidata":"Q19882235","name":"Bandhan Bank"}},"amenity/bank/bankofmaharashtra-34f411":{"name":"Bank of Maharashtra","locationSet":{"include":["in"]},"geometry":["point","area"],"matchScore":2,"terms":["bank of maharashtra"],"tags":{"amenity":"bank","brand:wikidata":"Q2004304"},"addTags":{"amenity":"bank","brand":"Bank of Maharashtra","brand:wikidata":"Q2004304","name":"Bank of Maharashtra"}},"amenity/bank/canarabank-34f411":{"name":"Canara Bank","locationSet":{"include":["in"]},"geometry":["point","area"],"matchScore":2,"terms":["canara bank","کینرا بینک","केनरा बैंक","ਕੇਨਰਾ ਬੈਂਕ","ಕೆನರಾ ಬ್ಯಾಂಕ್"],"tags":{"amenity":"bank","brand:wikidata":"Q2003777"},"addTags":{"amenity":"bank","brand":"Canara Bank","brand:en":"Canara Bank","brand:hi":"केनरा बैंक","brand:kn":"ಕೆನರಾ ಬ್ಯಾಂಕ್","brand:pa":"ਕੇਨਰਾ ਬੈਂਕ","brand:pnb":"کینرا بینک","brand:ur":"کینرا بینک","brand:wikidata":"Q2003777","name":"Canara Bank","name:en":"Canara Bank","name:hi":"केनरा बैंक","name:kn":"ಕೆನರಾ ಬ್ಯಾಂಕ್","name:pa":"ਕੇਨਰਾ ਬੈਂਕ","name:pnb":"کینرا بینک","name:ur":"کینرا بینک"}},"amenity/bank/centralbankofindia-34f411":{"name":"Central Bank of India","locationSet":{"include":["in"]},"geometry":["point","area"],"matchScore":2,"terms":["central bank of india"],"tags":{"amenity":"bank","brand:wikidata":"Q2007090"},"addTags":{"amenity":"bank","brand":"Central Bank of India","brand:wikidata":"Q2007090","name":"Central Bank of India"}},"amenity/bank/cityunionbank-34f411":{"name":"City Union Bank","locationSet":{"include":["in"]},"geometry":["point","area"],"matchScore":2,"terms":["city union bank","cub","सिटी यूनियन बैंक","சிட்டி யூனியன் வங்கி"],"tags":{"amenity":"bank","brand:wikidata":"Q2040264"},"addTags":{"amenity":"bank","brand":"City Union Bank","brand:en":"City Union Bank","brand:hi":"सिटी यूनियन बैंक","brand:ta":"சிட்டி யூனியன் வங்கி","brand:wikidata":"Q2040264","name":"City Union Bank","name:en":"City Union Bank","name:hi":"सिटी यूनियन बैंक","name:ta":"சிட்டி யூனியன் வங்கி","short_name":"CUB"}},"amenity/bank/corporationbank-34f411":{"name":"Corporation Bank","locationSet":{"include":["in"]},"geometry":["point","area"],"matchScore":2,"terms":["corporation bank"],"tags":{"amenity":"bank","brand:wikidata":"Q2003387"},"addTags":{"amenity":"bank","brand":"Corporation Bank","brand:wikidata":"Q2003387","name":"Corporation Bank"}},"amenity/bank/csbbank-34f411":{"name":"CSB Bank","locationSet":{"include":["in"]},"geometry":["point","area"],"matchScore":2,"terms":["catholic syrian bank","csb bank"],"tags":{"amenity":"bank","brand:wikidata":"Q5053244"},"addTags":{"amenity":"bank","brand":"CSB Bank","brand:wikidata":"Q5053244","name":"CSB Bank","official_name":"Catholic Syrian Bank"}},"amenity/bank/dhanlaxmibank-34f411":{"name":"Dhanlaxmi Bank","locationSet":{"include":["in"]},"geometry":["point","area"],"matchScore":2,"terms":["dhanlaxmi bank"],"tags":{"amenity":"bank","brand:wikidata":"Q2040440"},"addTags":{"amenity":"bank","brand":"Dhanlaxmi Bank","brand:wikidata":"Q2040440","name":"Dhanlaxmi Bank"}},"amenity/bank/equitassmallfinancebank-34f411":{"name":"Equitas Small Finance Bank","locationSet":{"include":["in"]},"geometry":["point","area"],"matchScore":2,"terms":["equitas small finance bank"],"tags":{"amenity":"bank","brand:wikidata":"Q29467249"},"addTags":{"amenity":"bank","brand":"Equitas Small Finance Bank","brand:wikidata":"Q29467249","name":"Equitas Small Finance Bank"}},"amenity/bank/esafsmallfinancebank-34f411":{"name":"ESAF Small Finance Bank","locationSet":{"include":["in"]},"geometry":["point","area"],"matchScore":2,"terms":["esaf microfinance","esaf small finance bank"],"tags":{"amenity":"bank","brand:wikidata":"Q28173964"},"addTags":{"amenity":"bank","brand":"ESAF Small Finance Bank","brand:wikidata":"Q28173964","name":"ESAF Small Finance Bank"}},"amenity/bank/federalbank-34f411":{"name":"Federal Bank","locationSet":{"include":["in"]},"geometry":["point","area"],"matchScore":2,"terms":["federal bank"],"tags":{"amenity":"bank","brand:wikidata":"Q2044983"},"addTags":{"amenity":"bank","brand":"Federal Bank","brand:wikidata":"Q2044983","name":"Federal Bank"}},"amenity/bank/hdfcbank-34f411":{"name":"HDFC Bank","locationSet":{"include":["in"]},"geometry":["point","area"],"matchScore":2,"terms":["hdfc","hdfc bank"],"tags":{"amenity":"bank","brand:wikidata":"Q631047"},"addTags":{"amenity":"bank","brand":"HDFC Bank","brand:wikidata":"Q631047","name":"HDFC Bank","short_name":"HDFC"}},"amenity/bank/icicibank-4f7c25":{"name":"ICICI Bank","locationSet":{"include":["ca","gb","in"]},"geometry":["point","area"],"matchScore":2,"terms":["icici","icici bank"],"tags":{"amenity":"bank","brand:wikidata":"Q1653258"},"addTags":{"amenity":"bank","brand":"ICICI Bank","brand:wikidata":"Q1653258","name":"ICICI Bank","short_name":"ICICI"}},"amenity/bank/idbibank-34f411":{"name":"IDBI Bank","locationSet":{"include":["in"]},"geometry":["point","area"],"matchScore":2,"terms":["idbi","idbi bank"],"tags":{"amenity":"bank","brand:wikidata":"Q3633485"},"addTags":{"amenity":"bank","brand":"IDBI Bank","brand:wikidata":"Q3633485","name":"IDBI Bank","short_name":"IDBI"}},"amenity/bank/idfcfirstbank-34f411":{"name":"IDFC First Bank","locationSet":{"include":["in"]},"geometry":["point","area"],"matchScore":2,"terms":["idfc first bank"],"tags":{"amenity":"bank","brand:wikidata":"Q22031467"},"addTags":{"amenity":"bank","brand":"IDFC First Bank","brand:wikidata":"Q22031467","name":"IDFC First Bank"}},"amenity/bank/indiapostpaymentsbank-34f411":{"name":"India Post Payments Bank","locationSet":{"include":["in"]},"geometry":["point","area"],"matchScore":2,"terms":["india post payments bank","भारतीय डाक भुगतान बैंक"],"tags":{"amenity":"bank","brand:wikidata":"Q2003302"},"addTags":{"amenity":"bank","brand":"India Post Payments Bank","brand:en":"India Post Payments Bank","brand:hi":"भारतीय डाक भुगतान बैंक","brand:wikidata":"Q2003302","name":"India Post Payments Bank","name:en":"India Post Payments Bank","name:hi":"भारतीय डाक भुगतान बैंक"}},"amenity/bank/indianbank-34f411":{"name":"Indian Bank","locationSet":{"include":["in"]},"geometry":["point","area"],"matchScore":2,"terms":["indian bank"],"tags":{"amenity":"bank","brand:wikidata":"Q2003789"},"addTags":{"amenity":"bank","brand":"Indian Bank","brand:wikidata":"Q2003789","name":"Indian Bank"}},"amenity/bank/indianoverseasbank-34f411":{"name":"Indian Overseas Bank","locationSet":{"include":["in"]},"geometry":["point","area"],"matchScore":2,"terms":["indian overseas bank"],"tags":{"amenity":"bank","brand:wikidata":"Q2003611"},"addTags":{"amenity":"bank","brand":"Indian Overseas Bank","brand:wikidata":"Q2003611","name":"Indian Overseas Bank"}},"amenity/bank/indusindbank-34f411":{"name":"IndusInd Bank","locationSet":{"include":["in"]},"geometry":["point","area"],"matchScore":2,"terms":["indusind bank"],"tags":{"amenity":"bank","brand:wikidata":"Q2040323"},"addTags":{"amenity":"bank","brand":"IndusInd Bank","brand:wikidata":"Q2040323","name":"IndusInd Bank"}},"amenity/bank/jammuandkashmirbank-34f411":{"name":"Jammu and Kashmir Bank","locationSet":{"include":["in"]},"geometry":["point","area"],"matchScore":2,"terms":["jammu and kashmir bank"],"tags":{"amenity":"bank","brand:wikidata":"Q2040429"},"addTags":{"amenity":"bank","brand":"Jammu and Kashmir Bank","brand:wikidata":"Q2040429","name":"Jammu and Kashmir Bank"}},"amenity/bank/karnatakabank-34f411":{"name":"Karnataka Bank","locationSet":{"include":["in"]},"geometry":["point","area"],"matchScore":2,"terms":["karnataka bank"],"tags":{"amenity":"bank","brand:wikidata":"Q2042632"},"addTags":{"amenity":"bank","brand":"Karnataka Bank","brand:wikidata":"Q2042632","name":"Karnataka Bank"}},"amenity/bank/karnatakagraminbank-34f411":{"name":"Karnataka Gramin Bank","locationSet":{"include":["in"]},"geometry":["point","area"],"matchScore":2,"terms":["karnataka gramin bank","kaveri grameena bank"],"tags":{"amenity":"bank","brand:wikidata":"Q24936908"},"addTags":{"amenity":"bank","brand":"Karnataka Gramin Bank","brand:wikidata":"Q24936908","name":"Karnataka Gramin Bank"}},"amenity/bank/karnatakavikasgrameenabank-34f411":{"name":"Karnataka Vikas Grameena Bank","locationSet":{"include":["in"]},"geometry":["point","area"],"matchScore":2,"terms":["karnatak vikas grameena bank","karnataka vikas grameena bank","kvg bank"],"tags":{"amenity":"bank","brand:wikidata":"Q19892555"},"addTags":{"amenity":"bank","brand":"Karnataka Vikas Grameena Bank","brand:wikidata":"Q19892555","name":"Karnataka Vikas Grameena Bank","short_name":"KVG Bank"}},"amenity/bank/karurvysyabank-34f411":{"name":"Karur Vysya Bank","locationSet":{"include":["in"]},"geometry":["point","area"],"matchScore":2,"terms":["karur vysya bank"],"tags":{"amenity":"bank","brand:wikidata":"Q6373724"},"addTags":{"amenity":"bank","brand":"Karur Vysya Bank","brand:wikidata":"Q6373724","name":"Karur Vysya Bank"}},"amenity/bank/keralagraminbank-34f411":{"name":"Kerala Gramin Bank","locationSet":{"include":["in"]},"geometry":["point","area"],"matchScore":2,"terms":["kerala gramin bank"],"tags":{"amenity":"bank","brand:wikidata":"Q13674094"},"addTags":{"amenity":"bank","brand":"Kerala Gramin Bank","brand:wikidata":"Q13674094","name":"Kerala Gramin Bank"}},"amenity/bank/kotakmahindrabank-34f411":{"name":"Kotak Mahindra Bank","locationSet":{"include":["in"]},"geometry":["point","area"],"matchScore":2,"terms":["kotak mahindra bank"],"tags":{"amenity":"bank","brand:wikidata":"Q2040404"},"addTags":{"amenity":"bank","brand":"Kotak Mahindra Bank","brand:wikidata":"Q2040404","name":"Kotak Mahindra Bank"}},"amenity/bank/orientalbankofcommerce-34f411":{"name":"Oriental Bank of Commerce","locationSet":{"include":["in"]},"geometry":["point","area"],"matchScore":2,"terms":["oriental bank of commerce"],"tags":{"amenity":"bank","brand:wikidata":"Q367008"},"addTags":{"amenity":"bank","brand":"Oriental Bank of Commerce","brand:wikidata":"Q367008","name":"Oriental Bank of Commerce"}},"amenity/bank/punjabandsindbank-34f411":{"name":"Punjab & Sind Bank","locationSet":{"include":["in"]},"geometry":["point","area"],"matchScore":2,"terms":["punjab & sind bank","पंजाब एण्ड सिंध बैंक"],"tags":{"amenity":"bank","brand:wikidata":"Q2003302"},"addTags":{"amenity":"bank","brand":"Punjab & Sind Bank","brand:en":"Punjab & Sind Bank","brand:hi":"पंजाब एण्ड सिंध बैंक","brand:wikidata":"Q2003302","name":"Punjab & Sind Bank","name:en":"Punjab & Sind Bank","name:hi":"पंजाब एण्ड सिंध बैंक"}},"amenity/bank/punjabnationalbank-34f411":{"name":"Punjab National Bank","locationSet":{"include":["in"]},"geometry":["point","area"],"matchScore":2,"terms":["punjab national bank"],"tags":{"amenity":"bank","brand:wikidata":"Q2743499"},"addTags":{"amenity":"bank","brand":"Punjab National Bank","brand:wikidata":"Q2743499","name":"Punjab National Bank"}},"amenity/bank/rblbank-34f411":{"name":"RBL Bank","locationSet":{"include":["in"]},"geometry":["point","area"],"matchScore":2,"terms":["rbl bank"],"tags":{"amenity":"bank","brand:wikidata":"Q13120398"},"addTags":{"amenity":"bank","brand":"RBL Bank","brand:wikidata":"Q13120398","name":"RBL Bank"}},"amenity/bank/southindianbank-34f411":{"name":"South Indian Bank","locationSet":{"include":["in"]},"geometry":["point","area"],"matchScore":2,"terms":["south indian bank"],"tags":{"amenity":"bank","brand:wikidata":"Q2044973"},"addTags":{"amenity":"bank","brand":"South Indian Bank","brand:wikidata":"Q2044973","name":"South Indian Bank"}},"amenity/bank/syndicatebank-34f411":{"name":"Syndicate Bank","locationSet":{"include":["in"]},"geometry":["point","area"],"matchScore":2,"terms":["syndicate bank"],"tags":{"amenity":"bank","brand:wikidata":"Q2004088"},"addTags":{"amenity":"bank","brand":"Syndicate Bank","brand:wikidata":"Q2004088","name":"Syndicate Bank"}},"amenity/bank/tamilnadmercantilebanklimited-34f411":{"name":"Tamilnad Mercantile Bank Limited","locationSet":{"include":["in"]},"geometry":["point","area"],"matchScore":2,"terms":["tamilnad mercantile bank limited"],"tags":{"amenity":"bank","brand:wikidata":"Q2044991"},"addTags":{"amenity":"bank","brand":"Tamilnad Mercantile Bank Limited","brand:wikidata":"Q2044991","name":"Tamilnad Mercantile Bank Limited"}},"amenity/bank/ucobank-34f411":{"name":"UCO Bank","locationSet":{"include":["in"]},"geometry":["point","area"],"matchScore":2,"terms":["uco bank"],"tags":{"amenity":"bank","brand:wikidata":"Q2005310"},"addTags":{"amenity":"bank","brand":"UCO Bank","brand:wikidata":"Q2005310","name":"UCO Bank"}},"amenity/bank/ujjivansmallfinancebank-34f411":{"name":"Ujjivan Small Finance Bank","locationSet":{"include":["in"]},"geometry":["point","area"],"matchScore":2,"terms":["ujjivan small finance bank"],"tags":{"amenity":"bank","brand:wikidata":"Q42529272"},"addTags":{"amenity":"bank","brand":"Ujjivan Small Finance Bank","brand:wikidata":"Q42529272","name":"Ujjivan Small Finance Bank"}},"amenity/bank/unionbankofindia-34f411":{"name":"Union Bank of India","locationSet":{"include":["in"]},"geometry":["point","area"],"matchScore":2,"terms":["union bank of india"],"tags":{"amenity":"bank","brand:wikidata":"Q2004078"},"addTags":{"amenity":"bank","brand":"Union Bank of India","brand:wikidata":"Q2004078","name":"Union Bank of India"}},"amenity/bank/unitedbankofindia-34f411":{"name":"United Bank of India","locationSet":{"include":["in"]},"geometry":["point","area"],"matchScore":2,"terms":["united bank of india"],"searchable":false,"tags":{"amenity":"bank","brand:wikidata":"Q2003237"},"addTags":{"amenity":"bank","brand":"United Bank of India","brand:wikidata":"Q2003237","name":"United Bank of India"}},"amenity/bank/uob-dadccc":{"name":"UOB","locationSet":{"include":["au","bn","ca","cn","gb","hk","id","in","jp","kr","mm","my","ph","sg","th","us","vn"]},"geometry":["point","area"],"matchScore":2,"terms":["united overseas bank","uob","大华银行"],"tags":{"amenity":"bank","brand:wikidata":"Q2064074"},"addTags":{"amenity":"bank","brand":"UOB","brand:wikidata":"Q2064074","brand:zh":"大华银行","name":"UOB","name:zh":"大华银行"}},"amenity/bank/uttarakhandgraminbank-34f411":{"name":"Uttarakhand Gramin Bank","locationSet":{"include":["in"]},"geometry":["point","area"],"matchScore":2,"terms":["gramin bank","uttarakhand gramin bank"],"tags":{"amenity":"bank","brand:wikidata":"Q29467293"},"addTags":{"amenity":"bank","brand":"Uttarakhand Gramin Bank","brand:wikidata":"Q29467293","name":"Uttarakhand Gramin Bank"}},"amenity/bank/yesbank-34f411":{"name":"Yes Bank","locationSet":{"include":["in"]},"geometry":["point","area"],"matchScore":2,"terms":["yes bank"],"tags":{"amenity":"bank","brand:wikidata":"Q2040394"},"addTags":{"amenity":"bank","brand":"Yes Bank","brand:wikidata":"Q2040394","name":"Yes Bank"}},"amenity/bicycle_rental/yulu-6d1b20":{"name":"Yulu","locationSet":{"include":["in"]},"geometry":["point","vertex","area"],"matchScore":2,"terms":["yulu"],"fields":["name","brand","{amenity/bicycle_rental}"],"tags":{"amenity":"bicycle_rental","brand:wikidata":"Q104871276"},"addTags":{"amenity":"bicycle_rental","brand":"Yulu","brand:wikidata":"Q104871276","network":"Yulu","network:wikidata":"Q104871276","operator":"Yulu"}},"amenity/cafe/coffee_shop/barista-56abeb":{"name":"Barista","locationSet":{"include":["in","lk","mv","np"]},"geometry":["point","area"],"matchScore":2,"terms":["barista"],"reference":{"key":"cuisine","value":"coffee_shop"},"tags":{"amenity":"cafe","brand:wikidata":"Q644735","cuisine":"coffee_shop"},"addTags":{"amenity":"cafe","brand":"Barista","brand:wikidata":"Q644735","cuisine":"coffee_shop","name":"Barista","takeaway":"yes"}},"amenity/cafe/coffee_shop/chaipoint-656fa1":{"name":"Chai Point","locationSet":{"include":["in"]},"geometry":["point","area"],"matchScore":2,"terms":["chai point"],"reference":{"key":"cuisine","value":"coffee_shop"},"tags":{"amenity":"cafe","brand:wikidata":"Q28173415","cuisine":"coffee_shop"},"addTags":{"amenity":"cafe","brand":"Chai Point","brand:wikidata":"Q28173415","cuisine":"coffee_shop","name":"Chai Point","takeaway":"yes"}},"amenity/cafe/coffee_shop/muffinbreak-66b6c2":{"name":"Muffin Break","locationSet":{"include":["au","gb","in","nz"]},"geometry":["point","area"],"matchScore":2,"terms":["muffin break"],"reference":{"key":"cuisine","value":"coffee_shop"},"tags":{"amenity":"cafe","brand:wikidata":"Q16964876","cuisine":"coffee_shop"},"addTags":{"amenity":"cafe","brand":"Muffin Break","brand:wikidata":"Q16964876","cuisine":"coffee_shop","name":"Muffin Break","takeaway":"yes"}},"amenity/childcare/anganwadi-115c62":{"name":"Anganwadi","locationSet":{"include":["in"]},"geometry":["point","area"],"matchScore":2,"terms":["anganavadi","anganawadi","anganawady","anganvadi","anganwadi","آنگن واڑی","आँगनवाडी","ਆਂਗਣਵਾੜੀ"],"tags":{"amenity":"childcare","brand:wikidata":"Q16251231"},"addTags":{"amenity":"childcare","brand":"Anganwadi","brand:en":"Anganwadi","brand:hi":"आँगनवाडी","brand:pa":"ਆਂਗਣਵਾੜੀ","brand:pnb":"آنگن واڑی","brand:ur":"آنگن واڑی","brand:wikidata":"Q16251231","name":"Anganwadi","name:en":"Anganwadi","name:hi":"आँगनवाडी","name:pa":"ਆਂਗਣਵਾੜੀ","name:pnb":"آنگن واڑی","name:ur":"آنگن واڑی"}},"amenity/cinema/inoxleisure-41b2b7":{"name":"INOX Leisure","locationSet":{"include":["in"]},"geometry":["point","area"],"matchScore":2,"terms":["inox","inox leisure","inox movies"],"fields":["name","brand","{amenity/cinema}"],"tags":{"amenity":"cinema","brand:wikidata":"Q5972349"},"addTags":{"amenity":"cinema","brand":"INOX Leisure","brand:wikidata":"Q5972349","name":"INOX Leisure","short_name":"INOX"}},"amenity/cinema/pvrcinemas-41b2b7":{"name":"PVR Cinemas","locationSet":{"include":["in"]},"geometry":["point","area"],"matchScore":2,"terms":["pvr","pvr cinemas"],"fields":["name","brand","{amenity/cinema}"],"tags":{"amenity":"cinema","brand:wikidata":"Q3359908"},"addTags":{"amenity":"cinema","brand":"PVR Cinemas","brand:wikidata":"Q3359908","name":"PVR Cinemas","short_name":"PVR"}},"amenity/fast_food/sandwich/aubonpain-9652cd":{"name":"Au Bon Pain","locationSet":{"include":["in","th","us"]},"geometry":["point","area"],"matchScore":2,"terms":["au bon pain"],"reference":{"key":"cuisine","value":"sandwich"},"tags":{"amenity":"fast_food","brand:wikidata":"Q4818942","cuisine":"sandwich"},"addTags":{"amenity":"fast_food","brand":"Au Bon Pain","brand:wikidata":"Q4818942","cuisine":"sandwich","name":"Au Bon Pain","takeaway":"yes"}},"amenity/fast_food/chicken/dixychicken-d5291b":{"name":"Dixy Chicken","locationSet":{"include":["bn","gb","in","no","nz","pk","sa","sy","us"]},"geometry":["point","area"],"matchScore":2,"terms":["dixy chicken"],"reference":{"key":"cuisine","value":"chicken"},"tags":{"amenity":"fast_food","brand:wikidata":"Q5285003","cuisine":"chicken"},"addTags":{"amenity":"fast_food","brand":"Dixy Chicken","brand:wikidata":"Q5285003","cuisine":"chicken","diet:halal":"yes","name":"Dixy Chicken","takeaway":"yes"}},"amenity/fast_food/golivadapav-aba431":{"name":"Goli Vada Pav","locationSet":{"include":["in"]},"geometry":["point","area"],"matchScore":2,"terms":["goli vada pav","goli vada pav no.1"],"tags":{"amenity":"fast_food","brand:wikidata":"Q5580697"},"addTags":{"alt_name":"Goli Vada Pav No.1","amenity":"fast_food","brand":"Goli Vada Pav","brand:wikidata":"Q5580697","cuisine":"indian","name":"Goli Vada Pav","takeaway":"yes"}},"amenity/fast_food/haldirams-aba431":{"name":"Haldiram's","locationSet":{"include":["in"]},"geometry":["point","area"],"matchScore":2,"terms":["haldiram","haldiram's"],"tags":{"amenity":"fast_food","brand:wikidata":"Q17054442"},"addTags":{"alt_name":"Haldiram","amenity":"fast_food","brand":"Haldiram's","brand:wikidata":"Q17054442","cuisine":"indian","name":"Haldiram's","takeaway":"yes"}},"amenity/fast_food/pizza/hell-6fb486":{"name":"Hell Pizza","locationSet":{"include":["ca","ie","in","kr","nz","uk"]},"geometry":["point","area"],"matchScore":2,"terms":["hell pizza"],"reference":{"key":"cuisine","value":"pizza"},"tags":{"amenity":"fast_food","brand:wikidata":"Q1602607","cuisine":"pizza"},"addTags":{"amenity":"fast_food","brand":"Hell Pizza","brand:wikidata":"Q1602607","cuisine":"pizza","name":"Hell","takeaway":"yes"}},"amenity/fast_food/burger/jumboking-aba431":{"name":"Jumbo King","locationSet":{"include":["in"]},"geometry":["point","area"],"matchScore":2,"terms":["jumbo king"],"reference":{"key":"cuisine","value":"burger"},"tags":{"amenity":"fast_food","brand:wikidata":"Q6310895","cuisine":"burger"},"addTags":{"amenity":"fast_food","brand":"Jumbo King","brand:wikidata":"Q6310895","cuisine":"burger","name":"Jumbo King","takeaway":"yes"}},"amenity/fast_food/kaatizone-aba431":{"name":"KaatiZone","locationSet":{"include":["in"]},"geometry":["point","area"],"matchScore":2,"terms":["kaatizone"],"tags":{"amenity":"fast_food","brand:wikidata":"Q6343638"},"addTags":{"amenity":"fast_food","brand":"KaatiZone","brand:wikidata":"Q6343638","cuisine":"indian","name":"KaatiZone","takeaway":"yes"}},"amenity/fast_food/chicken/kfc-c522e4":{"name":"KFC (India & Pakistan)","locationSet":{"include":["in","pk"]},"geometry":["point","area"],"matchScore":2,"terms":["kentucky fried chicken","kfc","کینٹکی فرائیڈ چکن","کے ایف سی","केएफसी","केंटुकी फ्राइड चिकन","ਕੇਐਫਸੀ","ਕੈਂਟੁਕੀ ਫ੍ਰਾਈਡ ਚਿਕਨ"],"reference":{"key":"cuisine","value":"chicken"},"tags":{"amenity":"fast_food","brand:wikidata":"Q524757","cuisine":"chicken"},"addTags":{"alt_name":"Kentucky Fried Chicken","alt_name:en":"Kentucky Fried Chicken","alt_name:hi":"केंटुकी फ्राइड चिकन","alt_name:pa":"ਕੈਂਟੁਕੀ ਫ੍ਰਾਈਡ ਚਿਕਨ","alt_name:pnb":"کینٹکی فرائیڈ چکن","alt_name:ur":"کینٹکی فرائیڈ چکن","amenity":"fast_food","brand":"KFC","brand:en":"KFC","brand:hi":"केएफसी","brand:pa":"ਕੇਐਫਸੀ","brand:pnb":"کے ایف سی","brand:ur":"کے ایف سی","brand:wikidata":"Q524757","cuisine":"chicken","name":"KFC","name:en":"KFC","name:hi":"केएफसी","name:pa":"ਕੇਐਫਸੀ","name:pnb":"کے ایف سی","name:ur":"کے ایف سی","takeaway":"yes"}},"amenity/fast_food/sandwich/pretamanger-4f61b1":{"name":"Pret A Manger","locationSet":{"include":["ae","cn","de","dk","es","fr","gb","hk","ie","in","nl","pt","sg","us"]},"geometry":["point","area"],"matchScore":2,"terms":["pret","pret a manger"],"reference":{"key":"cuisine","value":"sandwich"},"tags":{"amenity":"fast_food","brand:wikidata":"Q2109109","cuisine":"sandwich"},"addTags":{"amenity":"fast_food","brand":"Pret A Manger","brand:wikidata":"Q2109109","cuisine":"sandwich","name":"Pret A Manger","short_name":"Pret","takeaway":"yes"}},"amenity/fast_food/pizza/smokinjoes-d1dde8":{"name":"Smokin' Joe's","locationSet":{"include":["in","om"]},"geometry":["point","area"],"matchScore":2,"terms":["smokin' joe's"],"reference":{"key":"cuisine","value":"pizza"},"tags":{"amenity":"fast_food","brand:wikidata":"Q7546011","cuisine":"pizza"},"addTags":{"amenity":"fast_food","brand":"Smokin' Joe's","brand:wikidata":"Q7546011","cuisine":"pizza","name":"Smokin' Joe's","takeaway":"yes"}},"amenity/fast_food/chicken/southernfriedchicken-a6761c":{"name":"Southern Fried Chicken","locationSet":{"include":["in","uk"]},"geometry":["point","area"],"matchScore":2,"terms":["southern fried chicken"],"reference":{"key":"cuisine","value":"chicken"},"tags":{"amenity":"fast_food","brand:wikidata":"Q7569934","cuisine":"chicken"},"addTags":{"amenity":"fast_food","brand":"Southern Fried Chicken","brand:wikidata":"Q7569934","cuisine":"chicken","name":"Southern Fried Chicken","takeaway":"yes"}},"amenity/fast_food/wowmomo-aba431":{"name":"Wow! Momo","locationSet":{"include":["in"]},"geometry":["point","area"],"matchScore":2,"terms":["wow! momo"],"tags":{"amenity":"fast_food","brand:wikidata":"Q8037446"},"addTags":{"amenity":"fast_food","brand":"Wow! Momo","brand:wikidata":"Q8037446","cuisine":"momo","name":"Wow! Momo","takeaway":"yes"}},"amenity/fuel/bharatpetroleum-989925":{"name":"Bharat Petroleum","locationSet":{"include":["in"]},"geometry":["point","area"],"matchScore":2,"terms":["bharat petroleum"],"fields":["name","brand","{amenity/fuel}"],"tags":{"amenity":"fuel","brand:wikidata":"Q854826"},"addTags":{"amenity":"fuel","brand":"Bharat Petroleum","brand:wikidata":"Q854826","name":"Bharat Petroleum"}},"amenity/fuel/hp-989925":{"name":"HP","locationSet":{"include":["in"]},"geometry":["point","area"],"matchScore":2,"terms":["hindustan petroleum","hp petrol pump"],"fields":["name","brand","{amenity/fuel}"],"tags":{"amenity":"fuel","brand:wikidata":"Q1619375"},"addTags":{"amenity":"fuel","brand":"Hindustan Petroleum","brand:wikidata":"Q1619375","name":"HP","official_name":"Hindustan Petroleum"}},"amenity/fuel/indianoilpetrolpump-989925":{"name":"Indian Oil Petrol Pump","locationSet":{"include":["in"]},"geometry":["point","area"],"matchScore":2,"terms":["indian oil petrol pump"],"fields":["name","brand","{amenity/fuel}"],"tags":{"amenity":"fuel","brand:wikidata":"Q1289348"},"addTags":{"amenity":"fuel","brand":"Indian Oil Petrol Pump","brand:wikidata":"Q1289348","name":"Indian Oil Petrol Pump"}},"amenity/ice_cream/gelatissimo-17af97":{"name":"Gelatissimo","locationSet":{"include":["au","bd","cn","in","ph","sa","sg"]},"geometry":["point","area"],"matchScore":2,"terms":["gelatissimo"],"tags":{"amenity":"ice_cream","brand:wikidata":"Q105270111"},"addTags":{"amenity":"ice_cream","brand":"Gelatissimo","brand:wikidata":"Q105270111","cuisine":"ice_cream","name":"Gelatissimo","takeaway":"yes"}},"amenity/ice_cream/menchies-411174":{"name":"Menchie's","locationSet":{"include":["ae","bh","bs","ca","cn","gb","in","jp","kw","qa","sa","us"]},"geometry":["point","area"],"matchScore":2,"terms":["menchie's","menchie's frozen yoghurt","menchie's frozen yogurt"],"tags":{"amenity":"ice_cream","brand:wikidata":"Q6816528"},"addTags":{"amenity":"ice_cream","brand":"Menchie's","brand:wikidata":"Q6816528","cuisine":"frozen_yogurt","name":"Menchie's"}},"amenity/ice_cream/naturals-c284d9":{"name":"Naturals","locationSet":{"include":["in"]},"geometry":["point","area"],"matchScore":2,"terms":["naturals"],"tags":{"amenity":"ice_cream","brand:wikidata":"Q24439154"},"addTags":{"amenity":"ice_cream","brand":"Naturals","brand:wikidata":"Q24439154","cuisine":"ice_cream","name":"Naturals"}},"amenity/internet_cafe/akshaya-ec41bc":{"name":"Akshaya","locationSet":{"include":["in"]},"geometry":["point","area"],"matchScore":2,"terms":["akshaya","akshaya center","akshaya centre"],"tags":{"amenity":"internet_cafe","brand:wikidata":"Q99562093"},"addTags":{"amenity":"internet_cafe","brand":"Akshaya","brand:wikidata":"Q99562093","name":"Akshaya"}},"amenity/internet_cafe/commonservicecentres-ec41bc":{"name":"Common Service Centres","locationSet":{"include":["in"]},"geometry":["point","area"],"matchScore":2,"terms":["common service centres"],"tags":{"amenity":"internet_cafe","brand:wikidata":"Q5153481"},"addTags":{"amenity":"internet_cafe","brand":"Common Service Centres","brand:wikidata":"Q5153481","name":"Common Service Centres"}},"amenity/kindergarten/kido-0883b2":{"name":"Kïdo","locationSet":{"include":["ae","gb","hk","in","us"]},"geometry":["area","point"],"matchScore":2,"terms":["kido","kïdo","kïdo international preschool"],"fields":["name","brand","{amenity/kindergarten}"],"tags":{"amenity":"kindergarten","brand:wikidata":"Q104849185"},"addTags":{"alt_name":"Kido","amenity":"kindergarten","brand":"Kïdo","brand:wikidata":"Q104849185","fee":"yes","isced:level":"0","name":"Kïdo","nursery":"yes","official_name":"Kïdo International Preschool","preschool":"yes"}},"amenity/language_school/els-89568f":{"name":"ELS","locationSet":{"include":["ca","in","my","pa","sa","tr","us","vn"]},"geometry":["point","area"],"matchScore":2,"terms":["els","els language centers"],"fields":["name","brand","{amenity/language_school}"],"tags":{"amenity":"language_school","brand:wikidata":"Q5323325"},"addTags":{"amenity":"language_school","brand":"ELS","brand:en":"ELS","brand:wikidata":"Q5323325","language:en":"main","name":"ELS","name:en":"ELS","official_name":"ELS Language Centers","official_name:en":"ELS Language Centers"}},"amenity/pharmacy/apollopharmacy-95192b":{"name":"Apollo Pharmacy","locationSet":{"include":["in"]},"geometry":["point","area"],"matchScore":2,"terms":["apollo pharmacy"],"reference":{"key":"amenity","value":"pharmacy"},"tags":{"amenity":"pharmacy","brand:wikidata":"Q62562612"},"addTags":{"amenity":"pharmacy","brand":"Apollo Pharmacy","brand:wikidata":"Q62562612","healthcare":"pharmacy","name":"Apollo Pharmacy"}},"amenity/pharmacy/janaushadhi-95192b":{"name":"Jan Aushadhi","locationSet":{"include":["in"]},"geometry":["point","area"],"matchScore":2,"terms":["pradhan mantri bharatiya janaushadhi pariyojana kendra"],"reference":{"key":"amenity","value":"pharmacy"},"tags":{"amenity":"pharmacy","brand:wikidata":"Q39058281"},"addTags":{"amenity":"pharmacy","brand":"Pradhan Mantri Bharatiya Janaushadhi Pariyojana Kendra","brand:wikidata":"Q39058281","healthcare":"pharmacy","name":"Jan Aushadhi","official_name":"Pradhan Mantri Bharatiya Janaushadhi Pariyojana Kendra"}},"amenity/pharmacy/medplus-95192b":{"name":"MedPlus","locationSet":{"include":["in"]},"geometry":["point","area"],"matchScore":2,"terms":["medplus"],"reference":{"key":"amenity","value":"pharmacy"},"tags":{"amenity":"pharmacy","brand:wikidata":"Q65684234"},"addTags":{"amenity":"pharmacy","brand":"MedPlus","brand:wikidata":"Q65684234","healthcare":"pharmacy","name":"MedPlus"}},"amenity/pharmacy/neethimedicalstore-95192b":{"name":"Neethi Medical Store","locationSet":{"include":["in"]},"geometry":["point","area"],"matchScore":2,"terms":["neethi medical store"],"reference":{"key":"amenity","value":"pharmacy"},"tags":{"amenity":"pharmacy","brand:wikidata":"Q99960935"},"addTags":{"amenity":"pharmacy","brand":"Neethi Medical Store","brand:wikidata":"Q99960935","healthcare":"pharmacy","name":"Neethi Medical Store"}},"amenity/pharmacy/supplycomedicalstore-95192b":{"name":"Supplyco Medical Store","locationSet":{"include":["in"]},"geometry":["point","area"],"matchScore":2,"terms":["supplyco medical store"],"reference":{"key":"amenity","value":"pharmacy"},"tags":{"amenity":"pharmacy","brand:wikidata":"Q99614176"},"addTags":{"amenity":"pharmacy","brand":"Supplyco Medical Store","brand:wikidata":"Q99614176","healthcare":"pharmacy","name":"Supplyco Medical Store"}},"amenity/pub/toddyshop-fb2db4":{"name":"Toddy Shop","locationSet":{"include":["in"]},"geometry":["point","area"],"matchScore":2,"terms":["toddy shop"],"fields":["name","brand","{amenity/pub}"],"tags":{"amenity":"pub","brand:wikidata":"Q7812761"},"addTags":{"amenity":"pub","brand":"Toddy Shop","brand:wikidata":"Q7812761","drink:palm_wine":"yes","name":"Toddy Shop"}},"amenity/restaurant/indian/indiancoffeehouse-d9e7a3":{"name":"Indian Coffee House","locationSet":{"include":["in"]},"geometry":["point","area"],"matchScore":2,"terms":["indian coffee house"],"reference":{"key":"cuisine","value":"indian"},"tags":{"amenity":"restaurant","brand:wikidata":"Q3595301","cuisine":"coffee_shop;indian"},"addTags":{"amenity":"restaurant","brand":"Indian Coffee House","brand:wikidata":"Q3595301","cuisine":"coffee_shop;indian","name":"Indian Coffee House"}},"amenity/restaurant/nandos-32ebee":{"name":"Nando's","locationSet":{"include":["ae","au","bd","bh","bw","ca","fj","gb","ie","in","mu","my","nz","om","pk","qa","sa","sg","sz","us","za","zm","zw"]},"geometry":["point","area"],"matchScore":2,"terms":["nando's"],"tags":{"amenity":"restaurant","brand:wikidata":"Q3472954"},"addTags":{"amenity":"restaurant","brand":"Nando's","brand:wikidata":"Q3472954","cuisine":"chicken;portuguese","name":"Nando's"}},"amenity/school/jawaharnavodayavidyalaya-198395":{"name":"Jawahar Navodaya Vidyalaya","locationSet":{"include":["in"]},"geometry":["area","point"],"matchScore":2,"terms":["jawahar navodaya vidyalaya"],"fields":["name","brand","{amenity/school}"],"tags":{"amenity":"school","brand:wikidata":"Q2723540"},"addTags":{"amenity":"school","brand":"Jawahar Navodaya Vidyalaya","brand:wikidata":"Q2723540","name":"Jawahar Navodaya Vidyalaya","operator:type":"government_non_profit"}},"amenity/school/kendriyavidyalaya-198395":{"name":"Kendriya Vidyalaya","locationSet":{"include":["in"]},"geometry":["area","point"],"matchScore":2,"terms":["kendriya vidyalaya"],"fields":["name","brand","{amenity/school}"],"tags":{"amenity":"school","brand:wikidata":"Q1156653"},"addTags":{"amenity":"school","brand":"Kendriya Vidyalaya","brand:wikidata":"Q1156653","name":"Kendriya Vidyalaya","operator:type":"government_non_profit"}},"amenity/school/maplebear-89c128":{"name":"Maple Bear","locationSet":{"include":["ae","al","ar","au","bd","bg","br","ca","cn","gt","hk","hr","in","ke","kr","lk","ma","mx","my","np","om","pe","ph","py","ro","rs","sg","th","tk","ua","us","vn"]},"geometry":["area","point"],"matchScore":2,"terms":["maple bear"],"fields":["name","brand","{amenity/school}"],"tags":{"amenity":"school","brand:wikidata":"Q10324823"},"addTags":{"amenity":"school","brand":"Maple Bear","brand:wikidata":"Q10324823","name":"Maple Bear","operator:type":"private"}},"leisure/amusement_arcade/timezone-bbc11e":{"name":"Timezone","locationSet":{"include":["au","id","in","nz","ph","sg","vn"]},"geometry":["point","area"],"matchScore":2,"terms":["timezone"],"tags":{"brand:wikidata":"Q12521502","leisure":"amusement_arcade"},"addTags":{"brand":"Timezone","brand:wikidata":"Q12521502","leisure":"amusement_arcade","name":"Timezone"}},"leisure/fitness_centre/goldsgym-72c4b8":{"name":"Gold's Gym","locationSet":{"include":["ae","ca","in","ph","us"]},"geometry":["point","area"],"matchScore":2,"terms":["gold's gym"],"tags":{"brand:wikidata":"Q1536234","leisure":"fitness_centre"},"addTags":{"brand":"Gold's Gym","brand:wikidata":"Q1536234","leisure":"fitness_centre","name":"Gold's Gym"}},"leisure/fitness_centre/talwalkars-111905":{"name":"Talwalkars","locationSet":{"include":["in"]},"geometry":["point","area"],"matchScore":2,"terms":["talkwalkars"],"tags":{"brand:wikidata":"Q7680402","leisure":"fitness_centre"},"addTags":{"brand":"Talkwalkars","brand:wikidata":"Q7680402","leisure":"fitness_centre","name":"Talwalkars"}},"leisure/trampoline_park/skyzone-746047":{"name":"Sky Zone","locationSet":{"include":["ae","ca","co","gb","gt","in","mx","no","om","pk","sa","us"]},"geometry":["point","area"],"matchScore":2,"terms":["sky zone"],"tags":{"brand:wikidata":"Q7537557","leisure":"trampoline_park"},"addTags":{"brand":"Sky Zone","brand:wikidata":"Q7537557","leisure":"trampoline_park","name":"Sky Zone"}},"office/coworking/awfis-2107c0":{"name":"Awfis","locationSet":{"include":["in"]},"geometry":["point","area"],"matchScore":2,"terms":["awfis"],"tags":{"brand:wikidata":"Q60747757","office":"coworking"},"addTags":{"brand":"Awfis","brand:wikidata":"Q60747757","fee":"yes","name":"Awfis","office":"coworking"}},"office/financial/keralafinancialcorporation-8505f7":{"name":"Kerala Financial Corporation","locationSet":{"include":["in"]},"geometry":["point","area"],"matchScore":2,"terms":["kerala financial corporation","kfc"],"tags":{"brand:wikidata":"Q17064561","office":"financial"},"addTags":{"brand":"Kerala Financial Corporation","brand:wikidata":"Q17064561","name":"Kerala Financial Corporation","office":"financial","short_name":"KFC"}},"office/financial/ksfe-8505f7":{"name":"Kerala State Financial Enterprises","locationSet":{"include":["in"]},"geometry":["point","area"],"matchScore":2,"terms":["kerala state financial enterprises"],"tags":{"brand:wikidata":"Q6393471","office":"financial"},"addTags":{"brand":"Kerala State Financial Enterprises","brand:wikidata":"Q6393471","name":"KSFE","office":"financial","official_name":"Kerala State Financial Enterprises"}},"office/financial/manappuramgeneralfinanceandleasing-8505f7":{"name":"Manappuram General Finance and Leasing","locationSet":{"include":["in"]},"geometry":["point","area"],"matchScore":2,"terms":["manappuram general finance and leasing"],"tags":{"brand:wikidata":"Q6746938","office":"financial"},"addTags":{"brand":"Manappuram General Finance and Leasing","brand:wikidata":"Q6746938","name":"Manappuram General Finance and Leasing","office":"financial"}},"office/financial/muthootfinance-47d4e7":{"name":"Muthoot Finance","locationSet":{"include":["ae","gb","in","us"]},"geometry":["point","area"],"matchScore":2,"terms":["muthoot finance"],"tags":{"brand:wikidata":"Q6943861","office":"financial"},"addTags":{"brand":"Muthoot Finance","brand:wikidata":"Q6943861","name":"Muthoot Finance","office":"financial"}},"office/insurance/hdfclife-9d27b9":{"name":"HDFC Life","locationSet":{"include":["in"]},"geometry":["point","area"],"matchScore":2,"terms":["hdfc life"],"fields":["name","brand","{office/insurance}"],"tags":{"brand:wikidata":"Q5629189","office":"insurance"},"addTags":{"brand":"HDFC Life","brand:wikidata":"Q5629189","name":"HDFC Life","office":"insurance"}},"office/insurance/lifeinsurancecorporation-9d27b9":{"name":"Life Insurance Corporation","locationSet":{"include":["in"]},"geometry":["point","area"],"matchScore":2,"terms":["lic","life insurance corporation"],"fields":["name","brand","{office/insurance}"],"tags":{"brand:wikidata":"Q2767170","office":"insurance"},"addTags":{"brand":"Life Insurance Corporation","brand:wikidata":"Q2767170","name":"Life Insurance Corporation","office":"insurance","short_name":"LIC"}},"office/insurance/maxlifeinsurance-9d27b9":{"name":"Max Life Insurance","locationSet":{"include":["in"]},"geometry":["point","area"],"matchScore":2,"terms":["max life insurance"],"fields":["name","brand","{office/insurance}"],"tags":{"brand:wikidata":"Q6794973","office":"insurance"},"addTags":{"brand":"Max Life Insurance","brand:wikidata":"Q6794973","name":"Max Life Insurance","office":"insurance"}},"office/insurance/nationalinsurancecompany-9d27b9":{"name":"National Insurance Company","locationSet":{"include":["in"]},"geometry":["point","area"],"matchScore":2,"terms":["national insurance company"],"fields":["name","brand","{office/insurance}"],"tags":{"brand:wikidata":"Q6973776","office":"insurance"},"addTags":{"brand":"National Insurance Company","brand:wikidata":"Q6973776","name":"National Insurance Company","office":"insurance"}},"office/insurance/newindiaassurance-9d27b9":{"name":"New India Assurance","locationSet":{"include":["in"]},"geometry":["point","area"],"matchScore":2,"terms":["new india assurance"],"fields":["name","brand","{office/insurance}"],"tags":{"brand:wikidata":"Q13118486","office":"insurance"},"addTags":{"brand":"New India Assurance","brand:wikidata":"Q13118486","name":"New India Assurance","office":"insurance"}},"office/insurance/sbigeneralinsurance-9d27b9":{"name":"SBI General Insurance","locationSet":{"include":["in"]},"geometry":["point","area"],"matchScore":2,"terms":["sbi general insurance"],"fields":["name","brand","{office/insurance}"],"tags":{"brand:wikidata":"Q85798326","office":"insurance"},"addTags":{"brand":"SBI General Insurance","brand:wikidata":"Q85798326","name":"SBI General Insurance","office":"insurance"}},"office/insurance/theorientalinsurancecompany-9d27b9":{"name":"The Oriental Insurance Company","locationSet":{"include":["in"]},"geometry":["point","area"],"matchScore":2,"terms":["the oriental insurance company"],"fields":["name","brand","{office/insurance}"],"tags":{"brand:wikidata":"Q20707811","office":"insurance"},"addTags":{"brand":"The Oriental Insurance Company","brand:wikidata":"Q20707811","name":"The Oriental Insurance Company","office":"insurance"}},"office/insurance/unitedindiainsurancecompany-9d27b9":{"name":"United India Insurance Company","locationSet":{"include":["in"]},"geometry":["point","area"],"matchScore":2,"terms":["united india insurance company"],"fields":["name","brand","{office/insurance}"],"tags":{"brand:wikidata":"Q24952429","office":"insurance"},"addTags":{"brand":"United India Insurance Company","brand:wikidata":"Q24952429","name":"United India Insurance Company","office":"insurance"}},"office/political_party/aamaadmiparty-88c6e5":{"name":"AAP","locationSet":{"include":["in"]},"geometry":["point","area"],"matchScore":2,"terms":["aam aadmi party","aap"],"tags":{"brand:wikidata":"Q129844","office":"political_party"},"addTags":{"brand":"Aam Aadmi Party","brand:wikidata":"Q129844","office":"political_party"}},"office/political_party/bhartiyajantaparty-88c6e5":{"name":"BJP","locationSet":{"include":["in"]},"geometry":["point","area"],"matchScore":2,"terms":["bhartiya janta party","bjp"],"tags":{"brand:wikidata":"Q10230","office":"political_party"},"addTags":{"brand":"Bhartiya Janta Party","brand:wikidata":"Q10230","office":"political_party"}},"office/political_party/indiannationalcongress-88c6e5":{"name":"INC","locationSet":{"include":["in"]},"geometry":["point","area"],"matchScore":2,"terms":["congress party","inc","indian national congress"],"tags":{"brand:wikidata":"Q10225","office":"political_party"},"addTags":{"brand":"Indian National Congress","brand:wikidata":"Q10225","office":"political_party"}},"office/tax_advisor/handrblock-c966c8":{"name":"H&R Block","locationSet":{"include":["au","ca","in","us"]},"geometry":["point","area"],"matchScore":2,"terms":["h&r block","hr block"],"tags":{"brand:wikidata":"Q5627799","office":"tax_advisor"},"addTags":{"brand":"H&R Block","brand:wikidata":"Q5627799","name":"H&R Block","office":"tax_advisor"}},"shop/alcohol/bevco-289791":{"name":"Bevco","locationSet":{"include":["in"]},"geometry":["point","area"],"matchScore":2,"terms":["bevco","kerala state beverages corporation ltd"],"tags":{"brand:wikidata":"Q6393413","shop":"alcohol"},"addTags":{"brand":"Bevco","brand:wikidata":"Q6393413","name":"Bevco","official_name":"Kerala State Beverages Corporation Ltd","shop":"alcohol"}},"shop/bakery/milliescookies-376142":{"name":"Millie's Cookies","locationSet":{"include":["de","eg","fr","gb","hk","in","mt"]},"geometry":["point","area"],"matchScore":2,"terms":["millie's cookies"],"tags":{"brand:wikidata":"Q1935533","shop":"bakery"},"addTags":{"brand":"Millie's Cookies","brand:wikidata":"Q1935533","name":"Millie's Cookies","shop":"bakery"}},"shop/bakery/paul-652955":{"name":"Paul","locationSet":{"include":["ae","az","be","bh","by","ci","cy","cz","eg","es","fr","ga","gb","ge","gr","id","in","jo","jp","kw","kz","lb","lu","ma","mu","my","om","pa","ph","pl","pt","qa","ro","ru","sa","sg","th","tn","tw","ua","us","uz","vn","za"]},"geometry":["point","area"],"matchScore":2,"terms":["paul"],"tags":{"brand:wikidata":"Q3370417","shop":"bakery"},"addTags":{"brand":"Paul","brand:wikidata":"Q3370417","name":"Paul","shop":"bakery"}},"shop/books/crosswordbookstores-be6694":{"name":"Crossword Bookstores","locationSet":{"include":["in"]},"geometry":["point","area"],"matchScore":2,"terms":["crossword bookstores"],"tags":{"brand:wikidata":"Q5188909","shop":"books"},"addTags":{"brand":"Crossword Bookstores","brand:wikidata":"Q5188909","name":"Crossword Bookstores","shop":"books"}},"shop/books/higginbothams-be6694":{"name":"Higginbotham's","locationSet":{"include":["in"]},"geometry":["point","area"],"matchScore":2,"terms":["higginbotham's"],"tags":{"brand:wikidata":"Q1572944","shop":"books"},"addTags":{"brand":"Higginbotham's","brand:wikidata":"Q1572944","name":"Higginbotham's","shop":"books"}},"shop/books/oxfordbookstore-be6694":{"name":"Oxford Bookstore","locationSet":{"include":["in"]},"geometry":["point","area"],"matchScore":2,"terms":["oxford bookstore"],"tags":{"brand:wikidata":"Q7115252","shop":"books"},"addTags":{"brand":"Oxford Bookstore","brand:wikidata":"Q7115252","name":"Oxford Bookstore","shop":"books"}},"shop/car/marutisuzuki-aa55a2":{"name":"Maruti Suzuki","locationSet":{"include":["in"]},"geometry":["point","area"],"matchScore":2,"terms":["maruti suzuki"],"fields":["name","brand","{shop/car}"],"tags":{"brand:wikidata":"Q963718","shop":"car"},"addTags":{"brand":"Maruti Suzuki","brand:wikidata":"Q963718","name":"Maruti Suzuki","shop":"car"}},"shop/car/tata-aa55a2":{"name":"Tata","locationSet":{"include":["in"]},"geometry":["point","area"],"matchScore":2,"terms":["tata","tata motors"],"fields":["name","brand","{shop/car}"],"tags":{"brand:wikidata":"Q188514","shop":"car"},"addTags":{"brand":"Tata","brand:wikidata":"Q188514","name":"Tata","shop":"car"}},"shop/clothes/globus-f8e8b1":{"name":"Globus","locationSet":{"include":["in"]},"geometry":["point","area"],"matchScore":2,"terms":["globus"],"tags":{"brand:wikidata":"Q5571109","shop":"clothes"},"addTags":{"brand":"Globus","brand:wikidata":"Q5571109","name":"Globus","shop":"clothes"}},"shop/confectionery/adyaranandabhavan-abc6d4":{"name":"Adyar Ananda Bhavan","locationSet":{"include":["in"]},"geometry":["point","area"],"matchScore":2,"terms":["adyar ananda bhavan"],"tags":{"brand:wikidata":"Q15178238","shop":"confectionery"},"addTags":{"brand":"Adyar Ananda Bhavan","brand:wikidata":"Q15178238","name":"Adyar Ananda Bhavan","shop":"confectionery"}},"shop/convenience/mavelistore-bb430b":{"name":"Maveli Store","locationSet":{"include":["in"]},"geometry":["point","area"],"matchScore":2,"terms":["maveli store"],"tags":{"brand:wikidata":"Q6794132","shop":"convenience"},"addTags":{"brand":"Maveli Store","brand:wikidata":"Q6794132","name":"Maveli Store","shop":"convenience"}},"shop/convenience/patanjalistore-bb430b":{"name":"Patanjali Store","locationSet":{"include":["in"]},"geometry":["point","area"],"matchScore":2,"terms":["patanjali ayurved"],"tags":{"brand:wikidata":"Q19856023","shop":"convenience"},"addTags":{"brand":"Patanjali Ayurved","brand:wikidata":"Q19856023","name":"Patanjali Store","shop":"convenience"}},"shop/convenience/rationshop-bb430b":{"name":"Ration Shop","locationSet":{"include":["in"]},"geometry":["point","area"],"matchScore":2,"terms":["public distribution system","ration shop"],"tags":{"brand:wikidata":"Q60901","shop":"convenience"},"addTags":{"brand":"Ration Shop","brand:wikidata":"Q60901","name":"Ration Shop","operator":"Public Distribution System","operator:type":"public","operator:wikidata":"Q60901","shop":"convenience"}},"shop/convenience/spencers-bb430b":{"name":"Spencer\u2019s","locationSet":{"include":["in"]},"geometry":["point","area"],"matchScore":2,"terms":["spencer\u2019s"],"tags":{"brand:wikidata":"Q7575959","shop":"convenience"},"addTags":{"brand":"Spencer\u2019s","brand:wikidata":"Q7575959","name":"Spencer\u2019s","shop":"convenience"}},"shop/craft/hobbylobby-3a570b":{"name":"Hobby Lobby","locationSet":{"include":["in","us"]},"geometry":["point","area"],"matchScore":2,"terms":["hobby lobby"],"tags":{"brand:wikidata":"Q5874938","shop":"craft"},"addTags":{"brand":"Hobby Lobby","brand:wikidata":"Q5874938","name":"Hobby Lobby","shop":"craft"}},"shop/dairy/milma-6e9671":{"name":"Milma","locationSet":{"include":["in"]},"geometry":["point","area"],"matchScore":2,"terms":["kerala co-operative milk marketing federation"],"tags":{"brand:wikidata":"Q3532857","shop":"dairy"},"addTags":{"brand":"Kerala Co-operative Milk Marketing Federation","brand:wikidata":"Q3532857","name":"Milma","shop":"dairy"}},"shop/dairy/motherdairy-6e9671":{"name":"Mother Dairy","locationSet":{"include":["in"]},"geometry":["point","area"],"matchScore":2,"terms":["mother dairy"],"tags":{"brand:wikidata":"Q6917320","shop":"dairy"},"addTags":{"brand":"Mother Dairy","brand:wikidata":"Q6917320","name":"Mother Dairy","shop":"dairy"}},"shop/department_store/shoppersstop-d45fb2":{"name":"Shoppers Stop","locationSet":{"include":["in"]},"geometry":["point","area"],"matchScore":2,"terms":["shoppers stop"],"searchable":false,"tags":{"brand:wikidata":"Q7501155","shop":"department_store"},"addTags":{"brand":"Shoppers Stop","brand:wikidata":"Q7501155","name":"Shoppers Stop","shop":"department_store"}},"shop/doityourself/mrdiy-85e32f":{"name":"MR.DIY","locationSet":{"include":["bn","id","in","kn","my","ph","sg","th"]},"geometry":["point","area"],"matchScore":2,"terms":["mr.diy"],"tags":{"brand:wikidata":"Q105044323","shop":"doityourself"},"addTags":{"brand":"MR.DIY","brand:wikidata":"Q105044323","name":"MR.DIY","shop":"doityourself"}},"shop/electrical/rexel-f00824":{"name":"Rexel","locationSet":{"include":["at","au","be","ca","ch","cn","de","es","fi","fr","ie","in","it","lu","me","nl","no","nz","pt","se","si","us"]},"geometry":["point","area"],"matchScore":2,"terms":["rexel"],"tags":{"brand:wikidata":"Q962489","shop":"electrical"},"addTags":{"brand":"Rexel","brand:wikidata":"Q962489","name":"Rexel","shop":"electrical"}},"shop/electronics/cex-75e32e":{"name":"CeX","locationSet":{"include":["au","es","gb","ie","in","it","mx","nl","pl","pt"]},"geometry":["point","area"],"matchScore":2,"terms":["cex"],"tags":{"brand:wikidata":"Q5055676","shop":"electronics"},"addTags":{"brand":"CeX","brand:wikidata":"Q5055676","name":"CeX","shop":"electronics"}},"shop/electronics/reliancedigital-91ea11":{"name":"Reliance Digital","locationSet":{"include":["in"]},"geometry":["point","area"],"matchScore":2,"terms":["reliance digital"],"tags":{"brand:wikidata":"Q7311012","shop":"electronics"},"addTags":{"brand":"Reliance Digital","brand:wikidata":"Q7311012","name":"Reliance Digital","shop":"electronics"}},"shop/electronics/vijaysales-91ea11":{"name":"Vijay Sales","locationSet":{"include":["in"]},"geometry":["point","area"],"matchScore":2,"terms":["vijay sales"],"tags":{"brand:wikidata":"Q7929200","shop":"electronics"},"addTags":{"brand":"Vijay Sales","brand:wikidata":"Q7929200","name":"Vijay Sales","shop":"electronics"}},"shop/hairdresser/marcoaldany-d15f75":{"name":"Marco Aldany","locationSet":{"include":["es","hn","in","ma","mx","pa","pe","pl"]},"geometry":["point","area"],"matchScore":2,"terms":["marco aldany"],"tags":{"brand:wikidata":"Q112095114","shop":"hairdresser"},"addTags":{"brand":"Marco Aldany","brand:wikidata":"Q112095114","name":"Marco Aldany","shop":"hairdresser"}},"shop/jewelry/chemmanurinternationaljewellers-0ef1f6":{"name":"Chemmanur International Jewellers","locationSet":{"include":["ae","in","kw","my","us"]},"geometry":["point","area"],"matchScore":2,"terms":["chemmanur international jewellers"],"tags":{"brand:wikidata":"Q99520996","shop":"jewelry"},"addTags":{"brand":"Chemmanur International Jewellers","brand:wikidata":"Q99520996","name":"Chemmanur International Jewellers","shop":"jewelry"}},"shop/jewelry/josalukkas-96eeb4":{"name":"Jos Alukkas","locationSet":{"include":["in"]},"geometry":["point","area"],"matchScore":2,"terms":["jos alukkas"],"tags":{"brand:wikidata":"Q6279093","shop":"jewelry"},"addTags":{"brand":"Jos Alukkas","brand:wikidata":"Q6279093","name":"Jos Alukkas","shop":"jewelry"}},"shop/jewelry/joscojewellers-96eeb4":{"name":"Josco Jewellers","locationSet":{"include":["in"]},"geometry":["point","area"],"matchScore":2,"terms":["josco jewellers"],"tags":{"brand:wikidata":"Q99521002","shop":"jewelry"},"addTags":{"brand":"Josco Jewellers","brand:wikidata":"Q99521002","name":"Josco Jewellers","shop":"jewelry"}},"shop/jewelry/joyalukkas-534941":{"name":"Joyalukkas","locationSet":{"include":["ae","bh","gb","in","kw","my","om","qa","sa","sg","us"]},"geometry":["point","area"],"matchScore":2,"terms":["joyalukkas"],"tags":{"brand:wikidata":"Q6297357","shop":"jewelry"},"addTags":{"brand":"Joyalukkas","brand:wikidata":"Q6297357","name":"Joyalukkas","shop":"jewelry"}},"shop/jewelry/malabargoldanddiamonds-9fa2ef":{"name":"Malabar Gold and Diamonds","locationSet":{"include":["ae","bh","in","kw","my","om","qa","sa","sg","us"]},"geometry":["point","area"],"matchScore":2,"terms":["malabar gold and diamonds"],"tags":{"brand:wikidata":"Q60748883","shop":"jewelry"},"addTags":{"brand":"Malabar Gold and Diamonds","brand:wikidata":"Q60748883","name":"Malabar Gold and Diamonds","shop":"jewelry"}},"shop/jewelry/pcjeweller-96eeb4":{"name":"PC Jeweller","locationSet":{"include":["in"]},"geometry":["point","area"],"matchScore":2,"terms":["pc jeweller"],"tags":{"brand:wikidata":"Q17082520","shop":"jewelry"},"addTags":{"brand":"PC Jeweller","brand:wikidata":"Q17082520","name":"PC Jeweller","shop":"jewelry"}},"shop/jewelry/tanishq-96eeb4":{"name":"Tanishq","locationSet":{"include":["in"]},"geometry":["point","area"],"matchScore":2,"terms":["tanishq"],"tags":{"brand:wikidata":"Q13117711","shop":"jewelry"},"addTags":{"brand":"Tanishq","brand:wikidata":"Q13117711","name":"Tanishq","shop":"jewelry"}},"shop/leather/hidesign-0fedbd":{"name":"Hidesign","locationSet":{"include":["in"]},"geometry":["point","area"],"matchScore":2,"terms":["hidesign"],"tags":{"brand:wikidata":"Q5752690","shop":"leather"},"addTags":{"brand":"Hidesign","brand:wikidata":"Q5752690","name":"Hidesign","shop":"leather"}},"shop/optician/lenskart-596de2":{"name":"Lenskart","locationSet":{"include":["in"]},"geometry":["point","area"],"matchScore":2,"terms":["lenskart"],"fields":["name","brand","{shop/optician}"],"tags":{"brand:wikidata":"Q17068753","shop":"optician"},"addTags":{"brand":"Lenskart","brand:wikidata":"Q17068753","name":"Lenskart","shop":"optician"}},"shop/supermarket/bigbazaar-9ef8f9":{"name":"Big Bazaar","locationSet":{"include":["in"]},"geometry":["point","area"],"matchScore":2,"terms":["big bazaar"],"tags":{"brand:wikidata":"Q3631008","shop":"supermarket"},"addTags":{"brand":"Big Bazaar","brand:wikidata":"Q3631008","name":"Big Bazaar","shop":"supermarket"}},"shop/supermarket/dmart-9ef8f9":{"name":"DMart","locationSet":{"include":["in"]},"geometry":["point","area"],"matchScore":2,"terms":["dmart"],"tags":{"brand:wikidata":"Q5203271","shop":"supermarket"},"addTags":{"brand":"DMart","brand:wikidata":"Q5203271","name":"DMart","shop":"supermarket"}},"shop/supermarket/marginfreemarket-9ef8f9":{"name":"Margin Free Market","locationSet":{"include":["in"]},"geometry":["point","area"],"matchScore":2,"terms":["margin free market","margin free market pvt ltd"],"tags":{"brand:wikidata":"Q99751436","shop":"supermarket"},"addTags":{"brand":"Margin Free Market","brand:wikidata":"Q99751436","name":"Margin Free Market","official_name":"Margin Free Market Pvt Ltd","shop":"supermarket"}},"shop/supermarket/more-9ef8f9":{"name":"More","locationSet":{"include":["in"]},"geometry":["point","area"],"matchScore":2,"terms":["more"],"tags":{"brand:wikidata":"Q6910891","shop":"supermarket"},"addTags":{"brand":"More","brand:wikidata":"Q6910891","name":"More","shop":"supermarket"}},"shop/supermarket/naturesbasket-9ef8f9":{"name":"Nature's Basket","locationSet":{"include":["in"]},"geometry":["point","area"],"matchScore":2,"terms":["nature's basket"],"tags":{"brand:wikidata":"Q28174237","shop":"supermarket"},"addTags":{"brand":"Nature's Basket","brand:wikidata":"Q28174237","name":"Nature's Basket","shop":"supermarket"}},"shop/supermarket/reliancefresh-9ef8f9":{"name":"Reliance Fresh","locationSet":{"include":["in"]},"geometry":["point","area"],"matchScore":2,"terms":["reliance fresh"],"tags":{"brand:wikidata":"Q7311014","shop":"supermarket"},"addTags":{"brand":"Reliance Fresh","brand:wikidata":"Q7311014","name":"Reliance Fresh","shop":"supermarket"}},"shop/supermarket/supplycosupermarket-9ef8f9":{"name":"Supplyco Super Market","locationSet":{"include":["in"]},"geometry":["point","area"],"matchScore":2,"terms":["supplyco super market"],"tags":{"brand:wikidata":"Q99613456","shop":"supermarket"},"addTags":{"brand":"Supplyco Super Market","brand:wikidata":"Q99613456","name":"Supplyco Super Market","shop":"supermarket"}},"shop/supermarket/trivenisupermarket-9ef8f9":{"name":"Triveni Supermarket","locationSet":{"include":["in"]},"geometry":["point","area"],"matchScore":2,"terms":["triveni supermarket"],"tags":{"brand:wikidata":"Q7844639","shop":"supermarket"},"addTags":{"brand":"Triveni Supermarket","brand:wikidata":"Q7844639","name":"Triveni Supermarket","shop":"supermarket"}},"shop/toys/hamleys-e66b54":{"name":"Hamleys","locationSet":{"include":["gb","in","ru","za"]},"geometry":["point","area"],"matchScore":2,"terms":["hamleys"],"tags":{"brand:wikidata":"Q60299","shop":"toys"},"addTags":{"brand":"Hamleys","brand:wikidata":"Q60299","name":"Hamleys","shop":"toys"}},"tourism/hotel/conrad-ee1a43":{"name":"Conrad Hotels & Resorts","locationSet":{"include":["ae","ca","cn","eg","gb","id","ie","in","jp","kr","mv","pf","ph","pt","sa","sg","th","tr","us"]},"geometry":["point","area"],"matchScore":2,"terms":["conrad"],"fields":["name","brand","{tourism/hotel}"],"tags":{"brand:wikidata":"Q855525","tourism":"hotel"},"addTags":{"brand":"Conrad","brand:wikidata":"Q855525","name":"Conrad","tourism":"hotel"}},"tourism/hotel/countryinnandsuites-aef9ff":{"name":"Country Inn & Suites","locationSet":{"include":["ca","in","us"]},"geometry":["point","area"],"matchScore":2,"terms":["country inn & suites"],"fields":["name","brand","{tourism/hotel}"],"tags":{"brand:wikidata":"Q5177332","tourism":"hotel"},"addTags":{"brand":"Country Inn & Suites","brand:wikidata":"Q5177332","name":"Country Inn & Suites","tourism":"hotel"}},"tourism/hotel/daysinn-a89235":{"name":"Days Inn","locationSet":{"include":["ca","ch","gb","id","in","kr","mx","my","ph","sg","sn","th","us"]},"geometry":["point","area"],"matchScore":2,"terms":["days inn"],"fields":["name","brand","{tourism/hotel}"],"tags":{"brand:wikidata":"Q1047239","tourism":"hotel"},"addTags":{"brand":"Days Inn","brand:wikidata":"Q1047239","name":"Days Inn","tourism":"hotel"}},"tourism/hotel/fairfieldinn-b80dae":{"name":"Fairfield Inn","locationSet":{"include":["ca","cn","id","in","jp","kr","mx","my","sv","us"]},"geometry":["point","area"],"matchScore":2,"terms":["fairfield by marriott","fairfield inn"],"fields":["name","brand","{tourism/hotel}"],"tags":{"brand:wikidata":"Q5430314","tourism":"hotel"},"addTags":{"brand":"Fairfield Inn","brand:wikidata":"Q5430314","name":"Fairfield Inn","official_name":"Fairfield by Marriott","tourism":"hotel"}},"tourism/hotel/marriottexecutiveapartments-b2f419":{"name":"Marriott Executive Apartments","locationSet":{"include":["ae","be","bh","br","cn","et","gb","hu","id","in","kr","kz","pa","sa","th","za"]},"geometry":["point","area"],"matchScore":2,"terms":["marriott executive apartments"],"fields":["name","brand","{tourism/hotel}"],"tags":{"brand:wikidata":"Q72636824","tourism":"hotel"},"addTags":{"brand":"Marriott Executive Apartments","brand:wikidata":"Q72636824","name":"Marriott Executive Apartments","tourism":"hotel"}},"tourism/hotel/oakshotelsresortsandsuites-bc2db3":{"name":"Oaks Hotels","locationSet":{"include":["ae","au","cn","in","nz","qa"]},"geometry":["point","area"],"matchScore":2,"terms":["oaks hotels, resorts & suites"],"fields":["name","brand","{tourism/hotel}"],"tags":{"brand:wikidata":"Q23073772","tourism":"hotel"},"addTags":{"brand":"Oaks Hotels, Resorts & Suites","brand:wikidata":"Q23073772","name":"Oaks Hotels, Resorts & Suites","tourism":"hotel"}},"tourism/hotel/raffles-771760":{"name":"Raffles","locationSet":{"include":["ae","bh","cn","fr","gb","id","in","kh","mv","ph","pl","qa","ru","sa","sc","sg","us"]},"geometry":["point","area"],"matchScore":2,"terms":["raffles"],"fields":["name","brand","{tourism/hotel}"],"tags":{"brand:wikidata":"Q4306661","tourism":"hotel"},"addTags":{"brand":"Raffles","brand:wikidata":"Q4306661","name":"Raffles","tourism":"hotel"}},"amenity/childcare/integratedchilddevelopmentservices-4b0d98":{"name":"Integrated Child Development Services","locationSet":{"include":["in"]},"geometry":["point","area"],"matchScore":2,"terms":["icds","integrated child development services"],"tags":{"amenity":"childcare","operator:wikidata":"Q1428431"},"addTags":{"amenity":"childcare","operator":"Integrated Child Development Services","operator:short":"ICDS","operator:wikidata":"Q1428431"}},"amenity/hospital/apollohospitals-585fc8":{"name":"Apollo Hospitals","locationSet":{"include":["in"]},"geometry":["area","point"],"matchScore":2,"terms":["apollo hospitals"],"fields":["name","operator","{amenity/hospital}"],"reference":{"key":"amenity","value":"hospital"},"tags":{"amenity":"hospital","operator:wikidata":"Q4780321"},"addTags":{"amenity":"hospital","healthcare":"hospital","name":"Apollo Hospitals","operator":"Apollo Hospitals","operator:wikidata":"Q4780321"}},"amenity/hospital/esihospital-585fc8":{"name":"Employees' State Insurance (India)","locationSet":{"include":["in"]},"geometry":["area","point"],"matchScore":2,"terms":["employees' state insurance","esi"],"fields":["name","operator","{amenity/hospital}"],"reference":{"key":"amenity","value":"hospital"},"tags":{"amenity":"hospital","operator:wikidata":"Q3595726"},"addTags":{"amenity":"hospital","healthcare":"hospital","name":"ESI Hospital","operator":"Employees' State Insurance","operator:short":"ESI","operator:wikidata":"Q3595726"}},"amenity/hospital/fortishealthcare-585fc8":{"name":"Fortis Healthcare","locationSet":{"include":["in"]},"geometry":["area","point"],"matchScore":2,"terms":["fortis healthcare"],"fields":["name","operator","{amenity/hospital}"],"reference":{"key":"amenity","value":"hospital"},"tags":{"amenity":"hospital","operator:wikidata":"Q7810035"},"addTags":{"amenity":"hospital","healthcare":"hospital","name":"Fortis Healthcare","operator":"Fortis Healthcare","operator:wikidata":"Q7810035"}},"amenity/police/jammuandkashmirpolice-0bc1d6":{"name":"Jammu and Kashmir Police","locationSet":{"include":["in","pk"]},"geometry":["point","area"],"matchScore":2,"terms":["jammu and kashmir police"],"tags":{"amenity":"police","operator:wikidata":"Q6148022"},"addTags":{"amenity":"police","operator":"Jammu and Kashmir Police","operator:wikidata":"Q6148022"}},"amenity/police/keralapolice-d0526a":{"name":"Kerala Police","locationSet":{"include":["in"]},"geometry":["point","area"],"matchScore":2,"terms":["kerala police","കേരള പോലീസ്"],"tags":{"amenity":"police","operator:wikidata":"Q17064579"},"addTags":{"amenity":"police","operator":"Kerala Police","operator:ml":"കേരള പോലീസ്","operator:wikidata":"Q17064579"}},"amenity/post_box/indiapost-eef7b2":{"name":"India Post","locationSet":{"include":["in"]},"geometry":["point","vertex"],"matchScore":2,"terms":["india post","indian post","indian postal service"],"tags":{"amenity":"post_box","operator:wikidata":"Q3519720"},"addTags":{"amenity":"post_box","operator":"India Post","operator:wikidata":"Q3519720"}},"amenity/post_office/indiapost-45da12":{"name":"India Post","locationSet":{"include":["in"]},"geometry":["point","area"],"matchScore":2,"terms":["india post","indian post","indian postal service"],"fields":["name","operator","{amenity/post_office}"],"tags":{"amenity":"post_office","operator:wikidata":"Q3519720"},"addTags":{"amenity":"post_office","operator":"India Post","operator:wikidata":"Q3519720"}},"amenity/school/departmentofgeneralandhighereducation-224052":{"name":"Department of General and Higher Education","locationSet":{"include":["in"]},"geometry":["area","point"],"matchScore":2,"terms":["department of education","department of general and higher education"],"tags":{"amenity":"school","operator:wikidata":"Q5260320"},"addTags":{"amenity":"school","operator":"Department of General and Higher Education","operator:wikidata":"Q5260320"}},"amenity/school/departmentofprimaryandsecondaryeducation-224052":{"name":"Department of Primary and Secondary Education","locationSet":{"include":["in"]},"geometry":["area","point"],"matchScore":2,"terms":["department of education","department of primary and secondary education"],"tags":{"amenity":"school","operator:wikidata":"Q111467381"},"addTags":{"amenity":"school","operator":"Department of Primary and Secondary Education","operator:wikidata":"Q111467381"}},"amenity/telephone/bsnl-b0ab99":{"name":"BSNL","locationSet":{"include":["in"]},"geometry":["point","vertex"],"matchScore":2,"terms":["bsnl"],"fields":["name","operator","{amenity/telephone}"],"tags":{"amenity":"telephone","operator:wikidata":"Q278834"},"addTags":{"amenity":"telephone","operator":"BSNL","operator:wikidata":"Q278834"}},"leisure/nature_reserve/bruhatbengalurumahanagarapalike-38394d":{"name":"BBMP","locationSet":{"include":["in"]},"geometry":["area","point"],"matchScore":2,"terms":["bbmp","bruhat bengaluru mahanagara palike","ಬೃಹತ್ ಬೆಂಗಳೂರು ಮಹಾನಗರ ಪಾಲಿಕೆ"],"tags":{"leisure":"nature_reserve","operator:wikidata":"Q4978693"},"addTags":{"leisure":"nature_reserve","operator":"ಬೃಹತ್ ಬೆಂಗಳೂರು ಮಹಾನಗರ ಪಾಲಿಕೆ","operator:en":"Bruhat Bengaluru Mahanagara Palike","operator:ka":"ಬೃಹತ್ ಬೆಂಗಳೂರು ಮಹಾನಗರ ಪಾಲಿಕೆ","operator:short":"BBMP","operator:type":"government","operator:wikidata":"Q4978693"}},"leisure/nature_reserve/ccuttackdevelopmentauthority-38394d":{"name":"Cuttack Development Authority","locationSet":{"include":["in"]},"geometry":["area","point"],"matchScore":2,"terms":["ccuttack development authority","cda"],"tags":{"leisure":"nature_reserve","operator:wikidata":"Q5196919"},"addTags":{"leisure":"nature_reserve","operator":"CCuttack Development Authority","operator:short":"CDA","operator:wikidata":"Q5196919"}},"leisure/nature_reserve/jaipurnagarnigam-38394d":{"name":"Jaipur Nagar Nigam","locationSet":{"include":["in"]},"geometry":["area","point"],"matchScore":2,"terms":["jaipur nagar nigam"],"tags":{"leisure":"nature_reserve","operator:wikidata":"Q6124132"},"addTags":{"leisure":"nature_reserve","operator":"Jaipur Nagar Nigam","operator:type":"public","operator:wikidata":"Q6124132"}},"leisure/nature_reserve/kolkatamunicipalcorporation-38394d":{"name":"KMC","locationSet":{"include":["in"]},"geometry":["area","point"],"matchScore":2,"terms":["kmc","kolkata municipal corporation","কলকাতা পৌরসংস্থা"],"tags":{"leisure":"nature_reserve","operator:wikidata":"Q3350560"},"addTags":{"leisure":"nature_reserve","operator":"কলকাতা পৌরসংস্থা","operator:bn":"কলকাতা পৌরসংস্থা","operator:en":"Kolkata Municipal Corporation","operator:short":"KMC","operator:type":"government","operator:wikidata":"Q3350560"}},"leisure/nature_reserve/southdelhimunicipalcorporation-38394d":{"name":"SDMC","locationSet":{"include":["in"]},"geometry":["area","point"],"matchScore":2,"terms":["sdmc","south delhi municipal corporation","south delhi municipal corporation (s.d.m.c.)"],"tags":{"leisure":"nature_reserve","operator:wikidata":"Q17083576"},"addTags":{"leisure":"nature_reserve","operator":"South Delhi Municipal Corporation","operator:short":"SDMC","operator:type":"government","operator:wikidata":"Q17083576"}},"leisure/park/bruhatbengalurumahanagarapalike-d31221":{"name":"BBMP","locationSet":{"include":["in"]},"geometry":["area","point"],"matchScore":2,"terms":["bbmp","bruhat bengaluru mahanagara palike","ಬೃಹತ್ ಬೆಂಗಳೂರು ಮಹಾನಗರ ಪಾಲಿಕೆ"],"tags":{"leisure":"park","operator:wikidata":"Q4978693"},"addTags":{"leisure":"park","operator":"ಬೃಹತ್ ಬೆಂಗಳೂರು ಮಹಾನಗರ ಪಾಲಿಕೆ","operator:en":"Bruhat Bengaluru Mahanagara Palike","operator:ka":"ಬೃಹತ್ ಬೆಂಗಳೂರು ಮಹಾನಗರ ಪಾಲಿಕೆ","operator:short":"BBMP","operator:type":"government","operator:wikidata":"Q4978693"}},"leisure/park/ccuttackdevelopmentauthority-d31221":{"name":"Cuttack Development Authority","locationSet":{"include":["in"]},"geometry":["area","point"],"matchScore":2,"terms":["ccuttack development authority","cda"],"tags":{"leisure":"park","operator:wikidata":"Q5196919"},"addTags":{"leisure":"park","operator":"CCuttack Development Authority","operator:short":"CDA","operator:wikidata":"Q5196919"}},"leisure/park/jaipurnagarnigam-d31221":{"name":"Jaipur Nagar Nigam","locationSet":{"include":["in"]},"geometry":["area","point"],"matchScore":2,"terms":["jaipur nagar nigam"],"tags":{"leisure":"park","operator:wikidata":"Q6124132"},"addTags":{"leisure":"park","operator":"Jaipur Nagar Nigam","operator:type":"public","operator:wikidata":"Q6124132"}},"leisure/park/kolkatamunicipalcorporation-d31221":{"name":"KMC","locationSet":{"include":["in"]},"geometry":["area","point"],"matchScore":2,"terms":["kmc","kolkata municipal corporation","কলকাতা পৌরসংস্থা"],"tags":{"leisure":"park","operator:wikidata":"Q3350560"},"addTags":{"leisure":"park","operator":"কলকাতা পৌরসংস্থা","operator:bn":"কলকাতা পৌরসংস্থা","operator:en":"Kolkata Municipal Corporation","operator:short":"KMC","operator:type":"government","operator:wikidata":"Q3350560"}},"leisure/park/southdelhimunicipalcorporation-d31221":{"name":"SDMC","locationSet":{"include":["in"]},"geometry":["area","point"],"matchScore":2,"terms":["sdmc","south delhi municipal corporation","south delhi municipal corporation (s.d.m.c.)"],"tags":{"leisure":"park","operator:wikidata":"Q17083576"},"addTags":{"leisure":"park","operator":"South Delhi Municipal Corporation","operator:short":"SDMC","operator:type":"government","operator:wikidata":"Q17083576"}},"office/energy_supplier/keralastateelectricityboard-cedd8d":{"name":"Kerala State Electricity Board","locationSet":{"include":["in"]},"geometry":["point","area"],"matchScore":2,"terms":["kerala state electricity board","kseb"],"tags":{"office":"energy_supplier","operator:wikidata":"Q6393422"},"addTags":{"name":"Kerala State Electricity Board","office":"energy_supplier","operator":"Kerala State Electricity Board","operator:wikidata":"Q6393422","short_name":"KSEB"}},"office/energy_supplier/naturgy-e15d8a":{"name":"Naturgy","locationSet":{"include":["ar","au","be","br","cl","cn","cr","de","do","dz","eg","es","fr","gb","ie","in","jm","jo","jp","lu","ma","mx","nl","om","pa","pe","pk","pr","pt","sg"]},"geometry":["point","area"],"matchScore":2,"terms":["naturgy"],"tags":{"office":"energy_supplier","operator:wikidata":"Q474690"},"addTags":{"name":"Naturgy","office":"energy_supplier","operator":"Naturgy","operator:wikidata":"Q474690"}},"power/generator/kochimetro-d7cade":{"name":"Kochi Metro","locationSet":{"include":["in"]},"geometry":["point","vertex","area"],"matchScore":2,"terms":["kochi metro"],"tags":{"operator:wikidata":"Q3522910","power":"generator"},"addTags":{"operator":"Kochi Metro","operator:wikidata":"Q3522910","power":"generator"}},"power/generator/ntpc-d7cade":{"name":"NTPC","locationSet":{"include":["in"]},"geometry":["point","vertex","area"],"matchScore":2,"terms":["ntpc"],"tags":{"operator:wikidata":"Q1967805","power":"generator"},"addTags":{"operator":"NTPC","operator:wikidata":"Q1967805","power":"generator"}},"power/line/kptcl-5c9c82":{"name":"KPTCL","locationSet":{"include":["in"]},"geometry":["line"],"matchScore":2,"terms":["kptcl"],"tags":{"operator:wikidata":"Q17064153","power":"line"},"addTags":{"operator":"KPTCL","operator:wikidata":"Q17064153","power":"line"}},"power/line/kseb-5c9c82":{"name":"KSEB","locationSet":{"include":["in"]},"geometry":["line"],"matchScore":2,"terms":["kseb","state electricity board"],"tags":{"operator:wikidata":"Q6393422","power":"line"},"addTags":{"operator":"KSEB","operator:wikidata":"Q6393422","power":"line"}},"power/line/msetcl-5c9c82":{"name":"MSETCL","locationSet":{"include":["in"]},"geometry":["line"],"matchScore":2,"terms":["msetcl"],"tags":{"operator:wikidata":"Q6733360","power":"line"},"addTags":{"operator":"MSETCL","operator:wikidata":"Q6733360","power":"line"}},"power/line/powergridcorporationofindialtd-5c9c82":{"name":"Power Grid Corporation of India Ltd","locationSet":{"include":["in"]},"geometry":["line"],"matchScore":2,"terms":["power grid corporation of india ltd","powergrid"],"tags":{"operator:wikidata":"Q3400886","power":"line"},"addTags":{"operator":"Power Grid Corporation of India Ltd","operator:wikidata":"Q3400886","power":"line"}},"power/minor_line/kptcl-0db0d2":{"name":"KPTCL","locationSet":{"include":["in"]},"geometry":["line"],"matchScore":2,"terms":["kptcl"],"tags":{"operator:wikidata":"Q17064153","power":"minor_line"},"addTags":{"operator":"KPTCL","operator:wikidata":"Q17064153","power":"minor_line"}},"power/minor_line/kseb-0db0d2":{"name":"KSEB","locationSet":{"include":["in"]},"geometry":["line"],"matchScore":2,"terms":["kseb","state electricity board"],"tags":{"operator:wikidata":"Q6393422","power":"minor_line"},"addTags":{"operator":"KSEB","operator:wikidata":"Q6393422","power":"minor_line"}},"power/minor_line/msetcl-0db0d2":{"name":"MSETCL","locationSet":{"include":["in"]},"geometry":["line"],"matchScore":2,"terms":["msetcl"],"tags":{"operator:wikidata":"Q6733360","power":"minor_line"},"addTags":{"operator":"MSETCL","operator:wikidata":"Q6733360","power":"minor_line"}},"power/minor_line/powergridcorporationofindialtd-0db0d2":{"name":"Power Grid Corporation of India Ltd","locationSet":{"include":["in"]},"geometry":["line"],"matchScore":2,"terms":["power grid corporation of india ltd","powergrid"],"tags":{"operator:wikidata":"Q3400886","power":"minor_line"},"addTags":{"operator":"Power Grid Corporation of India Ltd","operator:wikidata":"Q3400886","power":"minor_line"}},"power/plant/karnatakapowercorporationlimited-bf89c5":{"name":"Karnataka Power Corporation Limited","locationSet":{"include":["in"]},"geometry":["area"],"matchScore":2,"terms":["karnataka power corporation limited"],"tags":{"operator:wikidata":"Q6372867","power":"plant"},"addTags":{"operator":"Karnataka Power Corporation Limited","operator:wikidata":"Q6372867","power":"plant"}},"power/plant/madhyapradeshpowergeneratingcompanylimited-bf89c5":{"name":"Madhya Pradesh Power Generating Company Limited","locationSet":{"include":["in"]},"geometry":["area"],"matchScore":2,"terms":["madhya pradesh power generating company limited"],"tags":{"operator:wikidata":"Q6727604","power":"plant"},"addTags":{"operator":"Madhya Pradesh Power Generating Company Limited","operator:wikidata":"Q6727604","power":"plant"}},"power/plant/maharashtrastatepowergenerationcompany-bf89c5":{"name":"Maharashtra State Power Generation Company","locationSet":{"include":["in"]},"geometry":["area"],"matchScore":2,"terms":["maharashtra state power generation company"],"tags":{"operator:wikidata":"Q97251179","power":"plant"},"addTags":{"operator":"Maharashtra State Power Generation Company","operator:wikidata":"Q97251179","power":"plant"}},"power/plant/ntpc-bf89c5":{"name":"NTPC","locationSet":{"include":["in"]},"geometry":["area"],"matchScore":2,"terms":["ntpc"],"tags":{"operator:wikidata":"Q1967805","power":"plant"},"addTags":{"operator":"NTPC","operator:wikidata":"Q1967805","power":"plant"}},"power/plant/punjabstatepowercorporation-bf89c5":{"name":"Punjab State Power Corporation","locationSet":{"include":["in"]},"geometry":["area"],"matchScore":2,"terms":["pspcl","punjab state electricity board","punjab state power corporation"],"tags":{"operator:wikidata":"Q7260300","power":"plant"},"addTags":{"operator":"Punjab State Power Corporation","operator:short":"PSPCL","operator:wikidata":"Q7260300","power":"plant"}},"power/plant/tangedco-bf89c5":{"name":"TANGEDCO","locationSet":{"include":["in"]},"geometry":["area"],"matchScore":2,"terms":["tangedco"],"tags":{"operator:wikidata":"Q17074901","power":"plant"},"addTags":{"operator":"TANGEDCO","operator:wikidata":"Q17074901","power":"plant"}},"power/plant/telanganastatepowergenerationcorporationlimited-bf89c5":{"name":"Telangana State Power Generation Corporation Limited","locationSet":{"include":["in"]},"geometry":["area"],"matchScore":2,"terms":["telangana state power generation corporation limited","tsgenco"],"tags":{"operator:wikidata":"Q18388424","power":"plant"},"addTags":{"operator":"Telangana State Power Generation Corporation Limited","operator:short":"TSGENCO","operator:wikidata":"Q18388424","power":"plant"}},"power/pole/kptcl-178f76":{"name":"KPTCL","locationSet":{"include":["in"]},"geometry":["point","vertex"],"matchScore":2,"terms":["kptcl"],"tags":{"operator:wikidata":"Q17064153","power":"pole"},"addTags":{"operator":"KPTCL","operator:wikidata":"Q17064153","power":"pole"}},"power/pole/kseb-178f76":{"name":"KSEB","locationSet":{"include":["in"]},"geometry":["point","vertex"],"matchScore":2,"terms":["kseb","state electricity board"],"tags":{"operator:wikidata":"Q6393422","power":"pole"},"addTags":{"operator":"KSEB","operator:wikidata":"Q6393422","power":"pole"}},"power/pole/msetcl-178f76":{"name":"MSETCL","locationSet":{"include":["in"]},"geometry":["point","vertex"],"matchScore":2,"terms":["msetcl"],"tags":{"operator:wikidata":"Q6733360","power":"pole"},"addTags":{"operator":"MSETCL","operator:wikidata":"Q6733360","power":"pole"}},"power/pole/powergridcorporationofindialtd-178f76":{"name":"Power Grid Corporation of India Ltd","locationSet":{"include":["in"]},"geometry":["point","vertex"],"matchScore":2,"terms":["power grid corporation of india ltd","powergrid"],"tags":{"operator:wikidata":"Q3400886","power":"pole"},"addTags":{"operator":"Power Grid Corporation of India Ltd","operator:wikidata":"Q3400886","power":"pole"}},"power/substation/kseb-487ae0":{"name":"KSEB","locationSet":{"include":["in"]},"geometry":["area","point"],"matchScore":2,"terms":["kseb"],"tags":{"operator:wikidata":"Q6393422","power":"substation"},"addTags":{"operator":"KSEB","operator:wikidata":"Q6393422","power":"substation"}},"power/substation/msetcl-487ae0":{"name":"MSETCL","locationSet":{"include":["in"]},"geometry":["area","point"],"matchScore":2,"terms":["msetcl"],"tags":{"operator:wikidata":"Q6733360","power":"substation"},"addTags":{"operator":"MSETCL","operator:wikidata":"Q6733360","power":"substation"}},"power/substation/powergridcorporationofindialtd-487ae0":{"name":"Power Grid Corporation of India Ltd","locationSet":{"include":["in"]},"geometry":["area","point"],"matchScore":2,"terms":["power grid corporation of india ltd","powergrid"],"tags":{"operator:wikidata":"Q3400886","power":"substation"},"addTags":{"operator":"Power Grid Corporation of India Ltd","operator:wikidata":"Q3400886","power":"substation"}},"power/substation/tneb-487ae0":{"name":"TNEB","locationSet":{"include":["in"]},"geometry":["area","point"],"matchScore":2,"terms":["tneb"],"tags":{"operator:wikidata":"Q7670848","power":"substation"},"addTags":{"operator":"TNEB","operator:wikidata":"Q7670848","power":"substation"}},"power/tower/kptcl-b0a0f3":{"name":"KPTCL","locationSet":{"include":["in"]},"geometry":["point","vertex"],"matchScore":2,"terms":["kptcl"],"tags":{"operator:wikidata":"Q17064153","power":"tower"},"addTags":{"operator":"KPTCL","operator:wikidata":"Q17064153","power":"tower"}},"power/tower/kseb-b0a0f3":{"name":"KSEB","locationSet":{"include":["in"]},"geometry":["point","vertex"],"matchScore":2,"terms":["kseb","state electricity board"],"tags":{"operator:wikidata":"Q6393422","power":"tower"},"addTags":{"operator":"KSEB","operator:wikidata":"Q6393422","power":"tower"}},"power/tower/msetcl-b0a0f3":{"name":"MSETCL","locationSet":{"include":["in"]},"geometry":["point","vertex"],"matchScore":2,"terms":["msetcl"],"tags":{"operator:wikidata":"Q6733360","power":"tower"},"addTags":{"operator":"MSETCL","operator:wikidata":"Q6733360","power":"tower"}},"power/tower/powergridcorporationofindialtd-b0a0f3":{"name":"Power Grid Corporation of India Ltd","locationSet":{"include":["in"]},"geometry":["point","vertex"],"matchScore":2,"terms":["power grid corporation of india ltd","powergrid"],"tags":{"operator:wikidata":"Q3400886","power":"tower"},"addTags":{"operator":"Power Grid Corporation of India Ltd","operator:wikidata":"Q3400886","power":"tower"}},"power/transformer/kseb-1b8373":{"name":"KSEB","locationSet":{"include":["in"]},"geometry":["point","vertex"],"matchScore":2,"terms":["kseb"],"tags":{"operator:wikidata":"Q6393422","power":"transformer"},"addTags":{"operator":"KSEB","operator:wikidata":"Q6393422","power":"transformer"}},"power/transformer/msetcl-1b8373":{"name":"MSETCL","locationSet":{"include":["in"]},"geometry":["point","vertex"],"matchScore":2,"terms":["msetcl"],"tags":{"operator:wikidata":"Q6733360","power":"transformer"},"addTags":{"operator":"MSETCL","operator:wikidata":"Q6733360","power":"transformer"}},"power/transformer/powergridcorporationofindialtd-1b8373":{"name":"Power Grid Corporation of India Ltd","locationSet":{"include":["in"]},"geometry":["point","vertex"],"matchScore":2,"terms":["power grid corporation of india ltd","powergrid"],"tags":{"operator:wikidata":"Q3400886","power":"transformer"},"addTags":{"operator":"Power Grid Corporation of India Ltd","operator:wikidata":"Q3400886","power":"transformer"}},"power/transformer/tneb-1b8373":{"name":"TNEB","locationSet":{"include":["in"]},"geometry":["point","vertex"],"matchScore":2,"terms":["tneb"],"tags":{"operator:wikidata":"Q7670848","power":"transformer"},"addTags":{"operator":"TNEB","operator:wikidata":"Q7670848","power":"transformer"}},"type/route/railway/indianrailway-04612b":{"name":"Indian Railway","locationSet":{"include":["in"]},"geometry":["relation"],"matchScore":2,"terms":["indian railway","ir"],"reference":{"key":"route","value":"railway"},"tags":{"operator:wikidata":"Q819425","route":"railway","type":"route"},"addTags":{"operator":"Indian Railway","operator:wikidata":"Q819425","route":"railway","type":"route"}},"telecom/exchange/bsnl-f69aec":{"name":"BSNL","locationSet":{"include":["in"]},"geometry":["point","area"],"matchScore":2,"terms":["bsnl"],"fields":["name","operator","{telecom/exchange}"],"tags":{"operator:wikidata":"Q278834","telecom":"exchange"},"addTags":{"operator":"BSNL","operator:wikidata":"Q278834","telecom":"exchange"}},"public_transport/platform/bus_point/bmtc-9a5bb9":{"name":"BMTC","locationSet":{"include":["in"]},"geometry":["point","vertex"],"matchScore":2,"terms":["bmtc"],"reference":{"key":"public_transport","value":"platform"},"tags":{"bus":"yes","network:wikidata":"Q3345039","public_transport":"platform"},"addTags":{"bus":"yes","highway":"bus_stop","network":"BMTC","network:wikidata":"Q3345039","public_transport":"platform"}},"public_transport/platform/bus_point/punemahanagarparivahanmahamandalltd-9a5bb9":{"name":"Pune Mahanagar Parivahan Mahamandal Ltd","locationSet":{"include":["in"]},"geometry":["point","vertex"],"matchScore":2,"terms":["pune mahanagar parivahan mahamandal ltd"],"reference":{"key":"public_transport","value":"platform"},"tags":{"bus":"yes","network:wikidata":"Q7260109","public_transport":"platform"},"addTags":{"bus":"yes","highway":"bus_stop","network":"Pune Mahanagar Parivahan Mahamandal Ltd","network:wikidata":"Q7260109","public_transport":"platform"}},"public_transport/platform/bus_point/thanemuncipaltransport-9a5bb9":{"name":"Thane Muncipal Transport","locationSet":{"include":["in"]},"geometry":["point","vertex"],"matchScore":2,"terms":["thane muncipal transport"],"reference":{"key":"public_transport","value":"platform"},"tags":{"bus":"yes","network:wikidata":"Q7710243","public_transport":"platform"},"addTags":{"bus":"yes","highway":"bus_stop","network":"Thane Muncipal Transport","network:wikidata":"Q7710243","public_transport":"platform"}},"type/route/bus/bmtc-f6a713":{"name":"BMTC","locationSet":{"include":["in"]},"geometry":["relation"],"matchScore":2,"terms":["bmtc"],"reference":{"key":"route","value":"bus"},"tags":{"network:wikidata":"Q3345039","route":"bus","type":"route"},"addTags":{"network":"BMTC","network:wikidata":"Q3345039","route":"bus","type":"route"}},"type/route/bus/punemahanagarparivahanmahamandalltd-f6a713":{"name":"Pune Mahanagar Parivahan Mahamandal Ltd","locationSet":{"include":["in"]},"geometry":["relation"],"matchScore":2,"terms":["pune mahanagar parivahan mahamandal ltd"],"reference":{"key":"route","value":"bus"},"tags":{"network:wikidata":"Q7260109","route":"bus","type":"route"},"addTags":{"network":"Pune Mahanagar Parivahan Mahamandal Ltd","network:wikidata":"Q7260109","route":"bus","type":"route"}},"type/route/bus/thanemuncipaltransport-f6a713":{"name":"Thane Muncipal Transport","locationSet":{"include":["in"]},"geometry":["relation"],"matchScore":2,"terms":["thane muncipal transport"],"reference":{"key":"route","value":"bus"},"tags":{"network:wikidata":"Q7710243","route":"bus","type":"route"},"addTags":{"network":"Thane Muncipal Transport","network:wikidata":"Q7710243","route":"bus","type":"route"}},"type/route/subway/delhimetro-8f0e69":{"name":"Delhi Metro","locationSet":{"include":["in"]},"geometry":["relation"],"matchScore":2,"terms":["delhi metro","delhi metro rail corporation limited"],"reference":{"key":"route","value":"subway"},"tags":{"network:wikidata":"Q271195","route":"subway","type":"route"},"addTags":{"network":"Delhi Metro","network:wikidata":"Q271195","operator":"Delhi Metro Rail Corporation Limited","operator:wikidata":"Q1029339","route":"subway","type":"route"}},"type/route/train/mumbaisuburbanrailnetwork-7147b7":{"name":"Mumbai Suburban Rail Network","locationSet":{"include":["in"]},"geometry":["relation"],"matchScore":2,"terms":["mumbai suburban rail network"],"reference":{"key":"route","value":"train"},"tags":{"network:wikidata":"Q3273422","route":"train","type":"route"},"addTags":{"network":"Mumbai Suburban Rail Network","network:wikidata":"Q3273422","route":"train","type":"route"}},"type/route/tram/wbtc-2d0dc7":{"name":"WBTC","locationSet":{"include":["in"]},"geometry":["relation"],"matchScore":2,"terms":["calcutta tramways company","ctc","wbtc"],"reference":{"key":"route","value":"tram"},"tags":{"network:wikidata":"Q7984450","route":"tram","type":"route"},"addTags":{"network":"WBTC","network:wikidata":"Q7984450","route":"tram","type":"route"}}}