{"amenity/atm/firststatebank-6d98c2":{"name":"First State Bank (Mississippi)","locationSet":{"include":["us-ms"]},"geometry":["point","vertex"],"matchScore":2,"terms":["first state bank"],"tags":{"amenity":"atm","brand:wikidata":"Q87647452"},"addTags":{"amenity":"atm","brand":"First State Bank","brand:wikidata":"Q87647452","name":"First State Bank","operator":"First State Bank","operator:wikidata":"Q87647452"}},"amenity/atm/hancockwhitney-cfedfe":{"name":"Hancock Whitney","locationSet":{"include":["us-al","us-la","us-ms","us-tx"]},"geometry":["point","vertex"],"matchScore":2,"terms":["hancock whitney"],"tags":{"amenity":"atm","brand:wikidata":"Q5647025"},"addTags":{"amenity":"atm","brand":"Hancock Whitney","brand:wikidata":"Q5647025","name":"Hancock Whitney","operator":"Hancock Whitney","operator:wikidata":"Q5647025"}},"amenity/bank/firststatebank-f6b900":{"name":"First State Bank (Mississippi)","locationSet":{"include":["us-ms"]},"geometry":["point","area"],"matchScore":2,"terms":["first state bank"],"tags":{"amenity":"bank","brand:wikidata":"Q87647452"},"addTags":{"amenity":"bank","brand":"First State Bank","brand:wikidata":"Q87647452","name":"First State Bank"}},"amenity/bank/hancockwhitney-78aa9a":{"name":"Hancock Whitney","locationSet":{"include":["us-al","us-la","us-ms","us-tx"]},"geometry":["point","area"],"matchScore":2,"terms":["hancock whitney"],"tags":{"amenity":"bank","brand:wikidata":"Q5647025"},"addTags":{"amenity":"bank","brand":"Hancock Whitney","brand:wikidata":"Q5647025","name":"Hancock Whitney"}},"amenity/fuel/cefco-7de6f8":{"name":"CEFCO","locationSet":{"include":["us-al","us-fl","us-la","us-ms","us-tx"]},"geometry":["point","area"],"matchScore":2,"terms":["cefco"],"fields":["name","brand","{amenity/fuel}"],"tags":{"amenity":"fuel","brand:wikidata":"Q110209230"},"addTags":{"amenity":"fuel","brand":"CEFCO","brand:wikidata":"Q110209230","name":"CEFCO"}},"shop/convenience/cefco-abc9e1":{"name":"CEFCO","locationSet":{"include":["us-al","us-fl","us-la","us-ms","us-tx"]},"geometry":["point","area"],"matchScore":2,"terms":["cefco"],"tags":{"brand:wikidata":"Q110209230","shop":"convenience"},"addTags":{"amenity":"fuel","brand":"CEFCO","brand:wikidata":"Q110209230","name":"CEFCO","shop":"convenience"}},"amenity/police/mississippihighwaypatrol-6f856a":{"name":"Mississippi Highway Patrol","locationSet":{"include":["us-ms"]},"geometry":["point","area"],"matchScore":2,"terms":["isp","mississippi highway patrol"],"tags":{"amenity":"police","operator:wikidata":"Q6879202"},"addTags":{"amenity":"police","operator":"Mississippi Highway Patrol","operator:short":"ISP","operator:wikidata":"Q6879202"}},"amenity/school/jacksonpublicschools-36719b":{"name":"Jackson Public Schools (Mississippi)","locationSet":{"include":["us-ms"]},"geometry":["area","point"],"matchScore":2,"terms":["jackson public schools","jps"],"tags":{"amenity":"school","operator:wikidata":"Q5646260"},"addTags":{"amenity":"school","operator":"Jackson Public Schools","operator:short":"JPS","operator:type":"public","operator:wikidata":"Q5646260"}},"amenity/school/lamarcountyschooldistrict-36719b":{"name":"Lamar County School District (Mississippi)","locationSet":{"include":["us-ms"]},"geometry":["area","point"],"matchScore":2,"terms":["lamar county school district","lcsd"],"tags":{"amenity":"school","operator:wikidata":"Q17108730"},"addTags":{"amenity":"school","operator":"Lamar County School District","operator:short":"LCSD","operator:type":"public","operator:wikidata":"Q17108730"}},"amenity/school/unioncountyschooldistrict-36719b":{"name":"Union County School District (Mississippi)","locationSet":{"include":["us-ms"]},"geometry":["area","point"],"matchScore":2,"terms":["union county school district"],"tags":{"amenity":"school","operator:wikidata":"Q7885619"},"addTags":{"amenity":"school","operator":"Union County School District","operator:type":"public","operator:wikidata":"Q7885619"}},"leisure/nature_reserve/mississippidepartmentofwildlifefisheriesandparks-ae3bd1":{"name":"MDWFP","locationSet":{"include":["us-ms"]},"geometry":["area","point"],"matchScore":2,"terms":["mdwfp","mississippi department of wildlife, fisheries and parks"],"tags":{"leisure":"nature_reserve","operator:wikidata":"Q6879141"},"addTags":{"leisure":"nature_reserve","operator":"Mississippi Department of Wildlife, Fisheries and Parks","operator:short":"MDWFP","operator:type":"public","operator:wikidata":"Q6879141"}},"leisure/park/mississippidepartmentofwildlifefisheriesandparks-97a1c6":{"name":"MDWFP","locationSet":{"include":["us-ms"]},"geometry":["area","point"],"matchScore":2,"terms":["mdwfp","mississippi department of wildlife, fisheries and parks"],"tags":{"leisure":"park","operator:wikidata":"Q6879141"},"addTags":{"leisure":"park","operator":"Mississippi Department of Wildlife, Fisheries and Parks","operator:short":"MDWFP","operator:type":"public","operator:wikidata":"Q6879141"}}}