{"advertising/totem/engen-be6bfd":{"name":"Engen","locationSet":{"include":["dz","eg","ly","ma","sd","tn","eh","io","bi","km","dj","er","et","tf","ke","mg","mw","mu","yt","mz","re","rw","sc","so","ss","ug","tz","zm","zw","ao","cm","cf","td","cg","cd","gq","ga","st","bw","sz","ls","na","za","bj","bf","cv","ci","gm","gh","gn","gw","lr","ml","mr","ne","ng","sn","sl","tg","sh"]},"geometry":["point","line"],"matchScore":2,"terms":["engen","engen petroleum"],"tags":{"advertising":"totem","brand:wikidata":"Q3054251"},"addTags":{"advertising":"totem","brand":"Engen","brand:wikidata":"Q3054251"}},"advertising/totem/kobil-97f5e9":{"name":"Kobil","locationSet":{"include":["bi","et","ke","rw","tz","ug","zm"]},"geometry":["point","line"],"matchScore":2,"terms":["kobil"],"tags":{"advertising":"totem","brand:wikidata":"Q22906119"},"addTags":{"advertising":"totem","brand":"Kobil","brand:wikidata":"Q22906119"}},"amenity/atm/bankofafrica-daf274":{"name":"Bank of Africa","locationSet":{"include":["bf","bi","bj","cd","ci","dj","et","fr","ke","mg","ml","ne","rw","sn","tg","tz","ug"]},"geometry":["point","vertex"],"matchScore":2,"terms":["bank of africa","boa"],"fields":["name","brand","{amenity/atm}"],"tags":{"amenity":"atm","brand:wikidata":"Q2882627"},"addTags":{"amenity":"atm","brand":"Bank of Africa","brand:wikidata":"Q2882627","operator":"Bank of Africa","operator:wikidata":"Q2882627","short_name":"BOA"}},"amenity/atm/equitybank-624ccc":{"name":"Equity Bank (Uganda)","locationSet":{"include":["ug"]},"geometry":["point","vertex"],"matchScore":2,"terms":["equity bank"],"fields":["name","brand","{amenity/atm}"],"tags":{"amenity":"atm","brand:wikidata":"Q5384668"},"addTags":{"amenity":"atm","brand":"Equity Bank","brand:wikidata":"Q5384668","operator":"Equity Bank","operator:wikidata":"Q5384668"}},"amenity/atm/gtbank-55d972":{"name":"GT Bank","locationSet":{"include":["ci","gb","gh","gm","ke","lr","ng","rw","tz","ug"]},"geometry":["point","vertex"],"matchScore":2,"terms":["gt bank","guaranty trust bank"],"fields":["name","brand","{amenity/atm}"],"tags":{"amenity":"atm","brand:wikidata":"Q579747"},"addTags":{"amenity":"atm","brand":"GT Bank","brand:wikidata":"Q579747","official_name":"Guaranty Trust Bank","operator":"GT Bank","operator:wikidata":"Q579747"}},"amenity/atm/uba-69edd8":{"name":"UBA","locationSet":{"include":["bf","bj","cd","cg","ci","cm","fr","ga","gb","gh","gn","ke","lr","ml","mz","ng","sl","sn","td","tz","ug","us","zm"]},"geometry":["point","vertex"],"matchScore":2,"terms":["uba","united bank for africa"],"fields":["name","brand","{amenity/atm}"],"tags":{"amenity":"atm","brand:wikidata":"Q513457"},"addTags":{"amenity":"atm","brand":"UBA","brand:wikidata":"Q513457","official_name":"United Bank for Africa","operator":"UBA","operator:wikidata":"Q513457"}},"amenity/bank/bankofafrica-dae5c5":{"name":"Bank of Africa","locationSet":{"include":["bf","bi","bj","cd","ci","dj","et","fr","ke","mg","ml","ne","rw","sn","tg","tz","ug"]},"geometry":["point","area"],"matchScore":2,"terms":["bank of africa","boa"],"tags":{"amenity":"bank","brand:wikidata":"Q2882627"},"addTags":{"amenity":"bank","brand":"Bank of Africa","brand:wikidata":"Q2882627","name":"Bank of Africa","short_name":"BOA"}},"amenity/bank/equitybank-72d450":{"name":"Equity Bank (Uganda)","locationSet":{"include":["ug"]},"geometry":["point","area"],"matchScore":2,"terms":["equity bank"],"tags":{"amenity":"bank","brand:wikidata":"Q5384668"},"addTags":{"amenity":"bank","brand":"Equity Bank","brand:wikidata":"Q5384668","name":"Equity Bank"}},"amenity/bank/gtbank-b3c39a":{"name":"GT Bank","locationSet":{"include":["ci","gb","gh","gm","ke","lr","ng","rw","tz","ug"]},"geometry":["point","area"],"matchScore":2,"terms":["gt bank","guaranty trust bank"],"tags":{"amenity":"bank","brand:wikidata":"Q579747"},"addTags":{"amenity":"bank","brand":"GT Bank","brand:wikidata":"Q579747","name":"GT Bank","official_name":"Guaranty Trust Bank"}},"amenity/bank/uba-95540f":{"name":"UBA","locationSet":{"include":["bf","bj","cd","cg","ci","cm","fr","ga","gb","gh","gn","ke","lr","ml","mz","ng","sl","sn","td","tz","ug","us","zm"]},"geometry":["point","area"],"matchScore":2,"terms":["uba","united bank for africa"],"tags":{"amenity":"bank","brand:wikidata":"Q513457"},"addTags":{"amenity":"bank","brand":"UBA","brand:wikidata":"Q513457","name":"UBA","official_name":"United Bank for Africa"}},"amenity/cafe/coffee_shop/javahouse-226f44":{"name":"Java House","locationSet":{"include":["ke","rw","ug"]},"geometry":["point","area"],"matchScore":2,"terms":["java house"],"reference":{"key":"cuisine","value":"coffee_shop"},"tags":{"amenity":"cafe","brand:wikidata":"Q6959786","cuisine":"coffee_shop"},"addTags":{"amenity":"cafe","brand":"Java House","brand:wikidata":"Q6959786","cuisine":"coffee_shop","name":"Java House","takeaway":"yes"}},"amenity/fuel/engen-b7f522":{"name":"Engen","locationSet":{"include":["dz","eg","ly","ma","sd","tn","eh","io","bi","km","dj","er","et","tf","ke","mg","mw","mu","yt","mz","re","rw","sc","so","ss","ug","tz","zm","zw","ao","cm","cf","td","cg","cd","gq","ga","st","bw","sz","ls","na","za","bj","bf","cv","ci","gm","gh","gn","gw","lr","ml","mr","ne","ng","sn","sl","tg","sh"]},"geometry":["point","area"],"matchScore":2,"terms":["engen","engen petroleum"],"fields":["name","brand","{amenity/fuel}"],"tags":{"amenity":"fuel","brand:wikidata":"Q3054251"},"addTags":{"amenity":"fuel","brand":"Engen","brand:wikidata":"Q3054251","name":"Engen"}},"amenity/fuel/kobil-568233":{"name":"Kobil","locationSet":{"include":["bi","et","ke","rw","tz","ug","zm"]},"geometry":["point","area"],"matchScore":2,"terms":["kobil"],"fields":["name","brand","{amenity/fuel}"],"tags":{"amenity":"fuel","brand:wikidata":"Q22906119"},"addTags":{"amenity":"fuel","brand":"Kobil","brand:wikidata":"Q22906119","name":"Kobil"}},"office/financial/oldmutual-38693f":{"name":"Old Mutual","locationSet":{"include":["bw","cn","gh","ke","mw","na","ng","rw","ss","sz","tz","ug","za","zw"]},"geometry":["point","area"],"matchScore":2,"terms":["old mutual"],"tags":{"brand:wikidata":"Q289704","office":"financial"},"addTags":{"brand":"Old Mutual","brand:wikidata":"Q289704","name":"Old Mutual","office":"financial"}},"shop/mobile_phone/airtel-62d34e":{"name":"Airtel","locationSet":{"include":["io","bi","km","dj","er","et","tf","ke","mg","mw","mu","yt","mz","re","rw","sc","so","ss","ug","tz","zm","zw","ao","cm","cf","td","cg","cd","gq","ga","st","bw","sz","ls","na","za","bj","bf","cv","ci","gm","gh","gn","gw","lr","ml","mr","ne","ng","sn","sl","tg","sh","in"]},"geometry":["point","area"],"matchScore":2,"terms":["airtel"],"tags":{"brand:wikidata":"Q854867","shop":"mobile_phone"},"addTags":{"brand":"Airtel","brand:wikidata":"Q854867","name":"Airtel","shop":"mobile_phone"}},"shop/mobile_phone/mtn-fe03c5":{"name":"MTN","locationSet":{"include":["af","bj","bw","cg","ci","cm","gn","gw","ir","lr","ni","rw","sd","ss","sy","ug","ye","za","zm"]},"geometry":["point","area"],"matchScore":2,"terms":["agence mtn","mtn"],"tags":{"brand:wikidata":"Q1813361","shop":"mobile_phone"},"addTags":{"brand":"MTN","brand:wikidata":"Q1813361","name":"MTN","shop":"mobile_phone"}},"shop/supermarket/shoprite-56f959":{"name":"Shoprite (Africa)","locationSet":{"include":["ao","bw","cd","gh","ls","mg","mu","mw","mz","na","ng","sz","ug","za","zm"]},"geometry":["point","area"],"matchScore":2,"terms":["shoprite"],"tags":{"brand:wikidata":"Q1857639","shop":"supermarket"},"addTags":{"brand":"Shoprite","brand:wikidata":"Q1857639","name":"Shoprite","shop":"supermarket"}},"tourism/hotel/proteahotel-dc927c":{"name":"Protea Hotel","locationSet":{"include":["bw","dz","mw","na","ng","tz","ug","za","zm"]},"geometry":["point","area"],"matchScore":2,"terms":["protea hotel"],"fields":["name","brand","{tourism/hotel}"],"tags":{"brand:wikidata":"Q17092570","tourism":"hotel"},"addTags":{"brand":"Protea Hotel","brand:wikidata":"Q17092570","name":"Protea Hotel","tourism":"hotel"}},"tourism/hotel/serenahotels-b76fe0":{"name":"Serena Hotels","locationSet":{"include":["af","cd","ke","pk","rw","tj","tz","ug"]},"geometry":["point","area"],"matchScore":2,"terms":["serena hotels"],"fields":["name","brand","{tourism/hotel}"],"tags":{"brand:wikidata":"Q7453121","tourism":"hotel"},"addTags":{"brand":"Serena Hotels","brand:wikidata":"Q7453121","name":"Serena Hotels","tourism":"hotel"}},"amenity/hospital/ministryofhealth-14c7e1":{"name":"Ministry of Health (Uganda)","locationSet":{"include":["ug"]},"geometry":["area","point"],"matchScore":2,"terms":["ministry of health","moh"],"fields":["name","operator","{amenity/hospital}"],"reference":{"key":"amenity","value":"hospital"},"tags":{"amenity":"hospital","operator:wikidata":"Q28223289"},"addTags":{"amenity":"hospital","healthcare":"hospital","operator":"Ministry of Health","operator:wikidata":"Q28223289"}},"amenity/school/churchofuganda-74bde0":{"name":"Church of Uganda","locationSet":{"include":["ug"]},"geometry":["area","point"],"matchScore":2,"terms":["church of uganda"],"tags":{"amenity":"school","operator:wikidata":"Q1723759"},"addTags":{"amenity":"school","operator":"Church of Uganda","operator:type":"religious","operator:wikidata":"Q1723759"}},"man_made/mast/communication/mtn-a5a5e8":{"name":"MTN","locationSet":{"include":["af","bj","bw","cg","ci","cm","gn","gw","ir","lr","ni","rw","sd","ss","sy","ug","ye","za","zm"]},"geometry":["point","vertex"],"matchScore":2,"terms":["agence mtn","mtn"],"reference":{"key":"tower:type","value":"communication"},"tags":{"man_made":"mast","operator:wikidata":"Q1813361","tower:type":"communication"},"addTags":{"man_made":"mast","operator":"MTN","operator:wikidata":"Q1813361","tower:type":"communication"}},"man_made/tower/communication/mtn-a1bc20":{"name":"MTN","locationSet":{"include":["af","bj","bw","cg","ci","cm","gn","gw","ir","lr","ni","rw","sd","ss","sy","ug","ye","za","zm"]},"geometry":["point","vertex","area"],"matchScore":2,"terms":["agence mtn","mtn"],"reference":{"key":"tower:type","value":"communication"},"tags":{"man_made":"tower","operator:wikidata":"Q1813361","tower:type":"communication"},"addTags":{"man_made":"tower","operator":"MTN","operator:wikidata":"Q1813361","tower:type":"communication"}}}