{"advertising/totem/engen-be6bfd":{"name":"Engen","locationSet":{"include":["dz","eg","ly","ma","sd","tn","eh","io","bi","km","dj","er","et","tf","ke","mg","mw","mu","yt","mz","re","rw","sc","so","ss","ug","tz","zm","zw","ao","cm","cf","td","cg","cd","gq","ga","st","bw","sz","ls","na","za","bj","bf","cv","ci","gm","gh","gn","gw","lr","ml","mr","ne","ng","sn","sl","tg","sh"]},"geometry":["point","line"],"matchScore":2,"terms":["engen","engen petroleum"],"tags":{"advertising":"totem","brand:wikidata":"Q3054251"},"addTags":{"advertising":"totem","brand":"Engen","brand:wikidata":"Q3054251"}},"advertising/totem/mrs-9410e5":{"name":"MRS","locationSet":{"include":["bj","cm","gh","ng","tg"]},"geometry":["point","line"],"matchScore":2,"terms":["mrs"],"tags":{"advertising":"totem","brand:wikidata":"Q56274919"},"addTags":{"advertising":"totem","brand":"MRS","brand:wikidata":"Q56274919"}},"amenity/atm/attijariwafabank-e568eb":{"name":"Attijariwafa Bank (التجاري وفا بنك)","locationSet":{"include":["ae","be","bf","bj","ca","cd","cg","ch","ci","cm","eg","es","fr","ga","gb","it","ma","mr","nl","sa","sn","tg","tn"]},"geometry":["point","vertex"],"matchScore":2,"terms":["attijariwafa bank","attijariwafa bank التجاري وفا بنك","التجاري وفا بنك"],"fields":["name","brand","{amenity/atm}"],"tags":{"amenity":"atm","brand:wikidata":"Q758052"},"addTags":{"amenity":"atm","brand":"Attijariwafa Bank","brand:ar":"التجاري وفا بنك","brand:en":"Attijariwafa Bank","brand:wikidata":"Q758052","name:ar":"التجاري وفا بنك","name:en":"Attijariwafa Bank","operator":"Attijariwafa Bank","operator:wikidata":"Q758052"}},"amenity/atm/bankofafrica-0517a4":{"name":"Bank of Africa","locationSet":{"include":["bf","bi","bj","cd","ci","dj","et","fr","gh","ke","mg","ml","ne","rw","sn","tg","tz","ug"]},"geometry":["point","vertex"],"matchScore":2,"terms":["bank of africa","boa"],"fields":["name","brand","{amenity/atm}"],"tags":{"amenity":"atm","brand:wikidata":"Q2882627"},"addTags":{"amenity":"atm","brand":"Bank of Africa","brand:wikidata":"Q2882627","operator":"Bank of Africa","operator:wikidata":"Q2882627","short_name":"BOA"}},"amenity/atm/banqueatlantique-d61c57":{"name":"Banque Atlantique","locationSet":{"include":["bf","bj","ci","cm","ml","ne","sn","tg"]},"geometry":["point","vertex"],"matchScore":2,"terms":["banque atlantique"],"fields":["name","brand","{amenity/atm}"],"tags":{"amenity":"atm","brand:wikidata":"Q2882890"},"addTags":{"amenity":"atm","brand":"Banque Atlantique","brand:wikidata":"Q2882890","operator":"Banque Atlantique","operator:wikidata":"Q2882890"}},"amenity/bank/attijariwafabank-c1cae6":{"name":"Attijariwafa Bank (التجاري وفا بنك)","locationSet":{"include":["ae","be","bf","bj","ca","cd","cg","ch","ci","cm","eg","es","fr","ga","gb","it","ma","mr","nl","sa","sn","tg","tn"]},"geometry":["point","area"],"matchScore":2,"terms":["attijariwafa bank","attijariwafa bank التجاري وفا بنك","التجاري وفا بنك"],"tags":{"amenity":"bank","brand:wikidata":"Q758052"},"addTags":{"amenity":"bank","brand":"Attijariwafa Bank","brand:ar":"التجاري وفا بنك","brand:en":"Attijariwafa Bank","brand:wikidata":"Q758052","name:ar":"التجاري وفا بنك","name:en":"Attijariwafa Bank"}},"amenity/bank/bankofafrica-0bcfcb":{"name":"Bank of Africa","locationSet":{"include":["bf","bi","bj","cd","ci","dj","et","fr","gh","ke","mg","ml","ne","rw","sn","tg","tz","ug"]},"geometry":["point","area"],"matchScore":2,"terms":["bank of africa","boa"],"tags":{"amenity":"bank","brand:wikidata":"Q2882627"},"addTags":{"amenity":"bank","brand":"Bank of Africa","brand:wikidata":"Q2882627","name":"Bank of Africa","short_name":"BOA"}},"amenity/bank/banqueatlantique-dc0023":{"name":"Banque Atlantique","locationSet":{"include":["bf","bj","ci","cm","ml","ne","sn","tg"]},"geometry":["point","area"],"matchScore":2,"terms":["banque atlantique"],"tags":{"amenity":"bank","brand:wikidata":"Q2882890"},"addTags":{"amenity":"bank","brand":"Banque Atlantique","brand:wikidata":"Q2882890","name":"Banque Atlantique"}},"amenity/fuel/engen-b7f522":{"name":"Engen","locationSet":{"include":["dz","eg","ly","ma","sd","tn","eh","io","bi","km","dj","er","et","tf","ke","mg","mw","mu","yt","mz","re","rw","sc","so","ss","ug","tz","zm","zw","ao","cm","cf","td","cg","cd","gq","ga","st","bw","sz","ls","na","za","bj","bf","cv","ci","gm","gh","gn","gw","lr","ml","mr","ne","ng","sn","sl","tg","sh"]},"geometry":["point","area"],"matchScore":2,"terms":["engen","engen petroleum"],"fields":["name","brand","{amenity/fuel}"],"tags":{"amenity":"fuel","brand:wikidata":"Q3054251"},"addTags":{"amenity":"fuel","brand":"Engen","brand:wikidata":"Q3054251","name":"Engen"}},"amenity/fuel/mrs-0edd09":{"name":"MRS","locationSet":{"include":["bj","cm","gh","ng","tg"]},"geometry":["point","area"],"matchScore":2,"terms":["mrs"],"fields":["name","brand","{amenity/fuel}"],"tags":{"amenity":"fuel","brand:wikidata":"Q56274919"},"addTags":{"amenity":"fuel","brand":"MRS","brand:wikidata":"Q56274919","name":"MRS"}},"shop/kitchen/ixina-d089d8":{"name":"Ixina","locationSet":{"include":["ae","au","be","bf","bh","bj","ca","ci","cm","cn","cz","dz","ee","eg","fr","gh","hr","ke","kw","lu","ly","ma","mu","nl","pl","qa","ro","ru","sa","se","sn","tg","th","tn","vn"]},"geometry":["point","area"],"matchScore":2,"terms":["ixina"],"tags":{"brand:wikidata":"Q3156424","shop":"kitchen"},"addTags":{"brand":"Ixina","brand:wikidata":"Q3156424","name":"Ixina","shop":"kitchen"}},"shop/mobile_phone/moov-6ab8a4":{"name":"Moov","locationSet":{"include":["ci","tg"]},"geometry":["point","area"],"matchScore":2,"terms":["agence moov","moov"],"tags":{"brand:wikidata":"Q3323637","shop":"mobile_phone"},"addTags":{"brand":"Moov","brand:wikidata":"Q3323637","name":"Moov","shop":"mobile_phone"}},"power/line/communauteelectriquedubenin-e991ad":{"name":"Communauté Électrique du Bénin","locationSet":{"include":["bj","tg"]},"geometry":["line"],"matchScore":2,"terms":["ceb","communauté électrique du bénin"],"tags":{"operator:wikidata":"Q5153983","power":"line"},"addTags":{"operator":"Communauté Électrique du Bénin","operator:short":"CEB","operator:wikidata":"Q5153983","power":"line"}},"power/minor_line/communauteelectriquedubenin-67e977":{"name":"Communauté Électrique du Bénin","locationSet":{"include":["bj","tg"]},"geometry":["line"],"matchScore":2,"terms":["ceb","communauté électrique du bénin"],"tags":{"operator:wikidata":"Q5153983","power":"minor_line"},"addTags":{"operator":"Communauté Électrique du Bénin","operator:short":"CEB","operator:wikidata":"Q5153983","power":"minor_line"}},"power/pole/communauteelectriquedubenin-31b156":{"name":"Communauté Électrique du Bénin","locationSet":{"include":["bj","tg"]},"geometry":["point","vertex"],"matchScore":2,"terms":["ceb","communauté électrique du bénin"],"tags":{"operator:wikidata":"Q5153983","power":"pole"},"addTags":{"operator":"Communauté Électrique du Bénin","operator:short":"CEB","operator:wikidata":"Q5153983","power":"pole"}},"power/substation/communauteelectriquedubenin-7d5f26":{"name":"Communauté Électrique du Bénin","locationSet":{"include":["bj","tg"]},"geometry":["area","point"],"matchScore":2,"terms":["ceb","communauté électrique du bénin"],"tags":{"operator:wikidata":"Q5153983","power":"substation"},"addTags":{"operator":"Communauté Électrique du Bénin","operator:short":"CEB","operator:wikidata":"Q5153983","power":"substation","substation":"transmission"}},"power/tower/communauteelectriquedubenin-32c055":{"name":"Communauté Électrique du Bénin","locationSet":{"include":["bj","tg"]},"geometry":["point","vertex"],"matchScore":2,"terms":["ceb","communauté électrique du bénin"],"tags":{"operator:wikidata":"Q5153983","power":"tower"},"addTags":{"operator":"Communauté Électrique du Bénin","operator:short":"CEB","operator:wikidata":"Q5153983","power":"tower"}},"power/transformer/communauteelectriquedubenin-16b08b":{"name":"Communauté Électrique du Bénin","locationSet":{"include":["bj","tg"]},"geometry":["point","vertex"],"matchScore":2,"terms":["ceb","communauté électrique du bénin"],"tags":{"operator:wikidata":"Q5153983","power":"transformer"},"addTags":{"operator":"Communauté Électrique du Bénin","operator:short":"CEB","operator:wikidata":"Q5153983","power":"transformer","substation":"transmission"}}}