{"advertising/totem/ufa-d2e1c8":{"name":"UFA","locationSet":{"include":["ca-ab"]},"geometry":["point","line"],"matchScore":2,"terms":["ufa","united farmers of alberta"],"tags":{"advertising":"totem","brand:wikidata":"Q1809831"},"addTags":{"advertising":"totem","brand":"UFA","brand:wikidata":"Q1809831"}},"amenity/atm/atbfinancial-6bfb2d":{"name":"ATB Financial","locationSet":{"include":["ca-ab"]},"geometry":["point","vertex"],"matchScore":2,"terms":["alberta treasury branches","atb financial"],"fields":["name","brand","{amenity/atm}"],"tags":{"amenity":"atm","brand:wikidata":"Q298762"},"addTags":{"amenity":"atm","brand":"ATB Financial","brand:wikidata":"Q298762","official_name":"Alberta Treasury Branches","operator":"ATB Financial","operator:wikidata":"Q298762"}},"amenity/bank/atbfinancial-5e244f":{"name":"ATB Financial","locationSet":{"include":["ca-ab"]},"geometry":["point","area"],"matchScore":2,"terms":["alberta treasury branches","atb financial"],"tags":{"amenity":"bank","brand:wikidata":"Q298762"},"addTags":{"amenity":"bank","brand":"ATB Financial","brand:wikidata":"Q298762","name":"ATB Financial","official_name":"Alberta Treasury Branches"}},"amenity/fuel/ufa-22e5cc":{"name":"UFA","locationSet":{"include":["ca-ab"]},"geometry":["point","area"],"matchScore":2,"terms":["ufa","united farmers of alberta"],"fields":["name","brand","{amenity/fuel}"],"tags":{"amenity":"fuel","brand:wikidata":"Q1809831"},"addTags":{"amenity":"fuel","brand":"UFA","brand:wikidata":"Q1809831","name":"UFA"}},"shop/agrarian/ufa-700bc3":{"name":"UFA","locationSet":{"include":["ca-ab"]},"geometry":["point","area"],"matchScore":2,"terms":["ufa","united farmers of alberta"],"tags":{"brand:wikidata":"Q1809831","shop":"agrarian"},"addTags":{"brand":"UFA","brand:wikidata":"Q1809831","name":"UFA","shop":"agrarian"}},"shop/car_parts/lordcoautoparts-00c584":{"name":"Lordco Auto Parts","locationSet":{"include":["ca-ab","ca-bc"]},"geometry":["point","area"],"matchScore":2,"terms":["lordco","lordco auto parts"],"tags":{"brand:wikidata":"Q120811641","shop":"car_parts"},"addTags":{"brand":"Lordco Auto Parts","brand:wikidata":"Q120811641","name":"Lordco Auto Parts","shop":"car_parts"}},"shop/clothes/atmosphere-7cc878":{"name":"Atmosphere","locationSet":{"include":["ca-ab","ca-bc"]},"geometry":["point","area"],"matchScore":2,"terms":["atmosphere"],"tags":{"brand:wikidata":"Q118398853","shop":"clothes"},"addTags":{"brand":"Atmosphere","brand:wikidata":"Q118398853","clothes":"outdoor","name":"Atmosphere","shop":"clothes"}},"shop/convenience/ufa-6da36b":{"name":"UFA","locationSet":{"include":["ca-ab"]},"geometry":["point","area"],"matchScore":2,"terms":["ufa","united farmers of alberta"],"tags":{"brand:wikidata":"Q1809831","shop":"convenience"},"addTags":{"brand":"UFA","brand:wikidata":"Q1809831","name":"UFA","shop":"convenience"}},"shop/doityourself/rona-381944":{"name":"Rona+","locationSet":{"include":["ca-ab","ca-bc","ca-mb","ca-on","ca-qc","ca-sk"]},"geometry":["point","area"],"matchScore":2,"terms":["lowes","réno-dépôt","rona+"],"tags":{"brand:wikidata":"Q123688669","shop":"doityourself"},"addTags":{"brand":"Rona+","brand:wikidata":"Q123688669","name":"Rona+","shop":"doityourself"}},"shop/trade/finningcat-4e6583":{"name":"Finning CAT","locationSet":{"include":["ca-ab","ca-bc","ca-nt","ca-sk","ca-yt"]},"geometry":["point","area"],"matchScore":2,"terms":["finning cat"],"tags":{"brand:wikidata":"Q109619686","shop":"trade"},"addTags":{"brand":"Finning CAT","brand:wikidata":"Q109619686","name":"Finning CAT","shop":"trade","trade":"construction_equipment"}},"amenity/fire_station/calgaryfiredepartment-d75009":{"name":"Calgary Fire Department","locationSet":{"include":["ca-ab"]},"geometry":["point","area"],"matchScore":2,"terms":["calgary fire department","city of calgary"],"tags":{"amenity":"fire_station","operator:wikidata":"Q5019670"},"addTags":{"amenity":"fire_station","operator":"Calgary Fire Department","operator:wikidata":"Q5019670"}},"amenity/hospital/albertahealthservices-1b0aca":{"name":"Alberta Health Services","locationSet":{"include":["ca-ab"]},"geometry":["area","point"],"matchScore":2,"terms":["ahs","alberta health services"],"fields":["name","operator","{amenity/hospital}"],"reference":{"key":"amenity","value":"hospital"},"tags":{"amenity":"hospital","operator:wikidata":"Q4711650"},"addTags":{"amenity":"hospital","healthcare":"hospital","operator":"Alberta Health Services","operator:short":"AHS","operator:type":"public","operator:wikidata":"Q4711650"}},"amenity/hospital/covenanthealth-1b0aca":{"name":"Covenant Health (Alberta)","locationSet":{"include":["ca-ab"]},"geometry":["area","point"],"matchScore":2,"terms":["covenant health"],"fields":["name","operator","{amenity/hospital}"],"reference":{"key":"amenity","value":"hospital"},"tags":{"amenity":"hospital","operator:wikidata":"Q5178995"},"addTags":{"amenity":"hospital","healthcare":"hospital","operator":"Covenant Health","operator:type":"private","operator:wikidata":"Q5178995"}},"amenity/library/calgarypubliclibrary-9e3799":{"name":"Calgary Public Library","locationSet":{"include":["ca-ab"]},"geometry":["point","area"],"matchScore":2,"terms":["calgary public library","cpl"],"tags":{"amenity":"library","operator:wikidata":"Q5019701"},"addTags":{"amenity":"library","operator":"Calgary Public Library","operator:short":"CPL","operator:type":"public","operator:wikidata":"Q5019701"}},"amenity/library/edmontonpubliclibrary-9e3799":{"name":"Edmonton Public Library","locationSet":{"include":["ca-ab"]},"geometry":["point","area"],"matchScore":2,"terms":["edmonton public library","epl"],"tags":{"amenity":"library","operator:wikidata":"Q5339083"},"addTags":{"amenity":"library","operator":"Edmonton Public Library","operator:short":"EPL","operator:type":"public","operator:wikidata":"Q5339083"}},"amenity/library/middlesexcountylibrary-9e3799":{"name":"Middlesex County Library","locationSet":{"include":["ca-ab"]},"geometry":["point","area"],"matchScore":2,"terms":["middlesex county library"],"tags":{"amenity":"library","operator:wikidata":"Q53678046"},"addTags":{"amenity":"library","operator":"Middlesex County Library","operator:type":"public","operator:wikidata":"Q53678046"}},"amenity/police/edmontonpoliceservice-4fabd9":{"name":"Edmonton Police Service","locationSet":{"include":["ca-ab"]},"geometry":["point","area"],"matchScore":2,"terms":["edmonton police service","eps"],"tags":{"amenity":"police","operator:wikidata":"Q5339081"},"addTags":{"amenity":"police","operator":"Edmonton Police Service","operator:short":"EPS","operator:wikidata":"Q5339081"}},"amenity/school/blackgoldregionaldivision-59fa08":{"name":"Black Gold Regional Division","locationSet":{"include":["ca-ab"]},"geometry":["area","point"],"matchScore":2,"terms":["black gold regional division"],"tags":{"amenity":"school","operator:wikidata":"Q18162975"},"addTags":{"amenity":"school","operator":"Black Gold Regional Division","operator:type":"public","operator:wikidata":"Q18162975"}},"amenity/school/calgaryboardofeducation-59fa08":{"name":"Calgary Board of Education","locationSet":{"include":["ca-ab"]},"geometry":["area","point"],"matchScore":2,"terms":["calgary board of education"],"tags":{"amenity":"school","operator:wikidata":"Q5019632"},"addTags":{"amenity":"school","operator":"Calgary Board of Education","operator:type":"public","operator:wikidata":"Q5019632"}},"amenity/school/calgarycatholicschooldistrict-59fa08":{"name":"Calgary Catholic School District","locationSet":{"include":["ca-ab"]},"geometry":["area","point"],"matchScore":2,"terms":["calgary catholic school district","ccsd"],"tags":{"amenity":"school","operator:wikidata":"Q5019649"},"addTags":{"amenity":"school","operator":"Calgary Catholic School District","operator:short":"CCSD","operator:type":"public","operator:wikidata":"Q5019649"}},"amenity/school/edmontoncatholicschools-59fa08":{"name":"Edmonton Catholic Schools","locationSet":{"include":["ca-ab"]},"geometry":["area","point"],"matchScore":2,"terms":["ecsd","edmonton catholic schools"],"tags":{"amenity":"school","operator:wikidata":"Q5339019"},"addTags":{"amenity":"school","operator":"Edmonton Catholic Schools","operator:short":"ECSD","operator:type":"religious","operator:wikidata":"Q5339019"}},"amenity/school/edmontonpublicschools-59fa08":{"name":"Edmonton Public Schools","locationSet":{"include":["ca-ab"]},"geometry":["area","point"],"matchScore":2,"terms":["edmonton public schools","epsb"],"tags":{"amenity":"school","operator:wikidata":"Q5339084"},"addTags":{"amenity":"school","operator":"Edmonton Public Schools","operator:short":"EPSB","operator:type":"public","operator:wikidata":"Q5339084"}},"amenity/school/elkislandcatholicschools-59fa08":{"name":"Elk Island Catholic Schools","locationSet":{"include":["ca-ab"]},"geometry":["area","point"],"matchScore":2,"terms":["elk island catholic schools"],"tags":{"amenity":"school","operator:wikidata":"Q17508700"},"addTags":{"amenity":"school","operator":"Elk Island Catholic Schools","operator:type":"religious","operator:wikidata":"Q17508700"}},"amenity/school/evergreencatholicschools-59fa08":{"name":"Evergreen Catholic Schools","locationSet":{"include":["ca-ab"]},"geometry":["area","point"],"matchScore":2,"terms":["evergreen catholic schools"],"tags":{"amenity":"school","operator:wikidata":"Q17509784"},"addTags":{"amenity":"school","operator":"Evergreen Catholic Schools","operator:type":"religious","operator:wikidata":"Q17509784"}},"amenity/school/greaterstalbertcatholicschools-59fa08":{"name":"Greater St. Albert Catholic Schools","locationSet":{"include":["ca-ab"]},"geometry":["area","point"],"matchScore":2,"terms":["greater st. albert catholic schools"],"tags":{"amenity":"school","operator:wikidata":"Q5600760"},"addTags":{"amenity":"school","operator":"Greater St. Albert Catholic Schools","operator:type":"religious","operator:wikidata":"Q5600760"}},"amenity/school/parklandschooldivision-59fa08":{"name":"Parkland School Division","locationSet":{"include":["ca-ab"]},"geometry":["area","point"],"matchScore":2,"terms":["parkland school division"],"tags":{"amenity":"school","operator:wikidata":"Q17514014"},"addTags":{"amenity":"school","operator":"Parkland School Division","operator:type":"public","operator:wikidata":"Q17514014"}},"amenity/school/starcatholicschools-59fa08":{"name":"STAR Catholic Schools","locationSet":{"include":["ca-ab"]},"geometry":["area","point"],"matchScore":2,"terms":["star catholic schools"],"tags":{"amenity":"school","operator:wikidata":"Q7591919"},"addTags":{"amenity":"school","operator":"STAR Catholic Schools","operator:type":"religious","operator:wikidata":"Q7591919"}},"amenity/toilets/cityofcalgary-fa5474":{"name":"City of Calgary","locationSet":{"include":["ca-ab"]},"geometry":["point","vertex","area"],"matchScore":2,"terms":["city of calgary"],"tags":{"amenity":"toilets","operator:wikidata":"Q36312"},"addTags":{"amenity":"toilets","operator":"City of Calgary","operator:type":"government","operator:wikidata":"Q36312"}},"highway/street_lamp/enmax-1a9281":{"name":"ENMAX","locationSet":{"include":["ca-ab"]},"geometry":["point","vertex"],"matchScore":2,"terms":["enmax"],"tags":{"highway":"street_lamp","operator:wikidata":"Q5323708"},"addTags":{"highway":"street_lamp","operator":"ENMAX","operator:wikidata":"Q5323708"}},"highway/street_lamp/fortisalberta-1a9281":{"name":"FortisAlberta","locationSet":{"include":["ca-ab"]},"geometry":["point","vertex"],"matchScore":2,"terms":["aqualta","eltec","fortisalberta"],"tags":{"highway":"street_lamp","operator:wikidata":"Q1438987"},"addTags":{"highway":"street_lamp","operator":"FortisAlberta","operator:wikidata":"Q1438987"}},"leisure/nature_reserve/cityofcalgary-469704":{"name":"City of Calgary","locationSet":{"include":["ca-ab"]},"geometry":["area","point"],"matchScore":2,"terms":["city of calgary"],"tags":{"leisure":"nature_reserve","operator:wikidata":"Q36312"},"addTags":{"leisure":"nature_reserve","operator":"City of Calgary","operator:type":"government","operator:wikidata":"Q36312"}},"leisure/nature_reserve/cityofedmonton-469704":{"name":"City of Edmonton","locationSet":{"include":["ca-ab"]},"geometry":["area","point"],"matchScore":2,"terms":["city of edmonton"],"tags":{"leisure":"nature_reserve","operator:wikidata":"Q2096"},"addTags":{"leisure":"nature_reserve","operator":"City of Edmonton","operator:type":"government","operator:wikidata":"Q2096"}},"leisure/nature_reserve/townofdraytonvalley-469704":{"name":"Town of Drayton Valley","locationSet":{"include":["ca-ab"]},"geometry":["area","point"],"matchScore":2,"terms":["town of drayton valley"],"tags":{"leisure":"nature_reserve","operator:wikidata":"Q1022731"},"addTags":{"leisure":"nature_reserve","operator":"Town of Drayton Valley","operator:type":"government","operator:wikidata":"Q1022731"}},"leisure/park/cityofcalgary-85dee0":{"name":"City of Calgary","locationSet":{"include":["ca-ab"]},"geometry":["area","point"],"matchScore":2,"terms":["city of calgary"],"tags":{"leisure":"park","operator:wikidata":"Q36312"},"addTags":{"leisure":"park","operator":"City of Calgary","operator:type":"government","operator:wikidata":"Q36312"}},"leisure/park/cityofedmonton-85dee0":{"name":"City of Edmonton","locationSet":{"include":["ca-ab"]},"geometry":["area","point"],"matchScore":2,"terms":["city of edmonton"],"tags":{"leisure":"park","operator:wikidata":"Q2096"},"addTags":{"leisure":"park","operator":"City of Edmonton","operator:type":"government","operator:wikidata":"Q2096"}},"leisure/park/townofdraytonvalley-85dee0":{"name":"Town of Drayton Valley","locationSet":{"include":["ca-ab"]},"geometry":["area","point"],"matchScore":2,"terms":["town of drayton valley"],"tags":{"leisure":"park","operator:wikidata":"Q1022731"},"addTags":{"leisure":"park","operator":"Town of Drayton Valley","operator:type":"government","operator:wikidata":"Q1022731"}},"leisure/pitch/cityofcalgary-8d2a1d":{"name":"City of Calgary","locationSet":{"include":["ca-ab"]},"geometry":["area","point"],"matchScore":2,"terms":["city of calgary"],"tags":{"leisure":"pitch","operator:wikidata":"Q36312"},"addTags":{"leisure":"pitch","operator":"City of Calgary","operator:wikidata":"Q36312"}},"man_made/pipeline/pembina-095cc1":{"name":"Pembina","locationSet":{"include":["ca-ab","ca-bc"]},"geometry":["line"],"matchScore":2,"terms":["pembina"],"tags":{"man_made":"pipeline","operator:wikidata":"Q7161915"},"addTags":{"man_made":"pipeline","operator":"Pembina","operator:wikidata":"Q7161915"}},"pipeline/substation/pembina-3e8808":{"name":"Pembina","locationSet":{"include":["ca-ab","ca-bc"]},"geometry":["area","point"],"matchScore":2,"terms":["pembina"],"tags":{"operator:wikidata":"Q7161915","pipeline":"substation"},"addTags":{"operator":"Pembina","operator:wikidata":"Q7161915","pipeline":"substation"}},"power/generator/enmax-60f7b4":{"name":"ENMAX","locationSet":{"include":["ca-ab"]},"geometry":["point","vertex","area"],"matchScore":2,"terms":["enmax"],"tags":{"operator:wikidata":"Q5323708","power":"generator"},"addTags":{"operator":"ENMAX","operator:wikidata":"Q5323708","power":"generator"}},"power/generator/enmaxenergy-60f7b4":{"name":"ENMAX Energy","locationSet":{"include":["ca-ab"]},"geometry":["point","vertex","area"],"matchScore":2,"terms":["enmax energy","enmax green power inc"],"tags":{"operator:wikidata":"Q5323708","power":"generator"},"addTags":{"operator":"ENMAX Energy","operator:wikidata":"Q5323708","power":"generator"}},"power/generator/rescanada-60f7b4":{"name":"RES Canada","locationSet":{"include":["ca-ab"]},"geometry":["point","vertex","area"],"matchScore":2,"terms":["res canada"],"tags":{"operator:wikidata":"Q7313077","power":"generator"},"addTags":{"operator":"RES Canada","operator:wikidata":"Q7313077","power":"generator"}},"power/generator/saskpower-167375":{"name":"SaskPower","locationSet":{"include":["ca-ab","ca-mb","ca-sk"]},"geometry":["point","vertex","area"],"matchScore":2,"terms":["saskpower"],"tags":{"operator:wikidata":"Q2225615","power":"generator"},"addTags":{"operator":"SaskPower","operator:wikidata":"Q2225615","power":"generator"}},"power/line/altalink-a4e32f":{"name":"AltaLink","locationSet":{"include":["ca-ab"]},"geometry":["line"],"matchScore":2,"terms":["altalink"],"tags":{"operator:wikidata":"Q4735945","power":"line"},"addTags":{"operator":"AltaLink","operator:wikidata":"Q4735945","power":"line"}},"power/line/atcoelectric-95aa3c":{"name":"ATCO Electric","locationSet":{"include":["ca-ab","ca-nt","ca-yt"]},"geometry":["line"],"matchScore":2,"terms":["atco electric"],"tags":{"operator:wikidata":"Q4654598","power":"line"},"addTags":{"operator":"ATCO Electric","operator:wikidata":"Q4654598","power":"line"}},"power/line/enmax-a4e32f":{"name":"ENMAX","locationSet":{"include":["ca-ab"]},"geometry":["line"],"matchScore":2,"terms":["enmax"],"tags":{"operator:wikidata":"Q5323708","power":"line"},"addTags":{"operator":"ENMAX","operator:wikidata":"Q5323708","power":"line"}},"power/line/epcor-ec456d":{"name":"EPCOR","locationSet":{"include":["ca-ab","ca-bc","ca-on","us-az","us-nm","us-tx"]},"geometry":["line"],"matchScore":2,"terms":["aqualta","eltec","epcor"],"tags":{"operator:wikidata":"Q5323849","power":"line"},"addTags":{"operator":"EPCOR","operator:wikidata":"Q5323849","power":"line"}},"power/line/fortisalberta-a4e32f":{"name":"FortisAlberta","locationSet":{"include":["ca-ab"]},"geometry":["line"],"matchScore":2,"terms":["aqualta","eltec","fortisalberta"],"tags":{"operator:wikidata":"Q1438987","power":"line"},"addTags":{"operator":"FortisAlberta","operator:wikidata":"Q1438987","power":"line"}},"power/line/saskpower-e7518f":{"name":"SaskPower","locationSet":{"include":["ca-ab","ca-mb","ca-sk"]},"geometry":["line"],"matchScore":2,"terms":["saskpower"],"tags":{"operator:wikidata":"Q2225615","power":"line"},"addTags":{"operator":"SaskPower","operator:wikidata":"Q2225615","power":"line"}},"power/minor_line/altalink-f0e797":{"name":"AltaLink","locationSet":{"include":["ca-ab"]},"geometry":["line"],"matchScore":2,"terms":["altalink"],"tags":{"operator:wikidata":"Q4735945","power":"minor_line"},"addTags":{"operator":"AltaLink","operator:wikidata":"Q4735945","power":"minor_line"}},"power/minor_line/atcoelectric-7d6f54":{"name":"ATCO Electric","locationSet":{"include":["ca-ab","ca-nt","ca-yt"]},"geometry":["line"],"matchScore":2,"terms":["atco electric"],"tags":{"operator:wikidata":"Q4654598","power":"minor_line"},"addTags":{"operator":"ATCO Electric","operator:wikidata":"Q4654598","power":"minor_line"}},"power/minor_line/enmax-f0e797":{"name":"ENMAX","locationSet":{"include":["ca-ab"]},"geometry":["line"],"matchScore":2,"terms":["enmax"],"tags":{"operator:wikidata":"Q5323708","power":"minor_line"},"addTags":{"operator":"ENMAX","operator:wikidata":"Q5323708","power":"minor_line"}},"power/minor_line/epcor-dda2f7":{"name":"EPCOR","locationSet":{"include":["ca-ab","ca-bc","ca-on","us-az","us-nm","us-tx"]},"geometry":["line"],"matchScore":2,"terms":["aqualta","eltec","epcor"],"tags":{"operator:wikidata":"Q5323849","power":"minor_line"},"addTags":{"operator":"EPCOR","operator:wikidata":"Q5323849","power":"minor_line"}},"power/minor_line/fortisalberta-f0e797":{"name":"FortisAlberta","locationSet":{"include":["ca-ab"]},"geometry":["line"],"matchScore":2,"terms":["aqualta","eltec","fortisalberta"],"tags":{"operator:wikidata":"Q1438987","power":"minor_line"},"addTags":{"operator":"FortisAlberta","operator:wikidata":"Q1438987","power":"minor_line"}},"power/minor_line/saskpower-541d20":{"name":"SaskPower","locationSet":{"include":["ca-ab","ca-mb","ca-sk"]},"geometry":["line"],"matchScore":2,"terms":["saskpower"],"tags":{"operator:wikidata":"Q2225615","power":"minor_line"},"addTags":{"operator":"SaskPower","operator:wikidata":"Q2225615","power":"minor_line"}},"power/plant/saskpower-02624c":{"name":"SaskPower","locationSet":{"include":["ca-ab","ca-mb","ca-sk"]},"geometry":["area"],"matchScore":2,"terms":["saskpower"],"tags":{"operator:wikidata":"Q2225615","power":"plant"},"addTags":{"operator":"SaskPower","operator:wikidata":"Q2225615","power":"plant"}},"power/pole/altalink-70d480":{"name":"AltaLink","locationSet":{"include":["ca-ab"]},"geometry":["point","vertex"],"matchScore":2,"terms":["altalink"],"tags":{"operator:wikidata":"Q4735945","power":"pole"},"addTags":{"operator":"AltaLink","operator:wikidata":"Q4735945","power":"pole"}},"power/pole/atcoelectric-d8b98b":{"name":"ATCO Electric","locationSet":{"include":["ca-ab","ca-nt","ca-yt"]},"geometry":["point","vertex"],"matchScore":2,"terms":["atco electric"],"tags":{"operator:wikidata":"Q4654598","power":"pole"},"addTags":{"operator":"ATCO Electric","operator:wikidata":"Q4654598","power":"pole"}},"power/pole/enmax-70d480":{"name":"ENMAX","locationSet":{"include":["ca-ab"]},"geometry":["point","vertex"],"matchScore":2,"terms":["enmax"],"tags":{"operator:wikidata":"Q5323708","power":"pole"},"addTags":{"operator":"ENMAX","operator:wikidata":"Q5323708","power":"pole"}},"power/pole/epcor-e09e4b":{"name":"EPCOR","locationSet":{"include":["ca-ab","ca-bc","ca-on","us-az","us-nm","us-tx"]},"geometry":["point","vertex"],"matchScore":2,"terms":["aqualta","eltec","epcor"],"tags":{"operator:wikidata":"Q5323849","power":"pole"},"addTags":{"operator":"EPCOR","operator:wikidata":"Q5323849","power":"pole"}},"power/pole/fortisalberta-70d480":{"name":"FortisAlberta","locationSet":{"include":["ca-ab"]},"geometry":["point","vertex"],"matchScore":2,"terms":["aqualta","eltec","fortisalberta"],"tags":{"operator:wikidata":"Q1438987","power":"pole"},"addTags":{"operator":"FortisAlberta","operator:wikidata":"Q1438987","power":"pole"}},"power/pole/saskpower-19de1f":{"name":"SaskPower","locationSet":{"include":["ca-ab","ca-mb","ca-sk"]},"geometry":["point","vertex"],"matchScore":2,"terms":["saskpower"],"tags":{"operator:wikidata":"Q2225615","power":"pole"},"addTags":{"operator":"SaskPower","operator:wikidata":"Q2225615","power":"pole"}},"power/substation/altalink-ebf474":{"name":"AltaLink","locationSet":{"include":["ca-ab"]},"geometry":["area","point"],"matchScore":2,"terms":["altalink"],"tags":{"operator:wikidata":"Q4735945","power":"substation"},"addTags":{"operator":"AltaLink","operator:wikidata":"Q4735945","power":"substation"}},"power/substation/atcoelectric-5212b2":{"name":"ATCO Electric","locationSet":{"include":["ca-ab","ca-nt","ca-yt"]},"geometry":["area","point"],"matchScore":2,"terms":["atco electric"],"tags":{"operator:wikidata":"Q4654598","power":"substation"},"addTags":{"operator":"ATCO Electric","operator:wikidata":"Q4654598","power":"substation"}},"power/substation/enmax-ebf474":{"name":"ENMAX","locationSet":{"include":["ca-ab"]},"geometry":["area","point"],"matchScore":2,"terms":["enmax"],"tags":{"operator:wikidata":"Q5323708","power":"substation"},"addTags":{"operator":"ENMAX","operator:wikidata":"Q5323708","power":"substation"}},"power/substation/epcor-b7915e":{"name":"EPCOR","locationSet":{"include":["ca-ab","ca-bc","ca-on","us-az","us-nm","us-tx"]},"geometry":["area","point"],"matchScore":2,"terms":["aqualta","eltec","epcor"],"tags":{"operator:wikidata":"Q5323849","power":"substation"},"addTags":{"operator":"EPCOR","operator:wikidata":"Q5323849","power":"substation"}},"power/substation/fortisalberta-ebf474":{"name":"FortisAlberta","locationSet":{"include":["ca-ab"]},"geometry":["area","point"],"matchScore":2,"terms":["aqualta","eltec","fortisalberta"],"tags":{"operator:wikidata":"Q1438987","power":"substation"},"addTags":{"operator":"FortisAlberta","operator:wikidata":"Q1438987","power":"substation"}},"power/substation/saskpower-ba0a5f":{"name":"SaskPower","locationSet":{"include":["ca-ab","ca-mb","ca-sk"]},"geometry":["area","point"],"matchScore":2,"terms":["saskpower"],"tags":{"operator:wikidata":"Q2225615","power":"substation"},"addTags":{"operator":"SaskPower","operator:wikidata":"Q2225615","power":"substation"}},"power/tower/altalink-4cd406":{"name":"AltaLink","locationSet":{"include":["ca-ab"]},"geometry":["point","vertex"],"matchScore":2,"terms":["altalink"],"tags":{"operator:wikidata":"Q4735945","power":"tower"},"addTags":{"operator":"AltaLink","operator:wikidata":"Q4735945","power":"tower"}},"power/tower/atcoelectric-e3681f":{"name":"ATCO Electric","locationSet":{"include":["ca-ab","ca-nt","ca-yt"]},"geometry":["point","vertex"],"matchScore":2,"terms":["atco electric"],"tags":{"operator:wikidata":"Q4654598","power":"tower"},"addTags":{"operator":"ATCO Electric","operator:wikidata":"Q4654598","power":"tower"}},"power/tower/enmax-4cd406":{"name":"ENMAX","locationSet":{"include":["ca-ab"]},"geometry":["point","vertex"],"matchScore":2,"terms":["enmax"],"tags":{"operator:wikidata":"Q5323708","power":"tower"},"addTags":{"operator":"ENMAX","operator:wikidata":"Q5323708","power":"tower"}},"power/tower/epcor-f12bdc":{"name":"EPCOR","locationSet":{"include":["ca-ab","ca-bc","ca-on","us-az","us-nm","us-tx"]},"geometry":["point","vertex"],"matchScore":2,"terms":["aqualta","eltec","epcor"],"tags":{"operator:wikidata":"Q5323849","power":"tower"},"addTags":{"operator":"EPCOR","operator:wikidata":"Q5323849","power":"tower"}},"power/tower/fortisalberta-4cd406":{"name":"FortisAlberta","locationSet":{"include":["ca-ab"]},"geometry":["point","vertex"],"matchScore":2,"terms":["aqualta","eltec","fortisalberta"],"tags":{"operator:wikidata":"Q1438987","power":"tower"},"addTags":{"operator":"FortisAlberta","operator:wikidata":"Q1438987","power":"tower"}},"power/tower/saskpower-c3753d":{"name":"SaskPower","locationSet":{"include":["ca-ab","ca-mb","ca-sk"]},"geometry":["point","vertex"],"matchScore":2,"terms":["saskpower"],"tags":{"operator:wikidata":"Q2225615","power":"tower"},"addTags":{"operator":"SaskPower","operator:wikidata":"Q2225615","power":"tower"}},"power/transformer/altalink-8b0dc6":{"name":"AltaLink","locationSet":{"include":["ca-ab"]},"geometry":["point","vertex"],"matchScore":2,"terms":["altalink"],"tags":{"operator:wikidata":"Q4735945","power":"transformer"},"addTags":{"operator":"AltaLink","operator:wikidata":"Q4735945","power":"transformer"}},"power/transformer/atcoelectric-907aac":{"name":"ATCO Electric","locationSet":{"include":["ca-ab","ca-nt","ca-yt"]},"geometry":["point","vertex"],"matchScore":2,"terms":["atco electric"],"tags":{"operator:wikidata":"Q4654598","power":"transformer"},"addTags":{"operator":"ATCO Electric","operator:wikidata":"Q4654598","power":"transformer"}},"power/transformer/enmax-8b0dc6":{"name":"ENMAX","locationSet":{"include":["ca-ab"]},"geometry":["point","vertex"],"matchScore":2,"terms":["enmax"],"tags":{"operator:wikidata":"Q5323708","power":"transformer"},"addTags":{"operator":"ENMAX","operator:wikidata":"Q5323708","power":"transformer"}},"power/transformer/epcor-f6996f":{"name":"EPCOR","locationSet":{"include":["ca-ab","ca-bc","ca-on","us-az","us-nm","us-tx"]},"geometry":["point","vertex"],"matchScore":2,"terms":["aqualta","eltec","epcor"],"tags":{"operator:wikidata":"Q5323849","power":"transformer"},"addTags":{"operator":"EPCOR","operator:wikidata":"Q5323849","power":"transformer"}},"power/transformer/fortisalberta-8b0dc6":{"name":"FortisAlberta","locationSet":{"include":["ca-ab"]},"geometry":["point","vertex"],"matchScore":2,"terms":["aqualta","eltec","fortisalberta"],"tags":{"operator:wikidata":"Q1438987","power":"transformer"},"addTags":{"operator":"FortisAlberta","operator:wikidata":"Q1438987","power":"transformer"}},"power/transformer/saskpower-abf763":{"name":"SaskPower","locationSet":{"include":["ca-ab","ca-mb","ca-sk"]},"geometry":["point","vertex"],"matchScore":2,"terms":["saskpower"],"tags":{"operator:wikidata":"Q2225615","power":"transformer"},"addTags":{"operator":"SaskPower","operator:wikidata":"Q2225615","power":"transformer"}},"public_transport/platform/bus_point/airdrietransit-fe6dfb":{"name":"Airdrie Transit","locationSet":{"include":["ca-ab"]},"geometry":["point","vertex"],"matchScore":2,"terms":["airdrie transit","at"],"reference":{"key":"public_transport","value":"platform"},"tags":{"bus":"yes","network:wikidata":"Q4698613","public_transport":"platform"},"addTags":{"bus":"yes","highway":"bus_stop","network":"Airdrie Transit","network:wikidata":"Q4698613","public_transport":"platform"}},"public_transport/platform/bus_point/ct-fe6dfb":{"name":"CT","locationSet":{"include":["ca-ab"]},"geometry":["point","vertex"],"matchScore":2,"terms":["ct"],"reference":{"key":"public_transport","value":"platform"},"tags":{"bus":"yes","network:wikidata":"Q143630","public_transport":"platform"},"addTags":{"bus":"yes","highway":"bus_stop","network":"CT","network:wikidata":"Q143630","public_transport":"platform"}},"public_transport/platform/bus_point/ets-fe6dfb":{"name":"ETS","locationSet":{"include":["ca-ab"]},"geometry":["point","vertex"],"matchScore":2,"terms":["ets"],"reference":{"key":"public_transport","value":"platform"},"tags":{"bus":"yes","network:wikidata":"Q3048058","public_transport":"platform"},"addTags":{"bus":"yes","highway":"bus_stop","network":"ETS","network:wikidata":"Q3048058","public_transport":"platform"}},"public_transport/platform/bus_point/roam-fe6dfb":{"name":"ROAM","locationSet":{"include":["ca-ab"]},"geometry":["point","vertex"],"matchScore":2,"terms":["roam"],"reference":{"key":"public_transport","value":"platform"},"tags":{"bus":"yes","network:wikidata":"Q7339725","public_transport":"platform"},"addTags":{"bus":"yes","highway":"bus_stop","network":"ROAM","network:wikidata":"Q7339725","public_transport":"platform"}},"public_transport/platform/bus_point/stat-fe6dfb":{"name":"StAT","locationSet":{"include":["ca-ab"]},"geometry":["point","vertex"],"matchScore":2,"terms":["stat"],"reference":{"key":"public_transport","value":"platform"},"tags":{"bus":"yes","network:wikidata":"Q7586770","public_transport":"platform"},"addTags":{"bus":"yes","highway":"bus_stop","network":"StAT","network:wikidata":"Q7586770","public_transport":"platform"}},"public_transport/platform/bus_point/strathconacountytransit-fe6dfb":{"name":"Strathcona County Transit","locationSet":{"include":["ca-ab"]},"geometry":["point","vertex"],"matchScore":2,"terms":["strathcona county transit"],"reference":{"key":"public_transport","value":"platform"},"tags":{"bus":"yes","network:wikidata":"Q7622074","public_transport":"platform"},"addTags":{"bus":"yes","highway":"bus_stop","network":"Strathcona County Transit","network:wikidata":"Q7622074","public_transport":"platform"}},"public_transport/station_light_rail/ctrain-463491":{"name":"CTrain","locationSet":{"include":["ca-ab"]},"geometry":["point","vertex","area"],"matchScore":2,"terms":["calgary lrt","calgary transit","ct","ctrain"],"reference":{"key":"station","value":"light_rail"},"tags":{"light_rail":"yes","network:wikidata":"Q1022321","public_transport":"station"},"addTags":{"light_rail":"yes","network":"CTrain","network:wikidata":"Q1022321","operator":"Calgary Transit","operator:wikidata":"Q143630","public_transport":"station","railway":"station","station":"light_rail"}},"public_transport/station_light_rail/edmontonlrt-463491":{"name":"Edmonton LRT","locationSet":{"include":["ca-ab"]},"geometry":["point","vertex","area"],"matchScore":2,"terms":["edmonton lrt","edmonton transit service","edmonton transit system","ets"],"reference":{"key":"station","value":"light_rail"},"tags":{"light_rail":"yes","network:wikidata":"Q1285861","public_transport":"station"},"addTags":{"light_rail":"yes","network":"Edmonton LRT","network:wikidata":"Q1285861","operator":"Edmonton Transit Service","operator:wikidata":"Q3048058","public_transport":"station","railway":"station","station":"light_rail"}},"type/route/bus/airdrietransit-286824":{"name":"Airdrie Transit","locationSet":{"include":["ca-ab"]},"geometry":["relation"],"matchScore":2,"terms":["airdrie transit","at"],"reference":{"key":"route","value":"bus"},"tags":{"network:wikidata":"Q4698613","route":"bus","type":"route"},"addTags":{"network":"Airdrie Transit","network:wikidata":"Q4698613","route":"bus","type":"route"}},"type/route/bus/ct-286824":{"name":"CT","locationSet":{"include":["ca-ab"]},"geometry":["relation"],"matchScore":2,"terms":["ct"],"reference":{"key":"route","value":"bus"},"tags":{"network:wikidata":"Q143630","route":"bus","type":"route"},"addTags":{"network":"CT","network:wikidata":"Q143630","route":"bus","type":"route"}},"type/route/bus/ets-286824":{"name":"ETS","locationSet":{"include":["ca-ab"]},"geometry":["relation"],"matchScore":2,"terms":["ets"],"reference":{"key":"route","value":"bus"},"tags":{"network:wikidata":"Q3048058","route":"bus","type":"route"},"addTags":{"network":"ETS","network:wikidata":"Q3048058","route":"bus","type":"route"}},"type/route/bus/roam-286824":{"name":"ROAM","locationSet":{"include":["ca-ab"]},"geometry":["relation"],"matchScore":2,"terms":["roam"],"reference":{"key":"route","value":"bus"},"tags":{"network:wikidata":"Q7339725","route":"bus","type":"route"},"addTags":{"network":"ROAM","network:wikidata":"Q7339725","route":"bus","type":"route"}},"type/route/bus/stat-286824":{"name":"StAT","locationSet":{"include":["ca-ab"]},"geometry":["relation"],"matchScore":2,"terms":["stat"],"reference":{"key":"route","value":"bus"},"tags":{"network:wikidata":"Q7586770","route":"bus","type":"route"},"addTags":{"network":"StAT","network:wikidata":"Q7586770","route":"bus","type":"route"}},"type/route/bus/strathconacountytransit-286824":{"name":"Strathcona County Transit","locationSet":{"include":["ca-ab"]},"geometry":["relation"],"matchScore":2,"terms":["strathcona county transit"],"reference":{"key":"route","value":"bus"},"tags":{"network:wikidata":"Q7622074","route":"bus","type":"route"},"addTags":{"network":"Strathcona County Transit","network:wikidata":"Q7622074","route":"bus","type":"route"}},"type/route/light_rail/ctrain-8bcf03":{"name":"CTrain","locationSet":{"include":["ca-ab"]},"geometry":["relation"],"matchScore":2,"terms":["calgary lrt","calgary transit","ct","ctrain"],"reference":{"key":"route","value":"light_rail"},"tags":{"network:wikidata":"Q1022321","route":"light_rail","type":"route"},"addTags":{"network":"CTrain","network:wikidata":"Q1022321","operator":"Calgary Transit","operator:wikidata":"Q143630","route":"light_rail","type":"route"}},"type/route/light_rail/edmontonlrt-8bcf03":{"name":"Edmonton LRT","locationSet":{"include":["ca-ab"]},"geometry":["relation"],"matchScore":2,"terms":["edmonton lrt","edmonton transit service","edmonton transit system","ets"],"reference":{"key":"route","value":"light_rail"},"tags":{"network:wikidata":"Q1285861","route":"light_rail","type":"route"},"addTags":{"network":"Edmonton LRT","network:wikidata":"Q1285861","operator":"Edmonton Transit Service","operator:wikidata":"Q3048058","route":"light_rail","type":"route"}}}