{"amenity/atm/cadencebank-4b4e36":{"name":"Cadence Bank","locationSet":{"include":["us-al","us-ar","us-fl","us-ga","us-il","us-la","us-ms","us-tn","us-tx"]},"geometry":["point","vertex"],"matchScore":2,"terms":["bankcorpsouth","bankcorpsouth bank","cadence bank"],"fields":["name","brand","{amenity/atm}"],"tags":{"amenity":"atm","brand:wikidata":"Q4854138"},"addTags":{"amenity":"atm","brand":"Cadence Bank","brand:wikidata":"Q4854138","operator":"Cadence Bank","operator:wikidata":"Q4854138"}},"amenity/atm/centralbank-5249e2":{"name":"Central Bank","locationSet":{"include":["us-fl","us-il","us-ks","us-mo","us-nc","us-ok","us-tn"]},"geometry":["point","vertex"],"matchScore":2,"terms":["central bank"],"fields":["name","brand","{amenity/atm}"],"tags":{"amenity":"atm","brand:wikidata":"Q113482320"},"addTags":{"amenity":"atm","brand":"Central Bank","brand:wikidata":"Q113482320","operator":"Central Bank","operator:wikidata":"Q113482320"}},"amenity/atm/citynationalbank-97e06e":{"name":"City National Bank (California)","locationSet":{"include":["us-ca","us-dc","us-de","us-fl","us-ga","us-ma","us-mn","us-nv","us-ny","us-tn","us-va"]},"geometry":["point","vertex"],"matchScore":2,"terms":["city national bank"],"fields":["name","brand","{amenity/atm}"],"tags":{"amenity":"atm","brand:wikidata":"Q5123314"},"addTags":{"amenity":"atm","brand":"City National Bank","brand:wikidata":"Q5123314","operator":"City National Bank","operator:wikidata":"Q5123314"}},"amenity/atm/citynationalbank-1c09a7":{"name":"City National Bank (Florida)","locationSet":{"include":["us-fl"]},"geometry":["point","vertex"],"matchScore":2,"terms":["city national bank","city national bank of florida"],"fields":["name","brand","{amenity/atm}"],"tags":{"amenity":"atm","brand:wikidata":"Q16958644"},"addTags":{"amenity":"atm","brand":"City National Bank","brand:wikidata":"Q16958644","official_name":"City National Bank of Florida","operator":"City National Bank","operator:wikidata":"Q16958644"}},"amenity/atm/communityfirstcreditunion-1c09a7":{"name":"Community First Credit Union","locationSet":{"include":["us-fl"]},"geometry":["point","vertex"],"matchScore":2,"terms":["community first credit union"],"fields":["name","brand","{amenity/atm}"],"tags":{"amenity":"atm","brand:wikidata":"Q110718704"},"addTags":{"amenity":"atm","brand":"Community First Credit Union","brand:wikidata":"Q110718704","operator":"Community First Credit Union","operator:wikidata":"Q110718704"}},"amenity/atm/republicbank-10254d":{"name":"Republic Bank (Kentucky)","locationSet":{"include":["us-fl","us-in","us-ky","us-oh","us-tn"]},"geometry":["point","vertex"],"matchScore":2,"terms":["republic bank","republic bank & trust company"],"fields":["name","brand","{amenity/atm}"],"tags":{"amenity":"atm","brand:wikidata":"Q7314387"},"addTags":{"amenity":"atm","brand":"Republic Bank","brand:wikidata":"Q7314387","official_name":"Republic Bank & Trust Company","operator":"Republic Bank","operator:wikidata":"Q7314387"}},"amenity/atm/selfhelpcreditunion-f893c2":{"name":"Self-Help Credit Union","locationSet":{"include":["us-fl","us-nc","us-sc","us-va"]},"geometry":["point","vertex"],"matchScore":2,"terms":["self-help credit union"],"fields":["name","brand","{amenity/atm}"],"tags":{"amenity":"atm","brand:wikidata":"Q111381769"},"addTags":{"amenity":"atm","brand":"Self-Help Credit Union","brand:wikidata":"Q111381769","operator":"Self-Help Credit Union","operator:wikidata":"Q111381769"}},"amenity/bank/cadencebank-e05e09":{"name":"Cadence Bank","locationSet":{"include":["us-al","us-ar","us-fl","us-ga","us-il","us-la","us-ms","us-tn","us-tx"]},"geometry":["point","area"],"matchScore":2,"terms":["bankcorpsouth","bankcorpsouth bank","cadence bank"],"tags":{"amenity":"bank","brand:wikidata":"Q4854138"},"addTags":{"amenity":"bank","brand":"Cadence Bank","brand:wikidata":"Q4854138","name":"Cadence Bank"}},"amenity/bank/centralbank-43524a":{"name":"Central Bank","locationSet":{"include":["us-fl","us-il","us-ks","us-mo","us-nc","us-ok","us-tn"]},"geometry":["point","area"],"matchScore":2,"terms":["central bank"],"tags":{"amenity":"bank","brand:wikidata":"Q113482320"},"addTags":{"amenity":"bank","brand":"Central Bank","brand:wikidata":"Q113482320","name":"Central Bank"}},"amenity/bank/citynationalbank-0b143b":{"name":"City National Bank (California)","locationSet":{"include":["us-ca","us-dc","us-de","us-fl","us-ga","us-ma","us-mn","us-nv","us-ny","us-tn","us-va"]},"geometry":["point","area"],"matchScore":2,"terms":["city national bank"],"tags":{"amenity":"bank","brand:wikidata":"Q5123314"},"addTags":{"amenity":"bank","brand":"City National Bank","brand:wikidata":"Q5123314","name":"City National Bank"}},"amenity/bank/citynationalbank-9ffb0f":{"name":"City National Bank (Florida)","locationSet":{"include":["us-fl"]},"geometry":["point","area"],"matchScore":2,"terms":["city national bank","city national bank of florida"],"tags":{"amenity":"bank","brand:wikidata":"Q16958644"},"addTags":{"amenity":"bank","brand":"City National Bank","brand:wikidata":"Q16958644","name":"City National Bank","official_name":"City National Bank of Florida"}},"amenity/bank/communityfirstcreditunion-9ffb0f":{"name":"Community First Credit Union","locationSet":{"include":["us-fl"]},"geometry":["point","area"],"matchScore":2,"terms":["community first credit union"],"tags":{"amenity":"bank","brand:wikidata":"Q110718704"},"addTags":{"amenity":"bank","brand":"Community First Credit Union","brand:wikidata":"Q110718704","name":"Community First Credit Union"}},"amenity/bank/republicbank-6552d3":{"name":"Republic Bank (Kentucky)","locationSet":{"include":["us-fl","us-in","us-ky","us-oh","us-tn"]},"geometry":["point","area"],"matchScore":2,"terms":["republic bank","republic bank & trust company"],"tags":{"amenity":"bank","brand:wikidata":"Q7314387"},"addTags":{"amenity":"bank","brand":"Republic Bank","brand:wikidata":"Q7314387","name":"Republic Bank","official_name":"Republic Bank & Trust Company"}},"amenity/bank/selfhelpcreditunion-2b62fb":{"name":"Self-Help Credit Union","locationSet":{"include":["us-fl","us-nc","us-sc","us-va"]},"geometry":["point","area"],"matchScore":2,"terms":["self-help credit union"],"tags":{"amenity":"bank","brand:wikidata":"Q111381769"},"addTags":{"amenity":"bank","brand":"Self-Help Credit Union","brand:wikidata":"Q111381769","name":"Self-Help Credit Union"}},"amenity/fast_food/alohapokeco-6b3f2b":{"name":"Aloha Pokē Co","locationSet":{"include":["us-dc","us-fl","us-ga","us-il","us-mn","us-tx","us-wi"]},"geometry":["point","area"],"matchScore":2,"terms":["aloha pokē co"],"tags":{"amenity":"fast_food","brand:wikidata":"Q111231031"},"addTags":{"amenity":"fast_food","brand":"Aloha Pokē Co","brand:wikidata":"Q111231031","cuisine":"poke","name":"Aloha Pokē Co","takeaway":"yes"}},"amenity/fast_food/donut/duckdonuts-6333a9":{"name":"Duck Donuts","locationSet":{"include":["ca-on","eg","sa","us-ar","us-az","us-ca","us-co","us-fl","us-ga","us-id","us-il","us-ks","us-ky","us-md","us-mi","us-mn","us-mo","us-nc","us-nj","us-ny","us-oh","us-pa","us-sc","us-tn","us-tx","us-ut","us-va"]},"geometry":["point","area"],"matchScore":2,"terms":["duck donuts","duck doughnuts"],"reference":{"key":"cuisine","value":"donut"},"tags":{"amenity":"fast_food","brand:wikidata":"Q54958282","cuisine":"donut"},"addTags":{"amenity":"fast_food","brand":"Duck Donuts","brand:wikidata":"Q54958282","cuisine":"donut","name":"Duck Donuts","takeaway":"yes"}},"amenity/fast_food/lemonsharkpoke-44dd3c":{"name":"LemonShark Poké","locationSet":{"include":["us-az","us-ca","us-fl","us-il","us-la","us-nc","us-oh","us-tx"]},"geometry":["point","area"],"matchScore":2,"terms":["lemonshark poké"],"tags":{"amenity":"fast_food","brand:wikidata":"Q115411660"},"addTags":{"amenity":"fast_food","brand":"LemonShark Poké","brand:wikidata":"Q115411660","cuisine":"poke","name":"LemonShark Poké.","takeaway":"yes"}},"amenity/fast_food/chicken/pdq-f02697":{"name":"PDQ","locationSet":{"include":["us-fl","us-nc","us-nj","us-ny","us-sc"]},"geometry":["point","area"],"matchScore":2,"terms":["pdq"],"reference":{"key":"cuisine","value":"chicken"},"tags":{"amenity":"fast_food","brand:wikidata":"Q87675367","cuisine":"chicken"},"addTags":{"amenity":"fast_food","brand":"PDQ","brand:wikidata":"Q87675367","cuisine":"chicken","name":"PDQ","takeaway":"yes"}},"amenity/fast_food/pokebros-eebea8":{"name":"Poke Bros.","locationSet":{"include":["us-de","us-fl","us-il","us-in","us-ky","us-nc","us-nj","us-ny","us-oh","us-pa","us-ri","us-sc","us-tn"]},"geometry":["point","area"],"matchScore":2,"terms":["poke bros."],"tags":{"amenity":"fast_food","brand:wikidata":"Q113640421"},"addTags":{"amenity":"fast_food","brand":"Poke Bros.","brand:wikidata":"Q113640421","cuisine":"poke","name":"Poke Bros.","takeaway":"yes"}},"amenity/fuel/cefco-7de6f8":{"name":"CEFCO","locationSet":{"include":["us-al","us-fl","us-la","us-ms","us-tx"]},"geometry":["point","area"],"matchScore":2,"terms":["cefco"],"fields":["name","brand","{amenity/fuel}"],"tags":{"amenity":"fuel","brand:wikidata":"Q110209230"},"addTags":{"amenity":"fuel","brand":"CEFCO","brand:wikidata":"Q110209230","name":"CEFCO"}},"amenity/fuel/wawa-f5bad4":{"name":"Wawa","locationSet":{"include":["us-dc","us-de","us-fl","us-md","us-nj","us-pa","us-va"]},"geometry":["point","area"],"matchScore":2,"terms":["wawa"],"fields":["name","brand","{amenity/fuel}"],"tags":{"amenity":"fuel","brand:wikidata":"Q5936320"},"addTags":{"amenity":"fuel","brand":"Wawa","brand:wikidata":"Q5936320","name":"Wawa"}},"amenity/ice_cream/jenissplendidicecreams-53b2e0":{"name":"Jeni's Splendid Ice Cream","locationSet":{"include":["us-al","us-ca","us-dc","us-fl","us-ga","us-il","us-mo","us-nc","us-oh","us-pa","us-sc","us-tn","us-tx"]},"geometry":["point","area"],"matchScore":2,"terms":["jeni's","jeni's splendid ice creams"],"tags":{"amenity":"ice_cream","brand:wikidata":"Q16851196"},"addTags":{"amenity":"ice_cream","brand":"Jeni's Splendid Ice Creams","brand:wikidata":"Q16851196","name":"Jeni's Splendid Ice Creams","short_name":"Jeni's"}},"amenity/payment_terminal/floridamvexpress-d0eb4d":{"name":"Florida MV Express","locationSet":{"include":["us-fl"]},"geometry":["point"],"matchScore":2,"terms":["flhsmv","florida department of highway safety and motor vehicles","florida mv express"],"tags":{"amenity":"payment_terminal","brand:wikidata":"Q110265714"},"addTags":{"amenity":"payment_terminal","brand":"Florida MV Express","brand:wikidata":"Q110265714","name":"Florida MV Express","operator":"Florida Department of Highway Safety and Motor Vehicles","operator:short":"FLHSMV","operator:wikidata":"Q5461320"}},"amenity/restaurant/seafood/joescrabshack-c6bbaa":{"name":"Joe's Crab Shack","locationSet":{"include":["us-az","us-ca","us-co","us-fl","us-ga","us-ky","us-la","us-mo","us-nc","us-nj","us-pa","us-sc","us-tn","us-tx","us-ut","us-va"]},"geometry":["point","area"],"matchScore":2,"terms":["joe's crab shack"],"reference":{"key":"cuisine","value":"seafood"},"tags":{"amenity":"restaurant","brand:wikidata":"Q6208210","cuisine":"seafood"},"addTags":{"amenity":"restaurant","brand":"Joe's Crab Shack","brand:wikidata":"Q6208210","cuisine":"seafood","name":"Joe's Crab Shack"}},"amenity/restaurant/american/lazydog-f4f1ab":{"name":"Lazy Dog","locationSet":{"include":["us-ca","us-co","us-fl","us-ga","us-il","us-nv","us-tx","us-va"]},"geometry":["point","area"],"matchScore":2,"terms":["lazy dog"],"reference":{"key":"cuisine","value":"american"},"tags":{"amenity":"restaurant","brand:wikidata":"Q111304278","cuisine":"american"},"addTags":{"amenity":"restaurant","brand":"Lazy Dog","brand:wikidata":"Q111304278","cuisine":"american","name":"Lazy Dog"}},"amenity/restaurant/italian/maggianoslittleitaly-acf8ec":{"name":"Maggiano's Little Italy","locationSet":{"include":["us-az","us-ca","us-co","us-dc","us-fl","us-ga","us-il","us-in","us-ks","us-ma","us-md","us-mi","us-mo","us-nc","us-nj","us-nv","us-ny","us-oh","us-pa","us-tn","us-tx","us-va","us-wa","us-wi"]},"geometry":["point","area"],"matchScore":2,"terms":["maggiano's little italy"],"reference":{"key":"cuisine","value":"italian"},"tags":{"amenity":"restaurant","brand:wikidata":"Q6730149","cuisine":"italian"},"addTags":{"amenity":"restaurant","brand":"Maggiano's Little Italy","brand:wikidata":"Q6730149","cuisine":"italian","name":"Maggiano's Little Italy"}},"amenity/restaurant/maplestreetbiscuitcompany-d344e2":{"name":"Maple Street Biscuit Company","locationSet":{"include":["us-al","us-fl","us-ga","us-ky","us-nc","us-sc","us-tn","us-tx","us-va"]},"geometry":["point","area"],"matchScore":2,"terms":["maple street biscuit company"],"tags":{"amenity":"restaurant","brand:wikidata":"Q97104481"},"addTags":{"amenity":"restaurant","brand":"Maple Street Biscuit Company","brand:wikidata":"Q97104481","cuisine":"breakfast","name":"Maple Street Biscuit Company"}},"amenity/restaurant/pizza/patroni-07a6d4":{"name":"Patroni","locationSet":{"include":["br","us-fl"]},"geometry":["point","area"],"matchScore":2,"terms":["patroni"],"reference":{"key":"cuisine","value":"pizza"},"tags":{"amenity":"restaurant","brand:wikidata":"Q117467086","cuisine":"pizza"},"addTags":{"amenity":"restaurant","brand":"Patroni","brand:wikidata":"Q117467086","cuisine":"pizza","name":"Patroni"}},"shop/cannabis/cannabist-c9b3a7":{"name":"Cannabist","locationSet":{"include":["us-az","us-ca","us-fl","us-il","us-ma","us-mo","us-nj","us-ny","us-ut","us-va","us-wv"]},"geometry":["point","area"],"matchScore":2,"terms":["cannabist"],"tags":{"brand:wikidata":"Q114896590","shop":"cannabis"},"addTags":{"brand":"Cannabist","brand:wikidata":"Q114896590","name":"Cannabist","shop":"cannabis"}},"shop/cannabis/curaleaf-4b9e8a":{"name":"Curaleaf","locationSet":{"include":["us-az","us-ct","us-fl","us-il","us-ma","us-md","us-me","us-mi","us-nd","us-nj","us-nv","us-ny","us-oh","us-or","us-pa","us-ut","us-vt"]},"geometry":["point","area"],"matchScore":2,"terms":["curaleaf"],"tags":{"brand:wikidata":"Q85754829","shop":"cannabis"},"addTags":{"brand":"Curaleaf","brand:wikidata":"Q85754829","name":"Curaleaf","shop":"cannabis"}},"shop/cannabis/muv-fc9dca":{"name":"MÜV","locationSet":{"include":["us-fl"]},"geometry":["point","area"],"matchScore":2,"terms":["müv"],"tags":{"brand:wikidata":"Q116766803","shop":"cannabis"},"addTags":{"brand":"MÜV","brand:wikidata":"Q116766803","name":"MÜV","shop":"cannabis"}},"shop/cannabis/rise-ce371d":{"name":"RISE","locationSet":{"include":["us-fl","us-il","us-ma","us-md","us-nj","us-nv","us-oh","us-pa","us-va"]},"geometry":["point","area"],"matchScore":2,"terms":["rise"],"tags":{"brand:wikidata":"Q108911841","shop":"cannabis"},"addTags":{"brand":"RISE","brand:wikidata":"Q108911841","name":"RISE","shop":"cannabis"}},"shop/cannabis/sunnyside-d4e7e6":{"name":"Sunnyside","locationSet":{"include":["us-az","us-fl","us-il","us-ma","us-ny","us-oh","us-pa"]},"geometry":["point","area"],"matchScore":2,"terms":["sunnyside"],"tags":{"brand:wikidata":"Q114880592","shop":"cannabis"},"addTags":{"brand":"Sunnyside","brand:wikidata":"Q114880592","name":"Sunnyside","shop":"cannabis"}},"shop/clothes/live-03923a":{"name":"LIVE!","locationSet":{"include":["br","us-fl"]},"geometry":["point","area"],"matchScore":2,"terms":["live!"],"tags":{"brand:wikidata":"Q115486385","shop":"clothes"},"addTags":{"brand":"Live!","brand:wikidata":"Q115486385","clothes":"sports","name":"Live!","shop":"clothes"}},"shop/convenience/cefco-abc9e1":{"name":"CEFCO","locationSet":{"include":["us-al","us-fl","us-la","us-ms","us-tx"]},"geometry":["point","area"],"matchScore":2,"terms":["cefco"],"tags":{"brand:wikidata":"Q110209230","shop":"convenience"},"addTags":{"amenity":"fuel","brand":"CEFCO","brand:wikidata":"Q110209230","name":"CEFCO","shop":"convenience"}},"shop/convenience/wawa-dad45f":{"name":"Wawa","locationSet":{"include":["us-dc","us-de","us-fl","us-md","us-nj","us-pa","us-va"]},"geometry":["point","area"],"matchScore":2,"terms":["wawa"],"tags":{"brand:wikidata":"Q5936320","shop":"convenience"},"addTags":{"brand":"Wawa","brand:wikidata":"Q5936320","name":"Wawa","shop":"convenience"}},"shop/department_store/bealls-834cda":{"name":"Bealls (Florida-based)","locationSet":{"include":["us-az","us-fl","us-ga"]},"geometry":["point","area"],"matchScore":2,"terms":["bealls"],"tags":{"brand:wikidata":"Q4876153","shop":"department_store"},"addTags":{"brand":"Bealls","brand:wikidata":"Q4876153","name":"Bealls","shop":"department_store"}},"shop/hairdresser/imagestudios-0d42d5":{"name":"Image Studios","locationSet":{"include":["us-ca","us-co","us-fl","us-ga","us-ky","us-mo","us-nc","us-nj","us-nv","us-ny","us-oh","us-or","us-sc","us-tn","us-tx","us-ut"]},"geometry":["point","area"],"matchScore":2,"terms":["image studios"],"tags":{"brand:wikidata":"Q110998819","shop":"hairdresser"},"addTags":{"brand":"Image Studios","brand:wikidata":"Q110998819","name":"Image Studios","shop":"hairdresser"}},"shop/pastry/mrsfields-e944b6":{"name":"Mrs. Fields","locationSet":{"include":["au","ph","us-ak","us-al","us-az","us-ca","us-co","us-de","us-fl","us-ga","us-hi","us-id","us-il","us-in","us-ks","us-la","us-ma","us-md","us-me","us-mi","us-mo","us-ms","us-nc","us-nj","us-nv","us-ny","us-oh","us-ok","us-pa","us-tx","us-ut","us-wi"]},"geometry":["point","area"],"matchScore":2,"terms":["mrs. fields"],"tags":{"brand:wikidata":"Q3866841","shop":"pastry"},"addTags":{"brand":"Mrs. Fields","brand:wikidata":"Q3866841","name":"Mrs. Fields","shop":"pastry"}},"shop/storage_rental/metroselfstorage-5b962b":{"name":"Metro Self Storage","locationSet":{"include":["us-al","us-ct","us-fl","us-ga","us-il","us-mn","us-nj","us-ny","us-pa","us-tn","us-tx","us-wi"]},"geometry":["point","area"],"matchScore":2,"terms":["metro self storage"],"tags":{"brand:wikidata":"Q114515454","shop":"storage_rental"},"addTags":{"brand":"Metro Self Storage","brand:wikidata":"Q114515454","name":"Metro Self Storage","shop":"storage_rental"}},"shop/storage_rental/thelockup-b15f96":{"name":"The Lock Up","locationSet":{"include":["us-ct","us-fl","us-hi","us-il","us-ma","us-mn","us-nj","us-ny"]},"geometry":["point","area"],"matchScore":2,"terms":["the lock up"],"tags":{"brand:wikidata":"Q17089825","shop":"storage_rental"},"addTags":{"brand":"The Lock Up","brand:wikidata":"Q17089825","name":"The Lock Up","shop":"storage_rental"}},"shop/trade/thompsoncat-386127":{"name":"Thompson CAT (Thompson Tractor)","locationSet":{"include":["us-al","us-fl"]},"geometry":["point","area"],"matchScore":2,"terms":["thompson cat"],"tags":{"brand:wikidata":"Q115486339","shop":"trade"},"addTags":{"brand":"Thompson CAT","brand:wikidata":"Q115486339","name":"Thompson CAT","shop":"trade","trade":"construction_equipment"}},"tourism/hotel/yotel-ebcca5":{"name":"YOTEL","locationSet":{"include":["ae","ch","fx","gb","nl","pt","sg","tr","us-ca","us-dc","us-fl","us-ma","us-ny"]},"geometry":["point","area"],"matchScore":2,"terms":["yotel"],"fields":["name","brand","{tourism/hotel}"],"tags":{"brand:wikidata":"Q8046002","tourism":"hotel"},"addTags":{"brand":"YOTEL","brand:wikidata":"Q8046002","name":"YOTEL","tourism":"hotel"}},"amenity/community_centre/universityofflorida-fb3645":{"name":"University of Florida","locationSet":{"include":["us-fl"]},"geometry":["point","area"],"matchScore":2,"terms":["university of florida"],"tags":{"amenity":"community_centre","operator:wikidata":"Q501758"},"addTags":{"amenity":"community_centre","operator":"University of Florida","operator:wikidata":"Q501758"}},"amenity/fire_station/orangecountyfirerescue-528b2f":{"name":"Orange County Fire Rescue","locationSet":{"include":["us-fl"]},"geometry":["point","area"],"matchScore":2,"terms":["ocfr","orange county fire rescue"],"tags":{"amenity":"fire_station","operator:wikidata":"Q7099567"},"addTags":{"amenity":"fire_station","operator":"Orange County Fire Rescue","operator:wikidata":"Q7099567"}},"amenity/fire_station/orlandofiredepartment-528b2f":{"name":"Orlando Fire Department","locationSet":{"include":["us-fl"]},"geometry":["point","area"],"matchScore":2,"terms":["orlando fire department"],"tags":{"amenity":"fire_station","operator:wikidata":"Q85791246"},"addTags":{"amenity":"fire_station","operator":"Orlando Fire Department","operator:wikidata":"Q85791246"}},"amenity/library/alachuacountylibrarydistrict-7fd740":{"name":"Alachua County Library District","locationSet":{"include":["us-fl"]},"geometry":["point","area"],"matchScore":2,"terms":["alachua county library district"],"tags":{"amenity":"library","operator:wikidata":"Q4705448"},"addTags":{"amenity":"library","operator":"Alachua County Library District","operator:type":"public","operator:wikidata":"Q4705448"}},"amenity/library/orangecountylibrarysystem-7fd740":{"name":"Orange County Library System","locationSet":{"include":["us-fl"]},"geometry":["point","area"],"matchScore":2,"terms":["ocls","orange county library system"],"tags":{"amenity":"library","operator:wikidata":"Q7099576"},"addTags":{"amenity":"library","operator":"Orange County Library System","operator:short":"OCLS","operator:type":"public","operator:wikidata":"Q7099576"}},"amenity/prison/floridadepartmentofcorrections-59f3bf":{"name":"Florida Department of Corrections","locationSet":{"include":["us-fl"]},"geometry":["area","point"],"matchScore":2,"terms":["florida department of corrections"],"fields":["name","operator","{amenity/prison}"],"tags":{"amenity":"prison","operator:wikidata":"Q5461316"},"addTags":{"amenity":"prison","operator":"Florida Department of Corrections","operator:wikidata":"Q5461316"}},"amenity/school/alachuacountypublicschools-e8bc2a":{"name":"Alachua County Public Schools","locationSet":{"include":["us-fl"]},"geometry":["area","point"],"matchScore":2,"terms":["acps","alachua county public schools"],"tags":{"amenity":"school","operator:wikidata":"Q7432152"},"addTags":{"amenity":"school","operator":"Alachua County Public Schools","operator:short":"ACPS","operator:type":"public","operator:wikidata":"Q7432152"}},"amenity/school/duvalcountypublicschools-e8bc2a":{"name":"Duval County Public Schools","locationSet":{"include":["us-fl"]},"geometry":["area","point"],"matchScore":2,"terms":["dcps","duval county public schools"],"tags":{"amenity":"school","operator:wikidata":"Q5317603"},"addTags":{"amenity":"school","operator":"Duval County Public Schools","operator:short":"DCPS","operator:type":"public","operator:wikidata":"Q5317603"}},"amenity/school/hillsboroughcountypublicschools-e8bc2a":{"name":"Hillsborough County Public Schools","locationSet":{"include":["us-fl"]},"geometry":["area","point"],"matchScore":2,"terms":["hcps","hillsborough county public schools"],"tags":{"amenity":"school","operator:wikidata":"Q8778311"},"addTags":{"amenity":"school","operator":"Hillsborough County Public Schools","operator:short":"HCPS","operator:type":"public","operator:wikidata":"Q8778311"}},"amenity/school/leoncountyschools-e8bc2a":{"name":"Leon County Schools","locationSet":{"include":["us-fl"]},"geometry":["area","point"],"matchScore":2,"terms":["leon county schools"],"tags":{"amenity":"school","operator:wikidata":"Q6524588"},"addTags":{"amenity":"school","operator":"Leon County Schools","operator:type":"public","operator:wikidata":"Q6524588"}},"amenity/school/manateecountyschooldistrict-e8bc2a":{"name":"Manatee County School District","locationSet":{"include":["us-fl"]},"geometry":["area","point"],"matchScore":2,"terms":["manatee county school district","mcsd"],"tags":{"amenity":"school","operator:wikidata":"Q6747061"},"addTags":{"amenity":"school","operator":"Manatee County School District","operator:short":"MCSD","operator:type":"public","operator:wikidata":"Q6747061"}},"amenity/school/miamidadecountypublicschools-e8bc2a":{"name":"Miami-Dade County Public Schools","locationSet":{"include":["us-fl"]},"geometry":["area","point"],"matchScore":2,"terms":["mdcps","miami-dade county public schools"],"tags":{"amenity":"school","operator:wikidata":"Q5640011"},"addTags":{"amenity":"school","operator":"Miami-Dade County Public Schools","operator:short":"MDCPS","operator:type":"public","operator:wikidata":"Q5640011"}},"amenity/school/orangecountypublicschools-e8bc2a":{"name":"Orange County Public Schools","locationSet":{"include":["us-fl"]},"geometry":["area","point"],"matchScore":2,"terms":["ocps","orange county public schools"],"tags":{"amenity":"school","operator:wikidata":"Q8778313"},"addTags":{"amenity":"school","operator":"Orange County Public Schools","operator:short":"OCPS","operator:type":"public","operator:wikidata":"Q8778313"}},"amenity/school/unioncountyschooldistrict-e8bc2a":{"name":"Union County School District (Florida)","locationSet":{"include":["us-fl"]},"geometry":["area","point"],"matchScore":2,"terms":["union county school district"],"tags":{"amenity":"school","operator:wikidata":"Q16909768"},"addTags":{"amenity":"school","operator":"Union County School District","operator:type":"public","operator:wikidata":"Q16909768"}},"leisure/nature_reserve/cityofbelleair-611b25":{"name":"City of Belleair","locationSet":{"include":["us-fl"]},"geometry":["area","point"],"matchScore":2,"terms":["city of belleair"],"tags":{"leisure":"nature_reserve","operator:wikidata":"Q2092758"},"addTags":{"leisure":"nature_reserve","operator":"City of Belleair","operator:type":"public","operator:wikidata":"Q2092758"}},"leisure/nature_reserve/cityofboyntonbeach-611b25":{"name":"City of Boynton Beach","locationSet":{"include":["us-fl"]},"geometry":["area","point"],"matchScore":2,"terms":["city of boynton beach"],"tags":{"leisure":"nature_reserve","operator:wikidata":"Q896048"},"addTags":{"leisure":"nature_reserve","operator":"City of Boynton Beach","operator:type":"public","operator:wikidata":"Q896048"}},"leisure/nature_reserve/cityofclearwater-611b25":{"name":"City of Clearwater","locationSet":{"include":["us-fl"]},"geometry":["area","point"],"matchScore":2,"terms":["city of clearwater"],"tags":{"leisure":"nature_reserve","operator:wikidata":"Q244146"},"addTags":{"leisure":"nature_reserve","operator":"City of Clearwater","operator:type":"public","operator:wikidata":"Q244146"}},"leisure/nature_reserve/cityofjacksonville-611b25":{"name":"City of Jacksonville","locationSet":{"include":["us-fl"]},"geometry":["area","point"],"matchScore":2,"terms":["city of jacksonville"],"tags":{"leisure":"nature_reserve","operator:wikidata":"Q16568"},"addTags":{"leisure":"nature_reserve","operator":"City of Jacksonville","operator:type":"public","operator:wikidata":"Q16568"}},"leisure/nature_reserve/cityofmiami-611b25":{"name":"City of Miami","locationSet":{"include":["us-fl"]},"geometry":["area","point"],"matchScore":2,"terms":["city of miami"],"tags":{"leisure":"nature_reserve","operator:wikidata":"Q8652"},"addTags":{"leisure":"nature_reserve","operator":"City of Miami","operator:type":"public","operator:wikidata":"Q8652"}},"leisure/nature_reserve/cityoforlando-611b25":{"name":"City of Orlando","locationSet":{"include":["us-fl"]},"geometry":["area","point"],"matchScore":2,"terms":["city of orlando","orlando"],"tags":{"leisure":"nature_reserve","operator:wikidata":"Q49233"},"addTags":{"leisure":"nature_reserve","operator":"City of Orlando","operator:type":"public","operator:wikidata":"Q49233"}},"leisure/nature_reserve/cityofstuart-611b25":{"name":"City of Stuart","locationSet":{"include":["us-fl"]},"geometry":["area","point"],"matchScore":2,"terms":["city of stuart"],"tags":{"leisure":"nature_reserve","operator:wikidata":"Q988744"},"addTags":{"leisure":"nature_reserve","operator":"City of Stuart","operator:type":"public","operator:wikidata":"Q988744"}},"leisure/nature_reserve/cityoftallahassee-611b25":{"name":"City of Tallahassee","locationSet":{"include":["us-fl"]},"geometry":["area","point"],"matchScore":2,"terms":["city of tallahassee"],"tags":{"leisure":"nature_reserve","operator:wikidata":"Q37043"},"addTags":{"leisure":"nature_reserve","operator":"City of Tallahassee","operator:type":"public","operator:wikidata":"Q37043"}},"leisure/nature_reserve/winterpark-611b25":{"name":"City of Winter Park","locationSet":{"include":["us-fl"]},"geometry":["area","point"],"matchScore":2,"terms":["winter park"],"tags":{"leisure":"nature_reserve","operator:wikidata":"Q986641"},"addTags":{"leisure":"nature_reserve","operator":"Winter Park","operator:type":"public","operator:wikidata":"Q986641"}},"leisure/nature_reserve/floridastateparks-611b25":{"name":"Florida State Parks","locationSet":{"include":["us-fl"]},"geometry":["area","point"],"matchScore":2,"terms":["florida state parks","fsp"],"tags":{"leisure":"nature_reserve","operator:wikidata":"Q5461615"},"addTags":{"leisure":"nature_reserve","operator":"Florida State Parks","operator:short":"FSP","operator:type":"public","operator:wikidata":"Q5461615"}},"leisure/nature_reserve/hillsboroughcounty-611b25":{"name":"Hillsborough County (Florida)","locationSet":{"include":["us-fl"]},"geometry":["area","point"],"matchScore":2,"terms":["hillsborough county","hillsborough county parks, receration and conservation department"],"tags":{"leisure":"nature_reserve","operator:wikidata":"Q488874"},"addTags":{"leisure":"nature_reserve","operator":"Hillsborough County","operator:type":"public","operator:wikidata":"Q488874"}},"leisure/nature_reserve/martincounty-611b25":{"name":"Martin County (Florida)","locationSet":{"include":["us-fl"]},"geometry":["area","point"],"matchScore":2,"terms":["martin county"],"tags":{"leisure":"nature_reserve","operator:wikidata":"Q648752"},"addTags":{"leisure":"nature_reserve","operator":"Martin County","operator:type":"public","operator:wikidata":"Q648752"}},"leisure/nature_reserve/orangecountyparksandrecreation-611b25":{"name":"Orange County Parks & Recreation","locationSet":{"include":["us-fl"]},"geometry":["area","point"],"matchScore":2,"terms":["orange county parks & recreation"],"tags":{"leisure":"nature_reserve","operator:wikidata":"Q21020929"},"addTags":{"leisure":"nature_reserve","operator":"Orange County Parks & Recreation","operator:type":"public","operator:wikidata":"Q21020929"}},"leisure/park/cityofbelleair-38b713":{"name":"City of Belleair","locationSet":{"include":["us-fl"]},"geometry":["area","point"],"matchScore":2,"terms":["city of belleair"],"tags":{"leisure":"park","operator:wikidata":"Q2092758"},"addTags":{"leisure":"park","operator":"City of Belleair","operator:type":"public","operator:wikidata":"Q2092758"}},"leisure/park/cityofboyntonbeach-38b713":{"name":"City of Boynton Beach","locationSet":{"include":["us-fl"]},"geometry":["area","point"],"matchScore":2,"terms":["city of boynton beach"],"tags":{"leisure":"park","operator:wikidata":"Q896048"},"addTags":{"leisure":"park","operator":"City of Boynton Beach","operator:type":"public","operator:wikidata":"Q896048"}},"leisure/park/cityofclearwater-38b713":{"name":"City of Clearwater","locationSet":{"include":["us-fl"]},"geometry":["area","point"],"matchScore":2,"terms":["city of clearwater"],"tags":{"leisure":"park","operator:wikidata":"Q244146"},"addTags":{"leisure":"park","operator":"City of Clearwater","operator:type":"public","operator:wikidata":"Q244146"}},"leisure/park/cityofjacksonville-38b713":{"name":"City of Jacksonville","locationSet":{"include":["us-fl"]},"geometry":["area","point"],"matchScore":2,"terms":["city of jacksonville"],"tags":{"leisure":"park","operator:wikidata":"Q16568"},"addTags":{"leisure":"park","operator":"City of Jacksonville","operator:type":"public","operator:wikidata":"Q16568"}},"leisure/park/cityofmiami-38b713":{"name":"City of Miami","locationSet":{"include":["us-fl"]},"geometry":["area","point"],"matchScore":2,"terms":["city of miami"],"tags":{"leisure":"park","operator:wikidata":"Q8652"},"addTags":{"leisure":"park","operator":"City of Miami","operator:type":"public","operator:wikidata":"Q8652"}},"leisure/park/cityoforlando-38b713":{"name":"City of Orlando","locationSet":{"include":["us-fl"]},"geometry":["area","point"],"matchScore":2,"terms":["city of orlando","orlando"],"tags":{"leisure":"park","operator:wikidata":"Q49233"},"addTags":{"leisure":"park","operator":"City of Orlando","operator:type":"public","operator:wikidata":"Q49233"}},"leisure/park/cityofstuart-38b713":{"name":"City of Stuart","locationSet":{"include":["us-fl"]},"geometry":["area","point"],"matchScore":2,"terms":["city of stuart"],"tags":{"leisure":"park","operator:wikidata":"Q988744"},"addTags":{"leisure":"park","operator":"City of Stuart","operator:type":"public","operator:wikidata":"Q988744"}},"leisure/park/cityoftallahassee-38b713":{"name":"City of Tallahassee","locationSet":{"include":["us-fl"]},"geometry":["area","point"],"matchScore":2,"terms":["city of tallahassee"],"tags":{"leisure":"park","operator:wikidata":"Q37043"},"addTags":{"leisure":"park","operator":"City of Tallahassee","operator:type":"public","operator:wikidata":"Q37043"}},"leisure/park/winterpark-38b713":{"name":"City of Winter Park","locationSet":{"include":["us-fl"]},"geometry":["area","point"],"matchScore":2,"terms":["winter park"],"tags":{"leisure":"park","operator:wikidata":"Q986641"},"addTags":{"leisure":"park","operator":"Winter Park","operator:type":"public","operator:wikidata":"Q986641"}},"leisure/park/floridastateparks-38b713":{"name":"Florida State Parks","locationSet":{"include":["us-fl"]},"geometry":["area","point"],"matchScore":2,"terms":["florida state parks","fsp"],"tags":{"leisure":"park","operator:wikidata":"Q5461615"},"addTags":{"leisure":"park","operator":"Florida State Parks","operator:short":"FSP","operator:type":"public","operator:wikidata":"Q5461615"}},"leisure/park/hillsboroughcounty-38b713":{"name":"Hillsborough County (Florida)","locationSet":{"include":["us-fl"]},"geometry":["area","point"],"matchScore":2,"terms":["hillsborough county","hillsborough county parks, receration and conservation department"],"tags":{"leisure":"park","operator:wikidata":"Q488874"},"addTags":{"leisure":"park","operator":"Hillsborough County","operator:type":"public","operator:wikidata":"Q488874"}},"leisure/park/martincounty-38b713":{"name":"Martin County (Florida)","locationSet":{"include":["us-fl"]},"geometry":["area","point"],"matchScore":2,"terms":["martin county"],"tags":{"leisure":"park","operator:wikidata":"Q648752"},"addTags":{"leisure":"park","operator":"Martin County","operator:type":"public","operator:wikidata":"Q648752"}},"leisure/park/orangecountyparksandrecreation-38b713":{"name":"Orange County Parks & Recreation","locationSet":{"include":["us-fl"]},"geometry":["area","point"],"matchScore":2,"terms":["orange county parks & recreation"],"tags":{"leisure":"park","operator:wikidata":"Q21020929"},"addTags":{"leisure":"park","operator":"Orange County Parks & Recreation","operator:type":"public","operator:wikidata":"Q21020929"}},"office/government/floridadepartmentofhighwaysafetyandmotorvehicles-75d2a7":{"name":"FLHSMV","locationSet":{"include":["us-fl"]},"geometry":["point","area"],"matchScore":2,"terms":["driver licenses","flhsmv","florida department of highway safety and motor vehicles"],"fields":["name","operator","{office/government}"],"tags":{"office":"government","operator:wikidata":"Q5461320"},"addTags":{"government":"transportation","office":"government","operator":"Florida Department of Highway Safety and Motor Vehicles","operator:short":"FLHSMV","operator:wikidata":"Q5461320"}},"power/generator/floridapowerandlight-2af0cf":{"name":"Florida Power & Light","locationSet":{"include":["us-fl"]},"geometry":["point","vertex","area"],"matchScore":2,"terms":["flordia power and light","florida power & light","fpl"],"tags":{"operator:wikidata":"Q1430055","power":"generator"},"addTags":{"operator":"Florida Power & Light","operator:wikidata":"Q1430055","power":"generator"}},"power/line/floridapowerandlight-05df97":{"name":"Florida Power & Light","locationSet":{"include":["us-fl"]},"geometry":["line"],"matchScore":2,"terms":["flordia power and light","florida power & light","florida power & light co","fpl"],"tags":{"operator:wikidata":"Q1430055","power":"line"},"addTags":{"operator":"Florida Power & Light","operator:wikidata":"Q1430055","power":"line"}},"power/minor_line/floridapowerandlight-1d9dd1":{"name":"Florida Power & Light","locationSet":{"include":["us-fl"]},"geometry":["line"],"matchScore":2,"terms":["flordia power and light","florida power & light","florida power & light co","fpl"],"tags":{"operator:wikidata":"Q1430055","power":"minor_line"},"addTags":{"operator":"Florida Power & Light","operator:wikidata":"Q1430055","power":"minor_line"}},"power/pole/floridapowerandlight-7b79c3":{"name":"Florida Power & Light","locationSet":{"include":["us-fl"]},"geometry":["point","vertex"],"matchScore":2,"terms":["flordia power and light","florida power & light","florida power & light co","fpl"],"tags":{"operator:wikidata":"Q1430055","power":"pole"},"addTags":{"operator":"Florida Power & Light","operator:wikidata":"Q1430055","power":"pole"}},"power/substation/floridapowerandlight-8432e2":{"name":"Florida Power & Light","locationSet":{"include":["us-fl"]},"geometry":["area","point"],"matchScore":2,"terms":["flordia power and light","florida power & light","florida power & light co","fpl"],"tags":{"operator:wikidata":"Q1430055","power":"substation"},"addTags":{"operator":"Florida Power & Light","operator:wikidata":"Q1430055","power":"substation"}},"power/tower/floridapowerandlight-a2a8ba":{"name":"Florida Power & Light","locationSet":{"include":["us-fl"]},"geometry":["point","vertex"],"matchScore":2,"terms":["flordia power and light","florida power & light","florida power & light co","fpl"],"tags":{"operator:wikidata":"Q1430055","power":"tower"},"addTags":{"operator":"Florida Power & Light","operator:wikidata":"Q1430055","power":"tower"}},"power/transformer/floridapowerandlight-c33728":{"name":"Florida Power & Light","locationSet":{"include":["us-fl"]},"geometry":["point","vertex"],"matchScore":2,"terms":["flordia power and light","florida power & light","florida power & light co","fpl"],"tags":{"operator:wikidata":"Q1430055","power":"transformer"},"addTags":{"operator":"Florida Power & Light","operator:wikidata":"Q1430055","power":"transformer"}},"shop/charity/goodwillindustriesofsouthflorida-4a845a":{"name":"Goodwill Industries of South Florida","locationSet":{"include":["us-fl"]},"geometry":["point","area"],"matchScore":2,"terms":["goodwill","goodwill industries of south florida"],"tags":{"operator:wikidata":"Q54624094","shop":"charity"},"addTags":{"brand":"Goodwill","brand:wikidata":"Q5583655","name":"Goodwill","operator":"Goodwill Industries of South Florida","operator:wikidata":"Q54624094","shop":"charity"}},"public_transport/platform/bus_point/bct-654e4b":{"name":"BCT","locationSet":{"include":["us-fl"]},"geometry":["point","vertex"],"matchScore":2,"terms":["bct"],"reference":{"key":"public_transport","value":"platform"},"tags":{"bus":"yes","network:wikidata":"Q4975895","public_transport":"platform"},"addTags":{"bus":"yes","highway":"bus_stop","network":"BCT","network:wikidata":"Q4975895","public_transport":"platform"}},"public_transport/platform/bus_point/citrusconnection-654e4b":{"name":"Citrus Connection","locationSet":{"include":["us-fl"]},"geometry":["point","vertex"],"matchScore":2,"terms":["citrus connection"],"reference":{"key":"public_transport","value":"platform"},"tags":{"bus":"yes","network:wikidata":"Q5122884","public_transport":"platform"},"addTags":{"bus":"yes","highway":"bus_stop","network":"Citrus Connection","network:wikidata":"Q5122884","public_transport":"platform"}},"public_transport/platform/bus_point/hart-654e4b":{"name":"HART","locationSet":{"include":["us-fl"]},"geometry":["point","vertex"],"matchScore":2,"terms":["hart"],"reference":{"key":"public_transport","value":"platform"},"tags":{"bus":"yes","network:wikidata":"Q5763656","public_transport":"platform"},"addTags":{"bus":"yes","highway":"bus_stop","network":"HART","network:wikidata":"Q5763656","public_transport":"platform"}},"public_transport/platform/bus_point/jta-654e4b":{"name":"JTA (Jacksonville)","locationSet":{"include":["us-fl"]},"geometry":["point","vertex"],"matchScore":2,"terms":["jacksonville transportation authority","jta"],"reference":{"key":"public_transport","value":"platform"},"tags":{"bus":"yes","network:wikidata":"Q15051623","public_transport":"platform"},"addTags":{"bus":"yes","highway":"bus_stop","network":"JTA","network:wikidata":"Q15051623","operator":"Jacksonville Transportation Authority","public_transport":"platform"}},"public_transport/platform/bus_point/mdt-654e4b":{"name":"MDT","locationSet":{"include":["us-fl"]},"geometry":["point","vertex"],"matchScore":2,"terms":["mdt"],"reference":{"key":"public_transport","value":"platform"},"tags":{"bus":"yes","network:wikidata":"Q6317384","public_transport":"platform"},"addTags":{"bus":"yes","highway":"bus_stop","network":"MDT","network:wikidata":"Q6317384","public_transport":"platform"}},"public_transport/platform/bus_point/palmtran-654e4b":{"name":"Palm Tran","locationSet":{"include":["us-fl"]},"geometry":["point","vertex"],"matchScore":2,"terms":["palm tran"],"reference":{"key":"public_transport","value":"platform"},"tags":{"bus":"yes","network:wikidata":"Q7128083","public_transport":"platform"},"addTags":{"bus":"yes","highway":"bus_stop","network":"Palm Tran","network:wikidata":"Q7128083","public_transport":"platform"}},"public_transport/platform/bus_point/scat-654e4b":{"name":"SCAT (Saratosa County)","locationSet":{"include":["us-fl"]},"geometry":["point","vertex"],"matchScore":2,"terms":["sarasota county area transit","scat"],"reference":{"key":"public_transport","value":"platform"},"tags":{"bus":"yes","network:wikidata":"Q7423226","public_transport":"platform"},"addTags":{"bus":"yes","highway":"bus_stop","network":"SCAT","network:wikidata":"Q7423226","operator":"Sarasota County Area Transit","public_transport":"platform"}},"public_transport/platform/bus_point/starmetro-654e4b":{"name":"StarMetro","locationSet":{"include":["us-fl"]},"geometry":["point","vertex"],"matchScore":2,"terms":["starmetro"],"reference":{"key":"public_transport","value":"platform"},"tags":{"bus":"yes","network:wikidata":"Q7600550","public_transport":"platform"},"addTags":{"bus":"yes","highway":"bus_stop","network":"StarMetro","network:wikidata":"Q7600550","public_transport":"platform"}},"public_transport/platform/bus_point/votran-654e4b":{"name":"Votran","locationSet":{"include":["us-fl"]},"geometry":["point","vertex"],"matchScore":2,"terms":["volusia county public transit system","votran"],"reference":{"key":"public_transport","value":"platform"},"tags":{"bus":"yes","network:wikidata":"Q7941092","public_transport":"platform"},"addTags":{"bus":"yes","highway":"bus_stop","network":"Votran","network:wikidata":"Q7941092","operator":"Volusia County Public Transit System","public_transport":"platform"}},"type/route/bus/bct-e591f2":{"name":"BCT","locationSet":{"include":["us-fl"]},"geometry":["relation"],"matchScore":2,"terms":["bct"],"reference":{"key":"route","value":"bus"},"tags":{"network:wikidata":"Q4975895","route":"bus","type":"route"},"addTags":{"network":"BCT","network:wikidata":"Q4975895","route":"bus","type":"route"}},"type/route/bus/citrusconnection-e591f2":{"name":"Citrus Connection","locationSet":{"include":["us-fl"]},"geometry":["relation"],"matchScore":2,"terms":["citrus connection"],"reference":{"key":"route","value":"bus"},"tags":{"network:wikidata":"Q5122884","route":"bus","type":"route"},"addTags":{"network":"Citrus Connection","network:wikidata":"Q5122884","route":"bus","type":"route"}},"type/route/bus/hart-e591f2":{"name":"HART","locationSet":{"include":["us-fl"]},"geometry":["relation"],"matchScore":2,"terms":["hart"],"reference":{"key":"route","value":"bus"},"tags":{"network:wikidata":"Q5763656","route":"bus","type":"route"},"addTags":{"network":"HART","network:wikidata":"Q5763656","route":"bus","type":"route"}},"type/route/bus/jta-e591f2":{"name":"JTA (Jacksonville)","locationSet":{"include":["us-fl"]},"geometry":["relation"],"matchScore":2,"terms":["jacksonville transportation authority","jta"],"reference":{"key":"route","value":"bus"},"tags":{"network:wikidata":"Q15051623","route":"bus","type":"route"},"addTags":{"network":"JTA","network:wikidata":"Q15051623","operator":"Jacksonville Transportation Authority","route":"bus","type":"route"}},"type/route/bus/mdt-e591f2":{"name":"MDT","locationSet":{"include":["us-fl"]},"geometry":["relation"],"matchScore":2,"terms":["mdt"],"reference":{"key":"route","value":"bus"},"tags":{"network:wikidata":"Q6317384","route":"bus","type":"route"},"addTags":{"network":"MDT","network:wikidata":"Q6317384","route":"bus","type":"route"}},"type/route/bus/palmtran-e591f2":{"name":"Palm Tran","locationSet":{"include":["us-fl"]},"geometry":["relation"],"matchScore":2,"terms":["palm tran"],"reference":{"key":"route","value":"bus"},"tags":{"network:wikidata":"Q7128083","route":"bus","type":"route"},"addTags":{"network":"Palm Tran","network:wikidata":"Q7128083","route":"bus","type":"route"}},"type/route/bus/scat-e591f2":{"name":"SCAT (Saratosa County)","locationSet":{"include":["us-fl"]},"geometry":["relation"],"matchScore":2,"terms":["sarasota county area transit","scat"],"reference":{"key":"route","value":"bus"},"tags":{"network:wikidata":"Q7423226","route":"bus","type":"route"},"addTags":{"network":"SCAT","network:wikidata":"Q7423226","operator":"Sarasota County Area Transit","route":"bus","type":"route"}},"type/route/bus/starmetro-e591f2":{"name":"StarMetro","locationSet":{"include":["us-fl"]},"geometry":["relation"],"matchScore":2,"terms":["starmetro"],"reference":{"key":"route","value":"bus"},"tags":{"network:wikidata":"Q7600550","route":"bus","type":"route"},"addTags":{"network":"StarMetro","network:wikidata":"Q7600550","route":"bus","type":"route"}},"type/route/bus/votran-e591f2":{"name":"Votran","locationSet":{"include":["us-fl"]},"geometry":["relation"],"matchScore":2,"terms":["volusia county public transit system","votran"],"reference":{"key":"route","value":"bus"},"tags":{"network:wikidata":"Q7941092","route":"bus","type":"route"},"addTags":{"network":"Votran","network:wikidata":"Q7941092","operator":"Volusia County Public Transit System","route":"bus","type":"route"}}}