{"amenity/atm/iranzaminbank-243651":{"name":"Iran Zamin Bank","locationSet":{"include":["ir"]},"geometry":["point","vertex"],"matchScore":2,"terms":["iran zamin bank","بانک ایران زمین"],"fields":["name","brand","{amenity/atm}"],"tags":{"amenity":"atm","brand:wikidata":"Q5934423"},"addTags":{"amenity":"atm","brand":"بانک ایران زمین","brand:en":"Iran Zamin Bank","brand:wikidata":"Q5934423","name:en":"Iran Zamin Bank","operator":"بانک ایران زمین","operator:wikidata":"Q5934423"}},"amenity/atm/karafarinbank-243651":{"name":"Karafarin Bank","locationSet":{"include":["ir"]},"geometry":["point","vertex"],"matchScore":2,"terms":["karafarin bank","بانک کارآفرین"],"fields":["name","brand","{amenity/atm}"],"tags":{"amenity":"atm","brand:wikidata":"Q6367875"},"addTags":{"amenity":"atm","brand":"بانک کارآفرین","brand:en":"Karafarin Bank","brand:wikidata":"Q6367875","name:en":"Karafarin Bank","operator":"بانک کارآفرین","operator:wikidata":"Q6367875"}},"amenity/atm/ayandehbank-243651":{"name":"بانک آینده","locationSet":{"include":["ir"]},"geometry":["point","vertex"],"matchScore":2,"terms":["ayandeh bank","بانک آینده"],"fields":["name","brand","{amenity/atm}"],"tags":{"amenity":"atm","brand:wikidata":"Q5938144"},"addTags":{"amenity":"atm","brand":"بانک آینده","brand:en":"Ayandeh Bank","brand:wikidata":"Q5938144","name:en":"Ayandeh Bank","operator":"بانک آینده","operator:wikidata":"Q5938144"}},"amenity/atm/enbank-243651":{"name":"بانک اقتصاد نوین","locationSet":{"include":["ir"]},"geometry":["point","vertex"],"matchScore":2,"terms":["en bank","بانک اقتصاد نوین"],"fields":["name","brand","{amenity/atm}"],"tags":{"amenity":"atm","brand:wikidata":"Q5323768"},"addTags":{"amenity":"atm","brand":"بانک اقتصاد نوین","brand:en":"EN Bank","brand:wikidata":"Q5323768","name:en":"EN Bank","operator":"بانک اقتصاد نوین","operator:wikidata":"Q5323768"}},"amenity/atm/ansarbank-243651":{"name":"بانک انصار","locationSet":{"include":["ir"]},"geometry":["point","vertex"],"matchScore":2,"terms":["ansar bank","بانک انصار"],"fields":["name","brand","{amenity/atm}"],"tags":{"amenity":"atm","brand:wikidata":"Q5862675"},"addTags":{"amenity":"atm","brand":"بانک انصار","brand:en":"Ansar Bank","brand:fa":"بانک انصار","brand:wikidata":"Q5862675","name:en":"Ansar Bank","name:fa":"بانک انصار","operator":"بانک انصار","operator:wikidata":"Q5862675"}},"amenity/atm/1bf094-243651":{"name":"بانک ایران زمین","locationSet":{"include":["ir"]},"geometry":["point","vertex"],"matchScore":2,"terms":["بانک ایران زمین"],"fields":["name","brand","{amenity/atm}"],"tags":{"amenity":"atm","brand:wikidata":"Q5934423"},"addTags":{"amenity":"atm","brand":"بانک ایران زمین","brand:wikidata":"Q5934423","operator":"بانک ایران زمین","operator:wikidata":"Q5934423"}},"amenity/atm/parsianbank-243651":{"name":"بانک پارسیان","locationSet":{"include":["ir"]},"geometry":["point","vertex"],"matchScore":2,"terms":["parsian bank","بانک پارسیان"],"fields":["name","brand","{amenity/atm}"],"tags":{"amenity":"atm","brand:wikidata":"Q2410404"},"addTags":{"amenity":"atm","brand":"بانک پارسیان","brand:en":"Parsian Bank","brand:wikidata":"Q2410404","name:en":"Parsian Bank","operator":"بانک پارسیان","operator:wikidata":"Q2410404"}},"amenity/atm/bankpasargad-243651":{"name":"بانک پاسارگاد","locationSet":{"include":["ir"]},"geometry":["point","vertex"],"matchScore":2,"terms":["bank pasargad","بانک پاسارگاد"],"fields":["name","brand","{amenity/atm}"],"tags":{"amenity":"atm","brand:wikidata":"Q4855962"},"addTags":{"amenity":"atm","brand":"بانک پاسارگاد","brand:en":"Bank Pasargad","brand:wikidata":"Q4855962","name:en":"Bank Pasargad","operator":"بانک پاسارگاد","operator:wikidata":"Q4855962"}},"amenity/atm/667eb5-243651":{"name":"بانک تجارت","locationSet":{"include":["ir"]},"geometry":["point","vertex"],"matchScore":2,"terms":["بانک تجارت"],"fields":["name","brand","{amenity/atm}"],"tags":{"amenity":"atm","brand:wikidata":"Q7695198"},"addTags":{"amenity":"atm","brand":"بانک تجارت","brand:wikidata":"Q7695198","operator":"بانک تجارت","operator:wikidata":"Q7695198"}},"amenity/atm/9d24d1-243651":{"name":"بانک توسعه تعاون","locationSet":{"include":["ir"]},"geometry":["point","vertex"],"matchScore":2,"terms":["بانک توسعه تعاون"],"fields":["name","brand","{amenity/atm}"],"tags":{"amenity":"atm","brand:wikidata":"Q5684450"},"addTags":{"amenity":"atm","brand":"بانک توسعه تعاون","brand:wikidata":"Q5684450","operator":"بانک توسعه تعاون","operator:wikidata":"Q5684450"}},"amenity/atm/bankday-243651":{"name":"بانک دی","locationSet":{"include":["ir"]},"geometry":["point","vertex"],"matchScore":2,"terms":["bank day","بانک دی"],"fields":["name","brand","{amenity/atm}"],"tags":{"amenity":"atm","brand:wikidata":"Q5942230"},"addTags":{"amenity":"atm","brand":"بانک دی","brand:en":"Bank Day","brand:fa":"بانک دی","brand:wikidata":"Q5942230","name:en":"Bank Day","name:fa":"بانک دی","operator":"بانک دی","operator:wikidata":"Q5942230"}},"amenity/atm/refahbank-243651":{"name":"بانک رفاه","locationSet":{"include":["ir"]},"geometry":["point","vertex"],"matchScore":2,"terms":["refah bank","بانک رفاه","بانک رفاه کارگران"],"fields":["name","brand","{amenity/atm}"],"tags":{"amenity":"atm","brand:wikidata":"Q7307083"},"addTags":{"amenity":"atm","brand":"بانک رفاه","brand:en":"Refah Bank","brand:wikidata":"Q7307083","name:en":"Refah Bank","operator":"بانک رفاه","operator:wikidata":"Q7307083"}},"amenity/atm/samanbank-243651":{"name":"بانک سامان","locationSet":{"include":["ir"]},"geometry":["point","vertex"],"matchScore":2,"terms":["saman bank","بانک سامان"],"fields":["name","brand","{amenity/atm}"],"tags":{"amenity":"atm","brand:wikidata":"Q4117676"},"addTags":{"amenity":"atm","brand":"بانک سامان","brand:en":"Saman Bank","brand:wikidata":"Q4117676","name:en":"Saman Bank","operator":"بانک سامان","operator:wikidata":"Q4117676"}},"amenity/atm/banksepah-243651":{"name":"بانک سپه","locationSet":{"include":["ir"]},"geometry":["point","vertex"],"matchScore":2,"terms":["bank sepah","بانک سپه"],"fields":["name","brand","{amenity/atm}"],"tags":{"amenity":"atm","brand:wikidata":"Q2882624"},"addTags":{"amenity":"atm","brand":"بانک سپه","brand:en":"Bank Sepah","brand:wikidata":"Q2882624","name:en":"Bank Sepah","operator":"بانک سپه","operator:wikidata":"Q2882624"}},"amenity/atm/sarmayehbank-243651":{"name":"بانک سرمایه","locationSet":{"include":["ir"]},"geometry":["point","vertex"],"matchScore":2,"terms":["sarmayeh bank","بانک سرمایه"],"fields":["name","brand","{amenity/atm}"],"tags":{"amenity":"atm","brand:wikidata":"Q7424291"},"addTags":{"amenity":"atm","brand":"بانک سرمایه","brand:en":"Sarmayeh Bank","brand:wikidata":"Q7424291","name:en":"Sarmayeh Bank","operator":"بانک سرمایه","operator:wikidata":"Q7424291"}},"amenity/atm/sinabank-243651":{"name":"بانک سینا","locationSet":{"include":["ir"]},"geometry":["point","vertex"],"matchScore":2,"terms":["sina bank","بانک سینا"],"fields":["name","brand","{amenity/atm}"],"tags":{"amenity":"atm","brand:wikidata":"Q10860246"},"addTags":{"amenity":"atm","brand":"بانک سینا","brand:en":"Sina Bank","brand:wikidata":"Q10860246","name:en":"Sina Bank","operator":"بانک سینا","operator:wikidata":"Q10860246"}},"amenity/atm/shahrbank-243651":{"name":"بانک شهر","locationSet":{"include":["ir"]},"geometry":["point","vertex"],"matchScore":2,"terms":["shahr bank","بانک شهر"],"fields":["name","brand","{amenity/atm}"],"tags":{"amenity":"atm","brand:wikidata":"Q5941033"},"addTags":{"amenity":"atm","brand":"بانک شهر","brand:en":"Shahr Bank","brand:fa":"بانک شهر","brand:wikidata":"Q5941033","name:en":"Shahr Bank","name:fa":"بانک شهر","operator":"بانک شهر","operator:wikidata":"Q5941033"}},"amenity/atm/banksaderatiran-243651":{"name":"بانک صادرات","locationSet":{"include":["ir"]},"geometry":["point","vertex"],"matchScore":2,"terms":["bank saderat iran","بانک صادرات","بانک صادرات ایران","صادرات"],"fields":["name","brand","{amenity/atm}"],"tags":{"amenity":"atm","brand:wikidata":"Q2882608"},"addTags":{"amenity":"atm","brand":"بانک صادرات","brand:en":"Bank Saderat Iran","brand:fa":"بانک صادرات","brand:wikidata":"Q2882608","name:en":"Bank Saderat Iran","name:fa":"بانک صادرات","operator":"بانک صادرات","operator:wikidata":"Q2882608"}},"amenity/atm/qarzalhasanehmehriranbank-243651":{"name":"بانک قرض الحسنه مهر ایران","locationSet":{"include":["ir"]},"geometry":["point","vertex"],"matchScore":2,"terms":["qarz al-hasaneh mehr iran bank","qmb","بانک قرض الحسنه مهر ایران"],"fields":["name","brand","{amenity/atm}"],"tags":{"amenity":"atm","brand:wikidata":"Q18327813"},"addTags":{"amenity":"atm","brand":"بانک قرض الحسنه مهر ایران","brand:en":"Qarz Al-Hasaneh Mehr Iran Bank","brand:fa":"بانک قرض الحسنه مهر ایران","brand:wikidata":"Q18327813","name:en":"Qarz Al-Hasaneh Mehr Iran Bank","name:fa":"بانک قرض الحسنه مهر ایران","operator":"بانک قرض الحسنه مهر ایران","operator:wikidata":"Q18327813","short_name":"QMB"}},"amenity/atm/ghavaminbank-243651":{"name":"بانک قوامین","locationSet":{"include":["ir"]},"geometry":["point","vertex"],"matchScore":2,"terms":["ghavamin bank","بانک قوامین"],"fields":["name","brand","{amenity/atm}"],"tags":{"amenity":"atm","brand:wikidata":"Q10860253"},"addTags":{"amenity":"atm","brand":"بانک قوامین","brand:en":"Ghavamin Bank","brand:fa":"بانک قوامین","brand:wikidata":"Q10860253","name:en":"Ghavamin Bank","name:fa":"بانک قوامین","operator":"بانک قوامین","operator:wikidata":"Q10860253"}},"amenity/atm/bankkeshavarziiran-243651":{"name":"بانک کشاورزی","locationSet":{"include":["ir"]},"geometry":["point","vertex"],"matchScore":2,"terms":["bank keshavarzi iran","بانک کشاورزی"],"fields":["name","brand","{amenity/atm}"],"tags":{"amenity":"atm","brand:wikidata":"Q6395007"},"addTags":{"amenity":"atm","brand":"بانک کشاورزی","brand:en":"Bank Keshavarzi Iran","brand:wikidata":"Q6395007","name:en":"Bank Keshavarzi Iran","operator":"بانک کشاورزی","operator:wikidata":"Q6395007"}},"amenity/atm/bankmaskan-243651":{"name":"بانک مسکن","locationSet":{"include":["ir"]},"geometry":["point","vertex"],"matchScore":2,"terms":["bank maskan","بانک مسکن"],"fields":["name","brand","{amenity/atm}"],"tags":{"amenity":"atm","brand:wikidata":"Q4855942"},"addTags":{"amenity":"atm","brand":"بانک مسکن","brand:en":"Bank Maskan","brand:wikidata":"Q4855942","name:en":"Bank Maskan","operator":"بانک مسکن","operator:wikidata":"Q4855942"}},"amenity/atm/bankmellat-243651":{"name":"بانک ملت","locationSet":{"include":["ir"]},"geometry":["point","vertex"],"matchScore":2,"terms":["bank mellat","بانک ملت"],"fields":["name","brand","{amenity/atm}"],"tags":{"amenity":"atm","brand:wikidata":"Q4855944"},"addTags":{"amenity":"atm","brand":"بانک ملت","brand:en":"Bank Mellat","brand:wikidata":"Q4855944","name:en":"Bank Mellat","operator":"بانک ملت","operator:wikidata":"Q4855944"}},"amenity/atm/bankmelliiran-243651":{"name":"بانک ملی","locationSet":{"include":["ir"]},"geometry":["point","vertex"],"matchScore":2,"terms":["bank melli iran","بانک ملی","بانک ملی ایران","ملی"],"fields":["name","brand","{amenity/atm}"],"tags":{"amenity":"atm","brand:wikidata":"Q806640"},"addTags":{"amenity":"atm","brand":"بانک ملی","brand:en":"Bank Melli Iran","brand:wikidata":"Q806640","name:en":"Bank Melli Iran","operator":"بانک ملی","operator:wikidata":"Q806640"}},"amenity/atm/mehreqtesadbank-243651":{"name":"بانک مهر اقتصاد","locationSet":{"include":["ir"]},"geometry":["point","vertex"],"matchScore":2,"terms":["mehr eqtesad bank","بانک مهر اقتصاد"],"fields":["name","brand","{amenity/atm}"],"tags":{"amenity":"atm","brand:wikidata":"Q5942921"},"addTags":{"amenity":"atm","brand":"بانک مهر اقتصاد","brand:wikidata":"Q5942921","name:en":"Mehr Eqtesad Bank","operator":"بانک مهر اقتصاد","operator:wikidata":"Q5942921"}},"amenity/atm/postbankofiran-243651":{"name":"پست بانک","locationSet":{"include":["ir"]},"geometry":["point","vertex"],"matchScore":2,"terms":["post bank of iran","پست بانک"],"fields":["name","brand","{amenity/atm}"],"tags":{"amenity":"atm","brand:wikidata":"Q7233625"},"addTags":{"amenity":"atm","brand":"پست بانک","brand:en":"Post Bank of Iran","brand:wikidata":"Q7233625","name:en":"Post Bank of Iran","operator":"پست بانک","operator:wikidata":"Q7233625"}},"amenity/bank/iranzaminbank-cdfa72":{"name":"Iran Zamin Bank","locationSet":{"include":["ir"]},"geometry":["point","area"],"matchScore":2,"terms":["iran zamin bank","بانک ایران زمین"],"tags":{"amenity":"bank","brand:wikidata":"Q5934423"},"addTags":{"amenity":"bank","brand":"بانک ایران زمین","brand:en":"Iran Zamin Bank","brand:wikidata":"Q5934423","name":"بانک ایران زمین","name:en":"Iran Zamin Bank"}},"amenity/bank/karafarinbank-cdfa72":{"name":"Karafarin Bank","locationSet":{"include":["ir"]},"geometry":["point","area"],"matchScore":2,"terms":["karafarin bank","بانک کارآفرین"],"tags":{"amenity":"bank","brand:wikidata":"Q6367875"},"addTags":{"amenity":"bank","brand":"بانک کارآفرین","brand:en":"Karafarin Bank","brand:wikidata":"Q6367875","name":"بانک کارآفرین","name:en":"Karafarin Bank"}},"amenity/bank/ayandehbank-cdfa72":{"name":"بانک آینده","locationSet":{"include":["ir"]},"geometry":["point","area"],"matchScore":2,"terms":["ayandeh bank","بانک آینده"],"tags":{"amenity":"bank","brand:wikidata":"Q5938144"},"addTags":{"amenity":"bank","brand":"بانک آینده","brand:en":"Ayandeh Bank","brand:wikidata":"Q5938144","name":"بانک آینده","name:en":"Ayandeh Bank"}},"amenity/bank/enbank-cdfa72":{"name":"بانک اقتصاد نوین","locationSet":{"include":["ir"]},"geometry":["point","area"],"matchScore":2,"terms":["en bank","بانک اقتصاد نوین"],"tags":{"amenity":"bank","brand:wikidata":"Q5323768"},"addTags":{"amenity":"bank","brand":"بانک اقتصاد نوین","brand:en":"EN Bank","brand:wikidata":"Q5323768","name":"بانک اقتصاد نوین","name:en":"EN Bank"}},"amenity/bank/ansarbank-cdfa72":{"name":"بانک انصار","locationSet":{"include":["ir"]},"geometry":["point","area"],"matchScore":2,"terms":["ansar bank","بانک انصار"],"tags":{"amenity":"bank","brand:wikidata":"Q5862675"},"addTags":{"amenity":"bank","brand":"بانک انصار","brand:en":"Ansar Bank","brand:fa":"بانک انصار","brand:wikidata":"Q5862675","name":"بانک انصار","name:en":"Ansar Bank","name:fa":"بانک انصار"}},"amenity/bank/1bf094-cdfa72":{"name":"بانک ایران زمین","locationSet":{"include":["ir"]},"geometry":["point","area"],"matchScore":2,"terms":["بانک ایران زمین"],"tags":{"amenity":"bank","brand:wikidata":"Q5934423"},"addTags":{"amenity":"bank","brand":"بانک ایران زمین","brand:wikidata":"Q5934423","name":"بانک ایران زمین"}},"amenity/bank/parsianbank-cdfa72":{"name":"بانک پارسیان","locationSet":{"include":["ir"]},"geometry":["point","area"],"matchScore":2,"terms":["parsian bank","بانک پارسیان"],"tags":{"amenity":"bank","brand:wikidata":"Q2410404"},"addTags":{"amenity":"bank","brand":"بانک پارسیان","brand:en":"Parsian Bank","brand:wikidata":"Q2410404","name":"بانک پارسیان","name:en":"Parsian Bank"}},"amenity/bank/bankpasargad-cdfa72":{"name":"بانک پاسارگاد","locationSet":{"include":["ir"]},"geometry":["point","area"],"matchScore":2,"terms":["bank pasargad","بانک پاسارگاد"],"tags":{"amenity":"bank","brand:wikidata":"Q4855962"},"addTags":{"amenity":"bank","brand":"بانک پاسارگاد","brand:en":"Bank Pasargad","brand:wikidata":"Q4855962","name":"بانک پاسارگاد","name:en":"Bank Pasargad"}},"amenity/bank/667eb5-cdfa72":{"name":"بانک تجارت","locationSet":{"include":["ir"]},"geometry":["point","area"],"matchScore":2,"terms":["بانک تجارت"],"tags":{"amenity":"bank","brand:wikidata":"Q7695198"},"addTags":{"amenity":"bank","brand":"بانک تجارت","brand:wikidata":"Q7695198","name":"بانک تجارت"}},"amenity/bank/9d24d1-cdfa72":{"name":"بانک توسعه تعاون","locationSet":{"include":["ir"]},"geometry":["point","area"],"matchScore":2,"terms":["بانک توسعه تعاون"],"tags":{"amenity":"bank","brand:wikidata":"Q5684450"},"addTags":{"amenity":"bank","brand":"بانک توسعه تعاون","brand:wikidata":"Q5684450","name":"بانک توسعه تعاون"}},"amenity/bank/bankday-cdfa72":{"name":"بانک دی","locationSet":{"include":["ir"]},"geometry":["point","area"],"matchScore":2,"terms":["bank day","بانک دی"],"tags":{"amenity":"bank","brand:wikidata":"Q5942230"},"addTags":{"amenity":"bank","brand":"بانک دی","brand:en":"Bank Day","brand:fa":"بانک دی","brand:wikidata":"Q5942230","name":"بانک دی","name:en":"Bank Day","name:fa":"بانک دی"}},"amenity/bank/refahbank-cdfa72":{"name":"بانک رفاه","locationSet":{"include":["ir"]},"geometry":["point","area"],"matchScore":2,"terms":["refah bank","بانک رفاه","بانک رفاه کارگران"],"tags":{"amenity":"bank","brand:wikidata":"Q7307083"},"addTags":{"amenity":"bank","brand":"بانک رفاه","brand:en":"Refah Bank","brand:wikidata":"Q7307083","name":"بانک رفاه","name:en":"Refah Bank"}},"amenity/bank/samanbank-cdfa72":{"name":"بانک سامان","locationSet":{"include":["ir"]},"geometry":["point","area"],"matchScore":2,"terms":["saman bank","بانک سامان"],"tags":{"amenity":"bank","brand:wikidata":"Q4117676"},"addTags":{"amenity":"bank","brand":"بانک سامان","brand:en":"Saman Bank","brand:wikidata":"Q4117676","name":"بانک سامان","name:en":"Saman Bank"}},"amenity/bank/banksepah-cdfa72":{"name":"بانک سپه","locationSet":{"include":["ir"]},"geometry":["point","area"],"matchScore":2,"terms":["bank sepah","بانک سپه"],"tags":{"amenity":"bank","brand:wikidata":"Q2882624"},"addTags":{"amenity":"bank","brand":"بانک سپه","brand:en":"Bank Sepah","brand:wikidata":"Q2882624","name":"بانک سپه","name:en":"Bank Sepah"}},"amenity/bank/sarmayehbank-cdfa72":{"name":"بانک سرمایه","locationSet":{"include":["ir"]},"geometry":["point","area"],"matchScore":2,"terms":["sarmayeh bank","بانک سرمایه"],"tags":{"amenity":"bank","brand:wikidata":"Q7424291"},"addTags":{"amenity":"bank","brand":"بانک سرمایه","brand:en":"Sarmayeh Bank","brand:wikidata":"Q7424291","name":"بانک سرمایه","name:en":"Sarmayeh Bank"}},"amenity/bank/sinabank-cdfa72":{"name":"بانک سینا","locationSet":{"include":["ir"]},"geometry":["point","area"],"matchScore":2,"terms":["sina bank","بانک سینا"],"tags":{"amenity":"bank","brand:wikidata":"Q10860246"},"addTags":{"amenity":"bank","brand":"بانک سینا","brand:en":"Sina Bank","brand:wikidata":"Q10860246","name":"بانک سینا","name:en":"Sina Bank"}},"amenity/bank/shahrbank-cdfa72":{"name":"بانک شهر","locationSet":{"include":["ir"]},"geometry":["point","area"],"matchScore":2,"terms":["shahr bank","بانک شهر"],"tags":{"amenity":"bank","brand:wikidata":"Q5941033"},"addTags":{"amenity":"bank","brand":"بانک شهر","brand:en":"Shahr Bank","brand:fa":"بانک شهر","brand:wikidata":"Q5941033","name":"بانک شهر","name:en":"Shahr Bank","name:fa":"بانک شهر"}},"amenity/bank/banksaderatiran-cdfa72":{"name":"بانک صادرات","locationSet":{"include":["ir"]},"geometry":["point","area"],"matchScore":2,"terms":["bank saderat iran","بانک صادرات","بانک صادرات ایران","صادرات"],"tags":{"amenity":"bank","brand:wikidata":"Q2882608"},"addTags":{"amenity":"bank","brand":"بانک صادرات","brand:en":"Bank Saderat Iran","brand:fa":"بانک صادرات","brand:wikidata":"Q2882608","name":"بانک صادرات","name:en":"Bank Saderat Iran","name:fa":"بانک صادرات"}},"amenity/bank/qarzalhasanehmehriranbank-cdfa72":{"name":"بانک قرض الحسنه مهر ایران","locationSet":{"include":["ir"]},"geometry":["point","area"],"matchScore":2,"terms":["qarz al-hasaneh mehr iran bank","qmb","بانک قرض الحسنه مهر ایران"],"tags":{"amenity":"bank","brand:wikidata":"Q18327813"},"addTags":{"amenity":"bank","brand":"بانک قرض الحسنه مهر ایران","brand:en":"Qarz Al-Hasaneh Mehr Iran Bank","brand:fa":"بانک قرض الحسنه مهر ایران","brand:wikidata":"Q18327813","name":"بانک قرض الحسنه مهر ایران","name:en":"Qarz Al-Hasaneh Mehr Iran Bank","name:fa":"بانک قرض الحسنه مهر ایران","short_name":"QMB"}},"amenity/bank/ghavaminbank-cdfa72":{"name":"بانک قوامین","locationSet":{"include":["ir"]},"geometry":["point","area"],"matchScore":2,"terms":["ghavamin bank","بانک قوامین"],"tags":{"amenity":"bank","brand:wikidata":"Q10860253"},"addTags":{"amenity":"bank","brand":"بانک قوامین","brand:en":"Ghavamin Bank","brand:fa":"بانک قوامین","brand:wikidata":"Q10860253","name":"بانک قوامین","name:en":"Ghavamin Bank","name:fa":"بانک قوامین"}},"amenity/bank/bankkeshavarziiran-cdfa72":{"name":"بانک کشاورزی","locationSet":{"include":["ir"]},"geometry":["point","area"],"matchScore":2,"terms":["bank keshavarzi iran","بانک کشاورزی"],"tags":{"amenity":"bank","brand:wikidata":"Q6395007"},"addTags":{"amenity":"bank","brand":"بانک کشاورزی","brand:en":"Bank Keshavarzi Iran","brand:wikidata":"Q6395007","name":"بانک کشاورزی","name:en":"Bank Keshavarzi Iran"}},"amenity/bank/bankmaskan-cdfa72":{"name":"بانک مسکن","locationSet":{"include":["ir"]},"geometry":["point","area"],"matchScore":2,"terms":["bank maskan","بانک مسکن"],"tags":{"amenity":"bank","brand:wikidata":"Q4855942"},"addTags":{"amenity":"bank","brand":"بانک مسکن","brand:en":"Bank Maskan","brand:wikidata":"Q4855942","name":"بانک مسکن","name:en":"Bank Maskan"}},"amenity/bank/bankmellat-cdfa72":{"name":"بانک ملت","locationSet":{"include":["ir"]},"geometry":["point","area"],"matchScore":2,"terms":["bank mellat","بانک ملت"],"tags":{"amenity":"bank","brand:wikidata":"Q4855944"},"addTags":{"amenity":"bank","brand":"بانک ملت","brand:en":"Bank Mellat","brand:wikidata":"Q4855944","name":"بانک ملت","name:en":"Bank Mellat"}},"amenity/bank/bankmelliiran-cdfa72":{"name":"بانک ملی","locationSet":{"include":["ir"]},"geometry":["point","area"],"matchScore":2,"terms":["bank melli iran","بانک ملی","بانک ملی ایران","ملی"],"tags":{"amenity":"bank","brand:wikidata":"Q806640"},"addTags":{"amenity":"bank","brand":"بانک ملی","brand:en":"Bank Melli Iran","brand:wikidata":"Q806640","name":"بانک ملی","name:en":"Bank Melli Iran"}},"amenity/bank/mehreqtesadbank-cdfa72":{"name":"بانک مهر اقتصاد","locationSet":{"include":["ir"]},"geometry":["point","area"],"matchScore":2,"terms":["mehr eqtesad bank","بانک مهر اقتصاد"],"tags":{"amenity":"bank","brand:wikidata":"Q5942921"},"addTags":{"amenity":"bank","brand":"بانک مهر اقتصاد","brand:wikidata":"Q5942921","name":"بانک مهر اقتصاد","name:en":"Mehr Eqtesad Bank"}},"amenity/bank/postbankofiran-cdfa72":{"name":"پست بانک","locationSet":{"include":["ir"]},"geometry":["point","area"],"matchScore":2,"terms":["post bank of iran","پست بانک"],"tags":{"amenity":"bank","brand:wikidata":"Q7233625"},"addTags":{"amenity":"bank","brand":"پست بانک","brand:en":"Post Bank of Iran","brand:wikidata":"Q7233625","name":"پست بانک","name:en":"Post Bank of Iran"}},"amenity/bicycle_rental/bdood-41691c":{"name":"بیدود","locationSet":{"include":["ir"]},"geometry":["point","vertex","area"],"matchScore":2,"terms":["bdood","بیدود"],"fields":["name","brand","{amenity/bicycle_rental}"],"tags":{"amenity":"bicycle_rental","brand:wikidata":"Q85746093"},"addTags":{"amenity":"bicycle_rental","brand":"بیدود","brand:en":"Bdood","brand:fa":"بیدود","brand:wikidata":"Q85746093","network":"بیدود","network:en":"Bdood","network:fa":"بیدود","network:wikidata":"Q85746093","operator":"بیدود"}},"office/insurance/iraninsurance-cf8369":{"name":"بیمه ایران","locationSet":{"include":["ir"]},"geometry":["point","area"],"matchScore":2,"terms":["iran insurance","بیمه ایران"],"fields":["name","brand","{office/insurance}"],"tags":{"brand:wikidata":"Q5930269","office":"insurance"},"addTags":{"brand":"بیمه ایران","brand:en":"Iran Insurance","brand:fa":"بیمه ایران","brand:wikidata":"Q5930269","name":"بیمه ایران","name:en":"Iran Insurance","name:fa":"بیمه ایران","office":"insurance"}},"shop/appliance/snowa-e56cf0":{"name":"اسنوا","locationSet":{"include":["ir"]},"geometry":["point","area"],"matchScore":2,"terms":["snowa","اسنوا"],"tags":{"brand:wikidata":"Q20109567","shop":"appliance"},"addTags":{"brand":"اسنوا","brand:en":"Snowa","brand:fa":"اسنوا","brand:wikidata":"Q20109567","name":"اسنوا","name:en":"Snowa","name:fa":"اسنوا","shop":"appliance"}},"shop/car/saipa-bd50af":{"name":"سایپا","locationSet":{"include":["ir"]},"geometry":["point","area"],"matchScore":2,"terms":["saipa","سایپا"],"fields":["name","brand","{shop/car}"],"tags":{"brand:wikidata":"Q116234","shop":"car"},"addTags":{"brand":"سایپا","brand:en":"Saipa","brand:fa":"سایپا","brand:wikidata":"Q116234","name":"سایپا","name:en":"Saipa","name:fa":"سایپا","shop":"car"}},"shop/confectionery/shirinasal-971a8a":{"name":"شیرین عسل","locationSet":{"include":["ir"]},"geometry":["point","area"],"matchScore":2,"terms":["shirin asal","شیرین عسل"],"tags":{"brand:wikidata":"Q5862430","shop":"confectionery"},"addTags":{"brand":"شیرین عسل","brand:en":"Shirin Asal","brand:fa":"شیرین عسل","brand:wikidata":"Q5862430","name":"شیرین عسل","name:en":"Shirin Asal","name:fa":"شیرین عسل","shop":"confectionery"}},"shop/convenience/ofoqkourosh-d157b9":{"name":"افق کوروش","locationSet":{"include":["ir"]},"geometry":["point","area"],"matchScore":2,"terms":["ofoq kourosh","ok","افق کوروش"],"tags":{"brand:wikidata":"Q65199490","shop":"convenience"},"addTags":{"brand":"افق کوروش","brand:en":"Ofoq Kourosh","brand:fa":"افق کوروش","brand:wikidata":"Q65199490","name":"افق کوروش","name:en":"Ofoq Kourosh","name:fa":"افق کوروش","shop":"convenience","short_name":"OK"}},"shop/convenience/canbo-d157b9":{"name":"جانبو","locationSet":{"include":["ir"]},"geometry":["point","area"],"matchScore":2,"terms":["canbo","جانبو"],"tags":{"brand:wikidata":"Q119145401","shop":"convenience"},"addTags":{"brand":"جانبو","brand:en":"Canbo","brand:fa":"جانبو","brand:wikidata":"Q119145401","name":"جانبو","name:en":"Canbo","name:fa":"جانبو","shop":"convenience"}},"shop/convenience/dailymarket-d157b9":{"name":"دیلی مارکت","locationSet":{"include":["ir"]},"geometry":["point","area"],"matchScore":2,"terms":["daily market","دیلی مارکت"],"tags":{"brand:wikidata":"Q119145493","shop":"convenience"},"addTags":{"brand":"دیلی مارکت","brand:en":"Daily Market","brand:fa":"دیلی مارکت","brand:wikidata":"Q119145493","name":"دیلی مارکت","name:en":"Daily Market","name:fa":"دیلی مارکت","shop":"convenience"}},"shop/convenience/refah-d157b9":{"name":"رفاه","locationSet":{"include":["ir"]},"geometry":["point","area"],"matchScore":2,"terms":["refah","رفاه"],"tags":{"brand:wikidata":"Q7307085","shop":"convenience"},"addTags":{"brand":"رفاه","brand:en":"Refah","brand:fa":"رفاه","brand:wikidata":"Q7307085","name":"رفاه","name:en":"Refah","name:fa":"رفاه","shop":"convenience"}},"shop/mobile_phone/mobilcomdebitel-8f420b":{"name":"Mobilcom Debitel","locationSet":{"include":["de","ir"]},"geometry":["point","area"],"matchScore":2,"terms":["debitel","mobilcom debitel"],"tags":{"brand:wikidata":"Q344744","shop":"mobile_phone"},"addTags":{"brand":"Mobilcom Debitel","brand:wikidata":"Q344744","name":"Mobilcom Debitel","shop":"mobile_phone"}},"shop/mobile_phone/mtn-fe03c5":{"name":"MTN","locationSet":{"include":["af","bj","bw","cg","ci","cm","gn","gw","ir","lr","ni","rw","sd","ss","sy","ug","ye","za","zm"]},"geometry":["point","area"],"matchScore":2,"terms":["agence mtn","mtn"],"tags":{"brand:wikidata":"Q1813361","shop":"mobile_phone"},"addTags":{"brand":"MTN","brand:wikidata":"Q1813361","name":"MTN","shop":"mobile_phone"}},"shop/supermarket/ofoqkourosh-c29ef9":{"name":"افق کوروش","locationSet":{"include":["ir"]},"geometry":["point","area"],"matchScore":2,"terms":["ofoq kourosh","ok","افق کوروش"],"tags":{"brand:wikidata":"Q65199490","shop":"supermarket"},"addTags":{"brand":"افق کوروش","brand:en":"Ofoq Kourosh","brand:fa":"افق کوروش","brand:wikidata":"Q65199490","name":"افق کوروش","name:en":"Ofoq Kourosh","name:fa":"افق کوروش","shop":"supermarket","short_name":"OK"}},"shop/supermarket/canbo-c29ef9":{"name":"جانبو","locationSet":{"include":["ir"]},"geometry":["point","area"],"matchScore":2,"terms":["canbo","جانبو"],"tags":{"brand:wikidata":"Q119145401","shop":"supermarket"},"addTags":{"brand":"جانبو","brand:en":"Canbo","brand:fa":"جانبو","brand:wikidata":"Q119145401","name":"جانبو","name:en":"Canbo","name:fa":"جانبو","shop":"supermarket"}},"shop/supermarket/dailymarket-c29ef9":{"name":"دیلی مارکت","locationSet":{"include":["ir"]},"geometry":["point","area"],"matchScore":2,"terms":["daily market","دیلی مارکت"],"tags":{"brand:wikidata":"Q119145493","shop":"supermarket"},"addTags":{"brand":"دیلی مارکت","brand:en":"Daily Market","brand:fa":"دیلی مارکت","brand:wikidata":"Q119145493","name":"دیلی مارکت","name:en":"Daily Market","name:fa":"دیلی مارکت","shop":"supermarket"}},"shop/supermarket/refah-c29ef9":{"name":"رفاه","locationSet":{"include":["ir"]},"geometry":["point","area"],"matchScore":2,"terms":["refah","رفاه"],"tags":{"brand:wikidata":"Q7307085","shop":"supermarket"},"addTags":{"brand":"رفاه","brand:en":"Refah","brand:fa":"رفاه","brand:wikidata":"Q7307085","name":"رفاه","name:en":"Refah","name:fa":"رفاه","shop":"supermarket"}},"shop/supermarket/hyperstar-c29ef9":{"name":"هایپراستار","locationSet":{"include":["ir"]},"geometry":["point","area"],"matchScore":2,"terms":["hyperstar","هایپراستار"],"tags":{"brand:wikidata":"Q10860330","shop":"supermarket"},"addTags":{"brand":"هایپراستار","brand:en":"Hyperstar","brand:fa":"هایپراستار","brand:wikidata":"Q10860330","name":"هایپراستار","name:en":"Hyperstar","name:fa":"هایپراستار","shop":"supermarket"}},"amenity/police/d1eead-555f12":{"name":"نیروی انتظامی","locationSet":{"include":["ir"]},"geometry":["point","area"],"matchScore":2,"terms":["نیروی انتظامی"],"tags":{"amenity":"police","operator:wikidata":"Q6082591"},"addTags":{"amenity":"police","operator":"نیروی انتظامی","operator:wikidata":"Q6082591"}},"amenity/post_box/iranpost-7b16d2":{"name":"البريد الإيراني","locationSet":{"include":["ir"]},"geometry":["point","vertex"],"matchScore":2,"terms":["iran post","البريد الإيراني"],"tags":{"amenity":"post_box","operator:wikidata":"Q6066851"},"addTags":{"amenity":"post_box","operator":"البريد الإيراني","operator:ar":"البريد الإيراني","operator:en":"Iran Post","operator:wikidata":"Q6066851"}},"amenity/post_office/iranpost-05a404":{"name":"البريد الإيراني","locationSet":{"include":["ir"]},"geometry":["point","area"],"matchScore":2,"terms":["iran post","البريد الإيراني"],"fields":["name","operator","{amenity/post_office}"],"tags":{"amenity":"post_office","operator:wikidata":"Q6066851"},"addTags":{"amenity":"post_office","operator":"البريد الإيراني","operator:ar":"البريد الإيراني","operator:en":"Iran Post","operator:wikidata":"Q6066851"}},"man_made/mast/communication/mtn-a5a5e8":{"name":"MTN","locationSet":{"include":["af","bj","bw","cg","ci","cm","gn","gw","ir","lr","ni","rw","sd","ss","sy","ug","ye","za","zm"]},"geometry":["point","vertex"],"matchScore":2,"terms":["agence mtn","mtn"],"reference":{"key":"tower:type","value":"communication"},"tags":{"man_made":"mast","operator:wikidata":"Q1813361","tower:type":"communication"},"addTags":{"man_made":"mast","operator":"MTN","operator:wikidata":"Q1813361","tower:type":"communication"}},"man_made/tower/communication/mtn-a1bc20":{"name":"MTN","locationSet":{"include":["af","bj","bw","cg","ci","cm","gn","gw","ir","lr","ni","rw","sd","ss","sy","ug","ye","za","zm"]},"geometry":["point","vertex","area"],"matchScore":2,"terms":["agence mtn","mtn"],"reference":{"key":"tower:type","value":"communication"},"tags":{"man_made":"tower","operator:wikidata":"Q1813361","tower:type":"communication"},"addTags":{"man_made":"tower","operator":"MTN","operator:wikidata":"Q1813361","tower:type":"communication"}},"type/route/subway/tehranurbanandsuburbanrailwaycompany-ca105f":{"name":"متروی تهران","locationSet":{"include":["ir"]},"geometry":["relation"],"matchScore":2,"terms":["tehran urban and suburban railway company","متروی تهران"],"reference":{"key":"route","value":"subway"},"tags":{"network:wikidata":"Q714823","route":"subway","type":"route"},"addTags":{"network":"متروی تهران","network:wikidata":"Q714823","operator":"Tehran Urban and Suburban Railway Company","route":"subway","type":"route"}}}