{"amenity/atm/alliedbank-f377ee":{"name":"Allied Bank (defunct bank in Philipiness)","locationSet":{"include":["ph"]},"geometry":["point","vertex"],"matchScore":2,"terms":["allied bank"],"fields":["name","brand","{amenity/atm}"],"searchable":false,"tags":{"amenity":"atm","brand:wikidata":"Q4732555"},"addTags":{"amenity":"atm","brand":"Allied Bank","brand:wikidata":"Q4732555","operator":"Allied Bank","operator:wikidata":"Q4732555"}},"amenity/atm/asiaunitedbank-f377ee":{"name":"Asia United Bank","locationSet":{"include":["ph"]},"geometry":["point","vertex"],"matchScore":2,"terms":["asia united bank","aub"],"fields":["name","brand","{amenity/atm}"],"tags":{"amenity":"atm","brand:wikidata":"Q4806482"},"addTags":{"amenity":"atm","brand":"Asia United Bank","brand:wikidata":"Q4806482","operator":"Asia United Bank","operator:wikidata":"Q4806482","short_name":"AUB"}},"amenity/atm/bankofcommerce-f377ee":{"name":"Bank of Commerce","locationSet":{"include":["ph"]},"geometry":["point","vertex"],"matchScore":2,"terms":["bank of commerce"],"fields":["name","brand","{amenity/atm}"],"tags":{"amenity":"atm","brand:wikidata":"Q4856092"},"addTags":{"amenity":"atm","brand":"Bank of Commerce","brand:wikidata":"Q4856092","operator":"Bank of Commerce","operator:wikidata":"Q4856092"}},"amenity/atm/bdo-f377ee":{"name":"BDO","locationSet":{"include":["ph"]},"geometry":["point","vertex"],"matchScore":2,"terms":["banco de oro","bdo"],"fields":["name","brand","{amenity/atm}"],"tags":{"amenity":"atm","brand:wikidata":"Q4854129"},"addTags":{"alt_name":"Banco de Oro","amenity":"atm","brand":"BDO","brand:wikidata":"Q4854129","operator":"BDO","operator:wikidata":"Q4854129"}},"amenity/atm/bdonetworkbank-f377ee":{"name":"BDO Network Bank","locationSet":{"include":["ph"]},"geometry":["point","vertex"],"matchScore":2,"terms":["bdo network bank","one network bank"],"fields":["name","brand","{amenity/atm}"],"tags":{"amenity":"atm","brand:wikidata":"Q7093019"},"addTags":{"amenity":"atm","brand":"BDO Network Bank","brand:wikidata":"Q7093019","operator":"BDO Network Bank","operator:wikidata":"Q7093019"}},"amenity/atm/bpifamilysavingsbank-f377ee":{"name":"BPI Family Savings Bank","locationSet":{"include":["ph"]},"geometry":["point","vertex"],"matchScore":2,"terms":["bpi family savings bank"],"fields":["name","brand","{amenity/atm}"],"searchable":false,"tags":{"amenity":"atm","brand:wikidata":"Q94480105"},"addTags":{"amenity":"atm","brand":"BPI Family Savings Bank","brand:wikidata":"Q94480105","operator":"BPI Family Savings Bank","operator:wikidata":"Q94480105"}},"amenity/atm/chinabank-f377ee":{"name":"China Bank","locationSet":{"include":["ph"]},"geometry":["point","vertex"],"matchScore":2,"terms":["china bank"],"fields":["name","brand","{amenity/atm}"],"tags":{"amenity":"atm","brand:wikidata":"Q5100080"},"addTags":{"amenity":"atm","brand":"China Bank","brand:wikidata":"Q5100080","operator":"China Bank","operator:wikidata":"Q5100080"}},"amenity/atm/chinabanksavings-f377ee":{"name":"China Bank Savings","locationSet":{"include":["ph"]},"geometry":["point","vertex"],"matchScore":2,"terms":["china bank savings"],"fields":["name","brand","{amenity/atm}"],"tags":{"amenity":"atm","brand:wikidata":"Q18387359"},"addTags":{"amenity":"atm","brand":"China Bank Savings","brand:wikidata":"Q18387359","operator":"China Bank Savings","operator:wikidata":"Q18387359"}},"amenity/atm/dbp-f377ee":{"name":"DBP","locationSet":{"include":["ph"]},"geometry":["point","vertex"],"matchScore":2,"terms":["dbp"],"fields":["name","brand","{amenity/atm}"],"tags":{"amenity":"atm","brand:wikidata":"Q5266680"},"addTags":{"amenity":"atm","brand":"DBP","brand:wikidata":"Q5266680","operator":"DBP","operator:wikidata":"Q5266680"}},"amenity/atm/eastwestunibank-f377ee":{"name":"EastWest Unibank","locationSet":{"include":["ph"]},"geometry":["point","vertex"],"matchScore":2,"terms":["eastwest bank","eastwest unibank"],"fields":["name","brand","{amenity/atm}"],"tags":{"amenity":"atm","brand:wikidata":"Q5327595"},"addTags":{"amenity":"atm","brand":"EastWest Unibank","brand:wikidata":"Q5327595","operator":"EastWest Unibank","operator:wikidata":"Q5327595"}},"amenity/atm/landbank-f377ee":{"name":"Landbank","locationSet":{"include":["ph"]},"geometry":["point","vertex"],"matchScore":2,"terms":["bangko sa lupa ng pilipinas","land bank of the philippines","landbank","lbp"],"fields":["name","brand","{amenity/atm}"],"tags":{"amenity":"atm","brand:wikidata":"Q6483872"},"addTags":{"amenity":"atm","brand":"Landbank","brand:wikidata":"Q6483872","operator":"Landbank","operator:wikidata":"Q6483872"}},"amenity/atm/metrobank-f377ee":{"name":"Metrobank (Philippines)","locationSet":{"include":["ph"]},"geometry":["point","vertex"],"matchScore":2,"terms":["metrobank"],"fields":["name","brand","{amenity/atm}"],"tags":{"amenity":"atm","brand:wikidata":"Q1925799"},"addTags":{"amenity":"atm","brand":"Metrobank","brand:wikidata":"Q1925799","operator":"Metrobank","operator:wikidata":"Q1925799"}},"amenity/atm/philippinebusinessbank-f377ee":{"name":"Philippine Business Bank","locationSet":{"include":["ph"]},"geometry":["point","vertex"],"matchScore":2,"terms":["philippine business bank"],"fields":["name","brand","{amenity/atm}"],"tags":{"amenity":"atm","brand:wikidata":"Q7184995"},"addTags":{"amenity":"atm","brand":"Philippine Business Bank","brand:wikidata":"Q7184995","operator":"Philippine Business Bank","operator:wikidata":"Q7184995"}},"amenity/atm/pnb-f377ee":{"name":"PNB","locationSet":{"include":["ph"]},"geometry":["point","vertex"],"matchScore":2,"terms":["philippine national bank","pnb"],"fields":["name","brand","{amenity/atm}"],"tags":{"amenity":"atm","brand:wikidata":"Q1657971"},"addTags":{"amenity":"atm","brand":"PNB","brand:wikidata":"Q1657971","official_name":"Philippine National Bank","operator":"PNB","operator:wikidata":"Q1657971"}},"amenity/atm/producersbank-f377ee":{"name":"Producers Bank","locationSet":{"include":["ph"]},"geometry":["point","vertex"],"matchScore":2,"terms":["producers bank","producers savings bank corporation"],"fields":["name","brand","{amenity/atm}"],"tags":{"amenity":"atm","brand:wikidata":"Q25245606"},"addTags":{"amenity":"atm","brand":"Producers Bank","brand:wikidata":"Q25245606","operator":"Producers Bank","operator:wikidata":"Q25245606"}},"amenity/atm/psbank-f377ee":{"name":"PSBank","locationSet":{"include":["ph"]},"geometry":["point","vertex"],"matchScore":2,"terms":["psbank"],"fields":["name","brand","{amenity/atm}"],"tags":{"amenity":"atm","brand:wikidata":"Q7185203"},"addTags":{"amenity":"atm","brand":"PSBank","brand:wikidata":"Q7185203","operator":"PSBank","operator:wikidata":"Q7185203"}},"amenity/atm/rcbc-f377ee":{"name":"RCBC","locationSet":{"include":["ph"]},"geometry":["point","vertex"],"matchScore":2,"terms":["rcbc","rcbc savings bank","rizal commercial banking corporation"],"fields":["name","brand","{amenity/atm}"],"tags":{"amenity":"atm","brand:wikidata":"Q7339070"},"addTags":{"amenity":"atm","brand":"RCBC","brand:wikidata":"Q7339070","official_name":"Rizal Commercial Banking Corporation","operator":"RCBC","operator:wikidata":"Q7339070"}},"amenity/atm/robinsonsbank-f377ee":{"name":"Robinsons Bank","locationSet":{"include":["ph"]},"geometry":["point","vertex"],"matchScore":2,"terms":["robinsons bank"],"fields":["name","brand","{amenity/atm}"],"tags":{"amenity":"atm","brand:wikidata":"Q30639182"},"addTags":{"amenity":"atm","brand":"Robinsons Bank","brand:wikidata":"Q30639182","operator":"Robinsons Bank","operator:wikidata":"Q30639182"}},"amenity/atm/securitybank-f377ee":{"name":"Security Bank","locationSet":{"include":["ph"]},"geometry":["point","vertex"],"matchScore":2,"terms":["security bank"],"fields":["name","brand","{amenity/atm}"],"tags":{"amenity":"atm","brand:wikidata":"Q7444945"},"addTags":{"amenity":"atm","brand":"Security Bank","brand:wikidata":"Q7444945","operator":"Security Bank","operator:wikidata":"Q7444945"}},"amenity/atm/taytaysakauswagan-f377ee":{"name":"Taytay sa Kauswagan","locationSet":{"include":["ph"]},"geometry":["point","vertex"],"matchScore":2,"terms":["taytay sa kauswagan"],"fields":["name","brand","{amenity/atm}"],"tags":{"amenity":"atm","brand:wikidata":"Q72361196"},"addTags":{"amenity":"atm","brand":"Taytay sa Kauswagan","brand:wikidata":"Q72361196","operator":"Taytay sa Kauswagan","operator:wikidata":"Q72361196"}},"amenity/atm/ucpbsavingsbank-f377ee":{"name":"UCPB Savings Bank","locationSet":{"include":["ph"]},"geometry":["point","vertex"],"matchScore":2,"terms":["ucpb","ucpb savings bank"],"fields":["name","brand","{amenity/atm}"],"tags":{"amenity":"atm","brand:wikidata":"Q112161529"},"addTags":{"amenity":"atm","brand":"UCPB Savings Bank","brand:wikidata":"Q112161529","operator":"UCPB Savings Bank","operator:wikidata":"Q112161529","short_name":"UCPB"}},"amenity/atm/unionbank-f377ee":{"name":"UnionBank (Philippines)","locationSet":{"include":["ph"]},"geometry":["point","vertex"],"matchScore":2,"terms":["union bank of the philippines","unionbank"],"fields":["name","brand","{amenity/atm}"],"tags":{"amenity":"atm","brand:wikidata":"Q7885403"},"addTags":{"amenity":"atm","brand":"UnionBank","brand:wikidata":"Q7885403","operator":"UnionBank","operator:wikidata":"Q7885403"}},"amenity/atm/uob-441a96":{"name":"UOB","locationSet":{"include":["au","bn","ca","cn","gb","hk","id","in","jp","kr","mm","my","ph","sg","th","us","vn"]},"geometry":["point","vertex"],"matchScore":2,"terms":["united overseas bank","uob","大华银行"],"fields":["name","brand","{amenity/atm}"],"tags":{"amenity":"atm","brand:wikidata":"Q2064074"},"addTags":{"amenity":"atm","brand":"UOB","brand:wikidata":"Q2064074","brand:zh":"大华银行","name:zh":"大华银行","operator":"UOB","operator:wikidata":"Q2064074"}},"amenity/bank/alliedbank-431f82":{"name":"Allied Bank (defunct bank in Philipiness)","locationSet":{"include":["ph"]},"geometry":["point","area"],"matchScore":2,"terms":["allied bank"],"searchable":false,"tags":{"amenity":"bank","brand:wikidata":"Q4732555"},"addTags":{"amenity":"bank","brand":"Allied Bank","brand:wikidata":"Q4732555","name":"Allied Bank"}},"amenity/bank/asiaunitedbank-431f82":{"name":"Asia United Bank","locationSet":{"include":["ph"]},"geometry":["point","area"],"matchScore":2,"terms":["asia united bank","aub"],"tags":{"amenity":"bank","brand:wikidata":"Q4806482"},"addTags":{"amenity":"bank","brand":"Asia United Bank","brand:wikidata":"Q4806482","name":"Asia United Bank","short_name":"AUB"}},"amenity/bank/bankofcommerce-431f82":{"name":"Bank of Commerce","locationSet":{"include":["ph"]},"geometry":["point","area"],"matchScore":2,"terms":["bank of commerce"],"tags":{"amenity":"bank","brand:wikidata":"Q4856092"},"addTags":{"amenity":"bank","brand":"Bank of Commerce","brand:wikidata":"Q4856092","name":"Bank of Commerce"}},"amenity/bank/bdo-431f82":{"name":"BDO","locationSet":{"include":["ph"]},"geometry":["point","area"],"matchScore":2,"terms":["banco de oro","bdo"],"tags":{"amenity":"bank","brand:wikidata":"Q4854129"},"addTags":{"alt_name":"Banco de Oro","amenity":"bank","brand":"BDO","brand:wikidata":"Q4854129","name":"BDO"}},"amenity/bank/bdonetworkbank-431f82":{"name":"BDO Network Bank","locationSet":{"include":["ph"]},"geometry":["point","area"],"matchScore":2,"terms":["bdo network bank","one network bank"],"tags":{"amenity":"bank","brand:wikidata":"Q7093019"},"addTags":{"amenity":"bank","brand":"BDO Network Bank","brand:wikidata":"Q7093019","name":"BDO Network Bank"}},"amenity/bank/bpifamilysavingsbank-431f82":{"name":"BPI Family Savings Bank","locationSet":{"include":["ph"]},"geometry":["point","area"],"matchScore":2,"terms":["bpi family savings bank"],"searchable":false,"tags":{"amenity":"bank","brand:wikidata":"Q94480105"},"addTags":{"amenity":"bank","brand":"BPI Family Savings Bank","brand:wikidata":"Q94480105","name":"BPI Family Savings Bank"}},"amenity/bank/chinabank-431f82":{"name":"China Bank","locationSet":{"include":["ph"]},"geometry":["point","area"],"matchScore":2,"terms":["china bank"],"tags":{"amenity":"bank","brand:wikidata":"Q5100080"},"addTags":{"amenity":"bank","brand":"China Bank","brand:wikidata":"Q5100080","name":"China Bank"}},"amenity/bank/chinabanksavings-431f82":{"name":"China Bank Savings","locationSet":{"include":["ph"]},"geometry":["point","area"],"matchScore":2,"terms":["china bank savings"],"tags":{"amenity":"bank","brand:wikidata":"Q18387359"},"addTags":{"amenity":"bank","brand":"China Bank Savings","brand:wikidata":"Q18387359","name":"China Bank Savings"}},"amenity/bank/dbp-431f82":{"name":"DBP","locationSet":{"include":["ph"]},"geometry":["point","area"],"matchScore":2,"terms":["dbp"],"tags":{"amenity":"bank","brand:wikidata":"Q5266680"},"addTags":{"amenity":"bank","brand":"DBP","brand:wikidata":"Q5266680","name":"DBP"}},"amenity/bank/eastwestunibank-431f82":{"name":"EastWest Unibank","locationSet":{"include":["ph"]},"geometry":["point","area"],"matchScore":2,"terms":["eastwest bank","eastwest unibank"],"tags":{"amenity":"bank","brand:wikidata":"Q5327595"},"addTags":{"amenity":"bank","brand":"EastWest Unibank","brand:wikidata":"Q5327595","name":"EastWest Unibank"}},"amenity/bank/landbank-431f82":{"name":"Landbank","locationSet":{"include":["ph"]},"geometry":["point","area"],"matchScore":2,"terms":["bangko sa lupa ng pilipinas","land bank of the philippines","landbank","lbp"],"tags":{"amenity":"bank","brand:wikidata":"Q6483872"},"addTags":{"amenity":"bank","brand":"Landbank","brand:wikidata":"Q6483872","name":"Landbank"}},"amenity/bank/metrobank-431f82":{"name":"Metrobank (Philippines)","locationSet":{"include":["ph"]},"geometry":["point","area"],"matchScore":2,"terms":["metrobank"],"tags":{"amenity":"bank","brand:wikidata":"Q1925799"},"addTags":{"amenity":"bank","brand":"Metrobank","brand:wikidata":"Q1925799","name":"Metrobank"}},"amenity/bank/philippinebusinessbank-431f82":{"name":"Philippine Business Bank","locationSet":{"include":["ph"]},"geometry":["point","area"],"matchScore":2,"terms":["philippine business bank"],"tags":{"amenity":"bank","brand:wikidata":"Q7184995"},"addTags":{"amenity":"bank","brand":"Philippine Business Bank","brand:wikidata":"Q7184995","name":"Philippine Business Bank"}},"amenity/bank/pnb-431f82":{"name":"PNB","locationSet":{"include":["ph"]},"geometry":["point","area"],"matchScore":2,"terms":["philippine national bank","pnb"],"tags":{"amenity":"bank","brand:wikidata":"Q1657971"},"addTags":{"amenity":"bank","brand":"PNB","brand:wikidata":"Q1657971","name":"PNB","official_name":"Philippine National Bank"}},"amenity/bank/producersbank-431f82":{"name":"Producers Bank","locationSet":{"include":["ph"]},"geometry":["point","area"],"matchScore":2,"terms":["producers bank","producers savings bank corporation"],"tags":{"amenity":"bank","brand:wikidata":"Q25245606"},"addTags":{"amenity":"bank","brand":"Producers Bank","brand:wikidata":"Q25245606","name":"Producers Bank"}},"amenity/bank/psbank-431f82":{"name":"PSBank","locationSet":{"include":["ph"]},"geometry":["point","area"],"matchScore":2,"terms":["psbank"],"tags":{"amenity":"bank","brand:wikidata":"Q7185203"},"addTags":{"amenity":"bank","brand":"PSBank","brand:wikidata":"Q7185203","name":"PSBank"}},"amenity/bank/rcbc-431f82":{"name":"RCBC","locationSet":{"include":["ph"]},"geometry":["point","area"],"matchScore":2,"terms":["rcbc","rcbc savings bank","rizal commercial banking corporation"],"tags":{"amenity":"bank","brand:wikidata":"Q7339070"},"addTags":{"amenity":"bank","brand":"RCBC","brand:wikidata":"Q7339070","name":"RCBC","official_name":"Rizal Commercial Banking Corporation"}},"amenity/bank/robinsonsbank-431f82":{"name":"Robinsons Bank","locationSet":{"include":["ph"]},"geometry":["point","area"],"matchScore":2,"terms":["robinsons bank"],"tags":{"amenity":"bank","brand:wikidata":"Q30639182"},"addTags":{"amenity":"bank","brand":"Robinsons Bank","brand:wikidata":"Q30639182","name":"Robinsons Bank"}},"amenity/bank/securitybank-431f82":{"name":"Security Bank","locationSet":{"include":["ph"]},"geometry":["point","area"],"matchScore":2,"terms":["security bank"],"tags":{"amenity":"bank","brand:wikidata":"Q7444945"},"addTags":{"amenity":"bank","brand":"Security Bank","brand:wikidata":"Q7444945","name":"Security Bank"}},"amenity/bank/taytaysakauswagan-431f82":{"name":"Taytay sa Kauswagan","locationSet":{"include":["ph"]},"geometry":["point","area"],"matchScore":2,"terms":["taytay sa kauswagan"],"tags":{"amenity":"bank","brand:wikidata":"Q72361196"},"addTags":{"amenity":"bank","brand":"Taytay sa Kauswagan","brand:wikidata":"Q72361196","name":"Taytay sa Kauswagan"}},"amenity/bank/ucpbsavingsbank-431f82":{"name":"UCPB Savings Bank","locationSet":{"include":["ph"]},"geometry":["point","area"],"matchScore":2,"terms":["ucpb","ucpb savings bank"],"tags":{"amenity":"bank","brand:wikidata":"Q112161529"},"addTags":{"amenity":"bank","brand":"UCPB Savings Bank","brand:wikidata":"Q112161529","name":"UCPB Savings Bank","short_name":"UCPB"}},"amenity/bank/unionbank-431f82":{"name":"UnionBank (Philippines)","locationSet":{"include":["ph"]},"geometry":["point","area"],"matchScore":2,"terms":["union bank of the philippines","unionbank"],"tags":{"amenity":"bank","brand:wikidata":"Q7885403"},"addTags":{"amenity":"bank","brand":"UnionBank","brand:wikidata":"Q7885403","name":"UnionBank"}},"amenity/bank/uob-dadccc":{"name":"UOB","locationSet":{"include":["au","bn","ca","cn","gb","hk","id","in","jp","kr","mm","my","ph","sg","th","us","vn"]},"geometry":["point","area"],"matchScore":2,"terms":["united overseas bank","uob","大华银行"],"tags":{"amenity":"bank","brand:wikidata":"Q2064074"},"addTags":{"amenity":"bank","brand":"UOB","brand:wikidata":"Q2064074","brand:zh":"大华银行","name":"UOB","name:zh":"大华银行"}},"amenity/cafe/coffee_shop/blacksheepcoffee-5ffca6":{"name":"Black Sheep Coffee","locationSet":{"include":["fr","gb","ph"]},"geometry":["point","area"],"matchScore":2,"terms":["black sheep coffee"],"reference":{"key":"cuisine","value":"coffee_shop"},"tags":{"amenity":"cafe","brand:wikidata":"Q109745011","cuisine":"coffee_shop"},"addTags":{"amenity":"cafe","brand":"Black Sheep Coffee","brand:wikidata":"Q109745011","cuisine":"coffee_shop","name":"Black Sheep Coffee","takeaway":"yes"}},"amenity/cafe/coffee_shop/figaro-d8802f":{"name":"Figaro","locationSet":{"include":["ma","ph","sa"]},"geometry":["point","area"],"matchScore":2,"terms":["figaro","figaro coffee","figaro coffee company"],"reference":{"key":"cuisine","value":"coffee_shop"},"tags":{"amenity":"cafe","brand:wikidata":"Q17069806","cuisine":"coffee_shop"},"addTags":{"amenity":"cafe","brand":"Figaro","brand:wikidata":"Q17069806","cuisine":"coffee_shop","name":"Figaro","takeaway":"yes"}},"amenity/cafe/bubble_tea/gongcha-17742a":{"name":"Gong Cha (worldwide)","locationSet":{"include":["au","bn","ca","mm","my","nz","ph","sg","us"]},"geometry":["point","area"],"matchScore":2,"terms":["gong cha","貢茶"],"reference":{"key":"cuisine","value":"bubble_tea"},"tags":{"amenity":"cafe","brand:wikidata":"Q5581670","cuisine":"bubble_tea"},"addTags":{"amenity":"cafe","brand":"Gong Cha","brand:wikidata":"Q5581670","brand:zh":"貢茶","cuisine":"bubble_tea","int_name":"Gong Cha","name":"Gong Cha","name:zh":"貢茶","takeaway":"yes"}},"amenity/cafe/coffee_shop/tomntoms-16c022":{"name":"Tom N Toms","locationSet":{"include":["au","ch","hk","kr","mn","mo","my","ph","sg","th","us"]},"geometry":["point","area"],"matchScore":2,"terms":["tom n toms","탐앤탐스"],"reference":{"key":"cuisine","value":"coffee_shop"},"tags":{"amenity":"cafe","brand:wikidata":"Q18142418","cuisine":"coffee_shop;pretzel;smoothie;tea;bread"},"addTags":{"amenity":"cafe","brand":"Tom N Toms","brand:en":"Tom N Toms","brand:ko":"탐앤탐스","brand:wikidata":"Q18142418","cuisine":"coffee_shop;pretzel;smoothie;tea;bread","name":"Tom N Toms","takeaway":"yes"}},"amenity/fast_food/chicken/andoks-33d36e":{"name":"Andok's","locationSet":{"include":["ph"]},"geometry":["point","area"],"matchScore":2,"terms":["andok's"],"reference":{"key":"cuisine","value":"chicken"},"tags":{"amenity":"fast_food","brand:wikidata":"Q62267166","cuisine":"chicken"},"addTags":{"amenity":"fast_food","brand":"Andok's","brand:wikidata":"Q62267166","cuisine":"chicken","name":"Andok's","takeaway":"yes"}},"amenity/fast_food/burger/angelsburger-33d36e":{"name":"Angel's Burger","locationSet":{"include":["ph"]},"geometry":["point","area"],"matchScore":2,"terms":["angel's burger"],"reference":{"key":"cuisine","value":"burger"},"tags":{"amenity":"fast_food","brand:wikidata":"Q62267228","cuisine":"burger"},"addTags":{"amenity":"fast_food","brand":"Angel's Burger","brand:wikidata":"Q62267228","cuisine":"burger","name":"Angel's Burger","takeaway":"yes"}},"amenity/fast_food/burger/burgermachine-33d36e":{"name":"Burger Machine","locationSet":{"include":["ph"]},"geometry":["point","area"],"matchScore":2,"terms":["burger machine"],"reference":{"key":"cuisine","value":"burger"},"tags":{"amenity":"fast_food","brand:wikidata":"Q4998549","cuisine":"burger"},"addTags":{"amenity":"fast_food","brand":"Burger Machine","brand:wikidata":"Q4998549","cuisine":"burger","name":"Burger Machine","takeaway":"yes"}},"amenity/fast_food/chicken/chookstogo-33d36e":{"name":"Chooks to Go","locationSet":{"include":["ph"]},"geometry":["point","area"],"matchScore":2,"terms":["chooks to go"],"reference":{"key":"cuisine","value":"chicken"},"tags":{"amenity":"fast_food","brand:wikidata":"Q17065023","cuisine":"chicken"},"addTags":{"amenity":"fast_food","brand":"Chooks to Go","brand:wikidata":"Q17065023","cuisine":"chicken","name":"Chooks to Go","takeaway":"yes"}},"amenity/fast_food/chowking-33d36e":{"name":"Chowking","locationSet":{"include":["ph"]},"geometry":["point","area"],"matchScore":2,"terms":["chowking"],"tags":{"amenity":"fast_food","brand:wikidata":"Q1076816"},"addTags":{"amenity":"fast_food","brand":"Chowking","brand:wikidata":"Q1076816","cuisine":"asian","name":"Chowking","takeaway":"yes"}},"amenity/fast_food/pizza/greenwich-33d36e":{"name":"Greenwich","locationSet":{"include":["ph"]},"geometry":["point","area"],"matchScore":2,"terms":["greenwich"],"reference":{"key":"cuisine","value":"pizza"},"tags":{"amenity":"fast_food","brand:wikidata":"Q2691308","cuisine":"pizza"},"addTags":{"amenity":"fast_food","brand":"Greenwich","brand:wikidata":"Q2691308","cuisine":"pizza","name":"Greenwich","takeaway":"yes"}},"amenity/fast_food/manginasal-33d36e":{"name":"Mang Inasal","locationSet":{"include":["ph"]},"geometry":["point","area"],"matchScore":2,"terms":["mang inasal"],"tags":{"amenity":"fast_food","brand:wikidata":"Q6748573"},"addTags":{"amenity":"fast_food","brand":"Mang Inasal","brand:wikidata":"Q6748573","cuisine":"barbecue","name":"Mang Inasal","takeaway":"yes"}},"amenity/fast_food/marugameudon-a3c3a3":{"name":"Marugame Udon","locationSet":{"include":["gb","id","kh","ph","ru","us","vn"]},"geometry":["point","area"],"matchScore":2,"terms":["marugame seimen"],"tags":{"amenity":"fast_food","brand:wikidata":"Q10877253"},"addTags":{"alt_name":"Marugame Seimen","amenity":"fast_food","brand":"Marugame Seimen","brand:wikidata":"Q10877253","cuisine":"noodle","name":"Marugame Udon","takeaway":"yes"}},"amenity/fast_food/burger/minuteburger-33d36e":{"name":"Minute Burger","locationSet":{"include":["ph"]},"geometry":["point","area"],"matchScore":2,"terms":["minute burger"],"reference":{"key":"cuisine","value":"burger"},"tags":{"amenity":"fast_food","brand:wikidata":"Q62273503","cuisine":"burger"},"addTags":{"amenity":"fast_food","brand":"Minute Burger","brand:wikidata":"Q62273503","cuisine":"burger","name":"Minute Burger","takeaway":"yes"}},"amenity/fast_food/burger/teddysbiggerburgers-7b6848":{"name":"Teddy's Bigger Burgers","locationSet":{"include":["jp","ph","us-hi","us-ia"]},"geometry":["point","area"],"matchScore":2,"terms":["teddy's bigger burgers"],"reference":{"key":"cuisine","value":"burger"},"tags":{"amenity":"fast_food","brand:wikidata":"Q21188859","cuisine":"burger"},"addTags":{"amenity":"fast_food","brand":"Teddy's Bigger Burgers","brand:wikidata":"Q21188859","cuisine":"burger","name":"Teddy's Bigger Burgers","takeaway":"yes"}},"amenity/fast_food/tokyotokyo-33d36e":{"name":"Tokyo Tokyo","locationSet":{"include":["ph"]},"geometry":["point","area"],"matchScore":2,"terms":["tokyo tokyo"],"tags":{"amenity":"fast_food","brand:wikidata":"Q7814003"},"addTags":{"amenity":"fast_food","brand":"Tokyo Tokyo","brand:wikidata":"Q7814003","cuisine":"japanese","name":"Tokyo Tokyo","takeaway":"yes"}},"amenity/fast_food/yoshinoya-ffe475":{"name":"Yoshinoya","locationSet":{"include":["id","my","ph","sg","us"]},"geometry":["point","area"],"matchScore":2,"terms":["yoshinoya","吉野家"],"tags":{"amenity":"fast_food","brand:wikidata":"Q776272"},"addTags":{"amenity":"fast_food","brand":"Yoshinoya","brand:en":"Yoshinoya","brand:wikidata":"Q776272","cuisine":"beef_bowl","name":"Yoshinoya","name:en":"Yoshinoya","name:ja":"吉野家","takeaway":"yes"}},"amenity/fast_food/oldchangkee-ff7eca":{"name":"老曾记","locationSet":{"include":["cn","gb","id","my","ph","sg"]},"geometry":["point","area"],"matchScore":2,"terms":["old chang kee","老曾记"],"tags":{"amenity":"fast_food","brand:wikidata":"Q17005286"},"addTags":{"amenity":"fast_food","brand":"老曾记","brand:en":"Old Chang Kee","brand:wikidata":"Q17005286","brand:zh":"老曾记","cuisine":"snacks","name":"老曾记","name:en":"Old Chang Kee","name:zh":"老曾记","takeaway":"yes"}},"amenity/fuel/flyingv-289efc":{"name":"Flying V","locationSet":{"include":["ph"]},"geometry":["point","area"],"matchScore":2,"terms":["flying v"],"fields":["name","brand","{amenity/fuel}"],"tags":{"amenity":"fuel","brand:wikidata":"Q62275048"},"addTags":{"amenity":"fuel","brand":"Flying V","brand:wikidata":"Q62275048","name":"Flying V"}},"amenity/fuel/jetti-289efc":{"name":"Jetti","locationSet":{"include":["ph"]},"geometry":["point","area"],"matchScore":2,"terms":["jetti"],"fields":["name","brand","{amenity/fuel}"],"tags":{"amenity":"fuel","brand:wikidata":"Q62288720"},"addTags":{"amenity":"fuel","brand":"Jetti","brand:wikidata":"Q62288720","name":"Jetti"}},"amenity/fuel/petron-21bb35":{"name":"Petron","locationSet":{"include":["my","ph"]},"geometry":["point","area"],"matchScore":2,"terms":["petron","petron gas station"],"fields":["name","brand","{amenity/fuel}"],"tags":{"amenity":"fuel","brand:wikidata":"Q7179011"},"addTags":{"amenity":"fuel","brand":"Petron","brand:wikidata":"Q7179011","name":"Petron"}},"amenity/fuel/phoenix-289efc":{"name":"Phoenix","locationSet":{"include":["ph"]},"geometry":["point","area"],"matchScore":2,"terms":["phoenix"],"fields":["name","brand","{amenity/fuel}"],"tags":{"amenity":"fuel","brand:wikidata":"Q7186949"},"addTags":{"amenity":"fuel","brand":"Phoenix","brand:wikidata":"Q7186949","name":"Phoenix"}},"amenity/fuel/seaoil-289efc":{"name":"Seaoil","locationSet":{"include":["ph"]},"geometry":["point","area"],"matchScore":2,"terms":["seaoil"],"fields":["name","brand","{amenity/fuel}"],"tags":{"amenity":"fuel","brand:wikidata":"Q7389549"},"addTags":{"amenity":"fuel","brand":"SEAOIL","brand:wikidata":"Q7389549","name":"Seaoil"}},"amenity/ice_cream/gelatissimo-17af97":{"name":"Gelatissimo","locationSet":{"include":["au","bd","cn","in","ph","sa","sg"]},"geometry":["point","area"],"matchScore":2,"terms":["gelatissimo"],"tags":{"amenity":"ice_cream","brand:wikidata":"Q105270111"},"addTags":{"amenity":"ice_cream","brand":"Gelatissimo","brand:wikidata":"Q105270111","cuisine":"ice_cream","name":"Gelatissimo","takeaway":"yes"}},"amenity/ice_cream/llaollao-dd9462":{"name":"Llaollao","locationSet":{"include":["au","ch","cl","co","ec","es","fr","gt","hr","id","iq","kw","ma","my","ph","pt","sa","sg","si","sv","us","vn"]},"geometry":["point","area"],"matchScore":2,"terms":["llaollao"],"tags":{"amenity":"ice_cream","brand:wikidata":"Q12163048"},"addTags":{"amenity":"ice_cream","brand":"Llaollao","brand:wikidata":"Q12163048","cuisine":"frozen_yogurt","name":"Llaollao"}},"amenity/music_school/schoolofrock-4e6205":{"name":"School of Rock","locationSet":{"include":["au","br","ca","cl","co","es","mx","pe","ph","py","tw","us","za"]},"geometry":["point","area"],"matchScore":2,"terms":["school of rock"],"fields":["name","brand","{amenity/music_school}"],"tags":{"amenity":"music_school","brand:wikidata":"Q7756376"},"addTags":{"amenity":"music_school","brand":"School of Rock","brand:wikidata":"Q7756376","name":"School of Rock"}},"amenity/pharmacy/generika-2ddb76":{"name":"Generika","locationSet":{"include":["ph"]},"geometry":["point","area"],"matchScore":2,"terms":["generika","generika drugstore"],"reference":{"key":"amenity","value":"pharmacy"},"tags":{"amenity":"pharmacy","brand:wikidata":"Q62564876"},"addTags":{"amenity":"pharmacy","brand":"Generika","brand:wikidata":"Q62564876","healthcare":"pharmacy","name":"Generika"}},"amenity/pharmacy/mercurydrug-2ddb76":{"name":"Mercury Drug","locationSet":{"include":["ph"]},"geometry":["point","area"],"matchScore":2,"terms":["mercury drug"],"reference":{"key":"amenity","value":"pharmacy"},"tags":{"amenity":"pharmacy","brand:wikidata":"Q6818610"},"addTags":{"amenity":"pharmacy","brand":"Mercury Drug","brand:wikidata":"Q6818610","healthcare":"pharmacy","name":"Mercury Drug"}},"amenity/pharmacy/rosepharmacy-2ddb76":{"name":"Rose Pharmacy","locationSet":{"include":["ph"]},"geometry":["point","area"],"matchScore":2,"terms":["rose pharmacy"],"reference":{"key":"amenity","value":"pharmacy"},"tags":{"amenity":"pharmacy","brand:wikidata":"Q62663208"},"addTags":{"amenity":"pharmacy","brand":"Rose Pharmacy","brand:wikidata":"Q62663208","healthcare":"pharmacy","name":"Rose Pharmacy"}},"amenity/pharmacy/southstardrug-2ddb76":{"name":"South Star Drug","locationSet":{"include":["ph"]},"geometry":["point","area"],"matchScore":2,"terms":["south star drug"],"reference":{"key":"amenity","value":"pharmacy"},"tags":{"amenity":"pharmacy","brand:wikidata":"Q7568544"},"addTags":{"amenity":"pharmacy","brand":"South Star Drug","brand:wikidata":"Q7568544","healthcare":"pharmacy","name":"South Star Drug"}},"amenity/pharmacy/tgp-2ddb76":{"name":"TGP","locationSet":{"include":["ph"]},"geometry":["point","area"],"matchScore":2,"terms":["the generics pharmacy"],"reference":{"key":"amenity","value":"pharmacy"},"tags":{"amenity":"pharmacy","brand:wikidata":"Q61948677"},"addTags":{"amenity":"pharmacy","brand":"The Generics Pharmacy","brand:wikidata":"Q61948677","healthcare":"pharmacy","name":"TGP","official_name":"The Generics Pharmacy"}},"amenity/restaurant/sushi/bonchonchicken-b76b63":{"name":"Bonchon Chicken","locationSet":{"include":["bh","kh","kr","kw","my","ph","sg","th","us"]},"geometry":["point","area"],"matchScore":2,"terms":["bonchon","bonchon chicken","bonchon fried chicken"],"reference":{"key":"cuisine","value":"sushi"},"tags":{"amenity":"restaurant","brand:wikidata":"Q4941248","cuisine":"chicken;korean;sushi"},"addTags":{"amenity":"restaurant","brand":"Bonchon Chicken","brand:wikidata":"Q4941248","cuisine":"chicken;korean;sushi","name":"Bonchon Chicken"}},"amenity/restaurant/seafood/bubbagumpshrimpcompany-90d54f":{"name":"Bubba Gump Shrimp Company","locationSet":{"include":["ca","co","gb","hk","id","jp","mp","mx","ph","us"]},"geometry":["point","area"],"matchScore":2,"terms":["bubba gump shrimp company"],"reference":{"key":"cuisine","value":"seafood"},"tags":{"amenity":"restaurant","brand:wikidata":"Q50024","cuisine":"seafood"},"addTags":{"amenity":"restaurant","brand":"Bubba Gump Shrimp Company","brand:wikidata":"Q50024","cuisine":"seafood","name":"Bubba Gump Shrimp Company"}},"amenity/restaurant/japanese/cocoichibanya-365649":{"name":"CoCo Ichibanya","locationSet":{"include":["cn","hk","id","in","kr","ph","sg","th","tw","uk","us","vn"]},"geometry":["point","area"],"matchScore":2,"terms":["coco ichibanya","coco壱番屋"],"reference":{"key":"cuisine","value":"japanese"},"tags":{"amenity":"restaurant","brand:wikidata":"Q5986105","cuisine":"japanese"},"addTags":{"amenity":"restaurant","brand":"CoCo Ichibanya","brand:en":"CoCo Ichibanya","brand:ja":"CoCo壱番屋","brand:wikidata":"Q5986105","cuisine":"japanese","name":"CoCo Ichibanya","name:en":"CoCo Ichibanya","name:ja":"CoCo壱番屋","takeaway":"yes"}},"amenity/restaurant/dintaifung-4a64f1":{"name":"Din Tai Fung","locationSet":{"include":["ae","au","gb","id","jp","kr","mo","my","ph","sg","th","us"]},"geometry":["point","area"],"matchScore":2,"terms":["din tai fung","鼎泰豐"],"tags":{"amenity":"restaurant","brand:wikidata":"Q699142"},"addTags":{"amenity":"restaurant","brand":"Din Tai Fung","brand:en":"Din Tai Fung","brand:wikidata":"Q699142","brand:zh":"鼎泰豐","cuisine":"taiwanese","name":"Din Tai Fung","name:en":"Din Tai Fung","name:zh":"鼎泰豐"}},"amenity/restaurant/asian/maxsrestaurant-5259a4":{"name":"Max's Restaurant","locationSet":{"include":["ph"]},"geometry":["point","area"],"matchScore":2,"terms":["max's","max's restaurant"],"reference":{"key":"cuisine","value":"asian"},"tags":{"amenity":"restaurant","brand:wikidata":"Q6794477","cuisine":"asian"},"addTags":{"amenity":"restaurant","brand":"Max's Restaurant","brand:wikidata":"Q6794477","cuisine":"asian","name":"Max's Restaurant"}},"amenity/restaurant/vietnamese/phohoa-13c988":{"name":"Phở Hòa","locationSet":{"include":["ca","id","kr","ms","ph","us"]},"geometry":["point","area"],"matchScore":2,"terms":["pho hoa","phở hoà","phở hòa"],"reference":{"key":"cuisine","value":"vietnamese"},"tags":{"amenity":"restaurant","brand:wikidata":"Q55629932","cuisine":"vietnamese;noodle"},"addTags":{"alt_name":"Phở Hoà","alt_name:en":"Pho Hoa","alt_name:vi":"Phở Hoà","amenity":"restaurant","brand":"Phở Hòa","brand:wikidata":"Q55629932","cuisine":"vietnamese;noodle","name":"Phở Hòa","name:vi":"Phở Hòa"}},"amenity/school/maplebear-101006":{"name":"Maple Bear","locationSet":{"include":["ae","al","ar","au","bd","bg","br","ca","gt","hk","hr","in","ke","kr","lk","ma","mx","my","np","om","pe","ph","py","ro","rs","sg","th","tk","ua","us","vn"]},"geometry":["area","point"],"matchScore":2,"terms":["maple bear"],"fields":["name","brand","{amenity/school}"],"tags":{"amenity":"school","brand:wikidata":"Q10324823"},"addTags":{"amenity":"school","brand":"Maple Bear","brand:wikidata":"Q10324823","name":"Maple Bear","operator:type":"private"}},"amenity/social_centre/vfwpost-8be9ec":{"name":"VFW Post","locationSet":{"include":["de","jp","kr","ph","th","us"]},"geometry":["point","area"],"matchScore":2,"terms":["veterans of foreign wars of the united states","vfw","vfw post"],"fields":["name","brand","{amenity/social_centre}"],"tags":{"amenity":"social_centre","brand:wikidata":"Q3556413"},"addTags":{"amenity":"social_centre","brand":"Veterans of Foreign Wars of the United States","brand:wikidata":"Q3556413","name":"VFW Post","name:en":"VFW Post","official_name":"Veterans of Foreign Wars of the United States","short_name":"VFW","social_centre:for":"veterans"}},"leisure/amusement_arcade/timezone-bbc11e":{"name":"Timezone","locationSet":{"include":["au","id","in","nz","ph","sg","vn"]},"geometry":["point","area"],"matchScore":2,"terms":["timezone"],"tags":{"brand:wikidata":"Q12521502","leisure":"amusement_arcade"},"addTags":{"brand":"Timezone","brand:wikidata":"Q12521502","leisure":"amusement_arcade","name":"Timezone"}},"leisure/fitness_centre/celebrityfitness-412a8d":{"name":"Celebrity Fitness","locationSet":{"include":["id","my","ph","sg","th"]},"geometry":["point","area"],"matchScore":2,"terms":["celebrity fitness"],"tags":{"brand:wikidata":"Q5057734","leisure":"fitness_centre"},"addTags":{"brand":"Celebrity Fitness","brand:wikidata":"Q5057734","leisure":"fitness_centre","name":"Celebrity Fitness"}},"leisure/fitness_centre/fitnessfirst-6ff977":{"name":"Fitness First","locationSet":{"include":["ae","au","de","gb","ph","th"]},"geometry":["point","area"],"matchScore":2,"terms":["fitness first"],"tags":{"brand:wikidata":"Q127120","leisure":"fitness_centre"},"addTags":{"brand":"Fitness First","brand:wikidata":"Q127120","leisure":"fitness_centre","name":"Fitness First"}},"leisure/fitness_centre/goldsgym-72c4b8":{"name":"Gold's Gym","locationSet":{"include":["ae","ca","in","ph","us"]},"geometry":["point","area"],"matchScore":2,"terms":["gold's gym"],"tags":{"brand:wikidata":"Q1536234","leisure":"fitness_centre"},"addTags":{"brand":"Gold's Gym","brand:wikidata":"Q1536234","leisure":"fitness_centre","name":"Gold's Gym"}},"leisure/fitness_centre/snapfitness-551086":{"name":"Snap Fitness","locationSet":{"include":["ae","au","be","ca","es","gb","hk","id","ie","jp","mx","nl","nz","ph","tr","tw","us"]},"geometry":["point","area"],"matchScore":2,"terms":["snap fitness"],"tags":{"brand:wikidata":"Q7547254","leisure":"fitness_centre"},"addTags":{"brand":"Snap Fitness","brand:wikidata":"Q7547254","leisure":"fitness_centre","name":"Snap Fitness"}},"office/insurance/allianz-332499":{"name":"Allianz","locationSet":{"include":["ae","ar","at","au","be","bg","bh","bm","bn","br","ca","cg","ch","ci","cm","cn","co","cy","cz","de","dk","ee","eg","es","fi","fr","gb","gf","gg","gh","gp","gr","hk","hr","hu","id","ie","in","is","it","ja","ke","kr","kw","la","li","lk","lt","lu","lv","ma","mg","mx","my","ng","nl","no","nz","om","ph","pk","pl","pt","qa","ro","ru","sa","se","sg","si","sk","sn","th","tr","tw","ua","us","za"]},"geometry":["point","area"],"matchScore":2,"terms":["allianz"],"fields":["name","brand","{office/insurance}"],"tags":{"brand:wikidata":"Q487292","office":"insurance"},"addTags":{"brand":"Allianz","brand:wikidata":"Q487292","name":"Allianz","office":"insurance"}},"office/insurance/axa-2e7672":{"name":"AXA","locationSet":{"include":["ae","ar","au","be","bh","bm","br","ca","ch","ci","cl","cm","cn","co","cz","de","dk","dz","eg","es","fi","fr","ga","gb","gr","hk","id","ie","in","it","jp","kr","lb","lu","ma","mu","mx","my","ng","nl","no","om","pa","pe","ph","pl","pt","qa","sa","se","sg","sk","sn","th","tr","tw","us"]},"geometry":["point","area"],"matchScore":2,"terms":["axa"],"fields":["name","brand","{office/insurance}"],"tags":{"brand:wikidata":"Q160054","office":"insurance"},"addTags":{"brand":"AXA","brand:wikidata":"Q160054","name":"AXA","office":"insurance"}},"office/insurance/generali-cb13d1":{"name":"Generali","locationSet":{"include":["ar","at","bg","br","ch","cl","cn","cz","de","es","fr","gr","hr","hu","id","in","it","me","my","ph","pl","pt","ro","rs","si","sk","tr","vn"]},"geometry":["point","area"],"matchScore":2,"terms":["generali"],"fields":["name","brand","{office/insurance}"],"tags":{"brand:wikidata":"Q670482","office":"insurance"},"addTags":{"brand":"Generali","brand:wikidata":"Q670482","name":"Generali","office":"insurance"}},"shop/bakery/goldilocks-a861d6":{"name":"Goldilocks","locationSet":{"include":["ca","ph","th","us"]},"geometry":["point","area"],"matchScore":2,"terms":["goldilocks"],"tags":{"brand:wikidata":"Q5580198","shop":"bakery"},"addTags":{"brand":"Goldilocks","brand:wikidata":"Q5580198","name":"Goldilocks","shop":"bakery"}},"shop/bakery/paul-652955":{"name":"Paul","locationSet":{"include":["ae","az","be","bh","by","ci","cy","cz","eg","es","fr","ga","gb","ge","gr","id","in","jo","jp","kw","kz","lb","lu","ma","mu","my","om","pa","ph","pl","pt","qa","ro","ru","sa","sg","th","tn","tw","ua","us","uz","vn","za"]},"geometry":["point","area"],"matchScore":2,"terms":["paul"],"tags":{"brand:wikidata":"Q3370417","shop":"bakery"},"addTags":{"brand":"Paul","brand:wikidata":"Q3370417","name":"Paul","shop":"bakery"}},"shop/bakery/redribbon-657c23":{"name":"Red Ribbon","locationSet":{"include":["ph","us"]},"geometry":["point","area"],"matchScore":2,"terms":["red ribbon"],"tags":{"brand:wikidata":"Q7304789","shop":"bakery"},"addTags":{"brand":"Red Ribbon","brand:wikidata":"Q7304789","name":"Red Ribbon","shop":"bakery"}},"shop/bakery/touslesjours-e39ddb":{"name":"Tous les Jours","locationSet":{"include":["id","kh","my","ph","us","vn"]},"geometry":["point","area"],"matchScore":2,"terms":["tous les jours"],"tags":{"brand:wikidata":"Q3535609","shop":"bakery"},"addTags":{"brand":"Tous les Jours","brand:wikidata":"Q3535609","name":"Tous les Jours","shop":"bakery"}},"shop/books/nationalbookstore-08d1a3":{"name":"National Book Store","locationSet":{"include":["ph"]},"geometry":["point","area"],"matchScore":2,"terms":["national book store"],"tags":{"brand:wikidata":"Q6971094","shop":"books"},"addTags":{"brand":"National Book Store","brand:wikidata":"Q6971094","name":"National Book Store","shop":"books"}},"shop/convenience/alfamart-28d321":{"name":"Alfamart","locationSet":{"include":["id","ph"]},"geometry":["point","area"],"matchScore":2,"terms":["alfamart"],"tags":{"brand:wikidata":"Q23745600","shop":"convenience"},"addTags":{"brand":"Alfamart","brand:wikidata":"Q23745600","name":"Alfamart","shop":"convenience"}},"shop/convenience/familymart-52fb27":{"name":"FamilyMart","locationSet":{"include":["cn","id","jp","my","ph","th","tw","vn"]},"geometry":["point","area"],"matchScore":2,"terms":["familymart"],"tags":{"brand:wikidata":"Q1191685","shop":"convenience"},"addTags":{"brand":"FamilyMart","brand:wikidata":"Q1191685","name":"FamilyMart","shop":"convenience"}},"shop/convenience/jiffy-c8e053":{"name":"Jiffy","locationSet":{"include":["kh","la","ph","th"]},"geometry":["point","area"],"matchScore":2,"terms":["jiffy","จิฟฟี่"],"tags":{"brand:wikidata":"Q16770436","shop":"convenience"},"addTags":{"brand":"Jiffy","brand:en":"Jiffy","brand:th":"จิฟฟี่","brand:wikidata":"Q16770436","name":"Jiffy","name:en":"Jiffy","name:th":"จิฟฟี่","shop":"convenience"}},"shop/convenience/ministop-d6ae81":{"name":"Ministop","locationSet":{"include":["cn","kz","ph","vn"]},"geometry":["point","area"],"matchScore":2,"terms":["ministop"],"tags":{"brand:wikidata":"Q1038929","shop":"convenience"},"addTags":{"brand":"Ministop","brand:wikidata":"Q1038929","name":"Ministop","shop":"convenience"}},"shop/deli/vomfass-a3c745":{"name":"vomFASS","locationSet":{"include":["at","be","br","ca","ch","cz","de","dk","es","fr","gb","hk","hr","hu","il","it","jp","lv","mx","my","ph","sg","th","us"]},"geometry":["point","area"],"matchScore":2,"terms":["vomfass"],"tags":{"brand:wikidata":"Q2533008","shop":"deli"},"addTags":{"brand":"vomFASS","brand:wikidata":"Q2533008","name":"vomFASS","shop":"deli"}},"shop/doityourself/mrdiy-85e32f":{"name":"MR.DIY","locationSet":{"include":["bn","id","in","kn","my","ph","sg","th"]},"geometry":["point","area"],"matchScore":2,"terms":["mr.diy"],"tags":{"brand:wikidata":"Q105044323","shop":"doityourself"},"addTags":{"brand":"MR.DIY","brand:wikidata":"Q105044323","name":"MR.DIY","shop":"doityourself"}},"shop/electronics/automaticcentre-9584c3":{"name":"Automatic Centre","locationSet":{"include":["ph"]},"geometry":["point","area"],"matchScore":2,"terms":["automatic centre"],"tags":{"brand:wikidata":"Q4826504","shop":"electronics"},"addTags":{"brand":"Automatic Centre","brand:wikidata":"Q4826504","name":"Automatic Centre","shop":"electronics"}},"shop/electronics/homealong-9584c3":{"name":"Home Along","locationSet":{"include":["ph"]},"geometry":["point","area"],"matchScore":2,"terms":["home along"],"tags":{"brand:wikidata":"Q110314827","shop":"electronics"},"addTags":{"brand":"Home Along","brand:wikidata":"Q110314827","name":"Home Along","shop":"electronics"}},"shop/electronics/saversappliances-9584c3":{"name":"Savers Appliances","locationSet":{"include":["ph"]},"geometry":["point","area"],"matchScore":2,"terms":["savers appliances"],"tags":{"brand:wikidata":"Q113680122","shop":"electronics"},"addTags":{"brand":"Savers Appliances","brand:wikidata":"Q113680122","name":"Savers Appliances","shop":"electronics"}},"shop/houseware/princehypermart-32fa4c":{"name":"Prince Hypermart","locationSet":{"include":["ph"]},"geometry":["point","area"],"matchScore":2,"terms":["prince hypermart"],"tags":{"brand:wikidata":"Q28405980","shop":"houseware"},"addTags":{"brand":"Prince Hypermart","brand:wikidata":"Q28405980","name":"Prince Hypermart","shop":"houseware"}},"shop/money_lender/radiowealthfinance-f85e7b":{"name":"Radiowealth Finance","locationSet":{"include":["ph"]},"geometry":["point","area"],"matchScore":2,"terms":["radiowealth finance","radiowealth finance company","rfc"],"tags":{"brand:wikidata":"Q94572570","shop":"money_lender"},"addTags":{"brand":"Radiowealth Finance","brand:en":"Radiowealth Finance","brand:wikidata":"Q94572570","name":"Radiowealth Finance","name:en":"Radiowealth Finance","official_name":"Radiowealth Finance Company","shop":"money_lender","short_name":"RFC"}},"shop/motorcycle/motortrade-7f0c43":{"name":"Motortrade","locationSet":{"include":["ph"]},"geometry":["point","area"],"matchScore":2,"terms":["motortrade"],"fields":["name","brand","{shop/motorcycle}"],"tags":{"brand:wikidata":"Q48803162","shop":"motorcycle"},"addTags":{"brand":"Motortrade","brand:wikidata":"Q48803162","name":"Motortrade","shop":"motorcycle"}},"shop/pastry/mrsfields-e944b6":{"name":"Mrs. Fields","locationSet":{"include":["au","ph","us-ak","us-al","us-az","us-ca","us-co","us-de","us-fl","us-ga","us-hi","us-id","us-il","us-in","us-ks","us-la","us-ma","us-md","us-me","us-mi","us-mo","us-ms","us-nc","us-nj","us-nv","us-ny","us-oh","us-ok","us-pa","us-tx","us-ut","us-wi"]},"geometry":["point","area"],"matchScore":2,"terms":["mrs. fields"],"tags":{"brand:wikidata":"Q3866841","shop":"pastry"},"addTags":{"brand":"Mrs. Fields","brand:wikidata":"Q3866841","name":"Mrs. Fields","shop":"pastry"}},"shop/pawnbroker/cebuanalhuillier-6d9487":{"name":"Cebuana Lhuillier","locationSet":{"include":["ph"]},"geometry":["point","area"],"matchScore":2,"terms":["agencia cebuana","cebuana","cebuana lhuillier"],"tags":{"brand:wikidata":"Q17064661","shop":"pawnbroker"},"addTags":{"brand":"Cebuana Lhuillier","brand:wikidata":"Q17064661","name":"Cebuana Lhuillier","shop":"pawnbroker","short_name":"Cebuana"}},"shop/pawnbroker/mlhuillier-6d9487":{"name":"M Lhuillier","locationSet":{"include":["ph"]},"geometry":["point","area"],"matchScore":2,"terms":["m lhuillier"],"tags":{"brand:wikidata":"Q83434356","shop":"pawnbroker"},"addTags":{"brand":"M Lhuillier","brand:wikidata":"Q83434356","name":"M Lhuillier","shop":"pawnbroker"}},"shop/pawnbroker/palawanpawnshop-6d9487":{"name":"Palawan Pawnshop","locationSet":{"include":["ph"]},"geometry":["point","area"],"matchScore":2,"terms":["palawan pawnshop"],"tags":{"brand:wikidata":"Q62391488","shop":"pawnbroker"},"addTags":{"brand":"Palawan Pawnshop","brand:wikidata":"Q62391488","name":"Palawan Pawnshop","shop":"pawnbroker"}},"shop/pawnbroker/tambunting-6d9487":{"name":"Tambunting","locationSet":{"include":["ph"]},"geometry":["point","area"],"matchScore":2,"terms":["tambunting"],"tags":{"brand:wikidata":"Q7681088","shop":"pawnbroker"},"addTags":{"brand":"Tambunting","brand:wikidata":"Q7681088","name":"Tambunting","shop":"pawnbroker"}},"shop/pawnbroker/villarica-6d9487":{"name":"Villarica","locationSet":{"include":["ph"]},"geometry":["point","area"],"matchScore":2,"terms":["villarica"],"tags":{"brand:wikidata":"Q62391438","shop":"pawnbroker"},"addTags":{"brand":"Villarica","brand:wikidata":"Q62391438","name":"Villarica","shop":"pawnbroker"}},"shop/pawnbroker/villaricapawnshop-6d9487":{"name":"Villarica Pawnshop","locationSet":{"include":["ph"]},"geometry":["point","area"],"matchScore":2,"terms":["villarica pawnshop"],"tags":{"brand:wikidata":"Q62391438","shop":"pawnbroker"},"addTags":{"brand":"Villarica Pawnshop","brand:wikidata":"Q62391438","name":"Villarica Pawnshop","shop":"pawnbroker"}},"shop/supermarket/puregold-49e134":{"name":"Puregold","locationSet":{"include":["ph"]},"geometry":["point","area"],"matchScore":2,"terms":["puregold"],"tags":{"brand:wikidata":"Q7261170","shop":"supermarket"},"addTags":{"brand":"Puregold","brand:wikidata":"Q7261170","name":"Puregold","shop":"supermarket"}},"shop/supermarket/robinsonssupermarket-49e134":{"name":"Robinsons Supermarket","locationSet":{"include":["ph"]},"geometry":["point","area"],"matchScore":2,"terms":["robinsons supermarket"],"tags":{"brand:wikidata":"Q7353143","shop":"supermarket"},"addTags":{"brand":"Robinsons Supermarket","brand:wikidata":"Q7353143","name":"Robinsons Supermarket","shop":"supermarket"}},"shop/tyres/tyreplus-99cc81":{"name":"Tyreplus","locationSet":{"include":["ae","au","bh","cn","id","kh","kw","my","om","ph","qa","ru","sa","sg","th","tw"]},"geometry":["point","area"],"matchScore":2,"terms":["tyreplus"],"tags":{"brand:wikidata":"Q110959120","shop":"tyres"},"addTags":{"brand":"Tyreplus","brand:wikidata":"Q110959120","name":"Tyreplus","shop":"tyres"}},"tourism/hotel/conrad-ee1a43":{"name":"Conrad Hotels & Resorts","locationSet":{"include":["ae","ca","cn","eg","gb","id","ie","in","jp","kr","mv","pf","ph","pt","sa","sg","th","tr","us"]},"geometry":["point","area"],"matchScore":2,"terms":["conrad"],"fields":["name","brand","{tourism/hotel}"],"tags":{"brand:wikidata":"Q855525","tourism":"hotel"},"addTags":{"brand":"Conrad","brand:wikidata":"Q855525","name":"Conrad","tourism":"hotel"}},"tourism/hotel/daysinn-a89235":{"name":"Days Inn","locationSet":{"include":["ca","ch","gb","id","in","kr","mx","my","ph","sg","sn","th","us"]},"geometry":["point","area"],"matchScore":2,"terms":["days inn"],"fields":["name","brand","{tourism/hotel}"],"tags":{"brand:wikidata":"Q1047239","tourism":"hotel"},"addTags":{"brand":"Days Inn","brand:wikidata":"Q1047239","name":"Days Inn","tourism":"hotel"}},"tourism/hotel/microtel-5cadf0":{"name":"Microtel","locationSet":{"include":["ca","cn","mx","ph","us"]},"geometry":["point","area"],"matchScore":2,"terms":["microtel","microtel by wyndham","microtel inn"],"fields":["name","brand","{tourism/hotel}"],"tags":{"brand:wikidata":"Q6840402","tourism":"hotel"},"addTags":{"brand":"Microtel","brand:wikidata":"Q6840402","name":"Microtel","official_name":"Microtel by Wyndham","tourism":"hotel"}},"tourism/hotel/raffles-771760":{"name":"Raffles","locationSet":{"include":["ae","bh","cn","fr","gb","id","in","kh","mv","ph","pl","qa","ru","sa","sc","sg","us"]},"geometry":["point","area"],"matchScore":2,"terms":["raffles"],"fields":["name","brand","{tourism/hotel}"],"tags":{"brand:wikidata":"Q4306661","tourism":"hotel"},"addTags":{"brand":"Raffles","brand:wikidata":"Q4306661","name":"Raffles","tourism":"hotel"}},"man_made/flagpole/bangsamoro-54d211":{"name":"PH - Bangsamoro","locationSet":{"include":["ph"]},"geometry":["point","vertex"],"matchScore":2,"terms":["bangsamoro"],"tags":{"flag:wikidata":"Q74484535","man_made":"flagpole"},"addTags":{"flag:name":"Bangsamoro","flag:type":"regional","flag:wikidata":"Q74484535","man_made":"flagpole","subject":"Bangsamoro","subject:wikidata":"Q24869612"}},"amenity/fire_station/bureauoffireprotection-267105":{"name":"Bureau of Fire Protection","locationSet":{"include":["ph"]},"geometry":["point","area"],"matchScore":2,"terms":["bureau of fire protection"],"tags":{"amenity":"fire_station","operator:wikidata":"Q17027200"},"addTags":{"amenity":"fire_station","operator":"Bureau of Fire Protection","operator:wikidata":"Q17027200"}},"amenity/police/philippinenationalpolice-959114":{"name":"Philippine National Police","locationSet":{"include":["ph"]},"geometry":["point","area"],"matchScore":2,"terms":["philippine national police","pnp"],"tags":{"amenity":"police","operator:wikidata":"Q963772"},"addTags":{"amenity":"police","operator":"Philippine National Police","operator:short":"PNP","operator:wikidata":"Q963772"}},"amenity/post_box/jandtexpress-21508a":{"name":"J&T Express","locationSet":{"include":["id","my","ph"]},"geometry":["point","vertex"],"matchScore":2,"terms":["j&t express"],"tags":{"amenity":"post_box","operator:wikidata":"Q95690344"},"addTags":{"amenity":"post_box","operator":"J&T Express","operator:wikidata":"Q95690344"}},"amenity/post_box/lbc-4e7db5":{"name":"LBC","locationSet":{"include":["ph"]},"geometry":["point","vertex"],"matchScore":2,"terms":["lbc","lbc express"],"tags":{"amenity":"post_box","operator:wikidata":"Q17075584"},"addTags":{"amenity":"post_box","operator":"LBC","operator:wikidata":"Q17075584"}},"amenity/post_box/phlpost-4e7db5":{"name":"PHLPost","locationSet":{"include":["ph"]},"geometry":["point","vertex"],"matchScore":2,"terms":["philippine postal corporation","philpost","phl","phlpost"],"tags":{"amenity":"post_box","operator:wikidata":"Q1406037"},"addTags":{"amenity":"post_box","official_name":"Philippine Postal Corporation","operator":"PHLPost","operator:wikidata":"Q1406037"}},"amenity/post_office/jandtexpress-b78fda":{"name":"J&T Express","locationSet":{"include":["id","my","ph"]},"geometry":["point","area"],"matchScore":2,"terms":["j&t express"],"fields":["name","operator","{amenity/post_office}"],"tags":{"amenity":"post_office","operator:wikidata":"Q95690344"},"addTags":{"amenity":"post_office","operator":"J&T Express","operator:wikidata":"Q95690344"}},"amenity/post_office/lbc-7e1eed":{"name":"LBC","locationSet":{"include":["ph"]},"geometry":["point","area"],"matchScore":2,"terms":["lbc","lbc express"],"fields":["name","operator","{amenity/post_office}"],"tags":{"amenity":"post_office","operator:wikidata":"Q17075584"},"addTags":{"amenity":"post_office","operator":"LBC","operator:wikidata":"Q17075584"}},"amenity/post_office/phlpost-7e1eed":{"name":"PHLPost","locationSet":{"include":["ph"]},"geometry":["point","area"],"matchScore":2,"terms":["philippine postal corporation","philpost","phl","phlpost"],"fields":["name","operator","{amenity/post_office}"],"tags":{"amenity":"post_office","operator:wikidata":"Q1406037"},"addTags":{"amenity":"post_office","official_name":"Philippine Postal Corporation","operator":"PHLPost","operator:wikidata":"Q1406037"}},"amenity/prison/bureauofjailmanagementandpenology-9fb693":{"name":"Bureau of Jail Management and Penology","locationSet":{"include":["ph"]},"geometry":["area","point"],"matchScore":2,"terms":["bureau of jail management and penology"],"fields":["name","operator","{amenity/prison}"],"tags":{"amenity":"prison","operator:wikidata":"Q17027213"},"addTags":{"amenity":"prison","operator":"Bureau of Jail Management and Penology","operator:wikidata":"Q17027213"}},"amenity/school/departmentofeducation-775c70":{"name":"Department of Education (Philippines)","locationSet":{"include":["ph"]},"geometry":["area","point"],"matchScore":2,"terms":["department of education","deped"],"tags":{"amenity":"school","operator:wikidata":"Q3550346"},"addTags":{"amenity":"school","operator":"Department of Education","operator:short":"DepEd","operator:wikidata":"Q3550346"}},"amenity/social_facility/departmentofhealth-1b29d4":{"name":"Department of Health (Philippines)","locationSet":{"include":["ph"]},"geometry":["point","area"],"matchScore":2,"terms":["department of health","doh"],"tags":{"amenity":"social_facility","operator:wikidata":"Q3545669"},"addTags":{"amenity":"social_facility","operator":"Department of Health","operator:short":"DOH","operator:wikidata":"Q3545669"}},"amenity/social_facility/departmentofinteriorandlocalgovernment-1b29d4":{"name":"Department of Interior and Local Government (Philippines)","locationSet":{"include":["ph"]},"geometry":["point","area"],"matchScore":2,"terms":["department of interior and local government","dilg"],"tags":{"amenity":"social_facility","operator:wikidata":"Q3543505"},"addTags":{"amenity":"social_facility","operator":"Department of Interior and Local Government","operator:short":"DILG","operator:wikidata":"Q3543505"}},"amenity/social_facility/departmentofsocialwelfareanddevelopment-1b29d4":{"name":"Department of Social Welfare and Development (Philippines)","locationSet":{"include":["ph"]},"geometry":["point","area"],"matchScore":2,"terms":["department of social welfare and development","dswd"],"tags":{"amenity":"social_facility","operator:wikidata":"Q3547113"},"addTags":{"amenity":"social_facility","operator":"Department of Social Welfare and Development","operator:short":"DSWD","operator:wikidata":"Q3547113"}},"amenity/telephone/pldt-795ee8":{"name":"PLDT","locationSet":{"include":["ph"]},"geometry":["point","vertex"],"matchScore":2,"terms":["pldt"],"fields":["name","operator","{amenity/telephone}"],"tags":{"amenity":"telephone","operator:wikidata":"Q644167"},"addTags":{"amenity":"telephone","operator":"PLDT","operator:wikidata":"Q644167"}},"emergency/phone/nlexcorporation-507034":{"name":"NLEX Corporation","locationSet":{"include":["ph"]},"geometry":["point","vertex"],"matchScore":2,"terms":["nlex corporation"],"tags":{"emergency":"phone","operator:wikidata":"Q60749735"},"addTags":{"emergency":"phone","operator":"NLEX Corporation","operator:wikidata":"Q60749735"}},"office/government/departmentofeducation-7987d4":{"name":"DepEd","locationSet":{"include":["ph"]},"geometry":["point","area"],"matchScore":2,"terms":["department of education","deped"],"fields":["name","operator","{office/government}"],"tags":{"office":"government","operator:wikidata":"Q3550346"},"addTags":{"government":"education","office":"government","operator":"Department of Education","operator:short":"DepEd","operator:wikidata":"Q3550346"}},"office/government/departmentofpublicworksandhighways-7987d4":{"name":"DPWH","locationSet":{"include":["ph"]},"geometry":["point","area"],"matchScore":2,"terms":["department of public works and highways","dpwh"],"fields":["name","operator","{office/government}"],"tags":{"office":"government","operator:wikidata":"Q3543840"},"addTags":{"government":"public_works","office":"government","operator":"Department of Public Works and Highways","operator:short":"DPWH","operator:wikidata":"Q3543840"}},"power/line/meralco-53cceb":{"name":"Meralco","locationSet":{"include":["ph"]},"geometry":["line"],"matchScore":2,"terms":["meralco"],"tags":{"operator:wikidata":"Q6817918","power":"line"},"addTags":{"operator":"Meralco","operator:wikidata":"Q6817918","power":"line"}},"power/line/nationalgridcorporationofthephilippines-53cceb":{"name":"National Grid Corporation of the Philippines","locationSet":{"include":["ph"]},"geometry":["line"],"matchScore":2,"terms":["national grid corporation of the philippines","ngcp"],"tags":{"operator:wikidata":"Q28197109","power":"line"},"addTags":{"operator":"National Grid Corporation of the Philippines","operator:short":"NGCP","operator:wikidata":"Q28197109","power":"line"}},"power/minor_line/meralco-da5cb0":{"name":"Meralco","locationSet":{"include":["ph"]},"geometry":["line"],"matchScore":2,"terms":["meralco"],"tags":{"operator:wikidata":"Q6817918","power":"minor_line"},"addTags":{"operator":"Meralco","operator:wikidata":"Q6817918","power":"minor_line"}},"power/minor_line/nationalgridcorporationofthephilippines-da5cb0":{"name":"National Grid Corporation of the Philippines","locationSet":{"include":["ph"]},"geometry":["line"],"matchScore":2,"terms":["national grid corporation of the philippines","ngcp"],"tags":{"operator:wikidata":"Q28197109","power":"minor_line"},"addTags":{"operator":"National Grid Corporation of the Philippines","operator:short":"NGCP","operator:wikidata":"Q28197109","power":"minor_line"}},"power/pole/meralco-4b9a17":{"name":"Meralco","locationSet":{"include":["ph"]},"geometry":["point","vertex"],"matchScore":2,"terms":["meralco"],"tags":{"operator:wikidata":"Q6817918","power":"pole"},"addTags":{"operator":"Meralco","operator:wikidata":"Q6817918","power":"pole"}},"power/pole/nationalgridcorporationofthephilippines-4b9a17":{"name":"National Grid Corporation of the Philippines","locationSet":{"include":["ph"]},"geometry":["point","vertex"],"matchScore":2,"terms":["national grid corporation of the philippines","ngcp"],"tags":{"operator:wikidata":"Q28197109","power":"pole"},"addTags":{"operator":"National Grid Corporation of the Philippines","operator:short":"NGCP","operator:wikidata":"Q28197109","power":"pole"}},"power/substation/meralco-851165":{"name":"Meralco","locationSet":{"include":["ph"]},"geometry":["area","point"],"matchScore":2,"terms":["meralco"],"tags":{"operator:wikidata":"Q6817918","power":"substation"},"addTags":{"operator":"Meralco","operator:wikidata":"Q6817918","power":"substation"}},"power/substation/nationalgridcorporationofthephilippines-851165":{"name":"National Grid Corporation of the Philippines","locationSet":{"include":["ph"]},"geometry":["area","point"],"matchScore":2,"terms":["national grid corporation of the philippines","ngcp"],"tags":{"operator:wikidata":"Q28197109","power":"substation"},"addTags":{"operator":"National Grid Corporation of the Philippines","operator:short":"NGCP","operator:wikidata":"Q28197109","power":"substation"}},"power/tower/meralco-d1f649":{"name":"Meralco","locationSet":{"include":["ph"]},"geometry":["point","vertex"],"matchScore":2,"terms":["meralco"],"tags":{"operator:wikidata":"Q6817918","power":"tower"},"addTags":{"operator":"Meralco","operator:wikidata":"Q6817918","power":"tower"}},"power/tower/nationalgridcorporationofthephilippines-d1f649":{"name":"National Grid Corporation of the Philippines","locationSet":{"include":["ph"]},"geometry":["point","vertex"],"matchScore":2,"terms":["national grid corporation of the philippines","ngcp"],"tags":{"operator:wikidata":"Q28197109","power":"tower"},"addTags":{"operator":"National Grid Corporation of the Philippines","operator:short":"NGCP","operator:wikidata":"Q28197109","power":"tower"}},"power/transformer/meralco-d6fa7d":{"name":"Meralco","locationSet":{"include":["ph"]},"geometry":["point","vertex"],"matchScore":2,"terms":["meralco"],"tags":{"operator:wikidata":"Q6817918","power":"transformer"},"addTags":{"operator":"Meralco","operator:wikidata":"Q6817918","power":"transformer"}},"power/transformer/nationalgridcorporationofthephilippines-d6fa7d":{"name":"National Grid Corporation of the Philippines","locationSet":{"include":["ph"]},"geometry":["point","vertex"],"matchScore":2,"terms":["national grid corporation of the philippines","ngcp"],"tags":{"operator:wikidata":"Q28197109","power":"transformer"},"addTags":{"operator":"National Grid Corporation of the Philippines","operator:short":"NGCP","operator:wikidata":"Q28197109","power":"transformer"}},"type/route/power/meralco-5f3699":{"name":"Meralco","locationSet":{"include":["ph"]},"geometry":["relation"],"matchScore":2,"terms":["meralco"],"reference":{"key":"route","value":"power"},"tags":{"operator:wikidata":"Q6817918","route":"power","type":"route"},"addTags":{"operator":"Meralco","operator:wikidata":"Q6817918","route":"power","type":"route"}},"type/route/power/nationalgridcorporationofthephilippines-5f3699":{"name":"National Grid Corporation of the Philippines","locationSet":{"include":["ph"]},"geometry":["relation"],"matchScore":2,"terms":["national grid corporation of the philippines","ngcp"],"reference":{"key":"route","value":"power"},"tags":{"operator:wikidata":"Q28197109","route":"power","type":"route"},"addTags":{"operator":"National Grid Corporation of the Philippines","operator:short":"NGCP","operator:wikidata":"Q28197109","route":"power","type":"route"}},"public_transport/platform/bus_point/p2p-07dab3":{"name":"P2P","locationSet":{"include":["ph"]},"geometry":["point","vertex"],"matchScore":2,"terms":["p2p","ph:p2p"],"reference":{"key":"public_transport","value":"platform"},"tags":{"bus":"yes","network:wikidata":"Q65085330","public_transport":"platform"},"addTags":{"bus":"yes","highway":"bus_stop","network":"P2P","network:wikidata":"Q65085330","public_transport":"platform"}},"type/route/bus/p2p-3785bf":{"name":"P2P","locationSet":{"include":["ph"]},"geometry":["relation"],"matchScore":2,"terms":["p2p","ph:p2p"],"reference":{"key":"route","value":"bus"},"tags":{"network:wikidata":"Q65085330","route":"bus","type":"route"},"addTags":{"network":"P2P","network:wikidata":"Q65085330","route":"bus","type":"route"}}}