{"amenity/atm/citizensbankinternational-1b6814":{"name":"Citizens Bank (Nepal)","locationSet":{"include":["np"]},"geometry":["point","vertex"],"matchScore":2,"terms":["citizens","citizens bank international","citizens bank international ltd."],"fields":["name","brand","{amenity/atm}"],"tags":{"amenity":"atm","brand:wikidata":"Q13186934"},"addTags":{"amenity":"atm","brand":"Citizens Bank International","brand:wikidata":"Q13186934","official_name":"Citizens Bank International Ltd.","operator":"Citizens Bank International","operator:wikidata":"Q13186934","short_name":"Citizens"}},"amenity/atm/nmbbank-1b6814":{"name":"NMB Bank (Nepal)","locationSet":{"include":["np"]},"geometry":["point","vertex"],"matchScore":2,"terms":["nmb","nmb bank"],"fields":["name","brand","{amenity/atm}"],"tags":{"amenity":"atm","brand:wikidata":"Q13179664"},"addTags":{"amenity":"atm","brand":"NMB Bank","brand:wikidata":"Q13179664","operator":"NMB Bank","operator:wikidata":"Q13179664","short_name":"NMB"}},"amenity/bank/citizensbank-b0fe63":{"name":"Citizens Bank (Nepal)","locationSet":{"include":["np"]},"geometry":["point","area"],"matchScore":2,"terms":["citizens","citizens bank international","citizens bank international ltd."],"tags":{"amenity":"bank","brand:wikidata":"Q13186934"},"addTags":{"amenity":"bank","brand":"Citizens Bank International","brand:wikidata":"Q13186934","name":"Citizens Bank","official_name":"Citizens Bank International Ltd.","short_name":"Citizens"}},"amenity/bank/nmbbank-b0fe63":{"name":"NMB Bank (Nepal)","locationSet":{"include":["np"]},"geometry":["point","area"],"matchScore":2,"terms":["nmb","nmb bank"],"tags":{"amenity":"bank","brand:wikidata":"Q13179664"},"addTags":{"amenity":"bank","brand":"NMB Bank","brand:wikidata":"Q13179664","name":"NMB Bank","short_name":"NMB"}},"amenity/cafe/coffee_shop/barista-56abeb":{"name":"Barista","locationSet":{"include":["in","lk","mv","np"]},"geometry":["point","area"],"matchScore":2,"terms":["barista"],"reference":{"key":"cuisine","value":"coffee_shop"},"tags":{"amenity":"cafe","brand:wikidata":"Q644735","cuisine":"coffee_shop"},"addTags":{"amenity":"cafe","brand":"Barista","brand:wikidata":"Q644735","cuisine":"coffee_shop","name":"Barista","takeaway":"yes"}},"amenity/school/maplebear-101006":{"name":"Maple Bear","locationSet":{"include":["ae","al","ar","au","bd","bg","br","ca","gt","hk","hr","in","ke","kr","lk","ma","mx","my","np","om","pe","ph","py","ro","rs","sg","th","tk","ua","us","vn"]},"geometry":["area","point"],"matchScore":2,"terms":["maple bear"],"fields":["name","brand","{amenity/school}"],"tags":{"amenity":"school","brand:wikidata":"Q10324823"},"addTags":{"amenity":"school","brand":"Maple Bear","brand:wikidata":"Q10324823","name":"Maple Bear","operator:type":"private"}},"shop/supermarket/bhatbhatenisupermarket-e40c68":{"name":"Bhat-Bhateni Super Market","locationSet":{"include":["np"]},"geometry":["point","area"],"matchScore":2,"terms":["bhat-bhateni super market","भाट-भटेनी सुपर मार्केट"],"tags":{"brand:wikidata":"Q104847792","shop":"supermarket"},"addTags":{"brand":"Bhat-Bhateni Super Market","brand:wikidata":"Q104847792","name":"Bhat-Bhateni Super Market","name:np":"भाट-भटेनी सुपर मार्केट","shop":"supermarket"}},"amenity/police/nepalpolice-f1d71d":{"name":"Nepal Police","locationSet":{"include":["np"]},"geometry":["point","area"],"matchScore":2,"terms":["nepal police","नेपाल प्रहरी"],"tags":{"amenity":"police","operator:wikidata":"Q12436070"},"addTags":{"amenity":"police","operator":"नेपाल प्रहरी","operator:en":"Nepal Police","operator:ne":"नेपाल प्रहरी","operator:wikidata":"Q12436070"}},"office/government/90ff21-3371e4":{"name":"पोखरा महानगरपालिका","locationSet":{"include":["np"]},"geometry":["point","area"],"matchScore":2,"terms":["pokhara sub-metropolitian city","पोखरा महानगरपालिका"],"fields":["name","operator","{office/government}"],"tags":{"office":"government","operator:wikidata":"Q6640"},"addTags":{"office":"government","operator":"पोखरा महानगरपालिका","operator:wikidata":"Q6640"}}}