{"amenity/atm/aargauischekantonalbank-ba97f3":{"name":"Aargauische Kantonalbank","locationSet":{"include":["ch"]},"geometry":["point","vertex"],"matchScore":2,"terms":["aargauische kantonalbank","akb"],"tags":{"amenity":"atm","brand:wikidata":"Q301269"},"addTags":{"amenity":"atm","brand":"Aargauische Kantonalbank","brand:wikidata":"Q301269","name":"Aargauische Kantonalbank","operator":"Aargauische Kantonalbank","operator:wikidata":"Q301269","short_name":"AKB"}},"amenity/atm/appenzellerkantonalbank-ba97f3":{"name":"Appenzeller Kantonalbank","locationSet":{"include":["ch"]},"geometry":["point","vertex"],"matchScore":2,"terms":["appenzeller kantonalbank","appkb"],"tags":{"amenity":"atm","brand:wikidata":"Q620963"},"addTags":{"amenity":"atm","brand":"Appenzeller Kantonalbank","brand:wikidata":"Q620963","name":"Appenzeller Kantonalbank","operator":"Appenzeller Kantonalbank","operator:wikidata":"Q620963","short_name":"APPKB"}},"amenity/atm/attijariwafabank-e568eb":{"name":"Attijariwafa Bank (التجاري وفا بنك)","locationSet":{"include":["ae","be","bf","bj","ca","cd","cg","ch","ci","cm","eg","es","fr","ga","gb","it","ma","mr","nl","sa","sn","tg","tn"]},"geometry":["point","vertex"],"matchScore":2,"terms":["attijariwafa bank","attijariwafa bank التجاري وفا بنك","التجاري وفا بنك"],"tags":{"amenity":"atm","brand:wikidata":"Q758052"},"addTags":{"amenity":"atm","brand":"Attijariwafa Bank","brand:ar":"التجاري وفا بنك","brand:en":"Attijariwafa Bank","brand:wikidata":"Q758052","name:ar":"التجاري وفا بنك","name:en":"Attijariwafa Bank","operator":"Attijariwafa Bank","operator:wikidata":"Q758052"}},"amenity/atm/bancastato-79920e":{"name":"BancaStato","locationSet":{"include":["ch"]},"geometry":["point","vertex"],"matchScore":2,"terms":["banca dello stato","banca dello stato del cantone ticino","bancastato"],"tags":{"amenity":"atm","brand:wikidata":"Q806158"},"addTags":{"amenity":"atm","brand":"BancaStato","brand:wikidata":"Q806158","name":"BancaStato","official_name":"Banca dello Stato del Cantone Ticino","operator":"BancaStato","operator:wikidata":"Q806158"}},"amenity/atm/banquecantonaledefribourg-5f720b":{"name":"Banque Cantonale de Fribourg","locationSet":{"include":["ch"]},"geometry":["point","vertex"],"matchScore":2,"terms":["banque cantonale de fribourg","bcf","fkb","freiburger kantonalbank"],"tags":{"amenity":"atm","brand:wikidata":"Q1453871"},"addTags":{"amenity":"atm","brand":"Banque Cantonale de Fribourg","brand:de":"Freiburger Kantonalbank","brand:fr":"Banque Cantonale de Fribourg","brand:wikidata":"Q1453871","name":"Banque Cantonale de Fribourg","name:de":"Freiburger Kantonalbank","name:fr":"Banque Cantonale de Fribourg","operator":"Banque Cantonale de Fribourg","operator:wikidata":"Q1453871","short_name":"BCF","short_name:de":"FKB","short_name:fr":"BCF"}},"amenity/atm/banquecantonaledegeneve-097ff6":{"name":"Banque Cantonale de Genève","locationSet":{"include":["ch"]},"geometry":["point","vertex"],"matchScore":2,"terms":["banque cantonale de genève","bcge"],"tags":{"amenity":"atm","brand:wikidata":"Q650629"},"addTags":{"amenity":"atm","brand":"Banque Cantonale de Genève","brand:wikidata":"Q650629","name":"Banque Cantonale de Genève","operator":"Banque Cantonale de Genève","operator:wikidata":"Q650629","short_name":"BCGE"}},"amenity/atm/banquecantonaledujura-eaf18e":{"name":"Banque Cantonale du Jura","locationSet":{"include":["ch"]},"geometry":["point","vertex"],"matchScore":2,"terms":["banque cantonale du jura","bcj"],"tags":{"amenity":"atm","brand:wikidata":"Q806923"},"addTags":{"amenity":"atm","brand":"Banque Cantonale du Jura","brand:wikidata":"Q806923","name":"Banque Cantonale du Jura","operator":"Banque Cantonale du Jura","operator:wikidata":"Q806923","short_name":"BCJ"}},"amenity/atm/banquecantonaleduvalais-79e460":{"name":"Banque Cantonale du Valais","locationSet":{"include":["ch"]},"geometry":["point","vertex"],"matchScore":2,"terms":["banque cantonale du valais","bcvs","walliser kantonalbank","wkb"],"tags":{"amenity":"atm","brand:wikidata":"Q2543025"},"addTags":{"amenity":"atm","brand":"Banque Cantonale du Valais","brand:de":"Walliser Kantonalbank","brand:fr":"Banque Cantonale du Valais","brand:wikidata":"Q2543025","name":"Banque Cantonale du Valais","name:de":"Walliser Kantonalbank","name:fr":"Banque Cantonale du Valais","operator":"Banque Cantonale du Valais","operator:wikidata":"Q2543025","short_name":"BCVS","short_name:de":"WKB","short_name:fr":"BCVS"}},"amenity/atm/banquecantonaleneuchateloise-d187a2":{"name":"Banque Cantonale Neuchâteloise","locationSet":{"include":["ch"]},"geometry":["point","vertex"],"matchScore":2,"terms":["banque cantonale neuchâteloise","bcn"],"tags":{"amenity":"atm","brand:wikidata":"Q688391"},"addTags":{"amenity":"atm","brand":"Banque Cantonale Neuchâteloise","brand:wikidata":"Q688391","name":"Banque Cantonale Neuchâteloise","operator":"Banque Cantonale Neuchâteloise","operator:wikidata":"Q688391","short_name":"BCN"}},"amenity/atm/banquecantonalevaudoise-ba97f3":{"name":"Banque Cantonale Vaudoise","locationSet":{"include":["ch"]},"geometry":["point","vertex"],"matchScore":2,"terms":["banque cantonale vaudoise","bcv"],"tags":{"amenity":"atm","brand:wikidata":"Q685533"},"addTags":{"amenity":"atm","brand":"Banque Cantonale Vaudoise","brand:wikidata":"Q685533","name":"Banque Cantonale Vaudoise","operator":"Banque Cantonale Vaudoise","operator:wikidata":"Q685533","short_name":"BCV"}},"amenity/atm/basellandschaftlichekantonalbank-ba97f3":{"name":"Basellandschaftliche Kantonalbank","locationSet":{"include":["ch"]},"geometry":["point","vertex"],"matchScore":2,"terms":["basellandschaftliche kantonalbank","blkb"],"tags":{"amenity":"atm","brand:wikidata":"Q809931"},"addTags":{"amenity":"atm","brand":"Basellandschaftliche Kantonalbank","brand:wikidata":"Q809931","name":"Basellandschaftliche Kantonalbank","operator":"Basellandschaftliche Kantonalbank","operator:wikidata":"Q809931","short_name":"BLKB"}},"amenity/atm/baslerkantonalbank-ba97f3":{"name":"Basler Kantonalbank","locationSet":{"include":["ch"]},"geometry":["point","vertex"],"matchScore":2,"terms":["basler kantonalbank","bkb"],"tags":{"amenity":"atm","brand:wikidata":"Q810408"},"addTags":{"amenity":"atm","brand":"Basler Kantonalbank","brand:wikidata":"Q810408","name":"Basler Kantonalbank","operator":"Basler Kantonalbank","operator:wikidata":"Q810408","short_name":"BKB"}},"amenity/atm/bernerkantonalbank-ba97f3":{"name":"Berner Kantonalbank","locationSet":{"include":["ch"]},"geometry":["point","vertex"],"matchScore":2,"terms":["banque cantonale bernoise","bcbe","bekb","berner kantonalbank"],"tags":{"amenity":"atm","brand:wikidata":"Q824579"},"addTags":{"amenity":"atm","brand":"Berner Kantonalbank","brand:de":"Berner Kantonalbank","brand:fr":"Banque Cantonale Bernoise","brand:wikidata":"Q824579","name":"Berner Kantonalbank","name:de":"Berner Kantonalbank","name:fr":"Banque Cantonale Bernoise","operator":"Berner Kantonalbank","operator:wikidata":"Q824579","short_name":"BEKB","short_name:de":"BEKB","short_name:fr":"BCBE"}},"amenity/atm/creditsuisse-ba97f3":{"name":"Credit Suisse","locationSet":{"include":["ch"]},"geometry":["point","vertex"],"matchScore":2,"terms":["credit suisse"],"tags":{"amenity":"atm","brand:wikidata":"Q372657"},"addTags":{"amenity":"atm","brand":"Credit Suisse","brand:wikidata":"Q372657","name":"Credit Suisse","operator":"Credit Suisse","operator:wikidata":"Q372657"}},"amenity/atm/glarnerkantonalbank-ba97f3":{"name":"Glarner Kantonalbank","locationSet":{"include":["ch"]},"geometry":["point","vertex"],"matchScore":2,"terms":["glarner kantonalbank","glkb"],"tags":{"amenity":"atm","brand:wikidata":"Q1529290"},"addTags":{"amenity":"atm","brand":"Glarner Kantonalbank","brand:wikidata":"Q1529290","name":"Glarner Kantonalbank","operator":"Glarner Kantonalbank","operator:wikidata":"Q1529290","short_name":"GLKB"}},"amenity/atm/graubundnerkantonalbank-ba97f3":{"name":"Graubündner Kantonalbank","locationSet":{"include":["ch"]},"geometry":["point","vertex"],"matchScore":2,"terms":["banca cantonale grigione","bcg","gkb","graubündner kantonalbank"],"tags":{"amenity":"atm","brand:wikidata":"Q1543702"},"addTags":{"amenity":"atm","brand":"Graubündner Kantonalbank","brand:de":"Graubündner Kantonalbank","brand:it":"Banca Cantonale Grigione","brand:wikidata":"Q1543702","name":"Graubündner Kantonalbank","name:de":"Graubündner Kantonalbank","name:it":"Banca Cantonale Grigione","operator":"Graubündner Kantonalbank","operator:wikidata":"Q1543702","short_name":"GKB","short_name:de":"GKB","short_name:it":"BCG"}},"amenity/atm/luzernerkantonalbank-ba97f3":{"name":"Luzerner Kantonalbank","locationSet":{"include":["ch"]},"geometry":["point","vertex"],"matchScore":2,"terms":["lukb","luzerner kantonalbank"],"tags":{"amenity":"atm","brand:wikidata":"Q1756878"},"addTags":{"amenity":"atm","brand":"Luzerner Kantonalbank","brand:wikidata":"Q1756878","name":"Luzerner Kantonalbank","operator":"Luzerner Kantonalbank","operator:wikidata":"Q1756878","short_name":"LUKB"}},"amenity/atm/migrosbank-ba97f3":{"name":"Migros Bank","locationSet":{"include":["ch"]},"geometry":["point","vertex"],"matchScore":2,"terms":["banca migros","banque migros","migros bank"],"tags":{"amenity":"atm","brand:wikidata":"Q1593349"},"addTags":{"amenity":"atm","brand":"Migros Bank","brand:de":"Migros Bank","brand:fr":"Banque Migros","brand:it":"Banca Migros","brand:wikidata":"Q1593349","name":"Migros Bank","name:de":"Migros Bank","name:fr":"Banque Migros","name:it":"Banca Migros","operator":"Migros Bank","operator:wikidata":"Q1593349"}},"amenity/atm/nidwaldnerkantonalbank-ba97f3":{"name":"Nidwaldner Kantonalbank","locationSet":{"include":["ch"]},"geometry":["point","vertex"],"matchScore":2,"terms":["nidwaldner kantonalbank","nkb"],"tags":{"amenity":"atm","brand:wikidata":"Q1987417"},"addTags":{"amenity":"atm","brand":"Nidwaldner Kantonalbank","brand:wikidata":"Q1987417","name":"Nidwaldner Kantonalbank","operator":"Nidwaldner Kantonalbank","operator:wikidata":"Q1987417","short_name":"NKB"}},"amenity/atm/obwaldnerkantonalbank-ba97f3":{"name":"Obwaldner Kantonalbank","locationSet":{"include":["ch"]},"geometry":["point","vertex"],"matchScore":2,"terms":["obwaldner kantonalbank","okb"],"tags":{"amenity":"atm","brand:wikidata":"Q1291630"},"addTags":{"amenity":"atm","brand":"Obwaldner Kantonalbank","brand:wikidata":"Q1291630","name":"Obwaldner Kantonalbank","operator":"Obwaldner Kantonalbank","operator:wikidata":"Q1291630","short_name":"OKB"}},"amenity/atm/raiffeisen-ba97f3":{"name":"Raiffeisen (Schweiz)","locationSet":{"include":["ch"]},"geometry":["point","vertex"],"matchScore":2,"terms":["raiffeisen"],"tags":{"amenity":"atm","brand:wikidata":"Q681189"},"addTags":{"amenity":"atm","brand":"Raiffeisen","brand:wikidata":"Q681189","name":"Raiffeisen","operator":"Raiffeisen","operator:wikidata":"Q681189"}},"amenity/atm/schaffhauserkantonalbank-ba97f3":{"name":"Schaffhauser Kantonalbank","locationSet":{"include":["ch"]},"geometry":["point","vertex"],"matchScore":2,"terms":["schaffhauser kantonalbank","shkb"],"tags":{"amenity":"atm","brand:wikidata":"Q2230058"},"addTags":{"amenity":"atm","brand":"Schaffhauser Kantonalbank","brand:wikidata":"Q2230058","name":"Schaffhauser Kantonalbank","operator":"Schaffhauser Kantonalbank","operator:wikidata":"Q2230058","short_name":"SHKB"}},"amenity/atm/schwyzerkantonalbank-ba97f3":{"name":"Schwyzer Kantonalbank","locationSet":{"include":["ch"]},"geometry":["point","vertex"],"matchScore":2,"terms":["schwyzer kantonalbank","szkb"],"tags":{"amenity":"atm","brand:wikidata":"Q2257957"},"addTags":{"amenity":"atm","brand":"Schwyzer Kantonalbank","brand:wikidata":"Q2257957","name":"Schwyzer Kantonalbank","operator":"Schwyzer Kantonalbank","operator:wikidata":"Q2257957","short_name":"SZKB"}},"amenity/atm/stgallerkantonalbank-ba97f3":{"name":"St. Galler Kantonalbank","locationSet":{"include":["ch"]},"geometry":["point","vertex"],"matchScore":2,"terms":["sgkb","st. galler kantonalbank"],"tags":{"amenity":"atm","brand:wikidata":"Q2316809"},"addTags":{"amenity":"atm","brand":"St. Galler Kantonalbank","brand:wikidata":"Q2316809","name":"St. Galler Kantonalbank","operator":"St. Galler Kantonalbank","operator:wikidata":"Q2316809","short_name":"SGKB"}},"amenity/atm/thurgauerkantonalbank-ba97f3":{"name":"Thurgauer Kantonalbank","locationSet":{"include":["ch"]},"geometry":["point","vertex"],"matchScore":2,"terms":["thurgauer kantonalbank","tkb"],"tags":{"amenity":"atm","brand:wikidata":"Q2430020"},"addTags":{"amenity":"atm","brand":"Thurgauer Kantonalbank","brand:wikidata":"Q2430020","name":"Thurgauer Kantonalbank","operator":"Thurgauer Kantonalbank","operator:wikidata":"Q2430020","short_name":"TKB"}},"amenity/atm/urnerkantonalbank-ba97f3":{"name":"Urner Kantonalbank","locationSet":{"include":["ch"]},"geometry":["point","vertex"],"matchScore":2,"terms":["ukb","urner kantonalbank"],"tags":{"amenity":"atm","brand:wikidata":"Q17051583"},"addTags":{"amenity":"atm","brand":"Urner Kantonalbank","brand:wikidata":"Q17051583","name":"Urner Kantonalbank","operator":"Urner Kantonalbank","operator:wikidata":"Q17051583","short_name":"UKB"}},"amenity/atm/valiant-ba97f3":{"name":"Valiant","locationSet":{"include":["ch"]},"geometry":["point","vertex"],"matchScore":2,"terms":["valiant"],"tags":{"amenity":"atm","brand:wikidata":"Q2509061"},"addTags":{"amenity":"atm","brand":"Valiant","brand:wikidata":"Q2509061","name":"Valiant","operator":"Valiant","operator:wikidata":"Q2509061"}},"amenity/atm/zugerkantonalbank-ba97f3":{"name":"Zuger Kantonalbank","locationSet":{"include":["ch"]},"geometry":["point","vertex"],"matchScore":2,"terms":["zuger kantonalbank"],"tags":{"amenity":"atm","brand:wikidata":"Q228365"},"addTags":{"amenity":"atm","brand":"Zuger Kantonalbank","brand:wikidata":"Q228365","name":"Zuger Kantonalbank","operator":"Zuger Kantonalbank","operator:wikidata":"Q228365"}},"amenity/atm/zurcherkantonalbank-ba97f3":{"name":"Zürcher Kantonalbank","locationSet":{"include":["ch"]},"geometry":["point","vertex"],"matchScore":2,"terms":["zkb","zürcher kantonalbank"],"tags":{"amenity":"atm","brand:wikidata":"Q248476"},"addTags":{"amenity":"atm","brand":"Zürcher Kantonalbank","brand:wikidata":"Q248476","name":"Zürcher Kantonalbank","operator":"Zürcher Kantonalbank","operator:wikidata":"Q248476","short_name":"ZKB"}},"amenity/bank/aargauischekantonalbank-74b036":{"name":"Aargauische Kantonalbank","locationSet":{"include":["ch"]},"geometry":["point","area"],"matchScore":2,"terms":["aargauische kantonalbank","akb"],"tags":{"amenity":"bank","brand:wikidata":"Q301269"},"addTags":{"amenity":"bank","brand":"Aargauische Kantonalbank","brand:wikidata":"Q301269","name":"Aargauische Kantonalbank","short_name":"AKB"}},"amenity/bank/appenzellerkantonalbank-74b036":{"name":"Appenzeller Kantonalbank","locationSet":{"include":["ch"]},"geometry":["point","area"],"matchScore":2,"terms":["appenzeller kantonalbank","appkb"],"tags":{"amenity":"bank","brand:wikidata":"Q620963"},"addTags":{"amenity":"bank","brand":"Appenzeller Kantonalbank","brand:wikidata":"Q620963","name":"Appenzeller Kantonalbank","short_name":"APPKB"}},"amenity/bank/attijariwafabank-c1cae6":{"name":"Attijariwafa Bank (التجاري وفا بنك)","locationSet":{"include":["ae","be","bf","bj","ca","cd","cg","ch","ci","cm","eg","es","fr","ga","gb","it","ma","mr","nl","sa","sn","tg","tn"]},"geometry":["point","area"],"matchScore":2,"terms":["attijariwafa bank","attijariwafa bank التجاري وفا بنك","التجاري وفا بنك"],"tags":{"amenity":"bank","brand:wikidata":"Q758052"},"addTags":{"amenity":"bank","brand":"Attijariwafa Bank","brand:ar":"التجاري وفا بنك","brand:en":"Attijariwafa Bank","brand:wikidata":"Q758052","name:ar":"التجاري وفا بنك","name:en":"Attijariwafa Bank"}},"amenity/bank/bancastato-72646c":{"name":"BancaStato","locationSet":{"include":["ch"]},"geometry":["point","area"],"matchScore":2,"terms":["banca dello stato","banca dello stato del cantone ticino","bancastato"],"tags":{"amenity":"bank","brand:wikidata":"Q806158"},"addTags":{"amenity":"bank","brand":"BancaStato","brand:wikidata":"Q806158","name":"BancaStato","official_name":"Banca dello Stato del Cantone Ticino"}},"amenity/bank/banquecantonaledefribourg-67b150":{"name":"Banque Cantonale de Fribourg","locationSet":{"include":["ch"]},"geometry":["point","area"],"matchScore":2,"terms":["banque cantonale de fribourg","bcf","fkb","freiburger kantonalbank"],"tags":{"amenity":"bank","brand:wikidata":"Q1453871"},"addTags":{"amenity":"bank","brand":"Banque Cantonale de Fribourg","brand:de":"Freiburger Kantonalbank","brand:fr":"Banque Cantonale de Fribourg","brand:wikidata":"Q1453871","name":"Banque Cantonale de Fribourg","name:de":"Freiburger Kantonalbank","name:fr":"Banque Cantonale de Fribourg","short_name":"BCF","short_name:de":"FKB","short_name:fr":"BCF"}},"amenity/bank/banquecantonaledegeneve-e338fc":{"name":"Banque Cantonale de Genève","locationSet":{"include":["ch"]},"geometry":["point","area"],"matchScore":2,"terms":["banque cantonale de genève","bcge"],"tags":{"amenity":"bank","brand:wikidata":"Q650629"},"addTags":{"amenity":"bank","brand":"Banque Cantonale de Genève","brand:wikidata":"Q650629","name":"Banque Cantonale de Genève","short_name":"BCGE"}},"amenity/bank/banquecantonaledujura-54afa2":{"name":"Banque Cantonale du Jura","locationSet":{"include":["ch"]},"geometry":["point","area"],"matchScore":2,"terms":["banque cantonale du jura","bcj"],"tags":{"amenity":"bank","brand:wikidata":"Q806923"},"addTags":{"amenity":"bank","brand":"Banque Cantonale du Jura","brand:wikidata":"Q806923","name":"Banque Cantonale du Jura","short_name":"BCJ"}},"amenity/bank/banquecantonaleduvalais-43dddb":{"name":"Banque Cantonale du Valais","locationSet":{"include":["ch"]},"geometry":["point","area"],"matchScore":2,"terms":["banque cantonale du valais","bcvs","walliser kantonalbank","wkb"],"tags":{"amenity":"bank","brand:wikidata":"Q2543025"},"addTags":{"amenity":"bank","brand":"Banque Cantonale du Valais","brand:de":"Walliser Kantonalbank","brand:fr":"Banque Cantonale du Valais","brand:wikidata":"Q2543025","name":"Banque Cantonale du Valais","name:de":"Walliser Kantonalbank","name:fr":"Banque Cantonale du Valais","short_name":"BCVS","short_name:de":"WKB","short_name:fr":"BCVS"}},"amenity/bank/banquecantonaleneuchateloise-9b416d":{"name":"Banque Cantonale Neuchâteloise","locationSet":{"include":["ch"]},"geometry":["point","area"],"matchScore":2,"terms":["banque cantonale neuchâteloise","bcn"],"tags":{"amenity":"bank","brand:wikidata":"Q688391"},"addTags":{"amenity":"bank","brand":"Banque Cantonale Neuchâteloise","brand:wikidata":"Q688391","name":"Banque Cantonale Neuchâteloise","short_name":"BCN"}},"amenity/bank/banquecantonalevaudoise-74b036":{"name":"Banque Cantonale Vaudoise","locationSet":{"include":["ch"]},"geometry":["point","area"],"matchScore":2,"terms":["banque cantonale vaudoise","bcv"],"tags":{"amenity":"bank","brand:wikidata":"Q685533"},"addTags":{"amenity":"bank","brand":"Banque Cantonale Vaudoise","brand:wikidata":"Q685533","name":"Banque Cantonale Vaudoise","short_name":"BCV"}},"amenity/bank/basellandschaftlichekantonalbank-74b036":{"name":"Basellandschaftliche Kantonalbank","locationSet":{"include":["ch"]},"geometry":["point","area"],"matchScore":2,"terms":["basellandschaftliche kantonalbank","blkb"],"tags":{"amenity":"bank","brand:wikidata":"Q809931"},"addTags":{"amenity":"bank","brand":"Basellandschaftliche Kantonalbank","brand:wikidata":"Q809931","name":"Basellandschaftliche Kantonalbank","short_name":"BLKB"}},"amenity/bank/baslerkantonalbank-74b036":{"name":"Basler Kantonalbank","locationSet":{"include":["ch"]},"geometry":["point","area"],"matchScore":2,"terms":["basler kantonalbank","bkb"],"tags":{"amenity":"bank","brand:wikidata":"Q810408"},"addTags":{"amenity":"bank","brand":"Basler Kantonalbank","brand:wikidata":"Q810408","name":"Basler Kantonalbank","short_name":"BKB"}},"amenity/bank/bernerkantonalbank-74b036":{"name":"Berner Kantonalbank","locationSet":{"include":["ch"]},"geometry":["point","area"],"matchScore":2,"terms":["banque cantonale bernoise","bcbe","bekb","berner kantonalbank"],"tags":{"amenity":"bank","brand:wikidata":"Q824579"},"addTags":{"amenity":"bank","brand":"Berner Kantonalbank","brand:de":"Berner Kantonalbank","brand:fr":"Banque Cantonale Bernoise","brand:wikidata":"Q824579","name":"Berner Kantonalbank","name:de":"Berner Kantonalbank","name:fr":"Banque Cantonale Bernoise","short_name":"BEKB","short_name:de":"BEKB","short_name:fr":"BCBE"}},"amenity/bank/creditsuisse-74b036":{"name":"Credit Suisse","locationSet":{"include":["ch"]},"geometry":["point","area"],"matchScore":2,"terms":["credit suisse"],"tags":{"amenity":"bank","brand:wikidata":"Q372657"},"addTags":{"amenity":"bank","brand":"Credit Suisse","brand:wikidata":"Q372657","name":"Credit Suisse"}},"amenity/bank/glarnerkantonalbank-74b036":{"name":"Glarner Kantonalbank","locationSet":{"include":["ch"]},"geometry":["point","area"],"matchScore":2,"terms":["glarner kantonalbank","glkb"],"tags":{"amenity":"bank","brand:wikidata":"Q1529290"},"addTags":{"amenity":"bank","brand":"Glarner Kantonalbank","brand:wikidata":"Q1529290","name":"Glarner Kantonalbank","short_name":"GLKB"}},"amenity/bank/graubundnerkantonalbank-74b036":{"name":"Graubündner Kantonalbank","locationSet":{"include":["ch"]},"geometry":["point","area"],"matchScore":2,"terms":["banca cantonale grigione","bcg","gkb","graubündner kantonalbank"],"tags":{"amenity":"bank","brand:wikidata":"Q1543702"},"addTags":{"amenity":"bank","brand":"Graubündner Kantonalbank","brand:de":"Graubündner Kantonalbank","brand:it":"Banca Cantonale Grigione","brand:wikidata":"Q1543702","name":"Graubündner Kantonalbank","name:de":"Graubündner Kantonalbank","name:it":"Banca Cantonale Grigione","short_name":"GKB","short_name:de":"GKB","short_name:it":"BCG"}},"amenity/bank/luzernerkantonalbank-74b036":{"name":"Luzerner Kantonalbank","locationSet":{"include":["ch"]},"geometry":["point","area"],"matchScore":2,"terms":["lukb","luzerner kantonalbank"],"tags":{"amenity":"bank","brand:wikidata":"Q1756878"},"addTags":{"amenity":"bank","brand":"Luzerner Kantonalbank","brand:wikidata":"Q1756878","name":"Luzerner Kantonalbank","short_name":"LUKB"}},"amenity/bank/migrosbank-74b036":{"name":"Migros Bank","locationSet":{"include":["ch"]},"geometry":["point","area"],"matchScore":2,"terms":["banca migros","banque migros","migros bank"],"tags":{"amenity":"bank","brand:wikidata":"Q1593349"},"addTags":{"amenity":"bank","brand":"Migros Bank","brand:de":"Migros Bank","brand:fr":"Banque Migros","brand:it":"Banca Migros","brand:wikidata":"Q1593349","name":"Migros Bank","name:de":"Migros Bank","name:fr":"Banque Migros","name:it":"Banca Migros"}},"amenity/bank/nidwaldnerkantonalbank-74b036":{"name":"Nidwaldner Kantonalbank","locationSet":{"include":["ch"]},"geometry":["point","area"],"matchScore":2,"terms":["nidwaldner kantonalbank","nkb"],"tags":{"amenity":"bank","brand:wikidata":"Q1987417"},"addTags":{"amenity":"bank","brand":"Nidwaldner Kantonalbank","brand:wikidata":"Q1987417","name":"Nidwaldner Kantonalbank","short_name":"NKB"}},"amenity/bank/obwaldnerkantonalbank-74b036":{"name":"Obwaldner Kantonalbank","locationSet":{"include":["ch"]},"geometry":["point","area"],"matchScore":2,"terms":["obwaldner kantonalbank","okb"],"tags":{"amenity":"bank","brand:wikidata":"Q1291630"},"addTags":{"amenity":"bank","brand":"Obwaldner Kantonalbank","brand:wikidata":"Q1291630","name":"Obwaldner Kantonalbank","short_name":"OKB"}},"amenity/bank/raiffeisen-74b036":{"name":"Raiffeisen (Schweiz)","locationSet":{"include":["ch"]},"geometry":["point","area"],"matchScore":2,"terms":["raiffeisen"],"tags":{"amenity":"bank","brand:wikidata":"Q681189"},"addTags":{"amenity":"bank","brand":"Raiffeisen","brand:wikidata":"Q681189","name":"Raiffeisen"}},"amenity/bank/schaffhauserkantonalbank-74b036":{"name":"Schaffhauser Kantonalbank","locationSet":{"include":["ch"]},"geometry":["point","area"],"matchScore":2,"terms":["schaffhauser kantonalbank","shkb"],"tags":{"amenity":"bank","brand:wikidata":"Q2230058"},"addTags":{"amenity":"bank","brand":"Schaffhauser Kantonalbank","brand:wikidata":"Q2230058","name":"Schaffhauser Kantonalbank","short_name":"SHKB"}},"amenity/bank/schwyzerkantonalbank-74b036":{"name":"Schwyzer Kantonalbank","locationSet":{"include":["ch"]},"geometry":["point","area"],"matchScore":2,"terms":["schwyzer kantonalbank","szkb"],"tags":{"amenity":"bank","brand:wikidata":"Q2257957"},"addTags":{"amenity":"bank","brand":"Schwyzer Kantonalbank","brand:wikidata":"Q2257957","name":"Schwyzer Kantonalbank","short_name":"SZKB"}},"amenity/bank/stgallerkantonalbank-74b036":{"name":"St. Galler Kantonalbank","locationSet":{"include":["ch"]},"geometry":["point","area"],"matchScore":2,"terms":["sgkb","st. galler kantonalbank"],"tags":{"amenity":"bank","brand:wikidata":"Q2316809"},"addTags":{"amenity":"bank","brand":"St. Galler Kantonalbank","brand:wikidata":"Q2316809","name":"St. Galler Kantonalbank","short_name":"SGKB"}},"amenity/bank/thurgauerkantonalbank-74b036":{"name":"Thurgauer Kantonalbank","locationSet":{"include":["ch"]},"geometry":["point","area"],"matchScore":2,"terms":["thurgauer kantonalbank","tkb"],"tags":{"amenity":"bank","brand:wikidata":"Q2430020"},"addTags":{"amenity":"bank","brand":"Thurgauer Kantonalbank","brand:wikidata":"Q2430020","name":"Thurgauer Kantonalbank","short_name":"TKB"}},"amenity/bank/urnerkantonalbank-74b036":{"name":"Urner Kantonalbank","locationSet":{"include":["ch"]},"geometry":["point","area"],"matchScore":2,"terms":["ukb","urner kantonalbank"],"tags":{"amenity":"bank","brand:wikidata":"Q17051583"},"addTags":{"amenity":"bank","brand":"Urner Kantonalbank","brand:wikidata":"Q17051583","name":"Urner Kantonalbank","short_name":"UKB"}},"amenity/bank/valiant-74b036":{"name":"Valiant","locationSet":{"include":["ch"]},"geometry":["point","area"],"matchScore":2,"terms":["valiant"],"tags":{"amenity":"bank","brand:wikidata":"Q2509061"},"addTags":{"amenity":"bank","brand":"Valiant","brand:wikidata":"Q2509061","name":"Valiant"}},"amenity/bank/zugerkantonalbank-74b036":{"name":"Zuger Kantonalbank","locationSet":{"include":["ch"]},"geometry":["point","area"],"matchScore":2,"terms":["zuger kantonalbank"],"tags":{"amenity":"bank","brand:wikidata":"Q228365"},"addTags":{"amenity":"bank","brand":"Zuger Kantonalbank","brand:wikidata":"Q228365","name":"Zuger Kantonalbank"}},"amenity/bank/zurcherkantonalbank-74b036":{"name":"Zürcher Kantonalbank","locationSet":{"include":["ch"]},"geometry":["point","area"],"matchScore":2,"terms":["zkb","zürcher kantonalbank"],"tags":{"amenity":"bank","brand:wikidata":"Q248476"},"addTags":{"amenity":"bank","brand":"Zürcher Kantonalbank","brand:wikidata":"Q248476","name":"Zürcher Kantonalbank","short_name":"ZKB"}},"amenity/bicycle_rental/carvelo2go-61df48":{"name":"carvelo2go","locationSet":{"include":["ch"]},"geometry":["point","vertex","area"],"matchScore":2,"terms":["carvelo2go"],"fields":["name","brand","{amenity/bicycle_rental}"],"tags":{"amenity":"bicycle_rental","brand:wikidata":"Q110278232"},"addTags":{"amenity":"bicycle_rental","brand":"carvelo2go","brand:wikidata":"Q110278232","name":"carvelo2go","operator":"carvelo2go"}},"amenity/bicycle_rental/velospot-61df48":{"name":"Velospot","locationSet":{"include":["ch"]},"geometry":["point","vertex","area"],"matchScore":2,"terms":["velospot"],"fields":["name","brand","{amenity/bicycle_rental}"],"tags":{"amenity":"bicycle_rental","brand:wikidata":"Q56314221"},"addTags":{"amenity":"bicycle_rental","brand":"Velospot","brand:wikidata":"Q56314221","network":"Velospot","network:wikidata":"Q56314221"}},"amenity/cafe/coffee_shop/cafefrei-b37b54":{"name":"Cafe Frei","locationSet":{"include":["ae","ch","fr","hr","hu","ro","sa","sk"]},"geometry":["point","area"],"matchScore":2,"terms":["cafe frei"],"reference":{"key":"cuisine","value":"coffee_shop"},"tags":{"amenity":"cafe","brand:wikidata":"Q105210995","cuisine":"coffee_shop"},"addTags":{"amenity":"cafe","brand":"Cafe Frei","brand:wikidata":"Q105210995","cuisine":"coffee_shop","name":"Cafe Frei","takeaway":"yes"}},"amenity/cafe/coffee_shop/caffespettacolo-54dc58":{"name":"Caffè Spettacolo","locationSet":{"include":["ch","lu"]},"geometry":["point","area"],"matchScore":2,"terms":["caffè spettacolo","spettacolo"],"reference":{"key":"cuisine","value":"coffee_shop"},"tags":{"amenity":"cafe","brand:wikidata":"Q111728781","cuisine":"coffee_shop"},"addTags":{"amenity":"cafe","brand":"Caffè Spettacolo","brand:wikidata":"Q111728781","cuisine":"coffee_shop","name":"Caffè Spettacolo","takeaway":"yes"}},"amenity/cafe/coffee_shop/tomntoms-16c022":{"name":"Tom N Toms","locationSet":{"include":["au","ch","hk","kr","mn","mo","my","ph","sg","th","us"]},"geometry":["point","area"],"matchScore":2,"terms":["tom n toms","탐앤탐스"],"reference":{"key":"cuisine","value":"coffee_shop"},"tags":{"amenity":"cafe","brand:wikidata":"Q18142418","cuisine":"coffee_shop;pretzel;smoothie;tea;bread"},"addTags":{"amenity":"cafe","brand":"Tom N Toms","brand:en":"Tom N Toms","brand:ko":"탐앤탐스","brand:wikidata":"Q18142418","cuisine":"coffee_shop;pretzel;smoothie;tea;bread","name":"Tom N Toms","takeaway":"yes"}},"amenity/cafe/wonderwaffel-5db831":{"name":"WonderWaffel","locationSet":{"include":["ch","de","us"]},"geometry":["point","area"],"matchScore":2,"terms":["wonderwaffel"],"tags":{"amenity":"cafe","brand:wikidata":"Q105051786"},"addTags":{"amenity":"cafe","brand":"WonderWaffel","brand:wikidata":"Q105051786","cuisine":"waffle","name":"WonderWaffel","takeaway":"yes"}},"amenity/car_wash/elephantbleu-6a6dda":{"name":"Éléphant Bleu","locationSet":{"include":["ch","fx"]},"geometry":["point","area"],"matchScore":2,"terms":["éléphant bleu"],"tags":{"amenity":"car_wash","brand:wikidata":"Q3144358"},"addTags":{"amenity":"car_wash","brand":"Éléphant Bleu","brand:wikidata":"Q3144358","name":"Éléphant Bleu"}},"amenity/car_wash/migrolcarwash-4c245c":{"name":"Migrol Car Wash","locationSet":{"include":["ch"]},"geometry":["point","area"],"matchScore":2,"terms":["migrol"],"tags":{"amenity":"car_wash","brand:wikidata":"Q1747771"},"addTags":{"amenity":"car_wash","brand":"Migrol","brand:wikidata":"Q1747771","name":"Migrol Car Wash"}},"amenity/charging_station/ionity-b625d6":{"name":"Ionity","locationSet":{"include":["by","bg","cz","hu","pl","md","ro","ru","sk","ua","ax","gg","je","cq","dk","ee","fo","fi","is","ie","im","lv","lt","no","sj","se","gb","al","ad","ba","hr","gi","gr","va","it","mt","me","mk","pt","sm","rs","si","es","xk","at","be","fr","de","li","lu","mc","nl","ch"]},"geometry":["point","area"],"matchScore":2,"terms":["ionity","ionity gmbh"],"fields":["name","brand","{amenity/charging_station}"],"tags":{"amenity":"charging_station","brand:wikidata":"Q42717773"},"addTags":{"amenity":"charging_station","brand":"Ionity","brand:wikidata":"Q42717773"}},"amenity/cinema/kinepolis-bc363a":{"name":"Kinepolis","locationSet":{"include":["be","ch","es","fr","lu","nl"]},"geometry":["point","area"],"matchScore":2,"terms":["kinepolis"],"fields":["name","brand","{amenity/cinema}"],"tags":{"amenity":"cinema","brand:wikidata":"Q1741993"},"addTags":{"amenity":"cinema","brand":"Kinepolis","brand:wikidata":"Q1741993","name":"Kinepolis"}},"amenity/cinema/pathegaumont-22090e":{"name":"Pathé Gaumont","locationSet":{"include":["be","ch","fr","tn"]},"geometry":["point","area"],"matchScore":2,"terms":["pathé gaumont"],"fields":["name","brand","{amenity/cinema}"],"tags":{"amenity":"cinema","brand:wikidata":"Q3060526"},"addTags":{"amenity":"cinema","brand":"Pathé Gaumont","brand:wikidata":"Q3060526","name":"Pathé Gaumont"}},"amenity/fast_food/acaiconcept-989340":{"name":"Açaí Concept","locationSet":{"include":["ar","br","ca","ch","cl","ec","fr","pt","us"]},"geometry":["point","area"],"matchScore":2,"terms":["açaí concept"],"tags":{"amenity":"fast_food","brand:wikidata":"Q110138105"},"addTags":{"amenity":"fast_food","brand":"Açaí Concept","brand:wikidata":"Q110138105","cuisine":"açaí","name":"Açaí Concept","takeaway":"yes"}},"amenity/fast_food/brezelkonig-157c6b":{"name":"Brezelkönig","locationSet":{"include":["at","ch","de"]},"geometry":["point","area"],"matchScore":2,"terms":["brezelkönig"],"tags":{"amenity":"fast_food","brand:wikidata":"Q111728604"},"addTags":{"amenity":"fast_food","brand":"Brezelkönig","brand:wikidata":"Q111728604","cuisine":"pretzel","name":"Brezelkönig","takeaway":"only"}},"amenity/fast_food/sandwich/deananddavid-f9c825":{"name":"dean&david","locationSet":{"include":["at","ch","de","lu","qa"]},"geometry":["point","area"],"matchScore":2,"terms":["dean&david"],"reference":{"key":"cuisine","value":"sandwich"},"tags":{"amenity":"fast_food","brand:wikidata":"Q66132404","cuisine":"salad;sandwich"},"addTags":{"amenity":"fast_food","brand":"dean&david","brand:wikidata":"Q66132404","cuisine":"salad;sandwich","name":"dean&david","takeaway":"yes"}},"amenity/fast_food/burger/leon-04566a":{"name":"LEON","locationSet":{"include":["ch","gb","ie","nl"]},"geometry":["point","area"],"matchScore":2,"terms":["leon"],"reference":{"key":"cuisine","value":"burger"},"tags":{"amenity":"fast_food","brand:wikidata":"Q6524851","cuisine":"burger;sandwich"},"addTags":{"amenity":"fast_food","brand":"LEON","brand:wikidata":"Q6524851","cuisine":"burger;sandwich","name":"LEON","takeaway":"yes"}},"amenity/fast_food/migrostakeaway-2fcd78":{"name":"Migros Take Away","locationSet":{"include":["ch"]},"geometry":["point","area"],"matchScore":2,"terms":["migros take away"],"tags":{"amenity":"fast_food","brand:wikidata":"Q111826610"},"addTags":{"amenity":"fast_food","brand":"Migros Take Away","brand:wikidata":"Q111826610","cuisine":"international","name":"Migros Take Away","takeaway":"only"}},"amenity/fast_food/nordsee-db642f":{"name":"Nordsee","locationSet":{"include":["at","ch","cz","de","sk"]},"geometry":["point","area"],"matchScore":2,"terms":["nordsee"],"tags":{"amenity":"fast_food","brand:wikidata":"Q74866"},"addTags":{"amenity":"fast_food","brand":"Nordsee","brand:wikidata":"Q74866","cuisine":"seafood","name":"Nordsee","takeaway":"yes"}},"amenity/fast_food/oakberryacaibowls-df46eb":{"name":"Oakberry Açaí bowls","locationSet":{"include":["ae","au","bh","br","ch","cl","co","de","es","gr","hr","il","mt","mx","pe","pt","py","sa","th","us"]},"geometry":["point","area"],"matchScore":2,"terms":["oakberry açaí bowls"],"tags":{"amenity":"fast_food","brand:wikidata":"Q104870840"},"addTags":{"amenity":"fast_food","brand":"Oakberry Açaí bowls","brand:wikidata":"Q104870840","cuisine":"açaí","name":"Oakberry Açaí bowls","takeaway":"yes"}},"amenity/fast_food/pizza/spizzico-7eb3e4":{"name":"Spizzico","locationSet":{"include":["ch","fr","gr","it","us"]},"geometry":["point","area"],"matchScore":2,"terms":["spizzico"],"reference":{"key":"cuisine","value":"pizza"},"tags":{"amenity":"fast_food","brand:wikidata":"Q1419041","cuisine":"pizza"},"addTags":{"amenity":"fast_food","brand":"Spizzico","brand:wikidata":"Q1419041","cuisine":"pizza","name":"Spizzico","takeaway":"yes"}},"amenity/fast_food/sushishop-ac545e":{"name":"Sushi Shop (Europe)","locationSet":{"include":["ae","be","ch","de","es","fr","it","lu","pt","sa","uk"]},"geometry":["point","area"],"matchScore":2,"terms":["sushi shop"],"tags":{"amenity":"fast_food","brand:wikidata":"Q3505657"},"addTags":{"amenity":"fast_food","brand":"Sushi Shop","brand:wikidata":"Q3505657","cuisine":"sushi","name":"Sushi Shop","takeaway":"yes"}},"amenity/fuel/agrola-27a80f":{"name":"Agrola","locationSet":{"include":["ch"]},"geometry":["point","area"],"matchScore":2,"terms":["agrola"],"fields":["name","brand","{amenity/fuel}"],"tags":{"amenity":"fuel","brand:wikidata":"Q397351"},"addTags":{"amenity":"fuel","brand":"Agrola","brand:wikidata":"Q397351","name":"Agrola"}},"amenity/fuel/auchan-fcb99f":{"name":"Auchan","locationSet":{"include":["al","ad","ba","hr","gi","gr","va","it","mt","me","mk","pt","sm","rs","si","es","xk","by","bg","cz","hu","pl","md","ro","ru","sk","ua","at","be","fr","de","li","lu","mc","nl","ch"]},"geometry":["point","area"],"matchScore":2,"terms":["auchan"],"fields":["name","brand","{amenity/fuel}"],"tags":{"amenity":"fuel","brand:wikidata":"Q758603"},"addTags":{"amenity":"fuel","brand":"Auchan","brand:wikidata":"Q758603","name":"Auchan"}},"amenity/fuel/avia-e0aaf8":{"name":"Avia","locationSet":{"include":["at","be","bg","ch","cz","de","es","fr","hu","it","nl","pl","pt","rs","ua"]},"geometry":["point","area"],"matchScore":2,"terms":["avia","station avia"],"fields":["name","brand","{amenity/fuel}"],"tags":{"amenity":"fuel","brand:wikidata":"Q300147"},"addTags":{"amenity":"fuel","brand":"Avia","brand:wikidata":"Q300147","name":"Avia"}},"amenity/fuel/bebeco-27a80f":{"name":"BEBECO","locationSet":{"include":["ch"]},"geometry":["point","area"],"matchScore":2,"terms":["bebeco"],"fields":["name","brand","{amenity/fuel}"],"tags":{"amenity":"fuel","brand:wikidata":"Q62274373"},"addTags":{"amenity":"fuel","brand":"BEBECO","brand:wikidata":"Q62274373","name":"BEBECO"}},"amenity/fuel/eni-4e932a":{"name":"Eni","locationSet":{"include":["at","ch","fr","it"]},"geometry":["point","area"],"matchScore":2,"terms":["eni"],"fields":["name","brand","{amenity/fuel}"],"tags":{"amenity":"fuel","brand:wikidata":"Q565594"},"addTags":{"amenity":"fuel","brand":"Eni","brand:wikidata":"Q565594","name":"Eni"}},"amenity/fuel/migrol-27a80f":{"name":"Migrol","locationSet":{"include":["ch"]},"geometry":["point","area"],"matchScore":2,"terms":["migrol"],"fields":["name","brand","{amenity/fuel}"],"tags":{"amenity":"fuel","brand:wikidata":"Q1747771"},"addTags":{"amenity":"fuel","brand":"Migrol","brand:wikidata":"Q1747771","name":"Migrol"}},"amenity/fuel/ruedirussel-27a80f":{"name":"Ruedi Rüssel","locationSet":{"include":["ch"]},"geometry":["point","area"],"matchScore":2,"terms":["ruedi rüssel"],"fields":["name","brand","{amenity/fuel}"],"tags":{"amenity":"fuel","brand:wikidata":"Q111725154"},"addTags":{"amenity":"fuel","brand":"Ruedi Rüssel","brand:wikidata":"Q111725154","name":"Ruedi Rüssel"}},"amenity/fuel/tamoil-c25a01":{"name":"Tamoil","locationSet":{"include":["ch","de","es","fr","it","nl"]},"geometry":["point","area"],"matchScore":2,"terms":["tamoil"],"fields":["name","brand","{amenity/fuel}"],"tags":{"amenity":"fuel","brand:wikidata":"Q706793"},"addTags":{"amenity":"fuel","brand":"Tamoil","brand:wikidata":"Q706793","name":"Tamoil"}},"amenity/ice_cream/amorino-6cf168":{"name":"Amorino","locationSet":{"include":["ae","ch","cz","de","es","fr","gb","gr","ie","it","lu","ma","mt","mx","nc","pt","qa","re","us"]},"geometry":["point","area"],"matchScore":2,"terms":["amorino"],"tags":{"amenity":"ice_cream","brand:wikidata":"Q2843884"},"addTags":{"amenity":"ice_cream","brand":"Amorino","brand:wikidata":"Q2843884","name":"Amorino"}},"amenity/ice_cream/gelateriadiberna-656c68":{"name":"Gelateria di Berna","locationSet":{"include":["ch"]},"geometry":["point","area"],"matchScore":2,"terms":["gelateria di berna"],"tags":{"amenity":"ice_cream","brand:wikidata":"Q111714021"},"addTags":{"amenity":"ice_cream","brand":"Gelateria di Berna","brand:wikidata":"Q111714021","cuisine":"ice_cream","name":"Gelateria di Berna","takeaway":"yes"}},"amenity/ice_cream/llaollao-dd9462":{"name":"Llaollao","locationSet":{"include":["au","ch","cl","co","ec","es","fr","gt","hr","id","iq","kw","ma","my","ph","pt","sa","sg","si","sv","us","vn"]},"geometry":["point","area"],"matchScore":2,"terms":["llaollao"],"tags":{"amenity":"ice_cream","brand:wikidata":"Q12163048"},"addTags":{"amenity":"ice_cream","brand":"Llaollao","brand:wikidata":"Q12163048","cuisine":"frozen_yogurt","name":"Llaollao"}},"amenity/parcel_locker/mypost24-237d95":{"name":"My Post 24","locationSet":{"include":["ch"]},"geometry":["point","vertex","area"],"matchScore":2,"terms":["die post","la posta","la poste","my post 24","swiss post"],"fields":["name","brand","{amenity/parcel_locker}"],"reference":{"key":"amenity","value":"parcel_locker"},"tags":{"amenity":"parcel_locker","brand:wikidata":"Q110748685"},"addTags":{"amenity":"parcel_locker","brand":"My Post 24","brand:wikidata":"Q110748685","name":"My Post 24","operator":"Die Post","operator:de":"Die Post","operator:en":"Swiss Post","operator:fr":"La Poste","operator:it":"La Posta","operator:rm":"La Posta","operator:wikidata":"Q614803","parcel_mail_in":"yes"}},"amenity/parcel_locker/zbox-5a86e9":{"name":"Packeta","locationSet":{"include":["by","bg","cz","hu","pl","md","ro","ru","sk","ua","ax","gg","je","cq","dk","ee","fo","fi","is","ie","im","lv","lt","no","sj","se","gb","al","ad","ba","hr","gi","gr","va","it","mt","me","mk","pt","sm","rs","si","es","xk","at","be","fr","de","li","lu","mc","nl","ch"]},"geometry":["point","vertex","area"],"matchScore":2,"terms":["packeta"],"fields":["name","brand","{amenity/parcel_locker}"],"reference":{"key":"amenity","value":"parcel_locker"},"tags":{"amenity":"parcel_locker","brand:wikidata":"Q67809905"},"addTags":{"amenity":"parcel_locker","brand":"Packeta","brand:wikidata":"Q67809905","name":"Z-Box"}},"amenity/pharmacy/amavita-7092c5":{"name":"Amavita","locationSet":{"include":["ch"]},"geometry":["point","area"],"matchScore":2,"terms":["amavita"],"reference":{"key":"amenity","value":"pharmacy"},"tags":{"amenity":"pharmacy","brand:wikidata":"Q93733901"},"addTags":{"amenity":"pharmacy","brand":"Amavita","brand:wikidata":"Q93733901","healthcare":"pharmacy","name":"Amavita"}},"amenity/pharmacy/benu-1cd44c":{"name":"Benu","locationSet":{"include":["ch","cz","ee","hu","lt","lv","me","nl","rs","sk"]},"geometry":["point","area"],"matchScore":2,"terms":["benu","benu aptieka","benu vaistinė"],"reference":{"key":"amenity","value":"pharmacy"},"tags":{"amenity":"pharmacy","brand:wikidata":"Q62562792"},"addTags":{"amenity":"pharmacy","brand":"Benu","brand:wikidata":"Q62562792","healthcare":"pharmacy","name":"Benu"}},"amenity/pharmacy/coopvitality-7092c5":{"name":"Coop Vitality","locationSet":{"include":["ch"]},"geometry":["point","area"],"matchScore":2,"terms":["coop vitality"],"reference":{"key":"amenity","value":"pharmacy"},"tags":{"amenity":"pharmacy","brand:wikidata":"Q111725297"},"addTags":{"amenity":"pharmacy","brand":"Coop Vitality","brand:wikidata":"Q111725297","healthcare":"pharmacy","name":"Coop Vitality"}},"amenity/pharmacy/pharmacieprincipale-7092c5":{"name":"Pharmacie Principale","locationSet":{"include":["ch"]},"geometry":["point","area"],"matchScore":2,"terms":["pharmacie principale"],"reference":{"key":"amenity","value":"pharmacy"},"tags":{"amenity":"pharmacy","brand:wikidata":"Q1547749"},"addTags":{"amenity":"pharmacy","brand":"Pharmacie Principale","brand:wikidata":"Q1547749","healthcare":"pharmacy","name":"Pharmacie Principale"}},"amenity/pharmacy/toppharm-7092c5":{"name":"TopPharm","locationSet":{"include":["ch"]},"geometry":["point","area"],"matchScore":2,"terms":["toppharm"],"reference":{"key":"amenity","value":"pharmacy"},"tags":{"amenity":"pharmacy","brand:wikidata":"Q110277794"},"addTags":{"amenity":"pharmacy","brand":"TopPharm","brand:wikidata":"Q110277794","healthcare":"pharmacy","name":"TopPharm"}},"amenity/prep_school/studienkreis-fce332":{"name":"Studienkreis","locationSet":{"include":["at","ch","de","lu"]},"geometry":["point","area"],"matchScore":2,"terms":["studienkreis"],"fields":["name","brand","{amenity/prep_school}"],"tags":{"amenity":"prep_school","brand:wikidata":"Q2358555"},"addTags":{"amenity":"prep_school","brand":"Studienkreis","brand:wikidata":"Q2358555","name":"Studienkreis"}},"amenity/restaurant/german/cooprestaurant-282f19":{"name":"Coop Restaurant","locationSet":{"include":["ch"]},"geometry":["point","area"],"matchScore":2,"terms":["coop restaurant"],"reference":{"key":"cuisine","value":"german"},"tags":{"amenity":"restaurant","brand:wikidata":"Q432564","cuisine":"german"},"addTags":{"amenity":"restaurant","brand":"Coop Restaurant","brand:wikidata":"Q432564","cuisine":"german","name":"Coop Restaurant"}},"amenity/restaurant/hansimgluck-a53895":{"name":"Hans im Glück","locationSet":{"include":["at","ch","de","sg"]},"geometry":["point","area"],"matchScore":2,"terms":["hans im glück"],"tags":{"amenity":"restaurant","brand:wikidata":"Q22569868"},"addTags":{"amenity":"restaurant","brand":"Hans im Glück","brand:wikidata":"Q22569868","cuisine":"burger","name":"Hans im Glück"}},"amenity/restaurant/italian/losteria-454d96":{"name":"L'Osteria","locationSet":{"include":["at","ch","cz","de","fr","gb","nl"]},"geometry":["point","area"],"matchScore":2,"terms":["l'osteria"],"reference":{"key":"cuisine","value":"italian"},"tags":{"amenity":"restaurant","brand:wikidata":"Q17323478","cuisine":"italian"},"addTags":{"amenity":"restaurant","brand":"L'Osteria","brand:wikidata":"Q17323478","cuisine":"italian","name":"L'Osteria"}},"amenity/restaurant/migrosrestaurant-282f19":{"name":"Migros Restaurant","locationSet":{"include":["ch"]},"geometry":["point","area"],"matchScore":2,"terms":["migros restaurant"],"tags":{"amenity":"restaurant","brand:wikidata":"Q111803848"},"addTags":{"amenity":"restaurant","brand":"Migros Restaurant","brand:wikidata":"Q111803848","cuisine":"international","name":"Migros Restaurant"}},"amenity/restaurant/pizza/santalucia-282f19":{"name":"Santa Lucia","locationSet":{"include":["ch"]},"geometry":["point","area"],"matchScore":2,"terms":["santa lucia"],"reference":{"key":"cuisine","value":"pizza"},"tags":{"amenity":"restaurant","brand:wikidata":"Q110419156","cuisine":"pizza;italian"},"addTags":{"amenity":"restaurant","brand":"Santa Lucia","brand:wikidata":"Q110419156","cuisine":"pizza;italian","name":"Santa Lucia","oven":"wood_fired"}},"amenity/social_facility/caritas-7e98f6":{"name":"Caritas (Schweiz)","locationSet":{"include":["ch"]},"geometry":["point","area"],"matchScore":2,"terms":["caritas"],"tags":{"amenity":"social_facility","brand:wikidata":"Q1036336"},"addTags":{"amenity":"social_facility","brand":"Caritas","brand:wikidata":"Q1036336"}},"amenity/vending_machine/bicycle_tube/continental-123edb":{"name":"Continental","locationSet":{"include":["by","bg","cz","hu","pl","md","ro","ru","sk","ua","ax","gg","je","cq","dk","ee","fo","fi","is","ie","im","lv","lt","no","sj","se","gb","al","ad","ba","hr","gi","gr","va","it","mt","me","mk","pt","sm","rs","si","es","xk","at","be","fr","de","li","lu","mc","nl","ch"]},"geometry":["point","vertex"],"matchScore":2,"terms":["continental"],"reference":{"key":"vending","value":"bicycle_tube"},"tags":{"amenity":"vending_machine","brand:wikidata":"Q64739247","vending":"bicycle_tube"},"addTags":{"amenity":"vending_machine","brand":"Continental","brand:wikidata":"Q64739247","name":"Continental","vending":"bicycle_tube"}},"amenity/vending_machine/excrement_bags/robidog-742585":{"name":"Robidog","locationSet":{"include":["ch"]},"geometry":["point","vertex"],"matchScore":2,"terms":["robidog"],"reference":{"key":"vending","value":"excrement_bags"},"tags":{"amenity":"vending_machine","brand:wikidata":"Q2159689","vending":"excrement_bags"},"addTags":{"amenity":"vending_machine","bin":"yes","brand":"Robidog","brand:wikidata":"Q2159689","name":"Robidog","vending":"excrement_bags"}},"amenity/vending_machine/bicycle_tube/schwalbe-123edb":{"name":"Schwalbe","locationSet":{"include":["by","bg","cz","hu","pl","md","ro","ru","sk","ua","ax","gg","je","cq","dk","ee","fo","fi","is","ie","im","lv","lt","no","sj","se","gb","al","ad","ba","hr","gi","gr","va","it","mt","me","mk","pt","sm","rs","si","es","xk","at","be","fr","de","li","lu","mc","nl","ch"]},"geometry":["point","vertex"],"matchScore":2,"terms":["schwalbe"],"reference":{"key":"vending","value":"bicycle_tube"},"tags":{"amenity":"vending_machine","brand:wikidata":"Q1312213","vending":"bicycle_tube"},"addTags":{"amenity":"vending_machine","brand":"Schwalbe","brand:wikidata":"Q1312213","name":"Schwalbe","vending":"bicycle_tube"}},"amenity/vending_machine/selecta-ed4d31":{"name":"Selecta","locationSet":{"include":["at","be","ch","de","dk","es","fi","fr","ie","it","li","lu","nl","no","se","uk"]},"geometry":["point","vertex"],"matchScore":2,"terms":["selecta"],"tags":{"amenity":"vending_machine","brand:wikidata":"Q472153"},"addTags":{"amenity":"vending_machine","brand":"Selecta","brand:wikidata":"Q472153"}},"leisure/fitness_centre/cleverfit-1d011d":{"name":"Clever fit","locationSet":{"include":["at","ch","de"]},"geometry":["point","area"],"matchScore":2,"terms":["clever fit"],"tags":{"brand:wikidata":"Q27909675","leisure":"fitness_centre"},"addTags":{"brand":"Clever fit","brand:wikidata":"Q27909675","leisure":"fitness_centre","name":"Clever fit"}},"leisure/fitness_centre/holmesplace-901199":{"name":"Holmes Place","locationSet":{"include":["by","bg","cz","hu","pl","md","ro","ru","sk","ua","ax","gg","je","cq","dk","ee","fo","fi","is","ie","im","lv","lt","no","sj","se","gb","al","ad","ba","hr","gi","gr","va","it","mt","me","mk","pt","sm","rs","si","es","xk","at","be","fr","de","li","lu","mc","nl","ch","il"]},"geometry":["point","area"],"matchScore":2,"terms":["holmes place"],"tags":{"brand:wikidata":"Q15815819","leisure":"fitness_centre"},"addTags":{"brand":"Holmes Place","brand:wikidata":"Q15815819","leisure":"fitness_centre","name":"Holmes Place"}},"leisure/fitness_centre/kiesertraining-a70e35":{"name":"Kieser Training","locationSet":{"include":["at","au","ch","de","lu"]},"geometry":["point","area"],"matchScore":2,"terms":["kieser training"],"tags":{"brand:wikidata":"Q1112367","leisure":"fitness_centre"},"addTags":{"brand":"Kieser Training","brand:wikidata":"Q1112367","leisure":"fitness_centre","name":"Kieser Training"}},"leisure/fitness_centre/mrssporty-658820":{"name":"Mrs. Sporty","locationSet":{"include":["at","ch","de","es","it","pl","sk"]},"geometry":["point","area"],"matchScore":2,"terms":["mrs. sporty"],"tags":{"brand:wikidata":"Q100718953","leisure":"fitness_centre"},"addTags":{"brand":"Mrs. Sporty","brand:wikidata":"Q100718953","leisure":"fitness_centre","name":"Mrs. Sporty"}},"office/estate_agent/vonpollrealestate-c99072":{"name":"von Poll Real Estate","locationSet":{"include":["by","bg","cz","hu","pl","md","ro","ru","sk","ua","ax","gg","je","cq","dk","ee","fo","fi","is","ie","im","lv","lt","no","sj","se","gb","al","ad","ba","hr","gi","gr","va","it","mt","me","mk","pt","sm","rs","si","es","xk","at","be","fr","de","li","lu","mc","nl","ch"],"exclude":["at","de"]},"geometry":["point","area"],"matchScore":2,"terms":["von poll immobilien","von poll real estate","vonpoll","vonpoll commercial"],"tags":{"brand:wikidata":"Q96026696","office":"estate_agent"},"addTags":{"brand":"von Poll Real Estate","brand:wikidata":"Q96026696","name":"von Poll Real Estate","office":"estate_agent"}},"office/insurance/baloise-d9a3dd":{"name":"Bâloise","locationSet":{"include":["be","ch","de","li","lu"]},"geometry":["point","area"],"matchScore":2,"terms":["bâloise"],"fields":["name","brand","{office/insurance}"],"tags":{"brand:wikidata":"Q457912","office":"insurance"},"addTags":{"brand":"Bâloise","brand:wikidata":"Q457912","name":"Bâloise","office":"insurance"}},"office/insurance/helvetia-f9490e":{"name":"Helvetia","locationSet":{"include":["at","ch","de","es","fr","it"]},"geometry":["point","area"],"matchScore":2,"terms":["helvetia"],"fields":["name","brand","{office/insurance}"],"tags":{"brand:wikidata":"Q933766","office":"insurance"},"addTags":{"brand":"Helvetia","brand:wikidata":"Q933766","name":"Helvetia","office":"insurance"}},"shop/art/lumas-60f999":{"name":"Lumas","locationSet":{"include":["at","au","ca","ch","de","fr","gb","hu","us"]},"geometry":["point","area"],"matchScore":2,"terms":["lumas"],"tags":{"brand:wikidata":"Q1452381","shop":"art"},"addTags":{"brand":"Lumas","brand:wikidata":"Q1452381","name":"Lumas","shop":"art"}},"shop/bag/liebeskindberlin-af0c77":{"name":"LIEBESKIND Berlin","locationSet":{"include":["ch","de"]},"geometry":["point","area"],"matchScore":2,"terms":["liebeskind","liebeskind berlin"],"tags":{"brand:wikidata":"Q107156547","shop":"bag"},"addTags":{"brand":"LIEBESKIND Berlin","brand:wikidata":"Q107156547","name":"LIEBESKIND Berlin","shop":"bag"}},"shop/bakery/backwerk-5fc8b1":{"name":"Backwerk","locationSet":{"include":["at","ch","de","gb","nl"]},"geometry":["point","area"],"matchScore":2,"terms":["backwerk"],"tags":{"brand:wikidata":"Q798298","shop":"bakery"},"addTags":{"brand":"BackWerk","brand:wikidata":"Q798298","name":"Backwerk","shop":"bakery"}},"shop/bakery/kuhn-903073":{"name":"Kuhn","locationSet":{"include":["ch"]},"geometry":["point","area"],"matchScore":2,"terms":["kuhn"],"tags":{"brand:wikidata":"Q111728345","shop":"bakery"},"addTags":{"brand":"Kuhn","brand:wikidata":"Q111728345","name":"Kuhn","shop":"bakery"}},"shop/bakery/steiner-903073":{"name":"Steiner","locationSet":{"include":["ch"]},"geometry":["point","area"],"matchScore":2,"terms":["steiner","steiner beck"],"tags":{"brand:wikidata":"Q111728988","shop":"bakery"},"addTags":{"brand":"Steiner","brand:wikidata":"Q111728988","name":"Steiner","shop":"bakery"}},"shop/bed/matratzenconcord-795ce0":{"name":"Matratzen Concord","locationSet":{"include":["at","ch","de"]},"geometry":["point","area"],"matchScore":2,"terms":["matratzen concord"],"tags":{"brand:wikidata":"Q18629057","shop":"bed"},"addTags":{"brand":"Matratzen Concord","brand:wikidata":"Q18629057","name":"Matratzen Concord","shop":"bed"}},"shop/books/fnac-8c3017":{"name":"Fnac","locationSet":{"include":["be","ch","es","fr","nl","pt"]},"geometry":["point","area"],"matchScore":2,"terms":["fnac"],"tags":{"brand:wikidata":"Q676585","shop":"books"},"addTags":{"brand":"Fnac","brand:wikidata":"Q676585","name":"Fnac","shop":"books"}},"shop/books/luthy-c5abff":{"name":"Lüthy","locationSet":{"include":["ch"]},"geometry":["point","area"],"matchScore":2,"terms":["lüthy balmer stocker"],"tags":{"brand:wikidata":"Q14018409","shop":"books"},"addTags":{"brand":"Lüthy Balmer Stocker","brand:wikidata":"Q14018409","name":"Lüthy","shop":"books"}},"shop/books/orellfussli-c5abff":{"name":"Orell Füssli","locationSet":{"include":["ch"]},"geometry":["point","area"],"matchScore":2,"terms":["orell füssli"],"tags":{"brand:wikidata":"Q1511140","shop":"books"},"addTags":{"brand":"Orell Füssli","brand:wikidata":"Q1511140","name":"Orell Füssli","shop":"books"}},"shop/car/koenigsegg-45c2de":{"name":"Koenigsegg","locationSet":{"include":["ae","au","ca","ch","cn","de","es","gb","jp","kr","lb","mx","my","om","pl","se","sg","th","tw","us","za"]},"geometry":["point","area"],"matchScore":2,"terms":["koenigsegg"],"fields":["name","brand","{shop/car}"],"tags":{"brand:wikidata":"Q35594","shop":"car"},"addTags":{"brand":"Koenigsegg","brand:wikidata":"Q35594","name":"Koenigsegg","shop":"car"}},"shop/car/smart-f30ed8":{"name":"Smart","locationSet":{"include":["by","bg","cz","hu","pl","md","ro","ru","sk","ua","ax","gg","je","cq","dk","ee","fo","fi","is","ie","im","lv","lt","no","sj","se","gb","al","ad","ba","hr","gi","gr","va","it","mt","me","mk","pt","sm","rs","si","es","xk","at","be","fr","de","li","lu","mc","nl","ch"]},"geometry":["point","area"],"matchScore":2,"terms":["smart"],"fields":["name","brand","{shop/car}"],"tags":{"brand:wikidata":"Q156490","shop":"car"},"addTags":{"brand":"Smart","brand:wikidata":"Q156490","name":"Smart","shop":"car"}},"shop/car_repair/1aautoservice-4c8afc":{"name":"1a autoservice","locationSet":{"include":["at","ch","de"]},"geometry":["point","area"],"matchScore":2,"terms":["1a autoservice"],"fields":["name","brand","{shop/car_repair}"],"tags":{"brand:wikidata":"Q109558465","shop":"car_repair"},"addTags":{"brand":"1a autoservice","brand:wikidata":"Q109558465","name":"1a autoservice","shop":"car_repair"}},"shop/car_repair/euromaster-db76b7":{"name":"Euromaster","locationSet":{"include":["ch","de","es","fi","fr","nl","pt"]},"geometry":["point","area"],"matchScore":2,"terms":["euromaster"],"fields":["name","brand","{shop/car_repair}"],"tags":{"brand:wikidata":"Q3060668","shop":"car_repair"},"addTags":{"brand":"Euromaster","brand:wikidata":"Q3060668","name":"Euromaster","shop":"car_repair"}},"shop/car_repair/premio-354273":{"name":"Premio","locationSet":{"include":["be","bg","ch","cz","de","hu","nl","pl","ro","ru","sk"]},"geometry":["point","area"],"matchScore":2,"terms":["premio"],"fields":["name","brand","{shop/car_repair}"],"tags":{"brand:wikidata":"Q100895958","shop":"car_repair"},"addTags":{"brand":"Premio","brand:wikidata":"Q100895958","name":"Premio","shop":"car_repair"}},"shop/chemist/muller-7b8da2":{"name":"Müller","locationSet":{"include":["at","ch","de","es","hr","hu"]},"geometry":["point","area"],"matchScore":2,"terms":["drogeriemarkt müller","müller"],"tags":{"brand:wikidata":"Q1958759","shop":"chemist"},"addTags":{"brand":"Müller","brand:wikidata":"Q1958759","name":"Müller","shop":"chemist"}},"shop/clothes/antoineetlili-5bd015":{"name":"Antoine et Lili","locationSet":{"include":["ch","fr"]},"geometry":["point","area"],"matchScore":2,"terms":["antoine et lili"],"tags":{"brand:wikidata":"Q105338416","shop":"clothes"},"addTags":{"brand":"Antoine et Lili","brand:wikidata":"Q105338416","clothes":"women","name":"Antoine et Lili","shop":"clothes"}},"shop/clothes/bluetomato-fa8f79":{"name":"Blue Tomato","locationSet":{"include":["at","ch","de","fi","nl"]},"geometry":["point","area"],"matchScore":2,"terms":["blue tomato"],"tags":{"brand:wikidata":"Q107637238","shop":"clothes"},"addTags":{"brand":"Blue Tomato","brand:wikidata":"Q107637238","name":"Blue Tomato","shop":"clothes"}},"shop/clothes/bonita-51c18f":{"name":"BONITA","locationSet":{"include":["at","ch","de","nl"]},"geometry":["point","area"],"matchScore":2,"terms":["bonita"],"tags":{"brand:wikidata":"Q892598","shop":"clothes"},"addTags":{"brand":"BONITA","brand:wikidata":"Q892598","clothes":"women","name":"BONITA","shop":"clothes"}},"shop/clothes/bonitamen-51c18f":{"name":"BONITA men","locationSet":{"include":["at","ch","de","nl"]},"geometry":["point","area"],"matchScore":2,"terms":["bonita men"],"tags":{"brand:wikidata":"Q892598","shop":"clothes"},"addTags":{"brand":"BONITA men","brand:wikidata":"Q892598","clothes":"men","name":"BONITA men","shop":"clothes"}},"shop/clothes/calida-8b5460":{"name":"CALIDA","locationSet":{"include":["at","ch","de","fr","lu","nl","us"]},"geometry":["point","area"],"matchScore":2,"terms":["calida"],"tags":{"brand:wikidata":"Q693344","shop":"clothes"},"addTags":{"brand":"CALIDA","brand:wikidata":"Q693344","name":"CALIDA","shop":"clothes"}},"shop/clothes/caroll-5bd015":{"name":"Caroll","locationSet":{"include":["ch","fr"]},"geometry":["point","area"],"matchScore":2,"terms":["caroll"],"tags":{"brand:wikidata":"Q63063871","shop":"clothes"},"addTags":{"brand":"Caroll","brand:wikidata":"Q63063871","name":"Caroll","shop":"clothes"}},"shop/clothes/charlesvogele-900aa6":{"name":"Charles Vögele","locationSet":{"include":["at","be","ch","de","hu","nl"]},"geometry":["point","area"],"matchScore":2,"terms":["charles vögele","vögele"],"searchable":false,"tags":{"brand:wikidata":"Q1066326","shop":"clothes"},"addTags":{"brand":"Charles Vögele","brand:wikidata":"Q1066326","name":"Charles Vögele","shop":"clothes","short_name":"Vögele"}},"shop/clothes/chicoree-fed098":{"name":"Chicorée","locationSet":{"include":["ch"]},"geometry":["point","area"],"matchScore":2,"terms":["chicorée"],"tags":{"brand:wikidata":"Q1072246","shop":"clothes"},"addTags":{"brand":"Chicorée","brand:wikidata":"Q1072246","name":"Chicorée","shop":"clothes"}},"shop/clothes/defursac-86ac62":{"name":"De Fursac","locationSet":{"include":["be","ch","fr","lu","uk"]},"geometry":["point","area"],"matchScore":2,"terms":["de fursac"],"tags":{"brand:wikidata":"Q22248311","shop":"clothes"},"addTags":{"brand":"De Fursac","brand:wikidata":"Q22248311","clothes":"men","name":"De Fursac","shop":"clothes"}},"shop/clothes/falke-d93616":{"name":"FALKE","locationSet":{"include":["ae","be","ch","de","nl","ru"]},"geometry":["point","area"],"matchScore":2,"terms":["falke"],"tags":{"brand:wikidata":"Q1394122","shop":"clothes"},"addTags":{"brand":"FALKE","brand:wikidata":"Q1394122","name":"FALKE","shop":"clothes"}},"shop/clothes/gemo-7bebe2":{"name":"Gémo","locationSet":{"include":["be","ch","fr"]},"geometry":["point","area"],"matchScore":2,"terms":["gémo"],"tags":{"brand:wikidata":"Q3122954","shop":"clothes"},"addTags":{"brand":"Gémo","brand:wikidata":"Q3122954","name":"Gémo","shop":"clothes"}},"shop/clothes/hallhuber-20ae39":{"name":"Hallhuber","locationSet":{"include":["at","ch","de","lu","nl"]},"geometry":["point","area"],"matchScore":2,"terms":["hallhuber"],"tags":{"brand:wikidata":"Q1571714","shop":"clothes"},"addTags":{"brand":"Hallhuber","brand:wikidata":"Q1571714","name":"Hallhuber","shop":"clothes"}},"shop/clothes/lahalle-5bd015":{"name":"La Halle","locationSet":{"include":["ch","fr"]},"geometry":["point","area"],"matchScore":2,"terms":["la halle"],"tags":{"brand:wikidata":"Q100728296","shop":"clothes"},"addTags":{"brand":"La Halle","brand:wikidata":"Q100728296","name":"La Halle","shop":"clothes"}},"shop/clothes/underwear/leslipfrancais-71af1b":{"name":"Le Slip Français","locationSet":{"include":["ch","de","fr","lu"]},"geometry":["point","area"],"matchScore":2,"terms":["le slip français"],"reference":{"key":"clothes","value":"underwear"},"tags":{"brand:wikidata":"Q14594793","clothes":"underwear","shop":"clothes"},"addTags":{"brand":"Le Slip Français","brand:wikidata":"Q14594793","clothes":"underwear","name":"Le Slip Français","shop":"clothes"}},"shop/clothes/letempsdescerises-137ac2":{"name":"Le Temps des Cerises","locationSet":{"include":["be","ch","cz","es","fr","lu","mg"]},"geometry":["point","area"],"matchScore":2,"terms":["le temps des cerises"],"tags":{"brand:wikidata":"Q3228558","shop":"clothes"},"addTags":{"brand":"Le Temps des Cerises","brand:wikidata":"Q3228558","name":"Le Temps des Cerises","shop":"clothes"}},"shop/clothes/maje-99ba8f":{"name":"Maje","locationSet":{"include":["by","bg","cz","hu","pl","md","ro","ru","sk","ua","ax","gg","je","cq","dk","ee","fo","fi","is","ie","im","lv","lt","no","sj","se","gb","al","ad","ba","hr","gi","gr","va","it","mt","me","mk","pt","sm","rs","si","es","xk","at","be","fr","de","li","lu","mc","nl","ch","cn","hk","sg","tw","uk","us"]},"geometry":["point","area"],"matchScore":2,"terms":["maje"],"tags":{"brand:wikidata":"Q3280458","shop":"clothes"},"addTags":{"brand":"Maje","brand:wikidata":"Q3280458","clothes":"women","name":"Maje","shop":"clothes"}},"shop/clothes/marcopolo-3cd4a4":{"name":"Marc O'Polo","locationSet":{"include":["at","be","ch","de","nl","pl"]},"geometry":["point","area"],"matchScore":2,"terms":["marc o'polo"],"tags":{"brand:wikidata":"Q1892752","shop":"clothes"},"addTags":{"brand":"Marc O'Polo","brand:wikidata":"Q1892752","name":"Marc O'Polo","shop":"clothes"}},"shop/clothes/maxetmoi-c7a41d":{"name":"Max et Moi","locationSet":{"include":["ch","ee","es","fr","ru"]},"geometry":["point","area"],"matchScore":2,"terms":["max et moi"],"tags":{"brand:wikidata":"Q104717564","shop":"clothes"},"addTags":{"brand":"Max et Moi","brand:wikidata":"Q104717564","clothes":"women","name":"Max et Moi","shop":"clothes"}},"shop/clothes/morgan-5bd015":{"name":"Morgan","locationSet":{"include":["ch","fr"]},"geometry":["point","area"],"matchScore":2,"terms":["morgan"],"tags":{"brand:wikidata":"Q2990868","shop":"clothes"},"addTags":{"brand":"Morgan","brand:wikidata":"Q2990868","name":"Morgan","shop":"clothes"}},"shop/clothes/nafnaf-1da113":{"name":"NAF NAF","locationSet":{"include":["ch","de","fr"]},"geometry":["point","area"],"matchScore":2,"terms":["naf naf"],"tags":{"brand:wikidata":"Q3334188","shop":"clothes"},"addTags":{"brand":"NAF NAF","brand:wikidata":"Q3334188","name":"NAF NAF","shop":"clothes"}},"shop/clothes/nunalie-83ed0b":{"name":"Nuna Lie","locationSet":{"include":["ch","it"]},"geometry":["point","area"],"matchScore":2,"terms":["nuna lie"],"tags":{"brand:wikidata":"Q113291269","shop":"clothes"},"addTags":{"brand":"Nuna Lie","brand:wikidata":"Q113291269","clothes":"women","name":"Nuna Lie","shop":"clothes"}},"shop/clothes/okaidi-eea264":{"name":"Okaïdi","locationSet":{"include":["be","ch","de","es","fr","it","pl"]},"geometry":["point","area"],"matchScore":2,"terms":["okaïdi"],"tags":{"brand:wikidata":"Q3350027","shop":"clothes"},"addTags":{"brand":"Okaïdi","brand:wikidata":"Q3350027","name":"Okaïdi","shop":"clothes"}},"shop/clothes/oliviergrant-5bd015":{"name":"Olivier Grant","locationSet":{"include":["ch","fr"]},"geometry":["point","area"],"matchScore":2,"terms":["olivier grant"],"tags":{"brand:wikidata":"Q104717450","shop":"clothes"},"addTags":{"brand":"Olivier Grant","brand:wikidata":"Q104717450","clothes":"women;men","name":"Olivier Grant","shop":"clothes"}},"shop/clothes/ovs-8c6a50":{"name":"OVS","locationSet":{"include":["at","ch","fr","it","si"]},"geometry":["point","area"],"matchScore":2,"terms":["ovs"],"tags":{"brand:wikidata":"Q2042514","shop":"clothes"},"addTags":{"brand":"OVS","brand:wikidata":"Q2042514","name":"OVS","shop":"clothes"}},"shop/clothes/peterhahn-5713f3":{"name":"Peter Hahn","locationSet":{"include":["ch","de"]},"geometry":["point","area"],"matchScore":2,"terms":["peter hahn"],"tags":{"brand:wikidata":"Q2075416","shop":"clothes"},"addTags":{"brand":"Peter Hahn","brand:wikidata":"Q2075416","clothes":"women","name":"Peter Hahn","shop":"clothes"}},"shop/clothes/phaseeight-9ea1fe":{"name":"Phase Eight","locationSet":{"include":["ch","de","gb"]},"geometry":["point","area"],"matchScore":2,"terms":["phase eight"],"tags":{"brand:wikidata":"Q17020730","shop":"clothes"},"addTags":{"brand":"Phase Eight","brand:wikidata":"Q17020730","name":"Phase Eight","shop":"clothes"}},"shop/clothes/seidensticker-a4dacd":{"name":"Seidensticker","locationSet":{"include":["at","be","ch","cz","de","fr","it","lu","nl","pl"]},"geometry":["point","area"],"matchScore":2,"terms":["seidensticker"],"tags":{"brand:wikidata":"Q1797834","shop":"clothes"},"addTags":{"brand":"Seidensticker","brand:wikidata":"Q1797834","name":"Seidensticker","shop":"clothes"}},"shop/clothes/sisley-9d6d32":{"name":"Sisley","locationSet":{"include":["at","ch","de","hr","it","ru"]},"geometry":["point","area"],"matchScore":2,"terms":["sisley"],"tags":{"brand:wikidata":"Q12054325","shop":"clothes"},"addTags":{"brand":"Sisley","brand:wikidata":"Q12054325","name":"Sisley","shop":"clothes"}},"shop/clothes/streetone-1c3d1b":{"name":"Street One","locationSet":{"include":["at","be","ch","de","dk","nl"]},"geometry":["point","area"],"matchScore":2,"terms":["street one"],"tags":{"brand:wikidata":"Q61997265","shop":"clothes"},"addTags":{"brand":"Street One","brand:wikidata":"Q61997265","name":"Street One","shop":"clothes"}},"shop/clothes/ullapopken-db652c":{"name":"Ulla Popken","locationSet":{"include":["at","be","ch","de","fr","nl"]},"geometry":["point","area"],"matchScore":2,"terms":["ulla popken"],"tags":{"brand:wikidata":"Q2475146","shop":"clothes"},"addTags":{"brand":"Ulla Popken","brand:wikidata":"Q2475146","name":"Ulla Popken","shop":"clothes"}},"shop/clothes/underwear/undiz-f30927":{"name":"Undiz","locationSet":{"include":["ae","ch","es","fr","gf","gp","lb","ma","mq","nc","pf","qa","re","sa","za"]},"geometry":["point","area"],"matchScore":2,"terms":["undiz"],"reference":{"key":"clothes","value":"underwear"},"tags":{"brand:wikidata":"Q105306275","clothes":"underwear","shop":"clothes"},"addTags":{"brand":"Undiz","brand:wikidata":"Q105306275","clothes":"underwear","name":"Undiz","shop":"clothes"}},"shop/clothes/vangraaf-9ef6ea":{"name":"Van Graaf","locationSet":{"include":["ch","cz","hu","lv","pl"]},"geometry":["point","area"],"matchScore":2,"terms":["van graaf"],"tags":{"brand:wikidata":"Q113505161","shop":"clothes"},"addTags":{"brand":"Van Graaf","brand:wikidata":"Q113505161","name":"Van Graaf","shop":"clothes"}},"shop/clothes/we-1dbf87":{"name":"WE","locationSet":{"include":["be","ch","de","nl"]},"geometry":["point","area"],"matchScore":2,"terms":["we","we fashion"],"tags":{"brand:wikidata":"Q1987861","shop":"clothes"},"addTags":{"brand":"WE","brand:wikidata":"Q1987861","name":"WE","shop":"clothes"}},"shop/clothes/zebra-fed098":{"name":"Zebra","locationSet":{"include":["ch"]},"geometry":["point","area"],"matchScore":2,"terms":["zebra"],"tags":{"brand:wikidata":"Q99692008","shop":"clothes"},"addTags":{"brand":"Zebra","brand:wikidata":"Q99692008","name":"Zebra","shop":"clothes"}},"shop/clothes/zero-9393a9":{"name":"zero","locationSet":{"include":["at","ch","de"]},"geometry":["point","area"],"matchScore":2,"terms":["zero"],"tags":{"brand:wikidata":"Q191896","shop":"clothes"},"addTags":{"brand":"zero","brand:wikidata":"Q191896","clothes":"women","name":"zero","shop":"clothes"}},"shop/coffee/tchibo-8e6167":{"name":"Tchibo","locationSet":{"include":["at","ch","cz","de","pl","sk"]},"geometry":["point","area"],"matchScore":2,"terms":["tchibo"],"tags":{"brand:wikidata":"Q564213","shop":"coffee"},"addTags":{"brand":"Tchibo","brand:wikidata":"Q564213","name":"Tchibo","shop":"coffee"}},"shop/convenience/avec-c71a8a":{"name":"avec","locationSet":{"include":["ch","de"]},"geometry":["point","area"],"matchScore":2,"terms":["avec"],"tags":{"brand:wikidata":"Q103863974","shop":"convenience"},"addTags":{"brand":"avec","brand:wikidata":"Q103863974","name":"avec","shop":"convenience"}},"shop/convenience/avia-3fdfc9":{"name":"Avia","locationSet":{"include":["at","be","bg","ch","cz","de","es","fr","hu","it","nl","pl","pt","rs","ua"]},"geometry":["point","area"],"matchScore":2,"terms":["avia"],"tags":{"brand:wikidata":"Q300147","shop":"convenience"},"addTags":{"brand":"Avia","brand:wikidata":"Q300147","name":"Avia","shop":"convenience"}},"shop/convenience/bpshop-24c3f1":{"name":"BP Shop","locationSet":{"include":["au","ch","fr","gb","us"]},"geometry":["point","area"],"matchScore":2,"terms":["bp","bp shop"],"tags":{"brand:wikidata":"Q152057","shop":"convenience"},"addTags":{"brand":"BP Shop","brand:wikidata":"Q152057","name":"BP Shop","shop":"convenience"}},"shop/convenience/coop-07a460":{"name":"Coop (Schweiz)","locationSet":{"include":["ch"]},"geometry":["point","area"],"matchScore":2,"terms":["coop"],"tags":{"brand:wikidata":"Q432564","shop":"convenience"},"addTags":{"brand":"Coop","brand:wikidata":"Q432564","name":"Coop","shop":"convenience"}},"shop/convenience/cooppronto-0438d5":{"name":"Coop Pronto","locationSet":{"include":["ch","li"]},"geometry":["point","area"],"matchScore":2,"terms":["coop pronto"],"tags":{"brand:wikidata":"Q1129777","shop":"convenience"},"addTags":{"brand":"Coop Pronto","brand:wikidata":"Q1129777","name":"Coop Pronto","shop":"convenience"}},"shop/convenience/migrolino-07a460":{"name":"Migrolino","locationSet":{"include":["ch"]},"geometry":["point","area"],"matchScore":2,"terms":["migrolino"],"tags":{"brand:wikidata":"Q56745088","shop":"convenience"},"addTags":{"brand":"Migrolino","brand:wikidata":"Q56745088","name":"Migrolino","shop":"convenience"}},"shop/convenience/proxi-6fdfa6":{"name":"Proxi","locationSet":{"include":["ch","fr"]},"geometry":["point","area"],"matchScore":2,"terms":["proxi","proxy"],"tags":{"brand:wikidata":"Q3408522","shop":"convenience"},"addTags":{"brand":"Proxi","brand:wikidata":"Q3408522","name":"Proxi","shop":"convenience"}},"shop/convenience/ruedu-07a460":{"name":"Rüedu","locationSet":{"include":["ch"]},"geometry":["point","area"],"matchScore":2,"terms":["rüedu"],"tags":{"brand:wikidata":"Q112913831","shop":"convenience"},"addTags":{"brand":"Rüedu","brand:wikidata":"Q112913831","name":"Rüedu","self_service":"only","shop":"convenience"}},"shop/convenience/viva-856fe1":{"name":"Viva","locationSet":{"include":["by","bg","cz","hu","pl","md","ro","ru","sk","ua","ax","gg","je","cq","dk","ee","fo","fi","is","ie","im","lv","lt","no","sj","se","gb","al","ad","ba","hr","gi","gr","va","it","mt","me","mk","pt","sm","rs","si","es","xk","at","be","fr","de","li","lu","mc","nl","ch"]},"geometry":["point","area"],"matchScore":2,"terms":["viva"],"tags":{"brand:wikidata":"Q168238","shop":"convenience"},"addTags":{"brand":"Viva","brand:wikidata":"Q168238","name":"Viva","shop":"convenience"}},"shop/cosmetics/rituals-6bd843":{"name":"Rituals","locationSet":{"include":["be","ch","de","es","gb","nl","se","us"]},"geometry":["point","area"],"matchScore":2,"terms":["rituals"],"tags":{"brand:wikidata":"Q62874140","shop":"cosmetics"},"addTags":{"brand":"Rituals","brand:wikidata":"Q62874140","name":"Rituals","shop":"cosmetics"}},"shop/cosmetics/soeder-1b5c42":{"name":"Soeder","locationSet":{"include":["ch"]},"geometry":["point","area"],"matchScore":2,"terms":["soeder"],"tags":{"brand:wikidata":"Q111722324","shop":"cosmetics"},"addTags":{"brand":"Soeder","brand:wikidata":"Q111722324","name":"Soeder","shop":"cosmetics"}},"shop/craft/boesner-1cc9f4":{"name":"Boesner","locationSet":{"include":["at","ch","de","dk","fr","se"]},"geometry":["point","area"],"matchScore":2,"terms":["boesner"],"tags":{"brand:wikidata":"Q890317","shop":"craft"},"addTags":{"brand":"Boesner","brand:wikidata":"Q890317","name":"Boesner","shop":"craft"}},"shop/curtain/heytens-ceb642":{"name":"Heytens","locationSet":{"include":["be","ch","fr","lu"]},"geometry":["point","area"],"matchScore":2,"terms":["heytens"],"tags":{"brand:wikidata":"Q90565231","shop":"curtain"},"addTags":{"brand":"Heytens","brand:wikidata":"Q90565231","name":"Heytens","shop":"curtain"}},"shop/deli/oilandvinegar-0e839f":{"name":"Oil & Vinegar","locationSet":{"include":["at","be","ch","de","jp","nl","ru","us"]},"geometry":["point","area"],"matchScore":2,"terms":["oil & vinegar"],"tags":{"brand:wikidata":"Q107987188","shop":"deli"},"addTags":{"brand":"Oil & Vinegar","brand:wikidata":"Q107987188","name":"Oil & Vinegar","shop":"deli"}},"shop/deli/vomfass-a3c745":{"name":"vomFASS","locationSet":{"include":["at","be","br","ca","ch","cz","de","dk","es","fr","gb","hk","hr","hu","il","it","jp","lv","mx","my","ph","sg","th","us"]},"geometry":["point","area"],"matchScore":2,"terms":["vomfass"],"tags":{"brand:wikidata":"Q2533008","shop":"deli"},"addTags":{"brand":"vomFASS","brand:wikidata":"Q2533008","name":"vomFASS","shop":"deli"}},"shop/department_store/manor-66d8a4":{"name":"Manor","locationSet":{"include":["ch"]},"geometry":["point","area"],"matchScore":2,"terms":["manor"],"tags":{"brand:wikidata":"Q382686","shop":"department_store"},"addTags":{"brand":"Manor","brand:wikidata":"Q382686","name":"Manor","shop":"department_store"}},"shop/department_store/muji-b9b204":{"name":"Muji","locationSet":{"include":["au","ca","ch","de","es","fi","fr","gb","ie","it","pl","pt","se","tr"]},"geometry":["point","area"],"matchScore":2,"terms":["muji","無印良品"],"tags":{"brand:wikidata":"Q708789","shop":"department_store"},"addTags":{"brand":"Muji","brand:en":"Muji","brand:ja":"無印良品","brand:wikidata":"Q708789","name":"Muji","name:en":"Muji","name:ja":"無印良品","shop":"department_store"}},"shop/doityourself/bauhaus-6847b5":{"name":"Bauhaus","locationSet":{"include":["at","bg","ch","cz","de","dk","ee","es","fi","hr","hu","is","lu","nl","no","se","si","sk","tr"]},"geometry":["point","area"],"matchScore":2,"terms":["bauhaus"],"tags":{"brand:wikidata":"Q672043","shop":"doityourself"},"addTags":{"brand":"Bauhaus","brand:wikidata":"Q672043","name":"Bauhaus","shop":"doityourself"}},"shop/doityourself/coopbauhobby-0f6f08":{"name":"Coop Bau+Hobby","locationSet":{"include":["ch"]},"geometry":["point","area"],"matchScore":2,"terms":["coop bau+hobby"],"tags":{"brand:wikidata":"Q432564","shop":"doityourself"},"addTags":{"brand":"Coop Bau+Hobby","brand:wikidata":"Q432564","name":"Coop Bau+Hobby","shop":"doityourself"}},"shop/doityourself/hagebaumarkt-f009fa":{"name":"Hagebaumarkt","locationSet":{"include":["at","be","ch","de","es","fr","lu","nl"]},"geometry":["point","area"],"matchScore":2,"terms":["hagebau","hagebaumarkt"],"tags":{"brand:wikidata":"Q1568279","shop":"doityourself"},"addTags":{"brand":"Hagebaumarkt","brand:wikidata":"Q1568279","name":"Hagebaumarkt","shop":"doityourself"}},"shop/doityourself/hornbach-92b1c1":{"name":"HORNBACH","locationSet":{"include":["at","ch","cz","de","lu","nl","ro","se","sk"]},"geometry":["point","area"],"matchScore":2,"terms":["hornbach"],"tags":{"brand:wikidata":"Q685926","shop":"doityourself"},"addTags":{"brand":"HORNBACH","brand:wikidata":"Q685926","name":"HORNBACH","shop":"doityourself"}},"shop/doityourself/jumbo-0f6f08":{"name":"Jumbo","locationSet":{"include":["ch"]},"geometry":["point","area"],"matchScore":2,"terms":["jumbo"],"tags":{"brand:wikidata":"Q1713190","shop":"doityourself"},"addTags":{"brand":"Jumbo","brand:wikidata":"Q1713190","name":"Jumbo","shop":"doityourself"}},"shop/doityourself/obi-d5381e":{"name":"OBI","locationSet":{"include":["at","ba","ch","cz","de","hu","it","pl","ru","si","sk"]},"geometry":["point","area"],"matchScore":2,"terms":["obi"],"tags":{"brand:wikidata":"Q300518","shop":"doityourself"},"addTags":{"brand":"OBI","brand:wikidata":"Q300518","name":"OBI","shop":"doityourself"}},"shop/electrical/rexel-f00824":{"name":"Rexel","locationSet":{"include":["at","au","be","ca","ch","cn","de","es","fi","fr","ie","in","it","lu","me","nl","no","nz","pt","se","si","us"]},"geometry":["point","area"],"matchScore":2,"terms":["rexel"],"tags":{"brand:wikidata":"Q962489","shop":"electrical"},"addTags":{"brand":"Rexel","brand:wikidata":"Q962489","name":"Rexel","shop":"electrical"}},"shop/electronics/conrad-a3c660":{"name":"Conrad","locationSet":{"include":["at","ch","de","hu"]},"geometry":["point","area"],"matchScore":2,"terms":["conrad"],"tags":{"brand:wikidata":"Q467136","shop":"electronics"},"addTags":{"brand":"Conrad","brand:wikidata":"Q467136","name":"Conrad","shop":"electronics"}},"shop/electronics/ep-a53b66":{"name":"EP:","locationSet":{"include":["at","ch","de","nl"]},"geometry":["point","area"],"matchScore":2,"terms":["electronicpartner","ep:"],"tags":{"brand:wikidata":"Q110271192","shop":"electronics"},"addTags":{"brand":"EP:","brand:wikidata":"Q110271192","shop":"electronics"}},"shop/electronics/fust-c12012":{"name":"Fust","locationSet":{"include":["ch"]},"geometry":["point","area"],"matchScore":2,"terms":["fust"],"tags":{"brand:wikidata":"Q1227164","shop":"electronics"},"addTags":{"brand":"Fust","brand:wikidata":"Q1227164","name":"Fust","shop":"electronics"}},"shop/electronics/interdiscount-c12012":{"name":"Interdiscount","locationSet":{"include":["ch"]},"geometry":["point","area"],"matchScore":2,"terms":["interdiscount"],"tags":{"brand:wikidata":"Q1665980","shop":"electronics"},"addTags":{"brand":"Interdiscount","brand:wikidata":"Q1665980","name":"Interdiscount","shop":"electronics"}},"shop/electronics/mediamarkt-51d852":{"name":"MediaMarkt","locationSet":{"include":["at","be","ch","de","es","gr","hu","it","nl","pl","pt","se","tr"]},"geometry":["point","area"],"matchScore":2,"terms":["mediamarkt"],"tags":{"brand:wikidata":"Q2381223","shop":"electronics"},"addTags":{"brand":"MediaMarkt","brand:wikidata":"Q2381223","name":"MediaMarkt","shop":"electronics"}},"shop/electronics/melectronics-c12012":{"name":"melectronics","locationSet":{"include":["ch"]},"geometry":["point","area"],"matchScore":2,"terms":["melectronics"],"tags":{"brand:wikidata":"Q110276002","shop":"electronics"},"addTags":{"brand":"melectronics","brand:wikidata":"Q110276002","name":"melectronics","shop":"electronics"}},"shop/fashion_accessories/mulberry-e1f087":{"name":"Mulberry","locationSet":{"include":["ae","au","ca","ch","cn","de","dk","fi","gb","ie","jp","kr","my","nl","no","se","sg","th","us"]},"geometry":["point","area"],"matchScore":2,"terms":["mulberry"],"tags":{"brand:wikidata":"Q3866987","shop":"fashion_accessories"},"addTags":{"brand":"Mulberry","brand:wikidata":"Q3866987","name":"Mulberry","shop":"fashion_accessories"}},"shop/furniture/casa-79abb5":{"name":"Casa","locationSet":{"include":["be","ch","es","fr","it","lu","pt"]},"geometry":["point","area"],"matchScore":2,"terms":["casa"],"tags":{"brand:wikidata":"Q1991755","shop":"furniture"},"addTags":{"brand":"Casa","brand:wikidata":"Q1991755","name":"Casa","shop":"furniture"}},"shop/furniture/chateaudax-c96b56":{"name":"Chateau d'Ax","locationSet":{"include":["ao","be","ca","ch","cn","de","es","fx","gp","hk","hr","it","ma","mq","mt","mu","mz","pt","re","sg","si","tn","tw","us","vn"]},"geometry":["point","area"],"matchScore":2,"terms":["chateau d'ax"],"tags":{"brand:wikidata":"Q100249791","shop":"furniture"},"addTags":{"brand":"Chateau d'Ax","brand:wikidata":"Q100249791","name":"Chateau d'Ax","shop":"furniture"}},"shop/furniture/conforama-86a0f7":{"name":"Conforama","locationSet":{"include":["ch","es","fr","it","lu"]},"geometry":["point","area"],"matchScore":2,"terms":["conforama"],"tags":{"brand:wikidata":"Q541134","shop":"furniture"},"addTags":{"brand":"Conforama","brand:wikidata":"Q541134","name":"Conforama","shop":"furniture"}},"shop/furniture/livique-be426f":{"name":"Livique","locationSet":{"include":["ch"]},"geometry":["point","area"],"matchScore":2,"terms":["livique"],"tags":{"brand:wikidata":"Q15851221","shop":"furniture"},"addTags":{"brand":"Livique","brand:wikidata":"Q15851221","name":"Livique","shop":"furniture"}},"shop/furniture/maisonsdumonde-55837e":{"name":"Maisons du Monde","locationSet":{"include":["be","ch","de","es","fr","gb","it","lu"]},"geometry":["point","area"],"matchScore":2,"terms":["maisons du monde"],"tags":{"brand:wikidata":"Q3280364","shop":"furniture"},"addTags":{"brand":"Maisons du Monde","brand:wikidata":"Q3280364","name":"Maisons du Monde","shop":"furniture"}},"shop/furniture/momax-a18722":{"name":"Mömax","locationSet":{"include":["by","bg","cz","hu","pl","md","ro","ru","sk","ua","ax","gg","je","cq","dk","ee","fo","fi","is","ie","im","lv","lt","no","sj","se","gb","al","ad","ba","hr","gi","gr","va","it","mt","me","mk","pt","sm","rs","si","es","xk","at","be","fr","de","li","lu","mc","nl","ch"]},"geometry":["point","area"],"matchScore":2,"terms":["mömax"],"tags":{"brand:wikidata":"Q56388481","shop":"furniture"},"addTags":{"brand":"Mömax","brand:wikidata":"Q56388481","name":"Mömax","shop":"furniture"}},"shop/furniture/pfister-be426f":{"name":"Pfister","locationSet":{"include":["ch"]},"geometry":["point","area"],"matchScore":2,"terms":["möbel pfister","pfister"],"tags":{"brand:wikidata":"Q104215428","shop":"furniture"},"addTags":{"brand":"Pfister","brand:wikidata":"Q104215428","name":"Pfister","shop":"furniture"}},"shop/furniture/poltronesofa-488b55":{"name":"Poltronesofà","locationSet":{"include":["be","ch","cy","fr","it","mt"]},"geometry":["point","area"],"matchScore":2,"terms":["poltronesofà"],"tags":{"brand:wikidata":"Q80833069","shop":"furniture"},"addTags":{"brand":"Poltronesofà","brand:wikidata":"Q80833069","name":"Poltronesofà","shop":"furniture"}},"shop/furniture/xxxlutz-5acc6e":{"name":"XXXLutz","locationSet":{"include":["by","bg","cz","hu","pl","md","ro","ru","sk","ua","ax","gg","je","cq","dk","ee","fo","fi","is","ie","im","lv","lt","no","sj","se","gb","al","ad","ba","hr","gi","gr","va","it","mt","me","mk","pt","sm","rs","si","es","xk","at","be","fr","de","li","lu","mc","nl","ch"],"exclude":["bg"]},"geometry":["point","area"],"matchScore":2,"terms":["xxxlutz"],"tags":{"brand:wikidata":"Q70339467","shop":"furniture"},"addTags":{"brand":"XXXLutz","brand:wikidata":"Q70339467","name":"XXXLutz","shop":"furniture"}},"shop/hairdresser/gidor-537977":{"name":"Gidor","locationSet":{"include":["ch"]},"geometry":["point","area"],"matchScore":2,"terms":["gidor"],"tags":{"brand:wikidata":"Q1523182","shop":"hairdresser"},"addTags":{"brand":"Gidor","brand:wikidata":"Q1523182","name":"Gidor","shop":"hairdresser"}},"shop/hearing_aids/audika-4892bd":{"name":"Audika","locationSet":{"include":["ch","fr"]},"geometry":["point","area"],"matchScore":2,"terms":["audika"],"tags":{"brand:wikidata":"Q2870745","shop":"hearing_aids"},"addTags":{"brand":"Audika","brand:wikidata":"Q2870745","name":"Audika","shop":"hearing_aids"}},"shop/interior_decoration/butlers-85b078":{"name":"Butlers","locationSet":{"include":["at","ch","de","es","gb","hu","lu","mt","ua"]},"geometry":["point","area"],"matchScore":2,"terms":["butlers"],"tags":{"brand:wikidata":"Q1017972","shop":"interior_decoration"},"addTags":{"brand":"Butlers","brand:wikidata":"Q1017972","name":"Butlers","shop":"interior_decoration"}},"shop/interior_decoration/depot-5f264c":{"name":"Depot","locationSet":{"include":["at","ch","de"]},"geometry":["point","area"],"matchScore":2,"terms":["depot"],"tags":{"brand:wikidata":"Q1191740","shop":"interior_decoration"},"addTags":{"brand":"Depot","brand:wikidata":"Q1191740","name":"Depot","shop":"interior_decoration"}},"shop/jewelry/christ-729edb":{"name":"Christ","locationSet":{"include":["ch","de","nl"]},"geometry":["point","area"],"matchScore":2,"terms":["christ"],"tags":{"brand:wikidata":"Q1077957","shop":"jewelry"},"addTags":{"brand":"Christ","brand:wikidata":"Q1077957","name":"Christ","shop":"jewelry"}},"shop/kiosk/kkiosk-14c8a0":{"name":"k kiosk","locationSet":{"include":["ch"]},"geometry":["point","area"],"matchScore":2,"terms":["k kiosk"],"tags":{"brand:wikidata":"Q60381703","shop":"kiosk"},"addTags":{"brand":"k kiosk","brand:wikidata":"Q60381703","name":"k kiosk","shop":"kiosk"}},"shop/kitchen/sabag-56a74d":{"name":"Sabag","locationSet":{"include":["ch"]},"geometry":["point","area"],"matchScore":2,"terms":["sabag"],"tags":{"brand:wikidata":"Q2209366","shop":"kitchen"},"addTags":{"brand":"Sabag","brand:wikidata":"Q2209366","name":"Sabag","shop":"kitchen"}},"shop/lighting/lumimart-cc1c34":{"name":"Lumimart","locationSet":{"include":["ch"]},"geometry":["point","area"],"matchScore":2,"terms":["lumimart"],"tags":{"brand:wikidata":"Q111722218","shop":"lighting"},"addTags":{"brand":"Lumimart","brand:wikidata":"Q111722218","name":"Lumimart","shop":"lighting"}},"shop/mobile_phone/mobilezone-741c3f":{"name":"Mobilezone","locationSet":{"include":["ch"]},"geometry":["point","area"],"matchScore":2,"terms":["mobilezone"],"tags":{"brand:wikidata":"Q1680518","shop":"mobile_phone"},"addTags":{"brand":"Mobilezone","brand:wikidata":"Q1680518","name":"Mobilezone","shop":"mobile_phone"}},"shop/mobile_phone/salt-741c3f":{"name":"Salt","locationSet":{"include":["ch"]},"geometry":["point","area"],"matchScore":2,"terms":["salt"],"tags":{"brand:wikidata":"Q17325543","shop":"mobile_phone"},"addTags":{"brand":"Salt","brand:wikidata":"Q17325543","name":"Salt","shop":"mobile_phone"}},"shop/mobile_phone/sunrise-741c3f":{"name":"Sunrise","locationSet":{"include":["ch"]},"geometry":["point","area"],"matchScore":2,"terms":["sunrise","sunrise shop"],"searchable":false,"tags":{"brand:wikidata":"Q672648","shop":"mobile_phone"},"addTags":{"brand":"Sunrise","brand:wikidata":"Q672648","name":"Sunrise","shop":"mobile_phone"}},"shop/motorcycle/louismotorrad-5a4a1c":{"name":"Louis Motorrad","locationSet":{"include":["at","ch","de","nl"]},"geometry":["point","area"],"matchScore":2,"terms":["louis motorrad"],"fields":["name","brand","{shop/motorcycle}"],"tags":{"brand:wikidata":"Q1659681","shop":"motorcycle"},"addTags":{"brand":"Louis Motorrad","brand:wikidata":"Q1659681","motorcycle:clothes":"yes","motorcycle:parts":"yes","shop":"motorcycle"}},"shop/motorcycle/polomotorrad-85371d":{"name":"Polo Motorrad","locationSet":{"include":["at","ch","de"]},"geometry":["point","area"],"matchScore":2,"terms":["polo motorrad"],"fields":["name","brand","{shop/motorcycle}"],"tags":{"brand:wikidata":"Q2102562","shop":"motorcycle"},"addTags":{"brand":"Polo Motorrad","brand:wikidata":"Q2102562","motorcycle:clothes":"yes","motorcycle:parts":"yes","shop":"motorcycle"}},"shop/newsagent/kkiosk-49035c":{"name":"k kiosk","locationSet":{"include":["ch"]},"geometry":["point","area"],"matchScore":2,"terms":["k kiosk"],"tags":{"brand:wikidata":"Q60381703","shop":"newsagent"},"addTags":{"brand":"k kiosk","brand:wikidata":"Q60381703","name":"k kiosk","shop":"newsagent"}},"shop/optician/aceandtate-b2ee21":{"name":"Ace & Tate","locationSet":{"include":["at","be","ch","de","dk","es","gb","ie","nl","se"]},"geometry":["point","area"],"matchScore":2,"terms":["ace & tate"],"fields":["name","brand","{shop/optician}"],"tags":{"brand:wikidata":"Q110516413","shop":"optician"},"addTags":{"brand":"Ace & Tate","brand:wikidata":"Q110516413","name":"Ace & Tate","shop":"optician"}},"shop/optician/alainafflelou-b3bc92":{"name":"Alain Afflelou","locationSet":{"include":["be","ch","es","fr","pt"]},"geometry":["point","area"],"matchScore":2,"terms":["alain afflelou"],"fields":["name","brand","{shop/optician}"],"tags":{"brand:wikidata":"Q2829511","shop":"optician"},"addTags":{"brand":"Alain Afflelou","brand:wikidata":"Q2829511","name":"Alain Afflelou","shop":"optician"}},"shop/optician/fielmann-f003f4":{"name":"fielmann","locationSet":{"include":["at","by","ch","de","it","lt","lu","lv","nl","pl","ru","ua"]},"geometry":["point","area"],"matchScore":2,"terms":["fielmann"],"fields":["name","brand","{shop/optician}"],"tags":{"brand:wikidata":"Q457822","shop":"optician"},"addTags":{"brand":"Fielmann","brand:wikidata":"Q457822","name":"Fielmann","shop":"optician"}},"shop/optician/misterspex-a59c89":{"name":"Mister Spex","locationSet":{"include":["at","ch","de","es","fr","gb","nl"]},"geometry":["point","area"],"matchScore":2,"terms":["mister spex"],"fields":["name","brand","{shop/optician}"],"tags":{"brand:wikidata":"Q27313697","shop":"optician"},"addTags":{"brand":"Mister Spex","brand:wikidata":"Q27313697","name":"Mister Spex","shop":"optician"}},"shop/optician/optic2000-7d1aac":{"name":"Optic 2000","locationSet":{"include":["ch","fr"]},"geometry":["point","area"],"matchScore":2,"terms":["optic 2000"],"fields":["name","brand","{shop/optician}"],"tags":{"brand:wikidata":"Q3354445","shop":"optician"},"addTags":{"brand":"Optic 2000","brand:wikidata":"Q3354445","name":"Optic 2000","shop":"optician"}},"shop/outdoor/jackwolfskin-5feed5":{"name":"Jack Wolfskin","locationSet":{"include":["at","be","ch","de","fr","gb","it","nl","pl","ru","ua"]},"geometry":["point","area"],"matchScore":2,"terms":["jack wolfskin"],"tags":{"brand:wikidata":"Q536133","shop":"outdoor"},"addTags":{"brand":"Jack Wolfskin","brand:wikidata":"Q536133","name":"Jack Wolfskin","shop":"outdoor"}},"shop/outdoor/natureetdecouvertes-b82966":{"name":"Nature et Découvertes","locationSet":{"include":["be","ch","fr","lu"]},"geometry":["point","area"],"matchScore":2,"terms":["nature et découvertes"],"tags":{"brand:wikidata":"Q3337111","shop":"outdoor"},"addTags":{"brand":"Nature et Découvertes","brand:wikidata":"Q3337111","name":"Nature et Découvertes","shop":"outdoor"}},"shop/paint/brillux-7853a1":{"name":"Brillux","locationSet":{"include":["at","ch","de","it","nl","pl"]},"geometry":["point","area"],"matchScore":2,"terms":["brillux"],"tags":{"brand:wikidata":"Q917229","shop":"paint"},"addTags":{"brand":"Brillux","brand:wikidata":"Q917229","name":"Brillux","shop":"paint"}},"shop/pawnbroker/cashconverters-1c62e9":{"name":"Cash Converters","locationSet":{"include":["ae","au","be","ch","es","fr","lu","my","na","nz","pt","sg","uk","za"]},"geometry":["point","area"],"matchScore":2,"terms":["cash converters"],"tags":{"brand:wikidata":"Q5048645","shop":"pawnbroker"},"addTags":{"brand":"Cash Converters","brand:wikidata":"Q5048645","name":"Cash Converters","shop":"pawnbroker"}},"shop/perfumery/douglas-4a1f51":{"name":"Douglas","locationSet":{"include":["at","ch","cz","de","es","it","nl","pl","sk"]},"geometry":["point","area"],"matchScore":2,"terms":["douglas"],"tags":{"brand:wikidata":"Q2052213","shop":"perfumery"},"addTags":{"brand":"Douglas","brand:wikidata":"Q2052213","name":"Douglas","shop":"perfumery"}},"shop/perfumery/importparfumerie-5a7a8c":{"name":"Import Parfumerie","locationSet":{"include":["ch"]},"geometry":["point","area"],"matchScore":2,"terms":["import parfumerie"],"tags":{"brand:wikidata":"Q1660352","shop":"perfumery"},"addTags":{"brand":"Import Parfumerie","brand:wikidata":"Q1660352","name":"Import Parfumerie","shop":"perfumery"}},"shop/perfumery/marionnaud-d22512":{"name":"Marionnaud","locationSet":{"include":["at","ch","es","fr","it","sk"]},"geometry":["point","area"],"matchScore":2,"terms":["marionnaud"],"tags":{"brand:wikidata":"Q1129073","shop":"perfumery"},"addTags":{"brand":"Marionnaud","brand:wikidata":"Q1129073","name":"Marionnaud","shop":"perfumery"}},"shop/pet/fressnapf-d58bba":{"name":"Fressnapf","locationSet":{"include":["at","ch","de","hu","lu"]},"geometry":["point","area"],"matchScore":2,"terms":["fressnapf"],"tags":{"brand:wikidata":"Q875796","shop":"pet"},"addTags":{"brand":"Fressnapf","brand:wikidata":"Q875796","name":"Fressnapf","shop":"pet"}},"shop/pet/maxizoo-3e2920":{"name":"Maxi Zoo","locationSet":{"include":["be","ch","dk","fr","ie","it","pl"]},"geometry":["point","area"],"matchScore":2,"terms":["maxi zoo"],"tags":{"brand:wikidata":"Q108403242","shop":"pet"},"addTags":{"brand":"Maxi Zoo","brand:wikidata":"Q108403242","name":"Maxi Zoo","shop":"pet"}},"shop/pet/qualipet-c04507":{"name":"Qualipet","locationSet":{"include":["ch"]},"geometry":["point","area"],"matchScore":2,"terms":["qualipet"],"tags":{"brand:wikidata":"Q15841340","shop":"pet"},"addTags":{"brand":"Qualipet","brand:wikidata":"Q15841340","name":"Qualipet","shop":"pet"}},"shop/shoes/dosenbach-f20847":{"name":"Dosenbach","locationSet":{"include":["ch"]},"geometry":["point","area"],"matchScore":2,"terms":["dosenbach"],"tags":{"brand:wikidata":"Q2677329","shop":"shoes"},"addTags":{"brand":"Dosenbach","brand:wikidata":"Q2677329","name":"Dosenbach","shop":"shoes"}},"shop/shoes/dunelondon-95839f":{"name":"Dune London","locationSet":{"include":["ch","de","fr","gb","nl"]},"geometry":["point","area"],"matchScore":2,"terms":["dune","dune london"],"tags":{"brand:wikidata":"Q65557112","shop":"shoes"},"addTags":{"brand":"Dune London","brand:wikidata":"Q65557112","name":"Dune London","shop":"shoes","short_name":"Dune"}},"shop/shoes/reno-647f57":{"name":"Reno","locationSet":{"include":["at","ch","de","hu","sk"]},"geometry":["point","area"],"matchScore":2,"terms":["reno"],"tags":{"brand:wikidata":"Q2144204","shop":"shoes"},"addTags":{"brand":"Reno","brand:wikidata":"Q2144204","name":"Reno","shop":"shoes"}},"shop/shoes/snipes-679af4":{"name":"Snipes","locationSet":{"include":["at","ch","de","es","fr","it","nl","us"]},"geometry":["point","area"],"matchScore":2,"terms":["snipes"],"tags":{"brand:wikidata":"Q42306166","shop":"shoes"},"addTags":{"brand":"Snipes","brand:wikidata":"Q42306166","name":"Snipes","shop":"shoes"}},"shop/shoes/stuartweitzman-54b0d5":{"name":"Stuart Weitzman","locationSet":{"include":["ca","ch","de","fr","id","nl","uk","us"]},"geometry":["point","area"],"matchScore":2,"terms":["stuart weitzman"],"tags":{"brand:wikidata":"Q75244763","shop":"shoes"},"addTags":{"brand":"Stuart Weitzman","brand:wikidata":"Q75244763","name":"Stuart Weitzman","shop":"shoes"}},"shop/shoes/vogeleshoes-10cc84":{"name":"Vögele Shoes","locationSet":{"include":["at","ch"]},"geometry":["point","area"],"matchScore":2,"terms":["vögele shoes"],"tags":{"brand:wikidata":"Q1389021","shop":"shoes"},"addTags":{"brand":"Vögele Shoes","brand:wikidata":"Q1389021","name":"Vögele Shoes","shop":"shoes"}},"shop/sports/ochsnersport-89a72b":{"name":"Ochsner Sport","locationSet":{"include":["ch"]},"geometry":["point","area"],"matchScore":2,"terms":["ochsner sport"],"tags":{"brand:wikidata":"Q102030654","shop":"sports"},"addTags":{"brand":"Ochsner Sport","brand:wikidata":"Q102030654","name":"Ochsner Sport","shop":"sports"}},"shop/sports/sporttiedje-b06acf":{"name":"Sport-Tiedje","locationSet":{"include":["at","be","ch","de","dk","fr","gb","nl","pl"]},"geometry":["point","area"],"matchScore":2,"terms":["sport-tiedje"],"tags":{"brand:wikidata":"Q15848204","shop":"sports"},"addTags":{"brand":"Sport-Tiedje","brand:wikidata":"Q15848204","name":"Sport-Tiedje","shop":"sports"}},"shop/stationery/mcpaper-f8476b":{"name":"McPaper","locationSet":{"include":["ch","de"]},"geometry":["point","area"],"matchScore":2,"terms":["mcpaper"],"tags":{"brand:wikidata":"Q1915329","shop":"stationery"},"addTags":{"brand":"McPaper","brand:wikidata":"Q1915329","name":"McPaper","shop":"stationery"}},"shop/storage_rental/myplaceselfstorage-7d575b":{"name":"MyPlace-SelfStorage","locationSet":{"include":["at","ch","de"]},"geometry":["point","area"],"matchScore":2,"terms":["my place","myplace-selfstorage"],"tags":{"brand:wikidata":"Q109659129","shop":"storage_rental"},"addTags":{"brand":"MyPlace-SelfStorage","brand:wikidata":"Q109659129","name":"MyPlace-SelfStorage","shop":"storage_rental"}},"shop/supermarket/aldi-0d26d7":{"name":"ALDI (ALDI Süd group)","locationSet":{"include":["au","ch","cn","gb","hu","ie","it","us"],"exclude":["de"]},"geometry":["point","area"],"matchScore":2,"terms":["aldi"],"tags":{"brand:wikidata":"Q41171672","shop":"supermarket"},"addTags":{"brand":"ALDI","brand:wikidata":"Q41171672","name":"ALDI","shop":"supermarket"}},"shop/supermarket/alnatura-f97a5b":{"name":"Alnatura","locationSet":{"include":["ch","de"]},"geometry":["point","area"],"matchScore":2,"terms":["alnatura"],"tags":{"brand:wikidata":"Q876811","shop":"supermarket"},"addTags":{"brand":"Alnatura","brand:wikidata":"Q876811","name":"Alnatura","organic":"only","shop":"supermarket"}},"shop/supermarket/auchan-925d9b":{"name":"Auchan","locationSet":{"include":["al","ad","ba","hr","gi","gr","va","it","mt","me","mk","pt","sm","rs","si","es","xk","by","bg","cz","hu","pl","md","ro","ru","sk","ua","at","be","fr","de","li","lu","mc","nl","ch","cn"],"exclude":["ru"]},"geometry":["point","area"],"matchScore":2,"terms":["auchan"],"tags":{"brand:wikidata":"Q758603","shop":"supermarket"},"addTags":{"brand":"Auchan","brand:wikidata":"Q758603","name":"Auchan","shop":"supermarket"}},"shop/supermarket/coop-36e991":{"name":"Coop (Schweiz)","locationSet":{"include":["ch"]},"geometry":["point","area"],"matchScore":2,"terms":["coop"],"tags":{"brand:wikidata":"Q432564","shop":"supermarket"},"addTags":{"brand":"Coop","brand:wikidata":"Q432564","name":"Coop","shop":"supermarket"}},"shop/supermarket/crai-d52198":{"name":"Crai","locationSet":{"include":["ch","it"]},"geometry":["point","area"],"matchScore":2,"terms":["crai"],"tags":{"brand:wikidata":"Q3696429","shop":"supermarket"},"addTags":{"brand":"Crai","brand:wikidata":"Q3696429","name":"Crai","shop":"supermarket"}},"shop/supermarket/denner-704edb":{"name":"Denner","locationSet":{"include":["ch","li"]},"geometry":["point","area"],"matchScore":2,"terms":["denner"],"tags":{"brand:wikidata":"Q379911","shop":"supermarket"},"addTags":{"brand":"Denner","brand:wikidata":"Q379911","name":"Denner","shop":"supermarket"}},"shop/supermarket/eblnaturkost-f97a5b":{"name":"ebl-Naturkost","locationSet":{"include":["ch","de"]},"geometry":["point","area"],"matchScore":2,"terms":["ebl-naturkost"],"tags":{"brand:wikidata":"Q22691722","shop":"supermarket"},"addTags":{"brand":"ebl-Naturkost","brand:wikidata":"Q22691722","name":"ebl-Naturkost","organic":"only","shop":"supermarket"}},"shop/supermarket/eurospar-4b5e11":{"name":"Eurospar","locationSet":{"include":["by","bg","cz","hu","pl","md","ro","ru","sk","ua","ax","gg","je","cq","dk","ee","fo","fi","is","ie","im","lv","lt","no","sj","se","gb","al","ad","ba","hr","gi","gr","va","it","mt","me","mk","pt","sm","rs","si","es","xk","at","be","fr","de","li","lu","mc","nl","ch"]},"geometry":["point","area"],"matchScore":2,"terms":["eurospar"],"tags":{"brand:wikidata":"Q12309283","shop":"supermarket"},"addTags":{"brand":"Eurospar","brand:wikidata":"Q12309283","name":"Eurospar","shop":"supermarket"}},"shop/supermarket/landi-36e991":{"name":"Landi","locationSet":{"include":["ch"]},"geometry":["point","area"],"matchScore":2,"terms":["landi"],"tags":{"brand:wikidata":"Q1803010","shop":"supermarket"},"addTags":{"brand":"Landi","brand:wikidata":"Q1803010","name":"Landi","shop":"supermarket"}},"shop/supermarket/pam-d52198":{"name":"Pam","locationSet":{"include":["ch","it"]},"geometry":["point","area"],"matchScore":2,"terms":["pam"],"tags":{"brand:wikidata":"Q105615038","shop":"supermarket"},"addTags":{"brand":"Pam","brand:wikidata":"Q105615038","name":"Pam","shop":"supermarket"}},"shop/supermarket/proxisuper-f97dff":{"name":"Proxi Super","locationSet":{"include":["ch","fr"]},"geometry":["point","area"],"matchScore":2,"terms":["proxi"],"tags":{"brand:wikidata":"Q3408522","shop":"supermarket"},"addTags":{"brand":"Proxi","brand:wikidata":"Q3408522","name":"Proxi Super","shop":"supermarket"}},"shop/supermarket/voi-36e991":{"name":"VOI","locationSet":{"include":["ch"]},"geometry":["point","area"],"matchScore":2,"terms":["voi"],"tags":{"brand:wikidata":"Q110277616","shop":"supermarket"},"addTags":{"brand":"VOI","brand:wikidata":"Q110277616","name":"VOI","shop":"supermarket"}},"shop/supermarket/volg-704edb":{"name":"Volg","locationSet":{"include":["ch","li"]},"geometry":["point","area"],"matchScore":2,"terms":["volg"],"tags":{"brand:wikidata":"Q2530746","shop":"supermarket"},"addTags":{"brand":"Volg","brand:wikidata":"Q2530746","name":"Volg","shop":"supermarket"}},"shop/telecommunication/swisscom-b6d5be":{"name":"Swisscom","locationSet":{"include":["ch"]},"geometry":["point","area"],"matchScore":2,"terms":["swisscom","swisscom shop"],"tags":{"brand:wikidata":"Q644324","shop":"telecommunication"},"addTags":{"brand":"Swisscom","brand:wikidata":"Q644324","name":"Swisscom","shop":"telecommunication"}},"shop/tool_hire/boels-d0c09f":{"name":"Boels","locationSet":{"include":["at","be","ch","cz","de","gb","it","lu","nl","pl","sk"]},"geometry":["point","area"],"matchScore":2,"terms":["boels","boels rental"],"tags":{"brand:wikidata":"Q19901961","shop":"tool_hire"},"addTags":{"brand":"Boels","brand:wikidata":"Q19901961","name":"Boels","shop":"tool_hire"}},"shop/tool_hire/loxam-33fef8":{"name":"Loxam","locationSet":{"include":["ae","be","bh","br","ch","co","cz","de","dk","ee","es","fi","fr","gb","ie","it","kw","lt","lu","lv","ma","nl","no","om","pl","pt","qa","sa","se","sk"]},"geometry":["point","area"],"matchScore":2,"terms":["loxam"],"tags":{"brand:wikidata":"Q3264407","shop":"tool_hire"},"addTags":{"brand":"Loxam","brand:wikidata":"Q3264407","name":"Loxam","shop":"tool_hire"}},"shop/toys/smyths-468a3c":{"name":"Smyths","locationSet":{"include":["at","ch","de","gb","ie"]},"geometry":["point","area"],"matchScore":2,"terms":["smyths","smyths toys"],"tags":{"brand:wikidata":"Q7546779","shop":"toys"},"addTags":{"brand":"Smyths","brand:wikidata":"Q7546779","name":"Smyths","shop":"toys"}},"shop/travel_agency/hotelplan-c09afe":{"name":"Hotelplan","locationSet":{"include":["ch"]},"geometry":["point","area"],"matchScore":2,"terms":["hotelplan"],"tags":{"brand:wikidata":"Q1631145","shop":"travel_agency"},"addTags":{"brand":"Hotelplan","brand:wikidata":"Q1631145","name":"Hotelplan","shop":"travel_agency"}},"shop/variety_store/flyingtigercopenhagen-37d726":{"name":"Flying Tiger Copenhagen","locationSet":{"include":["at","be","ch","cy","cz","de","dk","ee","es","fi","fr","gb","gr","hu","ie","is","it","jp","kr","lt","lv","mt","nl","no","pl","pt","se","sk"]},"geometry":["point","area"],"matchScore":2,"terms":["flying tiger","flying tiger copenhagen","tgr","tiger"],"tags":{"brand:wikidata":"Q2786319","shop":"variety_store"},"addTags":{"brand":"Flying Tiger Copenhagen","brand:wikidata":"Q2786319","name":"Flying Tiger Copenhagen","shop":"variety_store","short_name":"Flying Tiger"}},"shop/variety_store/ottos-793388":{"name":"Otto's","locationSet":{"include":["ch"]},"geometry":["point","area"],"matchScore":2,"terms":["otto's"],"tags":{"brand:wikidata":"Q2041507","shop":"variety_store"},"addTags":{"brand":"Otto's","brand:wikidata":"Q2041507","name":"Otto's","shop":"variety_store"}},"shop/watches/omega-237699":{"name":"Omega","locationSet":{"include":["ch","fr"]},"geometry":["point","area"],"matchScore":2,"terms":["omega"],"tags":{"brand:wikidata":"Q659224","shop":"watches"},"addTags":{"brand":"Omega","brand:wikidata":"Q659224","name":"Omega","shop":"watches"}},"tourism/hotel/bandbhotel-fc8c2c":{"name":"B&B Hotel","locationSet":{"include":["by","bg","cz","hu","pl","md","ro","ru","sk","ua","ax","gg","je","cq","dk","ee","fo","fi","is","ie","im","lv","lt","no","sj","se","gb","al","ad","ba","hr","gi","gr","va","it","mt","me","mk","pt","sm","rs","si","es","xk","at","be","fr","de","li","lu","mc","nl","ch","br"]},"geometry":["point","area"],"matchScore":2,"terms":["b&b hotels"],"fields":["name","brand","{tourism/hotel}"],"tags":{"brand:wikidata":"Q794939","tourism":"hotel"},"addTags":{"brand":"B&B Hotels","brand:wikidata":"Q794939","name":"B&B Hotel","tourism":"hotel"}},"tourism/hotel/citizenm-b4d29c":{"name":"citizenM","locationSet":{"include":["ch","dk","fr","gb","it","my","nl","tw","us"]},"geometry":["point","area"],"matchScore":2,"terms":["citizenm"],"fields":["name","brand","{tourism/hotel}"],"tags":{"brand:wikidata":"Q5122531","tourism":"hotel"},"addTags":{"brand":"citizenM","brand:wikidata":"Q5122531","name":"citizenM","tourism":"hotel"}},"tourism/hotel/daysinn-a89235":{"name":"Days Inn","locationSet":{"include":["ca","ch","gb","id","in","kr","mx","my","ph","sg","sn","th","us"]},"geometry":["point","area"],"matchScore":2,"terms":["days inn"],"fields":["name","brand","{tourism/hotel}"],"tags":{"brand:wikidata":"Q1047239","tourism":"hotel"},"addTags":{"brand":"Days Inn","brand:wikidata":"Q1047239","name":"Days Inn","tourism":"hotel"}},"tourism/hotel/dorint-be5b30":{"name":"Dorint","locationSet":{"include":["at","ch","de"]},"geometry":["point","area"],"matchScore":2,"terms":["dorint"],"fields":["name","brand","{tourism/hotel}"],"tags":{"brand:wikidata":"Q1700015","tourism":"hotel"},"addTags":{"brand":"Dorint","brand:wikidata":"Q1700015","name":"Dorint","tourism":"hotel"}},"tourism/hotel/intercityhotel-360354":{"name":"IntercityHotel","locationSet":{"include":["at","ch","cn","de","nl","om","sa"]},"geometry":["point","area"],"matchScore":2,"terms":["intercityhotel"],"fields":["name","brand","{tourism/hotel}"],"tags":{"brand:wikidata":"Q73642490","tourism":"hotel"},"addTags":{"brand":"IntercityHotel","brand:wikidata":"Q73642490","name":"IntercityHotel","tourism":"hotel"}},"tourism/hotel/leonardoboutique-97784d":{"name":"Leonardo Boutique","locationSet":{"include":["ch","de","es","hu","il","nl"]},"geometry":["point","area"],"matchScore":2,"terms":["leonardo boutique"],"fields":["name","brand","{tourism/hotel}"],"tags":{"brand:wikidata":"Q1819101","tourism":"hotel"},"addTags":{"brand":"Leonardo Boutique","brand:wikidata":"Q1819101","name":"Leonardo Boutique","tourism":"hotel"}},"tourism/hotel/motelone-046fe6":{"name":"Motel One","locationSet":{"include":["by","bg","cz","hu","pl","md","ro","ru","sk","ua","ax","gg","je","cq","dk","ee","fo","fi","is","ie","im","lv","lt","no","sj","se","gb","al","ad","ba","hr","gi","gr","va","it","mt","me","mk","pt","sm","rs","si","es","xk","at","be","fr","de","li","lu","mc","nl","ch"]},"geometry":["point","area"],"matchScore":2,"terms":["motel one"],"fields":["name","brand","{tourism/hotel}"],"tags":{"brand:wikidata":"Q391080","tourism":"hotel"},"addTags":{"brand":"Motel One","brand:wikidata":"Q391080","name":"Motel One","tourism":"hotel"}},"tourism/hotel/nhhotel-e9b4fb":{"name":"NH Hotels","locationSet":{"include":["ad","ar","at","be","br","ch","cl","co","cu","cz","de","es","fr","hu","it","lu","mx","nl","pl","pt"]},"geometry":["point","area"],"matchScore":2,"terms":["nh hotels"],"fields":["name","brand","{tourism/hotel}"],"tags":{"brand:wikidata":"Q1604631","tourism":"hotel"},"addTags":{"brand":"NH Hotels","brand:wikidata":"Q1604631","name":"NH Hotel","tourism":"hotel"}},"tourism/hotel/yotel-ebcca5":{"name":"YOTEL","locationSet":{"include":["ae","ch","fx","gb","nl","pt","sg","tr","us-ca","us-dc","us-fl","us-ma","us-ny"]},"geometry":["point","area"],"matchScore":2,"terms":["yotel"],"fields":["name","brand","{tourism/hotel}"],"tags":{"brand:wikidata":"Q8046002","tourism":"hotel"},"addTags":{"brand":"YOTEL","brand:wikidata":"Q8046002","name":"YOTEL","tourism":"hotel"}},"amenity/car_sharing/mobility-488f3c":{"name":"Mobility","locationSet":{"include":["ch"]},"geometry":["point","area"],"matchScore":2,"terms":["mobility","mobility genossenschaft"],"tags":{"amenity":"car_sharing","operator:wikidata":"Q692400"},"addTags":{"amenity":"car_sharing","operator":"Mobility","operator:wikidata":"Q692400"}},"amenity/charging_station/agrola-086737":{"name":"Agrola","locationSet":{"include":["ch"]},"geometry":["point","area"],"matchScore":2,"terms":["agrola"],"fields":["name","operator","{amenity/charging_station}"],"tags":{"amenity":"charging_station","operator:wikidata":"Q397351"},"addTags":{"amenity":"charging_station","operator":"Agrola","operator:wikidata":"Q397351"}},"amenity/charging_station/bikeenergy-9f519a":{"name":"bike-energy","locationSet":{"include":["at","ch","de","fr","it","lu"]},"geometry":["point","area"],"matchScore":2,"terms":["bike-energy","bike-energy ladestation"],"fields":["name","operator","{amenity/charging_station}"],"tags":{"amenity":"charging_station","operator:wikidata":"Q67770877"},"addTags":{"amenity":"charging_station","brand":"bike-energy","brand:wikidata":"Q67770877","name":"bike-energy","operator":"bike-energy","operator:wikidata":"Q67770877"}},"amenity/charging_station/eon-7f623e":{"name":"E.ON","locationSet":{"include":["by","bg","cz","hu","pl","md","ro","ru","sk","ua","ax","gg","je","cq","dk","ee","fo","fi","is","ie","im","lv","lt","no","sj","se","gb","al","ad","ba","hr","gi","gr","va","it","mt","me","mk","pt","sm","rs","si","es","xk","at","be","fr","de","li","lu","mc","nl","ch"]},"geometry":["point","area"],"matchScore":2,"terms":["e-on drive","e.on"],"fields":["name","operator","{amenity/charging_station}"],"tags":{"amenity":"charging_station","operator:wikidata":"Q270223"},"addTags":{"amenity":"charging_station","operator":"E.ON","operator:wikidata":"Q270223"}},"amenity/charging_station/ecarup-086737":{"name":"eCarUp","locationSet":{"include":["ch"]},"geometry":["point","area"],"matchScore":2,"terms":["ecarup"],"fields":["name","operator","{amenity/charging_station}"],"tags":{"amenity":"charging_station","operator:wikidata":"Q113192759"},"addTags":{"amenity":"charging_station","operator":"eCarUp","operator:wikidata":"Q113192759"}},"amenity/charging_station/energiedienst-61c5f2":{"name":"Energiedienst","locationSet":{"include":["ch","de"]},"geometry":["point","area"],"matchScore":2,"terms":["energiedienst"],"fields":["name","operator","{amenity/charging_station}"],"tags":{"amenity":"charging_station","operator:wikidata":"Q1341261"},"addTags":{"amenity":"charging_station","operator":"Energiedienst","operator:wikidata":"Q1341261"}},"amenity/charging_station/energieservicebielbienne-086737":{"name":"ESB (Switzerland)","locationSet":{"include":["ch"]},"geometry":["point","area"],"matchScore":2,"terms":["energie service biel / bienne","esb"],"fields":["name","operator","{amenity/charging_station}"],"tags":{"amenity":"charging_station","operator:wikidata":"Q96755178"},"addTags":{"amenity":"charging_station","operator":"Energie Service Biel / Bienne","operator:short":"ESB","operator:wikidata":"Q96755178"}},"amenity/charging_station/evbox-7f623e":{"name":"EVBox","locationSet":{"include":["by","bg","cz","hu","pl","md","ro","ru","sk","ua","ax","gg","je","cq","dk","ee","fo","fi","is","ie","im","lv","lt","no","sj","se","gb","al","ad","ba","hr","gi","gr","va","it","mt","me","mk","pt","sm","rs","si","es","xk","at","be","fr","de","li","lu","mc","nl","ch"]},"geometry":["point","area"],"matchScore":2,"terms":["evbox"],"fields":["name","operator","{amenity/charging_station}"],"tags":{"amenity":"charging_station","operator:wikidata":"Q28406392"},"addTags":{"amenity":"charging_station","operator":"EVBox","operator:wikidata":"Q28406392"}},"amenity/charging_station/evpass-086737":{"name":"evpass","locationSet":{"include":["ch"]},"geometry":["point","area"],"matchScore":2,"terms":["evpass"],"fields":["name","operator","{amenity/charging_station}"],"tags":{"amenity":"charging_station","operator:wikidata":"Q113270804"},"addTags":{"amenity":"charging_station","operator":"evpass","operator:wikidata":"Q113270804"}},"amenity/charging_station/greenmotion-086737":{"name":"Green Motion","locationSet":{"include":["ch"]},"geometry":["point","area"],"matchScore":2,"terms":["green motion","green motion sa"],"fields":["name","operator","{amenity/charging_station}"],"tags":{"amenity":"charging_station","operator:wikidata":"Q86664476"},"addTags":{"amenity":"charging_station","operator":"Green Motion","operator:wikidata":"Q86664476"}},"amenity/charging_station/groupee-086737":{"name":"Groupe E","locationSet":{"include":["ch"]},"geometry":["point","area"],"matchScore":2,"terms":["groupe e"],"fields":["name","operator","{amenity/charging_station}"],"tags":{"amenity":"charging_station","operator:wikidata":"Q1547733"},"addTags":{"amenity":"charging_station","operator":"Groupe E","operator:wikidata":"Q1547733"}},"amenity/charging_station/iwb-086737":{"name":"IWB","locationSet":{"include":["ch"]},"geometry":["point","area"],"matchScore":2,"terms":["iwb"],"fields":["name","operator","{amenity/charging_station}"],"tags":{"amenity":"charging_station","operator:wikidata":"Q1303238"},"addTags":{"amenity":"charging_station","operator":"IWB","operator:wikidata":"Q1303238"}},"amenity/charging_station/move-086737":{"name":"MOVE","locationSet":{"include":["ch"]},"geometry":["point","area"],"matchScore":2,"terms":["move"],"fields":["name","operator","{amenity/charging_station}"],"tags":{"amenity":"charging_station","operator:wikidata":"Q110278557"},"addTags":{"amenity":"charging_station","operator":"MOVE","operator:wikidata":"Q110278557"}},"amenity/charging_station/naturenergie-61c5f2":{"name":"NaturEnergie","locationSet":{"include":["ch","de"]},"geometry":["point","area"],"matchScore":2,"terms":["naturenergie"],"fields":["name","operator","{amenity/charging_station}"],"tags":{"amenity":"charging_station","operator:wikidata":"Q1285415"},"addTags":{"amenity":"charging_station","operator":"NaturEnergie","operator:wikidata":"Q1285415"}},"amenity/charging_station/qpark-7f623e":{"name":"Q-Park","locationSet":{"include":["by","bg","cz","hu","pl","md","ro","ru","sk","ua","ax","gg","je","cq","dk","ee","fo","fi","is","ie","im","lv","lt","no","sj","se","gb","al","ad","ba","hr","gi","gr","va","it","mt","me","mk","pt","sm","rs","si","es","xk","at","be","fr","de","li","lu","mc","nl","ch"]},"geometry":["point","area"],"matchScore":2,"terms":["q-park"],"fields":["name","operator","{amenity/charging_station}"],"tags":{"amenity":"charging_station","operator:wikidata":"Q1127798"},"addTags":{"amenity":"charging_station","operator":"Q-Park","operator:wikidata":"Q1127798"}},"amenity/charging_station/repower-c58b31":{"name":"Repower","locationSet":{"include":["ch","it"]},"geometry":["point","area"],"matchScore":2,"terms":["repower","repower ag"],"fields":["name","operator","{amenity/charging_station}"],"tags":{"amenity":"charging_station","operator:wikidata":"Q674712"},"addTags":{"amenity":"charging_station","operator":"Repower","operator:wikidata":"Q674712"}},"amenity/charging_station/sak-086737":{"name":"SAK","locationSet":{"include":["ch"]},"geometry":["point","area"],"matchScore":2,"terms":["sak"],"fields":["name","operator","{amenity/charging_station}"],"tags":{"amenity":"charging_station","operator:wikidata":"Q2318302"},"addTags":{"amenity":"charging_station","operator":"SAK","operator:wikidata":"Q2318302"}},"amenity/charging_station/swisscharge-086737":{"name":"Swisscharge","locationSet":{"include":["ch"]},"geometry":["point","area"],"matchScore":2,"terms":["swisscharge"],"fields":["name","operator","{amenity/charging_station}"],"tags":{"amenity":"charging_station","operator:wikidata":"Q113162249"},"addTags":{"amenity":"charging_station","operator":"Swisscharge","operator:wikidata":"Q113162249"}},"amenity/drinking_water/wvz-a1fadc":{"name":"WVZ","locationSet":{"include":["ch"]},"geometry":["point"],"matchScore":2,"terms":["wvz"],"tags":{"amenity":"drinking_water","operator:wikidata":"Q27229237"},"addTags":{"amenity":"drinking_water","operator":"WVZ","operator:wikidata":"Q27229237"}},"amenity/hospital/ameos-98b222":{"name":"Ameos","locationSet":{"include":["at","ch","de"]},"geometry":["area","point"],"matchScore":2,"terms":["ameos"],"fields":["name","operator","{amenity/hospital}"],"reference":{"key":"amenity","value":"hospital"},"tags":{"amenity":"hospital","operator:wikidata":"Q462865"},"addTags":{"amenity":"hospital","healthcare":"hospital","operator":"Ameos","operator:wikidata":"Q462865"}},"amenity/hospital/mediclinic-97e588":{"name":"Mediclinic","locationSet":{"include":["ae","ch","na","za"]},"geometry":["area","point"],"matchScore":2,"terms":["mediclinic"],"fields":["name","operator","{amenity/hospital}"],"reference":{"key":"amenity","value":"hospital"},"tags":{"amenity":"hospital","operator:wikidata":"Q1916123"},"addTags":{"amenity":"hospital","healthcare":"hospital","operator":"Mediclinic","operator:wikidata":"Q1916123"}},"amenity/parking/apcoaparking-e752ad":{"name":"Apcoa Parking","locationSet":{"include":["at","be","ch","de","dk","gb","ie","it","nl","no","pl","se"]},"geometry":["area","point","vertex"],"matchScore":2,"terms":["apcoa parking"],"fields":["name","operator","{amenity/parking}"],"tags":{"amenity":"parking","operator:wikidata":"Q296108"},"addTags":{"amenity":"parking","operator":"APCOA Parking","operator:wikidata":"Q296108"}},"amenity/police/kantonspolizeibern-e64270":{"name":"Kantonspolizei Bern","locationSet":{"include":["ch"]},"geometry":["point","area"],"matchScore":2,"terms":["kantonspolizei bern"],"tags":{"amenity":"police","operator:wikidata":"Q1728095"},"addTags":{"amenity":"police","operator":"Kantonspolizei Bern","operator:wikidata":"Q1728095"}},"amenity/police/kantonspolizeithurgau-e64270":{"name":"Kantonspolizei Thurgau","locationSet":{"include":["ch"]},"geometry":["point","area"],"matchScore":2,"terms":["kantonspolizei thurgau"],"tags":{"amenity":"police","operator:wikidata":"Q56705297"},"addTags":{"amenity":"police","operator":"Kantonspolizei Thurgau","operator:wikidata":"Q56705297"}},"amenity/police/kantonspolizeizurich-e64270":{"name":"Kantonspolizei Zürich","locationSet":{"include":["ch"]},"geometry":["point","area"],"matchScore":2,"terms":["kantonspolizei zürich"],"tags":{"amenity":"police","operator:wikidata":"Q1728099"},"addTags":{"amenity":"police","operator":"Kantonspolizei Zürich","operator:wikidata":"Q1728099"}},"amenity/police/luzernerpolizei-e64270":{"name":"Luzerner Polizei","locationSet":{"include":["ch"]},"geometry":["point","area"],"matchScore":2,"terms":["luzerner polizei"],"tags":{"amenity":"police","operator:wikidata":"Q56704080"},"addTags":{"amenity":"police","operator":"Luzerner Polizei","operator:wikidata":"Q56704080"}},"amenity/police/stadtpolizeizurich-e64270":{"name":"Stadtpolizei Zürich","locationSet":{"include":["ch"]},"geometry":["point","area"],"matchScore":2,"terms":["stadtpolizei zürich"],"tags":{"amenity":"police","operator:wikidata":"Q2327949"},"addTags":{"amenity":"police","operator":"Stadtpolizei Zürich","operator:wikidata":"Q2327949"}},"amenity/post_box/volg-c6967d":{"name":"Volg","locationSet":{"include":["ch"]},"geometry":["point","vertex"],"matchScore":2,"terms":["volg"],"tags":{"amenity":"post_box","operator:wikidata":"Q2530746"},"addTags":{"amenity":"post_box","operator":"Volg","operator:wikidata":"Q2530746"}},"amenity/post_box/diepost-c6967d":{"name":"Die Post","locationSet":{"include":["ch"]},"geometry":["point","vertex"],"matchScore":2,"terms":["die post","die schweizerische post","die schweizerische post ag","la posta","la poste","la poste suisse sa","post ch ag","schweizerische post","schweizerische post ag","swiss post"],"tags":{"amenity":"post_box","operator:wikidata":"Q614803"},"addTags":{"amenity":"post_box","colour":"yellow","operator":"Die Post","operator:de":"Die Post","operator:en":"Swiss Post","operator:fr":"La Poste","operator:it":"La Posta","operator:rm":"La Posta","operator:wikidata":"Q614803"}},"amenity/post_office/diepost-62a267":{"name":"Die Post","locationSet":{"include":["ch"]},"geometry":["point","area"],"matchScore":2,"terms":["die post","die schweizerische post","die schweizerische post ag","la posta","la poste","la poste suisse sa","post ch ag","schweizerische post","schweizerische post ag","swiss post"],"fields":["name","operator","{amenity/post_office}"],"tags":{"amenity":"post_office","operator:wikidata":"Q614803"},"addTags":{"amenity":"post_office","operator":"Die Post","operator:de":"Die Post","operator:en":"Swiss Post","operator:fr":"La Poste","operator:it":"La Posta","operator:rm":"La Posta","operator:wikidata":"Q614803"}},"amenity/post_office/volg-62a267":{"name":"Volg","locationSet":{"include":["ch"]},"geometry":["point","area"],"matchScore":2,"terms":["volg"],"fields":["name","operator","{amenity/post_office}"],"tags":{"amenity":"post_office","operator:wikidata":"Q2530746"},"addTags":{"amenity":"post_office","operator":"Volg","operator:wikidata":"Q2530746"}},"amenity/recycling/texaid-488a54":{"name":"TEXAID","locationSet":{"include":["ch","us"]},"geometry":["point","area"],"matchScore":2,"terms":["texaid"],"tags":{"amenity":"recycling","operator:wikidata":"Q1395183"},"addTags":{"amenity":"recycling","operator":"Texaid","operator:wikidata":"Q1395183"}},"amenity/social_facility/stiftungalterswohnungenderstadtzurich-5de282":{"name":"Stiftung Alterswohnungen der Stadt Zürich","locationSet":{"include":["ch"]},"geometry":["point","area"],"matchScore":2,"terms":["saw","stiftung alterswohnungen der stadt zürich","stiftung alterswohnungen der stadt zürich (saw)"],"tags":{"amenity":"social_facility","operator:wikidata":"Q2348865"},"addTags":{"amenity":"social_facility","operator":"Stiftung Alterswohnungen der Stadt Zürich","operator:short":"SAW","operator:wikidata":"Q2348865"}},"amenity/social_facility/stiftungbrandi-5de282":{"name":"Stiftung Brändi","locationSet":{"include":["ch"]},"geometry":["point","area"],"matchScore":2,"terms":["stiftung brändi"],"tags":{"amenity":"social_facility","operator:wikidata":"Q1246490"},"addTags":{"amenity":"social_facility","operator":"Stiftung Brändi","operator:wikidata":"Q1246490"}},"amenity/social_facility/stiftungfurschwerbehinderteluzernssbl-5de282":{"name":"Stiftung für Schwerbehinderte Luzern - SSBL","locationSet":{"include":["ch"]},"geometry":["point","area"],"matchScore":2,"terms":["ssbl","stiftung für schwerbehinderte luzern - ssbl"],"tags":{"amenity":"social_facility","operator:wikidata":"Q15849287"},"addTags":{"amenity":"social_facility","operator":"Stiftung für Schwerbehinderte Luzern - SSBL","operator:short":"SSBL","operator:wikidata":"Q15849287"}},"amenity/social_facility/stiftungrutimattli-5de282":{"name":"Stiftung Rütimattli","locationSet":{"include":["ch"]},"geometry":["point","area"],"matchScore":2,"terms":["stiftung rütimattli"],"tags":{"amenity":"social_facility","operator:wikidata":"Q1645398"},"addTags":{"amenity":"social_facility","operator":"Stiftung Rütimattli","operator:wikidata":"Q1645398"}},"amenity/telephone/swisscom-2e827a":{"name":"Swisscom","locationSet":{"include":["ch"]},"geometry":["point","vertex"],"matchScore":2,"terms":["swisscom","swisscom (schweiz) ag"],"fields":["name","operator","{amenity/telephone}"],"tags":{"amenity":"telephone","operator:wikidata":"Q644324"},"addTags":{"amenity":"telephone","operator":"Swisscom","operator:wikidata":"Q644324"}},"leisure/nature_reserve/grunstadtzurich-d2125f":{"name":"Grün Stadt Zürich","locationSet":{"include":["ch"]},"geometry":["area","point"],"matchScore":2,"terms":["grün stadt zürich"],"tags":{"leisure":"nature_reserve","operator:wikidata":"Q1551785"},"addTags":{"leisure":"nature_reserve","operator":"Grün Stadt Zürich","operator:type":"public","operator:wikidata":"Q1551785"}},"leisure/park/grunstadtzurich-a987c0":{"name":"Grün Stadt Zürich","locationSet":{"include":["ch"]},"geometry":["area","point"],"matchScore":2,"terms":["grün stadt zürich"],"tags":{"leisure":"park","operator:wikidata":"Q1551785"},"addTags":{"leisure":"park","operator":"Grün Stadt Zürich","operator:type":"public","operator:wikidata":"Q1551785"}},"man_made/pipeline/erdgasostschweizag-e0d926":{"name":"Erdgas Ostschweiz AG","locationSet":{"include":["ch"]},"geometry":["line"],"matchScore":2,"terms":["erdgas ostschweiz ag"],"tags":{"man_made":"pipeline","operator:wikidata":"Q1349174"},"addTags":{"man_made":"pipeline","operator":"Erdgas Ostschweiz AG","operator:wikidata":"Q1349174"}},"man_made/pipeline/gasverbundmittellandag-e0d926":{"name":"Gasverbund Mittelland AG","locationSet":{"include":["ch"]},"geometry":["line"],"matchScore":2,"terms":["gasverbund mittelland","gasverbund mittelland ag","gvm","gvm gasverbund mittelland ag"],"tags":{"man_made":"pipeline","operator:wikidata":"Q1495697"},"addTags":{"man_made":"pipeline","operator":"Gasverbund Mittelland AG","operator:short":"GVM","operator:wikidata":"Q1495697"}},"man_made/pipeline/kraftwerkelinthlimmern-e0d926":{"name":"Kraftwerke Linth-Limmern","locationSet":{"include":["ch"]},"geometry":["line"],"matchScore":2,"terms":["kkl","kraftwerke linth-limmern"],"tags":{"man_made":"pipeline","operator:wikidata":"Q689068"},"addTags":{"man_made":"pipeline","operator":"Kraftwerke Linth-Limmern","operator:short":"KKL","operator:wikidata":"Q689068"}},"man_made/pipeline/regioenergiesolothurn-e0d926":{"name":"Regio Energie Solothurn","locationSet":{"include":["ch"]},"geometry":["line"],"matchScore":2,"terms":["regio energie solothurn"],"tags":{"man_made":"pipeline","operator:wikidata":"Q2138132"},"addTags":{"man_made":"pipeline","operator":"Regio Energie Solothurn","operator:wikidata":"Q2138132"}},"man_made/pipeline/swissgas-e0d926":{"name":"Swissgas","locationSet":{"include":["ch"]},"geometry":["line"],"matchScore":2,"terms":["swissgas"],"tags":{"man_made":"pipeline","operator:wikidata":"Q1429297"},"addTags":{"man_made":"pipeline","operator":"Swissgas","operator:wikidata":"Q1429297"}},"power/generator/axpo-b18b84":{"name":"Axpo","locationSet":{"include":["ch"]},"geometry":["point","vertex","area"],"matchScore":2,"terms":["axpo"],"tags":{"operator:wikidata":"Q792617","power":"generator"},"addTags":{"operator":"Axpo","operator:wikidata":"Q792617","power":"generator"}},"power/generator/innogy-16c9d0":{"name":"Innogy","locationSet":{"include":["by","bg","cz","hu","pl","md","ro","ru","sk","ua","ax","gg","je","cq","dk","ee","fo","fi","is","ie","im","lv","lt","no","sj","se","gb","al","ad","ba","hr","gi","gr","va","it","mt","me","mk","pt","sm","rs","si","es","xk","at","be","fr","de","li","lu","mc","nl","ch"]},"geometry":["point","vertex","area"],"matchScore":2,"terms":["innogy"],"tags":{"operator:wikidata":"Q2124721","power":"generator"},"addTags":{"operator":"Innogy","operator:wikidata":"Q2124721","power":"generator"}},"power/generator/repowerag-b18b84":{"name":"Repower AG","locationSet":{"include":["ch"]},"geometry":["point","vertex","area"],"matchScore":2,"terms":["repower ag"],"tags":{"operator:wikidata":"Q674712","power":"generator"},"addTags":{"operator":"Repower AG","operator:wikidata":"Q674712","power":"generator"}},"power/generator/rwe-16c9d0":{"name":"RWE","locationSet":{"include":["by","bg","cz","hu","pl","md","ro","ru","sk","ua","ax","gg","je","cq","dk","ee","fo","fi","is","ie","im","lv","lt","no","sj","se","gb","al","ad","ba","hr","gi","gr","va","it","mt","me","mk","pt","sm","rs","si","es","xk","at","be","fr","de","li","lu","mc","nl","ch"]},"geometry":["point","vertex","area"],"matchScore":2,"terms":["rwe"],"tags":{"operator:wikidata":"Q138133","power":"generator"},"addTags":{"operator":"RWE","operator:wikidata":"Q138133","power":"generator"}},"power/generator/statkraft-16c9d0":{"name":"Statkraft","locationSet":{"include":["by","bg","cz","hu","pl","md","ro","ru","sk","ua","ax","gg","je","cq","dk","ee","fo","fi","is","ie","im","lv","lt","no","sj","se","gb","al","ad","ba","hr","gi","gr","va","it","mt","me","mk","pt","sm","rs","si","es","xk","at","be","fr","de","li","lu","mc","nl","ch"]},"geometry":["point","vertex","area"],"matchScore":2,"terms":["statkraft"],"tags":{"operator:wikidata":"Q1681145","power":"generator"},"addTags":{"operator":"Statkraft","operator:wikidata":"Q1681145","power":"generator"}},"power/generator/trianel-0e2731":{"name":"Trianel","locationSet":{"include":["at","ch","de","nl"]},"geometry":["point","vertex","area"],"matchScore":2,"terms":["trianel"],"tags":{"operator:wikidata":"Q1517876","power":"generator"},"addTags":{"operator":"Trianel","operator:wikidata":"Q1517876","power":"generator"}},"power/generator/uniper-16c9d0":{"name":"Uniper","locationSet":{"include":["by","bg","cz","hu","pl","md","ro","ru","sk","ua","ax","gg","je","cq","dk","ee","fo","fi","is","ie","im","lv","lt","no","sj","se","gb","al","ad","ba","hr","gi","gr","va","it","mt","me","mk","pt","sm","rs","si","es","xk","at","be","fr","de","li","lu","mc","nl","ch"]},"geometry":["point","vertex","area"],"matchScore":2,"terms":["uniper"],"tags":{"operator:wikidata":"Q19839259","power":"generator"},"addTags":{"operator":"Uniper","operator:wikidata":"Q19839259","power":"generator"}},"power/generator/wpo-16c9d0":{"name":"WPO","locationSet":{"include":["by","bg","cz","hu","pl","md","ro","ru","sk","ua","ax","gg","je","cq","dk","ee","fo","fi","is","ie","im","lv","lt","no","sj","se","gb","al","ad","ba","hr","gi","gr","va","it","mt","me","mk","pt","sm","rs","si","es","xk","at","be","fr","de","li","lu","mc","nl","ch"]},"geometry":["point","vertex","area"],"matchScore":2,"terms":["wpo"],"tags":{"operator:wikidata":"Q64755627","power":"generator"},"addTags":{"operator":"WPO","operator:wikidata":"Q64755627","power":"generator"}},"power/line/aek-34ad9c":{"name":"AEK","locationSet":{"include":["ch"]},"geometry":["line"],"matchScore":2,"terms":["aek"],"tags":{"operator:wikidata":"Q291411","power":"line"},"addTags":{"operator":"AEK","operator:wikidata":"Q291411","power":"line"}},"power/line/aew-34ad9c":{"name":"AEW","locationSet":{"include":["ch"]},"geometry":["line"],"matchScore":2,"terms":["aew","aew energie"],"tags":{"operator:wikidata":"Q291519","power":"line"},"addTags":{"operator":"AEW","operator:wikidata":"Q291519","power":"line"}},"power/line/axpo-ac4ca5":{"name":"Axpo","locationSet":{"include":["ch","li"]},"geometry":["line"],"matchScore":2,"terms":["axpo","axpo ag","nok"],"tags":{"operator:wikidata":"Q679525","power":"line"},"addTags":{"operator":"Axpo","operator:wikidata":"Q679525","power":"line"}},"power/line/bkw-34ad9c":{"name":"BKW","locationSet":{"include":["ch"]},"geometry":["line"],"matchScore":2,"terms":["bkw"],"tags":{"operator:wikidata":"Q670895","power":"line"},"addTags":{"operator":"BKW","operator:wikidata":"Q670895","power":"line"}},"power/line/ekt-34ad9c":{"name":"EKT","locationSet":{"include":["ch"]},"geometry":["line"],"matchScore":2,"terms":["ekt"],"tags":{"operator:wikidata":"Q1275010","power":"line"},"addTags":{"operator":"EKT","operator:wikidata":"Q1275010","power":"line"}},"power/line/ewz-34ad9c":{"name":"EWZ","locationSet":{"include":["ch"]},"geometry":["line"],"matchScore":2,"terms":["ewz"],"tags":{"operator:wikidata":"Q1326645","power":"line"},"addTags":{"operator":"EWZ","operator:wikidata":"Q1326645","power":"line"}},"power/line/groupee-34ad9c":{"name":"Groupe E","locationSet":{"include":["ch"]},"geometry":["line"],"matchScore":2,"terms":["groupe e"],"tags":{"operator:wikidata":"Q1547733","power":"line"},"addTags":{"operator":"Groupe E","operator:wikidata":"Q1547733","power":"line"}},"power/line/romandeenergie-34ad9c":{"name":"Romande Energie","locationSet":{"include":["ch"]},"geometry":["line"],"matchScore":2,"terms":["romande energie"],"tags":{"operator:wikidata":"Q3441016","power":"line"},"addTags":{"operator":"Romande Energie","operator:wikidata":"Q3441016","power":"line"}},"power/line/sbb-34ad9c":{"name":"SBB","locationSet":{"include":["ch"]},"geometry":["line"],"matchScore":2,"terms":["sbb"],"tags":{"operator:wikidata":"Q83835","power":"line"},"addTags":{"operator":"SBB","operator:wikidata":"Q83835","power":"line"}},"power/line/sig-34ad9c":{"name":"SIG","locationSet":{"include":["ch"]},"geometry":["line"],"matchScore":2,"terms":["sig"],"tags":{"operator:wikidata":"Q3480520","power":"line"},"addTags":{"operator":"SIG","operator:wikidata":"Q3480520","power":"line"}},"power/line/swissgrid-34ad9c":{"name":"Swissgrid","locationSet":{"include":["ch"]},"geometry":["line"],"matchScore":2,"terms":["swissgrid"],"tags":{"operator:wikidata":"Q2373251","power":"line"},"addTags":{"operator":"Swissgrid","operator:wikidata":"Q2373251","power":"line"}},"power/minor_line/aek-ee442c":{"name":"AEK","locationSet":{"include":["ch"]},"geometry":["line"],"matchScore":2,"terms":["aek"],"tags":{"operator:wikidata":"Q291411","power":"minor_line"},"addTags":{"operator":"AEK","operator:wikidata":"Q291411","power":"minor_line"}},"power/minor_line/aew-ee442c":{"name":"AEW","locationSet":{"include":["ch"]},"geometry":["line"],"matchScore":2,"terms":["aew","aew energie"],"tags":{"operator:wikidata":"Q291519","power":"minor_line"},"addTags":{"operator":"AEW","operator:wikidata":"Q291519","power":"minor_line"}},"power/minor_line/axpo-3c6d24":{"name":"Axpo","locationSet":{"include":["ch","li"]},"geometry":["line"],"matchScore":2,"terms":["axpo","axpo ag","nok"],"tags":{"operator:wikidata":"Q679525","power":"minor_line"},"addTags":{"operator":"Axpo","operator:wikidata":"Q679525","power":"minor_line"}},"power/minor_line/bkw-ee442c":{"name":"BKW","locationSet":{"include":["ch"]},"geometry":["line"],"matchScore":2,"terms":["bkw"],"tags":{"operator:wikidata":"Q670895","power":"minor_line"},"addTags":{"operator":"BKW","operator:wikidata":"Q670895","power":"minor_line"}},"power/minor_line/ekt-ee442c":{"name":"EKT","locationSet":{"include":["ch"]},"geometry":["line"],"matchScore":2,"terms":["ekt"],"tags":{"operator:wikidata":"Q1275010","power":"minor_line"},"addTags":{"operator":"EKT","operator:wikidata":"Q1275010","power":"minor_line"}},"power/minor_line/ewz-ee442c":{"name":"EWZ","locationSet":{"include":["ch"]},"geometry":["line"],"matchScore":2,"terms":["ewz"],"tags":{"operator:wikidata":"Q1326645","power":"minor_line"},"addTags":{"operator":"EWZ","operator:wikidata":"Q1326645","power":"minor_line"}},"power/minor_line/groupee-ee442c":{"name":"Groupe E","locationSet":{"include":["ch"]},"geometry":["line"],"matchScore":2,"terms":["groupe e"],"tags":{"operator:wikidata":"Q1547733","power":"minor_line"},"addTags":{"operator":"Groupe E","operator:wikidata":"Q1547733","power":"minor_line"}},"power/minor_line/romandeenergie-ee442c":{"name":"Romande Energie","locationSet":{"include":["ch"]},"geometry":["line"],"matchScore":2,"terms":["romande energie"],"tags":{"operator:wikidata":"Q3441016","power":"minor_line"},"addTags":{"operator":"Romande Energie","operator:wikidata":"Q3441016","power":"minor_line"}},"power/minor_line/sbb-ee442c":{"name":"SBB","locationSet":{"include":["ch"]},"geometry":["line"],"matchScore":2,"terms":["sbb"],"tags":{"operator:wikidata":"Q83835","power":"minor_line"},"addTags":{"operator":"SBB","operator:wikidata":"Q83835","power":"minor_line"}},"power/minor_line/sig-ee442c":{"name":"SIG","locationSet":{"include":["ch"]},"geometry":["line"],"matchScore":2,"terms":["sig"],"tags":{"operator:wikidata":"Q3480520","power":"minor_line"},"addTags":{"operator":"SIG","operator:wikidata":"Q3480520","power":"minor_line"}},"power/minor_line/swissgrid-ee442c":{"name":"Swissgrid","locationSet":{"include":["ch"]},"geometry":["line"],"matchScore":2,"terms":["swissgrid"],"tags":{"operator:wikidata":"Q2373251","power":"minor_line"},"addTags":{"operator":"Swissgrid","operator:wikidata":"Q2373251","power":"minor_line"}},"power/pole/aek-84ac21":{"name":"AEK","locationSet":{"include":["ch"]},"geometry":["point","vertex"],"matchScore":2,"terms":["aek"],"tags":{"operator:wikidata":"Q291411","power":"pole"},"addTags":{"operator":"AEK","operator:wikidata":"Q291411","power":"pole"}},"power/pole/aew-84ac21":{"name":"AEW","locationSet":{"include":["ch"]},"geometry":["point","vertex"],"matchScore":2,"terms":["aew","aew energie"],"tags":{"operator:wikidata":"Q291519","power":"pole"},"addTags":{"operator":"AEW","operator:wikidata":"Q291519","power":"pole"}},"power/pole/axpo-fbb9cb":{"name":"Axpo","locationSet":{"include":["ch","li"]},"geometry":["point","vertex"],"matchScore":2,"terms":["axpo","axpo ag","nok"],"tags":{"operator:wikidata":"Q679525","power":"pole"},"addTags":{"operator":"Axpo","operator:wikidata":"Q679525","power":"pole"}},"power/pole/bkw-84ac21":{"name":"BKW","locationSet":{"include":["ch"]},"geometry":["point","vertex"],"matchScore":2,"terms":["bkw"],"tags":{"operator:wikidata":"Q670895","power":"pole"},"addTags":{"operator":"BKW","operator:wikidata":"Q670895","power":"pole"}},"power/pole/ekt-84ac21":{"name":"EKT","locationSet":{"include":["ch"]},"geometry":["point","vertex"],"matchScore":2,"terms":["ekt"],"tags":{"operator:wikidata":"Q1275010","power":"pole"},"addTags":{"operator":"EKT","operator:wikidata":"Q1275010","power":"pole"}},"power/pole/ewz-84ac21":{"name":"EWZ","locationSet":{"include":["ch"]},"geometry":["point","vertex"],"matchScore":2,"terms":["ewz"],"tags":{"operator:wikidata":"Q1326645","power":"pole"},"addTags":{"operator":"EWZ","operator:wikidata":"Q1326645","power":"pole"}},"power/pole/groupee-84ac21":{"name":"Groupe E","locationSet":{"include":["ch"]},"geometry":["point","vertex"],"matchScore":2,"terms":["groupe e"],"tags":{"operator:wikidata":"Q1547733","power":"pole"},"addTags":{"operator":"Groupe E","operator:wikidata":"Q1547733","power":"pole"}},"power/pole/romandeenergie-84ac21":{"name":"Romande Energie","locationSet":{"include":["ch"]},"geometry":["point","vertex"],"matchScore":2,"terms":["romande energie"],"tags":{"operator:wikidata":"Q3441016","power":"pole"},"addTags":{"operator":"Romande Energie","operator:wikidata":"Q3441016","power":"pole"}},"power/pole/sbb-84ac21":{"name":"SBB","locationSet":{"include":["ch"]},"geometry":["point","vertex"],"matchScore":2,"terms":["sbb"],"tags":{"operator:wikidata":"Q83835","power":"pole"},"addTags":{"operator":"SBB","operator:wikidata":"Q83835","power":"pole"}},"power/pole/sig-84ac21":{"name":"SIG","locationSet":{"include":["ch"]},"geometry":["point","vertex"],"matchScore":2,"terms":["sig"],"tags":{"operator:wikidata":"Q3480520","power":"pole"},"addTags":{"operator":"SIG","operator:wikidata":"Q3480520","power":"pole"}},"power/pole/swissgrid-84ac21":{"name":"Swissgrid","locationSet":{"include":["ch"]},"geometry":["point","vertex"],"matchScore":2,"terms":["swissgrid"],"tags":{"operator:wikidata":"Q2373251","power":"pole"},"addTags":{"operator":"Swissgrid","operator:wikidata":"Q2373251","power":"pole"}},"power/substation/aew-dc04c1":{"name":"AEW","locationSet":{"include":["ch"]},"geometry":["area","point"],"matchScore":2,"terms":["aew","aew energie"],"tags":{"operator:wikidata":"Q291519","power":"substation"},"addTags":{"operator":"AEW","operator:wikidata":"Q291519","power":"substation"}},"power/substation/axpoekz-dc04c1":{"name":"Axpo/EKZ","locationSet":{"include":["ch"]},"geometry":["area","point"],"matchScore":2,"terms":["axpo/ekz"],"tags":{"operator:wikidata":"Q679525","power":"substation"},"addTags":{"operator":"Axpo/EKZ","operator:wikidata":"Q679525","power":"substation"}},"power/substation/bkw-dc04c1":{"name":"BKW","locationSet":{"include":["ch"]},"geometry":["area","point"],"matchScore":2,"terms":["bkw"],"tags":{"operator:wikidata":"Q670895","power":"substation"},"addTags":{"operator":"BKW","operator:wikidata":"Q670895","power":"substation"}},"power/substation/ednetze-363096":{"name":"ED Netze","locationSet":{"include":["ch","de"]},"geometry":["area","point"],"matchScore":2,"terms":["ed netze"],"tags":{"operator:wikidata":"Q1341261","power":"substation"},"addTags":{"operator":"ED Netze","operator:wikidata":"Q1341261","power":"substation"}},"power/substation/ekt-dc04c1":{"name":"EKT","locationSet":{"include":["ch"]},"geometry":["area","point"],"matchScore":2,"terms":["ekt"],"tags":{"operator:wikidata":"Q1275010","power":"substation"},"addTags":{"operator":"EKT","operator:wikidata":"Q1275010","power":"substation"}},"power/substation/ekz-dc04c1":{"name":"EKZ","locationSet":{"include":["ch"]},"geometry":["area","point"],"matchScore":2,"terms":["ekz"],"tags":{"operator:wikidata":"Q1326642","power":"substation"},"addTags":{"operator":"EKZ","operator:wikidata":"Q1326642","power":"substation"}},"power/substation/ewz-dc04c1":{"name":"EWZ","locationSet":{"include":["ch"]},"geometry":["area","point"],"matchScore":2,"terms":["ewz"],"tags":{"operator:wikidata":"Q1326645","power":"substation"},"addTags":{"operator":"EWZ","operator:wikidata":"Q1326645","power":"substation"}},"power/substation/groupee-dc04c1":{"name":"Groupe E","locationSet":{"include":["ch"]},"geometry":["area","point"],"matchScore":2,"terms":["groupe e"],"tags":{"operator:wikidata":"Q1547733","power":"substation"},"addTags":{"operator":"Groupe E","operator:wikidata":"Q1547733","power":"substation"}},"power/substation/sak-dc04c1":{"name":"SAK","locationSet":{"include":["ch"]},"geometry":["area","point"],"matchScore":2,"terms":["sak"],"tags":{"operator:wikidata":"Q2318302","power":"substation"},"addTags":{"operator":"SAK","operator:wikidata":"Q2318302","power":"substation"}},"power/substation/sbb-dc04c1":{"name":"SBB","locationSet":{"include":["ch"]},"geometry":["area","point"],"matchScore":2,"terms":["sbb"],"tags":{"operator:wikidata":"Q83835","power":"substation"},"addTags":{"operator":"SBB","operator:wikidata":"Q83835","power":"substation"}},"power/substation/swissgrid-dc04c1":{"name":"Swissgrid","locationSet":{"include":["ch"]},"geometry":["area","point"],"matchScore":2,"terms":["swissgrid"],"tags":{"operator:wikidata":"Q2373251","power":"substation"},"addTags":{"operator":"Swissgrid","operator:wikidata":"Q2373251","power":"substation"}},"power/tower/aek-1670a6":{"name":"AEK","locationSet":{"include":["ch"]},"geometry":["point","vertex"],"matchScore":2,"terms":["aek"],"tags":{"operator:wikidata":"Q291411","power":"tower"},"addTags":{"operator":"AEK","operator:wikidata":"Q291411","power":"tower"}},"power/tower/aew-1670a6":{"name":"AEW","locationSet":{"include":["ch"]},"geometry":["point","vertex"],"matchScore":2,"terms":["aew","aew energie"],"tags":{"operator:wikidata":"Q291519","power":"tower"},"addTags":{"operator":"AEW","operator:wikidata":"Q291519","power":"tower"}},"power/tower/axpo-fb5d52":{"name":"Axpo","locationSet":{"include":["ch","li"]},"geometry":["point","vertex"],"matchScore":2,"terms":["axpo","axpo ag","nok"],"tags":{"operator:wikidata":"Q679525","power":"tower"},"addTags":{"operator":"Axpo","operator:wikidata":"Q679525","power":"tower"}},"power/tower/bkw-1670a6":{"name":"BKW","locationSet":{"include":["ch"]},"geometry":["point","vertex"],"matchScore":2,"terms":["bkw"],"tags":{"operator:wikidata":"Q670895","power":"tower"},"addTags":{"operator":"BKW","operator:wikidata":"Q670895","power":"tower"}},"power/tower/ekt-1670a6":{"name":"EKT","locationSet":{"include":["ch"]},"geometry":["point","vertex"],"matchScore":2,"terms":["ekt"],"tags":{"operator:wikidata":"Q1275010","power":"tower"},"addTags":{"operator":"EKT","operator:wikidata":"Q1275010","power":"tower"}},"power/tower/ewz-1670a6":{"name":"EWZ","locationSet":{"include":["ch"]},"geometry":["point","vertex"],"matchScore":2,"terms":["ewz"],"tags":{"operator:wikidata":"Q1326645","power":"tower"},"addTags":{"operator":"EWZ","operator:wikidata":"Q1326645","power":"tower"}},"power/tower/groupee-1670a6":{"name":"Groupe E","locationSet":{"include":["ch"]},"geometry":["point","vertex"],"matchScore":2,"terms":["groupe e"],"tags":{"operator:wikidata":"Q1547733","power":"tower"},"addTags":{"operator":"Groupe E","operator:wikidata":"Q1547733","power":"tower"}},"power/tower/romandeenergie-1670a6":{"name":"Romande Energie","locationSet":{"include":["ch"]},"geometry":["point","vertex"],"matchScore":2,"terms":["romande energie"],"tags":{"operator:wikidata":"Q3441016","power":"tower"},"addTags":{"operator":"Romande Energie","operator:wikidata":"Q3441016","power":"tower"}},"power/tower/sbb-1670a6":{"name":"SBB","locationSet":{"include":["ch"]},"geometry":["point","vertex"],"matchScore":2,"terms":["sbb"],"tags":{"operator:wikidata":"Q83835","power":"tower"},"addTags":{"operator":"SBB","operator:wikidata":"Q83835","power":"tower"}},"power/tower/sig-1670a6":{"name":"SIG","locationSet":{"include":["ch"]},"geometry":["point","vertex"],"matchScore":2,"terms":["sig"],"tags":{"operator:wikidata":"Q3480520","power":"tower"},"addTags":{"operator":"SIG","operator:wikidata":"Q3480520","power":"tower"}},"power/tower/swissgrid-1670a6":{"name":"Swissgrid","locationSet":{"include":["ch"]},"geometry":["point","vertex"],"matchScore":2,"terms":["swissgrid"],"tags":{"operator:wikidata":"Q2373251","power":"tower"},"addTags":{"operator":"Swissgrid","operator:wikidata":"Q2373251","power":"tower"}},"power/transformer/aew-b75b2e":{"name":"AEW","locationSet":{"include":["ch"]},"geometry":["point","vertex"],"matchScore":2,"terms":["aew","aew energie"],"tags":{"operator:wikidata":"Q291519","power":"transformer"},"addTags":{"operator":"AEW","operator:wikidata":"Q291519","power":"transformer"}},"power/transformer/axpoekz-b75b2e":{"name":"Axpo/EKZ","locationSet":{"include":["ch"]},"geometry":["point","vertex"],"matchScore":2,"terms":["axpo/ekz"],"tags":{"operator:wikidata":"Q679525","power":"transformer"},"addTags":{"operator":"Axpo/EKZ","operator:wikidata":"Q679525","power":"transformer"}},"power/transformer/bkw-b75b2e":{"name":"BKW","locationSet":{"include":["ch"]},"geometry":["point","vertex"],"matchScore":2,"terms":["bkw"],"tags":{"operator:wikidata":"Q670895","power":"transformer"},"addTags":{"operator":"BKW","operator:wikidata":"Q670895","power":"transformer"}},"power/transformer/ednetze-0b6a24":{"name":"ED Netze","locationSet":{"include":["ch","de"]},"geometry":["point","vertex"],"matchScore":2,"terms":["ed netze"],"tags":{"operator:wikidata":"Q1341261","power":"transformer"},"addTags":{"operator":"ED Netze","operator:wikidata":"Q1341261","power":"transformer"}},"power/transformer/ekt-b75b2e":{"name":"EKT","locationSet":{"include":["ch"]},"geometry":["point","vertex"],"matchScore":2,"terms":["ekt"],"tags":{"operator:wikidata":"Q1275010","power":"transformer"},"addTags":{"operator":"EKT","operator:wikidata":"Q1275010","power":"transformer"}},"power/transformer/ekz-b75b2e":{"name":"EKZ","locationSet":{"include":["ch"]},"geometry":["point","vertex"],"matchScore":2,"terms":["ekz"],"tags":{"operator:wikidata":"Q1326642","power":"transformer"},"addTags":{"operator":"EKZ","operator:wikidata":"Q1326642","power":"transformer"}},"power/transformer/ewz-b75b2e":{"name":"EWZ","locationSet":{"include":["ch"]},"geometry":["point","vertex"],"matchScore":2,"terms":["ewz"],"tags":{"operator:wikidata":"Q1326645","power":"transformer"},"addTags":{"operator":"EWZ","operator:wikidata":"Q1326645","power":"transformer"}},"power/transformer/groupee-b75b2e":{"name":"Groupe E","locationSet":{"include":["ch"]},"geometry":["point","vertex"],"matchScore":2,"terms":["groupe e"],"tags":{"operator:wikidata":"Q1547733","power":"transformer"},"addTags":{"operator":"Groupe E","operator:wikidata":"Q1547733","power":"transformer"}},"power/transformer/sak-b75b2e":{"name":"SAK","locationSet":{"include":["ch"]},"geometry":["point","vertex"],"matchScore":2,"terms":["sak"],"tags":{"operator:wikidata":"Q2318302","power":"transformer"},"addTags":{"operator":"SAK","operator:wikidata":"Q2318302","power":"transformer"}},"power/transformer/sbb-b75b2e":{"name":"SBB","locationSet":{"include":["ch"]},"geometry":["point","vertex"],"matchScore":2,"terms":["sbb"],"tags":{"operator:wikidata":"Q83835","power":"transformer"},"addTags":{"operator":"SBB","operator:wikidata":"Q83835","power":"transformer"}},"power/transformer/swissgrid-b75b2e":{"name":"Swissgrid","locationSet":{"include":["ch"]},"geometry":["point","vertex"],"matchScore":2,"terms":["swissgrid"],"tags":{"operator:wikidata":"Q2373251","power":"transformer"},"addTags":{"operator":"Swissgrid","operator:wikidata":"Q2373251","power":"transformer"}},"type/route/power/sbb-98046e":{"name":"SBB","locationSet":{"include":["ch"]},"geometry":["relation"],"matchScore":2,"terms":["sbb"],"reference":{"key":"route","value":"power"},"tags":{"operator:wikidata":"Q83835","route":"power","type":"route"},"addTags":{"operator":"SBB","operator:wikidata":"Q83835","route":"power","type":"route"}},"type/route/railway/sbb-8e443b":{"name":"SBB","locationSet":{"include":["ch"]},"geometry":["relation"],"matchScore":2,"terms":["sbb"],"reference":{"key":"route","value":"railway"},"tags":{"operator:wikidata":"Q83835","route":"railway","type":"route"},"addTags":{"operator":"SBB","operator:wikidata":"Q83835","route":"railway","type":"route"}},"telecom/exchange/interoute-58ec5d":{"name":"Interoute","locationSet":{"include":["by","bg","cz","hu","pl","md","ro","ru","sk","ua","ax","gg","je","cq","dk","ee","fo","fi","is","ie","im","lv","lt","no","sj","se","gb","al","ad","ba","hr","gi","gr","va","it","mt","me","mk","pt","sm","rs","si","es","xk","at","be","fr","de","li","lu","mc","nl","ch"]},"geometry":["point","area"],"matchScore":2,"terms":["interoute"],"fields":["name","operator","{telecom/exchange}"],"tags":{"operator:wikidata":"Q1668090","telecom":"exchange"},"addTags":{"operator":"Interoute","operator:wikidata":"Q1668090","telecom":"exchange"}},"telecom/exchange/lumen-94a439":{"name":"Lumen","locationSet":{"include":["ch","es","fx"]},"geometry":["point","area"],"matchScore":2,"terms":["lumen"],"fields":["name","operator","{telecom/exchange}"],"tags":{"operator:wikidata":"Q5063092","telecom":"exchange"},"addTags":{"operator":"Lumen","operator:wikidata":"Q5063092","telecom":"exchange"}},"telecom/exchange/swisscom-3773d7":{"name":"Swisscom","locationSet":{"include":["ch"]},"geometry":["point","area"],"matchScore":2,"terms":["swisscom"],"fields":["name","operator","{telecom/exchange}"],"tags":{"operator:wikidata":"Q644324","telecom":"exchange"},"addTags":{"operator":"Swisscom","operator:wikidata":"Q644324","telecom":"exchange"}},"public_transport/station_ferry/zurcherverkehrsverbund-cf0fa2":{"name":"Zürcher Verkehrsverbund","locationSet":{"include":["ch"]},"geometry":["vertex","point","area"],"matchScore":2,"terms":["zürcher verkehrsverbund","zvv"],"reference":{"key":"amenity","value":"ferry_terminal"},"tags":{"ferry":"yes","network:wikidata":"Q201977","public_transport":"station"},"addTags":{"amenity":"ferry_terminal","ferry":"yes","network":"Zürcher Verkehrsverbund","network:short":"ZVV","network:wikidata":"Q201977","public_transport":"station"}},"public_transport/platform/bus_point/awelle-4f2c9d":{"name":"A-Welle","locationSet":{"include":["ch"]},"geometry":["point","vertex"],"matchScore":2,"terms":["a-welle","tarifverbund a-welle"],"reference":{"key":"public_transport","value":"platform"},"tags":{"bus":"yes","network:wikidata":"Q105637491","public_transport":"platform"},"addTags":{"bus":"yes","highway":"bus_stop","network":"A-Welle","network:wikidata":"Q105637491","public_transport":"platform"}},"public_transport/platform/bus_point/arcobaleno-da3abc":{"name":"Arcobaleno","locationSet":{"include":["ch","it"]},"geometry":["point","vertex"],"matchScore":2,"terms":["arcobaleno"],"reference":{"key":"public_transport","value":"platform"},"tags":{"bus":"yes","network:wikidata":"Q3685879","public_transport":"platform"},"addTags":{"bus":"yes","highway":"bus_stop","network":"Arcobaleno","network:wikidata":"Q3685879","public_transport":"platform"}},"public_transport/platform/bus_point/bernmobil-4f2c9d":{"name":"Bernmobil","locationSet":{"include":["ch"]},"geometry":["point","vertex"],"matchScore":2,"terms":["bernmobil","städtische verkehrsbetriebe bern","svb"],"reference":{"key":"public_transport","value":"platform"},"tags":{"bus":"yes","network:wikidata":"Q681700","public_transport":"platform"},"addTags":{"bus":"yes","highway":"bus_stop","network":"Bernmobil","network:wikidata":"Q681700","operator":"Städtische Verkehrsbetriebe Bern","operator:short":"SVB","public_transport":"platform"}},"public_transport/platform/bus_point/carsregionhautesavoie-90233a":{"name":"Cars Région Haute-Savoie","locationSet":{"include":["ch","fx"]},"geometry":["point","vertex"],"matchScore":2,"terms":["cars région haute-savoie"],"reference":{"key":"public_transport","value":"platform"},"tags":{"bus":"yes","network:wikidata":"Q3456845","public_transport":"platform"},"addTags":{"bus":"yes","highway":"bus_stop","network":"Cars Région Haute-Savoie","network:wikidata":"Q3456845","public_transport":"platform"}},"public_transport/platform/bus_point/frimobil-4f2c9d":{"name":"Frimobil","locationSet":{"include":["ch"]},"geometry":["point","vertex"],"matchScore":2,"terms":["frimobil","tpf","tvf"],"reference":{"key":"public_transport","value":"platform"},"tags":{"bus":"yes","network:wikidata":"Q2394200","public_transport":"platform"},"addTags":{"bus":"yes","highway":"bus_stop","network":"frimobil","network:short":"TVF","network:wikidata":"Q2394200","public_transport":"platform"}},"public_transport/platform/bus_point/libero-4f2c9d":{"name":"Libero","locationSet":{"include":["ch"]},"geometry":["point","vertex"],"matchScore":2,"terms":["libero","tvbeo"],"reference":{"key":"public_transport","value":"platform"},"tags":{"bus":"yes","network:wikidata":"Q2394193","public_transport":"platform"},"addTags":{"bus":"yes","highway":"bus_stop","network":"Libero","network:wikidata":"Q2394193","public_transport":"platform"}},"public_transport/platform/bus_point/liechtensteinbus-318594":{"name":"Liechtenstein Bus","locationSet":{"include":["at","ch","li"]},"geometry":["point","vertex"],"matchScore":2,"terms":["liechtenstein bus","liemobil","vlm"],"reference":{"key":"public_transport","value":"platform"},"tags":{"bus":"yes","network:wikidata":"Q172652","public_transport":"platform"},"addTags":{"bus":"yes","highway":"bus_stop","network":"Liechtenstein Bus","network:short":"VLM","network:wikidata":"Q172652","public_transport":"platform"}},"public_transport/platform/bus_point/mobigo-90233a":{"name":"Mobigo","locationSet":{"include":["ch","fx"]},"geometry":["point","vertex"],"matchScore":2,"terms":["mobigo"],"reference":{"key":"public_transport","value":"platform"},"tags":{"bus":"yes","network:wikidata":"Q48760545","public_transport":"platform"},"addTags":{"bus":"yes","highway":"bus_stop","network":"Mobigo","network:wikidata":"Q48760545","public_transport":"platform"}},"public_transport/platform/bus_point/mobilis-4f2c9d":{"name":"Mobilis (Schweiz)","locationSet":{"include":["ch"]},"geometry":["point","vertex"],"matchScore":2,"terms":["ctv","mobilis","tarifverbund waadt","tl"],"reference":{"key":"public_transport","value":"platform"},"tags":{"bus":"yes","network:wikidata":"Q2394222","public_transport":"platform"},"addTags":{"bus":"yes","highway":"bus_stop","network":"Mobilis","network:short":"CTV","network:wikidata":"Q2394222","public_transport":"platform"}},"public_transport/platform/bus_point/noctambus-90233a":{"name":"Noctambus","locationSet":{"include":["ch","fx"]},"geometry":["point","vertex"],"matchScore":2,"terms":["noctambus"],"reference":{"key":"public_transport","value":"platform"},"tags":{"bus":"yes","network:wikidata":"Q28122560","public_transport":"platform"},"addTags":{"bus":"yes","highway":"bus_stop","network":"Noctambus","network:wikidata":"Q28122560","public_transport":"platform"}},"public_transport/platform/bus_point/ondeverte-dc18b1":{"name":"Onde Verte","locationSet":{"include":["ch","fr"]},"geometry":["point","vertex"],"matchScore":2,"terms":["onde verte"],"reference":{"key":"public_transport","value":"platform"},"tags":{"bus":"yes","network:wikidata":"Q30744145","public_transport":"platform"},"addTags":{"bus":"yes","highway":"bus_stop","network":"Onde Verte","network:wikidata":"Q30744145","public_transport":"platform"}},"public_transport/platform/bus_point/ostwind-6ea317":{"name":"Ostwind","locationSet":{"include":["at","ch","de","li"]},"geometry":["point","vertex"],"matchScore":2,"terms":["ostwind"],"reference":{"key":"public_transport","value":"platform"},"tags":{"bus":"yes","network:wikidata":"Q2394207","public_transport":"platform"},"addTags":{"bus":"yes","highway":"bus_stop","network":"Ostwind","network:wikidata":"Q2394207","public_transport":"platform"}},"public_transport/platform/bus_point/passepartout-4f2c9d":{"name":"Passepartout","locationSet":{"include":["ch"]},"geometry":["point","vertex"],"matchScore":2,"terms":["passepartout","tvlu"],"reference":{"key":"public_transport","value":"platform"},"tags":{"bus":"yes","network:wikidata":"Q2394205","public_transport":"platform"},"addTags":{"bus":"yes","highway":"bus_stop","network":"Passepartout","network:short":"TVLU","network:wikidata":"Q2394205","public_transport":"platform"}},"public_transport/platform/bus_point/rvl-0dd3d1":{"name":"RVL","locationSet":{"include":["ch","de"]},"geometry":["point","vertex"],"matchScore":2,"terms":["rvl"],"reference":{"key":"public_transport","value":"platform"},"tags":{"bus":"yes","network:wikidata":"Q2138145","public_transport":"platform"},"addTags":{"bus":"yes","highway":"bus_stop","network":"RVL","network:wikidata":"Q2138145","public_transport":"platform"}},"public_transport/platform/bus_point/stibm-da3abc":{"name":"STIBM","locationSet":{"include":["ch","it"]},"geometry":["point","vertex"],"matchScore":2,"terms":["sitam","stibm"],"reference":{"key":"public_transport","value":"platform"},"tags":{"bus":"yes","network:wikidata":"Q65125405","public_transport":"platform"},"addTags":{"bus":"yes","highway":"bus_stop","network":"STIBM","network:wikidata":"Q65125405","public_transport":"platform"}},"public_transport/platform/bus_point/swisspass-792fce":{"name":"SwissPass","locationSet":{"include":["ch","de","fx","it"]},"geometry":["point","vertex"],"matchScore":2,"terms":["ch-direct","ch-integral","swisspass"],"reference":{"key":"public_transport","value":"platform"},"tags":{"bus":"yes","network:wikidata":"Q20850937","public_transport":"platform"},"addTags":{"bus":"yes","highway":"bus_stop","network":"SwissPass","network:wikidata":"Q20850937","public_transport":"platform"}},"public_transport/platform/bus_point/tarifverbundschwyz-4f2c9d":{"name":"Tarifverbund Schwyz","locationSet":{"include":["ch"]},"geometry":["point","vertex"],"matchScore":2,"terms":["schwyzerpass","tarifverbund schwyz","tvsz"],"reference":{"key":"public_transport","value":"platform"},"tags":{"bus":"yes","network:wikidata":"Q2394211","public_transport":"platform"},"addTags":{"bus":"yes","highway":"bus_stop","network":"Tarifverbund Schwyz","network:short":"TVSZ","network:wikidata":"Q2394211","public_transport":"platform"}},"public_transport/platform/bus_point/tarifverbundzug-4f2c9d":{"name":"Tarifverbund Zug","locationSet":{"include":["ch"]},"geometry":["point","vertex"],"matchScore":2,"terms":["tarifverbund zug","tvzg","zugerpass"],"reference":{"key":"public_transport","value":"platform"},"tags":{"bus":"yes","network:wikidata":"Q2394216","public_transport":"platform"},"addTags":{"bus":"yes","highway":"bus_stop","network":"Tarifverbund Zug","network:short":"TVZG","network:wikidata":"Q2394216","public_transport":"platform"}},"public_transport/platform/bus_point/tnw-1dcc73":{"name":"TNW","locationSet":{"include":["ch","de","fx"]},"geometry":["point","vertex"],"matchScore":2,"terms":["tnw"],"reference":{"key":"public_transport","value":"platform"},"tags":{"bus":"yes","network:wikidata":"Q1479394","public_transport":"platform"},"addTags":{"bus":"yes","highway":"bus_stop","network":"TNW","network:wikidata":"Q1479394","public_transport":"platform"}},"public_transport/platform/bus_point/unireso-90233a":{"name":"Unireso","locationSet":{"include":["ch","fx"]},"geometry":["point","vertex"],"matchScore":2,"terms":["ctge","tarifverbund genf","unireso"],"reference":{"key":"public_transport","value":"platform"},"tags":{"bus":"yes","network:wikidata":"Q1312883","public_transport":"platform"},"addTags":{"bus":"yes","highway":"bus_stop","network":"Unireso","network:short":"CTGE","network:wikidata":"Q1312883","public_transport":"platform"}},"public_transport/platform/bus_point/vagabond-4f2c9d":{"name":"Vagabond","locationSet":{"include":["ch"]},"geometry":["point","vertex"],"matchScore":2,"terms":["tarifverbund jura","vagabond"],"reference":{"key":"public_transport","value":"platform"},"tags":{"bus":"yes","network:wikidata":"Q2394202","public_transport":"platform"},"addTags":{"bus":"yes","highway":"bus_stop","network":"Vagabond","network:wikidata":"Q2394202","public_transport":"platform"}},"public_transport/platform/bus_point/verkehrsbetriebederlandschaftdavos-4f2c9d":{"name":"Verkehrsbetriebe der Landschaft Davos","locationSet":{"include":["ch"]},"geometry":["point","vertex"],"matchScore":2,"terms":["vbd","verkehrsbetriebe der landschaft davos"],"reference":{"key":"public_transport","value":"platform"},"tags":{"bus":"yes","network:wikidata":"Q2516119","public_transport":"platform"},"addTags":{"bus":"yes","highway":"bus_stop","network":"Verkehrsbetriebe der Landschaft Davos","network:short":"VBD","network:wikidata":"Q2516119","public_transport":"platform"}},"public_transport/platform/bus_point/vvt-16a1b1":{"name":"VVT","locationSet":{"include":["at","ch","de","it"]},"geometry":["point","vertex"],"matchScore":2,"terms":["vvt"],"reference":{"key":"public_transport","value":"platform"},"tags":{"bus":"yes","network:wikidata":"Q1668732","public_transport":"platform"},"addTags":{"bus":"yes","highway":"bus_stop","network":"VVT","network:wikidata":"Q1668732","public_transport":"platform"}},"public_transport/platform/bus_point/zvv-4f2c9d":{"name":"ZVV","locationSet":{"include":["ch"]},"geometry":["point","vertex"],"matchScore":2,"terms":["zvv"],"reference":{"key":"public_transport","value":"platform"},"tags":{"bus":"yes","network:wikidata":"Q201977","public_transport":"platform"},"addTags":{"bus":"yes","highway":"bus_stop","network":"ZVV","network:wikidata":"Q201977","public_transport":"platform"}},"type/route/bus/awelle-ba16da":{"name":"A-Welle","locationSet":{"include":["ch"]},"geometry":["relation"],"matchScore":2,"terms":["a-welle","tarifverbund a-welle"],"reference":{"key":"route","value":"bus"},"tags":{"network:wikidata":"Q105637491","route":"bus","type":"route"},"addTags":{"network":"A-Welle","network:wikidata":"Q105637491","route":"bus","type":"route"}},"type/route/bus/arcobaleno-a8d681":{"name":"Arcobaleno","locationSet":{"include":["ch","it"]},"geometry":["relation"],"matchScore":2,"terms":["arcobaleno"],"reference":{"key":"route","value":"bus"},"tags":{"network:wikidata":"Q3685879","route":"bus","type":"route"},"addTags":{"network":"Arcobaleno","network:wikidata":"Q3685879","route":"bus","type":"route"}},"type/route/bus/bernmobil-ba16da":{"name":"Bernmobil","locationSet":{"include":["ch"]},"geometry":["relation"],"matchScore":2,"terms":["bernmobil","städtische verkehrsbetriebe bern","svb"],"reference":{"key":"route","value":"bus"},"tags":{"network:wikidata":"Q681700","route":"bus","type":"route"},"addTags":{"network":"Bernmobil","network:wikidata":"Q681700","operator":"Städtische Verkehrsbetriebe Bern","operator:short":"SVB","route":"bus","type":"route"}},"type/route/bus/carsregionhautesavoie-ef3c91":{"name":"Cars Région Haute-Savoie","locationSet":{"include":["ch","fx"]},"geometry":["relation"],"matchScore":2,"terms":["cars région haute-savoie"],"reference":{"key":"route","value":"bus"},"tags":{"network:wikidata":"Q3456845","route":"bus","type":"route"},"addTags":{"network":"Cars Région Haute-Savoie","network:wikidata":"Q3456845","route":"bus","type":"route"}},"type/route/bus/frimobil-ba16da":{"name":"Frimobil","locationSet":{"include":["ch"]},"geometry":["relation"],"matchScore":2,"terms":["frimobil","tpf","tvf"],"reference":{"key":"route","value":"bus"},"tags":{"network:wikidata":"Q2394200","route":"bus","type":"route"},"addTags":{"network":"frimobil","network:short":"TVF","network:wikidata":"Q2394200","route":"bus","type":"route"}},"type/route/bus/libero-ba16da":{"name":"Libero","locationSet":{"include":["ch"]},"geometry":["relation"],"matchScore":2,"terms":["libero","tvbeo"],"reference":{"key":"route","value":"bus"},"tags":{"network:wikidata":"Q2394193","route":"bus","type":"route"},"addTags":{"network":"Libero","network:wikidata":"Q2394193","route":"bus","type":"route"}},"type/route/bus/liechtensteinbus-471f75":{"name":"Liechtenstein Bus","locationSet":{"include":["at","ch","li"]},"geometry":["relation"],"matchScore":2,"terms":["liechtenstein bus","liemobil","vlm"],"reference":{"key":"route","value":"bus"},"tags":{"network:wikidata":"Q172652","route":"bus","type":"route"},"addTags":{"network":"Liechtenstein Bus","network:short":"VLM","network:wikidata":"Q172652","route":"bus","type":"route"}},"type/route/bus/mobigo-ef3c91":{"name":"Mobigo","locationSet":{"include":["ch","fx"]},"geometry":["relation"],"matchScore":2,"terms":["mobigo"],"reference":{"key":"route","value":"bus"},"tags":{"network:wikidata":"Q48760545","route":"bus","type":"route"},"addTags":{"network":"Mobigo","network:wikidata":"Q48760545","route":"bus","type":"route"}},"type/route/bus/mobilis-ba16da":{"name":"Mobilis (Schweiz)","locationSet":{"include":["ch"]},"geometry":["relation"],"matchScore":2,"terms":["ctv","mobilis","tarifverbund waadt","tl"],"reference":{"key":"route","value":"bus"},"tags":{"network:wikidata":"Q2394222","route":"bus","type":"route"},"addTags":{"network":"Mobilis","network:short":"CTV","network:wikidata":"Q2394222","route":"bus","type":"route"}},"type/route/bus/noctambus-ef3c91":{"name":"Noctambus","locationSet":{"include":["ch","fx"]},"geometry":["relation"],"matchScore":2,"terms":["noctambus"],"reference":{"key":"route","value":"bus"},"tags":{"network:wikidata":"Q28122560","route":"bus","type":"route"},"addTags":{"network":"Noctambus","network:wikidata":"Q28122560","route":"bus","type":"route"}},"type/route/bus/ondeverte-5f704d":{"name":"Onde Verte","locationSet":{"include":["ch","fr"]},"geometry":["relation"],"matchScore":2,"terms":["onde verte"],"reference":{"key":"route","value":"bus"},"tags":{"network:wikidata":"Q30744145","route":"bus","type":"route"},"addTags":{"network":"Onde Verte","network:wikidata":"Q30744145","route":"bus","type":"route"}},"type/route/bus/ostwind-ff6344":{"name":"Ostwind","locationSet":{"include":["at","ch","de","li"]},"geometry":["relation"],"matchScore":2,"terms":["ostwind"],"reference":{"key":"route","value":"bus"},"tags":{"network:wikidata":"Q2394207","route":"bus","type":"route"},"addTags":{"network":"Ostwind","network:wikidata":"Q2394207","route":"bus","type":"route"}},"type/route/bus/passepartout-ba16da":{"name":"Passepartout","locationSet":{"include":["ch"]},"geometry":["relation"],"matchScore":2,"terms":["passepartout","tvlu"],"reference":{"key":"route","value":"bus"},"tags":{"network:wikidata":"Q2394205","route":"bus","type":"route"},"addTags":{"network":"Passepartout","network:short":"TVLU","network:wikidata":"Q2394205","route":"bus","type":"route"}},"type/route/bus/rvl-d5b5e3":{"name":"RVL","locationSet":{"include":["ch","de"]},"geometry":["relation"],"matchScore":2,"terms":["rvl"],"reference":{"key":"route","value":"bus"},"tags":{"network:wikidata":"Q2138145","route":"bus","type":"route"},"addTags":{"network":"RVL","network:wikidata":"Q2138145","route":"bus","type":"route"}},"type/route/bus/stibm-a8d681":{"name":"STIBM","locationSet":{"include":["ch","it"]},"geometry":["relation"],"matchScore":2,"terms":["sitam","stibm"],"reference":{"key":"route","value":"bus"},"tags":{"network:wikidata":"Q65125405","route":"bus","type":"route"},"addTags":{"network":"STIBM","network:wikidata":"Q65125405","route":"bus","type":"route"}},"type/route/bus/swisspass-353b78":{"name":"SwissPass","locationSet":{"include":["ch","de","fx","it"]},"geometry":["relation"],"matchScore":2,"terms":["ch-direct","ch-integral","swisspass"],"reference":{"key":"route","value":"bus"},"tags":{"network:wikidata":"Q20850937","route":"bus","type":"route"},"addTags":{"network":"SwissPass","network:wikidata":"Q20850937","route":"bus","type":"route"}},"type/route/bus/tarifverbundschwyz-ba16da":{"name":"Tarifverbund Schwyz","locationSet":{"include":["ch"]},"geometry":["relation"],"matchScore":2,"terms":["schwyzerpass","tarifverbund schwyz","tvsz"],"reference":{"key":"route","value":"bus"},"tags":{"network:wikidata":"Q2394211","route":"bus","type":"route"},"addTags":{"network":"Tarifverbund Schwyz","network:short":"TVSZ","network:wikidata":"Q2394211","route":"bus","type":"route"}},"type/route/bus/tarifverbundzug-ba16da":{"name":"Tarifverbund Zug","locationSet":{"include":["ch"]},"geometry":["relation"],"matchScore":2,"terms":["tarifverbund zug","tvzg","zugerpass"],"reference":{"key":"route","value":"bus"},"tags":{"network:wikidata":"Q2394216","route":"bus","type":"route"},"addTags":{"network":"Tarifverbund Zug","network:short":"TVZG","network:wikidata":"Q2394216","route":"bus","type":"route"}},"type/route/bus/tnw-1d5ad2":{"name":"TNW","locationSet":{"include":["ch","de","fx"]},"geometry":["relation"],"matchScore":2,"terms":["tnw"],"reference":{"key":"route","value":"bus"},"tags":{"network:wikidata":"Q1479394","route":"bus","type":"route"},"addTags":{"network":"TNW","network:wikidata":"Q1479394","route":"bus","type":"route"}},"type/route/bus/unireso-ef3c91":{"name":"Unireso","locationSet":{"include":["ch","fx"]},"geometry":["relation"],"matchScore":2,"terms":["ctge","tarifverbund genf","unireso"],"reference":{"key":"route","value":"bus"},"tags":{"network:wikidata":"Q1312883","route":"bus","type":"route"},"addTags":{"network":"Unireso","network:short":"CTGE","network:wikidata":"Q1312883","route":"bus","type":"route"}},"type/route/bus/vagabond-ba16da":{"name":"Vagabond","locationSet":{"include":["ch"]},"geometry":["relation"],"matchScore":2,"terms":["tarifverbund jura","vagabond"],"reference":{"key":"route","value":"bus"},"tags":{"network:wikidata":"Q2394202","route":"bus","type":"route"},"addTags":{"network":"Vagabond","network:wikidata":"Q2394202","route":"bus","type":"route"}},"type/route/bus/verkehrsbetriebederlandschaftdavos-ba16da":{"name":"Verkehrsbetriebe der Landschaft Davos","locationSet":{"include":["ch"]},"geometry":["relation"],"matchScore":2,"terms":["vbd","verkehrsbetriebe der landschaft davos"],"reference":{"key":"route","value":"bus"},"tags":{"network:wikidata":"Q2516119","route":"bus","type":"route"},"addTags":{"network":"Verkehrsbetriebe der Landschaft Davos","network:short":"VBD","network:wikidata":"Q2516119","route":"bus","type":"route"}},"type/route/bus/vvt-4160f4":{"name":"VVT","locationSet":{"include":["at","ch","de","it"]},"geometry":["relation"],"matchScore":2,"terms":["vvt"],"reference":{"key":"route","value":"bus"},"tags":{"network:wikidata":"Q1668732","route":"bus","type":"route"},"addTags":{"network":"VVT","network:wikidata":"Q1668732","route":"bus","type":"route"}},"type/route/bus/zvv-ba16da":{"name":"ZVV","locationSet":{"include":["ch"]},"geometry":["relation"],"matchScore":2,"terms":["zvv"],"reference":{"key":"route","value":"bus"},"tags":{"network:wikidata":"Q201977","route":"bus","type":"route"},"addTags":{"network":"ZVV","network:wikidata":"Q201977","route":"bus","type":"route"}},"type/route/ferry/zurcherverkehrsverbund-ae05bd":{"name":"Zürcher Verkehrsverbund","locationSet":{"include":["ch"]},"geometry":["relation"],"matchScore":2,"terms":["zürcher verkehrsverbund","zvv"],"reference":{"key":"route","value":"ferry"},"tags":{"network:wikidata":"Q201977","route":"ferry","type":"route"},"addTags":{"network":"Zürcher Verkehrsverbund","network:short":"ZVV","network:wikidata":"Q201977","route":"ferry","type":"route"}},"route/ferry/zurcherverkehrsverbund-ae05bd":{"name":"Zürcher Verkehrsverbund","locationSet":{"include":["ch"]},"geometry":["line"],"matchScore":2,"terms":["zürcher verkehrsverbund","zvv"],"tags":{"network:wikidata":"Q201977","route":"ferry"},"addTags":{"network":"Zürcher Verkehrsverbund","network:short":"ZVV","network:wikidata":"Q201977","route":"ferry"}},"type/route/light_rail/libero-a463f1":{"name":"Libero","locationSet":{"include":["ch"]},"geometry":["relation"],"matchScore":2,"terms":["libero"],"reference":{"key":"route","value":"light_rail"},"tags":{"network:wikidata":"Q2394193","route":"light_rail","type":"route"},"addTags":{"network":"Libero","network:wikidata":"Q2394193","route":"light_rail","type":"route"}},"type/route/train/awelle-d5549f":{"name":"A-Welle","locationSet":{"include":["ch"]},"geometry":["relation"],"matchScore":2,"terms":["a-welle","tarifverbund a-welle"],"reference":{"key":"route","value":"train"},"tags":{"network:wikidata":"Q105637491","route":"train","type":"route"},"addTags":{"network":"A-Welle","network:wikidata":"Q105637491","route":"train","type":"route"}},"type/route/train/chintegral-d5549f":{"name":"ch-integral","locationSet":{"include":["ch"]},"geometry":["relation"],"matchScore":2,"terms":["ch-direct","ch-integral"],"reference":{"key":"route","value":"train"},"tags":{"network:wikidata":"Q55503992","route":"train","type":"route"},"addTags":{"network":"ch-integral","network:wikidata":"Q55503992","route":"train","type":"route"}},"type/route/train/dbintercityexpress-9473ac":{"name":"DB InterCityExpress","locationSet":{"include":["at","be","ch","de","fx","nl"]},"geometry":["relation"],"matchScore":2,"terms":["db fernverkehr","db intercityexpress"],"reference":{"key":"route","value":"train"},"tags":{"network:wikidata":"Q129172","route":"train","type":"route"},"addTags":{"network":"DB InterCityExpress","network:wikidata":"Q129172","operator":"DB Fernverkehr","operator:wikidata":"Q452140","route":"train","type":"route"}},"type/route/train/eurocity-6b9d23":{"name":"EuroCity","locationSet":{"include":["by","bg","cz","hu","pl","md","ro","ru","sk","ua","ax","gg","je","cq","dk","ee","fo","fi","is","ie","im","lv","lt","no","sj","se","gb","al","ad","ba","hr","gi","gr","va","it","mt","me","mk","pt","sm","rs","si","es","xk","at","be","fr","de","li","lu","mc","nl","ch"]},"geometry":["relation"],"matchScore":2,"terms":["eurocity"],"reference":{"key":"route","value":"train"},"tags":{"network:wikidata":"Q753050","route":"train","type":"route"},"addTags":{"network":"EuroCity","network:wikidata":"Q753050","route":"train","type":"route"}},"type/route/train/euronight-6b9d23":{"name":"EuroNight","locationSet":{"include":["by","bg","cz","hu","pl","md","ro","ru","sk","ua","ax","gg","je","cq","dk","ee","fo","fi","is","ie","im","lv","lt","no","sj","se","gb","al","ad","ba","hr","gi","gr","va","it","mt","me","mk","pt","sm","rs","si","es","xk","at","be","fr","de","li","lu","mc","nl","ch"]},"geometry":["relation"],"matchScore":2,"terms":["euronight"],"reference":{"key":"route","value":"train"},"tags":{"network:wikidata":"Q257307","route":"train","type":"route"},"addTags":{"network":"EuroNight","network:wikidata":"Q257307","route":"train","type":"route"}},"type/route/train/frimobil-d5549f":{"name":"Frimobil","locationSet":{"include":["ch"]},"geometry":["relation"],"matchScore":2,"terms":["frimobil","tarifverbund freiburg"],"reference":{"key":"route","value":"train"},"tags":{"network:wikidata":"Q2394200","route":"train","type":"route"},"addTags":{"network":"Frimobil","network:wikidata":"Q2394200","route":"train","type":"route"}},"type/route/train/lemanexpress-514c1e":{"name":"Léman Express","locationSet":{"include":["ch","fr"]},"geometry":["relation"],"matchScore":2,"terms":["léman express","lex"],"reference":{"key":"route","value":"train"},"tags":{"network:wikidata":"Q7885274","route":"train","type":"route"},"addTags":{"network":"Léman Express","network:short":"LEX","network:wikidata":"Q7885274","route":"train","type":"route"}},"type/route/train/libero-d5549f":{"name":"Libero","locationSet":{"include":["ch"]},"geometry":["relation"],"matchScore":2,"terms":["libero"],"reference":{"key":"route","value":"train"},"tags":{"network:wikidata":"Q2394193","route":"train","type":"route"},"addTags":{"network":"Libero","network:wikidata":"Q2394193","route":"train","type":"route"}},"type/route/train/mobilis-7c5829":{"name":"Mobilis (Schweiz)","locationSet":{"include":["ch","fx"]},"geometry":["relation"],"matchScore":2,"terms":["communauté tarifaire vaudoise","ctv","mobilis","tarifverbund waadt"],"reference":{"key":"route","value":"train"},"tags":{"network:wikidata":"Q2394222","route":"train","type":"route"},"addTags":{"network":"Mobilis","network:short":"CTV","network:wikidata":"Q2394222","route":"train","type":"route"}},"type/route/train/ostwind-aa6868":{"name":"Ostwind","locationSet":{"include":["at","ch","de","li"]},"geometry":["relation"],"matchScore":2,"terms":["ostwind"],"reference":{"key":"route","value":"train"},"tags":{"network:wikidata":"Q2394207","route":"train","type":"route"},"addTags":{"network":"Ostwind","network:wikidata":"Q2394207","route":"train","type":"route"}},"type/route/train/passepartout-d5549f":{"name":"Passepartout","locationSet":{"include":["ch"]},"geometry":["relation"],"matchScore":2,"terms":["passepartout","tvlu"],"reference":{"key":"route","value":"train"},"tags":{"network:wikidata":"Q2394205","route":"train","type":"route"},"addTags":{"network":"Passepartout","network:short":"TVLU","network:wikidata":"Q2394205","route":"train","type":"route"}},"type/route/train/sitam-a29473":{"name":"SITAM","locationSet":{"include":["ch","it"]},"geometry":["relation"],"matchScore":2,"terms":["sitam"],"reference":{"key":"route","value":"train"},"tags":{"network:wikidata":"Q3943669","route":"train","type":"route"},"addTags":{"network":"SITAM","network:wikidata":"Q3943669","route":"train","type":"route"}},"type/route/train/tgv-7d2d57":{"name":"TGV","locationSet":{"include":["be","ch","de","es","fx","it","lu","nl"]},"geometry":["relation"],"matchScore":2,"terms":["sncf","tgv"],"reference":{"key":"route","value":"train"},"tags":{"network:wikidata":"Q129337","route":"train","type":"route"},"addTags":{"network":"TGV","network:wikidata":"Q129337","operator":"SNCF","operator:wikidata":"Q13646","route":"train","type":"route"}},"type/route/train/tarifverbundnordwestschweiz-d5549f":{"name":"TNW","locationSet":{"include":["ch"]},"geometry":["relation"],"matchScore":2,"terms":["tarifverbund nordwestschweiz","tnw"],"reference":{"key":"route","value":"train"},"tags":{"network:wikidata":"Q1479394","route":"train","type":"route"},"addTags":{"network":"Tarifverbund Nordwestschweiz","network:short":"TNW","network:wikidata":"Q1479394","route":"train","type":"route"}},"type/route/train/unireso-7c5829":{"name":"Unireso","locationSet":{"include":["ch","fx"]},"geometry":["relation"],"matchScore":2,"terms":["tarifverbund genf","unireso"],"reference":{"key":"route","value":"train"},"tags":{"network:wikidata":"Q1312883","route":"train","type":"route"},"addTags":{"network":"Unireso","network:wikidata":"Q1312883","route":"train","type":"route"}},"type/route/train/verkehrsverbundtirol-872add":{"name":"Verkehrsverbund Tirol","locationSet":{"include":["at","ch","de","it"]},"geometry":["relation"],"matchScore":2,"terms":["verkehrsverbund tirol","vvt"],"reference":{"key":"route","value":"train"},"tags":{"network:wikidata":"Q1668732","route":"train","type":"route"},"addTags":{"network":"Verkehrsverbund Tirol","network:short":"VVT","network:wikidata":"Q1668732","route":"train","type":"route"}},"type/route/train/zurcherverkehrsverbund-91ea8f":{"name":"Zürcher Verkehrsverbund","locationSet":{"include":["ch","de"]},"geometry":["relation"],"matchScore":2,"terms":["zürcher verkehrsverbund","zvv"],"reference":{"key":"route","value":"train"},"tags":{"network:wikidata":"Q201977","route":"train","type":"route"},"addTags":{"network":"Zürcher Verkehrsverbund","network:short":"ZVV","network:wikidata":"Q201977","route":"train","type":"route"}},"type/route/tram/bernmobil-30adce":{"name":"Bernmobil","locationSet":{"include":["ch"]},"geometry":["relation"],"matchScore":2,"terms":["bernmobil","städtische verkehrsbetriebe bern","svb"],"reference":{"key":"route","value":"tram"},"tags":{"network:wikidata":"Q681700","route":"tram","type":"route"},"addTags":{"network":"Bernmobil","network:wikidata":"Q681700","operator":"Städtische Verkehrsbetriebe Bern","operator:short":"SVB","route":"tram","type":"route"}},"type/route/tram/libero-30adce":{"name":"Libero","locationSet":{"include":["ch"]},"geometry":["relation"],"matchScore":2,"terms":["libero"],"reference":{"key":"route","value":"tram"},"tags":{"network:wikidata":"Q2394193","route":"tram","type":"route"},"addTags":{"network":"Libero","network:wikidata":"Q2394193","route":"tram","type":"route"}},"type/route/tram/tnw-4cb40a":{"name":"TNW","locationSet":{"include":["ch","de","fr"]},"geometry":["relation"],"matchScore":2,"terms":["tnw"],"reference":{"key":"route","value":"tram"},"tags":{"network:wikidata":"Q1479394","route":"tram","type":"route"},"addTags":{"network":"TNW","network:wikidata":"Q1479394","route":"tram","type":"route"}},"type/route/tram/unireso-011d8a":{"name":"Unireso","locationSet":{"include":["ch","fr"]},"geometry":["relation"],"matchScore":2,"terms":["tpg","transports publics genevois","unireso"],"reference":{"key":"route","value":"tram"},"tags":{"network:wikidata":"Q1312883","route":"tram","type":"route"},"addTags":{"network":"Unireso","network:wikidata":"Q1312883","operator":"Transports publics genevois","operator:short":"TPG","operator:wikidata":"Q677004","route":"tram","type":"route"}},"type/route/tram/zvv-30adce":{"name":"ZVV","locationSet":{"include":["ch"]},"geometry":["relation"],"matchScore":2,"terms":["vbz","verkehrsbetriebe zürich","zvv"],"reference":{"key":"route","value":"tram"},"tags":{"network:wikidata":"Q201977","route":"tram","type":"route"},"addTags":{"network":"ZVV","network:wikidata":"Q201977","operator":"Verkehrsbetriebe Zürich","operator:short":"VBZ","operator:wikidata":"Q682070","route":"tram","type":"route"}},"type/route/trolleybus/bernmobil-052ea8":{"name":"Bernmobil","locationSet":{"include":["ch"]},"geometry":["relation"],"matchScore":2,"terms":["bernmobil","städtische verkehrsbetriebe bern","svb"],"reference":{"key":"route","value":"trolleybus"},"tags":{"network:wikidata":"Q681700","route":"trolleybus","type":"route"},"addTags":{"network":"Bernmobil","network:wikidata":"Q681700","operator":"Städtische Verkehrsbetriebe Bern","operator:short":"SVB","route":"trolleybus","type":"route"}},"type/route/trolleybus/libero-052ea8":{"name":"Libero","locationSet":{"include":["ch"]},"geometry":["relation"],"matchScore":2,"terms":["libero"],"reference":{"key":"route","value":"trolleybus"},"tags":{"network:wikidata":"Q2394193","route":"trolleybus","type":"route"},"addTags":{"network":"Libero","network:wikidata":"Q2394193","route":"trolleybus","type":"route"}},"type/route/trolleybus/mobilis-052ea8":{"name":"Mobilis","locationSet":{"include":["ch"]},"geometry":["relation"],"matchScore":2,"terms":["mobilis","tl"],"reference":{"key":"route","value":"trolleybus"},"tags":{"network:wikidata":"Q2394222","route":"trolleybus","type":"route"},"addTags":{"network":"Mobilis","network:wikidata":"Q2394222","operator":"TL","operator:wikidata":"Q675718","route":"trolleybus","type":"route"}},"type/route/trolleybus/ostwind-052ea8":{"name":"Ostwind","locationSet":{"include":["ch"]},"geometry":["relation"],"matchScore":2,"terms":["ostwind"],"reference":{"key":"route","value":"trolleybus"},"tags":{"network:wikidata":"Q2394207","route":"trolleybus","type":"route"},"addTags":{"network":"Ostwind","network:wikidata":"Q2394207","route":"trolleybus","type":"route"}},"type/route/trolleybus/passepartout-052ea8":{"name":"Passepartout","locationSet":{"include":["ch"]},"geometry":["relation"],"matchScore":2,"terms":["passepartout","tvlu","verkehrsbetriebe luzern"],"reference":{"key":"route","value":"trolleybus"},"tags":{"network:wikidata":"Q2394205","route":"trolleybus","type":"route"},"addTags":{"network":"Passepartout","network:short":"TVLU","network:wikidata":"Q2394205","operator":"Verkehrsbetriebe Luzern","operator:wikidata":"Q450886","route":"trolleybus","type":"route"}},"type/route/trolleybus/unireso-052ea8":{"name":"Unireso","locationSet":{"include":["ch"]},"geometry":["relation"],"matchScore":2,"terms":["transports publics genevois","unireso"],"reference":{"key":"route","value":"trolleybus"},"tags":{"network:wikidata":"Q1312883","route":"trolleybus","type":"route"},"addTags":{"network":"Unireso","network:wikidata":"Q1312883","operator":"Transports publics genevois","operator:wikidata":"Q677004","route":"trolleybus","type":"route"}},"type/route/trolleybus/zvv-052ea8":{"name":"ZVV","locationSet":{"include":["ch"]},"geometry":["relation"],"matchScore":2,"terms":["zvv"],"reference":{"key":"route","value":"trolleybus"},"tags":{"network:wikidata":"Q201977","route":"trolleybus","type":"route"},"addTags":{"network":"ZVV","network:wikidata":"Q201977","route":"trolleybus","type":"route"}}}