{"amenity/atm/citizensbank-0bad27":{"name":"Citizens Bank (Eastern USA)","locationSet":{"include":["us-ct","us-de","us-ma","us-mi","us-nh","us-nj","us-ny","us-oh","us-pa","us-ri","us-va","us-vt"]},"geometry":["point","vertex"],"matchScore":2,"terms":["citizens","citizens bank"],"tags":{"amenity":"atm","brand:wikidata":"Q5122694"},"addTags":{"amenity":"atm","brand":"Citizens Bank","brand:wikidata":"Q5122694","name":"Citizens Bank","operator":"Citizens Bank","operator:wikidata":"Q5122694","short_name":"Citizens"}},"amenity/atm/libertybank-7bb27b":{"name":"Liberty Bank (Connecticut)","locationSet":{"include":["us-ct"]},"geometry":["point","vertex"],"matchScore":2,"terms":["liberty bank"],"tags":{"amenity":"atm","brand:wikidata":"Q6541584"},"addTags":{"amenity":"atm","brand":"Liberty Bank","brand:wikidata":"Q6541584","name":"Liberty Bank","operator":"Liberty Bank","operator:wikidata":"Q6541584"}},"amenity/bank/citizensbank-8621dd":{"name":"Citizens Bank (Eastern USA)","locationSet":{"include":["us-ct","us-de","us-ma","us-mi","us-nh","us-nj","us-ny","us-oh","us-pa","us-ri","us-va","us-vt"]},"geometry":["point","area"],"matchScore":2,"terms":["citizens","citizens bank"],"tags":{"amenity":"bank","brand:wikidata":"Q5122694"},"addTags":{"amenity":"bank","brand":"Citizens Bank","brand:wikidata":"Q5122694","name":"Citizens Bank","short_name":"Citizens"}},"amenity/bank/libertybank-9baf35":{"name":"Liberty Bank (Connecticut)","locationSet":{"include":["us-ct"]},"geometry":["point","area"],"matchScore":2,"terms":["liberty bank"],"tags":{"amenity":"bank","brand:wikidata":"Q6541584"},"addTags":{"amenity":"bank","brand":"Liberty Bank","brand:wikidata":"Q6541584","name":"Liberty Bank"}},"amenity/clinic/gohealthurgentcare-7307a6":{"name":"Hartford HealthCare-GoHealth Urgent Care","locationSet":{"include":["us-ct"]},"geometry":["point","area"],"matchScore":2,"terms":["gohealth urgent care","hartford healthcare"],"reference":{"key":"amenity","value":"clinic"},"tags":{"amenity":"clinic","brand:wikidata":"Q110282081"},"addTags":{"amenity":"clinic","brand":"GoHealth Urgent Care","brand:wikidata":"Q110282081","healthcare":"clinic","operator":"Hartford HealthCare","operator:wikidata":"Q110282557"}},"amenity/clinic/veinclinicsofamerica-12a747":{"name":"Vein Clinics of America","locationSet":{"include":["us-ct","us-ga","us-il","us-in","us-ks","us-md","us-mn","us-mo","us-nc","us-oh","us-tn","us-tx","us-va","us-wi"]},"geometry":["point","area"],"matchScore":2,"terms":["vein clinics of america"],"reference":{"key":"amenity","value":"clinic"},"tags":{"amenity":"clinic","brand:wikidata":"Q113712355"},"addTags":{"amenity":"clinic","brand":"Vein Clinics of America","brand:wikidata":"Q113712355","healthcare":"clinic"}},"leisure/fitness_centre/theedgefitnessclub-773501":{"name":"The Edge Fitness Club","locationSet":{"include":["us-ct","us-de","us-il","us-mi","us-mo","us-nj","us-pa","us-ri"]},"geometry":["point","area"],"matchScore":2,"terms":["the edge fitness club"],"tags":{"brand:wikidata":"Q109339519","leisure":"fitness_centre"},"addTags":{"brand":"The Edge Fitness Club","brand:wikidata":"Q109339519","leisure":"fitness_centre","name":"The Edge Fitness Club"}},"shop/storage_rental/thelockup-b15f96":{"name":"The Lock Up","locationSet":{"include":["us-ct","us-fl","us-hi","us-il","us-ma","us-mn","us-nj","us-ny"]},"geometry":["point","area"],"matchScore":2,"terms":["the lock up"],"tags":{"brand:wikidata":"Q17089825","shop":"storage_rental"},"addTags":{"brand":"The Lock Up","brand:wikidata":"Q17089825","name":"The Lock Up","shop":"storage_rental"}},"shop/supermarket/bigy-14be05":{"name":"Big Y","locationSet":{"include":["us-ct","us-ma"]},"geometry":["point","area"],"matchScore":2,"terms":["big y"],"tags":{"brand:wikidata":"Q4906701","shop":"supermarket"},"addTags":{"brand":"Big Y","brand:wikidata":"Q4906701","name":"Big Y","shop":"supermarket"}},"shop/supermarket/pricechopper-7d1b36":{"name":"Price Chopper (New England)","locationSet":{"include":["us-ct","us-ma","us-nh","us-ny","us-pa","us-vt"]},"geometry":["point","area"],"matchScore":2,"terms":["price chopper"],"tags":{"brand:wikidata":"Q7242574","shop":"supermarket"},"addTags":{"brand":"Price Chopper","brand:wikidata":"Q7242574","name":"Price Chopper","shop":"supermarket"}},"amenity/school/bridgeportpublicschools-547ddd":{"name":"Bridgeport Public Schools","locationSet":{"include":["us-ct"]},"geometry":["area","point"],"matchScore":2,"terms":["bps","bridgeport public schools"],"tags":{"amenity":"school","operator:wikidata":"Q4966607"},"addTags":{"amenity":"school","operator":"Bridgeport Public Schools","operator:short":"BPS","operator:type":"public","operator:wikidata":"Q4966607"}},"amenity/school/capitolregioneducationcouncil-547ddd":{"name":"Capitol Region Education Council","locationSet":{"include":["us-ct"]},"geometry":["area","point"],"matchScore":2,"terms":["capitol region education council"],"tags":{"amenity":"school","operator:wikidata":"Q5035922"},"addTags":{"amenity":"school","operator":"Capitol Region Education Council","operator:type":"public","operator:wikidata":"Q5035922"}},"amenity/school/consolidatedschooldistrictofnewbritain-547ddd":{"name":"Consolidated School District of New Britain","locationSet":{"include":["us-ct"]},"geometry":["area","point"],"matchScore":2,"terms":["consolidated school district of new britain","new britain public schools"],"tags":{"amenity":"school","operator:wikidata":"Q7005722"},"addTags":{"amenity":"school","operator":"Consolidated School District of New Britain","operator:type":"public","operator:wikidata":"Q7005722"}},"amenity/school/easthartfordpublicschools-547ddd":{"name":"East Hartford Public Schools","locationSet":{"include":["us-ct"]},"geometry":["area","point"],"matchScore":2,"terms":["east hartford public schools","ehps"],"tags":{"amenity":"school","operator:wikidata":"Q108003942"},"addTags":{"amenity":"school","operator":"East Hartford Public Schools","operator:short":"EHPS","operator:type":"public","operator:wikidata":"Q108003942"}},"amenity/school/grotonpublicschools-547ddd":{"name":"Groton Public Schools","locationSet":{"include":["us-ct"]},"geometry":["area","point"],"matchScore":2,"terms":["gps","groton public schools"],"tags":{"amenity":"school","operator:wikidata":"Q17019899"},"addTags":{"amenity":"school","operator":"Groton Public Schools","operator:short":"GPS","operator:type":"public","operator:wikidata":"Q17019899"}},"amenity/school/hartfordpublicschools-547ddd":{"name":"Hartford Public Schools (Connecticut)","locationSet":{"include":["us-ct"]},"geometry":["area","point"],"matchScore":2,"terms":["hartford public schools","hps"],"tags":{"amenity":"school","operator:wikidata":"Q22058805"},"addTags":{"amenity":"school","operator":"Hartford Public Schools","operator:short":"HPS","operator:type":"public","operator:wikidata":"Q22058805"}},"amenity/school/monroepublicschools-547ddd":{"name":"Monroe Public Schools","locationSet":{"include":["us-ct"]},"geometry":["area","point"],"matchScore":2,"terms":["monroe public schools","mps"],"tags":{"amenity":"school","operator:wikidata":"Q6902248"},"addTags":{"amenity":"school","operator":"Monroe Public Schools","operator:short":"MPS","operator:type":"public","operator:wikidata":"Q6902248"}},"amenity/school/waterburypublicschools-547ddd":{"name":"Waterbury Public Schools","locationSet":{"include":["us-ct"]},"geometry":["area","point"],"matchScore":2,"terms":["waterbury public schools","wps"],"tags":{"amenity":"school","operator:wikidata":"Q7973919"},"addTags":{"amenity":"school","operator":"Waterbury Public Schools","operator:short":"WPS","operator:type":"public","operator:wikidata":"Q7973919"}},"amenity/school/westhartfordpublicschools-547ddd":{"name":"West Hartford Public Schools","locationSet":{"include":["us-ct"]},"geometry":["area","point"],"matchScore":2,"terms":["west hartford public schools"],"tags":{"amenity":"school","operator:wikidata":"Q7985311"},"addTags":{"amenity":"school","operator":"West Hartford Public Schools","operator:type":"public","operator:wikidata":"Q7985311"}},"leisure/nature_reserve/cityofhartford-67b670":{"name":"City of Hartford (Connecticut)","locationSet":{"include":["us-ct"]},"geometry":["area","point"],"matchScore":2,"terms":["city of hartford"],"tags":{"leisure":"nature_reserve","operator:wikidata":"Q33486"},"addTags":{"leisure":"nature_reserve","operator":"City of Hartford","operator:type":"public","operator:wikidata":"Q33486"}},"leisure/nature_reserve/cityofmiddletown-67b670":{"name":"City of Middletown (Connecticut)","locationSet":{"include":["us-ct"]},"geometry":["area","point"],"matchScore":2,"terms":["city of middletown"],"tags":{"leisure":"nature_reserve","operator:wikidata":"Q49192"},"addTags":{"leisure":"nature_reserve","operator":"City of Middletown","operator:type":"public","operator:wikidata":"Q49192"}},"leisure/nature_reserve/cityofnorwich-67b670":{"name":"City of Norwich","locationSet":{"include":["us-ct"]},"geometry":["area","point"],"matchScore":2,"terms":["city of norwich"],"tags":{"leisure":"nature_reserve","operator:wikidata":"Q631402"},"addTags":{"leisure":"nature_reserve","operator":"City of Norwich","operator:type":"public","operator:wikidata":"Q631402"}},"leisure/nature_reserve/townofeasthartford-67b670":{"name":"Town of East Hartford","locationSet":{"include":["us-ct"]},"geometry":["area","point"],"matchScore":2,"terms":["town of east hartford"],"tags":{"leisure":"nature_reserve","operator:wikidata":"Q754618"},"addTags":{"leisure":"nature_reserve","operator":"Town of East Hartford","operator:type":"public","operator:wikidata":"Q754618"}},"leisure/nature_reserve/townofmanchester-67b670":{"name":"Town of Manchester","locationSet":{"include":["us-ct"]},"geometry":["area","point"],"matchScore":2,"terms":["town of manchester"],"tags":{"leisure":"nature_reserve","operator:wikidata":"Q753909"},"addTags":{"leisure":"nature_reserve","operator":"Town of Manchester","operator:type":"public","operator:wikidata":"Q753909"}},"leisure/park/cityofhartford-e713eb":{"name":"City of Hartford (Connecticut)","locationSet":{"include":["us-ct"]},"geometry":["area","point"],"matchScore":2,"terms":["city of hartford"],"tags":{"leisure":"park","operator:wikidata":"Q33486"},"addTags":{"leisure":"park","operator":"City of Hartford","operator:type":"public","operator:wikidata":"Q33486"}},"leisure/park/cityofmiddletown-e713eb":{"name":"City of Middletown (Connecticut)","locationSet":{"include":["us-ct"]},"geometry":["area","point"],"matchScore":2,"terms":["city of middletown"],"tags":{"leisure":"park","operator:wikidata":"Q49192"},"addTags":{"leisure":"park","operator":"City of Middletown","operator:type":"public","operator:wikidata":"Q49192"}},"leisure/park/cityofnorwich-e713eb":{"name":"City of Norwich","locationSet":{"include":["us-ct"]},"geometry":["area","point"],"matchScore":2,"terms":["city of norwich"],"tags":{"leisure":"park","operator:wikidata":"Q631402"},"addTags":{"leisure":"park","operator":"City of Norwich","operator:type":"public","operator:wikidata":"Q631402"}},"leisure/park/townofeasthartford-e713eb":{"name":"Town of East Hartford","locationSet":{"include":["us-ct"]},"geometry":["area","point"],"matchScore":2,"terms":["town of east hartford"],"tags":{"leisure":"park","operator:wikidata":"Q754618"},"addTags":{"leisure":"park","operator":"Town of East Hartford","operator:type":"public","operator:wikidata":"Q754618"}},"leisure/park/townofmanchester-e713eb":{"name":"Town of Manchester","locationSet":{"include":["us-ct"]},"geometry":["area","point"],"matchScore":2,"terms":["town of manchester"],"tags":{"leisure":"park","operator:wikidata":"Q753909"},"addTags":{"leisure":"park","operator":"Town of Manchester","operator:type":"public","operator:wikidata":"Q753909"}},"office/government/connecticutdepartmentofmotorvehicles-5b0fd8":{"name":"Connecticut DMV","locationSet":{"include":["us-ct"]},"geometry":["point","area"],"matchScore":2,"terms":["connecticut department of motor vehicles","connecticut dmv","dmv"],"fields":["name","operator","{office/government}"],"tags":{"office":"government","operator:wikidata":"Q5161517"},"addTags":{"government":"transportation","office":"government","operator":"Connecticut Department of Motor Vehicles","operator:short":"Connecticut DMV","operator:wikidata":"Q5161517"}},"power/line/eversource-b15319":{"name":"Eversource","locationSet":{"include":["us-ct","us-ma","us-nh"]},"geometry":["line"],"matchScore":2,"terms":["cl&p","eversource","eversource energy","nstar electric company","western massachusetts electric company"],"tags":{"operator:wikidata":"Q3344199","power":"line"},"addTags":{"operator":"Eversource","operator:wikidata":"Q3344199","power":"line"}},"power/minor_line/eversource-fa80fd":{"name":"Eversource","locationSet":{"include":["us-ct","us-ma","us-nh"]},"geometry":["line"],"matchScore":2,"terms":["cl&p","eversource","eversource energy","nstar electric company","western massachusetts electric company"],"tags":{"operator:wikidata":"Q3344199","power":"minor_line"},"addTags":{"operator":"Eversource","operator:wikidata":"Q3344199","power":"minor_line"}},"power/pole/eversource-d83c76":{"name":"Eversource","locationSet":{"include":["us-ct","us-ma","us-nh"]},"geometry":["point","vertex"],"matchScore":2,"terms":["cl&p","eversource","eversource energy","nstar electric company","western massachusetts electric company"],"tags":{"operator:wikidata":"Q3344199","power":"pole"},"addTags":{"operator":"Eversource","operator:wikidata":"Q3344199","power":"pole"}},"power/substation/eversource-374743":{"name":"Eversource","locationSet":{"include":["us-ct","us-ma","us-nh"]},"geometry":["area","point"],"matchScore":2,"terms":["cl&p","eversource","eversource energy","nstar electric company","western massachusetts electric company"],"tags":{"operator:wikidata":"Q3344199","power":"substation"},"addTags":{"operator":"Eversource","operator:wikidata":"Q3344199","power":"substation"}},"power/tower/eversource-3b99a1":{"name":"Eversource","locationSet":{"include":["us-ct","us-ma","us-nh"]},"geometry":["point","vertex"],"matchScore":2,"terms":["cl&p","eversource","eversource energy","nstar electric company","western massachusetts electric company"],"tags":{"operator:wikidata":"Q3344199","power":"tower"},"addTags":{"operator":"Eversource","operator:wikidata":"Q3344199","power":"tower"}},"power/transformer/eversource-d51e21":{"name":"Eversource","locationSet":{"include":["us-ct","us-ma","us-nh"]},"geometry":["point","vertex"],"matchScore":2,"terms":["cl&p","eversource","eversource energy","nstar electric company","western massachusetts electric company"],"tags":{"operator:wikidata":"Q3344199","power":"transformer"},"addTags":{"operator":"Eversource","operator:wikidata":"Q3344199","power":"transformer"}},"public_transport/platform/bus_point/cttransit-22799e":{"name":"CTtransit","locationSet":{"include":["us-ct"]},"geometry":["point","vertex"],"matchScore":2,"terms":["cttransit"],"reference":{"key":"public_transport","value":"platform"},"tags":{"bus":"yes","network:wikidata":"Q1652279","public_transport":"platform"},"addTags":{"bus":"yes","highway":"bus_stop","network":"CTtransit","network:wikidata":"Q1652279","public_transport":"platform"}},"public_transport/platform/bus_point/gbt-22799e":{"name":"GBT","locationSet":{"include":["us-ct"]},"geometry":["point","vertex"],"matchScore":2,"terms":["gbt"],"reference":{"key":"public_transport","value":"platform"},"tags":{"bus":"yes","network:wikidata":"Q5600471","public_transport":"platform"},"addTags":{"bus":"yes","highway":"bus_stop","network":"GBT","network:wikidata":"Q5600471","public_transport":"platform"}},"public_transport/platform/bus_point/hartransit-22799e":{"name":"HARTransit","locationSet":{"include":["us-ct"]},"geometry":["point","vertex"],"matchScore":2,"terms":["hartransit"],"reference":{"key":"public_transport","value":"platform"},"tags":{"bus":"yes","network:wikidata":"Q5913491","public_transport":"platform"},"addTags":{"bus":"yes","highway":"bus_stop","network":"HARTransit","network:wikidata":"Q5913491","public_transport":"platform"}},"public_transport/platform/bus_point/norwalktransit-22799e":{"name":"Norwalk Transit (Connecticut)","locationSet":{"include":["us-ct"]},"geometry":["point","vertex"],"matchScore":2,"terms":["norwalk transit"],"reference":{"key":"public_transport","value":"platform"},"tags":{"bus":"yes","network:wikidata":"Q7060801","public_transport":"platform"},"addTags":{"bus":"yes","highway":"bus_stop","network":"Norwalk Transit","network:wikidata":"Q7060801","public_transport":"platform"}},"public_transport/platform/bus_point/southeastareatransitdistrict-22799e":{"name":"Southeast Area Transit District","locationSet":{"include":["us-ct"]},"geometry":["point","vertex"],"matchScore":2,"terms":["seat","southeast area transit district"],"reference":{"key":"public_transport","value":"platform"},"tags":{"bus":"yes","network:wikidata":"Q7569291","public_transport":"platform"},"addTags":{"bus":"yes","highway":"bus_stop","network":"Southeast Area Transit District","network:short":"SEAT","network:wikidata":"Q7569291","public_transport":"platform"}},"type/route/bus/cttransit-e45713":{"name":"CTtransit","locationSet":{"include":["us-ct"]},"geometry":["relation"],"matchScore":2,"terms":["cttransit"],"reference":{"key":"route","value":"bus"},"tags":{"network:wikidata":"Q1652279","route":"bus","type":"route"},"addTags":{"network":"CTtransit","network:wikidata":"Q1652279","route":"bus","type":"route"}},"type/route/bus/gbt-e45713":{"name":"GBT","locationSet":{"include":["us-ct"]},"geometry":["relation"],"matchScore":2,"terms":["gbt"],"reference":{"key":"route","value":"bus"},"tags":{"network:wikidata":"Q5600471","route":"bus","type":"route"},"addTags":{"network":"GBT","network:wikidata":"Q5600471","route":"bus","type":"route"}},"type/route/bus/hartransit-e45713":{"name":"HARTransit","locationSet":{"include":["us-ct"]},"geometry":["relation"],"matchScore":2,"terms":["hartransit"],"reference":{"key":"route","value":"bus"},"tags":{"network:wikidata":"Q5913491","route":"bus","type":"route"},"addTags":{"network":"HARTransit","network:wikidata":"Q5913491","route":"bus","type":"route"}},"type/route/bus/norwalktransit-e45713":{"name":"Norwalk Transit (Connecticut)","locationSet":{"include":["us-ct"]},"geometry":["relation"],"matchScore":2,"terms":["norwalk transit"],"reference":{"key":"route","value":"bus"},"tags":{"network:wikidata":"Q7060801","route":"bus","type":"route"},"addTags":{"network":"Norwalk Transit","network:wikidata":"Q7060801","route":"bus","type":"route"}},"type/route/bus/southeastareatransitdistrict-e45713":{"name":"Southeast Area Transit District","locationSet":{"include":["us-ct"]},"geometry":["relation"],"matchScore":2,"terms":["seat","southeast area transit district"],"reference":{"key":"route","value":"bus"},"tags":{"network:wikidata":"Q7569291","route":"bus","type":"route"},"addTags":{"network":"Southeast Area Transit District","network:short":"SEAT","network:wikidata":"Q7569291","route":"bus","type":"route"}}}