{"advertising/totem/sheetz-e7b9d2":{"name":"Sheetz","locationSet":{"include":["us-md","us-mi","us-nc","us-oh","us-pa","us-va","us-wv"]},"geometry":["point","line"],"matchScore":2,"terms":["sheetz"],"tags":{"advertising":"totem","brand:wikidata":"Q7492551"},"addTags":{"advertising":"totem","brand":"Sheetz","brand:wikidata":"Q7492551"}},"advertising/totem/wawa-c92643":{"name":"Wawa","locationSet":{"include":["us-dc","us-de","us-fl","us-md","us-nj","us-pa","us-va"]},"geometry":["point","line"],"matchScore":2,"terms":["wawa"],"tags":{"advertising":"totem","brand:wikidata":"Q5936320"},"addTags":{"advertising":"totem","brand":"Wawa","brand:wikidata":"Q5936320"}},"amenity/atm/communitybankofthechesapeake-4f636c":{"name":"Community Bank of the Chesapeake","locationSet":{"include":["us-md","us-va"]},"geometry":["point","vertex"],"matchScore":2,"terms":["community bank of the chesapeake"],"fields":["name","brand","{amenity/atm}"],"searchable":false,"tags":{"amenity":"atm","brand:wikidata":"Q110588647"},"addTags":{"amenity":"atm","brand":"Community Bank of the Chesapeake","brand:wikidata":"Q110588647","operator":"Community Bank of the Chesapeake","operator:wikidata":"Q110588647"}},"amenity/atm/firstnationalbank-571c0f":{"name":"First National Bank (US)","locationSet":{"include":["us-dc","us-md","us-nc","us-oh","us-pa","us-sc","us-va","us-wv"]},"geometry":["point","vertex"],"matchScore":2,"terms":["first national bank","fnb"],"fields":["name","brand","{amenity/atm}"],"tags":{"amenity":"atm","brand:wikidata":"Q5426765"},"addTags":{"amenity":"atm","brand":"First National Bank","brand:wikidata":"Q5426765","operator":"First National Bank","operator:wikidata":"Q5426765"}},"amenity/atm/unitedbank-b1562d":{"name":"United Bank (West Virginia)","locationSet":{"include":["us-dc","us-md","us-nc","us-pa","us-sc","us-va","us-wv"]},"geometry":["point","vertex"],"matchScore":2,"terms":["united bank"],"fields":["name","brand","{amenity/atm}"],"tags":{"amenity":"atm","brand:wikidata":"Q16920636"},"addTags":{"amenity":"atm","brand":"United Bank","brand:wikidata":"Q16920636","operator":"United Bank","operator:wikidata":"Q16920636"}},"amenity/bank/communitybankofthechesapeake-04ea9b":{"name":"Community Bank of the Chesapeake","locationSet":{"include":["us-md","us-va"]},"geometry":["point","area"],"matchScore":2,"terms":["community bank of the chesapeake"],"searchable":false,"tags":{"amenity":"bank","brand:wikidata":"Q110588647"},"addTags":{"amenity":"bank","brand":"Community Bank of the Chesapeake","brand:wikidata":"Q110588647","name":"Community Bank of the Chesapeake"}},"amenity/bank/firstnationalbank-fdc31a":{"name":"First National Bank (US)","locationSet":{"include":["us-dc","us-md","us-nc","us-oh","us-pa","us-sc","us-va","us-wv"]},"geometry":["point","area"],"matchScore":2,"terms":["first national bank","fnb"],"tags":{"amenity":"bank","brand:wikidata":"Q5426765"},"addTags":{"amenity":"bank","brand":"First National Bank","brand:wikidata":"Q5426765","name":"First National Bank"}},"amenity/bank/unitedbank-d6a32a":{"name":"United Bank (West Virginia)","locationSet":{"include":["us-dc","us-md","us-nc","us-pa","us-sc","us-va","us-wv"]},"geometry":["point","area"],"matchScore":2,"terms":["united bank"],"tags":{"amenity":"bank","brand:wikidata":"Q16920636"},"addTags":{"amenity":"bank","brand":"United Bank","brand:wikidata":"Q16920636","name":"United Bank"}},"amenity/bicycle_rental/capitalbikeshare-f7b29d":{"name":"Capital Bikeshare","locationSet":{"include":["us-dc","us-md","us-va"]},"geometry":["point","vertex","area"],"matchScore":2,"terms":["cabi","capital bikeshare","lyft","lyft bike"],"fields":["name","brand","{amenity/bicycle_rental}"],"tags":{"amenity":"bicycle_rental","brand:wikidata":"Q1034635"},"addTags":{"amenity":"bicycle_rental","bicycle_rental":"docking_station","brand":"Capital Bikeshare","brand:wikidata":"Q1034635","fee":"yes","name":"Capital Bikeshare","network":"Capital Bikeshare","network:wikidata":"Q1034635","operator":"Lyft","operator:type":"private","operator:wikidata":"Q17077936"}},"amenity/clinic/veinclinicsofamerica-12a747":{"name":"Vein Clinics of America","locationSet":{"include":["us-ct","us-ga","us-il","us-in","us-ks","us-md","us-mn","us-mo","us-nc","us-oh","us-tn","us-tx","us-va","us-wi"]},"geometry":["point","area"],"matchScore":2,"terms":["vein clinics of america"],"reference":{"key":"amenity","value":"clinic"},"tags":{"amenity":"clinic","brand:wikidata":"Q113712355"},"addTags":{"amenity":"clinic","brand":"Vein Clinics of America","brand:wikidata":"Q113712355","healthcare":"clinic"}},"amenity/fast_food/donut/duckdonuts-6333a9":{"name":"Duck Donuts","locationSet":{"include":["ca-on","eg","sa","us-ar","us-az","us-ca","us-co","us-fl","us-ga","us-id","us-il","us-ks","us-ky","us-md","us-mi","us-mn","us-mo","us-nc","us-nj","us-ny","us-oh","us-pa","us-sc","us-tn","us-tx","us-ut","us-va"]},"geometry":["point","area"],"matchScore":2,"terms":["duck donuts","duck doughnuts"],"reference":{"key":"cuisine","value":"donut"},"tags":{"amenity":"fast_food","brand:wikidata":"Q54958282","cuisine":"donut"},"addTags":{"amenity":"fast_food","brand":"Duck Donuts","brand:wikidata":"Q54958282","cuisine":"donut","name":"Duck Donuts","takeaway":"yes"}},"amenity/fuel/sheetz-8ea4ad":{"name":"Sheetz","locationSet":{"include":["us-md","us-mi","us-nc","us-oh","us-pa","us-va","us-wv"]},"geometry":["point","area"],"matchScore":2,"terms":["sheetz"],"fields":["name","brand","{amenity/fuel}"],"tags":{"amenity":"fuel","brand:wikidata":"Q7492551"},"addTags":{"amenity":"fuel","brand":"Sheetz","brand:wikidata":"Q7492551","name":"Sheetz"}},"amenity/fuel/wawa-f5bad4":{"name":"Wawa","locationSet":{"include":["us-dc","us-de","us-fl","us-md","us-nj","us-pa","us-va"]},"geometry":["point","area"],"matchScore":2,"terms":["wawa"],"fields":["name","brand","{amenity/fuel}"],"tags":{"amenity":"fuel","brand:wikidata":"Q5936320"},"addTags":{"amenity":"fuel","brand":"Wawa","brand:wikidata":"Q5936320","name":"Wawa"}},"amenity/restaurant/italian/maggianoslittleitaly-acf8ec":{"name":"Maggiano's Little Italy","locationSet":{"include":["us-az","us-ca","us-co","us-dc","us-fl","us-ga","us-il","us-in","us-ks","us-ma","us-md","us-mi","us-mo","us-nc","us-nj","us-nv","us-ny","us-oh","us-pa","us-tn","us-tx","us-va","us-wa","us-wi"]},"geometry":["point","area"],"matchScore":2,"terms":["maggiano's little italy"],"reference":{"key":"cuisine","value":"italian"},"tags":{"amenity":"restaurant","brand:wikidata":"Q6730149","cuisine":"italian"},"addTags":{"amenity":"restaurant","brand":"Maggiano's Little Italy","brand:wikidata":"Q6730149","cuisine":"italian","name":"Maggiano's Little Italy"}},"office/amerisbank-477daa":{"name":"Ameris Bank","locationSet":{"include":["us-al","us-fl","us-ga","us-md","us-nc","us-sc","us-tn","us-va"]},"geometry":["point","vertex","area"],"matchScore":2,"terms":["ameris bank"],"tags":{"brand:wikidata":"Q124102372","office":"mortgage"},"addTags":{"brand":"Ameris Bank","brand:wikidata":"Q124102372","name":"Ameris Bank","office":"mortgage"}},"shop/cannabis/curaleaf-4b9e8a":{"name":"Curaleaf","locationSet":{"include":["us-az","us-ct","us-fl","us-il","us-ma","us-md","us-me","us-mi","us-nd","us-nj","us-nv","us-ny","us-oh","us-or","us-pa","us-ut","us-vt"]},"geometry":["point","area"],"matchScore":2,"terms":["curaleaf"],"tags":{"brand:wikidata":"Q85754829","shop":"cannabis"},"addTags":{"brand":"Curaleaf","brand:wikidata":"Q85754829","name":"Curaleaf","shop":"cannabis"}},"shop/cannabis/rise-ce371d":{"name":"RISE","locationSet":{"include":["us-fl","us-il","us-ma","us-md","us-nj","us-nv","us-oh","us-pa","us-va"]},"geometry":["point","area"],"matchScore":2,"terms":["rise"],"tags":{"brand:wikidata":"Q108911841","shop":"cannabis"},"addTags":{"brand":"RISE","brand:wikidata":"Q108911841","name":"RISE","shop":"cannabis"}},"shop/cannabis/zenleaf-65d11e":{"name":"Zen Leaf","locationSet":{"include":["us-ar","us-az","us-il","us-ma","us-md","us-mi","us-nj","us-nv","us-oh","us-pa"]},"geometry":["point","area"],"matchScore":2,"terms":["zen leaf"],"tags":{"brand:wikidata":"Q108911834","shop":"cannabis"},"addTags":{"brand":"Zen Leaf","brand:wikidata":"Q108911834","name":"Zen Leaf","shop":"cannabis"}},"shop/convenience/sheetz-be9dbe":{"name":"Sheetz","locationSet":{"include":["us-md","us-mi","us-nc","us-oh","us-pa","us-va","us-wv"]},"geometry":["point","area"],"matchScore":2,"terms":["sheetz"],"tags":{"brand:wikidata":"Q7492551","shop":"convenience"},"addTags":{"brand":"Sheetz","brand:wikidata":"Q7492551","name":"Sheetz","shop":"convenience"}},"shop/convenience/wawa-dad45f":{"name":"Wawa","locationSet":{"include":["us-dc","us-de","us-fl","us-md","us-nj","us-pa","us-va"]},"geometry":["point","area"],"matchScore":2,"terms":["wawa"],"tags":{"brand:wikidata":"Q5936320","shop":"convenience"},"addTags":{"brand":"Wawa","brand:wikidata":"Q5936320","name":"Wawa","shop":"convenience"}},"shop/pastry/mrsfields-839ebf":{"name":"Mrs. Fields","locationSet":{"include":["au","ph","us-ak","us-al","us-az","us-ca","us-co","us-de","us-fl","us-ga","us-hi","us-id","us-il","us-in","us-ks","us-la","us-ma","us-md","us-me","us-mi","us-mo","us-ms","us-nc","us-nj","us-nv","us-ny","us-oh","us-ok","us-pa","us-tx","us-ut","us-wi"]},"geometry":["point","area"],"matchScore":2,"terms":["mrs. fields"],"tags":{"brand:wikidata":"Q3866841","shop":"pastry"},"addTags":{"brand":"Mrs. Fields","brand:wikidata":"Q3866841","name":"Mrs. Fields","shop":"pastry"}},"shop/supermarket/giant-fc203b":{"name":"Giant (Landover)","locationSet":{"include":["us-dc","us-de","us-md","us-va"]},"geometry":["point","area"],"matchScore":2,"terms":["giant","giant food"],"tags":{"brand:wikidata":"Q5558336","shop":"supermarket"},"addTags":{"brand":"Giant","brand:wikidata":"Q5558336","name":"Giant","official_name":"Giant Food","shop":"supermarket"}},"shop/supermarket/gianteagle-dca8d8":{"name":"Giant Eagle","locationSet":{"include":["us-in","us-md","us-oh","us-pa","us-wv"]},"geometry":["point","area"],"matchScore":2,"terms":["giant eagle","giant eagle supermarket"],"tags":{"brand:wikidata":"Q1522721","shop":"supermarket"},"addTags":{"brand":"Giant Eagle","brand:wikidata":"Q1522721","name":"Giant Eagle","shop":"supermarket"}},"shop/window_blind/blindstogo-d1c49c":{"name":"Blinds to Go","locationSet":{"include":["ca-on","us-ct","us-de","us-ma","us-md","us-nj","us-ny","us-pa","us-va"]},"geometry":["point","area"],"matchScore":2,"terms":["blinds to go"],"tags":{"brand:wikidata":"Q123409913","shop":"window_blind"},"addTags":{"brand":"Blinds to Go","brand:wikidata":"Q123409913","name":"Blinds to Go","shop":"window_blind"}},"amenity/charging_station/baltimoregasandelectric-4c7d3b":{"name":"Baltimore Gas and Electric","locationSet":{"include":["us-md"]},"geometry":["point","vertex","area"],"matchScore":2,"terms":["baltimore gas and electric","bge"],"fields":["name","operator","{amenity/charging_station}"],"tags":{"amenity":"charging_station","operator:wikidata":"Q4852862"},"addTags":{"amenity":"charging_station","operator":"Baltimore Gas and Electric","operator:short":"BGE","operator:wikidata":"Q4852862"}},"amenity/clinic/christianacare-751657":{"name":"ChristianaCare","locationSet":{"include":["us-de","us-md","us-nj","us-pa"]},"geometry":["point","area"],"matchScore":2,"terms":["christianacare"],"fields":["name","operator","{amenity/clinic}"],"reference":{"key":"amenity","value":"clinic"},"tags":{"amenity":"clinic","operator:wikidata":"Q16987253"},"addTags":{"amenity":"clinic","healthcare":"clinic","operator":"ChristianaCare","operator:wikidata":"Q16987253"}},"amenity/hospital/inova-37da20":{"name":"Inova","locationSet":{"include":["us-md","us-va"]},"geometry":["area","point"],"matchScore":2,"terms":["inova"],"fields":["name","operator","{amenity/hospital}"],"reference":{"key":"amenity","value":"hospital"},"tags":{"amenity":"hospital","operator:wikidata":"Q16996992"},"addTags":{"amenity":"hospital","healthcare":"hospital","operator":"Inova","operator:wikidata":"Q16996992"}},"amenity/library/annearundelcountypubliclibrary-1170f4":{"name":"Anne Arundel County Public Library","locationSet":{"include":["us-md"]},"geometry":["point","area"],"matchScore":2,"terms":["aacpl","anne arundel county public library"],"tags":{"amenity":"library","operator:wikidata":"Q55264155"},"addTags":{"amenity":"library","operator":"Anne Arundel County Public Library","operator:short":"AACPL","operator:type":"public","operator:wikidata":"Q55264155"}},"amenity/library/baltimorecountypubliclibrary-1170f4":{"name":"Baltimore County Public Library","locationSet":{"include":["us-md"]},"geometry":["point","area"],"matchScore":2,"terms":["baltimore county public library","bcpl"],"tags":{"amenity":"library","operator:wikidata":"Q4852845"},"addTags":{"amenity":"library","operator":"Baltimore County Public Library","operator:short":"BCPL","operator:type":"public","operator:wikidata":"Q4852845"}},"amenity/library/enochprattfreelibrary-1170f4":{"name":"Enoch Pratt Free Library","locationSet":{"include":["us-md"]},"geometry":["point","area"],"matchScore":2,"terms":["enoch pratt free library"],"tags":{"amenity":"library","operator:wikidata":"Q69478541"},"addTags":{"amenity":"library","operator":"Enoch Pratt Free Library","operator:type":"public","operator:wikidata":"Q69478541"}},"amenity/library/harfordcountypubliclibrary-1170f4":{"name":"Harford County Public Library","locationSet":{"include":["us-md"]},"geometry":["point","area"],"matchScore":2,"terms":["harford county public library"],"tags":{"amenity":"library","operator:wikidata":"Q69478565"},"addTags":{"amenity":"library","operator":"Harford County Public Library","operator:type":"public","operator:wikidata":"Q69478565"}},"amenity/library/princegeorgescountymemoriallibrarysystem-1170f4":{"name":"Prince George's County Memorial Library System","locationSet":{"include":["us-md"]},"geometry":["point","area"],"matchScore":2,"terms":["pgcmls","prince george's county memorial library system"],"tags":{"amenity":"library","operator:wikidata":"Q17085883"},"addTags":{"amenity":"library","operator":"Prince George's County Memorial Library System","operator:short":"PGCMLS","operator:type":"public","operator:wikidata":"Q17085883"}},"amenity/police/marylandstatepolice-a9f0a0":{"name":"Maryland State Police","locationSet":{"include":["us-md"]},"geometry":["point","area"],"matchScore":2,"terms":["maryland state police","mdsp","msp"],"tags":{"amenity":"police","operator:wikidata":"Q3296292"},"addTags":{"amenity":"police","operator":"Maryland State Police","operator:short":"MSP","operator:wikidata":"Q3296292"}},"amenity/school/baltimorecitypublicschools-41ceb1":{"name":"Baltimore City Public Schools","locationSet":{"include":["us-md"]},"geometry":["area","point"],"matchScore":2,"terms":["baltimore city public schools"],"tags":{"amenity":"school","operator:wikidata":"Q4852821"},"addTags":{"amenity":"school","operator":"Baltimore City Public Schools","operator:type":"public","operator:wikidata":"Q4852821"}},"amenity/school/baltimorecountypublicschools-41ceb1":{"name":"Baltimore County Public Schools","locationSet":{"include":["us-md"]},"geometry":["area","point"],"matchScore":2,"terms":["baltimore county public schools","bcps"],"tags":{"amenity":"school","operator:wikidata":"Q4852849"},"addTags":{"amenity":"school","operator":"Baltimore County Public Schools","operator:short":"BCPS","operator:type":"public","operator:wikidata":"Q4852849"}},"amenity/school/cecilcountypublicschools-41ceb1":{"name":"Cecil County Public Schools","locationSet":{"include":["us-md"]},"geometry":["area","point"],"matchScore":2,"terms":["ccps","cecil county public schools"],"tags":{"amenity":"school","operator:wikidata":"Q5056025"},"addTags":{"amenity":"school","operator":"Cecil County Public Schools","operator:short":"CCPS","operator:type":"public","operator:wikidata":"Q5056025"}},"amenity/school/montgomerycountypublicschools-41ceb1":{"name":"Montgomery County Public Schools (Maryland)","locationSet":{"include":["us-md"]},"geometry":["area","point"],"matchScore":2,"terms":["mcps","montgomery county public schools"],"tags":{"amenity":"school","operator:wikidata":"Q599573"},"addTags":{"amenity":"school","operator":"Montgomery County Public Schools","operator:short":"MCPS","operator:type":"public","operator:wikidata":"Q599573"}},"amenity/school/washingtoncountypublicschools-41ceb1":{"name":"Washington County Public Schools","locationSet":{"include":["us-md"]},"geometry":["area","point"],"matchScore":2,"terms":["washington county public schools","wcps"],"tags":{"amenity":"school","operator:wikidata":"Q7971784"},"addTags":{"amenity":"school","operator":"Washington County Public Schools","operator:short":"WCPS","operator:type":"public","operator:wikidata":"Q7971784"}},"boundary/baltimorecounty-f0b713":{"name":"Baltimore County (Maryland)","locationSet":{"include":["us-md"]},"geometry":["line"],"matchScore":2,"terms":["baltimore county","baltimore county maryland"],"tags":{"boundary":"protected_area","operator:wikidata":"Q488668"},"addTags":{"boundary":"protected_area","operator":"Baltimore County","operator:wikidata":"Q488668"}},"boundary/baltimorecountydepartmentofrecreationandparks-f0b713":{"name":"Baltimore County Department of Recreation and Parks","locationSet":{"include":["us-md"]},"geometry":["line"],"matchScore":2,"terms":["baltimore county department of recreation and parks"],"tags":{"boundary":"protected_area","operator:wikidata":"Q110062941"},"addTags":{"boundary":"protected_area","operator":"Baltimore County Department of Recreation and Parks","operator:type":"public","operator:wikidata":"Q110062941"}},"boundary/marylandenvironmentaltrust-f0b713":{"name":"Maryland Environmental Trust","locationSet":{"include":["us-md"]},"geometry":["line"],"matchScore":2,"terms":["maryland environmental trust"],"tags":{"boundary":"protected_area","operator:wikidata":"Q6781321"},"addTags":{"boundary":"protected_area","operator":"Maryland Environmental Trust","operator:wikidata":"Q6781321"}},"boundary/marylandforestservice-f0b713":{"name":"Maryland Forest Service","locationSet":{"include":["us-md"]},"geometry":["line"],"matchScore":2,"terms":["maryland forest service"],"tags":{"boundary":"protected_area","operator:wikidata":"Q6781326"},"addTags":{"boundary":"protected_area","operator":"Maryland Forest Service","operator:wikidata":"Q6781326"}},"boundary/marylandparkservice-f0b713":{"name":"Maryland Park Service","locationSet":{"include":["us-md"]},"geometry":["line"],"matchScore":2,"terms":["maryland department of natural resources;maryland park service","maryland park service"],"tags":{"boundary":"protected_area","operator:wikidata":"Q110072482"},"addTags":{"boundary":"protected_area","operator":"Maryland Park Service","operator:type":"public","operator:wikidata":"Q110072482"}},"boundary/montgomeryparks-f0b713":{"name":"Montgomery Parks","locationSet":{"include":["us-md"]},"geometry":["line"],"matchScore":2,"terms":["montgomery parks"],"tags":{"boundary":"protected_area","operator:wikidata":"Q61359691"},"addTags":{"boundary":"protected_area","operator":"Montgomery Parks","operator:type":"public","operator:wikidata":"Q61359691"}},"boundary/princegeorgescountydepartmentofparksandrecreation-f0b713":{"name":"Prince George's County Department of Parks and Recreation","locationSet":{"include":["us-md"]},"geometry":["line"],"matchScore":2,"terms":["prince george's county department of parks and recreation"],"tags":{"boundary":"protected_area","operator:wikidata":"Q62029847"},"addTags":{"boundary":"protected_area","operator":"Prince George's County Department of Parks and Recreation","operator:type":"public","operator:wikidata":"Q62029847"}},"emergency/phone/johnshopkinsuniversity-b21369":{"name":"Johns Hopkins University","locationSet":{"include":["us-md"]},"geometry":["point","vertex"],"matchScore":2,"terms":["jhu","johns hopkins university"],"tags":{"emergency":"phone","operator:wikidata":"Q193727"},"addTags":{"emergency":"phone","operator":"Johns Hopkins University","operator:short":"JHU","operator:wikidata":"Q193727"}},"emergency/phone/towsonuniversity-b21369":{"name":"Towson University","locationSet":{"include":["us-md"]},"geometry":["point","vertex"],"matchScore":2,"terms":["towson university"],"tags":{"emergency":"phone","operator:wikidata":"Q1474129"},"addTags":{"emergency":"phone","operator":"Towson University","operator:wikidata":"Q1474129"}},"leisure/nature_reserve/alleganycountycommissioners-6ec8b9":{"name":"Allegany County","locationSet":{"include":["us-md"]},"geometry":["area","point"],"matchScore":2,"terms":["allegany county commissioners"],"tags":{"leisure":"nature_reserve","operator:wikidata":"Q156257"},"addTags":{"leisure":"nature_reserve","operator":"Allegany County Commissioners","operator:type":"public","operator:wikidata":"Q156257"}},"leisure/nature_reserve/baltimorecountydepartmentofrecreationandparks-6ec8b9":{"name":"Baltimore County Department of Recreation and Parks","locationSet":{"include":["us-md"]},"geometry":["area","point"],"matchScore":2,"terms":["baltimore county department of recreation and parks"],"tags":{"leisure":"nature_reserve","operator:wikidata":"Q110062941"},"addTags":{"leisure":"nature_reserve","operator":"Baltimore County Department of Recreation and Parks","operator:type":"public","operator:wikidata":"Q110062941"}},"leisure/nature_reserve/marylandparkservice-6ec8b9":{"name":"Maryland Park Service","locationSet":{"include":["us-md"]},"geometry":["area","point"],"matchScore":2,"terms":["maryland park service","maryland state parks"],"tags":{"leisure":"nature_reserve","operator:wikidata":"Q110072482"},"addTags":{"leisure":"nature_reserve","operator":"Maryland Park Service","operator:type":"public","operator:wikidata":"Q110072482"}},"leisure/nature_reserve/montgomeryparks-6ec8b9":{"name":"Montgomery Parks","locationSet":{"include":["us-md"]},"geometry":["area","point"],"matchScore":2,"terms":["montgomery parks"],"tags":{"leisure":"nature_reserve","operator:wikidata":"Q61359691"},"addTags":{"leisure":"nature_reserve","operator":"Montgomery Parks","operator:type":"public","operator:wikidata":"Q61359691"}},"leisure/nature_reserve/princegeorgescountydepartmentofparksandrecreation-6ec8b9":{"name":"Prince George's County Department of Parks and Recreation","locationSet":{"include":["us-md"]},"geometry":["area","point"],"matchScore":2,"terms":["prince george's county department of parks and recreation"],"tags":{"leisure":"nature_reserve","operator:wikidata":"Q62029847"},"addTags":{"leisure":"nature_reserve","operator":"Prince George's County Department of Parks and Recreation","operator:type":"public","operator:wikidata":"Q62029847"}},"leisure/nature_reserve/townofpoolesville-6ec8b9":{"name":"Town of Poolesville","locationSet":{"include":["us-md"]},"geometry":["area","point"],"matchScore":2,"terms":["town of poolesville"],"tags":{"leisure":"nature_reserve","operator:wikidata":"Q755052"},"addTags":{"leisure":"nature_reserve","operator":"Town of Poolesville","operator:wikidata":"Q755052"}},"leisure/park/alleganycountycommissioners-fb928d":{"name":"Allegany County","locationSet":{"include":["us-md"]},"geometry":["area","point"],"matchScore":2,"terms":["allegany county commissioners"],"tags":{"leisure":"park","operator:wikidata":"Q156257"},"addTags":{"leisure":"park","operator":"Allegany County Commissioners","operator:type":"public","operator:wikidata":"Q156257"}},"leisure/park/baltimorecountydepartmentofrecreationandparks-fb928d":{"name":"Baltimore County Department of Recreation and Parks","locationSet":{"include":["us-md"]},"geometry":["area","point"],"matchScore":2,"terms":["baltimore county department of recreation and parks"],"tags":{"leisure":"park","operator:wikidata":"Q110062941"},"addTags":{"leisure":"park","operator":"Baltimore County Department of Recreation and Parks","operator:type":"public","operator:wikidata":"Q110062941"}},"leisure/park/marylandparkservice-fb928d":{"name":"Maryland Park Service","locationSet":{"include":["us-md"]},"geometry":["area","point"],"matchScore":2,"terms":["maryland park service","maryland state parks"],"tags":{"leisure":"park","operator:wikidata":"Q110072482"},"addTags":{"leisure":"park","operator":"Maryland Park Service","operator:type":"public","operator:wikidata":"Q110072482"}},"leisure/park/montgomeryparks-fb928d":{"name":"Montgomery Parks","locationSet":{"include":["us-md"]},"geometry":["area","point"],"matchScore":2,"terms":["montgomery parks"],"tags":{"leisure":"park","operator:wikidata":"Q61359691"},"addTags":{"leisure":"park","operator":"Montgomery Parks","operator:type":"public","operator:wikidata":"Q61359691"}},"leisure/park/princegeorgescountydepartmentofparksandrecreation-fb928d":{"name":"Prince George's County Department of Parks and Recreation","locationSet":{"include":["us-md"]},"geometry":["area","point"],"matchScore":2,"terms":["prince george's county department of parks and recreation"],"tags":{"leisure":"park","operator:wikidata":"Q62029847"},"addTags":{"leisure":"park","operator":"Prince George's County Department of Parks and Recreation","operator:type":"public","operator:wikidata":"Q62029847"}},"leisure/park/townofpoolesville-fb928d":{"name":"Town of Poolesville","locationSet":{"include":["us-md"]},"geometry":["area","point"],"matchScore":2,"terms":["town of poolesville"],"tags":{"leisure":"park","operator:wikidata":"Q755052"},"addTags":{"leisure":"park","operator":"Town of Poolesville","operator:wikidata":"Q755052"}},"man_made/charge_point/baltimoregasandelectric-c1a2f3":{"name":"Baltimore Gas and Electric","locationSet":{"include":["us-md"]},"geometry":["point"],"matchScore":2,"terms":["baltimore gas and electric","bge"],"fields":["name","operator","{man_made/charge_point}"],"tags":{"man_made":"charge_point","operator:wikidata":"Q4852862"},"addTags":{"man_made":"charge_point","operator":"Baltimore Gas and Electric","operator:short":"BGE","operator:wikidata":"Q4852862"}},"man_made/pipeline/baltimorecitydepartmentofpublicworks-0dc4c6":{"name":"Baltimore City Department of Public Works","locationSet":{"include":["us-md"]},"geometry":["line"],"matchScore":2,"terms":["baltimore city department of public works"],"tags":{"man_made":"pipeline","operator:wikidata":"Q108129298"},"addTags":{"man_made":"pipeline","operator":"Baltimore City Department of Public Works","operator:wikidata":"Q108129298"}},"office/government/marylandmotorvehicleadministration-ac5917":{"name":"Maryland MVA","locationSet":{"include":["us-md"]},"geometry":["point","area"],"matchScore":2,"terms":["maryland motor vehicle administration","maryland mva","mva"],"fields":["name","operator","{office/government}"],"tags":{"office":"government","operator:wikidata":"Q82510889"},"addTags":{"government":"transportation","office":"government","operator":"Maryland Motor Vehicle Administration","operator:short":"Maryland MVA","operator:wikidata":"Q82510889"}},"office/government/marylandstatepolice-ac5917":{"name":"Maryland State Police","locationSet":{"include":["us-md"]},"geometry":["point","area"],"matchScore":2,"terms":["maryland state police"],"fields":["name","operator","{office/government}"],"tags":{"office":"government","operator:wikidata":"Q3296292"},"addTags":{"office":"government","operator":"Maryland State Police","operator:wikidata":"Q3296292"}},"pipeline/substation/baltimorecitydepartmentofpublicworks-b96711":{"name":"Baltimore City Department of Public Works","locationSet":{"include":["us-md"]},"geometry":["area","point"],"matchScore":2,"terms":["baltimore city department of public works"],"tags":{"operator:wikidata":"Q108129298","pipeline":"substation"},"addTags":{"operator":"Baltimore City Department of Public Works","operator:wikidata":"Q108129298","pipeline":"substation"}},"power/generator/virginiaelectricandpowercompany-a84d3b":{"name":"Virginia Electric & Power Company","locationSet":{"include":["us-md","us-nc","us-va","us-wv"]},"geometry":["point","vertex","area"],"matchScore":2,"terms":["virginia electric & power company"],"searchable":false,"tags":{"operator:wikidata":"Q117834539","power":"generator"},"addTags":{"operator":"Virginia Electric & Power Company","operator:wikidata":"Q117834539","power":"generator"}},"power/line/baltimoregasandelectric-ab2cf5":{"name":"Baltimore Gas & Electric","locationSet":{"include":["us-md"]},"geometry":["line"],"matchScore":2,"terms":["baltimore gas & electric","bg&e","bge"],"tags":{"operator:wikidata":"Q4852862","power":"line"},"addTags":{"frequency":"60","operator":"Baltimore Gas & Electric","operator:wikidata":"Q4852862","power":"line"}},"power/line/delmarvapower-dd2844":{"name":"Delmarva Power","locationSet":{"include":["us-de","us-md"]},"geometry":["line"],"matchScore":2,"terms":["delmarva power"],"tags":{"operator:wikidata":"Q33127799","power":"line"},"addTags":{"operator":"Delmarva Power","operator:wikidata":"Q33127799","power":"line"}},"power/line/peco-e7c462":{"name":"PECO","locationSet":{"include":["us-md","us-pa"]},"geometry":["line"],"matchScore":2,"terms":["peco"],"tags":{"operator:wikidata":"Q7118900","power":"line"},"addTags":{"operator":"PECO","operator:wikidata":"Q7118900","power":"line"}},"power/line/southernmarylandelectriccooperative-ab2cf5":{"name":"Southern Maryland Electric Cooperative","locationSet":{"include":["us-md"]},"geometry":["line"],"matchScore":2,"terms":["smeco","southern maryland electric cooperative"],"tags":{"operator:wikidata":"Q7570123","power":"line"},"addTags":{"frequency":"60","operator":"Southern Maryland Electric Cooperative","operator:wikidata":"Q7570123","power":"line"}},"power/line/virginiaelectricandpowercompany-a36c89":{"name":"Virginia Electric & Power Company","locationSet":{"include":["us-md","us-nc","us-va","us-wv"]},"geometry":["line"],"matchScore":2,"terms":["virginia electric & power company"],"searchable":false,"tags":{"operator:wikidata":"Q117834539","power":"line"},"addTags":{"operator":"Virginia Electric & Power Company","operator:wikidata":"Q117834539","power":"line"}},"power/line/westpennpower-67e3b3":{"name":"West Penn Power","locationSet":{"include":["us-md","us-pa","us-va"]},"geometry":["line"],"matchScore":2,"terms":["west penn power","west penn power company"],"tags":{"operator:wikidata":"Q129774858","power":"line"},"addTags":{"operator":"West Penn Power","operator:wikidata":"Q129774858","power":"line"}},"power/minor_line/baltimoregasandelectric-d4ea6d":{"name":"Baltimore Gas & Electric","locationSet":{"include":["us-md"]},"geometry":["line"],"matchScore":2,"terms":["baltimore gas & electric","bg&e","bge"],"tags":{"operator:wikidata":"Q4852862","power":"minor_line"},"addTags":{"frequency":"60","operator":"Baltimore Gas & Electric","operator:wikidata":"Q4852862","power":"minor_line"}},"power/minor_line/delmarvapower-4fc575":{"name":"Delmarva Power","locationSet":{"include":["us-de","us-md"]},"geometry":["line"],"matchScore":2,"terms":["delmarva power"],"tags":{"operator:wikidata":"Q33127799","power":"minor_line"},"addTags":{"operator":"Delmarva Power","operator:wikidata":"Q33127799","power":"minor_line"}},"power/minor_line/peco-d5a9d9":{"name":"PECO","locationSet":{"include":["us-md","us-pa"]},"geometry":["line"],"matchScore":2,"terms":["peco"],"tags":{"operator:wikidata":"Q7118900","power":"minor_line"},"addTags":{"operator":"PECO","operator:wikidata":"Q7118900","power":"minor_line"}},"power/minor_line/southernmarylandelectriccooperative-d4ea6d":{"name":"Southern Maryland Electric Cooperative","locationSet":{"include":["us-md"]},"geometry":["line"],"matchScore":2,"terms":["smeco","southern maryland electric cooperative"],"tags":{"operator:wikidata":"Q7570123","power":"minor_line"},"addTags":{"frequency":"60","operator":"Southern Maryland Electric Cooperative","operator:wikidata":"Q7570123","power":"minor_line"}},"power/minor_line/virginiaelectricandpowercompany-59e99d":{"name":"Virginia Electric & Power Company","locationSet":{"include":["us-md","us-nc","us-va","us-wv"]},"geometry":["line"],"matchScore":2,"terms":["virginia electric & power company"],"searchable":false,"tags":{"operator:wikidata":"Q117834539","power":"minor_line"},"addTags":{"operator":"Virginia Electric & Power Company","operator:wikidata":"Q117834539","power":"minor_line"}},"power/minor_line/westpennpower-69a3c2":{"name":"West Penn Power","locationSet":{"include":["us-md","us-pa","us-va"]},"geometry":["line"],"matchScore":2,"terms":["west penn power","west penn power company"],"tags":{"operator:wikidata":"Q129774858","power":"minor_line"},"addTags":{"operator":"West Penn Power","operator:wikidata":"Q129774858","power":"minor_line"}},"power/plant/virginiaelectricandpowercompany-87b9b7":{"name":"Virginia Electric & Power Company","locationSet":{"include":["us-md","us-nc","us-va","us-wv"]},"geometry":["area"],"matchScore":2,"terms":["virginia electric & power co","virginia electric & power company"],"searchable":false,"tags":{"operator:wikidata":"Q117834539","power":"plant"},"addTags":{"operator":"Virginia Electric & Power Company","operator:wikidata":"Q117834539","power":"plant"}},"power/pole/baltimoregasandelectric-39a21c":{"name":"Baltimore Gas & Electric","locationSet":{"include":["us-md"]},"geometry":["point","vertex"],"matchScore":2,"terms":["baltimore gas & electric","bg&e","bge"],"tags":{"operator:wikidata":"Q4852862","power":"pole"},"addTags":{"frequency":"60","operator":"Baltimore Gas & Electric","operator:wikidata":"Q4852862","power":"pole"}},"power/pole/delmarvapower-92a207":{"name":"Delmarva Power","locationSet":{"include":["us-de","us-md"]},"geometry":["point","vertex"],"matchScore":2,"terms":["delmarva power"],"tags":{"operator:wikidata":"Q33127799","power":"pole"},"addTags":{"operator":"Delmarva Power","operator:wikidata":"Q33127799","power":"pole"}},"power/pole/peco-8902b7":{"name":"PECO","locationSet":{"include":["us-md","us-pa"]},"geometry":["point","vertex"],"matchScore":2,"terms":["peco"],"tags":{"operator:wikidata":"Q7118900","power":"pole"},"addTags":{"operator":"PECO","operator:wikidata":"Q7118900","power":"pole"}},"power/pole/southernmarylandelectriccooperative-39a21c":{"name":"Southern Maryland Electric Cooperative","locationSet":{"include":["us-md"]},"geometry":["point","vertex"],"matchScore":2,"terms":["smeco","southern maryland electric cooperative"],"tags":{"operator:wikidata":"Q7570123","power":"pole"},"addTags":{"frequency":"60","operator":"Southern Maryland Electric Cooperative","operator:wikidata":"Q7570123","power":"pole"}},"power/pole/virginiaelectricandpowercompany-7ce060":{"name":"Virginia Electric & Power Company","locationSet":{"include":["us-md","us-nc","us-va","us-wv"]},"geometry":["point","vertex"],"matchScore":2,"terms":["virginia electric & power company"],"searchable":false,"tags":{"operator:wikidata":"Q117834539","power":"pole"},"addTags":{"operator":"Virginia Electric & Power Company","operator:wikidata":"Q117834539","power":"pole"}},"power/pole/westpennpower-a5719a":{"name":"West Penn Power","locationSet":{"include":["us-md","us-pa","us-va"]},"geometry":["point","vertex"],"matchScore":2,"terms":["west penn power","west penn power company"],"tags":{"operator:wikidata":"Q129774858","power":"pole"},"addTags":{"operator":"West Penn Power","operator:wikidata":"Q129774858","power":"pole"}},"power/substation/baltimoregasandelectric-62c87b":{"name":"Baltimore Gas & Electric","locationSet":{"include":["us-md"]},"geometry":["area","point"],"matchScore":2,"terms":["baltimore gas & electric","bg&e","bge"],"tags":{"operator:wikidata":"Q4852862","power":"substation"},"addTags":{"operator":"Baltimore Gas & Electric","operator:wikidata":"Q4852862","power":"substation"}},"power/substation/delawareelectriccooperative-2687bf":{"name":"Delaware Electric Cooperative","locationSet":{"include":["us-de","us-md"]},"geometry":["area","point"],"matchScore":2,"terms":["delaware electric cooperative","deleware electric cooperative"],"tags":{"operator:wikidata":"Q39057203","power":"substation"},"addTags":{"operator":"Delaware Electric Cooperative","operator:wikidata":"Q39057203","power":"substation"}},"power/substation/delmarvapower-2687bf":{"name":"Delmarva Power","locationSet":{"include":["us-de","us-md"]},"geometry":["area","point"],"matchScore":2,"terms":["delmarva power"],"tags":{"operator:wikidata":"Q33127799","power":"substation"},"addTags":{"operator":"Delmarva Power","operator:wikidata":"Q33127799","power":"substation"}},"power/substation/peco-c011fe":{"name":"PECO","locationSet":{"include":["us-md","us-pa"]},"geometry":["area","point"],"matchScore":2,"terms":["peco"],"tags":{"operator:wikidata":"Q7118900","power":"substation"},"addTags":{"operator":"PECO","operator:wikidata":"Q7118900","power":"substation"}},"power/substation/virginiaelectricandpowercompany-73adb4":{"name":"Virginia Electric & Power Company","locationSet":{"include":["us-md","us-nc","us-va","us-wv"]},"geometry":["area","point"],"matchScore":2,"terms":["virginia electric & power company"],"searchable":false,"tags":{"operator:wikidata":"Q117834539","power":"substation"},"addTags":{"operator":"Virginia Electric & Power Company","operator:wikidata":"Q117834539","power":"substation"}},"power/substation/washingtonmetropolitanareatransitauthority-0d215b":{"name":"Washington Metropolitan Area Transit Authority","locationSet":{"include":["us-dc","us-md","us-va"]},"geometry":["area","point"],"matchScore":2,"terms":["washington metropolitan area transit authority","wmata"],"tags":{"operator:wikidata":"Q7972051","power":"substation"},"addTags":{"operator":"Washington Metropolitan Area Transit Authority","operator:short":"WMATA","operator:wikidata":"Q7972051","power":"substation"}},"power/substation/westpennpower-9031bf":{"name":"West Penn Power","locationSet":{"include":["us-md","us-pa","us-va"]},"geometry":["area","point"],"matchScore":2,"terms":["west penn power"],"tags":{"operator:wikidata":"Q129774858","power":"substation"},"addTags":{"operator":"West Penn Power","operator:wikidata":"Q129774858","power":"substation"}},"power/tower/baltimoregasandelectric-407ea9":{"name":"Baltimore Gas & Electric","locationSet":{"include":["us-md"]},"geometry":["point","vertex"],"matchScore":2,"terms":["baltimore gas & electric","bg&e","bge"],"tags":{"operator:wikidata":"Q4852862","power":"tower"},"addTags":{"frequency":"60","operator":"Baltimore Gas & Electric","operator:wikidata":"Q4852862","power":"tower"}},"power/tower/delmarvapower-ac3708":{"name":"Delmarva Power","locationSet":{"include":["us-de","us-md"]},"geometry":["point","vertex"],"matchScore":2,"terms":["delmarva power"],"tags":{"operator:wikidata":"Q33127799","power":"tower"},"addTags":{"operator":"Delmarva Power","operator:wikidata":"Q33127799","power":"tower"}},"power/tower/peco-8ebb48":{"name":"PECO","locationSet":{"include":["us-md","us-pa"]},"geometry":["point","vertex"],"matchScore":2,"terms":["peco"],"tags":{"operator:wikidata":"Q7118900","power":"tower"},"addTags":{"operator":"PECO","operator:wikidata":"Q7118900","power":"tower"}},"power/tower/southernmarylandelectriccooperative-407ea9":{"name":"Southern Maryland Electric Cooperative","locationSet":{"include":["us-md"]},"geometry":["point","vertex"],"matchScore":2,"terms":["smeco","southern maryland electric cooperative"],"tags":{"operator:wikidata":"Q7570123","power":"tower"},"addTags":{"frequency":"60","operator":"Southern Maryland Electric Cooperative","operator:wikidata":"Q7570123","power":"tower"}},"power/tower/virginiaelectricandpowercompany-037e19":{"name":"Virginia Electric & Power Company","locationSet":{"include":["us-md","us-nc","us-va","us-wv"]},"geometry":["point","vertex"],"matchScore":2,"terms":["virginia electric & power company"],"searchable":false,"tags":{"operator:wikidata":"Q117834539","power":"tower"},"addTags":{"operator":"Virginia Electric & Power Company","operator:wikidata":"Q117834539","power":"tower"}},"power/tower/westpennpower-ebbe72":{"name":"West Penn Power","locationSet":{"include":["us-md","us-pa","us-va"]},"geometry":["point","vertex"],"matchScore":2,"terms":["west penn power","west penn power company"],"tags":{"operator:wikidata":"Q129774858","power":"tower"},"addTags":{"operator":"West Penn Power","operator:wikidata":"Q129774858","power":"tower"}},"power/transformer/baltimoregasandelectric-2e2532":{"name":"Baltimore Gas & Electric","locationSet":{"include":["us-md"]},"geometry":["point","vertex"],"matchScore":2,"terms":["baltimore gas & electric","bg&e","bge"],"tags":{"operator:wikidata":"Q4852862","power":"transformer"},"addTags":{"operator":"Baltimore Gas & Electric","operator:wikidata":"Q4852862","power":"transformer"}},"power/transformer/delawareelectriccooperative-81dec4":{"name":"Delaware Electric Cooperative","locationSet":{"include":["us-de","us-md"]},"geometry":["point","vertex"],"matchScore":2,"terms":["delaware electric cooperative","deleware electric cooperative"],"tags":{"operator:wikidata":"Q39057203","power":"transformer"},"addTags":{"operator":"Delaware Electric Cooperative","operator:wikidata":"Q39057203","power":"transformer"}},"power/transformer/delmarvapower-81dec4":{"name":"Delmarva Power","locationSet":{"include":["us-de","us-md"]},"geometry":["point","vertex"],"matchScore":2,"terms":["delmarva power"],"tags":{"operator:wikidata":"Q33127799","power":"transformer"},"addTags":{"operator":"Delmarva Power","operator:wikidata":"Q33127799","power":"transformer"}},"power/transformer/peco-0ba8e3":{"name":"PECO","locationSet":{"include":["us-md","us-pa"]},"geometry":["point","vertex"],"matchScore":2,"terms":["peco"],"tags":{"operator:wikidata":"Q7118900","power":"transformer"},"addTags":{"operator":"PECO","operator:wikidata":"Q7118900","power":"transformer"}},"power/transformer/virginiaelectricandpowercompany-1d1ce8":{"name":"Virginia Electric & Power Company","locationSet":{"include":["us-md","us-nc","us-va","us-wv"]},"geometry":["point","vertex"],"matchScore":2,"terms":["virginia electric & power company"],"searchable":false,"tags":{"operator:wikidata":"Q117834539","power":"transformer"},"addTags":{"operator":"Virginia Electric & Power Company","operator:wikidata":"Q117834539","power":"transformer"}},"power/transformer/washingtonmetropolitanareatransitauthority-4f107c":{"name":"Washington Metropolitan Area Transit Authority","locationSet":{"include":["us-dc","us-md","us-va"]},"geometry":["point","vertex"],"matchScore":2,"terms":["washington metropolitan area transit authority","wmata"],"tags":{"operator:wikidata":"Q7972051","power":"transformer"},"addTags":{"operator":"Washington Metropolitan Area Transit Authority","operator:short":"WMATA","operator:wikidata":"Q7972051","power":"transformer"}},"power/transformer/westpennpower-06fb35":{"name":"West Penn Power","locationSet":{"include":["us-md","us-pa","us-va"]},"geometry":["point","vertex"],"matchScore":2,"terms":["west penn power"],"tags":{"operator:wikidata":"Q129774858","power":"transformer"},"addTags":{"operator":"West Penn Power","operator:wikidata":"Q129774858","power":"transformer"}},"shop/charity/goodwillindustriesofthechesapeake-c7f62c":{"name":"Goodwill Industries of the Chesapeake","locationSet":{"include":["us-md"]},"geometry":["point","area"],"matchScore":2,"terms":["goodwill","goodwill industries of the chesapeake","goodwill industries of the chesapeake, inc","goodwill industries of the chesapeake, incorporated"],"tags":{"operator:wikidata":"Q57267384","shop":"charity"},"addTags":{"brand":"Goodwill","brand:wikidata":"Q5583655","name":"Goodwill","operator":"Goodwill Industries of the Chesapeake","operator:wikidata":"Q57267384","shop":"charity"}},"shop/charity/goodwillofgreaterwashington-9f4803":{"name":"Goodwill of Greater Washington","locationSet":{"include":["us-dc","us-md","us-va"]},"geometry":["point","area"],"matchScore":2,"terms":["goodwill","goodwill of greater washington"],"tags":{"operator:wikidata":"Q126898322","shop":"charity"},"addTags":{"brand":"Goodwill","brand:wikidata":"Q5583655","name":"Goodwill","operator":"Goodwill of Greater Washington","operator:wikidata":"Q126898322","shop":"charity"}},"shop/charity/horizongoodwillindustries-fa25da":{"name":"Horizon Goodwill Industries","locationSet":{"include":["us-md","us-pa","us-va","us-wv"]},"geometry":["point","area"],"matchScore":2,"terms":["goodwill","horizon goodwill industries"],"tags":{"operator:wikidata":"Q126898859","shop":"charity"},"addTags":{"brand":"Goodwill","brand:wikidata":"Q5583655","name":"Goodwill","operator":"Horizon Goodwill Industries","operator:wikidata":"Q126898859","shop":"charity"}},"public_transport/platform/bus_point/baltimorelink-df8bf0":{"name":"BaltimoreLink","locationSet":{"include":["us-md"]},"geometry":["point","vertex"],"matchScore":2,"terms":["baltimore","baltimorelink","maryland transit administration","mta","mta baltimore","mta local bus"],"reference":{"key":"public_transport","value":"platform"},"tags":{"bus":"yes","network:wikidata":"Q6718408","public_transport":"platform"},"addTags":{"bus":"yes","highway":"bus_stop","network":"BaltimoreLink","network:wikidata":"Q6718408","operator":"Maryland Transit Administration","operator:short":"MTA","operator:wikidata":"Q1863801","public_transport":"platform"}},"public_transport/platform/bus_point/harfordtransitlink-df8bf0":{"name":"Harford Transit LINK","locationSet":{"include":["us-md"]},"geometry":["point","vertex"],"matchScore":2,"terms":["harford transit link"],"reference":{"key":"public_transport","value":"platform"},"tags":{"bus":"yes","network:wikidata":"Q5657016","public_transport":"platform"},"addTags":{"bus":"yes","highway":"bus_stop","network":"Harford Transit LINK","network:wikidata":"Q5657016","public_transport":"platform"}},"public_transport/platform/bus_point/rabbittransit-30fb4a":{"name":"rabbittransit","locationSet":{"include":["us-md","us-pa"]},"geometry":["point","vertex"],"matchScore":2,"terms":["central pennsylvania transportation authority","rabbittransit"],"reference":{"key":"public_transport","value":"platform"},"tags":{"bus":"yes","network:wikidata":"Q7278624","public_transport":"platform"},"addTags":{"bus":"yes","highway":"bus_stop","network":"rabbittransit","network:wikidata":"Q7278624","operator":"Central Pennsylvania Transportation Authority","public_transport":"platform"}},"public_transport/platform/bus_point/shuttleum-df8bf0":{"name":"Shuttle-UM","locationSet":{"include":["us-md"]},"geometry":["point","vertex"],"matchScore":2,"terms":["shuttle-um"],"reference":{"key":"public_transport","value":"platform"},"tags":{"bus":"yes","network:wikidata":"Q7505684","public_transport":"platform"},"addTags":{"bus":"yes","highway":"bus_stop","network":"Shuttle-UM","network:wikidata":"Q7505684","public_transport":"platform"}},"public_transport/platform/bus_point/transit-df8bf0":{"name":"TransIT","locationSet":{"include":["us-md"]},"geometry":["point","vertex"],"matchScore":2,"terms":["transit"],"reference":{"key":"public_transport","value":"platform"},"tags":{"bus":"yes","network:wikidata":"Q7833621","public_transport":"platform"},"addTags":{"bus":"yes","highway":"bus_stop","network":"TransIT","network:wikidata":"Q7833621","public_transport":"platform"}},"type/route/bus/baltimorelink-93a4b4":{"name":"BaltimoreLink","locationSet":{"include":["us-md"]},"geometry":["relation"],"matchScore":2,"terms":["baltimore","baltimorelink","maryland transit administration","mta","mta baltimore","mta local bus"],"reference":{"key":"route","value":"bus"},"tags":{"network:wikidata":"Q6718408","route":"bus","type":"route"},"addTags":{"network":"BaltimoreLink","network:wikidata":"Q6718408","operator":"Maryland Transit Administration","operator:short":"MTA","operator:wikidata":"Q1863801","route":"bus","type":"route"}},"type/route/bus/harfordtransitlink-93a4b4":{"name":"Harford Transit LINK","locationSet":{"include":["us-md"]},"geometry":["relation"],"matchScore":2,"terms":["harford transit link"],"reference":{"key":"route","value":"bus"},"tags":{"network:wikidata":"Q5657016","route":"bus","type":"route"},"addTags":{"network":"Harford Transit LINK","network:wikidata":"Q5657016","route":"bus","type":"route"}},"type/route/bus/rabbittransit-17479d":{"name":"rabbittransit","locationSet":{"include":["us-md","us-pa"]},"geometry":["relation"],"matchScore":2,"terms":["central pennsylvania transportation authority","rabbittransit"],"reference":{"key":"route","value":"bus"},"tags":{"network:wikidata":"Q7278624","route":"bus","type":"route"},"addTags":{"network":"rabbittransit","network:wikidata":"Q7278624","operator":"Central Pennsylvania Transportation Authority","route":"bus","type":"route"}},"type/route/bus/shuttleum-93a4b4":{"name":"Shuttle-UM","locationSet":{"include":["us-md"]},"geometry":["relation"],"matchScore":2,"terms":["shuttle-um"],"reference":{"key":"route","value":"bus"},"tags":{"network:wikidata":"Q7505684","route":"bus","type":"route"},"addTags":{"network":"Shuttle-UM","network:wikidata":"Q7505684","route":"bus","type":"route"}},"type/route/bus/transit-93a4b4":{"name":"TransIT","locationSet":{"include":["us-md"]},"geometry":["relation"],"matchScore":2,"terms":["transit"],"reference":{"key":"route","value":"bus"},"tags":{"network:wikidata":"Q7833621","route":"bus","type":"route"},"addTags":{"network":"TransIT","network:wikidata":"Q7833621","route":"bus","type":"route"}}}