{"amenity/atm/attijariwafabank-e568eb":{"name":"Attijariwafa Bank (التجاري وفا بنك)","locationSet":{"include":["ae","be","bf","bj","ca","cd","cg","ch","ci","cm","eg","es","fr","ga","gb","it","ma","mr","nl","sa","sn","tg","tn"]},"geometry":["point","vertex"],"matchScore":2,"terms":["attijariwafa bank","attijariwafa bank التجاري وفا بنك","التجاري وفا بنك"],"fields":["name","brand","{amenity/atm}"],"tags":{"amenity":"atm","brand:wikidata":"Q758052"},"addTags":{"amenity":"atm","brand":"Attijariwafa Bank","brand:ar":"التجاري وفا بنك","brand:en":"Attijariwafa Bank","brand:wikidata":"Q758052","name:ar":"التجاري وفا بنك","name:en":"Attijariwafa Bank","operator":"Attijariwafa Bank","operator:wikidata":"Q758052"}},"amenity/atm/bnpparibas-6b438a":{"name":"BNP Paribas","locationSet":{"include":["ae","af","ar","at","bf","bg","bh","br","ca","ch","ci","cl","co","cz","de","dk","dz","es","fi","fr","gb","gf","gp","hu","ie","il","it","kw","lu","ma","ml","mq","mx","nl","no","pe","pt","qa","re","ro","ru","sa","se","sk","sn","tn","tr","us"]},"geometry":["point","vertex"],"matchScore":2,"terms":["bnp paribas"],"fields":["name","brand","{amenity/atm}"],"tags":{"amenity":"atm","brand:wikidata":"Q499707"},"addTags":{"amenity":"atm","brand":"BNP Paribas","brand:wikidata":"Q499707","operator":"BNP Paribas","operator:wikidata":"Q499707"}},"amenity/atm/hsbcsaudiarabia-fc7317":{"name":"إتش إس بي سي السعودية","locationSet":{"include":["sa"]},"geometry":["point","vertex"],"matchScore":2,"terms":["hsbc saudi arabia","hsbcsaudi","إتش إس بي سي السعودية"],"fields":["name","brand","{amenity/atm}"],"tags":{"amenity":"atm","brand:wikidata":"Q5635879"},"addTags":{"alt_name:en":"HSBCSaudi","amenity":"atm","brand":"إتش إس بي سي السعودية","brand:ar":"إتش إس بي سي السعودية","brand:en":"HSBC Saudi Arabia","brand:wikidata":"Q5635879","name:ar":"إتش إس بي سي السعودية","name:en":"HSBC Saudi Arabia","operator":"إتش إس بي سي السعودية","operator:wikidata":"Q5635879"}},"amenity/atm/saudinationalbank-fc7317":{"name":"البنك الأهلي السعودي","locationSet":{"include":["sa"]},"geometry":["point","vertex"],"matchScore":2,"terms":["national commercial bank","ncb","samba","saudi national bank","snb","البنك الأهلي","البنك الأهلي التجاري","البنك الأهلي السعودي","سامبا","مجموعة سامبا المالية"],"fields":["name","brand","{amenity/atm}"],"tags":{"amenity":"atm","brand:wikidata":"Q1518238"},"addTags":{"alt_name:en":"SNB","amenity":"atm","brand":"البنك الأهلي السعودي","brand:ar":"البنك الأهلي السعودي","brand:en":"Saudi National Bank","brand:wikidata":"Q1518238","name:ar":"البنك الأهلي السعودي","name:en":"Saudi National Bank","operator":"البنك الأهلي السعودي","operator:wikidata":"Q1518238"}},"amenity/atm/alawwalbank-fc7317":{"name":"البنك الأول","locationSet":{"include":["sa"]},"geometry":["point","vertex"],"matchScore":2,"terms":["alawwal bank","البنك الأول"],"fields":["name","brand","{amenity/atm}"],"tags":{"amenity":"atm","brand:wikidata":"Q2693351"},"addTags":{"amenity":"atm","brand":"البنك الأول","brand:ar":"البنك الأول","brand:en":"Alawwal Bank","brand:wikidata":"Q2693351","name:ar":"البنك الأول","name:en":"Alawwal Bank","operator":"البنك الأول","operator:wikidata":"Q2693351"}},"amenity/atm/saudibritishbank-fc7317":{"name":"البنك السعودي البريطاني","locationSet":{"include":["sa"]},"geometry":["point","vertex"],"matchScore":2,"terms":["sabb","saudi british bank","البنك السعودي البريطاني"],"fields":["name","brand","{amenity/atm}"],"tags":{"amenity":"atm","brand:wikidata":"Q4166519"},"addTags":{"alt_name:en":"SABB","amenity":"atm","brand":"البنك السعودي البريطاني","brand:ar":"البنك السعودي البريطاني","brand:en":"Saudi British Bank","brand:wikidata":"Q4166519","name:ar":"البنك السعودي البريطاني","name:en":"Saudi British Bank","operator":"البنك السعودي البريطاني","operator:wikidata":"Q4166519"}},"amenity/atm/banquesaudifransi-fc7317":{"name":"البنك السعودي الفرنسي","locationSet":{"include":["sa"]},"geometry":["point","vertex"],"matchScore":2,"terms":["banque saudi fransi","bsf","البنك السعودي الفرنسي"],"fields":["name","brand","{amenity/atm}"],"tags":{"amenity":"atm","brand:wikidata":"Q7181252"},"addTags":{"alt_name:en":"BSF","amenity":"atm","brand":"البنك السعودي الفرنسي","brand:ar":"البنك السعودي الفرنسي","brand:en":"Banque Saudi Fransi","brand:wikidata":"Q7181252","name:ar":"البنك السعودي الفرنسي","name:en":"Banque Saudi Fransi","operator":"البنك السعودي الفرنسي","operator:wikidata":"Q7181252"}},"amenity/atm/saudiinvestmentbank-fc7317":{"name":"البنك السعودي للاستثمار","locationSet":{"include":["sa"]},"geometry":["point","vertex"],"matchScore":2,"terms":["saib","saudi investment bank","البنك السعودي للاستثمار"],"fields":["name","brand","{amenity/atm}"],"tags":{"amenity":"atm","brand:wikidata":"Q12184641"},"addTags":{"alt_name:en":"SAIB","amenity":"atm","brand":"البنك السعودي للاستثمار","brand:ar":"البنك السعودي للاستثمار","brand:en":"Saudi Investment Bank","brand:wikidata":"Q12184641","name:ar":"البنك السعودي للاستثمار","name:en":"Saudi Investment Bank","operator":"البنك السعودي للاستثمار","operator:wikidata":"Q12184641"}},"amenity/atm/arabnationalbank-fc7317":{"name":"البنك العربي الوطني","locationSet":{"include":["sa"]},"geometry":["point","vertex"],"matchScore":2,"terms":["anb","arab national bank","البنك العربي الوطني"],"fields":["name","brand","{amenity/atm}"],"tags":{"amenity":"atm","brand:wikidata":"Q4783214"},"addTags":{"alt_name:en":"ANB","amenity":"atm","brand":"البنك العربي الوطني","brand:ar":"البنك العربي الوطني","brand:en":"Arab National Bank","brand:wikidata":"Q4783214","name:ar":"البنك العربي الوطني","name:en":"Arab National Bank","operator":"البنك العربي الوطني","operator:wikidata":"Q4783214"}},"amenity/atm/bankalbilad-fc7317":{"name":"بنك البلاد","locationSet":{"include":["sa"]},"geometry":["point","vertex"],"matchScore":2,"terms":["al bilad bank","bank albilad","بنك البلاد"],"fields":["name","brand","{amenity/atm}"],"tags":{"amenity":"atm","brand:wikidata":"Q4166498"},"addTags":{"alt_name:en":"Al Bilad Bank","amenity":"atm","brand":"بنك البلاد","brand:ar":"بنك البلاد","brand:en":"Bank Albilad","brand:wikidata":"Q4166498","name:ar":"بنك البلاد","name:en":"Bank Albilad","operator":"بنك البلاد","operator:wikidata":"Q4166498"}},"amenity/atm/bankaljazira-fc7317":{"name":"بنك الجزيرة","locationSet":{"include":["sa"]},"geometry":["point","vertex"],"matchScore":2,"terms":["baj","bank aljazira","بنك الجزيرة"],"fields":["name","brand","{amenity/atm}"],"tags":{"amenity":"atm","brand:wikidata":"Q12199341"},"addTags":{"alt_name:en":"BAJ","amenity":"atm","brand":"بنك الجزيرة","brand:ar":"بنك الجزيرة","brand:en":"Bank Aljazira","brand:wikidata":"Q12199341","name:ar":"بنك الجزيرة","name:en":"Bank Aljazira","operator":"بنك الجزيرة","operator:wikidata":"Q12199341"}},"amenity/atm/riyadbank-fc7317":{"name":"بنك الرياض","locationSet":{"include":["sa"]},"geometry":["point","vertex"],"matchScore":2,"terms":["riyad bank","بنك الرياض"],"fields":["name","brand","{amenity/atm}"],"tags":{"amenity":"atm","brand:wikidata":"Q3433985"},"addTags":{"amenity":"atm","brand":"بنك الرياض","brand:ar":"بنك الرياض","brand:en":"Riyad Bank","brand:wikidata":"Q3433985","name:ar":"بنك الرياض","name:en":"Riyad Bank","operator":"بنك الرياض","operator:wikidata":"Q3433985"}},"amenity/atm/alinmabank-fc7317":{"name":"مصرف الإنماء","locationSet":{"include":["sa"]},"geometry":["point","vertex"],"matchScore":2,"terms":["alinma","alinma bank","الإنماء","مصرف الإنماء"],"fields":["name","brand","{amenity/atm}"],"tags":{"amenity":"atm","brand:wikidata":"Q4120111"},"addTags":{"alt_name":"الإنماء","alt_name:en":"alinma","amenity":"atm","brand":"مصرف الإنماء","brand:ar":"مصرف الإنماء","brand:en":"Alinma Bank","brand:wikidata":"Q4120111","name:ar":"مصرف الإنماء","name:en":"Alinma Bank","operator":"مصرف الإنماء","operator:wikidata":"Q4120111"}},"amenity/atm/333979-5b8686":{"name":"مصرف الراجحي","locationSet":{"include":["jo","kw","sa"]},"geometry":["point","vertex"],"matchScore":2,"terms":["مصرف الراجحي"],"fields":["name","brand","{amenity/atm}"],"tags":{"amenity":"atm","brand:wikidata":"Q1761176"},"addTags":{"amenity":"atm","brand":"مصرف الراجحي","brand:wikidata":"Q1761176","operator":"مصرف الراجحي","operator:wikidata":"Q1761176"}},"amenity/bank/attijariwafabank-c1cae6":{"name":"Attijariwafa Bank (التجاري وفا بنك)","locationSet":{"include":["ae","be","bf","bj","ca","cd","cg","ch","ci","cm","eg","es","fr","ga","gb","it","ma","mr","nl","sa","sn","tg","tn"]},"geometry":["point","area"],"matchScore":2,"terms":["attijariwafa bank","attijariwafa bank التجاري وفا بنك","التجاري وفا بنك"],"tags":{"amenity":"bank","brand:wikidata":"Q758052"},"addTags":{"amenity":"bank","brand":"Attijariwafa Bank","brand:ar":"التجاري وفا بنك","brand:en":"Attijariwafa Bank","brand:wikidata":"Q758052","name:ar":"التجاري وفا بنك","name:en":"Attijariwafa Bank"}},"amenity/bank/bnpparibas-42efac":{"name":"BNP Paribas","locationSet":{"include":["ae","af","ar","at","bf","bg","bh","br","ca","ch","ci","cl","co","cz","de","dk","dz","es","fi","fr","gb","gf","gp","hu","ie","il","it","kw","lu","ma","ml","mq","mx","nl","no","pe","pt","qa","re","ro","ru","sa","se","sk","sn","tn","tr","us"]},"geometry":["point","area"],"matchScore":2,"terms":["bnp paribas"],"tags":{"amenity":"bank","brand:wikidata":"Q499707"},"addTags":{"amenity":"bank","brand":"BNP Paribas","brand:wikidata":"Q499707","name":"BNP Paribas"}},"amenity/bank/hsbcsaudiarabia-8f3bad":{"name":"إتش إس بي سي السعودية","locationSet":{"include":["sa"]},"geometry":["point","area"],"matchScore":2,"terms":["hsbc saudi arabia","hsbcsaudi","إتش إس بي سي السعودية"],"tags":{"amenity":"bank","brand:wikidata":"Q5635879"},"addTags":{"alt_name:en":"HSBCSaudi","amenity":"bank","brand":"إتش إس بي سي السعودية","brand:ar":"إتش إس بي سي السعودية","brand:en":"HSBC Saudi Arabia","brand:wikidata":"Q5635879","name":"إتش إس بي سي السعودية","name:ar":"إتش إس بي سي السعودية","name:en":"HSBC Saudi Arabia"}},"amenity/bank/saudinationalbank-8f3bad":{"name":"البنك الأهلي السعودي","locationSet":{"include":["sa"]},"geometry":["point","area"],"matchScore":2,"terms":["national commercial bank","ncb","samba","saudi national bank","snb","البنك الأهلي","البنك الأهلي التجاري","البنك الأهلي السعودي","سامبا","مجموعة سامبا المالية"],"tags":{"amenity":"bank","brand:wikidata":"Q1518238"},"addTags":{"alt_name:en":"SNB","amenity":"bank","brand":"البنك الأهلي السعودي","brand:ar":"البنك الأهلي السعودي","brand:en":"Saudi National Bank","brand:wikidata":"Q1518238","name":"البنك الأهلي السعودي","name:ar":"البنك الأهلي السعودي","name:en":"Saudi National Bank"}},"amenity/bank/alawwalbank-8f3bad":{"name":"البنك الأول","locationSet":{"include":["sa"]},"geometry":["point","area"],"matchScore":2,"terms":["alawwal bank","البنك الأول"],"tags":{"amenity":"bank","brand:wikidata":"Q2693351"},"addTags":{"amenity":"bank","brand":"البنك الأول","brand:ar":"البنك الأول","brand:en":"Alawwal Bank","brand:wikidata":"Q2693351","name":"البنك الأول","name:ar":"البنك الأول","name:en":"Alawwal Bank"}},"amenity/bank/saudibritishbank-8f3bad":{"name":"البنك السعودي البريطاني","locationSet":{"include":["sa"]},"geometry":["point","area"],"matchScore":2,"terms":["sabb","saudi british bank","البنك السعودي البريطاني"],"tags":{"amenity":"bank","brand:wikidata":"Q4166519"},"addTags":{"alt_name:en":"SABB","amenity":"bank","brand":"البنك السعودي البريطاني","brand:ar":"البنك السعودي البريطاني","brand:en":"Saudi British Bank","brand:wikidata":"Q4166519","name":"البنك السعودي البريطاني","name:ar":"البنك السعودي البريطاني","name:en":"Saudi British Bank"}},"amenity/bank/banquesaudifransi-8f3bad":{"name":"البنك السعودي الفرنسي","locationSet":{"include":["sa"]},"geometry":["point","area"],"matchScore":2,"terms":["banque saudi fransi","bsf","البنك السعودي الفرنسي"],"tags":{"amenity":"bank","brand:wikidata":"Q7181252"},"addTags":{"alt_name:en":"BSF","amenity":"bank","brand":"البنك السعودي الفرنسي","brand:ar":"البنك السعودي الفرنسي","brand:en":"Banque Saudi Fransi","brand:wikidata":"Q7181252","name":"البنك السعودي الفرنسي","name:ar":"البنك السعودي الفرنسي","name:en":"Banque Saudi Fransi"}},"amenity/bank/saudiinvestmentbank-8f3bad":{"name":"البنك السعودي للاستثمار","locationSet":{"include":["sa"]},"geometry":["point","area"],"matchScore":2,"terms":["saib","saudi investment bank","البنك السعودي للاستثمار"],"tags":{"amenity":"bank","brand:wikidata":"Q12184641"},"addTags":{"alt_name:en":"SAIB","amenity":"bank","brand":"البنك السعودي للاستثمار","brand:ar":"البنك السعودي للاستثمار","brand:en":"Saudi Investment Bank","brand:wikidata":"Q12184641","name":"البنك السعودي للاستثمار","name:ar":"البنك السعودي للاستثمار","name:en":"Saudi Investment Bank"}},"amenity/bank/arabnationalbank-8f3bad":{"name":"البنك العربي الوطني","locationSet":{"include":["sa"]},"geometry":["point","area"],"matchScore":2,"terms":["anb","arab national bank","البنك العربي الوطني"],"tags":{"amenity":"bank","brand:wikidata":"Q4783214"},"addTags":{"alt_name:en":"ANB","amenity":"bank","brand":"البنك العربي الوطني","brand:ar":"البنك العربي الوطني","brand:en":"Arab National Bank","brand:wikidata":"Q4783214","name":"البنك العربي الوطني","name:ar":"البنك العربي الوطني","name:en":"Arab National Bank"}},"amenity/bank/bankalbilad-8f3bad":{"name":"بنك البلاد","locationSet":{"include":["sa"]},"geometry":["point","area"],"matchScore":2,"terms":["al bilad bank","bank albilad","بنك البلاد"],"tags":{"amenity":"bank","brand:wikidata":"Q4166498"},"addTags":{"alt_name:en":"Al Bilad Bank","amenity":"bank","brand":"بنك البلاد","brand:ar":"بنك البلاد","brand:en":"Bank Albilad","brand:wikidata":"Q4166498","name":"بنك البلاد","name:ar":"بنك البلاد","name:en":"Bank Albilad"}},"amenity/bank/bankaljazira-8f3bad":{"name":"بنك الجزيرة","locationSet":{"include":["sa"]},"geometry":["point","area"],"matchScore":2,"terms":["baj","bank aljazira","بنك الجزيرة"],"tags":{"amenity":"bank","brand:wikidata":"Q12199341"},"addTags":{"alt_name:en":"BAJ","amenity":"bank","brand":"بنك الجزيرة","brand:ar":"بنك الجزيرة","brand:en":"Bank Aljazira","brand:wikidata":"Q12199341","name":"بنك الجزيرة","name:ar":"بنك الجزيرة","name:en":"Bank Aljazira"}},"amenity/bank/riyadbank-8f3bad":{"name":"بنك الرياض","locationSet":{"include":["sa"]},"geometry":["point","area"],"matchScore":2,"terms":["riyad bank","بنك الرياض"],"tags":{"amenity":"bank","brand:wikidata":"Q3433985"},"addTags":{"amenity":"bank","brand":"بنك الرياض","brand:ar":"بنك الرياض","brand:en":"Riyad Bank","brand:wikidata":"Q3433985","name":"بنك الرياض","name:ar":"بنك الرياض","name:en":"Riyad Bank"}},"amenity/bank/alinmabank-8f3bad":{"name":"مصرف الإنماء","locationSet":{"include":["sa"]},"geometry":["point","area"],"matchScore":2,"terms":["alinma","alinma bank","الإنماء","مصرف الإنماء"],"tags":{"amenity":"bank","brand:wikidata":"Q4120111"},"addTags":{"alt_name":"الإنماء","alt_name:en":"alinma","amenity":"bank","brand":"مصرف الإنماء","brand:ar":"مصرف الإنماء","brand:en":"Alinma Bank","brand:wikidata":"Q4120111","name":"مصرف الإنماء","name:ar":"مصرف الإنماء","name:en":"Alinma Bank"}},"amenity/bank/333979-c05ba5":{"name":"مصرف الراجحي","locationSet":{"include":["jo","kw","sa"]},"geometry":["point","area"],"matchScore":2,"terms":["مصرف الراجحي"],"tags":{"amenity":"bank","brand:wikidata":"Q1761176"},"addTags":{"amenity":"bank","brand":"مصرف الراجحي","brand:wikidata":"Q1761176","name":"مصرف الراجحي"}},"amenity/cafe/coffee_shop/cafefrei-b37b54":{"name":"Cafe Frei","locationSet":{"include":["ae","ch","fr","hr","hu","ro","sa","sk"]},"geometry":["point","area"],"matchScore":2,"terms":["cafe frei"],"reference":{"key":"cuisine","value":"coffee_shop"},"tags":{"amenity":"cafe","brand:wikidata":"Q105210995","cuisine":"coffee_shop"},"addTags":{"amenity":"cafe","brand":"Cafe Frei","brand:wikidata":"Q105210995","cuisine":"coffee_shop","name":"Cafe Frei","takeaway":"yes"}},"amenity/cafe/coffee_shop/figaro-d8802f":{"name":"Figaro","locationSet":{"include":["ma","ph","sa"]},"geometry":["point","area"],"matchScore":2,"terms":["figaro","figaro coffee","figaro coffee company"],"reference":{"key":"cuisine","value":"coffee_shop"},"tags":{"amenity":"cafe","brand:wikidata":"Q17069806","cuisine":"coffee_shop"},"addTags":{"amenity":"cafe","brand":"Figaro","brand:wikidata":"Q17069806","cuisine":"coffee_shop","name":"Figaro","takeaway":"yes"}},"amenity/cafe/coffee_shop/kahvedunyasi-9278bc":{"name":"Kahve Dünyası","locationSet":{"include":["ae","kw","ro","sa","tr","uk"]},"geometry":["point","area"],"matchScore":2,"terms":["kahve dünyası"],"reference":{"key":"cuisine","value":"coffee_shop"},"tags":{"amenity":"cafe","brand:wikidata":"Q28008050","cuisine":"coffee_shop"},"addTags":{"amenity":"cafe","brand":"Kahve Dünyası","brand:wikidata":"Q28008050","cuisine":"coffee_shop","name":"Kahve Dünyası","takeaway":"yes"}},"amenity/cafe/coffee_shop/mikel-349bad":{"name":"Mikel","locationSet":{"include":["ae","au","cy","de","eg","gb","gr","sa","us"]},"geometry":["point","area"],"matchScore":2,"terms":["mikel"],"reference":{"key":"cuisine","value":"coffee_shop"},"tags":{"amenity":"cafe","brand:wikidata":"Q16952021","cuisine":"coffee_shop"},"addTags":{"amenity":"cafe","brand":"Mikel","brand:wikidata":"Q16952021","cuisine":"coffee_shop","name":"Mikel","takeaway":"yes"}},"amenity/cafe/coffee_shop/timhortons-2ad4e1":{"name":"تيم هورتونز","locationSet":{"include":["ae","bh","jo","kw","om","qa","sa"]},"geometry":["point","area"],"matchScore":2,"terms":["tim hortons","تيم هورتونز"],"reference":{"key":"cuisine","value":"coffee_shop"},"tags":{"amenity":"cafe","brand:wikidata":"Q175106","cuisine":"coffee_shop"},"addTags":{"amenity":"cafe","brand":"تيم هورتونز","brand:ar":"تيم هورتونز","brand:en":"Tim Hortons","brand:wikidata":"Q175106","cuisine":"coffee_shop","name":"تيم هورتونز","name:ar":"تيم هورتونز","name:en":"Tim Hortons","takeaway":"yes"}},"amenity/cafe/coffee_shop/javatime-f27832":{"name":"جافا تايم","locationSet":{"include":["sa"]},"geometry":["point","area"],"matchScore":2,"terms":["java time","جافا تايم"],"reference":{"key":"cuisine","value":"coffee_shop"},"tags":{"amenity":"cafe","brand:wikidata":"Q12204153","cuisine":"coffee_shop"},"addTags":{"amenity":"cafe","brand":"جافا تايم","brand:ar":"جافا تايم","brand:en":"Java Time","brand:wikidata":"Q12204153","cuisine":"coffee_shop","name":"جافا تايم","name:ar":"جافا تايم","name:en":"Java Time","takeaway":"yes"}},"amenity/cafe/coffee_shop/drcafe-f27832":{"name":"د.كيف","locationSet":{"include":["sa"]},"geometry":["point","area"],"matchScore":2,"terms":["dr-cafe","د.كيف"],"reference":{"key":"cuisine","value":"coffee_shop"},"tags":{"amenity":"cafe","brand:wikidata":"Q105714225","cuisine":"coffee_shop"},"addTags":{"amenity":"cafe","brand":"د.كيف","brand:ar":"د.كيف","brand:en":"dr-cafe","brand:wikidata":"Q105714225","cuisine":"coffee_shop","name":"د.كيف","name:ar":"د.كيف","name:en":"dr-cafe","takeaway":"yes"}},"amenity/cafe/coffee_shop/starbucks-0dcee5":{"name":"ستاربكس","locationSet":{"include":["ae","bh","dz","eg","iq","jo","kw","lb","ly","ma","om","qa","sa","tn"]},"geometry":["point","area"],"matchScore":2,"terms":["starbucks","starbucks coffee","ستاربكس","ستاربكس كافية"],"reference":{"key":"cuisine","value":"coffee_shop"},"tags":{"amenity":"cafe","brand:wikidata":"Q37158","cuisine":"coffee_shop"},"addTags":{"amenity":"cafe","brand":"ستاربكس","brand:ar":"ستاربكس","brand:en":"Starbucks","brand:wikidata":"Q37158","cuisine":"coffee_shop","name":"ستاربكس","name:ar":"ستاربكس","name:en":"Starbucks","official_name":"ستاربكس كافية","official_name:ar":"ستاربكس كافية","official_name:en":"Starbucks Coffee","takeaway":"yes"}},"amenity/cafe/coffee_shop/cariboucoffee-9bd633":{"name":"كاريبو كوفي","locationSet":{"include":["ae","bh","eg","kw","om","qa","sa"]},"geometry":["point","area"],"matchScore":2,"terms":["caribou coffee","كاريبو كوفي"],"reference":{"key":"cuisine","value":"coffee_shop"},"tags":{"amenity":"cafe","brand:wikidata":"Q5039494","cuisine":"coffee_shop"},"addTags":{"amenity":"cafe","brand":"كاريبو كوفي","brand:ar":"كاريبو كوفي","brand:en":"Caribou Coffee","brand:wikidata":"Q5039494","cuisine":"coffee_shop","name":"كاريبو كوفي","name:ar":"كاريبو كوفي","name:en":"Caribou Coffee","takeaway":"yes"}},"amenity/cafe/coffee_shop/halfmillion-f27832":{"name":"هاف مليون","locationSet":{"include":["sa"]},"geometry":["point","area"],"matchScore":2,"terms":["half million","هاف مليون"],"reference":{"key":"cuisine","value":"coffee_shop"},"tags":{"amenity":"cafe","brand:wikidata":"Q108537438","cuisine":"coffee_shop"},"addTags":{"amenity":"cafe","brand":"هاف مليون","brand:ar":"هاف مليون","brand:en":"Half Million","brand:wikidata":"Q108537438","cuisine":"coffee_shop","name":"هاف مليون","name:ar":"هاف مليون","name:en":"Half Million","takeaway":"yes"}},"amenity/fast_food/burger/burgerfuel-ba88db":{"name":"BurgerFuel","locationSet":{"include":["ae","iq","nz","sa","us"]},"geometry":["point","area"],"matchScore":2,"terms":["burgerfuel"],"reference":{"key":"cuisine","value":"burger"},"tags":{"amenity":"fast_food","brand:wikidata":"Q4998537","cuisine":"burger"},"addTags":{"amenity":"fast_food","brand":"BurgerFuel","brand:wikidata":"Q4998537","cuisine":"burger","name":"BurgerFuel","takeaway":"yes"}},"amenity/fast_food/chicken/dixychicken-d5291b":{"name":"Dixy Chicken","locationSet":{"include":["bn","gb","in","no","nz","pk","sa","sy","us"]},"geometry":["point","area"],"matchScore":2,"terms":["dixy chicken"],"reference":{"key":"cuisine","value":"chicken"},"tags":{"amenity":"fast_food","brand:wikidata":"Q5285003","cuisine":"chicken"},"addTags":{"amenity":"fast_food","brand":"Dixy Chicken","brand:wikidata":"Q5285003","cuisine":"chicken","diet:halal":"yes","name":"Dixy Chicken","takeaway":"yes"}},"amenity/fast_food/burger/fiveguys-ffd618":{"name":"Five Guys","locationSet":{"include":["ae","au","be","ca","de","es","fr","gb","hk","ie","it","kw","lu","nl","qa","sa","sg","us"]},"geometry":["point","area"],"matchScore":2,"terms":["five guys","five guys burgers and fries"],"reference":{"key":"cuisine","value":"burger"},"tags":{"amenity":"fast_food","brand:wikidata":"Q1131810","cuisine":"burger"},"addTags":{"amenity":"fast_food","brand":"Five Guys","brand:wikidata":"Q1131810","cuisine":"burger","name":"Five Guys","official_name":"Five Guys Burgers and Fries","takeaway":"yes"}},"amenity/fast_food/sandwich/momen-f39225":{"name":"Mo'men","locationSet":{"include":["bh","eg","kw","ly","my","sa","sd"]},"geometry":["point","area"],"matchScore":2,"terms":["mo'men"],"reference":{"key":"cuisine","value":"sandwich"},"tags":{"amenity":"fast_food","brand:wikidata":"Q3317535","cuisine":"sandwich"},"addTags":{"amenity":"fast_food","brand":"Mo'men","brand:wikidata":"Q3317535","cuisine":"sandwich","name":"Mo'men","takeaway":"yes"}},"amenity/fast_food/oakberryacaibowls-df46eb":{"name":"Oakberry Açaí bowls","locationSet":{"include":["ae","au","bh","br","ch","cl","co","de","es","gr","hr","il","mt","mx","pe","pt","py","sa","th","us"]},"geometry":["point","area"],"matchScore":2,"terms":["oakberry açaí bowls"],"tags":{"amenity":"fast_food","brand:wikidata":"Q104870840"},"addTags":{"amenity":"fast_food","brand":"Oakberry Açaí bowls","brand:wikidata":"Q104870840","cuisine":"açaí","name":"Oakberry Açaí bowls","takeaway":"yes"}},"amenity/fast_food/sushishop-ac545e":{"name":"Sushi Shop (Europe)","locationSet":{"include":["ae","be","ch","de","es","fr","it","lu","pt","sa","uk"]},"geometry":["point","area"],"matchScore":2,"terms":["sushi shop"],"tags":{"amenity":"fast_food","brand:wikidata":"Q3505657"},"addTags":{"amenity":"fast_food","brand":"Sushi Shop","brand:wikidata":"Q3505657","cuisine":"sushi","name":"Sushi Shop","takeaway":"yes"}},"amenity/fast_food/pizza/thepizzacompany-abbb1f":{"name":"The Pizza Company","locationSet":{"include":["ae","bh","cn","jo","kh","la","mm","my","sa","th","vn"]},"geometry":["point","area"],"matchScore":2,"terms":["pizza company","the pizza company"],"reference":{"key":"cuisine","value":"pizza"},"tags":{"amenity":"fast_food","brand:wikidata":"Q2413520","cuisine":"pizza"},"addTags":{"alt_name":"Pizza Company","amenity":"fast_food","brand":"The Pizza Company","brand:wikidata":"Q2413520","cuisine":"pizza","name":"The Pizza Company","takeaway":"yes"}},"amenity/fast_food/tortilla-99527b":{"name":"Tortilla","locationSet":{"include":["ae","sa","uk"]},"geometry":["point","area"],"matchScore":2,"terms":["tortilla"],"tags":{"amenity":"fast_food","brand:wikidata":"Q21006828"},"addTags":{"amenity":"fast_food","brand":"Tortilla","brand:wikidata":"Q21006828","cuisine":"tex-mex","name":"Tortilla","takeaway":"yes"}},"amenity/fast_food/sandwich/whichwich-536de9":{"name":"Which Wich?","locationSet":{"include":["ae","gb","gt","mx","om","qa","sa","us"]},"geometry":["point","area"],"matchScore":2,"terms":["which wich?"],"reference":{"key":"cuisine","value":"sandwich"},"tags":{"amenity":"fast_food","brand:wikidata":"Q7993556","cuisine":"sandwich"},"addTags":{"amenity":"fast_food","brand":"Which Wich?","brand:wikidata":"Q7993556","cuisine":"sandwich","name":"Which Wich?","takeaway":"yes"}},"amenity/fast_food/donut/winchellsdonuthouse-d02b6a":{"name":"Winchell's Donut House","locationSet":{"include":["gu","mp","sa","us"]},"geometry":["point","area"],"matchScore":2,"terms":["winchell's donut house","winchells donuts","winchells doughnut house","winchells doughnuts"],"reference":{"key":"cuisine","value":"donut"},"tags":{"amenity":"fast_food","brand:wikidata":"Q8023756","cuisine":"donut"},"addTags":{"amenity":"fast_food","brand":"Winchell's Donut House","brand:wikidata":"Q8023756","cuisine":"donut","name":"Winchell's Donut House","takeaway":"yes"}},"amenity/fast_food/chicken/albaik-060f89":{"name":"البيك","locationSet":{"include":["bh","sa"]},"geometry":["point","area"],"matchScore":2,"terms":["albaik","البيك"],"reference":{"key":"cuisine","value":"chicken"},"tags":{"amenity":"fast_food","brand:wikidata":"Q4703536","cuisine":"chicken"},"addTags":{"amenity":"fast_food","brand":"البيك","brand:ar":"البيك","brand:en":"Albaik","brand:wikidata":"Q4703536","cuisine":"chicken","name":"البيك","name:ar":"البيك","name:en":"Albaik","takeaway":"yes"}},"amenity/fast_food/chicken/altazaj-7c76bb":{"name":"الطازج","locationSet":{"include":["ae","bh","eg","jo","kw","lb","my","om","qa","sa","td","ye"]},"geometry":["point","area"],"matchScore":2,"terms":["al tazaj","الطازج"],"reference":{"key":"cuisine","value":"chicken"},"tags":{"amenity":"fast_food","brand:wikidata":"Q4704878","cuisine":"chicken"},"addTags":{"amenity":"fast_food","brand":"الطازج","brand:ar":"الطازج","brand:en":"Al Tazaj","brand:wikidata":"Q4704878","cuisine":"chicken","name":"الطازج","name:ar":"الطازج","name:en":"Al Tazaj","takeaway":"yes"}},"amenity/fast_food/donut/dunkindonuts-07d3e5":{"name":"دانكن دونتس'","locationSet":{"include":["ae","bh","eg","kw","lb","om","qa","sa"]},"geometry":["point","area"],"matchScore":2,"terms":["dunkin'","dunkin' donuts","dunkin's","دانكن","دانكن دونتس"],"reference":{"key":"cuisine","value":"donut"},"tags":{"amenity":"fast_food","brand:wikidata":"Q847743","cuisine":"donut;coffee_shop"},"addTags":{"amenity":"fast_food","brand":"دانكن","brand:ar":"دانكن","brand:en":"Dunkin'","brand:wikidata":"Q847743","cuisine":"donut;coffee_shop","name":"دانكن دونتس","name:ar":"دانكن دونتس","name:en":"Dunkin' Donuts","takeaway":"yes"}},"amenity/fast_food/chicken/kfc-15a250":{"name":"دجاج كنتاكي","locationSet":{"include":["ae","bh","eg","iq","jo","kw","lb","ly","ma","om","qa","sa","sd","sy","tn","ye"]},"geometry":["point","area"],"matchScore":2,"terms":["kfc","دجاج كنتاكي"],"reference":{"key":"cuisine","value":"chicken"},"tags":{"amenity":"fast_food","brand:wikidata":"Q524757","cuisine":"chicken"},"addTags":{"amenity":"fast_food","brand":"دجاج كنتاكي","brand:ar":"دجاج كنتاكي","brand:en":"KFC","brand:wikidata":"Q524757","cuisine":"chicken","name":"دجاج كنتاكي","name:ar":"دجاج كنتاكي","name:en":"KFC","takeaway":"yes"}},"amenity/fast_food/shawarmer-ade864":{"name":"شاورمر","locationSet":{"include":["sa"]},"geometry":["point","area"],"matchScore":2,"terms":["shawarmer","شاورمر"],"tags":{"amenity":"fast_food","brand:wikidata":"Q29509653"},"addTags":{"amenity":"fast_food","brand":"شاورمر","brand:ar":"شاورمر","brand:en":"Shawarmer","brand:wikidata":"Q29509653","cuisine":"shawarma","name":"شاورمر","name:ar":"شاورمر","name:en":"Shawarmer","takeaway":"yes"}},"amenity/fast_food/donut/krispykrem-e5f89b":{"name":"كرسبي كريم","locationSet":{"include":["ae","bh","eg","kw","lb","qa","sa"]},"geometry":["point","area"],"matchScore":2,"terms":["krispy krem","كرسبي كريم"],"reference":{"key":"cuisine","value":"donut"},"tags":{"amenity":"fast_food","brand:wikidata":"Q1192805","cuisine":"donut"},"addTags":{"amenity":"fast_food","brand":"كرسبي كريم","brand:ar":"كرسبي كريم","brand:en":"Krispy Krem","brand:wikidata":"Q1192805","cuisine":"donut","name":"كرسبي كريم","name:ar":"كرسبي كريم","name:en":"Krispy Krem","takeaway":"yes"}},"amenity/fast_food/sandwich/kudu-1b3be3":{"name":"كودو","locationSet":{"include":["ae","bh","jo","sa","sd"]},"geometry":["point","area"],"matchScore":2,"terms":["kudu","كودو"],"reference":{"key":"cuisine","value":"sandwich"},"tags":{"amenity":"fast_food","brand:wikidata":"Q6441777","cuisine":"sandwich"},"addTags":{"amenity":"fast_food","brand":"كودو","brand:ar":"كودو","brand:en":"Kudu","brand:wikidata":"Q6441777","cuisine":"sandwich","name":"كودو","name:ar":"كودو","name:en":"Kudu","takeaway":"yes"}},"amenity/fast_food/burger/mcdonalds-19c993":{"name":"ماكدونالدز","locationSet":{"include":["ae","bh","eg","iq","jo","kw","lb","ma","om","qa","sa","sy","tn"]},"geometry":["point","area"],"matchScore":2,"terms":["mcdonald's","ماكدونالدز"],"reference":{"key":"cuisine","value":"burger"},"tags":{"amenity":"fast_food","brand:wikidata":"Q38076","cuisine":"burger"},"addTags":{"amenity":"fast_food","brand":"ماكدونالدز","brand:ar":"ماكدونالدز","brand:en":"McDonald's","brand:wikidata":"Q38076","cuisine":"burger","name":"ماكدونالدز","name:ar":"ماكدونالدز","name:en":"McDonald's","takeaway":"yes"}},"amenity/fast_food/burger/herfy-5a6b9f":{"name":"هرفي","locationSet":{"include":["ae","bd","bh","eg","kw","sa"]},"geometry":["point","area"],"matchScore":2,"terms":["herfy","هرفي"],"reference":{"key":"cuisine","value":"burger"},"tags":{"amenity":"fast_food","brand:wikidata":"Q5738371","cuisine":"burger"},"addTags":{"amenity":"fast_food","brand":"هرفي","brand:ar":"هرفي","brand:en":"Herfy","brand:wikidata":"Q5738371","cuisine":"burger","name":"هرفي","name:ar":"هرفي","name:en":"Herfy","takeaway":"yes"}},"amenity/fuel/adnoc-cfa330":{"name":"أدنوك","locationSet":{"include":["ae","sa"]},"geometry":["point","area"],"matchScore":2,"terms":["adnoc","أدنوك","ادنوك"],"fields":["name","brand","{amenity/fuel}"],"tags":{"amenity":"fuel","brand:wikidata":"Q166729"},"addTags":{"amenity":"fuel","brand":"أدنوك","brand:ar":"أدنوك","brand:en":"ADNOC","brand:wikidata":"Q166729","name":"أدنوك","name:ar":"أدنوك","name:en":"ADNOC"}},"amenity/fuel/aramco-13ec76":{"name":"أرامكو","locationSet":{"include":["sa"]},"geometry":["point","area"],"matchScore":2,"terms":["aramco","أرامكو"],"fields":["name","brand","{amenity/fuel}"],"tags":{"amenity":"fuel","brand:wikidata":"Q679322"},"addTags":{"amenity":"fuel","brand":"أرامكو","brand:ar":"أرامكو","brand:en":"aramco","brand:wikidata":"Q679322","name":"أرامكو","name:ar":"أرامكو","name:en":"aramco"}},"amenity/fuel/aldrees-13ec76":{"name":"الدريس","locationSet":{"include":["sa"]},"geometry":["point","area"],"matchScore":2,"terms":["aldrees","aldrees petroleum and transport services company","الدريس","شركة الدريس للخدمات البترولية والنقليات"],"fields":["name","brand","{amenity/fuel}"],"tags":{"amenity":"fuel","brand:wikidata":"Q4652322"},"addTags":{"amenity":"fuel","brand":"الدريس","brand:ar":"شركة الدريس للخدمات البترولية والنقليات","brand:en":"Aldrees Petroleum and Transport Services Company","brand:wikidata":"Q4652322","name":"الدريس","name:ar":"الدريس","name:en":"ALdrees"}},"amenity/fuel/enoc-7d34dd":{"name":"اينوك","locationSet":{"include":["ae","bh","kw","om","qa","sa","ye"]},"geometry":["point","area"],"matchScore":2,"terms":["enoc","اينوك"],"fields":["name","brand","{amenity/fuel}"],"tags":{"amenity":"fuel","brand:wikidata":"Q3045998"},"addTags":{"amenity":"fuel","brand":"اينوك","brand:ar":"اينوك","brand:en":"ENOC","brand:wikidata":"Q3045998","name":"اينوك","name:ar":"اينوك","name:en":"ENOC"}},"amenity/fuel/petromin-13ec76":{"name":"بترومين","locationSet":{"include":["sa"]},"geometry":["point","area"],"matchScore":2,"terms":["petrom بتروم","petromin","petromin corporation","بتروم","بترومين","شركة بترومين"],"fields":["name","brand","{amenity/fuel}"],"tags":{"amenity":"fuel","brand:wikidata":"Q7179006"},"addTags":{"amenity":"fuel","brand":"شركة بترومين","brand:ar":"شركة بترومين","brand:en":"Petromin Corporation","brand:wikidata":"Q7179006","name":"بترومين","name:ar":"بترومين","name:en":"Petromin"}},"amenity/fuel/total-7d34dd":{"name":"توتال","locationSet":{"include":["ae","bh","kw","om","qa","sa","ye"]},"geometry":["point","area"],"matchScore":2,"terms":["total","توتال"],"fields":["name","brand","{amenity/fuel}"],"tags":{"amenity":"fuel","brand:wikidata":"Q154037"},"addTags":{"amenity":"fuel","brand":"توتال","brand:ar":"توتال","brand:en":"Total","brand:wikidata":"Q154037","name":"توتال","name:ar":"توتال","name:en":"Total"}},"amenity/fuel/sasco-13ec76":{"name":"ساسكو","locationSet":{"include":["sa"]},"geometry":["point","area"],"matchScore":2,"terms":["sasco","saudi automotive services company","الشركة السعودية لخدمات السيارات والمعدات","ساسكو"],"fields":["name","brand","{amenity/fuel}"],"tags":{"amenity":"fuel","brand:wikidata":"Q12188891"},"addTags":{"amenity":"fuel","brand":"ساسكو","brand:ar":"الشركة السعودية لخدمات السيارات والمعدات","brand:en":"Saudi Automotive Services Company","brand:wikidata":"Q12188891","name":"ساسكو","name:ar":"ساسكو","name:en":"SASCO"}},"amenity/fuel/naft-13ec76":{"name":"نفط","locationSet":{"include":["sa"]},"geometry":["point","area"],"matchScore":2,"terms":["naft","نفط"],"fields":["name","brand","{amenity/fuel}"],"tags":{"amenity":"fuel","brand:wikidata":"Q105572509"},"addTags":{"amenity":"fuel","brand":"نفط","brand:ar":"نفط","brand:en":"NAFT","brand:wikidata":"Q105572509","name":"نفط","name:ar":"نفط","name:en":"NAFT"}},"amenity/ice_cream/gelatissimo-17af97":{"name":"Gelatissimo","locationSet":{"include":["au","bd","cn","in","ph","sa","sg"]},"geometry":["point","area"],"matchScore":2,"terms":["gelatissimo"],"tags":{"amenity":"ice_cream","brand:wikidata":"Q105270111"},"addTags":{"amenity":"ice_cream","brand":"Gelatissimo","brand:wikidata":"Q105270111","cuisine":"ice_cream","name":"Gelatissimo","takeaway":"yes"}},"amenity/ice_cream/llaollao-dd9462":{"name":"Llaollao","locationSet":{"include":["au","ch","cl","co","ec","es","fr","gt","hr","id","iq","kw","ma","my","ph","pt","sa","sg","si","sv","us","vn"]},"geometry":["point","area"],"matchScore":2,"terms":["llaollao"],"tags":{"amenity":"ice_cream","brand:wikidata":"Q12163048"},"addTags":{"amenity":"ice_cream","brand":"Llaollao","brand:wikidata":"Q12163048","cuisine":"frozen_yogurt","name":"Llaollao"}},"amenity/ice_cream/menchies-411174":{"name":"Menchie's","locationSet":{"include":["ae","bh","bs","ca","cn","gb","in","jp","kw","qa","sa","us"]},"geometry":["point","area"],"matchScore":2,"terms":["menchie's","menchie's frozen yoghurt","menchie's frozen yogurt"],"tags":{"amenity":"ice_cream","brand:wikidata":"Q6816528"},"addTags":{"amenity":"ice_cream","brand":"Menchie's","brand:wikidata":"Q6816528","cuisine":"frozen_yogurt","name":"Menchie's"}},"amenity/ice_cream/redmango-73fcc9":{"name":"Red Mango","locationSet":{"include":["ae","bh","eg","kw","mx","qa","sa","sv","us"]},"geometry":["point","area"],"matchScore":2,"terms":["red mango"],"tags":{"amenity":"ice_cream","brand:wikidata":"Q7304565"},"addTags":{"amenity":"ice_cream","brand":"Red Mango","brand:wikidata":"Q7304565","name":"Red Mango"}},"amenity/ice_cream/smooy-bac155":{"name":"smöoy","locationSet":{"include":["ao","ci","cn","dz","ec","es","fr","gb","gn","it","ma","pa","pe","pt","re","sa"]},"geometry":["point","area"],"matchScore":2,"terms":["smöoy","softy cream"],"tags":{"amenity":"ice_cream","brand:wikidata":"Q21573945"},"addTags":{"amenity":"ice_cream","brand":"smöoy","brand:wikidata":"Q21573945","name":"smöoy","official_name":"Softy Cream"}},"amenity/ice_cream/yogurtland-4111ef":{"name":"Yogurtland","locationSet":{"include":["ae","au","bh","kw","mm","qa","sa","sg","th","us","ve"]},"geometry":["point","area"],"matchScore":2,"terms":["yogurtland"],"tags":{"amenity":"ice_cream","brand:wikidata":"Q8054428"},"addTags":{"amenity":"ice_cream","brand":"Yogurtland","brand:wikidata":"Q8054428","cuisine":"frozen_yogurt","name":"Yogurtland","takeaway":"yes"}},"amenity/language_school/els-89568f":{"name":"ELS","locationSet":{"include":["ca","in","my","pa","sa","tr","us","vn"]},"geometry":["point","area"],"matchScore":2,"terms":["els","els language centers"],"fields":["name","brand","{amenity/language_school}"],"tags":{"amenity":"language_school","brand:wikidata":"Q5323325"},"addTags":{"amenity":"language_school","brand":"ELS","brand:en":"ELS","brand:wikidata":"Q5323325","language:en":"main","name":"ELS","name:en":"ELS","official_name":"ELS Language Centers","official_name:en":"ELS Language Centers"}},"amenity/pharmacy/nahdi-3cfaa8":{"name":"صيدلية النهدي","locationSet":{"include":["sa","ye"]},"geometry":["point","area"],"matchScore":2,"terms":["nahdi","صيدلية النهدي"],"reference":{"key":"amenity","value":"pharmacy"},"tags":{"amenity":"pharmacy","brand:wikidata":"Q98582564"},"addTags":{"amenity":"pharmacy","brand":"صيدلية النهدي","brand:ar":"صيدلية النهدي","brand:en":"Nahdi","brand:wikidata":"Q98582564","healthcare":"pharmacy","name":"صيدلية النهدي","name:ar":"صيدلية النهدي","name:en":"Nahdi"}},"amenity/restaurant/pizza/blazepizza-902636":{"name":"Blaze Pizza","locationSet":{"include":["bh","ca","kw","sa","us"]},"geometry":["point","area"],"matchScore":2,"terms":["blaze pizza"],"reference":{"key":"cuisine","value":"pizza"},"tags":{"amenity":"restaurant","brand:wikidata":"Q23016666","cuisine":"pizza"},"addTags":{"amenity":"restaurant","brand":"Blaze Pizza","brand:wikidata":"Q23016666","cuisine":"pizza","name":"Blaze Pizza"}},"amenity/restaurant/cheeburgercheeburger-d5e034":{"name":"Cheeburger Cheeburger","locationSet":{"include":["ca","sa","us"]},"geometry":["point","area"],"matchScore":2,"terms":["cheeburger cheeburger"],"tags":{"amenity":"restaurant","brand:wikidata":"Q5089247"},"addTags":{"amenity":"restaurant","brand":"Cheeburger Cheeburger","brand:wikidata":"Q5089247","cuisine":"burger","name":"Cheeburger Cheeburger"}},"amenity/restaurant/nandos-32ebee":{"name":"Nando's","locationSet":{"include":["ae","au","bd","bh","bw","ca","fj","gb","ie","in","mu","my","nz","om","pk","qa","sa","sg","sz","us","za","zm","zw"]},"geometry":["point","area"],"matchScore":2,"terms":["nando's"],"tags":{"amenity":"restaurant","brand:wikidata":"Q3472954"},"addTags":{"amenity":"restaurant","brand":"Nando's","brand:wikidata":"Q3472954","cuisine":"chicken;portuguese","name":"Nando's"}},"amenity/restaurant/seafood/oceanbasket-5d9698":{"name":"Ocean Basket","locationSet":{"include":["ae","bw","cy","gb","ke","kw","kz","mt","mu","na","ng","qa","ru","sa","sz","za","zw"]},"geometry":["point","area"],"matchScore":2,"terms":["ocean basket"],"reference":{"key":"cuisine","value":"seafood"},"tags":{"amenity":"restaurant","brand:wikidata":"Q62075311","cuisine":"seafood"},"addTags":{"amenity":"restaurant","brand":"Ocean Basket","brand:wikidata":"Q62075311","cuisine":"seafood","name":"Ocean Basket"}},"amenity/madscience-0435a3":{"name":"Mad Science","locationSet":{"include":["bh","br","ca","cn","es","gb","kw","ma","nl","om","pe","sa","sg","th","tr","tt","us"]},"geometry":["point","vertex","line","area"],"matchScore":2,"terms":["mad science"],"fields":["name","brand","{amenity}"],"tags":{"amenity":"training","brand:wikidata":"Q17009137"},"addTags":{"amenity":"training","brand":"Mad Science","brand:wikidata":"Q17009137","name":"Mad Science","training":"science"}},"craft/signmaker/fastsigns-4c87b7":{"name":"Fastsigns","locationSet":{"include":["ae","ca","cl","gb","ky","mx","sa","us"]},"geometry":["point","area"],"matchScore":2,"terms":["fastsigns"],"tags":{"brand:wikidata":"Q5437127","craft":"signmaker"},"addTags":{"brand":"Fastsigns","brand:wikidata":"Q5437127","craft":"signmaker","name":"Fastsigns"}},"leisure/fitness_centre/bodymasters-eac6d0":{"name":"بودي ماسترز","locationSet":{"include":["sa"]},"geometry":["point","area"],"matchScore":2,"terms":["body masters","بودي ماسترز"],"tags":{"brand:wikidata":"Q105713910","leisure":"fitness_centre"},"addTags":{"brand":"بودي ماسترز","brand:ar":"بودي ماسترز","brand:en":"Body Masters","brand:wikidata":"Q105713910","leisure":"fitness_centre","name":"بودي ماسترز","name:ar":"بودي ماسترز","name:en":"Body Masters"}},"leisure/fitness_centre/fitnesstime-2210cf":{"name":"وقت اللياقة","locationSet":{"include":["ae","sa"]},"geometry":["point","area"],"matchScore":2,"terms":["fitness time","وقت اللياقة"],"tags":{"brand:wikidata":"Q105710068","leisure":"fitness_centre"},"addTags":{"brand":"وقت اللياقة","brand:ar":"وقت اللياقة","brand:en":"Fitness Time","brand:wikidata":"Q105710068","leisure":"fitness_centre","name":"وقت اللياقة","name:ar":"وقت اللياقة","name:en":"Fitness Time"}},"leisure/trampoline_park/skyzone-746047":{"name":"Sky Zone","locationSet":{"include":["ae","ca","co","gb","gt","in","mx","no","om","pk","sa","us"]},"geometry":["point","area"],"matchScore":2,"terms":["sky zone"],"tags":{"brand:wikidata":"Q7537557","leisure":"trampoline_park"},"addTags":{"brand":"Sky Zone","brand:wikidata":"Q7537557","leisure":"trampoline_park","name":"Sky Zone"}},"office/insurance/allianz-332499":{"name":"Allianz","locationSet":{"include":["ae","ar","at","au","be","bg","bh","bm","bn","br","ca","cg","ch","ci","cm","cn","co","cy","cz","de","dk","ee","eg","es","fi","fr","gb","gf","gg","gh","gp","gr","hk","hr","hu","id","ie","in","is","it","ja","ke","kr","kw","la","li","lk","lt","lu","lv","ma","mg","mx","my","ng","nl","no","nz","om","ph","pk","pl","pt","qa","ro","ru","sa","se","sg","si","sk","sn","th","tr","tw","ua","us","za"]},"geometry":["point","area"],"matchScore":2,"terms":["allianz"],"fields":["name","brand","{office/insurance}"],"tags":{"brand:wikidata":"Q487292","office":"insurance"},"addTags":{"brand":"Allianz","brand:wikidata":"Q487292","name":"Allianz","office":"insurance"}},"office/insurance/axa-2e7672":{"name":"AXA","locationSet":{"include":["ae","ar","au","be","bh","bm","br","ca","ch","ci","cl","cm","cn","co","cz","de","dk","dz","eg","es","fi","fr","ga","gb","gr","hk","id","ie","in","it","jp","kr","lb","lu","ma","mu","mx","my","ng","nl","no","om","pa","pe","ph","pl","pt","qa","sa","se","sg","sk","sn","th","tr","tw","us"]},"geometry":["point","area"],"matchScore":2,"terms":["axa"],"fields":["name","brand","{office/insurance}"],"tags":{"brand:wikidata":"Q160054","office":"insurance"},"addTags":{"brand":"AXA","brand:wikidata":"Q160054","name":"AXA","office":"insurance"}},"office/telecommunication/zainsaudiarabia-d23a06":{"name":"زين السعودية","locationSet":{"include":["sa"]},"geometry":["point","area"],"matchScore":2,"terms":["zain","zain saudi arabia","زين","زين السعودية","شركة الاتصالات المتنقلة السعودية","شركة زين السعودية"],"tags":{"brand:wikidata":"Q12218575","office":"telecommunication"},"addTags":{"brand":"زين السعودية","brand:ar":"زين السعودية","brand:en":"Zain Saudi Arabia","brand:ja":"زين السعودية","brand:wikidata":"Q12218575","name":"زين السعودية","name:en":"Zain Saudi Arabia","office":"telecommunication"}},"office/telecommunication/etihadatheebtelecom-d23a06":{"name":"شركة اتحاد عذيب للاتصالات","locationSet":{"include":["sa"]},"geometry":["point","area"],"matchScore":2,"terms":["atheeb","etihad atheeb telecom","go","جو","شركة اتحاد عذيب للاتصالات","عذيب","عذيب للاتصالات"],"tags":{"brand:wikidata":"Q5404584","office":"telecommunication"},"addTags":{"brand":"شركة اتحاد عذيب للاتصالات","brand:ar":"شركة اتحاد عذيب للاتصالات","brand:en":"Etihad Atheeb Telecom","brand:ja":"شركة اتحاد عذيب للاتصالات","brand:wikidata":"Q5404584","name":"شركة اتحاد عذيب للاتصالات","name:en":"Etihad Atheeb Telecom","office":"telecommunication"}},"office/telecommunication/sauditelecomcompany-d23a06":{"name":"شركة الاتصالات السعودية","locationSet":{"include":["sa"]},"geometry":["point","area"],"matchScore":2,"terms":["saudi telecom company","stc","إس تي سي","الاتصالات السعودية","شركة الاتصالات السعودية"],"tags":{"brand:wikidata":"Q1535171","office":"telecommunication"},"addTags":{"brand":"شركة الاتصالات السعودية","brand:ar":"شركة الاتصالات السعودية","brand:en":"Saudi Telecom Company","brand:ja":"شركة الاتصالات السعودية","brand:wikidata":"Q1535171","name":"شركة الاتصالات السعودية","name:en":"Saudi Telecom Company","office":"telecommunication"}},"office/telecommunication/mobily-d23a06":{"name":"موبايلي","locationSet":{"include":["sa"]},"geometry":["point","area"],"matchScore":2,"terms":["etihad etisalat company","mobily","mobily telecom","إتحاد إتصالات","شركة اتحاد اتصالات","موبايلي"],"tags":{"brand:wikidata":"Q6887331","office":"telecommunication"},"addTags":{"brand":"موبايلي","brand:ar":"موبايلي","brand:en":"Mobily","brand:ja":"موبايلي","brand:wikidata":"Q6887331","name":"موبايلي","name:en":"Mobily","office":"telecommunication"}},"shop/bakery/paul-652955":{"name":"Paul","locationSet":{"include":["ae","az","be","bh","by","ci","cy","cz","eg","es","fr","ga","gb","ge","gr","id","in","jo","jp","kw","kz","lb","lu","ma","mu","my","om","pa","ph","pl","pt","qa","ro","ru","sa","sg","th","tn","tw","ua","us","uz","vn","za"]},"geometry":["point","area"],"matchScore":2,"terms":["paul"],"tags":{"brand:wikidata":"Q3370417","shop":"bakery"},"addTags":{"brand":"Paul","brand:wikidata":"Q3370417","name":"Paul","shop":"bakery"}},"shop/books/obeikanstores-9ea300":{"name":"مكتبة العبيكان","locationSet":{"include":["sa"]},"geometry":["point","area"],"matchScore":2,"terms":["obeikanstores","العبيكان","مكتبة العبيكان"],"tags":{"brand:wikidata":"Q12244784","shop":"books"},"addTags":{"brand":"مكتبة العبيكان","brand:ar":"مكتبة العبيكان","brand:en":"ObeikanStores","brand:wikidata":"Q12244784","name":"مكتبة العبيكان","name:ar":"مكتبة العبيكان","name:en":"ObeikanStores","shop":"books"}},"shop/books/jarirbookstore-e19842":{"name":"مكتبة جرير","locationSet":{"include":["ae","kw","qa","sa"]},"geometry":["point","area"],"matchScore":2,"terms":["jarir bookstore","جرير","مكتبة جرير"],"tags":{"brand:wikidata":"Q6160243","shop":"books"},"addTags":{"brand":"مكتبة جرير","brand:ar":"مكتبة جرير","brand:en":"Jarir Bookstore","brand:wikidata":"Q6160243","name":"مكتبة جرير","name:ar":"مكتبة جرير","name:en":"Jarir Bookstore","shop":"books"}},"shop/chocolate/jeffdebruges-d57ca4":{"name":"Jeff de Bruges","locationSet":{"include":["at","bg","ca","cz","de","ee","es","fr","gb","it","jo","lu","ma","om","pf","sa","sk","sn","tn"]},"geometry":["point","area"],"matchScore":2,"terms":["jeff de bruges"],"tags":{"brand:wikidata":"Q3176626","shop":"chocolate"},"addTags":{"brand":"Jeff de Bruges","brand:wikidata":"Q3176626","name":"Jeff de Bruges","shop":"chocolate"}},"shop/clothes/abercrombieandfitch-c69677":{"name":"Abercrombie & Fitch","locationSet":{"include":["ae","be","ca","cn","de","es","fr","gb","hk","ie","it","jp","kw","mx","nl","qa","sa","sg","us"]},"geometry":["point","area"],"matchScore":2,"terms":["abercrombie & fitch"],"tags":{"brand:wikidata":"Q319344","shop":"clothes"},"addTags":{"brand":"Abercrombie & Fitch","brand:wikidata":"Q319344","clothes":"men;women","name":"Abercrombie & Fitch","shop":"clothes"}},"shop/clothes/dynamite-aecc8a":{"name":"Dynamite","locationSet":{"include":["ca","jo","sa","us"]},"geometry":["point","area"],"matchScore":2,"terms":["dynamite"],"tags":{"brand:wikidata":"Q3117385","shop":"clothes"},"addTags":{"brand":"Dynamite","brand:wikidata":"Q3117385","clothes":"women","name":"Dynamite","shop":"clothes"}},"shop/clothes/garage-072c62":{"name":"Garage","locationSet":{"include":["am","ca","jo","om","qa","sa","us"]},"geometry":["point","area"],"matchScore":2,"terms":["garage"],"tags":{"brand:wikidata":"Q5521860","shop":"clothes"},"addTags":{"brand":"Garage","brand:wikidata":"Q5521860","clothes":"women","name":"Garage","shop":"clothes"}},"shop/clothes/lechateau-f2752c":{"name":"Le Château","locationSet":{"include":["ae","ca","sa"]},"geometry":["point","area"],"matchScore":2,"terms":["le château"],"tags":{"brand:wikidata":"Q6506731","shop":"clothes"},"addTags":{"brand":"Le Château","brand:wikidata":"Q6506731","name":"Le Château","shop":"clothes"}},"shop/clothes/underwear/undiz-f30927":{"name":"Undiz","locationSet":{"include":["ae","ch","es","fr","gf","gp","lb","ma","mq","nc","pf","qa","re","sa","za"]},"geometry":["point","area"],"matchScore":2,"terms":["undiz"],"reference":{"key":"clothes","value":"underwear"},"tags":{"brand:wikidata":"Q105306275","clothes":"underwear","shop":"clothes"},"addTags":{"brand":"Undiz","brand:wikidata":"Q105306275","clothes":"underwear","name":"Undiz","shop":"clothes"}},"shop/convenience/meed-cc9d9e":{"name":"ميد","locationSet":{"include":["sa"]},"geometry":["point","area"],"matchScore":2,"terms":["meed","meed trading company","شركة ميد التجارية","ميد"],"tags":{"brand:wikidata":"Q105492269","shop":"convenience"},"addTags":{"brand":"شركة ميد التجارية","brand:ar":"شركة ميد التجارية","brand:en":"MEED Trading Company","brand:wikidata":"Q105492269","name":"ميد","name:ar":"ميد","name:en":"MEED","shop":"convenience"}},"shop/department_store/printemps-b3d693":{"name":"Printemps","locationSet":{"include":["ad","cn","fr","jp","sa"]},"geometry":["point","area"],"matchScore":2,"terms":["printemps"],"tags":{"brand:wikidata":"Q1535260","shop":"department_store"},"addTags":{"brand":"Printemps","brand:wikidata":"Q1535260","name":"Printemps","shop":"department_store"}},"shop/jewelry/joyalukkas-534941":{"name":"Joyalukkas","locationSet":{"include":["ae","bh","gb","in","kw","my","om","qa","sa","sg","us"]},"geometry":["point","area"],"matchScore":2,"terms":["joyalukkas"],"tags":{"brand:wikidata":"Q6297357","shop":"jewelry"},"addTags":{"brand":"Joyalukkas","brand:wikidata":"Q6297357","name":"Joyalukkas","shop":"jewelry"}},"shop/jewelry/malabargoldanddiamonds-9fa2ef":{"name":"Malabar Gold and Diamonds","locationSet":{"include":["ae","bh","in","kw","my","om","qa","sa","sg","us"]},"geometry":["point","area"],"matchScore":2,"terms":["malabar gold and diamonds"],"tags":{"brand:wikidata":"Q60748883","shop":"jewelry"},"addTags":{"brand":"Malabar Gold and Diamonds","brand:wikidata":"Q60748883","name":"Malabar Gold and Diamonds","shop":"jewelry"}},"shop/kitchen/ixina-d089d8":{"name":"Ixina","locationSet":{"include":["ae","au","be","bf","bh","bj","ca","ci","cm","cn","cz","dz","ee","eg","fr","gh","hr","ke","kw","lu","ly","ma","mu","nl","pl","qa","ro","ru","sa","se","sn","tg","th","tn","vn"]},"geometry":["point","area"],"matchScore":2,"terms":["ixina"],"tags":{"brand:wikidata":"Q3156424","shop":"kitchen"},"addTags":{"brand":"Ixina","brand:wikidata":"Q3156424","name":"Ixina","shop":"kitchen"}},"shop/supermarket/tamimimarkets-22a530":{"name":"أسواق التميمي","locationSet":{"include":["sa"]},"geometry":["point","area"],"matchScore":2,"terms":["tamimi","tamimi markets","أسواق التميمي","التميمي"],"tags":{"brand:wikidata":"Q111042647","shop":"supermarket"},"addTags":{"alt_name:ar":"التميمي","alt_name:en":"Tamimi","brand":"أسواق التميمي","brand:ar":"أسواق التميمي","brand:en":"Tamimi Markets","brand:wikidata":"Q111042647","name":"أسواق التميمي","name:ar":"أسواق التميمي","name:en":"Tamimi Markets","shop":"supermarket"}},"shop/supermarket/abdullahalothaimmarkets-6c5d99":{"name":"أسواق عبد الله العثيم","locationSet":{"include":["eg","sa"]},"geometry":["point","area"],"matchScore":2,"terms":["abdullah alothaim markets","othaim","أسواق عبد الله العثيم","العثيم"],"tags":{"brand:wikidata":"Q12218555","shop":"supermarket"},"addTags":{"alt_name:ar":"العثيم","alt_name:en":"Othaim","brand":"أسواق عبد الله العثيم","brand:ar":"أسواق عبد الله العثيم","brand:en":"Abdullah AlOthaim Markets","brand:wikidata":"Q12218555","name":"أسواق عبد الله العثيم","name:ar":"أسواق عبد الله العثيم","name:en":"Abdullah AlOthaim Markets","shop":"supermarket"}},"shop/supermarket/panda-709c58":{"name":"بنده","locationSet":{"include":["ae","bh","sa"]},"geometry":["point","area"],"matchScore":2,"terms":["hyperpanda","panda","بنده","شركة بنده للتجزئة","هايبربنده"],"tags":{"brand:wikidata":"Q4832749","shop":"supermarket"},"addTags":{"alt_name:ar":"هايبربنده","alt_name:en":"HyperPanda","brand":"بنده","brand:ar":"بنده","brand:en":"Panda","brand:wikidata":"Q4832749","name":"بنده","name:ar":"بنده","name:en":"Panda","official_name":"شركة بنده للتجزئة","shop":"supermarket"}},"shop/tool_hire/loxam-33fef8":{"name":"Loxam","locationSet":{"include":["ae","be","bh","br","ch","co","cz","de","dk","ee","es","fi","fr","gb","ie","it","kw","lt","lu","lv","ma","nl","no","om","pl","pt","qa","sa","se","sk"]},"geometry":["point","area"],"matchScore":2,"terms":["loxam"],"tags":{"brand:wikidata":"Q3264407","shop":"tool_hire"},"addTags":{"brand":"Loxam","brand:wikidata":"Q3264407","name":"Loxam","shop":"tool_hire"}},"shop/tyres/tyreplus-99cc81":{"name":"Tyreplus","locationSet":{"include":["ae","au","bh","cn","id","kh","kw","my","om","ph","qa","ru","sa","sg","th","tw"]},"geometry":["point","area"],"matchScore":2,"terms":["tyreplus"],"tags":{"brand:wikidata":"Q110959120","shop":"tyres"},"addTags":{"brand":"Tyreplus","brand:wikidata":"Q110959120","name":"Tyreplus","shop":"tyres"}},"tourism/hotel/conrad-ee1a43":{"name":"Conrad Hotels & Resorts","locationSet":{"include":["ae","ca","cn","eg","gb","id","ie","in","jp","kr","mv","pf","ph","pt","sa","sg","th","tr","us"]},"geometry":["point","area"],"matchScore":2,"terms":["conrad"],"fields":["name","brand","{tourism/hotel}"],"tags":{"brand:wikidata":"Q855525","tourism":"hotel"},"addTags":{"brand":"Conrad","brand:wikidata":"Q855525","name":"Conrad","tourism":"hotel"}},"tourism/hotel/intercityhotel-360354":{"name":"IntercityHotel","locationSet":{"include":["at","ch","cn","de","nl","om","sa"]},"geometry":["point","area"],"matchScore":2,"terms":["intercityhotel"],"fields":["name","brand","{tourism/hotel}"],"tags":{"brand:wikidata":"Q73642490","tourism":"hotel"},"addTags":{"brand":"IntercityHotel","brand:wikidata":"Q73642490","name":"IntercityHotel","tourism":"hotel"}},"tourism/hotel/marriottexecutiveapartments-b2f419":{"name":"Marriott Executive Apartments","locationSet":{"include":["ae","be","bh","br","cn","et","gb","hu","id","in","kr","kz","pa","sa","th","za"]},"geometry":["point","area"],"matchScore":2,"terms":["marriott executive apartments"],"fields":["name","brand","{tourism/hotel}"],"tags":{"brand:wikidata":"Q72636824","tourism":"hotel"},"addTags":{"brand":"Marriott Executive Apartments","brand:wikidata":"Q72636824","name":"Marriott Executive Apartments","tourism":"hotel"}},"tourism/hotel/raffles-771760":{"name":"Raffles","locationSet":{"include":["ae","bh","cn","fr","gb","id","in","kh","mv","ph","pl","qa","ru","sa","sc","sg","us"]},"geometry":["point","area"],"matchScore":2,"terms":["raffles"],"fields":["name","brand","{tourism/hotel}"],"tags":{"brand:wikidata":"Q4306661","tourism":"hotel"},"addTags":{"brand":"Raffles","brand:wikidata":"Q4306661","name":"Raffles","tourism":"hotel"}},"tourism/hotel/waldorfastoria-665f74":{"name":"Waldorf Astoria","locationSet":{"include":["ae","au","cn","de","eg","fx","gb","il","it","kw","mv","mx","nl","pa","sa","th","us"]},"geometry":["point","area"],"matchScore":2,"terms":["waldorf astoria"],"fields":["name","brand","{tourism/hotel}"],"tags":{"brand:wikidata":"Q3239392","tourism":"hotel"},"addTags":{"brand":"Waldorf Astoria","brand:wikidata":"Q3239392","name":"Waldorf Astoria","tourism":"hotel"}},"power/plant/saudielectricitycompany-435ddd":{"name":"Saudi Electricity Company","locationSet":{"include":["sa"]},"geometry":["area"],"matchScore":2,"terms":["saudi electricity company"],"tags":{"operator:wikidata":"Q12188903","power":"plant"},"addTags":{"operator":"Saudi Electricity Company","operator:wikidata":"Q12188903","power":"plant"}}}