{"amenity/cafe/coffee_shop/aroma-5fc1d9":{"name":"Aroma","locationSet":{"include":["ca","uk","us"]},"geometry":["point","area"],"matchScore":2,"terms":["aroma"],"reference":{"key":"cuisine","value":"coffee_shop"},"tags":{"amenity":"cafe","brand:wikidata":"Q2909872","cuisine":"coffee_shop"},"addTags":{"amenity":"cafe","brand":"Aroma","brand:wikidata":"Q2909872","cuisine":"coffee_shop","name":"Aroma","takeaway":"yes"}},"amenity/cafe/coffee_shop/kahvedunyasi-9278bc":{"name":"Kahve Dünyası","locationSet":{"include":["ae","kw","ro","sa","tr","uk"]},"geometry":["point","area"],"matchScore":2,"terms":["kahve dünyası"],"reference":{"key":"cuisine","value":"coffee_shop"},"tags":{"amenity":"cafe","brand:wikidata":"Q28008050","cuisine":"coffee_shop"},"addTags":{"amenity":"cafe","brand":"Kahve Dünyası","brand:wikidata":"Q28008050","cuisine":"coffee_shop","name":"Kahve Dünyası","takeaway":"yes"}},"amenity/fast_food/hot_dog/costcofoodcourt-2909a2":{"name":"Costco Food Court","locationSet":{"include":["au","ca","jp","kr","mx","tw","uk","us"]},"geometry":["point","area"],"matchScore":2,"terms":["costco"],"reference":{"key":"cuisine","value":"hot_dog"},"tags":{"amenity":"fast_food","brand:wikidata":"Q715583","cuisine":"hot_dog;pizza;sandwich"},"addTags":{"amenity":"fast_food","brand":"Costco","brand:wikidata":"Q715583","cuisine":"hot_dog;pizza;sandwich","name":"Costco Food Court","takeaway":"yes"}},"amenity/fast_food/pizza/hell-6fb486":{"name":"Hell Pizza","locationSet":{"include":["ca","ie","in","kr","nz","uk"]},"geometry":["point","area"],"matchScore":2,"terms":["hell pizza"],"reference":{"key":"cuisine","value":"pizza"},"tags":{"amenity":"fast_food","brand:wikidata":"Q1602607","cuisine":"pizza"},"addTags":{"amenity":"fast_food","brand":"Hell Pizza","brand:wikidata":"Q1602607","cuisine":"pizza","name":"Hell","takeaway":"yes"}},"amenity/fast_food/mrpretzels-c5a4fb":{"name":"Mr. Pretzels","locationSet":{"include":["br","ca","cl","eg","fr","il","kw","pr","uk","us","ve"]},"geometry":["point","area"],"matchScore":2,"terms":["mr. pretzels"],"tags":{"amenity":"fast_food","brand:wikidata":"Q115728208"},"addTags":{"amenity":"fast_food","brand":"Mr. Pretzels","brand:wikidata":"Q115728208","cuisine":"pretzel","name":"Mr. Pretzels","takeaway":"yes"}},"amenity/fast_food/chicken/samschicken-45095e":{"name":"Sam's Chicken","locationSet":{"include":["uk"]},"geometry":["point","area"],"matchScore":2,"terms":["sam's chicken"],"reference":{"key":"cuisine","value":"chicken"},"tags":{"amenity":"fast_food","brand:wikidata":"Q24439129","cuisine":"chicken"},"addTags":{"amenity":"fast_food","brand":"Sam's Chicken","brand:wikidata":"Q24439129","cuisine":"chicken","name":"Sam's Chicken","takeaway":"yes"}},"amenity/fast_food/chicken/southernfriedchicken-a6761c":{"name":"Southern Fried Chicken","locationSet":{"include":["in","uk"]},"geometry":["point","area"],"matchScore":2,"terms":["southern fried chicken"],"reference":{"key":"cuisine","value":"chicken"},"tags":{"amenity":"fast_food","brand:wikidata":"Q7569934","cuisine":"chicken"},"addTags":{"amenity":"fast_food","brand":"Southern Fried Chicken","brand:wikidata":"Q7569934","cuisine":"chicken","name":"Southern Fried Chicken","takeaway":"yes"}},"amenity/fast_food/sushishop-ac545e":{"name":"Sushi Shop (Europe)","locationSet":{"include":["ae","be","ch","de","es","fr","it","lu","pt","sa","uk"]},"geometry":["point","area"],"matchScore":2,"terms":["sushi shop"],"tags":{"amenity":"fast_food","brand:wikidata":"Q3505657"},"addTags":{"amenity":"fast_food","brand":"Sushi Shop","brand:wikidata":"Q3505657","cuisine":"sushi","name":"Sushi Shop","takeaway":"yes"}},"amenity/fast_food/tortilla-99527b":{"name":"Tortilla","locationSet":{"include":["ae","sa","uk"]},"geometry":["point","area"],"matchScore":2,"terms":["tortilla"],"tags":{"amenity":"fast_food","brand:wikidata":"Q21006828"},"addTags":{"amenity":"fast_food","brand":"Tortilla","brand:wikidata":"Q21006828","cuisine":"tex-mex","name":"Tortilla","takeaway":"yes"}},"amenity/parcel_locker/inpost-6b37ec":{"name":"InPost","locationSet":{"include":["be","es","fr","it","lu","nl","pt","uk"]},"geometry":["point","vertex","area"],"matchScore":2,"terms":["inpost"],"fields":["name","brand","{amenity/parcel_locker}"],"reference":{"key":"amenity","value":"parcel_locker"},"tags":{"amenity":"parcel_locker","brand:wikidata":"Q3182097"},"addTags":{"amenity":"parcel_locker","brand":"InPost","brand:wikidata":"Q3182097","parcel_mail_in":"yes","parcel_pickup":"yes"}},"amenity/restaurant/japanese/cocoichibanya-365649":{"name":"CoCo Ichibanya","locationSet":{"include":["cn","hk","id","in","kr","ph","sg","th","tw","uk","us","vn"]},"geometry":["point","area"],"matchScore":2,"terms":["coco ichibanya","coco壱番屋"],"reference":{"key":"cuisine","value":"japanese"},"tags":{"amenity":"restaurant","brand:wikidata":"Q5986105","cuisine":"japanese"},"addTags":{"amenity":"restaurant","brand":"CoCo Ichibanya","brand:en":"CoCo Ichibanya","brand:ja":"CoCo壱番屋","brand:wikidata":"Q5986105","cuisine":"japanese","name":"CoCo Ichibanya","name:en":"CoCo Ichibanya","name:ja":"CoCo壱番屋","takeaway":"yes"}},"amenity/restaurant/noodle/ippudo-9b5453":{"name":"Ippudo","locationSet":{"include":["uk"]},"geometry":["point","area"],"matchScore":2,"terms":["ippudo","一風堂"],"reference":{"key":"cuisine","value":"noodle"},"tags":{"amenity":"restaurant","brand:wikidata":"Q6065417","cuisine":"noodle"},"addTags":{"amenity":"restaurant","brand":"Ippudo","brand:en":"Ippudo","brand:ja":"一風堂","brand:wikidata":"Q6065417","cuisine":"noodle","name":"Ippudo","name:en":"Ippudo","name:ja":"一風堂"}},"amenity/vending_machine/selecta-ed4d31":{"name":"Selecta","locationSet":{"include":["at","be","ch","de","dk","es","fi","fr","ie","it","li","lu","nl","no","se","uk"]},"geometry":["point","vertex"],"matchScore":2,"terms":["selecta"],"tags":{"amenity":"vending_machine","brand:wikidata":"Q472153"},"addTags":{"amenity":"vending_machine","brand":"Selecta","brand:wikidata":"Q472153"}},"leisure/sports_centre/topgolf-9025ef":{"name":"Topgolf","locationSet":{"include":["ae","au","cn","de","mx","th","uk","us"]},"geometry":["point","area"],"matchScore":2,"terms":["topgolf"],"fields":["name","brand","{leisure/sports_centre}"],"tags":{"brand:wikidata":"Q7824379","leisure":"sports_centre"},"addTags":{"brand":"Topgolf","brand:wikidata":"Q7824379","leisure":"sports_centre","name":"Topgolf","sport":"golf"}},"shop/car/perodua-fca759":{"name":"Perodua","locationSet":{"include":["my","sg","uk"]},"geometry":["point","area"],"matchScore":2,"terms":["perodua"],"fields":["name","brand","{shop/car}"],"tags":{"brand:wikidata":"Q1476369","shop":"car"},"addTags":{"brand":"Perodua","brand:wikidata":"Q1476369","name":"Perodua","shop":"car"}},"shop/clothes/agnesb-600d6e":{"name":"Agnès B.","locationSet":{"include":["cn","de","fr","jp","ne","sg","tw","uk","us"]},"geometry":["point","area"],"matchScore":2,"terms":["agnès b."],"tags":{"brand:wikidata":"Q282967","shop":"clothes"},"addTags":{"brand":"Agnès B.","brand:wikidata":"Q282967","name":"Agnès B.","shop":"clothes"}},"shop/clothes/defursac-86ac62":{"name":"De Fursac","locationSet":{"include":["be","ch","fr","lu","uk"]},"geometry":["point","area"],"matchScore":2,"terms":["de fursac"],"tags":{"brand:wikidata":"Q22248311","shop":"clothes"},"addTags":{"brand":"De Fursac","brand:wikidata":"Q22248311","clothes":"men","name":"De Fursac","shop":"clothes"}},"shop/clothes/desa-529415":{"name":"Desa","locationSet":{"include":["tr","uk"]},"geometry":["point","area"],"matchScore":2,"terms":["desa"],"tags":{"brand:wikidata":"Q17513880","shop":"clothes"},"addTags":{"brand":"Desa","brand:wikidata":"Q17513880","name":"Desa","shop":"clothes"}},"shop/clothes/kujten-c85cc8":{"name":"Kujten","locationSet":{"include":["be","fr","uk"]},"geometry":["point","area"],"matchScore":2,"terms":["kujten"],"tags":{"brand:wikidata":"Q104889858","shop":"clothes"},"addTags":{"brand":"Kujten","brand:wikidata":"Q104889858","clothes":"women;men;children","name":"Kujten","shop":"clothes"}},"shop/clothes/maje-99ba8f":{"name":"Maje","locationSet":{"include":["by","bg","cz","hu","pl","md","ro","ru","sk","ua","ax","gg","je","cq","dk","ee","fo","fi","is","ie","im","lv","lt","no","sj","se","gb","al","ad","ba","hr","gi","gr","va","it","mt","me","mk","pt","sm","rs","si","es","xk","at","be","fr","de","li","lu","mc","nl","ch","cn","hk","sg","tw","uk","us"]},"geometry":["point","area"],"matchScore":2,"terms":["maje"],"tags":{"brand:wikidata":"Q3280458","shop":"clothes"},"addTags":{"brand":"Maje","brand:wikidata":"Q3280458","clothes":"women","name":"Maje","shop":"clothes"}},"shop/clothes/soeur-c85cc8":{"name":"Soeur","locationSet":{"include":["be","fr","uk"]},"geometry":["point","area"],"matchScore":2,"terms":["soeur"],"tags":{"brand:wikidata":"Q104232980","shop":"clothes"},"addTags":{"brand":"Soeur","brand:wikidata":"Q104232980","clothes":"women","name":"Soeur","shop":"clothes"}},"shop/clothes/truereligion-99b1ed":{"name":"True Religion","locationSet":{"include":["ca","mx","uk","us"]},"geometry":["point","area"],"matchScore":2,"terms":["true religion"],"tags":{"brand:wikidata":"Q2456205","shop":"clothes"},"addTags":{"brand":"True Religion","brand:wikidata":"Q2456205","clothes":"denim","name":"True Religion","shop":"clothes"}},"shop/department_store/tkmaxx-d02268":{"name":"TK Maxx","locationSet":{"include":["at","au","de","ie","nl","pl","uk"]},"geometry":["point","area"],"matchScore":2,"terms":["tk maxx"],"tags":{"brand:wikidata":"Q23823668","shop":"department_store"},"addTags":{"brand":"TK Maxx","brand:wikidata":"Q23823668","name":"TK Maxx","shop":"department_store"}},"shop/household_linen/yvesdelorme-cbcdfa":{"name":"Yves Delorme","locationSet":{"include":["be","de","es","fr","lu","uk"]},"geometry":["point","area"],"matchScore":2,"terms":["yves delorme"],"tags":{"brand:wikidata":"Q3573601","shop":"household_linen"},"addTags":{"brand":"Yves Delorme","brand:wikidata":"Q3573601","name":"Yves Delorme","shop":"household_linen"}},"shop/jewelry/hstern-5f2e62":{"name":"H. Stern","locationSet":{"include":["ar","br","fr","il","mx","pe","ru","uk","us"]},"geometry":["point","area"],"matchScore":2,"terms":["h. stern"],"tags":{"brand:wikidata":"Q2660388","shop":"jewelry"},"addTags":{"brand":"H. Stern","brand:wikidata":"Q2660388","name":"H. Stern","shop":"jewelry"}},"shop/mall/westfield-24bee6":{"name":"Westfield","locationSet":{"include":["eu","uk","us"]},"geometry":["point","area"],"matchScore":2,"terms":["unibail-rodamco-westfield","westfield"],"fields":["name","brand","{shop/mall}"],"tags":{"brand:wikidata":"Q106623253","shop":"mall"},"addTags":{"brand":"Westfield","brand:wikidata":"Q106623253","name":"Westfield","operator":"Unibail-Rodamco-Westfield","operator:wikidata":"Q608518","shop":"mall"}},"shop/optician/jimmyfairly-2b2b7c":{"name":"Jimmy Fairly","locationSet":{"include":["fr","uk"]},"geometry":["point","area"],"matchScore":2,"terms":["jimmy fairly"],"fields":["name","brand","{shop/optician}"],"tags":{"brand:wikidata":"Q104825419","shop":"optician"},"addTags":{"brand":"Jimmy Fairly","brand:wikidata":"Q104825419","name":"Jimmy Fairly","shop":"optician"}},"shop/optician/rayban-ace229":{"name":"Ray-Ban","locationSet":{"include":["ae","at","au","br","ca","de","es","fr","ie","it","jp","my","ne","tr","uk","us"]},"geometry":["point","area"],"matchScore":2,"terms":["ray-ban"],"fields":["name","brand","{shop/optician}"],"tags":{"brand:wikidata":"Q653941","shop":"optician"},"addTags":{"brand":"Ray-Ban","brand:wikidata":"Q653941","name":"Ray-Ban","shop":"optician"}},"shop/pawnbroker/cashconverters-1c62e9":{"name":"Cash Converters","locationSet":{"include":["ae","au","be","ch","es","fr","lu","my","na","nz","pt","sg","uk","za"]},"geometry":["point","area"],"matchScore":2,"terms":["cash converters"],"tags":{"brand:wikidata":"Q5048645","shop":"pawnbroker"},"addTags":{"brand":"Cash Converters","brand:wikidata":"Q5048645","name":"Cash Converters","shop":"pawnbroker"}},"shop/perfumery/equivalenza-59ad61":{"name":"Equivalenza","locationSet":{"include":["ad","ao","at","be","ca","cv","de","do","es","fr","gr","gt","ie","it","mx","mz","nl","pe","pt","ro","tn","uk"]},"geometry":["point","area"],"matchScore":2,"terms":["equivalenza"],"tags":{"brand:wikidata":"Q104649798","shop":"perfumery"},"addTags":{"brand":"Equivalenza","brand:wikidata":"Q104649798","name":"Equivalenza","shop":"perfumery"}},"shop/shoes/stuartweitzman-54b0d5":{"name":"Stuart Weitzman","locationSet":{"include":["ca","ch","de","fr","id","nl","uk","us"]},"geometry":["point","area"],"matchScore":2,"terms":["stuart weitzman"],"tags":{"brand:wikidata":"Q75244763","shop":"shoes"},"addTags":{"brand":"Stuart Weitzman","brand:wikidata":"Q75244763","name":"Stuart Weitzman","shop":"shoes"}},"shop/storage_rental/storagemart-3ec4f5":{"name":"StorageMart","locationSet":{"include":["ca","uk","us"]},"geometry":["point","area"],"matchScore":2,"terms":["storagemart"],"tags":{"brand:wikidata":"Q16226585","shop":"storage_rental"},"addTags":{"brand":"StorageMart","brand:wikidata":"Q16226585","name":"StorageMart","shop":"storage_rental"}},"shop/ticket/ticketmaster-9f0b74":{"name":"Ticketmaster","locationSet":{"include":["ae","at","au","be","ca","ch","cy","cz","de","dk","es","fi","fr","gr","ie","it","mx","nl","no","nz","pl","se","sg","tr","tw","uk","za"]},"geometry":["point","area"],"matchScore":2,"terms":["live nation","ticketmaster"],"fields":["name","brand","{shop/ticket}"],"tags":{"brand:wikidata":"Q2609162","shop":"ticket"},"addTags":{"brand":"Ticketmaster","brand:wikidata":"Q2609162","name":"Ticketmaster","shop":"ticket"}},"shop/watches/longines-691196":{"name":"Longines","locationSet":{"include":["ar","au","be","ca","ch","cl","cn","de","dk","es","fi","fr","gr","in","it","jp","kr","mx","my","nl","no","pt","se","sg","th","tr","tw","uk","us","za"]},"geometry":["point","area"],"matchScore":2,"terms":["longines"],"tags":{"brand:wikidata":"Q603698","shop":"watches"},"addTags":{"brand":"Longines","brand:wikidata":"Q603698","name":"Longines","shop":"watches"}},"tourism/hostel/aando-a930a5":{"name":"A&O","locationSet":{"include":["at","cz","de","dk","hu","it","nl","pl","uk"]},"geometry":["point","area"],"matchScore":2,"terms":["a&o"],"fields":["name","brand","{tourism/hostel}"],"tags":{"brand:wikidata":"Q15890910","tourism":"hostel"},"addTags":{"brand":"A&O","brand:wikidata":"Q15890910","name":"A&O","tourism":"hostel"}},"tourism/hotel/aando-7ebc01":{"name":"A&O","locationSet":{"include":["at","cz","de","dk","hu","it","nl","pl","uk"]},"geometry":["point","area"],"matchScore":2,"terms":["a&o"],"fields":["name","brand","{tourism/hotel}"],"tags":{"brand:wikidata":"Q15890910","tourism":"hotel"},"addTags":{"brand":"A&O","brand:wikidata":"Q15890910","name":"A&O","tourism":"hotel"}},"tourism/hotel/theniu-3dd84b":{"name":"the niu","locationSet":{"include":["at","de","nl","uk"]},"geometry":["point","area"],"matchScore":2,"terms":["the niu"],"fields":["name","brand","{tourism/hotel}"],"tags":{"brand:wikidata":"Q116486979","tourism":"hotel"},"addTags":{"brand":"the niu","brand:wikidata":"Q116486979","name":"the niu","tourism":"hotel"}},"power/generator/constellation-c841a9":{"name":"Constellation","locationSet":{"include":["ca","uk","us"]},"geometry":["point","vertex","area"],"matchScore":2,"terms":["constellation","contellation","exelon","exelon group"],"tags":{"operator:wikidata":"Q259195","power":"generator"},"addTags":{"operator":"Constellation","operator:wikidata":"Q259195","power":"generator"}},"type/route/train/eurostar-8a1522":{"name":"Eurostar","locationSet":{"include":["be","fx","nl","uk"]},"geometry":["relation"],"matchScore":2,"terms":["eurostar"],"reference":{"key":"route","value":"train"},"tags":{"network:wikidata":"Q156013","route":"train","type":"route"},"addTags":{"network":"Eurostar","network:wikidata":"Q156013","route":"train","type":"route"}}}