{"education/school/assamstateschooleducationboard-495299":{"name":"Assam State School Education Board","locationSet":{"include":["in-as"]},"geometry":["area","point"],"matchScore":2,"terms":["assam state school education board"],"reference":{"key":"amenity","value":"school"},"tags":{"amenity":"school","operator:wikidata":"Q131748335"},"addTags":{"amenity":"school","operator":"Assam State School Education Board","operator:type":"government","operator:wikidata":"Q131748335"}},"education/school/boardofsecondaryeducation-495299":{"name":"Board of Secondary Education (Assam)","locationSet":{"include":["in-as"]},"geometry":["area","point"],"matchScore":2,"terms":["board of secondary education"],"reference":{"key":"amenity","value":"school"},"tags":{"amenity":"school","operator:wikidata":"Q4931371"},"addTags":{"amenity":"school","operator":"Board of Secondary Education","operator:type":"government","operator:wikidata":"Q4931371"}},"education/school/directorateofelementaryeducation-495299":{"name":"Directorate of Elementary Education (Assam)","locationSet":{"include":["in-as"]},"geometry":["area","point"],"matchScore":2,"terms":["directorate of elementary education"],"reference":{"key":"amenity","value":"school"},"tags":{"amenity":"school","operator:wikidata":"Q134481122"},"addTags":{"amenity":"school","operator":"Directorate of Elementary Education","operator:type":"government","operator:wikidata":"Q134481122"}}}