{"amenity/atm/hawaiianfirstbank-bc3288":{"name":"Hawaiian First Bank","locationSet":{"include":["gu","mp","us-hi"]},"geometry":["point","vertex"],"matchScore":2,"terms":["hawaiian first bank"],"tags":{"amenity":"atm","brand:wikidata":"Q3072937"},"addTags":{"amenity":"atm","brand":"Hawaiian First Bank","brand:wikidata":"Q3072937","operator":"Hawaiian First Bank","operator:wikidata":"Q3072937"}},"amenity/bank/hawaiianfirstbank-ae6ba2":{"name":"Hawaiian First Bank","locationSet":{"include":["gu","mp","us-hi"]},"geometry":["point","area"],"matchScore":2,"terms":["hawaiian first bank"],"tags":{"amenity":"bank","brand:wikidata":"Q3072937"},"addTags":{"amenity":"bank","brand":"Hawaiian First Bank","brand:wikidata":"Q3072937","name":"Hawaiian First Bank"}},"amenity/fast_food/juice/froots-9b3bc4":{"name":"Froots","locationSet":{"include":["gu","tc"]},"geometry":["point","area"],"matchScore":2,"terms":["froots"],"reference":{"key":"cuisine","value":"juice"},"tags":{"amenity":"fast_food","brand:wikidata":"Q96203860","cuisine":"juice;salad"},"addTags":{"amenity":"fast_food","brand":"Froots","brand:wikidata":"Q96203860","cuisine":"juice;salad","name":"Froots","takeaway":"yes"}},"amenity/fast_food/tacobell-09585c":{"name":"Taco Bell","locationSet":{"include":["ae","ar","au","aw","ba","br","ca","cl","co","cr","cy","de","do","dz","ec","es","fi","fr","gb","gt","gu","id","ie","in","is","it","jp","kr","kw","lk","mx","my","nl","nz","pa","pe","ph","pr","pt","ro","se","sv","th","us"]},"geometry":["point","area"],"matchScore":2,"terms":["taco bell"],"tags":{"amenity":"fast_food","brand:wikidata":"Q752941"},"addTags":{"amenity":"fast_food","brand":"Taco Bell","brand:wikidata":"Q752941","cuisine":"tex-mex","name":"Taco Bell","takeaway":"yes"}},"shop/department_store/lottedutyfree-8352b8":{"name":"Lotte Duty Free","locationSet":{"include":["au","gu","jp","kr","nz","th","vn"]},"geometry":["point","area"],"matchScore":2,"terms":["lotte duty free","롯데면세점","ロッテ免税"],"tags":{"brand:wikidata":"Q12594196","shop":"department_store"},"addTags":{"brand":"Lotte Duty Free","brand:wikidata":"Q12594196","duty_free":"yes","name":"Lotte Duty Free","name:en":"Lotte Duty Free","name:ja":"ロッテ免税","name:ko":"롯데면세점","shop":"department_store"}},"tourism/hotel/daysinn-3e5d02":{"name":"Days Inn","locationSet":{"include":["ar","az","br","ca","ch","cn","de","gb","gu","id","in","jo","kr","mx","my","ph","sg","sn","th","tr","us"]},"geometry":["point","area"],"matchScore":2,"terms":["days inn","days inn by wyndham"],"fields":["name","brand","{tourism/hotel}"],"preserveTags":["^name","^official_name"],"tags":{"brand:wikidata":"Q1047239","tourism":"hotel"},"addTags":{"brand":"Days Inn","brand:wikidata":"Q1047239","name":"Days Inn","official_name":"Days Inn by Wyndham","tourism":"hotel"}}}