{"advertising/totem/eko-66fbaf":{"name":"EKO (Cyprus)","locationSet":{"include":["cy"]},"geometry":["point","line"],"matchScore":2,"terms":["eko","q903198","εκο","еко"],"tags":{"advertising":"totem","brand:wikidata":"Q111604705"},"addTags":{"advertising":"totem","brand":"EKO","brand:wikidata":"Q111604705"}},"advertising/totem/eni-59f06a":{"name":"Eni","locationSet":{"include":["at","ch","cy","de","es","fx","it"]},"geometry":["point","line"],"matchScore":2,"terms":["agip/eni","eni","eni station"],"tags":{"advertising":"totem","brand:wikidata":"Q565594"},"addTags":{"advertising":"totem","brand":"Eni","brand:wikidata":"Q565594"}},"advertising/totem/petrolina-66fbaf":{"name":"Petrolina","locationSet":{"include":["cy"]},"geometry":["point","line"],"matchScore":2,"terms":["petrolina"],"tags":{"advertising":"totem","brand:wikidata":"Q17013948"},"addTags":{"advertising":"totem","brand":"Petrolina","brand:wikidata":"Q17013948"}},"amenity/atm/alphabank-39c6ab":{"name":"Alpha Bank","locationSet":{"include":["cy","gr","ro"]},"geometry":["point","vertex"],"matchScore":2,"terms":["alpha bank"],"tags":{"amenity":"atm","brand:wikidata":"Q747394"},"addTags":{"amenity":"atm","brand":"Alpha Bank","brand:wikidata":"Q747394","operator":"Alpha Bank","operator:wikidata":"Q747394"}},"amenity/atm/bankofcyprus-524a78":{"name":"Bank of Cyprus","locationSet":{"include":["cy"]},"geometry":["point","vertex"],"matchScore":2,"terms":["bank of cyprus"],"tags":{"amenity":"atm","brand:wikidata":"Q806678"},"addTags":{"amenity":"atm","brand":"Bank of Cyprus","brand:wikidata":"Q806678","operator":"Bank of Cyprus","operator:wikidata":"Q806678"}},"amenity/atm/eurobank-f234fb":{"name":"Eurobank Ergasias","locationSet":{"include":["cy","gb","gr","lu"]},"geometry":["point","vertex"],"matchScore":2,"terms":["eurobank","eurobank ergasias"],"tags":{"amenity":"atm","brand:wikidata":"Q951850"},"addTags":{"amenity":"atm","brand":"Eurobank","brand:wikidata":"Q951850","operator":"Eurobank","operator:wikidata":"Q951850"}},"amenity/atm/hellenicbank-524a78":{"name":"Hellenic Bank","locationSet":{"include":["cy"]},"geometry":["point","vertex"],"matchScore":2,"terms":["hellenic bank"],"tags":{"amenity":"atm","brand:wikidata":"Q5707160"},"addTags":{"amenity":"atm","brand":"Hellenic Bank","brand:wikidata":"Q5707160","operator":"Hellenic Bank","operator:wikidata":"Q5707160"}},"amenity/atm/intesasanpaolo-b483ef":{"name":"Intesa Sanpaolo","locationSet":{"include":["kz","kg","tj","tm","uz","cn","hk","mo","kp","jp","mn","kr","bn","kh","id","la","my","mm","ph","sg","th","tl","vn","af","bd","bt","in","ir","mv","np","pk","lk","am","az","bh","cy","ge","iq","il","jo","kw","lb","om","qa","sa","ps","sy","tr","ae","ye","by","bg","cz","hu","pl","md","ro","ru","sk","ua","ax","gg","je","cq","dk","ee","fo","fi","is","ie","im","lv","lt","no","sj","se","gb","al","ad","ba","hr","gi","gr","va","it","mt","me","mk","pt","sm","rs","si","es","xk","at","be","fr","de","li","lu","mc","nl","ch","au-nsw","br","eg","us-dc"],"exclude":["rs","ua"]},"geometry":["point","vertex"],"matchScore":2,"terms":["banca intesa","banca popolare di vicenza","banco di napoli","carisbo","cassa di risparmio del veneto","cassa di risparmio di firenze","intesa sanpaolo","intesa sanpaolo s.p.a.","ubi banca","veneto banca"],"tags":{"amenity":"atm","brand:wikidata":"Q1343118"},"addTags":{"amenity":"atm","brand":"Intesa Sanpaolo","brand:wikidata":"Q1343118","operator":"Intesa Sanpaolo","operator:wikidata":"Q1343118"}},"amenity/bank/alphabank-438bef":{"name":"Alpha Bank","locationSet":{"include":["cy","gr","ro"]},"geometry":["point","area"],"matchScore":2,"terms":["alpha bank"],"tags":{"amenity":"bank","brand:wikidata":"Q747394"},"addTags":{"amenity":"bank","brand":"Alpha Bank","brand:wikidata":"Q747394","name":"Alpha Bank"}},"amenity/bank/bankofcyprus-fe69e8":{"name":"Bank of Cyprus","locationSet":{"include":["cy"]},"geometry":["point","area"],"matchScore":2,"terms":["bank of cyprus","kıbrıs bankası","τράπεζα κύπρου"],"tags":{"amenity":"bank","brand:wikidata":"Q806678"},"addTags":{"amenity":"bank","brand":"Bank of Cyprus","brand:wikidata":"Q806678","name":"Bank of Cyprus","name:el":"Τράπεζα Κύπρου","name:en":"Bank of Cyprus","name:tr":"Kıbrıs Bankası"}},"amenity/bank/eurobank-158d7a":{"name":"Eurobank Ergasias","locationSet":{"include":["cy","gb","gr","lu"]},"geometry":["point","area"],"matchScore":2,"terms":["eurobank","eurobank ergasias"],"tags":{"amenity":"bank","brand:wikidata":"Q951850"},"addTags":{"amenity":"bank","brand":"Eurobank","brand:wikidata":"Q951850","name":"Eurobank"}},"amenity/bank/hellenicbank-fe69e8":{"name":"Hellenic Bank","locationSet":{"include":["cy"]},"geometry":["point","area"],"matchScore":2,"terms":["hellenic bank","ελληνική τράπεζα"],"tags":{"amenity":"bank","brand:wikidata":"Q5707160"},"addTags":{"amenity":"bank","brand":"Hellenic Bank","brand:wikidata":"Q5707160","name":"Ελληνική Τράπεζα","name:el":"Ελληνική Τράπεζα","name:en":"Hellenic Bank"}},"amenity/bank/intesasanpaolo-28f235":{"name":"Intesa Sanpaolo","locationSet":{"include":["kz","kg","tj","tm","uz","cn","hk","mo","kp","jp","mn","kr","bn","kh","id","la","my","mm","ph","sg","th","tl","vn","af","bd","bt","in","ir","mv","np","pk","lk","am","az","bh","cy","ge","iq","il","jo","kw","lb","om","qa","sa","ps","sy","tr","ae","ye","by","bg","cz","hu","pl","md","ro","ru","sk","ua","ax","gg","je","cq","dk","ee","fo","fi","is","ie","im","lv","lt","no","sj","se","gb","al","ad","ba","hr","gi","gr","va","it","mt","me","mk","pt","sm","rs","si","es","xk","at","be","fr","de","li","lu","mc","nl","ch","au-nsw","br","eg","us-dc"],"exclude":["rs","ua"]},"geometry":["point","area"],"matchScore":2,"terms":["banca intesa","banca popolare di vicenza","banco di napoli","carisbo","cassa di risparmio del veneto","cassa di risparmio di firenze","intesa sanpaolo","intesa sanpaolo s.p.a.","ubi banca","veneto banca"],"tags":{"amenity":"bank","brand:wikidata":"Q1343118"},"addTags":{"amenity":"bank","brand":"Intesa Sanpaolo","brand:wikidata":"Q1343118","name":"Intesa Sanpaolo"}},"amenity/bicycle_rental/nextbike-063331":{"name":"nextbike Cyprus","locationSet":{"include":["cy"]},"geometry":["point","vertex","area"],"matchScore":2,"terms":["nextbike","nextbike cy ltd"],"fields":["name","brand","{amenity/bicycle_rental}"],"preserveTags":["^name"],"tags":{"amenity":"bicycle_rental","brand:wikidata":"Q2351279"},"addTags":{"amenity":"bicycle_rental","brand":"nextbike","brand:wikidata":"Q2351279","network":"nextbike Cyprus","operator":"nextbike Cy Ltd","operator:type":"private"}},"amenity/bureau_de_change/changegroup-70b70e":{"name":"Change Group","locationSet":{"include":["at","au","cy","de","dk","es","fi","fr","gb","is","nz","se"]},"geometry":["point","area"],"matchScore":2,"terms":["change group"],"tags":{"amenity":"bureau_de_change","brand:wikidata":"Q5071758"},"addTags":{"amenity":"bureau_de_change","brand":"Change Group","brand:wikidata":"Q5071758","name":"Change Group"}},"amenity/cafe/coffee_shop/caffenero-0d98f2":{"name":"Caffè Nero","locationSet":{"include":["ae","cy","gb","hr","ie","om","pl","se","tr","us"]},"geometry":["point","area"],"matchScore":2,"terms":["cafe nero","caffè nero"],"reference":{"key":"cuisine","value":"coffee_shop"},"tags":{"amenity":"cafe","brand:wikidata":"Q675808","cuisine":"coffee_shop"},"addTags":{"amenity":"cafe","brand":"Caffè Nero","brand:wikidata":"Q675808","cuisine":"coffee_shop","name":"Caffè Nero","takeaway":"yes"}},"amenity/cafe/coffee_shop/coffeeberry-7939ef":{"name":"Coffee Berry","locationSet":{"include":["cy","gr"]},"geometry":["point","area"],"matchScore":2,"terms":["coffee berry"],"reference":{"key":"cuisine","value":"coffee_shop"},"tags":{"amenity":"cafe","brand:wikidata":"Q115323784","cuisine":"coffee_shop"},"addTags":{"amenity":"cafe","brand":"Coffee Berry","brand:wikidata":"Q115323784","cuisine":"coffee_shop","name":"Coffee Berry","takeaway":"yes"}},"amenity/cafe/coffee_shop/coffeeisland-7939ef":{"name":"Coffee Island","locationSet":{"include":["cy","gr"]},"geometry":["point","area"],"matchScore":2,"terms":["coffee island"],"reference":{"key":"cuisine","value":"coffee_shop"},"tags":{"amenity":"cafe","brand:wikidata":"Q60867333","cuisine":"coffee_shop"},"addTags":{"amenity":"cafe","brand":"Coffee Island","brand:wikidata":"Q60867333","cuisine":"coffee_shop","name":"Coffee Island","takeaway":"yes"}},"amenity/cafe/coffee_shop/mikel-349bad":{"name":"Mikel","locationSet":{"include":["ae","au","cy","de","eg","gb","gr","sa","us"]},"geometry":["point","area"],"matchScore":2,"terms":["mikel"],"reference":{"key":"cuisine","value":"coffee_shop"},"tags":{"amenity":"cafe","brand:wikidata":"Q16952021","cuisine":"coffee_shop"},"addTags":{"amenity":"cafe","brand":"Mikel","brand:wikidata":"Q16952021","cuisine":"coffee_shop","name":"Mikel","takeaway":"yes"}},"amenity/car_wash/eniwash-a152e3":{"name":"Eni Wash","locationSet":{"include":["at","ch","cy","de","es","fx","it"]},"geometry":["point","area"],"matchScore":2,"terms":["eni"],"tags":{"amenity":"car_wash","brand:wikidata":"Q565594"},"addTags":{"amenity":"car_wash","brand":"Eni","brand:wikidata":"Q565594","name":"Eni Wash"}},"amenity/fast_food/donut/ladonuteria-369100":{"name":"La Donuteria","locationSet":{"include":["am","az","bh","cy","ge","iq","il","jo","kw","lb","om","qa","sa","ps","sy","tr","ae","ye","by","bg","cz","hu","pl","md","ro","ru","sk","ua","ax","gg","je","cq","dk","ee","fo","fi","is","ie","im","lv","lt","no","sj","se","gb","al","ad","ba","hr","gi","gr","va","it","mt","me","mk","pt","sm","rs","si","es","xk","at","be","fr","de","li","lu","mc","nl","ch"]},"geometry":["point","area"],"matchScore":2,"terms":["la donuteria"],"reference":{"key":"cuisine","value":"donut"},"tags":{"amenity":"fast_food","brand:wikidata":"Q136734522","cuisine":"donut;coffee_shop"},"addTags":{"alt_name":"La Donuteria","amenity":"fast_food","brand":"La Donuteria","brand:wikidata":"Q136734522","cuisine":"donut;coffee_shop","name":"La Donuteria","takeaway":"yes"}},"amenity/fast_food/oakberryacaibowls-5bb50d":{"name":"Oakberry Açaí bowls","locationSet":{"include":["ae","at","au","be","bh","br","ca","ch","cl","co","cy","de","dk","ec","ee","es","fr","gb","gr","hr","ie","il","it","mt","mx","nl","pe","pl","pt","py","qa","ro","sa","si","th","us"]},"geometry":["point","area"],"matchScore":2,"terms":["oakberry açaí bowls"],"tags":{"amenity":"fast_food","brand:wikidata":"Q104870840"},"addTags":{"amenity":"fast_food","brand":"Oakberry Açaí bowls","brand:wikidata":"Q104870840","cuisine":"açaí","name":"Oakberry Açaí bowls","takeaway":"yes"}},"amenity/fast_food/tacobell-09585c":{"name":"Taco Bell","locationSet":{"include":["ae","ar","au","aw","ba","br","ca","cl","co","cr","cy","de","do","dz","ec","es","fi","fr","gb","gt","gu","id","ie","in","is","it","jp","kr","kw","lk","mx","my","nl","nz","pa","pe","ph","pr","pt","ro","se","sv","th","us"]},"geometry":["point","area"],"matchScore":2,"terms":["taco bell"],"tags":{"amenity":"fast_food","brand:wikidata":"Q752941"},"addTags":{"amenity":"fast_food","brand":"Taco Bell","brand:wikidata":"Q752941","cuisine":"tex-mex","name":"Taco Bell","takeaway":"yes"}},"amenity/fast_food/wings/wingstreet-1c2e03":{"name":"WingStreet","locationSet":{"include":["au","ca","cy","us"]},"geometry":["point","area"],"matchScore":2,"terms":["wingstreet"],"reference":{"key":"cuisine","value":"wings"},"tags":{"amenity":"fast_food","brand:wikidata":"Q946630","cuisine":"wings"},"addTags":{"amenity":"fast_food","brand":"WingStreet","brand:wikidata":"Q946630","cuisine":"wings","name":"WingStreet","takeaway":"yes"}},"amenity/fast_food/woktowalk-f5ada9":{"name":"Wok to Walk","locationSet":{"include":["ae","bg","co","cy","ec","ee","es","fx","gb","il","in","it","lt","lv","ma","mt","mx","nl","om","pa","pt","qa","sa","us"]},"geometry":["point","area"],"matchScore":2,"terms":["wok to walk"],"tags":{"amenity":"fast_food","brand:wikidata":"Q4020634"},"addTags":{"amenity":"fast_food","brand":"Wok to Walk","brand:wikidata":"Q4020634","cuisine":"asian","name":"Wok to Walk","takeaway":"yes"}},"amenity/fast_food/sandwich/gregorys-2c3287":{"name":"Γρηγόρης","locationSet":{"include":["cy","gr"]},"geometry":["point","area"],"matchScore":2,"terms":["gregory's","γρηγόρης"],"reference":{"key":"cuisine","value":"sandwich"},"tags":{"amenity":"fast_food","brand:wikidata":"Q62273834","cuisine":"sandwich"},"addTags":{"amenity":"fast_food","brand":"Γρηγόρης","brand:el":"Γρηγόρης","brand:en":"Gregory's","brand:wikidata":"Q62273834","cuisine":"sandwich","name":"Γρηγόρης","name:el":"Γρηγόρης","name:en":"Gregory's","takeaway":"yes"}},"amenity/fuel/eko-96daf2":{"name":"EKO (Cyprus)","locationSet":{"include":["cy"]},"geometry":["point","area"],"matchScore":2,"terms":["eko","q903198","εκο","еко"],"fields":["name","brand","{amenity/fuel}"],"preserveTags":["^name"],"tags":{"amenity":"fuel","brand:wikidata":"Q111604705"},"addTags":{"amenity":"fuel","brand":"EKO","brand:wikidata":"Q111604705","name":"EKO"}},"amenity/fuel/eni-0330be":{"name":"Eni","locationSet":{"include":["at","ch","cy","de","es","fx","it"]},"geometry":["point","area"],"matchScore":2,"terms":["agip/eni","eni","eni station"],"fields":["name","brand","{amenity/fuel}"],"preserveTags":["^name"],"tags":{"amenity":"fuel","brand:wikidata":"Q565594"},"addTags":{"amenity":"fuel","brand":"Eni","brand:wikidata":"Q565594","name":"Eni"}},"amenity/fuel/petrolina-96daf2":{"name":"Petrolina","locationSet":{"include":["cy"]},"geometry":["point","area"],"matchScore":2,"terms":["petrolina"],"fields":["name","brand","{amenity/fuel}"],"preserveTags":["^name"],"tags":{"amenity":"fuel","brand:wikidata":"Q17013948"},"addTags":{"amenity":"fuel","brand":"Petrolina","brand:wikidata":"Q17013948","name":"Petrolina"}},"amenity/restaurant/american/bennigans-2a32d0":{"name":"Bennigan's","locationSet":{"include":["cy","mx","sv","us"]},"geometry":["point","area"],"matchScore":2,"terms":["bennigan's"],"reference":{"key":"cuisine","value":"american"},"tags":{"amenity":"restaurant","brand:wikidata":"Q8246508","cuisine":"american"},"addTags":{"amenity":"restaurant","brand":"Bennigan's","brand:wikidata":"Q8246508","cuisine":"american","name":"Bennigan's"}},"amenity/restaurant/bigchefs-697df7":{"name":"BigChefs","locationSet":{"include":["az","cy","de","ge","kz","tr","uz"]},"geometry":["point","area"],"matchScore":2,"terms":["bigchefs"],"tags":{"amenity":"restaurant","brand:wikidata":"Q97832915"},"addTags":{"amenity":"restaurant","brand":"BigChefs","brand:wikidata":"Q97832915","name":"BigChefs"}},"amenity/restaurant/seafood/oceanbasket-5d9698":{"name":"Ocean Basket","locationSet":{"include":["ae","bw","cy","gb","ke","kw","kz","mt","mu","na","ng","qa","ru","sa","sz","za","zw"]},"geometry":["point","area"],"matchScore":2,"terms":["ocean basket"],"reference":{"key":"cuisine","value":"seafood"},"tags":{"amenity":"restaurant","brand:wikidata":"Q62075311","cuisine":"seafood"},"addTags":{"amenity":"restaurant","brand":"Ocean Basket","brand:wikidata":"Q62075311","cuisine":"seafood","name":"Ocean Basket"}},"amenity/restaurant/pizza/pizzaexpress-ebbd3d":{"name":"PizzaExpress","locationSet":{"include":["ae","cy","es","gb","hk","id","ie","in","kw","mo","ph","sg"]},"geometry":["point","area"],"matchScore":2,"terms":["pizzaexpress"],"reference":{"key":"cuisine","value":"pizza"},"tags":{"amenity":"restaurant","brand:wikidata":"Q662845","cuisine":"pizza"},"addTags":{"amenity":"restaurant","brand":"PizzaExpress","brand:wikidata":"Q662845","cuisine":"pizza","name":"PizzaExpress"}},"amenity/social_centre/ahepahall-30ca27":{"name":"AHEPA Hall","locationSet":{"include":["by","bg","cz","hu","pl","md","ro","ru","sk","ua","ax","gg","je","cq","dk","ee","fo","fi","is","ie","im","lv","lt","no","sj","se","gb","al","ad","ba","hr","gi","gr","va","it","mt","me","mk","pt","sm","rs","si","es","xk","at","be","fr","de","li","lu","mc","nl","ch","au","ca","cy","us"],"exclude":["ru"]},"geometry":["point","area"],"matchScore":2,"terms":["ahepa","american hellenic educational progressive association","the order of ahepa"],"fields":["name","brand","{amenity/social_centre}"],"preserveTags":["^name"],"tags":{"amenity":"social_centre","brand:wikidata":"Q4743973"},"addTags":{"amenity":"social_centre","brand":"AHEPA","brand:wikidata":"Q4743973","name":"AHEPA Hall"}},"landuse/industrial/gebruderweiss-dd5b7d":{"name":"Gebrüder Weiss","locationSet":{"include":["kz","kg","tj","tm","uz","cn","hk","mo","kp","jp","mn","kr","bn","kh","id","la","my","mm","ph","sg","th","tl","vn","af","bd","bt","in","ir","mv","np","pk","lk","am","az","bh","cy","ge","iq","il","jo","kw","lb","om","qa","sa","ps","sy","tr","ae","ye","by","bg","cz","hu","pl","md","ro","ru","sk","ua","ax","gg","je","cq","dk","ee","fo","fi","is","ie","im","lv","lt","no","sj","se","gb","al","ad","ba","hr","gi","gr","va","it","mt","me","mk","pt","sm","rs","si","es","xk","at","be","fr","de","li","lu","mc","nl","ch","au","ca","nz","us"]},"geometry":["area"],"matchScore":2,"terms":["gebrüder weiss"],"fields":["name","brand","{landuse/industrial}"],"preserveTags":["^name"],"tags":{"brand:wikidata":"Q1497233","landuse":"industrial"},"addTags":{"brand":"Gebrüder Weiss","brand:wikidata":"Q1497233","industrial":"warehouse","landuse":"industrial","name":"Gebrüder Weiss"}},"office/insurance/allianz-400bd0":{"name":"Allianz","locationSet":{"include":["ae","ar","at","au","be","bh","bm","bn","br","ca","cg","ch","ci","cm","cn","co","cy","cz","de","dk","ee","eg","es","fi","fr","gb","gg","gh","gr","hr","hu","id","ie","in","is","it","ja","ke","kr","kw","la","li","lk","lt","lu","lv","ma","mg","mx","my","ng","nl","no","nz","om","ph","pk","pl","pt","qa","ro","ru","sa","se","sg","si","sk","sn","th","tr","tw","ua","us","za"]},"geometry":["point","area"],"matchScore":2,"terms":["allianz","allianz versicherung"],"fields":["name","brand","{office/insurance}"],"preserveTags":["^name"],"tags":{"brand:wikidata":"Q487292","office":"insurance"},"addTags":{"brand":"Allianz","brand:wikidata":"Q487292","name":"Allianz","office":"insurance"}},"office/insurance/grawe-49851b":{"name":"Grawe","locationSet":{"include":["at","ba","bg","cy","hr","hu","md","me","mk","ro","rs","si","ua"]},"geometry":["point","area"],"matchScore":2,"terms":["grawe","grazer wechselseitige","grazer wechselseitige versicherung ag"],"fields":["name","brand","{office/insurance}"],"preserveTags":["^name"],"tags":{"brand:wikidata":"Q877006","office":"insurance"},"addTags":{"brand":"Grawe","brand:wikidata":"Q877006","name":"Grawe","office":"insurance"}},"office/gebruderweiss-3fef46":{"name":"Gebrüder Weiss","locationSet":{"include":["kz","kg","tj","tm","uz","cn","hk","mo","kp","jp","mn","kr","bn","kh","id","la","my","mm","ph","sg","th","tl","vn","af","bd","bt","in","ir","mv","np","pk","lk","am","az","bh","cy","ge","iq","il","jo","kw","lb","om","qa","sa","ps","sy","tr","ae","ye","by","bg","cz","hu","pl","md","ro","ru","sk","ua","ax","gg","je","cq","dk","ee","fo","fi","is","ie","im","lv","lt","no","sj","se","gb","al","ad","ba","hr","gi","gr","va","it","mt","me","mk","pt","sm","rs","si","es","xk","at","be","fr","de","li","lu","mc","nl","ch","au","ca","nz","us"]},"geometry":["point","vertex","area"],"matchScore":2,"terms":["gebrüder weiss"],"fields":["name","brand","{office}"],"preserveTags":["^name"],"tags":{"brand:wikidata":"Q1497233","office":"logistics"},"addTags":{"brand":"Gebrüder Weiss","brand:wikidata":"Q1497233","name":"Gebrüder Weiss","office":"logistics"}},"shop/baby_goods/suavinex-323d81":{"name":"Suavinex","locationSet":{"include":["ae","al","ao","au","be","ch","cl","cn","co","cr","cy","cz","do","dz","ec","es","fr","ge","gq","gr","il","iq","ir","it","kr","lb","lu","me","mt","mx","my","nl","no","pa","pl","pt","ro","rs","ru","sa","sg","sk","tr","uy","vn"]},"geometry":["point","area"],"matchScore":2,"terms":["suavinex"],"tags":{"brand:wikidata":"Q122258837","shop":"baby_goods"},"addTags":{"brand":"Suavinex","brand:wikidata":"Q122258837","name":"Suavinex","shop":"baby_goods"}},"shop/bakery/paul-652955":{"name":"Paul","locationSet":{"include":["ae","az","be","bh","by","ci","cy","cz","eg","es","fr","ga","gb","ge","gr","id","in","jo","jp","kw","kz","lb","lu","ma","mu","my","om","pa","ph","pl","pt","qa","ro","ru","sa","sg","th","tn","tw","ua","us","uz","vn","za"]},"geometry":["point","area"],"matchScore":2,"terms":["paul"],"tags":{"brand:wikidata":"Q3370417","shop":"bakery"},"addTags":{"brand":"Paul","brand:wikidata":"Q3370417","name":"Paul","shop":"bakery"}},"shop/bakery/terkenlis-e9ca96":{"name":"Τερκενλής","locationSet":{"include":["cy","gr","mk"]},"geometry":["point","area"],"matchScore":2,"terms":["terkenlis","τερκενλής"],"tags":{"brand:wikidata":"Q16956985","shop":"bakery"},"addTags":{"brand":"Τερκενλής","brand:wikidata":"Q16956985","int_name":"Terkenlis","name":"Τερκενλής","name:el":"Τερκενλής","name:en":"Terkenlis","shop":"bakery"}},"shop/bookmaker/942bba-caf969":{"name":"ΟΠΑΠ","locationSet":{"include":["cy","gr"]},"geometry":["point","area"],"matchScore":2,"terms":["οπαπ"],"tags":{"brand:wikidata":"Q2007823","shop":"bookmaker"},"addTags":{"brand":"ΟΠΑΠ","brand:wikidata":"Q2007823","name":"ΟΠΑΠ","shop":"bookmaker"}},"shop/clothes/bsbfashion-3443a7":{"name":"BSB Fashion","locationSet":{"include":["al","am","bg","cy","eg","gr","ro","xk"]},"geometry":["point","area"],"matchScore":2,"terms":["bsb","bsb fashion"],"tags":{"brand:wikidata":"Q12721399","shop":"clothes"},"addTags":{"brand":"BSB Fashion","brand:wikidata":"Q12721399","clothes":"women","name":"BSB Fashion","shop":"clothes"}},"shop/clothes/camelactive-1cce02":{"name":"Camel Active","locationSet":{"include":["by","bg","cz","hu","pl","md","ro","ru","sk","ua","ax","gg","je","cq","dk","ee","fo","fi","is","ie","im","lv","lt","no","sj","se","gb","al","ad","ba","hr","gi","gr","va","it","mt","me","mk","pt","sm","rs","si","es","xk","at","be","fr","de","li","lu","mc","nl","ch","cy"]},"geometry":["point","area"],"matchScore":2,"terms":["camel active"],"tags":{"brand:wikidata":"Q20057140","shop":"clothes"},"addTags":{"brand":"Camel Active","brand:wikidata":"Q20057140","name":"Camel Active","shop":"clothes"}},"shop/clothes/celestino-7f5f10":{"name":"Celestino","locationSet":{"include":["cy","gr"]},"geometry":["point","area"],"matchScore":2,"terms":["celestino"],"tags":{"brand:wikidata":"Q135155982","shop":"clothes"},"addTags":{"brand":"Celestino","brand:wikidata":"Q135155982","clothes":"women","name":"Celestino","shop":"clothes"}},"shop/clothes/peacocks-c6ef05":{"name":"Peacocks","locationSet":{"include":["cy","gb"]},"geometry":["point","area"],"matchScore":2,"terms":["peacocks"],"tags":{"brand:wikidata":"Q7157762","shop":"clothes"},"addTags":{"brand":"Peacocks","brand:wikidata":"Q7157762","name":"Peacocks","shop":"clothes"}},"shop/convenience/enishop-a98884":{"name":"Eni Shop","locationSet":{"include":["at","ch","cy","de","es","fx","it"]},"geometry":["point","area"],"matchScore":2,"terms":["eni shop"],"tags":{"brand:wikidata":"Q565594","shop":"convenience"},"addTags":{"brand":"Eni Shop","brand:wikidata":"Q565594","name":"Eni Shop","shop":"convenience"}},"shop/convenience/minimix-ba18ab":{"name":"Mini Mix","locationSet":{"include":["at","be","cy","cz","de","es","fx","gb","gr","it","me","nl","pt"]},"geometry":["point","area"],"matchScore":2,"terms":["mini mix","mini mix markt"],"tags":{"brand:wikidata":"Q327854","shop":"convenience"},"addTags":{"brand":"Mini Mix","brand:wikidata":"Q327854","name":"Mini Mix","shop":"convenience"}},"shop/department_store/marksandspencer-4dabe9":{"name":"Marks & Spencer","locationSet":{"include":["cy","gb","gr","ie","in","ru"]},"geometry":["point","area"],"matchScore":2,"terms":["m&s","marks & spencer","маркс и спенсер"],"tags":{"brand:wikidata":"Q714491","shop":"department_store"},"addTags":{"brand":"Marks & Spencer","brand:short":"M&S","brand:wikidata":"Q714491","name":"Marks & Spencer","shop":"department_store"}},"shop/electronics/kotsovolos-f48fcd":{"name":"Kotsovolos","locationSet":{"include":["cy","gr"]},"geometry":["point","area"],"matchScore":2,"terms":["kotsovolos"],"tags":{"brand:wikidata":"Q17050427","shop":"electronics"},"addTags":{"brand":"Kotsovolos","brand:wikidata":"Q17050427","name":"Kotsovolos","shop":"electronics"}},"shop/electronics/public-f48fcd":{"name":"Public","locationSet":{"include":["cy","gr"]},"geometry":["point","area"],"matchScore":2,"terms":["public"],"tags":{"brand:wikidata":"Q12871976","shop":"electronics"},"addTags":{"brand":"Public","brand:wikidata":"Q12871976","name":"Public","shop":"electronics"}},"shop/furniture/poltronesofa-488b55":{"name":"Poltronesofà","locationSet":{"include":["be","ch","cy","fr","it","mt"]},"geometry":["point","area"],"matchScore":2,"terms":["poltronesofà"],"tags":{"brand:wikidata":"Q80833069","shop":"furniture"},"addTags":{"brand":"Poltronesofà","brand:wikidata":"Q80833069","name":"Poltronesofà","shop":"furniture"}},"shop/mobile_phone/germanos-602a3b":{"name":"Γερμανός","locationSet":{"include":["cy","gr"]},"geometry":["point","area"],"matchScore":2,"terms":["germanos","γερμανός"],"tags":{"brand:wikidata":"Q9267542","shop":"mobile_phone"},"addTags":{"brand":"Γερμανός","brand:wikidata":"Q9267542","name":"Γερμανός","name:el":"Γερμανός","name:en":"Germanos","shop":"mobile_phone"}},"shop/sports/hoka-4a6d5f":{"name":"Hoka","locationSet":{"include":["ad","ae","al","at","au","ba","be","bg","br","ca","ch","cl","cn","cy","cz","de","dk","dz","ee","es","fi","fr","gb","gr","hr","hu","id","ie","il","is","it","je","jp","kz","lt","lu","lv","ma","mc","md","me","mk","mt","nl","no","nz","ph","pl","pt","re","ro","rs","ru","se","si","sk","tn","tr","ua","us","za"]},"geometry":["point","area"],"matchScore":2,"terms":["hoka"],"tags":{"brand:wikidata":"Q16908664","shop":"sports"},"addTags":{"brand":"Hoka","brand:wikidata":"Q16908664","name":"Hoka","shop":"sports"}},"shop/supermarket/mas-42dc97":{"name":"Mas","locationSet":{"include":["cy"]},"geometry":["point","area"],"matchScore":2,"terms":["mas"],"tags":{"brand:wikidata":"Q122957534","shop":"supermarket"},"addTags":{"brand":"Mas","brand:wikidata":"Q122957534","name":"Mas","shop":"supermarket"}},"shop/supermarket/metro-42dc97":{"name":"Metro (Cyprus)","locationSet":{"include":["cy"]},"geometry":["point","area"],"matchScore":2,"terms":["metro"],"tags":{"brand:wikidata":"Q6715491","shop":"supermarket"},"addTags":{"brand":"Metro","brand:wikidata":"Q6715491","name":"Metro","shop":"supermarket"}},"shop/supermarket/mixmarkt-4aeb54":{"name":"Mix Markt","locationSet":{"include":["at","be","cy","cz","de","es","fr","gb","gr","it","me","mt","nl","pl","pt","rs","si","sk"]},"geometry":["point","area"],"matchScore":2,"terms":["mix markt"],"tags":{"brand:wikidata":"Q327854","shop":"supermarket"},"addTags":{"brand":"Mix Markt","brand:wikidata":"Q327854","name":"Mix Markt","shop":"supermarket"}},"shop/supermarket/sklavenitis-40667a":{"name":"Σκλαβενίτης","locationSet":{"include":["cy","gr"]},"geometry":["point","area"],"matchScore":2,"terms":["sklavenitis","σκλαβενίτης"],"tags":{"brand:wikidata":"Q7536037","shop":"supermarket"},"addTags":{"brand":"Σκλαβενίτης","brand:el":"Σκλαβενίτης","brand:en":"Sklavenitis","brand:wikidata":"Q7536037","name":"Σκλαβενίτης","name:el":"Σκλαβενίτης","name:en":"Sklavenitis","shop":"supermarket"}},"shop/telecommunication/cyta-e85adc":{"name":"CYTA","locationSet":{"include":["cy","gr"]},"geometry":["point","area"],"matchScore":2,"terms":["cyta"],"tags":{"brand:wikidata":"Q3565273","shop":"telecommunication"},"addTags":{"brand":"CYTA","brand:wikidata":"Q3565273","name":"CYTA","shop":"telecommunication"}},"shop/telecommunication/epic-099b82":{"name":"Epic","locationSet":{"include":["cy"]},"geometry":["point","area"],"matchScore":2,"terms":["epic"],"tags":{"brand:wikidata":"Q106823386","shop":"telecommunication"},"addTags":{"brand":"Epic","brand:wikidata":"Q106823386","name":"Epic","shop":"telecommunication"}},"shop/ticket/ticketmaster-9f0b74":{"name":"Ticketmaster","locationSet":{"include":["ae","at","au","be","ca","ch","cy","cz","de","dk","es","fi","fr","gb","gr","ie","it","mx","nl","no","nz","pl","se","sg","tr","tw","za"]},"geometry":["point","area"],"matchScore":2,"terms":["live nation","ticketmaster"],"fields":["name","brand","{shop/ticket}"],"preserveTags":["^name"],"tags":{"brand:wikidata":"Q2609162","shop":"ticket"},"addTags":{"brand":"Ticketmaster","brand:wikidata":"Q2609162","name":"Ticketmaster","shop":"ticket"}},"shop/toys/jumbo-f2bb45":{"name":"Jumbo","locationSet":{"include":["al","ba","cy","gr","md","me","mk","ro","rs","xk"]},"geometry":["point","area"],"matchScore":2,"terms":["jumbo"],"tags":{"brand:wikidata":"Q3562323","shop":"toys"},"addTags":{"brand":"Jumbo","brand:wikidata":"Q3562323","name":"Jumbo","shop":"toys"}},"shop/skuba-c1f68a":{"name":"Skuba","locationSet":{"include":["by","bg","cz","hu","pl","md","ro","ru","sk","ua","ax","gg","je","cq","dk","ee","fo","fi","is","ie","im","lv","lt","no","sj","se","gb","al","ad","ba","hr","gi","gr","va","it","mt","me","mk","pt","sm","rs","si","es","xk","at","be","fr","de","li","lu","mc","nl","ch","cy"]},"geometry":["point","area"],"matchScore":2,"terms":["skuba"],"fields":["name","brand","{shop}"],"preserveTags":["^name"],"tags":{"brand:wikidata":"Q15847758","shop":"truck"},"addTags":{"brand":"Skuba","brand:wikidata":"Q15847758","name":"Skuba","shop":"truck"}},"shop/variety_store/flyingtigercopenhagen-55ef00":{"name":"Flying Tiger Copenhagen","locationSet":{"include":["at","be","ch","cy","cz","de","dk","ee","es","fi","fr","gb","gr","hu","ie","il","is","it","jp","kr","lt","lv","mt","nl","no","pl","pt","se","sk"]},"geometry":["point","area"],"matchScore":2,"terms":["flying tiger","flying tiger copenhagen","tgr","tiger"],"tags":{"brand:wikidata":"Q2786319","shop":"variety_store"},"addTags":{"brand":"Flying Tiger Copenhagen","brand:wikidata":"Q2786319","name":"Flying Tiger Copenhagen","shop":"variety_store","short_name":"Flying Tiger"}},"amenity/charging_station/electricityauthorityofcyprus-fb82c8":{"name":"Electricity Authority of Cyprus","locationSet":{"include":["cy"]},"geometry":["point","vertex","area"],"matchScore":2,"terms":["eac","electricity authority of cyprus"],"fields":["name","operator","{amenity/charging_station}"],"preserveTags":["^name"],"tags":{"amenity":"charging_station","operator:wikidata":"Q5357793"},"addTags":{"amenity":"charging_station","operator":"Electricity Authority of Cyprus","operator:short":"EAC","operator:wikidata":"Q5357793"}},"amenity/post_box/cypruspost-4539a3":{"name":"Cyprus Post","locationSet":{"include":["cy"]},"geometry":["point","vertex"],"matchScore":2,"terms":["cyprus post"],"tags":{"amenity":"post_box","operator:wikidata":"Q5200484"},"addTags":{"amenity":"post_box","operator":"Cyprus Post","operator:wikidata":"Q5200484"}},"amenity/post_office/cypruspost-28cbc0":{"name":"Cyprus Post","locationSet":{"include":["cy"]},"geometry":["point","area"],"matchScore":2,"terms":["cyprus post"],"fields":["name","operator","{amenity/post_office}"],"preserveTags":["^name"],"tags":{"amenity":"post_office","operator:wikidata":"Q5200484"},"addTags":{"amenity":"post_office","operator":"Cyprus Post","operator:wikidata":"Q5200484"}},"man_made/charge_point/electricityauthorityofcyprus-00afc2":{"name":"Electricity Authority of Cyprus","locationSet":{"include":["cy"]},"geometry":["point"],"matchScore":2,"terms":["eac","electricity authority of cyprus"],"fields":["name","operator","{man_made/charge_point}"],"preserveTags":["^name"],"tags":{"man_made":"charge_point","operator:wikidata":"Q5357793"},"addTags":{"man_made":"charge_point","operator":"Electricity Authority of Cyprus","operator:short":"EAC","operator:wikidata":"Q5357793"}}}