{"amenity/school/departmentofhighereducation-9eb550":{"name":"Department of Higher Education (Odisha)","locationSet":{"include":["in-od"]},"geometry":["area","point"],"matchScore":2,"terms":["department of higher education"],"tags":{"amenity":"school","operator:wikidata":"Q21190504"},"addTags":{"amenity":"school","operator":"Department of Higher Education","operator:type":"government","operator:wikidata":"Q21190504"}},"amenity/school/departmentofschoolandmasseducation-9eb550":{"name":"Department of School and Mass Education (Odisha)","locationSet":{"include":["in-od"]},"geometry":["area","point"],"matchScore":2,"terms":["department of school and mass education"],"tags":{"amenity":"school","operator:wikidata":"Q134153615"},"addTags":{"amenity":"school","operator":"Department of School and Mass Education","operator:type":"government","operator:wikidata":"Q134153615"}},"leisure/nature_reserve/cuttackdevelopmentauthority-bbd8ee":{"name":"Cuttack Development Authority","locationSet":{"include":["in-od"]},"geometry":["area","point"],"matchScore":2,"terms":["cda","cuttack development authority"],"tags":{"leisure":"nature_reserve","operator:wikidata":"Q5196919"},"addTags":{"leisure":"nature_reserve","operator":"Cuttack Development Authority","operator:short":"CDA","operator:type":"public","operator:wikidata":"Q5196919"}},"leisure/park/cuttackdevelopmentauthority-301483":{"name":"Cuttack Development Authority","locationSet":{"include":["in-od"]},"geometry":["area","point"],"matchScore":2,"terms":["cda","cuttack development authority"],"tags":{"leisure":"park","operator:wikidata":"Q5196919"},"addTags":{"leisure":"park","operator":"Cuttack Development Authority","operator:short":"CDA","operator:type":"public","operator:wikidata":"Q5196919"}},"public_transport/platform/bus_point/amabus-de6caf":{"name":"Ama Bus","locationSet":{"include":["in-od"]},"geometry":["point","vertex"],"matchScore":2,"terms":["ama bus","mo bus"],"reference":{"key":"public_transport","value":"platform"},"tags":{"bus":"yes","network:wikidata":"Q60768095","public_transport":"platform"},"addTags":{"bus":"yes","highway":"bus_stop","network":"Ama Bus","network:wikidata":"Q60768095","public_transport":"platform"}},"type/route/bus/amabus-8b999e":{"name":"Ama Bus","locationSet":{"include":["in-od"]},"geometry":["relation"],"matchScore":2,"terms":["ama bus","mo bus"],"reference":{"key":"route","value":"bus"},"tags":{"network:wikidata":"Q60768095","route":"bus","type":"route"},"addTags":{"network":"Ama Bus","network:wikidata":"Q60768095","route":"bus","type":"route"}}}