{"amenity/police/jammuandkashmirpolice-29c3e5":{"name":"Jammu and Kashmir Police","locationSet":{"include":["in-jk"]},"geometry":["point","area"],"matchScore":2,"terms":["jammu and kashmir police"],"tags":{"amenity":"police","operator:wikidata":"Q6148022"},"addTags":{"amenity":"police","operator":"Jammu and Kashmir Police","operator:wikidata":"Q6148022"}},"amenity/school/departmentofschooleducation-8e8098":{"name":"Department of School Education (Jammu and Kashmir)","locationSet":{"include":["in-jk"]},"geometry":["area","point"],"matchScore":2,"terms":["department of school education"],"tags":{"amenity":"school","operator:wikidata":"Q134124591"},"addTags":{"amenity":"school","operator":"Department of School Education","operator:type":"government","operator:wikidata":"Q134124591"}},"amenity/school/jammuandkashmirstateboardofschooleducation-8e8098":{"name":"Jammu and Kashmir State Board of School Education","locationSet":{"include":["in-jk"]},"geometry":["area","point"],"matchScore":2,"terms":["jammu and kashmir state board of school education"],"tags":{"amenity":"school","operator:wikidata":"Q6148026"},"addTags":{"amenity":"school","operator":"Jammu and Kashmir State Board of School Education","operator:type":"government","operator:wikidata":"Q6148026"}}}