{"advertising/totem/oilibya-11febf":{"name":"Oilibya","locationSet":{"include":["dz","eg","ly","ma","sd","tn","eh","io","bi","km","dj","er","et","tf","ke","mg","mw","mu","yt","mz","re","rw","sc","so","ss","ug","tz","zm","zw","ao","cm","cf","td","cg","cd","gq","ga","st","bw","sz","ls","na","za","bj","bf","cv","ci","gm","gh","gn","gw","lr","ml","mr","ne","ng","sn","sl","tg","sh","bd"]},"geometry":["point","line"],"matchScore":2,"terms":["oilibia","oilibiya","oilibya","oillibia","oilliby","oillibya","oillybia","oilybia","olibya","olybia"],"tags":{"advertising":"totem","brand:wikidata":"Q7081491"},"addTags":{"advertising":"totem","brand":"Oilibya","brand:wikidata":"Q7081491"}},"amenity/atm/stanbicbank-71787f":{"name":"Stanbic Bank","locationSet":{"include":["dz","eg","ly","ma","sd","tn","eh","io","bi","km","dj","er","et","tf","ke","mg","mw","mu","yt","mz","re","rw","sc","so","ss","ug","tz","zm","zw","ao","cm","cf","td","cg","cd","gq","ga","st","bw","sz","ls","na","za","bj","bf","cv","ci","gm","gh","gn","gw","lr","ml","mr","ne","ng","sn","sl","tg","sh"],"exclude":["gh"]},"geometry":["point","vertex"],"matchScore":2,"terms":["stanbic bank"],"fields":["name","brand","{amenity/atm}"],"preserveTags":["^name"],"tags":{"amenity":"atm","brand:wikidata":"Q7597999"},"addTags":{"amenity":"atm","brand":"Stanbic Bank","brand:wikidata":"Q7597999","operator":"Stanbic Bank","operator:wikidata":"Q7597999"}},"amenity/bank/stanbicbank-b79c2d":{"name":"Stanbic Bank","locationSet":{"include":["dz","eg","ly","ma","sd","tn","eh","io","bi","km","dj","er","et","tf","ke","mg","mw","mu","yt","mz","re","rw","sc","so","ss","ug","tz","zm","zw","ao","cm","cf","td","cg","cd","gq","ga","st","bw","sz","ls","na","za","bj","bf","cv","ci","gm","gh","gn","gw","lr","ml","mr","ne","ng","sn","sl","tg","sh"],"exclude":["gh"]},"geometry":["point","area"],"matchScore":2,"terms":["stanbic bank"],"tags":{"amenity":"bank","brand:wikidata":"Q7597999"},"addTags":{"amenity":"bank","brand":"Stanbic Bank","brand:wikidata":"Q7597999","name":"Stanbic Bank"}},"amenity/fuel/oilibya-5288c9":{"name":"Oilibya","locationSet":{"include":["dz","eg","ly","ma","sd","tn","eh","io","bi","km","dj","er","et","tf","ke","mg","mw","mu","yt","mz","re","rw","sc","so","ss","ug","tz","zm","zw","ao","cm","cf","td","cg","cd","gq","ga","st","bw","sz","ls","na","za","bj","bf","cv","ci","gm","gh","gn","gw","lr","ml","mr","ne","ng","sn","sl","tg","sh","bd"]},"geometry":["point","area"],"matchScore":2,"terms":["oilibia","oilibiya","oilibya","oillibia","oilliby","oillibya","oillybia","oilybia","olibya","olybia","أويليبيا"],"fields":["name","brand","{amenity/fuel}"],"preserveTags":["^name"],"tags":{"amenity":"fuel","brand:wikidata":"Q7081491"},"addTags":{"amenity":"fuel","brand":"Oilibya","brand:wikidata":"Q7081491","name":"Oilibya","name:ar":"أويليبيا","name:en":"Oilibya"}},"shop/mobile_phone/airtel-62d34e":{"name":"Airtel","locationSet":{"include":["io","bi","km","dj","er","et","tf","ke","mg","mw","mu","yt","mz","re","rw","sc","so","ss","ug","tz","zm","zw","ao","cm","cf","td","cg","cd","gq","ga","st","bw","sz","ls","na","za","bj","bf","cv","ci","gm","gh","gn","gw","lr","ml","mr","ne","ng","sn","sl","tg","sh","in"]},"geometry":["point","area"],"matchScore":2,"terms":["airtel"],"tags":{"brand:wikidata":"Q854867","shop":"mobile_phone"},"addTags":{"brand":"Airtel","brand:wikidata":"Q854867","name":"Airtel","shop":"mobile_phone"}},"shop/mobile_phone/orange-3f18db":{"name":"Orange","locationSet":{"include":["dz","eg","ly","ma","sd","tn","eh","io","bi","km","dj","er","et","tf","ke","mg","mw","mu","yt","mz","re","rw","sc","so","ss","ug","tz","zm","zw","ao","cm","cf","td","cg","cd","gq","ga","st","bw","sz","ls","na","za","bj","bf","cv","ci","gm","gh","gn","gw","lr","ml","mr","ne","ng","sn","sl","tg","sh","by","bg","cz","hu","pl","md","ro","ru","sk","ua","ax","gg","je","cq","dk","ee","fo","fi","is","ie","im","lv","lt","no","sj","se","gb","al","ad","ba","hr","gi","gr","va","it","mt","me","mk","pt","sm","rs","si","es","xk","at","be","fr","de","li","lu","mc","nl","ch","gf","gp","jo","mq"],"exclude":["ru"]},"geometry":["point","area"],"matchScore":2,"terms":["agence orange","orange","orange egypt"],"tags":{"brand:wikidata":"Q1431486","shop":"mobile_phone"},"addTags":{"brand":"Orange","brand:wikidata":"Q1431486","name":"Orange","shop":"mobile_phone"}},"shop/supermarket/game-910aca":{"name":"Game","locationSet":{"include":["io","bi","km","dj","er","et","tf","ke","mg","mw","mu","yt","mz","re","rw","sc","so","ss","ug","tz","zm","zw","ao","cm","cf","td","cg","cd","gq","ga","st","bw","sz","ls","na","za","bj","bf","cv","ci","gm","gh","gn","gw","lr","ml","mr","ne","ng","sn","sl","tg","sh"]},"geometry":["point","area"],"matchScore":2,"terms":["game"],"tags":{"brand:wikidata":"Q126811048","shop":"supermarket"},"addTags":{"brand":"Game","brand:wikidata":"Q126811048","name":"Game","shop":"supermarket"}},"tourism/hotel/anantara-e8534c":{"name":"Anantara","locationSet":{"include":["ae","br","cn","es","fr","hu","id","ie","it","kh","mu","mv","my","mz","nl","om","pt","qa","sc","th","tn","vn","zm"]},"geometry":["point","area"],"matchScore":2,"terms":["anantara"],"fields":["name","brand","{tourism/hotel}"],"preserveTags":["^name"],"tags":{"brand:wikidata":"Q112671781","tourism":"hotel"},"addTags":{"brand":"Anantara","brand:wikidata":"Q112671781","name":"Anantara","tourism":"hotel"}},"tourism/hotel/avanihotelsandresorts-e9c192":{"name":"Avani","locationSet":{"include":["ae","au","bw","id","kh","kr","la","lk","ls","my","mz","na","nz","om","pt","sc","th","vn","zm"]},"geometry":["point","area"],"matchScore":2,"terms":["avani hotels & resorts"],"fields":["name","brand","{tourism/hotel}"],"preserveTags":["^name"],"tags":{"brand:wikidata":"Q48989823","tourism":"hotel"},"addTags":{"brand":"Avani Hotels & Resorts","brand:wikidata":"Q48989823","name":"Avani Hotels & Resorts","tourism":"hotel"}},"tourism/hotel/lxr-c9a464":{"name":"LXR Hotels & Resorts","locationSet":{"include":["ae","ai","gb","jp","sc","tr","us"]},"geometry":["point","area"],"matchScore":2,"terms":["lxr"],"fields":["name","brand","{tourism/hotel}"],"preserveTags":["^name"],"tags":{"brand:wikidata":"Q64605184","tourism":"hotel"},"addTags":{"brand":"LXR","brand:wikidata":"Q64605184","name":"LXR","tourism":"hotel"}},"tourism/hotel/raffles-771760":{"name":"Raffles","locationSet":{"include":["ae","bh","cn","fr","gb","id","in","kh","mv","ph","pl","qa","ru","sa","sc","sg","us"]},"geometry":["point","area"],"matchScore":2,"terms":["raffles"],"fields":["name","brand","{tourism/hotel}"],"preserveTags":["^name"],"tags":{"brand:wikidata":"Q4306661","tourism":"hotel"},"addTags":{"brand":"Raffles","brand:wikidata":"Q4306661","name":"Raffles","tourism":"hotel"}}}