{"amenity/atm/intesasanpaolo-b483ef":{"name":"Intesa Sanpaolo","locationSet":{"include":["kz","kg","tj","tm","uz","cn","hk","mo","kp","jp","mn","kr","bn","kh","id","la","my","mm","ph","sg","th","tl","vn","af","bd","bt","in","ir","mv","np","pk","lk","am","az","bh","cy","ge","iq","il","jo","kw","lb","om","qa","sa","ps","sy","tr","ae","ye","by","bg","cz","hu","pl","md","ro","ru","sk","ua","ax","gg","je","cq","dk","ee","fo","fi","is","ie","im","lv","lt","no","sj","se","gb","al","ad","ba","hr","gi","gr","va","it","mt","me","mk","pt","sm","rs","si","es","xk","at","be","fr","de","li","lu","mc","nl","ch","au-nsw","br","eg","us-dc"],"exclude":["rs","ua"]},"geometry":["point","vertex"],"matchScore":2,"terms":["banca intesa","banca popolare di vicenza","banco di napoli","carisbo","cassa di risparmio del veneto","cassa di risparmio di firenze","intesa sanpaolo","intesa sanpaolo s.p.a.","ubi banca","veneto banca"],"tags":{"amenity":"atm","brand:wikidata":"Q1343118"},"addTags":{"amenity":"atm","brand":"Intesa Sanpaolo","brand:wikidata":"Q1343118","operator":"Intesa Sanpaolo","operator:wikidata":"Q1343118"}},"amenity/atm/statebank-ebb8d3":{"name":"Төрийн банк","locationSet":{"include":["mn"]},"geometry":["point","vertex"],"matchScore":2,"terms":["state bank","төрийн банк"],"tags":{"amenity":"atm","brand:wikidata":"Q7766381"},"addTags":{"amenity":"atm","brand":"Төрийн банк","brand:en":"State Bank","brand:mn":"Төрийн банк","brand:wikidata":"Q7766381","operator":"Төрийн банк","operator:wikidata":"Q7766381"}},"amenity/atm/khanbank-ebb8d3":{"name":"Хаан банк","locationSet":{"include":["mn"]},"geometry":["point","vertex"],"matchScore":2,"terms":["khan bank","хаан банк"],"tags":{"amenity":"atm","brand:wikidata":"Q25632240"},"addTags":{"amenity":"atm","brand":"Хаан банк","brand:en":"Khan Bank","brand:mn":"Хаан банк","brand:wikidata":"Q25632240","operator":"Хаан банк","operator:wikidata":"Q25632240"}},"amenity/bank/intesasanpaolo-28f235":{"name":"Intesa Sanpaolo","locationSet":{"include":["kz","kg","tj","tm","uz","cn","hk","mo","kp","jp","mn","kr","bn","kh","id","la","my","mm","ph","sg","th","tl","vn","af","bd","bt","in","ir","mv","np","pk","lk","am","az","bh","cy","ge","iq","il","jo","kw","lb","om","qa","sa","ps","sy","tr","ae","ye","by","bg","cz","hu","pl","md","ro","ru","sk","ua","ax","gg","je","cq","dk","ee","fo","fi","is","ie","im","lv","lt","no","sj","se","gb","al","ad","ba","hr","gi","gr","va","it","mt","me","mk","pt","sm","rs","si","es","xk","at","be","fr","de","li","lu","mc","nl","ch","au-nsw","br","eg","us-dc"],"exclude":["rs","ua"]},"geometry":["point","area"],"matchScore":2,"terms":["banca intesa","banca popolare di vicenza","banco di napoli","carisbo","cassa di risparmio del veneto","cassa di risparmio di firenze","intesa sanpaolo","intesa sanpaolo s.p.a.","ubi banca","veneto banca"],"tags":{"amenity":"bank","brand:wikidata":"Q1343118"},"addTags":{"amenity":"bank","brand":"Intesa Sanpaolo","brand:wikidata":"Q1343118","name":"Intesa Sanpaolo"}},"amenity/bank/statebank-031586":{"name":"Төрийн банк","locationSet":{"include":["mn"]},"geometry":["point","area"],"matchScore":2,"terms":["state bank","төрийн банк"],"tags":{"amenity":"bank","brand:wikidata":"Q7766381"},"addTags":{"amenity":"bank","brand":"Төрийн банк","brand:en":"State Bank","brand:mn":"Төрийн банк","brand:wikidata":"Q7766381","name":"Төрийн банк","name:en":"State Bank","name:mn":"Төрийн банк"}},"amenity/bank/khanbank-031586":{"name":"Хаан банк","locationSet":{"include":["mn"]},"geometry":["point","area"],"matchScore":2,"terms":["khan bank","хаан банк"],"tags":{"amenity":"bank","brand:wikidata":"Q25632240"},"addTags":{"amenity":"bank","brand":"Хаан банк","brand:en":"Khan Bank","brand:mn":"Хаан банк","brand:wikidata":"Q25632240","name":"Хаан банк","name:en":"Khan Bank","name:mn":"Хаан банк"}},"amenity/cafe/coffee_shop/tomntoms-16c022":{"name":"Tom N Toms","locationSet":{"include":["au","ch","hk","kr","mn","mo","my","ph","sg","th","us"]},"geometry":["point","area"],"matchScore":2,"terms":["tom n toms","탐앤탐스"],"reference":{"key":"cuisine","value":"coffee_shop"},"tags":{"amenity":"cafe","brand:wikidata":"Q18142418","cuisine":"coffee_shop;pretzel;smoothie;tea;bread"},"addTags":{"amenity":"cafe","brand":"Tom N Toms","brand:en":"Tom N Toms","brand:ko":"탐앤탐스","brand:wikidata":"Q18142418","cuisine":"coffee_shop;pretzel;smoothie;tea;bread","name":"Tom N Toms","name:en":"Tom N Toms","name:ko":"탐앤탐스","takeaway":"yes"}},"amenity/restaurant/bdsmongoliangrill-bcd08b":{"name":"bd's Mongolian Grill","locationSet":{"include":["mn","us"]},"geometry":["point","area"],"matchScore":2,"terms":["bd mongolian grill","bd's mongolian grill"],"tags":{"amenity":"restaurant","brand:wikidata":"Q69890408"},"addTags":{"amenity":"restaurant","brand":"bd's Mongolian Grill","brand:wikidata":"Q69890408","cuisine":"mongolian_grill","name":"bd's Mongolian Grill"}},"amenity/restaurant/chinese/littlesheep-87010c":{"name":"LITTLE SHEEP","locationSet":{"include":["au","id","jp","mn","nz","sg"]},"geometry":["point","area"],"matchScore":2,"terms":["little sheep","xiao fei yang","小肥羊"],"reference":{"key":"cuisine","value":"chinese"},"tags":{"amenity":"restaurant","brand:wikidata":"Q5976467","cuisine":"chinese;hot_pot"},"addTags":{"amenity":"restaurant","brand":"LITTLE SHEEP","brand:en":"LITTLE SHEEP","brand:wikidata":"Q5976467","brand:zh":"小肥羊","cuisine":"chinese;hot_pot","name":"LITTLE SHEEP","name:en":"LITTLE SHEEP","name:zh":"小肥羊"}},"club/scout/royalrangers-c1517b":{"name":"Royal Rangers","locationSet":{"include":["al","ar","at","au","be","bg","bo","br","bs","bz","ch","cl","co","cr","cw","cz","de","dk","do","ec","es","fi","fj","fr","gb","gh","gt","hn","hr","hu","id","is","it","jp","ke","lk","lt","lv","md","mg","mk","mn","mw","mx","my","ng","ni","nl","no","np","nz","pa","pg","ph","pl","py","ro","rs","ru","sb","se","sg","si","sk","sv","tg","tz","ua","uy","ve","vu","za","zm"]},"geometry":["point","area"],"matchScore":2,"terms":["royal rangers"],"fields":["name","brand","{club/scout}"],"preserveTags":["^name"],"tags":{"brand:wikidata":"Q453731","club":"scout"},"addTags":{"brand":"Royal Rangers","brand:wikidata":"Q453731","club":"scout"}},"landuse/industrial/gebruderweiss-dd5b7d":{"name":"Gebrüder Weiss","locationSet":{"include":["kz","kg","tj","tm","uz","cn","hk","mo","kp","jp","mn","kr","bn","kh","id","la","my","mm","ph","sg","th","tl","vn","af","bd","bt","in","ir","mv","np","pk","lk","am","az","bh","cy","ge","iq","il","jo","kw","lb","om","qa","sa","ps","sy","tr","ae","ye","by","bg","cz","hu","pl","md","ro","ru","sk","ua","ax","gg","je","cq","dk","ee","fo","fi","is","ie","im","lv","lt","no","sj","se","gb","al","ad","ba","hr","gi","gr","va","it","mt","me","mk","pt","sm","rs","si","es","xk","at","be","fr","de","li","lu","mc","nl","ch","au","ca","nz","us"]},"geometry":["area"],"matchScore":2,"terms":["gebrüder weiss"],"fields":["name","brand","{landuse/industrial}"],"preserveTags":["^name"],"tags":{"brand:wikidata":"Q1497233","landuse":"industrial"},"addTags":{"brand":"Gebrüder Weiss","brand:wikidata":"Q1497233","industrial":"warehouse","landuse":"industrial","name":"Gebrüder Weiss"}},"office/gebruderweiss-3fef46":{"name":"Gebrüder Weiss","locationSet":{"include":["kz","kg","tj","tm","uz","cn","hk","mo","kp","jp","mn","kr","bn","kh","id","la","my","mm","ph","sg","th","tl","vn","af","bd","bt","in","ir","mv","np","pk","lk","am","az","bh","cy","ge","iq","il","jo","kw","lb","om","qa","sa","ps","sy","tr","ae","ye","by","bg","cz","hu","pl","md","ro","ru","sk","ua","ax","gg","je","cq","dk","ee","fo","fi","is","ie","im","lv","lt","no","sj","se","gb","al","ad","ba","hr","gi","gr","va","it","mt","me","mk","pt","sm","rs","si","es","xk","at","be","fr","de","li","lu","mc","nl","ch","au","ca","nz","us"]},"geometry":["point","vertex","area"],"matchScore":2,"terms":["gebrüder weiss"],"fields":["name","brand","{office}"],"preserveTags":["^name"],"tags":{"brand:wikidata":"Q1497233","office":"logistics"},"addTags":{"brand":"Gebrüder Weiss","brand:wikidata":"Q1497233","name":"Gebrüder Weiss","office":"logistics"}},"shop/shoes/drkong-2bd793":{"name":"Dr. Kong","locationSet":{"include":["az","bn","bu","cn","es","id","mn","my","ph","sg","th","uz"]},"geometry":["point","area"],"matchScore":2,"terms":["dr. kong","江博士"],"tags":{"brand:wikidata":"Q116547631","shop":"shoes"},"addTags":{"brand":"Dr. Kong","brand:wikidata":"Q116547631","name":"Dr. Kong","name:en":"Dr. Kong","shop":"shoes"}},"shop/variety_store/fixprice-b3b517":{"name":"Fix Price","locationSet":{"include":["ae","am","by","kg","kz","lv","mn","ru"]},"geometry":["point","area"],"matchScore":2,"terms":["fiks prajs","fix price","фикс прайс","фікс прайс"],"tags":{"brand:wikidata":"Q4038791","shop":"variety_store"},"addTags":{"brand":"Fix Price","brand:wikidata":"Q4038791","name":"Fix Price","name:be":"Фікс Прайс","name:be-Latn":"Fiks Prajs","name:en":"Fix Price","name:ru":"Фикс Прайс","name:uk":"Фікс Прайс","shop":"variety_store"}},"tourism/hotel/toyokoinn-6b9be5":{"name":"Toyoko Inn","locationSet":{"include":["de","fr","kr","mn","ph"]},"geometry":["point","area"],"matchScore":2,"terms":["toyoko inn"],"fields":["name","brand","{tourism/hotel}"],"preserveTags":["^name","^official_name"],"tags":{"brand:wikidata":"Q1320541","tourism":"hotel"},"addTags":{"brand":"Toyoko Inn","brand:wikidata":"Q1320541","name":"Toyoko Inn","tourism":"hotel"}}}