{"advertising/totem/0b910f-dec76e":{"name":"Газпромнефть","locationSet":{"include":["by","kg","kz","ru","tj"]},"geometry":["point","line"],"matchScore":2,"terms":["газпром","газпромнефть"],"tags":{"advertising":"totem","brand:wikidata":"Q1461799"},"addTags":{"advertising":"totem","brand":"Газпромнефть","brand:wikidata":"Q1461799"}},"amenity/atm/halykbank-bfa88b":{"name":"Halyk Bank","locationSet":{"include":["kg","kz","ru","tj","uz"]},"geometry":["point","vertex"],"matchScore":2,"terms":["halyk bank","казкоммерцбанк","народный банк"],"tags":{"amenity":"atm","brand:wikidata":"Q1046186"},"addTags":{"amenity":"atm","brand":"Halyk Bank","brand:wikidata":"Q1046186","old_name":"Народный банк","operator":"Halyk Bank","operator:wikidata":"Q1046186"}},"amenity/atm/intesasanpaolo-b483ef":{"name":"Intesa Sanpaolo","locationSet":{"include":["kz","kg","tj","tm","uz","cn","hk","mo","kp","jp","mn","kr","bn","kh","id","la","my","mm","ph","sg","th","tl","vn","af","bd","bt","in","ir","mv","np","pk","lk","am","az","bh","cy","ge","iq","il","jo","kw","lb","om","qa","sa","ps","sy","tr","ae","ye","by","bg","cz","hu","pl","md","ro","ru","sk","ua","ax","gg","je","cq","dk","ee","fo","fi","is","ie","im","lv","lt","no","sj","se","gb","al","ad","ba","hr","gi","gr","va","it","mt","me","mk","pt","sm","rs","si","es","xk","at","be","fr","de","li","lu","mc","nl","ch","au-nsw","br","eg","us-dc"],"exclude":["rs","ua"]},"geometry":["point","vertex"],"matchScore":2,"terms":["banca intesa","banca popolare di vicenza","banco di napoli","carisbo","cassa di risparmio del veneto","cassa di risparmio di firenze","intesa sanpaolo","intesa sanpaolo s.p.a.","ubi banca","veneto banca"],"tags":{"amenity":"atm","brand:wikidata":"Q1343118"},"addTags":{"amenity":"atm","brand":"Intesa Sanpaolo","brand:wikidata":"Q1343118","operator":"Intesa Sanpaolo","operator:wikidata":"Q1343118"}},"amenity/atm/27e679-03a30b":{"name":"Бакай банк","locationSet":{"include":["kg"]},"geometry":["point","vertex"],"matchScore":2,"terms":["бакай банк"],"tags":{"amenity":"atm","brand:wikidata":"Q4075821"},"addTags":{"amenity":"atm","brand":"Бакай банк","brand:wikidata":"Q4075821","operator":"Бакай банк","operator:wikidata":"Q4075821"}},"amenity/bank/halykbank-c4165a":{"name":"Halyk Bank","locationSet":{"include":["kg","kz","ru","tj","uz"]},"geometry":["point","area"],"matchScore":2,"terms":["«қазақстан халық банкі» ақ","halyk bank","ао «народный банк казахстана»","казкоммерцбанк","народный банк","халык банк","халық банкі"],"tags":{"amenity":"bank","brand:wikidata":"Q1046186"},"addTags":{"amenity":"bank","brand":"Halyk Bank","brand:wikidata":"Q1046186","name":"Halyk Bank","name:en":"Halyk Bank","name:kk":"Халық Банкі","name:ru":"Халык банк","official_name:kk":"«Қазақстан Халық Банкі» АҚ","official_name:ru":"АО «Народный Банк Казахстана»","old_name":"Народный банк"}},"amenity/bank/intesasanpaolo-28f235":{"name":"Intesa Sanpaolo","locationSet":{"include":["kz","kg","tj","tm","uz","cn","hk","mo","kp","jp","mn","kr","bn","kh","id","la","my","mm","ph","sg","th","tl","vn","af","bd","bt","in","ir","mv","np","pk","lk","am","az","bh","cy","ge","iq","il","jo","kw","lb","om","qa","sa","ps","sy","tr","ae","ye","by","bg","cz","hu","pl","md","ro","ru","sk","ua","ax","gg","je","cq","dk","ee","fo","fi","is","ie","im","lv","lt","no","sj","se","gb","al","ad","ba","hr","gi","gr","va","it","mt","me","mk","pt","sm","rs","si","es","xk","at","be","fr","de","li","lu","mc","nl","ch","au-nsw","br","eg","us-dc"],"exclude":["rs","ua"]},"geometry":["point","area"],"matchScore":2,"terms":["banca intesa","banca popolare di vicenza","banco di napoli","carisbo","cassa di risparmio del veneto","cassa di risparmio di firenze","intesa sanpaolo","intesa sanpaolo s.p.a.","ubi banca","veneto banca"],"tags":{"amenity":"bank","brand:wikidata":"Q1343118"},"addTags":{"amenity":"bank","brand":"Intesa Sanpaolo","brand:wikidata":"Q1343118","name":"Intesa Sanpaolo"}},"amenity/bank/27e679-cf89ba":{"name":"Бакай банк","locationSet":{"include":["kg"]},"geometry":["point","area"],"matchScore":2,"terms":["бакай банк"],"tags":{"amenity":"bank","brand:wikidata":"Q4075821"},"addTags":{"amenity":"bank","brand":"Бакай банк","brand:wikidata":"Q4075821","name":"Бакай банк"}},"amenity/bar/coyoteugly-163d6e":{"name":"Coyote Ugly","locationSet":{"include":["de","gb","jp","kg","ru","us"]},"geometry":["point","area"],"matchScore":2,"terms":["coyote ugly saloon"],"fields":["name","brand","{amenity/bar}"],"preserveTags":["^name"],"tags":{"amenity":"bar","brand:wikidata":"Q4131558"},"addTags":{"amenity":"bar","brand":"Coyote Ugly Saloon","brand:wikidata":"Q4131558","name":"Coyote Ugly"}},"amenity/fast_food/0d6f84-ec2b4e":{"name":"ЧебурекМи","locationSet":{"include":["kg","kz","ru"]},"geometry":["point","area"],"matchScore":2,"terms":["чебурекми"],"tags":{"amenity":"fast_food","brand:wikidata":"Q129419587"},"addTags":{"amenity":"fast_food","brand":"ЧебурекМи","brand:wikidata":"Q129419587","cuisine":"coffee_shop;international","name":"ЧебурекМи","takeaway":"yes"}},"amenity/fuel/0b910f-bb6729":{"name":"Газпромнефть","locationSet":{"include":["by","kg","kz","ru","tj"]},"geometry":["point","area"],"matchScore":2,"terms":["газпром","газпромнефть"],"fields":["name","brand","{amenity/fuel}"],"preserveTags":["^name"],"tags":{"amenity":"fuel","brand:wikidata":"Q1461799"},"addTags":{"amenity":"fuel","brand":"Газпромнефть","brand:wikidata":"Q1461799","name":"Газпромнефть"}},"amenity/ice_cream/fd1d7e-3c9560":{"name":"33 пингвина","locationSet":{"include":["by","kg","kz","ru","uz"]},"geometry":["point","area"],"matchScore":2,"terms":["33 пингвина"],"tags":{"amenity":"ice_cream","brand:wikidata":"Q110147993"},"addTags":{"amenity":"ice_cream","brand":"33 пингвина","brand:wikidata":"Q110147993","name":"33 пингвина"}},"amenity/post_office/5ac048-c762cb":{"name":"СДЭК","locationSet":{"include":["am","az","by","kg","kz","ru","uz"]},"geometry":["point","area"],"matchScore":2,"terms":["сдэк","ук \"сдэк\""],"fields":["name","brand","{amenity/post_office}"],"preserveTags":["^name"],"tags":{"amenity":"post_office","brand:wikidata":"Q28665980"},"addTags":{"amenity":"post_office","brand":"СДЭК","brand:wikidata":"Q28665980","name":"СДЭК"}},"landuse/industrial/gebruderweiss-dd5b7d":{"name":"Gebrüder Weiss","locationSet":{"include":["kz","kg","tj","tm","uz","cn","hk","mo","kp","jp","mn","kr","bn","kh","id","la","my","mm","ph","sg","th","tl","vn","af","bd","bt","in","ir","mv","np","pk","lk","am","az","bh","cy","ge","iq","il","jo","kw","lb","om","qa","sa","ps","sy","tr","ae","ye","by","bg","cz","hu","pl","md","ro","ru","sk","ua","ax","gg","je","cq","dk","ee","fo","fi","is","ie","im","lv","lt","no","sj","se","gb","al","ad","ba","hr","gi","gr","va","it","mt","me","mk","pt","sm","rs","si","es","xk","at","be","fr","de","li","lu","mc","nl","ch","au","ca","nz","us"]},"geometry":["area"],"matchScore":2,"terms":["gebrüder weiss"],"fields":["name","brand","{landuse/industrial}"],"preserveTags":["^name"],"tags":{"brand:wikidata":"Q1497233","landuse":"industrial"},"addTags":{"brand":"Gebrüder Weiss","brand:wikidata":"Q1497233","industrial":"warehouse","landuse":"industrial","name":"Gebrüder Weiss"}},"office/gebruderweiss-3fef46":{"name":"Gebrüder Weiss","locationSet":{"include":["kz","kg","tj","tm","uz","cn","hk","mo","kp","jp","mn","kr","bn","kh","id","la","my","mm","ph","sg","th","tl","vn","af","bd","bt","in","ir","mv","np","pk","lk","am","az","bh","cy","ge","iq","il","jo","kw","lb","om","qa","sa","ps","sy","tr","ae","ye","by","bg","cz","hu","pl","md","ro","ru","sk","ua","ax","gg","je","cq","dk","ee","fo","fi","is","ie","im","lv","lt","no","sj","se","gb","al","ad","ba","hr","gi","gr","va","it","mt","me","mk","pt","sm","rs","si","es","xk","at","be","fr","de","li","lu","mc","nl","ch","au","ca","nz","us"]},"geometry":["point","vertex","area"],"matchScore":2,"terms":["gebrüder weiss"],"fields":["name","brand","{office}"],"preserveTags":["^name"],"tags":{"brand:wikidata":"Q1497233","office":"logistics"},"addTags":{"brand":"Gebrüder Weiss","brand:wikidata":"Q1497233","name":"Gebrüder Weiss","office":"logistics"}},"office/telecommunication/beeline-f03186":{"name":"Билайн","locationSet":{"include":["kg","kz","ru"]},"geometry":["point","area"],"matchScore":2,"terms":["beeline","билайн"],"tags":{"brand:wikidata":"Q402880","office":"telecommunication"},"addTags":{"brand":"Билайн","brand:en":"Beeline","brand:ru":"Билайн","brand:wikidata":"Q402880","name":"Билайн","name:en":"Beeline","name:ru":"Билайн","office":"telecommunication"}},"shop/clothes/sela-2d1caa":{"name":"Sela","locationSet":{"include":["kg","ru"]},"geometry":["point","area"],"matchScore":2,"terms":["sela"],"tags":{"brand:wikidata":"Q62075111","shop":"clothes"},"addTags":{"brand":"Sela","brand:wikidata":"Q62075111","name":"Sela","shop":"clothes"}},"shop/convenience/magnit-4e470f":{"name":"Магнит","locationSet":{"include":["bg","by","kg","kz","ru","uz"]},"geometry":["point","area"],"matchScore":2,"terms":["magnit","магнит","магнит у дома"],"tags":{"brand:wikidata":"Q940518","shop":"convenience"},"addTags":{"brand":"Магнит","brand:en":"Magnit","brand:ru":"Магнит","brand:wikidata":"Q940518","name":"Магнит","name:en":"Magnit","name:ru":"Магнит","shop":"convenience"}},"shop/furniture/shatura-56eb69":{"name":"Шатура","locationSet":{"include":["by","kg","kz","ru","uz"]},"geometry":["point","area"],"matchScore":2,"terms":["shatura","шатура"],"tags":{"brand:wikidata":"Q126596908","shop":"furniture"},"addTags":{"brand":"Шатура","brand:en":"Shatura","brand:ru":"Шатура","brand:wikidata":"Q126596908","name":"Шатура","name:en":"Shatura","name:ru":"Шатура","shop":"furniture"}},"shop/mobile_phone/beeline-3f097a":{"name":"Билайн","locationSet":{"include":["kg","kz","ru"]},"geometry":["point","area"],"matchScore":2,"terms":["beeline","билайн"],"tags":{"brand:wikidata":"Q402880","shop":"mobile_phone"},"addTags":{"brand":"Билайн","brand:en":"Beeline","brand:ru":"Билайн","brand:wikidata":"Q402880","name":"Билайн","name:en":"Beeline","name:ru":"Билайн","shop":"mobile_phone"}},"shop/outpost/wildberries-f8825b":{"name":"Wildberries","locationSet":{"include":["am","by","kg","kz","ru","uz"]},"geometry":["point","area"],"matchScore":2,"terms":["wildberries"],"tags":{"brand:wikidata":"Q24933714","shop":"outpost"},"addTags":{"brand":"Wildberries","brand:wikidata":"Q24933714","name":"Wildberries","shop":"outpost"}},"shop/supermarket/magnit-d9ae50":{"name":"Магнит","locationSet":{"include":["bg","by","kg","kz","ru","uz"]},"geometry":["point","area"],"matchScore":2,"terms":["magnit","магнит"],"tags":{"brand:wikidata":"Q940518","shop":"supermarket"},"addTags":{"brand":"Магнит","brand:en":"Magnit","brand:ru":"Магнит","brand:wikidata":"Q940518","name":"Магнит","name:en":"Magnit","name:ru":"Магнит","shop":"supermarket"}},"shop/variety_store/fixprice-b3b517":{"name":"Fix Price","locationSet":{"include":["ae","am","by","kg","kz","lv","mn","ru"]},"geometry":["point","area"],"matchScore":2,"terms":["fiks prajs","fix price","фикс прайс","фікс прайс"],"tags":{"brand:wikidata":"Q4038791","shop":"variety_store"},"addTags":{"brand":"Fix Price","brand:wikidata":"Q4038791","name":"Fix Price","name:be":"Фікс Прайс","name:be-Latn":"Fiks Prajs","name:en":"Fix Price","name:ru":"Фикс Прайс","name:uk":"Фікс Прайс","shop":"variety_store"}},"amenity/post_box/5ac048-6df28a":{"name":"СДЭК","locationSet":{"include":["am","az","by","kg","kz","ru","uz"]},"geometry":["point","vertex"],"matchScore":2,"terms":["сдэк","ук \"сдэк\""],"tags":{"amenity":"post_box","operator:wikidata":"Q28665980"},"addTags":{"amenity":"post_box","brand":"СДЭК","brand:wikidata":"Q28665980","operator":"СДЭК","operator:wikidata":"Q28665980"}}}