{"amenity/atm/intesasanpaolo-b483ef":{"name":"Intesa Sanpaolo","locationSet":{"include":["kz","kg","tj","tm","uz","cn","hk","mo","kp","jp","mn","kr","bn","kh","id","la","my","mm","ph","sg","th","tl","vn","af","bd","bt","in","ir","mv","np","pk","lk","am","az","bh","cy","ge","iq","il","jo","kw","lb","om","qa","sa","ps","sy","tr","ae","ye","by","bg","cz","hu","pl","md","ro","ru","sk","ua","ax","gg","je","cq","dk","ee","fo","fi","is","ie","im","lv","lt","no","sj","se","gb","al","ad","ba","hr","gi","gr","va","it","mt","me","mk","pt","sm","rs","si","es","xk","at","be","fr","de","li","lu","mc","nl","ch","au-nsw","br","eg","us-dc"],"exclude":["rs","ua"]},"geometry":["point","vertex"],"matchScore":2,"terms":["banca intesa","banca popolare di vicenza","banco di napoli","carisbo","cassa di risparmio del veneto","cassa di risparmio di firenze","intesa sanpaolo","intesa sanpaolo s.p.a.","ubi banca","veneto banca"],"tags":{"amenity":"atm","brand:wikidata":"Q1343118"},"addTags":{"amenity":"atm","brand":"Intesa Sanpaolo","brand:wikidata":"Q1343118","operator":"Intesa Sanpaolo","operator:wikidata":"Q1343118"}},"amenity/atm/sacombank-ca17c8":{"name":"Sacombank","locationSet":{"include":["kh","la","vn"]},"geometry":["point","vertex"],"matchScore":2,"terms":["sacombank"],"tags":{"amenity":"atm","brand:wikidata":"Q6123772"},"addTags":{"amenity":"atm","brand":"Sacombank","brand:wikidata":"Q6123772","operator":"Sacombank","operator:wikidata":"Q6123772"}},"amenity/bank/intesasanpaolo-28f235":{"name":"Intesa Sanpaolo","locationSet":{"include":["kz","kg","tj","tm","uz","cn","hk","mo","kp","jp","mn","kr","bn","kh","id","la","my","mm","ph","sg","th","tl","vn","af","bd","bt","in","ir","mv","np","pk","lk","am","az","bh","cy","ge","iq","il","jo","kw","lb","om","qa","sa","ps","sy","tr","ae","ye","by","bg","cz","hu","pl","md","ro","ru","sk","ua","ax","gg","je","cq","dk","ee","fo","fi","is","ie","im","lv","lt","no","sj","se","gb","al","ad","ba","hr","gi","gr","va","it","mt","me","mk","pt","sm","rs","si","es","xk","at","be","fr","de","li","lu","mc","nl","ch","au-nsw","br","eg","us-dc"],"exclude":["rs","ua"]},"geometry":["point","area"],"matchScore":2,"terms":["banca intesa","banca popolare di vicenza","banco di napoli","carisbo","cassa di risparmio del veneto","cassa di risparmio di firenze","intesa sanpaolo","intesa sanpaolo s.p.a.","ubi banca","veneto banca"],"tags":{"amenity":"bank","brand:wikidata":"Q1343118"},"addTags":{"amenity":"bank","brand":"Intesa Sanpaolo","brand:wikidata":"Q1343118","name":"Intesa Sanpaolo"}},"amenity/bank/sacombank-0c3ae7":{"name":"Sacombank","locationSet":{"include":["kh","la","vn"]},"geometry":["point","area"],"matchScore":2,"terms":["sacombank"],"tags":{"amenity":"bank","brand:wikidata":"Q6123772"},"addTags":{"amenity":"bank","brand":"Sacombank","brand:wikidata":"Q6123772","name":"Sacombank"}},"amenity/cafe/coffee_shop/blackcanyon-0e73cd":{"name":"Black Canyon","locationSet":{"include":["id","kh","la","mm","my","ph","th"]},"geometry":["point","area"],"matchScore":2,"terms":["black canyon","black canyon coffee","black canyon coffee & eatery"],"reference":{"key":"cuisine","value":"coffee_shop"},"tags":{"amenity":"cafe","brand:wikidata":"Q125870828","cuisine":"coffee_shop"},"addTags":{"amenity":"cafe","brand":"Black Canyon","brand:wikidata":"Q125870828","cuisine":"coffee_shop","name":"Black Canyon","takeaway":"yes"}},"amenity/cafe/bubble_tea/mixue-930f31":{"name":"Mixue Ice Cream & Tea","locationSet":{"include":["au","id","jp","kh","kr","la","my","ph","sg","th","us","vn"]},"geometry":["point","area"],"matchScore":2,"terms":["mixue ice cream & tea"],"reference":{"key":"cuisine","value":"bubble_tea"},"tags":{"amenity":"cafe","brand:wikidata":"Q107406476","cuisine":"ice_cream;bubble_tea"},"addTags":{"amenity":"cafe","brand":"Mixue Ice Cream & Tea","brand:wikidata":"Q107406476","cuisine":"ice_cream;bubble_tea","name":"Mixue","takeaway":"yes"}},"amenity/fast_food/pizza/thepizzacompany-abbb1f":{"name":"The Pizza Company","locationSet":{"include":["ae","bh","cn","jo","kh","la","mm","my","sa","th","vn"]},"geometry":["point","area"],"matchScore":2,"terms":["pizza company","the pizza company"],"reference":{"key":"cuisine","value":"pizza"},"tags":{"amenity":"fast_food","brand:wikidata":"Q2413520","cuisine":"pizza"},"addTags":{"alt_name":"Pizza Company","amenity":"fast_food","brand":"The Pizza Company","brand:wikidata":"Q2413520","cuisine":"pizza","name":"The Pizza Company","takeaway":"yes"}},"amenity/ice_cream/swensens-570cf0":{"name":"Swensen's","locationSet":{"include":["bn","kh","la","mm","my","th","tw","us","vn"]},"geometry":["point","area"],"matchScore":2,"terms":["swensen's"],"tags":{"amenity":"ice_cream","brand:wikidata":"Q6640658"},"addTags":{"amenity":"ice_cream","brand":"Swensen's","brand:wikidata":"Q6640658","name":"Swensen's"}},"landuse/industrial/gebruderweiss-dd5b7d":{"name":"Gebrüder Weiss","locationSet":{"include":["kz","kg","tj","tm","uz","cn","hk","mo","kp","jp","mn","kr","bn","kh","id","la","my","mm","ph","sg","th","tl","vn","af","bd","bt","in","ir","mv","np","pk","lk","am","az","bh","cy","ge","iq","il","jo","kw","lb","om","qa","sa","ps","sy","tr","ae","ye","by","bg","cz","hu","pl","md","ro","ru","sk","ua","ax","gg","je","cq","dk","ee","fo","fi","is","ie","im","lv","lt","no","sj","se","gb","al","ad","ba","hr","gi","gr","va","it","mt","me","mk","pt","sm","rs","si","es","xk","at","be","fr","de","li","lu","mc","nl","ch","au","ca","nz","us"]},"geometry":["area"],"matchScore":2,"terms":["gebrüder weiss"],"fields":["name","brand","{landuse/industrial}"],"preserveTags":["^name"],"tags":{"brand:wikidata":"Q1497233","landuse":"industrial"},"addTags":{"brand":"Gebrüder Weiss","brand:wikidata":"Q1497233","industrial":"warehouse","landuse":"industrial","name":"Gebrüder Weiss"}},"office/insurance/allianz-400bd0":{"name":"Allianz","locationSet":{"include":["ae","ar","at","au","be","bh","bm","bn","br","ca","cg","ch","ci","cm","cn","co","cy","cz","de","dk","ee","eg","es","fi","fr","gb","gg","gh","gr","hr","hu","id","ie","in","is","it","ja","ke","kr","kw","la","li","lk","lt","lu","lv","ma","mg","mx","my","ng","nl","no","nz","om","ph","pk","pl","pt","qa","ro","ru","sa","se","sg","si","sk","sn","th","tr","tw","ua","us","za"]},"geometry":["point","area"],"matchScore":2,"terms":["allianz","allianz versicherung"],"fields":["name","brand","{office/insurance}"],"preserveTags":["^name"],"tags":{"brand:wikidata":"Q487292","office":"insurance"},"addTags":{"brand":"Allianz","brand:wikidata":"Q487292","name":"Allianz","office":"insurance"}},"office/gebruderweiss-3fef46":{"name":"Gebrüder Weiss","locationSet":{"include":["kz","kg","tj","tm","uz","cn","hk","mo","kp","jp","mn","kr","bn","kh","id","la","my","mm","ph","sg","th","tl","vn","af","bd","bt","in","ir","mv","np","pk","lk","am","az","bh","cy","ge","iq","il","jo","kw","lb","om","qa","sa","ps","sy","tr","ae","ye","by","bg","cz","hu","pl","md","ro","ru","sk","ua","ax","gg","je","cq","dk","ee","fo","fi","is","ie","im","lv","lt","no","sj","se","gb","al","ad","ba","hr","gi","gr","va","it","mt","me","mk","pt","sm","rs","si","es","xk","at","be","fr","de","li","lu","mc","nl","ch","au","ca","nz","us"]},"geometry":["point","vertex","area"],"matchScore":2,"terms":["gebrüder weiss"],"fields":["name","brand","{office}"],"preserveTags":["^name"],"tags":{"brand:wikidata":"Q1497233","office":"logistics"},"addTags":{"brand":"Gebrüder Weiss","brand:wikidata":"Q1497233","name":"Gebrüder Weiss","office":"logistics"}},"office/telecommunication/beeline-2f71de":{"name":"Beeline","locationSet":{"include":["au","la","vn"]},"geometry":["point","area"],"matchScore":2,"terms":["beeline"],"tags":{"brand:wikidata":"Q402880","office":"telecommunication"},"addTags":{"brand":"Beeline","brand:wikidata":"Q402880","name":"Beeline","office":"telecommunication"}},"shop/car_parts/intercars-a4b6c1":{"name":"Inter Cars","locationSet":{"include":["ba","bg","cz","ee","gr","hr","hu","it","la","lv","md","pl","ro","rs","si","sk","ua"]},"geometry":["point","area"],"matchScore":2,"terms":["inter cars"],"tags":{"brand:wikidata":"Q115922509","shop":"car_parts"},"addTags":{"brand":"Inter Cars","brand:wikidata":"Q115922509","name":"Inter Cars","shop":"car_parts"}},"shop/convenience/jiffy-c8e053":{"name":"Jiffy","locationSet":{"include":["kh","la","ph","th"]},"geometry":["point","area"],"matchScore":2,"terms":["jiffy","จิฟฟี่"],"tags":{"brand:wikidata":"Q16770436","shop":"convenience"},"addTags":{"brand":"Jiffy","brand:en":"Jiffy","brand:th":"จิฟฟี่","brand:wikidata":"Q16770436","name":"Jiffy","name:en":"Jiffy","name:th":"จิฟฟี่","shop":"convenience"}},"shop/department_store/parkson-6dcedc":{"name":"Parkson","locationSet":{"include":["id","la","mm","my","vn"]},"geometry":["point","area"],"matchScore":2,"terms":["parkson","百盛"],"tags":{"brand:wikidata":"Q835145","shop":"department_store"},"addTags":{"brand":"Parkson","brand:en":"Parkson","brand:wikidata":"Q835145","brand:zh":"百盛","name":"Parkson","name:en":"Parkson","name:zh":"百盛","shop":"department_store"}},"tourism/hotel/avanihotelsandresorts-e9c192":{"name":"Avani","locationSet":{"include":["ae","au","bw","id","kh","kr","la","lk","ls","my","mz","na","nz","om","pt","sc","th","vn","zm"]},"geometry":["point","area"],"matchScore":2,"terms":["avani","avani hotels & resorts"],"fields":["name","brand","{tourism/hotel}"],"preserveTags":["^name","^official_name"],"tags":{"brand:wikidata":"Q48989823","tourism":"hotel"},"addTags":{"brand":"Avani Hotels & Resorts","brand:wikidata":"Q48989823","name":"Avani Hotels & Resorts","tourism":"hotel"}},"tourism/hotel/surestay-e644f7":{"name":"SureStay","locationSet":{"include":["au","ca","in","la","th","us"]},"geometry":["point","area"],"matchScore":2,"terms":["surestay","surestay by best western","surestay hotels"],"fields":["name","brand","{tourism/hotel}"],"preserveTags":["^name","^official_name"],"tags":{"brand:wikidata":"Q135246628","tourism":"hotel"},"addTags":{"brand":"SureStay","brand:wikidata":"Q135246628","name":"SureStay","official_name":"SureStay by Best Western","tourism":"hotel"}}}