{"advertising/totem/0b910f-dec76e":{"name":"Газпромнефть","locationSet":{"include":["by","kg","kz","ru","tj"]},"geometry":["point","line"],"matchScore":2,"terms":["газпром","газпромнефть"],"tags":{"advertising":"totem","brand:wikidata":"Q1461799"},"addTags":{"advertising":"totem","brand":"Газпромнефть","brand:wikidata":"Q1461799"}},"amenity/atm/halykbank-bfa88b":{"name":"Halyk Bank","locationSet":{"include":["kg","kz","ru","tj","uz"]},"geometry":["point","vertex"],"matchScore":2,"terms":["halyk bank","казкоммерцбанк","народный банк"],"tags":{"amenity":"atm","brand:wikidata":"Q1046186"},"addTags":{"amenity":"atm","brand":"Halyk Bank","brand:wikidata":"Q1046186","old_name":"Народный банк","operator":"Halyk Bank","operator:wikidata":"Q1046186"}},"amenity/atm/intesasanpaolo-b483ef":{"name":"Intesa Sanpaolo","locationSet":{"include":["kz","kg","tj","tm","uz","cn","hk","mo","kp","jp","mn","kr","bn","kh","id","la","my","mm","ph","sg","th","tl","vn","af","bd","bt","in","ir","mv","np","pk","lk","am","az","bh","cy","ge","iq","il","jo","kw","lb","om","qa","sa","ps","sy","tr","ae","ye","by","bg","cz","hu","pl","md","ro","ru","sk","ua","ax","gg","je","cq","dk","ee","fo","fi","is","ie","im","lv","lt","no","sj","se","gb","al","ad","ba","hr","gi","gr","va","it","mt","me","mk","pt","sm","rs","si","es","xk","at","be","fr","de","li","lu","mc","nl","ch","au-nsw","br","eg","us-dc"],"exclude":["rs","ua"]},"geometry":["point","vertex"],"matchScore":2,"terms":["banca intesa","banca popolare di vicenza","banco di napoli","carisbo","cassa di risparmio del veneto","cassa di risparmio di firenze","intesa sanpaolo","intesa sanpaolo s.p.a.","ubi banca","veneto banca"],"tags":{"amenity":"atm","brand:wikidata":"Q1343118"},"addTags":{"amenity":"atm","brand":"Intesa Sanpaolo","brand:wikidata":"Q1343118","operator":"Intesa Sanpaolo","operator:wikidata":"Q1343118"}},"amenity/bank/halykbank-c4165a":{"name":"Halyk Bank","locationSet":{"include":["kg","kz","ru","tj","uz"]},"geometry":["point","area"],"matchScore":2,"terms":["«қазақстан халық банкі» ақ","halyk bank","ао «народный банк казахстана»","казкоммерцбанк","народный банк","халык банк","халық банкі"],"tags":{"amenity":"bank","brand:wikidata":"Q1046186"},"addTags":{"amenity":"bank","brand":"Halyk Bank","brand:wikidata":"Q1046186","name":"Halyk Bank","name:en":"Halyk Bank","name:kk":"Халық Банкі","name:ru":"Халык банк","official_name:kk":"«Қазақстан Халық Банкі» АҚ","official_name:ru":"АО «Народный Банк Казахстана»","old_name":"Народный банк"}},"amenity/bank/intesasanpaolo-28f235":{"name":"Intesa Sanpaolo","locationSet":{"include":["kz","kg","tj","tm","uz","cn","hk","mo","kp","jp","mn","kr","bn","kh","id","la","my","mm","ph","sg","th","tl","vn","af","bd","bt","in","ir","mv","np","pk","lk","am","az","bh","cy","ge","iq","il","jo","kw","lb","om","qa","sa","ps","sy","tr","ae","ye","by","bg","cz","hu","pl","md","ro","ru","sk","ua","ax","gg","je","cq","dk","ee","fo","fi","is","ie","im","lv","lt","no","sj","se","gb","al","ad","ba","hr","gi","gr","va","it","mt","me","mk","pt","sm","rs","si","es","xk","at","be","fr","de","li","lu","mc","nl","ch","au-nsw","br","eg","us-dc"],"exclude":["rs","ua"]},"geometry":["point","area"],"matchScore":2,"terms":["banca intesa","banca popolare di vicenza","banco di napoli","carisbo","cassa di risparmio del veneto","cassa di risparmio di firenze","intesa sanpaolo","intesa sanpaolo s.p.a.","ubi banca","veneto banca"],"tags":{"amenity":"bank","brand:wikidata":"Q1343118"},"addTags":{"amenity":"bank","brand":"Intesa Sanpaolo","brand:wikidata":"Q1343118","name":"Intesa Sanpaolo"}},"amenity/fuel/0b910f-bb6729":{"name":"Газпромнефть","locationSet":{"include":["by","kg","kz","ru","tj"]},"geometry":["point","area"],"matchScore":2,"terms":["газпром","газпромнефть"],"fields":["name","brand","{amenity/fuel}"],"preserveTags":["^name"],"tags":{"amenity":"fuel","brand:wikidata":"Q1461799"},"addTags":{"amenity":"fuel","brand":"Газпромнефть","brand:wikidata":"Q1461799","name":"Газпромнефть"}},"landuse/industrial/gebruderweiss-dd5b7d":{"name":"Gebrüder Weiss","locationSet":{"include":["kz","kg","tj","tm","uz","cn","hk","mo","kp","jp","mn","kr","bn","kh","id","la","my","mm","ph","sg","th","tl","vn","af","bd","bt","in","ir","mv","np","pk","lk","am","az","bh","cy","ge","iq","il","jo","kw","lb","om","qa","sa","ps","sy","tr","ae","ye","by","bg","cz","hu","pl","md","ro","ru","sk","ua","ax","gg","je","cq","dk","ee","fo","fi","is","ie","im","lv","lt","no","sj","se","gb","al","ad","ba","hr","gi","gr","va","it","mt","me","mk","pt","sm","rs","si","es","xk","at","be","fr","de","li","lu","mc","nl","ch","au","ca","nz","us"]},"geometry":["area"],"matchScore":2,"terms":["gebrüder weiss"],"fields":["name","brand","{landuse/industrial}"],"preserveTags":["^name"],"tags":{"brand:wikidata":"Q1497233","landuse":"industrial"},"addTags":{"brand":"Gebrüder Weiss","brand:wikidata":"Q1497233","industrial":"warehouse","landuse":"industrial","name":"Gebrüder Weiss"}},"office/gebruderweiss-3fef46":{"name":"Gebrüder Weiss","locationSet":{"include":["kz","kg","tj","tm","uz","cn","hk","mo","kp","jp","mn","kr","bn","kh","id","la","my","mm","ph","sg","th","tl","vn","af","bd","bt","in","ir","mv","np","pk","lk","am","az","bh","cy","ge","iq","il","jo","kw","lb","om","qa","sa","ps","sy","tr","ae","ye","by","bg","cz","hu","pl","md","ro","ru","sk","ua","ax","gg","je","cq","dk","ee","fo","fi","is","ie","im","lv","lt","no","sj","se","gb","al","ad","ba","hr","gi","gr","va","it","mt","me","mk","pt","sm","rs","si","es","xk","at","be","fr","de","li","lu","mc","nl","ch","au","ca","nz","us"]},"geometry":["point","vertex","area"],"matchScore":2,"terms":["gebrüder weiss"],"fields":["name","brand","{office}"],"preserveTags":["^name"],"tags":{"brand:wikidata":"Q1497233","office":"logistics"},"addTags":{"brand":"Gebrüder Weiss","brand:wikidata":"Q1497233","name":"Gebrüder Weiss","office":"logistics"}},"shop/mobile_phone/megafon-18f86b":{"name":"Мегафон","locationSet":{"include":["ru","tj"]},"geometry":["point","area"],"matchScore":2,"terms":["megafon","мегафон"],"tags":{"brand:wikidata":"Q1720713","shop":"mobile_phone"},"addTags":{"brand":"Мегафон","brand:en":"MegaFon","brand:ru":"Мегафон","brand:wikidata":"Q1720713","name":"Мегафон","name:en":"MegaFon","name:ru":"Мегафон","shop":"mobile_phone"}},"tourism/hotel/serenahotels-b76fe0":{"name":"Serena Hotels","locationSet":{"include":["af","cd","ke","pk","rw","tj","tz","ug"]},"geometry":["point","area"],"matchScore":2,"terms":["serena hotels"],"fields":["name","brand","{tourism/hotel}"],"preserveTags":["^name","^official_name"],"tags":{"brand:wikidata":"Q7453121","tourism":"hotel"},"addTags":{"brand":"Serena Hotels","brand:wikidata":"Q7453121","name":"Serena Hotels","tourism":"hotel"}},"power/plant/barqitojik-933e76":{"name":"Barqi Tojik","locationSet":{"include":["tj"]},"geometry":["area"],"matchScore":2,"terms":["barqi tojik"],"tags":{"operator:wikidata":"Q13202239","power":"plant"},"addTags":{"operator":"Barqi Tojik","operator:wikidata":"Q13202239","power":"plant"}}}