{"advertising/totem/caltex-0f1005":{"name":"Caltex","locationSet":{"include":["ae","au","eg","hk","id","kh","kr","lk","my","nz","ph","pk","sa","sg","th","vn","za"]},"geometry":["point","line"],"matchScore":2,"terms":["caltex"],"tags":{"advertising":"totem","brand:wikidata":"Q277470"},"addTags":{"advertising":"totem","brand":"Caltex","brand:wikidata":"Q277470"}},"advertising/totem/emarat-1e6f11":{"name":"Emarat","locationSet":{"include":["ae"]},"geometry":["point","line"],"matchScore":2,"terms":["emarat","امارات"],"tags":{"advertising":"totem","brand:wikidata":"Q127377494"},"addTags":{"advertising":"totem","brand":"Emarat","brand:ar":"امارات","brand:en":"Emarat","brand:wikidata":"Q127377494"}},"advertising/totem/adnoc-44b58a":{"name":"أدنوك","locationSet":{"include":["ae","sa"]},"geometry":["point","line"],"matchScore":2,"terms":["adnoc","adnoc service station","أدنوك","ادنوك"],"tags":{"advertising":"totem","brand:wikidata":"Q166729"},"addTags":{"advertising":"totem","brand":"أدنوك","brand:ar":"أدنوك","brand:en":"ADNOC","brand:wikidata":"Q166729"}},"advertising/totem/enoc-a1d67d":{"name":"اينوك","locationSet":{"include":["ae","bh","kw","om","qa","sa","ye"]},"geometry":["point","line"],"matchScore":2,"terms":["enoc","اينوك"],"tags":{"advertising":"totem","brand:wikidata":"Q3045998"},"addTags":{"advertising":"totem","brand":"اينوك","brand:ar":"اينوك","brand:en":"ENOC","brand:wikidata":"Q3045998"}},"advertising/totem/total-a1d67d":{"name":"توتال","locationSet":{"include":["ae","bh","kw","om","qa","sa","ye"]},"geometry":["point","line"],"matchScore":2,"terms":["total","توتال"],"tags":{"advertising":"totem","brand:wikidata":"Q154037"},"addTags":{"advertising":"totem","brand":"توتال","brand:ar":"توتال","brand:en":"Total","brand:wikidata":"Q154037"}},"amenity/atm/abudhabicommercialbank-878fb9":{"name":"Abu Dhabi Commercial Bank","locationSet":{"include":["ae","eg"]},"geometry":["point","vertex"],"matchScore":2,"terms":["abu dhabi commercial bank","adcb","adcb atm","adcb branch"],"tags":{"amenity":"atm","brand:wikidata":"Q4670123"},"addTags":{"amenity":"atm","brand":"Abu Dhabi Commercial Bank","brand:en":"Abu Dhabi Commercial Bank","brand:wikidata":"Q4670123","operator":"Abu Dhabi Commercial Bank","operator:wikidata":"Q4670123"}},"amenity/atm/abudhabiislamicbank-478f8d":{"name":"Abu Dhabi Islamic Bank","locationSet":{"include":["ae","eg","ir"]},"geometry":["point","vertex"],"matchScore":2,"terms":["abu dhabi islamic bank","مصرف ابوظبي الاسلامي"],"tags":{"amenity":"atm","brand:wikidata":"Q4670141"},"addTags":{"amenity":"atm","brand":"Abu Dhabi Islamic Bank","brand:ar":"مصرف ابوظبي الاسلامي","brand:en":"Abu Dhabi Islamic Bank","brand:wikidata":"Q4670141","operator":"Abu Dhabi Islamic Bank","operator:wikidata":"Q4670141"}},"amenity/atm/arabafricaninternationalbank-562d7d":{"name":"Arab African International Bank","locationSet":{"include":["ae","eg","lb"]},"geometry":["point","vertex"],"matchScore":2,"terms":["arab african international bank","البنك العربي الإفريقي الدولي"],"tags":{"amenity":"atm","brand:wikidata":"Q126391861"},"addTags":{"amenity":"atm","brand":"Arab African International Bank","brand:ar":"البنك العربي الإفريقي الدولي","brand:en":"Arab African International Bank","brand:wikidata":"Q126391861","operator":"Arab African International Bank","operator:wikidata":"Q126391861"}},"amenity/atm/attijariwafabank-3e1123":{"name":"Attijariwafa Bank (التجاري وفا بنك)","locationSet":{"include":["ae","be","bf","bj","ca","cd","cg","ch","ci","cm","eg","es","fr","ga","gb","it","mr","nl","sa","sn","tg","tn"]},"geometry":["point","vertex"],"matchScore":2,"terms":["attijariwafa bank","attijariwafa bank التجاري وفا بنك","التجاري وفا بنك"],"tags":{"amenity":"atm","brand:wikidata":"Q758052"},"addTags":{"amenity":"atm","brand":"Attijariwafa Bank","brand:ar":"التجاري وفا بنك","brand:en":"Attijariwafa Bank","brand:wikidata":"Q758052","operator":"Attijariwafa Bank","operator:wikidata":"Q758052"}},"amenity/atm/bankalfalah-d0578d":{"name":"Bank Alfalah (بینک الفلاح)","locationSet":{"include":["ae","af","bd","bh","pk"]},"geometry":["point","vertex"],"matchScore":2,"terms":["bank alfalah","bank alfalah limited","habib credit and exchange bank","بینک الفلاح","بینک الفلاح لمیٹڈ"],"tags":{"amenity":"atm","brand:wikidata":"Q4855895"},"addTags":{"amenity":"atm","brand":"Bank Alfalah","brand:en":"Bank Alfalah","brand:ur":"بینک الفلاح","brand:wikidata":"Q4855895","operator":"Bank Alfalah","operator:wikidata":"Q4855895"}},"amenity/atm/bnpparibas-c1fb51":{"name":"BNP Paribas","locationSet":{"include":["ae","af","ar","at","bf","bh","br","ca","ch","ci","cl","co","cz","de","dk","dz","es","fi","fr","gb","hu","ie","il","it","kw","ma","ml","mx","nl","no","pe","pt","qa","ro","ru","sa","se","sk","sn","tn","tw","us"]},"geometry":["point","vertex"],"matchScore":2,"terms":["bnp paribas"],"tags":{"amenity":"atm","brand:wikidata":"Q499707"},"addTags":{"amenity":"atm","brand":"BNP Paribas","brand:wikidata":"Q499707","operator":"BNP Paribas","operator:wikidata":"Q499707"}},"amenity/atm/dubaiislamicbank-4e81d9":{"name":"Dubai Islamic Bank","locationSet":{"include":["ae","jo","ke","pk"]},"geometry":["point","vertex"],"matchScore":2,"terms":["dubai islamic bank","بنك دبي الإسلامي","دبئی اسلامی بینک"],"tags":{"amenity":"atm","brand:wikidata":"Q5310570"},"addTags":{"amenity":"atm","brand":"Dubai Islamic Bank","brand:ar":"بنك دبي الإسلامي","brand:en":"Dubai Islamic Bank","brand:ur":"دبئی اسلامی بینک","brand:wikidata":"Q5310570","operator":"Dubai Islamic Bank","operator:wikidata":"Q5310570"}},"amenity/atm/emiratesnbd-a44f4b":{"name":"Emirates NBD","locationSet":{"include":["ae"]},"geometry":["point","vertex"],"matchScore":2,"terms":["emirates nbd"],"tags":{"amenity":"atm","brand:wikidata":"Q5372575"},"addTags":{"amenity":"atm","brand":"Emirates NBD","brand:wikidata":"Q5372575","operator":"Emirates NBD","operator:wikidata":"Q5372575"}},"amenity/atm/firstabudhabibank-878fb9":{"name":"First Abu Dhabi Bank","locationSet":{"include":["ae","eg"]},"geometry":["point","vertex"],"matchScore":2,"terms":["first abu dhabi bank","بنك أبو ظبي الأول"],"tags":{"amenity":"atm","brand:wikidata":"Q29124183"},"addTags":{"amenity":"atm","brand":"First Abu Dhabi Bank","brand:ar":"بنك أبو ظبي الأول","brand:en":"First Abu Dhabi Bank","brand:wikidata":"Q29124183","operator":"First Abu Dhabi Bank","operator:wikidata":"Q29124183"}},"amenity/atm/intesasanpaolo-b483ef":{"name":"Intesa Sanpaolo","locationSet":{"include":["kz","kg","tj","tm","uz","cn","hk","mo","kp","jp","mn","kr","bn","kh","id","la","my","mm","ph","sg","th","tl","vn","af","bd","bt","in","ir","mv","np","pk","lk","am","az","bh","cy","ge","iq","il","jo","kw","lb","om","qa","sa","ps","sy","tr","ae","ye","by","bg","cz","hu","pl","md","ro","ru","sk","ua","ax","gg","je","cq","dk","ee","fo","fi","is","ie","im","lv","lt","no","sj","se","gb","al","ad","ba","hr","gi","gr","va","it","mt","me","mk","pt","sm","rs","si","es","xk","at","be","fr","de","li","lu","mc","nl","ch","au-nsw","br","eg","us-dc"],"exclude":["rs","ua"]},"geometry":["point","vertex"],"matchScore":2,"terms":["banca intesa","banca popolare di vicenza","banco di napoli","carisbo","cassa di risparmio del veneto","cassa di risparmio di firenze","intesa sanpaolo","intesa sanpaolo s.p.a.","ubi banca","veneto banca"],"tags":{"amenity":"atm","brand:wikidata":"Q1343118"},"addTags":{"amenity":"atm","brand":"Intesa Sanpaolo","brand:wikidata":"Q1343118","operator":"Intesa Sanpaolo","operator:wikidata":"Q1343118"}},"amenity/atm/mashreq-878fb9":{"name":"Mashreq","locationSet":{"include":["ae","eg"]},"geometry":["point","vertex"],"matchScore":2,"terms":["mashreq","mashreq atm","mashreq bank","mashreq ccdm"],"tags":{"amenity":"atm","brand:wikidata":"Q1538829"},"addTags":{"amenity":"atm","brand":"Mashreq","brand:en":"Mashreq","brand:wikidata":"Q1538829","operator":"Mashreq","operator:wikidata":"Q1538829"}},"amenity/atm/mcb-a8db09":{"name":"MCB (Pakistan)","locationSet":{"include":["ae","bh","lk","pk"]},"geometry":["point","vertex"],"matchScore":2,"terms":["mcb","mcb bank","ایم سی بی بینک"],"tags":{"amenity":"atm","brand:wikidata":"Q15982510"},"addTags":{"amenity":"atm","brand":"MCB","brand:en":"MCB","brand:ur":"ایم سی بی بینک","brand:wikidata":"Q15982510","operator":"MCB","operator:wikidata":"Q15982510"}},"amenity/atm/nationalbankofkuwait-58b0e4":{"name":"National Bank of Kuwait","locationSet":{"include":["ae","bh","eg","gb","kw","lb","sa","sg"],"exclude":["hk","mo"]},"geometry":["point","vertex"],"matchScore":2,"terms":["national bank of kuwait","بنك الكويت الوطني"],"tags":{"amenity":"atm","brand:wikidata":"Q4045072"},"addTags":{"amenity":"atm","brand":"National Bank of Kuwait","brand:ar":"بنك الكويت الوطني","brand:en":"National Bank of Kuwait","brand:wikidata":"Q4045072","operator":"National Bank of Kuwait","operator:wikidata":"Q4045072"}},"amenity/atm/rakbank-a44f4b":{"name":"RAKBANK","locationSet":{"include":["ae"]},"geometry":["point","vertex"],"matchScore":2,"terms":["rakbank","راك بنك"],"tags":{"amenity":"atm","brand:wikidata":"Q7275733"},"addTags":{"amenity":"atm","brand":"RAKBANK","brand:ar":"راك بنك","brand:en":"RAKBANK","brand:wikidata":"Q7275733","operator":"RAKBANK","operator:wikidata":"Q7275733"}},"amenity/atm/sharjahislamicbank-a44f4b":{"name":"Sharjah Islamic Bank","locationSet":{"include":["ae"]},"geometry":["point","vertex"],"matchScore":2,"terms":["sharjah islamic bank","مصرف الشارقة الإسلامي"],"tags":{"amenity":"atm","brand:wikidata":"Q7489772"},"addTags":{"amenity":"atm","brand":"Sharjah Islamic Bank","brand:ar":"مصرف الشارقة الإسلامي","brand:en":"Sharjah Islamic Bank","brand:wikidata":"Q7489772","operator":"Sharjah Islamic Bank","operator:wikidata":"Q7489772"}},"amenity/atm/societegenerale-de4691":{"name":"سوسيتيه جنرال","locationSet":{"include":["ae","qa","sa"]},"geometry":["point","vertex"],"matchScore":2,"terms":["société générale","سوسيتيه جنرال"],"tags":{"amenity":"atm","brand:wikidata":"Q270363"},"addTags":{"amenity":"atm","brand":"سوسيتيه جنرال","brand:ar":"سوسيتيه جنرال","brand:en":"Société Générale","brand:wikidata":"Q270363","operator":"سوسيتيه جنرال","operator:wikidata":"Q270363"}},"amenity/bank/abudhabicommercialbank-b21eb1":{"name":"Abu Dhabi Commercial Bank","locationSet":{"include":["ae","eg"]},"geometry":["point","area"],"matchScore":2,"terms":["abu dhabi commercial bank","adcb","adcb atm","adcb branch"],"tags":{"amenity":"bank","brand:wikidata":"Q4670123"},"addTags":{"amenity":"bank","brand":"Abu Dhabi Commercial Bank","brand:en":"Abu Dhabi Commercial Bank","brand:wikidata":"Q4670123","name":"Abu Dhabi Commercial Bank","name:en":"Abu Dhabi Commercial Bank"}},"amenity/bank/abudhabiislamicbank-92591a":{"name":"Abu Dhabi Islamic Bank","locationSet":{"include":["ae","eg","ir"]},"geometry":["point","area"],"matchScore":2,"terms":["abu dhabi islamic bank","مصرف ابوظبي الاسلامي"],"tags":{"amenity":"bank","brand:wikidata":"Q4670141"},"addTags":{"amenity":"bank","brand":"Abu Dhabi Islamic Bank","brand:ar":"مصرف ابوظبي الاسلامي","brand:en":"Abu Dhabi Islamic Bank","brand:wikidata":"Q4670141","name":"Abu Dhabi Islamic Bank","name:ar":"مصرف ابوظبي الاسلامي","name:en":"Abu Dhabi Islamic Bank"}},"amenity/bank/arabafricaninternationalbank-86d644":{"name":"Arab African International Bank","locationSet":{"include":["ae","eg","lb"]},"geometry":["point","area"],"matchScore":2,"terms":["arab african international bank","البنك العربي الإفريقي الدولي"],"tags":{"amenity":"bank","brand:wikidata":"Q126391861"},"addTags":{"amenity":"bank","brand":"Arab African International Bank","brand:ar":"البنك العربي الإفريقي الدولي","brand:en":"Arab African International Bank","brand:wikidata":"Q126391861","name":"Arab African International Bank","name:ar":"البنك العربي الإفريقي الدولي","name:en":"Arab African International Bank"}},"amenity/bank/attijariwafabank-efc165":{"name":"Attijariwafa Bank (التجاري وفا بنك)","locationSet":{"include":["ae","be","bf","bj","ca","cd","cg","ch","ci","cm","eg","es","fr","ga","gb","it","mr","nl","sa","sn","tg","tn"]},"geometry":["point","area"],"matchScore":2,"terms":["attijariwafa bank","attijariwafa bank التجاري وفا بنك","التجاري وفا بنك"],"tags":{"amenity":"bank","brand:wikidata":"Q758052"},"addTags":{"amenity":"bank","brand":"Attijariwafa Bank","brand:ar":"التجاري وفا بنك","brand:en":"Attijariwafa Bank","brand:wikidata":"Q758052","name:ar":"التجاري وفا بنك","name:en":"Attijariwafa Bank"}},"amenity/bank/bankalfalah-a78d37":{"name":"Bank Alfalah (بینک الفلاح)","locationSet":{"include":["ae","af","bd","bh","pk"]},"geometry":["point","area"],"matchScore":2,"terms":["bank alfalah","bank alfalah limited","habib credit and exchange bank","بینک الفلاح","بینک الفلاح لمیٹڈ"],"tags":{"amenity":"bank","brand:wikidata":"Q4855895"},"addTags":{"amenity":"bank","brand":"Bank Alfalah","brand:en":"Bank Alfalah","brand:ur":"بینک الفلاح","brand:wikidata":"Q4855895","name:en":"Bank Alfalah","name:ur":"بینک الفلاح"}},"amenity/bank/bnpparibas-a4be3f":{"name":"BNP Paribas","locationSet":{"include":["ae","af","ar","at","bf","bh","br","ca","ch","ci","cl","co","cz","de","dk","dz","es","fi","fr","gb","hu","ie","il","it","kw","ma","ml","mx","nl","no","pe","pt","qa","ro","ru","sa","se","sk","sn","tn","tw","us"]},"geometry":["point","area"],"matchScore":2,"terms":["bnp paribas"],"tags":{"amenity":"bank","brand:wikidata":"Q499707"},"addTags":{"amenity":"bank","brand":"BNP Paribas","brand:wikidata":"Q499707","name":"BNP Paribas"}},"amenity/bank/dubaiislamicbank-bd7e2a":{"name":"Dubai Islamic Bank","locationSet":{"include":["ae","jo","ke","pk"]},"geometry":["point","area"],"matchScore":2,"terms":["dubai islamic bank","بنك دبي الإسلامي","دبئی اسلامی بینک"],"tags":{"amenity":"bank","brand:wikidata":"Q5310570"},"addTags":{"amenity":"bank","brand":"Dubai Islamic Bank","brand:ar":"بنك دبي الإسلامي","brand:en":"Dubai Islamic Bank","brand:ur":"دبئی اسلامی بینک","brand:wikidata":"Q5310570","name":"Dubai Islamic Bank","name:ar":"بنك دبي الإسلامي","name:en":"Dubai Islamic Bank","name:ur":"دبئی اسلامی بینک"}},"amenity/bank/emiratesnbd-d9ce9c":{"name":"Emirates NBD","locationSet":{"include":["ae"]},"geometry":["point","area"],"matchScore":2,"terms":["emirates nbd"],"tags":{"amenity":"bank","brand:wikidata":"Q5372575"},"addTags":{"amenity":"bank","brand":"Emirates NBD","brand:wikidata":"Q5372575","name":"Emirates NBD"}},"amenity/bank/firstabudhabibank-b21eb1":{"name":"First Abu Dhabi Bank","locationSet":{"include":["ae","eg"]},"geometry":["point","area"],"matchScore":2,"terms":["first abu dhabi bank","بنك أبو ظبي الأول"],"tags":{"amenity":"bank","brand:wikidata":"Q29124183"},"addTags":{"amenity":"bank","brand":"First Abu Dhabi Bank","brand:ar":"بنك أبو ظبي الأول","brand:en":"First Abu Dhabi Bank","brand:wikidata":"Q29124183","name":"First Abu Dhabi Bank","name:ar":"بنك أبو ظبي الأول","name:en":"First Abu Dhabi Bank"}},"amenity/bank/intesasanpaolo-28f235":{"name":"Intesa Sanpaolo","locationSet":{"include":["kz","kg","tj","tm","uz","cn","hk","mo","kp","jp","mn","kr","bn","kh","id","la","my","mm","ph","sg","th","tl","vn","af","bd","bt","in","ir","mv","np","pk","lk","am","az","bh","cy","ge","iq","il","jo","kw","lb","om","qa","sa","ps","sy","tr","ae","ye","by","bg","cz","hu","pl","md","ro","ru","sk","ua","ax","gg","je","cq","dk","ee","fo","fi","is","ie","im","lv","lt","no","sj","se","gb","al","ad","ba","hr","gi","gr","va","it","mt","me","mk","pt","sm","rs","si","es","xk","at","be","fr","de","li","lu","mc","nl","ch","au-nsw","br","eg","us-dc"],"exclude":["rs","ua"]},"geometry":["point","area"],"matchScore":2,"terms":["banca intesa","banca popolare di vicenza","banco di napoli","carisbo","cassa di risparmio del veneto","cassa di risparmio di firenze","intesa sanpaolo","intesa sanpaolo s.p.a.","ubi banca","veneto banca"],"tags":{"amenity":"bank","brand:wikidata":"Q1343118"},"addTags":{"amenity":"bank","brand":"Intesa Sanpaolo","brand:wikidata":"Q1343118","name":"Intesa Sanpaolo"}},"amenity/bank/mashreq-b21eb1":{"name":"Mashreq","locationSet":{"include":["ae","eg"]},"geometry":["point","area"],"matchScore":2,"terms":["mashreq","mashreq atm","mashreq bank","mashreq ccdm"],"tags":{"amenity":"bank","brand:wikidata":"Q1538829"},"addTags":{"amenity":"bank","brand":"Mashreq","brand:en":"Mashreq","brand:wikidata":"Q1538829","name":"Mashreq","name:en":"Mashreq"}},"amenity/bank/mcb-57526d":{"name":"MCB (Pakistan)","locationSet":{"include":["ae","bh","lk","pk"]},"geometry":["point","area"],"matchScore":2,"terms":["mcb","mcb bank","ایم سی بی بینک"],"tags":{"amenity":"bank","brand:wikidata":"Q15982510"},"addTags":{"amenity":"bank","brand":"MCB","brand:en":"MCB","brand:ur":"ایم سی بی بینک","brand:wikidata":"Q15982510","name":"MCB","name:en":"MCB","name:ur":"ایم سی بی بینک"}},"amenity/bank/nationalbankofkuwait-a264c3":{"name":"National Bank of Kuwait","locationSet":{"include":["ae","bh","eg","gb","kw","lb","sa","sg"],"exclude":["hk","mo"]},"geometry":["point","area"],"matchScore":2,"terms":["national bank of kuwait","بنك الكويت الوطني"],"tags":{"amenity":"bank","brand:wikidata":"Q4045072"},"addTags":{"amenity":"bank","brand":"National Bank of Kuwait","brand:ar":"بنك الكويت الوطني","brand:en":"National Bank of Kuwait","brand:wikidata":"Q4045072","name":"National Bank of Kuwait","name:ar":"بنك الكويت الوطني","name:en":"National Bank of Kuwait"}},"amenity/bank/rakbank-d9ce9c":{"name":"RAKBANK","locationSet":{"include":["ae"]},"geometry":["point","area"],"matchScore":2,"terms":["rakbank","راك بنك"],"tags":{"amenity":"bank","brand:wikidata":"Q7275733"},"addTags":{"amenity":"bank","brand":"RAKBANK","brand:ar":"راك بنك","brand:en":"RAKBANK","brand:wikidata":"Q7275733","name":"RAKBANK","name:ar":"راك بنك","name:en":"RAKBANK"}},"amenity/bank/sharjahislamicbank-d9ce9c":{"name":"Sharjah Islamic Bank","locationSet":{"include":["ae"]},"geometry":["point","area"],"matchScore":2,"terms":["sharjah islamic bank","مصرف الشارقة الإسلامي"],"tags":{"amenity":"bank","brand:wikidata":"Q7489772"},"addTags":{"amenity":"bank","brand":"Sharjah Islamic Bank","brand:ar":"مصرف الشارقة الإسلامي","brand:en":"Sharjah Islamic Bank","brand:wikidata":"Q7489772","name":"Sharjah Islamic Bank","name:ar":"مصرف الشارقة الإسلامي","name:en":"Sharjah Islamic Bank"}},"amenity/bank/societegenerale-3601cd":{"name":"سوسيتيه جنرال","locationSet":{"include":["ae","qa","sa"]},"geometry":["point","area"],"matchScore":2,"terms":["société générale","سوسيتيه جنرال"],"tags":{"amenity":"bank","brand:wikidata":"Q270363"},"addTags":{"amenity":"bank","brand":"سوسيتيه جنرال","brand:ar":"سوسيتيه جنرال","brand:en":"Société Générale","brand:wikidata":"Q270363","name":"سوسيتيه جنرال","name:ar":"سوسيتيه جنرال","name:en":"Société Générale"}},"amenity/bicycle_rental/lime-ac52f5":{"name":"Lime","locationSet":{"include":["by","bg","cz","hu","pl","md","ro","ru","sk","ua","ax","gg","je","cq","dk","ee","fo","fi","is","ie","im","lv","lt","no","sj","se","gb","al","ad","ba","hr","gi","gr","va","it","mt","me","mk","pt","sm","rs","si","es","xk","at","be","fr","de","li","lu","mc","nl","ch","ae","au","ca","cl","il","jp","mx","nz","qa","us"]},"geometry":["point","vertex","area"],"matchScore":2,"terms":["lime"],"fields":["name","brand","{amenity/bicycle_rental}"],"preserveTags":["^name"],"tags":{"amenity":"bicycle_rental","brand:wikidata":"Q39086685"},"addTags":{"amenity":"bicycle_rental","brand":"Lime","brand:wikidata":"Q39086685"}},"amenity/bureau_de_change/alansariexchange-7792bb":{"name":"Al Ansari Exchange","locationSet":{"include":["ae"]},"geometry":["point","area"],"matchScore":2,"terms":["al ansari exchange","الأنصاري للصرافة"],"tags":{"amenity":"bureau_de_change","brand:wikidata":"Q132524657"},"addTags":{"amenity":"bureau_de_change","brand":"Al Ansari Exchange","brand:ar":"الأنصاري للصرافة","brand:en":"Al Ansari Exchange","brand:wikidata":"Q132524657","name":"Al Ansari Exchange","name:ar":"الأنصاري للصرافة","name:en":"Al Ansari Exchange"}},"amenity/cafe/coffee_shop/blacksheepcoffee-9244ab":{"name":"Black Sheep Coffee","locationSet":{"include":["ae","fr","gb","ph","us"]},"geometry":["point","area"],"matchScore":2,"terms":["black sheep coffee"],"reference":{"key":"cuisine","value":"coffee_shop"},"tags":{"amenity":"cafe","brand:wikidata":"Q109745011","cuisine":"coffee_shop"},"addTags":{"amenity":"cafe","brand":"Black Sheep Coffee","brand:wikidata":"Q109745011","cuisine":"coffee_shop","name":"Black Sheep Coffee","takeaway":"yes"}},"amenity/cafe/coffee_shop/cafefrei-b37b54":{"name":"Cafe Frei","locationSet":{"include":["ae","ch","fr","hr","hu","ro","sa","sk"]},"geometry":["point","area"],"matchScore":2,"terms":["cafe frei"],"reference":{"key":"cuisine","value":"coffee_shop"},"tags":{"amenity":"cafe","brand:wikidata":"Q105210995","cuisine":"coffee_shop"},"addTags":{"amenity":"cafe","brand":"Cafe Frei","brand:wikidata":"Q105210995","cuisine":"coffee_shop","name":"Cafe Frei","takeaway":"yes"}},"amenity/cafe/coffee_shop/caffenero-0d98f2":{"name":"Caffè Nero","locationSet":{"include":["ae","cy","gb","hr","ie","om","pl","se","tr","us"]},"geometry":["point","area"],"matchScore":2,"terms":["cafe nero","caffè nero"],"reference":{"key":"cuisine","value":"coffee_shop"},"tags":{"amenity":"cafe","brand:wikidata":"Q675808","cuisine":"coffee_shop"},"addTags":{"amenity":"cafe","brand":"Caffè Nero","brand:wikidata":"Q675808","cuisine":"coffee_shop","name":"Caffè Nero","takeaway":"yes"}},"amenity/cafe/bubble_tea/chichasanchen-e3839d":{"name":"Chicha San Chen","locationSet":{"include":["ae","au","ca","id","my","ph","ru","sg","us"]},"geometry":["point","area"],"matchScore":2,"terms":["chicha san chen","吃茶三千"],"reference":{"key":"cuisine","value":"bubble_tea"},"tags":{"amenity":"cafe","brand:wikidata":"Q133042869","cuisine":"bubble_tea"},"addTags":{"amenity":"cafe","brand":"Chicha San Chen","brand:en":"Chicha San Chen","brand:wikidata":"Q133042869","brand:zh":"吃茶三千","cuisine":"bubble_tea","name":"Chicha San Chen","name:en":"Chicha San Chen","name:zh":"吃茶三千","takeaway":"yes"}},"amenity/cafe/coffee_shop/ikeacafe-1552f9":{"name":"IKEA Café","locationSet":{"include":["ae","at","au","bh","ca","ch","cz","de","dk","es","hr","hu","it","jp","kr","kw","my","no","nz","ph","pl","ro","sa","si","sk"]},"geometry":["point","area"],"matchScore":2,"terms":["ikea"],"reference":{"key":"cuisine","value":"coffee_shop"},"tags":{"amenity":"cafe","brand:wikidata":"Q54078","cuisine":"coffee_shop"},"addTags":{"amenity":"cafe","brand":"IKEA","brand:wikidata":"Q54078","cuisine":"coffee_shop","name":"IKEA Café","takeaway":"yes"}},"amenity/cafe/coffee_shop/jamaicablue-941da9":{"name":"Jamaica Blue","locationSet":{"include":["ae","au","cn","gb","my","nz","sg"]},"geometry":["point","area"],"matchScore":2,"terms":["jamaica blue"],"reference":{"key":"cuisine","value":"coffee_shop"},"tags":{"amenity":"cafe","brand:wikidata":"Q24965819","cuisine":"coffee_shop"},"addTags":{"amenity":"cafe","brand":"Jamaica Blue","brand:wikidata":"Q24965819","cuisine":"coffee_shop","name":"Jamaica Blue","takeaway":"yes"}},"amenity/cafe/coffee_shop/juliusmeinl-d9fed5":{"name":"Julius Meinl","locationSet":{"include":["ae","at","ba","bg","cz","de","fx","hr","hu","it","md","pl","ro","rs","si","sk","tr","us"]},"geometry":["point","area"],"matchScore":2,"terms":["julius meinl"],"reference":{"key":"cuisine","value":"coffee_shop"},"tags":{"amenity":"cafe","brand:wikidata":"Q670154","cuisine":"coffee_shop"},"addTags":{"amenity":"cafe","brand":"Julius Meinl","brand:wikidata":"Q670154","cuisine":"coffee_shop","name":"Julius Meinl","takeaway":"yes"}},"amenity/cafe/coffee_shop/kahvedunyasi-9278bc":{"name":"Kahve Dünyası","locationSet":{"include":["ae","gb","kw","ro","sa","tr"]},"geometry":["point","area"],"matchScore":2,"terms":["kahve dünyası"],"reference":{"key":"cuisine","value":"coffee_shop"},"tags":{"amenity":"cafe","brand:wikidata":"Q28008050","cuisine":"coffee_shop"},"addTags":{"amenity":"cafe","brand":"Kahve Dünyası","brand:wikidata":"Q28008050","cuisine":"coffee_shop","name":"Kahve Dünyası","takeaway":"yes"}},"amenity/cafe/coffee_shop/mikel-349bad":{"name":"Mikel","locationSet":{"include":["ae","au","cy","de","eg","gb","gr","sa","us"]},"geometry":["point","area"],"matchScore":2,"terms":["mikel"],"reference":{"key":"cuisine","value":"coffee_shop"},"tags":{"amenity":"cafe","brand:wikidata":"Q16952021","cuisine":"coffee_shop"},"addTags":{"amenity":"cafe","brand":"Mikel","brand:wikidata":"Q16952021","cuisine":"coffee_shop","name":"Mikel","takeaway":"yes"}},"amenity/cafe/coffee_shop/muggandbean-72fcd2":{"name":"Mugg & Bean","locationSet":{"include":["ae","bw","ke","za"]},"geometry":["point","area"],"matchScore":2,"terms":["mugg & bean"],"reference":{"key":"cuisine","value":"coffee_shop"},"tags":{"amenity":"cafe","brand:wikidata":"Q6932113","cuisine":"coffee_shop"},"addTags":{"amenity":"cafe","brand":"Mugg & Bean","brand:wikidata":"Q6932113","cuisine":"coffee_shop","name":"Mugg & Bean","takeaway":"yes"}},"amenity/cafe/obriens-20e9d6":{"name":"O'Briens Café","locationSet":{"include":["ae","au","cn","gb","ie","my","nz","sg","th"]},"geometry":["point","area"],"matchScore":2,"terms":["o'briens"],"tags":{"amenity":"cafe","brand:wikidata":"Q7071686"},"addTags":{"amenity":"cafe","brand":"O'Briens","brand:wikidata":"Q7071686","cuisine":"sandwich","name":"O'Briens","takeaway":"yes"}},"amenity/cafe/bubble_tea/sharetea-aa818b":{"name":"Sharetea شيرتي","locationSet":{"include":["ae","kw"]},"geometry":["point","area"],"matchScore":2,"terms":["sharetea","شيرتي","歇腳亭"],"reference":{"key":"cuisine","value":"bubble_tea"},"tags":{"amenity":"cafe","brand:wikidata":"Q64827032","cuisine":"bubble_tea"},"addTags":{"amenity":"cafe","brand":"Sharetea","brand:wikidata":"Q64827032","cuisine":"bubble_tea","name":"Sharetea شيرتي","name:ar":"شيرتي","name:en":"Sharetea","name:zh":"歇腳亭","takeaway":"yes"}},"amenity/cafe/coffee_shop/simitcidunyasi-521ba4":{"name":"Simitçi Dünyası","locationSet":{"include":["ae","ca","de","nl","om","tr"]},"geometry":["point","area"],"matchScore":2,"terms":["simitçi dünyası"],"reference":{"key":"cuisine","value":"coffee_shop"},"tags":{"amenity":"cafe","brand:wikidata":"Q130348829","cuisine":"coffee_shop"},"addTags":{"amenity":"cafe","brand":"Simitçi Dünyası","brand:wikidata":"Q130348829","cuisine":"coffee_shop","name":"Simitçi Dünyası","takeaway":"yes"}},"amenity/cafe/coffee_shop/thebarn-72cbb9":{"name":"The Barn","locationSet":{"include":["ae","de","kr"]},"geometry":["point","area"],"matchScore":2,"terms":["the barn"],"reference":{"key":"cuisine","value":"coffee_shop"},"tags":{"amenity":"cafe","brand:wikidata":"Q110545264","cuisine":"coffee_shop"},"addTags":{"amenity":"cafe","brand":"The Barn","brand:wikidata":"Q110545264","cuisine":"coffee_shop","name":"The Barn","takeaway":"yes"}},"amenity/cafe/coffee_shop/thecoffee-0a0956":{"name":"The Coffee","locationSet":{"include":["ae","am","at","au","br","ca","cl","co","es","fr","gt","it","kr","mx","my","pe","pt","th"]},"geometry":["point","area"],"matchScore":2,"terms":["the coffee"],"reference":{"key":"cuisine","value":"coffee_shop"},"tags":{"amenity":"cafe","brand:wikidata":"Q112042753","cuisine":"coffee_shop"},"addTags":{"amenity":"cafe","brand":"The Coffee","brand:wikidata":"Q112042753","cuisine":"coffee_shop","name":"The Coffee","takeaway":"yes"}},"amenity/cafe/coffee_shop/wildandthemoon-50ce08":{"name":"Wild & The Moon","locationSet":{"include":["ae","fx","nl"]},"geometry":["point","area"],"matchScore":2,"terms":["wild & the moon"],"reference":{"key":"cuisine","value":"coffee_shop"},"tags":{"amenity":"cafe","brand:wikidata":"Q123098436","cuisine":"coffee_shop;juice;smoothie"},"addTags":{"amenity":"cafe","brand":"Wild & The Moon","brand:wikidata":"Q123098436","cuisine":"coffee_shop;juice;smoothie","diet:gluten_free":"yes","diet:vegan":"only","name":"Wild & The Moon","takeaway":"yes"}},"amenity/cafe/coffee_shop/timhortons-2ad4e1":{"name":"تيم هورتونز","locationSet":{"include":["ae","bh","jo","kw","om","qa","sa"]},"geometry":["point","area"],"matchScore":2,"terms":["tim hortons","تيم هورتونز"],"reference":{"key":"cuisine","value":"coffee_shop"},"tags":{"amenity":"cafe","brand:wikidata":"Q175106","cuisine":"coffee_shop"},"addTags":{"amenity":"cafe","brand":"تيم هورتونز","brand:ar":"تيم هورتونز","brand:en":"Tim Hortons","brand:wikidata":"Q175106","cuisine":"coffee_shop","name":"تيم هورتونز","name:ar":"تيم هورتونز","name:en":"Tim Hortons","takeaway":"yes"}},"amenity/cafe/coffee_shop/starbucks-0dcee5":{"name":"ستاربكس","locationSet":{"include":["ae","bh","dz","eg","iq","jo","kw","lb","ly","ma","om","qa","sa","tn"]},"geometry":["point","area"],"matchScore":2,"terms":["starbucks","starbucks coffee","starbucks middle east","ستاربكس","ستاربكس كافية"],"reference":{"key":"cuisine","value":"coffee_shop"},"tags":{"amenity":"cafe","brand:wikidata":"Q37158","cuisine":"coffee_shop"},"addTags":{"amenity":"cafe","brand":"ستاربكس","brand:ar":"ستاربكس","brand:en":"Starbucks","brand:wikidata":"Q37158","cuisine":"coffee_shop","name":"ستاربكس","name:ar":"ستاربكس","name:en":"Starbucks","official_name":"ستاربكس كافية","official_name:ar":"ستاربكس كافية","official_name:en":"Starbucks Coffee","takeaway":"yes"}},"amenity/cafe/coffee_shop/cariboucoffee-9bd633":{"name":"كاريبو كوفي","locationSet":{"include":["ae","bh","eg","kw","om","qa","sa"]},"geometry":["point","area"],"matchScore":2,"terms":["caribou coffee","كاريبو كوفي"],"reference":{"key":"cuisine","value":"coffee_shop"},"tags":{"amenity":"cafe","brand:wikidata":"Q5039494","cuisine":"coffee_shop"},"addTags":{"amenity":"cafe","brand":"كاريبو كوفي","brand:ar":"كاريبو كوفي","brand:en":"Caribou Coffee","brand:wikidata":"Q5039494","cuisine":"coffee_shop","name":"كاريبو كوفي","name:ar":"كاريبو كوفي","name:en":"Caribou Coffee","takeaway":"yes"}},"education/college/saeinstitute-7a11fb":{"name":"SAE Institute","locationSet":{"include":["ae","at","au","be","ca","ch","de","es","fr","gb","gr","id","it","jo","mx","nl","nz","rs","us","za"]},"geometry":["area","point"],"matchScore":2,"terms":["sae institute"],"fields":["name","brand","{education/college}"],"reference":{"key":"amenity","value":"college"},"preserveTags":["^name"],"tags":{"amenity":"college","brand:wikidata":"Q201438"},"addTags":{"amenity":"college","brand":"SAE Institute","brand:wikidata":"Q201438","name":"SAE Institute"}},"amenity/fast_food/sandwich/allanticovinaio-6b6fb0":{"name":"All'Antico Vinaio","locationSet":{"include":["ae","gb","it","us"]},"geometry":["point","area"],"matchScore":2,"terms":["all'antico vinaio"],"reference":{"key":"cuisine","value":"sandwich"},"tags":{"amenity":"fast_food","brand:wikidata":"Q136350648","cuisine":"sandwich"},"addTags":{"amenity":"fast_food","brand":"All'Antico Vinaio","brand:wikidata":"Q136350648","cuisine":"sandwich","name":"All'Antico Vinaio","takeaway":"yes"}},"amenity/fast_food/sandwich/bageterieboulevard-57c7d8":{"name":"Bageterie Boulevard","locationSet":{"include":["ae","cz","de","sk"]},"geometry":["point","area"],"matchScore":2,"terms":["bageterie boulevard"],"reference":{"key":"cuisine","value":"sandwich"},"tags":{"amenity":"fast_food","brand:wikidata":"Q10859823","cuisine":"sandwich"},"addTags":{"amenity":"fast_food","brand":"Bageterie Boulevard","brand:wikidata":"Q10859823","cuisine":"sandwich","name":"Bageterie Boulevard","takeaway":"yes"}},"amenity/fast_food/burger/bigfernand-8ddd61":{"name":"Big Fernand","locationSet":{"include":["ae","fr","lu"]},"geometry":["point","area"],"matchScore":2,"terms":["big fernand"],"reference":{"key":"cuisine","value":"burger"},"tags":{"amenity":"fast_food","brand:wikidata":"Q19521346","cuisine":"burger"},"addTags":{"amenity":"fast_food","brand":"Big Fernand","brand:wikidata":"Q19521346","cuisine":"burger","name":"Big Fernand","takeaway":"yes"}},"amenity/fast_food/burger/burgerfuel-ba88db":{"name":"BurgerFuel","locationSet":{"include":["ae","iq","nz","sa","us"]},"geometry":["point","area"],"matchScore":2,"terms":["burgerfuel"],"reference":{"key":"cuisine","value":"burger"},"tags":{"amenity":"fast_food","brand:wikidata":"Q4998537","cuisine":"burger"},"addTags":{"amenity":"fast_food","brand":"BurgerFuel","brand:wikidata":"Q4998537","cuisine":"burger","name":"BurgerFuel","takeaway":"yes"}},"amenity/fast_food/chicken/chickenstreet-f60ed0":{"name":"Chicken Street","locationSet":{"include":["ae","be","dz","fr","ma"]},"geometry":["point","area"],"matchScore":2,"terms":["chicken street"],"reference":{"key":"cuisine","value":"chicken"},"tags":{"amenity":"fast_food","brand:wikidata":"Q124669862","cuisine":"chicken"},"addTags":{"amenity":"fast_food","brand":"Chicken Street","brand:wikidata":"Q124669862","cuisine":"chicken","diet:halal":"only","name":"Chicken Street","takeaway":"yes"}},"amenity/fast_food/sandwich/cookdoor-5f7df6":{"name":"Cook Door","locationSet":{"include":["ae","eg"]},"geometry":["point","area"],"matchScore":2,"terms":["cook door"],"reference":{"key":"cuisine","value":"sandwich"},"tags":{"amenity":"fast_food","brand:wikidata":"Q12236500","cuisine":"sandwich"},"addTags":{"amenity":"fast_food","brand":"Cook Door","brand:wikidata":"Q12236500","cuisine":"sandwich","name":"Cook Door","takeaway":"yes"}},"amenity/fast_food/pizza/debonairspizza-10dad6":{"name":"Debonairs Pizza","locationSet":{"include":["ae","bw","ke","ls","mu","mw","mz","na","ng","sd","ss","sz","za","zm"]},"geometry":["point","area"],"matchScore":2,"terms":["debonairs","debonairs pizza"],"reference":{"key":"cuisine","value":"pizza"},"tags":{"amenity":"fast_food","brand:wikidata":"Q65079407","cuisine":"pizza"},"addTags":{"amenity":"fast_food","brand":"Debonairs Pizza","brand:wikidata":"Q65079407","cuisine":"pizza","name":"Debonairs Pizza","takeaway":"yes"}},"amenity/fast_food/burger/fiveguys-f701a8":{"name":"Five Guys","locationSet":{"include":["ae","at","au","be","bh","ca","cn","de","es","fr","gb","ie","it","kr","kw","lu","my","nl","qa","sa","se","sg","us"]},"geometry":["point","area"],"matchScore":2,"terms":["five guys","five guys burgers and fries"],"reference":{"key":"cuisine","value":"burger"},"tags":{"amenity":"fast_food","brand:wikidata":"Q1131810","cuisine":"burger"},"addTags":{"amenity":"fast_food","brand":"Five Guys","brand:wikidata":"Q1131810","cuisine":"burger","name":"Five Guys","official_name":"Five Guys Burgers and Fries","takeaway":"yes"}},"amenity/fast_food/chicken/galitos-00ffa4":{"name":"Galito's","locationSet":{"include":["ae","ca","cd","gh","in","ke","ls","mu","mw","pk","rs","sz","us","za","zm"]},"geometry":["point","area"],"matchScore":2,"terms":["galito's"],"reference":{"key":"cuisine","value":"chicken"},"tags":{"amenity":"fast_food","brand:wikidata":"Q116619555","cuisine":"chicken"},"addTags":{"amenity":"fast_food","brand":"Galito's","brand:wikidata":"Q116619555","cuisine":"chicken","name":"Galito's","takeaway":"yes"}},"amenity/fast_food/kebab/germandonerkebab-85aed8":{"name":"German Doner Kebab","locationSet":{"include":["ae","ca","gb","se","us"]},"geometry":["point","area"],"matchScore":2,"terms":["german doner kebab"],"reference":{"key":"cuisine","value":"kebab"},"tags":{"amenity":"fast_food","brand:wikidata":"Q112913418","cuisine":"kebab"},"addTags":{"amenity":"fast_food","brand":"German Doner Kebab","brand:wikidata":"Q112913418","cuisine":"kebab","name":"German Doner Kebab","takeaway":"yes"}},"amenity/fast_food/burger/giraffestop-c9a924":{"name":"Giraffe Stop","locationSet":{"include":["ae","es","gb"]},"geometry":["point","area"],"matchScore":2,"terms":["giraffe"],"reference":{"key":"cuisine","value":"burger"},"tags":{"amenity":"fast_food","brand:wikidata":"Q5564102","cuisine":"international;burger"},"addTags":{"amenity":"fast_food","brand":"Giraffe","brand:wikidata":"Q5564102","cuisine":"international;burger","name":"Giraffe Stop","takeaway":"yes"}},"amenity/fast_food/ikeabistro-e746e6":{"name":"IKEA Bistro","locationSet":{"include":["ae","at","au","bh","ca","ch","cn","cz","de","dk","es","fi","fr","gb","hr","hu","ie","in","it","jo","jp","kr","kw","ma","mx","my","no","nz","pl","pt","ro","rs","sa","se","sg","si","sk","us"]},"geometry":["point","area"],"matchScore":2,"terms":["ikea"],"tags":{"amenity":"fast_food","brand:wikidata":"Q54078"},"addTags":{"amenity":"fast_food","brand":"IKEA","brand:wikidata":"Q54078","cuisine":"swedish","name":"IKEA Bistro","takeaway":"yes"}},"amenity/fast_food/ikearestaurant-310c78":{"name":"IKEA Restaurant","locationSet":{"include":["ae","at","au","bh","ca","ch","cz","de","dk","eg","es","fi","fr","gb","hr","hu","ie","in","it","jo","jp","kr","kw","ma","mx","my","no","nz","ph","pl","pt","qa","ro","rs","sa","se","sg","si","sk","th","us"]},"geometry":["point","area"],"matchScore":2,"terms":["ikea","ikea restaurant","ресторан икеа"],"tags":{"amenity":"fast_food","brand:wikidata":"Q54078"},"addTags":{"amenity":"fast_food","brand":"IKEA","brand:wikidata":"Q54078","cuisine":"swedish","name":"IKEA Restaurant","name:en":"IKEA Restaurant","name:ru":"Ресторан ИКЕА","takeaway":"yes"}},"amenity/fast_food/jimmythegreek-bf41de":{"name":"Jimmy the Greek","locationSet":{"include":["ae","ca"]},"geometry":["point","area"],"matchScore":2,"terms":["jimmy the greek"],"tags":{"amenity":"fast_food","brand:wikidata":"Q17077817"},"addTags":{"amenity":"fast_food","brand":"Jimmy the Greek","brand:wikidata":"Q17077817","cuisine":"greek","name":"Jimmy the Greek","takeaway":"yes"}},"amenity/fast_food/donut/ladonuteria-369100":{"name":"La Donuteria","locationSet":{"include":["am","az","bh","cy","ge","iq","il","jo","kw","lb","om","qa","sa","ps","sy","tr","ae","ye","by","bg","cz","hu","pl","md","ro","ru","sk","ua","ax","gg","je","cq","dk","ee","fo","fi","is","ie","im","lv","lt","no","sj","se","gb","al","ad","ba","hr","gi","gr","va","it","mt","me","mk","pt","sm","rs","si","es","xk","at","be","fr","de","li","lu","mc","nl","ch"]},"geometry":["point","area"],"matchScore":2,"terms":["la donuteria"],"reference":{"key":"cuisine","value":"donut"},"tags":{"amenity":"fast_food","brand:wikidata":"Q136734522","cuisine":"donut;coffee_shop"},"addTags":{"alt_name":"La Donuteria","amenity":"fast_food","brand":"La Donuteria","brand:wikidata":"Q136734522","cuisine":"donut;coffee_shop","name":"La Donuteria","takeaway":"yes"}},"amenity/fast_food/oakberryacaibowls-5bb50d":{"name":"Oakberry Açaí bowls","locationSet":{"include":["ae","at","au","be","bh","br","ca","ch","cl","co","cy","de","dk","ec","ee","es","fr","gb","gr","hr","ie","il","it","mt","mx","nl","pe","pl","pt","py","qa","ro","sa","si","th","us"]},"geometry":["point","area"],"matchScore":2,"terms":["oakberry açaí bowls"],"tags":{"amenity":"fast_food","brand:wikidata":"Q104870840"},"addTags":{"amenity":"fast_food","brand":"Oakberry Açaí bowls","brand:wikidata":"Q104870840","cuisine":"açaí","name":"Oakberry Açaí bowls","takeaway":"yes"}},"amenity/fast_food/sandwich/panos-2bde2f":{"name":"Panos","locationSet":{"include":["ae","be","cz","lu","nl","sk","tw"]},"geometry":["point","area"],"matchScore":2,"terms":["panos"],"reference":{"key":"cuisine","value":"sandwich"},"tags":{"amenity":"fast_food","brand:wikidata":"Q3384496","cuisine":"sandwich"},"addTags":{"amenity":"fast_food","brand":"Panos","brand:wikidata":"Q3384496","cuisine":"sandwich","name":"Panos","takeaway":"yes"}},"amenity/fast_food/pitaya-9eb450":{"name":"Pitaya","locationSet":{"include":["ad","ae","es","fx","gb","it","tn"]},"geometry":["point","area"],"matchScore":2,"terms":["pitaya"],"tags":{"amenity":"fast_food","brand:wikidata":"Q114970230"},"addTags":{"amenity":"fast_food","brand":"Pitaya","brand:wikidata":"Q114970230","cuisine":"thai","delivery":"yes","name":"Pitaya","takeaway":"yes"}},"amenity/fast_food/sandwich/pretamanger-a11118":{"name":"Pret A Manger","locationSet":{"include":["ae","cn","de","dk","es","fr","gb","ie","in","nl","pt","sg","us"]},"geometry":["point","area"],"matchScore":2,"terms":["pret","pret a manger","veggie pret"],"reference":{"key":"cuisine","value":"sandwich"},"tags":{"amenity":"fast_food","brand:wikidata":"Q2109109","cuisine":"sandwich"},"addTags":{"amenity":"fast_food","brand":"Pret A Manger","brand:wikidata":"Q2109109","cuisine":"sandwich","name":"Pret A Manger","short_name":"Pret","takeaway":"yes"}},"amenity/fast_food/sushishop-ac545e":{"name":"Sushi Shop (Europe)","locationSet":{"include":["ae","be","ch","de","es","fr","gb","it","lu","pt","sa"]},"geometry":["point","area"],"matchScore":2,"terms":["sushi shop"],"tags":{"amenity":"fast_food","brand:wikidata":"Q3505657"},"addTags":{"amenity":"fast_food","brand":"Sushi Shop","brand:wikidata":"Q3505657","cuisine":"sushi","name":"Sushi Shop","takeaway":"yes"}},"amenity/fast_food/tacobell-09585c":{"name":"Taco Bell","locationSet":{"include":["ae","ar","au","aw","ba","br","ca","cl","co","cr","cy","de","do","dz","ec","es","fi","fr","gb","gt","gu","id","ie","in","is","it","jp","kr","kw","lk","mx","my","nl","nz","pa","pe","ph","pr","pt","ro","se","sv","th","us"]},"geometry":["point","area"],"matchScore":2,"terms":["taco bell"],"tags":{"amenity":"fast_food","brand:wikidata":"Q752941"},"addTags":{"amenity":"fast_food","brand":"Taco Bell","brand:wikidata":"Q752941","cuisine":"tex-mex","name":"Taco Bell","takeaway":"yes"}},"amenity/fast_food/chicken/texaschicken-a57bb7":{"name":"Texas Chicken","locationSet":{"include":["ae","bh","by","id","iq","my","nz","om","qa","sa","sg","th"]},"geometry":["point","area"],"matchScore":2,"terms":["church's chicken","church's texas chicken","church's texas chicken®","texas chicken"],"reference":{"key":"cuisine","value":"chicken"},"tags":{"amenity":"fast_food","brand:wikidata":"Q1089932","cuisine":"chicken"},"addTags":{"alt_name":"Church's Chicken","amenity":"fast_food","brand":"Texas Chicken","brand:wikidata":"Q1089932","cuisine":"chicken","name":"Texas Chicken","takeaway":"yes"}},"amenity/fast_food/pizza/thepizzacompany-abbb1f":{"name":"The Pizza Company","locationSet":{"include":["ae","bh","cn","jo","kh","la","mm","my","sa","th","vn"]},"geometry":["point","area"],"matchScore":2,"terms":["pizza company","the pizza company"],"reference":{"key":"cuisine","value":"pizza"},"tags":{"amenity":"fast_food","brand:wikidata":"Q2413520","cuisine":"pizza"},"addTags":{"alt_name":"Pizza Company","amenity":"fast_food","brand":"The Pizza Company","brand:wikidata":"Q2413520","cuisine":"pizza","name":"The Pizza Company","takeaway":"yes"}},"amenity/fast_food/tortilla-99527b":{"name":"Tortilla","locationSet":{"include":["ae","gb","sa"]},"geometry":["point","area"],"matchScore":2,"terms":["tortilla"],"tags":{"amenity":"fast_food","brand:wikidata":"Q21006828"},"addTags":{"amenity":"fast_food","brand":"Tortilla","brand:wikidata":"Q21006828","cuisine":"tex-mex","name":"Tortilla","takeaway":"yes"}},"amenity/fast_food/sandwich/whichwich-536de9":{"name":"Which Wich?","locationSet":{"include":["ae","gb","gt","mx","om","qa","sa","us"]},"geometry":["point","area"],"matchScore":2,"terms":["which wich?"],"reference":{"key":"cuisine","value":"sandwich"},"tags":{"amenity":"fast_food","brand:wikidata":"Q7993556","cuisine":"sandwich"},"addTags":{"amenity":"fast_food","brand":"Which Wich?","brand:wikidata":"Q7993556","cuisine":"sandwich","name":"Which Wich?","takeaway":"yes"}},"amenity/fast_food/wings/wingstop-72c67c":{"name":"Wingstop","locationSet":{"include":["ae","ca","es","fx","gb","id","mx","sg","us"]},"geometry":["point","area"],"matchScore":2,"terms":["wingstop"],"reference":{"key":"cuisine","value":"wings"},"tags":{"amenity":"fast_food","brand:wikidata":"Q8025339","cuisine":"wings"},"addTags":{"amenity":"fast_food","brand":"Wingstop","brand:wikidata":"Q8025339","cuisine":"wings","name":"Wingstop","takeaway":"yes"}},"amenity/fast_food/woktowalk-f5ada9":{"name":"Wok to Walk","locationSet":{"include":["ae","bg","co","cy","ec","ee","es","fx","gb","il","in","it","lt","lv","ma","mt","mx","nl","om","pa","pt","qa","sa","us"]},"geometry":["point","area"],"matchScore":2,"terms":["wok to walk"],"tags":{"amenity":"fast_food","brand:wikidata":"Q4020634"},"addTags":{"amenity":"fast_food","brand":"Wok to Walk","brand:wikidata":"Q4020634","cuisine":"asian","name":"Wok to Walk","takeaway":"yes"}},"amenity/fast_food/pizza/yellowcabpizza-88fce7":{"name":"Yellow Cab Pizza","locationSet":{"include":["ae","ph","qa"]},"geometry":["point","area"],"matchScore":2,"terms":["yellow cab pizza"],"reference":{"key":"cuisine","value":"pizza"},"tags":{"amenity":"fast_food","brand:wikidata":"Q8051689","cuisine":"pizza"},"addTags":{"amenity":"fast_food","brand":"Yellow Cab Pizza","brand:wikidata":"Q8051689","cuisine":"pizza","name":"Yellow Cab Pizza","takeaway":"yes"}},"amenity/fast_food/chicken/altazaj-7c76bb":{"name":"الطازج","locationSet":{"include":["ae","bh","eg","jo","kw","lb","my","om","qa","sa","td","ye"]},"geometry":["point","area"],"matchScore":2,"terms":["al tazaj","الطازج"],"reference":{"key":"cuisine","value":"chicken"},"tags":{"amenity":"fast_food","brand:wikidata":"Q4704878","cuisine":"chicken"},"addTags":{"amenity":"fast_food","brand":"الطازج","brand:ar":"الطازج","brand:en":"Al Tazaj","brand:wikidata":"Q4704878","cuisine":"chicken","name":"الطازج","name:ar":"الطازج","name:en":"Al Tazaj","takeaway":"yes"}},"amenity/fast_food/donut/dunkindonuts-07d3e5":{"name":"دانكن دونتس","locationSet":{"include":["ae","bh","eg","kw","lb","om","qa","sa"]},"geometry":["point","area"],"matchScore":2,"terms":["dunkin'","dunkin' donuts","dunkin's","دانكن","دانكن دونتس"],"reference":{"key":"cuisine","value":"donut"},"tags":{"amenity":"fast_food","brand:wikidata":"Q847743","cuisine":"donut;coffee_shop"},"addTags":{"amenity":"fast_food","brand":"دانكن","brand:ar":"دانكن","brand:en":"Dunkin'","brand:wikidata":"Q847743","cuisine":"donut;coffee_shop","name":"دانكن دونتس","name:ar":"دانكن دونتس","name:en":"Dunkin' Donuts","takeaway":"yes"}},"amenity/fast_food/chicken/kfc-15a250":{"name":"دجاج كنتاكي","locationSet":{"include":["ae","bh","eg","iq","jo","kw","lb","ly","ma","om","qa","sa","sd","sy","tn","ye"]},"geometry":["point","area"],"matchScore":2,"terms":["kfc","دجاج كنتاكي"],"reference":{"key":"cuisine","value":"chicken"},"tags":{"amenity":"fast_food","brand:wikidata":"Q524757","cuisine":"chicken"},"addTags":{"amenity":"fast_food","brand":"دجاج كنتاكي","brand:ar":"دجاج كنتاكي","brand:en":"KFC","brand:wikidata":"Q524757","cuisine":"chicken","name":"دجاج كنتاكي","name:ar":"دجاج كنتاكي","name:en":"KFC","takeaway":"yes"}},"amenity/fast_food/donut/krispykrem-e5f89b":{"name":"كرسبي كريم","locationSet":{"include":["ae","bh","eg","kw","lb","qa","sa"]},"geometry":["point","area"],"matchScore":2,"terms":["krispy krem","كرسبي كريم"],"reference":{"key":"cuisine","value":"donut"},"tags":{"amenity":"fast_food","brand:wikidata":"Q1192805","cuisine":"donut"},"addTags":{"amenity":"fast_food","brand":"كرسبي كريم","brand:ar":"كرسبي كريم","brand:en":"Krispy Krem","brand:wikidata":"Q1192805","cuisine":"donut","name":"كرسبي كريم","name:ar":"كرسبي كريم","name:en":"Krispy Krem","takeaway":"yes"}},"amenity/fast_food/sandwich/kudu-1b3be3":{"name":"كودو","locationSet":{"include":["ae","bh","jo","sa","sd"]},"geometry":["point","area"],"matchScore":2,"terms":["kudu","كودو"],"reference":{"key":"cuisine","value":"sandwich"},"tags":{"amenity":"fast_food","brand:wikidata":"Q6441777","cuisine":"sandwich"},"addTags":{"amenity":"fast_food","brand":"كودو","brand:ar":"كودو","brand:en":"Kudu","brand:wikidata":"Q6441777","cuisine":"sandwich","name":"كودو","name:ar":"كودو","name:en":"Kudu","takeaway":"yes"}},"amenity/fast_food/burger/mcdonalds-19c993":{"name":"ماكدونالدز","locationSet":{"include":["ae","bh","eg","iq","jo","kw","lb","ma","om","qa","sa","sy","tn"]},"geometry":["point","area"],"matchScore":2,"terms":["mcdonald's","ماكدونالدز"],"reference":{"key":"cuisine","value":"burger"},"tags":{"amenity":"fast_food","brand:wikidata":"Q38076","cuisine":"burger"},"addTags":{"amenity":"fast_food","brand":"ماكدونالدز","brand:ar":"ماكدونالدز","brand:en":"McDonald's","brand:wikidata":"Q38076","cuisine":"burger","name":"ماكدونالدز","name:ar":"ماكدونالدز","name:en":"McDonald's","takeaway":"yes"}},"amenity/fast_food/burger/herfy-5a6b9f":{"name":"هرفي","locationSet":{"include":["ae","bd","bh","eg","kw","sa"]},"geometry":["point","area"],"matchScore":2,"terms":["herfy","هرفي"],"reference":{"key":"cuisine","value":"burger"},"tags":{"amenity":"fast_food","brand:wikidata":"Q5738371","cuisine":"burger"},"addTags":{"amenity":"fast_food","brand":"هرفي","brand:ar":"هرفي","brand:en":"Herfy","brand:wikidata":"Q5738371","cuisine":"burger","name":"هرفي","name:ar":"هرفي","name:en":"Herfy","takeaway":"yes"}},"amenity/fuel/caltex-a02c05":{"name":"Caltex","locationSet":{"include":["ae","au","eg","hk","id","kh","kr","lk","my","nz","ph","pk","sa","sg","th","vn","za"]},"geometry":["point","area"],"matchScore":2,"terms":["caltex"],"fields":["name","brand","{amenity/fuel}"],"preserveTags":["^name"],"tags":{"amenity":"fuel","brand:wikidata":"Q277470"},"addTags":{"amenity":"fuel","brand":"Caltex","brand:wikidata":"Q277470","name":"Caltex"}},"amenity/fuel/emarat-b7987c":{"name":"Emarat","locationSet":{"include":["ae"]},"geometry":["point","area"],"matchScore":2,"terms":["emarat","امارات"],"fields":["name","brand","{amenity/fuel}"],"preserveTags":["^name"],"tags":{"amenity":"fuel","brand:wikidata":"Q127377494"},"addTags":{"amenity":"fuel","brand":"Emarat","brand:ar":"امارات","brand:en":"Emarat","brand:wikidata":"Q127377494","name":"Emarat","name:ar":"امارات","name:en":"Emarat"}},"amenity/fuel/adnoc-cfa330":{"name":"أدنوك","locationSet":{"include":["ae","sa"]},"geometry":["point","area"],"matchScore":2,"terms":["adnoc","adnoc service station","أدنوك","ادنوك"],"fields":["name","brand","{amenity/fuel}"],"preserveTags":["^name"],"tags":{"amenity":"fuel","brand:wikidata":"Q166729"},"addTags":{"amenity":"fuel","brand":"أدنوك","brand:ar":"أدنوك","brand:en":"ADNOC","brand:wikidata":"Q166729","name":"أدنوك","name:ar":"أدنوك","name:en":"ADNOC"}},"amenity/fuel/enoc-7d34dd":{"name":"اينوك","locationSet":{"include":["ae","bh","kw","om","qa","sa","ye"]},"geometry":["point","area"],"matchScore":2,"terms":["enoc","اينوك"],"fields":["name","brand","{amenity/fuel}"],"preserveTags":["^name"],"tags":{"amenity":"fuel","brand:wikidata":"Q3045998"},"addTags":{"amenity":"fuel","brand":"اينوك","brand:ar":"اينوك","brand:en":"ENOC","brand:wikidata":"Q3045998","name":"اينوك","name:ar":"اينوك","name:en":"ENOC"}},"amenity/fuel/total-7d34dd":{"name":"توتال","locationSet":{"include":["ae","bh","kw","om","qa","sa","ye"]},"geometry":["point","area"],"matchScore":2,"terms":["total","توتال"],"fields":["name","brand","{amenity/fuel}"],"preserveTags":["^name"],"tags":{"amenity":"fuel","brand:wikidata":"Q154037"},"addTags":{"amenity":"fuel","brand":"توتال","brand:ar":"توتال","brand:en":"Total","brand:wikidata":"Q154037","name":"توتال","name:ar":"توتال","name:en":"Total"}},"amenity/ice_cream/aftersoriginal-22b8b7":{"name":"Afters Original","locationSet":{"include":["ae","gb"]},"geometry":["point","area"],"matchScore":2,"terms":["afters"],"tags":{"amenity":"ice_cream","brand:wikidata":"Q111811913"},"addTags":{"amenity":"ice_cream","brand":"Afters","brand:wikidata":"Q111811913","name":"Afters Original"}},"amenity/ice_cream/amorino-d14110":{"name":"Amorino","locationSet":{"include":["ae","ch","cz","de","es","fr","gb","gr","ie","it","lu","ma","mt","mx","pt","qa","us"]},"geometry":["point","area"],"matchScore":2,"terms":["amorino"],"tags":{"amenity":"ice_cream","brand:wikidata":"Q2843884"},"addTags":{"amenity":"ice_cream","brand":"Amorino","brand:wikidata":"Q2843884","name":"Amorino"}},"amenity/ice_cream/laromana-6081d9":{"name":"La Romana","locationSet":{"include":["ae","at","bh","de","es","fr","it","pt","ro","sa"]},"geometry":["point","area"],"matchScore":2,"terms":["la romana"],"tags":{"amenity":"ice_cream","brand:wikidata":"Q136465428"},"addTags":{"amenity":"ice_cream","brand":"La Romana","brand:wikidata":"Q136465428","name":"La Romana"}},"amenity/ice_cream/frozen_yogurt/menchies-411174":{"name":"Menchie's","locationSet":{"include":["ae","bh","bs","ca","cn","gb","in","jp","kw","qa","sa","us"]},"geometry":["point","area"],"matchScore":2,"terms":["menchie's","menchie's frozen yoghurt","menchie's frozen yogurt"],"reference":{"key":"cuisine","value":"frozen_yogurt"},"tags":{"amenity":"ice_cream","brand:wikidata":"Q6816528","cuisine":"frozen_yogurt"},"addTags":{"amenity":"ice_cream","brand":"Menchie's","brand:wikidata":"Q6816528","cuisine":"frozen_yogurt","name":"Menchie's"}},"amenity/ice_cream/redmango-73fcc9":{"name":"Red Mango","locationSet":{"include":["ae","bh","eg","kw","mx","qa","sa","sv","us"]},"geometry":["point","area"],"matchScore":2,"terms":["red mango"],"tags":{"amenity":"ice_cream","brand:wikidata":"Q7304565"},"addTags":{"amenity":"ice_cream","brand":"Red Mango","brand:wikidata":"Q7304565","name":"Red Mango"}},"amenity/ice_cream/frozen_yogurt/yogurtland-4111ef":{"name":"Yogurtland","locationSet":{"include":["ae","au","bh","kw","mm","qa","sa","sg","th","us","ve"]},"geometry":["point","area"],"matchScore":2,"terms":["yogurtland"],"reference":{"key":"cuisine","value":"frozen_yogurt"},"tags":{"amenity":"ice_cream","brand:wikidata":"Q8054428","cuisine":"frozen_yogurt"},"addTags":{"amenity":"ice_cream","brand":"Yogurtland","brand:wikidata":"Q8054428","cuisine":"frozen_yogurt","name":"Yogurtland","takeaway":"yes"}},"education/kindergarten/kido-0883b2":{"name":"Kïdo","locationSet":{"include":["ae","gb","hk","in","us"]},"geometry":["area","point"],"matchScore":2,"terms":["kido","kïdo","kïdo international preschool"],"fields":["name","brand","{education/kindergarten}"],"reference":{"key":"amenity","value":"kindergarten"},"preserveTags":["^name"],"tags":{"amenity":"kindergarten","brand:wikidata":"Q104849185"},"addTags":{"alt_name":"Kido","amenity":"kindergarten","brand":"Kïdo","brand:wikidata":"Q104849185","fee":"yes","isced:level":"0","name":"Kïdo","nursery":"yes","official_name":"Kïdo International Preschool","preschool":"yes"}},"amenity/pharmacy/asterpharmacy-15bf8e":{"name":"Aster Pharmacy","locationSet":{"include":["ae"]},"geometry":["point","area"],"matchScore":2,"terms":["aster pharmacy"],"reference":{"key":"amenity","value":"pharmacy"},"tags":{"amenity":"pharmacy","brand:wikidata":"Q124453575"},"addTags":{"amenity":"pharmacy","brand":"Aster Pharmacy","brand:wikidata":"Q124453575","healthcare":"pharmacy","name":"Aster Pharmacy"}},"education/prep_school/mathnasium-9561b7":{"name":"Mathnasium","locationSet":{"include":["ae","au","bh","ca","gb","mx","ro","sa","sg","us","vn"]},"geometry":["point","area"],"matchScore":2,"terms":["mathnasium","mathnasium learning center"],"fields":["name","brand","{education/prep_school}"],"reference":{"key":"amenity","value":"prep_school"},"preserveTags":["^name"],"tags":{"amenity":"prep_school","brand:wikidata":"Q6787302"},"addTags":{"amenity":"prep_school","brand":"Mathnasium","brand:wikidata":"Q6787302","name":"Mathnasium"}},"amenity/restaurant/barbecue/barbequenation-1f583a":{"name":"Barbeque Nation","locationSet":{"include":["ae","in","om"]},"geometry":["point","area"],"matchScore":2,"terms":["barbeque nation"],"reference":{"key":"cuisine","value":"barbecue"},"tags":{"amenity":"restaurant","brand:wikidata":"Q4859568","cuisine":"barbecue"},"addTags":{"amenity":"restaurant","brand":"Barbeque Nation","brand:wikidata":"Q4859568","cuisine":"barbecue","name":"Barbeque Nation"}},"amenity/restaurant/pizza/chuckecheese-826402":{"name":"Chuck E. Cheese","locationSet":{"include":["ae","bh","ca","ch","co","gt","hn","mx","pa","pe","qa","sa","sr","sv","tt","us"]},"geometry":["point","area"],"matchScore":2,"terms":["chuck e. cheese","chuck e. cheese's"],"reference":{"key":"cuisine","value":"pizza"},"tags":{"amenity":"restaurant","brand:wikidata":"Q2438391","cuisine":"pizza"},"addTags":{"amenity":"restaurant","brand":"Chuck E. Cheese","brand:wikidata":"Q2438391","cuisine":"pizza","leisure":"amusement_arcade","name":"Chuck E. Cheese"}},"amenity/restaurant/dintaifung-4a64f1":{"name":"Din Tai Fung","locationSet":{"include":["ae","au","gb","id","jp","kr","mo","my","ph","sg","th","us"]},"geometry":["point","area"],"matchScore":2,"terms":["din tai fung","鼎泰豐"],"tags":{"amenity":"restaurant","brand:wikidata":"Q699142"},"addTags":{"amenity":"restaurant","brand":"Din Tai Fung","brand:en":"Din Tai Fung","brand:wikidata":"Q699142","brand:zh":"鼎泰豐","cuisine":"taiwanese","name":"Din Tai Fung","name:en":"Din Tai Fung","name:zh":"鼎泰豐"}},"amenity/restaurant/giraffe-c20144":{"name":"Giraffe","locationSet":{"include":["ae","es","gb"]},"geometry":["point","area"],"matchScore":2,"terms":["giraffe"],"tags":{"amenity":"restaurant","brand:wikidata":"Q5564102"},"addTags":{"amenity":"restaurant","brand":"Giraffe","brand:wikidata":"Q5564102","cuisine":"international;burger","name":"Giraffe"}},"amenity/restaurant/kennyrogersroasters-66fc2f":{"name":"Kenny Rogers Roasters","locationSet":{"include":["ae","bn","my","ph"]},"geometry":["point","area"],"matchScore":2,"terms":["kenny rogers roasters"],"tags":{"amenity":"restaurant","brand:wikidata":"Q6391200"},"addTags":{"amenity":"restaurant","brand":"Kenny Rogers Roasters","brand:wikidata":"Q6391200","cuisine":"chicken","name":"Kenny Rogers Roasters"}},"amenity/restaurant/pizza/lanticapizzeriadamichele-762625":{"name":"L'Antica Pizzeria da Michele","locationSet":{"include":["ae","al","au","be","ch","de","es","fx","gb","it","jp","ly","mt","nl","sa","sg","th","us","xk"]},"geometry":["point","area"],"matchScore":2,"terms":["l'antica pizzeria da michele"],"reference":{"key":"cuisine","value":"pizza"},"tags":{"amenity":"restaurant","brand:wikidata":"Q137571344","cuisine":"pizza"},"addTags":{"amenity":"restaurant","brand":"L'Antica Pizzeria da Michele","brand:wikidata":"Q137571344","cuisine":"pizza","name":"L'Antica Pizzeria da Michele"}},"amenity/restaurant/barbecue/mightyquinns-55b11d":{"name":"Mighty Quinn's","locationSet":{"include":["ae","us"]},"geometry":["point","area"],"matchScore":2,"terms":["mighty quinn's"],"reference":{"key":"cuisine","value":"barbecue"},"tags":{"amenity":"restaurant","brand:wikidata":"Q122209813","cuisine":"barbecue"},"addTags":{"amenity":"restaurant","brand":"Mighty Quinn's","brand:wikidata":"Q122209813","cuisine":"barbecue","name":"Mighty Quinn's"}},"amenity/restaurant/nandos-32ebee":{"name":"Nando's","locationSet":{"include":["ae","au","bd","bh","bw","ca","fj","gb","ie","in","mu","my","nz","om","pk","qa","sa","sg","sz","us","za","zm","zw"]},"geometry":["point","area"],"matchScore":2,"terms":["nando's"],"tags":{"amenity":"restaurant","brand:wikidata":"Q3472954"},"addTags":{"amenity":"restaurant","brand":"Nando's","brand:wikidata":"Q3472954","cuisine":"chicken;portuguese","name":"Nando's"}},"amenity/restaurant/seafood/oceanbasket-5d9698":{"name":"Ocean Basket","locationSet":{"include":["ae","bw","cy","gb","ke","kw","kz","mt","mu","na","ng","qa","ru","sa","sz","za","zw"]},"geometry":["point","area"],"matchScore":2,"terms":["ocean basket"],"reference":{"key":"cuisine","value":"seafood"},"tags":{"amenity":"restaurant","brand:wikidata":"Q62075311","cuisine":"seafood"},"addTags":{"amenity":"restaurant","brand":"Ocean Basket","brand:wikidata":"Q62075311","cuisine":"seafood","name":"Ocean Basket"}},"amenity/restaurant/pizza/pizzaexpress-ebbd3d":{"name":"PizzaExpress","locationSet":{"include":["ae","cy","es","gb","hk","id","ie","in","kw","mo","ph","sg"]},"geometry":["point","area"],"matchScore":2,"terms":["pizzaexpress"],"reference":{"key":"cuisine","value":"pizza"},"tags":{"amenity":"restaurant","brand:wikidata":"Q662845","cuisine":"pizza"},"addTags":{"amenity":"restaurant","brand":"PizzaExpress","brand:wikidata":"Q662845","cuisine":"pizza","name":"PizzaExpress"}},"amenity/restaurant/american/ponderosasteakhouse-56c3a6":{"name":"Ponderosa Steakhouse","locationSet":{"include":["ae","eg","qa","us"]},"geometry":["point","area"],"matchScore":2,"terms":["ponderosa","ponderosa steakhouse","龐德羅莎"],"reference":{"key":"cuisine","value":"american"},"tags":{"amenity":"restaurant","brand:wikidata":"Q64038204","cuisine":"american;steak;buffet"},"addTags":{"amenity":"restaurant","brand":"Ponderosa Steakhouse","brand:en":"Ponderosa Steakhouse","brand:wikidata":"Q64038204","brand:zh":"龐德羅莎","cuisine":"american;steak;buffet","name":"Ponderosa Steakhouse","name:en":"Ponderosa Steakhouse","name:zh":"龐德羅莎"}},"education/school/maplebear-101006":{"name":"Maple Bear","locationSet":{"include":["ae","al","ar","au","bd","bg","br","ca","gt","hk","hr","in","ke","kr","lk","ma","mx","my","np","om","pe","ph","py","ro","rs","sg","th","tk","ua","us","vn"]},"geometry":["area","point"],"matchScore":2,"terms":["maple bear"],"fields":["name","brand","{education/school}"],"reference":{"key":"amenity","value":"school"},"preserveTags":["^name"],"tags":{"amenity":"school","brand:wikidata":"Q10324823"},"addTags":{"amenity":"school","brand":"Maple Bear","brand:wikidata":"Q10324823","name":"Maple Bear"}},"craft/signmaker/fastsigns-4c87b7":{"name":"Fastsigns","locationSet":{"include":["ae","ca","cl","gb","ky","mx","sa","us"]},"geometry":["point","area"],"matchScore":2,"terms":["fastsigns"],"tags":{"brand:wikidata":"Q5437127","craft":"signmaker"},"addTags":{"brand":"Fastsigns","brand:wikidata":"Q5437127","craft":"signmaker","name":"Fastsigns"}},"healthcare/laboratory/unilabs-99f3b6":{"name":"Unilabs","locationSet":{"include":["by","bg","cz","hu","pl","md","ro","ru","sk","ua","ax","gg","je","cq","dk","ee","fo","fi","is","ie","im","lv","lt","no","sj","se","gb","al","ad","ba","hr","gi","gr","va","it","mt","me","mk","pt","sm","rs","si","es","xk","at","be","fr","de","li","lu","mc","nl","ch","ae","pe"],"exclude":["fx"]},"geometry":["point","area"],"matchScore":2,"terms":["unilabs"],"fields":["name","brand","{healthcare/laboratory}"],"preserveTags":["^name"],"tags":{"brand:wikidata":"Q134885714","healthcare":"laboratory"},"addTags":{"brand":"Unilabs","brand:wikidata":"Q134885714","healthcare":"laboratory","name":"Unilabs"}},"landuse/industrial/gebruderweiss-dd5b7d":{"name":"Gebrüder Weiss","locationSet":{"include":["kz","kg","tj","tm","uz","cn","hk","mo","kp","jp","mn","kr","bn","kh","id","la","my","mm","ph","sg","th","tl","vn","af","bd","bt","in","ir","mv","np","pk","lk","am","az","bh","cy","ge","iq","il","jo","kw","lb","om","qa","sa","ps","sy","tr","ae","ye","by","bg","cz","hu","pl","md","ro","ru","sk","ua","ax","gg","je","cq","dk","ee","fo","fi","is","ie","im","lv","lt","no","sj","se","gb","al","ad","ba","hr","gi","gr","va","it","mt","me","mk","pt","sm","rs","si","es","xk","at","be","fr","de","li","lu","mc","nl","ch","au","ca","nz","us"]},"geometry":["area"],"matchScore":2,"terms":["gebrüder weiss"],"fields":["name","brand","{landuse/industrial}"],"preserveTags":["^name"],"tags":{"brand:wikidata":"Q1497233","landuse":"industrial"},"addTags":{"brand":"Gebrüder Weiss","brand:wikidata":"Q1497233","industrial":"warehouse","landuse":"industrial","name":"Gebrüder Weiss"}},"leisure/fitness_centre/barrys-1b6d66":{"name":"Barry's","locationSet":{"include":["ae","au","ca","de","dk","es","fr","gb","it","mx","no","qa","se","sg","us"]},"geometry":["point","area"],"matchScore":2,"terms":["barry's"],"tags":{"brand:wikidata":"Q96373178","leisure":"fitness_centre"},"addTags":{"brand":"Barry's","brand:wikidata":"Q96373178","leisure":"fitness_centre","name":"Barry's"}},"leisure/fitness_centre/fitnessfirst-6ff977":{"name":"Fitness First","locationSet":{"include":["ae","au","de","gb","ph","th"]},"geometry":["point","area"],"matchScore":2,"terms":["fitness first"],"tags":{"brand:wikidata":"Q127120","leisure":"fitness_centre"},"addTags":{"brand":"Fitness First","brand:wikidata":"Q127120","leisure":"fitness_centre","name":"Fitness First"}},"leisure/fitness_centre/goldsgym-72c4b8":{"name":"Gold's Gym","locationSet":{"include":["ae","ca","in","ph","us"]},"geometry":["point","area"],"matchScore":2,"terms":["gold's gym"],"tags":{"brand:wikidata":"Q1536234","leisure":"fitness_centre"},"addTags":{"brand":"Gold's Gym","brand:wikidata":"Q1536234","leisure":"fitness_centre","name":"Gold's Gym"}},"leisure/fitness_centre/snapfitness-551086":{"name":"Snap Fitness","locationSet":{"include":["ae","au","be","ca","es","gb","hk","id","ie","jp","mx","nl","nz","ph","tr","tw","us"]},"geometry":["point","area"],"matchScore":2,"terms":["snap fitness"],"tags":{"brand:wikidata":"Q7547254","leisure":"fitness_centre"},"addTags":{"brand":"Snap Fitness","brand:wikidata":"Q7547254","leisure":"fitness_centre","name":"Snap Fitness"}},"leisure/fitness_centre/fitnesstime-2210cf":{"name":"وقت اللياقة","locationSet":{"include":["ae","sa"]},"geometry":["point","area"],"matchScore":2,"terms":["fitness time","وقت اللياقة"],"tags":{"brand:wikidata":"Q105710068","leisure":"fitness_centre"},"addTags":{"brand":"وقت اللياقة","brand:ar":"وقت اللياقة","brand:en":"Fitness Time","brand:wikidata":"Q105710068","leisure":"fitness_centre","name":"وقت اللياقة","name:ar":"وقت اللياقة","name:en":"Fitness Time"}},"leisure/indoor_play/smaland-06dcc1":{"name":"IKEA Småland","locationSet":{"include":["ae","au","ca","ch","cn","cz","de","dk","eg","es","fi","gb","hr","hu","ie","in","it","jp","kr","kw","my","no","nz","ph","pl","pt","qa","ro","rs","se","sg","si","sk","us"]},"geometry":["point","area"],"matchScore":2,"terms":["ikea"],"tags":{"brand:wikidata":"Q54078","leisure":"indoor_play"},"addTags":{"brand":"IKEA","brand:wikidata":"Q54078","leisure":"indoor_play","name":"Småland"}},"leisure/sports_centre/topgolf-9025ef":{"name":"Topgolf","locationSet":{"include":["ae","au","cn","de","gb","mx","th","us"]},"geometry":["point","area"],"matchScore":2,"terms":["topgolf"],"fields":["name","brand","{leisure/sports_centre}"],"preserveTags":["^name"],"tags":{"brand:wikidata":"Q7824379","leisure":"sports_centre"},"addTags":{"brand":"Topgolf","brand:wikidata":"Q7824379","leisure":"sports_centre","name":"Topgolf","sport":"golf"}},"leisure/trampoline_park/skyzone-746047":{"name":"Sky Zone","locationSet":{"include":["ae","ca","co","gb","gt","in","mx","no","om","pk","sa","us"]},"geometry":["point","area"],"matchScore":2,"terms":["sky zone"],"tags":{"brand:wikidata":"Q7537557","leisure":"trampoline_park"},"addTags":{"brand":"Sky Zone","brand:wikidata":"Q7537557","leisure":"trampoline_park","name":"Sky Zone"}},"office/financial/muthootfinance-47d4e7":{"name":"Muthoot Finance","locationSet":{"include":["ae","gb","in","us"]},"geometry":["point","area"],"matchScore":2,"terms":["muthoot finance","muthoot india"],"tags":{"brand:wikidata":"Q6943861","office":"financial"},"addTags":{"brand":"Muthoot Finance","brand:wikidata":"Q6943861","name":"Muthoot Finance","office":"financial"}},"office/insurance/allianz-400bd0":{"name":"Allianz","locationSet":{"include":["ae","ar","at","au","be","bh","bm","bn","br","ca","cg","ch","ci","cm","cn","co","cy","cz","de","dk","ee","eg","es","fi","fr","gb","gg","gh","gr","hr","hu","id","ie","in","is","it","ja","ke","kr","kw","la","li","lk","lt","lu","lv","ma","mg","mx","my","ng","nl","no","nz","om","ph","pk","pl","pt","qa","ro","ru","sa","se","sg","si","sk","sn","th","tr","tw","ua","us","za"]},"geometry":["point","area"],"matchScore":2,"terms":["allianz","allianz versicherung"],"fields":["name","brand","{office/insurance}"],"preserveTags":["^name"],"tags":{"brand:wikidata":"Q487292","office":"insurance"},"addTags":{"brand":"Allianz","brand:wikidata":"Q487292","name":"Allianz","office":"insurance"}},"office/insurance/axa-1820e0":{"name":"AXA","locationSet":{"include":["ae","ar","au","be","bh","bm","br","ca","ch","ci","cl","cm","cn","co","cz","de","dk","dz","eg","es","fi","fr","ga","gb","gr","id","ie","in","it","jp","kr","lb","lu","ma","mu","mx","my","ng","nl","no","om","pa","pe","ph","pl","pt","qa","sa","se","sg","sk","sn","th","tr","tw","us"]},"geometry":["point","area"],"matchScore":2,"terms":["axa"],"fields":["name","brand","{office/insurance}"],"preserveTags":["^name"],"tags":{"brand:wikidata":"Q160054","office":"insurance"},"addTags":{"brand":"AXA","brand:wikidata":"Q160054","name":"AXA","office":"insurance"}},"office/insurance/zurich-a7d045":{"name":"Zurich","locationSet":{"include":["ae","at","au","be","bh","br","ca","ch","cl","cn","co","de","ec","es","fi","fr","gb","id","ie","it","ja","kw","lb","li","lu","mx","my","nl","no","nz","om","pt","qa","se","sg","sk","tr","us"]},"geometry":["point","area"],"matchScore":2,"terms":["zurich"],"fields":["name","brand","{office/insurance}"],"preserveTags":["^name"],"tags":{"brand:wikidata":"Q230426","office":"insurance"},"addTags":{"brand":"Zurich","brand:wikidata":"Q230426","name":"Zurich","office":"insurance"}},"office/gebruderweiss-3fef46":{"name":"Gebrüder Weiss","locationSet":{"include":["kz","kg","tj","tm","uz","cn","hk","mo","kp","jp","mn","kr","bn","kh","id","la","my","mm","ph","sg","th","tl","vn","af","bd","bt","in","ir","mv","np","pk","lk","am","az","bh","cy","ge","iq","il","jo","kw","lb","om","qa","sa","ps","sy","tr","ae","ye","by","bg","cz","hu","pl","md","ro","ru","sk","ua","ax","gg","je","cq","dk","ee","fo","fi","is","ie","im","lv","lt","no","sj","se","gb","al","ad","ba","hr","gi","gr","va","it","mt","me","mk","pt","sm","rs","si","es","xk","at","be","fr","de","li","lu","mc","nl","ch","au","ca","nz","us"]},"geometry":["point","vertex","area"],"matchScore":2,"terms":["gebrüder weiss"],"fields":["name","brand","{office}"],"preserveTags":["^name"],"tags":{"brand:wikidata":"Q1497233","office":"logistics"},"addTags":{"brand":"Gebrüder Weiss","brand:wikidata":"Q1497233","name":"Gebrüder Weiss","office":"logistics"}},"office/telecommunication/du-0eff00":{"name":"du","locationSet":{"include":["ae"]},"geometry":["point","area"],"matchScore":2,"terms":["du"],"tags":{"brand:wikidata":"Q3595390","office":"telecommunication"},"addTags":{"brand":"du","brand:wikidata":"Q3595390","name":"du","office":"telecommunication"}},"shop/baby_goods/suavinex-323d81":{"name":"Suavinex","locationSet":{"include":["ae","al","ao","au","be","ch","cl","cn","co","cr","cy","cz","do","dz","ec","es","fr","ge","gq","gr","il","iq","ir","it","kr","lb","lu","me","mt","mx","my","nl","no","pa","pl","pt","ro","rs","ru","sa","sg","sk","tr","uy","vn"]},"geometry":["point","area"],"matchScore":2,"terms":["suavinex"],"tags":{"brand:wikidata":"Q122258837","shop":"baby_goods"},"addTags":{"brand":"Suavinex","brand:wikidata":"Q122258837","name":"Suavinex","shop":"baby_goods"}},"shop/bakery/paul-652955":{"name":"Paul","locationSet":{"include":["ae","az","be","bh","by","ci","cy","cz","eg","es","fr","ga","gb","ge","gr","id","in","jo","jp","kw","kz","lb","lu","ma","mu","my","om","pa","ph","pl","pt","qa","ro","ru","sa","sg","th","tn","tw","ua","us","uz","vn","za"]},"geometry":["point","area"],"matchScore":2,"terms":["paul"],"tags":{"brand:wikidata":"Q3370417","shop":"bakery"},"addTags":{"brand":"Paul","brand:wikidata":"Q3370417","name":"Paul","shop":"bakery"}},"shop/beauty/skinlaundry-85c569":{"name":"Skin Laundry","locationSet":{"include":["ae","gb","hk","kw","us"]},"geometry":["point","area"],"matchScore":2,"terms":["skin laundry"],"tags":{"brand:wikidata":"Q113513202","shop":"beauty"},"addTags":{"beauty":"skin_care","brand":"Skin Laundry","brand:wikidata":"Q113513202","name":"Skin Laundry","shop":"beauty"}},"shop/books/kinokuniya-3c069b":{"name":"Kinokuniya","locationSet":{"include":["ae","au","id","kh","my","sg","th","us"]},"geometry":["point","area"],"matchScore":2,"terms":["kinokuniya"],"tags":{"brand:wikidata":"Q703227","shop":"books"},"addTags":{"brand":"Kinokuniya","brand:wikidata":"Q703227","name":"Kinokuniya","shop":"books"}},"shop/books/jarirbookstore-e19842":{"name":"مكتبة جرير","locationSet":{"include":["ae","kw","qa","sa"]},"geometry":["point","area"],"matchScore":2,"terms":["jarir bookstore","جرير","مكتبة جرير"],"tags":{"brand:wikidata":"Q6160243","shop":"books"},"addTags":{"brand":"مكتبة جرير","brand:ar":"مكتبة جرير","brand:en":"Jarir Bookstore","brand:wikidata":"Q6160243","name":"مكتبة جرير","name:ar":"مكتبة جرير","name:en":"Jarir Bookstore","shop":"books"}},"shop/car/koenigsegg-45c2de":{"name":"Koenigsegg","locationSet":{"include":["ae","au","ca","ch","cn","de","es","gb","jp","kr","lb","mx","my","om","pl","se","sg","th","tw","us","za"]},"geometry":["point","area"],"matchScore":2,"terms":["koenigsegg"],"fields":["name","brand","{shop/car}"],"preserveTags":["^name"],"tags":{"brand:wikidata":"Q35594","shop":"car"},"addTags":{"brand":"Koenigsegg","brand:wikidata":"Q35594","name":"Koenigsegg","shop":"car"}},"shop/car/rimac-0f1e04":{"name":"Rimac","locationSet":{"include":["ae","ca","cn","de","es","gb","jp","mx","sg","us"]},"geometry":["point","area"],"matchScore":2,"terms":["rimac"],"fields":["name","brand","{shop/car}"],"preserveTags":["^name"],"tags":{"brand:wikidata":"Q7334368","shop":"car"},"addTags":{"brand":"Rimac","brand:wikidata":"Q7334368","name":"Rimac","shop":"car"}},"shop/car_repair/koenigsegg-81b22c":{"name":"Koenigsegg","locationSet":{"include":["ae","au","ca","ch","cn","de","es","gb","jp","kr","lb","mx","my","om","pl","se","sg","th","tw","us","za"]},"geometry":["point","area"],"matchScore":2,"terms":["koenigsegg"],"fields":["name","brand","{shop/car_repair}"],"preserveTags":["^name"],"tags":{"brand:wikidata":"Q35594","shop":"car_repair"},"addTags":{"brand":"Koenigsegg","brand:wikidata":"Q35594","name":"Koenigsegg","shop":"car_repair"}},"shop/car_repair/rimac-2012db":{"name":"Rimac","locationSet":{"include":["ae","ca","cn","de","es","gb","jp","mx","sg","us"]},"geometry":["point","area"],"matchScore":2,"terms":["rimac"],"fields":["name","brand","{shop/car_repair}"],"preserveTags":["^name"],"tags":{"brand:wikidata":"Q7334368","shop":"car_repair"},"addTags":{"brand":"Rimac","brand:wikidata":"Q7334368","name":"Rimac","shop":"car_repair"}},"shop/clothes/abercrombieandfitch-c53b2f":{"name":"Abercrombie & Fitch","locationSet":{"include":["ae","be","ca","cn","de","es","fx","gb","ie","it","jp","kw","mx","nl","qa","sa","sg","us"]},"geometry":["point","area"],"matchScore":2,"terms":["abercrombie & fitch"],"tags":{"brand:wikidata":"Q319344","shop":"clothes"},"addTags":{"brand":"Abercrombie & Fitch","brand:wikidata":"Q319344","clothes":"men;women","name":"Abercrombie & Fitch","shop":"clothes"}},"shop/clothes/abercrombiekids-a75dc9":{"name":"Abercrombie Kids","locationSet":{"include":["ae","ca","cn","de","gb","it","nl","sg","us"]},"geometry":["point","area"],"matchScore":2,"terms":["abercrombie kids"],"tags":{"brand:wikidata":"Q429856","shop":"clothes"},"addTags":{"brand":"Abercrombie Kids","brand:wikidata":"Q429856","clothes":"children","name":"Abercrombie Kids","shop":"clothes"}},"shop/clothes/ardene-d1f154":{"name":"Ardene","locationSet":{"include":["ae","ca","om","sn","us"]},"geometry":["point","area"],"matchScore":2,"terms":["ardene"],"tags":{"brand:wikidata":"Q2860764","shop":"clothes"},"addTags":{"brand":"Ardene","brand:wikidata":"Q2860764","name":"Ardene","shop":"clothes"}},"shop/clothes/falke-d93616":{"name":"FALKE","locationSet":{"include":["ae","be","ch","de","nl","ru"]},"geometry":["point","area"],"matchScore":2,"terms":["falke"],"tags":{"brand:wikidata":"Q1394122","shop":"clothes"},"addTags":{"brand":"FALKE","brand:wikidata":"Q1394122","name":"FALKE","shop":"clothes"}},"shop/clothes/jackwills-75e7ba":{"name":"Jack Wills","locationSet":{"include":["ae","gb","hk","ie","kw","lb","mo","sg","us"]},"geometry":["point","area"],"matchScore":2,"terms":["jack wills"],"tags":{"brand:wikidata":"Q6115814","shop":"clothes"},"addTags":{"brand":"Jack Wills","brand:wikidata":"Q6115814","name":"Jack Wills","shop":"clothes"}},"shop/clothes/lechateau-f2752c":{"name":"Le Château","locationSet":{"include":["ae","ca","sa"]},"geometry":["point","area"],"matchScore":2,"terms":["le château"],"tags":{"brand:wikidata":"Q6506731","shop":"clothes"},"addTags":{"brand":"Le Château","brand:wikidata":"Q6506731","name":"Le Château","shop":"clothes"}},"shop/clothes/lululemon-4bc474":{"name":"Lululemon","locationSet":{"include":["ae","au","ca","ch","cn","de","dk","es","fr","gb","ie","jp","kr","kw","nl","no","nz","sa","se","us"]},"geometry":["point","area"],"matchScore":2,"terms":["lululemon","lululemon athletica"],"tags":{"brand:wikidata":"Q6702957","shop":"clothes"},"addTags":{"brand":"Lululemon","brand:wikidata":"Q6702957","clothes":"men;women","name":"Lululemon","official_name":"Lululemon Athletica","shop":"clothes"}},"shop/clothes/matalan-1132a1":{"name":"Matalan","locationSet":{"include":["ae","gb"]},"geometry":["point","area"],"matchScore":2,"terms":["matalan"],"tags":{"brand:wikidata":"Q12061509","shop":"clothes"},"addTags":{"brand":"Matalan","brand:wikidata":"Q12061509","name":"Matalan","shop":"clothes"}},"shop/clothes/moss-b36645":{"name":"Moss","locationSet":{"include":["ae","gb","gg","je"]},"geometry":["point","area"],"matchScore":2,"terms":["moss","moss bros"],"tags":{"brand:wikidata":"Q6916538","shop":"clothes"},"addTags":{"alt_name":"Moss Bros","brand":"Moss","brand:wikidata":"Q6916538","clothes":"men","name":"Moss","shop":"clothes"}},"shop/clothes/underwear/undiz-024578":{"name":"Undiz","locationSet":{"include":["ae","be","ch","es","fr","lb","ma","qa","sa","za"]},"geometry":["point","area"],"matchScore":2,"terms":["undiz"],"reference":{"key":"clothes","value":"underwear"},"tags":{"brand:wikidata":"Q105306275","clothes":"underwear","shop":"clothes"},"addTags":{"brand":"Undiz","brand:wikidata":"Q105306275","clothes":"underwear","name":"Undiz","shop":"clothes"}},"shop/convenience/adnocoasis-d47493":{"name":"ADNOC Oasis","locationSet":{"include":["ae","sa"]},"geometry":["point","area"],"matchScore":2,"terms":["adnoc oasis","واحة أدنوك"],"tags":{"brand:wikidata":"Q166729","shop":"convenience"},"addTags":{"brand":"واحة أدنوك","brand:ar":"واحة أدنوك","brand:en":"ADNOC Oasis","brand:wikidata":"Q166729","name":"واحة أدنوك","name:ar":"واحة أدنوك","name:en":"ADNOC Oasis","shop":"convenience"}},"shop/convenience/geantexpress-a35511":{"name":"Géant Express","locationSet":{"include":["ae","eg","ly"]},"geometry":["point","area"],"matchScore":2,"terms":["géant express"],"tags":{"brand:wikidata":"Q137579657","shop":"convenience"},"addTags":{"brand":"Géant Express","brand:wikidata":"Q137579657","name":"Géant Express","shop":"convenience"}},"shop/cosmetics/merlenorman-f96c07":{"name":"Merle Norman Cosmetics","locationSet":{"include":["ae","bh","ca","gt","hk","tw","us"]},"geometry":["point","area"],"matchScore":2,"terms":["merle norman cosmetic studio","merle norman cosmetics"],"tags":{"brand:wikidata":"Q104844059","shop":"cosmetics"},"addTags":{"brand":"Merle Norman Cosmetics","brand:wikidata":"Q104844059","full_name":"Merle Norman Cosmetic Studio","name":"Merle Norman","shop":"cosmetics"}},"shop/cosmetics/vperfumes-a31737":{"name":"V Perfumes","locationSet":{"include":["ae","om","qa","sa"]},"geometry":["point","area"],"matchScore":2,"terms":["v perfumes"],"tags":{"brand:wikidata":"Q135350225","shop":"cosmetics"},"addTags":{"brand":"V Perfumes","brand:wikidata":"Q135350225","name":"V Perfumes","shop":"cosmetics"}},"shop/department_store/galerieslafayette-b7f45a":{"name":"Galeries Lafayette","locationSet":{"include":["ae","cn","de","fr","id","lu","qa","tr"]},"geometry":["point","area"],"matchScore":2,"terms":["galeries lafayette"],"tags":{"brand:wikidata":"Q3094686","shop":"department_store"},"addTags":{"brand":"Galeries Lafayette","brand:wikidata":"Q3094686","name":"Galeries Lafayette","shop":"department_store"}},"shop/department_store/hema-e99f95":{"name":"HEMA","locationSet":{"include":["ae","at","be","de","es","fr","gb","lu","nl","qa"]},"geometry":["point","area"],"matchScore":2,"terms":["hema","hema b.v."],"tags":{"brand:wikidata":"Q903805","shop":"department_store"},"addTags":{"brand":"HEMA","brand:wikidata":"Q903805","name":"HEMA","shop":"department_store"}},"shop/electronics/capielectronics-cec7c5":{"name":"Capi Electronics","locationSet":{"include":["ae","at","be","ch","de","dk","es","fi","it","nl","no","qa","za"]},"geometry":["point","area"],"matchScore":2,"terms":["capi"],"tags":{"brand:wikidata":"Q123846871","shop":"electronics"},"addTags":{"brand":"Capi","brand:wikidata":"Q123846871","name":"Capi Electronics","shop":"electronics"}},"shop/fashion_accessories/mulberry-e1f087":{"name":"Mulberry","locationSet":{"include":["ae","au","ca","ch","cn","de","dk","fi","gb","ie","jp","kr","my","nl","no","se","sg","th","us"]},"geometry":["point","area"],"matchScore":2,"terms":["mulberry"],"tags":{"brand:wikidata":"Q3866987","shop":"fashion_accessories"},"addTags":{"brand":"Mulberry","brand:wikidata":"Q3866987","name":"Mulberry","shop":"fashion_accessories"}},"shop/furniture/ikea-97652b":{"name":"IKEA","locationSet":{"include":["ae","at","au","be","bh","ca","ch","cl","cz","de","eg","es","fr","gb","hr","hu","ie","il","in","it","jo","kr","kw","ma","mx","my","nl","nz","ph","pl","pt","qa","ro","rs","sa","sg","si","sk","th","ua","us"]},"geometry":["point","area"],"matchScore":2,"terms":["ikea"],"tags":{"brand:wikidata":"Q54078","shop":"furniture"},"addTags":{"brand":"IKEA","brand:wikidata":"Q54078","name":"IKEA","shop":"furniture"}},"shop/furniture/pbteen-736374":{"name":"PBteen","locationSet":{"include":["ae","kw","mx","us"]},"geometry":["point","area"],"matchScore":2,"terms":["pottery barn","pottery barn teen"],"tags":{"brand:wikidata":"Q3400126","shop":"furniture"},"addTags":{"brand":"Pottery Barn","brand:wikidata":"Q3400126","name":"PBteen","shop":"furniture"}},"shop/jewelry/chemmanurinternationaljewellers-0ef1f6":{"name":"Chemmanur International Jewellers","locationSet":{"include":["ae","in","kw","my","us"]},"geometry":["point","area"],"matchScore":2,"terms":["chemmanur international jewellers"],"tags":{"brand:wikidata":"Q99520996","shop":"jewelry"},"addTags":{"brand":"Chemmanur International Jewellers","brand:wikidata":"Q99520996","name":"Chemmanur International Jewellers","shop":"jewelry"}},"shop/jewelry/joyalukkas-534941":{"name":"Joyalukkas","locationSet":{"include":["ae","bh","gb","in","kw","my","om","qa","sa","sg","us"]},"geometry":["point","area"],"matchScore":2,"terms":["joyalukkas"],"tags":{"brand:wikidata":"Q6297357","shop":"jewelry"},"addTags":{"brand":"Joyalukkas","brand:wikidata":"Q6297357","name":"Joyalukkas","shop":"jewelry"}},"shop/jewelry/malabargoldanddiamonds-9fa2ef":{"name":"Malabar Gold and Diamonds","locationSet":{"include":["ae","bh","in","kw","my","om","qa","sa","sg","us"]},"geometry":["point","area"],"matchScore":2,"terms":["malabar gold and diamonds"],"tags":{"brand:wikidata":"Q60748883","shop":"jewelry"},"addTags":{"brand":"Malabar Gold and Diamonds","brand:wikidata":"Q60748883","name":"Malabar Gold and Diamonds","shop":"jewelry"}},"shop/kitchen/ixina-d089d8":{"name":"Ixina","locationSet":{"include":["ae","au","be","bf","bh","bj","ca","ci","cm","cn","cz","dz","ee","eg","fr","gh","hr","ke","kw","lu","ly","ma","mu","nl","pl","qa","ro","ru","sa","se","sn","tg","th","tn","vn"]},"geometry":["point","area"],"matchScore":2,"terms":["ixina"],"tags":{"brand:wikidata":"Q3156424","shop":"kitchen"},"addTags":{"brand":"Ixina","brand:wikidata":"Q3156424","name":"Ixina","shop":"kitchen"}},"shop/optician/rayban-ace229":{"name":"Ray-Ban","locationSet":{"include":["ae","at","au","br","ca","de","es","fr","gb","ie","it","jp","my","ne","tr","us"]},"geometry":["point","area"],"matchScore":2,"terms":["ray-ban"],"fields":["name","brand","{shop/optician}"],"preserveTags":["^name"],"tags":{"brand:wikidata":"Q653941","shop":"optician"},"addTags":{"brand":"Ray-Ban","brand:wikidata":"Q653941","name":"Ray-Ban","shop":"optician"}},"shop/paint/nationalpaints-6ced54":{"name":"National Paints","locationSet":{"include":["ae","qa"]},"geometry":["point","area"],"matchScore":2,"terms":["national paints"],"tags":{"brand:wikidata":"Q62073521","shop":"paint"},"addTags":{"brand":"National Paints","brand:wikidata":"Q62073521","name":"National Paints","shop":"paint"}},"shop/pawnbroker/cashconverters-1c62e9":{"name":"Cash Converters","locationSet":{"include":["ae","au","be","ch","es","fr","gb","lu","my","na","nz","pt","sg","za"]},"geometry":["point","area"],"matchScore":2,"terms":["cash converters"],"tags":{"brand:wikidata":"Q5048645","shop":"pawnbroker"},"addTags":{"brand":"Cash Converters","brand:wikidata":"Q5048645","name":"Cash Converters","shop":"pawnbroker"}},"shop/sports/hoka-4a6d5f":{"name":"Hoka","locationSet":{"include":["ad","ae","al","at","au","ba","be","bg","br","ca","ch","cl","cn","cy","cz","de","dk","dz","ee","es","fi","fr","gb","gr","hr","hu","id","ie","il","is","it","je","jp","kz","lt","lu","lv","ma","mc","md","me","mk","mt","nl","no","nz","ph","pl","pt","re","ro","rs","ru","se","si","sk","tn","tr","ua","us","za"]},"geometry":["point","area"],"matchScore":2,"terms":["hoka"],"tags":{"brand:wikidata":"Q16908664","shop":"sports"},"addTags":{"brand":"Hoka","brand:wikidata":"Q16908664","name":"Hoka","shop":"sports"}},"shop/supermarket/geant-a2a643":{"name":"Géant","locationSet":{"include":["ae","dj","eg","ly","tn","uy","ye"]},"geometry":["point","area"],"matchScore":2,"terms":["géant"],"tags":{"brand:wikidata":"Q1380537","shop":"supermarket"},"addTags":{"brand":"Géant","brand:wikidata":"Q1380537","name":"Géant","shop":"supermarket"}},"shop/supermarket/luluhypermarket-7e55ed":{"name":"Lulu Hypermarket","locationSet":{"include":["ae","bh","eg","id","in","kw","my","om","qa"]},"geometry":["point","area"],"matchScore":2,"terms":["lulu hypermarket"],"tags":{"brand:wikidata":"Q6702930","shop":"supermarket"},"addTags":{"brand":"Lulu Hypermarket","brand:wikidata":"Q6702930","name":"Lulu Hypermarket","shop":"supermarket"}},"shop/supermarket/panda-709c58":{"name":"بنده","locationSet":{"include":["ae","bh","sa"]},"geometry":["point","area"],"matchScore":2,"terms":["hyperpanda","panda","بنده","شركة بنده للتجزئة","هايبربنده"],"tags":{"brand:wikidata":"Q4832749","shop":"supermarket"},"addTags":{"alt_name:ar":"هايبربنده","alt_name:en":"HyperPanda","brand":"بنده","brand:ar":"بنده","brand:en":"Panda","brand:wikidata":"Q4832749","name":"بنده","name:ar":"بنده","name:en":"Panda","official_name":"شركة بنده للتجزئة","shop":"supermarket"}},"shop/tea/chapayom-af1b20":{"name":"Cha Payom","locationSet":{"include":["ae","au","ca","id","mm","my","sg","th"]},"geometry":["point","area"],"matchScore":2,"terms":["cha payom"],"tags":{"brand:wikidata":"Q125873635","shop":"tea"},"addTags":{"brand":"Cha Payom","brand:wikidata":"Q125873635","name":"Cha Payom","shop":"tea"}},"shop/telecommunication/eand-5dfe5c":{"name":"e&","locationSet":{"include":["ae","eg"]},"geometry":["point","area"],"matchScore":2,"terms":["e&","etisalat","etisalat and","اتصالات","اتصالات والمزيد"],"tags":{"brand:wikidata":"Q543449","shop":"telecommunication"},"addTags":{"brand":"e&","brand:wikidata":"Q543449","name":"e&","shop":"telecommunication"}},"shop/ticket/ticketmaster-9f0b74":{"name":"Ticketmaster","locationSet":{"include":["ae","at","au","be","ca","ch","cy","cz","de","dk","es","fi","fr","gb","gr","ie","it","mx","nl","no","nz","pl","se","sg","tr","tw","za"]},"geometry":["point","area"],"matchScore":2,"terms":["live nation","ticketmaster"],"fields":["name","brand","{shop/ticket}"],"preserveTags":["^name"],"tags":{"brand:wikidata":"Q2609162","shop":"ticket"},"addTags":{"brand":"Ticketmaster","brand:wikidata":"Q2609162","name":"Ticketmaster","shop":"ticket"}},"shop/tool_hire/loxam-a4cd21":{"name":"Loxam","locationSet":{"include":["ae","be","bh","br","ch","co","de","dk","es","fr","gb","ie","it","kw","lu","ma","nl","om","pt","qa","sa"]},"geometry":["point","area"],"matchScore":2,"terms":["loxam"],"tags":{"brand:wikidata":"Q3264407","shop":"tool_hire"},"addTags":{"brand":"Loxam","brand:wikidata":"Q3264407","name":"Loxam","shop":"tool_hire"}},"shop/toys/hamleys-2271ec":{"name":"Hamleys","locationSet":{"include":["ae","al","cn","eg","gb","in","it","jo","mx","my","ph","qa","ru","za"]},"geometry":["point","area"],"matchScore":2,"terms":["hamleys"],"tags":{"brand:wikidata":"Q60299","shop":"toys"},"addTags":{"brand":"Hamleys","brand:wikidata":"Q60299","name":"Hamleys","shop":"toys"}},"shop/tyres/tyreplus-99cc81":{"name":"Tyreplus","locationSet":{"include":["ae","au","bh","cn","id","kh","kw","my","om","ph","qa","ru","sa","sg","th","tw"]},"geometry":["point","area"],"matchScore":2,"terms":["tyreplus"],"tags":{"brand:wikidata":"Q110959120","shop":"tyres"},"addTags":{"brand":"Tyreplus","brand:wikidata":"Q110959120","name":"Tyreplus","shop":"tyres"}},"shop/variety_store/fixprice-b3b517":{"name":"Fix Price","locationSet":{"include":["ae","am","by","kg","kz","lv","mn","ru"]},"geometry":["point","area"],"matchScore":2,"terms":["fiks prajs","fix price","фикс прайс","фікс прайс"],"tags":{"brand:wikidata":"Q4038791","shop":"variety_store"},"addTags":{"brand":"Fix Price","brand:wikidata":"Q4038791","name":"Fix Price","name:be":"Фікс Прайс","name:be-Latn":"Fiks Prajs","name:en":"Fix Price","name:ru":"Фикс Прайс","name:uk":"Фікс Прайс","shop":"variety_store"}},"tourism/hotel/anantara-e8534c":{"name":"Anantara","locationSet":{"include":["ae","br","cn","es","fr","hu","id","ie","it","kh","mu","mv","my","mz","nl","om","pt","qa","sc","th","tn","vn","zm"]},"geometry":["point","area"],"matchScore":2,"terms":["anantara"],"fields":["name","brand","{tourism/hotel}"],"preserveTags":["^name","^official_name"],"tags":{"brand:wikidata":"Q112671781","tourism":"hotel"},"addTags":{"brand":"Anantara","brand:wikidata":"Q112671781","name":"Anantara","tourism":"hotel"}},"tourism/hotel/avanihotelsandresorts-e9c192":{"name":"Avani","locationSet":{"include":["ae","au","bw","id","kh","kr","la","lk","ls","my","mz","na","nz","om","pt","sc","th","vn","zm"]},"geometry":["point","area"],"matchScore":2,"terms":["avani","avani hotels & resorts"],"fields":["name","brand","{tourism/hotel}"],"preserveTags":["^name","^official_name"],"tags":{"brand:wikidata":"Q48989823","tourism":"hotel"},"addTags":{"brand":"Avani Hotels & Resorts","brand:wikidata":"Q48989823","name":"Avani Hotels & Resorts","tourism":"hotel"}},"tourism/hotel/barcelohotelsandresorts-302c40":{"name":"Barceló","locationSet":{"include":["ae","aw","bg","cr","cu","cz","de","do","eg","es","gr","gt","hu","it","ma","mv","mx","ni","om","pt","sv","tn","tr","us"]},"geometry":["point","area"],"matchScore":2,"terms":["barceló hotels & resorts"],"fields":["name","brand","{tourism/hotel}"],"preserveTags":["^name","^official_name"],"tags":{"brand:wikidata":"Q15148996","tourism":"hotel"},"addTags":{"brand":"Barceló Hotels & Resorts","brand:wikidata":"Q15148996","name":"Barceló Hotels & Resorts","tourism":"hotel"}},"tourism/hotel/bulgari-a1f85a":{"name":"Bulgari","locationSet":{"include":["ae","cn","fx","gb","id","it","jp","ru","us"]},"geometry":["point","area"],"matchScore":2,"terms":["bulgari"],"fields":["name","brand","{tourism/hotel}"],"preserveTags":["^name","^official_name"],"tags":{"brand:wikidata":"Q752515","tourism":"hotel"},"addTags":{"brand":"Bulgari","brand:wikidata":"Q752515","name":"Bulgari","tourism":"hotel"}},"tourism/hotel/canopy-523ceb":{"name":"Canopy","locationSet":{"include":["ae","br","cn","es","fx","gb","hr","is","us"]},"geometry":["point","area"],"matchScore":2,"terms":["canopy","canopy by hilton"],"fields":["name","brand","{tourism/hotel}"],"preserveTags":["^name","^official_name"],"tags":{"brand:wikidata":"Q30632909","tourism":"hotel"},"addTags":{"brand":"Canopy","brand:wikidata":"Q30632909","name":"Canopy","official_name":"Canopy by Hilton","tourism":"hotel"}},"tourism/hotel/conrad-ee1a43":{"name":"Conrad Hotels & Resorts","locationSet":{"include":["ae","ca","cn","eg","gb","id","ie","in","jp","kr","mv","pf","ph","pt","sa","sg","th","tr","us"]},"geometry":["point","area"],"matchScore":2,"terms":["conrad"],"fields":["name","brand","{tourism/hotel}"],"preserveTags":["^name","^official_name"],"tags":{"brand:wikidata":"Q855525","tourism":"hotel"},"addTags":{"brand":"Conrad","brand:wikidata":"Q855525","name":"Conrad","tourism":"hotel"}},"tourism/hotel/deltahotels-c8d055":{"name":"Delta Hotels","locationSet":{"include":["ae","ca","cn","de","gb","tr","us"]},"geometry":["point","area"],"matchScore":2,"terms":["delta","delta hotels"],"fields":["name","brand","{tourism/hotel}"],"preserveTags":["^name","^official_name"],"tags":{"brand:wikidata":"Q5254663","tourism":"hotel"},"addTags":{"brand":"Delta Hotels","brand:wikidata":"Q5254663","name":"Delta Hotels","tourism":"hotel"}},"tourism/hotel/edition-24940c":{"name":"Edition","locationSet":{"include":["ae","cn","es","gb","is","it","jp","mx","my","qa","sg","tr","us"]},"geometry":["point","area"],"matchScore":2,"terms":["edition"],"fields":["name","brand","{tourism/hotel}"],"preserveTags":["^name","^official_name"],"tags":{"brand:wikidata":"Q91218404","tourism":"hotel"},"addTags":{"brand":"Edition","brand:wikidata":"Q91218404","name":"Edition","tourism":"hotel"}},"tourism/hotel/element-6dd642":{"name":"Element by Westin","locationSet":{"include":["ae","au","ca","cn","id","my","nl","tz","us"]},"geometry":["point","area"],"matchScore":2,"terms":["element"],"fields":["name","brand","{tourism/hotel}"],"preserveTags":["^name","^official_name"],"tags":{"brand:wikidata":"Q91948072","tourism":"hotel"},"addTags":{"brand":"Element","brand:wikidata":"Q91948072","name":"Element","tourism":"hotel"}},"tourism/hotel/hawthornsuites-1591e1":{"name":"Hawthorn Suites","locationSet":{"include":["ae","in","ng","sa","tr","us"]},"geometry":["point","area"],"matchScore":2,"terms":["hawthorn","hawthorn suites","hawthorn suites by wyndham"],"fields":["name","brand","{tourism/hotel}"],"preserveTags":["^name","^official_name"],"tags":{"brand:wikidata":"Q5685511","tourism":"hotel"},"addTags":{"brand":"Hawthorn Suites","brand:short":"Hawthorn","brand:wikidata":"Q5685511","name":"Hawthorn Suites","official_name":"Hawthorn Suites by Wyndham","tourism":"hotel"}},"tourism/hotel/lxr-c9a464":{"name":"LXR Hotels & Resorts","locationSet":{"include":["ae","ai","gb","jp","sc","tr","us"]},"geometry":["point","area"],"matchScore":2,"terms":["lxr"],"fields":["name","brand","{tourism/hotel}"],"preserveTags":["^name","^official_name"],"tags":{"brand:wikidata":"Q64605184","tourism":"hotel"},"addTags":{"brand":"LXR","brand:wikidata":"Q64605184","name":"LXR","tourism":"hotel"}},"tourism/hotel/mamashelter-0d5f7f":{"name":"Mama Shelter","locationSet":{"include":["ae","cz","fx","gb","it","lu","pt","rs","us-ca"]},"geometry":["point","area"],"matchScore":2,"terms":["mama shelter"],"fields":["name","brand","{tourism/hotel}"],"preserveTags":["^name","^official_name"],"tags":{"brand:wikidata":"Q12716714","tourism":"hotel"},"addTags":{"brand":"Mama Shelter","brand:wikidata":"Q12716714","name":"Mama Shelter","tourism":"hotel"}},"tourism/hotel/marriottexecutiveapartments-b2f419":{"name":"Marriott Executive Apartments","locationSet":{"include":["ae","be","bh","br","cn","et","gb","hu","id","in","kr","kz","pa","sa","th","za"]},"geometry":["point","area"],"matchScore":2,"terms":["marriott executive apartments"],"fields":["name","brand","{tourism/hotel}"],"preserveTags":["^name","^official_name"],"tags":{"brand:wikidata":"Q72636824","tourism":"hotel"},"addTags":{"brand":"Marriott Executive Apartments","brand:wikidata":"Q72636824","name":"Marriott Executive Apartments","tourism":"hotel"}},"tourism/hotel/oakshotelsresortsandsuites-bc2db3":{"name":"Oaks Hotels","locationSet":{"include":["ae","au","cn","in","nz","qa"]},"geometry":["point","area"],"matchScore":2,"terms":["oaks hotels, resorts & suites"],"fields":["name","brand","{tourism/hotel}"],"preserveTags":["^name","^official_name"],"tags":{"brand:wikidata":"Q23073772","tourism":"hotel"},"addTags":{"brand":"Oaks Hotels, Resorts & Suites","brand:wikidata":"Q23073772","name":"Oaks Hotels, Resorts & Suites","tourism":"hotel"}},"tourism/hotel/occidental-e4b4d8":{"name":"Occidental","locationSet":{"include":["ae","cr","cu","cz","do","es","it","mx","tn","tr"]},"geometry":["point","area"],"matchScore":2,"terms":["occidental"],"fields":["name","brand","{tourism/hotel}"],"preserveTags":["^name","^official_name"],"tags":{"brand:wikidata":"Q15148996","tourism":"hotel"},"addTags":{"brand":"Occidental","brand:wikidata":"Q15148996","name":"Occidental","tourism":"hotel"}},"tourism/hotel/premierinn-a7b4e2":{"name":"Premier Inn","locationSet":{"include":["ae","de","gb","ie","qa"]},"geometry":["point","area"],"matchScore":2,"terms":["premier inn"],"fields":["name","brand","{tourism/hotel}"],"preserveTags":["^name","^official_name"],"tags":{"brand:wikidata":"Q2108626","tourism":"hotel"},"addTags":{"brand":"Premier Inn","brand:wikidata":"Q2108626","name":"Premier Inn","tourism":"hotel"}},"tourism/hotel/raffles-771760":{"name":"Raffles","locationSet":{"include":["ae","bh","cn","fr","gb","id","in","kh","mv","ph","pl","qa","ru","sa","sc","sg","us"]},"geometry":["point","area"],"matchScore":2,"terms":["raffles"],"fields":["name","brand","{tourism/hotel}"],"preserveTags":["^name","^official_name"],"tags":{"brand:wikidata":"Q4306661","tourism":"hotel"},"addTags":{"brand":"Raffles","brand:wikidata":"Q4306661","name":"Raffles","tourism":"hotel"}},"tourism/hotel/rixos-cdcd15":{"name":"Rixos","locationSet":{"include":["ae","eg","hr","kz","me","qa","sa","tr"]},"geometry":["point","area"],"matchScore":2,"terms":["rixos hotels"],"fields":["name","brand","{tourism/hotel}"],"preserveTags":["^name","^official_name"],"tags":{"brand:wikidata":"Q6075716","tourism":"hotel"},"addTags":{"brand":"Rixos Hotels","brand:wikidata":"Q6075716","name":"Rixos","tourism":"hotel"}},"tourism/hotel/royalhideaway-1a48d0":{"name":"Royal Hideaway","locationSet":{"include":["ae","do","es","id","mx"]},"geometry":["point","area"],"matchScore":2,"terms":["royal hideaway"],"fields":["name","brand","{tourism/hotel}"],"preserveTags":["^name","^official_name"],"tags":{"brand:wikidata":"Q15148996","tourism":"hotel"},"addTags":{"brand":"Royal Hideaway","brand:wikidata":"Q15148996","name":"Royal Hideaway","tourism":"hotel"}},"tourism/hotel/southernsun-891f5c":{"name":"Southern Sun","locationSet":{"include":["ae","mz","za","zm"]},"geometry":["point","area"],"matchScore":2,"terms":["southern sun"],"fields":["name","brand","{tourism/hotel}"],"preserveTags":["^name","^official_name"],"tags":{"brand:wikidata":"Q7570526","tourism":"hotel"},"addTags":{"brand":"Southern Sun","brand:wikidata":"Q7570526","name":"Southern Sun","tourism":"hotel"}},"tourism/hotel/tapestrycollection-1c7927":{"name":"Tapestry Collection by Hilton","locationSet":{"include":["ae","br","ca","cn","es","fx","gb","mx","pt","tw","us"]},"geometry":["point","area"],"matchScore":2,"terms":["tapestry collection","tapestry collection by hilton"],"fields":["name","brand","{tourism/hotel}"],"preserveTags":["^name","^official_name"],"tags":{"brand:wikidata":"Q109275422","tourism":"hotel"},"addTags":{"brand":"Tapestry Collection","brand:wikidata":"Q109275422","tourism":"hotel"}},"tourism/hotel/waldorfastoria-665f74":{"name":"Waldorf Astoria","locationSet":{"include":["ae","au","cn","de","eg","fx","gb","il","it","kw","mv","mx","nl","pa","sa","th","us"]},"geometry":["point","area"],"matchScore":2,"terms":["waldorf astoria","waldorf astoria hotels & resorts"],"fields":["name","brand","{tourism/hotel}"],"preserveTags":["^name","^official_name"],"tags":{"brand:wikidata":"Q3239392","tourism":"hotel"},"addTags":{"brand":"Waldorf Astoria","brand:wikidata":"Q3239392","name":"Waldorf Astoria","tourism":"hotel"}},"tourism/hotel/yotel-ebcca5":{"name":"YOTEL","locationSet":{"include":["ae","ch","fx","gb","nl","pt","sg","tr","us-ca","us-dc","us-fl","us-ma","us-ny"]},"geometry":["point","area"],"matchScore":2,"terms":["yotel"],"fields":["name","brand","{tourism/hotel}"],"preserveTags":["^name","^official_name"],"tags":{"brand:wikidata":"Q8046002","tourism":"hotel"},"addTags":{"brand":"YOTEL","brand:wikidata":"Q8046002","name":"YOTEL","tourism":"hotel"}},"tourism/theme_park/legoland-744610":{"name":"LEGOLAND","locationSet":{"include":["ae","de","dk","gb","jp","kr","my","us"]},"geometry":["point","area"],"matchScore":2,"terms":["legoland","merlin entertainments"],"fields":["name","brand","{tourism/theme_park}"],"preserveTags":["^name"],"tags":{"brand:wikidata":"Q253302","tourism":"theme_park"},"addTags":{"brand":"LEGOLAND","brand:wikidata":"Q253302","name":"LEGOLAND","operator":"Merlin Entertainments","operator:wikidata":"Q573278","tourism":"theme_park"}},"advertising/billboard/ikea-1dde13":{"name":"IKEA","locationSet":{"include":["ae","at","au","be","bh","ca","ch","cl","cz","de","dk","eg","es","fi","fr","gb","hk","hr","hu","ie","il","in","it","jo","kr","kw","ma","mo","mx","my","nl","no","nz","ph","pl","pt","qa","ro","rs","sa","se","sg","si","sk","th","ua","us"]},"geometry":["point","vertex","line"],"matchScore":2,"terms":["ikea"],"tags":{"advertising":"billboard","operator:wikidata":"Q54078"},"addTags":{"advertising":"billboard","operator":"IKEA","operator:wikidata":"Q54078"}},"amenity/charging_station/dubaielectricityandwaterauthority-76711b":{"name":"Dubai Electricity and Water Authority","locationSet":{"include":["ae"]},"geometry":["point","vertex","area"],"matchScore":2,"terms":["dewa","dubai electricity and water authority"],"fields":["name","operator","{amenity/charging_station}"],"preserveTags":["^name"],"tags":{"amenity":"charging_station","operator:wikidata":"Q1262868"},"addTags":{"amenity":"charging_station","operator":"Dubai Electricity and Water Authority","operator:short":"DEWA","operator:wikidata":"Q1262868"}},"amenity/charging_station/ikea-e9436a":{"name":"IKEA","locationSet":{"include":["ae","at","au","be","bh","ca","ch","cl","cz","de","dk","eg","es","fi","fr","gb","hk","hr","hu","ie","il","in","it","jo","kr","kw","ma","mo","mx","my","nl","no","nz","ph","pl","pt","qa","ro","rs","sa","se","sg","si","sk","th","ua","us"]},"geometry":["point","vertex","area"],"matchScore":2,"terms":["ikea","ikea delft"],"fields":["name","operator","{amenity/charging_station}"],"preserveTags":["^name"],"tags":{"amenity":"charging_station","operator:wikidata":"Q54078"},"addTags":{"amenity":"charging_station","operator":"IKEA","operator:wikidata":"Q54078"}},"amenity/hospital/mediclinic-97e588":{"name":"Mediclinic","locationSet":{"include":["ae","ch","na","za"]},"geometry":["area","point"],"matchScore":2,"terms":["mediclinic"],"fields":["name","operator","{amenity/hospital}"],"reference":{"key":"amenity","value":"hospital"},"preserveTags":["^emergency$","^name"],"tags":{"amenity":"hospital","operator:wikidata":"Q1916123"},"addTags":{"amenity":"hospital","healthcare":"hospital","operator":"Mediclinic","operator:type":"private","operator:wikidata":"Q1916123"}},"amenity/post_box/emiratespost-4c01d7":{"name":"Emirates Post","locationSet":{"include":["ae"]},"geometry":["point","vertex"],"matchScore":2,"terms":["emirates post"],"tags":{"amenity":"post_box","operator:wikidata":"Q5372577"},"addTags":{"amenity":"post_box","operator":"Emirates Post","operator:wikidata":"Q5372577"}},"amenity/post_office/emiratespost-c6764e":{"name":"Emirates Post","locationSet":{"include":["ae"]},"geometry":["point","area"],"matchScore":2,"terms":["emirates post"],"fields":["name","operator","{amenity/post_office}"],"preserveTags":["^name"],"tags":{"amenity":"post_office","operator:wikidata":"Q5372577"},"addTags":{"amenity":"post_office","operator":"Emirates Post","operator:wikidata":"Q5372577"}},"amenity/recycling/soex-a3d9bb":{"name":"SOEX","locationSet":{"include":["ae","de","es","fx","gb","ru"]},"geometry":["point","area"],"matchScore":2,"terms":["soex"],"tags":{"amenity":"recycling","operator:wikidata":"Q1497749"},"addTags":{"amenity":"recycling","operator":"SOEX","operator:wikidata":"Q1497749"}},"man_made/charge_point/dubaielectricityandwaterauthority-a42d45":{"name":"Dubai Electricity and Water Authority","locationSet":{"include":["ae"]},"geometry":["point"],"matchScore":2,"terms":["dewa","dubai electricity and water authority"],"fields":["name","operator","{man_made/charge_point}"],"preserveTags":["^name"],"tags":{"man_made":"charge_point","operator:wikidata":"Q1262868"},"addTags":{"man_made":"charge_point","operator":"Dubai Electricity and Water Authority","operator:short":"DEWA","operator:wikidata":"Q1262868"}},"man_made/charge_point/ikea-b1190c":{"name":"IKEA","locationSet":{"include":["ae","at","au","be","bh","ca","ch","cl","cz","de","dk","eg","es","fi","fr","gb","hk","hr","hu","ie","il","in","it","jo","kr","kw","ma","mo","mx","my","nl","no","nz","ph","pl","pt","qa","ro","rs","sa","se","sg","si","sk","th","ua","us"]},"geometry":["point"],"matchScore":2,"terms":["ikea","ikea delft"],"fields":["name","operator","{man_made/charge_point}"],"preserveTags":["^name"],"tags":{"man_made":"charge_point","operator:wikidata":"Q54078"},"addTags":{"man_made":"charge_point","operator":"IKEA","operator:wikidata":"Q54078"}},"man_made/mast/du-129521":{"name":"Du","locationSet":{"include":["ae"]},"geometry":["point","vertex"],"matchScore":2,"terms":["du"],"tags":{"man_made":"mast","operator:wikidata":"Q3595390"},"addTags":{"man_made":"mast","operator":"Du","operator:wikidata":"Q3595390"}},"man_made/tower/du-0e701d":{"name":"Du","locationSet":{"include":["ae"]},"geometry":["point","vertex","area"],"matchScore":2,"terms":["du"],"tags":{"man_made":"tower","operator:wikidata":"Q3595390"},"addTags":{"man_made":"tower","operator":"Du","operator:wikidata":"Q3595390"}},"power/generator/dubaielectricityandwaterauthority-40d406":{"name":"Dubai Electricity and Water Authority","locationSet":{"include":["ae"]},"geometry":["point","vertex","area"],"matchScore":2,"terms":["dewa","dubai electricity and water authority"],"tags":{"operator:wikidata":"Q1262868","power":"generator"},"addTags":{"operator":"Dubai Electricity and Water Authority","operator:short":"DEWA","operator:wikidata":"Q1262868","power":"generator"}},"power/generator/ikea-b6ae82":{"name":"IKEA","locationSet":{"include":["ae","at","au","be","bh","ca","ch","cl","cz","de","dk","eg","es","fi","fr","gb","hk","hr","hu","ie","il","in","it","jo","kr","kw","ma","mo","mx","my","nl","no","nz","ph","pl","pt","qa","ro","rs","sa","se","sg","si","sk","th","ua","us"]},"geometry":["point","vertex","area"],"matchScore":2,"terms":["ikea","ikea retail sp zoo"],"tags":{"operator:wikidata":"Q54078","power":"generator"},"addTags":{"operator":"IKEA","operator:wikidata":"Q54078","power":"generator"}},"power/line/dubaielectricityandwaterauthority-535016":{"name":"Dubai Electricity and Water Authority","locationSet":{"include":["ae"]},"geometry":["line"],"matchScore":2,"terms":["dewa","dubai electricity and water authority"],"tags":{"operator:wikidata":"Q1262868","power":"line"},"addTags":{"operator":"Dubai Electricity and Water Authority","operator:short":"DEWA","operator:wikidata":"Q1262868","power":"line"}},"power/minor_line/dubaielectricityandwaterauthority-c15346":{"name":"Dubai Electricity and Water Authority","locationSet":{"include":["ae"]},"geometry":["line"],"matchScore":2,"terms":["dewa","dubai electricity and water authority"],"tags":{"operator:wikidata":"Q1262868","power":"minor_line"},"addTags":{"operator":"Dubai Electricity and Water Authority","operator:short":"DEWA","operator:wikidata":"Q1262868","power":"minor_line"}},"power/pole/dubaielectricityandwaterauthority-4f03c4":{"name":"Dubai Electricity and Water Authority","locationSet":{"include":["ae"]},"geometry":["point","vertex"],"matchScore":2,"terms":["dewa","dubai electricity and water authority"],"tags":{"operator:wikidata":"Q1262868","power":"pole"},"addTags":{"operator":"Dubai Electricity and Water Authority","operator:short":"DEWA","operator:wikidata":"Q1262868","power":"pole"}},"power/substation/dubaielectricityandwaterauthority-4ca958":{"name":"Dubai Electricity and Water Authority","locationSet":{"include":["ae"]},"geometry":["area","point"],"matchScore":2,"terms":["dewa","dubai electricity and water authority"],"tags":{"operator:wikidata":"Q1262868","power":"substation"},"addTags":{"operator":"Dubai Electricity and Water Authority","operator:short":"DEWA","operator:wikidata":"Q1262868","power":"substation"}},"power/tower/dubaielectricityandwaterauthority-0ee20b":{"name":"Dubai Electricity and Water Authority","locationSet":{"include":["ae"]},"geometry":["point","vertex"],"matchScore":2,"terms":["dewa","dubai electricity and water authority"],"tags":{"operator:wikidata":"Q1262868","power":"tower"},"addTags":{"operator":"Dubai Electricity and Water Authority","operator:short":"DEWA","operator:wikidata":"Q1262868","power":"tower"}},"power/transformer/dubaielectricityandwaterauthority-c74d02":{"name":"Dubai Electricity and Water Authority","locationSet":{"include":["ae"]},"geometry":["point","vertex"],"matchScore":2,"terms":["dewa","dubai electricity and water authority"],"tags":{"operator:wikidata":"Q1262868","power":"transformer"},"addTags":{"operator":"Dubai Electricity and Water Authority","operator:short":"DEWA","operator:wikidata":"Q1262868","power":"transformer"}},"public_transport/platform/bus_point/bigbustours-71d643":{"name":"Big Bus Tours","locationSet":{"include":["ae","at","au","ca","cn","cz","de","eg","es","fr","gb","gr","hk","hu","ie","in","it","mx","my","no","nz","om","pl","ru","sg","tr","us","vn"]},"geometry":["point","vertex"],"matchScore":2,"terms":["big bus tours"],"reference":{"key":"public_transport","value":"platform"},"tags":{"bus":"yes","network:wikidata":"Q6980608","public_transport":"platform"},"addTags":{"bus":"yes","highway":"bus_stop","network":"Big Bus Tours","network:wikidata":"Q6980608","public_transport":"platform"}},"public_transport/platform/bus_point/rta-d3b856":{"name":"Roads and Transport Authority (Dubai)","locationSet":{"include":["ae"]},"geometry":["point","vertex"],"matchScore":2,"terms":["roads and transport authority (dubai)","rta"],"reference":{"key":"public_transport","value":"platform"},"tags":{"bus":"yes","network:wikidata":"Q22101985","public_transport":"platform"},"addTags":{"bus":"yes","highway":"bus_stop","network":"RTA","network:wikidata":"Q22101985","operator":"Roads and Transport Authority (Dubai)","public_transport":"platform"}},"type/route/bus/bigbustours-5f2e08":{"name":"Big Bus Tours","locationSet":{"include":["ae","at","au","ca","cn","cz","de","eg","es","fr","gb","gr","hk","hu","ie","in","it","mx","my","no","nz","om","pl","ru","sg","tr","us","vn"]},"geometry":["relation"],"matchScore":2,"terms":["big bus tours"],"reference":{"key":"route","value":"bus"},"tags":{"network:wikidata":"Q6980608","route":"bus","type":"route"},"addTags":{"network":"Big Bus Tours","network:wikidata":"Q6980608","route":"bus","type":"route"}},"type/route/bus/rta-b78b85":{"name":"Roads and Transport Authority (Dubai)","locationSet":{"include":["ae"]},"geometry":["relation"],"matchScore":2,"terms":["roads and transport authority (dubai)","rta"],"reference":{"key":"route","value":"bus"},"tags":{"network:wikidata":"Q22101985","route":"bus","type":"route"},"addTags":{"network":"RTA","network:wikidata":"Q22101985","operator":"Roads and Transport Authority (Dubai)","route":"bus","type":"route"}}}