{"amenity/atm/intesasanpaolo-b483ef":{"name":"Intesa Sanpaolo","locationSet":{"include":["kz","kg","tj","tm","uz","cn","hk","mo","kp","jp","mn","kr","bn","kh","id","la","my","mm","ph","sg","th","tl","vn","af","bd","bt","in","ir","mv","np","pk","lk","am","az","bh","cy","ge","iq","il","jo","kw","lb","om","qa","sa","ps","sy","tr","ae","ye","by","bg","cz","hu","pl","md","ro","ru","sk","ua","ax","gg","je","cq","dk","ee","fo","fi","is","ie","im","lv","lt","no","sj","se","gb","al","ad","ba","hr","gi","gr","va","it","mt","me","mk","pt","sm","rs","si","es","xk","at","be","fr","de","li","lu","mc","nl","ch","au-nsw","br","eg","us-dc"],"exclude":["rs","ua"]},"geometry":["point","vertex"],"matchScore":2,"terms":["banca intesa","banca popolare di vicenza","banco di napoli","carisbo","cassa di risparmio del veneto","cassa di risparmio di firenze","intesa sanpaolo","intesa sanpaolo s.p.a.","ubi banca","veneto banca"],"tags":{"amenity":"atm","brand:wikidata":"Q1343118"},"addTags":{"amenity":"atm","brand":"Intesa Sanpaolo","brand:wikidata":"Q1343118","operator":"Intesa Sanpaolo","operator:wikidata":"Q1343118"}},"amenity/atm/qnb-8b9bb3":{"name":"QNB","locationSet":{"include":["eg","om","qa","sy","tn"]},"geometry":["point","vertex"],"matchScore":2,"terms":["qatar national bank","qnb","qnb bank","البنك القطري","بنك قطر الوطني","بنك قطر الوطني مصر"],"tags":{"amenity":"atm","brand:wikidata":"Q1136759"},"addTags":{"amenity":"atm","brand":"QNB","brand:ar":"بنك قطر الوطني","brand:en":"QNB","brand:wikidata":"Q1136759","operator":"QNB","operator:wikidata":"Q1136759"}},"amenity/bank/intesasanpaolo-28f235":{"name":"Intesa Sanpaolo","locationSet":{"include":["kz","kg","tj","tm","uz","cn","hk","mo","kp","jp","mn","kr","bn","kh","id","la","my","mm","ph","sg","th","tl","vn","af","bd","bt","in","ir","mv","np","pk","lk","am","az","bh","cy","ge","iq","il","jo","kw","lb","om","qa","sa","ps","sy","tr","ae","ye","by","bg","cz","hu","pl","md","ro","ru","sk","ua","ax","gg","je","cq","dk","ee","fo","fi","is","ie","im","lv","lt","no","sj","se","gb","al","ad","ba","hr","gi","gr","va","it","mt","me","mk","pt","sm","rs","si","es","xk","at","be","fr","de","li","lu","mc","nl","ch","au-nsw","br","eg","us-dc"],"exclude":["rs","ua"]},"geometry":["point","area"],"matchScore":2,"terms":["banca intesa","banca popolare di vicenza","banco di napoli","carisbo","cassa di risparmio del veneto","cassa di risparmio di firenze","intesa sanpaolo","intesa sanpaolo s.p.a.","ubi banca","veneto banca"],"tags":{"amenity":"bank","brand:wikidata":"Q1343118"},"addTags":{"amenity":"bank","brand":"Intesa Sanpaolo","brand:wikidata":"Q1343118","name":"Intesa Sanpaolo"}},"amenity/bank/qnb-1ee5d6":{"name":"QNB","locationSet":{"include":["eg","om","qa","sy","tn"]},"geometry":["point","area"],"matchScore":2,"terms":["qatar national bank","qnb","qnb bank","البنك القطري","بنك قطر الوطني","بنك قطر الوطني مصر"],"tags":{"amenity":"bank","brand:wikidata":"Q1136759"},"addTags":{"amenity":"bank","brand":"QNB","brand:ar":"بنك قطر الوطني","brand:en":"QNB","brand:wikidata":"Q1136759","name":"QNB","name:ar":"بنك قطر الوطني","name:en":"QNB"}},"amenity/fast_food/chicken/dixychicken-d5291b":{"name":"Dixy Chicken","locationSet":{"include":["bn","gb","in","no","nz","pk","sa","sy","us"]},"geometry":["point","area"],"matchScore":2,"terms":["dixy chicken"],"reference":{"key":"cuisine","value":"chicken"},"tags":{"amenity":"fast_food","brand:wikidata":"Q5285003","cuisine":"chicken"},"addTags":{"amenity":"fast_food","brand":"Dixy Chicken","brand:wikidata":"Q5285003","cuisine":"chicken","diet:halal":"yes","name":"Dixy Chicken","takeaway":"yes"}},"amenity/fast_food/donut/ladonuteria-369100":{"name":"La Donuteria","locationSet":{"include":["am","az","bh","cy","ge","iq","il","jo","kw","lb","om","qa","sa","ps","sy","tr","ae","ye","by","bg","cz","hu","pl","md","ro","ru","sk","ua","ax","gg","je","cq","dk","ee","fo","fi","is","ie","im","lv","lt","no","sj","se","gb","al","ad","ba","hr","gi","gr","va","it","mt","me","mk","pt","sm","rs","si","es","xk","at","be","fr","de","li","lu","mc","nl","ch"]},"geometry":["point","area"],"matchScore":2,"terms":["la donuteria"],"reference":{"key":"cuisine","value":"donut"},"tags":{"amenity":"fast_food","brand:wikidata":"Q136734522","cuisine":"donut;coffee_shop"},"addTags":{"alt_name":"La Donuteria","amenity":"fast_food","brand":"La Donuteria","brand:wikidata":"Q136734522","cuisine":"donut;coffee_shop","name":"La Donuteria","takeaway":"yes"}},"amenity/fast_food/chicken/kfc-15a250":{"name":"دجاج كنتاكي","locationSet":{"include":["ae","bh","eg","iq","jo","kw","lb","ly","ma","om","qa","sa","sd","sy","tn","ye"]},"geometry":["point","area"],"matchScore":2,"terms":["kfc","دجاج كنتاكي"],"reference":{"key":"cuisine","value":"chicken"},"tags":{"amenity":"fast_food","brand:wikidata":"Q524757","cuisine":"chicken"},"addTags":{"amenity":"fast_food","brand":"دجاج كنتاكي","brand:ar":"دجاج كنتاكي","brand:en":"KFC","brand:wikidata":"Q524757","cuisine":"chicken","name":"دجاج كنتاكي","name:ar":"دجاج كنتاكي","name:en":"KFC","takeaway":"yes"}},"amenity/fast_food/burger/mcdonalds-19c993":{"name":"ماكدونالدز","locationSet":{"include":["ae","bh","eg","iq","jo","kw","lb","ma","om","qa","sa","sy","tn"]},"geometry":["point","area"],"matchScore":2,"terms":["mcdonald's","ماكدونالدز"],"reference":{"key":"cuisine","value":"burger"},"tags":{"amenity":"fast_food","brand:wikidata":"Q38076","cuisine":"burger"},"addTags":{"amenity":"fast_food","brand":"ماكدونالدز","brand:ar":"ماكدونالدز","brand:en":"McDonald's","brand:wikidata":"Q38076","cuisine":"burger","name":"ماكدونالدز","name:ar":"ماكدونالدز","name:en":"McDonald's","takeaway":"yes"}},"landuse/industrial/gebruderweiss-dd5b7d":{"name":"Gebrüder Weiss","locationSet":{"include":["kz","kg","tj","tm","uz","cn","hk","mo","kp","jp","mn","kr","bn","kh","id","la","my","mm","ph","sg","th","tl","vn","af","bd","bt","in","ir","mv","np","pk","lk","am","az","bh","cy","ge","iq","il","jo","kw","lb","om","qa","sa","ps","sy","tr","ae","ye","by","bg","cz","hu","pl","md","ro","ru","sk","ua","ax","gg","je","cq","dk","ee","fo","fi","is","ie","im","lv","lt","no","sj","se","gb","al","ad","ba","hr","gi","gr","va","it","mt","me","mk","pt","sm","rs","si","es","xk","at","be","fr","de","li","lu","mc","nl","ch","au","ca","nz","us"]},"geometry":["area"],"matchScore":2,"terms":["gebrüder weiss"],"fields":["name","brand","{landuse/industrial}"],"preserveTags":["^name"],"tags":{"brand:wikidata":"Q1497233","landuse":"industrial"},"addTags":{"brand":"Gebrüder Weiss","brand:wikidata":"Q1497233","industrial":"warehouse","landuse":"industrial","name":"Gebrüder Weiss"}},"office/employment_agency/randstad-413737":{"name":"Randstad","locationSet":{"include":["ad","at","au","be","ca","ch","cn","cz","de","dk","es","fr","gb","gr","hu","ie","in","it","jp","lu","mc","mx","my","nl","no","nz","pl","pt","ro","se","sg","sy","tk","us"]},"geometry":["point","area"],"matchScore":2,"terms":["randstad"],"tags":{"brand:wikidata":"Q267840","office":"employment_agency"},"addTags":{"brand":"Randstad","brand:wikidata":"Q267840","name":"Randstad","office":"employment_agency"}},"office/gebruderweiss-3fef46":{"name":"Gebrüder Weiss","locationSet":{"include":["kz","kg","tj","tm","uz","cn","hk","mo","kp","jp","mn","kr","bn","kh","id","la","my","mm","ph","sg","th","tl","vn","af","bd","bt","in","ir","mv","np","pk","lk","am","az","bh","cy","ge","iq","il","jo","kw","lb","om","qa","sa","ps","sy","tr","ae","ye","by","bg","cz","hu","pl","md","ro","ru","sk","ua","ax","gg","je","cq","dk","ee","fo","fi","is","ie","im","lv","lt","no","sj","se","gb","al","ad","ba","hr","gi","gr","va","it","mt","me","mk","pt","sm","rs","si","es","xk","at","be","fr","de","li","lu","mc","nl","ch","au","ca","nz","us"]},"geometry":["point","vertex","area"],"matchScore":2,"terms":["gebrüder weiss"],"fields":["name","brand","{office}"],"preserveTags":["^name"],"tags":{"brand:wikidata":"Q1497233","office":"logistics"},"addTags":{"brand":"Gebrüder Weiss","brand:wikidata":"Q1497233","name":"Gebrüder Weiss","office":"logistics"}},"shop/mobile_phone/mtn-fe03c5":{"name":"MTN","locationSet":{"include":["af","bj","bw","cg","ci","cm","gn","gw","ir","lr","ni","rw","sd","ss","sy","ug","ye","za","zm"]},"geometry":["point","area"],"matchScore":2,"terms":["agence mtn","mtn"],"tags":{"brand:wikidata":"Q1813361","shop":"mobile_phone"},"addTags":{"brand":"MTN","brand:wikidata":"Q1813361","name":"MTN","shop":"mobile_phone"}},"amenity/courthouse/7984dc-9b3f30":{"name":"وزارة العدل (سوريا)","locationSet":{"include":["sy"]},"geometry":["point","area"],"matchScore":2,"terms":["وزارة العدل"],"tags":{"amenity":"courthouse","operator:wikidata":"Q4294874"},"addTags":{"amenity":"courthouse","operator":"وزارة العدل","operator:wikidata":"Q4294874"}},"man_made/mast/communication/mtn-a5a5e8":{"name":"MTN","locationSet":{"include":["af","bj","bw","cg","ci","cm","gn","gw","ir","lr","ni","rw","sd","ss","sy","ug","ye","za","zm"]},"geometry":["point","vertex"],"matchScore":2,"terms":["agence mtn","mtn"],"reference":{"key":"tower:type","value":"communication"},"tags":{"man_made":"mast","operator:wikidata":"Q1813361","tower:type":"communication"},"addTags":{"man_made":"mast","operator":"MTN","operator:wikidata":"Q1813361","tower:type":"communication"}},"man_made/tower/communication/mtn-a1bc20":{"name":"MTN","locationSet":{"include":["af","bj","bw","cg","ci","cm","gn","gw","ir","lr","ni","rw","sd","ss","sy","ug","ye","za","zm"]},"geometry":["point","vertex","area"],"matchScore":2,"terms":["agence mtn","mtn"],"reference":{"key":"tower:type","value":"communication"},"tags":{"man_made":"tower","operator:wikidata":"Q1813361","tower:type":"communication"},"addTags":{"man_made":"tower","operator":"MTN","operator:wikidata":"Q1813361","tower:type":"communication"}}}