{"advertising/totem/caltex-0f1005":{"name":"Caltex","locationSet":{"include":["ae","au","eg","hk","id","kh","kr","lk","my","nz","ph","pk","sa","sg","th","vn","za"]},"geometry":["point","line"],"matchScore":2,"terms":["caltex"],"tags":{"advertising":"totem","brand:wikidata":"Q277470"},"addTags":{"advertising":"totem","brand":"Caltex","brand:wikidata":"Q277470"}},"advertising/totem/misrpetroleum-cc1292":{"name":"Misr Petroleum","locationSet":{"include":["eg"]},"geometry":["point","line"],"matchScore":2,"terms":["misr petroleum","مصر للبترول"],"tags":{"advertising":"totem","brand:wikidata":"Q10982617"},"addTags":{"advertising":"totem","brand":"Misr Petroleum","brand:ar":"مصر للبترول","brand:en":"Misr Petroleum","brand:wikidata":"Q10982617"}},"advertising/totem/oilibya-11febf":{"name":"Oilibya","locationSet":{"include":["dz","eg","ly","ma","sd","tn","eh","io","bi","km","dj","er","et","tf","ke","mg","mw","mu","yt","mz","re","rw","sc","so","ss","ug","tz","zm","zw","ao","cm","cf","td","cg","cd","gq","ga","st","bw","sz","ls","na","za","bj","bf","cv","ci","gm","gh","gn","gw","lr","ml","mr","ne","ng","sn","sl","tg","sh","bd"]},"geometry":["point","line"],"matchScore":2,"terms":["oilibia","oilibiya","oilibya","oillibia","oilliby","oillibya","oillybia","oilybia","olibya","olybia"],"tags":{"advertising":"totem","brand:wikidata":"Q7081491"},"addTags":{"advertising":"totem","brand":"Oilibya","brand:wikidata":"Q7081491"}},"advertising/totem/shell-ad9852":{"name":"شل","locationSet":{"include":["eg","ma","om","tn"]},"geometry":["point","line"],"matchScore":2,"terms":["shell","shell شل","شل"],"tags":{"advertising":"totem","brand:wikidata":"Q110716465"},"addTags":{"advertising":"totem","brand":"شل","brand:ar":"شل","brand:en":"Shell","brand:wikidata":"Q110716465"}},"amenity/atm/abudhabicommercialbank-878fb9":{"name":"Abu Dhabi Commercial Bank","locationSet":{"include":["ae","eg"]},"geometry":["point","vertex"],"matchScore":2,"terms":["abu dhabi commercial bank","adcb","adcb atm","adcb branch"],"fields":["name","brand","{amenity/atm}"],"preserveTags":["^name"],"tags":{"amenity":"atm","brand:wikidata":"Q4670123"},"addTags":{"amenity":"atm","brand":"Abu Dhabi Commercial Bank","brand:en":"Abu Dhabi Commercial Bank","brand:wikidata":"Q4670123","operator":"Abu Dhabi Commercial Bank","operator:wikidata":"Q4670123"}},"amenity/atm/abudhabiislamicbank-478f8d":{"name":"Abu Dhabi Islamic Bank","locationSet":{"include":["ae","eg","ir"]},"geometry":["point","vertex"],"matchScore":2,"terms":["abu dhabi islamic bank","مصرف ابوظبي الاسلامي"],"fields":["name","brand","{amenity/atm}"],"preserveTags":["^name"],"tags":{"amenity":"atm","brand:wikidata":"Q4670141"},"addTags":{"amenity":"atm","brand":"Abu Dhabi Islamic Bank","brand:ar":"مصرف ابوظبي الاسلامي","brand:en":"Abu Dhabi Islamic Bank","brand:wikidata":"Q4670141","operator":"Abu Dhabi Islamic Bank","operator:wikidata":"Q4670141"}},"amenity/atm/alahlibankofkuwait-a8c47f":{"name":"Al Ahli Bank of Kuwait","locationSet":{"include":["eg","kw"]},"geometry":["point","vertex"],"matchScore":2,"terms":["al ahli bank of kuwait","البنك الأهلي الكويتي"],"fields":["name","brand","{amenity/atm}"],"preserveTags":["^name"],"tags":{"amenity":"atm","brand:wikidata":"Q12184633"},"addTags":{"amenity":"atm","brand":"Al Ahli Bank of Kuwait","brand:ar":"البنك الأهلي الكويتي","brand:en":"Al Ahli Bank of Kuwait","brand:wikidata":"Q12184633","operator":"Al Ahli Bank of Kuwait","operator:wikidata":"Q12184633"}},"amenity/atm/alexbank-443494":{"name":"Alexbank","locationSet":{"include":["eg"]},"geometry":["point","vertex"],"matchScore":2,"terms":["alexbank","bank of alexandria","بنك الاسكندريه"],"fields":["name","brand","{amenity/atm}"],"preserveTags":["^name"],"tags":{"amenity":"atm","brand:wikidata":"Q4856020"},"addTags":{"amenity":"atm","brand":"Alexbank","brand:ar":"بنك الاسكندريه","brand:en":"Alexbank","brand:wikidata":"Q4856020","operator":"Alexbank","operator:wikidata":"Q4856020"}},"amenity/atm/arabafricaninternationalbank-562d7d":{"name":"Arab African International Bank","locationSet":{"include":["ae","eg","lb"]},"geometry":["point","vertex"],"matchScore":2,"terms":["arab african international bank","البنك العربي الإفريقي الدولي"],"fields":["name","brand","{amenity/atm}"],"preserveTags":["^name"],"tags":{"amenity":"atm","brand:wikidata":"Q126391861"},"addTags":{"amenity":"atm","brand":"Arab African International Bank","brand:ar":"البنك العربي الإفريقي الدولي","brand:en":"Arab African International Bank","brand:wikidata":"Q126391861","operator":"Arab African International Bank","operator:wikidata":"Q126391861"}},"amenity/atm/attijariwafabank-e568eb":{"name":"Attijariwafa Bank (التجاري وفا بنك)","locationSet":{"include":["ae","be","bf","bj","ca","cd","cg","ch","ci","cm","eg","es","fr","ga","gb","it","ma","mr","nl","sa","sn","tg","tn"]},"geometry":["point","vertex"],"matchScore":2,"terms":["attijariwafa bank","attijariwafa bank التجاري وفا بنك","التجاري وفا بنك"],"fields":["name","brand","{amenity/atm}"],"preserveTags":["^name"],"tags":{"amenity":"atm","brand:wikidata":"Q758052"},"addTags":{"amenity":"atm","brand":"Attijariwafa Bank","brand:ar":"التجاري وفا بنك","brand:en":"Attijariwafa Bank","brand:wikidata":"Q758052","operator":"Attijariwafa Bank","operator:wikidata":"Q758052"}},"amenity/atm/banqueducaire-443494":{"name":"Banque du Caire","locationSet":{"include":["eg"]},"geometry":["point","vertex"],"matchScore":2,"terms":["banque du caire","بنك القاهرة"],"fields":["name","brand","{amenity/atm}"],"preserveTags":["^name"],"tags":{"amenity":"atm","brand:wikidata":"Q4857077"},"addTags":{"amenity":"atm","brand":"Banque du Caire","brand:ar":"بنك القاهرة","brand:en":"Banque du Caire","brand:wikidata":"Q4857077","operator":"Banque du Caire","operator:wikidata":"Q4857077"}},"amenity/atm/banquemisr-443494":{"name":"Banque Misr","locationSet":{"include":["eg"]},"geometry":["point","vertex"],"matchScore":2,"terms":["banque misr"],"fields":["name","brand","{amenity/atm}"],"preserveTags":["^name"],"tags":{"amenity":"atm","brand:wikidata":"Q2060638"},"addTags":{"amenity":"atm","brand":"Banque Misr","brand:wikidata":"Q2060638","operator":"Banque Misr","operator:wikidata":"Q2060638"}},"amenity/atm/commercialinternationalbank-443494":{"name":"Commercial International Bank","locationSet":{"include":["eg"]},"geometry":["point","vertex"],"matchScore":2,"terms":["commercial international bank","البنك التجاري الدولي"],"fields":["name","brand","{amenity/atm}"],"preserveTags":["^name"],"tags":{"amenity":"atm","brand:wikidata":"Q5152506"},"addTags":{"amenity":"atm","brand":"Commercial International Bank","brand:ar":"البنك التجاري الدولي","brand:en":"Commercial International Bank","brand:wikidata":"Q5152506","operator":"Commercial International Bank","operator:wikidata":"Q5152506"}},"amenity/atm/creditagricole-bcd54e":{"name":"Crédit Agricole","locationSet":{"include":["eg","fr","pl","ua"]},"geometry":["point","vertex"],"matchScore":2,"terms":["crédit agricole","crédit agricole bank"],"fields":["name","brand","{amenity/atm}"],"preserveTags":["^name"],"tags":{"amenity":"atm","brand:wikidata":"Q590952"},"addTags":{"amenity":"atm","brand":"Crédit Agricole","brand:wikidata":"Q590952","operator":"Crédit Agricole","operator:wikidata":"Q590952"}},"amenity/atm/firstabudhabibank-878fb9":{"name":"First Abu Dhabi Bank","locationSet":{"include":["ae","eg"]},"geometry":["point","vertex"],"matchScore":2,"terms":["first abu dhabi bank","بنك أبو ظبي الأول"],"fields":["name","brand","{amenity/atm}"],"preserveTags":["^name"],"tags":{"amenity":"atm","brand:wikidata":"Q29124183"},"addTags":{"amenity":"atm","brand":"First Abu Dhabi Bank","brand:ar":"بنك أبو ظبي الأول","brand:en":"First Abu Dhabi Bank","brand:wikidata":"Q29124183","operator":"First Abu Dhabi Bank","operator:wikidata":"Q29124183"}},"amenity/atm/housinganddevelopmentbank-443494":{"name":"Housing and Development Bank","locationSet":{"include":["eg"]},"geometry":["point","vertex"],"matchScore":2,"terms":["housing and development bank","بنك التعمير والإسكان"],"fields":["name","brand","{amenity/atm}"],"preserveTags":["^name"],"tags":{"amenity":"atm","brand:wikidata":"Q12199339"},"addTags":{"amenity":"atm","brand":"Housing and Development Bank","brand:ar":"بنك التعمير والإسكان","brand:en":"Housing and Development Bank","brand:wikidata":"Q12199339","operator":"Housing and Development Bank","operator:wikidata":"Q12199339"}},"amenity/atm/mashreq-878fb9":{"name":"Mashreq","locationSet":{"include":["ae","eg"]},"geometry":["point","vertex"],"matchScore":2,"terms":["mashreq","mashreq atm","mashreq bank","mashreq ccdm"],"fields":["name","brand","{amenity/atm}"],"preserveTags":["^name"],"tags":{"amenity":"atm","brand:wikidata":"Q1538829"},"addTags":{"amenity":"atm","brand":"Mashreq","brand:en":"Mashreq","brand:wikidata":"Q1538829","operator":"Mashreq","operator:wikidata":"Q1538829"}},"amenity/atm/nationalbankofegypt-443494":{"name":"National Bank of Egypt","locationSet":{"include":["eg"]},"geometry":["point","vertex"],"matchScore":2,"terms":["national bank of egypt","البنك الأهلي المصري"],"fields":["name","brand","{amenity/atm}"],"preserveTags":["^name"],"tags":{"amenity":"atm","brand:wikidata":"Q4119563"},"addTags":{"amenity":"atm","brand":"National Bank of Egypt","brand:ar":"البنك الأهلي المصري","brand:en":"National Bank of Egypt","brand:wikidata":"Q4119563","operator":"National Bank of Egypt","operator:wikidata":"Q4119563"}},"amenity/atm/qnb-8b9bb3":{"name":"QNB","locationSet":{"include":["eg","om","qa","sy","tn"]},"geometry":["point","vertex"],"matchScore":2,"terms":["qatar national bank","qnb","qnb bank","البنك القطري","بنك قطر الوطني","بنك قطر الوطني مصر"],"fields":["name","brand","{amenity/atm}"],"preserveTags":["^name"],"tags":{"amenity":"atm","brand:wikidata":"Q1136759"},"addTags":{"amenity":"atm","brand":"QNB","brand:ar":"بنك قطر الوطني","brand:en":"QNB","brand:wikidata":"Q1136759","operator":"QNB","operator:wikidata":"Q1136759"}},"amenity/atm/saib-443494":{"name":"SAIB","locationSet":{"include":["eg"]},"geometry":["point","vertex"],"matchScore":2,"terms":["saib","saib bank","societe arabe internationale de banque","بنك الشركة المصرفية العربية الدولية"],"fields":["name","brand","{amenity/atm}"],"preserveTags":["^name"],"tags":{"amenity":"atm","brand:wikidata":"Q59050464"},"addTags":{"amenity":"atm","brand":"SAIB","brand:wikidata":"Q59050464","operator":"SAIB","operator:wikidata":"Q59050464"}},"amenity/atm/stanbicbank-71787f":{"name":"Stanbic Bank","locationSet":{"include":["dz","eg","ly","ma","sd","tn","eh","io","bi","km","dj","er","et","tf","ke","mg","mw","mu","yt","mz","re","rw","sc","so","ss","ug","tz","zm","zw","ao","cm","cf","td","cg","cd","gq","ga","st","bw","sz","ls","na","za","bj","bf","cv","ci","gm","gh","gn","gw","lr","ml","mr","ne","ng","sn","sl","tg","sh"],"exclude":["gh"]},"geometry":["point","vertex"],"matchScore":2,"terms":["stanbic bank"],"fields":["name","brand","{amenity/atm}"],"preserveTags":["^name"],"tags":{"amenity":"atm","brand:wikidata":"Q7597999"},"addTags":{"amenity":"atm","brand":"Stanbic Bank","brand:wikidata":"Q7597999","operator":"Stanbic Bank","operator:wikidata":"Q7597999"}},"amenity/atm/theunitedbank-443494":{"name":"The United Bank","locationSet":{"include":["eg"]},"geometry":["point","vertex"],"matchScore":2,"terms":["the united bank","المصرف المتحد (مصر)"],"fields":["name","brand","{amenity/atm}"],"preserveTags":["^name"],"tags":{"amenity":"atm","brand:wikidata":"Q12193242"},"addTags":{"amenity":"atm","brand":"The United Bank","brand:ar":"المصرف المتحد (مصر)","brand:en":"The United Bank","brand:wikidata":"Q12193242","operator":"The United Bank","operator:wikidata":"Q12193242"}},"amenity/bank/abudhabicommercialbank-b21eb1":{"name":"Abu Dhabi Commercial Bank","locationSet":{"include":["ae","eg"]},"geometry":["point","area"],"matchScore":2,"terms":["abu dhabi commercial bank","adcb","adcb atm","adcb branch"],"tags":{"amenity":"bank","brand:wikidata":"Q4670123"},"addTags":{"amenity":"bank","brand":"Abu Dhabi Commercial Bank","brand:en":"Abu Dhabi Commercial Bank","brand:wikidata":"Q4670123","name":"Abu Dhabi Commercial Bank","name:en":"Abu Dhabi Commercial Bank"}},"amenity/bank/abudhabiislamicbank-92591a":{"name":"Abu Dhabi Islamic Bank","locationSet":{"include":["ae","eg","ir"]},"geometry":["point","area"],"matchScore":2,"terms":["abu dhabi islamic bank","مصرف ابوظبي الاسلامي"],"tags":{"amenity":"bank","brand:wikidata":"Q4670141"},"addTags":{"amenity":"bank","brand":"Abu Dhabi Islamic Bank","brand:ar":"مصرف ابوظبي الاسلامي","brand:en":"Abu Dhabi Islamic Bank","brand:wikidata":"Q4670141","name":"Abu Dhabi Islamic Bank","name:ar":"مصرف ابوظبي الاسلامي","name:en":"Abu Dhabi Islamic Bank"}},"amenity/bank/alahlibankofkuwait-0133d9":{"name":"Al Ahli Bank of Kuwait","locationSet":{"include":["eg","kw"]},"geometry":["point","area"],"matchScore":2,"terms":["al ahli bank of kuwait","البنك الأهلي الكويتي"],"tags":{"amenity":"bank","brand:wikidata":"Q12184633"},"addTags":{"amenity":"bank","brand":"Al Ahli Bank of Kuwait","brand:ar":"البنك الأهلي الكويتي","brand:en":"Al Ahli Bank of Kuwait","brand:wikidata":"Q12184633","name":"Al Ahli Bank of Kuwait","name:ar":"البنك الأهلي الكويتي","name:en":"Al Ahli Bank of Kuwait"}},"amenity/bank/alexbank-bbd826":{"name":"Alexbank","locationSet":{"include":["eg"]},"geometry":["point","area"],"matchScore":2,"terms":["alexbank","bank of alexandria","بنك الاسكندريه"],"tags":{"amenity":"bank","brand:wikidata":"Q4856020"},"addTags":{"amenity":"bank","brand":"Alexbank","brand:ar":"بنك الاسكندريه","brand:en":"Alexbank","brand:wikidata":"Q4856020","name":"Alexbank","name:ar":"بنك الاسكندريه","name:en":"Alexbank"}},"amenity/bank/arabafricaninternationalbank-86d644":{"name":"Arab African International Bank","locationSet":{"include":["ae","eg","lb"]},"geometry":["point","area"],"matchScore":2,"terms":["arab african international bank","البنك العربي الإفريقي الدولي"],"tags":{"amenity":"bank","brand:wikidata":"Q126391861"},"addTags":{"amenity":"bank","brand":"Arab African International Bank","brand:ar":"البنك العربي الإفريقي الدولي","brand:en":"Arab African International Bank","brand:wikidata":"Q126391861","name":"Arab African International Bank","name:ar":"البنك العربي الإفريقي الدولي","name:en":"Arab African International Bank"}},"amenity/bank/attijariwafabank-c1cae6":{"name":"Attijariwafa Bank (التجاري وفا بنك)","locationSet":{"include":["ae","be","bf","bj","ca","cd","cg","ch","ci","cm","eg","es","fr","ga","gb","it","ma","mr","nl","sa","sn","tg","tn"]},"geometry":["point","area"],"matchScore":2,"terms":["attijariwafa bank","attijariwafa bank التجاري وفا بنك","التجاري وفا بنك"],"tags":{"amenity":"bank","brand:wikidata":"Q758052"},"addTags":{"amenity":"bank","brand":"Attijariwafa Bank","brand:ar":"التجاري وفا بنك","brand:en":"Attijariwafa Bank","brand:wikidata":"Q758052","name:ar":"التجاري وفا بنك","name:en":"Attijariwafa Bank"}},"amenity/bank/banqueducaire-bbd826":{"name":"Banque du Caire","locationSet":{"include":["eg"]},"geometry":["point","area"],"matchScore":2,"terms":["banque du caire","بنك القاهرة"],"tags":{"amenity":"bank","brand:wikidata":"Q4857077"},"addTags":{"amenity":"bank","brand":"Banque du Caire","brand:ar":"بنك القاهرة","brand:en":"Banque du Caire","brand:wikidata":"Q4857077","name":"Banque du Caire","name:ar":"بنك القاهرة","name:en":"Banque du Caire"}},"amenity/bank/banquemisr-bbd826":{"name":"Banque Misr","locationSet":{"include":["eg"]},"geometry":["point","area"],"matchScore":2,"terms":["banque misr"],"tags":{"amenity":"bank","brand:wikidata":"Q2060638"},"addTags":{"amenity":"bank","brand":"Banque Misr","brand:wikidata":"Q2060638","name":"Banque Misr"}},"amenity/bank/commercialinternationalbank-bbd826":{"name":"Commercial International Bank","locationSet":{"include":["eg"]},"geometry":["point","area"],"matchScore":2,"terms":["cib","commercial international bank","البنك التجاري الدولي"],"tags":{"amenity":"bank","brand:wikidata":"Q5152506"},"addTags":{"amenity":"bank","brand":"Commercial International Bank","brand:ar":"البنك التجاري الدولي","brand:en":"Commercial International Bank","brand:wikidata":"Q5152506","name":"Commercial International Bank","name:ar":"البنك التجاري الدولي","name:en":"Commercial International Bank","short_name:en":"CIB"}},"amenity/bank/creditagricole-e0f11e":{"name":"Crédit Agricole","locationSet":{"include":["eg","fr","pl","ua"]},"geometry":["point","area"],"matchScore":2,"terms":["crédit agricole","crédit agricole bank"],"tags":{"amenity":"bank","brand:wikidata":"Q590952"},"addTags":{"amenity":"bank","brand":"Crédit Agricole","brand:wikidata":"Q590952","name":"Crédit Agricole"}},"amenity/bank/firstabudhabibank-b21eb1":{"name":"First Abu Dhabi Bank","locationSet":{"include":["ae","eg"]},"geometry":["point","area"],"matchScore":2,"terms":["first abu dhabi bank","بنك أبو ظبي الأول"],"tags":{"amenity":"bank","brand:wikidata":"Q29124183"},"addTags":{"amenity":"bank","brand":"First Abu Dhabi Bank","brand:ar":"بنك أبو ظبي الأول","brand:en":"First Abu Dhabi Bank","brand:wikidata":"Q29124183","name":"First Abu Dhabi Bank","name:ar":"بنك أبو ظبي الأول","name:en":"First Abu Dhabi Bank"}},"amenity/bank/housinganddevelopmentbank-bbd826":{"name":"Housing and Development Bank","locationSet":{"include":["eg"]},"geometry":["point","area"],"matchScore":2,"terms":["housing and development bank","بنك التعمير والإسكان"],"tags":{"amenity":"bank","brand:wikidata":"Q12199339"},"addTags":{"amenity":"bank","brand":"Housing and Development Bank","brand:ar":"بنك التعمير والإسكان","brand:en":"Housing and Development Bank","brand:wikidata":"Q12199339","name":"Housing and Development Bank","name:ar":"بنك التعمير والإسكان","name:en":"Housing and Development Bank"}},"amenity/bank/mashreq-b21eb1":{"name":"Mashreq","locationSet":{"include":["ae","eg"]},"geometry":["point","area"],"matchScore":2,"terms":["mashreq","mashreq atm","mashreq bank","mashreq ccdm"],"tags":{"amenity":"bank","brand:wikidata":"Q1538829"},"addTags":{"amenity":"bank","brand":"Mashreq","brand:en":"Mashreq","brand:wikidata":"Q1538829","name":"Mashreq","name:en":"Mashreq"}},"amenity/bank/nationalbankofegypt-bbd826":{"name":"National Bank of Egypt","locationSet":{"include":["eg"]},"geometry":["point","area"],"matchScore":2,"terms":["national bank of egypt","البنك الأهلي المصري"],"tags":{"amenity":"bank","brand:wikidata":"Q4119563"},"addTags":{"amenity":"bank","brand":"National Bank of Egypt","brand:ar":"البنك الأهلي المصري","brand:en":"National Bank of Egypt","brand:wikidata":"Q4119563","name":"National Bank of Egypt","name:ar":"البنك الأهلي المصري","name:en":"National Bank of Egypt"}},"amenity/bank/qnb-1ee5d6":{"name":"QNB","locationSet":{"include":["eg","om","qa","sy","tn"]},"geometry":["point","area"],"matchScore":2,"terms":["qatar national bank","qnb","qnb bank","البنك القطري","بنك قطر الوطني","بنك قطر الوطني مصر"],"tags":{"amenity":"bank","brand:wikidata":"Q1136759"},"addTags":{"amenity":"bank","brand":"QNB","brand:ar":"بنك قطر الوطني","brand:en":"QNB","brand:wikidata":"Q1136759","name":"QNB","name:ar":"بنك قطر الوطني","name:en":"QNB"}},"amenity/bank/saib-bbd826":{"name":"SAIB","locationSet":{"include":["eg"]},"geometry":["point","area"],"matchScore":2,"terms":["saib","saib bank","societe arabe internationale de banque","بنك الشركة المصرفية العربية الدولية"],"tags":{"amenity":"bank","brand:wikidata":"Q59050464"},"addTags":{"amenity":"bank","brand":"SAIB","brand:wikidata":"Q59050464","name":"SAIB"}},"amenity/bank/stanbicbank-b79c2d":{"name":"Stanbic Bank","locationSet":{"include":["dz","eg","ly","ma","sd","tn","eh","io","bi","km","dj","er","et","tf","ke","mg","mw","mu","yt","mz","re","rw","sc","so","ss","ug","tz","zm","zw","ao","cm","cf","td","cg","cd","gq","ga","st","bw","sz","ls","na","za","bj","bf","cv","ci","gm","gh","gn","gw","lr","ml","mr","ne","ng","sn","sl","tg","sh"],"exclude":["gh"]},"geometry":["point","area"],"matchScore":2,"terms":["stanbic bank"],"tags":{"amenity":"bank","brand:wikidata":"Q7597999"},"addTags":{"amenity":"bank","brand":"Stanbic Bank","brand:wikidata":"Q7597999","name":"Stanbic Bank"}},"amenity/bank/theunitedbank-bbd826":{"name":"The United Bank","locationSet":{"include":["eg"]},"geometry":["point","area"],"matchScore":2,"terms":["the united bank","المصرف المتحد (مصر)"],"tags":{"amenity":"bank","brand:wikidata":"Q12193242"},"addTags":{"amenity":"bank","brand":"The United Bank","brand:ar":"المصرف المتحد (مصر)","brand:en":"The United Bank","brand:wikidata":"Q12193242","name":"The United Bank","name:ar":"المصرف المتحد (مصر)","name:en":"The United Bank"}},"amenity/cafe/coffee_shop/mikel-349bad":{"name":"Mikel","locationSet":{"include":["ae","au","cy","de","eg","gb","gr","sa","us"]},"geometry":["point","area"],"matchScore":2,"terms":["mikel"],"reference":{"key":"cuisine","value":"coffee_shop"},"tags":{"amenity":"cafe","brand:wikidata":"Q16952021","cuisine":"coffee_shop"},"addTags":{"amenity":"cafe","brand":"Mikel","brand:wikidata":"Q16952021","cuisine":"coffee_shop","name":"Mikel","takeaway":"yes"}},"amenity/cafe/coffee_shop/starbucks-0dcee5":{"name":"ستاربكس","locationSet":{"include":["ae","bh","dz","eg","iq","jo","kw","lb","ly","ma","om","qa","sa","tn"]},"geometry":["point","area"],"matchScore":2,"terms":["starbucks","starbucks coffee","starbucks middle east","ستاربكس","ستاربكس كافية"],"reference":{"key":"cuisine","value":"coffee_shop"},"tags":{"amenity":"cafe","brand:wikidata":"Q37158","cuisine":"coffee_shop"},"addTags":{"amenity":"cafe","brand":"ستاربكس","brand:ar":"ستاربكس","brand:en":"Starbucks","brand:wikidata":"Q37158","cuisine":"coffee_shop","name":"ستاربكس","name:ar":"ستاربكس","name:en":"Starbucks","official_name":"ستاربكس كافية","official_name:ar":"ستاربكس كافية","official_name:en":"Starbucks Coffee","takeaway":"yes"}},"amenity/cafe/coffee_shop/cariboucoffee-9bd633":{"name":"كاريبو كوفي","locationSet":{"include":["ae","bh","eg","kw","om","qa","sa"]},"geometry":["point","area"],"matchScore":2,"terms":["caribou coffee","كاريبو كوفي"],"reference":{"key":"cuisine","value":"coffee_shop"},"tags":{"amenity":"cafe","brand:wikidata":"Q5039494","cuisine":"coffee_shop"},"addTags":{"amenity":"cafe","brand":"كاريبو كوفي","brand:ar":"كاريبو كوفي","brand:en":"Caribou Coffee","brand:wikidata":"Q5039494","cuisine":"coffee_shop","name":"كاريبو كوفي","name:ar":"كاريبو كوفي","name:en":"Caribou Coffee","takeaway":"yes"}},"amenity/fast_food/sandwich/cookdoor-5f7df6":{"name":"Cook Door","locationSet":{"include":["ae","eg"]},"geometry":["point","area"],"matchScore":2,"terms":["cook door"],"reference":{"key":"cuisine","value":"sandwich"},"tags":{"amenity":"fast_food","brand:wikidata":"Q12236500","cuisine":"sandwich"},"addTags":{"amenity":"fast_food","brand":"Cook Door","brand:wikidata":"Q12236500","cuisine":"sandwich","name":"Cook Door","takeaway":"yes"}},"amenity/fast_food/donut/duckdonuts-6333a9":{"name":"Duck Donuts","locationSet":{"include":["ca-on","eg","sa","us-ar","us-az","us-ca","us-co","us-fl","us-ga","us-id","us-il","us-ks","us-ky","us-md","us-mi","us-mn","us-mo","us-nc","us-nj","us-ny","us-oh","us-pa","us-sc","us-tn","us-tx","us-ut","us-va"]},"geometry":["point","area"],"matchScore":2,"terms":["duck donuts","duck doughnuts"],"reference":{"key":"cuisine","value":"donut"},"tags":{"amenity":"fast_food","brand:wikidata":"Q54958282","cuisine":"donut"},"addTags":{"amenity":"fast_food","brand":"Duck Donuts","brand:wikidata":"Q54958282","cuisine":"donut","name":"Duck Donuts","takeaway":"yes"}},"amenity/fast_food/ikearestaurant-282b9d":{"name":"IKEA Restaurant","locationSet":{"include":["ae","at","au","bh","ca","ch","cz","de","dk","eg","es","fi","fr","gb","hr","hu","ie","in","it","jo","jp","kr","kw","ma","mx","my","no","ph","pl","pt","qa","ro","rs","sa","se","sg","si","sk","th","us"]},"geometry":["point","area"],"matchScore":2,"terms":["ikea","ikea restaurant","ресторан икеа"],"tags":{"amenity":"fast_food","brand:wikidata":"Q54078"},"addTags":{"amenity":"fast_food","brand":"IKEA","brand:wikidata":"Q54078","cuisine":"swedish","name":"IKEA Restaurant","name:en":"IKEA Restaurant","name:ru":"Ресторан ИКЕА","takeaway":"yes"}},"amenity/fast_food/sandwich/momen-f39225":{"name":"Mo'men","locationSet":{"include":["bh","eg","kw","ly","my","sa","sd"]},"geometry":["point","area"],"matchScore":2,"terms":["mo'men"],"reference":{"key":"cuisine","value":"sandwich"},"tags":{"amenity":"fast_food","brand:wikidata":"Q3317535","cuisine":"sandwich"},"addTags":{"amenity":"fast_food","brand":"Mo'men","brand:wikidata":"Q3317535","cuisine":"sandwich","name":"Mo'men","takeaway":"yes"}},"amenity/fast_food/mrpretzels-d3f544":{"name":"Mr. Pretzels","locationSet":{"include":["br","ca","cl","eg","fr","gb","il","kw","us","ve"]},"geometry":["point","area"],"matchScore":2,"terms":["mr. pretzels"],"tags":{"amenity":"fast_food","brand:wikidata":"Q115728208"},"addTags":{"amenity":"fast_food","brand":"Mr. Pretzels","brand:wikidata":"Q115728208","cuisine":"pretzel","name":"Mr. Pretzels","takeaway":"yes"}},"amenity/fast_food/sandwich/uppercrust-fb0467":{"name":"Upper Crust","locationSet":{"include":["dk","eg","es","fi","gb","ie","no","se"]},"geometry":["point","area"],"matchScore":2,"terms":["upper crust"],"reference":{"key":"cuisine","value":"sandwich"},"tags":{"amenity":"fast_food","brand:wikidata":"Q7898585","cuisine":"sandwich"},"addTags":{"amenity":"fast_food","brand":"Upper Crust","brand:wikidata":"Q7898585","cuisine":"sandwich","name":"Upper Crust","takeaway":"yes"}},"amenity/fast_food/chicken/altazaj-7c76bb":{"name":"الطازج","locationSet":{"include":["ae","bh","eg","jo","kw","lb","my","om","qa","sa","td","ye"]},"geometry":["point","area"],"matchScore":2,"terms":["al tazaj","الطازج"],"reference":{"key":"cuisine","value":"chicken"},"tags":{"amenity":"fast_food","brand:wikidata":"Q4704878","cuisine":"chicken"},"addTags":{"amenity":"fast_food","brand":"الطازج","brand:ar":"الطازج","brand:en":"Al Tazaj","brand:wikidata":"Q4704878","cuisine":"chicken","name":"الطازج","name:ar":"الطازج","name:en":"Al Tazaj","takeaway":"yes"}},"amenity/fast_food/donut/dunkindonuts-07d3e5":{"name":"دانكن دونتس","locationSet":{"include":["ae","bh","eg","kw","lb","om","qa","sa"]},"geometry":["point","area"],"matchScore":2,"terms":["dunkin'","dunkin' donuts","dunkin's","دانكن","دانكن دونتس"],"reference":{"key":"cuisine","value":"donut"},"tags":{"amenity":"fast_food","brand:wikidata":"Q847743","cuisine":"donut;coffee_shop"},"addTags":{"amenity":"fast_food","brand":"دانكن","brand:ar":"دانكن","brand:en":"Dunkin'","brand:wikidata":"Q847743","cuisine":"donut;coffee_shop","name":"دانكن دونتس","name:ar":"دانكن دونتس","name:en":"Dunkin' Donuts","takeaway":"yes"}},"amenity/fast_food/chicken/kfc-15a250":{"name":"دجاج كنتاكي","locationSet":{"include":["ae","bh","eg","iq","jo","kw","lb","ly","ma","om","qa","sa","sd","sy","tn","ye"]},"geometry":["point","area"],"matchScore":2,"terms":["kfc","دجاج كنتاكي"],"reference":{"key":"cuisine","value":"chicken"},"tags":{"amenity":"fast_food","brand:wikidata":"Q524757","cuisine":"chicken"},"addTags":{"amenity":"fast_food","brand":"دجاج كنتاكي","brand:ar":"دجاج كنتاكي","brand:en":"KFC","brand:wikidata":"Q524757","cuisine":"chicken","name":"دجاج كنتاكي","name:ar":"دجاج كنتاكي","name:en":"KFC","takeaway":"yes"}},"amenity/fast_food/donut/krispykrem-e5f89b":{"name":"كرسبي كريم","locationSet":{"include":["ae","bh","eg","kw","lb","qa","sa"]},"geometry":["point","area"],"matchScore":2,"terms":["krispy krem","كرسبي كريم"],"reference":{"key":"cuisine","value":"donut"},"tags":{"amenity":"fast_food","brand:wikidata":"Q1192805","cuisine":"donut"},"addTags":{"amenity":"fast_food","brand":"كرسبي كريم","brand:ar":"كرسبي كريم","brand:en":"Krispy Krem","brand:wikidata":"Q1192805","cuisine":"donut","name":"كرسبي كريم","name:ar":"كرسبي كريم","name:en":"Krispy Krem","takeaway":"yes"}},"amenity/fast_food/burger/mcdonalds-19c993":{"name":"ماكدونالدز","locationSet":{"include":["ae","bh","eg","iq","jo","kw","lb","ma","om","qa","sa","sy","tn"]},"geometry":["point","area"],"matchScore":2,"terms":["mcdonald's","ماكدونالدز"],"reference":{"key":"cuisine","value":"burger"},"tags":{"amenity":"fast_food","brand:wikidata":"Q38076","cuisine":"burger"},"addTags":{"amenity":"fast_food","brand":"ماكدونالدز","brand:ar":"ماكدونالدز","brand:en":"McDonald's","brand:wikidata":"Q38076","cuisine":"burger","name":"ماكدونالدز","name:ar":"ماكدونالدز","name:en":"McDonald's","takeaway":"yes"}},"amenity/fast_food/burger/herfy-5a6b9f":{"name":"هرفي","locationSet":{"include":["ae","bd","bh","eg","kw","sa"]},"geometry":["point","area"],"matchScore":2,"terms":["herfy","هرفي"],"reference":{"key":"cuisine","value":"burger"},"tags":{"amenity":"fast_food","brand:wikidata":"Q5738371","cuisine":"burger"},"addTags":{"amenity":"fast_food","brand":"هرفي","brand:ar":"هرفي","brand:en":"Herfy","brand:wikidata":"Q5738371","cuisine":"burger","name":"هرفي","name:ar":"هرفي","name:en":"Herfy","takeaway":"yes"}},"amenity/fuel/caltex-a02c05":{"name":"Caltex","locationSet":{"include":["ae","au","eg","hk","id","kh","kr","lk","my","nz","ph","pk","sa","sg","th","vn","za"]},"geometry":["point","area"],"matchScore":2,"terms":["caltex"],"fields":["name","brand","{amenity/fuel}"],"preserveTags":["^name"],"tags":{"amenity":"fuel","brand:wikidata":"Q277470"},"addTags":{"amenity":"fuel","brand":"Caltex","brand:wikidata":"Q277470","name":"Caltex"}},"amenity/fuel/misrpetroleum-c6c951":{"name":"Misr Petroleum","locationSet":{"include":["eg"]},"geometry":["point","area"],"matchScore":2,"terms":["misr petroleum","مصر للبترول"],"fields":["name","brand","{amenity/fuel}"],"preserveTags":["^name"],"tags":{"amenity":"fuel","brand:wikidata":"Q10982617"},"addTags":{"amenity":"fuel","brand":"Misr Petroleum","brand:ar":"مصر للبترول","brand:en":"Misr Petroleum","brand:wikidata":"Q10982617","name":"Misr Petroleum","name:ar":"مصر للبترول","name:en":"Misr Petroleum"}},"amenity/fuel/oilibya-5288c9":{"name":"Oilibya","locationSet":{"include":["dz","eg","ly","ma","sd","tn","eh","io","bi","km","dj","er","et","tf","ke","mg","mw","mu","yt","mz","re","rw","sc","so","ss","ug","tz","zm","zw","ao","cm","cf","td","cg","cd","gq","ga","st","bw","sz","ls","na","za","bj","bf","cv","ci","gm","gh","gn","gw","lr","ml","mr","ne","ng","sn","sl","tg","sh","bd"]},"geometry":["point","area"],"matchScore":2,"terms":["oilibia","oilibiya","oilibya","oillibia","oilliby","oillibya","oillybia","oilybia","olibya","olybia","أويليبيا"],"fields":["name","brand","{amenity/fuel}"],"preserveTags":["^name"],"tags":{"amenity":"fuel","brand:wikidata":"Q7081491"},"addTags":{"amenity":"fuel","brand":"Oilibya","brand:wikidata":"Q7081491","name":"Oilibya","name:ar":"أويليبيا","name:en":"Oilibya"}},"amenity/fuel/shell-7a1cc2":{"name":"شل","locationSet":{"include":["eg","ma","om","tn"]},"geometry":["point","area"],"matchScore":2,"terms":["shell","shell شل","شل"],"fields":["name","brand","{amenity/fuel}"],"preserveTags":["^name"],"tags":{"amenity":"fuel","brand:wikidata":"Q110716465"},"addTags":{"amenity":"fuel","brand":"شل","brand:ar":"شل","brand:en":"Shell","brand:wikidata":"Q110716465","name":"شل","name:ar":"شل","name:en":"Shell"}},"amenity/ice_cream/redmango-73fcc9":{"name":"Red Mango","locationSet":{"include":["ae","bh","eg","kw","mx","qa","sa","sv","us"]},"geometry":["point","area"],"matchScore":2,"terms":["red mango"],"tags":{"amenity":"ice_cream","brand:wikidata":"Q7304565"},"addTags":{"amenity":"ice_cream","brand":"Red Mango","brand:wikidata":"Q7304565","name":"Red Mango"}},"amenity/pharmacy/elezabypharmacy-40e07e":{"name":"El Ezaby Pharmacy","locationSet":{"include":["eg"]},"geometry":["point","area"],"matchScore":2,"terms":["el ezaby pharmacy","صيدلية العزبي"],"reference":{"key":"amenity","value":"pharmacy"},"tags":{"amenity":"pharmacy","brand:wikidata":"Q25450835"},"addTags":{"amenity":"pharmacy","brand":"El Ezaby Pharmacy","brand:ar":"صيدلية العزبي","brand:en":"El Ezaby Pharmacy","brand:wikidata":"Q25450835","healthcare":"pharmacy","name":"El Ezaby Pharmacy","name:ar":"صيدلية العزبي","name:en":"El Ezaby Pharmacy"}},"amenity/restaurant/arabiata-5ada12":{"name":"Arabiata","locationSet":{"include":["eg"]},"geometry":["point","area"],"matchScore":2,"terms":["arabiata","أرابياتا"],"tags":{"amenity":"restaurant","brand:wikidata":"Q133502046"},"addTags":{"amenity":"restaurant","brand":"Arabiata","brand:ar":"أرابياتا","brand:en":"Arabiata","brand:wikidata":"Q133502046","cuisine":"sandwich","name":"Arabiata","name:ar":"أرابياتا","name:en":"Arabiata"}},"amenity/restaurant/japanese/benihana-934c20":{"name":"Benihana","locationSet":{"include":["aw","br","ca","eg","gb","id","kw","lb","mx","pa","qa","ro","sa","sv","us"]},"geometry":["point","area"],"matchScore":2,"terms":["benihana","benihana of tokyo"],"reference":{"key":"cuisine","value":"japanese"},"tags":{"amenity":"restaurant","brand:wikidata":"Q4887996","cuisine":"japanese;teppanyaki;steak"},"addTags":{"amenity":"restaurant","brand":"Benihana","brand:wikidata":"Q4887996","cuisine":"japanese;teppanyaki;steak","name":"Benihana"}},"amenity/restaurant/pizza/happyjoes-386f0f":{"name":"Happy Joe's","locationSet":{"include":["eg","us-ia","us-il","us-mn","us-mo","us-nd","us-wi"]},"geometry":["point","area"],"matchScore":2,"terms":["happy joe's"],"reference":{"key":"cuisine","value":"pizza"},"tags":{"amenity":"restaurant","brand:wikidata":"Q5652885","cuisine":"pizza"},"addTags":{"amenity":"restaurant","brand":"Happy Joe's","brand:wikidata":"Q5652885","cuisine":"pizza","name":"Happy Joe's"}},"amenity/restaurant/american/ponderosasteakhouse-56c3a6":{"name":"Ponderosa Steakhouse","locationSet":{"include":["ae","eg","qa","us"]},"geometry":["point","area"],"matchScore":2,"terms":["ponderosa","ponderosa steakhouse","龐德羅莎"],"reference":{"key":"cuisine","value":"american"},"tags":{"amenity":"restaurant","brand:wikidata":"Q64038204","cuisine":"american;steak;buffet"},"addTags":{"amenity":"restaurant","brand":"Ponderosa Steakhouse","brand:en":"Ponderosa Steakhouse","brand:wikidata":"Q64038204","brand:zh":"龐德羅莎","cuisine":"american;steak;buffet","name":"Ponderosa Steakhouse","name:en":"Ponderosa Steakhouse","name:zh":"龐德羅莎"}},"leisure/indoor_play/smaland-74e8ab":{"name":"IKEA Småland","locationSet":{"include":["ae","au","ca","ch","cn","cz","de","dk","eg","es","fi","gb","hr","hu","ie","in","it","jp","kr","kw","my","no","ph","pl","pt","qa","ro","rs","se","sg","si","sk","us"]},"geometry":["point","area"],"matchScore":2,"terms":["ikea"],"tags":{"brand:wikidata":"Q54078","leisure":"indoor_play"},"addTags":{"brand":"IKEA","brand:wikidata":"Q54078","leisure":"indoor_play","name":"Småland","supervised":"yes"}},"office/insurance/allianz-400bd0":{"name":"Allianz","locationSet":{"include":["ae","ar","at","au","be","bh","bm","bn","br","ca","cg","ch","ci","cm","cn","co","cy","cz","de","dk","ee","eg","es","fi","fr","gb","gg","gh","gr","hr","hu","id","ie","in","is","it","ja","ke","kr","kw","la","li","lk","lt","lu","lv","ma","mg","mx","my","ng","nl","no","nz","om","ph","pk","pl","pt","qa","ro","ru","sa","se","sg","si","sk","sn","th","tr","tw","ua","us","za"]},"geometry":["point","area"],"matchScore":2,"terms":["allianz","allianz versicherung"],"fields":["name","brand","{office/insurance}"],"preserveTags":["^name"],"tags":{"brand:wikidata":"Q487292","office":"insurance"},"addTags":{"brand":"Allianz","brand:wikidata":"Q487292","name":"Allianz","office":"insurance"}},"office/insurance/axa-1820e0":{"name":"AXA","locationSet":{"include":["ae","ar","au","be","bh","bm","br","ca","ch","ci","cl","cm","cn","co","cz","de","dk","dz","eg","es","fi","fr","ga","gb","gr","id","ie","in","it","jp","kr","lb","lu","ma","mu","mx","my","ng","nl","no","om","pa","pe","ph","pl","pt","qa","sa","se","sg","sk","sn","th","tr","tw","us"]},"geometry":["point","area"],"matchScore":2,"terms":["axa"],"fields":["name","brand","{office/insurance}"],"preserveTags":["^name"],"tags":{"brand:wikidata":"Q160054","office":"insurance"},"addTags":{"brand":"AXA","brand:wikidata":"Q160054","name":"AXA","office":"insurance"}},"shop/bakery/milliescookies-376142":{"name":"Millie's Cookies","locationSet":{"include":["de","eg","fr","gb","hk","in","mt"]},"geometry":["point","area"],"matchScore":2,"terms":["millie's cookies"],"tags":{"brand:wikidata":"Q1935533","shop":"bakery"},"addTags":{"brand":"Millie's Cookies","brand:wikidata":"Q1935533","name":"Millie's Cookies","shop":"bakery"}},"shop/bakery/paul-652955":{"name":"Paul","locationSet":{"include":["ae","az","be","bh","by","ci","cy","cz","eg","es","fr","ga","gb","ge","gr","id","in","jo","jp","kw","kz","lb","lu","ma","mu","my","om","pa","ph","pl","pt","qa","ro","ru","sa","sg","th","tn","tw","ua","us","uz","vn","za"]},"geometry":["point","area"],"matchScore":2,"terms":["paul"],"tags":{"brand:wikidata":"Q3370417","shop":"bakery"},"addTags":{"brand":"Paul","brand:wikidata":"Q3370417","name":"Paul","shop":"bakery"}},"shop/car/proton-576082":{"name":"Proton","locationSet":{"include":["cl","eg","id","my","sg","th"]},"geometry":["point","area"],"matchScore":2,"terms":["proton"],"fields":["name","brand","{shop/car}"],"preserveTags":["^name"],"tags":{"brand:wikidata":"Q827306","shop":"car"},"addTags":{"brand":"Proton","brand:wikidata":"Q827306","name":"Proton","shop":"car"}},"shop/car_repair/proton-38d190":{"name":"Proton","locationSet":{"include":["cl","eg","id","my","sg","th"]},"geometry":["point","area"],"matchScore":2,"terms":["proton"],"fields":["name","brand","{shop/car_repair}"],"preserveTags":["^name"],"tags":{"brand:wikidata":"Q827306","shop":"car_repair"},"addTags":{"brand":"Proton","brand:wikidata":"Q827306","name":"Proton","shop":"car_repair"}},"shop/clothes/bsbfashion-3443a7":{"name":"BSB Fashion","locationSet":{"include":["al","am","bg","cy","eg","gr","ro","xk"]},"geometry":["point","area"],"matchScore":2,"terms":["bsb","bsb fashion"],"tags":{"brand:wikidata":"Q12721399","shop":"clothes"},"addTags":{"brand":"BSB Fashion","brand:wikidata":"Q12721399","clothes":"women","name":"BSB Fashion","shop":"clothes"}},"shop/convenience/bim-b82cfd":{"name":"BİM","locationSet":{"include":["eg","ma"]},"geometry":["point","area"],"matchScore":2,"terms":["bi̇m"],"tags":{"brand:wikidata":"Q1022075","shop":"convenience"},"addTags":{"brand":"BİM","brand:wikidata":"Q1022075","name":"BİM","shop":"convenience"}},"shop/department_store/omareffendi-6a6e97":{"name":"Omar Effendi","locationSet":{"include":["eg"]},"geometry":["point","area"],"matchScore":2,"terms":["omar effendi"],"tags":{"brand:wikidata":"Q6818793","shop":"department_store"},"addTags":{"brand":"Omar Effendi","brand:wikidata":"Q6818793","name":"Omar Effendi","shop":"department_store"}},"shop/furniture/ikea-d24a4f":{"name":"IKEA","locationSet":{"include":["ae","at","au","be","bh","ca","ch","cl","cz","de","eg","es","fr","gb","hr","hu","ie","il","in","it","jo","kr","kw","ma","mx","my","nl","ph","pl","pt","qa","ro","rs","sa","sg","si","sk","th","ua","us"]},"geometry":["point","area"],"matchScore":2,"terms":["ikea"],"tags":{"brand:wikidata":"Q54078","shop":"furniture"},"addTags":{"brand":"IKEA","brand:wikidata":"Q54078","name":"IKEA","shop":"furniture"}},"shop/kitchen/ixina-d089d8":{"name":"Ixina","locationSet":{"include":["ae","au","be","bf","bh","bj","ca","ci","cm","cn","cz","dz","ee","eg","fr","gh","hr","ke","kw","lu","ly","ma","mu","nl","pl","qa","ro","ru","sa","se","sn","tg","th","tn","vn"]},"geometry":["point","area"],"matchScore":2,"terms":["ixina"],"tags":{"brand:wikidata":"Q3156424","shop":"kitchen"},"addTags":{"brand":"Ixina","brand:wikidata":"Q3156424","name":"Ixina","shop":"kitchen"}},"shop/mobile_phone/orange-3f18db":{"name":"Orange","locationSet":{"include":["dz","eg","ly","ma","sd","tn","eh","io","bi","km","dj","er","et","tf","ke","mg","mw","mu","yt","mz","re","rw","sc","so","ss","ug","tz","zm","zw","ao","cm","cf","td","cg","cd","gq","ga","st","bw","sz","ls","na","za","bj","bf","cv","ci","gm","gh","gn","gw","lr","ml","mr","ne","ng","sn","sl","tg","sh","by","bg","cz","hu","pl","md","ro","ru","sk","ua","ax","gg","je","cq","dk","ee","fo","fi","is","ie","im","lv","lt","no","sj","se","gb","al","ad","ba","hr","gi","gr","va","it","mt","me","mk","pt","sm","rs","si","es","xk","at","be","fr","de","li","lu","mc","nl","ch","gf","gp","jo","mq"],"exclude":["ru"]},"geometry":["point","area"],"matchScore":2,"terms":["agence orange","orange","orange egypt"],"tags":{"brand:wikidata":"Q1431486","shop":"mobile_phone"},"addTags":{"brand":"Orange","brand:wikidata":"Q1431486","name":"Orange","shop":"mobile_phone"}},"shop/mobile_phone/vodafone-08fda3":{"name":"Vodafone (Egypt)","locationSet":{"include":["eg"]},"geometry":["point","area"],"matchScore":2,"terms":["vodafone egypt"],"tags":{"brand:wikidata":"Q1540525","shop":"mobile_phone"},"addTags":{"brand":"Vodafone Egypt","brand:wikidata":"Q1540525","name":"Vodafone","shop":"mobile_phone"}},"shop/pastry/monginis-299bf3":{"name":"Monginis (Egypt)","locationSet":{"include":["eg"]},"geometry":["point","area"],"matchScore":2,"terms":["monginis"],"tags":{"brand:wikidata":"Q6899504","shop":"pastry"},"addTags":{"brand":"Monginis","brand:wikidata":"Q6899504","diet:vegetarian":"yes","name":"Monginis","payment:cash":"yes","shop":"pastry","takeaway":"yes"}},"shop/supermarket/luluhypermarket-7e55ed":{"name":"Lulu Hypermarket","locationSet":{"include":["ae","bh","eg","id","in","kw","my","om","qa"]},"geometry":["point","area"],"matchScore":2,"terms":["lulu hypermarket"],"tags":{"brand:wikidata":"Q6702930","shop":"supermarket"},"addTags":{"brand":"Lulu Hypermarket","brand:wikidata":"Q6702930","name":"Lulu Hypermarket","shop":"supermarket"}},"shop/supermarket/abdullahalothaimmarkets-6c5d99":{"name":"أسواق عبد الله العثيم","locationSet":{"include":["eg","sa"]},"geometry":["point","area"],"matchScore":2,"terms":["abdullah alothaim markets","othaim","أسواق عبد الله العثيم","العثيم"],"tags":{"brand:wikidata":"Q12218555","shop":"supermarket"},"addTags":{"alt_name:ar":"العثيم","alt_name:en":"Othaim","brand":"أسواق عبد الله العثيم","brand:ar":"أسواق عبد الله العثيم","brand:en":"Abdullah AlOthaim Markets","brand:wikidata":"Q12218555","name":"أسواق عبد الله العثيم","name:ar":"أسواق عبد الله العثيم","name:en":"Abdullah AlOthaim Markets","shop":"supermarket"}},"shop/telecommunication/eand-5dfe5c":{"name":"e&","locationSet":{"include":["ae","eg"]},"geometry":["point","area"],"matchScore":2,"terms":["e&","etisalat","etisalat and","اتصالات","اتصالات والمزيد"],"tags":{"brand:wikidata":"Q543449","shop":"telecommunication"},"addTags":{"brand":"e&","brand:wikidata":"Q543449","name":"e&","shop":"telecommunication"}},"shop/telecommunication/telecomegypt-eeb498":{"name":"Telecom Egypt","locationSet":{"include":["eg"]},"geometry":["point","area"],"matchScore":2,"terms":["telecom egypt","المصرية للاتصالات"],"tags":{"brand:wikidata":"Q1583794","shop":"telecommunication"},"addTags":{"brand":"Telecom Egypt","brand:ar":"المصرية للاتصالات","brand:en":"Telecom Egypt","brand:wikidata":"Q1583794","name":"Telecom Egypt","name:ar":"المصرية للاتصالات","name:en":"Telecom Egypt","shop":"telecommunication"}},"shop/toys/hamleys-2271ec":{"name":"Hamleys","locationSet":{"include":["ae","al","cn","eg","gb","in","it","jo","mx","my","ph","qa","ru","za"]},"geometry":["point","area"],"matchScore":2,"terms":["hamleys"],"tags":{"brand:wikidata":"Q60299","shop":"toys"},"addTags":{"brand":"Hamleys","brand:wikidata":"Q60299","name":"Hamleys","shop":"toys"}},"tourism/hotel/barcelohotelsandresorts-302c40":{"name":"Barceló","locationSet":{"include":["ae","aw","bg","cr","cu","cz","de","do","eg","es","gr","gt","hu","it","ma","mv","mx","ni","om","pt","sv","tn","tr","us"]},"geometry":["point","area"],"matchScore":2,"terms":["barceló hotels & resorts"],"fields":["name","brand","{tourism/hotel}"],"preserveTags":["^name"],"tags":{"brand:wikidata":"Q15148996","tourism":"hotel"},"addTags":{"brand":"Barceló Hotels & Resorts","brand:wikidata":"Q15148996","name":"Barceló Hotels & Resorts","tourism":"hotel"}},"tourism/hotel/conrad-ee1a43":{"name":"Conrad Hotels & Resorts","locationSet":{"include":["ae","ca","cn","eg","gb","id","ie","in","jp","kr","mv","pf","ph","pt","sa","sg","th","tr","us"]},"geometry":["point","area"],"matchScore":2,"terms":["conrad"],"fields":["name","brand","{tourism/hotel}"],"preserveTags":["^name"],"tags":{"brand:wikidata":"Q855525","tourism":"hotel"},"addTags":{"brand":"Conrad","brand:wikidata":"Q855525","name":"Conrad","tourism":"hotel"}},"tourism/hotel/rixos-cdcd15":{"name":"Rixos","locationSet":{"include":["ae","eg","hr","kz","me","qa","sa","tr"]},"geometry":["point","area"],"matchScore":2,"terms":["rixos hotels"],"fields":["name","brand","{tourism/hotel}"],"preserveTags":["^name"],"tags":{"brand:wikidata":"Q6075716","tourism":"hotel"},"addTags":{"brand":"Rixos Hotels","brand:wikidata":"Q6075716","name":"Rixos","tourism":"hotel"}},"tourism/hotel/sonesta-690134":{"name":"Sonesta","locationSet":{"include":["ca","cl","co","ec","eg","pe","sx","us"]},"geometry":["point","area"],"matchScore":2,"terms":["sonesta","sonesta hotel"],"fields":["name","brand","{tourism/hotel}"],"preserveTags":["^name"],"tags":{"brand:wikidata":"Q81003878","tourism":"hotel"},"addTags":{"alt_name":"Sonesta Hotel","brand":"Sonesta","brand:wikidata":"Q81003878","name":"Sonesta","tourism":"hotel"}},"tourism/hotel/waldorfastoria-665f74":{"name":"Waldorf Astoria","locationSet":{"include":["ae","au","cn","de","eg","fx","gb","il","it","kw","mv","mx","nl","pa","sa","th","us"]},"geometry":["point","area"],"matchScore":2,"terms":["waldorf astoria"],"fields":["name","brand","{tourism/hotel}"],"preserveTags":["^name"],"tags":{"brand:wikidata":"Q3239392","tourism":"hotel"},"addTags":{"brand":"Waldorf Astoria","brand:wikidata":"Q3239392","name":"Waldorf Astoria","tourism":"hotel"}},"amenity/courthouse/7984dc-2080ca":{"name":"وزارة العدل (مصر)","locationSet":{"include":["eg"]},"geometry":["point","area"],"matchScore":2,"terms":["وزارة العدل"],"tags":{"amenity":"courthouse","operator:wikidata":"Q4294857"},"addTags":{"amenity":"courthouse","operator":"وزارة العدل","operator:wikidata":"Q4294857"}},"man_made/mast/communication/mobile_phone/vodafoneegypt-1329c8":{"name":"Vodafone (Egypt)","locationSet":{"include":["eg"]},"geometry":["point","vertex"],"matchScore":2,"terms":["vodafone","vodafone egypt"],"reference":{"key":"communication:mobile_phone","value":"yes"},"tags":{"communication:mobile_phone":"yes","man_made":"mast","operator:wikidata":"Q1540525","tower:type":"communication"},"addTags":{"communication:mobile_phone":"yes","man_made":"mast","operator":"Vodafone Egypt","operator:wikidata":"Q1540525","tower:type":"communication"}},"man_made/tower/communication/vodafoneegypt-48c88e":{"name":"Vodafone (Egypt)","locationSet":{"include":["eg"]},"geometry":["point","vertex","area"],"matchScore":2,"terms":["vodafone","vodafone egypt"],"reference":{"key":"tower:type","value":"communication"},"tags":{"man_made":"tower","operator:wikidata":"Q1540525","tower:type":"communication"},"addTags":{"communication:mobile_phone":"yes","man_made":"tower","operator":"Vodafone Egypt","operator:wikidata":"Q1540525","tower:type":"communication"}},"office/energy_supplier/naturgy-e15d8a":{"name":"Naturgy","locationSet":{"include":["ar","au","be","br","cl","cn","cr","de","do","dz","eg","es","fr","gb","ie","in","jm","jo","jp","lu","ma","mx","nl","om","pa","pe","pk","pr","pt","sg"]},"geometry":["point","area"],"matchScore":2,"terms":["naturgy"],"tags":{"office":"energy_supplier","operator:wikidata":"Q474690"},"addTags":{"name":"Naturgy","office":"energy_supplier","operator":"Naturgy","operator:wikidata":"Q474690"}}}