{"advertising/totem/afriquia-3f0b55":{"name":"Afriquia افريقيا","locationSet":{"include":["ma"]},"geometry":["point","line"],"matchScore":2,"terms":["afriquia","afriquia أفريقيا","afriquia افريقيا","أفريقيا","افريقيا"],"tags":{"advertising":"totem","brand:wikidata":"Q56300032"},"addTags":{"advertising":"totem","brand":"Afriquia افريقيا","brand:ar":"افريقيا","brand:fr":"Afriquia","brand:wikidata":"Q56300032"}},"advertising/totem/greenoil-3f0b55":{"name":"Green Oil","locationSet":{"include":["ma"]},"geometry":["point","line"],"matchScore":2,"terms":["green oil"],"tags":{"advertising":"totem","brand:wikidata":"Q88393926"},"addTags":{"advertising":"totem","brand":"Green Oil","brand:wikidata":"Q88393926"}},"advertising/totem/oilibya-11febf":{"name":"Oilibya","locationSet":{"include":["dz","eg","ly","ma","sd","tn","eh","io","bi","km","dj","er","et","tf","ke","mg","mw","mu","yt","mz","re","rw","sc","so","ss","ug","tz","zm","zw","ao","cm","cf","td","cg","cd","gq","ga","st","bw","sz","ls","na","za","bj","bf","cv","ci","gm","gh","gn","gw","lr","ml","mr","ne","ng","sn","sl","tg","sh","bd"]},"geometry":["point","line"],"matchScore":2,"terms":["oilibia","oilibiya","oilibya","oillibia","oilliby","oillibya","oillybia","oilybia","olibya","olybia"],"tags":{"advertising":"totem","brand:wikidata":"Q7081491"},"addTags":{"advertising":"totem","brand":"Oilibya","brand:wikidata":"Q7081491"}},"advertising/totem/petrom-3f0b55":{"name":"Petrom (Maroc)","locationSet":{"include":["ma"]},"geometry":["point","line"],"matchScore":2,"terms":["petrom"],"tags":{"advertising":"totem","brand:wikidata":"Q110028558"},"addTags":{"advertising":"totem","brand":"Petrom","brand:wikidata":"Q110028558"}},"advertising/totem/winxo-3f0b55":{"name":"Winxo","locationSet":{"include":["ma"]},"geometry":["point","line"],"matchScore":2,"terms":["winxo"],"tags":{"advertising":"totem","brand:wikidata":"Q88389320"},"addTags":{"advertising":"totem","brand":"Winxo","brand:wikidata":"Q88389320"}},"advertising/totem/ziz-3f0b55":{"name":"Ziz","locationSet":{"include":["ma"]},"geometry":["point","line"],"matchScore":2,"terms":["ziz"],"tags":{"advertising":"totem","brand:wikidata":"Q88393228"},"addTags":{"advertising":"totem","brand":"Ziz","brand:wikidata":"Q88393228"}},"advertising/totem/shell-ad9852":{"name":"شل","locationSet":{"include":["eg","ma","om","tn"]},"geometry":["point","line"],"matchScore":2,"terms":["shell","shell شل","شل"],"tags":{"advertising":"totem","brand:wikidata":"Q110716465"},"addTags":{"advertising":"totem","brand":"شل","brand:ar":"شل","brand:en":"Shell","brand:wikidata":"Q110716465"}},"amenity/atm/alakhdarbank-c2e240":{"name":"Al Akhdar Bank الأخضر بنك","locationSet":{"include":["ma"]},"geometry":["point","vertex"],"matchScore":2,"terms":["al akhdar bank","al akhdar bank الأخضر بنك","الأخضر بنك"],"tags":{"amenity":"atm","brand:wikidata":"Q137373145"},"addTags":{"amenity":"atm","brand":"Al Akhdar Bank الأخضر بنك","brand:ar":"الأخضر بنك","brand:fr":"Al Akhdar Bank","brand:wikidata":"Q137373145","operator":"Al Akhdar Bank الأخضر بنك","operator:wikidata":"Q137373145"}},"amenity/atm/albaridbank-c2e240":{"name":"Al Barid Bank البريد بنك","locationSet":{"include":["ma"]},"geometry":["point","vertex"],"matchScore":2,"terms":["al barid bank","al barid bank البريد بنك","البريد بنك"],"tags":{"amenity":"atm","brand:wikidata":"Q2829300"},"addTags":{"amenity":"atm","brand":"Al Barid Bank البريد بنك","brand:ar":"البريد بنك","brand:fr":"Al Barid Bank","brand:wikidata":"Q2829300","operator":"Al Barid Bank البريد بنك","operator:wikidata":"Q2829300"}},"amenity/atm/attijariwafabank-c2e240":{"name":"Attijariwafa bank التجاري وفا بنك","locationSet":{"include":["ma"]},"geometry":["point","vertex"],"matchScore":2,"terms":["attijariwafa bank","attijariwafa bank التجاري وفا بنك","التجاري وفا بنك"],"tags":{"amenity":"atm","brand:wikidata":"Q758052"},"addTags":{"amenity":"atm","brand":"Attijariwafa bank التجاري وفا بنك","brand:ar":"التجاري وفا بنك","brand:fr":"Attijariwafa bank","brand:wikidata":"Q758052","operator":"Attijariwafa bank التجاري وفا بنك","operator:wikidata":"Q758052"}},"amenity/atm/bankalyousr-c2e240":{"name":"Bank Al Yousr بنك اليسر","locationSet":{"include":["ma"]},"geometry":["point","vertex"],"matchScore":2,"terms":["bank al yousr","bank al yousr بنك اليسر","بنك اليسر"],"tags":{"amenity":"atm","brand:wikidata":"Q134955190"},"addTags":{"amenity":"atm","brand":"Bank Al Yousr بنك اليسر","brand:ar":"بنك اليسر","brand:fr":"Bank Al Yousr","brand:wikidata":"Q134955190","operator":"Bank Al Yousr بنك اليسر","operator:wikidata":"Q134955190"}},"amenity/atm/bankalmaghrib-c2e240":{"name":"Bank Al-Maghrib بنك المغرب","locationSet":{"include":["ma"]},"geometry":["point","vertex"],"matchScore":2,"terms":["bank al-maghrib","bank al-maghrib بنك المغرب","بنك المغرب"],"tags":{"amenity":"atm","brand:wikidata":"Q328198"},"addTags":{"amenity":"atm","brand":"Bank Al-Maghrib بنك المغرب","brand:ar":"بنك المغرب","brand:fr":"Bank Al-Maghrib","brand:wikidata":"Q328198","operator":"Bank Al-Maghrib بنك المغرب","operator:wikidata":"Q328198"}},"amenity/atm/bankassafa-c2e240":{"name":"Bank Assafa بنك الصفاء","locationSet":{"include":["ma"]},"geometry":["point","vertex"],"matchScore":2,"terms":["bank assafa","bank assafa بنك الصفاء","بنك الصفاء"],"tags":{"amenity":"atm","brand:wikidata":"Q39075231"},"addTags":{"amenity":"atm","brand":"Bank Assafa بنك الصفاء","brand:ar":"بنك الصفاء","brand:fr":"Bank Assafa","brand:wikidata":"Q39075231","operator":"Bank Assafa بنك الصفاء","operator:wikidata":"Q39075231"}},"amenity/atm/bankofafrica-c2e240":{"name":"Bank of Africa ⵍⴱⴰⵏⴽ ⵏ ⴰⴼⵔⵉⵇⵢⴰ بنك أفريقيا","locationSet":{"include":["ma"]},"geometry":["point","vertex"],"matchScore":2,"terms":["bank of africa","bank of africa ⵍⴱⴰⵏⴽ ⵏ ⴰⴼⵔⵉⵇⵢⴰ بنك أفريقيا","bmce","bmce bank البنك المغربي للتجارة الخارجية","البنك المغربي للتجارة الخارجية","بنك أفريقيا","ⵍⴱⴰⵏⴽ ⵏ ⴰⴼⵔⵉⵇⵢⴰ"],"tags":{"amenity":"atm","brand:wikidata":"Q2300433"},"addTags":{"amenity":"atm","brand":"Bank of Africa ⵍⴱⴰⵏⴽ ⵏ ⴰⴼⵔⵉⵇⵢⴰ بنك أفريقيا","brand:ar":"بنك أفريقيا","brand:fr":"Bank of Africa","brand:wikidata":"Q2300433","brand:zgh":"ⵍⴱⴰⵏⴽ ⵏ ⴰⴼⵔⵉⵇⵢⴰ","operator":"Bank of Africa ⵍⴱⴰⵏⴽ ⵏ ⴰⴼⵔⵉⵇⵢⴰ بنك أفريقيا","operator:wikidata":"Q2300433"}},"amenity/atm/banquepopulaire-c2e240":{"name":"Banque Populaire البنك الشعبي","locationSet":{"include":["ma"]},"geometry":["point","vertex"],"matchScore":2,"terms":["banque populaire","banque populaire البنك الشعبي","البنك الشعبي"],"tags":{"amenity":"atm","brand:wikidata":"Q2883441"},"addTags":{"amenity":"atm","brand":"Banque Populaire البنك الشعبي","brand:ar":"البنك الشعبي","brand:fr":"Banque Populaire","brand:wikidata":"Q2883441","operator":"Banque Populaire البنك الشعبي","operator:wikidata":"Q2883441"}},"amenity/atm/bmci-c2e240":{"name":"BMCI (البنك المغربي للتجارة والصناعة)","locationSet":{"include":["ma"]},"geometry":["point","vertex"],"matchScore":2,"terms":["bmci","bmci bank","bmci البنك المغربي للتجارة والصناعة","البنك المغربي للتجارة والصناعة"],"tags":{"amenity":"atm","brand:wikidata":"Q2883409"},"addTags":{"amenity":"atm","brand":"BMCI","brand:ar":"البنك المغربي للتجارة والصناعة","brand:en":"BMCI","brand:wikidata":"Q2883409","operator":"BMCI","operator:wikidata":"Q2883409"}},"amenity/atm/bnpparibas-c1fb51":{"name":"BNP Paribas","locationSet":{"include":["ae","af","ar","at","bf","bh","br","ca","ch","ci","cl","co","cz","de","dk","dz","es","fi","fr","gb","hu","ie","il","it","kw","ma","ml","mx","nl","no","pe","pt","qa","ro","ru","sa","se","sk","sn","tn","tw","us"]},"geometry":["point","vertex"],"matchScore":2,"terms":["bnp paribas"],"tags":{"amenity":"atm","brand:wikidata":"Q499707"},"addTags":{"amenity":"atm","brand":"BNP Paribas","brand:wikidata":"Q499707","operator":"BNP Paribas","operator:wikidata":"Q499707"}},"amenity/atm/cihbank-c2e240":{"name":"CIH Bank (القرض العقاري والسياحي)","locationSet":{"include":["ma"]},"geometry":["point","vertex"],"matchScore":2,"terms":["cih bank","cih bank القرض العقاري والسياحي","crédit immobilier et hôtelier","القرض العقاري والسياحي"],"tags":{"amenity":"atm","brand:wikidata":"Q3006220"},"addTags":{"amenity":"atm","brand":"CIH Bank","brand:ar":"القرض العقاري والسياحي","brand:en":"CIH Bank","brand:wikidata":"Q3006220","operator":"CIH Bank","operator:wikidata":"Q3006220"}},"amenity/atm/creditagricoledumaroc-c2e240":{"name":"Crédit Agricole du Maroc القرض الفلاحي للمغرب","locationSet":{"include":["ma"]},"geometry":["point","vertex"],"matchScore":2,"terms":["crédit agricole","crédit agricole du maroc","crédit agricole du maroc القرض الفلاحي للمغرب","القرض الفلاحي للمغرب"],"tags":{"amenity":"atm","brand:wikidata":"Q3006193"},"addTags":{"amenity":"atm","brand":"Crédit Agricole du Maroc القرض الفلاحي للمغرب","brand:ar":"القرض الفلاحي للمغرب","brand:fr":"Crédit Agricole du Maroc","brand:wikidata":"Q3006193","operator":"Crédit Agricole du Maroc القرض الفلاحي للمغرب","operator:wikidata":"Q3006193"}},"amenity/atm/creditdumaroc-c2e240":{"name":"Crédit du Maroc مصرف المغرب","locationSet":{"include":["ma"]},"geometry":["point","vertex"],"matchScore":2,"terms":["crédit du maroc","crédit du maroc مصرف المغرب","مصرف المغرب"],"tags":{"amenity":"atm","brand:wikidata":"Q3006205"},"addTags":{"amenity":"atm","brand":"Crédit du Maroc مصرف المغرب","brand:ar":"مصرف المغرب","brand:fr":"Crédit du Maroc","brand:wikidata":"Q3006205","operator":"Crédit du Maroc مصرف المغرب","operator:wikidata":"Q3006205"}},"amenity/atm/sahambank-c2e240":{"name":"Saham Bank سهام بنك","locationSet":{"include":["ma"]},"geometry":["point","vertex"],"matchScore":2,"terms":["saham bank","saham bank سهام بنك","société générale","société générale الشركة العامة","société générale سوسيتيه جنرال","الشركة العامة","سهام بنك","سوسيتيه جنرال"],"tags":{"amenity":"atm","brand:wikidata":"Q3488352"},"addTags":{"amenity":"atm","brand":"Saham Bank سهام بنك","brand:ar":"سهام بنك","brand:fr":"Saham Bank","brand:wikidata":"Q3488352","operator":"Saham Bank سهام بنك","operator:wikidata":"Q3488352"}},"amenity/atm/stanbicbank-71787f":{"name":"Stanbic Bank","locationSet":{"include":["dz","eg","ly","ma","sd","tn","eh","io","bi","km","dj","er","et","tf","ke","mg","mw","mu","yt","mz","re","rw","sc","so","ss","ug","tz","zm","zw","ao","cm","cf","td","cg","cd","gq","ga","st","bw","sz","ls","na","za","bj","bf","cv","ci","gm","gh","gn","gw","lr","ml","mr","ne","ng","sn","sl","tg","sh"],"exclude":["gh"]},"geometry":["point","vertex"],"matchScore":2,"terms":["stanbic bank"],"tags":{"amenity":"atm","brand:wikidata":"Q7597999"},"addTags":{"amenity":"atm","brand":"Stanbic Bank","brand:wikidata":"Q7597999","operator":"Stanbic Bank","operator:wikidata":"Q7597999"}},"amenity/atm/umniabank-c2e240":{"name":"Umnia Bank أمنية بنك","locationSet":{"include":["ma"]},"geometry":["point","vertex"],"matchScore":2,"terms":["umnia bank","umnia bank أمنية بنك","أمنية بنك"],"tags":{"amenity":"atm","brand:wikidata":"Q56304865"},"addTags":{"amenity":"atm","brand":"Umnia Bank أمنية بنك","brand:ar":"أمنية بنك","brand:fr":"Umnia Bank","brand:wikidata":"Q56304865","operator":"Umnia Bank أمنية بنك","operator:wikidata":"Q56304865"}},"amenity/bank/alakhdarbank-11534a":{"name":"Al Akhdar Bank الأخضر بنك","locationSet":{"include":["ma"]},"geometry":["point","area"],"matchScore":2,"terms":["al akhdar bank","al akhdar bank الأخضر بنك","الأخضر بنك"],"tags":{"amenity":"bank","brand:wikidata":"Q137373145"},"addTags":{"amenity":"bank","brand":"Al Akhdar Bank الأخضر بنك","brand:ar":"الأخضر بنك","brand:fr":"Al Akhdar Bank","brand:wikidata":"Q137373145","name":"Al Akhdar Bank الأخضر بنك","name:ar":"الأخضر بنك","name:fr":"Al Akhdar Bank"}},"amenity/bank/albaridbank-11534a":{"name":"Al Barid Bank البريد بنك","locationSet":{"include":["ma"]},"geometry":["point","area"],"matchScore":2,"terms":["al barid bank","al barid bank البريد بنك","البريد بنك"],"tags":{"amenity":"bank","brand:wikidata":"Q2829300"},"addTags":{"amenity":"bank","brand":"Al Barid Bank البريد بنك","brand:ar":"البريد بنك","brand:fr":"Al Barid Bank","brand:wikidata":"Q2829300","name":"Al Barid Bank البريد بنك","name:ar":"البريد بنك","name:fr":"Al Barid Bank"}},"amenity/bank/attijariwafabank-11534a":{"name":"Attijariwafa bank التجاري وفا بنك","locationSet":{"include":["ma"]},"geometry":["point","area"],"matchScore":2,"terms":["attijariwafa bank","attijariwafa bank التجاري وفا بنك","التجاري وفا بنك"],"tags":{"amenity":"bank","brand:wikidata":"Q758052"},"addTags":{"amenity":"bank","brand":"Attijariwafa bank التجاري وفا بنك","brand:ar":"التجاري وفا بنك","brand:fr":"Attijariwafa bank","brand:wikidata":"Q758052","name":"Attijariwafa bank التجاري وفا بنك","name:ar":"التجاري وفا بنك","name:fr":"Attijariwafa bank"}},"amenity/bank/bankalyousr-11534a":{"name":"Bank Al Yousr بنك اليسر","locationSet":{"include":["ma"]},"geometry":["point","area"],"matchScore":2,"terms":["bank al yousr","bank al yousr بنك اليسر","بنك اليسر"],"tags":{"amenity":"bank","brand:wikidata":"Q134955190"},"addTags":{"amenity":"bank","brand":"Bank Al Yousr بنك اليسر","brand:ar":"بنك اليسر","brand:fr":"Bank Al Yousr","brand:wikidata":"Q134955190","name":"Bank Al Yousr بنك اليسر","name:ar":"بنك اليسر","name:fr":"Bank Al Yousr"}},"amenity/bank/bankalmaghrib-11534a":{"name":"Bank Al-Maghrib بنك المغرب","locationSet":{"include":["ma"]},"geometry":["point","area"],"matchScore":2,"terms":["bank al-maghrib","bank al-maghrib بنك المغرب","بنك المغرب"],"tags":{"amenity":"bank","brand:wikidata":"Q328198"},"addTags":{"amenity":"bank","brand":"Bank Al-Maghrib بنك المغرب","brand:ar":"بنك المغرب","brand:fr":"Bank Al-Maghrib","brand:wikidata":"Q328198","name":"Bank Al-Maghrib بنك المغرب","name:ar":"بنك المغرب","name:fr":"Bank Al-Maghrib"}},"amenity/bank/bankassafa-11534a":{"name":"Bank Assafa بنك الصفاء","locationSet":{"include":["ma"]},"geometry":["point","area"],"matchScore":2,"terms":["bank assafa","bank assafa بنك الصفاء","بنك الصفاء"],"tags":{"amenity":"bank","brand:wikidata":"Q39075231"},"addTags":{"amenity":"bank","brand":"Bank Assafa بنك الصفاء","brand:ar":"بنك الصفاء","brand:fr":"Bank Assafa","brand:wikidata":"Q39075231","name":"Bank Assafa بنك الصفاء","name:ar":"بنك الصفاء","name:fr":"Bank Assafa"}},"amenity/bank/bankofafrica-11534a":{"name":"Bank of Africa ⵍⴱⴰⵏⴽ ⵏ ⴰⴼⵔⵉⵇⵢⴰ بنك أفريقيا","locationSet":{"include":["ma"]},"geometry":["point","area"],"matchScore":2,"terms":["bank of africa","bank of africa ⵍⴱⴰⵏⴽ ⵏ ⴰⴼⵔⵉⵇⵢⴰ بنك أفريقيا","bmce","bmce bank البنك المغربي للتجارة الخارجية","البنك المغربي للتجارة الخارجية","بنك أفريقيا","ⵍⴱⴰⵏⴽ ⵏ ⴰⴼⵔⵉⵇⵢⴰ"],"tags":{"amenity":"bank","brand:wikidata":"Q2300433"},"addTags":{"amenity":"bank","brand":"Bank of Africa ⵍⴱⴰⵏⴽ ⵏ ⴰⴼⵔⵉⵇⵢⴰ بنك أفريقيا","brand:ar":"بنك أفريقيا","brand:fr":"Bank of Africa","brand:wikidata":"Q2300433","brand:zgh":"ⵍⴱⴰⵏⴽ ⵏ ⴰⴼⵔⵉⵇⵢⴰ","name":"Bank of Africa ⵍⴱⴰⵏⴽ ⵏ ⴰⴼⵔⵉⵇⵢⴰ بنك أفريقيا","name:ar":"بنك أفريقيا","name:fr":"Bank of Africa","name:zgh":"ⵍⴱⴰⵏⴽ ⵏ ⴰⴼⵔⵉⵇⵢⴰ"}},"amenity/bank/banquepopulaire-11534a":{"name":"Banque Populaire البنك الشعبي","locationSet":{"include":["ma"]},"geometry":["point","area"],"matchScore":2,"terms":["banque populaire","banque populaire البنك الشعبي","البنك الشعبي"],"tags":{"amenity":"bank","brand:wikidata":"Q2883441"},"addTags":{"amenity":"bank","brand":"Banque Populaire البنك الشعبي","brand:ar":"البنك الشعبي","brand:fr":"Banque Populaire","brand:wikidata":"Q2883441","name":"Banque Populaire البنك الشعبي","name:ar":"البنك الشعبي","name:fr":"Banque Populaire"}},"amenity/bank/bmci-11534a":{"name":"BMCI (البنك المغربي للتجارة والصناعة)","locationSet":{"include":["ma"]},"geometry":["point","area"],"matchScore":2,"terms":["bmci","bmci bank","bmci البنك المغربي للتجارة والصناعة","البنك المغربي للتجارة والصناعة"],"tags":{"amenity":"bank","brand:wikidata":"Q2883409"},"addTags":{"amenity":"bank","brand":"BMCI","brand:ar":"البنك المغربي للتجارة والصناعة","brand:en":"BMCI","brand:wikidata":"Q2883409","name:ar":"البنك المغربي للتجارة والصناعة","name:en":"BMCI"}},"amenity/bank/bnpparibas-a4be3f":{"name":"BNP Paribas","locationSet":{"include":["ae","af","ar","at","bf","bh","br","ca","ch","ci","cl","co","cz","de","dk","dz","es","fi","fr","gb","hu","ie","il","it","kw","ma","ml","mx","nl","no","pe","pt","qa","ro","ru","sa","se","sk","sn","tn","tw","us"]},"geometry":["point","area"],"matchScore":2,"terms":["bnp paribas"],"tags":{"amenity":"bank","brand:wikidata":"Q499707"},"addTags":{"amenity":"bank","brand":"BNP Paribas","brand:wikidata":"Q499707","name":"BNP Paribas"}},"amenity/bank/cihbank-11534a":{"name":"CIH Bank (القرض العقاري والسياحي)","locationSet":{"include":["ma"]},"geometry":["point","area"],"matchScore":2,"terms":["cih bank","cih bank القرض العقاري والسياحي","crédit immobilier et hôtelier","القرض العقاري والسياحي"],"tags":{"amenity":"bank","brand:wikidata":"Q3006220"},"addTags":{"amenity":"bank","brand":"CIH Bank","brand:ar":"القرض العقاري والسياحي","brand:en":"CIH Bank","brand:wikidata":"Q3006220","name:ar":"القرض العقاري والسياحي","name:en":"CIH Bank"}},"amenity/bank/creditagricoledumaroc-11534a":{"name":"Crédit Agricole du Maroc القرض الفلاحي للمغرب","locationSet":{"include":["ma"]},"geometry":["point","area"],"matchScore":2,"terms":["crédit agricole","crédit agricole du maroc","crédit agricole du maroc القرض الفلاحي للمغرب","القرض الفلاحي للمغرب"],"tags":{"amenity":"bank","brand:wikidata":"Q3006193"},"addTags":{"amenity":"bank","brand":"Crédit Agricole du Maroc القرض الفلاحي للمغرب","brand:ar":"القرض الفلاحي للمغرب","brand:fr":"Crédit Agricole du Maroc","brand:wikidata":"Q3006193","name":"Crédit Agricole du Maroc القرض الفلاحي للمغرب","name:ar":"القرض الفلاحي للمغرب","name:fr":"Crédit Agricole du Maroc"}},"amenity/bank/creditdumaroc-11534a":{"name":"Crédit du Maroc مصرف المغرب","locationSet":{"include":["ma"]},"geometry":["point","area"],"matchScore":2,"terms":["crédit du maroc","crédit du maroc مصرف المغرب","مصرف المغرب"],"tags":{"amenity":"bank","brand:wikidata":"Q3006205"},"addTags":{"amenity":"bank","brand":"Crédit du Maroc مصرف المغرب","brand:ar":"مصرف المغرب","brand:fr":"Crédit du Maroc","brand:wikidata":"Q3006205","name":"Crédit du Maroc مصرف المغرب","name:ar":"مصرف المغرب","name:fr":"Crédit du Maroc"}},"amenity/bank/sahambank-11534a":{"name":"Saham Bank سهام بنك","locationSet":{"include":["ma"]},"geometry":["point","area"],"matchScore":2,"terms":["saham bank","saham bank سهام بنك","société générale","société générale الشركة العامة","société générale سوسيتيه جنرال","الشركة العامة","سهام بنك","سوسيتيه جنرال"],"tags":{"amenity":"bank","brand:wikidata":"Q3488352"},"addTags":{"amenity":"bank","brand":"Saham Bank سهام بنك","brand:ar":"سهام بنك","brand:fr":"Saham Bank","brand:wikidata":"Q3488352","name":"Saham Bank سهام بنك","name:ar":"سهام بنك","name:fr":"Saham Bank"}},"amenity/bank/stanbicbank-b79c2d":{"name":"Stanbic Bank","locationSet":{"include":["dz","eg","ly","ma","sd","tn","eh","io","bi","km","dj","er","et","tf","ke","mg","mw","mu","yt","mz","re","rw","sc","so","ss","ug","tz","zm","zw","ao","cm","cf","td","cg","cd","gq","ga","st","bw","sz","ls","na","za","bj","bf","cv","ci","gm","gh","gn","gw","lr","ml","mr","ne","ng","sn","sl","tg","sh"],"exclude":["gh"]},"geometry":["point","area"],"matchScore":2,"terms":["stanbic bank"],"tags":{"amenity":"bank","brand:wikidata":"Q7597999"},"addTags":{"amenity":"bank","brand":"Stanbic Bank","brand:wikidata":"Q7597999","name":"Stanbic Bank"}},"amenity/bank/umniabank-11534a":{"name":"Umnia Bank أمنية بنك","locationSet":{"include":["ma"]},"geometry":["point","area"],"matchScore":2,"terms":["umnia bank","umnia bank أمنية بنك","أمنية بنك"],"tags":{"amenity":"bank","brand:wikidata":"Q56304865"},"addTags":{"amenity":"bank","brand":"Umnia Bank أمنية بنك","brand:ar":"أمنية بنك","brand:fr":"Umnia Bank","brand:wikidata":"Q56304865","name":"Umnia Bank أمنية بنك","name:ar":"أمنية بنك","name:fr":"Umnia Bank"}},"amenity/cafe/coffee_shop/cariboucoffee-503b1b":{"name":"Caribou Coffee","locationSet":{"include":["ba","ma","tr","us"]},"geometry":["point","area"],"matchScore":2,"terms":["caribou coffee"],"reference":{"key":"cuisine","value":"coffee_shop"},"tags":{"amenity":"cafe","brand:wikidata":"Q5039494","cuisine":"coffee_shop"},"addTags":{"amenity":"cafe","brand":"Caribou Coffee","brand:wikidata":"Q5039494","cuisine":"coffee_shop","name":"Caribou Coffee","takeaway":"yes"}},"amenity/cafe/coffee_shop/columbuscafeandco-d3efe9":{"name":"Columbus Café & Co","locationSet":{"include":["be","bh","fr","ma","qa","us"]},"geometry":["point","area"],"matchScore":2,"terms":["colombus","colombus café","colombus café & co","columbus","columbus café","columbus café & co"],"reference":{"key":"cuisine","value":"coffee_shop"},"tags":{"amenity":"cafe","brand:wikidata":"Q2984582","cuisine":"coffee_shop"},"addTags":{"amenity":"cafe","brand":"Columbus Café & Co","brand:wikidata":"Q2984582","cuisine":"coffee_shop","name":"Columbus Café & Co","takeaway":"yes"}},"amenity/cafe/coffee_shop/espressolab-295705":{"name":"Espressolab","locationSet":{"include":["ma","tr"]},"geometry":["point","area"],"matchScore":2,"terms":["espressolab"],"reference":{"key":"cuisine","value":"coffee_shop"},"tags":{"amenity":"cafe","brand:wikidata":"Q97599059","cuisine":"coffee_shop"},"addTags":{"amenity":"cafe","brand":"Espressolab","brand:wikidata":"Q97599059","cuisine":"coffee_shop","name":"Espressolab","takeaway":"yes"}},"amenity/cafe/coffee_shop/figaro-d8802f":{"name":"Figaro","locationSet":{"include":["ma","ph","sa"]},"geometry":["point","area"],"matchScore":2,"terms":["figaro","figaro coffee","figaro coffee company"],"reference":{"key":"cuisine","value":"coffee_shop"},"tags":{"amenity":"cafe","brand:wikidata":"Q17069806","cuisine":"coffee_shop"},"addTags":{"amenity":"cafe","brand":"Figaro","brand:wikidata":"Q17069806","cuisine":"coffee_shop","name":"Figaro","takeaway":"yes"}},"amenity/cafe/coffee_shop/starbucks-0dcee5":{"name":"ستاربكس","locationSet":{"include":["ae","bh","dz","eg","iq","jo","kw","lb","ly","ma","om","qa","sa","tn"]},"geometry":["point","area"],"matchScore":2,"terms":["starbucks","starbucks coffee","starbucks middle east","ستاربكس","ستاربكس كافية"],"reference":{"key":"cuisine","value":"coffee_shop"},"tags":{"amenity":"cafe","brand:wikidata":"Q37158","cuisine":"coffee_shop"},"addTags":{"amenity":"cafe","brand":"ستاربكس","brand:ar":"ستاربكس","brand:en":"Starbucks","brand:wikidata":"Q37158","cuisine":"coffee_shop","name":"ستاربكس","name:ar":"ستاربكس","name:en":"Starbucks","official_name":"ستاربكس كافية","official_name:ar":"ستاربكس كافية","official_name:en":"Starbucks Coffee","takeaway":"yes"}},"amenity/cinema/megarama-2d2421":{"name":"Megarama","locationSet":{"include":["es","fr","ma"]},"geometry":["point","area"],"matchScore":2,"terms":["megarama"],"fields":["name","brand","{amenity/cinema}"],"preserveTags":["^name"],"tags":{"amenity":"cinema","brand:wikidata":"Q96707027"},"addTags":{"amenity":"cinema","brand":"Megarama","brand:wikidata":"Q96707027","name":"Megarama"}},"amenity/fast_food/chicken/chickenstreet-f60ed0":{"name":"Chicken Street","locationSet":{"include":["ae","be","dz","fr","ma"]},"geometry":["point","area"],"matchScore":2,"terms":["chicken street"],"reference":{"key":"cuisine","value":"chicken"},"tags":{"amenity":"fast_food","brand:wikidata":"Q124669862","cuisine":"chicken"},"addTags":{"amenity":"fast_food","brand":"Chicken Street","brand:wikidata":"Q124669862","cuisine":"chicken","diet:halal":"only","name":"Chicken Street","takeaway":"yes"}},"amenity/fast_food/ikeabistro-e746e6":{"name":"IKEA Bistro","locationSet":{"include":["ae","at","au","bh","ca","ch","cn","cz","de","dk","es","fi","fr","gb","hr","hu","ie","in","it","jo","jp","kr","kw","ma","mx","my","no","nz","pl","pt","ro","rs","sa","se","sg","si","sk","us"]},"geometry":["point","area"],"matchScore":2,"terms":["ikea"],"tags":{"amenity":"fast_food","brand:wikidata":"Q54078"},"addTags":{"amenity":"fast_food","brand":"IKEA","brand:wikidata":"Q54078","cuisine":"swedish","name":"IKEA Bistro","takeaway":"yes"}},"amenity/fast_food/ikearestaurant-310c78":{"name":"IKEA Restaurant","locationSet":{"include":["ae","at","au","bh","ca","ch","cz","de","dk","eg","es","fi","fr","gb","hr","hu","ie","in","it","jo","jp","kr","kw","ma","mx","my","no","nz","ph","pl","pt","qa","ro","rs","sa","se","sg","si","sk","th","us"]},"geometry":["point","area"],"matchScore":2,"terms":["ikea","ikea restaurant","ресторан икеа"],"tags":{"amenity":"fast_food","brand:wikidata":"Q54078"},"addTags":{"amenity":"fast_food","brand":"IKEA","brand:wikidata":"Q54078","cuisine":"swedish","name":"IKEA Restaurant","name:en":"IKEA Restaurant","name:ru":"Ресторан ИКЕА","takeaway":"yes"}},"amenity/fast_food/newschooltacos-4ecab6":{"name":"New School Tacos","locationSet":{"include":["fr","ma"]},"geometry":["point","area"],"matchScore":2,"terms":["new school tacos"],"tags":{"amenity":"fast_food","brand:wikidata":"Q127412152"},"addTags":{"amenity":"fast_food","brand":"New School Tacos","brand:wikidata":"Q127412152","cuisine":"french_tacos","name":"New School Tacos","takeaway":"yes"}},"amenity/fast_food/otacos-33c697":{"name":"O'Tacos","locationSet":{"include":["be","bn","de","dz","es","fr","it","lu","ma","nl","pt"]},"geometry":["point","area"],"matchScore":2,"terms":["o'tacos"],"tags":{"amenity":"fast_food","brand:wikidata":"Q28494040"},"addTags":{"amenity":"fast_food","brand":"O'Tacos","brand:wikidata":"Q28494040","cuisine":"french_tacos","name":"O'Tacos","takeaway":"yes"}},"amenity/fast_food/woktowalk-f5ada9":{"name":"Wok to Walk","locationSet":{"include":["ae","bg","co","cy","ec","ee","es","fx","gb","il","in","it","lt","lv","ma","mt","mx","nl","om","pa","pt","qa","sa","us"]},"geometry":["point","area"],"matchScore":2,"terms":["wok to walk"],"tags":{"amenity":"fast_food","brand:wikidata":"Q4020634"},"addTags":{"amenity":"fast_food","brand":"Wok to Walk","brand:wikidata":"Q4020634","cuisine":"asian","name":"Wok to Walk","takeaway":"yes"}},"amenity/fast_food/chicken/kfc-15a250":{"name":"دجاج كنتاكي","locationSet":{"include":["ae","bh","eg","iq","jo","kw","lb","ly","ma","om","qa","sa","sd","sy","tn","ye"]},"geometry":["point","area"],"matchScore":2,"terms":["kfc","دجاج كنتاكي"],"reference":{"key":"cuisine","value":"chicken"},"tags":{"amenity":"fast_food","brand:wikidata":"Q524757","cuisine":"chicken"},"addTags":{"amenity":"fast_food","brand":"دجاج كنتاكي","brand:ar":"دجاج كنتاكي","brand:en":"KFC","brand:wikidata":"Q524757","cuisine":"chicken","name":"دجاج كنتاكي","name:ar":"دجاج كنتاكي","name:en":"KFC","takeaway":"yes"}},"amenity/fast_food/burger/mcdonalds-19c993":{"name":"ماكدونالدز","locationSet":{"include":["ae","bh","eg","iq","jo","kw","lb","ma","om","qa","sa","sy","tn"]},"geometry":["point","area"],"matchScore":2,"terms":["mcdonald's","ماكدونالدز"],"reference":{"key":"cuisine","value":"burger"},"tags":{"amenity":"fast_food","brand:wikidata":"Q38076","cuisine":"burger"},"addTags":{"amenity":"fast_food","brand":"ماكدونالدز","brand:ar":"ماكدونالدز","brand:en":"McDonald's","brand:wikidata":"Q38076","cuisine":"burger","name":"ماكدونالدز","name:ar":"ماكدونالدز","name:en":"McDonald's","takeaway":"yes"}},"amenity/fuel/afriquia-144a57":{"name":"Afriquia افريقيا","locationSet":{"include":["ma"]},"geometry":["point","area"],"matchScore":2,"terms":["afriquia","afriquia أفريقيا","afriquia افريقيا","أفريقيا","افريقيا"],"fields":["name","brand","{amenity/fuel}"],"preserveTags":["^name"],"tags":{"amenity":"fuel","brand:wikidata":"Q56300032"},"addTags":{"amenity":"fuel","brand":"Afriquia افريقيا","brand:ar":"افريقيا","brand:fr":"Afriquia","brand:wikidata":"Q56300032","name":"Afriquia افريقيا","name:ar":"افريقيا","name:fr":"Afriquia"}},"amenity/fuel/greenoil-144a57":{"name":"Green Oil","locationSet":{"include":["ma"]},"geometry":["point","area"],"matchScore":2,"terms":["green oil"],"fields":["name","brand","{amenity/fuel}"],"preserveTags":["^name"],"tags":{"amenity":"fuel","brand:wikidata":"Q88393926"},"addTags":{"amenity":"fuel","brand":"Green Oil","brand:wikidata":"Q88393926","name":"Green Oil"}},"amenity/fuel/oilibya-5288c9":{"name":"Oilibya","locationSet":{"include":["dz","eg","ly","ma","sd","tn","eh","io","bi","km","dj","er","et","tf","ke","mg","mw","mu","yt","mz","re","rw","sc","so","ss","ug","tz","zm","zw","ao","cm","cf","td","cg","cd","gq","ga","st","bw","sz","ls","na","za","bj","bf","cv","ci","gm","gh","gn","gw","lr","ml","mr","ne","ng","sn","sl","tg","sh","bd"]},"geometry":["point","area"],"matchScore":2,"terms":["oilibia","oilibiya","oilibya","oillibia","oilliby","oillibya","oillybia","oilybia","olibya","olybia","أويليبيا"],"fields":["name","brand","{amenity/fuel}"],"preserveTags":["^name"],"tags":{"amenity":"fuel","brand:wikidata":"Q7081491"},"addTags":{"amenity":"fuel","brand":"Oilibya","brand:wikidata":"Q7081491","name":"Oilibya","name:ar":"أويليبيا","name:en":"Oilibya"}},"amenity/fuel/petrom-144a57":{"name":"Petrom (Maroc)","locationSet":{"include":["ma"]},"geometry":["point","area"],"matchScore":2,"terms":["petrom"],"fields":["name","brand","{amenity/fuel}"],"preserveTags":["^name"],"tags":{"amenity":"fuel","brand:wikidata":"Q110028558"},"addTags":{"amenity":"fuel","brand":"Petrom","brand:wikidata":"Q110028558","name":"Petrom"}},"amenity/fuel/winxo-144a57":{"name":"Winxo","locationSet":{"include":["ma"]},"geometry":["point","area"],"matchScore":2,"terms":["winxo"],"fields":["name","brand","{amenity/fuel}"],"preserveTags":["^name"],"tags":{"amenity":"fuel","brand:wikidata":"Q88389320"},"addTags":{"amenity":"fuel","brand":"Winxo","brand:wikidata":"Q88389320","name":"Winxo"}},"amenity/fuel/ziz-144a57":{"name":"Ziz","locationSet":{"include":["ma"]},"geometry":["point","area"],"matchScore":2,"terms":["ziz"],"fields":["name","brand","{amenity/fuel}"],"preserveTags":["^name"],"tags":{"amenity":"fuel","brand:wikidata":"Q88393228"},"addTags":{"amenity":"fuel","brand":"Ziz","brand:wikidata":"Q88393228","name":"Ziz"}},"amenity/fuel/shell-7a1cc2":{"name":"شل","locationSet":{"include":["eg","ma","om","tn"]},"geometry":["point","area"],"matchScore":2,"terms":["shell","shell شل","شل"],"fields":["name","brand","{amenity/fuel}"],"preserveTags":["^name"],"tags":{"amenity":"fuel","brand:wikidata":"Q110716465"},"addTags":{"amenity":"fuel","brand":"شل","brand:ar":"شل","brand:en":"Shell","brand:wikidata":"Q110716465","name":"شل","name:ar":"شل","name:en":"Shell"}},"amenity/ice_cream/amorino-d14110":{"name":"Amorino","locationSet":{"include":["ae","ch","cz","de","es","fr","gb","gr","ie","it","lu","ma","mt","mx","pt","qa","us"]},"geometry":["point","area"],"matchScore":2,"terms":["amorino"],"tags":{"amenity":"ice_cream","brand:wikidata":"Q2843884"},"addTags":{"amenity":"ice_cream","brand":"Amorino","brand:wikidata":"Q2843884","name":"Amorino"}},"amenity/ice_cream/frozen_yogurt/llaollao-dd9462":{"name":"Llaollao","locationSet":{"include":["au","ch","cl","co","ec","es","fr","gt","hr","id","iq","kw","ma","my","ph","pt","sa","sg","si","sv","us","vn"]},"geometry":["point","area"],"matchScore":2,"terms":["llaollao"],"reference":{"key":"cuisine","value":"frozen_yogurt"},"tags":{"amenity":"ice_cream","brand:wikidata":"Q12163048","cuisine":"frozen_yogurt"},"addTags":{"amenity":"ice_cream","brand":"Llaollao","brand:wikidata":"Q12163048","cuisine":"frozen_yogurt","name":"Llaollao"}},"amenity/ice_cream/smooy-ae897d":{"name":"smöoy","locationSet":{"include":["ao","ci","cn","dz","ec","es","fr","gb","gn","it","ma","pa","pe","pt","sa"]},"geometry":["point","area"],"matchScore":2,"terms":["smöoy","softy cream"],"tags":{"amenity":"ice_cream","brand:wikidata":"Q21573945"},"addTags":{"amenity":"ice_cream","brand":"smöoy","brand:wikidata":"Q21573945","name":"smöoy","official_name":"Softy Cream"}},"amenity/money_transfer/cashplus-de9c03":{"name":"Cash Plus","locationSet":{"include":["ma"]},"geometry":["point","area"],"matchScore":2,"terms":["cash plus"],"tags":{"amenity":"money_transfer","brand:wikidata":"Q100258885"},"addTags":{"amenity":"money_transfer","brand":"Cash Plus","brand:wikidata":"Q100258885","name":"Cash Plus"}},"amenity/money_transfer/wafacash-de9c03":{"name":"Wafacash وفاكاش","locationSet":{"include":["ma"]},"geometry":["point","area"],"matchScore":2,"terms":["wafacash","wafacash وفاكاش","وفاكاش"],"tags":{"amenity":"money_transfer","brand:wikidata":"Q100258887"},"addTags":{"amenity":"money_transfer","brand":"Wafacash وفاكاش","brand:ar":"وفاكاش","brand:fr":"Wafacash","brand:wikidata":"Q100258887","name":"Wafacash وفاكاش","name:ar":"وفاكاش","name:fr":"Wafacash"}},"amenity/post_depot/inxpress-182e7a":{"name":"InXpress","locationSet":{"include":["au","ca","de","fr","gb","hk","in","kr","ma","nl","nz","tt","us","vn","za"]},"geometry":["point","area"],"matchScore":2,"terms":["inxpress"],"fields":["name","brand","{amenity/post_depot}"],"preserveTags":["^name"],"tags":{"amenity":"post_depot","brand:wikidata":"Q130400315"},"addTags":{"amenity":"post_depot","brand":"InXpress","brand:wikidata":"Q130400315","operator":"InXpress","operator:type":"private","operator:wikidata":"Q130400315"}},"amenity/post_office/postemaroc-88c873":{"name":"Poste Maroc بريد المغرب","locationSet":{"include":["ma"]},"geometry":["point","area"],"matchScore":2,"terms":["barid al maghrib","barid al maghrib بريد المغرب","poste maroc","poste maroc بريد المغرب","بريد المغرب"],"fields":["name","brand","{amenity/post_office}"],"preserveTags":["^name"],"tags":{"amenity":"post_office","brand:wikidata":"Q3399778"},"addTags":{"amenity":"post_office","brand":"Poste Maroc بريد المغرب","brand:ar":"بريد المغرب","brand:fr":"Poste Maroc","brand:wikidata":"Q3399778","name":"Poste Maroc بريد المغرب","name:ar":"بريد المغرب","name:fr":"Poste Maroc"}},"education/school/maplebear-101006":{"name":"Maple Bear","locationSet":{"include":["ae","al","ar","au","bd","bg","br","ca","gt","hk","hr","in","ke","kr","lk","ma","mx","my","np","om","pe","ph","py","ro","rs","sg","th","tk","ua","us","vn"]},"geometry":["area","point"],"matchScore":2,"terms":["maple bear"],"fields":["name","brand","{education/school}"],"reference":{"key":"amenity","value":"school"},"preserveTags":["^name"],"tags":{"amenity":"school","brand:wikidata":"Q10324823"},"addTags":{"amenity":"school","brand":"Maple Bear","brand:wikidata":"Q10324823","name":"Maple Bear"}},"amenity/madscience-0435a3":{"name":"Mad Science","locationSet":{"include":["bh","br","ca","cn","es","gb","kw","ma","nl","om","pe","sa","sg","th","tr","tt","us"]},"geometry":["point","vertex","line","area"],"matchScore":2,"terms":["mad science"],"fields":["name","brand","{amenity}"],"preserveTags":["^name"],"tags":{"amenity":"training","brand:wikidata":"Q17009137"},"addTags":{"amenity":"training","brand":"Mad Science","brand:wikidata":"Q17009137","name":"Mad Science","training":"science"}},"leisure/amusement_arcade/lasergameevolution-60da35":{"name":"Laser Game Evolution","locationSet":{"include":["be","ca","ch","es","fr","it","lu","ma","tn"]},"geometry":["point","area"],"matchScore":2,"terms":["laser game evolution"],"tags":{"brand:wikidata":"Q130214296","leisure":"amusement_arcade"},"addTags":{"bar":"yes","brand":"Laser Game Evolution","brand:wikidata":"Q130214296","leisure":"amusement_arcade","name":"Laser Game Evolution","sport":"laser_tag"}},"leisure/fitness_centre/cityclub-a9ff46":{"name":"City Club","locationSet":{"include":["ma"]},"geometry":["point","area"],"matchScore":2,"terms":["city club"],"tags":{"brand:wikidata":"Q135911738","leisure":"fitness_centre"},"addTags":{"brand":"City Club","brand:wikidata":"Q135911738","leisure":"fitness_centre","name":"City Club"}},"leisure/fitness_centre/fitnesspark-5ce32b":{"name":"Fitness Park","locationSet":{"include":["es","fr","ma"]},"geometry":["point","area"],"matchScore":2,"terms":["fitness park"],"tags":{"brand:wikidata":"Q102351191","leisure":"fitness_centre"},"addTags":{"brand":"Fitness Park","brand:wikidata":"Q102351191","leisure":"fitness_centre","name":"Fitness Park"}},"leisure/fitness_centre/lorangebleue-5ce32b":{"name":"L'Orange Bleue","locationSet":{"include":["es","fr","ma"]},"geometry":["point","area"],"matchScore":2,"terms":["l'orange bleue"],"tags":{"brand:wikidata":"Q3204640","leisure":"fitness_centre"},"addTags":{"brand":"L'Orange Bleue","brand:wikidata":"Q3204640","leisure":"fitness_centre","name":"L'Orange Bleue"}},"leisure/fitness_centre/smartfit-912e01":{"name":"Smart Fit","locationSet":{"include":["br","cl","co","do","ma","mx","pe"]},"geometry":["point","area"],"matchScore":2,"terms":["smart fit"],"tags":{"brand:wikidata":"Q30930959","leisure":"fitness_centre"},"addTags":{"brand":"Smart Fit","brand:wikidata":"Q30930959","leisure":"fitness_centre","name":"Smart Fit"}},"office/insurance/allianz-400bd0":{"name":"Allianz","locationSet":{"include":["ae","ar","at","au","be","bh","bm","bn","br","ca","cg","ch","ci","cm","cn","co","cy","cz","de","dk","ee","eg","es","fi","fr","gb","gg","gh","gr","hr","hu","id","ie","in","is","it","ja","ke","kr","kw","la","li","lk","lt","lu","lv","ma","mg","mx","my","ng","nl","no","nz","om","ph","pk","pl","pt","qa","ro","ru","sa","se","sg","si","sk","sn","th","tr","tw","ua","us","za"]},"geometry":["point","area"],"matchScore":2,"terms":["allianz","allianz versicherung"],"fields":["name","brand","{office/insurance}"],"preserveTags":["^name"],"tags":{"brand:wikidata":"Q487292","office":"insurance"},"addTags":{"brand":"Allianz","brand:wikidata":"Q487292","name":"Allianz","office":"insurance"}},"office/insurance/axa-1820e0":{"name":"AXA","locationSet":{"include":["ae","ar","au","be","bh","bm","br","ca","ch","ci","cl","cm","cn","co","cz","de","dk","dz","eg","es","fi","fr","ga","gb","gr","id","ie","in","it","jp","kr","lb","lu","ma","mu","mx","my","ng","nl","no","om","pa","pe","ph","pl","pt","qa","sa","se","sg","sk","sn","th","tr","tw","us"]},"geometry":["point","area"],"matchScore":2,"terms":["axa"],"fields":["name","brand","{office/insurance}"],"preserveTags":["^name"],"tags":{"brand:wikidata":"Q160054","office":"insurance"},"addTags":{"brand":"AXA","brand:wikidata":"Q160054","name":"AXA","office":"insurance"}},"shop/alcohol/maisonnicolas-44f3b7":{"name":"Maison Nicolas","locationSet":{"include":["be","fr","gb","ma"]},"geometry":["point","area"],"matchScore":2,"terms":["maison nicolas","nicolas"],"tags":{"brand:wikidata":"Q3340012","shop":"alcohol"},"addTags":{"brand":"Maison Nicolas","brand:wikidata":"Q3340012","name":"Maison Nicolas","old_name":"Nicolas","shop":"alcohol"}},"shop/bakery/paul-652955":{"name":"Paul","locationSet":{"include":["ae","az","be","bh","by","ci","cy","cz","eg","es","fr","ga","gb","ge","gr","id","in","jo","jp","kw","kz","lb","lu","ma","mu","my","om","pa","ph","pl","pt","qa","ro","ru","sa","sg","th","tn","tw","ua","us","uz","vn","za"]},"geometry":["point","area"],"matchScore":2,"terms":["paul"],"tags":{"brand:wikidata":"Q3370417","shop":"bakery"},"addTags":{"brand":"Paul","brand:wikidata":"Q3370417","name":"Paul","shop":"bakery"}},"shop/chocolate/jeffdebruges-bc7364":{"name":"Jeff de Bruges","locationSet":{"include":["at","bg","ca","cz","de","ee","es","fr","gb","it","jo","lu","ma","om","sa","sk","sn","tn"]},"geometry":["point","area"],"matchScore":2,"terms":["jeff de bruges"],"tags":{"brand:wikidata":"Q3176626","shop":"chocolate"},"addTags":{"brand":"Jeff de Bruges","brand:wikidata":"Q3176626","name":"Jeff de Bruges","shop":"chocolate"}},"shop/clothes/devred-7d7aaa":{"name":"Devred","locationSet":{"include":["be","fr","ma"]},"geometry":["point","area"],"matchScore":2,"terms":["devred"],"tags":{"brand:wikidata":"Q3025542","shop":"clothes"},"addTags":{"brand":"Devred","brand:wikidata":"Q3025542","name":"Devred","shop":"clothes"}},"shop/clothes/ovs-387d13":{"name":"OVS","locationSet":{"include":["by","bg","cz","hu","pl","md","ro","ru","sk","ua","ax","gg","je","cq","dk","ee","fo","fi","is","ie","im","lv","lt","no","sj","se","gb","al","ad","ba","hr","gi","gr","va","it","mt","me","mk","pt","sm","rs","si","es","xk","at","be","fr","de","li","lu","mc","nl","ch","ma"],"exclude":["ge"]},"geometry":["point","area"],"matchScore":2,"terms":["ovs"],"tags":{"brand:wikidata":"Q2042514","shop":"clothes"},"addTags":{"brand":"OVS","brand:wikidata":"Q2042514","name":"OVS","shop":"clothes"}},"shop/clothes/underwear/undiz-024578":{"name":"Undiz","locationSet":{"include":["ae","be","ch","es","fr","lb","ma","qa","sa","za"]},"geometry":["point","area"],"matchScore":2,"terms":["undiz"],"reference":{"key":"clothes","value":"underwear"},"tags":{"brand:wikidata":"Q105306275","clothes":"underwear","shop":"clothes"},"addTags":{"brand":"Undiz","brand:wikidata":"Q105306275","clothes":"underwear","name":"Undiz","shop":"clothes"}},"shop/convenience/bim-6cb8de":{"name":"BİM","locationSet":{"include":["eg","ma","tr"]},"geometry":["point","area"],"matchScore":2,"terms":["bi̇m"],"tags":{"brand:wikidata":"Q1022075","shop":"convenience"},"addTags":{"brand":"BİM","brand:wikidata":"Q1022075","name":"BİM","shop":"convenience"}},"shop/convenience/ikeaswedishfoodmarket-e66215":{"name":"IKEA Swedish Food Market","locationSet":{"include":["au","bh","ca","cz","de","es","fi","fr","gb","hr","hu","ie","it","jo","kr","kw","ma","mx","my","no","nz","ph","pl","pt","qa","sa","sg","si","sk"]},"geometry":["point","area"],"matchScore":2,"terms":["ikea"],"tags":{"brand:wikidata":"Q54078","shop":"convenience"},"addTags":{"brand":"IKEA","brand:wikidata":"Q54078","name":"IKEA Swedish Food Market","shop":"convenience"}},"shop/doityourself/bricoma-bf07e6":{"name":"Bricoma","locationSet":{"include":["ma"]},"geometry":["point","area"],"matchScore":2,"terms":["bricoma","بريكوما"],"tags":{"brand:wikidata":"Q22683621","shop":"doityourself"},"addTags":{"brand":"Bricoma","brand:ar":"بريكوما","brand:fr":"Bricoma","brand:wikidata":"Q22683621","name":"Bricoma","name:ar":"بريكوما","name:fr":"Bricoma","shop":"doityourself"}},"shop/doityourself/mrbricolage-ab808b":{"name":"Mr.Bricolage","locationSet":{"include":["be","fr","ma"]},"geometry":["point","area"],"matchScore":2,"terms":["mr.bricolage"],"tags":{"brand:wikidata":"Q3141657","shop":"doityourself"},"addTags":{"brand":"Mr.Bricolage","brand:wikidata":"Q3141657","name":"Mr.Bricolage","shop":"doityourself"}},"shop/electronics/electroplanet-293070":{"name":"Electroplanet","locationSet":{"include":["ma"]},"geometry":["point","area"],"matchScore":2,"terms":["electroplanet"],"tags":{"brand:wikidata":"Q109311658","shop":"electronics"},"addTags":{"brand":"Electroplanet","brand:wikidata":"Q109311658","name":"Electroplanet","shop":"electronics"}},"shop/furniture/chateaudax-dd1a0d":{"name":"Chateau d'Ax","locationSet":{"include":["ao","be","ca","ch","cn","de","es","fx","gp","hr","it","ma","mq","mt","mu","mz","pt","re","sg","si","tn","tw","us","vn"]},"geometry":["point","area"],"matchScore":2,"terms":["chateau d'ax"],"tags":{"brand:wikidata":"Q100249791","shop":"furniture"},"addTags":{"brand":"Chateau d'Ax","brand:wikidata":"Q100249791","name":"Chateau d'Ax","shop":"furniture"}},"shop/furniture/ikea-97652b":{"name":"IKEA","locationSet":{"include":["ae","at","au","be","bh","ca","ch","cl","cz","de","eg","es","fr","gb","hr","hu","ie","il","in","it","jo","kr","kw","ma","mx","my","nl","nz","ph","pl","pt","qa","ro","rs","sa","sg","si","sk","th","ua","us"]},"geometry":["point","area"],"matchScore":2,"terms":["ikea"],"tags":{"brand:wikidata":"Q54078","shop":"furniture"},"addTags":{"brand":"IKEA","brand:wikidata":"Q54078","name":"IKEA","shop":"furniture"}},"shop/furniture/kitea-bfeed0":{"name":"Kitea","locationSet":{"include":["ma"]},"geometry":["point","area"],"matchScore":2,"terms":["kitea","كيتيا"],"tags":{"brand:wikidata":"Q3197636","shop":"furniture"},"addTags":{"brand":"Kitea","brand:ar":"كيتيا","brand:fr":"Kitea","brand:wikidata":"Q3197636","name":"Kitea","name:ar":"كيتيا","name:fr":"Kitea","shop":"furniture"}},"shop/hairdresser/marcoaldany-d15f75":{"name":"Marco Aldany","locationSet":{"include":["es","hn","in","ma","mx","pa","pe","pl"]},"geometry":["point","area"],"matchScore":2,"terms":["marco aldany"],"tags":{"brand:wikidata":"Q112095114","shop":"hairdresser"},"addTags":{"brand":"Marco Aldany","brand:wikidata":"Q112095114","name":"Marco Aldany","shop":"hairdresser"}},"shop/kitchen/ixina-d089d8":{"name":"Ixina","locationSet":{"include":["ae","au","be","bf","bh","bj","ca","ci","cm","cn","cz","dz","ee","eg","fr","gh","hr","ke","kw","lu","ly","ma","mu","nl","pl","qa","ro","ru","sa","se","sn","tg","th","tn","vn"]},"geometry":["point","area"],"matchScore":2,"terms":["ixina"],"tags":{"brand:wikidata":"Q3156424","shop":"kitchen"},"addTags":{"brand":"Ixina","brand:wikidata":"Q3156424","name":"Ixina","shop":"kitchen"}},"shop/perfumery/marionnaud-c9f458":{"name":"Marionnaud","locationSet":{"include":["at","ch","cz","es","fr","hu","it","ma","ro","sk"]},"geometry":["point","area"],"matchScore":2,"terms":["marionnaud"],"tags":{"brand:wikidata":"Q1129073","shop":"perfumery"},"addTags":{"brand":"Marionnaud","brand:wikidata":"Q1129073","name":"Marionnaud","shop":"perfumery"}},"shop/shoes/courir-1cd077":{"name":"Courir","locationSet":{"include":["be","ci","es","fx","lu","ma","pt","qa"]},"geometry":["point","area"],"matchScore":2,"terms":["courir"],"tags":{"brand:wikidata":"Q3001258","shop":"shoes"},"addTags":{"brand":"Courir","brand:wikidata":"Q3001258","name":"Courir","shop":"shoes"}},"shop/sports/hoka-4a6d5f":{"name":"Hoka","locationSet":{"include":["ad","ae","al","at","au","ba","be","bg","br","ca","ch","cl","cn","cy","cz","de","dk","dz","ee","es","fi","fr","gb","gr","hr","hu","id","ie","il","is","it","je","jp","kz","lt","lu","lv","ma","mc","md","me","mk","mt","nl","no","nz","ph","pl","pt","re","ro","rs","ru","se","si","sk","tn","tr","ua","us","za"]},"geometry":["point","area"],"matchScore":2,"terms":["hoka"],"tags":{"brand:wikidata":"Q16908664","shop":"sports"},"addTags":{"brand":"Hoka","brand:wikidata":"Q16908664","name":"Hoka","shop":"sports"}},"shop/supermarket/aswakassalam-dc016e":{"name":"Aswak Assalam أسواق السلام","locationSet":{"include":["ma"]},"geometry":["point","area"],"matchScore":2,"terms":["aswak assalam","aswak assalam أسواق السلام","أسواق السلام"],"tags":{"brand:wikidata":"Q2868678","shop":"supermarket"},"addTags":{"brand":"Aswak Assalam أسواق السلام","brand:ar":"أسواق السلام","brand:fr":"Aswak Assalam","brand:wikidata":"Q2868678","name":"Aswak Assalam أسواق السلام","name:ar":"أسواق السلام","name:fr":"Aswak Assalam","shop":"supermarket"}},"shop/supermarket/atacadao-0e6c71":{"name":"Atacadão","locationSet":{"include":["br","ma"]},"geometry":["point","area"],"matchScore":2,"terms":["atacadão"],"tags":{"brand:wikidata":"Q2868739","shop":"supermarket"},"addTags":{"brand":"Atacadão","brand:wikidata":"Q2868739","name":"Atacadão","shop":"supermarket"}},"shop/supermarket/bim-8af1d3":{"name":"BİM","locationSet":{"include":["ma","tr"]},"geometry":["point","area"],"matchScore":2,"terms":["bi̇m"],"tags":{"brand:wikidata":"Q1022075","shop":"supermarket"},"addTags":{"brand":"BİM","brand:wikidata":"Q1022075","name":"BİM","shop":"supermarket"}},"shop/supermarket/marjanemarket-dc016e":{"name":"Marjane Market مرجان ماركت","locationSet":{"include":["ma"]},"geometry":["point","area"],"matchScore":2,"terms":["marjane market","marjane market مرجان ماركت","مرجان ماركت"],"tags":{"brand:wikidata":"Q2823349","shop":"supermarket"},"addTags":{"brand":"Marjane Market مرجان ماركت","brand:ar":"مرجان ماركت","brand:fr":"Marjane Market","brand:wikidata":"Q2823349","name":"Marjane Market مرجان ماركت","name:ar":"مرجان ماركت","name:fr":"Marjane Market","shop":"supermarket"}},"shop/supermarket/marjane-dc016e":{"name":"Marjane مرجان","locationSet":{"include":["ma"]},"geometry":["point","area"],"matchScore":2,"terms":["marjane","marjane مرجان","مرجان"],"tags":{"brand:wikidata":"Q136333342","shop":"supermarket"},"addTags":{"brand":"Marjane مرجان","brand:ar":"مرجان","brand:fr":"Marjane","brand:wikidata":"Q136333342","name":"Marjane مرجان","name:ar":"مرجان","name:fr":"Marjane","shop":"supermarket"}},"shop/supermarket/supersol-0a1807":{"name":"Supersol","locationSet":{"include":["ar","es","ma","uy"]},"geometry":["point","area"],"matchScore":2,"terms":["supersol"],"tags":{"brand:wikidata":"Q62073427","shop":"supermarket"},"addTags":{"brand":"Supersol","brand:wikidata":"Q62073427","name":"Supersol","shop":"supermarket"}},"shop/telecommunication/inwi-53dbca":{"name":"Inwi","locationSet":{"include":["ma"]},"geometry":["point","area"],"matchScore":2,"terms":["inwi"],"tags":{"brand:wikidata":"Q1388949","shop":"telecommunication"},"addTags":{"brand":"Inwi","brand:wikidata":"Q1388949","name":"Inwi","shop":"telecommunication"}},"shop/telecommunication/maroctelecom-53dbca":{"name":"Maroc Telecom اتصالات المغرب","locationSet":{"include":["ma"]},"geometry":["point","area"],"matchScore":2,"terms":["maroc telecom","maroc telecom اتصالات المغرب","اتصالات المغرب"],"tags":{"brand:wikidata":"Q2299942","shop":"telecommunication"},"addTags":{"brand":"Maroc Telecom اتصالات المغرب","brand:ar":"اتصالات المغرب","brand:fr":"Maroc Telecom","brand:wikidata":"Q2299942","name":"Maroc Telecom اتصالات المغرب","name:ar":"اتصالات المغرب","name:fr":"Maroc Telecom","shop":"telecommunication"}},"shop/telecommunication/orange-acb95c":{"name":"Orange","locationSet":{"include":["es","fr","ma","ml"]},"geometry":["point","area"],"matchScore":2,"terms":["agence orange","orange"],"tags":{"brand:wikidata":"Q1431486","shop":"telecommunication"},"addTags":{"brand":"Orange","brand:wikidata":"Q1431486","name":"Orange","shop":"telecommunication"}},"shop/tool_hire/loxam-a4cd21":{"name":"Loxam","locationSet":{"include":["ae","be","bh","br","ch","co","de","dk","es","fr","gb","ie","it","kw","lu","ma","nl","om","pt","qa","sa"]},"geometry":["point","area"],"matchScore":2,"terms":["loxam"],"tags":{"brand:wikidata":"Q3264407","shop":"tool_hire"},"addTags":{"brand":"Loxam","brand:wikidata":"Q3264407","name":"Loxam","shop":"tool_hire"}},"shop/toys/joueclub-913d0c":{"name":"JouéClub","locationSet":{"include":["ad","fr","it","lb","ma","qa"]},"geometry":["point","area"],"matchScore":2,"terms":["jouéclub"],"tags":{"brand:wikidata":"Q3187152","shop":"toys"},"addTags":{"brand":"JouéClub","brand:wikidata":"Q3187152","name":"JouéClub","shop":"toys"}},"shop/toys/lagranderecre-61c030":{"name":"La Grande Récré","locationSet":{"include":["be","ci","es","fr","ma"]},"geometry":["point","area"],"matchScore":2,"terms":["la grande récré"],"tags":{"brand:wikidata":"Q3209556","shop":"toys"},"addTags":{"brand":"La Grande Récré","brand:wikidata":"Q3209556","name":"La Grande Récré","shop":"toys"}},"tourism/hotel/allegrohotels-ba2369":{"name":"Allegro Hotels","locationSet":{"include":["cu","es","ma","mx","pt"]},"geometry":["point","area"],"matchScore":2,"terms":["allegro hotels"],"fields":["name","brand","{tourism/hotel}"],"preserveTags":["^name","^official_name"],"tags":{"brand:wikidata":"Q15148996","tourism":"hotel"},"addTags":{"brand":"Allegro Hotels","brand:wikidata":"Q15148996","name":"Allegro Hotels","tourism":"hotel"}},"tourism/hotel/barcelohotelsandresorts-302c40":{"name":"Barceló","locationSet":{"include":["ae","aw","bg","cr","cu","cz","de","do","eg","es","gr","gt","hu","it","ma","mv","mx","ni","om","pt","sv","tn","tr","us"]},"geometry":["point","area"],"matchScore":2,"terms":["barceló hotels & resorts"],"fields":["name","brand","{tourism/hotel}"],"preserveTags":["^name","^official_name"],"tags":{"brand:wikidata":"Q15148996","tourism":"hotel"},"addTags":{"brand":"Barceló Hotels & Resorts","brand:wikidata":"Q15148996","name":"Barceló Hotels & Resorts","tourism":"hotel"}},"tourism/hotel/eurostars-4e9dda":{"name":"Eurostars","locationSet":{"include":["ad","at","bg","co","cz","de","es","hu","it","ma","me","mx","pt","si","us"]},"geometry":["point","area"],"matchScore":2,"terms":["eurostars hotel company","eurostars hotels"],"fields":["name","brand","{tourism/hotel}"],"preserveTags":["^name","^official_name"],"tags":{"brand:wikidata":"Q8846494","tourism":"hotel"},"addTags":{"brand":"Eurostars Hotel Company","brand:wikidata":"Q8846494","name":"Eurostars","tourism":"hotel"}},"tourism/hotel/iberostarhotelsandresorts-e0d9de":{"name":"Iberostar Hotels & Resorts","locationSet":{"include":["br","cv","do","es","gr","jm","ma","me","mx","pe","pt","tn","us"]},"geometry":["point","area"],"matchScore":2,"terms":["iberostar","iberostar hotels & resorts"],"fields":["name","brand","{tourism/hotel}"],"preserveTags":["^name","^official_name"],"tags":{"brand:wikidata":"Q2035939","tourism":"hotel"},"addTags":{"brand":"Iberostar Hotels & Resorts","brand:wikidata":"Q2035939","tourism":"hotel"}},"tourism/hotel/kyriad-e6de24":{"name":"Kyriad","locationSet":{"include":["at","cn","es","fr","id","ma","pl","qa"]},"geometry":["point","area"],"matchScore":2,"terms":["kyriad"],"fields":["name","brand","{tourism/hotel}"],"preserveTags":["^name","^official_name"],"tags":{"brand:wikidata":"Q11751808","tourism":"hotel"},"addTags":{"brand":"Kyriad","brand:wikidata":"Q11751808","name":"Kyriad","tourism":"hotel"}},"tourism/hotel/premiereclasse-a93346":{"name":"Première Classe","locationSet":{"include":["be","de","fr","gb","ma","nl","pl"]},"geometry":["point","area"],"matchScore":2,"terms":["première classe"],"fields":["name","brand","{tourism/hotel}"],"preserveTags":["^name","^official_name"],"tags":{"brand:wikidata":"Q5964551","tourism":"hotel"},"addTags":{"brand":"Première Classe","brand:wikidata":"Q5964551","name":"Première Classe","tourism":"hotel"}},"advertising/billboard/ikea-1dde13":{"name":"IKEA","locationSet":{"include":["ae","at","au","be","bh","ca","ch","cl","cz","de","dk","eg","es","fi","fr","gb","hk","hr","hu","ie","il","in","it","jo","kr","kw","ma","mo","mx","my","nl","no","nz","ph","pl","pt","qa","ro","rs","sa","se","sg","si","sk","th","ua","us"]},"geometry":["point","vertex","line"],"matchScore":2,"terms":["ikea"],"tags":{"advertising":"billboard","operator:wikidata":"Q54078"},"addTags":{"advertising":"billboard","operator":"IKEA","operator:wikidata":"Q54078"}},"amenity/charging_station/ikea-e9436a":{"name":"IKEA","locationSet":{"include":["ae","at","au","be","bh","ca","ch","cl","cz","de","dk","eg","es","fi","fr","gb","hk","hr","hu","ie","il","in","it","jo","kr","kw","ma","mo","mx","my","nl","no","nz","ph","pl","pt","qa","ro","rs","sa","se","sg","si","sk","th","ua","us"]},"geometry":["point","vertex","area"],"matchScore":2,"terms":["ikea","ikea delft"],"fields":["name","operator","{amenity/charging_station}"],"preserveTags":["^name"],"tags":{"amenity":"charging_station","operator:wikidata":"Q54078"},"addTags":{"amenity":"charging_station","operator":"IKEA","operator:wikidata":"Q54078"}},"amenity/post_box/postemaroc-2a0eda":{"name":"Poste Maroc بريد المغرب","locationSet":{"include":["ma"]},"geometry":["point","vertex"],"matchScore":2,"terms":["barid al maghrib","barid al maghrib بريد المغرب","poste maroc","poste maroc بريد المغرب","بريد المغرب"],"tags":{"amenity":"post_box","operator:wikidata":"Q3399778"},"addTags":{"amenity":"post_box","brand":"Poste Maroc بريد المغرب","brand:ar":"بريد المغرب","brand:fr":"Poste Maroc","brand:wikidata":"Q3399778","operator":"Poste Maroc بريد المغرب","operator:wikidata":"Q3399778"}},"man_made/charge_point/ikea-b1190c":{"name":"IKEA","locationSet":{"include":["ae","at","au","be","bh","ca","ch","cl","cz","de","dk","eg","es","fi","fr","gb","hk","hr","hu","ie","il","in","it","jo","kr","kw","ma","mo","mx","my","nl","no","nz","ph","pl","pt","qa","ro","rs","sa","se","sg","si","sk","th","ua","us"]},"geometry":["point"],"matchScore":2,"terms":["ikea","ikea delft"],"fields":["name","operator","{man_made/charge_point}"],"preserveTags":["^name"],"tags":{"man_made":"charge_point","operator:wikidata":"Q54078"},"addTags":{"man_made":"charge_point","operator":"IKEA","operator:wikidata":"Q54078"}},"man_made/works/thecocacolacompany-742df3":{"name":"The Coca-Cola Company","locationSet":{"include":["gt","ma","mm","nz","ph","us"]},"geometry":["point","area"],"matchScore":2,"terms":["coca-cola","the coca-cola company"],"tags":{"man_made":"works","operator:wikidata":"Q3295867"},"addTags":{"man_made":"works","operator":"The Coca-Cola Company","operator:wikidata":"Q3295867"}},"office/energy_supplier/naturgy-e15d8a":{"name":"Naturgy","locationSet":{"include":["ar","au","be","br","cl","cn","cr","de","do","dz","eg","es","fr","gb","ie","in","jm","jo","jp","lu","ma","mx","nl","om","pa","pe","pk","pr","pt","sg"]},"geometry":["point","area"],"matchScore":2,"terms":["naturgy"],"tags":{"office":"energy_supplier","operator:wikidata":"Q474690"},"addTags":{"name":"Naturgy","office":"energy_supplier","operator":"Naturgy","operator:wikidata":"Q474690"}},"power/generator/ikea-b6ae82":{"name":"IKEA","locationSet":{"include":["ae","at","au","be","bh","ca","ch","cl","cz","de","dk","eg","es","fi","fr","gb","hk","hr","hu","ie","il","in","it","jo","kr","kw","ma","mo","mx","my","nl","no","nz","ph","pl","pt","qa","ro","rs","sa","se","sg","si","sk","th","ua","us"]},"geometry":["point","vertex","area"],"matchScore":2,"terms":["ikea","ikea retail sp zoo"],"tags":{"operator:wikidata":"Q54078","power":"generator"},"addTags":{"operator":"IKEA","operator:wikidata":"Q54078","power":"generator"}},"power/line/onee-1260f2":{"name":"ONEE","locationSet":{"include":["ma"]},"geometry":["line"],"matchScore":2,"terms":["onee"],"tags":{"operator:wikidata":"Q3349644","power":"line"},"addTags":{"operator":"ONEE","operator:wikidata":"Q3349644","power":"line"}},"power/minor_line/onee-a2dad4":{"name":"ONEE","locationSet":{"include":["ma"]},"geometry":["line"],"matchScore":2,"terms":["onee"],"tags":{"operator:wikidata":"Q3349644","power":"minor_line"},"addTags":{"operator":"ONEE","operator:wikidata":"Q3349644","power":"minor_line"}},"power/plant/masen-ff30b3":{"name":"Masen","locationSet":{"include":["ma"]},"geometry":["area"],"matchScore":2,"terms":["masen","mazen"],"tags":{"operator:wikidata":"Q18384641","power":"plant"},"addTags":{"operator":"Masen","operator:wikidata":"Q18384641","power":"plant"}},"power/pole/onee-90f0f5":{"name":"ONEE","locationSet":{"include":["ma"]},"geometry":["point","vertex"],"matchScore":2,"terms":["onee"],"tags":{"operator:wikidata":"Q3349644","power":"pole"},"addTags":{"operator":"ONEE","operator:wikidata":"Q3349644","power":"pole"}},"power/substation/onee-eaf12f":{"name":"ONEE","locationSet":{"include":["ma"]},"geometry":["area","point"],"matchScore":2,"terms":["onee"],"tags":{"operator:wikidata":"Q3349644","power":"substation"},"addTags":{"operator":"ONEE","operator:wikidata":"Q3349644","power":"substation"}},"power/tower/onee-646d3a":{"name":"ONEE","locationSet":{"include":["ma"]},"geometry":["point","vertex"],"matchScore":2,"terms":["onee"],"tags":{"operator:wikidata":"Q3349644","power":"tower"},"addTags":{"operator":"ONEE","operator:wikidata":"Q3349644","power":"tower"}},"power/transformer/onee-523f8f":{"name":"ONEE","locationSet":{"include":["ma"]},"geometry":["point","vertex"],"matchScore":2,"terms":["onee"],"tags":{"operator:wikidata":"Q3349644","power":"transformer"},"addTags":{"operator":"ONEE","operator:wikidata":"Q3349644","power":"transformer"}},"public_transport/platform/bus_point/alsaagadir-4bea82":{"name":"ALSA Agadir","locationSet":{"include":["ma"]},"geometry":["point","vertex"],"matchScore":2,"terms":["alsa agadir"],"reference":{"key":"public_transport","value":"platform"},"tags":{"bus":"yes","network:wikidata":"Q114707454","public_transport":"platform"},"addTags":{"bus":"yes","highway":"bus_stop","network":"ALSA Agadir","network:wikidata":"Q114707454","public_transport":"platform"}},"public_transport/platform/bus_point/alsacitybusrst-4bea82":{"name":"ALSA Citybus RST","locationSet":{"include":["ma"]},"geometry":["point","vertex"],"matchScore":2,"terms":["alsa citybus rst"],"reference":{"key":"public_transport","value":"platform"},"tags":{"bus":"yes","network:wikidata":"Q111211361","public_transport":"platform"},"addTags":{"bus":"yes","highway":"bus_stop","network":"ALSA Citybus RST","network:wikidata":"Q111211361","public_transport":"platform"}},"public_transport/platform/bus_point/alsakhouribga-4bea82":{"name":"ALSA Khouribga","locationSet":{"include":["ma"]},"geometry":["point","vertex"],"matchScore":2,"terms":["alsa khouribga"],"reference":{"key":"public_transport","value":"platform"},"tags":{"bus":"yes","network:wikidata":"Q114671099","public_transport":"platform"},"addTags":{"bus":"yes","highway":"bus_stop","network":"ALSA Khouribga","network:wikidata":"Q114671099","public_transport":"platform"}},"public_transport/platform/bus_point/alsamarrakech-4bea82":{"name":"ALSA Marrakech","locationSet":{"include":["ma"]},"geometry":["point","vertex"],"matchScore":2,"terms":["alsa marrakech"],"reference":{"key":"public_transport","value":"platform"},"tags":{"bus":"yes","network:wikidata":"Q114679539","public_transport":"platform"},"addTags":{"bus":"yes","highway":"bus_stop","network":"ALSA Marrakech","network:wikidata":"Q114679539","public_transport":"platform"}},"public_transport/platform/bus_point/alsatanger-4bea82":{"name":"ALSA TANGER","locationSet":{"include":["ma"]},"geometry":["point","vertex"],"matchScore":2,"terms":["alsa tanger"],"reference":{"key":"public_transport","value":"platform"},"tags":{"bus":"yes","network:wikidata":"Q114666905","public_transport":"platform"},"addTags":{"bus":"yes","highway":"bus_stop","network":"ALSA TANGER","network:wikidata":"Q114666905","public_transport":"platform"}},"public_transport/platform/bus_point/casabus-4bea82":{"name":"Casabus","locationSet":{"include":["ma"]},"geometry":["point","vertex"],"matchScore":2,"terms":["casablanca bus","casabus"],"reference":{"key":"public_transport","value":"platform"},"tags":{"bus":"yes","network:wikidata":"Q114771384","public_transport":"platform"},"addTags":{"bus":"yes","highway":"bus_stop","network":"Casabus","network:wikidata":"Q114771384","public_transport":"platform"}},"public_transport/platform/bus_point/citybusfes-4bea82":{"name":"City Bus Fès","locationSet":{"include":["ma"]},"geometry":["point","vertex"],"matchScore":2,"terms":["city bus fès"],"reference":{"key":"public_transport","value":"platform"},"tags":{"bus":"yes","network:wikidata":"Q114853679","public_transport":"platform"},"addTags":{"bus":"yes","highway":"bus_stop","network":"City Bus Fès","network:wikidata":"Q114853679","public_transport":"platform"}},"public_transport/platform/bus_point/citybusmeknes-4bea82":{"name":"City Bus Meknès","locationSet":{"include":["ma"]},"geometry":["point","vertex"],"matchScore":2,"terms":["city bus meknès"],"reference":{"key":"public_transport","value":"platform"},"tags":{"bus":"yes","network:wikidata":"Q114727483","public_transport":"platform"},"addTags":{"bus":"yes","highway":"bus_stop","network":"City Bus Meknès","network:wikidata":"Q114727483","public_transport":"platform"}},"public_transport/platform/bus_point/foughalbuskenitra-4bea82":{"name":"Foughal Bus Kenitra","locationSet":{"include":["ma"]},"geometry":["point","vertex"],"matchScore":2,"terms":["foughal bus kenitra"],"reference":{"key":"public_transport","value":"platform"},"tags":{"bus":"yes","network:wikidata":"Q114853749","public_transport":"platform"},"addTags":{"bus":"yes","highway":"bus_stop","network":"Foughal Bus Kenitra","network:wikidata":"Q114853749","public_transport":"platform"}},"public_transport/platform/bus_point/vectaliabusnador-4bea82":{"name":"Vectalia Bus Nador","locationSet":{"include":["ma"]},"geometry":["point","vertex"],"matchScore":2,"terms":["vectalia bus nador"],"reference":{"key":"public_transport","value":"platform"},"tags":{"bus":"yes","network:wikidata":"Q114853598","public_transport":"platform"},"addTags":{"bus":"yes","highway":"bus_stop","network":"Vectalia Bus Nador","network:wikidata":"Q114853598","public_transport":"platform"}},"public_transport/platform/bus_point/vectaliasafi-4bea82":{"name":"Vectalia Safi","locationSet":{"include":["ma"]},"geometry":["point","vertex"],"matchScore":2,"terms":["vectalia safi"],"reference":{"key":"public_transport","value":"platform"},"tags":{"bus":"yes","network:wikidata":"Q114853646","public_transport":"platform"},"addTags":{"bus":"yes","highway":"bus_stop","network":"Vectalia Safi","network:wikidata":"Q114853646","public_transport":"platform"}},"public_transport/platform/bus_point/vitalistransport-4bea82":{"name":"Vitalis Transport","locationSet":{"include":["ma"]},"geometry":["point","vertex"],"matchScore":2,"terms":["vitalis transport"],"reference":{"key":"public_transport","value":"platform"},"tags":{"bus":"yes","network:wikidata":"Q114853700","public_transport":"platform"},"addTags":{"bus":"yes","highway":"bus_stop","network":"Vitalis Transport","network:wikidata":"Q114853700","public_transport":"platform"}},"railway/tram_stop/casatramway-b31e7b":{"name":"Casa Tramway","locationSet":{"include":["ma"]},"geometry":["vertex"],"matchScore":2,"terms":["casa tramway","ratp dev"],"tags":{"network:wikidata":"Q1522904","railway":"tram_stop"},"addTags":{"network":"Casa Tramway","network:wikidata":"Q1522904","operator":"RATP Dev","operator:wikidata":"Q16040901","railway":"tram_stop"}},"railway/tram_stop/strs-b31e7b":{"name":"tramway rabat-salé","locationSet":{"include":["ma"]},"geometry":["vertex"],"matchScore":2,"terms":["strs","tramway rabat-salé","transdev"],"tags":{"network:wikidata":"Q948685","railway":"tram_stop"},"addTags":{"network":"STRS","network:wikidata":"Q948685","operator":"Transdev","operator:wikidata":"Q442637","railway":"tram_stop"}},"type/route/bus/alsaagadir-1ba109":{"name":"ALSA Agadir","locationSet":{"include":["ma"]},"geometry":["relation"],"matchScore":2,"terms":["alsa agadir"],"reference":{"key":"route","value":"bus"},"tags":{"network:wikidata":"Q114707454","route":"bus","type":"route"},"addTags":{"network":"ALSA Agadir","network:wikidata":"Q114707454","route":"bus","type":"route"}},"type/route/bus/alsacitybusrst-1ba109":{"name":"ALSA Citybus RST","locationSet":{"include":["ma"]},"geometry":["relation"],"matchScore":2,"terms":["alsa citybus rst"],"reference":{"key":"route","value":"bus"},"tags":{"network:wikidata":"Q111211361","route":"bus","type":"route"},"addTags":{"network":"ALSA Citybus RST","network:wikidata":"Q111211361","route":"bus","type":"route"}},"type/route/bus/alsakhouribga-1ba109":{"name":"ALSA Khouribga","locationSet":{"include":["ma"]},"geometry":["relation"],"matchScore":2,"terms":["alsa khouribga"],"reference":{"key":"route","value":"bus"},"tags":{"network:wikidata":"Q114671099","route":"bus","type":"route"},"addTags":{"network":"ALSA Khouribga","network:wikidata":"Q114671099","route":"bus","type":"route"}},"type/route/bus/alsamarrakech-1ba109":{"name":"ALSA Marrakech","locationSet":{"include":["ma"]},"geometry":["relation"],"matchScore":2,"terms":["alsa marrakech"],"reference":{"key":"route","value":"bus"},"tags":{"network:wikidata":"Q114679539","route":"bus","type":"route"},"addTags":{"network":"ALSA Marrakech","network:wikidata":"Q114679539","route":"bus","type":"route"}},"type/route/bus/alsatanger-1ba109":{"name":"ALSA TANGER","locationSet":{"include":["ma"]},"geometry":["relation"],"matchScore":2,"terms":["alsa tanger"],"reference":{"key":"route","value":"bus"},"tags":{"network:wikidata":"Q114666905","route":"bus","type":"route"},"addTags":{"network":"ALSA TANGER","network:wikidata":"Q114666905","route":"bus","type":"route"}},"type/route/bus/casabus-1ba109":{"name":"Casabus","locationSet":{"include":["ma"]},"geometry":["relation"],"matchScore":2,"terms":["casablanca bus","casabus"],"reference":{"key":"route","value":"bus"},"tags":{"network:wikidata":"Q114771384","route":"bus","type":"route"},"addTags":{"network":"Casabus","network:wikidata":"Q114771384","route":"bus","type":"route"}},"type/route/bus/citybusfes-1ba109":{"name":"City Bus Fès","locationSet":{"include":["ma"]},"geometry":["relation"],"matchScore":2,"terms":["city bus fès"],"reference":{"key":"route","value":"bus"},"tags":{"network:wikidata":"Q114853679","route":"bus","type":"route"},"addTags":{"network":"City Bus Fès","network:wikidata":"Q114853679","route":"bus","type":"route"}},"type/route/bus/citybusmeknes-1ba109":{"name":"City Bus Meknès","locationSet":{"include":["ma"]},"geometry":["relation"],"matchScore":2,"terms":["city bus meknès"],"reference":{"key":"route","value":"bus"},"tags":{"network:wikidata":"Q114727483","route":"bus","type":"route"},"addTags":{"network":"City Bus Meknès","network:wikidata":"Q114727483","route":"bus","type":"route"}},"type/route/bus/foughalbuskenitra-1ba109":{"name":"Foughal Bus Kenitra","locationSet":{"include":["ma"]},"geometry":["relation"],"matchScore":2,"terms":["foughal bus kenitra"],"reference":{"key":"route","value":"bus"},"tags":{"network:wikidata":"Q114853749","route":"bus","type":"route"},"addTags":{"network":"Foughal Bus Kenitra","network:wikidata":"Q114853749","route":"bus","type":"route"}},"type/route/bus/vectaliabusnador-1ba109":{"name":"Vectalia Bus Nador","locationSet":{"include":["ma"]},"geometry":["relation"],"matchScore":2,"terms":["vectalia bus nador"],"reference":{"key":"route","value":"bus"},"tags":{"network:wikidata":"Q114853598","route":"bus","type":"route"},"addTags":{"network":"Vectalia Bus Nador","network:wikidata":"Q114853598","route":"bus","type":"route"}},"type/route/bus/vectaliasafi-1ba109":{"name":"Vectalia Safi","locationSet":{"include":["ma"]},"geometry":["relation"],"matchScore":2,"terms":["vectalia safi"],"reference":{"key":"route","value":"bus"},"tags":{"network:wikidata":"Q114853646","route":"bus","type":"route"},"addTags":{"network":"Vectalia Safi","network:wikidata":"Q114853646","route":"bus","type":"route"}},"type/route/bus/vitalistransport-1ba109":{"name":"Vitalis Transport","locationSet":{"include":["ma"]},"geometry":["relation"],"matchScore":2,"terms":["vitalis transport"],"reference":{"key":"route","value":"bus"},"tags":{"network:wikidata":"Q114853700","route":"bus","type":"route"},"addTags":{"network":"Vitalis Transport","network:wikidata":"Q114853700","route":"bus","type":"route"}},"type/route/tram/casatramway-24315e":{"name":"Casa Tramway","locationSet":{"include":["ma"]},"geometry":["relation"],"matchScore":2,"terms":["casa tramway","ratp dev"],"reference":{"key":"route","value":"tram"},"tags":{"network:wikidata":"Q1522904","route":"tram","type":"route"},"addTags":{"network":"Casa Tramway","network:wikidata":"Q1522904","operator":"RATP Dev","operator:wikidata":"Q16040901","route":"tram","type":"route"}},"type/route/tram/strs-24315e":{"name":"tramway rabat-salé","locationSet":{"include":["ma"]},"geometry":["relation"],"matchScore":2,"terms":["strs","tramway rabat-salé","transdev"],"reference":{"key":"route","value":"tram"},"tags":{"network:wikidata":"Q948685","route":"tram","type":"route"},"addTags":{"network":"STRS","network:wikidata":"Q948685","operator":"Transdev","operator:wikidata":"Q442637","route":"tram","type":"route"}}}