{"amenity/atm/intesasanpaolo-b483ef":{"name":"Intesa Sanpaolo","locationSet":{"include":["kz","kg","tj","tm","uz","cn","hk","mo","kp","jp","mn","kr","bn","kh","id","la","my","mm","ph","sg","th","tl","vn","af","bd","bt","in","ir","mv","np","pk","lk","am","az","bh","cy","ge","iq","il","jo","kw","lb","om","qa","sa","ps","sy","tr","ae","ye","by","bg","cz","hu","pl","md","ro","ru","sk","ua","ax","gg","je","cq","dk","ee","fo","fi","is","ie","im","lv","lt","no","sj","se","gb","al","ad","ba","hr","gi","gr","va","it","mt","me","mk","pt","sm","rs","si","es","xk","at","be","fr","de","li","lu","mc","nl","ch","au-nsw","br","eg","us-dc"],"exclude":["rs","ua"]},"geometry":["point","vertex"],"matchScore":2,"terms":["banca intesa","banca popolare di vicenza","banco di napoli","carisbo","cassa di risparmio del veneto","cassa di risparmio di firenze","intesa sanpaolo","intesa sanpaolo s.p.a.","ubi banca","veneto banca"],"tags":{"amenity":"atm","brand:wikidata":"Q1343118"},"addTags":{"amenity":"atm","brand":"Intesa Sanpaolo","brand:wikidata":"Q1343118","operator":"Intesa Sanpaolo","operator:wikidata":"Q1343118"}},"amenity/bank/intesasanpaolo-28f235":{"name":"Intesa Sanpaolo","locationSet":{"include":["kz","kg","tj","tm","uz","cn","hk","mo","kp","jp","mn","kr","bn","kh","id","la","my","mm","ph","sg","th","tl","vn","af","bd","bt","in","ir","mv","np","pk","lk","am","az","bh","cy","ge","iq","il","jo","kw","lb","om","qa","sa","ps","sy","tr","ae","ye","by","bg","cz","hu","pl","md","ro","ru","sk","ua","ax","gg","je","cq","dk","ee","fo","fi","is","ie","im","lv","lt","no","sj","se","gb","al","ad","ba","hr","gi","gr","va","it","mt","me","mk","pt","sm","rs","si","es","xk","at","be","fr","de","li","lu","mc","nl","ch","au-nsw","br","eg","us-dc"],"exclude":["rs","ua"]},"geometry":["point","area"],"matchScore":2,"terms":["banca intesa","banca popolare di vicenza","banco di napoli","carisbo","cassa di risparmio del veneto","cassa di risparmio di firenze","intesa sanpaolo","intesa sanpaolo s.p.a.","ubi banca","veneto banca"],"tags":{"amenity":"bank","brand:wikidata":"Q1343118"},"addTags":{"amenity":"bank","brand":"Intesa Sanpaolo","brand:wikidata":"Q1343118","name":"Intesa Sanpaolo"}},"amenity/cafe/coffee_shop/starbucks-0dcee5":{"name":"ستاربكس","locationSet":{"include":["ae","bh","dz","eg","iq","jo","kw","lb","ly","ma","om","qa","sa","tn"]},"geometry":["point","area"],"matchScore":2,"terms":["starbucks","starbucks coffee","starbucks middle east","ستاربكس","ستاربكس كافية"],"reference":{"key":"cuisine","value":"coffee_shop"},"tags":{"amenity":"cafe","brand:wikidata":"Q37158","cuisine":"coffee_shop"},"addTags":{"amenity":"cafe","brand":"ستاربكس","brand:ar":"ستاربكس","brand:en":"Starbucks","brand:wikidata":"Q37158","cuisine":"coffee_shop","name":"ستاربكس","name:ar":"ستاربكس","name:en":"Starbucks","official_name":"ستاربكس كافية","official_name:ar":"ستاربكس كافية","official_name:en":"Starbucks Coffee","takeaway":"yes"}},"amenity/fast_food/burger/burgerfuel-ba88db":{"name":"BurgerFuel","locationSet":{"include":["ae","iq","nz","sa","us"]},"geometry":["point","area"],"matchScore":2,"terms":["burgerfuel"],"reference":{"key":"cuisine","value":"burger"},"tags":{"amenity":"fast_food","brand:wikidata":"Q4998537","cuisine":"burger"},"addTags":{"amenity":"fast_food","brand":"BurgerFuel","brand:wikidata":"Q4998537","cuisine":"burger","name":"BurgerFuel","takeaway":"yes"}},"amenity/fast_food/donut/ladonuteria-369100":{"name":"La Donuteria","locationSet":{"include":["am","az","bh","cy","ge","iq","il","jo","kw","lb","om","qa","sa","ps","sy","tr","ae","ye","by","bg","cz","hu","pl","md","ro","ru","sk","ua","ax","gg","je","cq","dk","ee","fo","fi","is","ie","im","lv","lt","no","sj","se","gb","al","ad","ba","hr","gi","gr","va","it","mt","me","mk","pt","sm","rs","si","es","xk","at","be","fr","de","li","lu","mc","nl","ch"]},"geometry":["point","area"],"matchScore":2,"terms":["la donuteria"],"reference":{"key":"cuisine","value":"donut"},"tags":{"amenity":"fast_food","brand:wikidata":"Q136734522","cuisine":"donut;coffee_shop"},"addTags":{"alt_name":"La Donuteria","amenity":"fast_food","brand":"La Donuteria","brand:wikidata":"Q136734522","cuisine":"donut;coffee_shop","name":"La Donuteria","takeaway":"yes"}},"amenity/fast_food/shakeaway-3bfa70":{"name":"ShakeAway","locationSet":{"include":["gb","iq","jo","tl"]},"geometry":["point","area"],"matchScore":2,"terms":["shakeaway"],"tags":{"amenity":"fast_food","brand:wikidata":"Q108443709"},"addTags":{"amenity":"fast_food","brand":"ShakeAway","brand:wikidata":"Q108443709","cuisine":"frozen_yogurt;dessert","name":"ShakeAway","takeaway":"yes"}},"amenity/fast_food/chicken/texaschicken-a57bb7":{"name":"Texas Chicken","locationSet":{"include":["ae","bh","by","id","iq","my","nz","om","qa","sa","sg","th"]},"geometry":["point","area"],"matchScore":2,"terms":["church's chicken","church's texas chicken","church's texas chicken®","texas chicken"],"reference":{"key":"cuisine","value":"chicken"},"tags":{"amenity":"fast_food","brand:wikidata":"Q1089932","cuisine":"chicken"},"addTags":{"alt_name":"Church's Chicken","amenity":"fast_food","brand":"Texas Chicken","brand:wikidata":"Q1089932","cuisine":"chicken","name":"Texas Chicken","takeaway":"yes"}},"amenity/fast_food/chicken/kfc-15a250":{"name":"دجاج كنتاكي","locationSet":{"include":["ae","bh","eg","iq","jo","kw","lb","ly","ma","om","qa","sa","sd","sy","tn","ye"]},"geometry":["point","area"],"matchScore":2,"terms":["kfc","دجاج كنتاكي"],"reference":{"key":"cuisine","value":"chicken"},"tags":{"amenity":"fast_food","brand:wikidata":"Q524757","cuisine":"chicken"},"addTags":{"amenity":"fast_food","brand":"دجاج كنتاكي","brand:ar":"دجاج كنتاكي","brand:en":"KFC","brand:wikidata":"Q524757","cuisine":"chicken","name":"دجاج كنتاكي","name:ar":"دجاج كنتاكي","name:en":"KFC","takeaway":"yes"}},"amenity/fast_food/burger/mcdonalds-19c993":{"name":"ماكدونالدز","locationSet":{"include":["ae","bh","eg","iq","jo","kw","lb","ma","om","qa","sa","sy","tn"]},"geometry":["point","area"],"matchScore":2,"terms":["mcdonald's","ماكدونالدز"],"reference":{"key":"cuisine","value":"burger"},"tags":{"amenity":"fast_food","brand:wikidata":"Q38076","cuisine":"burger"},"addTags":{"amenity":"fast_food","brand":"ماكدونالدز","brand:ar":"ماكدونالدز","brand:en":"McDonald's","brand:wikidata":"Q38076","cuisine":"burger","name":"ماكدونالدز","name:ar":"ماكدونالدز","name:en":"McDonald's","takeaway":"yes"}},"amenity/ice_cream/frozen_yogurt/llaollao-dd9462":{"name":"Llaollao","locationSet":{"include":["au","ch","cl","co","ec","es","fr","gt","hr","id","iq","kw","ma","my","ph","pt","sa","sg","si","sv","us","vn"]},"geometry":["point","area"],"matchScore":2,"terms":["llaollao"],"reference":{"key":"cuisine","value":"frozen_yogurt"},"tags":{"amenity":"ice_cream","brand:wikidata":"Q12163048","cuisine":"frozen_yogurt"},"addTags":{"amenity":"ice_cream","brand":"Llaollao","brand:wikidata":"Q12163048","cuisine":"frozen_yogurt","name":"Llaollao"}},"landuse/industrial/gebruderweiss-dd5b7d":{"name":"Gebrüder Weiss","locationSet":{"include":["kz","kg","tj","tm","uz","cn","hk","mo","kp","jp","mn","kr","bn","kh","id","la","my","mm","ph","sg","th","tl","vn","af","bd","bt","in","ir","mv","np","pk","lk","am","az","bh","cy","ge","iq","il","jo","kw","lb","om","qa","sa","ps","sy","tr","ae","ye","by","bg","cz","hu","pl","md","ro","ru","sk","ua","ax","gg","je","cq","dk","ee","fo","fi","is","ie","im","lv","lt","no","sj","se","gb","al","ad","ba","hr","gi","gr","va","it","mt","me","mk","pt","sm","rs","si","es","xk","at","be","fr","de","li","lu","mc","nl","ch","au","ca","nz","us"]},"geometry":["area"],"matchScore":2,"terms":["gebrüder weiss"],"fields":["name","brand","{landuse/industrial}"],"preserveTags":["^name"],"tags":{"brand:wikidata":"Q1497233","landuse":"industrial"},"addTags":{"brand":"Gebrüder Weiss","brand:wikidata":"Q1497233","industrial":"warehouse","landuse":"industrial","name":"Gebrüder Weiss"}},"office/gebruderweiss-3fef46":{"name":"Gebrüder Weiss","locationSet":{"include":["kz","kg","tj","tm","uz","cn","hk","mo","kp","jp","mn","kr","bn","kh","id","la","my","mm","ph","sg","th","tl","vn","af","bd","bt","in","ir","mv","np","pk","lk","am","az","bh","cy","ge","iq","il","jo","kw","lb","om","qa","sa","ps","sy","tr","ae","ye","by","bg","cz","hu","pl","md","ro","ru","sk","ua","ax","gg","je","cq","dk","ee","fo","fi","is","ie","im","lv","lt","no","sj","se","gb","al","ad","ba","hr","gi","gr","va","it","mt","me","mk","pt","sm","rs","si","es","xk","at","be","fr","de","li","lu","mc","nl","ch","au","ca","nz","us"]},"geometry":["point","vertex","area"],"matchScore":2,"terms":["gebrüder weiss"],"fields":["name","brand","{office}"],"preserveTags":["^name"],"tags":{"brand:wikidata":"Q1497233","office":"logistics"},"addTags":{"brand":"Gebrüder Weiss","brand:wikidata":"Q1497233","name":"Gebrüder Weiss","office":"logistics"}},"shop/baby_goods/suavinex-323d81":{"name":"Suavinex","locationSet":{"include":["ae","al","ao","au","be","ch","cl","cn","co","cr","cy","cz","do","dz","ec","es","fr","ge","gq","gr","il","iq","ir","it","kr","lb","lu","me","mt","mx","my","nl","no","pa","pl","pt","ro","rs","ru","sa","sg","sk","tr","uy","vn"]},"geometry":["point","area"],"matchScore":2,"terms":["suavinex"],"tags":{"brand:wikidata":"Q122258837","shop":"baby_goods"},"addTags":{"brand":"Suavinex","brand:wikidata":"Q122258837","name":"Suavinex","shop":"baby_goods"}},"shop/telecommunication/ooredoo-5cc5ab":{"name":"Ooredoo","locationSet":{"include":["dz","id","iq","kw","mv","om","ps","qa","tn"]},"geometry":["point","area"],"matchScore":2,"terms":["ooredoo"],"tags":{"brand:wikidata":"Q919935","shop":"telecommunication"},"addTags":{"brand":"Ooredoo","brand:wikidata":"Q919935","name":"Ooredoo","shop":"telecommunication"}},"education/college/universityofduhok-7b4b17":{"name":"University of Duhok","locationSet":{"include":["iq"]},"geometry":["area","point"],"matchScore":2,"terms":["university of duhok"],"reference":{"key":"amenity","value":"college"},"tags":{"amenity":"college","operator:wikidata":"Q3666468"},"addTags":{"amenity":"college","operator":"University of Duhok","operator:type":"private","operator:wikidata":"Q3666468"}},"amenity/courthouse/edff70-ba0858":{"name":"وزارة العدل العراقية","locationSet":{"include":["iq"]},"geometry":["point","area"],"matchScore":2,"terms":["وزارة العدل","وزارة العدل العراقية"],"tags":{"amenity":"courthouse","operator:wikidata":"Q15253468"},"addTags":{"amenity":"courthouse","operator":"وزارة العدل العراقية","operator:wikidata":"Q15253468"}},"amenity/post_box/iraqpost-8bf441":{"name":"البريد العراقي","locationSet":{"include":["iq"]},"geometry":["point","vertex"],"matchScore":2,"terms":["iraq post","iraqi post","البريد العراقي"],"tags":{"amenity":"post_box","operator:wikidata":"Q12184443"},"addTags":{"amenity":"post_box","operator":"البريد العراقي","operator:ar":"البريد العراقي","operator:en":"Iraq Post","operator:wikidata":"Q12184443"}},"amenity/post_office/iraqpost-371d69":{"name":"البريد العراقي","locationSet":{"include":["iq"]},"geometry":["point","area"],"matchScore":2,"terms":["iraq post","iraqi post","البريد العراقي"],"fields":["name","operator","{amenity/post_office}"],"preserveTags":["^name"],"tags":{"amenity":"post_office","operator:wikidata":"Q12184443"},"addTags":{"amenity":"post_office","operator":"البريد العراقي","operator:ar":"البريد العراقي","operator:en":"Iraq Post","operator:wikidata":"Q12184443"}},"power/plant/ministryofelectricity-b08361":{"name":"Ministry of Electricity (Iraq)","locationSet":{"include":["iq"]},"geometry":["area"],"matchScore":2,"terms":["ministry of electricity"],"tags":{"operator:wikidata":"Q6866866","power":"plant"},"addTags":{"operator":"Ministry of Electricity","operator:wikidata":"Q6866866","power":"plant"}}}