{"amenity/atm/dubaiislamicbank-4e81d9":{"name":"Dubai Islamic Bank","locationSet":{"include":["ae","jo","ke","pk"]},"geometry":["point","vertex"],"matchScore":2,"terms":["dubai islamic bank","بنك دبي الإسلامي","دبئی اسلامی بینک"],"tags":{"amenity":"atm","brand:wikidata":"Q5310570"},"addTags":{"amenity":"atm","brand":"Dubai Islamic Bank","brand:ar":"بنك دبي الإسلامي","brand:en":"Dubai Islamic Bank","brand:ur":"دبئی اسلامی بینک","brand:wikidata":"Q5310570","operator":"Dubai Islamic Bank","operator:wikidata":"Q5310570"}},"amenity/atm/intesasanpaolo-b483ef":{"name":"Intesa Sanpaolo","locationSet":{"include":["kz","kg","tj","tm","uz","cn","hk","mo","kp","jp","mn","kr","bn","kh","id","la","my","mm","ph","sg","th","tl","vn","af","bd","bt","in","ir","mv","np","pk","lk","am","az","bh","cy","ge","iq","il","jo","kw","lb","om","qa","sa","ps","sy","tr","ae","ye","by","bg","cz","hu","pl","md","ro","ru","sk","ua","ax","gg","je","cq","dk","ee","fo","fi","is","ie","im","lv","lt","no","sj","se","gb","al","ad","ba","hr","gi","gr","va","it","mt","me","mk","pt","sm","rs","si","es","xk","at","be","fr","de","li","lu","mc","nl","ch","au-nsw","br","eg","us-dc"],"exclude":["rs","ua"]},"geometry":["point","vertex"],"matchScore":2,"terms":["banca intesa","banca popolare di vicenza","banco di napoli","carisbo","cassa di risparmio del veneto","cassa di risparmio di firenze","intesa sanpaolo","intesa sanpaolo s.p.a.","ubi banca","veneto banca"],"tags":{"amenity":"atm","brand:wikidata":"Q1343118"},"addTags":{"amenity":"atm","brand":"Intesa Sanpaolo","brand:wikidata":"Q1343118","operator":"Intesa Sanpaolo","operator:wikidata":"Q1343118"}},"amenity/atm/333979-5b8686":{"name":"مصرف الراجحي","locationSet":{"include":["jo","kw","sa"]},"geometry":["point","vertex"],"matchScore":2,"terms":["مصرف الراجحي"],"tags":{"amenity":"atm","brand:wikidata":"Q1761176"},"addTags":{"amenity":"atm","brand":"مصرف الراجحي","brand:wikidata":"Q1761176","operator":"مصرف الراجحي","operator:wikidata":"Q1761176"}},"amenity/bank/dubaiislamicbank-bd7e2a":{"name":"Dubai Islamic Bank","locationSet":{"include":["ae","jo","ke","pk"]},"geometry":["point","area"],"matchScore":2,"terms":["dubai islamic bank","بنك دبي الإسلامي","دبئی اسلامی بینک"],"tags":{"amenity":"bank","brand:wikidata":"Q5310570"},"addTags":{"amenity":"bank","brand":"Dubai Islamic Bank","brand:ar":"بنك دبي الإسلامي","brand:en":"Dubai Islamic Bank","brand:ur":"دبئی اسلامی بینک","brand:wikidata":"Q5310570","name":"Dubai Islamic Bank","name:ar":"بنك دبي الإسلامي","name:en":"Dubai Islamic Bank","name:ur":"دبئی اسلامی بینک"}},"amenity/bank/intesasanpaolo-28f235":{"name":"Intesa Sanpaolo","locationSet":{"include":["kz","kg","tj","tm","uz","cn","hk","mo","kp","jp","mn","kr","bn","kh","id","la","my","mm","ph","sg","th","tl","vn","af","bd","bt","in","ir","mv","np","pk","lk","am","az","bh","cy","ge","iq","il","jo","kw","lb","om","qa","sa","ps","sy","tr","ae","ye","by","bg","cz","hu","pl","md","ro","ru","sk","ua","ax","gg","je","cq","dk","ee","fo","fi","is","ie","im","lv","lt","no","sj","se","gb","al","ad","ba","hr","gi","gr","va","it","mt","me","mk","pt","sm","rs","si","es","xk","at","be","fr","de","li","lu","mc","nl","ch","au-nsw","br","eg","us-dc"],"exclude":["rs","ua"]},"geometry":["point","area"],"matchScore":2,"terms":["banca intesa","banca popolare di vicenza","banco di napoli","carisbo","cassa di risparmio del veneto","cassa di risparmio di firenze","intesa sanpaolo","intesa sanpaolo s.p.a.","ubi banca","veneto banca"],"tags":{"amenity":"bank","brand:wikidata":"Q1343118"},"addTags":{"amenity":"bank","brand":"Intesa Sanpaolo","brand:wikidata":"Q1343118","name":"Intesa Sanpaolo"}},"amenity/bank/333979-c05ba5":{"name":"مصرف الراجحي","locationSet":{"include":["jo","kw","sa"]},"geometry":["point","area"],"matchScore":2,"terms":["مصرف الراجحي"],"tags":{"amenity":"bank","brand:wikidata":"Q1761176"},"addTags":{"amenity":"bank","brand":"مصرف الراجحي","brand:wikidata":"Q1761176","name":"مصرف الراجحي"}},"amenity/cafe/coffee_shop/timhortons-2ad4e1":{"name":"تيم هورتونز","locationSet":{"include":["ae","bh","jo","kw","om","qa","sa"]},"geometry":["point","area"],"matchScore":2,"terms":["tim hortons","تيم هورتونز"],"reference":{"key":"cuisine","value":"coffee_shop"},"tags":{"amenity":"cafe","brand:wikidata":"Q175106","cuisine":"coffee_shop"},"addTags":{"amenity":"cafe","brand":"تيم هورتونز","brand:ar":"تيم هورتونز","brand:en":"Tim Hortons","brand:wikidata":"Q175106","cuisine":"coffee_shop","name":"تيم هورتونز","name:ar":"تيم هورتونز","name:en":"Tim Hortons","takeaway":"yes"}},"amenity/cafe/coffee_shop/starbucks-0dcee5":{"name":"ستاربكس","locationSet":{"include":["ae","bh","dz","eg","iq","jo","kw","lb","ly","ma","om","qa","sa","tn"]},"geometry":["point","area"],"matchScore":2,"terms":["starbucks","starbucks coffee","starbucks middle east","ستاربكس","ستاربكس كافية"],"reference":{"key":"cuisine","value":"coffee_shop"},"tags":{"amenity":"cafe","brand:wikidata":"Q37158","cuisine":"coffee_shop"},"addTags":{"amenity":"cafe","brand":"ستاربكس","brand:ar":"ستاربكس","brand:en":"Starbucks","brand:wikidata":"Q37158","cuisine":"coffee_shop","name":"ستاربكس","name:ar":"ستاربكس","name:en":"Starbucks","official_name":"ستاربكس كافية","official_name:ar":"ستاربكس كافية","official_name:en":"Starbucks Coffee","takeaway":"yes"}},"education/college/saeinstitute-7a11fb":{"name":"SAE Institute","locationSet":{"include":["ae","at","au","be","ca","ch","de","es","fr","gb","gr","id","it","jo","mx","nl","nz","rs","us","za"]},"geometry":["area","point"],"matchScore":2,"terms":["sae institute"],"fields":["name","brand","{education/college}"],"reference":{"key":"amenity","value":"college"},"preserveTags":["^name"],"tags":{"amenity":"college","brand:wikidata":"Q201438"},"addTags":{"amenity":"college","brand":"SAE Institute","brand:wikidata":"Q201438","name":"SAE Institute"}},"amenity/fast_food/ikeabistro-e746e6":{"name":"IKEA Bistro","locationSet":{"include":["ae","at","au","bh","ca","ch","cn","cz","de","dk","es","fi","fr","gb","hr","hu","ie","in","it","jo","jp","kr","kw","ma","mx","my","no","nz","pl","pt","ro","rs","sa","se","sg","si","sk","us"]},"geometry":["point","area"],"matchScore":2,"terms":["ikea"],"tags":{"amenity":"fast_food","brand:wikidata":"Q54078"},"addTags":{"amenity":"fast_food","brand":"IKEA","brand:wikidata":"Q54078","cuisine":"swedish","name":"IKEA Bistro","takeaway":"yes"}},"amenity/fast_food/ikearestaurant-310c78":{"name":"IKEA Restaurant","locationSet":{"include":["ae","at","au","bh","ca","ch","cz","de","dk","eg","es","fi","fr","gb","hr","hu","ie","in","it","jo","jp","kr","kw","ma","mx","my","no","nz","ph","pl","pt","qa","ro","rs","sa","se","sg","si","sk","th","us"]},"geometry":["point","area"],"matchScore":2,"terms":["ikea","ikea restaurant","ресторан икеа"],"tags":{"amenity":"fast_food","brand:wikidata":"Q54078"},"addTags":{"amenity":"fast_food","brand":"IKEA","brand:wikidata":"Q54078","cuisine":"swedish","name":"IKEA Restaurant","name:en":"IKEA Restaurant","name:ru":"Ресторан ИКЕА","takeaway":"yes"}},"amenity/fast_food/donut/ladonuteria-369100":{"name":"La Donuteria","locationSet":{"include":["am","az","bh","cy","ge","iq","il","jo","kw","lb","om","qa","sa","ps","sy","tr","ae","ye","by","bg","cz","hu","pl","md","ro","ru","sk","ua","ax","gg","je","cq","dk","ee","fo","fi","is","ie","im","lv","lt","no","sj","se","gb","al","ad","ba","hr","gi","gr","va","it","mt","me","mk","pt","sm","rs","si","es","xk","at","be","fr","de","li","lu","mc","nl","ch"]},"geometry":["point","area"],"matchScore":2,"terms":["la donuteria"],"reference":{"key":"cuisine","value":"donut"},"tags":{"amenity":"fast_food","brand:wikidata":"Q136734522","cuisine":"donut;coffee_shop"},"addTags":{"alt_name":"La Donuteria","amenity":"fast_food","brand":"La Donuteria","brand:wikidata":"Q136734522","cuisine":"donut;coffee_shop","name":"La Donuteria","takeaway":"yes"}},"amenity/fast_food/shakeaway-3bfa70":{"name":"ShakeAway","locationSet":{"include":["gb","iq","jo","tl"]},"geometry":["point","area"],"matchScore":2,"terms":["shakeaway"],"tags":{"amenity":"fast_food","brand:wikidata":"Q108443709"},"addTags":{"amenity":"fast_food","brand":"ShakeAway","brand:wikidata":"Q108443709","cuisine":"frozen_yogurt;dessert","name":"ShakeAway","takeaway":"yes"}},"amenity/fast_food/pizza/thepizzacompany-abbb1f":{"name":"The Pizza Company","locationSet":{"include":["ae","bh","cn","jo","kh","la","mm","my","sa","th","vn"]},"geometry":["point","area"],"matchScore":2,"terms":["pizza company","the pizza company"],"reference":{"key":"cuisine","value":"pizza"},"tags":{"amenity":"fast_food","brand:wikidata":"Q2413520","cuisine":"pizza"},"addTags":{"alt_name":"Pizza Company","amenity":"fast_food","brand":"The Pizza Company","brand:wikidata":"Q2413520","cuisine":"pizza","name":"The Pizza Company","takeaway":"yes"}},"amenity/fast_food/chicken/altazaj-7c76bb":{"name":"الطازج","locationSet":{"include":["ae","bh","eg","jo","kw","lb","my","om","qa","sa","td","ye"]},"geometry":["point","area"],"matchScore":2,"terms":["al tazaj","الطازج"],"reference":{"key":"cuisine","value":"chicken"},"tags":{"amenity":"fast_food","brand:wikidata":"Q4704878","cuisine":"chicken"},"addTags":{"amenity":"fast_food","brand":"الطازج","brand:ar":"الطازج","brand:en":"Al Tazaj","brand:wikidata":"Q4704878","cuisine":"chicken","name":"الطازج","name:ar":"الطازج","name:en":"Al Tazaj","takeaway":"yes"}},"amenity/fast_food/chicken/kfc-15a250":{"name":"دجاج كنتاكي","locationSet":{"include":["ae","bh","eg","iq","jo","kw","lb","ly","ma","om","qa","sa","sd","sy","tn","ye"]},"geometry":["point","area"],"matchScore":2,"terms":["kfc","دجاج كنتاكي"],"reference":{"key":"cuisine","value":"chicken"},"tags":{"amenity":"fast_food","brand:wikidata":"Q524757","cuisine":"chicken"},"addTags":{"amenity":"fast_food","brand":"دجاج كنتاكي","brand:ar":"دجاج كنتاكي","brand:en":"KFC","brand:wikidata":"Q524757","cuisine":"chicken","name":"دجاج كنتاكي","name:ar":"دجاج كنتاكي","name:en":"KFC","takeaway":"yes"}},"amenity/fast_food/sandwich/kudu-1b3be3":{"name":"كودو","locationSet":{"include":["ae","bh","jo","sa","sd"]},"geometry":["point","area"],"matchScore":2,"terms":["kudu","كودو"],"reference":{"key":"cuisine","value":"sandwich"},"tags":{"amenity":"fast_food","brand:wikidata":"Q6441777","cuisine":"sandwich"},"addTags":{"amenity":"fast_food","brand":"كودو","brand:ar":"كودو","brand:en":"Kudu","brand:wikidata":"Q6441777","cuisine":"sandwich","name":"كودو","name:ar":"كودو","name:en":"Kudu","takeaway":"yes"}},"amenity/fast_food/burger/mcdonalds-19c993":{"name":"ماكدونالدز","locationSet":{"include":["ae","bh","eg","iq","jo","kw","lb","ma","om","qa","sa","sy","tn"]},"geometry":["point","area"],"matchScore":2,"terms":["mcdonald's","ماكدونالدز"],"reference":{"key":"cuisine","value":"burger"},"tags":{"amenity":"fast_food","brand:wikidata":"Q38076","cuisine":"burger"},"addTags":{"amenity":"fast_food","brand":"ماكدونالدز","brand:ar":"ماكدونالدز","brand:en":"McDonald's","brand:wikidata":"Q38076","cuisine":"burger","name":"ماكدونالدز","name:ar":"ماكدونالدز","name:en":"McDonald's","takeaway":"yes"}},"landuse/industrial/gebruderweiss-dd5b7d":{"name":"Gebrüder Weiss","locationSet":{"include":["kz","kg","tj","tm","uz","cn","hk","mo","kp","jp","mn","kr","bn","kh","id","la","my","mm","ph","sg","th","tl","vn","af","bd","bt","in","ir","mv","np","pk","lk","am","az","bh","cy","ge","iq","il","jo","kw","lb","om","qa","sa","ps","sy","tr","ae","ye","by","bg","cz","hu","pl","md","ro","ru","sk","ua","ax","gg","je","cq","dk","ee","fo","fi","is","ie","im","lv","lt","no","sj","se","gb","al","ad","ba","hr","gi","gr","va","it","mt","me","mk","pt","sm","rs","si","es","xk","at","be","fr","de","li","lu","mc","nl","ch","au","ca","nz","us"]},"geometry":["area"],"matchScore":2,"terms":["gebrüder weiss"],"fields":["name","brand","{landuse/industrial}"],"preserveTags":["^name"],"tags":{"brand:wikidata":"Q1497233","landuse":"industrial"},"addTags":{"brand":"Gebrüder Weiss","brand:wikidata":"Q1497233","industrial":"warehouse","landuse":"industrial","name":"Gebrüder Weiss"}},"office/gebruderweiss-3fef46":{"name":"Gebrüder Weiss","locationSet":{"include":["kz","kg","tj","tm","uz","cn","hk","mo","kp","jp","mn","kr","bn","kh","id","la","my","mm","ph","sg","th","tl","vn","af","bd","bt","in","ir","mv","np","pk","lk","am","az","bh","cy","ge","iq","il","jo","kw","lb","om","qa","sa","ps","sy","tr","ae","ye","by","bg","cz","hu","pl","md","ro","ru","sk","ua","ax","gg","je","cq","dk","ee","fo","fi","is","ie","im","lv","lt","no","sj","se","gb","al","ad","ba","hr","gi","gr","va","it","mt","me","mk","pt","sm","rs","si","es","xk","at","be","fr","de","li","lu","mc","nl","ch","au","ca","nz","us"]},"geometry":["point","vertex","area"],"matchScore":2,"terms":["gebrüder weiss"],"fields":["name","brand","{office}"],"preserveTags":["^name"],"tags":{"brand:wikidata":"Q1497233","office":"logistics"},"addTags":{"brand":"Gebrüder Weiss","brand:wikidata":"Q1497233","name":"Gebrüder Weiss","office":"logistics"}},"shop/bakery/paul-652955":{"name":"Paul","locationSet":{"include":["ae","az","be","bh","by","ci","cy","cz","eg","es","fr","ga","gb","ge","gr","id","in","jo","jp","kw","kz","lb","lu","ma","mu","my","om","pa","ph","pl","pt","qa","ro","ru","sa","sg","th","tn","tw","ua","us","uz","vn","za"]},"geometry":["point","area"],"matchScore":2,"terms":["paul"],"tags":{"brand:wikidata":"Q3370417","shop":"bakery"},"addTags":{"brand":"Paul","brand:wikidata":"Q3370417","name":"Paul","shop":"bakery"}},"shop/chocolate/jeffdebruges-bc7364":{"name":"Jeff de Bruges","locationSet":{"include":["at","bg","ca","cz","de","ee","es","fr","gb","it","jo","lu","ma","om","sa","sk","sn","tn"]},"geometry":["point","area"],"matchScore":2,"terms":["jeff de bruges"],"tags":{"brand:wikidata":"Q3176626","shop":"chocolate"},"addTags":{"brand":"Jeff de Bruges","brand:wikidata":"Q3176626","name":"Jeff de Bruges","shop":"chocolate"}},"shop/clothes/dynamite-aecc8a":{"name":"Dynamite","locationSet":{"include":["ca","jo","sa","us"]},"geometry":["point","area"],"matchScore":2,"terms":["dynamite"],"tags":{"brand:wikidata":"Q3117385","shop":"clothes"},"addTags":{"brand":"Dynamite","brand:wikidata":"Q3117385","clothes":"women","name":"Dynamite","shop":"clothes"}},"shop/clothes/garage-072c62":{"name":"Garage","locationSet":{"include":["am","ca","jo","om","qa","sa","us"]},"geometry":["point","area"],"matchScore":2,"terms":["garage"],"tags":{"brand:wikidata":"Q5521860","shop":"clothes"},"addTags":{"brand":"Garage","brand:wikidata":"Q5521860","clothes":"women","name":"Garage","shop":"clothes"}},"shop/convenience/ikeaswedishfoodmarket-e66215":{"name":"IKEA Swedish Food Market","locationSet":{"include":["au","bh","ca","cz","de","es","fi","fr","gb","hr","hu","ie","it","jo","kr","kw","ma","mx","my","no","nz","ph","pl","pt","qa","sa","sg","si","sk"]},"geometry":["point","area"],"matchScore":2,"terms":["ikea"],"tags":{"brand:wikidata":"Q54078","shop":"convenience"},"addTags":{"brand":"IKEA","brand:wikidata":"Q54078","name":"IKEA Swedish Food Market","shop":"convenience"}},"shop/furniture/ikea-97652b":{"name":"IKEA","locationSet":{"include":["ae","at","au","be","bh","ca","ch","cl","cz","de","eg","es","fr","gb","hr","hu","ie","il","in","it","jo","kr","kw","ma","mx","my","nl","nz","ph","pl","pt","qa","ro","rs","sa","sg","si","sk","th","ua","us"]},"geometry":["point","area"],"matchScore":2,"terms":["ikea"],"tags":{"brand:wikidata":"Q54078","shop":"furniture"},"addTags":{"brand":"IKEA","brand:wikidata":"Q54078","name":"IKEA","shop":"furniture"}},"shop/mobile_phone/orange-87fd86":{"name":"Orange","locationSet":{"include":["be","bf","bw","cd","cf","ci","cm","eg","gn","gw","jo","lr","lu","md","mg","pl","re","ro","sk","sl","sn","tn"]},"geometry":["point","area"],"matchScore":2,"terms":["agence orange","orange","orange egypt"],"tags":{"brand:wikidata":"Q1431486","shop":"mobile_phone"},"addTags":{"brand":"Orange","brand:wikidata":"Q1431486","name":"Orange","shop":"mobile_phone"}},"shop/toys/hamleys-2271ec":{"name":"Hamleys","locationSet":{"include":["ae","al","cn","eg","gb","in","it","jo","mx","my","ph","qa","ru","za"]},"geometry":["point","area"],"matchScore":2,"terms":["hamleys"],"tags":{"brand:wikidata":"Q60299","shop":"toys"},"addTags":{"brand":"Hamleys","brand:wikidata":"Q60299","name":"Hamleys","shop":"toys"}},"tourism/hotel/daysinn-3e5d02":{"name":"Days Inn","locationSet":{"include":["ar","az","br","ca","ch","cn","de","gb","gu","id","in","jo","kr","mx","my","ph","sg","sn","th","tr","us"]},"geometry":["point","area"],"matchScore":2,"terms":["days inn","days inn by wyndham"],"fields":["name","brand","{tourism/hotel}"],"preserveTags":["^name","^official_name"],"tags":{"brand:wikidata":"Q1047239","tourism":"hotel"},"addTags":{"brand":"Days Inn","brand:wikidata":"Q1047239","name":"Days Inn","official_name":"Days Inn by Wyndham","tourism":"hotel"}},"advertising/billboard/ikea-1dde13":{"name":"IKEA","locationSet":{"include":["ae","at","au","be","bh","ca","ch","cl","cz","de","dk","eg","es","fi","fr","gb","hk","hr","hu","ie","il","in","it","jo","kr","kw","ma","mo","mx","my","nl","no","nz","ph","pl","pt","qa","ro","rs","sa","se","sg","si","sk","th","ua","us"]},"geometry":["point","vertex","line"],"matchScore":2,"terms":["ikea"],"tags":{"advertising":"billboard","operator:wikidata":"Q54078"},"addTags":{"advertising":"billboard","operator":"IKEA","operator:wikidata":"Q54078"}},"amenity/charging_station/ikea-e9436a":{"name":"IKEA","locationSet":{"include":["ae","at","au","be","bh","ca","ch","cl","cz","de","dk","eg","es","fi","fr","gb","hk","hr","hu","ie","il","in","it","jo","kr","kw","ma","mo","mx","my","nl","no","nz","ph","pl","pt","qa","ro","rs","sa","se","sg","si","sk","th","ua","us"]},"geometry":["point","vertex","area"],"matchScore":2,"terms":["ikea","ikea delft"],"fields":["name","operator","{amenity/charging_station}"],"preserveTags":["^name"],"tags":{"amenity":"charging_station","operator:wikidata":"Q54078"},"addTags":{"amenity":"charging_station","operator":"IKEA","operator:wikidata":"Q54078"}},"boundary/royalsocietyfortheconservationofnature-33db75":{"name":"Royal Society for the Conservation of Nature","locationSet":{"include":["jo"]},"geometry":["line"],"matchScore":2,"terms":["royal society for the conservation of nature","rscn"],"tags":{"boundary":"protected_area","operator:wikidata":"Q7374841"},"addTags":{"boundary":"protected_area","operator":"Royal Society for the Conservation of Nature","operator:short":"RSCN","operator:wikidata":"Q7374841"}},"man_made/charge_point/ikea-b1190c":{"name":"IKEA","locationSet":{"include":["ae","at","au","be","bh","ca","ch","cl","cz","de","dk","eg","es","fi","fr","gb","hk","hr","hu","ie","il","in","it","jo","kr","kw","ma","mo","mx","my","nl","no","nz","ph","pl","pt","qa","ro","rs","sa","se","sg","si","sk","th","ua","us"]},"geometry":["point"],"matchScore":2,"terms":["ikea","ikea delft"],"fields":["name","operator","{man_made/charge_point}"],"preserveTags":["^name"],"tags":{"man_made":"charge_point","operator:wikidata":"Q54078"},"addTags":{"man_made":"charge_point","operator":"IKEA","operator:wikidata":"Q54078"}},"office/energy_supplier/naturgy-e15d8a":{"name":"Naturgy","locationSet":{"include":["ar","au","be","br","cl","cn","cr","de","do","dz","eg","es","fr","gb","ie","in","jm","jo","jp","lu","ma","mx","nl","om","pa","pe","pk","pr","pt","sg"]},"geometry":["point","area"],"matchScore":2,"terms":["naturgy"],"tags":{"office":"energy_supplier","operator:wikidata":"Q474690"},"addTags":{"name":"Naturgy","office":"energy_supplier","operator":"Naturgy","operator:wikidata":"Q474690"}},"power/generator/ikea-b6ae82":{"name":"IKEA","locationSet":{"include":["ae","at","au","be","bh","ca","ch","cl","cz","de","dk","eg","es","fi","fr","gb","hk","hr","hu","ie","il","in","it","jo","kr","kw","ma","mo","mx","my","nl","no","nz","ph","pl","pt","qa","ro","rs","sa","se","sg","si","sk","th","ua","us"]},"geometry":["point","vertex","area"],"matchScore":2,"terms":["ikea","ikea retail sp zoo"],"tags":{"operator:wikidata":"Q54078","power":"generator"},"addTags":{"operator":"IKEA","operator:wikidata":"Q54078","power":"generator"}}}