{"amenity/police/delhipolice-230fee":{"name":"Delhi Police","locationSet":{"include":["in-dl"]},"geometry":["point","area"],"matchScore":2,"terms":["delhi police"],"tags":{"amenity":"police","operator:wikidata":"Q3764926"},"addTags":{"amenity":"police","operator":"Delhi Police","operator:wikidata":"Q3764926"}},"amenity/school/departmentofeducation-d33434":{"name":"Department of Education (Delhi)","locationSet":{"include":["in-dl"]},"geometry":["area","point"],"matchScore":2,"terms":["department of education"],"tags":{"amenity":"school","operator:wikidata":"Q134109733"},"addTags":{"amenity":"school","operator":"Department of Education","operator:type":"government","operator:wikidata":"Q134109733"}},"amenity/school/directorateofhighereducation-d33434":{"name":"Directorate of Higher Education (Delhi)","locationSet":{"include":["in-dl"]},"geometry":["area","point"],"matchScore":2,"terms":["directorate of higher education"],"tags":{"amenity":"school","operator:wikidata":"Q134111929"},"addTags":{"amenity":"school","operator":"Directorate of Higher Education","operator:type":"government","operator:wikidata":"Q134111929"}},"leisure/nature_reserve/delhidevelopmentauthority-631f40":{"name":"Delhi Development Authority","locationSet":{"include":["in-dl"]},"geometry":["area","point"],"matchScore":2,"terms":["delhi development authority"],"tags":{"leisure":"nature_reserve","operator:wikidata":"Q3635076"},"addTags":{"leisure":"nature_reserve","operator":"Delhi Development Authority","operator:type":"government","operator:wikidata":"Q3635076"}},"leisure/nature_reserve/municipalcorporationofdelhi-631f40":{"name":"Municipal Corporation of Delhi","locationSet":{"include":["in-dl"]},"geometry":["area","point"],"matchScore":2,"terms":["mcd","municipal corporation of delhi","sdmc","south delhi municipal corporation","south delhi municipal corporation (s.d.m.c.)"],"tags":{"leisure":"nature_reserve","operator:wikidata":"Q1192117"},"addTags":{"leisure":"nature_reserve","operator":"Municipal Corporation of Delhi","operator:short":"MCD","operator:type":"government","operator:wikidata":"Q1192117"}},"leisure/park/delhidevelopmentauthority-4ef437":{"name":"Delhi Development Authority","locationSet":{"include":["in-dl"]},"geometry":["area","point"],"matchScore":2,"terms":["delhi development authority"],"tags":{"leisure":"park","operator:wikidata":"Q3635076"},"addTags":{"leisure":"park","operator":"Delhi Development Authority","operator:type":"government","operator:wikidata":"Q3635076"}},"leisure/park/municipalcorporationofdelhi-4ef437":{"name":"Municipal Corporation of Delhi","locationSet":{"include":["in-dl"]},"geometry":["area","point"],"matchScore":2,"terms":["mcd","municipal corporation of delhi","sdmc","south delhi municipal corporation","south delhi municipal corporation (s.d.m.c.)"],"tags":{"leisure":"park","operator:wikidata":"Q1192117"},"addTags":{"leisure":"park","operator":"Municipal Corporation of Delhi","operator:short":"MCD","operator:type":"government","operator:wikidata":"Q1192117"}},"man_made/wastewater_plant/delhijalboard-358b63":{"name":"Delhi Jal Board","locationSet":{"include":["in-dl"]},"geometry":["point","area"],"matchScore":2,"terms":["delhi jal board"],"tags":{"man_made":"wastewater_plant","operator:wikidata":"Q5253772"},"addTags":{"man_made":"wastewater_plant","operator":"Delhi Jal Board","operator:wikidata":"Q5253772"}},"power/substation/delhitranscolimited-11b8a1":{"name":"Delhi Transco Limited","locationSet":{"include":["in-dl"]},"geometry":["area","point"],"matchScore":2,"terms":["delhi transco limited"],"tags":{"operator:wikidata":"Q5253827","power":"substation"},"addTags":{"operator":"Delhi Transco Limited","operator:wikidata":"Q5253827","power":"substation"}},"power/transformer/delhitranscolimited-118e32":{"name":"Delhi Transco Limited","locationSet":{"include":["in-dl"]},"geometry":["point","vertex"],"matchScore":2,"terms":["delhi transco limited"],"tags":{"operator:wikidata":"Q5253827","power":"transformer"},"addTags":{"operator":"Delhi Transco Limited","operator:wikidata":"Q5253827","power":"transformer"}}}